{
  "icao": "LPPT",
  "metar": "LPPT 130030Z 33010KT 1300 -RA FEW020 18/14 Q1020 NOSIG"
}
