{
  "icao": "LPPT",
  "taf": "LPPT TAF 130000Z 1300/1406 32010KT CAVOK TEMPO 1302/1306 33015G25KT"
}
