{"icao":"LPCS","metar":"LPCS 192130Z 26006KT 240V300 7000 BKN004 BKN012 20/20 Q1015","updated":"2025-10-20T04:23:58Z"}
