{"icao":"LPMA","metar":"LPMA 120930Z 24007KT 220V300 9999 SCT015 BKN030 16/10 Q1026","updated":"2026-02-12T09:48:44Z"}
