{"icao":"KLAX","metar":"KLAX 122253Z 23013KT 10SM FEW065 BKN080 18/08 A3000 RMK AO2 SLP157 T01830083 $","updated":"2026-04-12T23:33:31Z"}
