{"icao":"LPMR","metar":"LPMR 101500Z VRB02KT 9999 FEW025 14/08 Q1028","updated":"2026-01-10T15:18:24Z"}
