{"icao":"LPPT","metar":"LPPT 031100Z 25012KT 9999 FEW020 FEW025CB 12/09 Q1003","updated":"2026-02-03T11:33:17Z"}
