{"icao":"LPPD","metar":"LPPD 241130Z 26013KT 9999 SCT020 15/11 Q1014","updated":"2026-02-24T11:39:20Z"}
