{"icao":"KJFK","metar":"KJFK 031951Z 25008KT 10SM -RA BKN026 BKN042 BKN055 BKN250 13/09 A2997 RMK AO2 RAB49 SLP147 P0000 T01280094 $","updated":"2025-11-03T20:20:37Z"}
