{"icao":"LPBJ","metar":"LPBJ 200900Z 04004KT CAVOK 08/04 Q1030","updated":"2026-02-20T09:39:00Z"}
