{"icao":"LPFR","metar":"LPFR 041600Z 33007KT 9999 FEW014 SCT035 18/11 Q1000","updated":"2026-01-04T16:23:07Z"}
