{"icao":"LPMT","metar":"LPMT 031700Z 30007KT 270V330 9999 FEW020 SCT035 19/11 Q1014","updated":"2026-05-03T17:45:08Z"}
