{"icao":"LPPR","metar":"LPPR 041900Z 18012KT 9999 FEW040 21/12 Q1011","updated":"2025-11-04T19:14:52Z"}
