{"icao":"LPFL","metar":"LPFL 161630Z 21009KT 170V310 6000 DZ FEW010 BKN015 17/14 Q1016","updated":"2026-02-16T16:41:43Z"}
