{"icao":"KORD","metar":"KORD 210451Z 00000KT 7SM FEW070 SCT095 OVC110 21/19 A3000 RMK AO2 SLP153 T02060189","updated":"2025-09-21T05:16:27Z"}
