{"icao":"LPPD","metar":"LPPD 130800Z 33005KT 9999 FEW025 19/16 Q1026"}
