{"icao":"KJFK","metar":"KJFK 181851Z 20009KT 10SM FEW042 26/17 A2993 RMK AO2 SLP134 T02610167 $","updated":"2025-09-18T19:14:20Z"}
