{"icao":"LPPR","metar":"LPPR 201100Z 04006KT 360V090 9999 FEW020 13/06 Q1032","updated":"2026-02-20T11:30:55Z"}
