{"icao":"LPCS","metar":"LPCS 151230Z 20004KT 180V240 9999 -RA FEW008 SCT018 FEW020TCU 15/15 Q1011","updated":"2025-12-15T12:43:39Z"}
