{"icao":"LPPD","metar":"LPPD 132300Z 30013KT 9999 SCT020 SCT030 14/10 Q1007","updated":"2025-11-13T23:17:56Z"}
