{"icao":"LPPT","metar":"LPPT 300900Z 06011KT CAVOK 13/M01 Q1031","updated":"2026-03-30T09:10:18Z"}
