{"icao":"LPHR","metar":"LPHR 092100Z 21018KT 6000 -RADZ SCT005 BKN010 18/17 Q1023","updated":"2026-01-09T21:20:09Z"}
