{"icao":"LPOV","metar":"LPOV 072200Z 00000KT 9999 FEW018 13/11 Q1011","updated":"2026-05-07T23:01:01Z"}
