{"icao":"KJFK","metar":"KJFK 140151Z 23010KT 10SM FEW050 SCT140 SCT250 20/11 A2998 RMK AO2 SLP150 T02000106","updated":"2026-04-14T02:28:51Z"}
