{"icao":"KJFK","metar":"KJFK 102251Z 18010KT 10SM FEW055 FEW120 BKN220 BKN250 01/M05 A2994 RMK AO2 SLP138 T00061050 $","updated":"2026-02-10T23:36:54Z"}
