{"icao":"LPOV","metar":"LPOV 121200Z 06006KT 030V090 5000 -RA FEW015 12/12 Q1015","updated":"2025-12-13T08:23:36Z"}
