{"icao":"LPOV","metar":"LPOV 311400Z 16011KT 1300 RA BR SCT008 BKN014 18/17 Q1007","updated":"2025-10-31T14:18:08Z"}
