{"icao":"LPPR","metar":"LPPR 271630Z 34014KT 9999 FEW025 14/06 Q1025","updated":"2026-02-27T16:39:02Z"}
