{"icao":"LPMR","metar":"LPMR 040100Z 17004KT CAVOK 13/11 Q1019","updated":"2025-11-04T01:23:11Z"}
