{"icao":"KORD","metar":"KORD 101210Z 17008KT 8SM -RA BKN014 OVC023 03/01 A2999 RMK AO2 RAB02 P0000 T00330011","updated":"2026-01-10T12:37:57Z"}
