{"icao":"KORD","metar":"KORD 111851Z 05017KT 10SM FEW060 13/M03 A3024 RMK AO2 SLP240 T01281028 $","updated":"2026-05-11T18:57:40Z"}
