{"icao":"LPMA","metar":"LPMA 152230Z 36009KT 330V060 9999 SCT016 17/11 Q1024","updated":"2026-05-15T23:00:34Z"}
