{"icao":"KORD","metar":"KORD 021451Z 29005KT 10SM FEW045 FEW250 08/M05 A3012 RMK AO2 SLP202 T00831050 50003 $","updated":"2026-05-02T15:43:55Z"}
