{"icao":"LPPT","metar":"LPPT 111200Z 07006KT 360V170 9999 FEW040 25/14 Q1020","updated":"2025-10-11T12:31:41Z"}
