{"icao":"LPBJ","metar":"LPBJ 150900Z 08005KT CAVOK 17/11 Q1018","updated":"2025-10-15T09:19:25Z"}
