{"icao":"LPBJ","metar":"LPBJ 141100Z 18007KT 140V210 9999 BKN025 24/17 Q1018","updated":"2026-06-14T11:56:01Z"}
