{"icao":"LPPT","metar":"LPPT 281800Z VRB03KT 9999 FEW005 FEW025TCU 16/16 Q1010","updated":"2025-10-28T18:28:00Z"}
