{"icao":"KORD","metar":"KORD 150851Z 17004KT 10SM FEW110 SCT170 BKN250 12/04 A2994 RMK AO2 RAB09E19 SLP136 P0000 60000 T01170039 58020","updated":"2026-05-15T09:46:49Z"}
