{"icao":"LPMT","metar":"LPMT 211100Z 02007KT 350V050 CAVOK 13/09 Q1030","updated":"2026-02-21T11:20:41Z"}
