{"icao":"KJFK","metar":"KJFK 012051Z 30017G23KT 10SM SCT065 BKN250 14/M01 A2997 RMK AO2 PK WND 30030/2021 SLP148 T01391011 53017 $","updated":"2025-11-01T21:14:25Z"}
