{"icao":"LPMT","metar":"LPMT 071300Z 21007KT 170V250 9999 SCT012 BKN040 13/11 Q1014","updated":"2026-04-07T13:16:24Z"}
