{"icao":"LPMT","metar":"LPMT 021300Z 36005KT 300V050 CAVOK 23/09 Q1021","updated":"2026-04-02T13:11:00Z"}
