{"icao":"LPFL","metar":"LPFL 181330Z 35008KT 280V030 9999 FEW027 14/09 Q1028","updated":"2025-12-18T13:35:34Z"}
