{"icao":"LPMR","metar":"LPMR 261700Z 33014KT CAVOK 18/09 Q1014","updated":"2026-03-26T18:04:14Z"}
