{"icao":"LPPR","metar":"LPPR 131230Z 21006KT 180V240 9999 FEW008 SCT011 FEW020CB BKN023 13/12 Q1008","updated":"2026-01-13T12:44:12Z"}
