{"icao":"LPSJ","metar":"LPSJ 211500Z 29011KT 240V310 9999 FEW018 BKN030 19/15 Q1020","updated":"2026-06-21T16:44:13Z"}
