{"icao":"LPPR","metar":"LPPR 150600Z 31003KT 4700 BR BKN003 OVC005 16/16 Q1016","updated":"2026-06-15T06:21:40Z"}
