{"icao":"LPLA","metar":"LPLA 270200Z 35010KT 330V030 9999 OVC035 19/12 Q1022","updated":"2025-09-27T02:52:53Z"}
