{"icao":"LPAZ","metar":"LPAZ 102130Z 21019KT 1100 R18/1200U BR VV002 17/17 Q1014","updated":"2026-02-10T21:40:30Z"}
