{"icao":"LPPI","metar":"LPPI 241300Z VRB04KT 4400 -RA BR SCT003 BKN012 20/19 Q1022","updated":"2026-06-24T13:21:16Z"}
