{"icao":"KORD","metar":"KORD 281651Z 04011KT 10SM BKN070 BKN085 OVC200 01/M11 A3018 RMK AO2 SLP223 VIRGA OHD T00111106 $","updated":"2026-02-28T17:19:50Z"}
