{"icao":"LPPS","metar":"LPPS 011900Z 04008KT 9999 FEW015 21/16 Q1021","updated":"2025-10-01T19:14:16Z"}
