{"icao":"LPHR","metar":"LPHR 280630Z 04003KT 010V080 9999 FEW013 SCT025 14/09 Q1032","updated":"2026-03-28T06:58:45Z"}
