{"icao":"KJFK","metar":"KJFK 251651Z 19011KT 1/4SM R04R/P6000FT -RA BR BKN003 OVC037 22/22 A2986 RMK AO2 SFC VIS 3 RAB00 SLP112 P0001 T02220217 $","updated":"2025-09-25T17:15:12Z"}
