{"icao":"KLAX","metar":"KLAX 180753Z 11005KT 10SM BKN022 BKN050 17/12 A2981 RMK AO2 SLP091 T01670122 402170144","updated":"2026-05-18T08:01:50Z"}
