{"icao":"LPLA","metar":"LPLA 050100Z 36004KT 330V060 9999 FEW025 SCT030 13/08 Q1027","updated":"2026-01-05T01:49:12Z"}
