{"icao":"LPCS","metar":"LPCS 171430Z 32012KT 280V340 9999 FEW020 19/10 Q1018","updated":"2026-05-17T14:54:31Z"}
