{"icao":"LPMT","metar":"LPMT 052100Z 35013KT 320V020 9999 SCT018 SCT030 11/06 Q1019","updated":"2026-03-05T21:33:09Z"}
