{"icao":"LPLA","metar":"LPLA 020900Z 22004KT 160V270 9999 FEW014 23/20 Q1020","updated":"2025-10-02T09:17:55Z"}
