{"icao":"LPMA","metar":"LPMA 260900Z 08005KT 010V130 9999 FEW013 23/17 Q1020","updated":"2026-06-26T09:22:53Z"}
