{"icao":"LPCS","metar":"LPCS 051600Z 35012KT 9999 FEW015 23/15 Q1018","updated":"2025-10-05T16:18:40Z"}
