{"icao":"LPPR","metar":"LPPR 151900Z 24007KT 210V270 9999 FEW012 BKN040 13/11 Q1028","updated":"2026-02-15T19:23:43Z"}
