{"icao":"LPMT","metar":"LPMT 232300Z 32006KT 270V350 9999 BKN020 FEW025CB SCT030 07/05 Q1006","updated":"2026-01-23T23:20:23Z"}
