{"icao":"LPMA","metar":"LPMA 062230Z 30005KT 260V320 9999 FEW014 16/10 Q1017","updated":"2026-04-06T22:35:18Z"}
