{"icao":"KJFK","metar":"KJFK 231851Z 19012KT 10SM FEW050 SCT150 BKN250 25/20 A2998 RMK AO2 SLP153 T02500200 $","updated":"2025-09-23T19:14:21Z"}
