{"icao":"LPCS","metar":"LPCS 181900Z 36004KT 320V030 9999 FEW015 14/13 Q1018","updated":"2025-11-18T19:15:36Z"}
