{"icao":"LPPD","metar":"LPPD 280100Z 01017KT 3500 -RADZ BR SCT007 15/13 Q1024","updated":"2025-11-28T01:22:47Z"}
