{"icao":"LPFL","metar":"LPFL 221500Z 06004KT 340V100 9999 FEW028 BKN035 16/09 Q1024","updated":"2026-03-22T15:24:55Z"}
