{"icao":"KLAX","metar":"KLAX 282053Z 24005KT 10SM FEW160 SCT190 BKN300 20/01 A3018 RMK AO2 SLP221 T02000011 58024","updated":"2026-01-28T21:28:18Z"}
