{"icao":"LPPS","metar":"LPPS 111930Z 04010KT 010V070 9999 SCT012 15/12 Q1025","updated":"2026-03-11T19:40:26Z"}
