{"icao":"KJFK","metar":"KJFK 021051Z 31010KT 10SM SCT250 M09/M18 A2998 RMK SLP152 T10941178 PNO $ ","updated":"2026-02-02T11:34:19Z"}
