{"icao":"KLAX","metar":"KLAX 082053Z VRB03KT 10SM CLR 31/M06 A2982 RMK AO2 SLP097 T03061061 58027 $","updated":"2026-03-08T21:21:58Z"}
