{"icao":"KORD","metar":"KORD 130451Z 27012G24KT 6SM -SN OVC012 M03/M06 A3003 RMK AO2 SNB46 SLP177 P0000 T10331061","updated":"2025-12-13T05:19:42Z"}
