{"icao":"LPPS","metar":"LPPS 161400Z 34016KT 9999 SCT015 17/12 Q1025","updated":"2026-01-16T14:22:11Z"}
