{"icao":"LPPT","metar":"LPPT 252300Z 31012KT CAVOK 13/10 Q1016","updated":"2026-03-25T23:33:37Z"}
