{"icao":"LPPR","metar":"LPPR 250500Z 04003KT 010V070 9999 FEW004 11/10 Q1017","updated":"2026-04-25T05:10:22Z"}
