{"icao":"KORD","metar":"KORD 270151Z 07007KT 10SM OVC250 10/07 A3002 RMK AO2 SLP168 T01000067 $","updated":"2026-04-27T02:40:26Z"}
