{"icao":"LPMR","metar":"LPMR 271700Z 27012G22KT 240V300 9999 VCSH BKN015 FEW018TCU FEW020CB 11/06 Q1002 RESHRA","updated":"2026-01-27T18:37:27Z"}
