{"icao":"LPBJ","metar":"LPBJ 030400Z 29004KT CAVOK 16/12 Q1022","updated":"2025-10-03T04:20:14Z"}
