{"icao":"LPCS","metar":"LPCS 120900Z 07008KT 030V120 9999 FEW035 22/12 Q1017","updated":"2025-10-12T09:15:38Z"}
