{"icao":"LPAZ","metar":"LPAZ 090230Z 33017KT 300V360 9999 -SHRA BKN019 BKN030 13/10 Q1015","updated":"2026-05-09T02:43:33Z"}
