{"icao":"LPMR","metar":"LPMR 140900Z 01001KT 9999 FEW006 SCT028 FEW035CB 21/18 Q1016","updated":"2026-06-14T09:31:11Z"}
