{"icao":"LPFR","metar":"LPFR 300300Z VRB02KT CAVOK 17/16 Q1013","updated":"2025-10-30T03:09:50Z"}
