{"icao":"LPMT","metar":"LPMT 011000Z 27004KT 220V310 9999 SCT027 19/09 Q1019","updated":"2026-05-01T10:39:40Z"}
