{"icao":"LPOV","metar":"LPOV 140900Z VRB01KT CAVOK 16/13 Q1018","updated":"2025-10-14T09:19:48Z"}
