{"icao":"LPFL","metar":"LPFL 161230Z 18021G34KT 150V210 9999 FEW008 BKN012 17/14 Q1018","updated":"2026-02-16T13:00:45Z"}
