{"icao":"LPOV","metar":"LPOV 191700Z 34010KT 9999 FEW008 21/17 Q1015 RMK RH80 SCT220 BLU","updated":"2026-06-19T17:56:59Z"}
