{"icao":"KJFK","metar":"KJFK 280851Z 28011KT 10SM CLR M09/M16 A3012 RMK AO2 SLP198 T10891161 51012 $","updated":"2026-01-28T09:32:47Z"}
