{"icao":"KORD","metar":"KORD 132151Z 23012G25KT 10SM FEW250 09/02 A2951 RMK AO2 PK WND 22027/2104 SLP996 T00890017 $","updated":"2026-01-13T22:21:24Z"}
