{"icao":"KJFK","metar":"KJFK 141351Z 02006KT 10SM FEW100 SCT250 23/16 A3004 RMK AO2 SLP173 T02330161 $","updated":"2025-09-14T14:13:37Z"}
