{"icao":"LPMT","metar":"LPMT 122100Z 16008KT 2500 -RA BR SCT009 SCT012 OVC015 14/14 Q1011","updated":"2026-02-12T21:32:03Z"}
