{"icao":"LPPD","metar":"LPPD 021400Z 10008KT 070V130 9999 FEW018 BKN028 21/16 Q1021","updated":"2025-11-02T14:14:41Z"}
