{"icao":"KORD","metar":"KORD 171751Z 13006KT 10SM SCT150 OVC250 12/04 A2987 RMK AO2 SLP117 T01170044 10117 20050 58017 $","updated":"2026-02-17T17:55:07Z"}
