{"icao":"LPST","metar":"LPST 221600Z 26006KT 230V290 9999 FEW010 OVC022 22/19 Q1018","updated":"2025-10-23T06:27:15Z"}
