{"icao":"LPOV","metar":"LPOV 030700Z 06003KT 010V110 9999 SCT030 12/10 Q1013","updated":"2026-03-03T07:40:58Z"}
