{"icao":"LPFR","metar":"LPFR 111800Z 13006KT CAVOK 28/17 Q1017","updated":"2026-06-11T18:10:16Z"}
