{"icao":"LPPD","metar":"LPPD 111800Z 16006KT 120V190 9999 SCT015 SCT035 20/17 Q1025","updated":"2026-06-11T18:10:18Z"}
