{"icao":"LPLA","metar":"LPLA 101900Z 36005KT 320V040 9999 FEW008 BKN012 BKN030 19/16 Q1028","updated":"2026-06-10T19:36:58Z"}
