{"icao":"KORD","metar":"KORD 041814Z 26014G27KT 10SM BKN010 BKN015 OVC110 09/06 A2984 RMK AO2 PK WND 25027/1812 T00890056 $","updated":"2026-04-04T18:40:15Z"}
