{"icao":"KLAX","metar":"KLAX 051453Z 36010KT 10SM FEW005 FEW015 15/01 A2992 RMK AO2 SLP131 T01500011 53007","updated":"2026-03-05T15:49:22Z"}
