{"icao":"LPPR","metar":"LPPR 270130Z 12007KT 9999 FEW011 11/10 Q1025","updated":"2026-02-27T01:57:57Z"}
