{"icao":"LPFR","metar":"LPFR 020930Z 07007KT 030V090 9999 FEW012 BKN016 14/10 Q1012","updated":"2026-03-02T09:47:56Z"}
