{"icao":"LPST","metar":"LPST 071100Z 36011KT 8000 FEW008 BKN017 12/10 Q1026","updated":"2026-01-07T11:19:11Z"}
