{"icao":"LPPT","metar":"LPPT 201930Z 33009KT CAVOK 12/08 Q1028","updated":"2026-02-20T19:35:38Z"}
