{"icao":"KLAX","metar":"KLAX 131653Z 36003KT 10SM CLR 17/01 A3020 RMK AO2 SLP226 T01720006 $","updated":"2026-01-13T17:25:48Z"}
