{"icao":"LPMA","metar":"LPMA 191030Z 04012KT 360V060 9999 BKN013 16/12 Q1028","updated":"2026-02-19T10:41:22Z"}
