{"icao":"KLAX","metar":"KLAX 030553Z 26012KT 10SM FEW006 FEW012 19/18 A2999 RMK AO2 SLP153 T01940178 10217 20194 51004 $","updated":"2025-10-03T06:26:25Z"}
