{"icao":"LPFR","metar":"LPFR 132200Z 23004KT CAVOK 20/18 Q1015","updated":"2025-10-13T22:16:16Z"}
