{"icao":"LPHR","metar":"LPHR 271900Z 22003KT 190V250 9999 SCT018 16/12 Q1034","updated":"2026-02-27T19:32:06Z"}
