{"icao":"KJFK","metar":"KJFK 121051Z 05018G29KT 10SM FEW030 SCT060 SCT110 BKN150 BKN250 17/10 A3007 RMK AO2 PK WND 05029/1051 SLP183 T01670100","updated":"2025-10-12T11:13:02Z"}
