{"icao":"KLAX","metar":"KLAX 202253Z 24006KT 6SM HZ FEW010 FEW220 SCT280 17/12 A3002 RMK AO2 SLP164 T01720122 $","updated":"2025-12-20T23:17:06Z"}
