{"icao":"LPPT","metar":"LPPT 022100Z 31007KT 270V350 9999 FEW020 10/08 Q1018","updated":"2025-12-02T21:18:27Z"}
