{"icao":"LPCS","metar":"LPCS 241830Z 24007KT 210V280 9999 FEW009 21/18 Q1013","updated":"2026-06-24T18:49:59Z"}
