{"icao":"KORD","metar":"KORD 111251Z 27005KT 10SM FEW025 M03/M07 A3019 RMK AO2 SLP231 T10331067 $","updated":"2026-02-11T13:07:19Z"}
