{"icao":"KJFK","metar":"KJFK 152151Z 29010KT 10SM FEW050 SCT100 BKN180 BKN250 M02/M11 A3021 RMK AO2 SLP228 T10221106 $","updated":"2025-12-15T22:19:31Z"}
