{"icao":"LPMA","metar":"LPMA 090730Z VRB02KT 9999 FEW015 17/12 Q1011","updated":"2026-05-09T07:54:09Z"}
