{"icao":"LPPT","metar":"LPPT 111300Z 06007KT 340V100 9999 FEW045 27/13 Q1018","updated":"2025-10-11T13:20:09Z"}
