{"icao":"LPHR","metar":"LPHR 201000Z 32011KT 280V360 9999 FEW030 14/08 Q1032","updated":"2025-12-20T10:18:53Z"}
