{"icao":"LPBJ","metar":"LPBJ 081400Z 29005KT 230V330 9999 OVC025 11/06 Q1032","updated":"2026-01-08T14:23:47Z"}
