{"icao":"LPOV","metar":"LPOV 291200Z 22006KT 180V260 9999 BKN018 19/17 Q1007","updated":"2025-10-29T12:39:13Z"}
