{"icao":"LPPS","metar":"LPPS 170230Z 23003KT 150V280 9999 FEW014 21/18 Q1021","updated":"2025-09-17T02:54:43Z"}
