{"icao":"LPOV","metar":"LPOV 011500Z 18012KT 9999 FEW030 15/07 Q1018","updated":"2025-12-01T15:20:25Z"}
