{"icao":"LPPT","metar":"LPPT 081230Z 31009KT 280V350 9999 FEW012 BKN028 20/12 Q1022","updated":"2025-10-08T12:37:26Z"}
