{"icao":"LPPS","metar":"LPPS 131800Z 06010KT 9999 SCT015 BKN030 24/18 Q1022","updated":"2025-09-13T18:20:43Z"}
