{"icao":"LPOV","metar":"LPOV 081700Z 33009KT 9999 FEW014 18/16 Q1021","updated":"2025-10-08T17:15:24Z"}
