{"icao":"LPPD","metar":"LPPD 101930Z 34011KT 300V010 9999 VCSH FEW006 SCT012 BKN040 16/14 Q1028","updated":"2026-04-10T19:42:30Z"}
