{"icao":"LPPT","metar":"LPPT 221400Z 06007KT 010V090 9999 FEW030 19/14 Q1011","updated":"2026-03-22T14:26:50Z"}
