{"icao":"LPPT","metar":"LPPT 211300Z 32013G28KT 290V350 8000 SHRA FEW025 FEW030CB SCT035 08/05 Q1009","updated":"2025-12-21T13:26:35Z"}
