{"icao":"LPBJ","metar":"LPBJ 020100Z 35003KT CAVOK 19/12 Q1020","updated":"2025-10-02T01:16:45Z"}
