{"icao":"LPPT","metar":"LPPT 010600Z 02003KT CAVOK 08/03 Q1020","updated":"2025-12-01T06:31:32Z"}
