{"icao":"LPMR","metar":"LPMR 051800Z 32014KT 290V350 9999 SCT025 17/09 Q1016","updated":"2026-05-05T18:09:32Z"}
