{"icao":"LPHR","metar":"LPHR 131830Z 20009KT 150V210 9999 FEW022 17/11 Q1031","updated":"2026-03-13T18:40:55Z"}
