{"icao":"KLAX","metar":"KLAX 211653Z 12009KT 10SM FEW025 BKN055 BKN160 BKN250 19/10 A3004 RMK AO2 SLP173 T01890100 $","updated":"2026-04-21T16:59:48Z"}
