{"icao":"LPAZ","metar":"LPAZ 282200Z 15006KT 9999 FEW030 21/15 Q1028","updated":"2025-09-28T22:15:06Z"}
