{"icao":"LPPS","metar":"LPPS 270530Z 35015KT 9999 SCT015 BKN030 16/11 Q1017","updated":"2026-04-27T05:52:34Z"}
