{"icao":"KJFK","metar":"KJFK 171751Z 32011KT 10SM FEW140 SCT250 17/00 A2996 RMK AO2 SLP146 T01670000 10167 20094 58015","updated":"2025-10-17T18:23:27Z"}
