{"icao":"LPHR","metar":"LPHR 190800Z 28011KT 6000 VCSH SCT001 BKN004 22/22 Q1016","updated":"2025-10-19T08:20:57Z"}
