{"icao":"KORD","metar":"KORD 080651Z 24010KT 10SM BKN016 01/M02 A2994 RMK AO2 SLP142 T00111022","updated":"2026-03-08T07:30:09Z"}
