{"icao":"LPST","metar":"LPST 211300Z 27016KT 5000 BR OVC006 15/14 Q1006","updated":"2026-01-21T13:43:56Z"}
