{"icao":"LPCS","metar":"LPCS 290930Z 25014KT 4000 -DZ BR FEW002 BKN004 15/15 Q1009","updated":"2026-01-29T09:40:45Z"}
