{"icao":"LPOV","metar":"LPOV 102200Z VRB01KT CAVOK 15/12 Q1020","updated":"2025-10-10T22:15:21Z"}
