{"icao":"LPOV","metar":"LPOV 150900Z 17005KT 9999 FEW018 BKN040 10/10 Q1029","updated":"2026-02-15T09:29:53Z"}
