{"icao":"LPMT","metar":"LPMT 232200Z 32013KT 290V350 9999 -SHRA BKN020 FEW025CB SCT030 07/04 Q1005","updated":"2026-01-23T22:17:31Z"}
