{"icao":"LPAZ","metar":"LPAZ 291700Z 31010KT 9999 FEW016 BKN019 18/14 Q1028","updated":"2025-11-29T17:15:41Z"}
