{"icao":"LPAZ","metar":"LPAZ 272100Z 18007KT 9999 BKN035 18/14 Q1023","updated":"2025-11-27T21:16:53Z"}
