{"icao":"LPMA","metar":"LPMA 220900Z 03013KT 360V070 8000 3000NE SHRA BKN013 FEW018CB 16/15 Q1001","updated":"2026-03-22T09:31:22Z"}
