{"icao":"KJFK","metar":"KJFK 031151Z 28009KT 10SM FEW050 FEW250 M04/M14 A2996 RMK AO2 SLP146 T10441144 11033 21044 53013 $","updated":"2026-01-03T12:37:38Z"}
