{"icao":"KJFK","metar":"KJFK 060851Z 22006KT 10SM FEW250 17/15 A3028 RMK AO2 SLP253 T01670150 56002","updated":"2025-10-06T09:21:05Z"}
