{"icao":"LPFL","metar":"LPFL 201030Z 35016KT 320V030 9999 VCSH FEW020 BKN030 12/05 Q1024","updated":"2026-04-20T10:46:59Z"}
