{"icao":"KORD","metar":"KORD 160451Z 32013KT 10SM SCT200 12/00 A2972 RMK AO2 SLP062 T01170000 $","updated":"2025-11-16T05:17:41Z"}
