{"icao":"LPST","metar":"LPST 031700Z 05010KT 020V080 CAVOK 20/09 Q1011","updated":"2026-03-04T01:56:45Z"}
