{"icao":"LPMT","metar":"LPMT 031100Z VRB02KT CAVOK 15/11 Q1023","updated":"2025-11-03T11:15:30Z"}
