{"icao":"KJFK","metar":"KJFK 040951Z 27007KT 10SM CLR 15/11 A3021 RMK AO2 SLP229 T01500111","updated":"2025-10-04T10:16:03Z"}
