{"icao":"LPPR","metar":"LPPR 101600Z 35009KT 9999 FEW020 15/12 Q1022","updated":"2025-12-10T16:26:35Z"}
