{"icao":"LPMR","metar":"LPMR 191700Z 33013KT CAVOK 22/15 Q1015 RMK WIND PK 35019/33 RH62 SCT250 BLU","updated":"2026-06-19T17:58:01Z"}
