{"icao":"LPPT","metar":"LPPT 021230Z 24016KT 9999 4000W -SHRA FEW015 FEW025CB SCT045 12/07 Q1000","updated":"2026-02-02T12:57:09Z"}
