{"icao":"KJFK","metar":"KJFK 150351Z 15005KT 10SM SCT110 BKN250 19/18 A3012 RMK AO2 SLP197 T01940178 $","updated":"2025-09-15T04:21:14Z"}
