{"icao":"LPFR","metar":"LPFR 272100Z 24004KT CAVOK 15/11 Q1015","updated":"2026-03-27T21:32:32Z"}
