{"icao":"KJFK","metar":"KJFK 220251Z 19013KT 10SM FEW120 SCT180 BKN250 17/13 A2980 RMK AO2 SLP090 T01720128 58014","updated":"2025-10-22T03:09:56Z"}
