{"icao":"KJFK","metar":"KJFK 192151Z 27022G36KT 10SM -RA SCT037 BKN080 BKN100 07/02 A2947 RMK AO2 PK WND 27043/2139 RAB26 SLP980 CB DSNT NE P0000 T00720017","updated":"2025-12-19T22:19:28Z"}
