{"icao":"LPFL","metar":"LPFL 221930Z 10003KT 040V170 9999 FEW018 18/12 Q1019","updated":"2026-05-22T20:42:08Z"}
