{"icao":"KORD","metar":"KORD 181951Z 21010KT 10SM BKN041 06/M03 A2996 RMK AO2 SLP152 T00561028 $","updated":"2026-03-18T20:34:22Z"}
