{"icao":"LPMR","metar":"LPMR 011100Z 20004KT 9999 FEW010 SCT018 BKN035 17/15 Q1018","updated":"2025-11-01T11:13:10Z"}
