{"icao":"LPPR","metar":"LPPR 131230Z 20010KT 6000 -DZ SCT003 BKN005 OVC007 12/11 Q1022","updated":"2026-03-13T12:55:52Z"}
