{"icao":"LPHR","metar":"LPHR 262300Z 28025G42KT 9000 -SHRA SCT025 BKN035 12/06 Q1008","updated":"2026-01-26T23:20:57Z"}
