{"icao":"LPMA","metar":"LPMA 131300Z 03009KT 350V110 9999 SCT015 FEW016CB 21/12 Q1003","updated":"2025-11-13T13:31:41Z"}
