{"icao":"LPMA","metar":"LPMA 241300Z 05006KT 330V130 9999 SCT015 24/17 Q1017","updated":"2026-06-24T13:21:17Z"}
