{"icao":"KLAX","metar":"KLAX 171853Z 26010KT 10SM FEW260 FEW300 30/12 A2993 RMK AO2 SLP135 T03000117 $","updated":"2026-03-17T19:06:38Z"}
