{"icao":"LPPT","metar":"LPPT 071700Z 31012KT 9999 FEW025 21/14 Q1021","updated":"2025-10-07T17:15:19Z"}
