{"icao":"LPAR","metar":"LPAR 231100Z 06003KT 350V110 CAVOK 14/10 Q1025","updated":"2026-02-23T11:38:52Z"}
