{"icao":"LPBJ","metar":"LPBJ 161900Z 33016KT 9999 OVC040 11/08 Q1013","updated":"2025-12-16T19:18:04Z"}
