{"icao":"LPPR","metar":"LPPR 290130Z 23014KT 210V270 4700 -RADZ BR OVC002 15/14 Q0999","updated":"2026-01-29T01:56:10Z"}
