{"icao":"LPMT","metar":"LPMT 071900Z 33009KT 290V350 CAVOK 19/15 Q1021","updated":"2025-10-07T19:13:43Z"}
