{"icao":"KLAX","metar":"KLAX 130453Z 33005KT 10SM CLR 19/12 A2970 RMK AO2 SLP056 T01940122 $","updated":"2025-10-13T05:17:47Z"}
