{"icao":"LPPR","metar":"LPPR 170000Z 33001KT 9999 FEW006 15/14 Q1018","updated":"2026-06-17T00:14:31Z"}
