{"icao":"KJFK","metar":"KJFK 260951Z 24009KT 10SM FEW110 FEW250 01/M02 A2982 RMK AO2 SLP097 T00061022 $","updated":"2026-02-26T10:44:04Z"}
