{"icao":"LPMA","metar":"LPMA 131300Z 04008KT 010V090 9999 FEW015 24/16 Q1017","updated":"2025-10-13T13:29:02Z"}
