{"icao":"KORD","metar":"KORD 272151Z 23011G18KT 10SM BKN090 18/M05 A2972 RMK AO2 SLP066 T01831050","updated":"2026-02-27T22:21:43Z"}
