{"icao":"KORD","metar":"KORD 121751Z 24007KT 10SM SCT021 BKN160 BKN250 M01/M07 A3009 RMK AO2 SLP199 4/001 T10111067 11011 21067 58007","updated":"2025-12-12T18:30:31Z"}
