{"icao":"LPPT","metar":"LPPT 310700Z VRB02KT 0150 R02/0325N FG VV001 05/05 Q1019","updated":"2025-12-31T07:22:39Z"}
