{"icao":"LPOV","metar":"LPOV 011300Z 19013KT 4000 -RADZ BR FEW003 BKN005 BKN008 14/14 Q1010","updated":"2026-02-01T13:41:43Z"}
