{"icao":"KORD","metar":"KORD 101351Z 02010KT 8SM OVC007 09/07 A2984 RMK AO2 SLP106 T00890067","updated":"2026-03-10T14:03:17Z"}
