{"icao":"KORD","metar":"KORD 050451Z 20010G20KT 10SM FEW060 SCT250 13/07 A2989 RMK AO2 SLP122 T01280072 $","updated":"2025-11-05T05:19:39Z"}
