{"icao":"KORD","metar":"KORD 182051Z 28013G30KT 8SM -RA BKN012 OVC040 04/03 A2937 RMK AO2 PK WND 27031/2015 SLP947 P0002 60011 T00440028 53019","updated":"2025-12-18T21:16:56Z"}
