{"icao":"LPPT","metar":"LPPT 080900Z 31008KT 290V350 9999 FEW012 SCT016 BKN034 18/14 Q1023","updated":"2025-10-08T09:19:07Z"}
