{"icao":"LPFL","metar":"LPFL 112100Z 33018G29KT 300V360 9999 VCSH SCT025 FEW026TCU 15/09 Q1008","updated":"2025-11-11T21:16:35Z"}
