{"icao":"LPMR","metar":"LPMR 141800Z 29003KT 240V320 CAVOK 18/14 Q1016","updated":"2025-10-14T18:26:17Z"}
