{"icao":"LPMR","metar":"LPMR 181500Z 32010KT CAVOK 20/13 Q1016","updated":"2026-04-18T15:36:05Z"}
