{"icao":"LPHR","metar":"LPHR 142100Z 30017G28KT 280V340 9999 SCT012 BKN030 16/15 Q1020","updated":"2026-01-14T21:20:39Z"}
