{"icao":"KLAX","metar":"KLAX 280053Z 26008KT 10SM FEW015 SCT024 BKN035 BKN190 21/16 A2988 RMK AO2 SLP117 T02110161 $","updated":"2025-09-28T01:25:38Z"}
