{"icao":"LPFR","metar":"LPFR 251430Z 10011KT 9999 FEW022 17/14 Q1015","updated":"2026-02-25T14:46:29Z"}
