{"icao":"KJFK","metar":"KJFK 182151Z 01007KT 1SM R04R/P6000FT -SN BR OVC015 01/00 A2985 RMK AO2 SFC VIS 3 SLP106 P0000 T00060000 $","updated":"2026-01-18T22:18:56Z"}
