{"icao":"LPLA","metar":"LPLA 162300Z 23013G24KT 9999 -RA SCT015 SCT018 BKN030 18/16 Q1023","updated":"2025-12-16T23:17:56Z"}
