{"icao":"LPMA","metar":"LPMA 271030Z 36013G24KT 330V040 9999 SCT016 17/10 Q1018","updated":"2026-03-27T10:48:12Z"}
