{"icao":"LPLA","metar":"LPLA 171800Z 29021KT 9999 FEW025 16/08 Q1020","updated":"2026-02-17T18:56:33Z"}
