{"icao":"LPMA","metar":"LPMA 142330Z 02011KT 340V040 9999 BKN015 16/11 Q1025","updated":"2026-04-14T23:47:14Z"}
