{"icao":"LPPD","metar":"LPPD 121030Z 21006G19KT 180V240 9999 FEW025 14/06 Q1032","updated":"2026-04-12T10:37:10Z"}
