{"icao":"LPPR","metar":"LPPR 232000Z 22009KT 190V260 9999 -RADZ FEW009 BKN015 14/13 Q1021","updated":"2025-11-23T20:19:47Z"}
