{"icao":"KJFK","metar":"KJFK 221107Z 14010KT 10SM BKN020 BKN041 OVC100 06/04 A2993 RMK AO2 T00610044 $","updated":"2026-03-22T11:22:26Z"}
