{"icao":"LPPR","metar":"LPPR 220100Z 08005KT CAVOK 06/02 Q1030","updated":"2025-11-22T01:20:29Z"}
