{"icao":"LPMA","metar":"LPMA 141830Z 02011KT 320V080 9999 SCT015 FEW016TCU 17/12 Q1020","updated":"2026-05-14T18:59:18Z"}
