{"icao":"LPPD","metar":"LPPD 270800Z 36007KT 330V030 9999 FEW020 17/12 Q1023","updated":"2025-09-27T08:20:01Z"}
