{"icao":"KORD","metar":"KORD 010851Z 35008KT 10SM CLR M11/M17 A3004 RMK AO2 SLP182 T11111167 51019","updated":"2026-01-01T09:23:56Z"}
