{"icao":"LPFR","metar":"LPFR 061300Z 11012KT 9999 FEW030 18/12 Q1018","updated":"2026-04-06T13:07:11Z"}
