{"icao":"LPLA","metar":"LPLA 152100Z 19011KT 160V220 9999 FEW017 22/18 Q1006","updated":"2025-10-15T21:15:45Z"}
