{"icao":"KJFK","metar":"KJFK 021951Z 19012KT 10SM SCT250 13/05 A3027 RMK AO2 SLP249 T01330050 $","updated":"2025-11-02T20:17:35Z"}
