{"icao":"LPMA","metar":"LPMA 041600Z 36009KT 330V030 9999 SCT015 FEW018CB 19/13 Q1009","updated":"2026-01-04T16:23:28Z"}
