{"icao":"KJFK","metar":"KJFK 070351Z 29007KT 10SM FEW250 02/M04 A2999 RMK AO2 SLP155 T00221044 $","updated":"2025-12-07T04:31:49Z"}
