{"icao":"LPST","metar":"LPST 181000Z 06003KT 020V090 CAVOK 16/10 Q1020","updated":"2025-11-18T10:21:37Z"}
