{"icao":"LPAZ","metar":"LPAZ 192030Z 01020G30KT 340V040 4000 SHRA BR SCT005 BKN015 FEW020TCU 13/11 Q0997","updated":"2026-03-19T20:36:06Z"}
