{"icao":"KLAX","metar":"KLAX 060253Z 26007KT 10SM OVC015 18/15 A2985 RMK AO2 SLP104 T01830150 55001 $","updated":"2026-06-06T02:58:59Z"}
