{"icao":"LPMT","metar":"LPMT 302100Z 29015KT 260V320 9999 SCT022 14/10 Q1015","updated":"2026-01-30T21:26:45Z"}
