{"icao":"LPMT","metar":"LPMT 311200Z 19014G24KT 160V220 9999 SCT012 BKN018 BKN045 21/17 Q1013","updated":"2025-10-31T12:37:50Z"}
