{"icao":"LPPR","metar":"LPPR 281800Z 34009KT CAVOK 12/08 Q1025","updated":"2026-02-28T18:31:30Z"}
