{"icao":"LPLA","metar":"LPLA 220500Z 17009KT 9000 -SHRA SCT025 SCT030 BKN045 20/15 Q1024","updated":"2025-09-22T05:17:44Z"}
