{"icao":"KLAX","metar":"KLAX 250653Z 10003KT 10SM FEW004 FEW009 SCT200 20/18 A2996 RMK AO2 SLP144 T02000183 $","updated":"2025-09-25T07:17:45Z"}
