{"icao":"KLAX","metar":"KLAX 101553Z 26006KT 9SM FEW010 BKN014 BKN110 BKN250 17/14 A2997 RMK AO2 SLP147 T01670139","updated":"2026-04-10T16:49:56Z"}
