{"icao":"LPPT","metar":"LPPT 031030Z 24009KT 220V280 9999 FEW022 FEW030TCU 12/09 Q1003","updated":"2026-02-03T10:38:22Z"}
