{"icao":"LPPD","metar":"LPPD 022100Z 01005KT 340V040 9999 SCT015 BKN030 19/17 Q1019","updated":"2025-11-02T21:14:29Z"}
