{"icao":"LPPS","metar":"LPPS 091000Z 06008KT 040V100 9999 FEW015 BKN030 21/12 Q1023","updated":"2025-11-09T10:17:20Z"}
