{"icao":"LPFR","metar":"LPFR 280430Z 22031G43KT 6000 -RA FEW016 SCT022 BKN040 15/12 Q1001","updated":"2026-01-28T04:42:32Z"}
