{"icao":"LPPT","metar":"LPPT 122130Z 31011KT 280V340 CAVOK 25/13 Q1018 WS R02","updated":"2026-06-12T21:41:56Z"}
