{"icao":"LPAZ","metar":"LPAZ 111600Z 04013KT 8000 -SHRA FEW007 BKN010 14/13 Q1019","updated":"2026-05-11T16:31:56Z"}
