{"icao":"LPFR","metar":"LPFR 172300Z VRB02KT CAVOK 14/12 Q1016","updated":"2025-11-17T23:17:03Z"}
