{"icao":"LPPD","metar":"LPPD 211000Z 04008KT 010V070 9999 FEW025 BKN040 15/09 Q1032","updated":"2025-11-21T10:19:55Z"}
