{"icao":"KORD","metar":"KORD 161751Z 32011G19KT 10SM FEW250 08/M12 A2991 RMK AO2 SLP132 T00781117 10083 20028 58011 $","updated":"2025-11-16T18:24:30Z"}
