{"icao":"LPOV","metar":"LPOV 140600Z 15004KT CAVOK 10/10 Q1016","updated":"2026-01-14T06:32:24Z"}
