{"icao":"LPMA","metar":"LPMA 120900Z 34017G30KT 280V010 9999 -SHRA BKN015 15/10 Q1021","updated":"2025-12-12T09:23:35Z"}
