{"icao":"LPPR","metar":"LPPR 241600Z 31005KT 280V340 9999 BKN020 BKN030 18/13 Q1015","updated":"2025-10-24T16:22:19Z"}
