{"icao":"LPMA","metar":"LPMA 221730Z 35015KT 290V040 9999 FEW015 24/16 Q1018","updated":"2026-06-22T17:39:35Z"}
