{"icao":"LPBJ","metar":"LPBJ 141400Z 29012KT 9999 OVC028 16/10 Q1017","updated":"2026-03-14T14:26:58Z"}
