{"icao":"KLAX","metar":"KLAX 021053Z 05005KT 10SM SCT220 14/10 A3004 RMK AO2 SLP170 T01390100","updated":"2026-02-02T11:34:19Z"}
