{"icao":"LPPS","metar":"LPPS 051700Z 03019G29KT 010V070 9999 SCT015 SCT030 14/10 Q1021","updated":"2026-01-05T17:21:52Z"}
