{"icao":"LPBJ","metar":"LPBJ 021400Z 34016KT 300V020 CAVOK 27/12 Q1019","updated":"2026-06-02T14:51:07Z"}
