{"icao":"LPFL","metar":"LPFL 260930Z 18016KT 150V220 9999 FEW018 BKN028 16/10 Q1018","updated":"2026-04-26T10:01:20Z"}
