{"icao":"LPPD","metar":"LPPD 281230Z 04010KT 010V070 9999 FEW020 BKN030 15/10 Q1033","updated":"2026-03-28T12:53:07Z"}
