{"icao":"LPPR","metar":"LPPR 211100Z 12007KT 080V140 9999 FEW022 SCT034 BKN042 08/06 Q1007","updated":"2025-12-21T11:15:35Z"}
