{"icao":"LPFR","metar":"LPFR 260130Z 04006KT CAVOK 13/11 Q1020","updated":"2026-02-26T01:58:37Z"}
