{"icao":"LPFR","metar":"LPFR 260930Z 04007KT 010V090 CAVOK 22/10 Q1013","updated":"2026-03-26T10:00:06Z"}
