{"icao":"KORD","metar":"KORD 011651Z 29007KT 10SM SCT029 SCT250 08/01 A3006 RMK AO2 SLP182 T00830011 $","updated":"2025-11-01T17:13:54Z"}
