{"icao":"LPLA","metar":"LPLA 101300Z 34008KT 300V360 9999 FEW008 BKN014 BKN032 21/17 Q1029","updated":"2026-06-10T13:34:08Z"}
