{"icao":"LPCS","metar":"LPCS 191000Z 02004KT 350V060 9999 FEW022 BKN045 15/10 Q1018","updated":"2025-11-19T10:20:50Z"}
