{"icao":"LPPR","metar":"LPPR 011900Z 31004KT CAVOK 17/14 Q1021","updated":"2025-10-01T19:13:42Z"}
