{"icao":"KJFK","metar":"KJFK 171851Z 29023G37KT 10SM SCT055 07/M08 A2977 RMK AO2 PK WND 28037/1835 SLP079 T00671078 $","updated":"2025-11-17T19:14:57Z"}
