{"icao":"LPPT","metar":"LPPT 280630Z 36007KT CAVOK 13/03 Q1020","updated":"2026-03-28T06:58:25Z"}
