{"icao":"LPBJ","metar":"LPBJ 150100Z 30006KT CAVOK 19/15 Q1020","updated":"2025-09-15T01:23:14Z"}
