{"icao":"LPMT","metar":"LPMT 140900Z VRB02KT 9999 FEW015 BKN020 16/12 Q1023","updated":"2026-04-14T09:16:14Z"}
