{"icao":"LPMR","metar":"LPMR 081800Z 33002KT 9999 FEW035 14/11 Q1022","updated":"2025-11-08T18:23:32Z"}
