{"icao":"LPMR","metar":"LPMR 072200Z 35001KT 2000 BR SCT002 15/14 Q1023","updated":"2025-10-07T22:16:05Z"}
