{"icao":"KJFK","metar":"KJFK 050651Z 07010KT 2 1/2SM -DZ BR OVC004 07/06 A3007 RMK AO2 PK WND 09026/0611 PRESFR SLP183 P0000 T00670061","updated":"2026-04-05T07:04:12Z"}
