{"icao":"LPBJ","metar":"LPBJ 012200Z 28003KT 6000 SCT003 BKN012 BKN045 17/16 Q1022 RERA","updated":"2025-11-01T22:15:23Z"}
