{"icao":"LPPT","metar":"LPPT 221230Z 36013KT 330V030 CAVOK 21/06 Q1019","updated":"2025-09-22T12:36:45Z"}
