{"icao":"KORD","metar":"KORD 180751Z 19008KT 10SM SCT110 BKN250 19/13 A2968 RMK AO2 SLP048 T01890133","updated":"2025-10-18T08:21:16Z"}
