{"icao":"LPPD","metar":"LPPD 230830Z 18018KT 9999 FEW011 SCT020 BKN030 16/14 Q1016","updated":"2026-02-23T08:50:04Z"}
