{"icao":"LPCS","metar":"LPCS 201400Z 31011KT 280V340 9999 FEW006 SCT013 BKN022 13/12 Q1015","updated":"2025-12-20T14:16:50Z"}
