{"icao":"KLAX","metar":"KLAX 172153Z 26010KT 10SM FEW250 FEW300 27/12 A2990 RMK AO2 SLP125 T02720117 $","updated":"2026-03-17T22:32:01Z"}
