{"icao":"LPAZ","metar":"LPAZ 010800Z 05010KT 9999 FEW027 BKN044 17/09 Q1017","updated":"2025-11-01T08:21:31Z"}
