{"icao":"KLAX","metar":"KLAX 230653Z 26009KT 10SM FEW250 16/12 A3004 RMK AO2 SLP169 T01560117 $","updated":"2026-04-23T07:49:55Z"}
