{"icao":"LPMT","metar":"LPMT 232000Z 31004KT 9999 FEW035 16/10 Q1014","updated":"2026-04-23T20:51:11Z"}
