{"icao":"LPBJ","metar":"LPBJ 201100Z 31006KT 3500 PRFG FEW004 08/08 Q1021","updated":"2026-01-20T11:22:24Z"}
