{"icao":"LPHR","metar":"LPHR 081700Z 33008KT 270V020 9999 FEW016 SCT035 18/11 Q1018 WS R28","updated":"2026-05-08T17:15:35Z"}
