{"icao":"LPOV","metar":"LPOV 251500Z 21002KT 140V310 9999 SCT040 15/13 Q1018","updated":"2026-02-25T16:01:09Z"}
