{"icao":"LPCS","metar":"LPCS 260700Z 01008KT 9999 FEW010 SCT025 15/15 Q1016","updated":"2025-10-26T07:15:26Z"}
