{"icao":"LPPR","metar":"LPPR 200300Z 02006KT CAVOK 08/05 Q1020","updated":"2025-11-20T03:08:26Z"}
