{"icao":"LPPS","metar":"LPPS 201900Z 31012KT 9999 FEW015 17/11 Q1023","updated":"2025-12-20T19:14:30Z"}
