{"icao":"LPMA","metar":"LPMA 141630Z 01014G24KT 340V040 9999 SCT015 FEW016TCU 17/13 Q1019","updated":"2026-05-14T16:59:28Z"}
