{"icao":"KORD","metar":"KORD 070851Z 35011KT 5SM -TSRA BR BKN006 BKN023 OVC029CB 16/15 A3001 RMK AO2 SLP160 OCNL LTGIC SE TS SE MOV E P0023 60070 T01610150 58003 $","updated":"2025-10-07T09:19:19Z"}
