{"icao":"LPFR","metar":"LPFR 140300Z 22013KT 9999 SCT025 19/15 Q1005","updated":"2025-11-14T03:11:55Z"}
