{"icao":"LPAZ","metar":"LPAZ 221730Z 26027KT 9999 SCT026 BKN032 16/10 Q1002","updated":"2026-04-22T18:03:02Z"}
