{"icao":"LPFL","metar":"LPFL 270800Z 03005KT 350V080 9999 FEW026 BKN040 19/10 Q1025","updated":"2025-09-27T08:20:02Z"}
