{"icao":"LPOV","metar":"LPOV 100100Z VRB02KT CAVOK 18/13 Q1021","updated":"2025-10-10T01:18:23Z"}
