{"icao":"KORD","metar":"KORD 171051Z 18005KT 10SM BKN220 06/02 A2993 RMK AO2 SLP137 T00560022 $","updated":"2026-02-17T11:38:06Z"}
