{"icao":"LPMR","metar":"LPMR 151600Z 28007KT 240V300 3000 RADZ BR SCT008 SCT015 FEW020TCU BKN030 13/12 Q1013","updated":"2026-01-15T16:33:54Z"}
