{"icao":"LPMA","metar":"LPMA 092100Z 01009KT 340V050 9999 SCT016 22/15 Q1024","updated":"2025-10-09T21:15:41Z"}
