{"icao":"KLAX","metar":"KLAX 171053Z 09006KT 10SM FEW012 SCT018 14/12 A2992 RMK AO2 SLP130 T01440122","updated":"2026-04-17T11:51:34Z"}
