{"icao":"LPAZ","metar":"LPAZ 220700Z 20013KT 9999 FEW004 BKN007 23/22 Q1016","updated":"2025-10-22T07:17:37Z"}
