{"icao":"LPBJ","metar":"LPBJ 030800Z 12012KT 5000 -RA BR BKN005 OVC045 12/12 Q0999","updated":"2026-01-03T08:25:29Z"}
