{"icao":"LPPD","metar":"LPPD 191530Z 18009KT 9999 FEW008 BKN049 17/15 Q1023","updated":"2026-02-19T15:47:05Z"}
