{"icao":"KJFK","metar":"KJFK 291051Z 03014KT 10SM BKN046 10/04 A3014 RMK AO2 SLP206 T01000039","updated":"2025-10-29T11:16:35Z"}
