{"icao":"LPST","metar":"LPST 081000Z 11013KT 9999 FEW015 13/08 Q1016","updated":"2026-04-08T10:14:30Z"}
