{"icao":"LPMA","metar":"LPMA 031600Z 04010KT 010V080 9999 FEW015 23/19 Q1023","updated":"2025-10-03T16:20:42Z"}
