{"icao":"KJFK","metar":"KJFK 310651Z 28016G23KT 10SM BKN050 M03/M14 A2982 RMK AO2 PK WND 29029/0616 SLP098 T10281139 $","updated":"2025-12-31T07:22:56Z"}
