{"icao":"LPPT","metar":"LPPT 280100Z 25013G23KT 220V280 9999 -DZ FEW006 SCT008 BKN010 19/17 Q1013","updated":"2025-09-28T01:25:33Z"}
