{"icao":"KJFK","metar":"KJFK 141051Z 25008KT 10SM FEW035 SCT250 02/01 A2983 RMK AO2 SLP100 T00220006","updated":"2026-03-14T11:22:46Z"}
