{"icao":"LPPT","metar":"LPPT 282100Z 12005KT 080V170 9999 FEW002 BKN008 17/17 Q1010","updated":"2025-10-28T21:16:33Z"}
