{"icao":"LPPR","metar":"LPPR 311900Z 19015KT 8000 -RADZ BKN004 BKN011 FEW015TCU 18/17 Q1010","updated":"2025-10-31T19:12:42Z"}
