{"icao":"LPPT","metar":"LPPT 242000Z 26007KT 230V290 9999 FEW028 11/07 Q1017","updated":"2026-01-24T20:20:23Z"}
