{"icao":"LPPR","metar":"LPPR 281230Z 11008KT 070V130 9999 -RA FEW018 BKN035 18/13 Q1012","updated":"2025-10-28T12:37:38Z"}
