{"icao":"LPPT","metar":"LPPT 180430Z 35006KT CAVOK 05/04 Q1010","updated":"2026-01-18T04:40:11Z"}
