{"icao":"LPPS","metar":"LPPS 101230Z 02009KT 350V050 9999 FEW015 BKN030 22/15 Q1023","updated":"2025-10-10T12:36:41Z"}
