{"icao":"LPST","metar":"LPST 261700Z 29009KT CAVOK 17/13 Q1023","updated":"2026-02-27T01:57:59Z"}
