{"icao":"KLAX","metar":"KLAX 030253Z 27010KT 8SM BKN007 16/14 A3003 RMK AO2 SLP166 T01610144 53009 $","updated":"2025-11-03T03:15:54Z"}
