{"icao":"LPFL","metar":"LPFL 311800Z 35015KT 9999 SCT027 16/09 Q1015","updated":"2025-10-31T18:26:55Z"}
