{"icao":"KJFK","metar":"KJFK 312251Z 01006KT 10SM FEW035 SCT170 BKN220 M06/M14 A3010 RMK AO2 SLP192 T10561144 $","updated":"2026-01-31T23:21:23Z"}
