{"icao":"KJFK","metar":"KJFK 141851Z 18016KT 10SM FEW060 BKN250 22/13 A2993 RMK AO2 SLP133 T02170128","updated":"2026-04-14T19:13:30Z"}
