{"icao":"LPFR","metar":"LPFR 031630Z 23004KT 190V260 CAVOK 22/07 Q1020","updated":"2026-04-03T16:39:04Z"}
