{"icao":"LPPR","metar":"LPPR 290830Z 03006KT CAVOK 11/03 Q1032","updated":"2026-03-29T08:38:08Z"}
