{"icao":"LPFR","metar":"LPFR 231900Z 10008KT CAVOK 24/14 Q1019","updated":"2026-05-23T19:23:14Z"}
