{"icao":"LPCS","metar":"LPCS 110700Z 17009KT 140V200 9999 FEW006 BKN012 17/16 Q1013","updated":"2025-11-11T07:18:20Z"}
