{"icao":"KORD","metar":"KORD 230951Z 20007KT 10SM SCT045 BKN110 BKN250 21/17 A2985 RMK AO2 SLP103 T02060172","updated":"2025-09-23T10:18:46Z"}
