{"icao":"KLAX","metar":"KLAX 220053Z 24010KT 10SM SCT150 18/15 A2996 RMK AO2 SLP144 T01780150","updated":"2025-10-22T01:23:40Z"}
