{"icao":"LPPT","metar":"LPPT 251900Z 33009KT 9999 FEW012 15/13 Q1018","updated":"2026-02-25T19:05:52Z"}
