{"icao":"LPBJ","metar":"LPBJ 302000Z 34008KT CAVOK 11/06 Q1018","updated":"2025-11-30T20:19:53Z"}
