{"icao":"LPLA","metar":"LPLA 022300Z 21005KT 170V240 9999 BKN040 15/08 Q1030","updated":"2025-12-02T23:17:30Z"}
