{"icao":"KLAX","metar":"KLAX 011805Z 00000KT 2 1/2SM HZ OVC010 18/15 A3008 RMK AO2 T01830150 $","updated":"2025-11-01T18:22:30Z"}
