{"icao":"LPLA","metar":"LPLA 042200Z 16003KT 130V200 9999 BKN040 15/11 Q1022","updated":"2026-04-04T22:28:27Z"}
