{"icao":"LPCS","metar":"LPCS 181300Z 22004KT 190V280 CAVOK 26/12 Q1020","updated":"2025-09-18T13:26:07Z"}
