{"icao":"KJFK","metar":"KJFK 210751Z 22011KT 10SM BKN100 BKN210 03/M01 A3000 RMK AO2 SLP159 T00331006 $","updated":"2025-12-21T08:25:14Z"}
