{"icao":"LPPT","metar":"LPPT 151400Z 34015KT CAVOK 28/13 Q1020","updated":"2025-09-15T14:18:14Z"}
