{"icao":"KJFK","metar":"KJFK 251951Z 32015G22KT 10SM FEW050 FEW200 BKN250 09/M04 A2983 RMK AO2 SLP099 T00941044 $","updated":"2025-12-25T20:21:45Z"}
