{"icao":"LPPR","metar":"LPPR 031430Z 06009KT 020V110 9999 FEW030 21/09 Q1014","updated":"2026-03-03T14:55:40Z"}
