{"icao":"KORD","metar":"KORD 080721Z 10005KT 10SM BKN012 OVC048 M05/M08 A3037 RMK AO2 T10501078 $","updated":"2026-02-08T07:37:42Z"}
