{"icao":"KORD","metar":"KORD 062251Z 03016KT 10SM SCT047 00/M03 A2999 RMK AO2 PK WND 01028/2220 WSHFT 2214 SLP164 T00001028 $","updated":"2026-02-06T23:24:40Z"}
