{"icao":"LPAR","metar":"LPAR 201600Z 11012KT 9999 VCSH SCT022 BKN025 17/13 Q1006 RMK WIND PK 11016/50 RH78 BKN080 BLU","updated":"2026-03-20T16:41:27Z"}
