{"icao":"KORD","metar":"KORD 110351Z 30005KT 10SM SCT037 SCT047 15/13 A3011 RMK AO2 SLP196 T01500128","updated":"2025-10-11T04:19:41Z"}
