{"icao":"LPFR","metar":"LPFR 271000Z 17004KT 140V210 CAVOK 22/11 Q1019","updated":"2025-09-27T10:15:40Z"}
