{"icao":"KLAX","metar":"KLAX 092053Z 26009KT 6SM HZ FEW002 FEW006 19/14 A3004 RMK AO2 SLP171 VIS W 2 T01940144 58016 $","updated":"2025-11-09T21:15:29Z"}
