{"icao":"LPST","metar":"LPST 060800Z 13014KT 9999 FEW030 15/06 Q1016","updated":"2026-04-06T09:07:05Z"}
