{"icao":"LPOV","metar":"LPOV 061800Z VRB02KT 8000 FEW025 14/13 Q1016","updated":"2025-11-06T18:27:55Z"}
