{"icao":"LPHR","metar":"LPHR 141830Z 21004KT 130V260 9999 FEW020 18/13 Q1031","updated":"2026-03-14T18:37:02Z"}
