{"icao":"LPFR","metar":"LPFR 122300Z 36004KT CAVOK 16/10 Q1023","updated":"2026-03-12T23:26:57Z"}
