{"icao":"KJFK","metar":"KJFK 221751Z 26018G28KT 10SM FEW050 BKN250 08/M05 A3000 RMK PK WND 25028/1745 SLP158 T00831050 10083 20022 58018 $ ","updated":"2026-01-22T18:31:55Z"}
