{"icao":"KJFK","metar":"KJFK 242251Z 13009KT 6SM BR BKN005 OVC015 22/21 A3004 RMK AO2 SLP172 T02170206 $","updated":"2025-09-24T23:16:12Z"}
