{"icao":"LPMT","metar":"LPMT 052200Z 15002KT CAVOK 13/10 Q1019","updated":"2026-04-05T22:29:18Z"}
