{"icao":"LPFL","metar":"LPFL 071600Z 18019G31KT 150V220 4500 -RA SCT007 BKN012 17/15 Q1005 RERA","updated":"2026-02-07T16:29:15Z"}
