{"icao":"KJFK","metar":"KJFK 231851Z 25014KT 10SM BKN050 BKN070 17/04 A2991 RMK AO2 SLP129 T01670044 $","updated":"2025-10-23T19:14:31Z"}
