{"icao":"LPBJ","metar":"LPBJ 222200Z 26005KT CAVOK 24/11 Q1020","updated":"2026-05-22T22:06:00Z"}
