{"icao":"LPBJ","metar":"LPBJ 010500Z 29006KT 7000 NSC 14/13 Q1017","updated":"2026-06-01T06:01:03Z"}
