{"icao":"KORD","metar":"KORD 010651Z 35008KT 10SM CLR M09/M14 A3000 RMK AO2 SLP169 T10941144","updated":"2026-01-01T07:21:40Z"}
