{"icao":"LPPI","metar":"LPPI 300900Z 03003KT 360V060 9999 FEW014 20/16 Q1031","updated":"2026-06-30T09:32:24Z"}
