{"icao":"KLAX","metar":"KLAX 130453Z 00000KT 10SM FEW150 17/14 A3005 RMK AO2 SLP175 T01720144 $","updated":"2025-11-13T05:18:54Z"}
