{"icao":"LPMR","metar":"LPMR 010300Z VRB01KT CAVOK 13/11 Q1020","updated":"2025-10-01T03:09:47Z"}
