{"icao":"LPCS","metar":"LPCS 200830Z 10006KT 060V130 9999 FEW006 SCT015 13/12 Q1007","updated":"2026-03-20T08:38:42Z"}
