{"icao":"KLAX","metar":"KLAX 041453Z 10003KT 7SM FEW008 OVC011 18/14 A2989 RMK AO2 SLP120 T01780144 53008 $","updated":"2026-06-04T14:57:30Z"}
