{"icao":"KORD","metar":"KORD 311851Z 00000KT 10SM FEW200 BKN250 24/08 A3005 RMK AO2 SLP174 T02390083 $","updated":"2026-05-31T19:37:45Z"}
