{"icao":"LPFR","metar":"LPFR 201200Z 11012KT CAVOK 25/09 Q1021","updated":"2026-05-20T12:22:33Z"}
