{"icao":"LPPR","metar":"LPPR 110630Z 09003KT 020V120 8000 FEW008 BKN011 10/09 Q1025","updated":"2026-03-11T06:52:11Z"}
