{"icao":"LPCS","metar":"LPCS 222130Z 30003KT CAVOK 14/09 Q1014","updated":"2026-04-23T02:31:59Z"}
