{"icao":"LPCS","metar":"LPCS 022030Z 01009KT 9999 FEW020 14/11 Q1025","updated":"2025-11-03T03:15:51Z"}
