{"icao":"LPMA","metar":"LPMA 131500Z 36022G34KT 310V030 9999 SCT015 FEW018TCU 17/10 Q1016","updated":"2025-12-13T15:17:34Z"}
