{"icao":"LPOV","metar":"LPOV 231200Z 24004KT 310V020 7000 NSC 20/14 Q1024","updated":"2026-02-23T13:01:30Z"}
