{"icao":"KJFK","metar":"KJFK 071151Z 24012KT 10SM BKN100 BKN200 22/18 A2981 RMK AO2 SLP095 70003 T02170183 10217 20189 51012 $","updated":"2026-06-07T12:19:54Z"}
