{"icao":"LPMA","metar":"LPMA 262200Z 36009KT 330V030 9999 SCT016 SCT030 19/10 Q1023","updated":"2025-11-26T22:18:21Z"}
