{"icao":"KLAX","metar":"KLAX 211253Z 04005KT 10SM CLR 07/02 A3011 RMK AO2 SLP195 T00720022 $","updated":"2026-02-21T13:40:47Z"}
