{"icao":"KORD","metar":"KORD 031951Z 02006KT 9SM OVC017 06/00 A3008 RMK AO2 SLP193 T00560000","updated":"2026-03-03T20:31:19Z"}
