{"icao":"LPFR","metar":"LPFR 081330Z 15010KT 9999 FEW028 20/12 Q1010","updated":"2026-05-08T13:43:43Z"}
