{"icao":"LPCS","metar":"LPCS 140900Z 01003KT 320V050 CAVOK 23/12 Q1017","updated":"2025-10-14T09:19:48Z"}
