{"icao":"LPPT","metar":"LPPT 230130Z 30004KT CAVOK 10/06 Q1028","updated":"2025-11-23T01:42:59Z"}
