{"icao":"LPMT","metar":"LPMT 192100Z 21003KT CAVOK 16/11 Q1015","updated":"2026-04-19T21:34:32Z"}
