{"icao":"KORD","metar":"KORD 241351Z 18011KT 10SM FEW140 FEW180 BKN250 M04/M12 A2993 RMK AO2 SLP144 T10441117","updated":"2026-02-24T14:48:23Z"}
