{"icao":"LPPT","metar":"LPPT 270130Z 20029KT 2000 +RA BR BKN004 14/14 Q1001 WS R20","updated":"2026-01-27T01:47:39Z"}
