{"icao":"KLAX","metar":"KLAX 120653Z VRB04KT 10SM FEW250 18/M04 A3020 RMK AO2 SLP225 T01831044 $","updated":"2026-01-12T07:26:44Z"}
