{"icao":"LPBJ","metar":"LPBJ 270900Z 34006KT 310V010 9999 FEW012 23/15 Q1020","updated":"2026-06-27T09:27:04Z"}
