{"icao":"KJFK","metar":"KJFK 202051Z 34017G25KT 10SM SCT060 BKN080 11/M07 A3016 RMK PK WND 32026/1952 SLP213 VIRGA S T01061072 53003 ","updated":"2026-04-20T21:44:50Z"}
