{"icao":"LPPT","metar":"LPPT 110300Z 18005KT 9999 FEW006 SCT012 15/15 Q1015","updated":"2025-11-11T03:12:28Z"}
