{"icao":"LPMA","metar":"LPMA 191830Z 02008KT 9999 SCT016 17/09 Q1027","updated":"2026-02-19T18:49:33Z"}
