{"icao":"LPFL","metar":"LPFL 260800Z 18023G37KT 150V210 9999 FEW008 SCT012 18/16 Q1019","updated":"2025-11-26T08:26:37Z"}
