{"icao":"LPHR","metar":"LPHR 150900Z 36009KT 9999 FEW030 13/07 Q1015","updated":"2025-11-15T09:17:04Z"}
