{"icao":"LPMR","metar":"LPMR 140600Z 16002KT 2500 BR FEW004 09/09 Q1016","updated":"2026-01-14T06:32:25Z"}
