{"icao":"KJFK","metar":"KJFK 101440Z 24005KT 3SM BR OVC007 13/13 A2995 RMK AO2 CIG 003 W T01330128 $","updated":"2026-05-10T14:51:18Z"}
