{"icao":"LPFL","metar":"LPFL 030930Z 26015G26KT 180V320 7000 -RA SCT008 BKN012 18/15 Q1001","updated":"2026-02-03T09:39:26Z"}
