{"icao":"LPPT","metar":"LPPT 251230Z 06005KT 020V190 9999 FEW020 BKN045 10/04 Q1010","updated":"2025-12-25T12:39:19Z"}
