{"icao":"LPBJ","metar":"LPBJ 141000Z 36004KT 300V050 9999 SCT021 15/12 Q1024","updated":"2026-04-14T11:01:14Z"}
