{"icao":"LPMT","metar":"LPMT 141200Z 31008KT 280V340 9999 SCT025 15/11 Q1019","updated":"2026-03-14T12:49:29Z"}
