{"icao":"LPPD","metar":"LPPD 290400Z 33005KT 9999 FEW020 BKN024 17/09 Q1020","updated":"2025-10-29T04:25:07Z"}
