{"icao":"LPFL","metar":"LPFL 011230Z 16007KT 140V200 9999 VCSH FEW005 SCT015 25/21 Q1018","updated":"2025-10-01T12:38:31Z"}
