{"icao":"LPMT","metar":"LPMT 270600Z 25012KT 9000 FEW010 BKN032 14/12 Q1000","updated":"2026-01-27T06:33:48Z"}
