{"icao":"LPPD","metar":"LPPD 070230Z 20011KT 9999 SCT010 FEW016CB 22/21 Q1020","updated":"2025-10-07T02:56:12Z"}
