{"icao":"LPOV","metar":"LPOV 152000Z VRB02KT 0500 FG BKN002 15/14 Q1017","updated":"2025-10-15T20:20:13Z"}
