{"icao":"KORD","metar":"KORD 112151Z 04011G20KT 10SM SCT022 OVC028 17/11 A3010 RMK AO2 SLP194 T01670111","updated":"2025-10-11T22:14:52Z"}
