{"icao":"KLAX","metar":"KLAX 030853Z 00000KT 7SM FEW004 FEW008 14/13 A3017 RMK AO2 SLP212 T01440133 51003 $","updated":"2026-02-03T09:39:27Z"}
