{"icao":"LPHR","metar":"LPHR 181830Z 24006KT 210V270 9999 FEW012 SCT025 17/14 Q1013","updated":"2026-04-18T18:50:07Z"}
