{"icao":"LPPR","metar":"LPPR 142000Z 33008KT 9999 BKN009 BKN012 13/11 Q1015","updated":"2026-03-14T20:27:07Z"}
