{"icao":"KLAX","metar":"KLAX 120153Z 26012KT 10SM FEW019 SCT033 SCT060 17/12 A2995 RMK AO2 SLP141 T01720117 $","updated":"2026-04-12T02:30:16Z"}
