{"icao":"KJFK","metar":"KJFK 251251Z 23008KT 10SM FEW170 BKN230 05/01 A3042 RMK AO2 SLP299 T00500006 $","updated":"2026-03-25T13:07:50Z"}
