{"icao":"LPBJ","metar":"LPBJ 110300Z 15003KT 0600 FG VV002 14/14 Q1016","updated":"2025-11-11T03:12:30Z"}
