{"icao":"LPLA","metar":"LPLA 172100Z 20005KT 150V240 9999 FEW007 SCT035 18/15 Q1023","updated":"2026-05-17T21:54:56Z"}
