{"icao":"LPFL","metar":"LPFL 231100Z 32010KT 250V360 9999 FEW025 SCT035 13/07 Q1026","updated":"2026-01-23T11:19:38Z"}
