{"icao":"LPPD","metar":"LPPD 052030Z 07008KT 040V100 9999 FEW025 BKN040 12/04 Q1036","updated":"2026-03-05T20:35:42Z"}
