{"icao":"KJFK","metar":"KJFK 161851Z 04009KT 10SM BKN036 BKN060 02/M04 A3013 RMK AO2 SLP203 T00221039 $","updated":"2026-02-16T19:32:11Z"}
