{"icao":"LPMA","metar":"LPMA 010400Z 02010KT 9999 SCT015 21/16 Q1020","updated":"2025-10-01T04:21:09Z"}
