{"icao":"LPAR","metar":"LPAR 221600Z 32013KT CAVOK 29/15 Q1019","updated":"2026-05-23T20:50:06Z"}
