{"icao":"LPBJ","metar":"LPBJ 180700Z 07003KT 2000 0800S BCFG BKN003 06/06 Q1023","updated":"2025-12-18T07:21:30Z"}
