{"icao":"KJFK","metar":"KJFK 011551Z 35020G29KT 10SM FEW030 SCT210 BKN250 M11/M18 A2986 RMK AO2 PK WND 34033/1539 SLP109 T11061178 PNO $","updated":"2026-02-01T16:28:25Z"}
