{"icao":"LPMA","metar":"LPMA 272300Z VRB04KT CAVOK 17/10 Q1017","updated":"2026-01-27T23:20:42Z"}
