{"icao":"LPCS","metar":"LPCS 201600Z 28006KT 230V350 9000 -SHRA FEW005 SCT012 BKN018 13/13 Q1015","updated":"2025-12-20T16:22:02Z"}
