{"icao":"KJFK","metar":"KJFK 231551Z 25017G24KT 10SM BKN200 BKN250 02/M12 A3018 RMK AO2 SLP219 T00221122 $","updated":"2026-01-23T16:28:43Z"}
