{"icao":"LPPD","metar":"LPPD 061000Z 01005KT 9999 FEW025 BKN045 14/07 Q1034","updated":"2026-01-06T10:22:20Z"}
