{"icao":"LPFL","metar":"LPFL 241200Z 03004KT 350V070 9999 FEW015TCU 22/18 Q1018","updated":"2025-10-24T13:29:11Z"}
