{"icao":"LPPS","metar":"LPPS 040500Z 16010KT 130V190 9999 FEW012 21/19 Q1014","updated":"2025-11-04T05:18:55Z"}
