{"icao":"LPPR","metar":"LPPR 280500Z 03012KT 9999 SCT045 19/16 Q1006","updated":"2025-09-28T05:16:04Z"}
