{"icao":"LPST","metar":"LPST 071300Z 25013KT 6000 -RADZ BKN006 OVC011 18/17 Q1016","updated":"2025-11-07T13:26:49Z"}
