{"icao":"LPAR","metar":"LPAR 250900Z 23008KT 2000 -DZRA BR BKN004 BKN016 20/20 Q1014","updated":"2025-10-25T09:16:06Z"}
