{"icao":"LPPT","metar":"LPPT 110100Z 18005KT 9999 FEW002 15/15 Q1016","updated":"2025-11-11T01:24:22Z"}
