{"icao":"LPCS","metar":"LPCS 011630Z 35015KT CAVOK 22/07 Q1021","updated":"2026-04-01T16:53:19Z"}
