{"icao":"KORD","metar":"KORD 210851Z 26004KT 8SM OVC021 08/06 A3002 RMK AO2 SLP168 60000 T00830061 56006","updated":"2025-11-21T09:19:48Z"}
