{"icao":"LPBJ","metar":"LPBJ 211900Z 20006KT CAVOK 31/06 Q1020","updated":"2026-05-21T19:56:00Z"}
