{"icao":"LPCS","metar":"LPCS 160700Z 31003KT 260V360 9999 FEW016 FEW020TCU 09/09 Q1015","updated":"2026-01-16T07:23:43Z"}
