{"icao":"LPOV","metar":"LPOV 201600Z 27008KT 9999 FEW015 SCT024 13/07 Q1012","updated":"2025-12-20T16:22:03Z"}
