{"icao":"LPBJ","metar":"LPBJ 300600Z 34009KT 8000 VCFG SCT004 SCT020 11/09 Q1016","updated":"2025-11-30T06:28:01Z"}
