{"icao":"LPHR","metar":"LPHR 120930Z 23011KT 190V250 9999 FEW012 BKN022 16/12 Q1030","updated":"2026-03-12T09:41:16Z"}
