{"icao":"LPPD","metar":"LPPD 021730Z 08009KT 040V110 9999 SCT020 SCT035 17/12 Q1019","updated":"2026-05-02T17:41:38Z"}
