{"icao":"LPFR","metar":"LPFR 172030Z 21006KT 8000 -SHRA FEW012 FEW020CB SCT028 15/14 Q1010","updated":"2026-03-17T20:37:28Z"}
