{"icao":"LPFR","metar":"LPFR 191100Z 10010KT CAVOK 23/17 Q1017","updated":"2025-10-19T11:12:57Z"}
