{"icao":"LPFR","metar":"LPFR 162030Z 07006KT CAVOK 17/09 Q1016","updated":"2026-03-16T20:36:55Z"}
