{"icao":"KORD","metar":"KORD 151251Z 21014G24KT 10SM BKN190 OVC250 16/13 A2955 RMK AO2 PK WND 21026/1156 SLP004 T01610128 $","updated":"2025-11-15T13:23:39Z"}
