{"icao":"KLAX","metar":"KLAX 312053Z VRB04KT 10SM FEW025 SCT030 OVC039 21/14 A2997 RMK AO2 SLP147 T02060144 58002 $","updated":"2026-03-31T21:38:03Z"}
