{"icao":"LPMA","metar":"LPMA 201630Z 23003KT 160V260 9999 SCT016 17/07 Q1024","updated":"2026-01-20T16:34:47Z"}
