{"icao":"KJFK","metar":"KJFK 281951Z 23011KT 10SM BKN160 OVC250 M06/M14 A3005 RMK AO2 SLP175 T10611139 $","updated":"2026-01-28T20:29:48Z"}
