{"icao":"LPMA","metar":"LPMA 231500Z 30014KT 260V010 9999 FEW015 19/05 Q1018","updated":"2026-01-23T15:24:47Z"}
