{"icao":"LPST","metar":"LPST 231500Z 29009KT 270V330 CAVOK 27/19 Q1012","updated":"2026-06-23T15:46:09Z"}
