{"icao":"LPCS","metar":"LPCS 211800Z 01011KT CAVOK 12/05 Q1027","updated":"2025-11-21T18:25:13Z"}
