{"icao":"LPPT","metar":"LPPT 261530Z 07005KT 030V110 CAVOK 21/14 Q1023","updated":"2026-02-26T15:52:12Z"}
