{"icao":"LPOV","metar":"LPOV 111100Z 32006KT 290V350 9000 FEW020 15/11 Q1027","updated":"2026-03-11T12:57:32Z"}
