{"icao":"LPAZ","metar":"LPAZ 182300Z 20009KT 9999 SCT012 23/21 Q1017","updated":"2025-09-18T23:15:52Z"}
