{"icao":"LPMR","metar":"LPMR 062100Z 17004KT 9999 FEW025 BKN044 15/12 Q1023","updated":"2025-12-06T21:15:59Z"}
