{"icao":"LPFR","metar":"LPFR 010300Z VRB02KT CAVOK 18/14 Q1017","updated":"2025-10-01T03:09:46Z"}
