{"icao":"KLAX","metar":"KLAX 171453Z 05003KT 10SM FEW240 SCT280 15/M02 A3005 RMK AO2 SLP173 T01501017 51010","updated":"2026-01-17T15:18:38Z"}
