{"icao":"LPPS","metar":"LPPS 012100Z 19011KT 9999 FEW014 22/19 Q1021","updated":"2025-11-01T21:14:25Z"}
