{"icao":"LPFR","metar":"LPFR 071100Z 22021KT 8000 FEW010 SCT020 BKN040 15/13 Q1010","updated":"2026-02-07T11:20:27Z"}
