{"icao":"LPHR","metar":"LPHR 052300Z 12010KT 9999 FEW020 BKN050 15/10 Q1031","updated":"2026-01-05T23:18:59Z"}
