{"icao":"LPFL","metar":"LPFL 131800Z 08004KT 020V130 9999 FEW020 20/15 Q1021","updated":"2026-06-13T18:05:50Z"}
