{"icao":"LPFR","metar":"LPFR 150400Z 08004KT CAVOK 19/14 Q1015","updated":"2025-10-15T04:20:55Z"}
