{"icao":"LPMA","metar":"LPMA 071800Z 22012KT 9999 SCT015 17/09 Q1012","updated":"2026-05-07T18:22:47Z"}
