{"icao":"LPFR","metar":"LPFR 131200Z VRB04KT CAVOK 33/10 Q1018","updated":"2025-09-13T12:31:15Z"}
