{"icao":"LPMT","metar":"LPMT 280200Z 36008KT 330V040 9999 FEW030 12/07 Q1025","updated":"2026-02-28T03:53:27Z"}
