{"icao":"LPBJ","metar":"LPBJ 091500Z 30006KT 270V350 CAVOK 18/08 Q1020","updated":"2025-11-09T15:15:31Z"}
