{"icao":"LPST","metar":"LPST 291500Z 29005KT 260V320 9999 FEW012 14/08 Q1018","updated":"2025-12-29T15:21:19Z"}
