{"icao":"LPPT","metar":"LPPT 140700Z 36002KT CAVOK 15/11 Q1016","updated":"2025-10-14T07:18:12Z"}
