{"icao":"LPAZ","metar":"LPAZ 252330Z 11006KT 9999 FEW022 15/15 Q1020","updated":"2026-04-25T23:36:41Z"}
