{"icao":"LPMA","metar":"LPMA 011000Z 20003KT 170V240 9999 FEW015 19/11 Q1021","updated":"2026-02-01T10:24:13Z"}
