{"icao":"KLAX","metar":"KLAX 070653Z 31005KT 10SM CLR 17/02 A3002 RMK AO2 SLP163 T01720022 $","updated":"2026-03-07T07:27:29Z"}
