{"icao":"LPFL","metar":"LPFL 221900Z 20003KT 9999 FEW009 19/17 Q1008","updated":"2025-10-22T23:14:54Z"}
