{"icao":"LPPR","metar":"LPPR 241300Z 24005KT 190V340 9999 SCT008 SCT011 20/17 Q1021","updated":"2026-05-24T13:22:52Z"}
