{"icao":"LPCS","metar":"LPCS 081700Z 17009KT 140V200 2000 -RADZ BR FEW001 BKN003 12/12 Q1013","updated":"2026-02-08T17:25:29Z"}
