{"icao":"LPLA","metar":"LPLA 181000Z 30013KT 8000 -DZ SCT004 BKN012 16/15 Q1029","updated":"2026-01-18T10:19:57Z"}
