{"icao":"LPPT","metar":"LPPT 152300Z 31004KT 240V350 9999 FEW015 FEW025TCU SCT045 10/08 Q1006 RESHRA","updated":"2025-12-15T23:19:11Z"}
