{"icao":"LPAR","metar":"LPAR 201600Z VRB04KT CAVOK 31/13 Q1019","updated":"2026-05-21T07:50:14Z"}
