{"icao":"LPFL","metar":"LPFL 271630Z 17013KT 140V200 5000 -DZ SCT010 FEW012TCU 16/14 Q1032","updated":"2026-02-27T16:39:24Z"}
