{"icao":"KORD","metar":"KORD 241551Z 31007KT 10SM FEW035 FEW250 09/M02 A3031 RMK AO2 SLP269 T00891017 $","updated":"2025-10-24T16:22:37Z"}
