{"icao":"LPPT","metar":"LPPT 070700Z 16015KT 3500 RADZ BR FEW002 BKN006 11/11 Q1005","updated":"2026-02-07T07:30:26Z"}
