{"icao":"LPMT","metar":"LPMT 091200Z 24010KT 8000 -DZRA SCT004 BKN007 15/15 Q1013","updated":"2026-02-09T13:06:30Z"}
