{"icao":"LPAZ","metar":"LPAZ 051730Z 08008KT 040V110 9999 FEW028 BKN042 14/05 Q1034","updated":"2026-03-05T18:02:25Z"}
