{"icao":"LPFL","metar":"LPFL 101400Z 31013G28KT 210V350 5000 -RADZ BKN012 FEW013TCU BKN035 19/15 Q1006","updated":"2025-12-10T14:21:05Z"}
