{"icao":"LPFR","metar":"LPFR 160800Z 30006KT 9999 FEW020 11/10 Q1016","updated":"2026-01-16T08:28:40Z"}
