{"icao":"LPPT","metar":"LPPT 280600Z 11005G15KT 070V220 9000 SCT002 BKN012 18/18 Q1015","updated":"2025-10-28T06:28:26Z"}
