{"icao":"KORD","metar":"KORD 102251Z 24005KT 10SM BKN034 18/11 A3006 RMK AO2 SLP180 T01830106","updated":"2025-10-10T23:15:48Z"}
