{"icao":"LPPR","metar":"LPPR 292300Z 16003KT 120V180 9999 SCT012 13/13 Q1012","updated":"2025-10-29T23:16:48Z"}
