{"icao":"LPPD","metar":"LPPD 260430Z 22028KT 5000 -RA BR FEW006 BKN010 16/16 Q1006","updated":"2026-01-26T04:55:32Z"}
