{"icao":"KORD","metar":"KORD 281551Z 01012KT 10SM FEW080 BKN095 OVC240 02/M12 A3015 RMK AO2 SLP213 T00171117 $","updated":"2026-02-28T16:25:36Z"}
