{"icao":"LPFR","metar":"LPFR 151400Z 24006KT 9999 FEW014 SCT045 14/11 Q1019","updated":"2026-01-15T14:23:31Z"}
