{"icao":"LPMT","metar":"LPMT 141900Z 02005KT CAVOK 13/10 Q1016","updated":"2025-12-14T19:14:30Z"}
