{"icao":"LPAZ","metar":"LPAZ 231230Z 16012KT 9999 SCT004 BKN016 23/22 Q1018","updated":"2025-10-23T12:38:55Z"}
