{"icao":"LPCS","metar":"LPCS 280800Z 12008KT 9999 FEW006 BKN010 19/18 Q1015","updated":"2025-10-28T08:24:51Z"}
