{"icao":"KJFK","metar":"KJFK 030551Z 07003KT 10SM OVC060 M02/M06 A3065 RMK AO2 SLP378 4/004 T10171056 11017 21044 58005","updated":"2026-03-03T06:50:55Z"}
