{"icao":"LPMA","metar":"LPMA 211300Z 34011KT 300V030 9999 BKN015 SCT030 19/11 Q1020","updated":"2025-12-21T13:26:53Z"}
