{"icao":"LPFR","metar":"LPFR 232030Z 28014KT CAVOK 17/11 Q1014","updated":"2026-04-23T20:51:07Z"}
