{"icao":"LPFR","metar":"LPFR 211800Z 18006KT 150V210 CAVOK 24/21 Q1017","updated":"2026-06-21T18:18:42Z"}
