{"icao":"LPPS","metar":"LPPS 150500Z 17004KT 9999 FEW015 21/17 Q1015","updated":"2025-10-15T05:17:33Z"}
