{"icao":"LPPD","metar":"LPPD 191230Z 34008KT 310V060 9999 FEW025 SCT035 15/08 Q1033","updated":"2026-01-19T12:47:14Z"}
