{"icao":"LPPS","metar":"LPPS 121100Z 03009KT 350V050 9999 FEW015 22/15 Q1019","updated":"2025-10-12T11:13:02Z"}
