{"icao":"LPPS","metar":"LPPS 151630Z 02010KT 340V050 9999 FEW015 BKN030 16/12 Q1023","updated":"2026-04-15T17:02:52Z"}
