{"icao":"LPHR","metar":"LPHR 071630Z 32020KT 290V350 9999 FEW016 SCT035 16/09 Q1012","updated":"2026-05-07T16:48:32Z"}
