{"icao":"KORD","metar":"KORD 221051Z 02016KT 10SM FEW150 SCT200 BKN250 10/04 A2962 RMK AO2 PK WND 03026/1008 SLP029 T01000039","updated":"2026-03-22T11:22:27Z"}
