{"icao":"LPFR","metar":"LPFR 291300Z 23008KT 9999 FEW042 23/16 Q1014","updated":"2025-09-29T13:27:52Z"}
