{"icao":"LPCS","metar":"LPCS 141830Z 32013KT 280V350 9999 FEW002 BKN006 14/13 Q1016","updated":"2026-03-14T18:36:46Z"}
