{"icao":"LPMA","metar":"LPMA 131000Z 02018G28KT 340V060 9999 FEW015 25/17 Q1022","updated":"2025-09-13T10:15:32Z"}
