{"icao":"LPFL","metar":"LPFL 011530Z 15008KT 120V180 9999 FEW012 SCT016 BKN028 22/19 Q1031","updated":"2026-07-01T15:40:04Z"}
