{"icao":"LPFR","metar":"LPFR 211900Z 06006KT CAVOK 17/08 Q1027","updated":"2026-02-21T19:22:51Z"}
