{"icao":"LPPR","metar":"LPPR 111400Z 07005KT 020V150 CAVOK 28/12 Q1020","updated":"2025-10-11T14:13:30Z"}
