{"icao":"LPBJ","metar":"LPBJ 241606Z 25012KT 5000 1800N -SHRA OVC015 16/14 Q1018","updated":"2025-11-24T16:21:43Z"}
