{"icao":"LPLA","metar":"LPLA 201900Z 24008KT 210V270 9999 FEW016 24/19 Q1013","updated":"2025-10-20T19:15:12Z"}
