{"icao":"LPPD","metar":"LPPD 222030Z 23004KT 200V260 0100 R30/0100N FG VV000 17/17 Q1021","updated":"2026-05-22T20:42:07Z"}
