{"icao":"LPMR","metar":"LPMR 151600Z 31009KT 280V340 9999 FEW030 18/10 Q1023","updated":"2026-04-15T17:02:33Z"}
