{"icao":"LPLA","metar":"LPLA 131500Z 33006KT 310V020 9999 SCT030 20/12 Q1015","updated":"2025-10-13T15:18:35Z"}
