{"icao":"LPMT","metar":"LPMT 051800Z 34012KT CAVOK 18/09 Q1016","updated":"2026-05-05T18:09:32Z"}
