{"icao":"LPMA","metar":"LPMA 251430Z 35017G28KT 310V030 9999 -SHRA SCT015 FEW018CB 15/11 Q1019","updated":"2026-02-25T14:47:02Z"}
