{"icao":"LPFR","metar":"LPFR 060100Z 31004KT CAVOK 15/12 Q1017","updated":"2025-11-06T01:23:53Z"}
