{"icao":"LPFR","metar":"LPFR 200000Z 24003KT 230V290 CAVOK 24/16 Q1014","updated":"2026-06-20T00:08:32Z"}
