{"icao":"KJFK","metar":"KJFK 171151Z 01014G23KT 10SM FEW250 09/M02 A3000 RMK AO2 SLP159 T00941017 10100 20083 50008","updated":"2025-10-17T12:37:10Z"}
