{"icao":"KJFK","metar":"KJFK 271051Z 05003KT 10SM SCT250 M03/M06 A3008 RMK AO2 SLP185 T10281061 $","updated":"2026-02-27T11:31:25Z"}
