{"icao":"LPMA","metar":"LPMA 270500Z 03013G23KT 360V070 9999 SCT015 18/15 Q1013","updated":"2026-01-27T05:26:01Z"}
