{"icao":"LPFR","metar":"LPFR 012300Z 12016KT 9999 FEW010 16/15 Q1009","updated":"2026-01-01T23:18:52Z"}
