{"icao":"KORD","metar":"KORD 260651Z 01006KT 10SM SCT140 SCT200 M05/M13 A2988 RMK AO2 SLP125 T10501133","updated":"2026-02-26T07:02:37Z"}
