{"icao":"KORD","metar":"KORD 181651Z 25020G30KT 10SM FEW034 15/04 A2950 RMK AO2 PK WND 26031/1633 SLP990 T01500039","updated":"2026-02-18T17:01:51Z"}
