{"icao":"LPBJ","metar":"LPBJ 020400Z VRB04KT CAVOK 11/04 Q1020","updated":"2026-04-02T05:01:16Z"}
