{"icao":"LPPR","metar":"LPPR 201830Z 31004KT 270V340 9999 FEW047 16/12 Q1009","updated":"2026-03-20T18:48:32Z"}
