{"icao":"LPFR","metar":"LPFR 131600Z 33010KT CAVOK 35/03 Q1017","updated":"2025-09-13T16:05:34Z"}
