{"icao":"LPPR","metar":"LPPR 270530Z 12007KT 070V130 8000 -RA FEW012 BKN018 11/10 Q1024","updated":"2026-02-27T05:51:24Z"}
