{"icao":"LPPR","metar":"LPPR 200500Z 12011KT 9000 NSC 05/04 Q1019","updated":"2026-01-20T05:27:22Z"}
