{"icao":"LPHR","metar":"LPHR 280900Z 26012KT 7000 VCSH SCT005 BKN007 17/16 Q1031","updated":"2026-02-28T09:24:59Z"}
