{"icao":"LPMR","metar":"LPMR 101600Z 33018KT CAVOK 22/11 Q1018","updated":"2026-06-10T16:56:24Z"}
