{"icao":"LPPT","metar":"LPPT 172000Z 34009KT CAVOK 14/13 Q1017","updated":"2025-11-17T20:21:35Z"}
