{"icao":"LPOV","metar":"LPOV 030600Z 18008KT 9999 SCT015 FEW020CB BKN030 08/08 Q0998","updated":"2026-02-03T08:34:42Z"}
