{"icao":"LPPS","metar":"LPPS 260800Z 05009KT 9999 FEW015 18/12 Q1024","updated":"2025-11-26T08:26:39Z"}
