{"icao":"LPOV","metar":"LPOV 060500Z 15006KT 110V210 9999 FEW018 FEW020CB BKN032 10/08 Q0999 RESHRA","updated":"2026-02-06T05:52:13Z"}
