{"icao":"LPLA","metar":"LPLA 161000Z 36004KT 290V060 9999 FEW025 18/10 Q1030","updated":"2026-05-16T10:13:11Z"}
