{"icao":"LPMR","metar":"LPMR 042100Z 15022KT CAVOK 21/14 Q1010","updated":"2025-11-04T22:16:32Z"}
