{"icao":"LPPS","metar":"LPPS 301830Z 06019G31KT 030V090 9999 FEW015 16/11 Q1024","updated":"2026-03-30T18:59:01Z"}
