{"icao":"KORD","metar":"KORD 182151Z 26019G32KT 10SM SCT047 SCT250 09/M02 A2993 RMK AO2 PK WND 27036/2139 SLP136 T00941022 $","updated":"2026-04-18T22:33:46Z"}
