{"icao":"LPMT","metar":"LPMT 162100Z 35009KT 9999 SCT030 15/08 Q1018","updated":"2026-05-16T21:47:26Z"}
