{"icao":"KORD","metar":"KORD 120951Z 22010G19KT 10SM BKN220 M03/M07 A3016 RMK AO2 SLP221 T10281072 $","updated":"2026-01-12T10:24:37Z"}
