{"icao":"LPFR","metar":"LPFR 290800Z 03004KT CAVOK 08/06 Q1018","updated":"2025-12-29T08:29:59Z"}
