{"icao":"KJFK","metar":"KJFK 131451Z 24009KT 10SM SCT250 04/M04 A3011 RMK AO2 SLP194 T00441044 58003 $","updated":"2026-01-13T15:23:54Z"}
