{"icao":"LPAZ","metar":"LPAZ 200500Z 05013KT 010V070 9999 FEW021 SCT025 17/12 Q1025","updated":"2025-11-20T05:18:40Z"}
