{"icao":"LPPS","metar":"LPPS 110630Z VRB01KT 9999 FEW014 15/11 Q1015","updated":"2026-05-11T06:46:02Z"}
