{"icao":"LPFR","metar":"LPFR 191730Z 10014KT 7000 -RA FEW012 15/14 Q1006 RERA","updated":"2026-03-19T17:52:51Z"}
