{"icao":"LPLA","metar":"LPLA 071400Z 20014G25KT 170V230 9000 -SHRA FEW022 SCT030 BKN040 15/12 Q1032","updated":"2026-01-07T14:22:39Z"}
