{"icao":"KLAX","metar":"KLAX 100953Z 28004KT 9SM FEW005 OVC007 14/13 A2997 RMK AO2 SLP147 T01440128 $","updated":"2026-03-10T10:38:12Z"}
