{"icao":"LPPR","metar":"LPPR 071500Z 33005KT 280V010 9999 SCT020 BKN040 13/08 Q1026","updated":"2026-01-07T15:23:58Z"}
