{"icao":"LPOV","metar":"LPOV 091500Z 18008KT 150V230 CAVOK 19/11 Q1019","updated":"2025-11-09T15:15:29Z"}
