{"icao":"KORD","metar":"KORD 150651Z 06008KT 10SM OVC050 16/09 A3025 RMK AO2 SLP242 T01610089 $","updated":"2025-10-15T07:18:44Z"}
