{"icao":"KJFK","metar":"KJFK 040551Z 30030G41KT 10SM FEW250 12/00 A2991 RMK AO2 PK WND 31041/0551 SLP127 60001 T01170000 10128 20111 53013 $","updated":"2025-11-04T06:28:45Z"}
