{"icao":"LPMT","metar":"LPMT 050900Z 22011KT 180V250 9999 -TSRA SCT012 SCT016CB BKN020 17/17 Q1007 RETSRA","updated":"2025-11-05T09:20:37Z"}
