{"icao":"LPPD","metar":"LPPD 081700Z 24018KT 4000 BR SCT001 BKN005 BKN010 17/16 Q1014","updated":"2026-02-08T17:25:31Z"}
