{"icao":"KORD","metar":"KORD 130151Z 15010KT 10SM FEW045 OVC100 04/M03 A2997 RMK AO2 SLP154 T00441033 $","updated":"2026-03-13T01:59:37Z"}
