{"icao":"KORD","metar":"KORD 042151Z 17008G17KT 10SM FEW110 FEW250 17/M03 A3004 RMK AO2 SLP174 T01671033 $","updated":"2025-11-04T22:16:35Z"}
