{"icao":"KORD","metar":"KORD 112251Z 32016KT 10SM FEW100 BKN250 04/M07 A3023 RMK AO2 SLP242 T00441067 $","updated":"2026-02-11T23:31:17Z"}
