{"icao":"LPPT","metar":"LPPT 282200Z 11004KT 080V150 9999 FEW001 BKN008 17/17 Q1009","updated":"2025-10-28T22:17:15Z"}
