{"icao":"KORD","metar":"KORD 301351Z 34009KT 5SM -SN BKN036 BKN044 OVC055 M12/M16 A3035 RMK AO2 SNB40 SLP291 P0000 T11171161","updated":"2026-01-30T13:55:05Z"}
