{"icao":"LPMR","metar":"LPMR 071700Z 32005KT 290V010 9999 FEW015 SCT030 19/15 Q1022","updated":"2025-10-07T17:15:21Z"}
