{"icao":"LPPR","metar":"LPPR 252030Z 19012KT 9999 BKN009 20/18 Q1016","updated":"2026-06-25T20:55:55Z"}
