{"icao":"LPPT","metar":"LPPT 291300Z 33007KT 290V360 9000 VCSH FEW014 FEW020CB BKN028 20/17 Q1008","updated":"2025-10-29T13:31:31Z"}
