{"icao":"LPPD","metar":"LPPD 091830Z 06003KT 350V150 9999 FEW025 BKN035 14/07 Q1034","updated":"2026-03-09T18:51:41Z"}
