{"icao":"LPAZ","metar":"LPAZ 221230Z 16008KT 130V200 9999 FEW034 23/15 Q1025","updated":"2025-09-22T12:36:48Z"}
