{"icao":"KLAX","metar":"KLAX 022053Z 24013KT 10SM FEW017 SCT100 BKN160 23/15 A2999 RMK AO2 SLP152 T02330150 58013 $","updated":"2025-10-02T21:15:08Z"}
