{"icao":"LPAR","metar":"LPAR 170900Z 05006KT 020V080 CAVOK 16/11 Q1019","updated":"2026-04-17T09:16:16Z"}
