{"icao":"LPAZ","metar":"LPAZ 150400Z 05002KT CAVOK 18/17 Q1026","updated":"2025-09-15T04:21:14Z"}
