{"icao":"LPHR","metar":"LPHR 191600Z 23020KT 5000 -RA BR SCT003 BKN005 BKN010 18/17 Q1010","updated":"2026-05-19T16:17:41Z"}
