{"icao":"LPMT","metar":"LPMT 282300Z 35006KT 9999 FEW045 18/15 Q1016","updated":"2025-09-28T23:14:53Z"}
