{"icao":"LPLA","metar":"LPLA 161000Z 23005KT 9999 FEW022 BKN030 15/11 Q1021","updated":"2026-03-16T10:05:39Z"}
