{"icao":"KJFK","metar":"KJFK 060951Z 31006KT 10SM SCT017 BKN031 OVC055 01/M01 A2994 RMK AO2 SLP138 T00111011 $","updated":"2025-12-06T10:18:36Z"}
