{"icao":"LPCS","metar":"LPCS 160600Z 01012KT 9999 FEW010 17/16 Q1019","updated":"2025-09-16T06:26:34Z"}
