{"icao":"LPAZ","metar":"LPAZ 211330Z 18013KT 9999 FEW049 18/13 Q1026","updated":"2026-02-21T13:40:45Z"}
