{"icao":"KORD","metar":"KORD 122151Z 06007KT 10SM FEW070 SCT090 03/M03 A3023 RMK AO2 SLP246 T00281033 $","updated":"2026-02-12T22:31:46Z"}
