{"icao":"LPBJ","metar":"LPBJ 051323Z 31011KT 9999 FEW009 SCT012 BKN015 13/10 Q1016","updated":"2026-03-05T14:02:42Z"}
