{"icao":"LPPT","metar":"LPPT 081230Z 21008KT 9999 VCSH FEW012 BKN015 13/10 Q1032","updated":"2026-01-08T12:42:50Z"}
