{"icao":"LPCS","metar":"LPCS 140800Z 35010KT 310V010 9999 BKN011 20/18 Q1023","updated":"2025-09-14T08:19:54Z"}
