{"icao":"KLAX","metar":"KLAX 031817Z 13005KT 3SM HZ FEW009 BKN015 18/14 A3009 RMK AO2 T01830139 $","updated":"2025-11-03T18:27:06Z"}
