{"icao":"LPPR","metar":"LPPR 131030Z 30004KT 230V020 9999 FEW024 21/14 Q1023","updated":"2025-09-13T10:48:37Z"}
