{"icao":"LPFR","metar":"LPFR 190700Z 08005KT CAVOK 25/19 Q1018","updated":"2025-09-19T07:16:47Z"}
