{"icao":"LPPT","metar":"LPPT 011230Z VRB06KT 9999 FEW048 28/12 Q1021","updated":"2025-10-01T12:38:08Z"}
