{"icao":"LPMR","metar":"LPMR 180500Z 16003KT 0600 FG SCT001 BKN004 01/01 Q1011","updated":"2026-01-18T05:22:34Z"}
