{"icao":"LPMA","metar":"LPMA 072300Z 03010KT 340V070 9999 SCT015 22/18 Q1026","updated":"2025-10-07T23:16:12Z"}
