{"icao":"LPMA","metar":"LPMA 241600Z 01010KT 290V080 9999 SCT015 17/10 Q1013","updated":"2025-12-24T16:24:18Z"}
