{"icao":"LPOV","metar":"LPOV 031800Z 33009KT 9999 BKN018 17/12 Q1014","updated":"2026-05-03T18:57:46Z"}
