{"icao":"LPFL","metar":"LPFL 200830Z 36023KT 9999 VCSH FEW008 SCT014 BKN025 13/11 Q1016","updated":"2026-03-20T08:38:57Z"}
