{"icao":"LPHR","metar":"LPHR 012200Z 22007KT 180V290 9999 FEW030 SCT035 13/05 Q1030","updated":"2026-03-02T04:46:46Z"}
