{"icao":"LPFL","metar":"LPFL 161500Z 24006KT 190V310 9999 FEW028 21/12 Q1007","updated":"2025-10-16T15:19:25Z"}
