{"icao":"LPGR","metar":"LPGR 261630Z 28009KT 250V320 9999 FEW018 21/15 Q1024","updated":"2026-06-26T17:45:45Z"}
