{"icao":"KORD","metar":"KORD 181851Z 10009KT 10SM OVC012 06/03 A2995 RMK AO2 SLP148 T00560033","updated":"2025-11-18T19:15:54Z"}
