{"icao":"LPAZ","metar":"LPAZ 172200Z 20010KT 9999 FEW015 23/20 Q1019","updated":"2025-09-17T22:14:53Z"}
