{"icao":"LPPD","metar":"LPPD 030530Z 06007KT 010V100 9999 FEW015 BKN040 14/11 Q1020","updated":"2026-05-03T05:57:59Z"}
