{"icao":"LPBJ","metar":"LPBJ 151500Z 35013KT 310V020 9999 FEW035 20/08 Q1016","updated":"2026-03-15T15:28:02Z"}
