{"icao":"LPPT","metar":"LPPT 012200Z 12013KT 090V150 9999 BKN009 14/14 Q1006","updated":"2026-01-01T22:18:44Z"}
