{"icao":"LPPD","metar":"LPPD 080900Z 22018KT 9999 FEW008 SCT012 19/18 Q1020","updated":"2025-11-08T09:16:39Z"}
