{"icao":"LPPS","metar":"LPPS 120930Z 06015KT 040V100 9999 SCT015 16/09 Q1025","updated":"2026-03-12T09:41:31Z"}
