{"icao":"KORD","metar":"KORD 081351Z 13008KT 10SM FEW047 SCT120 BKN190 BKN250 23/18 A3000 RMK AO2 SLP154 T02330178","updated":"2026-06-08T14:47:04Z"}
