{"icao":"LPMA","metar":"LPMA 042300Z 36008G18KT 280V060 9999 -SHRA BKN015 FEW018TCU 16/12 Q1014","updated":"2026-01-04T23:18:59Z"}
