{"icao":"LPPD","metar":"LPPD 130900Z 10004KT 040V130 9999 FEW020 19/16 Q1017","updated":"2025-10-13T09:21:07Z"}
