{"icao":"LPPS","metar":"LPPS 040130Z 27019G29KT 9999 SCT008 SCT015 17/16 Q1013","updated":"2026-02-04T01:57:52Z"}
