{"icao":"LPPD","metar":"LPPD 080900Z 23019KT 3000 RADZ BR SCT003 BKN004 17/16 Q1013","updated":"2026-02-08T09:28:27Z"}
