{"icao":"LPMA","metar":"LPMA 102300Z 36007KT 300V030 9999 SCT016 21/15 Q1022","updated":"2025-10-10T23:15:46Z"}
