{"icao":"LPMA","metar":"LPMA 091700Z 02007KT 340V060 9999 FEW016 SCT033 22/13 Q1021","updated":"2025-11-09T17:14:41Z"}
