{"icao":"LPFR","metar":"LPFR 162000Z 30006KT CAVOK 24/19 Q1018","updated":"2025-09-16T20:18:56Z"}
