{"icao":"LPCS","metar":"LPCS 280800Z 30018G31KT 8000 -DZ SCT007 BKN015 18/16 Q1014","updated":"2025-09-28T08:19:41Z"}
