{"icao":"LPBJ","metar":"LPBJ 300832Z 21006KT 3000 1100S PRFG BKN002 BKN010 10/10 Q1015","updated":"2026-01-30T08:37:27Z"}
