{"icao":"LPPT","metar":"LPPT 130100Z VRB02KT CAVOK 20/12 Q1016","updated":"2025-10-13T01:23:29Z"}
