{"icao":"KLAX","metar":"KLAX 300853Z 00000KT 3/4SM R25L/P6000FT BR FEW001 BKN003 14/13 A2994 RMK AO2 SLP136 VIS N 1/2 VIS SE 2 T01390133 55001 $","updated":"2026-03-30T09:10:37Z"}
