{"icao":"LPMR","metar":"LPMR 261700Z 21015KT 180V250 9999 SCT011 BKN025 16/12 Q1007","updated":"2026-01-26T17:28:22Z"}
