{"icao":"LPPS","metar":"LPPS 020930Z 35024KT 9999 BKN012 14/11 Q1017","updated":"2026-03-02T09:48:30Z"}
