{"icao":"LPLA","metar":"LPLA 121300Z 23007KT 200V260 9999 FEW020 BKN040 19/12 Q1030","updated":"2026-03-12T14:04:40Z"}
