{"icao":"LPPR","metar":"LPPR 091830Z 20010KT 9999 VCSH SCT020 FEW025CB 16/12 Q1006","updated":"2026-05-09T18:59:12Z"}
