{"icao":"KJFK","metar":"KJFK 271751Z 24016KT 10SM FEW050 SCT120 BKN250 M06/M14 A3003 RMK AO2 SLP168 4/008 933015 T10611144 11061 21094 58036 $","updated":"2026-01-27T18:37:29Z"}
