{"icao":"LPPT","metar":"LPPT 060400Z 34003KT CAVOK 16/12 Q1018","updated":"2025-10-06T04:20:48Z"}
