{"icao":"LPMR","metar":"LPMR 140900Z 30004KT 8000 SCT008 BKN018 15/15 Q1023","updated":"2026-04-14T09:16:14Z"}
