{"icao":"LPPT","metar":"LPPT 300130Z 30006KT 9999 FEW010 13/11 Q1016","updated":"2025-11-30T01:42:21Z"}
