{"icao":"LPFL","metar":"LPFL 081600Z 19017G30KT 160V220 6000 -SHRA FEW008 BKN010 FEW012CB 19/17 Q1004","updated":"2026-02-08T16:29:41Z"}
