{"icao":"LPOV","metar":"LPOV 271000Z 00000KT CAVOK 11/10 Q1025","updated":"2025-11-27T10:21:22Z"}
