{"icao":"LPHR","metar":"LPHR 300700Z 29013KT 9999 FEW014 SCT030 18/13 Q1008","updated":"2025-10-30T07:17:48Z"}
