{"icao":"LPBJ","metar":"LPBJ 031000Z 14012KT 8000 -RADZ SCT008 FEW020CB BKN045 13/12 Q1000","updated":"2026-01-03T10:19:31Z"}
