{"icao":"KLAX","metar":"KLAX 101353Z 00000KT 10SM SCT009 OVC014 14/12 A3002 RMK AO2 SLP164 T01440117 $","updated":"2026-03-10T14:03:17Z"}
