{"icao":"LPMR","metar":"LPMR 170900Z 17003KT 8000 3500S SCT020 FEW022CB SCT040 12/12 Q1014","updated":"2025-11-17T09:23:39Z"}
