{"icao":"LPPR","metar":"LPPR 111830Z 34021G31KT CAVOK 12/06 Q1017","updated":"2026-04-11T18:42:11Z"}
