{"icao":"KORD","metar":"KORD 100751Z 22012KT 8SM OVC009 16/14 A2975 RMK AO2 SLP070 T01610144 $","updated":"2026-03-10T08:40:18Z"}
