{"icao":"KORD","metar":"KORD 020551Z 30003KT 10SM FEW015 BKN030 BKN045 06/04 A3014 RMK AO2 SLP210 60002 T00610044 10083 20061 401000044 53000 $","updated":"2025-11-02T06:25:58Z"}
