{"icao":"LPLA","metar":"LPLA 281900Z 30016KT 9999 FEW013 SCT020 17/15 Q1028","updated":"2026-02-28T19:19:41Z"}
