{"icao":"KJFK","metar":"KJFK 172051Z 35011KT 10SM FEW140 FEW250 17/M01 A2993 RMK AO2 SLP136 T01721006 56010","updated":"2025-10-17T21:15:07Z"}
