{"icao":"LPLA","metar":"LPLA 280800Z 22008KT 200V270 9999 -RA FEW009 SCT016 BKN030 16/14 Q1030","updated":"2026-02-28T08:27:44Z"}
