{"icao":"LPFL","metar":"LPFL 091700Z 18011KT 150V230 9999 VCSH FEW017 FEW020TCU 23/17 Q1016","updated":"2025-10-09T17:16:04Z"}
