{"icao":"LPPS","metar":"LPPS 272300Z 30016KT 9999 SCT015 16/08 Q1017","updated":"2025-12-27T23:18:00Z"}
