{"icao":"LPCS","metar":"LPCS 222000Z 36016KT CAVOK 16/11 Q1018","updated":"2025-09-23T05:16:42Z"}
