{"icao":"LPST","metar":"LPST 141600Z 34017KT 9999 FEW030 16/11 Q1013","updated":"2026-05-14T23:56:50Z"}
