{"icao":"LPLA","metar":"LPLA 191300Z 33005KT 280V020 9999 SCT035 15/07 Q1032","updated":"2026-01-19T13:44:06Z"}
