{"icao":"KJFK","metar":"KJFK 191651Z 34015G23KT 10SM SCT029 OVC055 11/05 A2985 RMK PK WND 34027/1601 CIG 029 W SLP106 T01110050 ","updated":"2026-04-19T17:34:19Z"}
