{"icao":"LPMR","metar":"LPMR 231600Z 25006KT 210V270 9999 FEW020 SCT030 BKN035 16/10 Q1024","updated":"2025-11-23T16:21:08Z"}
