{"icao":"LPPS","metar":"LPPS 171800Z 34012KT 9999 SCT014 19/14 Q1023","updated":"2025-11-17T18:27:36Z"}
