{"icao":"LPMA","metar":"LPMA 262200Z 36015KT 310V020 9999 SCT016 15/09 Q1017","updated":"2026-03-26T22:28:19Z"}
