{"icao":"LPAZ","metar":"LPAZ 250230Z 12003KT 9999 FEW022 BKN033 18/14 Q1019","updated":"2025-09-25T02:59:55Z"}
