{"icao":"LPBJ","metar":"LPBJ 021100Z VRB03KT CAVOK 27/13 Q1022","updated":"2025-10-02T11:13:38Z"}
