{"icao":"LPMA","metar":"LPMA 051100Z 01006KT 330V090 9999 FEW015 SCT030 23/13 Q1025","updated":"2025-10-05T11:12:40Z"}
