{"icao":"LPPR","metar":"LPPR 260200Z 34005KT 290V010 CAVOK 11/05 Q1019","updated":"2026-03-26T02:11:25Z"}
