{"icao":"LPHR","metar":"LPHR 162200Z 30009KT 9999 FEW016 BKN030 15/09 Q1035","updated":"2026-01-16T22:19:57Z"}
