{"icao":"LPMR","metar":"LPMR 261100Z 04006KT CAVOK 18/13 Q1019","updated":"2025-10-26T11:13:00Z"}
