{"icao":"LPGR","metar":"LPGR 201100Z 27013KT 9999 FEW013 SCT025 21/16 Q1009","updated":"2026-06-20T11:16:47Z"}
