{"icao":"KJFK","metar":"KJFK 301451Z 32017G24KT 10SM FEW050 M12/M21 A3021 RMK PK WND 32030/1410 SLP229 T11171206 53012 $ ","updated":"2026-01-30T15:33:02Z"}
