{"icao":"LPHR","metar":"LPHR 091900Z 15007KT 9999 FEW014 SCT030 18/15 Q1033","updated":"2026-04-09T19:04:53Z"}
