{"icao":"LPPS","metar":"LPPS 050530Z 33008KT 300V360 8000 -RADZ SCT008 BKN025 14/14 Q1023","updated":"2026-03-05T05:46:43Z"}
