{"icao":"LPPD","metar":"LPPD 300700Z 25004KT 6000 SCT002 BKN006 14/14 Q1013","updated":"2025-12-30T07:21:40Z"}
