{"icao":"LPMT","metar":"LPMT 121200Z 35012G22KT 310V020 9999 BKN040 16/07 Q1020","updated":"2026-04-12T12:58:57Z"}
