{"icao":"KLAX","metar":"KLAX 100653Z 00000KT 10SM FEW010 OVC200 16/14 A2993 RMK AO2 SLP134 T01610144 $","updated":"2026-02-10T07:02:53Z"}
