{"icao":"KORD","metar":"KORD 171251Z 26012G19KT 10SM FEW025 FEW200 M11/M17 A2987 RMK AO2 SLP124 T11111167 $","updated":"2026-01-17T13:27:51Z"}
