{"icao":"LPCS","metar":"LPCS 241630Z 25005KT 210V310 CAVOK 26/11 Q1020","updated":"2026-05-24T16:58:49Z"}
