{"icao":"LPMR","metar":"LPMR 102100Z 34009KT 9999 SCT022 FEW025CB 16/14 Q1013","updated":"2026-04-10T22:35:43Z"}
