{"icao":"KJFK","metar":"KJFK 241451Z 32025G35KT 10SM FEW050 FEW250 07/M04 A3005 RMK AO2 PK WND 33047/1423 SLP176 T00721044 51025 $","updated":"2025-12-24T15:20:26Z"}
