{"icao":"LPBJ","metar":"LPBJ 111200Z 04006KT 360V070 9999 FEW030 16/07 Q1026","updated":"2026-03-11T12:57:33Z"}
