{"icao":"LPFL","metar":"LPFL 201600Z 26018G30KT 190V340 9999 FEW018 18/13 Q1021","updated":"2026-01-20T16:34:46Z"}
