{"icao":"LPCS","metar":"LPCS 051730Z 32009KT 280V360 CAVOK 19/09 Q1018","updated":"2026-06-05T17:52:36Z"}
