{"icao":"LPPI","metar":"LPPI 281600Z 03006KT 350V060 9999 FEW038 20/12 Q1028","updated":"2026-06-28T16:08:35Z"}
