{"icao":"LPMT","metar":"LPMT 200000Z 34008KT 9999 FEW022 20/16 Q1015","updated":"2026-06-20T00:08:34Z"}
