{"icao":"KJFK","metar":"KJFK 011251Z 32012KT 10SM FEW047 FEW250 12/00 A2993 RMK SLP135 T01170000 ","updated":"2026-05-01T13:42:33Z"}
