{"icao":"LPLA","metar":"LPLA 022000Z 02003KT 310V090 9999 SCT015 OVC023 15/11 Q1030","updated":"2026-04-02T20:33:56Z"}
