{"icao":"LPMT","metar":"LPMT 052100Z 25017KT 9999 FEW022 14/10 Q1001","updated":"2026-02-05T21:27:24Z"}
