{"icao":"LPPR","metar":"LPPR 150930Z 36011KT 330V030 9999 BKN028 16/09 Q1015","updated":"2026-05-15T09:46:44Z"}
