{"icao":"KJFK","metar":"KJFK 041651Z 00000KT 10SM SCT250 29/06 A3012 RMK AO2 SLP200 T02890056 $","updated":"2026-06-04T17:45:59Z"}
