{"icao":"LPAZ","metar":"LPAZ 302000Z 15010KT 0900 R18/1300U FG VV003 15/15 Q1021","updated":"2026-01-30T20:28:19Z"}
