{"icao":"LPMR","metar":"LPMR 062100Z 14009KT 9000 -RA SCT022 16/15 Q1014","updated":"2026-04-06T21:36:18Z"}
