{"icao":"LPOV","metar":"LPOV 181200Z 20018KT 8000 SCT006 BKN010 15/14 Q1016","updated":"2026-02-18T13:01:40Z"}
