{"icao":"LPPS","metar":"LPPS 021900Z 28020KT 9999 SCT014 FEW018CB 16/13 Q0997","updated":"2026-01-02T19:13:15Z"}
