{"icao":"LPPR","metar":"LPPR 240900Z 23012KT 190V260 3000 -RA BR BKN004 16/16 Q1014","updated":"2025-11-24T09:23:00Z"}
