{"icao":"LPPS","metar":"LPPS 241500Z 01010KT 350V050 9999 FEW015 20/13 Q1024","updated":"2025-11-24T15:21:35Z"}
