{"icao":"KORD","metar":"KORD 230451Z 21006KT 10SM OVC025 06/M03 A2999 RMK AO2 SLP158 T00611028","updated":"2025-12-23T05:23:03Z"}
