{"icao":"KORD","metar":"KORD 031251Z 34007KT 10SM FEW030 BKN100 M08/M12 A3017 RMK AO2 SLP227 T10831117","updated":"2026-02-03T12:57:32Z"}
