{"icao":"LPFL","metar":"LPFL 211500Z 15008KT 9999 FEW025 SCT037 18/09 Q1031","updated":"2025-11-21T15:17:15Z"}
