{"icao":"KLAX","metar":"KLAX 281053Z 12003KT 10SM BKN220 18/12 A2988 RMK AO2 SLP113 T01830122","updated":"2026-02-28T11:17:47Z"}
