{"icao":"LPFL","metar":"LPFL 131500Z 34012KT 230V030 9999 VCSH BKN022 15/08 Q1009","updated":"2025-11-13T15:21:17Z"}
