{"icao":"LPPS","metar":"LPPS 202000Z 08008KT 040V100 9999 FEW015 BKN030 16/10 Q1027","updated":"2026-02-20T20:30:16Z"}
