{"icao":"LPBJ","metar":"LPBJ 300700Z 09007KT 060V120 CAVOK 07/M01 Q1029","updated":"2026-03-30T07:25:30Z"}
