{"icao":"LPOV","metar":"LPOV 261100Z 25006KT 220V290 CAVOK 22/12 Q1020","updated":"2025-09-26T11:14:08Z"}
