{"icao":"LPMA","metar":"LPMA 161500Z 02014KT 350V050 9999 SCT016 19/11 Q1019","updated":"2026-04-16T15:24:29Z"}
