{"icao":"LPPR","metar":"LPPR 010700Z 13005KT 090V160 9999 FEW012 14/14 Q1014","updated":"2025-11-01T07:15:35Z"}
