{"icao":"LPMT","metar":"LPMT 092100Z 31007KT 260V350 9999 FEW030 11/06 Q1022","updated":"2026-03-09T21:31:16Z"}
