{"icao":"LPPT","metar":"LPPT 041400Z 35012KT CAVOK 25/15 Q1023","updated":"2025-10-04T14:13:59Z"}
