{"icao":"LPPD","metar":"LPPD 201230Z 16013KT 9999 FEW020 BKN040 16/13 Q1024","updated":"2026-02-20T12:56:18Z"}
