{"icao":"LPHR","metar":"LPHR 181230Z 17003KT 130V210 9999 FEW010 19/15 Q1027","updated":"2025-11-18T12:39:05Z"}
