{"icao":"LPBJ","metar":"LPBJ 262100Z 04006KT CAVOK 16/05 Q1014","updated":"2026-03-26T21:30:16Z"}
