{"icao":"LPMR","metar":"LPMR 021100Z 01004KT 330V090 9999 SCT018 17/13 Q1026","updated":"2025-11-02T11:12:56Z"}
