{"icao":"LPPD","metar":"LPPD 011330Z 32016G27KT 270V360 9999 BKN005 BKN011 16/13 Q1023","updated":"2026-03-01T13:37:31Z"}
