{"icao":"LPHR","metar":"LPHR 261930Z 29013KT 9999 FEW018 SCT030 20/16 Q1024","updated":"2026-06-26T19:44:31Z"}
