{"icao":"LPBJ","metar":"LPBJ 041300Z 32009KT 290V350 9999 FEW040 SCT045 20/06 Q1016","updated":"2026-05-04T13:56:57Z"}
