{"icao":"LPMT","metar":"LPMT 211700Z 25006KT CAVOK 27/13 Q1019","updated":"2026-05-21T17:56:39Z"}
