{"icao":"LPMA","metar":"LPMA 161800Z 35009KT 310V020 9999 SCT016 20/12 Q1021","updated":"2025-11-16T18:24:28Z"}
