{"icao":"LPPS","metar":"LPPS 031430Z 08014KT 050V110 9999 FEW015 18/13 Q1022","updated":"2026-04-03T14:40:41Z"}
