{"icao":"LPBJ","metar":"LPBJ 010700Z VRB01KT CAVOK 04/02 Q1020","updated":"2025-12-01T07:21:59Z"}
