{"icao":"LPPS","metar":"LPPS 072300Z 02010KT 9999 SCT012 BKN030 21/18 Q1021","updated":"2025-11-07T23:16:23Z"}
