{"icao":"LPMR","metar":"LPMR 031600Z 27004KT 180V310 CAVOK 18/13 Q1021","updated":"2025-11-03T16:21:02Z"}
