{"icao":"KLAX","metar":"KLAX 162053Z 25012KT 10SM CLR 21/07 A2990 RMK AO2 SLP124 T02110072 58017 $","updated":"2025-10-16T21:16:05Z"}
