{"icao":"LPPR","metar":"LPPR 030630Z 24006KT 210V290 9999 FEW020 FEW025CB BKN048 11/06 Q0997","updated":"2026-02-03T06:50:06Z"}
