{"icao":"LPCS","metar":"LPCS 231900Z 01015KT CAVOK 19/09 Q1017","updated":"2025-09-23T19:14:05Z"}
