{"icao":"KJFK","metar":"KJFK 110751Z 32005KT 2SM BR BKN004 OVC007 06/06 A2977 RMK AO2 SFC VIS 3 SLP082 T00560056","updated":"2026-01-11T08:25:45Z"}
