{"icao":"LPMR","metar":"LPMR 200700Z 14002KT 8000 FEW009 17/16 Q1020","updated":"2025-09-20T07:15:12Z"}
