{"icao":"KLAX","metar":"KLAX 210053Z 25008KT 10SM FEW095 FEW160 SCT270 13/02 A3004 RMK AO2 SLP174 T01280017 $","updated":"2026-02-21T01:54:14Z"}
