{"icao":"KLAX","metar":"KLAX 231253Z 25004KT 3SM BR FEW002 BKN004 OVC200 19/18 A2982 RMK AO2 SLP097 VIS 2V4 T01890178 $","updated":"2025-09-23T13:27:05Z"}
