{"icao":"LPPT","metar":"LPPT 091530Z 24011KT 2000 -RADZ BR SCT002 BKN004 16/16 Q1012","updated":"2026-02-09T15:54:37Z"}
