{"icao":"KORD","metar":"KORD 171651Z 20011G19KT 10SM FEW085 SCT130 BKN250 21/11 A2991 RMK AO2 SLP126 T02060106","updated":"2025-10-17T17:15:26Z"}
