{"icao":"LPMA","metar":"LPMA 061930Z 13004KT 090V190 9999 SCT014 SCT030 17/11 Q1016","updated":"2026-04-06T19:54:17Z"}
