{"icao":"LPAZ","metar":"LPAZ 010800Z 06006KT 020V090 9999 BKN020 21/16 Q1030","updated":"2026-07-01T08:11:19Z"}
