{"icao":"LPMT","metar":"LPMT 210600Z 01010KT CAVOK 11/03 Q1025","updated":"2025-11-21T06:29:09Z"}
