{"icao":"LPLA","metar":"LPLA 231042Z 21032G53KT 7000 -RA SCT007 BKN014 18/16 Q1007 RERA","updated":"2026-02-23T10:49:46Z"}
