{"icao":"LPAZ","metar":"LPAZ 041730Z 28007KT 250V310 9999 FEW015 21/16 Q1027","updated":"2026-06-04T17:45:57Z"}
