{"icao":"KJFK","metar":"KJFK 202251Z 12007KT 10SM FEW045 FEW250 18/12 A3026 RMK AO2 SLP248 T01830117 $","updated":"2025-09-20T23:15:03Z"}
