{"icao":"LPAZ","metar":"LPAZ 271900Z 25030KT 8000 FEW015 BKN018 17/14 Q1009","updated":"2026-01-27T19:25:09Z"}
