{"icao":"LPMA","metar":"LPMA 202100Z VRB03KT 9999 FEW016 22/18 Q1019","updated":"2026-06-20T21:17:07Z"}
