{"icao":"LPMA","metar":"LPMA 021400Z 19006KT 160V240 9999 FEW015 24/19 Q1023","updated":"2025-11-02T14:14:43Z"}
