{"icao":"KORD","metar":"KORD 291451Z 32007KT 10SM FEW025 FEW250 M15/M21 A3032 RMK AO2 SLP282 T11501211 51014","updated":"2026-01-29T15:34:39Z"}
