{"icao":"KLAX","metar":"KLAX 060853Z 00000KT 10SM CLR 16/11 A3017 RMK AO2 SLP216 T01560106 58006 $","updated":"2025-11-06T09:20:26Z"}
