{"icao":"KORD","metar":"KORD 191851Z 26010G18KT 10SM FEW025 FEW250 M08/M16 A2994 RMK AO2 SLP151 T10781161","updated":"2025-12-19T19:16:04Z"}
