{"icao":"LPPS","metar":"LPPS 131900Z 02010KT 350V050 9999 FEW015 15/08 Q1025","updated":"2026-04-13T19:23:20Z"}
