{"icao":"LPMT","metar":"LPMT 230400Z VRB02KT CAVOK 05/05 Q1027","updated":"2025-11-23T04:31:28Z"}
