{"icao":"KORD","metar":"KORD 081351Z 13008KT 9SM FEW012 FEW100 FEW160 M06/M08 A3034 RMK AO2 SLP284 T10561083 $","updated":"2026-02-08T14:26:34Z"}
