{"icao":"LPPS","metar":"LPPS 252000Z 01014KT 9999 FEW015 15/09 Q1021","updated":"2026-02-25T20:34:12Z"}
