{"icao":"KORD","metar":"KORD 140251Z 17006KT 10SM BKN120 10/00 A3010 RMK AO2 SLP196 T01000000 58010","updated":"2025-11-14T03:11:59Z"}
