{"icao":"LPFR","metar":"LPFR 090900Z 01004KT 330V060 CAVOK 21/14 Q1020","updated":"2025-10-09T09:18:29Z"}
