{"icao":"LPAZ","metar":"LPAZ 021900Z 32030G41KT 9999 FEW014 SCT046 14/11 Q1004","updated":"2026-01-02T19:13:11Z"}
