{"icao":"LPFR","metar":"LPFR 291000Z 32007KT CAVOK 14/09 Q1020","updated":"2025-11-29T10:18:12Z"}
