{"icao":"LPPD","metar":"LPPD 040100Z 24016KT 9999 FEW014 20/18 Q1008","updated":"2025-11-04T01:23:24Z"}
