{"icao":"KLAX","metar":"KLAX 020853Z 09003KT 10SM FEW002 FEW010 SCT050 SCT200 13/12 A3008 RMK AO2 SLP183 T01330117 58008 $","updated":"2026-01-02T09:24:01Z"}
