{"icao":"LPHR","metar":"LPHR 021500Z 33010G24KT 250V060 9999 SCT018 SCT035 15/08 Q1009","updated":"2026-01-02T15:20:44Z"}
