{"icao":"LPMA","metar":"LPMA 160600Z 34011KT 280V010 9999 BKN015 17/09 Q1024","updated":"2025-12-16T06:32:00Z"}
