{"icao":"LPPD","metar":"LPPD 081800Z 03015KT 360V060 9999 FEW030 14/07 Q1029","updated":"2026-03-08T18:32:37Z"}
