{"icao":"LPFL","metar":"LPFL 102100Z 20017G30KT 170V230 9999 SCT015 18/14 Q1001","updated":"2026-02-11T05:01:36Z"}
