{"icao":"LPPD","metar":"LPPD 181100Z 27010KT 5000 BR FEW002 BKN004 22/22 Q1016","updated":"2025-10-18T11:13:13Z"}
