{"icao":"LPFL","metar":"LPFL 071400Z VRB04KT 9999 -RA SCT017 14/10 Q1007","updated":"2025-12-07T14:16:17Z"}
