{"icao":"KJFK","metar":"KJFK 141251Z 02004KT 10SM FEW100 SCT250 22/16 A3004 RMK AO2 SLP170 T02170161 $","updated":"2025-09-14T13:18:21Z"}
