{"icao":"LPPR","metar":"LPPR 070900Z 21007KT 150V250 9999 FEW017 15/11 Q1010","updated":"2026-05-07T09:30:02Z"}
