{"icao":"LPHR","metar":"LPHR 161000Z 18008KT 160V220 9999 SCT013 BKN020 18/15 Q1022","updated":"2025-11-16T10:17:35Z"}
