{"icao":"LPMA","metar":"LPMA 142200Z 36008KT 310V030 9999 SCT016 18/12 Q1020","updated":"2025-12-14T22:17:20Z"}
