{"icao":"LPHR","metar":"LPHR 280700Z 08007KT 040V110 9999 FEW020 SCT035 20/14 Q1027","updated":"2025-09-28T07:14:23Z"}
