{"icao":"LPFR","metar":"LPFR 142100Z 33004KT CAVOK 25/17 Q1018","updated":"2025-09-14T21:14:01Z"}
