{"icao":"LPPD","metar":"LPPD 011400Z 05011KT 010V100 9999 FEW025 BKN045 19/08 Q1020","updated":"2025-11-01T14:14:30Z"}
