{"icao":"LPPT","metar":"LPPT 210500Z 32005KT 280V010 9999 FEW015 09/07 Q1009","updated":"2025-12-21T05:19:27Z"}
