{"icao":"LPFR","metar":"LPFR 080800Z 01004KT 320V030 CAVOK 11/08 Q1020","updated":"2026-03-08T08:29:49Z"}
