{"icao":"LPPR","metar":"LPPR 281100Z 36009KT CAVOK 11/06 Q1028","updated":"2026-02-28T11:17:43Z"}
