{"icao":"LPOV","metar":"LPOV 040100Z 36006KT 9999 MIFG NSC 12/09 Q1015","updated":"2026-03-04T01:56:46Z"}
