{"icao":"LPFR","metar":"LPFR 031800Z 30017KT CAVOK 32/15 Q1016","updated":"2026-06-03T18:21:28Z"}
