{"icao":"LPCS","metar":"LPCS 092100Z 04006KT CAVOK 17/13 Q1014","updated":"2026-04-09T22:39:12Z"}
