{"icao":"LPPT","metar":"LPPT 192000Z 32007KT 9999 FEW010 11/09 Q1022","updated":"2026-01-19T20:22:38Z"}
