{"icao":"LPFL","metar":"LPFL 150900Z 18007KT 150V240 9999 FEW025 SCT049 18/12 Q1002","updated":"2025-10-15T09:19:41Z"}
