{"icao":"KLAX","metar":"KLAX 081753Z 06008KT 10SM CLR 23/03 A3022 RMK AO2 SLP232 T02330033 10239 20117 53011 $","updated":"2026-02-08T18:35:49Z"}
