{"icao":"KJFK","metar":"KJFK 221251Z 31007KT 10SM FEW040 FEW250 M02/M10 A3050 RMK AO2 SLP328 T10171100 $","updated":"2025-12-22T13:33:29Z"}
