{"icao":"LPPS","metar":"LPPS 230000Z 36013KT 9999 SCT010 18/15 Q1023","updated":"2026-05-23T00:05:24Z"}
