{"icao":"LPAR","metar":"LPAR 161600Z 31006KT 260V010 9999 3000S VCSH SCT018 FEW022CB SCT030 12/08 Q1013","updated":"2026-01-16T16:27:28Z"}
