{"icao":"LPPR","metar":"LPPR 031700Z 17006KT CAVOK 16/12 Q1021","updated":"2025-11-03T17:16:34Z"}
