{"icao":"LPFL","metar":"LPFL 170830Z 33017G27KT 290V010 9999 SCT017 09/03 Q1020","updated":"2026-03-17T08:52:40Z"}
