{"icao":"LPPR","metar":"LPPR 101730Z 20007KT 170V260 7000 BKN003 BKN007 15/14 Q1012","updated":"2026-02-10T18:00:16Z"}
