{"icao":"LPPT","metar":"LPPT 261230Z 23018KT 6000 -RA FEW005 BKN007 15/14 Q1013","updated":"2026-01-26T12:45:46Z"}
