{"icao":"LPAZ","metar":"LPAZ 090930Z 36005KT 320V040 9999 FEW012 BKN034 20/16 Q1031","updated":"2026-06-09T09:40:24Z"}
