{"icao":"LPPT","metar":"LPPT 101100Z 06011KT 020V080 CAVOK 24/12 Q1021","updated":"2025-10-10T11:15:16Z"}
