{"icao":"LPFL","metar":"LPFL 091230Z 14005KT 110V170 9999 FEW020 BKN037 15/07 Q1036","updated":"2026-03-09T13:00:41Z"}
