{"icao":"LPFR","metar":"LPFR 120930Z 12004KT CAVOK 16/10 Q1025","updated":"2026-03-12T09:40:55Z"}
