{"icao":"LPPT","metar":"LPPT 180700Z 05003KT 360V120 3000 0700NE R20/0900N PRFG BR FEW002 09/09 Q1022","updated":"2025-12-18T07:21:12Z"}
