{"icao":"LPPR","metar":"LPPR 070130Z 24011KT 9999 -SHRA FEW018 FEW020CB BKN030 11/05 Q1006","updated":"2026-02-07T01:54:35Z"}
