{"icao":"LPMT","metar":"LPMT 251700Z 04004KT 9999 FEW015 18/13 Q1017","updated":"2026-02-25T17:55:42Z"}
