{"icao":"LPMT","metar":"LPMT 201800Z 26012KT CAVOK 25/13 Q1019","updated":"2026-05-20T19:22:58Z"}
