{"icao":"LPAR","metar":"LPAR 301000Z 05007KT 020V090 CAVOK 15/01 Q1031","updated":"2026-03-30T11:00:32Z"}
