{"icao":"LPOV","metar":"LPOV 081800Z 16012KT 3000 -RADZ BR SCT006 BKN018 10/10 Q1010","updated":"2026-02-08T18:35:26Z"}
