{"icao":"KJFK","metar":"KJFK 082251Z 24007KT 10SM FEW060 SCT150 BKN250 14/09 A2985 RMK AO2 SLP107 T01390089","updated":"2026-03-08T23:23:02Z"}
