{"icao":"LPPD","metar":"LPPD 091100Z 19008KT 140V210 9999 FEW016 17/13 Q1031","updated":"2026-01-09T11:18:14Z"}
