{"icao":"LPPD","metar":"LPPD 160900Z 21005KT 150V290 9999 FEW016 22/18 Q1024","updated":"2025-09-16T09:19:06Z"}
