{"icao":"KJFK","metar":"KJFK 171651Z 33014G22KT 10SM FEW140 FEW250 16/01 A2999 RMK AO2 SLP153 T01560006","updated":"2025-10-17T17:15:25Z"}
