{"icao":"LPMT","metar":"LPMT 110400Z 23013KT 4000 RADZ BR OVC006 15/15 Q1017","updated":"2026-02-11T05:01:34Z"}
