{"icao":"LPLA","metar":"LPLA 082300Z 23007KT 190V260 9999 SCT016 SCT040 17/15 Q1031","updated":"2026-01-08T23:17:30Z"}
