{"icao":"LPMT","metar":"LPMT 291000Z 33005KT 330V030 CAVOK 21/15 Q1016","updated":"2025-09-29T10:19:57Z"}
