{"icao":"LPFR","metar":"LPFR 100230Z 23011KT 210V270 9999 FEW015 16/12 Q1012","updated":"2026-05-10T02:49:40Z"}
