{"icao":"LPBJ","metar":"LPBJ 141900Z 29012KT 7000 VCFG SCT006 OVC015 13/12 Q1015","updated":"2026-03-14T19:25:39Z"}
