{"icao":"KORD","metar":"KORD 221551Z 18010KT 10SM SCT130 OVC250 04/M09 A3025 RMK AO2 SLP251 VIRGA T00441089","updated":"2025-12-22T16:24:56Z"}
