{"icao":"LPBJ","metar":"LPBJ 031400Z 15003KT 100V190 CAVOK 21/08 Q1021","updated":"2025-11-03T14:18:41Z"}
