{"icao":"LPFL","metar":"LPFL 152000Z 21005KT 180V240 9999 FEW024 16/11 Q1017","updated":"2025-11-15T20:18:17Z"}
