{"icao":"LPMR","metar":"LPMR 272200Z 21019G34KT 170V240 9999 BKN009 OVC018 19/17 Q1009","updated":"2025-09-27T22:14:33Z"}
