{"icao":"LPCS","metar":"LPCS 261500Z 21007KT 170V250 CAVOK 27/02 Q1018","updated":"2025-09-26T15:18:07Z"}
