{"icao":"LPMR","metar":"LPMR 210500Z 27007KT 3000 BR OVC004 19/19 Q1012","updated":"2025-10-21T06:27:22Z"}
