{"icao":"LPBJ","metar":"LPBJ 270800Z 10006KT CAVOK 06/04 Q1024","updated":"2025-11-27T08:27:01Z"}
