{"icao":"LPMA","metar":"LPMA 250800Z 36011G21KT 290V040 9999 SCT015 16/09 Q1016","updated":"2025-12-25T08:27:04Z"}
