{"icao":"LPBJ","metar":"LPBJ 072000Z 29019G30KT 8000 VCSH FEW018CB OVC030 10/07 Q1009","updated":"2026-02-07T20:25:06Z"}
