{"icao":"LPMR","metar":"LPMR 012100Z 33002KT CAVOK 16/12 Q1019","updated":"2026-05-01T21:51:50Z"}
