{"icao":"LPMR","metar":"LPMR 101600Z 30009KT 260V330 CAVOK 22/13 Q1011","updated":"2026-04-10T16:49:40Z"}
