{"icao":"LPPR","metar":"LPPR 232000Z 09003KT 040V140 9999 FEW020 BKN035 14/11 Q1020","updated":"2025-10-23T20:19:02Z"}
