{"icao":"LPPD","metar":"LPPD 160700Z 11010KT 3000 +RA SCT007 BKN014 FEW018CB 19/18 Q1004","updated":"2025-10-16T07:17:50Z"}
