{"icao":"KJFK","metar":"KJFK 040551Z 25009KT 10SM CLR 16/12 A3024 RMK AO2 SLP238 T01610122 10183 20156 56005","updated":"2025-10-04T06:23:28Z"}
