{"icao":"LPLA","metar":"LPLA 262100Z 29029G40KT 8000 -SHRA FEW014 SCT018 FEW020TCU BKN030 09/05 Q1006","updated":"2026-01-26T21:22:59Z"}
