{"icao":"KLAX","metar":"KLAX 061653Z VRB03KT 10SM FEW010 18/11 A3016 RMK AO2 SLP213 T01780106 $","updated":"2025-11-06T17:18:32Z"}
