{"icao":"LPHR","metar":"LPHR 160700Z 13006KT 9999 SCT016 BKN030 17/13 Q1021","updated":"2025-11-16T07:17:10Z"}
