{"icao":"KJFK","metar":"KJFK 071251Z 28017G23KT 10SM FEW060 BKN085 11/00 A3013 RMK AO2 PK WND 27026/1213 SLP201 T01060000","updated":"2026-04-07T13:16:55Z"}
