{"icao":"LPFL","metar":"LPFL 131800Z VRB02KT 9999 FEW020 19/15 Q1012","updated":"2025-10-14T05:16:51Z"}
