{"icao":"LPPR","metar":"LPPR 050530Z 01008KT 9999 FEW046 05/01 Q1013","updated":"2026-01-05T05:34:39Z"}
