{"icao":"KORD","metar":"KORD 112151Z 05014KT 10SM FEW250 12/M04 A3023 RMK AO2 SLP238 T01171039 $","updated":"2026-05-11T22:06:50Z"}
