{"icao":"LPFL","metar":"LPFL 071200Z 27016G26KT 220V320 9999 FEW006 21/16 Q1026","updated":"2026-06-07T12:19:40Z"}
