{"icao":"LPST","metar":"LPST 131300Z 30008KT 270V340 9999 BKN011 14/11 Q1023","updated":"2026-03-13T14:00:17Z"}
