{"icao":"KJFK","metar":"KJFK 041651Z 22007KT 10SM FEW250 24/13 A3021 RMK AO2 SLP229 T02440133","updated":"2025-10-04T17:13:35Z"}
