{"icao":"LPFR","metar":"LPFR 142300Z 36005KT CAVOK 10/08 Q1022","updated":"2026-01-14T23:17:06Z"}
