{"icao":"LPBJ","metar":"LPBJ 041900Z 33007KT CAVOK 12/09 Q1004","updated":"2026-01-04T19:14:38Z"}
