{"icao":"KJFK","metar":"KJFK 010651Z 23016G25KT 10SM FEW065 OVC095 02/M06 A2962 RMK AO2 PK WND 20030/0600 SLP030 T00171056 $","updated":"2026-01-01T07:21:40Z"}
