{"icao":"LPPR","metar":"LPPR 100500Z 16008KT 8000 RA SCT006 BKN010 14/14 Q1017","updated":"2025-11-10T05:18:55Z"}
