{"icao":"KORD","metar":"KORD 180951Z 19011G28KT 10SM OVC011 07/04 A2963 RMK AO2 PK WND 19028/0942 SLP037 T00720044","updated":"2025-12-18T10:21:56Z"}
