{"icao":"LPFR","metar":"LPFR 181800Z 17006KT CAVOK 26/21 Q1018","updated":"2025-09-18T18:25:28Z"}
