{"icao":"LPFL","metar":"LPFL 300800Z VRB07KT 9999 SCT015 17/11 Q1008","updated":"2025-10-30T08:24:19Z"}
