{"icao":"KJFK","metar":"KJFK 012151Z 18020G26KT 10SM FEW060 FEW100 FEW250 12/06 A2987 RMK PK WND 18028/2053 SLP115 T01220061 ","updated":"2026-05-01T22:49:02Z"}
