{"icao":"KORD","metar":"KORD 070451Z 36015KT 10SM CLR M07/M16 A3022 RMK AO2 SLP242 T10671161 $","updated":"2026-02-07T05:41:14Z"}
