{"icao":"KJFK","metar":"KJFK 081551Z 36015G25KT 10SM FEW050 BKN180 BKN220 M02/M17 A3027 RMK AO2 PK WND 34029/1507 SLP249 T10171167 $","updated":"2025-12-08T16:26:55Z"}
