{"icao":"LPFL","metar":"LPFL 181130Z 35024G36KT 9000 -RA SCT013 BKN020 10/08 Q1022 RERA","updated":"2026-03-18T11:44:03Z"}
