{"icao":"KLAX","metar":"KLAX 171453Z 08006KT 10SM FEW009 SCT035 BKN055 13/12 A2996 RMK AO2 SLP142 60002 T01330122 55002 $","updated":"2025-11-17T15:20:41Z"}
