{"icao":"LPBJ","metar":"LPBJ 042100Z 32006KT CAVOK 10/09 Q1005","updated":"2026-01-04T21:17:42Z"}
