{"icao":"LPFR","metar":"LPFR 161330Z 25012KT 9999 FEW018 SCT048 14/10 Q1015","updated":"2026-01-16T13:36:49Z"}
