{"icao":"LPPR","metar":"LPPR 281800Z 34008KT CAVOK 21/16 Q1014","updated":"2025-09-28T18:21:21Z"}
