{"icao":"LPMR","metar":"LPMR 291800Z 34007KT 9999 FEW011 SCT015 BKN040 17/16 Q1010","updated":"2025-10-29T18:27:32Z"}
