{"icao":"LPLA","metar":"LPLA 241000Z 19019KT 9999 FEW008 SCT035 16/13 Q1011","updated":"2026-04-24T10:19:55Z"}
