{"icao":"LPPD","metar":"LPPD 300130Z 35006KT 320V020 9999 SCT020 SCT030 17/14 Q1029","updated":"2025-11-30T01:42:24Z"}
