{"icao":"LPMA","metar":"LPMA 262000Z 23009KT 190V300 9999 BKN016 18/12 Q1017","updated":"2026-01-26T20:27:08Z"}
