{"icao":"LPMR","metar":"LPMR 270100Z 20023G34KT 3000 RA BR SCT008 BKN020 15/13 Q0998 RERA","updated":"2026-01-27T01:47:42Z"}
