{"icao":"LPMT","metar":"LPMT 011400Z 29003KT 230V320 9999 FEW020 SCT038 21/17 Q1018","updated":"2025-11-01T14:14:29Z"}
