{"icao":"LPLA","metar":"LPLA 022300Z 32020KT 9999 SCT013 BKN020 14/12 Q1009","updated":"2026-01-02T23:18:03Z"}
