{"icao":"LPMR","metar":"LPMR 130500Z 14003KT CAVOK 13/10 Q1015","updated":"2025-10-13T05:17:46Z"}
