{"icao":"LPFR","metar":"LPFR 070400Z 01002KT CAVOK 13/10 Q1018","updated":"2025-11-07T04:20:49Z"}
