{"icao":"KJFK","metar":"KJFK 150951Z 06006KT 10SM BKN120 03/M07 A3044 RMK AO2 SLP307 T00281072","updated":"2026-03-15T10:27:57Z"}
