{"icao":"LPHR","metar":"LPHR 241400Z 25027G38KT 3500 -RA BR SCT006 BKN011 16/15 Q1018","updated":"2026-01-24T14:18:53Z"}
