{"icao":"LPAR","metar":"LPAR 181600Z 32016G26KT 290V350 9999 FEW012 BKN020 16/12 Q1018","updated":"2026-02-18T17:01:48Z"}
