{"icao":"LPFR","metar":"LPFR 052300Z 31013KT CAVOK 21/07 Q1017","updated":"2026-06-05T23:07:02Z"}
