{"icao":"LPMA","metar":"LPMA 140800Z 34009KT 300V010 9999 SCT015 15/06 Q1024","updated":"2026-01-14T08:29:25Z"}
