{"icao":"LPMR","metar":"LPMR 291400Z 21007KT 190V250 9999 FEW025 BKN040 17/09 Q1016","updated":"2025-11-29T14:16:00Z"}
