{"icao":"LPMR","metar":"LPMR 030400Z 16004KT CAVOK 08/07 Q1024","updated":"2025-11-03T04:27:14Z"}
