{"icao":"LPPR","metar":"LPPR 121300Z 21012KT 7000 SCT015 BKN025 14/11 Q1018","updated":"2026-02-12T13:04:48Z"}
