{"icao":"LPMR","metar":"LPMR 160800Z 21006KT 170V250 5000 BR FEW018 FEW020CB 14/13 Q1010","updated":"2025-11-16T08:22:01Z"}
