{"icao":"KJFK","metar":"KJFK 090751Z 09003KT 10SM SCT090 BKN110 12/08 A2991 RMK AO2 SLP127 T01170083","updated":"2026-05-09T07:54:09Z"}
