{"icao":"LPMA","metar":"LPMA 051300Z 03004KT 340V070 9999 BKN025 19/09 Q1026","updated":"2025-12-05T13:31:17Z"}
