{"icao":"LPPD","metar":"LPPD 120400Z VRB02KT 9999 FEW025 17/15 Q1018","updated":"2025-10-12T04:20:19Z"}
