{"icao":"KORD","metar":"KORD 082151Z 06009KT 10SM FEW037 16/07 A3038 RMK AO2 SLP288 T01560067 $","updated":"2025-10-08T22:16:07Z"}
