{"icao":"LPFR","metar":"LPFR 230130Z 02005KT CAVOK 10/05 Q1025","updated":"2026-02-23T02:04:14Z"}
