{"icao":"LPFR","metar":"LPFR 051100Z 04004KT 350V070 9999 BKN016 15/11 Q1017","updated":"2026-03-05T11:32:27Z"}
