{"icao":"LPMT","metar":"LPMT 021800Z 25011KT 9999 FEW030 FEW035CB 12/07 Q1001","updated":"2026-02-02T18:41:53Z"}
