{"icao":"LPCS","metar":"LPCS 280700Z 28017G27KT 9999 FEW020 SCT028 14/11 Q0999","updated":"2026-01-28T07:24:49Z"}
