{"icao":"LPGR","metar":"LPGR 180830Z 27007KT 9999 SCT008 SCT030 19/18 Q1014","updated":"2026-06-18T08:45:09Z"}
