{"icao":"KORD","metar":"KORD 091351Z 21015G24KT 10SM FEW180 SCT250 12/01 A2973 RMK AO2 SLP067 T01170011 $","updated":"2026-03-09T14:48:57Z"}
