{"icao":"LPPT","metar":"LPPT 290130Z 32005KT CAVOK 10/07 Q1017","updated":"2025-12-29T01:46:16Z"}
