{"icao":"KORD","metar":"KORD 061651Z 30004KT 10SM OVC028 M01/M06 A2995 RMK AO2 SLP149 T10061061","updated":"2025-12-06T17:15:30Z"}
