{"icao":"LPPD","metar":"LPPD 081000Z 32011KT 290V360 9999 FEW020 BKN040 15/09 Q1034","updated":"2026-04-08T10:14:32Z"}
