{"icao":"LPAZ","metar":"LPAZ 201700Z 06010KT 030V090 9999 VCSH SCT020 18/13 Q1028","updated":"2025-11-20T17:15:12Z"}
