{"icao":"KORD","metar":"KORD 201251Z 23020G36KT 5SM -SN BR OVC010 M01/M02 A2934 RMK AO2 PK WND 21038/1222 DZE14GSB14E20SNB20 SLP941 P0000 T10061022","updated":"2026-02-20T12:56:37Z"}
