{"icao":"LPCS","metar":"LPCS 040630Z 36001KT CAVOK 11/06 Q1022","updated":"2026-04-04T07:00:47Z"}
