{"icao":"LPAR","metar":"LPAR 261600Z 05011KT CAVOK 22/05 Q1014","updated":"2026-03-26T16:59:24Z"}
