{"icao":"KJFK","metar":"KJFK 060451Z 20005KT 10SM OVC025 02/M01 A3001 RMK AO2 SLP161 T00221011 400281044 $","updated":"2026-01-06T05:23:35Z"}
