{"icao":"LPMT","metar":"LPMT 231800Z 30014KT 9999 FEW015 FEW025CB SCT035 08/05 Q1001","updated":"2026-01-23T18:31:44Z"}
