{"icao":"LPFR","metar":"LPFR 282300Z 24018KT 8000 SCT008 BKN014 16/15 Q1011","updated":"2026-01-28T23:24:52Z"}
