{"icao":"LPPS","metar":"LPPS 230600Z 03011KT 9999 SCT014 SCT030 19/16 Q1020","updated":"2025-09-23T06:27:11Z"}
