{"icao":"KLAX","metar":"KLAX 192001Z 20015G24KT 1 1/4SM R25L/3000VP6000FT RA BR BKN008 OVC015 12/11 A2990 RMK AO2 VIS 1/4V2 1/2 P0001 T01220111","updated":"2026-02-19T20:31:12Z"}
