{"icao":"LPBJ","metar":"LPBJ 082300Z 29005KT CAVOK 13/11 Q1021","updated":"2025-10-08T23:15:31Z"}
