{"icao":"LPPD","metar":"LPPD 082030Z 01013KT 340V040 9999 FEW008 BKN012 FEW016CB 16/13 Q1033","updated":"2026-04-08T20:40:30Z"}
