{"icao":"KJFK","metar":"KJFK 061851Z 20005KT 10SM FEW043 BKN130 BKN250 M01/M08 A2967 RMK AO2 SLP046 T10111083 $","updated":"2026-02-06T19:36:55Z"}
