{"icao":"KLAX","metar":"KLAX 142053Z 18004KT 10SM FEW010 BKN032 BKN047 16/11 A2989 RMK AO2 SLP119 60006 T01610111 50006 $","updated":"2025-10-14T21:15:34Z"}
