{"icao":"LPMT","metar":"LPMT 051600Z 25019G29KT 8000 SCT025 SCT035 16/11 Q0998","updated":"2026-02-05T16:45:36Z"}
