{"icao":"LPFL","metar":"LPFL 081830Z 21013G25KT 180V270 9999 FEW008 BKN010 FEW012TCU 19/17 Q1004","updated":"2026-02-08T18:35:46Z"}
