{"icao":"LPOV","metar":"LPOV 090900Z 34003KT 310V010 2000 BR BKN002 15/14 Q1020","updated":"2025-10-09T09:18:31Z"}
