{"icao":"LPPR","metar":"LPPR 092130Z 22009KT 190V260 1200 R17/P2000 -RA BR BKN001 14/14 Q1012","updated":"2026-02-09T21:37:46Z"}
