{"icao":"LPPD","metar":"LPPD 310330Z 00000KT 1100 R30/1200N DZ BR SCT001 BKN003 18/17 Q1026","updated":"2026-05-31T03:41:14Z"}
