{"icao":"KLAX","metar":"KLAX 191253Z 09004KT 8SM FEW002 FEW009 17/16 A3002 RMK AO2 SLP163 VIS S 2 3/4 T01720161 $","updated":"2026-03-19T13:02:29Z"}
