{"icao":"LPAR","metar":"LPAR 211600Z 29011KT 260V320 9999 SCT015 SCT023 23/18 Q1014","updated":"2025-10-21T20:20:52Z"}
