{"icao":"LPPT","metar":"LPPT 021300Z 34008KT 310V020 9999 FEW030 19/10 Q1025","updated":"2025-11-02T13:21:27Z"}
