{"icao":"LPPR","metar":"LPPR 200530Z 05003KT 310V110 9999 BKN035 06/05 Q1030","updated":"2026-02-20T05:52:25Z"}
