{"icao":"LPHR","metar":"LPHR 112300Z 33002KT 9999 FEW020 12/08 Q1033","updated":"2026-04-11T23:32:22Z"}
