{"icao":"LPFL","metar":"LPFL 171230Z VRB04KT 9999 BKN028 15/10 Q1033","updated":"2026-01-17T12:37:40Z"}
