{"icao":"LPPR","metar":"LPPR 020900Z 00000KT CAVOK 19/14 Q1022","updated":"2025-10-02T09:17:52Z"}
