{"icao":"KORD","metar":"KORD 070751Z 24007KT 6SM BR OVC006 03/02 A2980 RMK AO2 SLP095 T00280017","updated":"2026-01-07T08:29:17Z"}
