{"icao":"KORD","metar":"KORD 041951Z 19011G16KT 10SM BKN300 30/08 A3004 RMK AO2 SLP166 T03000078","updated":"2026-06-04T20:03:33Z"}
