{"icao":"LPMT","metar":"LPMT 210400Z 13017KT CAVOK 21/08 Q1001","updated":"2026-04-21T07:47:52Z"}
