{"icao":"LPHR","metar":"LPHR 211130Z 31011KT 270V350 9999 FEW020 SCT040 20/15 Q1019","updated":"2026-06-21T11:45:58Z"}
