{"icao":"KJFK","metar":"KJFK 221451Z 17014G22KT 10SM -DZ BKN005 OVC009 08/06 A2985 RMK AO2 DZB51 SLP106 P0000 60000 T00780061 56028 $","updated":"2026-03-22T15:24:56Z"}
