{"icao":"LPHR","metar":"LPHR 201900Z 29012KT 270V340 9999 VCSH SCT016 BKN030 13/09 Q1018","updated":"2026-04-20T19:08:17Z"}
