{"icao":"LPFL","metar":"LPFL 091730Z 34018KT 9999 VCSH SCT019 BKN030 16/10 Q1024","updated":"2026-05-09T17:50:18Z"}
