{"icao":"LPFR","metar":"LPFR 060800Z 36009KT CAVOK 07/M03 Q1020","updated":"2026-01-06T08:29:07Z"}
