{"icao":"LPFL","metar":"LPFL 311500Z 24014G26KT 170V290 9999 FEW012 18/12 Q1011","updated":"2026-01-31T15:22:09Z"}
