{"icao":"LPMA","metar":"LPMA 202200Z 03013KT 9999 BKN015 19/13 Q1023","updated":"2025-11-20T22:17:19Z"}
