{"icao":"LPPD","metar":"LPPD 031530Z 25020KT 5000 BR FEW006 BKN012 17/16 Q1005","updated":"2026-02-03T15:49:12Z"}
