{"icao":"LPMA","metar":"LPMA 180500Z 31006KT 270V360 9999 SCT015 18/10 Q1024","updated":"2025-12-18T05:21:12Z"}
