{"icao":"LPPR","metar":"LPPR 180500Z 08003KT 7000 FEW002 02/02 Q1011","updated":"2026-01-18T05:22:33Z"}
