{"icao":"LPOV","metar":"LPOV 190900Z 16003KT 120V190 9999 SCT035 18/08 Q1006","updated":"2026-03-19T09:41:32Z"}
