{"icao":"LPMT","metar":"LPMT 092300Z 26003KT CAVOK 15/14 Q1020","updated":"2025-10-09T23:15:28Z"}
