{"icao":"LPBJ","metar":"LPBJ 111900Z 35003KT CAVOK 23/11 Q1017","updated":"2025-10-11T19:12:13Z"}
