{"icao":"LPLA","metar":"LPLA 271414Z 33010KT 2000 RADZ BR FEW006 BKN009 BKN015 15/13 Q1024","updated":"2025-11-27T14:18:50Z"}
