{"icao":"LPPD","metar":"LPPD 251800Z 23021G31KT 7000 FEW007 SCT012 17/15 Q1013","updated":"2026-01-25T18:28:51Z"}
