{"icao":"LPPR","metar":"LPPR 011230Z 17009KT CAVOK 13/06 Q1019","updated":"2025-12-01T12:40:27Z"}
