{"icao":"LPPD","metar":"LPPD 061100Z 04003KT 350V080 9999 FEW025 BKN040 15/09 Q1024","updated":"2026-05-06T11:05:13Z"}
