{"icao":"LPPD","metar":"LPPD 221100Z 02017G27KT 350V050 9999 SCT015 15/11 Q1019","updated":"2026-03-22T11:22:12Z"}
