{"icao":"LPPT","metar":"LPPT 060530Z 33004KT 9999 FEW018 12/10 Q1015","updated":"2026-05-06T05:56:17Z"}
