{"icao":"LPFL","metar":"LPFL 031300Z 11007KT 050V160 9999 SCT018 17/12 Q1024","updated":"2026-05-03T13:07:20Z"}
