{"icao":"KORD","metar":"KORD 251851Z 27011G19KT 10SM FEW035 FEW110 02/M12 A2969 RMK AO2 SLP061 T00171117","updated":"2026-02-25T19:06:32Z"}
