{"icao":"KLAX","metar":"KLAX 192253Z 23012KT 10SM FEW025 FEW150 16/09 A3001 RMK AO2 SLP162 T01610089 $","updated":"2025-11-19T23:17:41Z"}
