{"icao":"LPPT","metar":"LPPT 221500Z 34015KT 300V360 CAVOK 21/05 Q1018","updated":"2025-09-22T15:18:52Z"}
