{"icao":"KORD","metar":"KORD 031451Z 12004KT 9SM OVC017 02/M03 A3013 RMK AO2 SLP210 T00171028 50007","updated":"2026-03-03T14:56:00Z"}
