{"icao":"KORD","metar":"KORD 040751Z 35003KT 10SM BKN024 M09/M13 A3033 RMK AO2 SLP281 T10891133","updated":"2026-02-04T08:40:08Z"}
