{"icao":"LPBJ","metar":"LPBJ 301900Z 31011KT CAVOK 30/12 Q1019","updated":"2026-05-30T19:12:32Z"}
