{"icao":"LPAZ","metar":"LPAZ 010400Z 16008KT 9000 FEW003 SCT018 BKN032 21/20 Q1021","updated":"2025-10-01T04:20:54Z"}
