{"icao":"LPMT","metar":"LPMT 012100Z 34007KT CAVOK 16/08 Q1022","updated":"2026-04-01T21:42:42Z"}
