{"icao":"LPBJ","metar":"LPBJ 280700Z VRB01KT CAVOK 04/03 Q1023","updated":"2025-11-28T07:18:36Z"}
