{"icao":"KORD","metar":"KORD 082351Z 11007KT 10SM SCT065 BKN085 BKN250 16/07 A2969 RMK AO2 SLP056 T01610072 10194 20161 58006","updated":"2026-05-08T23:55:17Z"}
