{"icao":"LPBJ","metar":"LPBJ 180800Z 08003KT CAVOK 15/13 Q1018","updated":"2025-10-18T08:21:01Z"}
