{"icao":"KJFK","metar":"KJFK 151951Z 03009KT 10SM SCT041 BKN055 BKN160 BKN250 19/11 A2989 RMK AO2 SLP120 T01940106","updated":"2025-10-15T20:20:29Z"}
