{"icao":"LPCS","metar":"LPCS 251300Z 25012KT 220V280 9999 FEW008 SCT014 16/15 Q1016","updated":"2026-01-25T13:31:09Z"}
