{"icao":"LPMA","metar":"LPMA 302100Z 01004KT 9999 SCT013 19/15 Q1019","updated":"2025-12-30T21:18:58Z"}
