{"icao":"LPPD","metar":"LPPD 181900Z 19003KT 140V220 9999 SCT014 FEW016TCU 24/21 Q1015","updated":"2025-09-18T19:14:19Z"}
