{"icao":"LPBJ","metar":"LPBJ 202300Z 05004KT CAVOK 09/05 Q1028","updated":"2026-02-20T23:27:29Z"}
