{"icao":"KJFK","metar":"KJFK 220551Z 25007KT 7SM BKN035 BKN065 OVC170 09/07 A2993 RMK AO2 SLP136 T00940067 10106 20083 57012","updated":"2025-11-22T06:25:41Z"}
