{"icao":"LPHR","metar":"LPHR 011900Z 33020G35KT 9999 SCT028 15/08 Q1009","updated":"2026-01-01T19:16:41Z"}
