{"icao":"LPLA","metar":"LPLA 182000Z 32007KT 9999 FEW022 SCT040 24/21 Q1015","updated":"2025-10-18T20:17:40Z"}
