{"icao":"LPLA","metar":"LPLA 081300Z 23022KT 9999 FEW007 SCT014 19/17 Q1010 RMK WIND RWY15 24023KT PK 24036/33 RH86 BKN200 BLU","updated":"2026-02-08T13:43:03Z"}
