{"icao":"LPPT","metar":"LPPT 241400Z 25011KT 9999 4500E -DZ FEW006 BKN009 16/16 Q1017","updated":"2025-11-24T14:19:01Z"}
