{"icao":"LPFR","metar":"LPFR 060900Z 36010KT 300V030 CAVOK 08/M02 Q1021","updated":"2026-01-06T09:25:04Z"}
