{"icao":"LPST","metar":"LPST 251600Z 36013KT CAVOK 14/06 Q1022","updated":"2025-11-25T16:26:14Z"}
