{"icao":"LPLA","metar":"LPLA 191300Z 35012KT 330V030 9999 FEW025 SCT040 22/12 Q1023","updated":"2025-09-19T13:26:20Z"}
