{"icao":"KJFK","metar":"KJFK 231051Z 00000KT 10SM FEW250 07/06 A2997 RMK SLP148 T00720061 ","updated":"2026-04-23T11:06:36Z"}
