{"icao":"LPPD","metar":"LPPD 211500Z 28016KT 2000 -RADZ BR SCT001 BKN002 16/16 Q1020","updated":"2026-01-21T15:30:35Z"}
