{"icao":"KORD","metar":"KORD 072151Z 04010KT 10SM FEW025 FEW250 18/04 A3011 RMK AO2 SLP196 T01830039","updated":"2025-10-07T22:16:38Z"}
