{"icao":"LPBJ","metar":"LPBJ 051000Z 32008KT 290V350 9999 SCT030 17/07 Q1017","updated":"2026-05-05T10:44:47Z"}
