{"icao":"KJFK","metar":"KJFK 160551Z 36013G20KT 10SM SCT180 11/02 A2998 RMK AO2 SLP151 T01110017 10144 20106 53004","updated":"2025-10-16T06:27:18Z"}
