{"icao":"LPLA","metar":"LPLA 062000Z 20003KT 160V240 9999 BKN018 FEW020TCU SCT040 23/19 Q1017","updated":"2025-10-06T20:19:19Z"}
