{"icao":"KJFK","metar":"KJFK 191751Z 23012G17KT 10SM -RA SCT012 BKN020 BKN047 10/09 A2933 RMK AO2 SLP931 P0003 60077 T01000089 10139 20100 50001","updated":"2025-12-19T18:28:29Z"}
