{"icao":"LPAZ","metar":"LPAZ 111900Z 04009KT 360V060 9999 FEW026 BKN049 14/08 Q1032","updated":"2026-04-11T19:33:48Z"}
