{"icao":"KJFK","metar":"KJFK 181251Z 04004KT 10SM FEW140 FEW250 00/M02 A3031 RMK SLP264 T00001022 $ ","updated":"2025-12-18T13:35:36Z"}
