{"icao":"KORD","metar":"KORD 210651Z 26003KT 9SM OVC013 08/06 A3002 RMK AO2 DZE23 SLP170 P0000 T00780056","updated":"2025-11-21T07:18:44Z"}
