{"icao":"LPAZ","metar":"LPAZ 250830Z 18009KT 3000 -RA BR SCT002 BKN008 17/16 Q1016","updated":"2026-04-25T08:51:42Z"}
