{"icao":"LPPD","metar":"LPPD 022030Z 32005KT 280V360 9999 FEW027 SCT040 12/06 Q1030","updated":"2026-03-02T20:36:39Z"}
