{"icao":"KORD","metar":"KORD 071051Z 36011KT 10SM -RA OVC007 16/14 A3001 RMK AO2 LTG DSNT S RAE20B49 SLP161 P0005 T01560144 $","updated":"2025-10-07T11:15:17Z"}
