{"icao":"LPCS","metar":"LPCS 211930Z 31007KT 270V350 9999 FEW012 BKN025 15/11 Q1008","updated":"2026-04-21T20:01:43Z"}
