{"icao":"KLAX","metar":"KLAX 262053Z 13007KT 7SM FEW007 BKN013 OVC048 16/14 A3000 RMK AO2 SLP158 60006 T01610139 56021 $","updated":"2025-12-26T21:17:19Z"}
