{"icao":"KORD","metar":"KORD 011851Z 26006KT 10SM OVC060 M09/M16 A2997 RMK AO2 SLP162 T10891161 $","updated":"2026-01-01T19:16:44Z"}
