{"icao":"LPMA","metar":"LPMA 241600Z 16006KT 130V200 9999 SCT015 23/19 Q1017","updated":"2026-06-24T16:20:23Z"}
