{"icao":"LPPD","metar":"LPPD 102330Z 01011KT 350V050 9999 FEW015 SCT030 14/11 Q1019","updated":"2026-05-10T23:51:20Z"}
