{"icao":"LPFR","metar":"LPFR 191000Z 31003KT CAVOK 09/03 Q1020","updated":"2026-01-19T10:27:17Z"}
