{"icao":"LPMA","metar":"LPMA 262100Z 29007KT 9999 FEW015 16/09 Q1017","updated":"2025-12-26T21:17:17Z"}
