{"icao":"LPOV","metar":"LPOV 210400Z VRB01KT CAVOK 04/04 Q1029","updated":"2026-02-21T04:06:17Z"}
