{"icao":"LPPR","metar":"LPPR 291800Z 31006KT 280V340 9999 -SHRA FEW006 SCT011 BKN020 14/12 Q1014","updated":"2025-11-29T18:25:26Z"}
