{"icao":"KORD","metar":"KORD 290751Z 34010KT 10SM FEW250 M16/M22 A3025 RMK AO2 SLP258 T11561217","updated":"2026-01-29T08:38:02Z"}
