{"icao":"LPMR","metar":"LPMR 051900Z 29016KT 260V320 9999 SCT020 BKN032 14/10 Q1010","updated":"2025-11-05T20:21:03Z"}
