{"icao":"LPHR","metar":"LPHR 181900Z 29011KT 5000 BR SCT001 BKN004 BKN022 22/22 Q1015","updated":"2025-10-18T19:12:51Z"}
