{"icao":"LPFL","metar":"LPFL 101230Z 23015G33KT 170V280 8000 -SHRA BKN016 19/16 Q1011","updated":"2025-11-10T12:38:38Z"}
