{"icao":"LPLA","metar":"LPLA 040600Z 23009KT 9999 FEW012 SCT018 BKN040 18/16 Q1024","updated":"2025-12-04T06:30:30Z"}
