{"icao":"KLAX","metar":"KLAX 100953Z 00000KT 5SM BR OVC007 16/14 A2991 RMK AO2 SLP126 T01560139","updated":"2026-05-10T10:13:40Z"}
