{"icao":"KJFK","metar":"KJFK 171051Z 33009KT 10SM FEW060 BKN110 BKN250 20/15 A2981 RMK AO2 RAE0954 SLP094 P0000 T02000150","updated":"2026-04-17T11:51:34Z"}
