{"icao":"LPPD","metar":"LPPD 180500Z 23015KT 5000 -DZ BR BKN002 BKN006 22/22 Q1013","updated":"2025-10-18T05:15:57Z"}
