{"icao":"LPPT","metar":"LPPT 301900Z 32016KT 290V350 9999 FEW012 20/14 Q1021","updated":"2026-05-30T19:12:29Z"}
