{"icao":"LPAR","metar":"LPAR 130900Z 29018G34KT 260V320 9999 FEW020 FEW022CB 14/09 Q1005","updated":"2026-02-13T09:42:08Z"}
