{"icao":"LPHR","metar":"LPHR 241000Z 07008G18KT 050V110 9999 FEW018 21/13 Q1023","updated":"2025-09-24T10:18:28Z"}
