{"icao":"LPBJ","metar":"LPBJ 020900Z 29007KT 0100 FG VV002 09/09 Q1019","updated":"2025-12-02T09:25:03Z"}
