{"icao":"LPPR","metar":"LPPR 041800Z VRB04KT 9999 FEW044 13/08 Q1005","updated":"2026-01-04T18:27:24Z"}
