{"icao":"LPMA","metar":"LPMA 161500Z 35014G25KT 310V020 9999 SCT015 18/11 Q1025","updated":"2026-01-16T15:22:34Z"}
