{"icao":"LPBJ","metar":"LPBJ 221700Z 36010KT 330V030 CAVOK 25/01 Q1015","updated":"2025-09-22T17:14:36Z"}
