{"icao":"KORD","metar":"KORD 241751Z 21009KT 10SM BKN090 OVC250 07/M09 A3032 RMK AO2 SLP274 T00721094 10072 21011 58017","updated":"2026-03-24T17:55:03Z"}
