{"icao":"KLAX","metar":"KLAX 162253Z 25007KT 10SM FEW250 FEW300 23/08 A2994 RMK AO2 SLP139 T02280083","updated":"2026-01-16T23:18:52Z"}
