{"icao":"LPMR","metar":"LPMR 031300Z 33011KT 300V360 9999 FEW026 22/14 Q1023","updated":"2026-06-03T13:20:32Z"}
