{"icao":"KORD","metar":"KORD 300910Z 27018G26KT 5SM -SN BR FEW008 BKN013 OVC017 M01/M03 A2976 RMK AO2 PK WND 28026/0909 P0000 T10061028 $","updated":"2025-11-30T09:18:01Z"}
