{"icao":"KJFK","metar":"KJFK 051351Z 22005KT 10SM SCT095 BKN150 12/04 A3010 RMK AO2 SLP192 T01170039 $","updated":"2025-11-05T14:19:05Z"}
