{"icao":"LPPD","metar":"LPPD 281500Z 03010KT 360V070 9999 FEW018 BKN030 15/10 Q1033","updated":"2026-03-28T15:29:25Z"}
