{"icao":"LPHR","metar":"LPHR 230830Z 22020KT 9999 SCT007 BKN012 18/17 Q1008","updated":"2026-02-23T08:50:07Z"}
