{"icao":"LPFR","metar":"LPFR 051230Z 25019KT 7000 FEW012 17/14 Q1002","updated":"2026-02-05T12:59:28Z"}
