{"icao":"LPPT","metar":"LPPT 081700Z 33013KT 290V350 9999 FEW028 15/08 Q1021","updated":"2026-03-08T17:21:34Z"}
