{"icao":"LPPR","metar":"LPPR 192100Z 20006KT 140V250 CAVOK 22/11 Q1019","updated":"2025-09-19T21:14:37Z"}
