{"icao":"LPMA","metar":"LPMA 121830Z 01012KT 320V050 9999 SCT015 SCT030 16/07 Q1027","updated":"2026-04-12T18:48:03Z"}
