{"icao":"LPFR","metar":"LPFR 172130Z 26003KT 200V310 9999 -RA FEW005 FEW020CB SCT045 15/14 Q1010","updated":"2026-03-17T21:36:00Z"}
