{"icao":"LPPR","metar":"LPPR 220800Z 25004KT 220V290 9999 FEW025 BKN030 11/07 Q1006","updated":"2026-01-22T08:30:41Z"}
