{"icao":"LPMR","metar":"LPMR 112200Z 14009KT CAVOK 13/10 Q1016","updated":"2025-12-11T22:19:24Z"}
