{"icao":"KLAX","metar":"KLAX 231229Z 26004KT 2 1/2SM BR FEW002 OVC005 19/18 A2982 RMK AO2 VIS 2V3 T01890178 $","updated":"2025-09-23T12:36:14Z"}
