{"icao":"KLAX","metar":"KLAX 180853Z 07003KT 10SM CLR 17/12 A2994 RMK AO2 SLP137 T01670122 51004","updated":"2025-10-18T09:16:55Z"}
