{"icao":"LPBJ","metar":"LPBJ 162200Z 29007KT CAVOK 25/17 Q1017","updated":"2026-06-16T22:09:43Z"}
