{"icao":"LPPR","metar":"LPPR 111830Z 24007KT 210V280 7000 FEW008 BKN012 15/14 Q1012","updated":"2026-02-11T19:01:26Z"}
