{"icao":"KJFK","metar":"KJFK 031051Z 00000KT 10SM SCT170 BKN250 09/07 A3020 RMK AO2 SLP226 T00940072 $","updated":"2025-11-03T11:15:33Z"}
