{"icao":"LPOV","metar":"LPOV 271100Z 15012KT 120V180 CAVOK 20/10 Q1016","updated":"2025-09-27T11:12:37Z"}
