{"icao":"LPST","metar":"LPST 101600Z 32006KT 280V350 CAVOK 25/12 Q1020","updated":"2025-10-12T12:32:21Z"}
