{"icao":"LPMR","metar":"LPMR 050700Z 28009KT 250V310 4000 -DZRA BR SCT008 SCT015 BKN030 15/15 Q1019","updated":"2025-12-05T07:19:54Z"}
