{"icao":"LPMA","metar":"LPMA 241830Z 36009KT 330V050 9999 SCT016 18/12 Q1019","updated":"2026-04-24T18:50:27Z"}
