{"icao":"LPMA","metar":"LPMA 140630Z 36010KT 310V030 9999 BKN015 15/10 Q1024","updated":"2026-03-14T06:43:54Z"}
