{"icao":"LPST","metar":"LPST 181200Z 31011KT 9999 FEW030 16/09 Q1021","updated":"2026-05-18T12:28:08Z"}
