{"icao":"LPMA","metar":"LPMA 052100Z 34011KT 310V010 9999 FEW018 20/12 Q1020","updated":"2025-11-05T21:17:37Z"}
