{"icao":"LPMT","metar":"LPMT 170900Z VRB02KT 9999 FEW018 14/14 Q1014","updated":"2025-11-17T09:23:39Z"}
