{"icao":"LPOV","metar":"LPOV 251600Z 34006KT 300V360 CAVOK 22/17 Q1022","updated":"2026-05-25T16:26:04Z"}
