{"icao":"LPCS","metar":"LPCS 191300Z 14004KT 090V200 9999 FEW045 27/17 Q1019","updated":"2025-09-19T13:26:18Z"}
