{"icao":"LPPS","metar":"LPPS 061330Z 34011KT 310V020 9999 SCT010 22/17 Q1023","updated":"2026-06-06T13:39:49Z"}
