{"icao":"LPMT","metar":"LPMT 210500Z 01010KT CAVOK 11/04 Q1025","updated":"2025-11-21T05:18:38Z"}
