{"icao":"LPMT","metar":"LPMT 150500Z 06004KT CAVOK 09/09 Q1013","updated":"2025-12-15T08:30:32Z"}
