{"icao":"LPOV","metar":"LPOV 010700Z VRB01KT 9999 MIFG NSC 12/11 Q1021","updated":"2025-10-01T07:17:57Z"}
