{"icao":"LPFR","metar":"LPFR 160830Z 29003KT 230V340 9999 BKN032 14/10 Q1033","updated":"2026-02-16T08:45:26Z"}
