{"icao":"LPOV","metar":"LPOV 200500Z 00000KT CAVOK 03/03 Q1030","updated":"2026-02-20T05:52:27Z"}
