{"icao":"LPLA","metar":"LPLA 182300Z 16009KT 8000 -RA SCT014 BKN020 BKN030 15/13 Q1026","updated":"2026-02-18T23:28:27Z"}
