{"icao":"LPLA","metar":"LPLA 180700Z 35001KT 9999 SCT035 12/09 Q1025","updated":"2026-02-18T07:12:49Z"}
