{"icao":"LPLA","metar":"LPLA 221400Z 10004KT 7000 -SHRA FEW005 SCT015 BKN020 15/14 Q1031","updated":"2025-11-22T14:15:24Z"}
