{"icao":"KLAX","metar":"KLAX 260053Z 26010KT 10SM SCT150 SCT200 BKN250 16/11 A3018 RMK AO2 SLP221 T01560106 $","updated":"2026-01-26T01:50:26Z"}
