{"icao":"KORD","metar":"KORD 162251Z 29009KT 10SM FEW250 07/M11 A2993 RMK AO2 SLP139 T00721106 $","updated":"2025-11-16T23:16:09Z"}
