{"icao":"LPCS","metar":"LPCS 220700Z 05005KT CAVOK 07/01 Q1030","updated":"2025-11-22T07:16:20Z"}
