{"icao":"KLAX","metar":"KLAX 230653Z 27012KT 10SM FEW012 17/14 A3004 RMK AO2 SLP170 T01670144","updated":"2025-10-23T07:18:42Z"}
