{"icao":"KJFK","metar":"KJFK 231651Z 36013KT 10SM FEW027 SCT055 BKN080 OVC160 22/17 A2987 RMK RAE45 SLP115 P0000 T02170172 ","updated":"2026-06-23T17:52:08Z"}
