{"icao":"LPCS","metar":"LPCS 021300Z 03009KT 310V060 9999 FEW009 27/14 Q1021","updated":"2025-10-02T13:25:12Z"}
