{"icao":"KJFK","metar":"KJFK 141751Z 17009KT 10SM FEW060 SCT200 BKN250 28/19 A2985 RMK AO2 SLP106 T02830194 10300 20244 58010 $","updated":"2026-06-14T18:10:52Z"}
