{"icao":"LPSJ","metar":"LPSJ 231200Z 31008KT 240V350 9999 FEW012 SCT017 22/17 Q1025","updated":"2026-06-23T12:05:09Z"}
