{"icao":"KLAX","metar":"KLAX 190253Z 24005KT 9SM CLR 16/13 A2995 RMK AO2 SLP141 T01610133 53007 $","updated":"2025-12-19T03:23:15Z"}
