{"icao":"LPBJ","metar":"LPBJ 120700Z 07003KT CAVOK 07/06 Q1025","updated":"2026-03-12T07:44:44Z"}
