{"icao":"KORD","metar":"KORD 252251Z 24004KT 10SM BKN015 OVC021 11/08 A2975 RMK AO2 SLP075 T01060078","updated":"2025-11-25T23:17:00Z"}
