{"icao":"LPPR","metar":"LPPR 131100Z 28004KT 240V320 CAVOK 23/14 Q1017","updated":"2025-10-13T11:15:10Z"}
