{"icao":"LPOV","metar":"LPOV 122000Z 17009KT 130V200 9999 FEW016 BKN035 16/13 Q1004","updated":"2025-11-12T20:20:52Z"}
