{"icao":"KORD","metar":"KORD 010851Z 30005KT 10SM FEW025 M11/M14 A3034 RMK AO2 SLP286 T11061139 56007","updated":"2026-02-01T09:29:19Z"}
