{"icao":"KLAX","metar":"KLAX 080453Z 29003KT 10SM FEW015 17/14 A2993 RMK AO2 SLP133 T01720144 $","updated":"2026-04-08T05:09:57Z"}
