{"icao":"LPCS","metar":"LPCS 240900Z 25009KT 230V290 9000 VCFG SCT001 BKN005 20/20 Q1018","updated":"2025-10-24T09:19:39Z"}
