{"icao":"LPFR","metar":"LPFR 061500Z 34010KT 310V010 CAVOK 13/M00 Q1021","updated":"2026-01-06T15:21:43Z"}
