{"icao":"LPHR","metar":"LPHR 191700Z 28006KT 9999 FEW025 16/10 Q1031","updated":"2026-01-19T17:22:35Z"}
