{"icao":"LPMA","metar":"LPMA 011230Z 03011KT 300V060 9999 FEW018 18/08 Q1024","updated":"2026-03-01T12:45:46Z"}
