{"icao":"LPHR","metar":"LPHR 111330Z 14006KT 100V230 9999 FEW025 SCT040 15/07 Q1033","updated":"2026-04-11T13:56:12Z"}
