{"icao":"LPHR","metar":"LPHR 181300Z 27012KT 2000 -RADZ BR SCT002 BKN004 BKN011 22/22 Q1015","updated":"2025-10-18T13:21:29Z"}
