{"icao":"LPAZ","metar":"LPAZ 241700Z 24019G29KT 9000 FEW016 SCT023 BKN030 16/12 Q1022","updated":"2026-01-24T17:17:06Z"}
