{"icao":"LPMT","metar":"LPMT 100400Z 33007KT 300V360 9999 FEW025 10/07 Q1020","updated":"2026-03-10T04:09:03Z"}
