{"icao":"KJFK","metar":"KJFK 251120Z 22022G29KT 1SM R04R/6000VP6000FT -SN BR SCT000 BKN013 OVC027 01/M02 A2978 RMK AO2 PK WND 23029/1117 SNB10 SN SCT000 P0000 T00061017 $","updated":"2026-02-25T11:39:21Z"}
