{"icao":"LPOV","metar":"LPOV 140900Z 33003KT 290V020 8000 BKN005 19/19 Q1024","updated":"2025-09-14T09:15:32Z"}
