{"icao":"LPAZ","metar":"LPAZ 261230Z 13009KT 9999 FEW010 20/16 Q1021","updated":"2026-04-26T13:04:19Z"}
