{"icao":"LPPR","metar":"LPPR 021930Z 34007KT CAVOK 15/10 Q1021","updated":"2026-04-02T19:50:18Z"}
