{"icao":"LPPT","metar":"LPPT 090900Z VRB02KT 9999 FEW012 11/11 Q1029","updated":"2026-01-09T09:26:51Z"}
