{"icao":"LPPS","metar":"LPPS 310530Z 32006KT 9999 SCT010 15/15 Q1024","updated":"2026-01-31T05:37:37Z"}
