{"icao":"LPPT","metar":"LPPT 310300Z 21014KT 9999 FEW028 19/16 Q1013","updated":"2025-10-31T03:09:23Z"}
