{"icao":"LPMA","metar":"LPMA 051300Z 36009KT 310V030 9999 FEW016 23/13 Q1018","updated":"2025-11-05T13:31:26Z"}
