{"icao":"LPAR","metar":"LPAR 311600Z 07007KT 010V120 CAVOK 26/10 Q1022","updated":"2026-03-31T20:40:35Z"}
