{"icao":"KLAX","metar":"KLAX 031053Z 07003KT 7SM FEW008 FEW019 BKN180 13/13 A3005 RMK AO2 SLP173 T01330133","updated":"2026-01-03T11:16:16Z"}
