{"icao":"LPFR","metar":"LPFR 241100Z 02006KT 340V050 9999 FEW020 SCT030 09/07 Q1010","updated":"2026-01-24T11:16:53Z"}
