{"icao":"KLAX","metar":"KLAX 261253Z 09004KT 10SM FEW110 SCT140 BKN200 10/04 A3023 RMK AO2 SLP234 T01000044 $","updated":"2026-01-26T13:43:31Z"}
