{"icao":"LPPR","metar":"LPPR 210800Z 21005KT 2300 BR BKN002 BKN011 18/18 Q1012","updated":"2025-10-21T08:25:34Z"}
