{"icao":"LPPT","metar":"LPPT 081830Z 16008KT 1500 -RADZ BR SCT002 BKN003 12/12 Q1012 REDZ RERA","updated":"2026-02-08T18:35:23Z"}
