{"icao":"KLAX","metar":"KLAX 171953Z 24007KT 10SM FEW220 FEW260 SCT300 21/08 A3007 RMK AO2 SLP182 T02110083 $","updated":"2026-01-17T20:21:08Z"}
