{"icao":"KORD","metar":"KORD 170419Z 31012G19KT 10SM BKN037 M07/M13 A2993 RMK AO2 SNB0357E19 P0000 T10671133 $","updated":"2026-03-17T04:50:19Z"}
