{"icao":"LPCS","metar":"LPCS 181400Z 02009KT 350V050 9999 FEW020 12/05 Q1013","updated":"2026-01-18T14:17:21Z"}
