{"icao":"LPHR","metar":"LPHR 060930Z 21019G32KT 6000 -RA SCT004 BKN007 BKN011 14/13 Q1009 RERA","updated":"2026-02-06T09:41:29Z"}
