{"icao":"KJFK","metar":"KJFK 221751Z 10014KT 10SM FEW110 SCT170 BKN250 18/04 A3036 RMK AO2 SLP282 T01780044 10194 20144 56007","updated":"2026-05-22T18:53:02Z"}
