{"icao":"KJFK","metar":"KJFK 110051Z 29016G22KT 10SM BKN027 04/M01 A2969 RMK AO2 SLP052 T00441011","updated":"2025-11-11T01:24:26Z"}
