{"icao":"LPOV","metar":"LPOV 151900Z 34006KT 9999 FEW040 15/14 Q1023","updated":"2026-04-16T02:33:41Z"}
