{"icao":"LPPD","metar":"LPPD 052300Z 22017KT 9999 FEW020 20/16 Q1016","updated":"2025-11-05T23:17:31Z"}
