{"icao":"LPBJ","metar":"LPBJ 061800Z 34008KT CAVOK 07/M02 Q1023","updated":"2026-01-06T18:30:18Z"}
