{"icao":"LPPS","metar":"LPPS 110400Z 21006KT 9999 FEW015 SCT030 19/14 Q1015","updated":"2025-11-11T04:23:28Z"}
