{"icao":"LPPS","metar":"LPPS 271000Z 33016KT 9999 SCT015 15/10 Q1016","updated":"2025-12-27T10:19:05Z"}
