{"icao":"LPPR","metar":"LPPR 291500Z 18011KT 6000 RADZ BKN006 BKN011 13/13 Q1014","updated":"2025-11-29T15:16:56Z"}
