{"icao":"KLAX","metar":"KLAX 051327Z 01003KT 3SM BR FEW002 SCT004 BKN021 13/12 A3003 RMK AO2 VIS 1/2V5 T01280122 $","updated":"2026-01-05T13:40:10Z"}
