{"icao":"LPAZ","metar":"LPAZ 030700Z 18006KT 9999 SCT006 21/21 Q1023","updated":"2025-10-03T07:16:49Z"}
