{"icao":"LPFR","metar":"LPFR 222100Z 02007KT 320V040 CAVOK 12/01 Q1027","updated":"2025-11-22T21:15:29Z"}
