{"icao":"LPFL","metar":"LPFL 101730Z 16008KT 9999 FEW015 BKN040 21/18 Q1028","updated":"2026-06-10T19:37:43Z"}
