{"icao":"LPHR","metar":"LPHR 120700Z 30022G35KT 8000 -SHRA SCT016 FEW020TCU BKN030 14/10 Q1012","updated":"2026-01-12T07:26:30Z"}
