{"icao":"KLAX","metar":"KLAX 171801Z 27009KT 10SM FEW014 SCT019 20/14 A2995 RMK AO2 SCT V BKN T02000144 $","updated":"2026-06-17T18:14:22Z"}
