{"icao":"LPPR","metar":"LPPR 192100Z 26003KT 220V310 CAVOK 15/11 Q1008","updated":"2026-03-19T21:33:51Z"}
