{"icao":"LPMT","metar":"LPMT 171200Z 13008KT 110V170 CAVOK 19/08 Q1010","updated":"2026-03-17T14:54:44Z"}
