{"icao":"LPOV","metar":"LPOV 231500Z 30004KT 240V340 9999 -RA BKN030 17/13 Q1020","updated":"2025-10-23T15:19:07Z"}
