{"icao":"LPPS","metar":"LPPS 022200Z 28019KT 9999 SCT014 FEW018CB SCT030 17/12 Q0998","updated":"2026-01-02T22:19:12Z"}
