{"icao":"KJFK","metar":"KJFK 221751Z 22005KT 10SM FEW033 BKN046 BKN250 21/11 A3013 RMK AO2 SLP202 T02110111 10211 20144 58016 $","updated":"2025-09-22T18:24:14Z"}
