{"icao":"KORD","metar":"KORD 012251Z 06017KT 10SM FEW016 BKN026 OVC045 03/M01 A3016 RMK AO2 PK WND 05027/2228 SLP217 T00331006","updated":"2026-04-01T23:34:55Z"}
