{"icao":"LPMT","metar":"LPMT 210800Z 03009KT CAVOK 08/07 Q1029","updated":"2026-02-21T08:29:16Z"}
