{"icao":"KORD","metar":"KORD 071951Z 09003KT 10SM FEW030 BKN130 BKN250 M04/M21 A3038 RMK AO2 SLP299 T10441206 $","updated":"2026-02-07T20:25:09Z"}
