{"icao":"LPCS","metar":"LPCS 111230Z VRB05KT 9999 FEW018 16/09 Q1026","updated":"2026-03-11T12:57:32Z"}
