{"icao":"LPFR","metar":"LPFR 261630Z 11010KT 9999 FEW020 SCT030 24/08 Q1010","updated":"2026-03-26T16:59:19Z"}
