{"icao":"LPOV","metar":"LPOV 071100Z 21012KT 9999 TS FEW005 SCT016 FEW020CB BKN035 14/14 Q1010 RESHRA","updated":"2026-04-07T11:52:43Z"}
