{"icao":"LPLA","metar":"LPLA 101200Z 22013KT 180V250 9999 FEW015 SCT020 18/15 Q1016","updated":"2025-11-10T12:38:37Z"}
