{"icao":"LPBJ","metar":"LPBJ 231200Z 16014KT CAVOK 32/13 Q1013","updated":"2026-06-23T12:05:09Z"}
