{"icao":"KORD","metar":"KORD 212051Z 30007KT 10SM OVC023 M02/M08 A3010 RMK AO2 SLP203 T10221078 55003 $","updated":"2026-02-21T21:21:47Z"}
