{"icao":"KLAX","metar":"KLAX 021653Z 00000KT 8SM SCT009 BKN018 21/16 A3003 RMK AO2 SLP169 T02060156 $","updated":"2025-10-02T17:13:01Z"}
