{"icao":"LPST","metar":"LPST 201000Z 32004KT 290V350 9999 FEW016 SCT030 19/15 Q1016","updated":"2025-10-20T10:20:05Z"}
