{"icao":"LPPD","metar":"LPPD 122100Z 29010KT 9999 FEW018 14/11 Q1031","updated":"2026-03-12T21:31:09Z"}
