{"icao":"KLAX","metar":"KLAX 091253Z 00000KT 10SM FEW150 FEW200 16/13 A2991 RMK AO2 SLP127 T01560128 $","updated":"2025-10-09T13:29:09Z"}
