{"icao":"LPPR","metar":"LPPR 120830Z 22003KT 190V260 5000 BR SCT022 12/10 Q1018","updated":"2026-02-12T08:43:54Z"}
