{"icao":"LPHR","metar":"LPHR 311000Z 30007KT 260V330 9999 FEW018 SCT035 18/11 Q1010","updated":"2025-10-31T10:19:37Z"}
