{"icao":"KORD","metar":"KORD 050851Z 19007KT 10SM CLR 21/13 A3007 RMK AO2 SLP179 T02060128 52005 $","updated":"2025-10-05T09:15:46Z"}
