{"icao":"LPPR","metar":"LPPR 140100Z 00000KT CAVOK 13/12 Q1017","updated":"2025-10-14T01:18:17Z"}
