{"icao":"LPMA","metar":"LPMA 290730Z 30003KT 250V330 9999 FEW015 16/13 Q1020","updated":"2026-01-29T07:38:33Z"}
