{"icao":"LPMR","metar":"LPMR 081300Z VRB03KT 9999 SCT028 17/10 Q1023","updated":"2025-11-08T13:22:16Z"}
