{"icao":"KJFK","metar":"KJFK 011551Z 28009KT 10SM FEW060 FEW250 14/M01 A2992 RMK SLP130 T01441011 ","updated":"2026-05-01T15:56:16Z"}
