{"icao":"LPHR","metar":"LPHR 272300Z 26026G36KT 9999 SCT006 BKN010 17/16 Q1005","updated":"2026-01-27T23:20:42Z"}
