{"icao":"LPPT","metar":"LPPT 081100Z 32007KT 280V360 9999 FEW028 15/09 Q1022","updated":"2026-03-08T11:19:55Z"}
