{"icao":"LPAR","metar":"LPAR 081400Z 36011KT 320V050 CAVOK 27/14 Q1022","updated":"2026-06-08T14:46:48Z"}
