{"icao":"KJFK","metar":"KJFK 271951Z 27018G24KT 10SM SCT055 BKN210 BKN250 07/M06 A2990 RMK AO2 PK WND 29026/1934 SLP125 T00721061","updated":"2025-11-27T20:18:37Z"}
