{"icao":"LPPS","metar":"LPPS 270600Z 05008KT 9999 FEW015 17/10 Q1022","updated":"2025-11-27T06:30:32Z"}
