{"icao":"KJFK","metar":"KJFK 150651Z 00000KT 10SM FEW050 BKN110 BKN250 19/18 A3014 RMK AO2 SLP206 T01890178 $","updated":"2025-09-15T07:18:00Z"}
