{"icao":"KORD","metar":"KORD 150551Z 22003KT 10SM FEW230 OVC250 02/M01 A2994 RMK AO2 SLP141 T00171011 10078 20011 401061017 58007 $","updated":"2026-02-15T05:55:09Z"}
