{"icao":"KORD","metar":"KORD 100451Z 06005KT 10SM FEW004 SCT039 SCT055 23/21 A2986 RMK AO2 SLP104 T02330206 $","updated":"2026-06-10T05:16:37Z"}
