{"icao":"LPBJ","metar":"LPBJ 112200Z 31016KT CAVOK 10/06 Q1014","updated":"2026-04-11T22:30:45Z"}
