{"icao":"LPAR","metar":"LPAR 051200Z 03011KT 360V070 CAVOK 10/M02 Q1014","updated":"2026-01-05T12:43:46Z"}
