{"icao":"LPPS","metar":"LPPS 141100Z 12008KT 9999 FEW015 23/17 Q1017","updated":"2025-10-14T11:15:12Z"}
