{"icao":"LPFL","metar":"LPFL 311230Z 34008KT 300V360 9999 FEW018 17/12 Q1004","updated":"2025-12-31T12:40:37Z"}
