{"icao":"LPMT","metar":"LPMT 201100Z 20005KT 150V230 9999 FEW025 SCT035 14/11 Q1019","updated":"2025-12-20T11:15:03Z"}
