{"icao":"KLAX","metar":"KLAX 271553Z 18006KT 10SM BKN024 BKN050 16/10 A2985 RMK AO2 SLP105 T01610100 $","updated":"2026-05-27T16:35:48Z"}
