{"icao":"LPPS","metar":"LPPS 100300Z 31004KT 9999 SCT015 19/13 Q1021","updated":"2025-11-10T03:17:48Z"}
