{"icao":"LPCS","metar":"LPCS 231700Z 27006KT 240V300 9999 SCT013 BKN036 21/19 Q1019","updated":"2025-10-23T17:15:47Z"}
