{"icao":"LPFR","metar":"LPFR 131600Z 20006KT 160V230 9999 FEW025 24/19 Q1015","updated":"2025-10-13T16:21:46Z"}
