{"icao":"LPCS","metar":"LPCS 050800Z 36008KT 320V050 9999 SCT020 15/09 Q1018","updated":"2026-05-05T08:07:05Z"}
