{"icao":"LPMR","metar":"LPMR 011700Z 30007KT 270V330 CAVOK 19/10 Q1018","updated":"2026-05-01T18:03:15Z"}
