{"icao":"LPPD","metar":"LPPD 101500Z 19008KT 9999 SCT012 FEW016TCU BKN030 22/20 Q1022","updated":"2025-10-10T15:17:58Z"}
