{"icao":"LPCS","metar":"LPCS 030930Z 23006KT 190V260 9999 FEW016 17/12 Q1015","updated":"2026-05-03T10:02:33Z"}
