{"icao":"LPCS","metar":"LPCS 091100Z 10003KT 040V160 9999 FEW015 16/13 Q1022","updated":"2025-11-09T11:13:02Z"}
