{"icao":"KJFK","metar":"KJFK 161051Z 03008KT 10SM FEW020 SCT060 BKN210 BKN250 18/16 A3024 RMK AO2 SLP240 T01830161 $","updated":"2025-09-16T11:14:22Z"}
