{"icao":"LPMA","metar":"LPMA 052300Z 34009KT 300V010 9999 FEW018 20/11 Q1021","updated":"2025-11-05T23:17:36Z"}
