{"icao":"LPBJ","metar":"LPBJ 280900Z 32002KT 290V350 CAVOK 08/06 Q1023","updated":"2025-11-28T09:19:48Z"}
