{"icao":"KORD","metar":"KORD 130051Z 10003KT 10SM FEW210 BKN250 16/11 A2996 RMK AO2 SLP146 T01560111 $","updated":"2025-10-13T01:23:47Z"}
