{"icao":"LPPT","metar":"LPPT 012200Z 32003KT 290V010 9999 SCT040 16/13 Q1022","updated":"2025-11-01T22:15:06Z"}
