{"icao":"LPPR","metar":"LPPR 281400Z 36007KT 330V030 CAVOK 15/06 Q1026","updated":"2026-02-28T14:20:26Z"}
