{"icao":"LPMR","metar":"LPMR 131000Z 11003KT 9999 FEW032 31/15 Q1018","updated":"2026-06-13T10:26:43Z"}
