{"icao":"LPPT","metar":"LPPT 022300Z 13014KT 100V170 9999 BKN022 13/11 Q0998","updated":"2026-01-02T23:18:02Z"}
