{"icao":"KJFK","metar":"KJFK 201951Z 23010KT 10SM FEW110 BKN250 03/M07 A3018 RMK AO2 SLP218 T00281067 $","updated":"2025-12-20T20:19:46Z"}
