{"icao":"LPPD","metar":"LPPD 042300Z 36009KT 310V060 9999 FEW022 BKN040 12/06 Q1032","updated":"2026-03-04T23:28:20Z"}
