{"icao":"LPFL","metar":"LPFL 251530Z 15007KT 100V180 9999 FEW020 18/12 Q1017","updated":"2026-04-25T15:38:06Z"}
