{"icao":"LPPR","metar":"LPPR 241800Z 02003KT 350V050 9999 -RA FEW011 17/12 Q1014","updated":"2025-10-24T18:24:58Z"}
