{"icao":"KJFK","metar":"KJFK 301051Z 20011KT 10SM FEW085 BKN150 BKN250 07/05 A3025 RMK AO2 SLP244 T00670050 $","updated":"2026-03-30T11:00:47Z"}
