{"icao":"LPFL","metar":"LPFL 051530Z 17010KT 140V200 9999 FEW025 BKN042 13/05 Q1035","updated":"2026-03-05T15:49:21Z"}
