{"icao":"LPOV","metar":"LPOV 291000Z 00000KT CAVOK 07/07 Q1020","updated":"2025-12-29T10:21:54Z"}
