{"icao":"KJFK","metar":"KJFK 021151Z 04007KT 10SM FEW040 FEW250 13/08 A3045 RMK AO2 SLP311 T01280078 10133 20111 52020","updated":"2025-10-02T12:35:36Z"}
