{"icao":"KORD","metar":"KORD 171551Z 18011KT 10SM FEW025 BKN200 BKN250 24/18 A2988 RMK AO2 SLP113 T02440183","updated":"2026-05-17T15:58:07Z"}
