{"icao":"LPBJ","metar":"LPBJ 250500Z VRB01KT CAVOK 16/12 Q1021","updated":"2026-05-25T05:18:16Z"}
