{"icao":"LPPR","metar":"LPPR 131900Z 22003KT 180V260 9999 SCT014 BKN026 12/11 Q1010","updated":"2026-01-13T19:19:01Z"}
