{"icao":"LPPT","metar":"LPPT 140000Z 31007KT CAVOK 21/15 Q1017","updated":"2026-06-14T00:04:39Z"}
