{"icao":"KJFK","metar":"KJFK 211651Z 21009KT 10SM FEW160 SCT190 BKN250 M03/M13 A3051 RMK SLP330 T10281133 $ ","updated":"2026-01-21T17:53:07Z"}
