{"icao":"LPAZ","metar":"LPAZ 241300Z 24018KT 9999 FEW033 SCT049 17/10 Q1025","updated":"2026-01-24T13:29:43Z"}
