{"icao":"LPCS","metar":"LPCS 231230Z 27006KT 240V340 9999 FEW015 SCT020 BKN035 24/19 Q1020","updated":"2025-10-23T12:38:53Z"}
