{"icao":"LPMR","metar":"LPMR 091000Z 29005KT 260V320 9999 FEW030 14/09 Q1028","updated":"2026-01-09T10:21:35Z"}
