{"icao":"LPST","metar":"LPST 090800Z 17018KT 1500 RA BR BKN007 BKN012 16/15 Q1015","updated":"2025-12-09T08:27:57Z"}
