{"icao":"KORD","metar":"KORD 011551Z 00000KT 10SM FEW039 BKN140 OVC250 M04/M08 A3036 RMK AO2 SLP290 T10391078","updated":"2025-12-01T16:27:29Z"}
