{"icao":"LPHR","metar":"LPHR 281830Z 26018KT 7000 SCT006 BKN085 17/16 Q1005","updated":"2026-01-28T18:35:50Z"}
