{"icao":"LPFL","metar":"LPFL 240800Z 20017KT 170V260 9000 -RA BKN011 15/11 Q1017","updated":"2026-01-24T08:25:37Z"}
