{"icao":"LPHR","metar":"LPHR 082000Z 18015KT 8000 SHRA SCT006 BKN009 FEW015CB 23/22 Q1020","updated":"2025-10-08T20:19:28Z"}
