{"icao":"LPPR","metar":"LPPR 030230Z 17003KT 110V220 4500 BR FEW001 BKN004 15/14 Q1022","updated":"2025-10-03T02:55:12Z"}
