{"icao":"LPMR","metar":"LPMR 291200Z 24007KT 210V290 9999 FEW027 SCT045 16/09 Q1018","updated":"2025-11-29T12:35:22Z"}
