{"icao":"LPOV","metar":"LPOV 210700Z 01003KT CAVOK 11/10 Q1022","updated":"2025-09-21T07:14:10Z"}
