{"icao":"LPLA","metar":"LPLA 131900Z 24011KT 9999 FEW015 SCT040 18/14 Q1026 WIND RWY15 22010KT PK 26018/14 RH81 BKN070 BLU","updated":"2025-12-13T19:14:21Z"}
