{"icao":"LPCS","metar":"LPCS 161800Z 28008KT 230V310 9999 FEW022 FEW025TCU 16/12 Q1012","updated":"2025-11-16T18:24:09Z"}
