{"icao":"LPST","metar":"LPST 021200Z 34008KT 240V340 CAVOK 35/14 Q1017","updated":"2026-07-02T12:56:10Z"}
