{"icao":"LPPS","metar":"LPPS 140230Z 05008KT 9999 FEW015 BKN030 22/18 Q1023","updated":"2025-09-14T03:01:05Z"}
