{"icao":"LPPD","metar":"LPPD 011000Z 26023KT 8000 VCSH FEW013 FEW018TCU BKN025 16/14 Q1007","updated":"2026-02-01T10:24:08Z"}
