{"icao":"LPAR","metar":"LPAR 140900Z 35007KT 300V020 9999 SCT025 13/05 Q1026","updated":"2026-02-14T09:28:47Z"}
