{"icao":"LPAZ","metar":"LPAZ 140730Z 22016KT 9999 FEW010 SCT014 16/14 Q1020","updated":"2026-04-14T07:43:19Z"}
