{"icao":"LPHR","metar":"LPHR 220730Z 30012KT 270V330 9999 FEW025 12/06 Q1001","updated":"2026-04-22T07:44:49Z"}
