{"icao":"LPBJ","metar":"LPBJ 302200Z 08002KT CAVOK 06/06 Q1021","updated":"2025-12-30T22:18:23Z"}
