{"icao":"LPOV","metar":"LPOV 230700Z 16009KT 4000 -RA BR FEW004 BKN012 BKN035 11/10 Q1026","updated":"2025-11-23T07:16:49Z"}
