{"icao":"LPFR","metar":"LPFR 281200Z 22010KT CAVOK 25/18 Q1020","updated":"2026-06-28T12:14:50Z"}
