{"icao":"KORD","metar":"KORD 091151Z 00000KT 10SM FEW038 08/04 A3047 RMK AO2 SLP322 T00830044 10111 20072 53010","updated":"2025-10-09T12:37:54Z"}
