{"icao":"LPOV","metar":"LPOV 202300Z 00000KT CAVOK 06/06 Q1030","updated":"2026-02-20T23:27:28Z"}
