{"icao":"LPLA","metar":"LPLA 042202Z VRB03KT 9999 FEW025 SCT040 14/08 Q1026","updated":"2026-01-04T22:18:55Z"}
