{"icao":"LPPR","metar":"LPPR 211500Z 28006KT 190V350 9999 -SHRA SCT016 FEW020CB BKN028 07/05 Q1007 RERA","updated":"2025-12-21T15:18:03Z"}
