{"icao":"LPFL","metar":"LPFL 251900Z 18007KT 9999 -RA FEW013 SCT019 22/20 Q1005","updated":"2025-09-25T19:14:43Z"}
