{"icao":"KJFK","metar":"KJFK 310551Z 33013KT 10SM FEW250 M12/M19 A3020 RMK AO2 SLP224 4/007 T11171189 11089 21122 58002 $","updated":"2026-01-31T06:37:36Z"}
