{"icao":"LPAZ","metar":"LPAZ 061500Z VRB02KT 9999 BKN049 16/05 Q1033","updated":"2026-01-06T15:21:47Z"}
