{"icao":"LPMA","metar":"LPMA 171100Z 35014G25KT 300V060 9999 SCT015 17/09 Q1023","updated":"2026-01-17T11:16:02Z"}
