{"icao":"LPOV","metar":"LPOV 281600Z 22009KT 7000 SCT014 BKN025 14/10 Q1002","updated":"2026-01-28T16:35:36Z"}
