{"icao":"KJFK","metar":"KJFK 311651Z 35008KT 10SM FEW040 SCT180 BKN250 M07/M14 A3015 RMK AO2 SLP210 T10721144 $","updated":"2026-01-31T17:22:37Z"}
