{"icao":"LPFR","metar":"LPFR 210300Z 07010KT CAVOK 22/07 Q1020","updated":"2026-05-21T03:34:08Z"}
