{"icao":"LPOV","metar":"LPOV 112200Z 28008KT 240V320 9999 FEW004 SCT020 BKN030 15/12 Q1015","updated":"2026-02-11T22:28:17Z"}
