{"icao":"LPLA","metar":"LPLA 030500Z 30003KT 270V350 CAVOK 11/07 Q1028","updated":"2026-03-03T05:48:03Z"}
