{"icao":"LPPD","metar":"LPPD 172000Z 32009KT 280V010 9999 FEW016 BKN020 15/11 Q1028","updated":"2026-01-17T20:20:50Z"}
