{"icao":"LPPT","metar":"LPPT 131230Z 35009KT 320V030 9999 SCT020 16/11 Q1023","updated":"2026-03-13T12:55:50Z"}
