{"icao":"KLAX","metar":"KLAX 270853Z 14003KT 10SM FEW016 BKN025 20/17 A2988 RMK AO2 SLP114 T02000172 55004 $","updated":"2025-09-27T09:16:03Z"}
