{"icao":"LPFR","metar":"LPFR 191230Z 10010KT CAVOK 26/20 Q1020","updated":"2025-09-19T12:36:08Z"}
