{"icao":"LPBJ","metar":"LPBJ 282300Z 26020G30KT 5000 -DZ BR OVC005 15/15 Q1008","updated":"2026-01-28T23:24:55Z"}
