{"icao":"LPPD","metar":"LPPD 210900Z 05010KT 9999 FEW025 BKN040 15/08 Q1031","updated":"2025-11-21T09:19:30Z"}
