{"icao":"LPHR","metar":"LPHR 121300Z 34012G25KT 300V020 9999 VCSH SCT017 FEW020CB SCT035 15/09 Q1004 WS R28","updated":"2025-11-12T13:32:24Z"}
