{"icao":"KLAX","metar":"KLAX 040853Z 07004KT 10SM CLR 17/14 A2992 RMK AO2 SLP129 T01670139 56004 $","updated":"2025-10-04T09:16:02Z"}
