{"icao":"LPPD","metar":"LPPD 281200Z 09010KT 9999 FEW025 SCT040 22/13 Q1029","updated":"2025-09-28T12:32:26Z"}
