{"icao":"LPHR","metar":"LPHR 072300Z 24027KT 9999 BKN009 18/17 Q1010","updated":"2026-02-07T23:28:30Z"}
