{"icao":"LPMT","metar":"LPMT 020300Z 01004KT 9999 SCT009 BKN020 12/11 Q1017 RERADZ","updated":"2025-12-02T03:17:25Z"}
