{"icao":"KORD","metar":"KORD 052151Z 11004KT 10SM OVC250 06/00 A2981 RMK AO2 SLP098 T00610000","updated":"2026-01-05T22:19:56Z"}
