{"icao":"KLAX","metar":"KLAX 202253Z 26016G21KT 10SM FEW017 SCT023 20/13 A2996 RMK AO2 SLP144 T02000128","updated":"2026-06-20T23:07:06Z"}
