{"icao":"LPMR","metar":"LPMR 031800Z 31007KT CAVOK 17/09 Q1023","updated":"2026-04-03T18:44:42Z"}
