{"icao":"LPMR","metar":"LPMR 232300Z 00000KT 0300 FG VV002 18/18 Q1013","updated":"2026-06-23T23:55:41Z"}
