{"icao":"LPHR","metar":"LPHR 052300Z 30022G38KT 260V330 9999 SCT016 FEW018TCU 12/06 Q1012","updated":"2026-02-05T23:22:18Z"}
