{"icao":"LPMT","metar":"LPMT 271500Z 35006KT 310V030 9999 FEW045 25/14 Q1018","updated":"2025-10-27T15:19:27Z"}
