{"icao":"KORD","metar":"KORD 150251Z 24007KT 10SM BKN150 BKN210 M15/M21 A3055 RMK AO2 SLP364 T11501211 58021","updated":"2025-12-15T03:40:37Z"}
