{"icao":"LPMA","metar":"LPMA 160500Z 02010KT 9999 BKN014 14/12 Q1017","updated":"2026-03-16T05:13:34Z"}
