{"icao":"LPCS","metar":"LPCS 221600Z 23014KT 2000 -RA BR SCT002 BKN005 13/13 Q1005 RERA","updated":"2026-01-22T16:34:36Z"}
