{"icao":"LPCS","metar":"LPCS 311800Z 05005KT 9999 FEW020 12/09 Q1017","updated":"2026-01-01T05:25:48Z"}
