{"icao":"LPOV","metar":"LPOV 130700Z 17011KT 5000 RA BR SCT015 FEW020CB BKN030 12/11 Q1005 RERA","updated":"2026-01-13T07:23:53Z"}
