{"icao":"LPFL","metar":"LPFL 020800Z 17006KT 100V240 9999 FEW008 23/19 Q1017","updated":"2025-10-02T08:23:00Z"}
