{"icao":"LPPD","metar":"LPPD 030230Z 04015KT 010V080 9999 FEW015 BKN045 15/12 Q1020","updated":"2026-05-03T02:47:34Z"}
