{"icao":"KORD","metar":"KORD 031651Z 30014G20KT 10SM CLR 13/00 A3015 RMK AO2 SLP212 T01330000 $","updated":"2025-11-03T17:17:11Z"}
