{"icao":"LPHR","metar":"LPHR 120700Z 30017KT 7000 -SHRA SCT012 BKN025 19/18 Q1017","updated":"2025-10-12T07:15:41Z"}
