{"icao":"LPOV","metar":"LPOV 011200Z 33014KT 9999 FEW008 BKN012 20/16 Q1020","updated":"2026-06-01T12:35:06Z"}
