{"icao":"KJFK","metar":"KJFK 051851Z 20008KT 1 1/2SM -RA BR SCT040 BKN070 OVC085 12/11 A2982 RMK AO2 SFC VIS 2 1/2 SLP096 P0005 T01170111","updated":"2026-04-05T19:32:54Z"}
