{"icao":"LPHR","metar":"LPHR 241530Z 31021G31KT 9000 VCSH SCT016 SCT030 15/10 Q1018","updated":"2026-02-24T15:57:28Z"}
