{"icao":"LPFL","metar":"LPFL 201700Z 27015G30KT 210V340 9999 FEW018 18/13 Q1022","updated":"2026-01-20T17:28:15Z"}
