{"icao":"LPFR","metar":"LPFR 141600Z 09009KT CAVOK 18/11 Q1014","updated":"2025-12-14T16:21:57Z"}
