{"icao":"LPFL","metar":"LPFL 131700Z VRB03KT 9999 FEW019 SCT035 19/15 Q1012","updated":"2025-10-13T17:15:21Z"}
