{"icao":"LPPR","metar":"LPPR 211900Z 02004KT 350V050 CAVOK 08/04 Q1029","updated":"2025-11-21T19:15:36Z"}
