{"icao":"LPFR","metar":"LPFR 280830Z 04004KT CAVOK 16/12 Q1020","updated":"2026-03-28T08:37:11Z"}
