{"icao":"LPLA","metar":"LPLA 200800Z VRB01KT 9999 FEW009 SCT030 24/21 Q1014","updated":"2025-10-20T08:24:50Z"}
