{"icao":"KORD","metar":"KORD 062103Z 31009KT 4SM -RA BR SCT049 OVC075 18/16 A2986 RMK AO2 RAB2057 P0000 T01780156","updated":"2026-03-06T21:28:40Z"}
