{"icao":"LPLA","metar":"LPLA 311900Z 02006KT 350V060 9999 FEW012 22/17 Q1025","updated":"2026-05-31T19:37:32Z"}
