{"icao":"LPPR","metar":"LPPR 192000Z 36003KT 340V040 9999 FEW025 09/06 Q1030","updated":"2026-02-19T20:30:34Z"}
