{"icao":"KLAX","metar":"KLAX 240353Z 25004KT 10SM CLR 16/11 A3010 RMK AO2 SLP191 T01560106","updated":"2026-02-24T04:50:28Z"}
