{"icao":"LPPT","metar":"LPPT 102300Z 16004KT 130V190 7000 SCT006 SCT015 16/16 Q1017","updated":"2025-11-10T23:17:11Z"}
