{"icao":"LPPR","metar":"LPPR 151230Z 26006KT 230V290 CAVOK 23/14 Q1017","updated":"2025-10-15T12:38:39Z"}
