{"icao":"KJFK","metar":"KJFK 120551Z 06012KT 10SM FEW030 SCT055 BKN090 BKN130 BKN250 17/09 A3010 RMK AO2 SLP193 T01720089 10172 20161 56021","updated":"2025-10-12T06:23:45Z"}
