{"icao":"LPPT","metar":"LPPT 191700Z 24007KT CAVOK 24/13 Q1014","updated":"2026-04-19T17:34:01Z"}
