{"icao":"KORD","metar":"KORD 171051Z 26016G25KT 10SM FEW050 FEW110 M11/M16 A2981 RMK AO2 SLP105 T11061161 $","updated":"2026-01-17T11:16:03Z"}
