{"icao":"LPFR","metar":"LPFR 200400Z 36004KT CAVOK 11/07 Q1017","updated":"2025-11-20T04:20:40Z"}
