{"icao":"LPLA","metar":"LPLA 042200Z 22020G30KT 9999 FEW015 SCT023 18/14 Q1020","updated":"2025-12-04T22:16:26Z"}
