{"icao":"LPAZ","metar":"LPAZ 291330Z 24010KT 7000 FEW001 BKN003 17/16 Q1016","updated":"2026-01-29T13:59:41Z"}
