{"icao":"KORD","metar":"KORD 060451Z 10004KT 10SM OVC250 02/00 A2974 RMK AO2 SLP077 T00220000","updated":"2026-01-06T05:23:46Z"}
