{"icao":"LPMT","metar":"LPMT 291500Z 24004KT 180V270 9999 FEW018 FEW028CB SCT045 21/18 Q1008","updated":"2025-10-29T15:20:21Z"}
