{"icao":"KORD","metar":"KORD 120551Z 01005KT 10SM FEW027 OVC100 M04/M08 A3005 RMK AO2 SLP186 4/001 T10441083 11033 21044 410281050 51010","updated":"2025-12-12T06:31:32Z"}
