{"icao":"LPMT","metar":"LPMT 110600Z 02009KT CAVOK 17/12 Q1019","updated":"2025-10-11T06:23:21Z"}
