{"icao":"KORD","metar":"KORD 081351Z 06009KT 8SM -DZ BKN015 OVC024 06/04 A2986 RMK AO2 RAB23E32DZB47 SLP114 P0000 T00610044 $","updated":"2025-11-08T14:15:19Z"}
