{"icao":"LPPT","metar":"LPPT 121100Z 07005KT 020V110 9999 FEW009 14/12 Q1027","updated":"2026-03-12T11:30:23Z"}
