{"icao":"LPLA","metar":"LPLA 282300Z 31010KT 9999 FEW022 BKN033 17/11 Q1021","updated":"2025-10-28T23:16:38Z"}
