{"icao":"LPAZ","metar":"LPAZ 150900Z 32017KT 9999 FEW020 SCT035 15/09 Q1026","updated":"2025-12-15T09:30:36Z"}
