{"icao":"KORD","metar":"KORD 052251Z 32009KT 10SM SCT300 13/M03 A3012 RMK AO2 SLP200 T01281033","updated":"2025-11-05T23:17:49Z"}
