{"icao":"LPCS","metar":"LPCS 060800Z 27005KT 220V320 9999 VCSH FEW016 FEW020TCU 15/11 Q1017","updated":"2025-11-06T08:25:33Z"}
