{"icao":"LPPR","metar":"LPPR 031630Z 31008KT CAVOK 17/11 Q1022","updated":"2026-04-03T16:39:04Z"}
