{"icao":"LPBJ","metar":"LPBJ 181500Z 16007KT CAVOK 33/14 Q1019","updated":"2025-09-18T15:18:08Z"}
