{"icao":"LPLA","metar":"LPLA 292300Z 24010KT 180V280 9999 FEW010 19/17 Q1022","updated":"2026-05-29T23:10:45Z"}
