{"icao":"KLAX","metar":"KLAX 171253Z 24005KT 10SM FEW100 FEW150 SCT200 21/18 A2989 RMK AO2 SLP119 T02060183","updated":"2025-09-17T13:26:11Z"}
