{"icao":"LPMT","metar":"LPMT 232300Z 32009KT CAVOK 17/14 Q1020","updated":"2026-05-23T23:55:51Z"}
