{"icao":"LPPT","metar":"LPPT 150000Z 31007KT CAVOK 18/15 Q1017","updated":"2026-06-15T00:06:40Z"}
