{"icao":"KORD","metar":"KORD 270751Z 03024G31KT 10SM OVC020 00/M04 A3021 RMK AO2 PK WND 02035/0702 SLP234 T00001044 $","updated":"2026-03-27T08:51:58Z"}
