{"icao":"LPHR","metar":"LPHR 100800Z 25019KT 9999 VCSH SCT015 19/16 Q1018","updated":"2025-11-10T08:27:10Z"}
