{"icao":"LPBJ","metar":"LPBJ 101400Z 24019KT 9999 FEW030 SCT035 19/07 Q1012","updated":"2026-05-10T14:51:15Z"}
