{"icao":"LPPT","metar":"LPPT 291030Z 24016KT 5000 -DZ BR BKN004 16/16 Q1009","updated":"2026-01-29T10:35:18Z"}
