{"icao":"KLAX","metar":"KLAX 291053Z 05005KT 10SM FEW250 13/M02 A3015 RMK AO2 SLP206 T01281017","updated":"2026-01-29T11:30:21Z"}
