{"icao":"LPBJ","metar":"LPBJ 232000Z 25008KT CAVOK 27/15 Q1020","updated":"2026-05-23T20:50:06Z"}
