{"icao":"KJFK","metar":"KJFK 201851Z 02003KT 10SM FEW200 SCT250 07/M03 A3018 RMK AO2 SLP220 T00721033 $","updated":"2025-11-20T19:15:36Z"}
