{"icao":"LPPD","metar":"LPPD 211830Z 27015KT 1000 0600NW R30/P2000 -DZ BR PRFG SCT001 OVC002 16/16 Q1020","updated":"2026-01-21T18:40:59Z"}
