{"icao":"LPMT","metar":"LPMT 280400Z 36008KT CAVOK 11/07 Q1025","updated":"2026-02-28T04:54:41Z"}
