{"icao":"LPSJ","metar":"LPSJ 280730Z 06008KT 9999 FEW025 SCT037 17/10 Q1028","updated":"2026-06-28T07:49:29Z"}
