{"icao":"KORD","metar":"KORD 252051Z 33012G19KT 7SM -SN FEW020 OVC032 M10/M14 A3007 RMK AO2 SLP196 P0000 60001 T11001144 55005 $","updated":"2026-01-25T21:18:43Z"}
