{"icao":"KORD","metar":"KORD 120851Z 20003KT 10SM FEW100 SCT250 06/00 A3014 RMK AO2 SLP210 T00560000 56016 $","updated":"2026-05-12T09:37:19Z"}
