{"icao":"KLAX","metar":"KLAX 221506Z 31004KT 7SM FEW009 BKN017 BKN050 17/14 A3007 RMK AO2 BKN017 V SCT T01720139","updated":"2025-10-22T15:18:39Z"}
