{"icao":"KJFK","metar":"KJFK 041551Z 02008KT 10SM FEW035 FEW140 BKN230 06/02 A3029 RMK AO2 SLP257 T00610022","updated":"2026-03-04T16:42:34Z"}
