{"icao":"LPFR","metar":"LPFR 030930Z 30007KT 9999 FEW015 FEW018CB 11/09 Q1006","updated":"2026-02-03T09:39:22Z"}
