{"icao":"KJFK","metar":"KJFK 081151Z 33016G28KT 10SM FEW030 FEW090 FEW250 M16/M24 A3014 RMK AO2 PK WND 33028/1144 SLP207 4/005 T11611239 11144 21161 53014 $","updated":"2026-02-08T12:47:26Z"}
