{"icao":"LPMA","metar":"LPMA 032330Z 36012KT 300V060 9999 FEW015 22/15 Q1025","updated":"2026-06-03T23:41:44Z"}
