{"icao":"LPMT","metar":"LPMT 050700Z 24019G30KT 9999 SCT012 BKN020 15/13 Q0993","updated":"2026-02-05T07:51:26Z"}
