{"icao":"LPBJ","metar":"LPBJ 302300Z 28007KT CAVOK 12/08 Q1019","updated":"2026-04-30T23:51:32Z"}
