{"icao":"KORD","metar":"KORD 072051Z 21006KT 10SM FEW250 06/00 A2989 RMK AO2 SLP126 T00560000 56008","updated":"2026-01-07T21:18:57Z"}
