{"icao":"KLAX","metar":"KLAX 031053Z 09003KT 9SM FEW016 SCT025 OVC036 13/11 A2996 RMK AO2 SLP142 T01330111 $","updated":"2025-12-03T11:18:04Z"}
