{"icao":"LPPD","metar":"LPPD 150700Z 35003KT 9999 FEW020 19/17 Q1026","updated":"2025-09-15T07:17:46Z"}
