{"icao":"LPMR","metar":"LPMR 081400Z 33015KT 300V360 9999 FEW020 22/14 Q1023","updated":"2026-06-08T14:46:47Z"}
