{"icao":"LPFL","metar":"LPFL 261000Z 31015G32KT 240V360 9000 -SHRA FEW013 SCT016 09/03 Q1004","updated":"2026-01-26T10:25:38Z"}
