{"icao":"KLAX","metar":"KLAX 181253Z 07005KT 10SM FEW011 SCT028 BKN038 11/09 A2990 RMK AO2 SLP123 T01110094 $","updated":"2025-11-18T13:31:33Z"}
