{"icao":"KJFK","metar":"KJFK 011451Z 36015KT 6SM -SN FEW020 BKN047 OVC060 01/M03 A3018 RMK AO2 RAE26SNB26PLE46 SLP219 P0000 60000 T00111033 51030 VISNO W $","updated":"2026-03-01T15:22:43Z"}
