{"icao":"LPMT","metar":"LPMT 111500Z 34016KT 310V010 9999 SCT024 16/09 Q1015","updated":"2026-04-11T15:32:14Z"}
