{"icao":"LPAZ","metar":"LPAZ 222100Z 09005KT 9999 FEW020 SCT031 15/13 Q1031","updated":"2025-11-22T21:15:31Z"}
