{"icao":"LPAZ","metar":"LPAZ 151130Z 36010KT 330V030 9999 BKN040 16/07 Q1032","updated":"2026-05-15T11:54:58Z"}
