{"icao":"LPMA","metar":"LPMA 031230Z 03008KT 350V070 9999 BKN014 SCT030 22/19 Q1025","updated":"2025-10-03T12:35:14Z"}
