{"icao":"LPPD","metar":"LPPD 042300Z 14003KT 9999 FEW025 21/19 Q1028","updated":"2025-10-04T23:15:21Z"}
