{"icao":"LPFR","metar":"LPFR 282100Z 36004KT CAVOK 12/07 Q1022","updated":"2025-11-28T21:15:50Z"}
