{"icao":"KORD","metar":"KORD 241751Z 18011G18KT 10SM BKN180 OVC250 10/03 A3004 RMK AO2 SLP176 T01000033 10100 20028 58018","updated":"2025-11-24T18:28:24Z"}
