{"icao":"KLAX","metar":"KLAX 270053Z 26008KT 7SM FEW010 17/14 A2998 RMK AO2 SLP149 T01720144 $","updated":"2025-10-27T01:28:31Z"}
