{"icao":"LPOV","metar":"LPOV 061100Z 29004G16KT 230V330 9999 VCSH FEW022 FEW025TCU SCT030 17/11 Q1017","updated":"2025-11-06T11:16:31Z"}
