{"icao":"KORD","metar":"KORD 021951Z 22013G18KT 10SM FEW047 BKN250 11/M01 A3014 RMK AO2 SLP208 T01111006 $","updated":"2025-11-02T20:17:36Z"}
