{"icao":"LPMA","metar":"LPMA 250430Z 01014KT 330V040 9999 BKN015 17/11 Q1017","updated":"2026-03-25T04:52:26Z"}
