{"icao":"KJFK","metar":"KJFK 290251Z 15007KT 10SM BKN075 OVC110 11/05 A3008 RMK SLP185 T01060050 55002 ","updated":"2026-04-29T03:42:13Z"}
