{"icao":"LPLA","metar":"LPLA 100300Z 24003KT 190V330 9999 FEW015 16/12 Q1021","updated":"2025-11-10T03:17:47Z"}
