{"icao":"LPMT","metar":"LPMT 060100Z 36001KT CAVOK 13/12 Q1018","updated":"2025-10-06T03:00:30Z"}
