{"icao":"LPBJ","metar":"LPBJ 031400Z 27007KT 220V330 CAVOK 30/12 Q1021","updated":"2025-10-03T14:16:30Z"}
