{"icao":"LPBJ","metar":"LPBJ 020834Z VRB02KT 3000 PRFG FEW005 08/07 Q1013","updated":"2026-03-02T08:42:38Z"}
