{"icao":"LPFL","metar":"LPFL 011300Z 16006KT 120V190 9999 FEW005 SCT016 25/21 Q1018","updated":"2025-10-01T13:28:12Z"}
