{"icao":"LPPR","metar":"LPPR 090800Z 00000KT 1500 1000N BR BCFG BKN002 14/14 Q1021","updated":"2025-10-09T08:23:33Z"}
