{"icao":"LPMT","metar":"LPMT 092100Z 17003KT CAVOK 15/13 Q1020","updated":"2025-11-09T21:14:57Z"}
