{"icao":"LPHR","metar":"LPHR 281500Z 26016KT 5000 -RADZ BR SCT003 BKN005 BKN010 17/16 Q1029","updated":"2026-02-28T15:20:32Z"}
