{"icao":"KORD","metar":"KORD 071510Z 35015KT 8SM OVC018 M03/M06 A3009 RMK AO2 T10331056","updated":"2025-12-07T15:16:48Z"}
