{"icao":"LPFR","metar":"LPFR 300900Z 13003KT 080V160 CAVOK 23/17 Q1017","updated":"2025-09-30T09:18:48Z"}
