{"icao":"LPPD","metar":"LPPD 262300Z 33008KT 300V010 9999 FEW020 15/11 Q1033 WS R30","updated":"2026-02-26T23:28:24Z"}
