{"icao":"LPPS","metar":"LPPS 050600Z 02007KT 350V050 9999 FEW015 BKN030 21/13 Q1024","updated":"2025-10-05T06:23:57Z"}
