{"icao":"KORD","metar":"KORD 011251Z 25003KT 10SM BKN070 05/02 A3000 RMK AO2 SLP161 T00500017 $","updated":"2025-11-01T13:22:50Z"}
