{"icao":"LPAR","metar":"LPAR 071400Z 22007KT 190V260 8000 -RA BKN018 BKN030 13/10 Q1014","updated":"2026-04-07T15:06:25Z"}
