{"icao":"LPAR","metar":"LPAR 211300Z 26011KT 240V310 7000 FEW007 BKN015 17/14 Q1006","updated":"2026-01-21T13:43:57Z"}
