{"icao":"KJFK","metar":"KJFK 011951Z 19015KT 10SM FEW060 FEW250 15/03 A2987 RMK SLP115 T01500033 ","updated":"2026-05-01T20:02:49Z"}
