{"icao":"LPBJ","metar":"LPBJ 010726Z 23012KT 3500 -DZ PRFG BKN007 OVC015 13/13 Q1016","updated":"2026-02-01T07:36:02Z"}
