{"icao":"KJFK","metar":"KJFK 172051Z 05012KT 10SM BKN032 OVC045 21/15 A3003 RMK AO2 RAE15 SLP169 P0000 60000 T02110150 56005 $","updated":"2025-09-17T21:14:42Z"}
