{"icao":"LPAZ","metar":"LPAZ 150400Z 21015KT 9999 FEW021 22/18 Q1008","updated":"2025-10-15T04:21:13Z"}
