{"icao":"LPBJ","metar":"LPBJ 161600Z 17006KT 130V220 9999 SCT035 28/13 Q1013","updated":"2025-10-16T16:23:12Z"}
