{"icao":"LPMA","metar":"LPMA 290800Z VRB04KT 9999 SCT015 21/16 Q1014","updated":"2025-10-29T08:25:39Z"}
