{"icao":"LPAZ","metar":"LPAZ 021800Z 32036G47KT 9999 FEW020 SCT040 14/11 Q1002","updated":"2026-01-02T18:29:11Z"}
