{"icao":"KJFK","metar":"KJFK 080851Z 33023G29KT 10SM SCT250 M16/M24 A3010 RMK AO2 PK WND 33037/0809 SLP193 T11561239 51012 $","updated":"2026-02-08T09:28:29Z"}
