{"icao":"LPMA","metar":"LPMA 092130Z 34012KT 280V030 9999 SCT015 16/08 Q1020","updated":"2026-04-09T21:43:43Z"}
