{"icao":"LPOV","metar":"LPOV 280900Z 16003KT 5000 BR NSC 05/04 Q1024","updated":"2025-11-28T09:19:47Z"}
