{"icao":"KJFK","metar":"KJFK 101651Z 18010KT 10SM SCT250 10/04 A3032 RMK AO2 SLP268 T01000044","updated":"2026-04-10T17:46:13Z"}
