{"icao":"LPPR","metar":"LPPR 252030Z 34006KT 9999 VCTS FEW020 FEW025CB 16/13 Q1016","updated":"2026-04-25T20:37:24Z"}
