{"icao":"LPHR","metar":"LPHR 031900Z 06003KT 360V150 9999 VCSH FEW012 SCT022 15/12 Q1016","updated":"2026-01-03T19:14:25Z"}
