{"icao":"LPCS","metar":"LPCS 262230Z 03005KT 9999 FEW045 17/14 Q1019","updated":"2025-10-27T04:27:59Z"}
