{"icao":"LPMT","metar":"LPMT 300400Z 03011KT CAVOK 12/05 Q1029","updated":"2026-03-30T05:22:51Z"}
