{"icao":"LPOV","metar":"LPOV 271100Z 24011KT 200V270 9999 FEW022 FEW025CB SCT040 10/09 Q0998 RETSRAGS","updated":"2026-01-27T11:21:48Z"}
