{"icao":"LPOV","metar":"LPOV 180100Z VRB02KT 0200 FG VV/// 14/14 Q1021","updated":"2025-09-18T11:13:44Z"}
