{"icao":"LPLA","metar":"LPLA 201200Z 07008KT 020V110 9999 FEW028 SCT040 18/10 Q1031","updated":"2025-11-20T12:38:14Z"}
