{"icao":"LPMA","metar":"LPMA 221500Z 21019KT 9999 SCT015 18/10 Q1013","updated":"2026-04-22T15:11:50Z"}
