{"icao":"KJFK","metar":"KJFK 110251Z 17008KT 10SM BKN041 15/08 A3032 RMK AO2 SLP267 T01500078 56015","updated":"2025-10-11T03:25:10Z"}
