{"icao":"KJFK","metar":"KJFK 150812Z 35008KT 10SM BKN030 OVC050 15/12 A3000 RMK AO2 T01500122","updated":"2025-10-15T08:25:27Z"}
