{"icao":"LPPT","metar":"LPPT 282300Z 30005KT 9999 FEW012 12/10 Q1022","updated":"2025-11-28T23:16:41Z"}
