{"icao":"LPLA","metar":"LPLA 091500Z 34021KT 9999 SCT020 FEW023CB 17/11 Q1017","updated":"2026-05-09T15:50:59Z"}
