{"icao":"KLAX","metar":"KLAX 101132Z 27003KT 10SM FEW008 SCT012 SCT250 15/13 A2993 RMK AO2 T01500133 $","updated":"2026-04-10T11:47:45Z"}
