{"icao":"KORD","metar":"KORD 240851Z 18007KT 10SM BKN180 M06/M11 A3014 RMK AO2 SLP216 T10611106 56033","updated":"2026-02-24T09:52:12Z"}
