{"icao":"KORD","metar":"KORD 241451Z 17007KT 10SM BKN190 BKN250 06/02 A3009 RMK AO2 SLP195 T00610017 58004","updated":"2025-11-24T15:21:36Z"}
