{"icao":"LPFL","metar":"LPFL 171000Z 20016G26KT 160V230 9000 SCT009 BKN014 23/21 Q1006","updated":"2025-10-17T10:19:05Z"}
