{"icao":"LPPR","metar":"LPPR 101500Z 22007KT 190V250 9999 VCSH SCT013 BKN040 17/15 Q1016","updated":"2025-11-10T15:20:49Z"}
