{"icao":"LPBJ","metar":"LPBJ 051900Z 33010KT CAVOK 06/M01 Q1013","updated":"2026-01-05T19:19:31Z"}
