{"icao":"KJFK","metar":"KJFK 181751Z 15009KT 10SM FEW045 FEW250 09/04 A3028 RMK AO2 SLP253 T00890039 10089 21017 58016","updated":"2025-12-18T18:30:26Z"}
