{"icao":"KORD","metar":"KORD 221957Z 32014G22KT 10SM -SN OVC035 M03/M12 A3026 RMK AO2 SNB56 P0000 T10331122 $","updated":"2026-02-22T20:26:15Z"}
