{"icao":"LPLA","metar":"LPLA 242200Z 24010KT 9999 SCT014 BKN024 17/14 Q1012","updated":"2026-04-24T22:37:22Z"}
