{"icao":"LPAR","metar":"LPAR 131200Z 34006KT 310V020 9999 SCT020 17/11 Q1023","updated":"2026-03-13T12:56:08Z"}
