{"icao":"LPPR","metar":"LPPR 250930Z VRB02KT CAVOK 17/09 Q1022","updated":"2026-03-25T09:52:24Z"}
