{"icao":"KORD","metar":"KORD 170851Z 15008KT 10SM SCT250 14/05 A3000 RMK AO2 SLP156 T01390050 56007 $","updated":"2025-10-17T09:20:07Z"}
