{"icao":"LPPD","metar":"LPPD 232100Z 01011KT 9999 -SHRA FEW018 BKN040 19/16 Q1023","updated":"2025-09-23T21:15:01Z"}
