{"icao":"KLAX","metar":"KLAX 231453Z 00000KT 10SM FEW120 SCT150 BKN180 BKN250 13/02 A3016 RMK AO2 SLP213 T01280017 53007 $","updated":"2026-02-23T15:44:03Z"}
