{"icao":"LPMR","metar":"LPMR 101300Z 03005KT 350V060 9999 FEW016 16/11 Q1022","updated":"2025-12-10T13:36:06Z"}
