{"icao":"LPBJ","metar":"LPBJ 192100Z 34004KT CAVOK 09/05 Q1029","updated":"2026-02-19T21:30:31Z"}
