{"icao":"LPLA","metar":"LPLA 131500Z 24012KT 210V270 9999 FEW018 SCT035 19/14 Q1026 WIN D RWY15 22012KT PK 22021/17 RH75 BKN090 BLU","updated":"2025-12-13T15:17:31Z"}
