{"icao":"LPPR","metar":"LPPR 020800Z 12010KT 080V140 9999 BKN042 14/09 Q1002","updated":"2026-01-02T08:28:01Z"}
