{"icao":"LPMT","metar":"LPMT 112200Z 20005KT 160V230 9999 SCT020 BKN030 13/12 Q1025","updated":"2026-01-11T22:18:23Z"}
