{"icao":"LPBJ","metar":"LPBJ 011800Z 01011KT CAVOK 21/06 Q1020","updated":"2026-04-01T18:59:50Z"}
