{"icao":"LPMR","metar":"LPMR 061000Z 13010KT CAVOK 24/09 Q1020","updated":"2025-10-06T10:19:47Z"}
