{"icao":"KJFK","metar":"KJFK 090851Z 13003KT 10SM SCT008 SCT090 SCT190 SCT250 12/12 A2988 RMK AO2 SLP119 T01170117 58007 $","updated":"2025-11-09T09:16:21Z"}
