{"icao":"LPMA","metar":"LPMA 101400Z 09004KT 010V140 9999 SCT016 SCT033 23/14 Q1020","updated":"2025-11-10T14:18:48Z"}
