{"icao":"LPPT","metar":"LPPT 180900Z 05005KT 360V090 CAVOK 14/10 Q1020","updated":"2025-11-18T09:20:27Z"}
