{"icao":"LPPR","metar":"LPPR 142300Z VRB01KT 5000 2200NW BR BCFG NSC 14/13 Q1017","updated":"2025-10-14T23:15:48Z"}
