{"icao":"LPPS","metar":"LPPS 061000Z 11008KT 9999 SCT014 SCT030 22/19 Q1023","updated":"2025-10-06T10:20:19Z"}
