{"icao":"KLAX","metar":"KLAX 262153Z 15005KT 10SM SCT160 SCT250 22/M09 A3020 RMK AO2 SLP226 T02221094 $","updated":"2026-01-26T22:20:58Z"}
