{"icao":"LPPT","metar":"LPPT 120630Z VRB02KT 2000 0600NE BR PRFG SCT001 SCT002 08/08 Q1026","updated":"2026-03-12T06:53:47Z"}
