{"icao":"LPMT","metar":"LPMT 212200Z 04003KT 010V180 CAVOK 12/11 Q1028","updated":"2026-02-21T22:22:18Z"}
