{"icao":"LPPT","metar":"LPPT 131630Z 30018G35KT 2000 +SHRAGS SCT018 SCT025CB 12/09 Q1010 WS R02","updated":"2026-02-13T16:43:48Z"}
