{"icao":"LPMR","metar":"LPMR 141400Z 34010KT 310V010 9999 FEW012 SCT020 FEW021TCU 14/11 Q1020","updated":"2026-01-14T14:24:06Z"}
