{"icao":"KORD","metar":"KORD 291051Z 34003KT 10SM FEW200 BKN300 11/08 A3010 RMK AO2 SLP192 T01060078 $","updated":"2026-05-29T11:28:04Z"}
