{"icao":"LPPT","metar":"LPPT 181400Z 16006KT 110V200 CAVOK 27/12 Q1016","updated":"2025-10-18T14:14:20Z"}
