{"icao":"LPFR","metar":"LPFR 151700Z 25008KT CAVOK 24/18 Q1018","updated":"2025-09-15T17:14:55Z"}
