{"icao":"KLAX","metar":"KLAX 090053Z 24006KT 4SM BR OVC007 18/16 A2993 RMK AO2 SLP133 T01780156","updated":"2025-11-09T01:27:17Z"}
