{"icao":"LPPD","metar":"LPPD 190800Z 01011KT 9999 FEW014 19/16 Q1018","updated":"2025-09-19T08:22:49Z"}
