{"icao":"LPFL","metar":"LPFL 271330Z 18014G24KT 2800 DZ BKN004 FEW010TCU 16/16 Q1013","updated":"2026-04-27T13:50:24Z"}
