{"icao":"LPCS","metar":"LPCS 121030Z 04007KT 010V070 CAVOK 15/11 Q1027","updated":"2026-03-12T10:37:10Z"}
