{"icao":"LPPR","metar":"LPPR 090200Z 22005KT 200V260 4500 BR SCT004 BKN006 14/13 Q1008","updated":"2026-02-09T02:06:09Z"}
