{"icao":"LPPD","metar":"LPPD 201530Z 03021G38KT 350V060 9999 SCT018 FEW025TCU 15/10 Q1006","updated":"2026-03-20T15:41:06Z"}
