{"icao":"LPAZ","metar":"LPAZ 271900Z 16005KT 9999 FEW028 18/14 Q1022","updated":"2025-11-27T19:14:49Z"}
