{"icao":"LPPR","metar":"LPPR 250900Z 29006KT 250V320 7000 FEW026 SCT035 13/10 Q1011","updated":"2026-01-25T09:20:16Z"}
