{"icao":"LPOV","metar":"LPOV 210500Z 34002KT CAVOK 10/09 Q1021","updated":"2025-09-21T05:16:24Z"}
