{"icao":"LPPD","metar":"LPPD 181400Z 28014KT 9999 FEW014 18/16 Q1024","updated":"2025-11-18T14:18:51Z"}
