{"icao":"LPPR","metar":"LPPR 041500Z 28004KT 250V310 CAVOK 15/09 Q1004","updated":"2026-01-04T15:18:02Z"}
