{"icao":"LPFR","metar":"LPFR 141500Z 21014KT 9999 FEW015 FEW018CB 17/13 Q1006","updated":"2025-11-14T15:17:11Z"}
