{"icao":"LPFR","metar":"LPFR 201400Z 36009KT 320V050 CAVOK 18/04 Q1018","updated":"2025-11-20T14:18:36Z"}
