{"icao":"LPPR","metar":"LPPR 151600Z 21006KT 170V240 9999 VCSH FEW012 FEW020CB 16/13 Q1003","updated":"2025-11-15T16:19:52Z"}
