{"icao":"LPMR","metar":"LPMR 271600Z 33014KT CAVOK 18/07 Q1017","updated":"2026-03-27T17:48:59Z"}
