{"icao":"LPPR","metar":"LPPR 081600Z 32008KT CAVOK 20/16 Q1020","updated":"2025-10-08T16:21:58Z"}
