{"icao":"LPPT","metar":"LPPT 241100Z 05011KT CAVOK 23/04 Q1018","updated":"2025-09-24T11:14:13Z"}
