{"icao":"LPHR","metar":"LPHR 211400Z 25013KT 8000 FEW007 SCT011 BKN060 24/22 Q1013","updated":"2025-10-21T14:17:19Z"}
