{"icao":"LPFR","metar":"LPFR 240800Z 35004KT 300V020 CAVOK 19/16 Q1019","updated":"2025-10-24T08:23:58Z"}
