{"icao":"LPMT","metar":"LPMT 120700Z 07003KT 5000 BR FEW008 08/08 Q1026","updated":"2026-03-12T07:44:44Z"}
