{"icao":"LPAZ","metar":"LPAZ 051700Z 20007KT 180V240 9999 FEW012 24/20 Q1023","updated":"2025-10-05T17:13:15Z"}
