{"icao":"KORD","metar":"KORD 252251Z 07007KT 10SM BKN065 OVC080 11/03 A3034 RMK AO2 SLP279 T01110033 $","updated":"2025-10-25T23:15:35Z"}
