{"icao":"LPMT","metar":"LPMT 241100Z 31005KT CAVOK 20/16 Q1020","updated":"2026-05-24T11:15:05Z"}
