{"icao":"LPFR","metar":"LPFR 172100Z 04005KT 360V080 CAVOK 22/16 Q1015","updated":"2025-10-17T21:15:04Z"}
