{"icao":"KJFK","metar":"KJFK 031051Z 10007KT 10SM BKN034 BKN041 OVC055 00/M04 A3060 RMK AO2 SLP360 T00001044","updated":"2026-03-03T11:31:45Z"}
