{"icao":"LPHR","metar":"LPHR 151500Z 29014KT 240V310 9999 FEW033 17/10 Q1027","updated":"2025-12-15T15:23:42Z"}
