{"icao":"LPPT","metar":"LPPT 081000Z 33010KT 300V360 9000 -DZ SCT014 BKN020 17/14 Q1023","updated":"2025-10-08T10:18:09Z"}
