{"icao":"LPBJ","metar":"LPBJ 202300Z 09007KT 9999 FEW005 SCT035 13/12 Q1008","updated":"2026-03-20T23:27:25Z"}
