{"icao":"LPMA","metar":"LPMA 191700Z 12003KT 080V220 9999 SCT015 20/13 Q1017","updated":"2025-11-19T17:17:43Z"}
