{"icao":"LPMT","metar":"LPMT 290300Z 23008KT 190V270 9999 BKN008 16/13 Q1007","updated":"2026-04-29T03:42:10Z"}
