{"icao":"LPMT","metar":"LPMT 010800Z 26005KT 0400 FG BKN002 BKN006 15/15 Q1014","updated":"2026-02-01T08:30:57Z"}
