{"icao":"LPHR","metar":"LPHR 022100Z 26006KT 230V300 9999 FEW020 18/12 Q1019","updated":"2025-11-03T01:26:14Z"}
