{"icao":"LPBJ","metar":"LPBJ 131500Z 29018KT 9999 FEW020CB SCT030 12/09 Q1008","updated":"2026-02-13T15:40:25Z"}
