{"icao":"LPPT","metar":"LPPT 080230Z 33008KT CAVOK 16/14 Q1023","updated":"2025-10-08T02:56:13Z"}
