{"icao":"LPPT","metar":"LPPT 231230Z 24018KT 9999 FEW010 SCT020 FEW025CB 11/08 Q1003","updated":"2026-01-23T12:43:58Z"}
