{"icao":"LPLA","metar":"LPLA 260800Z VRB02KT 9999 FEW022 BKN025 14/09 Q1030","updated":"2026-03-26T08:54:19Z"}
