{"icao":"LPAR","metar":"LPAR 211100Z 27009KT 230V300 9999 FEW011 BKN017 22/22 Q1015","updated":"2025-10-21T11:14:59Z"}
