{"icao":"LPPS","metar":"LPPS 030200Z VRB03KT 9999 SCT012 14/11 Q1023","updated":"2026-04-03T02:11:09Z"}
