{"icao":"LPLA","metar":"LPLA 161800Z 20016G30KT 170V230 9999 FEW013 BKN018 17/14 Q1022","updated":"2026-02-16T18:40:52Z"}
