{"icao":"LPPD","metar":"LPPD 171230Z 29009KT 250V320 9999 FEW022 BKN030 15/10 Q1030","updated":"2026-01-17T12:37:37Z"}
