{"icao":"LPBJ","metar":"LPBJ 261500Z 04007KT 360V070 9999 FEW030 17/04 Q1023","updated":"2025-11-26T15:17:56Z"}
