{"icao":"LPMA","metar":"LPMA 251100Z VRB06KT 9999 FEW015 23/15 Q1021","updated":"2025-09-25T11:15:20Z"}
