{"icao":"KJFK","metar":"KJFK 031451Z 31019G26KT 10SM SCT060 BKN075 BKN250 11/M04 A2987 RMK PK WND 30027/1432 SLP116 T01061044 58002 ","updated":"2026-05-03T15:45:33Z"}
