{"icao":"LPLA","metar":"LPLA 061000Z 20029G44KT 9999 FEW008 BKN014 BKN025 19/17 Q1010","updated":"2025-12-06T10:18:23Z"}
