{"icao":"LPHR","metar":"LPHR 151000Z 23012KT 200V260 9999 FEW025 21/14 Q1006","updated":"2025-10-15T10:20:03Z"}
