{"icao":"LPPS","metar":"LPPS 132100Z 27015KT 9999 FEW015 FEW018CB 19/12 Q1008","updated":"2025-11-13T21:17:16Z"}
