{"icao":"LPFR","metar":"LPFR 232330Z 26009KT CAVOK 22/19 Q1014","updated":"2026-06-23T23:54:48Z"}
