{"icao":"LPLA","metar":"LPLA 022200Z 23005KT 9999 SCT030 17/13 Q1019","updated":"2025-11-02T22:15:37Z"}
