{"icao":"LPLA","metar":"LPLA 290300Z 26003KT 240V300 9999 FEW022 BKN040 15/11 Q1020","updated":"2025-10-29T03:14:15Z"}
