{"icao":"LPPR","metar":"LPPR 240130Z 19009KT 9999 SCT011 13/10 Q1020","updated":"2026-02-24T02:00:30Z"}
