{"icao":"LPAR","metar":"LPAR 071200Z 01013KT 350V050 9999 FEW020 SCT030 14/10 Q1026","updated":"2026-01-07T12:42:46Z"}
