{"icao":"LPPR","metar":"LPPR 201600Z 33004KT 290V350 CAVOK 20/13 Q1010","updated":"2026-04-20T16:07:26Z"}
