{"icao":"LPCS","metar":"LPCS 011800Z 12010KT 080V150 9999 FEW004 BKN022 14/14 Q1007","updated":"2026-01-01T23:18:53Z"}
