{"icao":"KLAX","metar":"KLAX 140253Z 00000KT 10SM CLR 18/09 A3014 RMK AO2 SLP207 T01830089 53005 $","updated":"2026-01-14T03:46:09Z"}
