{"icao":"LPMA","metar":"LPMA 080200Z VRB06KT 9999 SCT014 13/08 Q1024","updated":"2026-04-08T02:22:53Z"}
