{"icao":"LPPS","metar":"LPPS 312130Z 06009KT 040V100 9999 FEW012 16/13 Q1024","updated":"2026-03-31T21:38:02Z"}
