{"icao":"LPFR","metar":"LPFR 100900Z 36004KT 320V030 9999 FEW025 09/07 Q1030","updated":"2026-01-10T09:19:09Z"}
