{"icao":"LPMT","metar":"LPMT 281300Z 36010KT CAVOK 15/06 Q1025","updated":"2026-02-28T13:35:08Z"}
