{"icao":"LPPT","metar":"LPPT 151100Z 10004KT 070V150 CAVOK 22/13 Q1017","updated":"2025-10-15T11:15:03Z"}
