{"icao":"LPBJ","metar":"LPBJ 031100Z 11006KT 070V160 CAVOK 18/09 Q1024","updated":"2025-11-03T11:15:31Z"}
