{"icao":"KORD","metar":"KORD 100551Z 12008KT 10SM OVC026 04/00 A3010 RMK AO2 SLP196 T00440000 10061 20044 401560044 58028","updated":"2026-01-10T06:29:50Z"}
