{"icao":"LPMT","metar":"LPMT 011700Z 33010KT 9999 FEW045 28/13 Q1018","updated":"2025-10-01T23:15:34Z"}
