{"icao":"LPMR","metar":"LPMR 171000Z VRB02KT 8000 NSC 18/15 Q1015","updated":"2025-10-17T10:19:02Z"}
