{"icao":"LPMA","metar":"LPMA 222030Z 35012KT 320V020 9999 SCT015 22/14 Q1018","updated":"2026-06-22T20:45:41Z"}
