{"icao":"LPMT","metar":"LPMT 191500Z 35005KT 320V020 9999 SCT045 15/07 Q1027","updated":"2026-02-19T15:46:51Z"}
