{"icao":"LPFR","metar":"LPFR 091300Z 19005KT 130V220 CAVOK 19/09 Q1020","updated":"2025-11-09T13:22:28Z"}
