{"icao":"KORD","metar":"KORD 291201Z 14008KT 1SM R10L/6000VP6000FT -SN BR OVC014 M04/M05 A3035 RMK AO2 P0001 T10391050 $","updated":"2025-11-29T12:35:38Z"}
