{"icao":"LPPS","metar":"LPPS 140200Z 05008KT 360V090 9999 FEW015 BKN030 14/09 Q1025","updated":"2026-04-14T02:28:51Z"}
