{"icao":"LPMA","metar":"LPMA 272100Z 01009KT 9999 BKN015 19/12 Q1023","updated":"2025-11-27T21:16:56Z"}
