{"icao":"KLAX","metar":"KLAX 041453Z 00000KT 6SM BR FEW008 SCT033 SCT075 BKN170 BKN240 13/13 A3002 RMK AO2 SLP165 60002 T01330128 53006","updated":"2026-01-04T15:18:19Z"}
