{"icao":"KLAX","metar":"KLAX 101053Z 09007KT 10SM FEW008 SCT015 OVC200 16/14 A2990 RMK AO2 SLP123 T01560139 $","updated":"2026-02-10T11:04:14Z"}
