{"icao":"LPPT","metar":"LPPT 120500Z 18010KT 5000 -DZ BR FEW003 BKN005 12/12 Q1021","updated":"2026-01-12T05:28:20Z"}
