{"icao":"KORD","metar":"KORD 270202Z 02027G40KT 10SM SCT014 OVC060 02/M01 A3003 RMK AO2 PK WND 02040/0155 RAE0158 P0000 T00171011 $","updated":"2026-03-27T02:12:59Z"}
