{"icao":"LPPS","metar":"LPPS 311400Z 27008KT 240V300 9999 SCT012 BKN030 18/15 Q1024","updated":"2026-01-31T14:22:37Z"}
