{"icao":"LPOV","metar":"LPOV 041500Z 30006KT 260V340 9999 OVC018 19/17 Q1024","updated":"2025-10-04T15:14:23Z"}
