{"icao":"LPMA","metar":"LPMA 102200Z 27003KT 250V310 9999 SCT015 20/16 Q1018","updated":"2025-11-10T22:18:36Z"}
