{"icao":"KJFK","metar":"KJFK 291151Z 29011KT 10SM FEW032 SCT250 M11/M18 A3010 RMK SLP192 4/007 T11061178 11094 21106 51018 $ ","updated":"2026-01-29T12:55:11Z"}
