{"icao":"LPBJ","metar":"LPBJ 131215Z 30016G26KT 9999 VCSH FEW020CB BKN028 10/08 Q1008 RESHRA","updated":"2026-02-13T12:57:13Z"}
