{"icao":"LPFL","metar":"LPFL 241000Z 21016G31KT 180V300 2500 -RADZ BKN008 16/14 Q1015 RERA","updated":"2026-01-24T10:20:31Z"}
