{"icao":"LPFL","metar":"LPFL 291230Z 20017G27KT 180V260 9999 FEW025 17/11 Q1009 WS ALL RWY","updated":"2026-01-29T12:55:10Z"}
