{"icao":"LPBJ","metar":"LPBJ 052100Z 27006KT 5000 -DZ BR SCT005 BKN012 15/14 Q1024","updated":"2025-12-05T21:17:06Z"}
