{"icao":"LPPT","metar":"LPPT 151100Z 22005KT 6000 -RADZ FEW003 SCT045 14/14 Q1006 RERA","updated":"2025-11-15T11:13:23Z"}
