{"icao":"LPPS","metar":"LPPS 231600Z 03009KT 360V070 9999 FEW015 SCT030 22/13 Q1021","updated":"2025-09-23T16:21:49Z"}
