{"icao":"KORD","metar":"KORD 121951Z 23011G16KT 10SM FEW250 06/M03 A3006 RMK AO2 SLP187 T00561033 $","updated":"2026-01-12T20:24:16Z"}
