{"icao":"LPPT","metar":"LPPT 151230Z 10004KT 060V150 9999 -RA FEW012 SCT017 FEW020TCU 12/10 Q1011","updated":"2025-12-15T12:43:38Z"}
