{"icao":"LPHR","metar":"LPHR 151300Z 29008KT 250V330 9999 FEW033 18/09 Q1017","updated":"2025-11-15T13:23:21Z"}
