{"icao":"LPOV","metar":"LPOV 142200Z 12002KT 9999 FEW028 SCT035 08/07 Q1029","updated":"2026-02-14T22:21:47Z"}
