{"icao":"LPST","metar":"LPST 211100Z 27014KT 2500 -DZ BR OVC004 15/14 Q1007","updated":"2026-01-21T11:22:38Z"}
