{"icao":"LPCS","metar":"LPCS 221730Z 01011KT 9999 FEW010 23/17 Q1016","updated":"2026-06-22T17:39:01Z"}
