{"icao":"LPPD","metar":"LPPD 252200Z 03017KT 360V060 9999 FEW020TCU 18/11 Q1020 WS R30","updated":"2025-10-25T22:15:19Z"}
