{"icao":"KLAX","metar":"KLAX 141953Z 25008KT 10SM FEW004 FEW250 SCT300 25/13 A2993 RMK AO2 SLP133 T02500133 $","updated":"2026-03-14T20:27:24Z"}
