{"icao":"LPFR","metar":"LPFR 020900Z 13013KT 7000 -SHRA SCT012 SCT040 16/15 Q1006","updated":"2026-01-02T09:23:27Z"}
