{"icao":"LPPT","metar":"LPPT 251930Z 34016KT CAVOK 18/10 Q1016","updated":"2026-04-25T19:42:16Z"}
