{"icao":"KJFK","metar":"KJFK 281251Z 02005KT 10SM FEW200 BKN250 M05/M07 A3023 RMK AO2 SLP237 T10501072 $","updated":"2025-12-28T13:28:45Z"}
