{"icao":"KJFK","metar":"KJFK 142051Z 32008KT 10SM FEW050 SCT250 07/M04 A3004 RMK AO2 SLP173 T00671044 55006 $","updated":"2026-02-14T21:22:50Z"}
