{"icao":"LPFL","metar":"LPFL 060700Z 32015G25KT 290V360 9999 VCSH SCT024 FEW025TCU 08/02 Q1017 RESHGS","updated":"2026-04-06T07:28:15Z"}
