{"icao":"LPPR","metar":"LPPR 022300Z 10007KT 040V130 9999 -RA FEW045 15/10 Q1002","updated":"2026-01-02T23:18:02Z"}
