{"icao":"LPAR","metar":"LPAR 181700Z 32010KT 280V010 7000 -DZRA FEW012 BKN020 16/12 Q1019","updated":"2026-02-19T08:41:32Z"}
