{"icao":"KJFK","metar":"KJFK 130551Z 31015G22KT 10SM FEW085 02/M07 A3006 RMK AO2 SLP178 T00221072 10033 20017 51016","updated":"2026-03-13T06:52:19Z"}
