{"icao":"LPPD","metar":"LPPD 062200Z 04003KT 020V080 9999 FEW025 13/06 Q1035","updated":"2026-01-06T22:20:01Z"}
