{"icao":"LPMT","metar":"LPMT 172100Z VRB03KT CAVOK 19/16 Q1015","updated":"2025-10-17T21:15:05Z"}
