{"icao":"LPFL","metar":"LPFL 041530Z 06007KT 350V130 9999 SCT028 17/10 Q1027","updated":"2026-05-04T16:02:25Z"}
