{"icao":"KORD","metar":"KORD 131851Z 16008KT 10SM SCT090 BKN150 BKN250 23/17 A3000 RMK AO2 SLP155 T02330167 $","updated":"2025-09-13T19:11:39Z"}
