{"icao":"LPOV","metar":"LPOV 170500Z 16004KT 130V190 0200 FG OVC002 13/12 Q1021","updated":"2025-09-17T05:16:24Z"}
