{"icao":"KORD","metar":"KORD 140451Z 22007KT 10SM CLR 06/M02 A3006 RMK AO2 SLP183 T00561022","updated":"2026-02-14T05:43:15Z"}
