{"icao":"LPPS","metar":"LPPS 181800Z 03009KT 9999 FEW015 FEW018CB SCT030 19/13 Q1021","updated":"2025-11-18T18:28:13Z"}
