{"icao":"LPPD","metar":"LPPD 280400Z 03005KT 9999 FEW020 SCT040 18/12 Q1028","updated":"2025-09-28T04:20:33Z"}
