{"icao":"LPMR","metar":"LPMR 100400Z 34004KT CAVOK 12/11 Q1020","updated":"2026-06-10T05:16:06Z"}
