{"icao":"LPAZ","metar":"LPAZ 030100Z 15008KT 9999 FEW003 BKN004 21/21 Q1017","updated":"2025-11-03T01:26:13Z"}
