{"icao":"KJFK","metar":"KJFK 210451Z 22012KT 10SM SCT200 BKN250 03/M01 A3005 RMK AO2 SLP175 T00281006 400331022 $","updated":"2025-12-21T05:19:45Z"}
