{"icao":"LPAZ","metar":"LPAZ 210430Z 28019KT 9999 FEW010 SCT013 BKN030 17/15 Q1022","updated":"2026-01-21T04:42:41Z"}
