{"icao":"LPST","metar":"LPST 211400Z 29016KT 8000 FEW007 BKN015 14/13 Q1006 RESHRA","updated":"2026-01-21T14:29:30Z"}
