{"icao":"LPLA","metar":"LPLA 241400Z 10004KT 060V120 9999 FEW022 20/13 Q1026","updated":"2025-11-24T14:19:06Z"}
