{"icao":"KJFK","metar":"KJFK 122051Z 31013KT 2 1/2SM -SNRA BR FEW010 BKN020 OVC031 02/00 A2985 RMK AO2 SFC VIS 5 RAB47 SLP109 P0002 60003 T00170000 51026","updated":"2026-03-12T21:31:11Z"}
