{"icao":"LPBJ","metar":"LPBJ 171100Z 33005KT 260V040 CAVOK 31/18 Q1017","updated":"2026-06-17T11:45:50Z"}
