{"icao":"LPPT","metar":"LPPT 301500Z 26006KT 200V300 9999 FEW038 20/07 Q1017","updated":"2026-04-30T15:08:34Z"}
