{"icao":"LPOV","metar":"LPOV 250400Z VRB03KT 7000 RA SCT020 BKN035 15/14 Q1014","updated":"2025-10-25T04:20:07Z"}
