{"icao":"LPPD","metar":"LPPD 122200Z 32009KT 9999 FEW020 FEW022CB 14/08 Q1002","updated":"2025-11-12T22:17:48Z"}
