{"icao":"LPMA","metar":"LPMA 070400Z 28004KT 230V310 CAVOK 18/12 Q1019","updated":"2025-11-07T04:20:52Z"}
