{"icao":"LPPS","metar":"LPPS 020530Z 01010KT 6000 -DZ SCT007 BKN010 17/16 Q1025","updated":"2026-06-02T05:47:10Z"}
