{"icao":"LPFL","metar":"LPFL 111230Z 21005KT 140V270 9999 SCT024 SCT040 15/08 Q1017","updated":"2026-01-11T12:39:05Z"}
