{"icao":"LPHR","metar":"LPHR 021830Z 26011KT 9999 SCT003 BKN006 19/18 Q1030","updated":"2026-06-02T18:37:51Z"}
