{"icao":"LPLA","metar":"LPLA 181600Z VRB02KT 9999 FEW007 SCT040 19/18 Q1016","updated":"2025-09-18T16:21:11Z"}
