{"icao":"LPPD","metar":"LPPD 211930Z 26027KT 9000 SCT016 BKN030 15/12 Q1002 WS R30","updated":"2026-04-21T20:01:45Z"}
