{"icao":"LPLA","metar":"LPLA 011300Z 01007KT 340V050 9999 FEW017 SCT022 17/12 Q1017","updated":"2026-05-01T13:42:32Z"}
