{"icao":"LPMR","metar":"LPMR 241600Z 02007KT CAVOK 13/05 Q1010","updated":"2025-12-24T16:24:03Z"}
