{"icao":"LPCS","metar":"LPCS 032200Z 06008KT 030V100 9999 FEW006 SCT012 14/14 Q0999","updated":"2026-01-03T22:18:13Z"}
