{"icao":"KLAX","metar":"KLAX 061253Z 11003KT 10SM FEW018 13/11 A3014 RMK AO2 SLP205 T01330106 $","updated":"2025-11-06T13:31:35Z"}
