{"icao":"LPHR","metar":"LPHR 251830Z 09004KT 030V140 9999 FEW012 BKN022 15/11 Q1030","updated":"2026-03-25T19:01:10Z"}
