{"icao":"LPPS","metar":"LPPS 120400Z 22020G30KT 9999 SCT015 22/16 Q1003","updated":"2025-11-12T04:22:16Z"}
