{"icao":"LPAR","metar":"LPAR 051500Z 35010KT CAVOK 24/09 Q1017","updated":"2026-06-05T15:51:51Z"}
