{"icao":"LPPT","metar":"LPPT 191230Z 16009KT 140V200 9999 FEW007 BKN022 15/12 Q1006","updated":"2026-03-19T13:02:27Z"}
