{"icao":"LPCS","metar":"LPCS 020730Z 26013G25KT 220V300 9999 FEW028 FEW030TCU SCT033 12/08 Q0997","updated":"2026-02-02T07:48:24Z"}
