{"icao":"LPCS","metar":"LPCS 011800Z 01005KT 9999 FEW012 SCT030 18/17 Q1020","updated":"2025-11-01T18:22:27Z"}
