{"icao":"KJFK","metar":"KJFK 091251Z 13004KT 10SM FEW090 SCT250 15/13 A2989 RMK AO2 SLP120 T01500128 $","updated":"2025-11-09T13:23:04Z"}
