{"icao":"LPLA","metar":"LPLA 142100Z 27013KT 240V300 9999 BKN025 BKN035 18/13 Q1020","updated":"2026-01-14T21:20:38Z"}
