{"icao":"LPFR","metar":"LPFR 240100Z VRB02KT CAVOK 18/03 Q1015","updated":"2025-09-24T01:17:52Z"}
