{"icao":"KORD","metar":"KORD 210051Z 15004KT 10SM FEW065 BKN110 OVC250 20/18 A3002 RMK AO2 SLP162 T02000178","updated":"2025-09-21T01:25:05Z"}
