{"icao":"KJFK","metar":"KJFK 201851Z 35016G24KT 10SM SCT060 BKN075 BKN090 11/M05 A3015 RMK SLP210 VIRGA E AND S-SW T01061050 ","updated":"2026-04-20T19:08:29Z"}
