{"icao":"LPBJ","metar":"LPBJ 211110Z 20017KT 6000 -RA BKN008 SCT012 12/12 Q1009","updated":"2026-01-21T11:22:41Z"}
