{"icao":"LPOV","metar":"LPOV 191900Z 23006KT 7000 -RADZ BKN004 SCT018 18/18 Q1012","updated":"2025-10-19T19:12:57Z"}
