{"icao":"LPPD","metar":"LPPD 080700Z 22016KT 9999 FEW015 BKN045 20/17 Q1020","updated":"2025-11-08T07:16:11Z"}
