{"icao":"KJFK","metar":"KJFK 250351Z 00000KT 10SM SCT160 BKN200 BKN250 02/M06 A3030 RMK AO2 SLP261 T00171056 $","updated":"2025-12-25T04:37:09Z"}
