{"icao":"LPMA","metar":"LPMA 121100Z 01018KT 9999 SCT015 16/06 Q1027","updated":"2026-04-12T11:32:53Z"}
