{"icao":"LPLA","metar":"LPLA 241600Z 24015KT 7000 -RADZ SCT010 BKN015 17/15 Q1016","updated":"2026-01-24T16:23:29Z"}
