{"icao":"LPOV","metar":"LPOV 081900Z 36005KT 8000 SCT040 13/12 Q1020","updated":"2026-04-08T23:36:31Z"}
