{"icao":"LPMA","metar":"LPMA 240300Z 29010KT 240V350 9999 SCT016 16/05 Q1023","updated":"2026-01-24T03:25:29Z"}
