{"icao":"KORD","metar":"KORD 150151Z 20011G23KT 10SM FEW044 BKN150 OVC250 26/18 A2966 RMK AO2 SLP040 CONS LTGICCCCA DSNT NW-N CB DSNT NW-N MOV E T02610183","updated":"2026-04-15T02:27:19Z"}
