{"icao":"LPHR","metar":"LPHR 081600Z 06019KT 020V080 9999 FEW020 14/05 Q1030","updated":"2026-03-08T16:26:56Z"}
