{"icao":"LPAZ","metar":"LPAZ 141700Z 26016KT 8000 BKN006 19/18 Q1021","updated":"2025-12-14T17:15:49Z"}
