{"icao":"LPPT","metar":"LPPT 210630Z 22011KT 4000 -RA BR BKN004 14/14 Q1009","updated":"2026-01-21T06:34:42Z"}
