{"icao":"KJFK","metar":"KJFK 021751Z 02014G23KT 10SM FEW075 SCT250 24/04 A3014 RMK AO2 SLP206 T02440039 10244 20156 56018 $","updated":"2026-06-02T18:38:04Z"}
