{"icao":"KLAX","metar":"KLAX 261653Z 03007KT 10SM FEW100 SCT160 BKN250 16/M03 A3028 RMK AO2 SLP254 T01611028 $","updated":"2026-01-26T17:28:39Z"}
