{"icao":"LPPR","metar":"LPPR 242300Z 11003KT 070V150 CAVOK 17/09 Q1018","updated":"2025-09-24T23:15:54Z"}
