{"icao":"LPPD","metar":"LPPD 010830Z 31004KT 260V020 9999 FEW016 14/11 Q1014","updated":"2026-05-01T08:59:15Z"}
