{"icao":"LPOV","metar":"LPOV 292200Z VRB02KT CAVOK 15/13 Q1017","updated":"2025-09-29T22:14:49Z"}
