{"icao":"LPBJ","metar":"LPBJ 061100Z 33016KT 9999 FEW025 OVC045 10/05 Q1016","updated":"2026-03-06T11:27:34Z"}
