{"icao":"KLAX","metar":"KLAX 260941Z 16003KT 10SM FEW011 BKN018 16/12 A2988 RMK AO2 T01610122 $","updated":"2026-05-26T09:55:37Z"}
