{"icao":"LPAZ","metar":"LPAZ 061600Z 11007KT 9999 BKN049 16/06 Q1033","updated":"2026-01-06T16:27:37Z"}
