{"icao":"LPCS","metar":"LPCS 251300Z 02010KT 350V050 CAVOK 22/10 Q1019","updated":"2026-03-25T13:07:30Z"}
