{"icao":"LPMR","metar":"LPMR 221000Z VRB02KT CAVOK 08/03 Q1031","updated":"2025-11-22T10:17:46Z"}
