{"icao":"LPBJ","metar":"LPBJ 251000Z 20003KT 140V280 CAVOK 18/12 Q1016","updated":"2026-04-25T10:41:48Z"}
