{"icao":"KJFK","metar":"KJFK 052251Z 19010KT 10SM CLR 22/17 A3025 RMK AO2 SLP245 T02170167","updated":"2025-10-05T23:13:40Z"}
