{"icao":"LPMA","metar":"LPMA 262200Z 20014KT 150V220 9999 SCT012 23/22 Q1016","updated":"2025-10-26T22:16:37Z"}
