{"icao":"LPPR","metar":"LPPR 200730Z 15003KT 9000 -RA FEW012 BKN040 13/12 Q1009 RERA","updated":"2026-03-20T07:44:29Z"}
