{"icao":"LPAZ","metar":"LPAZ 110800Z 22025KT 9000 -SHRA BKN012 18/16 Q1018","updated":"2026-01-11T08:25:31Z"}
