{"icao":"KJFK","metar":"KJFK 040851Z 26005KT 10SM BKN050 BKN060 M02/M07 A3017 RMK SLP217 6//// T10221072 58001 PNO $ ","updated":"2026-02-04T09:42:21Z"}
