{"icao":"KJFK","metar":"KJFK 220551Z 31013G21KT 10SM FEW250 M02/M12 A3041 RMK AO2 SLP295 T10171117 10006 21017 53015 $","updated":"2025-12-22T06:33:35Z"}
