{"icao":"LPCS","metar":"LPCS 060900Z 09007KT 050V120 CAVOK 21/11 Q1020","updated":"2025-10-06T09:21:00Z"}
