{"icao":"LPPR","metar":"LPPR 232100Z 26004KT 200V310 9999 -RADZ SCT007 BKN015 13/12 Q1020 RERA","updated":"2025-11-23T21:15:54Z"}
