{"icao":"LPPS","metar":"LPPS 282100Z 28015KT 9999 SCT015 FEW018CB 21/19 Q1011","updated":"2025-10-28T21:16:50Z"}
