{"icao":"LPPT","metar":"LPPT 281900Z 08005G16KT 350V130 9999 FEW002 SCT008 16/16 Q1010","updated":"2025-10-28T19:14:32Z"}
