{"icao":"LPMT","metar":"LPMT 242200Z 35007KT 300V020 9999 SCT014 BKN024 16/15 Q1018","updated":"2025-11-24T22:17:44Z"}
