{"icao":"LPST","metar":"LPST 131600Z 31021KT 9999 SCT020 FEW030TCU 13/09 Q1009","updated":"2026-02-13T16:43:49Z"}
