{"icao":"KLAX","metar":"KLAX 272053Z 24014G20KT 10SM FEW010 FEW050 SCT075 19/06 A3002 RMK AO2 SLP166 TCU DSNT SE T01890061 56067","updated":"2026-04-27T21:00:21Z"}
