{"icao":"KJFK","metar":"KJFK 191451Z 07007KT 10SM OVC033 03/M03 A3010 RMK AO2 SLP193 T00331033 51023 $","updated":"2026-02-19T15:47:23Z"}
