{"icao":"KLAX","metar":"KLAX 061853Z 04006KT 10SM FEW010 FEW045 SCT120 BKN170 16/11 A3008 RMK AO2 SLP185 T01560106 $","updated":"2026-01-06T19:16:50Z"}
