{"icao":"KORD","metar":"KORD 201912Z 22009KT 6SM HZ OVC012 08/06 A3004 RMK AO2 T00830056","updated":"2025-11-20T19:15:37Z"}
