{"icao":"LPCS","metar":"LPCS 261600Z 27004KT 230V330 9999 FEW018 23/15 Q1018","updated":"2025-10-26T16:20:09Z"}
