{"icao":"KORD","metar":"KORD 240551Z 21004KT 10SM BKN250 M06/M10 A3024 RMK AO2 SLP250 T10611100 11044 21061 410111078 56025","updated":"2026-02-24T05:58:06Z"}
