{"icao":"LPBJ","metar":"LPBJ 192000Z 32009KT CAVOK 09/06 Q1020","updated":"2026-01-19T20:22:40Z"}
