{"icao":"LPPS","metar":"LPPS 011600Z 35009KT 320V020 9999 FEW015 19/11 Q1022","updated":"2025-12-01T16:27:27Z"}
