{"icao":"LPHR","metar":"LPHR 072000Z 33020G31KT 300V360 6000 -SHRA FEW016 BKN030 13/09 Q1012","updated":"2026-05-07T20:12:59Z"}
