{"icao":"LPPR","metar":"LPPR 030730Z 24008G23KT 200V280 9999 -SHRA SCT020 FEW025CB BKN048 11/06 Q0997","updated":"2026-02-03T07:41:05Z"}
