{"icao":"LPHR","metar":"LPHR 102230Z 33007G18KT 290V350 9999 FEW012 20/17 Q1022","updated":"2025-10-11T01:15:53Z"}
