{"icao":"LPPR","metar":"LPPR 161130Z 25008KT 200V300 8000 SCT004 BKN007 14/13 Q1028","updated":"2026-02-16T11:38:58Z"}
