{"icao":"LPAZ","metar":"LPAZ 071600Z 21006KT 170V250 9999 FEW025 21/16 Q1021","updated":"2025-11-07T16:19:22Z"}
