{"icao":"LPPD","metar":"LPPD 201300Z 34014KT 310V010 9999 FEW025 BKN045 14/08 Q1030","updated":"2025-12-20T13:26:27Z"}
