{"icao":"LPAZ","metar":"LPAZ 140500Z 26012KT 9999 BKN024 16/11 Q1026","updated":"2026-01-14T05:23:29Z"}
