{"icao":"LPCS","metar":"LPCS 052130Z 34013KT 9999 FEW020 14/10 Q1017","updated":"2026-05-05T21:59:45Z"}
