{"icao":"KORD","metar":"KORD 290508Z 27017G33KT 10SM -SN BKN015 OVC020 M04/M08 A2958 RMK AO2 PK WND 26033/0456 P0000 T10441083 $","updated":"2025-12-29T05:27:23Z"}
