{"icao":"LPOV","metar":"LPOV 190100Z 15009KT CAVOK 19/14 Q1015","updated":"2025-10-19T01:28:42Z"}
