{"icao":"LPHR","metar":"LPHR 010700Z 22004KT 190V250 9999 SCT003 SCT030 22/21 Q1020","updated":"2025-10-01T07:17:59Z"}
