{"icao":"LPMR","metar":"LPMR 180100Z VRB02KT CAVOK 14/12 Q1015","updated":"2025-10-18T01:16:02Z"}
