{"icao":"KLAX","metar":"KLAX 121053Z 00000KT 10SM CLR 14/13 A3018 RMK AO2 SLP217 T01440128 $","updated":"2026-03-12T11:30:28Z"}
