{"icao":"LPCS","metar":"LPCS 011600Z 24004KT 210V270 9999 FEW012 BKN036 19/17 Q1018","updated":"2025-11-01T16:19:19Z"}
