{"icao":"LPMR","metar":"LPMR 250800Z 35005KT 320V020 9999 BKN007 SCT015 14/13 Q1017","updated":"2026-04-25T08:51:27Z"}
