{"icao":"KJFK","metar":"KJFK 020451Z 34006KT 10SM BKN250 08/01 A3016 RMK AO2 SLP211 T00830011 401560078 $","updated":"2025-11-02T05:17:26Z"}
