{"icao":"KLAX","metar":"KLAX 051453Z 08004KT 10SM CLR 11/M02 A3009 RMK AO2 SLP188 T01111022 50003 $","updated":"2025-12-05T15:20:22Z"}
