{"icao":"LPMR","metar":"LPMR 220700Z VRB02KT CAVOK 10/07 Q1022","updated":"2025-09-22T07:18:25Z"}
