{"icao":"LPPD","metar":"LPPD 150500Z 20013KT 9999 FEW016 21/17 Q1006","updated":"2025-10-15T05:17:19Z"}
