{"icao":"LPPR","metar":"LPPR 190800Z 18011KT 5000 -DZRA BR BKN004 BKN007 15/14 Q1022 REDZ","updated":"2026-05-19T08:33:52Z"}
