{"icao":"LPFL","metar":"LPFL 022000Z 16008KT 130V210 9999 FEW017 SCT033 19/15 Q1016","updated":"2025-11-02T20:17:35Z"}
