{"icao":"LPLA","metar":"LPLA 281800Z 34015KT 9999 FEW025 BKN035 18/10 Q1021","updated":"2025-10-28T18:28:05Z"}
