{"icao":"LPBJ","metar":"LPBJ 030400Z VRB02KT CAVOK 09/08 Q1023","updated":"2025-11-03T04:27:14Z"}
