{"icao":"LPPR","metar":"LPPR 240900Z 10016KT CAVOK 19/04 Q1020","updated":"2025-09-24T09:18:50Z"}
