{"icao":"LPBJ","metar":"LPBJ 160600Z 21006KT 9999 SCT015 12/11 Q1012","updated":"2025-11-16T06:26:29Z"}
