{"icao":"LPFR","metar":"LPFR 051600Z 26018KT 9999 FEW015 21/15 Q1012","updated":"2025-11-05T16:24:21Z"}
