{"icao":"LPPR","metar":"LPPR 141000Z VRB01KT CAVOK 21/14 Q1018","updated":"2025-10-14T10:18:57Z"}
