{"icao":"KORD","metar":"KORD 051951Z 18016G25KT 10SM SCT250 29/08 A3003 RMK AO2 SLP164 T02890083 $","updated":"2025-10-05T20:17:56Z"}
