{"icao":"LPPR","metar":"LPPR 061230Z 12008KT 080V150 CAVOK 27/11 Q1020","updated":"2025-10-06T12:37:31Z"}
