{"icao":"LPPT","metar":"LPPT 041400Z 12004KT 050V210 CAVOK 26/05 Q1021","updated":"2026-04-04T14:32:04Z"}
