{"icao":"LPFL","metar":"LPFL 240930Z 32018G30KT 290V350 9999 VCSH SCT020 14/08 Q1015","updated":"2026-02-24T09:51:58Z"}
