{"icao":"LPPT","metar":"LPPT 251600Z 34011KT 290V010 CAVOK 21/12 Q1018","updated":"2026-03-25T16:14:05Z"}
