{"icao":"LPPS","metar":"LPPS 211300Z 06018KT 9999 SCT015 SCT030 23/17 Q1022","updated":"2025-09-21T13:20:34Z"}
