{"icao":"LPLA","metar":"LPLA 141100Z 23012KT 170V250 9999 BKN035 16/09 Q1031","updated":"2026-02-14T11:21:02Z"}
