{"icao":"KJFK","metar":"KJFK 111307Z 29018G24KT 10SM FEW035 BKN055 BKN090 01/M07 A2973 RMK AO2 PK WND 29029/1252 SNE06 VIS LWR N-E VCSH N-E P0000 T00111067 $","updated":"2025-11-11T13:29:55Z"}
