{"icao":"LPFR","metar":"LPFR 150900Z 36009KT 320V020 9999 FEW023 15/09 Q1017","updated":"2026-03-15T09:32:33Z"}
