{"icao":"LPMA","metar":"LPMA 031900Z 30008KT 250V010 9999 FEW015 19/08 Q1002","updated":"2026-01-03T19:14:37Z"}
