{"icao":"LPFL","metar":"LPFL 121100Z 33017G33KT 300V360 9999 SCT027 14/06 Q1018","updated":"2026-01-12T11:19:48Z"}
