{"icao":"LPCS","metar":"LPCS 091000Z 17017KT 4000 -RA BR SCT002 BKN003 16/16 Q1016","updated":"2025-12-09T10:23:24Z"}
