{"icao":"LPFR","metar":"LPFR 051400Z 16006KT CAVOK 24/19 Q1018","updated":"2025-10-05T14:13:54Z"}
