{"icao":"LPPR","metar":"LPPR 141600Z 32006KT 300V360 9999 FEW020 13/10 Q1019","updated":"2026-01-14T16:28:51Z"}
