{"icao":"LPMR","metar":"LPMR 172300Z VRB01KT 0800 FG SCT003 BKN035 06/05 Q1010","updated":"2026-01-17T23:18:09Z"}
