{"icao":"LPBJ","metar":"LPBJ 222300Z 17003KT CAVOK 24/17 Q1015","updated":"2026-06-23T00:04:05Z"}
