{"icao":"KJFK","metar":"KJFK 191551Z 09010KT 10SM BKN033 BKN250 04/M03 A3009 RMK AO2 SLP189 T00441033 $","updated":"2026-02-19T16:51:04Z"}
