{"icao":"LPMT","metar":"LPMT 181300Z 02009KT 350V050 9999 FEW025 10/05 Q1013","updated":"2026-01-18T13:27:38Z"}
