{"icao":"LPBJ","metar":"LPBJ 300400Z 30007KT CAVOK 18/15 Q1019","updated":"2026-06-30T05:01:31Z"}
