{"icao":"KJFK","metar":"KJFK 092216Z VRB05KT 1SM R04R/4500VP6000FT RA BR FEW007 SCT013 BKN028 OVC130 13/12 A2985 RMK AO2 SFC VIS 2 RAB10 P0000 T01330117 $","updated":"2026-05-09T22:41:53Z"}
