{"icao":"LPMT","metar":"LPMT 311700Z 22006KT 190V260 9999 VCSH FEW020 BKN035 14/10 Q1020","updated":"2026-01-31T17:22:05Z"}
