{"icao":"LPPS","metar":"LPPS 031530Z 27019KT 9999 FEW014 18/15 Q1013","updated":"2026-02-03T15:49:17Z"}
