{"icao":"KJFK","metar":"KJFK 231011Z 35034G48KT 1/4SM R04R/1600V2200FT +SN BLSN FZFG VV005 M02/M02 A2942 RMK AO2 PK WND 35048/1005 P0000 T10171017 $","updated":"2026-02-23T10:49:47Z"}
