{"icao":"KJFK","metar":"KJFK 042151Z 33017G21KT 10SM BKN040 M01/M10 A3011 RMK AO2 SLP197 T10061100 $","updated":"2026-01-04T22:19:09Z"}
