{"icao":"KJFK","metar":"KJFK 100851Z 32005KT 10SM BKN120 BKN200 BKN250 M04/M14 A3017 RMK AO2 SLP216 T10441139 58003 $","updated":"2026-02-10T08:54:18Z"}
