{"icao":"LPOV","metar":"LPOV 062000Z 18006KT 150V230 9999 FEW012 FEW025CB SCT040 09/07 Q1005","updated":"2026-02-06T20:32:46Z"}
