{"icao":"LPFR","metar":"LPFR 271830Z 33010KT CAVOK 17/11 Q1021","updated":"2026-02-27T18:40:48Z"}
