{"icao":"LPPR","metar":"LPPR 270500Z 26006KT 220V330 9999 FEW012 SCT036 12/06 Q0996","updated":"2026-01-27T05:25:41Z"}
