{"icao":"LPMT","metar":"LPMT 070500Z 21005KT 170V250 9999 BKN030 18/14 Q1016","updated":"2025-11-07T05:17:58Z"}
