{"icao":"LPPT","metar":"LPPT 141600Z 33014KT 9999 FEW030 BKN036 13/06 Q1027","updated":"2026-02-14T16:27:56Z"}
