{"icao":"KLAX","metar":"KLAX 161053Z 10004KT 10SM CLR 13/06 A2997 RMK AO2 SLP144 T01280061 $","updated":"2026-01-16T11:18:44Z"}
