{"icao":"LPBJ","metar":"LPBJ 191900Z 12005KT 070V170 9999 -RA FEW007 SCT042 13/13 Q1007","updated":"2026-03-19T19:47:49Z"}
