{"icao":"LPPR","metar":"LPPR 131800Z 28004KT 240V340 CAVOK 27/16 Q1016","updated":"2026-06-13T18:05:45Z"}
