{"icao":"LPLA","metar":"LPLA 051400Z 11006KT 9999 FEW024 15/09 Q1030","updated":"2026-01-05T14:23:21Z"}
