{"icao":"LPOV","metar":"LPOV 260900Z 16005KT CAVOK 18/06 Q1019","updated":"2025-09-26T09:19:29Z"}
