{"icao":"LPBJ","metar":"LPBJ 081000Z 30010KT 280V340 9999 FEW012 SCT016 18/13 Q1023","updated":"2025-10-08T10:18:13Z"}
