{"icao":"LPMA","metar":"LPMA 131600Z 03010KT 350V090 9999 SCT015 18/08 Q1025","updated":"2026-04-13T16:10:55Z"}
