{"icao":"LPPD","metar":"LPPD 161230Z 33009KT 300V360 9999 FEW006 SCT014 BKN030 21/20 Q1005","updated":"2025-10-16T12:38:41Z"}
