{"icao":"LPAZ","metar":"LPAZ 150730Z 20009KT 170V230 9999 OVC033 15/11 Q1031","updated":"2026-02-15T07:37:01Z"}
