{"icao":"KJFK","metar":"KJFK 212151Z 20016KT 10SM SCT070 SCT110 BKN250 24/14 A2988 RMK SLP119 T02440139 $ ","updated":"2026-06-21T22:14:24Z"}
