{"icao":"KLAX","metar":"KLAX 091453Z 00000KT 10SM FEW160 SCT200 SCT250 08/M02 A3030 RMK AO2 SLP259 T00781022 53019 $","updated":"2026-01-09T15:22:51Z"}
