{"icao":"LPLA","metar":"LPLA 251200Z 17013G24KT 140V210 9999 SCT028 22/16 Q1014","updated":"2025-09-25T12:37:05Z"}
