{"icao":"KORD","metar":"KORD 110851Z 29005KT 10SM CLR M02/M07 A3013 RMK AO2 SLP210 T10171067 53013 $","updated":"2026-02-11T08:59:37Z"}
