{"icao":"LPPT","metar":"LPPT 011830Z 32016KT 290V350 9999 FEW015 20/15 Q1019","updated":"2026-06-01T18:36:33Z"}
