{"icao":"KORD","metar":"KORD 080510Z 35006KT 10SM BKN027 OVC035 M09/M13 A3032 RMK AO2 T10891128","updated":"2025-12-08T05:21:24Z"}
