{"icao":"LPLA","metar":"LPLA 021800Z 25004KT 220V280 9999 BKN030 19/12 Q1019","updated":"2025-11-02T18:21:50Z"}
