{"icao":"LPBJ","metar":"LPBJ 042300Z 21006KT 9999 FEW020 09/08 Q1022","updated":"2025-12-04T23:18:16Z"}
