{"icao":"KORD","metar":"KORD 172051Z 24004KT 10SM SCT065 BKN130 BKN180 08/M08 A3007 RMK AO2 SLP186 T00781078 56005","updated":"2025-11-17T21:17:07Z"}
