{"icao":"KJFK","metar":"KJFK 041051Z 22003KT 10SM SCT130 BKN250 10/10 A3014 RMK AO2 SLP206 T01000100","updated":"2026-04-04T11:28:23Z"}
