{"icao":"KLAX","metar":"KLAX 191053Z 02003KT 10SM BKN220 17/13 A2989 RMK AO2 SLP118 T01670133 $","updated":"2026-04-19T11:34:17Z"}
