{"icao":"LPPT","metar":"LPPT 261930Z 31009KT CAVOK 16/13 Q1024","updated":"2026-02-26T19:42:44Z"}
