{"icao":"LPOV","metar":"LPOV 070700Z VRB01KT 9999 FEW045 12/11 Q1021","updated":"2025-10-07T07:17:13Z"}
