{"icao":"LPAZ","metar":"LPAZ 011030Z 05008KT 020V090 9999 FEW008 SCT015 BKN020 15/12 Q1029","updated":"2026-04-01T10:54:25Z"}
