{"icao":"LPPD","metar":"LPPD 192030Z 35008KT 310V020 9999 FEW015 SCT030 16/12 Q1015","updated":"2026-04-19T20:36:11Z"}
