{"icao":"KLAX","metar":"KLAX 290853Z VRB04KT 5SM BR BKN010 14/13 A3000 RMK AO2 VIS 2 1/2 RWY24 SLP158 T01440128 58007 $","updated":"2025-11-29T09:18:34Z"}
