{"icao":"LPMT","metar":"LPMT 041500Z 01009KT CAVOK 27/16 Q1022","updated":"2025-10-04T16:18:46Z"}
