{"icao":"LPPR","metar":"LPPR 230500Z 26010G23KT 220V310 9999 VCSH FEW020 FEW025CB SCT032 11/05 Q0999","updated":"2026-01-23T05:26:25Z"}
