{"icao":"LPSJ","metar":"LPSJ 251500Z 34010KT 280V030 9999 VCSH SCT014 BKN024 18/13 Q1025","updated":"2026-06-25T15:38:32Z"}
