{"icao":"LPMT","metar":"LPMT 110900Z 12008KT 6000 FEW004 15/15 Q1013","updated":"2025-11-11T09:20:23Z"}
