{"icao":"LPPT","metar":"LPPT 030100Z 32006KT CAVOK 14/09 Q1025","updated":"2025-11-03T01:26:10Z"}
