{"icao":"KORD","metar":"KORD 170519Z 10005KT 1/2SM R10L/P6000FT FG VV002 10/09 A2994 RMK AO2 T01000094 $","updated":"2026-04-17T05:27:04Z"}
