{"icao":"LPPD","metar":"LPPD 181300Z 21010KT 9999 FEW018 25/21 Q1017","updated":"2025-09-18T13:26:08Z"}
