{"icao":"KJFK","metar":"KJFK 300251Z 20011KT 10SM BKN085 BKN110 BKN150 19/12 A2972 RMK AO2 RAB21E49 SLP065 P0000 60000 T01890122 56009 $","updated":"2026-05-30T02:55:18Z"}
