{"icao":"LPLA","metar":"LPLA 150600Z VRB01KT 9999 SCT025 BKN040 13/10 Q1031","updated":"2026-05-15T06:54:06Z"}
