{"icao":"LPMA","metar":"LPMA 221400Z 01013KT 9999 SCT015 SCT033 24/13 Q1021","updated":"2025-09-22T14:18:35Z"}
