{"icao":"LPPD","metar":"LPPD 231430Z 20023G33KT 8000 FEW005 SCT012 17/15 Q1012","updated":"2026-02-23T14:43:49Z"}
