{"icao":"KJFK","metar":"KJFK 300451Z 29020G36KT 10SM FEW050 BKN075 00/M11 A2955 RMK AO2 PK WND 26040/0431 SLP005 T00001106 400890000 $","updated":"2025-12-30T05:23:05Z"}
