{"icao":"LPMR","metar":"LPMR 140400Z 16003KT CAVOK 11/10 Q1016","updated":"2025-10-14T04:21:09Z"}
