{"icao":"LPAZ","metar":"LPAZ 271730Z 04013KT 9999 FEW015 BKN022 15/11 Q1028","updated":"2026-03-27T17:49:01Z"}
