{"icao":"LPPD","metar":"LPPD 250700Z 24016KT 8000 BKN006 BKN011 16/15 Q1018","updated":"2026-01-25T07:20:24Z"}
