{"icao":"LPMT","metar":"LPMT 081800Z 34005KT CAVOK 15/13 Q1022","updated":"2025-11-08T18:23:32Z"}
