{"icao":"LPPR","metar":"LPPR 092000Z 17010KT 9999 FEW027 BKN033 16/13 Q1019","updated":"2025-11-09T20:17:50Z"}
