{"icao":"LPCS","metar":"LPCS 141400Z 35010KT 9999 VCSH FEW006 SCT017 14/12 Q1020","updated":"2026-01-14T14:24:05Z"}
