{"icao":"LPOV","metar":"LPOV 101600Z 35022KT CAVOK 20/13 Q1019","updated":"2026-06-10T16:56:23Z"}
