{"icao":"LPLA","metar":"LPLA 242300Z 23007KT 9999 SCT014 BKN024 17/14 Q1013","updated":"2026-04-24T23:37:37Z"}
