{"icao":"KORD","metar":"KORD 071151Z 07006KT 10SM FEW070 BKN085 BKN250 19/14 A2996 RMK AO2 SLP142 T01940144 10217 20189 51016 $","updated":"2026-06-07T12:19:55Z"}
