{"icao":"LPPT","metar":"LPPT 081100Z 34009KT 300V360 9999 SCT020 18/12 Q1023","updated":"2025-11-08T11:13:16Z"}
