{"icao":"KORD","metar":"KORD 121751Z 23018G34KT 10SM FEW050 BKN060 BKN140 26/14 A2989 RMK AO2 PK WND 22034/1742 SLP120 T02560139 10256 20156 58020 $","updated":"2026-04-12T18:48:04Z"}
