{"icao":"LPOV","metar":"LPOV 222200Z 14002KT 9999 MIFG NSC 08/08 Q1027","updated":"2026-02-22T22:22:52Z"}
