{"icao":"KJFK","metar":"KJFK 131251Z 25008KT 10SM FEW250 02/M08 A3018 RMK AO2 SLP218 T00221083 $","updated":"2026-03-13T12:56:29Z"}
