{"icao":"LPPD","metar":"LPPD 121700Z 26007KT 220V280 9999 FEW025 23/17 Q1017","updated":"2025-10-12T17:13:19Z"}
