{"icao":"LPPT","metar":"LPPT 102100Z 21003KT 190V260 9999 FEW014 15/14 Q1018","updated":"2025-11-10T21:16:43Z"}
