{"icao":"LPCS","metar":"LPCS 092200Z VRB02KT 9999 FEW015 13/12 Q1020","updated":"2025-11-09T22:15:42Z"}
