{"icao":"LPLA","metar":"LPLA 051100Z 36007KT 330V030 9999 FEW030 BKN045 16/07 Q1028","updated":"2026-05-05T12:00:08Z"}
