{"icao":"LPCS","metar":"LPCS 120930Z 35020G31KT 310V010 9999 FEW018 14/07 Q1020","updated":"2026-04-12T09:43:18Z"}
