{"icao":"LPPT","metar":"LPPT 261730Z 27008KT 230V300 9999 FEW036 24/15 Q1018","updated":"2026-06-26T17:45:41Z"}
