{"icao":"LPFR","metar":"LPFR 152230Z 33013KT CAVOK 17/09 Q1015","updated":"2026-05-15T23:00:30Z"}
