{"icao":"KLAX","metar":"KLAX 211223Z 00000KT 4SM BR FEW002 BKN005 16/15 A3003 RMK AO2 VIS NW-N 2 1/2 BKN V SCT T01610150","updated":"2025-10-21T12:39:16Z"}
