{"icao":"LPHR","metar":"LPHR 082100Z 31006KT 280V340 9999 FEW016 SCT030 18/13 Q1023","updated":"2025-11-08T21:14:05Z"}
