{"icao":"KJFK","metar":"KJFK 250251Z 00000KT 10SM BKN170 BKN250 02/M06 A3030 RMK AO2 SLP259 T00221056 56003 $","updated":"2025-12-25T03:25:35Z"}
