{"icao":"KORD","metar":"KORD 031951Z 31012G24KT 10SM FEW250 16/M04 A3013 RMK AO2 PK WND 33026/1934 SLP205 T01611039 $","updated":"2025-11-03T20:20:37Z"}
