{"icao":"LPMA","metar":"LPMA 070900Z 01012KT 340V050 9999 FEW015 15/08 Q1032","updated":"2026-01-07T09:26:54Z"}
