{"icao":"KLAX","metar":"KLAX 291453Z 09004KT 10SM SCT015 16/12 A3005 RMK AO2 SLP174 T01560117 50001","updated":"2026-04-29T15:54:38Z"}
