{"icao":"LPPS","metar":"LPPS 222300Z 05009KT 9999 SCT015 20/14 Q1021","updated":"2025-09-22T23:15:30Z"}
