{"icao":"LPPT","metar":"LPPT 192100Z 33005KT 9999 FEW010 10/08 Q1022","updated":"2026-01-19T21:18:40Z"}
