{"icao":"LPPR","metar":"LPPR 101300Z 12007KT 080V160 CAVOK 25/10 Q1022","updated":"2025-10-10T13:26:36Z"}
