{"icao":"KORD","metar":"KORD 251422Z 04015KT 10SM BKN010 09/06 A2998 RMK AO2 T00890056","updated":"2026-04-25T14:40:05Z"}
