{"icao":"LPPD","metar":"LPPD 220230Z 06005KT 030V100 8000 -SHRA SCT016 BKN030 15/13 Q1032","updated":"2025-11-22T03:02:51Z"}
