{"icao":"LPHR","metar":"LPHR 191330Z 29013KT 9000 4000W -SHRA SCT016 BKN050 16/15 Q1016","updated":"2026-04-19T14:02:43Z"}
