{"icao":"LPBJ","metar":"LPBJ 271600Z 08012KT 3000 1200S -RA SCT020CB BKN030 08/07 Q1005","updated":"2025-12-27T16:22:30Z"}
