{"icao":"LPPT","metar":"LPPT 020700Z 04007KT CAVOK 28/07 Q1017 NOSIG","updated":"2026-07-02T07:29:51Z"}
