{"icao":"LPFL","metar":"LPFL 272030Z 03004KT 350V070 9999 BKN014 SCT028 15/11 Q1032","updated":"2026-03-27T23:31:12Z"}
