{"icao":"LPPR","metar":"LPPR 212000Z 01003KT CAVOK 09/08 Q1029","updated":"2026-02-21T20:23:22Z"}
