{"icao":"KJFK","metar":"KJFK 211551Z 21009KT 10SM FEW160 SCT250 M03/M14 A3055 RMK SLP343 T10331144 $ ","updated":"2026-01-21T16:43:22Z"}
