{"icao":"LPMT","metar":"LPMT 031400Z 25011KT 220V290 9999 FEW020 BKN035 21/12 Q1014","updated":"2026-05-03T14:47:17Z"}
