{"icao":"LPPS","metar":"LPPS 081600Z 05010KT 360V090 9999 FEW015 SCT030 23/17 Q1025","updated":"2025-10-08T16:22:33Z"}
