{"icao":"LPPT","metar":"LPPT 020300Z 32004KT CAVOK 21/10 Q1020","updated":"2025-10-02T03:29:12Z"}
