{"icao":"KORD","metar":"KORD 221251Z 00000KT 10SM FEW025 FEW250 01/M02 A3008 RMK AO2 SLP191 T00111017","updated":"2025-11-22T13:22:34Z"}
