{"icao":"KORD","metar":"KORD 111151Z 29012G19KT 10SM OVC024 M04/M09 A3015 RMK AO2 SNE45 SLP220 P0000 60000 70018 T10441094 11044 21061 53023","updated":"2026-01-11T12:39:18Z"}
