{"icao":"LPPR","metar":"LPPR 201530Z 32011KT CAVOK 23/17 Q1016","updated":"2026-06-20T15:49:08Z"}
