{"icao":"KORD","metar":"KORD 081151Z 14007KT 10SM FEW012 FEW100 SCT160 M06/M09 A3032 RMK AO2 SLP277 4/001 70001 T10611089 11050 21061 55007 $","updated":"2026-02-08T12:47:26Z"}
