{"icao":"LPMA","metar":"LPMA 181530Z 15005KT 100V190 9999 FEW014 19/12 Q1025","updated":"2026-02-18T15:51:32Z"}
