{"icao":"LPOV","metar":"LPOV 211100Z VRB02KT CAVOK 24/15 Q1022","updated":"2026-05-21T11:21:41Z"}
