{"icao":"LPLA","metar":"LPLA 242300Z VRB02KT 9999 SCT030 17/13 Q1021","updated":"2025-09-24T23:15:58Z"}
