{"icao":"LPPR","metar":"LPPR 141500Z 19018G29KT 150V240 4000 -SHRA SCT012 BKN015 FEW020CB 13/12 Q0999 RERA","updated":"2025-11-14T15:17:11Z"}
