{"icao":"LPBJ","metar":"LPBJ 091400Z 34004KT 240V050 CAVOK 25/13 Q1019","updated":"2025-10-09T14:17:36Z"}
