{"icao":"LPBJ","metar":"LPBJ 101100Z VRB03KT CAVOK 21/12 Q1014","updated":"2026-04-10T11:47:15Z"}
