{"icao":"KORD","metar":"KORD 211551Z 36006KT 8SM BKN190 BKN230 07/03 A3005 RMK AO2 SLP179 T00720033","updated":"2025-11-21T16:24:09Z"}
