{"icao":"KORD","metar":"KORD 071351Z 26003KT 10SM BKN090 08/M03 A2998 RMK AO2 SLP155 T00831033 $","updated":"2026-05-07T14:04:46Z"}
