{"icao":"LPHR","metar":"LPHR 140800Z 03004KT CAVOK 12/09 Q1031","updated":"2026-03-14T08:34:12Z"}
