{"icao":"LPFL","metar":"LPFL 101800Z 26006KT 210V330 9999 FEW024 BKN039 21/15 Q1020","updated":"2025-10-10T19:13:47Z"}
