{"icao":"LPPR","metar":"LPPR 032200Z 06005KT 360V090 CAVOK 14/09 Q1002","updated":"2026-01-03T22:18:13Z"}
