{"icao":"KJFK","metar":"KJFK 190551Z 24010KT 10SM FEW170 BKN250 23/16 A2964 RMK AO2 SLP035 T02330161 10278 20233 53013 $","updated":"2026-06-19T06:17:10Z"}
