{"icao":"LPPT","metar":"LPPT 021630Z 25013KT 9999 FEW020 12/07 Q1001","updated":"2026-02-02T16:37:59Z"}
