{"icao":"LPFL","metar":"LPFL 020700Z 04004KT 350V090 9999 BKN020 15/09 Q1032","updated":"2026-04-02T07:10:51Z"}
