{"icao":"LPMT","metar":"LPMT 070600Z 21005KT 170V250 9999 SCT030 18/15 Q1015","updated":"2025-11-07T06:27:44Z"}
