{"icao":"LPPR","metar":"LPPR 131700Z 20008KT 9999 VCSH BKN020 FEW023CB 13/11 Q1009","updated":"2026-01-13T17:25:30Z"}
