{"icao":"LPMT","metar":"LPMT 170400Z 35005KT 9999 FEW006 SCT024 BKN030 13/13 Q1010","updated":"2025-11-17T04:25:10Z"}
