{"icao":"LPFL","metar":"LPFL 301830Z 22016G32KT 180V270 9999 FEW009 SCT017 19/16 Q1010","updated":"2026-01-30T18:40:09Z"}
