{"icao":"KJFK","metar":"KJFK 210051Z 10006KT 10SM SCT250 18/12 A3029 RMK AO2 SLP257 T01780117 $","updated":"2025-09-21T01:25:05Z"}
