{"icao":"KJFK","metar":"KJFK 100451Z 19006KT 10SM BKN012 BKN250 06/04 A3048 RMK AO2 SLP320 T00610044 400830000","updated":"2026-04-10T05:24:22Z"}
