{"icao":"LPPD","metar":"LPPD 230800Z 19004KT 160V300 9999 FEW007 SCT011 22/21 Q1016","updated":"2025-10-23T08:25:14Z"}
