{"icao":"LPMT","metar":"LPMT 112200Z 36003KT CAVOK 17/13 Q1017","updated":"2025-10-11T22:14:37Z"}
