{"icao":"KORD","metar":"KORD 170351Z 22011G19KT 10SM OVC110 12/03 A2994 RMK AO2 SLP139 T01220033 $","updated":"2026-02-17T04:50:58Z"}
