{"icao":"KJFK","metar":"KJFK 091951Z 19012KT 10SM FEW250 16/06 A2999 RMK AO2 SLP156 T01610056 $","updated":"2026-03-09T20:33:41Z"}
