{"icao":"KLAX","metar":"KLAX 280053Z 25005KT 10SM SCT250 20/08 A3001 RMK AO2 SLP160 T02000083 $","updated":"2025-11-28T01:23:04Z"}
