{"icao":"LPAR","metar":"LPAR 141400Z 17005KT 130V220 9999 FEW040 29/11 Q1015","updated":"2025-10-14T14:18:30Z"}
