{"icao":"LPAR","metar":"LPAR 301300Z 05008KT 360V080 CAVOK 19/01 Q1029","updated":"2026-03-30T13:16:35Z"}
