{"icao":"LPMA","metar":"LPMA 031800Z 22008KT 9999 BKN014 22/18 Q1019","updated":"2025-11-03T18:27:04Z"}
