{"icao":"LPMT","metar":"LPMT 131400Z 27014KT CAVOK 26/14 Q1016","updated":"2026-06-13T14:58:52Z"}
