{"icao":"LPMT","metar":"LPMT 122000Z VRB01KT CAVOK 19/13 Q1015","updated":"2025-10-12T20:17:53Z"}
