{"icao":"LPPT","metar":"LPPT 091700Z 34014KT CAVOK 21/13 Q1013","updated":"2026-04-09T17:06:00Z"}
