{"icao":"KJFK","metar":"KJFK 110151Z 18007KT 10SM FEW170 BKN230 02/M01 A2983 RMK AO2 SLP100 T00221006 $","updated":"2026-02-11T02:11:56Z"}
