{"icao":"LPPT","metar":"LPPT 301230Z 26016KT 230V290 9999 FEW008 SCT015 BKN022 16/13 Q1013","updated":"2026-01-30T12:53:00Z"}
