{"icao":"LPMR","metar":"LPMR 030500Z 01004KT 330V040 9999 OVC007 15/13 Q1022","updated":"2025-10-03T05:16:51Z"}
