{"icao":"LPPT","metar":"LPPT 240730Z VRB03KT 9999 FEW006 15/13 Q1017","updated":"2026-04-24T08:01:14Z"}
