{"icao":"LPFR","metar":"LPFR 030730Z 29010KT 270V350 9999 VCSH FEW016 SCT025 11/08 Q1005","updated":"2026-02-03T07:41:04Z"}
