{"icao":"KJFK","metar":"KJFK 190951Z 19003KT 10SM -RA BKN030 OVC042 05/01 A3017 RMK AO2 SLP215 P0001 T00500011 $","updated":"2025-11-19T10:21:07Z"}
