{"icao":"LPOV","metar":"LPOV 221100Z 17003KT CAVOK 13/03 Q1031","updated":"2025-11-22T11:13:19Z"}
