{"icao":"KJFK","metar":"KJFK 300551Z 30012G19KT 10SM FEW060 FEW250 M09/M18 A3015 RMK SLP209 4/007 T10941178 11061 2109 58000 $ ","updated":"2026-01-30T06:46:26Z"}
