{"icao":"LPMT","metar":"LPMT 062300Z VRB01KT CAVOK 16/15 Q1020","updated":"2025-10-06T23:15:41Z"}
