{"icao":"LPST","metar":"LPST 091400Z 30011KT 260V320 9999 FEW010 19/15 Q1020","updated":"2025-10-09T14:17:35Z"}
