{"icao":"KLAX","metar":"KLAX 140553Z 15003KT 10SM OVC015 20/17 A2990 RMK AO2 SLP121 T02000167 10217 20200 50007 $","updated":"2025-09-14T06:23:18Z"}
