{"icao":"LPHR","metar":"LPHR 061700Z 19017KT 9999 FEW018 16/12 Q1027","updated":"2026-03-06T17:33:49Z"}
