{"icao":"LPST","metar":"LPST 061700Z 35020G32KT 9999 BKN025 11/06 Q1018","updated":"2026-03-07T01:52:19Z"}
