{"icao":"LPLA","metar":"LPLA 042300Z 14006KT 120V190 9999 SCT002 BKN005 22/21 Q1027","updated":"2025-10-04T23:15:23Z"}
