{"icao":"LPST","metar":"LPST 241600Z 29008KT 260V320 9999 FEW030 18/12 Q1020","updated":"2026-03-24T16:08:15Z"}
