{"icao":"KJFK","metar":"KJFK 121351Z 23012KT 10SM FEW047 BKN065 06/M03 A2985 RMK AO2 SLP106 T00561033 $","updated":"2025-11-12T14:19:21Z"}
