{"icao":"KORD","metar":"KORD 230751Z 26007KT 10SM FEW250 05/03 A3003 RMK AO2 SLP174 T00500028","updated":"2025-11-23T08:23:03Z"}
