{"icao":"LPMA","metar":"LPMA 211230Z 03013KT 340V050 9999 SCT016 FEW018TCU 20/12 Q1025","updated":"2025-11-21T12:37:23Z"}
