{"icao":"LPMA","metar":"LPMA 031800Z 36008KT 310V020 9999 FEW015 18/11 Q1026","updated":"2025-12-03T18:30:14Z"}
