{"icao":"LPFR","metar":"LPFR 231900Z 10006KT CAVOK 14/12 Q1023","updated":"2026-02-23T19:18:10Z"}
