{"icao":"LPPS","metar":"LPPS 291100Z 01005KT 320V060 9999 FEW015 BKN030 18/07 Q1013","updated":"2026-04-29T11:27:43Z"}
