{"icao":"LPST","metar":"LPST 310700Z 14003KT 090V150 CAVOK 08/06 Q1026","updated":"2026-03-31T07:11:45Z"}
