{"icao":"LPMA","metar":"LPMA 190700Z 35004KT 320V020 9999 FEW015 21/18 Q1018","updated":"2025-09-19T07:16:49Z"}
