{"icao":"LPST","metar":"LPST 301200Z 26016KT 9999 SCT012 15/13 Q1013","updated":"2026-01-30T12:53:01Z"}
