{"icao":"LPOV","metar":"LPOV 151200Z 19008KT 140V200 9999 SCT015 BKN040 13/12 Q1030","updated":"2026-02-15T12:48:15Z"}
