{"icao":"LPPS","metar":"LPPS 030300Z 13007KT 9999 FEW014 21/18 Q1022","updated":"2025-11-03T03:15:54Z"}
