{"icao":"LPHR","metar":"LPHR 191430Z 01019G34KT 340V080 9999 SCT012 BKN025 16/11 Q1009","updated":"2026-03-19T14:45:08Z"}
