{"icao":"LPCS","metar":"LPCS 171100Z 18006KT 130V230 CAVOK 25/11 Q1015","updated":"2025-10-17T11:14:44Z"}
