{"icao":"LPMR","metar":"LPMR 162100Z 30002KT 6000 FEW005 14/13 Q1015","updated":"2025-10-16T21:15:31Z"}
