{"icao":"LPFL","metar":"LPFL 031400Z 22013G29KT 150V290 9999 FEW008 BKN014 18/14 Q1000","updated":"2026-02-03T14:06:24Z"}
