{"icao":"LPFR","metar":"LPFR 040530Z 03007KT 020V100 CAVOK 15/10 Q1021","updated":"2026-04-04T05:55:31Z"}
