{"icao":"KLAX","metar":"KLAX 070453Z 00000KT 7SM CLR 14/12 A3007 RMK AO2 SLP181 T01440122 $","updated":"2025-12-07T05:17:37Z"}
