{"icao":"LPFL","metar":"LPFL 091400Z 18018G33KT 130V250 9000 -SHRA FEW008 BKN016 18/17 Q1018","updated":"2026-01-09T14:23:21Z"}
