{"icao":"KJFK","metar":"KJFK 252051Z 17010KT 10SM -RA FEW055 BKN075 OVC090 11/09 A3013 RMK AO2 SLP204 P0001 60001 T01110094 58017","updated":"2025-11-25T21:17:36Z"}
