{"icao":"LPAZ","metar":"LPAZ 232030Z 21022KT 5000 SHRA FEW002 BKN006 BKN011 17/16 Q1011 RESHRA","updated":"2026-02-23T20:42:51Z"}
