{"icao":"LPCS","metar":"LPCS 101900Z 36009KT CAVOK 23/11 Q1019","updated":"2025-10-10T19:13:43Z"}
