{"icao":"LPMA","metar":"LPMA 211700Z 03016KT 9999 FEW016 18/11 Q1025","updated":"2026-02-21T17:24:19Z"}
