{"icao":"KJFK","metar":"KJFK 232151Z 26020G26KT 10SM FEW050 BKN210 BKN250 02/M13 A3012 RMK PK WND 26029/2057 SLP198 T00171133 $ ","updated":"2026-01-23T22:18:01Z"}
