{"icao":"LPPD","metar":"LPPD 020700Z 04005KT 010V070 9999 FEW016 SCT025 13/11 Q1029","updated":"2026-04-02T07:10:48Z"}
