{"icao":"LPPS","metar":"LPPS 160130Z 36015KT 9999 -DZ SCT012 SCT030 15/14 Q1024","updated":"2026-01-16T01:42:11Z"}
