{"icao":"LPFR","metar":"LPFR 291330Z 25020KT 2000 -DZ BR OVC005 16/15 Q1013","updated":"2026-01-29T13:59:22Z"}
