{"icao":"LPPD","metar":"LPPD 201900Z 24014KT 6000 FEW004 BKN006 23/22 Q1015","updated":"2025-10-20T19:14:52Z"}
