{"icao":"KORD","metar":"KORD 051551Z 27007G24KT 10SM FEW032 06/M02 A3014 RMK AO2 SLP211 T00611022 $","updated":"2026-04-05T16:35:47Z"}
