{"icao":"KORD","metar":"KORD 151151Z 05008KT 10SM FEW011 SCT021 OVC050 13/11 A3026 RMK AO2 DZB35E50 SLP248 P0000 60007 70007 T01330111 10161 20128 53004 $","updated":"2025-10-15T12:38:57Z"}
