{"icao":"LPMA","metar":"LPMA 290130Z VRB02KT CAVOK 16/13 Q1020","updated":"2026-01-29T01:56:14Z"}
