{"icao":"LPFL","metar":"LPFL 181430Z 35023G33KT 9999 VCSH SCT015 BKN025 12/08 Q1020","updated":"2026-03-18T15:01:10Z"}
