{"icao":"KORD","metar":"KORD 181451Z 23012G22KT 10SM FEW022 13/08 A2948 RMK AO2 PK WND 21028/1401 SLP983 T01330083 53008","updated":"2026-02-18T15:51:34Z"}
