{"icao":"KORD","metar":"KORD 031851Z 24009KT 10SM SCT065 31/13 A3015 RMK AO2 SLP205 T03060133 $","updated":"2025-10-03T19:13:58Z"}
