{"icao":"LPPS","metar":"LPPS 250530Z 03010KT 360V070 9999 SCT012 16/13 Q1018","updated":"2026-03-25T06:00:40Z"}
