{"icao":"LPFR","metar":"LPFR 130730Z 31010KT CAVOK 12/07 Q1021","updated":"2026-04-13T08:00:58Z"}
