{"icao":"LPLA","metar":"LPLA 030700Z 23009KT 9999 FEW028 17/13 Q1013","updated":"2025-11-03T07:18:25Z"}
