{"icao":"LPCS","metar":"LPCS 230900Z 36002KT 9999 FEW016 12/10 Q1028","updated":"2025-11-23T09:17:31Z"}
