{"icao":"KJFK","metar":"KJFK 260551Z 23006KT 10SM SCT150 SCT250 21/20 A2978 RMK AO2 SLP083 60001 T02110200 10233 20211 53003 $","updated":"2025-09-26T06:26:07Z"}
