{"icao":"LPPD","metar":"LPPD 221000Z VRB04KT 8000 SHRA SCT018 BKN035 20/16 Q1025","updated":"2025-09-22T10:20:00Z"}
