{"icao":"LPMT","metar":"LPMT 021600Z 25006KT 220V280 8000 FEW020CB BKN028 16/12 Q1007","updated":"2026-03-02T16:43:23Z"}
