{"icao":"LPPD","metar":"LPPD 160500Z 15009KT 8000 -SHRA SCT014 FEW018CB SCT030 22/20 Q1005 RESHRA","updated":"2025-10-16T05:17:10Z"}
