{"icao":"LPFL","metar":"LPFL 081000Z 14009KT 100V170 8000 -TSRA BKN005 SCT012CB 21/20 Q1017","updated":"2025-10-08T10:18:27Z"}
