{"icao":"LPPD","metar":"LPPD 260930Z 26006KT 230V290 9999 SCT003 BKN005 15/15 Q1030","updated":"2026-02-26T09:49:08Z"}
