{"icao":"KORD","metar":"KORD 060651Z 09003KT 9SM SCT085 BKN230 02/00 A2965 RMK AO2 SLP045 T00220000","updated":"2026-01-06T07:24:48Z"}
