{"icao":"KJFK","metar":"KJFK 082151Z 18010KT 10SM FEW250 04/M04 A3062 RMK AO2 SLP368 T00441039","updated":"2026-04-08T22:37:33Z"}
