{"icao":"LPBJ","metar":"LPBJ 232300Z 26006KT CAVOK 19/17 Q1014","updated":"2026-06-23T23:56:05Z"}
