{"icao":"LPHR","metar":"LPHR 191100Z VRB02KT CAVOK 15/09 Q1033","updated":"2026-01-19T11:20:43Z"}
