{"icao":"LPFR","metar":"LPFR 251500Z 24011KT 9999 FEW025 24/18 Q1013","updated":"2025-10-25T15:15:32Z"}
