{"icao":"LPLA","metar":"LPLA 151300Z 35008KT 320V020 9999 SCT025 BKN040 17/09 Q1033","updated":"2026-05-15T14:03:57Z"}
