{"icao":"LPBJ","metar":"LPBJ 022000Z 31008KT CAVOK 18/10 Q1020","updated":"2026-04-02T20:33:42Z"}
