{"icao":"LPPT","metar":"LPPT 272000Z 22018KT 9999 -DZ SCT004 BKN006 19/18 Q1014 WS R20","updated":"2025-09-27T20:17:17Z"}
