{"icao":"LPLA","metar":"LPLA 101400Z 23000KT 190V320 9999 FEW024 25/15 Q1021","updated":"2025-10-10T14:17:19Z"}
