{"icao":"KJFK","metar":"KJFK 111951Z 30015G23KT 10SM SCT043 BKN075 BKN250 04/M05 A2974 RMK AO2 PK WND 29027/1938 SLP070 T00441050 $","updated":"2026-02-11T20:37:47Z"}
