{"icao":"KLAX","metar":"KLAX 101253Z 00000KT 10SM FEW008 BKN015 15/13 A2993 RMK AO2 SLP133 T01500133 $","updated":"2026-04-10T13:07:18Z"}
