{"icao":"LPHR","metar":"LPHR 312030Z 27009KT 0800 FG VV002 18/18 Q1025","updated":"2026-05-31T20:58:18Z"}
