{"icao":"KJFK","metar":"KJFK 131551Z 21010KT 10SM FEW050 FEW250 27/14 A2991 RMK SLP130 T02720144 $ ","updated":"2026-06-13T16:22:07Z"}
