{"icao":"LPFR","metar":"LPFR 190430Z VRB02KT CAVOK 14/10 Q1020","updated":"2026-05-19T04:58:47Z"}
