{"icao":"LPOV","metar":"LPOV 020800Z 00000KT 0900 FG SCT002 11/11 Q1021","updated":"2026-04-02T08:54:51Z"}
