{"icao":"LPCS","metar":"LPCS 141930Z 36004KT 9999 FEW014 11/11 Q1022","updated":"2026-01-14T23:17:06Z"}
