{"icao":"LPPT","metar":"LPPT 300900Z 33011KT 9999 FEW025 12/06 Q1018","updated":"2025-11-30T09:17:28Z"}
