{"icao":"KJFK","metar":"KJFK 260351Z 16019G29KT 4SM RA BR BKN006 BKN022 OVC041 13/13 A2992 RMK AO2 PK WND 16029/0351 VIS 2 1/2 W SLP131 P0020 T01330128","updated":"2025-11-26T04:25:35Z"}
