{"icao":"KJFK","metar":"KJFK 281351Z 34004KT 9SM FEW003 SCT022 SCT250 04/02 A3014 RMK AO2 SLP207 T00440022","updated":"2026-02-28T14:20:49Z"}
