{"icao":"KLAX","metar":"KLAX 211453Z 04011KT 10SM FEW008 BKN016 OVC021 12/11 A2988 RMK AO2 SLP117 60003 T01220106 53023 $","updated":"2025-11-21T15:17:28Z"}
