{"icao":"LPFR","metar":"LPFR 230500Z 00000KT CAVOK 17/06 Q1014","updated":"2025-09-23T05:16:41Z"}
