{"icao":"KJFK","metar":"KJFK 271851Z 14006KT 10SM FEW250 03/M03 A3014 RMK AO2 SLP206 T00281033","updated":"2026-02-27T19:32:07Z"}
