{"icao":"LPMT","metar":"LPMT 031400Z 27005KT CAVOK 25/14 Q1021","updated":"2025-10-03T14:16:30Z"}
