{"icao":"KJFK","metar":"KJFK 140451Z 25007KT 2SM -SN BR SCT013 BKN020 OVC028 01/00 A3003 RMK AO2 SLP170 P0002 T00060000 400611039","updated":"2025-12-14T05:18:45Z"}
