{"icao":"LPST","metar":"LPST 091100Z 19017KT 2000 -RADZ BR BKN005 BKN012 16/16 Q1016","updated":"2025-12-09T11:18:14Z"}
