{"icao":"LPPS","metar":"LPPS 310830Z 08018KT 9999 FEW015 16/11 Q1024","updated":"2026-03-31T09:01:46Z"}
