{"icao":"LPLA","metar":"LPLA 051100Z 09007KT 030V120 9999 BKN040 12/02 Q1037","updated":"2026-03-05T11:32:30Z"}
