{"icao":"LPLA","metar":"LPLA 072100Z 18011KT 7000 -RA FEW015 SCT020 BKN030 15/14 Q1006","updated":"2025-12-07T21:15:13Z"}
