{"icao":"LPBJ","metar":"LPBJ 250800Z 15006KT CAVOK 11/10 Q1016","updated":"2026-02-25T08:47:30Z"}
