{"icao":"LPHR","metar":"LPHR 100700Z 25012KT 2000 -RADZ BR SCT002 BKN005 17/17 Q1021","updated":"2026-01-10T07:18:12Z"}
