{"icao":"LPMT","metar":"LPMT 050300Z 04009KT 9999 FEW020 11/02 Q1008","updated":"2026-01-05T03:54:19Z"}
