{"icao":"KLAX","metar":"KLAX 020153Z 25016KT 10SM FEW015 FEW050 SCT250 17/14 A2997 RMK AO2 SLP146 T01720139 $","updated":"2026-04-02T02:09:28Z"}
