{"icao":"LPAR","metar":"LPAR 071100Z 25010KT 220V280 9999 SCT018 BKN030 14/10 Q1013","updated":"2026-04-07T11:52:45Z"}
