{"icao":"LPPT","metar":"LPPT 091400Z 11005G17KT 040V210 9999 FEW025 17/10 Q1020","updated":"2025-11-09T14:14:09Z"}
