{"icao":"KORD","metar":"KORD 210251Z 24007KT 9SM OVC012 08/06 A3005 RMK AO2 SLP178 T00830061 51006","updated":"2025-11-21T03:09:34Z"}
