{"icao":"LPPD","metar":"LPPD 111700Z 27008KT 240V310 9999 FEW022 22/18 Q1019","updated":"2025-10-11T17:13:10Z"}
