{"icao":"LPFR","metar":"LPFR 272000Z 02005KT CAVOK 13/04 Q1022","updated":"2025-11-27T20:18:21Z"}
