{"icao":"KJFK","metar":"KJFK 030851Z 00000KT 10SM FEW180 BKN250 08/07 A3024 RMK AO2 SLP239 T00830072 58006 $","updated":"2025-11-03T09:22:16Z"}
