{"icao":"LPPR","metar":"LPPR 132330Z 18007KT 5000 -DZRA BR OVC004 12/12 Q1021","updated":"2026-04-13T23:40:35Z"}
