{"icao":"KORD","metar":"KORD 081151Z 15011KT 10SM SCT080 BKN130 OVC250 03/M04 A3027 RMK AO2 SLP257 60001 70001 T00331039 10033 20017 56011","updated":"2026-04-08T11:54:09Z"}
