{"icao":"LPLA","metar":"LPLA 080800Z 23029G48KT 8000 -RA FEW009 BKN020 BKN030 20/17 Q0992","updated":"2025-12-08T08:29:39Z"}
