{"icao":"LPBJ","metar":"LPBJ 110700Z VRB02KT 0700 FG SCT003 05/05 Q1028","updated":"2026-01-11T07:19:41Z"}
