{"icao":"KJFK","metar":"KJFK 131351Z 24008KT 10SM FEW250 03/M04 A3012 RMK AO2 SLP197 T00281039 $","updated":"2026-01-13T14:24:35Z"}
