{"icao":"LPHR","metar":"LPHR 031700Z 22006KT 180V240 9999 SCT005 BKN014 23/22 Q1022","updated":"2025-10-03T17:14:43Z"}
