{"icao":"KORD","metar":"KORD 110051Z 29009KT 10SM FEW015 BKN049 BKN110 M01/M03 A2996 RMK AO2 SNE47 SLP152 P0000 T10061033","updated":"2026-01-11T01:49:18Z"}
