{"icao":"LPOV","metar":"LPOV 111700Z 23013KT 7000 BKN008 BKN012 16/15 Q1011","updated":"2026-02-11T17:13:25Z"}
