{"icao":"KJFK","metar":"KJFK 081951Z 29007KT 10SM FEW040 SCT250 11/00 A3021 RMK AO2 SLP228 T01060000 $","updated":"2026-01-08T20:24:07Z"}
