{"icao":"LPMA","metar":"LPMA 011600Z 21012KT 9999 FEW014 FEW015CB SCT033 18/13 Q1000","updated":"2026-01-01T16:25:40Z"}
