{"icao":"KORD","metar":"KORD 060851Z 20009KT 10SM CLR 21/14 A3005 RMK AO2 SLP170 T02060139 53002 $","updated":"2025-10-06T09:21:05Z"}
