{"icao":"LPBJ","metar":"LPBJ 171300Z 11006KT 050V180 9999 FEW040 27/12 Q1017","updated":"2026-04-17T13:16:54Z"}
