{"icao":"LPLA","metar":"LPLA 312200Z VRB05KT 9999 FEW007 SCT014 18/15 Q1012","updated":"2026-01-31T22:21:16Z"}
