{"icao":"LPAZ","metar":"LPAZ 182000Z 28006KT 6000 FEW001 BKN003 BKN024 23/22 Q1017","updated":"2025-10-18T20:17:40Z"}
