{"icao":"LPPD","metar":"LPPD 141900Z 35009KT 330V030 9999 FEW008 SCT012 15/14 Q1030","updated":"2026-03-14T19:25:41Z"}
