{"icao":"LPPT","metar":"LPPT 160900Z VRB04KT CAVOK 21/16 Q1021","updated":"2025-09-16T09:19:04Z"}
