{"icao":"LPHR","metar":"LPHR 191700Z 33015G27KT 260V040 9999 VCSH FEW012 BKN070 18/11 Q1015","updated":"2026-04-19T17:34:06Z"}
