{"icao":"LPPR","metar":"LPPR 060900Z 01005KT 330V050 7000 FEW002 BKN006 16/15 Q1021","updated":"2026-06-06T09:23:57Z"}
