{"icao":"KLAX","metar":"KLAX 081853Z VRB04KT 5SM HZ FEW005 22/14 A2995 RMK AO2 SLP139 T02220139","updated":"2025-11-08T19:13:24Z"}
