{"icao":"LPAR","metar":"LPAR 101000Z 12003KT 090V160 0500 FG VV/// 15/15 Q1020","updated":"2025-11-10T10:21:44Z"}
