{"icao":"LPMT","metar":"LPMT 031300Z 36004KT 320V050 CAVOK 17/13 Q1022","updated":"2025-11-03T13:29:42Z"}
