{"icao":"LPPT","metar":"LPPT 281500Z 34016KT CAVOK 15/05 Q1023","updated":"2026-02-28T15:20:28Z"}
