{"icao":"KJFK","metar":"KJFK 262051Z 18007KT 10SM FEW035 BKN250 25/20 A3001 RMK SLP163 T02500200 58006 $ ","updated":"2026-06-26T21:17:09Z"}
