{"icao":"LPMA","metar":"LPMA 100130Z 01012KT 340V040 9999 BKN015 SCT030 14/06 Q1029","updated":"2026-03-10T01:55:07Z"}
