{"icao":"LPMR","metar":"LPMR 051800Z 26006KT 230V300 7000 -SHRA SCT013 SCT018 FEW020CB BKN032 12/11 Q1009 RESHRA","updated":"2025-11-05T18:26:46Z"}
