{"icao":"LPMR","metar":"LPMR 052100Z 33009KT 9999 FEW022 SCT038 14/11 Q1017 RMK RH81 BLU","updated":"2026-05-05T21:59:45Z"}
