{"icao":"LPFR","metar":"LPFR 271200Z 10012KT CAVOK 26/10 Q1019","updated":"2026-05-27T12:18:59Z"}
