{"icao":"LPLA","metar":"LPLA 181500Z 31012KT 2500 DZ BR SCT002 BKN007 16/15 Q1029","updated":"2026-01-18T15:18:02Z"}
