{"icao":"LPPR","metar":"LPPR 290700Z 11007KT CAVOK 07/05 Q1018","updated":"2025-12-29T07:24:51Z"}
