{"icao":"LPPD","metar":"LPPD 110800Z 28006KT 250V310 9999 FEW012 BKN025 16/14 Q1017","updated":"2026-01-11T08:25:31Z"}
