{"icao":"LPOV","metar":"LPOV 272200Z 04003KT 010V110 CAVOK 20/15 Q1019","updated":"2026-05-28T03:28:26Z"}
