{"icao":"KJFK","metar":"KJFK 061851Z 11009KT 9SM FEW050 BKN170 BKN250 05/M01 A2990 RMK AO2 SLP125 T00501006 $","updated":"2026-01-06T19:16:49Z"}
