{"icao":"KJFK","metar":"KJFK 220151Z 08009KT 10SM BKN130 BKN200 BKN250 08/M01 A3000 RMK AO2 SLP158 T00831011","updated":"2026-03-22T02:06:59Z"}
