{"icao":"LPPI","metar":"LPPI 190600Z 10003KT 060V160 9000 4000W -RA FEW005 SCT020 BKN040 18/16 Q1009 RERA","updated":"2026-06-19T06:17:09Z"}
