{"icao":"LPAZ","metar":"LPAZ 041130Z 08010KT 040V110 9999 FEW023 BKN040 16/09 Q1023","updated":"2026-05-04T11:46:58Z"}
