{"icao":"LPMR","metar":"LPMR 020100Z 20003KT 5000 1500S BR PRFG FEW002 14/14 Q1021","updated":"2025-10-02T11:13:37Z"}
