{"icao":"LPAR","metar":"LPAR 060900Z 36024KT 9999 BKN022 12/05 Q1018","updated":"2026-03-06T09:36:52Z"}
