{"icao":"LPMA","metar":"LPMA 022200Z 35005KT 330V030 9999 FEW014 15/11 Q0998","updated":"2026-01-02T22:19:11Z"}
