{"icao":"LPPT","metar":"LPPT 221500Z 22007KT 160V280 9999 FEW045 19/09 Q1013","updated":"2026-04-22T15:11:27Z"}
