{"icao":"LPST","metar":"LPST 301500Z 20007KT 160V230 9999 FEW008 BKN040 19/16 Q1013","updated":"2025-10-30T15:20:01Z"}
