{"icao":"LPMR","metar":"LPMR 070600Z 15017KT 110V180 9999 FEW020 BKN032 17/12 Q1009","updated":"2026-04-07T07:14:39Z"}
