{"icao":"LPCS","metar":"LPCS 212000Z 36016KT CAVOK 24/12 Q1017","updated":"2026-06-22T00:10:18Z"}
