{"icao":"LPPD","metar":"LPPD 290500Z 14008KT 9999 FEW022 BKN035 21/16 Q1026","updated":"2025-09-29T05:17:50Z"}
