{"icao":"KORD","metar":"KORD 311614Z 26008G16KT 10SM OVC024 01/M03 A2986 RMK AO2 T00061033","updated":"2025-12-31T16:25:02Z"}
