{"icao":"LPLA","metar":"LPLA 170500Z 17016KT 9999 -RA FEW015 BKN020 BKN045 18/16 Q1021","updated":"2025-11-17T05:19:33Z"}
