{"icao":"LPMT","metar":"LPMT 082200Z 34005KT CAVOK 14/11 Q1023","updated":"2025-11-08T22:15:09Z"}
