{"icao":"LPHR","metar":"LPHR 111900Z 31018KT 8000 VCSH SCT018 FEW022TCU 15/09 Q1006","updated":"2025-11-11T19:14:57Z"}
