{"icao":"KJFK","metar":"KJFK 110951Z 28006KT 10SM FEW033 FEW250 11/07 A3012 RMK AO2 SLP199 T01110067","updated":"2026-04-11T10:32:44Z"}
