{"icao":"LPPI","metar":"LPPI 231200Z 35005KT 290V070 9999 FEW009 SCT020 21/18 Q1025","updated":"2026-06-23T12:05:10Z"}
