{"icao":"KLAX","metar":"KLAX 291853Z 25007KT 10SM FEW002 FEW190 SCT230 SCT280 22/14 A2996 RMK AO2 SLP143 T02170139 $","updated":"2026-03-29T19:36:53Z"}
