{"icao":"LPFR","metar":"LPFR 021300Z 19006KT 160V230 CAVOK 21/10 Q1020","updated":"2026-04-02T13:10:56Z"}
