{"icao":"LPFR","metar":"LPFR 092000Z 01004KT CAVOK 15/10 Q1020","updated":"2025-11-09T20:17:50Z"}
