{"icao":"LPMA","metar":"LPMA 160330Z 05011KT 020V080 9000 -RADZ BKN014 16/13 Q1023","updated":"2026-01-16T03:38:24Z"}
