{"icao":"LPPR","metar":"LPPR 190600Z 00000KT 7000 NSC 16/15 Q1018","updated":"2025-09-19T06:26:19Z"}
