{"icao":"LPAZ","metar":"LPAZ 301700Z 27017KT 9999 FEW022 19/16 Q1008","updated":"2025-10-30T17:16:48Z"}
