{"icao":"LPBJ","metar":"LPBJ 071012Z 15006KT 2800 -DZRA BR SCT004 BKN010 OVC018 06/06 Q1025","updated":"2026-01-07T10:23:11Z"}
