{"icao":"LPPD","metar":"LPPD 231400Z 36017KT 9999 FEW014 SCT035 23/16 Q1022","updated":"2025-09-23T14:17:38Z"}
