{"icao":"LPFR","metar":"LPFR 111230Z 18004KT 160V230 9999 FEW020 15/10 Q1028","updated":"2026-01-11T12:38:44Z"}
