{"icao":"LPFL","metar":"LPFL 011930Z 15007KT 9999 SCT015 BKN033 21/18 Q1031","updated":"2026-07-01T19:51:56Z"}
