{"icao":"LPFL","metar":"LPFL 180700Z 28004KT 240V330 9999 SCT016 19/15 Q1015","updated":"2025-09-18T07:16:42Z"}
