{"icao":"LPMT","metar":"LPMT 242000Z 27007KT 240V300 9999 FEW030 12/07 Q1017","updated":"2026-01-24T20:20:28Z"}
