{"icao":"LPPD","metar":"LPPD 221100Z 17012KT 9999 FEW016 BKN048 16/13 Q1025","updated":"2026-02-22T11:20:02Z"}
