{"icao":"LPMA","metar":"LPMA 140230Z 03015KT 340V050 9999 SCT015 23/18 Q1023","updated":"2025-09-14T03:01:05Z"}
