{"icao":"LPAZ","metar":"LPAZ 200000Z 24008KT 9999 FEW003 SCT009 BKN031 21/20 Q1012","updated":"2026-06-20T00:08:36Z"}
