{"icao":"KORD","metar":"KORD 281951Z 07008KT 10SM SCT028 BKN045 OVC250 26/21 A2995 RMK AO2 SLP139 T02610206 $","updated":"2026-06-28T20:12:15Z"}
