{"icao":"LPAR","metar":"LPAR 260900Z 08003KT 030V130 CAVOK 09/07 Q1026","updated":"2025-11-26T09:21:49Z"}
