{"icao":"LPFL","metar":"LPFL 061230Z 18016G26KT 150V210 9999 SCT020 BKN040 16/12 Q1031","updated":"2026-01-06T12:42:28Z"}
