{"icao":"LPMA","metar":"LPMA 121000Z 25006KT 9999 BKN015 18/17 Q1006","updated":"2025-11-12T10:20:47Z"}
