{"icao":"LPPR","metar":"LPPR 111100Z 12009KT 070V140 CAVOK 25/11 Q1022","updated":"2025-10-11T11:12:49Z"}
