{"icao":"LPFL","metar":"LPFL 281100Z VRB06G18KT 9999 VCSH FEW008 BKN012 18/15 Q1030","updated":"2026-02-28T11:17:46Z"}
