{"icao":"LPHR","metar":"LPHR 151130Z 26011KT 9999 FEW018 BKN040 15/09 Q1023","updated":"2026-04-15T11:57:58Z"}
