{"icao":"LPAZ","metar":"LPAZ 051130Z 03012KT 360V080 9999 FEW027 17/10 Q1026","updated":"2026-05-05T12:00:08Z"}
