{"icao":"KORD","metar":"KORD 081751Z 22018G29KT 10SM FEW250 13/00 A2983 RMK AO2 PK WND 22029/1749 SLP103 T01280000 10128 20017 58018 $","updated":"2026-03-08T18:32:53Z"}
