{"icao":"LPAZ","metar":"LPAZ 100630Z 22019KT 3000 BR FEW001 BKN004 17/17 Q1014","updated":"2026-02-10T07:02:36Z"}
