{"icao":"KLAX","metar":"KLAX 011853Z 00000KT 10SM FEW280 25/11 A2999 RMK AO2 SLP154 T02500106","updated":"2026-03-01T19:21:20Z"}
