{"icao":"KJFK","metar":"KJFK 061451Z 29011G17KT 10SM FEW055 FEW250 08/M04 A3006 RMK AO2 SLP179 T00831044 51008","updated":"2026-04-06T15:44:28Z"}
