{"icao":"LPPR","metar":"LPPR 030430Z 17006KT 140V200 9999 -SHRA SCT013 FEW017CB BKN030 08/07 Q0997 RESHGS","updated":"2026-02-03T04:44:51Z"}
