{"icao":"KORD","metar":"KORD 150820Z 05009KT 10SM -RA OVC046 14/11 A3026 RMK AO2 P0004 T01440111 $","updated":"2025-10-15T08:25:27Z"}
