{"icao":"KLAX","metar":"KLAX 241453Z 26007KT 10SM FEW015 OVC018 16/12 A3003 RMK AO2 SLP167 T01610117 53012 $","updated":"2026-05-24T15:02:25Z"}
