{"icao":"KORD","metar":"KORD 110651Z 33009KT 10SM OVC032 M03/M09 A2996 RMK AO2 SLP152 T10281094","updated":"2025-12-11T07:23:13Z"}
