{"icao":"LPMR","metar":"LPMR 210100Z 34006KT 9000 -RA FEW010 OVC025 09/08 Q1008 RESHRA","updated":"2025-12-21T01:43:05Z"}
