{"icao":"LPOV","metar":"LPOV 131700Z 28006KT 250V310 9999 FEW040 21/16 Q1023","updated":"2025-09-13T17:12:20Z"}
