{"icao":"LPMT","metar":"LPMT 300500Z 23006KT 200V270 9999 FEW015 16/13 Q1014","updated":"2026-04-30T05:57:34Z"}
