{"icao":"LPMA","metar":"LPMA 161430Z 04006KT 350V080 9999 SCT015 BKN030 18/12 Q1015","updated":"2026-03-16T14:58:28Z"}
