{"icao":"KORD","metar":"KORD 292151Z 09008KT 10SM FEW300 28/15 A3016 RMK AO2 SLP209 T02830150","updated":"2025-09-29T22:14:52Z"}
