{"icao":"KLAX","metar":"KLAX 251453Z 34004KT 5SM HZ OVC012 17/14 A3001 RMK AO2 SLP159 T01670139 53006","updated":"2026-03-25T14:58:07Z"}
