{"icao":"KORD","metar":"KORD 181651Z 19013KT 10SM FEW025 SCT055 01/M04 A3000 RMK AO2 SLP167 T00111044 $","updated":"2026-03-18T16:57:56Z"}
