{"icao":"LPPT","metar":"LPPT 120430Z 18008KT 2000 -DZRA BR BKN004 12/12 Q1022","updated":"2026-01-12T04:49:16Z"}
