{"icao":"LPPD","metar":"LPPD 221400Z 18014KT 160V220 9999 FEW007 23/21 Q1014","updated":"2025-10-22T14:20:01Z"}
