{"icao":"LPST","metar":"LPST 211600Z 20009KT 9999 SCT015 18/14 Q1005","updated":"2026-04-21T21:43:57Z"}
