{"icao":"LPOV","metar":"LPOV 231400Z 32010KT 290V360 9999 FEW020 20/11 Q1019","updated":"2025-09-23T14:17:36Z"}
