{"icao":"LPPR","metar":"LPPR 040430Z 04003KT 010V070 CAVOK 13/09 Q1002","updated":"2026-01-04T04:47:51Z"}
