{"icao":"LPOV","metar":"LPOV 081900Z 02003KT 350V050 9999 SCT028 18/09 Q1006","updated":"2026-05-08T23:54:44Z"}
