{"icao":"LPAZ","metar":"LPAZ 081630Z 33016KT 9999 FEW030 19/12 Q1032","updated":"2026-04-08T17:00:35Z"}
