{"icao":"LPBJ","metar":"LPBJ 231715Z 28015KT 6000 2000N -SHRA FEW012 OVC040 08/07 Q1002","updated":"2026-01-23T17:24:41Z"}
