{"icao":"LPPD","metar":"LPPD 111500Z 27009KT 240V300 9999 FEW020 22/18 Q1020","updated":"2025-10-11T15:14:46Z"}
