{"icao":"LPAZ","metar":"LPAZ 191100Z 07003KT 030V090 9999 SCT027 13/10 Q1031","updated":"2026-01-19T11:20:41Z"}
