{"icao":"LPAR","metar":"LPAR 241000Z 16010KT 6000 BKN020 14/12 Q1019","updated":"2026-02-24T10:47:46Z"}
