{"icao":"LPOV","metar":"LPOV 072000Z 36007KT 9999 SCT018 15/11 Q1010","updated":"2026-05-07T20:12:56Z"}
