{"icao":"LPHR","metar":"LPHR 051700Z 23018KT 9999 FEW018 SCT035 BKN090 20/15 Q1015","updated":"2025-11-05T17:17:43Z"}
