{"icao":"LPMT","metar":"LPMT 130600Z VRB02KT CAVOK 13/12 Q1014","updated":"2025-10-13T06:28:28Z"}
