{"icao":"LPFR","metar":"LPFR 170830Z 07012KT CAVOK 15/07 Q1012","updated":"2026-03-17T08:52:38Z"}
