{"icao":"LPFR","metar":"LPFR 191600Z 26011KT CAVOK 20/13 Q1021","updated":"2026-05-19T16:17:38Z"}
