{"icao":"KLAX","metar":"KLAX 311953Z 04005KT 10SM CLR 27/02 A3011 RMK AO2 SLP195 T02720017 $","updated":"2026-01-31T20:24:06Z"}
