{"icao":"LPOV","metar":"LPOV 281500Z 24011KT 220V280 8000 -SHRA SCT020 BKN030 14/09 Q1002","updated":"2026-01-28T15:30:56Z"}
