{"icao":"LPBJ","metar":"LPBJ 191500Z 32011KT 300V360 9999 FEW043 14/04 Q1027","updated":"2026-02-19T15:47:03Z"}
