{"icao":"KJFK","metar":"KJFK 301651Z 20012KT 10SM SCT085 SCT120 BKN250 16/06 A3015 RMK AO2 SLP211 T01610061 $","updated":"2026-03-30T16:54:25Z"}
