{"icao":"LPLA","metar":"LPLA 011100Z 36009KT 9999 FEW030 BKN045 17/07 Q1022","updated":"2025-11-01T11:13:12Z"}
