{"icao":"LPLA","metar":"LPLA 040600Z 07005KT 010V140 9999 FEW023 SCT030 14/08 Q1025","updated":"2026-05-04T06:11:47Z"}
