{"icao":"LPAZ","metar":"LPAZ 141700Z 03011KT 360V060 9999 FEW016 BKN028 17/13 Q1029","updated":"2026-03-14T17:25:32Z"}
