{"icao":"LPPS","metar":"LPPS 040130Z 08010KT 030V110 9999 SCT012 14/11 Q1021","updated":"2026-04-04T02:03:56Z"}
