{"icao":"LPFR","metar":"LPFR 112100Z 32006KT CAVOK 12/09 Q1026","updated":"2026-03-11T21:31:51Z"}
