{"icao":"LPMA","metar":"LPMA 120800Z 36007KT 300V060 9999 -RA FEW008 BKN015 17/16 Q1004","updated":"2025-11-12T08:26:39Z"}
