{"icao":"LPHR","metar":"LPHR 022300Z 25021KT 3000 -RADZ BR SCT002 BKN004 16/16 Q1010","updated":"2026-02-02T23:27:26Z"}
