{"icao":"KJFK","metar":"KJFK 121251Z 32027G38KT 10SM FEW020 BKN026 OVC039 10/06 A2966 RMK AO2 PK WND 33038/1251 RAB1157E17 SLP043 BKN V SCT FROPA P0000 T01000061","updated":"2026-03-12T12:57:18Z"}
