{"icao":"LPFL","metar":"LPFL 151230Z 17015G28KT 140V210 9999 FEW013 SCT016 18/15 Q1024","updated":"2026-02-15T12:48:33Z"}
