{"icao":"LPMA","metar":"LPMA 281000Z 01014KT 340V040 9999 SCT015 23/17 Q1024","updated":"2026-06-28T10:25:50Z"}
