{"icao":"LPFL","metar":"LPFL 281400Z VRB12G28KT 3500 RA SCT007 BKN011 19/15 Q1001","updated":"2026-01-28T14:28:47Z"}
