{"icao":"LPMA","metar":"LPMA 292300Z 02008KT 320V110 9999 SCT015 19/14 Q1026","updated":"2026-05-29T23:11:00Z"}
