{"icao":"LPMA","metar":"LPMA 101300Z 04009KT 010V070 9999 FEW014 18/12 Q1031","updated":"2026-01-10T13:28:23Z"}
