{"icao":"LPBJ","metar":"LPBJ 140100Z 31005KT 280V350 CAVOK 18/13 Q1022","updated":"2025-09-14T01:22:54Z"}
