{"icao":"LPPS","metar":"LPPS 250400Z 33003KT 310V020 9999 FEW015 16/12 Q1024","updated":"2025-11-25T04:25:26Z"}
