{"icao":"LPOV","metar":"LPOV 161900Z 23004KT 7000 BKN008 BKN012 14/14 Q1029","updated":"2026-02-16T19:31:38Z"}
