{"icao":"KLAX","metar":"KLAX 222253Z 25007KT 10SM FEW010 FEW150 SCT250 19/14 A2988 RMK AO2 SLP118 T01940144","updated":"2026-03-22T23:26:42Z"}
