{"icao":"KLAX","metar":"KLAX 231153Z 25004KT 10SM FEW009 OVC012 18/15 A2999 RMK AO2 SLP154 T01780150 10178 20172 50000 $","updated":"2026-06-23T12:05:11Z"}
