{"icao":"LPFL","metar":"LPFL 272000Z 01010KT 340V050 9999 FEW025 BKN037 15/06 Q1027","updated":"2025-11-27T20:18:25Z"}
