{"icao":"LPHR","metar":"LPHR 271800Z 14013KT 9999 FEW020 SCT035 21/14 Q1026","updated":"2025-09-27T18:22:07Z"}
