{"icao":"LPOV","metar":"LPOV 242000Z 16006KT 120V180 9999 FEW012 SCT028 14/11 Q1015","updated":"2026-02-24T20:33:50Z"}
