{"icao":"KJFK","metar":"KJFK 141051Z 25003KT 3/4SM R04R/3500V4000FT -SN BR OVC004 00/00 A2994 RMK AO2 SLP137 SNINCR 1/2 P0007 T00000000","updated":"2025-12-14T11:16:03Z"}
