{"icao":"LPBJ","metar":"LPBJ 031400Z 11006KT 9999 VCSH FEW010 SCT015 15/14 Q0998","updated":"2026-01-03T14:17:25Z"}
