{"icao":"LPFL","metar":"LPFL 030730Z VRB13G28KT 6000 RA SCT008 BKN012 18/16 Q1001","updated":"2026-02-03T07:41:22Z"}
