{"icao":"KORD","metar":"KORD 072211Z 26018G25KT 10SM OVC015 07/03 A2981 RMK AO2 T00720033","updated":"2026-03-07T22:21:54Z"}
