{"icao":"LPMR","metar":"LPMR 040700Z 14016KT CAVOK 15/10 Q1015","updated":"2025-11-04T07:18:24Z"}
