{"icao":"LPAR","metar":"LPAR 201100Z 27006KT 230V340 9999 SCT022 22/13 Q1015","updated":"2025-10-20T11:15:43Z"}
