{"icao":"KORD","metar":"KORD 200751Z 22005KT 10SM FEW150 FEW250 07/02 A2986 RMK AO2 SLP111 T00720022 $","updated":"2026-03-20T08:38:59Z"}
