{"icao":"LPCS","metar":"LPCS 020800Z 02006KT CAVOK 19/13 Q1021","updated":"2025-10-02T08:22:44Z"}
