{"icao":"LPOV","metar":"LPOV 091200Z 23009KT 2000 -RADZ BR BKN002 OVC003 15/15 Q1009 RERADZ","updated":"2026-02-09T13:06:29Z"}
