{"icao":"KORD","metar":"KORD 261151Z 05007KT 10SM BKN150 BKN220 17/13 A3007 RMK AO2 SLP178 T01720128 10172 20161 51010","updated":"2026-06-26T12:09:36Z"}
