{"icao":"LPMR","metar":"LPMR 061000Z 32005KT 260V060 9999 FEW024 17/10 Q1018","updated":"2025-11-06T10:20:55Z"}
