{"icao":"LPPT","metar":"LPPT 071100Z 33010KT 300V360 9999 FEW028 14/08 Q1018","updated":"2026-03-07T11:18:43Z"}
