{"icao":"LPBJ","metar":"LPBJ 111400Z 14003KT 090V180 9999 OVC012 12/09 Q1027","updated":"2026-01-11T14:18:01Z"}
