{"icao":"LPMA","metar":"LPMA 220500Z 03014KT 9999 SCT015 18/09 Q1025","updated":"2025-11-22T05:17:15Z"}
