{"icao":"LPOV","metar":"LPOV 232300Z VRB02KT 9999 -RA BKN025 14/11 Q1018","updated":"2025-10-23T23:15:47Z"}
