{"icao":"LPMR","metar":"LPMR 190400Z 18003KT CAVOK 04/03 Q1019","updated":"2026-01-19T04:50:41Z"}
