{"icao":"LPBJ","metar":"LPBJ 061300Z 01014KT CAVOK 10/M02 Q1022","updated":"2026-01-06T13:36:31Z"}
