{"icao":"LPAZ","metar":"LPAZ 091230Z 34009KT 310V010 9999 FEW011 BKN040 22/17 Q1031","updated":"2026-06-09T12:35:40Z"}
