{"icao":"LPFL","metar":"LPFL 251530Z VRB04KT 9999 FEW014 20/14 Q1025","updated":"2026-02-25T16:01:11Z"}
