{"icao":"LPPT","metar":"LPPT 122200Z 21017KT 2500 -RA BR BKN002 15/15 Q1008","updated":"2026-02-12T22:31:08Z"}
