{"icao":"LPMT","metar":"LPMT 111000Z 36006KT 330V050 CAVOK 28/11 Q1018","updated":"2026-06-11T10:20:22Z"}
