{"icao":"LPAR","metar":"LPAR 191200Z 02010KT 350V070 9999 BKN045 16/07 Q1018","updated":"2025-11-19T12:39:23Z"}
