{"icao":"LPFR","metar":"LPFR 250800Z 30006KT CAVOK 12/08 Q1020","updated":"2025-11-25T08:26:43Z"}
