{"icao":"LPAR","metar":"LPAR 291400Z 31004KT 270V350 9999 SCT018 FEW020CB SCT040 21/19 Q1007","updated":"2025-10-29T14:18:49Z"}
