{"icao":"LPPR","metar":"LPPR 010500Z 09008KT 060V130 CAVOK 15/03 Q1025","updated":"2026-04-01T05:22:33Z"}
