{"icao":"LPHR","metar":"LPHR 241030Z 27010KT 7000 FEW002 SCT005 BKN012 21/20 Q1021","updated":"2026-06-24T10:47:45Z"}
