{"icao":"LPBJ","metar":"LPBJ 011318Z 23012KT 2200 -DZRA BR BKN008 BKN012 15/14 Q1014","updated":"2026-02-01T13:41:56Z"}
