{"icao":"KJFK","metar":"KJFK 272251Z 05012KT 10SM FEW050 BKN110 BKN160 BKN250 07/M06 A3010 RMK AO2 SLP192 T00721056","updated":"2026-03-27T23:31:14Z"}
