{"icao":"LPPR","metar":"LPPR 072000Z 31006KT 260V340 9999 FEW023 16/13 Q1017","updated":"2025-11-07T20:18:15Z"}
