{"icao":"LPOV","metar":"LPOV 070500Z VRB01KT CAVOK 13/12 Q1020","updated":"2025-10-07T05:16:39Z"}
