{"icao":"LPLA","metar":"LPLA 021900Z 06005KT 030V100 9999 FEW018 OVC025 15/11 Q1030","updated":"2026-04-02T19:50:36Z"}
