{"icao":"LPHR","metar":"LPHR 021230Z 29022KT 9999 SCT018 SCT040 15/09 Q1016","updated":"2026-02-02T12:57:13Z"}
