{"icao":"LPMA","metar":"LPMA 051130Z 03014KT 360V060 9999 -DZ FEW005 BKN014 17/15 Q1017","updated":"2026-05-05T12:00:21Z"}
