{"icao":"LPLA","metar":"LPLA 250700Z 14003KT 120V180 9999 FEW020 11/10 Q1014","updated":"2026-04-25T07:13:42Z"}
