{"icao":"LPFL","metar":"LPFL 262000Z 36015KT 340V050 9999 SCT030 19/10 Q1022","updated":"2025-09-26T20:18:56Z"}
