{"icao":"LPFL","metar":"LPFL 282100Z 29010G20KT 180V340 9999 FEW018 FEW020CB 16/09 Q1005","updated":"2026-01-29T04:08:24Z"}
