{"icao":"KORD","metar":"KORD 141651Z 22007KT 10SM CLR 14/04 A2997 RMK AO2 SLP150 T01440039 $","updated":"2025-11-14T17:17:01Z"}
