{"icao":"LPPS","metar":"LPPS 281800Z 02015KT 360V060 9999 SCT015 BKN030 15/08 Q1026","updated":"2026-02-28T18:31:35Z"}
