{"icao":"LPMT","metar":"LPMT 040900Z 02010KT 9999 FEW035 13/11 Q1001","updated":"2026-01-04T09:18:32Z"}
