{"icao":"KLAX","metar":"KLAX 061753Z 18003KT 8SM FEW009 BKN019 20/15 A2985 RMK AO2 SLP107 T02000150 10200 20161 50006 $","updated":"2025-10-06T18:26:06Z"}
