{"icao":"LPHR","metar":"LPHR 062300Z 32005KT 9999 SCT018 11/05 Q1028","updated":"2026-04-06T23:34:16Z"}
