{"icao":"LPCS","metar":"LPCS 241300Z 21006KT 190V250 CAVOK 25/06 Q1017","updated":"2025-09-24T13:27:05Z"}
