{"icao":"LPAZ","metar":"LPAZ 071900Z 23013KT 8000 FEW005 SCT013 16/15 Q1016","updated":"2026-02-07T19:23:02Z"}
