{"icao":"LPOV","metar":"LPOV 051800Z 24005KT 190V300 4000 -SHRA BR SCT016 FEW020CB BKN022 13/12 Q1006 RESHRA","updated":"2025-11-05T18:26:45Z"}
