{"icao":"LPFR","metar":"LPFR 102230Z 28008KT CAVOK 16/14 Q1013","updated":"2026-04-10T22:35:41Z"}
