{"icao":"LPMT","metar":"LPMT 300600Z 18003KT 160V220 9999 SCT035 12/11 Q1013","updated":"2026-01-30T06:46:24Z"}
