{"icao":"KLAX","metar":"KLAX 080553Z 09004KT 10SM FEW180 17/10 A3015 RMK AO2 SLP209 T01720100 10217 20167 51007 $","updated":"2026-02-08T06:48:59Z"}
