{"icao":"LPMR","metar":"LPMR 202300Z 22009KT 6000 BKN008 BKN015 19/19 Q1014","updated":"2025-10-20T23:15:57Z"}
