{"icao":"LPST","metar":"LPST 131000Z VRB01KT CAVOK 25/13 Q1017","updated":"2025-10-13T10:20:57Z"}
