{"icao":"KORD","metar":"KORD 221451Z 02018G29KT 10SM BKN014 BKN200 BKN250 05/01 A2978 RMK AO2 PK WND 03033/1434 SLP083 T00500011 53025","updated":"2026-03-22T15:24:56Z"}
