{"icao":"LPBJ","metar":"LPBJ 022200Z 26006KT CAVOK 20/12 Q1021","updated":"2025-10-02T22:15:53Z"}
