{"icao":"LPMR","metar":"LPMR 240700Z 26001KT 8000 FEW005 03/03 Q1009","updated":"2025-12-24T07:22:29Z"}
