{"icao":"LPPD","metar":"LPPD 120300Z 02006KT 340V060 9999 FEW018 SCT030 13/09 Q1024","updated":"2026-05-12T03:31:30Z"}
