{"icao":"LPAZ","metar":"LPAZ 131100Z 28011KT 9999 FEW026 BKN038 17/11 Q1032","updated":"2025-12-13T11:14:56Z"}
