{"icao":"LPPR","metar":"LPPR 142030Z VRB02KT 9000 SCT004 BKN005 BKN014 14/13 Q1024","updated":"2026-04-14T20:52:30Z"}
