{"icao":"LPMT","metar":"LPMT 190400Z 20002KT CAVOK 10/10 Q1017","updated":"2025-11-19T04:22:15Z"}
