{"icao":"KORD","metar":"KORD 171451Z 15009KT 10SM BKN250 20/13 A2990 RMK AO2 SLP123 T02000133 58006 $","updated":"2026-04-17T14:53:58Z"}
