{"icao":"KORD","metar":"KORD 181751Z 18021G30KT 10SM OVC010 10/08 A2931 RMK AO2 PK WND 19035/1712 SLP928 60003 T01000078 10100 20067 58050","updated":"2025-12-18T18:30:26Z"}
