{"icao":"KORD","metar":"KORD 061051Z 14003KT 8SM BKN090 03/01 A2954 RMK AO2 SLP008 T00330011","updated":"2026-01-06T11:18:11Z"}
