{"icao":"KJFK","metar":"KJFK 071751Z 34010G18KT 10SM FEW065 FEW120 FEW250 17/M01 A2980 RMK AO2 SLP089 T01721011 10178 20111 58019","updated":"2026-05-07T18:22:48Z"}
