{"icao":"LPFL","metar":"LPFL 181400Z 34009KT 310V010 9999 SCT030 21/14 Q1017","updated":"2025-09-18T14:17:35Z"}
