{"icao":"LPMT","metar":"LPMT 192200Z 25007KT 9999 FEW008 BKN028 20/19 Q1014","updated":"2025-10-19T22:16:01Z"}
