{"icao":"LPFR","metar":"LPFR 052200Z 24013KT 9999 FEW025 15/12 Q1006","updated":"2026-02-05T22:25:09Z"}
