{"icao":"KORD","metar":"KORD 240551Z 00000KT 10SM FEW250 03/M02 A3015 RMK AO2 SLP213 T00281022 10083 20028 401330028 51003","updated":"2025-11-24T06:30:06Z"}
