{"icao":"LPPS","metar":"LPPS 090400Z 06007KT 020V100 9999 FEW015 BKN030 21/16 Q1024","updated":"2025-10-09T04:21:43Z"}
