{"icao":"LPPD","metar":"LPPD 301730Z 11011KT 9999 FEW016 BKN023 21/17 Q1031","updated":"2026-06-30T17:51:46Z"}
