{"icao":"LPPR","metar":"LPPR 301230Z 27008KT 210V320 9999 FEW020 BKN046 13/11 Q1006","updated":"2026-01-30T12:53:01Z"}
