{"icao":"LPMT","metar":"LPMT 131500Z 26011KT 9999 FEW025 SCT030 16/11 Q1010","updated":"2026-01-13T15:23:53Z"}
