{"icao":"KJFK","metar":"KJFK 250451Z 10008KT 10SM FEW015 BKN090 OVC250 09/07 A2997 RMK SLP149 T00940067 401890089 $ ","updated":"2026-04-25T05:10:58Z"}
