{"icao":"LPMA","metar":"LPMA 141900Z 01011KT 340V050 9999 FEW018 16/08 Q1032","updated":"2026-02-14T19:23:00Z"}
