{"icao":"LPFR","metar":"LPFR 100830Z 22012KT 9999 FEW018 FEW020TCU 18/14 Q1013","updated":"2026-05-10T08:52:18Z"}
