{"icao":"LPMA","metar":"LPMA 181230Z 05008KT 020V080 9999 FEW016 25/19 Q1019","updated":"2025-09-18T12:35:37Z"}
