{"icao":"LPCS","metar":"LPCS 260900Z 20007KT 9999 FEW007 SCT019 21/18 Q1019","updated":"2026-06-26T09:22:32Z"}
