{"icao":"KORD","metar":"KORD 251651Z 02007KT 10SM SCT032 22/13 A2995 RMK AO2 SLP141 T02170128","updated":"2025-09-25T17:15:12Z"}
