{"icao":"KLAX","metar":"KLAX 031253Z 06006KT 10SM FEW008 BKN010 14/11 A2999 RMK AO2 SLP155 T01390111","updated":"2026-03-03T12:56:03Z"}
