{"icao":"LPMA","metar":"LPMA 101300Z 23013KT 180V330 9999 FEW015 20/09 Q1015","updated":"2026-05-10T13:15:37Z"}
