{"icao":"KLAX","metar":"KLAX 032053Z 00000KT 10SM FEW027 SCT250 19/11 A3002 RMK AO2 SLP166 PRESFR T01890106","updated":"2025-12-03T21:17:34Z"}
