{"icao":"LPCS","metar":"LPCS 191300Z 02011KT 340V070 9999 FEW012 SCT025 14/10 Q1020","updated":"2025-12-19T13:32:09Z"}
