{"icao":"LPFL","metar":"LPFL 191800Z 33016G28KT 300V010 9999 FEW018 14/07 Q1030","updated":"2025-12-19T18:28:27Z"}
