{"icao":"LPMA","metar":"LPMA 182300Z 01015KT 330V050 9999 SCT015 15/09 Q1023","updated":"2026-01-18T23:19:08Z"}
