{"icao":"LPOV","metar":"LPOV 051000Z 35004KT 9000 -SHRA FEW012 BKN030 14/11 Q1017","updated":"2026-05-05T10:44:46Z"}
