{"icao":"KLAX","metar":"KLAX 111053Z 00000KT 9SM CLR 17/16 A2977 RMK AO2 SLP079 T01720156 $","updated":"2025-10-11T11:13:06Z"}
