{"icao":"LPMA","metar":"LPMA 122300Z 35005KT 270V040 9999 SCT015 BKN030 20/16 Q1020","updated":"2026-06-12T23:15:23Z"}
