{"icao":"KJFK","metar":"KJFK 181751Z 08005KT 1 1/2SM BR OVC004 03/03 A2977 RMK AO2 SFC VIS 4 PRESFR SLP082 4/001 60003 T00330028 10033 20006 58056 $","updated":"2026-02-18T18:53:17Z"}
