{"icao":"LPCS","metar":"LPCS 271900Z 24003KT 9999 FEW022 19/16 Q1019","updated":"2025-10-27T19:13:55Z"}
