{"icao":"LPMT","metar":"LPMT 231700Z 27007KT CAVOK 18/09 Q1021","updated":"2026-02-23T18:00:20Z"}
