{"icao":"KORD","metar":"KORD 282051Z 29011G19KT 10SM FEW035 FEW120 M08/M19 A3012 RMK AO2 SLP214 T10831189 56012","updated":"2026-01-28T21:28:20Z"}
