{"icao":"LPHR","metar":"LPHR 240700Z 05005KT 9999 SCT012 BKN025 16/15 Q1022","updated":"2025-12-24T07:22:44Z"}
