{"icao":"LPBJ","metar":"LPBJ 012300Z 33004KT CAVOK 19/12 Q1020","updated":"2025-10-01T23:15:35Z"}
