{"icao":"LPHR","metar":"LPHR 071230Z 24017KT 9999 SCT025 BKN070 18/13 Q1011","updated":"2025-12-07T12:34:55Z"}
