{"icao":"LPPD","metar":"LPPD 121230Z 32008KT 290V350 9999 SCT020 FEW022CB 15/08 Q1000","updated":"2025-11-12T12:39:29Z"}
