{"icao":"LPMT","metar":"LPMT 081700Z 19009KT 9999 SCT030 19/09 Q1006","updated":"2026-05-08T17:15:19Z"}
