{"icao":"KORD","metar":"KORD 222151Z 33011G20KT 10SM -SN OVC037 M04/M12 A3029 RMK AO2 SLP269 P0000 T10391122 $","updated":"2026-02-22T22:23:08Z"}
