{"icao":"KORD","metar":"KORD 271751Z 08010G17KT 10SM FEW030 SCT250 13/01 A3021 RMK AO2 SLP232 T01330011 10133 20072 58014","updated":"2025-10-27T18:27:30Z"}
