{"icao":"LPHR","metar":"LPHR 042300Z 29034G53KT 6000 SHRA BKN014 SCT018TCU SCT035 11/08 Q0998","updated":"2026-02-04T23:26:03Z"}
