{"icao":"LPBJ","metar":"LPBJ 040500Z 31006KT CAVOK 12/12 Q1022","updated":"2025-10-04T05:15:26Z"}
