{"icao":"LPPR","metar":"LPPR 280800Z 02012KT 340V040 9999 FEW025 19/14 Q1011","updated":"2025-09-28T08:19:41Z"}
