{"icao":"LPPT","metar":"LPPT 171430Z 25005KT 200V280 9999 BKN026 15/09 Q1026","updated":"2026-02-17T14:42:39Z"}
