{"icao":"LPLA","metar":"LPLA 222100Z 23009KT 200V260 9999 -RA FEW007 SCT014 BKN040 22/19 Q1020","updated":"2025-09-22T21:14:48Z"}
