{"icao":"LPMA","metar":"LPMA 301330Z 17005KT 120V210 9999 FEW015 21/15 Q1024","updated":"2026-01-30T13:55:04Z"}
