{"icao":"LPLA","metar":"LPLA 242100Z 08007KT 040V130 9999 OVC025 14/07 Q1031","updated":"2026-03-24T21:36:39Z"}
