{"icao":"LPPR","metar":"LPPR 222000Z 32007KT 9999 -RA FEW011 SCT018 BKN044 10/09 Q1012","updated":"2025-12-22T20:21:07Z"}
