{"icao":"KORD","metar":"KORD 092103Z 00000KT 10SM BKN022 07/01 A3009 RMK AO2 T00670011","updated":"2026-01-09T21:20:28Z"}
