{"icao":"LPMT","metar":"LPMT 281100Z 32011G23KT 280V340 8000 VCSH SCT018 BKN022 20/16 Q1014","updated":"2025-09-28T11:12:58Z"}
