{"icao":"LPLA","metar":"LPLA 242300Z 13002KT 9999 FEW015 BKN045 17/14 Q1027","updated":"2025-11-24T23:17:13Z"}
