{"icao":"LPMT","metar":"LPMT 270200Z 34006KT CAVOK 12/09 Q1024","updated":"2026-02-27T04:18:16Z"}
