{"icao":"LPFL","metar":"LPFL 111600Z 33018G38KT 280V350 9999 VCSH SCT028 16/08 Q1008","updated":"2025-11-11T16:24:07Z"}
