{"icao":"KORD","metar":"KORD 031751Z 29013G21KT 10SM FEW250 14/M03 A3014 RMK AO2 SLP208 T01391028 10144 20061 50008 $","updated":"2025-11-03T18:27:06Z"}
