{"icao":"KORD","metar":"KORD 301951Z 34007KT 1/4SM R10L/1800V3500FT +SN FZFG VV009 M08/M10 A3036 RMK AO2 SLP293 P0003 T10831100","updated":"2026-01-30T20:28:37Z"}
