{"icao":"LPHR","metar":"LPHR 121700Z 33017G30KT 290V010 9999 -SHRA SCT025 FEW030CB SCT070 15/09 Q1005 WS R28","updated":"2025-11-12T17:17:54Z"}
