{"icao":"LPAZ","metar":"LPAZ 241300Z 02012KT 350V050 9999 FEW022 BKN035 22/16 Q1021","updated":"2025-09-24T13:27:08Z"}
