{"icao":"LPMT","metar":"LPMT 161100Z 29004KT 250V330 CAVOK 24/13 Q1015","updated":"2025-10-16T11:15:16Z"}
