{"icao":"KLAX","metar":"KLAX 240853Z 25004KT 8SM FEW003 BKN005 20/18 A2993 RMK AO2 SLP131 T02000183 51005 $","updated":"2025-09-24T09:18:54Z"}
