{"icao":"LPPT","metar":"LPPT 140900Z 03013KT CAVOK 12/08 Q1019","updated":"2025-12-14T09:18:37Z"}
