{"icao":"LPPD","metar":"LPPD 052000Z 22017G28KT 200V260 9999 FEW018 BKN040 15/11 Q1014","updated":"2026-04-05T20:32:02Z"}
