{"icao":"LPCS","metar":"LPCS 141100Z 35021KT 9999 FEW032 13/05 Q1028","updated":"2026-02-14T11:20:59Z"}
