{"icao":"LPFR","metar":"LPFR 141700Z 25007KT 220V280 CAVOK 25/18 Q1018","updated":"2025-09-14T17:12:40Z"}
