{"icao":"KJFK","metar":"KJFK 202051Z 27015G25KT 10SM FEW050 M06/M17 A3034 RMK AO2 PK WND 27026/2030 SLP275 T10611172 53012 $","updated":"2026-01-20T21:19:59Z"}
