{"icao":"KORD","metar":"KORD 061151Z 29006KT 10SM OVC037 M02/M05 A2984 RMK AO2 SLP113 4/004 T10221050 11022 21033 53019","updated":"2025-12-06T12:36:21Z"}
