{"icao":"LPLA","metar":"LPLA 101600Z 05005KT 340V120 9999 FEW030 15/08 Q1033","updated":"2026-03-10T17:00:45Z"}
