{"icao":"LPPR","metar":"LPPR 241400Z 31005KT 280V340 8000 -SHRA FEW004 SCT015 FEW018CB BKN040 10/08 Q1009","updated":"2026-01-24T14:18:34Z"}
