{"icao":"KJFK","metar":"KJFK 161651Z 06014KT 10SM FEW041 SCT160 BKN220 24/11 A3022 RMK AO2 SLP234 T02440111 $","updated":"2025-09-16T17:15:16Z"}
