{"icao":"LPPD","metar":"LPPD 041600Z 28024KT 9999 FEW014 FEW027TCU 19/12 Q1006","updated":"2025-11-04T16:22:07Z"}
