{"icao":"LPPS","metar":"LPPS 021930Z 03015KT 9999 SCT012 16/13 Q1022","updated":"2026-04-02T19:50:39Z"}
