{"icao":"KORD","metar":"KORD 210951Z 10004KT 10SM SCT150 BKN180 OVC250 07/02 A2993 RMK AO2 SLP136 T00670022","updated":"2026-03-21T10:24:57Z"}
