{"icao":"LPPD","metar":"LPPD 260130Z 22026KT 9000 FEW006 SCT010 BKN018 17/15 Q1009","updated":"2026-01-26T01:50:12Z"}
