{"icao":"KJFK","metar":"KJFK 112151Z 27021G26KT 10SM SCT055 SCT100 SCT200 06/M06 A2981 RMK AO2 PK WND 31028/2115 SLP093 VIRGA DSNT S T00561056","updated":"2026-01-11T22:18:38Z"}
