{"icao":"LPCS","metar":"LPCS 241700Z 17009KT 140V200 8000 FEW008 BKN018 14/12 Q1015","updated":"2026-02-24T17:08:32Z"}
