{"icao":"LPPD","metar":"LPPD 100600Z 36012G22KT 330V100 9999 SCT018 SCT030 13/11 Q1017","updated":"2026-05-10T06:11:00Z"}
