{"icao":"LPMR","metar":"LPMR 282000Z 34007KT CAVOK 15/09 Q1026","updated":"2026-03-28T20:29:04Z"}
