{"icao":"KLAX","metar":"KLAX 020853Z 27005KT 7SM OVC008 15/13 A2993 RMK AO2 SLP135 T01500133 58004","updated":"2026-05-02T09:05:01Z"}
