{"icao":"LPST","metar":"LPST 251200Z 18015KT 4000 BR FEW006 SCT009 BKN015 20/20 Q1016","updated":"2026-06-25T12:19:05Z"}
