{"icao":"LPMT","metar":"LPMT 280200Z 27004KT CAVOK 16/14 Q1009","updated":"2026-04-28T02:47:22Z"}
