{"icao":"LPPT","metar":"LPPT 211300Z 24010KT 220V280 4000 -DZRA BR FEW004 BKN008 21/20 Q1015","updated":"2025-10-21T13:32:24Z"}
