{"icao":"LPLA","metar":"LPLA 210900Z 35014KT 9000 -RA SCT014 BKN020 13/11 Q1016","updated":"2026-03-21T09:30:20Z"}
