{"icao":"LPMR","metar":"LPMR 280400Z 15008KT 9999 FEW035 18/09 Q1016","updated":"2025-10-28T04:20:57Z"}
