{"icao":"LPMA","metar":"LPMA 172200Z 30004KT 240V330 9999 SCT014 15/11 Q1026","updated":"2026-02-17T22:29:51Z"}
