{"icao":"LPLA","metar":"LPLA 031300Z 23009KT 200V260 9999 FEW022 26/20 Q1022","updated":"2025-10-03T13:24:27Z"}
