{"icao":"LPPS","metar":"LPPS 290100Z 04009KT 9999 FEW015 BKN030 21/15 Q1024","updated":"2025-09-29T01:20:30Z"}
