{"icao":"LPMA","metar":"LPMA 271100Z 04013KT 360V060 9999 SCT016 20/10 Q1023","updated":"2025-11-27T11:17:03Z"}
