{"icao":"LPFR","metar":"LPFR 230700Z 09013KT CAVOK 24/07 Q1019","updated":"2026-05-23T07:30:03Z"}
