{"icao":"LPMR","metar":"LPMR 122300Z VRB01KT CAVOK 16/10 Q1016","updated":"2025-10-12T23:14:39Z"}
