{"icao":"LPBJ","metar":"LPBJ 060800Z 20005KT 0700 FG BKN003 SCT040 12/12 Q1025","updated":"2025-12-06T08:22:57Z"}
