{"icao":"KJFK","metar":"KJFK 281851Z 23006KT 10SM SCT170 BKN250 M06/M16 A3007 RMK AO2 SLP182 T10611161 $","updated":"2026-01-28T19:27:01Z"}
