{"icao":"LPCS","metar":"LPCS 191700Z 35012KT 9999 FEW014 SCT033 13/08 Q1020","updated":"2025-12-19T17:17:42Z"}
