{"icao":"LPPT","metar":"LPPT 222130Z 30008KT CAVOK 14/10 Q1014","updated":"2026-04-22T21:49:34Z"}
