{"icao":"LPCS","metar":"LPCS 131900Z 35011KT CAVOK 22/11 Q1016","updated":"2025-10-13T19:13:10Z"}
