{"icao":"LPFR","metar":"LPFR 161100Z 12009KT CAVOK 27/17 Q1021","updated":"2025-09-16T11:14:01Z"}
