{"icao":"LPFL","metar":"LPFL 111300Z 20016KT 170V240 9999 FEW018 17/11 Q1013","updated":"2026-02-11T13:07:18Z"}
