{"icao":"KLAX","metar":"KLAX 240553Z 12004KT 10SM CLR 15/11 A3010 RMK AO2 SLP191 T01500111 10200 20150 51002","updated":"2026-02-24T05:58:06Z"}
