{"icao":"LPAZ","metar":"LPAZ 260500Z 22028KT 7000 SCT012 BKN022 17/16 Q1008","updated":"2026-01-26T05:32:07Z"}
