{"icao":"KORD","metar":"KORD 150451Z 23010KT 10SM FEW160 FEW250 M16/M21 A3052 RMK AO2 SLP351 T11611211","updated":"2025-12-15T05:24:20Z"}
