{"icao":"KLAX","metar":"KLAX 240653Z 28007KT 10SM BKN008 BKN011 18/16 A3003 RMK AO2 SLP166 T01780156 $","updated":"2026-06-24T07:39:20Z"}
