{"icao":"KORD","metar":"KORD 140251Z 26008KT 10SM BKN038 06/02 A2957 RMK AO2 SLP018 T00610017 53012 $","updated":"2026-01-14T03:46:09Z"}
