{"icao":"KORD","metar":"KORD 120751Z 17008KT 10SM SCT110 BKN250 14/05 A3006 RMK AO2 SLP181 T01390050 $","updated":"2026-04-12T08:46:40Z"}
