{"icao":"LPHR","metar":"LPHR 231530Z 13008KT 9999 FEW015 22/19 Q1023","updated":"2026-06-23T15:46:27Z"}
