{"icao":"LPMA","metar":"LPMA 301300Z 02011KT 320V090 9999 FEW015 22/14 Q1025","updated":"2026-05-30T13:26:20Z"}
