{"icao":"LPFL","metar":"LPFL 200900Z 27015G31KT 210V360 8000 -DZ FEW009 SCT016 18/15 Q1023","updated":"2026-01-20T09:31:36Z"}
