{"icao":"KLAX","metar":"KLAX 261253Z 10005KT 2 1/2SM BR FEW004 OVC006 15/14 A2996 RMK AO2 SLP143 VIS SW-NW 1 1/2 T01500139 $","updated":"2026-03-26T13:12:55Z"}
