{"icao":"LPPR","metar":"LPPR 102300Z 10008KT CAVOK 21/10 Q1021","updated":"2025-10-10T23:15:08Z"}
