{"icao":"LPLA","metar":"LPLA 150500Z 23003KT 190V250 9999 BKN045 13/08 Q1022","updated":"2026-04-15T05:22:35Z"}
