{"icao":"LPCS","metar":"LPCS 201030Z 10006KT 070V150 CAVOK 23/11 Q1012","updated":"2026-04-20T10:46:43Z"}
