{"icao":"LPPS","metar":"LPPS 310800Z 19003KT 120V270 9999 FEW010 17/15 Q1017","updated":"2025-12-31T08:28:28Z"}
