{"icao":"LPMT","metar":"LPMT 291300Z 01008KT 9999 FEW035 26/14 Q1015","updated":"2025-09-29T13:27:56Z"}
