{"icao":"LPLA","metar":"LPLA 032100Z 08009KT 050V110 9999 SCT023 15/09 Q1024","updated":"2026-05-03T21:40:07Z"}
