{"icao":"KORD","metar":"KORD 041151Z 22007KT 10SM CLR 20/15 A3012 RMK AO2 SLP195 T02000150 10217 20200 51005 $","updated":"2025-10-04T12:32:08Z"}
