{"icao":"LPPD","metar":"LPPD 271530Z 13011KT 9999 FEW007 BKN035 18/16 Q1020","updated":"2026-04-27T15:47:00Z"}
