{"icao":"LPPR","metar":"LPPR 250700Z 00000KT CAVOK 06/05 Q1022","updated":"2025-11-25T07:18:42Z"}
