{"icao":"LPHR","metar":"LPHR 241100Z 25024G34KT 9000 -SHRA FEW011 SCT020 BKN050 16/12 Q1021","updated":"2026-01-24T11:17:10Z"}
