{"icao":"LPMR","metar":"LPMR 100700Z 12004KT CAVOK 13/11 Q1021","updated":"2025-10-10T07:16:55Z"}
