{"icao":"LPBJ","metar":"LPBJ 261300Z 28005KT 190V360 CAVOK 28/02 Q1019","updated":"2025-09-26T13:25:56Z"}
