{"icao":"LPOV","metar":"LPOV 070900Z 11004KT 3000 RADZ BR FEW002 BKN008 FEW015CB BKN030 15/15 Q1013 RERADZ","updated":"2025-11-07T09:19:04Z"}
