{"icao":"KJFK","metar":"KJFK 302051Z 36017G26KT 10SM BKN037 BKN050 15/06 A3000 RMK AO2 PK WND 03031/2002 SLP159 60000 T01500056 53018 $","updated":"2026-05-30T20:54:49Z"}
