{"icao":"LPLA","metar":"LPLA 200800Z VRB03KT 9999 SCT025 19/09 Q1029","updated":"2025-09-20T08:20:14Z"}
