{"icao":"KORD","metar":"KORD 020702Z 10015KT 4SM RA BR OVC009 04/02 A3004 RMK AO2 P0004 T00390022","updated":"2026-04-02T07:11:05Z"}
