{"icao":"LPCS","metar":"LPCS 171100Z 28006KT 240V310 9999 -SHRA FEW015 FEW020CB SCT040 12/08 Q1014","updated":"2026-01-17T11:15:58Z"}
