{"icao":"KORD","metar":"KORD 050851Z 27014G23KT 10SM FEW034 BKN050 04/M03 A2999 RMK AO2 SLP157 T00391028 53006 $","updated":"2026-04-05T09:37:40Z"}
