{"icao":"LPBJ","metar":"LPBJ 211100Z 07007KT CAVOK 15/08 Q1030","updated":"2026-02-21T11:20:41Z"}
