{"icao":"LPFR","metar":"LPFR 151500Z 30012KT 9999 SCT028 16/09 Q1031","updated":"2026-02-15T15:24:34Z"}
