{"icao":"LPPT","metar":"LPPT 141500Z 25012KT 9999 FEW018 FEW024TCU 15/12 Q1002 WS R20","updated":"2025-11-14T15:17:10Z"}
