{"icao":"LPHR","metar":"LPHR 011500Z 29029KT 9999 SCT020 FEW025TCU BKN040 14/06 Q1009 WS R28","updated":"2026-02-01T15:23:36Z"}
