{"icao":"LPAZ","metar":"LPAZ 021600Z 32036G47KT 9999 FEW024 FEW026TCU 15/10 Q1002","updated":"2026-01-02T16:24:18Z"}
