{"icao":"KJFK","metar":"KJFK 010451Z 28016G27KT 10SM FEW060 12/M01 A2967 RMK AO2 PK WND 28036/0404 SLP046 T01171011 401500111 $","updated":"2025-11-01T05:16:35Z"}
