{"icao":"LPFL","metar":"LPFL 211330Z 16004KT 120V190 9999 FEW017 SCT033 15/10 Q1021","updated":"2026-02-21T13:40:46Z"}
