{"icao":"LPOV","metar":"LPOV 271100Z 01005KT CAVOK 18/03 Q1020","updated":"2026-03-27T11:40:16Z"}
