{"icao":"LPMT","metar":"LPMT 160300Z 20003KT 170V250 9999 FEW025 14/14 Q1011","updated":"2025-11-16T03:16:52Z"}
