{"icao":"LPLA","metar":"LPLA 300400Z 29008KT 260V320 9999 SCT025 15/08 Q1016","updated":"2026-01-30T04:10:17Z"}
