{"icao":"LPMT","metar":"LPMT 080700Z 32006KT 280V360 9999 FEW045 17/14 Q1022","updated":"2025-10-08T07:17:05Z"}
