{"icao":"KJFK","metar":"KJFK 171751Z 05012G20KT 10SM -RA BKN020 OVC028 21/16 A3006 RMK AO2 RAB01 SLP179 P0000 60000 T02060161 10211 20183 58017 $","updated":"2025-09-17T18:24:41Z"}
