{"icao":"LPPR","metar":"LPPR 251700Z 25004KT 220V290 8000 FEW020 SCT030 13/10 Q1012","updated":"2026-01-25T17:16:47Z"}
