{"icao":"LPHR","metar":"LPHR 151200Z 31009KT 280V350 9999 FEW033 17/08 Q1017","updated":"2025-11-15T12:34:17Z"}
