{"icao":"KJFK","metar":"KJFK 170851Z 00000KT 10SM FEW075 SCT170 SCT250 17/13 A2976 RMK AO2 SLP078 T01720128 53006","updated":"2026-04-17T09:16:39Z"}
