{"icao":"LPBJ","metar":"LPBJ 162100Z 24006KT CAVOK 25/11 Q1020","updated":"2025-09-16T21:15:09Z"}
