{"icao":"LPPD","metar":"LPPD 301700Z 26008KT 220V310 9999 SCT020 FEW025CB 17/12 Q1008","updated":"2026-04-30T17:19:11Z"}
