{"icao":"LPMA","metar":"LPMA 161630Z 01009G24KT 310V080 9999 SCT015 FEW016TCU 19/11 Q1023","updated":"2026-05-16T17:02:04Z"}
