{"icao":"LPOV","metar":"LPOV 221000Z 32003KT 300V010 8000 NSC 11/10 Q1029","updated":"2026-02-22T10:23:15Z"}
