{"icao":"LPBJ","metar":"LPBJ 081900Z 35004KT CAVOK 14/09 Q1022","updated":"2025-11-08T19:13:06Z"}
