{"icao":"LPMR","metar":"LPMR 140700Z 23001KT 2000 BR BKN008 BKN014 14/14 Q1023","updated":"2026-04-14T07:43:18Z"}
