{"icao":"LPMT","metar":"LPMT 301900Z 34010KT CAVOK 21/14 Q1020","updated":"2026-05-30T19:12:32Z"}
