{"icao":"KJFK","metar":"KJFK 171851Z 27019G30KT 10SM SCT055 SCT250 05/M11 A2988 RMK AO2 PK WND 26031/1826 SLP117 T00501111","updated":"2026-03-17T19:06:37Z"}
