{"icao":"LPMT","metar":"LPMT 080400Z 33003KT CAVOK 16/14 Q1022","updated":"2025-10-08T04:20:26Z"}
