{"icao":"LPFR","metar":"LPFR 100100Z 20008KT 8000 -RA FEW018 BKN035 17/16 Q1018","updated":"2025-12-10T01:28:01Z"}
