{"icao":"KLAX","metar":"KLAX 051453Z 04009KT 10SM FEW090 SCT160 BKN220 17/M03 A3004 RMK AO2 SLP168 T01721028 53006 $","updated":"2026-02-05T15:39:40Z"}
