{"icao":"KLAX","metar":"KLAX 232253Z 26010KT 10SM CLR 20/14 A3000 RMK AO2 SLP158 T02000139","updated":"2025-10-23T23:16:05Z"}
