{"icao":"LPPT","metar":"LPPT 152230Z 32008KT CAVOK 13/11 Q1023","updated":"2026-04-15T22:39:31Z"}
