{"icao":"LPMT","metar":"LPMT 180300Z VRB03KT CAVOK 16/13 Q1015","updated":"2025-10-18T03:27:04Z"}
