{"icao":"LPAR","metar":"LPAR 251600Z 23014KT 9999 BKN025 24/18 Q1016","updated":"2026-06-26T05:06:46Z"}
