{"icao":"LPST","metar":"LPST 270700Z 10007KT CAVOK 20/13 Q1019","updated":"2026-05-27T08:01:54Z"}
