{"icao":"LPMR","metar":"LPMR 262100Z 17001KT CAVOK 08/07 Q1026","updated":"2025-11-26T21:16:32Z"}
