{"icao":"LPMR","metar":"LPMR 032200Z 35008KT 9999 OVC006 17/15 Q1024","updated":"2025-10-03T22:15:14Z"}
