{"icao":"LPCS","metar":"LPCS 220900Z 04004KT CAVOK 14/08 Q1028","updated":"2026-02-22T09:29:01Z"}
