{"icao":"LPMT","metar":"LPMT 120900Z 23007KT 180V250 9999 FEW018CB BKN020 18/13 Q1018","updated":"2026-05-12T09:36:47Z"}
