{"icao":"LPMT","metar":"LPMT 252200Z 35005KT CAVOK 09/05 Q1013","updated":"2025-12-25T22:18:35Z"}
