{"icao":"LPPR","metar":"LPPR 011230Z 19010KT 1100 0800N R17/P2000 -DZ PRFG SCT001 BKN002 14/14 Q1010","updated":"2026-02-01T12:47:12Z"}
