{"icao":"LPPT","metar":"LPPT 261830Z 32005KT CAVOK 18/14 Q1023","updated":"2026-02-26T18:55:44Z"}
