{"icao":"LPAZ","metar":"LPAZ 180730Z 35025KT 9999 -SHRA SCT025 FEW031TCU BKN040 08/04 Q1012","updated":"2026-03-18T07:51:39Z"}
