{"icao":"KLAX","metar":"KLAX 141653Z 10006KT 10SM FEW180 SCT280 22/11 A2995 RMK AO2 SLP141 ACSL DSNT N T02220106","updated":"2026-03-14T17:25:45Z"}
