{"icao":"LPHR","metar":"LPHR 211100Z 24016KT 8000 FEW007 23/22 Q1013","updated":"2025-10-21T11:15:13Z"}
