{"icao":"KLAX","metar":"KLAX 250053Z 26010KT 10SM FEW035 FEW080 15/09 A2991 RMK AO2 SLP128 T01500094 $","updated":"2026-01-25T01:50:48Z"}
