{"icao":"KJFK","metar":"KJFK 030951Z 03003KT 10SM FEW190 BKN250 08/07 A3021 RMK AO2 SLP229 T00830072 $","updated":"2025-11-03T10:21:57Z"}
