{"icao":"LPHR","metar":"LPHR 021130Z 08013KT 060V120 9999 SCT020 19/13 Q1020","updated":"2026-05-02T11:43:21Z"}
