{"icao":"LPCS","metar":"LPCS 160900Z 36010KT CAVOK 17/11 Q1021","updated":"2026-04-16T09:17:23Z"}
