{"icao":"LPHR","metar":"LPHR 291000Z 03003KT 350V080 9999 FEW015 SCT030 17/14 Q1030","updated":"2025-11-29T10:18:32Z"}
