{"icao":"LPCS","metar":"LPCS 151700Z 30004KT 220V340 9999 FEW006 SCT014 FEW018TCU 13/13 Q1007 RESHRA","updated":"2025-12-15T17:23:27Z"}
