{"icao":"KLAX","metar":"KLAX 061653Z 03004KT 10SM FEW011 FEW018 SCT120 BKN160 22/13 A3002 RMK AO2 SLP166 T02170133 $","updated":"2026-04-06T17:42:45Z"}
