{"icao":"LPFR","metar":"LPFR 082100Z 02006KT CAVOK 16/09 Q1022","updated":"2025-11-08T21:14:01Z"}
