{"icao":"LPMT","metar":"LPMT 140100Z 14001KT CAVOK 15/13 Q1016","updated":"2025-10-14T01:18:20Z"}
