{"icao":"LPAZ","metar":"LPAZ 302030Z 09008KT 060V130 9999 FEW012 13/10 Q1031","updated":"2026-03-30T20:54:08Z"}
