{"icao":"LPPS","metar":"LPPS 021530Z 26009KT 220V290 9999 FEW015 20/15 Q1019","updated":"2026-05-02T15:43:42Z"}
