{"icao":"LPPD","metar":"LPPD 241600Z 02008KT 9999 FEW016 BKN035 15/10 Q1022","updated":"2025-12-24T16:24:05Z"}
