{"icao":"KORD","metar":"KORD 261708Z 26023G40KT 10SM OVC028 01/M06 A2975 RMK AO2 PK WND 27040/1659 SNE07 P0000 T00061061","updated":"2025-11-26T17:17:47Z"}
