{"icao":"LPOV","metar":"LPOV 140700Z 36012KT 9999 FEW006 10/05 Q1021","updated":"2026-02-14T07:32:53Z"}
