{"icao":"LPPR","metar":"LPPR 152000Z 35009KT CAVOK 13/11 Q1021","updated":"2026-03-15T20:28:19Z"}
