{"icao":"LPPS","metar":"LPPS 141500Z 04012KT 350V090 9999 FEW015 BKN030 25/19 Q1023","updated":"2025-09-14T15:14:29Z"}
