{"icao":"KORD","metar":"KORD 262251Z 04008KT 10SM FEW010 SCT080 OVC100 17/14 A3004 RMK AO2 RAE26 SLP172 P0001 T01670144","updated":"2026-06-26T23:06:11Z"}
