{"icao":"KORD","metar":"KORD 131451Z VRB03KT 10SM FEW100 BKN250 06/M02 A3019 RMK AO2 SLP227 T00561022 53012","updated":"2025-11-13T15:21:18Z"}
