{"icao":"LPPS","metar":"LPPS 051500Z 36010KT 310V040 9999 FEW015 BKN030 23/17 Q1022","updated":"2025-10-05T15:15:15Z"}
