{"icao":"LPPR","metar":"LPPR 121900Z 19014KT 4500 -RADZ BR BKN005 FEW015CB 13/13 Q1012","updated":"2026-02-12T19:08:18Z"}
