{"icao":"LPMT","metar":"LPMT 091600Z 35008KT 9999 SCT035 23/07 Q1012","updated":"2026-04-09T17:06:04Z"}
