{"icao":"KORD","metar":"KORD 062051Z 20009KT 10SM FEW200 SCT250 BKN300 15/M06 A3002 RMK AO2 SLP167 T01501056 56033","updated":"2025-11-06T21:16:20Z"}
