{"icao":"LPHR","metar":"LPHR 162000Z 22015KT 8000 -RADZ FEW008 BKN012 18/17 Q1023","updated":"2025-12-16T20:23:09Z"}
