{"icao":"KJFK","metar":"KJFK 030051Z 15005KT 10SM BKN250 14/08 A3047 RMK AO2 SLP317 T01390078","updated":"2025-10-03T01:16:33Z"}
