{"icao":"LPLA","metar":"LPLA 191900Z 20018KT 9000 -RADZ FEW007 SCT018 17/15 Q1019","updated":"2026-02-19T19:37:37Z"}
