{"icao":"LPOV","metar":"LPOV 160000Z 07003KT 0300 FG OVC001 15/15 Q1017","updated":"2025-10-16T01:19:47Z"}
