{"icao":"KJFK","metar":"KJFK 112151Z 09011G21KT 10SM SCT021 BKN029 BKN085 18/14 A3016 RMK AO2 PK WND 10026/2107 SLP213 T01780139","updated":"2025-10-11T22:14:52Z"}
