{"icao":"LPPR","metar":"LPPR 080700Z 00000KT 7000 FEW020 BKN030 15/14 Q1022","updated":"2025-10-08T07:17:03Z"}
