{"icao":"LPBJ","metar":"LPBJ 141400Z VRB03KT 9999 FEW048 30/09 Q1016","updated":"2025-10-14T14:18:30Z"}
