{"icao":"LPAZ","metar":"LPAZ 060130Z 09007KT 9999 FEW026 BKN037 12/05 Q1034","updated":"2026-03-06T02:00:24Z"}
