{"icao":"LPPS","metar":"LPPS 131000Z 36006KT 300V030 9999 FEW015 23/15 Q1018","updated":"2025-10-13T10:21:14Z"}
