{"icao":"KORD","metar":"KORD 031951Z 20017G28KT 10SM FEW100 FEW130 SCT250 18/03 A2977 RMK AO2 PK WND 21037/1934 SLP081 T01780028 $","updated":"2026-05-03T20:41:52Z"}
