{"icao":"LPPR","metar":"LPPR 052000Z 35004KT 300V030 9999 -SHRA SCT021 FEW024CB SCT032 12/11 Q1008","updated":"2025-11-05T20:21:01Z"}
