{"icao":"LPPS","metar":"LPPS 281830Z 03011KT 360V090 9999 SCT015 BKN030 16/11 Q1024","updated":"2026-03-28T18:39:16Z"}
