{"icao":"LPLA","metar":"LPLA 031900Z 33004KT 310V010 9999 SCT025 BKN030 15/09 Q1023","updated":"2026-04-03T19:37:30Z"}
