{"icao":"KORD","metar":"KORD 091951Z 24012G18KT 10SM FEW015 BKN110 OVC250 02/M02 A2963 RMK AO2 SLP043 T00171022","updated":"2025-12-09T20:19:50Z"}
