{"icao":"KJFK","metar":"KJFK 101151Z 00000KT 10SM FEW017 BKN100 BKN130 BKN230 13/11 A2969 RMK AO2 RAB05E19 SLP054 P0000 60015 70033 T01280106 10150 20122 53003 $","updated":"2025-11-10T12:38:39Z"}
