{"icao":"KORD","metar":"KORD 191351Z 36004KT 10SM FEW085 FEW120 BKN250 07/M07 A2965 RMK AO2 SLP042 T00671067","updated":"2026-02-19T14:48:31Z"}
