{"icao":"LPMR","metar":"LPMR 271100Z VRB01KT CAVOK 12/07 Q1025","updated":"2025-11-27T11:16:48Z"}
