{"icao":"LPCS","metar":"LPCS 081800Z 24008KT 7000 -DZ FEW004 SCT010 BKN014 13/13 Q1030","updated":"2026-01-08T18:27:09Z"}
