{"icao":"LPOV","metar":"LPOV 032000Z 35009KT 9999 OVC006 17/16 Q1024","updated":"2025-10-03T20:18:29Z"}
