{"icao":"KJFK","metar":"KJFK 072251Z 32023G37KT 10SM FEW048 BKN070 BKN110 BKN250 M12/M23 A2989 RMK AO2 PK WND 34044/2154 SLP121 T11221233 $","updated":"2026-02-07T23:28:44Z"}
