{"icao":"LPAZ","metar":"LPAZ 251030Z 28006KT 240V300 3700 -RA BR BKN002 16/15 Q1018","updated":"2026-04-25T10:42:01Z"}
