{"icao":"LPAZ","metar":"LPAZ 310900Z 23013KT 9000 -RA FEW005 SCT011 15/13 Q1005","updated":"2025-12-31T09:23:26Z"}
