{"icao":"LPPS","metar":"LPPS 100400Z 03007KT 360V060 9999 FEW015 BKN030 21/16 Q1023","updated":"2025-10-10T04:21:29Z"}
