{"icao":"KORD","metar":"KORD 200851Z 35012G18KT 10SM FEW027 BKN034 12/06 A3017 RMK AO2 SLP216 T01220056 53014 $","updated":"2026-05-20T09:30:16Z"}
