{"icao":"LPPR","metar":"LPPR 052000Z 02004KT CAVOK 18/12 Q1020","updated":"2025-10-05T20:17:23Z"}
