{"icao":"KJFK","metar":"KJFK 172251Z 08007KT 10SM FEW014 OVC037 21/16 A3002 RMK AO2 RAB02E29 SLP167 P0000 T02110161 $","updated":"2025-09-17T23:15:51Z"}
