{"icao":"LPCS","metar":"LPCS 142000Z 33012KT 290V360 9999 FEW003 BKN010 14/12 Q1017","updated":"2026-03-14T21:25:24Z"}
