{"icao":"KJFK","metar":"KJFK 302051Z 10014G26KT 10SM -RA FEW008 SCT026 BKN090 17/16 A2949 RMK AO2 PK WND 09027/2029 WSHFT 1956 PRESFR SLP986 P0107 60152 T01670156 58034","updated":"2025-10-30T21:16:27Z"}
