{"icao":"LPMT","metar":"LPMT 310400Z 29006KT 260V330 9999 SCT035 12/08 Q1017","updated":"2026-01-31T05:37:20Z"}
