{"icao":"LPOV","metar":"LPOV 011500Z 27005KT 240V330 9999 FEW018 18/15 Q1018","updated":"2025-11-01T15:15:03Z"}
