{"icao":"KJFK","metar":"KJFK 031051Z 32012KT 10SM FEW070 BKN095 BKN250 08/M03 A2986 RMK SLP112 T00781028 ","updated":"2026-05-03T11:40:47Z"}
