{"icao":"LPOV","metar":"LPOV 051800Z 26012KT 9000 -TSRA FEW007 SCT018CB BKN045 12/11 Q0994 RESHRA","updated":"2026-02-05T18:45:13Z"}
