{"icao":"LPPR","metar":"LPPR 171430Z 23006KT 160V280 CAVOK 22/06 Q1007","updated":"2026-03-17T14:54:41Z"}
