{"icao":"LPFR","metar":"LPFR 181830Z 29014KT CAVOK 22/08 Q1019","updated":"2026-05-18T18:49:43Z"}
