{"icao":"KORD","metar":"KORD 161351Z 10004KT 10SM FEW300 22/14 A3023 RMK AO2 SLP233 T02220139","updated":"2025-09-16T14:18:26Z"}
