{"icao":"LPBJ","metar":"LPBJ 122100Z 28005KT CAVOK 19/13 Q1016","updated":"2025-10-12T21:14:19Z"}
