{"icao":"LPFL","metar":"LPFL 291700Z 28008KT 250V330 9999 -RA FEW014 SCT020 BKN040 13/07 Q1004","updated":"2026-04-29T17:26:58Z"}
