{"icao":"LPPT","metar":"LPPT 210130Z 22015KT 7000 -RA FEW005 SCT008 12/12 Q1013","updated":"2026-01-21T01:44:23Z"}
