{"icao":"LPFL","metar":"LPFL 111000Z VRB02KT 9999 FEW026 SCT049 14/06 Q1018","updated":"2026-01-11T10:20:08Z"}
