{"icao":"LPLA","metar":"LPLA 222200Z 26004KT 230V300 9999 FEW023 16/12 Q1023","updated":"2025-12-22T22:19:10Z"}
