{"icao":"LPPR","metar":"LPPR 261430Z 32008KT 9999 FEW023 20/15 Q1017","updated":"2026-04-26T14:41:12Z"}
