{"icao":"LPPR","metar":"LPPR 110500Z 17016KT 9999 FEW017 SCT020 16/14 Q1011","updated":"2025-11-11T05:18:49Z"}
