{"icao":"LPAR","metar":"LPAR 261100Z 07006KT 020V100 CAVOK 13/08 Q1026","updated":"2025-11-26T11:16:43Z"}
