{"icao":"LPLA","metar":"LPLA 201700Z 30022KT 9999 FEW018 SCT040 17/14 Q1021","updated":"2026-01-20T17:28:15Z"}
