{"icao":"LPAZ","metar":"LPAZ 011100Z 31021KT 9999 FEW011 SCT016 BKN049 15/14 Q1003","updated":"2026-01-01T11:17:35Z"}
