{"icao":"KORD","metar":"KORD 031551Z 29013G21KT 10SM FEW075 11/02 A3013 RMK AO2 SLP206 T01110022 $","updated":"2025-11-03T16:21:05Z"}
