{"icao":"LPFL","metar":"LPFL 071000Z 18016G28KT 150V210 9999 FEW021 17/13 Q1028","updated":"2026-01-07T10:23:27Z"}
