{"icao":"LPPT","metar":"LPPT 262300Z 25008KT CAVOK 24/10 Q1020","updated":"2026-05-26T23:08:44Z"}
