{"icao":"LPLA","metar":"LPLA 040800Z 24006KT 190V280 9999 FEW012 SCT018 BKN040 18/15 Q1025","updated":"2025-12-04T08:27:48Z"}
