{"icao":"LPAZ","metar":"LPAZ 070600Z 32008KT 9999 FEW024 18/14 Q1020","updated":"2025-11-07T06:27:45Z"}
