{"icao":"KLAX","metar":"KLAX 100453Z 22005KT 10SM SCT095 19/16 A2992 RMK AO2 SLP129 T01890156 $","updated":"2025-10-10T05:17:54Z"}
