{"icao":"LPAZ","metar":"LPAZ 100900Z 33010KT 9999 FEW008 BKN011 15/12 Q1029","updated":"2026-04-10T09:07:28Z"}
