{"icao":"LPMA","metar":"LPMA 170900Z 35008KT 310V020 9999 SCT015 20/12 Q1024","updated":"2025-11-17T09:23:41Z"}
