{"icao":"LPMA","metar":"LPMA 171900Z 30006KT 260V350 9999 SCT015 16/10 Q1018","updated":"2026-01-17T19:14:14Z"}
