{"icao":"KORD","metar":"KORD 081351Z 23003KT 10SM BKN030 BKN250 M08/M12 A3036 RMK AO2 SLP292 T10781117","updated":"2025-12-08T14:20:55Z"}
