{"icao":"LPMA","metar":"LPMA 100800Z 29005KT 260V340 9999 SCT016 BKN030 20/12 Q1021","updated":"2025-11-10T08:27:11Z"}
