{"icao":"LPCS","metar":"LPCS 150730Z VRB02KT 9999 FEW015 14/12 Q1024","updated":"2026-04-15T07:43:07Z"}
