{"icao":"LPLA","metar":"LPLA 170500Z 23024G34KT 9999 FEW009 BKN015 19/17 Q1019","updated":"2025-12-17T05:21:48Z"}
