{"icao":"LPBJ","metar":"LPBJ 111200Z 17014KT 9999 SCT020 20/13 Q1014","updated":"2025-11-11T12:38:28Z"}
