{"icao":"KJFK","metar":"KJFK 020151Z 19014KT 10SM FEW070 SCT160 SCT250 11/08 A2989 RMK SLP122 T01060078 ","updated":"2026-05-02T02:36:15Z"}
