{"icao":"LPPT","metar":"LPPT 141500Z 21006KT 170V260 CAVOK 29/09 Q1016","updated":"2025-10-14T15:20:03Z"}
