{"icao":"LPPR","metar":"LPPR 250330Z 30007KT 250V360 5000 TSRA BR FEW015 SCT018CB BKN023 12/11 Q1010 RESHRA","updated":"2026-01-25T03:53:00Z"}
