{"icao":"LPPD","metar":"LPPD 181130Z 02007KT 340V060 9999 FEW025 BKN040 16/11 Q1027","updated":"2026-02-18T11:37:30Z"}
