{"icao":"LPCS","metar":"LPCS 111000Z VRB04KT CAVOK 28/14 Q1019","updated":"2026-06-11T10:20:18Z"}
