{"icao":"LPMR","metar":"LPMR 091900Z 21003KT 180V240 9999 SCT035 15/11 Q1020","updated":"2025-11-09T19:12:35Z"}
