{"icao":"KJFK","metar":"KJFK 030251Z 16004KT 10SM SCT250 14/08 A3047 RMK AO2 SLP317 T01390078 50002","updated":"2025-10-03T03:27:40Z"}
