{"icao":"LPMA","metar":"LPMA 270830Z 36029KT 9999 FEW015 16/11 Q1025","updated":"2026-02-27T08:38:54Z"}
