{"icao":"LPFL","metar":"LPFL 071400Z 17008KT 150V230 9999 FEW025 23/19 Q1021","updated":"2025-10-07T14:18:17Z"}
