{"icao":"LPPS","metar":"LPPS 291000Z 17011KT 9999 SCT015 17/11 Q1020","updated":"2025-12-29T10:22:11Z"}
