{"icao":"LPFR","metar":"LPFR 051030Z 36008KT 300V050 9999 FEW030 20/06 Q1016","updated":"2026-05-05T10:44:44Z"}
