{"icao":"LPMR","metar":"LPMR 281300Z 36009KT 340V040 9999 BKN026 14/08 Q1023","updated":"2025-11-28T13:29:19Z"}
