{"icao":"LPAZ","metar":"LPAZ 301500Z 09010KT 040V150 9999 SCT022 25/16 Q1030","updated":"2026-06-30T15:25:18Z"}
