{"icao":"LPFL","metar":"LPFL 051630Z 28017G30KT 240V340 5000 RA SCT016 FEW017TCU BKN049 11/07 Q1009","updated":"2026-04-05T18:41:48Z"}
