{"icao":"LPHR","metar":"LPHR 141230Z 23006KT 150V260 9999 FEW020 18/13 Q1033","updated":"2026-03-14T12:49:32Z"}
