{"icao":"LPPR","metar":"LPPR 131800Z 12004KT 080V150 CAVOK 16/09 Q1022","updated":"2025-12-13T18:24:43Z"}
