{"icao":"LPPT","metar":"LPPT 041330Z 25009KT 7000 -DZ SCT006 BKN010 15/14 Q0998","updated":"2026-02-04T14:03:46Z"}
