{"icao":"LPMA","metar":"LPMA 231000Z 31013G25KT 260V350 9999 FEW015 18/07 Q1018","updated":"2026-01-23T10:24:01Z"}
