{"icao":"LPBJ","metar":"LPBJ 180700Z 03006KT 9999 FEW008 SCT030 06/05 Q1010","updated":"2026-01-18T07:18:59Z"}
