{"icao":"LPPR","metar":"LPPR 240500Z 00000KT 8000 SCT007 11/11 Q1016","updated":"2026-04-24T05:33:34Z"}
