{"icao":"KLAX","metar":"KLAX 061053Z 08004KT 10SM CLR 14/11 A3015 RMK AO2 SLP206 T01390111 $","updated":"2025-11-06T11:16:35Z"}
