{"icao":"LPMT","metar":"LPMT 210800Z 35008KT 9999 FEW030 SCT045 10/06 Q1010","updated":"2025-12-21T08:24:41Z"}
