{"icao":"LPMT","metar":"LPMT 300200Z 34008KT CAVOK 17/14 Q1020","updated":"2026-05-30T02:55:14Z"}
