{"icao":"LPPS","metar":"LPPS 042100Z 25011KT 220V280 9999 FEW014 19/13 Q1009","updated":"2026-02-04T21:31:44Z"}
