{"icao":"LPOV","metar":"LPOV 260800Z 13003KT 9999 FEW045 00/00 Q1014","updated":"2025-12-26T08:26:33Z"}
