{"icao":"LPPR","metar":"LPPR 262030Z 32005KT 300V360 6000 BKN002 11/11 Q1025","updated":"2026-02-26T20:35:44Z"}
