{"icao":"LPAR","metar":"LPAR 181600Z 02009KT CAVOK 20/08 Q1020","updated":"2026-05-18T22:04:11Z"}
