{"icao":"LPMA","metar":"LPMA 180930Z 34012KT 310V010 9999 SCT013 FEW018CB 14/07 Q1000","updated":"2026-03-18T09:53:44Z"}
