{"icao":"KORD","metar":"KORD 161306Z 29011G24KT 10SM FEW013 FEW095 BKN190 OVC250 18/15 A2980 RMK AO2 PK WND 29027/1256 WSHFT 1254 T01780150","updated":"2026-05-16T13:19:35Z"}
