{"icao":"LPAR","metar":"LPAR 111500Z 24016KT 3000 DZRA BR SCT007 BKN013 16/15 Q1015","updated":"2026-02-11T15:59:53Z"}
