{"icao":"KORD","metar":"KORD 140651Z 15004KT 10SM CLR 07/M02 A3005 RMK AO2 SLP178 T00721017","updated":"2025-11-14T07:18:07Z"}
