{"icao":"LPFR","metar":"LPFR 261630Z 10011KT CAVOK 25/15 Q1020","updated":"2026-05-26T16:40:57Z"}
