{"icao":"LPMA","metar":"LPMA 261200Z 21012KT 170V230 9999 BKN013 FEW018CB 23/22 Q1016","updated":"2025-10-26T12:33:45Z"}
