{"icao":"LPST","metar":"LPST 191100Z 31008KT 280V350 9999 FEW014 22/16 Q1016","updated":"2026-06-19T11:20:44Z"}
