{"icao":"LPMA","metar":"LPMA 060930Z 34003KT 260V020 9999 FEW015 17/06 Q1018","updated":"2026-02-06T09:41:43Z"}
