{"icao":"LPMA","metar":"LPMA 081200Z 02014KT 9999 SCT014 FEW015TCU 23/17 Q1023","updated":"2025-11-08T12:33:10Z"}
