{"icao":"LPOV","metar":"LPOV 240800Z 05006KT 020V110 CAVOK 09/04 Q1011","updated":"2025-12-24T08:28:15Z"}
