{"icao":"LPCS","metar":"LPCS 051400Z 25018G30KT 210V280 9999 FEW016 SCT028 17/13 Q0997","updated":"2026-02-05T14:08:19Z"}
