{"icao":"LPBJ","metar":"LPBJ 120600Z 12005KT 3000 VCFG SCT003 BKN006 08/08 Q1023","updated":"2026-01-12T06:34:55Z"}
