{"icao":"LPMA","metar":"LPMA 121630Z 01013KT 330V060 9999 SCT015 17/08 Q1026","updated":"2026-04-12T16:37:26Z"}
