{"icao":"LPPS","metar":"LPPS 280400Z 01002KT 9999 FEW012 21/18 Q1013","updated":"2025-10-28T04:21:30Z"}
