{"icao":"LPFR","metar":"LPFR 250500Z 02005KT CAVOK 15/12 Q1016","updated":"2026-04-25T05:10:21Z"}
