{"icao":"LPPT","metar":"LPPT 232330Z 28004KT 230V040 CAVOK 14/12 Q1015","updated":"2026-04-23T23:43:04Z"}
