{"icao":"LPBJ","metar":"LPBJ 291600Z 26005KT 220V280 9999 FEW018 OVC038 14/08 Q1017","updated":"2025-11-29T16:21:41Z"}
