{"icao":"LPMT","metar":"LPMT 301200Z 36007KT 340V040 CAVOK 25/15 Q1018","updated":"2025-09-30T12:38:24Z"}
