{"icao":"LPMT","metar":"LPMT 141800Z 28007KT 250V310 9999 FEW030 24/17 Q1015","updated":"2026-06-14T18:10:36Z"}
