{"icao":"KJFK","metar":"KJFK 151451Z 04007KT 10SM BKN075 BKN130 BKN250 03/M03 A3010 RMK AO2 SLP192 T00331028 50011 $","updated":"2026-02-15T15:25:10Z"}
