{"icao":"LPHR","metar":"LPHR 071230Z 22010KT 9999 SCT007 SCT011 BKN030 15/14 Q1014","updated":"2026-02-07T12:45:39Z"}
