{"icao":"LPFR","metar":"LPFR 170530Z 07011KT CAVOK 13/07 Q1012","updated":"2026-03-17T05:57:44Z"}
