{"icao":"LPPT","metar":"LPPT 150500Z 04002KT CAVOK 10/08 Q1013","updated":"2025-12-15T05:23:57Z"}
