{"icao":"LPPR","metar":"LPPR 290300Z 13007KT 7000 SCT010 BKN020 11/10 Q1020","updated":"2025-11-29T03:10:08Z"}
