{"icao":"LPFR","metar":"LPFR 010700Z 02010KT CAVOK 16/05 Q1021","updated":"2026-04-01T07:18:43Z"}
