{"icao":"LPPD","metar":"LPPD 040700Z 27021KT 9999 SCT015 BKN030 19/16 Q1005","updated":"2025-11-04T07:18:25Z"}
