{"icao":"LPFL","metar":"LPFL 042000Z 31014G32KT 250V020 9999 VCSH FEW017 SCT020 FEW024CB 13/07 Q0995","updated":"2026-02-04T20:33:15Z"}
