{"icao":"LPPS","metar":"LPPS 051730Z 27015G27KT 9999 FEW015 SCT030 18/13 Q1011","updated":"2026-02-05T17:46:03Z"}
