{"icao":"LPBJ","metar":"LPBJ 261900Z 17007KT CAVOK 24/14 Q1013","updated":"2026-04-26T19:44:49Z"}
