{"icao":"LPMA","metar":"LPMA 130200Z 25003KT 220V300 9999 SCT015 16/11 Q1022","updated":"2026-02-13T02:08:23Z"}
