{"icao":"LPFL","metar":"LPFL 111230Z 33017G27KT 290V360 9999 SCT018 16/09 Q1009","updated":"2025-11-11T12:38:29Z"}
