{"icao":"LPPR","metar":"LPPR 180500Z 11007KT CAVOK 16/12 Q1015","updated":"2025-10-18T05:15:53Z"}
