{"icao":"LPPT","metar":"LPPT 271600Z VRB04KT CAVOK 16/07 Q1023","updated":"2025-11-27T16:23:18Z"}
