{"icao":"LPHR","metar":"LPHR 162030Z 30016KT 260V330 9999 SCT014 SCT030 13/08 Q1018","updated":"2026-03-16T20:37:00Z"}
