{"icao":"LPPT","metar":"LPPT 111800Z 32009KT CAVOK 24/12 Q1017","updated":"2025-10-11T18:20:36Z"}
