{"icao":"LPPT","metar":"LPPT 061230Z 22011KT 190V260 CAVOK 27/12 Q1020","updated":"2025-10-06T12:37:30Z"}
