{"icao":"LPPT","metar":"LPPT 080500Z 28003KT 9999 BKN026 10/07 Q1031","updated":"2026-01-08T05:23:49Z"}
