{"icao":"LPBJ","metar":"LPBJ 290300Z 29002KT 7000 VCFG SCT006 05/05 Q1020","updated":"2025-11-29T03:10:12Z"}
