{"icao":"LPHR","metar":"LPHR 112000Z 31005KT 9999 FEW014 20/17 Q1019","updated":"2025-10-11T23:15:47Z"}
