{"icao":"LPPD","metar":"LPPD 101630Z 02011KT 340V060 9999 FEW022 22/17 Q1028","updated":"2026-06-10T16:56:38Z"}
