{"icao":"LPAZ","metar":"LPAZ 251830Z 19005KT 9999 -SHRA BKN004 17/16 Q1018","updated":"2026-04-25T18:51:02Z"}
