{"icao":"KORD","metar":"KORD 180958Z 27016G23KT 10SM OVC010 11/08 A2966 RMK AO2 T01060083 $","updated":"2026-04-18T10:39:11Z"}
