{"icao":"KORD","metar":"KORD 180851Z 08008KT 10SM -RA OVC070 05/02 A3004 RMK AO2 SLP177 P0002 60011 T00500017 58008","updated":"2025-11-18T09:21:02Z"}
