{"icao":"KJFK","metar":"KJFK 091051Z 13003KT 5SM BR SCT140 SCT200 BKN250 02/01 A3032 RMK AO2 SLP268 T00170011 $","updated":"2026-01-09T11:18:28Z"}
