{"icao":"LPBJ","metar":"LPBJ 120800Z 13004KT 0400 FG OVC003 08/08 Q1022","updated":"2026-01-12T08:30:47Z"}
