{"icao":"KJFK","metar":"KJFK 130351Z 28013G21KT 10SM FEW055 FEW095 BKN130 10/02 A2981 RMK AO2 SLP093 T01000017","updated":"2025-11-13T04:23:59Z"}
