{"icao":"LPMT","metar":"LPMT 221700Z 36005KT CAVOK 20/09 Q1025","updated":"2026-02-22T17:23:44Z"}
