{"icao":"KORD","metar":"KORD 280851Z 29006KT 10SM BKN250 04/M04 A2996 RMK AO2 SLP147 T00441039 53036 $","updated":"2026-02-28T09:25:15Z"}
