{"icao":"LPPT","metar":"LPPT 161830Z 27007KT 250V310 9999 BKN018 14/11 Q1031","updated":"2026-02-16T18:40:49Z"}
