{"icao":"LPPT","metar":"LPPT 221500Z 27011KT 230V290 9999 FEW016 BKN022 23/18 Q1018","updated":"2025-10-22T15:18:21Z"}
