{"icao":"LPFL","metar":"LPFL 191230Z 35022G32KT 9999 VCSH FEW011 BKN017 14/11 Q1018","updated":"2026-04-19T12:59:44Z"}
