{"icao":"LPCS","metar":"LPCS 071400Z 25019G31KT 9999 VCSH FEW022 FEW025TCU BKN030 15/12 Q1003","updated":"2026-02-07T14:24:31Z"}
