{"icao":"LPAR","metar":"LPAR 240900Z 33006KT 9999 SCT012 BKN022 22/20 Q1018","updated":"2025-10-24T09:19:42Z"}
