{"icao":"KJFK","metar":"KJFK 291151Z 03012KT 10SM FEW036 BKN045 10/04 A3014 RMK AO2 SLP206 T01000044 10106 20094 56001","updated":"2025-10-29T12:39:33Z"}
