{"icao":"KORD","metar":"KORD 300751Z 34004KT 10SM CLR 05/03 A2994 RMK AO2 SLP139 T00500028 $","updated":"2025-10-30T08:24:34Z"}
