{"icao":"LPBJ","metar":"LPBJ 160100Z 30009KT 5000 VCFG SCT002 SCT016 11/11 Q1016","updated":"2026-01-16T01:41:54Z"}
