{"icao":"LPFR","metar":"LPFR 060400Z 30016KT CAVOK 10/04 Q1017","updated":"2026-03-06T04:15:27Z"}
