{"icao":"LPMR","metar":"LPMR 260400Z VRB01KT 9999 FEW024 13/13 Q1016","updated":"2025-10-26T04:19:55Z"}
