{"icao":"LPPS","metar":"LPPS 291600Z 35016KT 9999 FEW015 23/16 Q1016","updated":"2025-10-29T16:24:51Z"}
