{"icao":"LPFL","metar":"LPFL 052100Z 20019KT 160V230 5000 -RADZ BKN010 21/18 Q1006","updated":"2025-11-06T05:18:50Z"}
