{"icao":"KJFK","metar":"KJFK 181151Z 18012KT 8SM BKN008 OVC095 21/19 A2968 RMK AO2 RAE48 SLP049 P0000 60000 T02110194 10211 20194 58022","updated":"2026-06-18T12:24:20Z"}
