{"icao":"LPBJ","metar":"LPBJ 011200Z 30009KT 270V340 CAVOK 28/15 Q1018","updated":"2026-06-01T12:35:08Z"}
