{"icao":"LPHR","metar":"LPHR 011430Z 07011KT 020V110 9999 FEW016 BKN028 17/10 Q1032","updated":"2026-04-01T15:02:48Z"}
