{"icao":"KORD","metar":"KORD 172251Z 11008KT 10SM BKN170 OVC250 11/06 A2976 RMK AO2 SLP078 T01110056 $","updated":"2026-02-17T23:27:10Z"}
