{"icao":"LPFL","metar":"LPFL 181330Z 07004KT 330V140 9999 VCSH SCT015 SCT040 17/13 Q1017","updated":"2026-04-18T14:03:29Z"}
