{"icao":"LPAZ","metar":"LPAZ 311100Z 31010KT 9999 SCT027 20/14 Q1010","updated":"2025-10-31T11:15:17Z"}
