{"icao":"LPAZ","metar":"LPAZ 260930Z 12005KT 080V140 9999 FEW005 16/16 Q1021","updated":"2026-04-26T10:01:07Z"}
