{"icao":"LPMR","metar":"LPMR 210400Z 25009KT 2000 -DZ BR OVC004 20/19 Q1012","updated":"2025-10-21T04:21:14Z"}
