{"icao":"KLAX","metar":"KLAX 271234Z VRB05KT 4SM BR FEW008 OVC015 17/14 A2999 RMK AO2 T01670144 $","updated":"2025-10-27T12:39:31Z"}
