{"icao":"LPPD","metar":"LPPD 191930Z 36033G52KT 340V040 9999 SCT015 SCT025CB 15/11 Q0999","updated":"2026-03-19T19:47:49Z"}
