{"icao":"LPFR","metar":"LPFR 220630Z 04006KT CAVOK 12/05 Q1026","updated":"2026-02-22T06:45:28Z"}
