{"icao":"LPOV","metar":"LPOV 141100Z 16003KT 110V200 6000 SCT002 BKN005 12/12 Q1020","updated":"2026-01-14T11:20:13Z"}
