{"icao":"KORD","metar":"KORD 060923Z 08004KT 3/4SM R10L/5500VP6000FT BR OVC003 06/06 A2999 RMK AO2 T00610056","updated":"2026-03-06T09:37:07Z"}
