{"icao":"LPOV","metar":"LPOV 291900Z 27008KT 9999 FEW020CB 15/11 Q1010","updated":"2026-01-29T19:29:20Z"}
