{"icao":"LPBJ","metar":"LPBJ 200900Z 31003KT 270V350 1500 0700NW BCFG FEW002 BKN004 19/19 Q1020","updated":"2025-09-20T09:16:06Z"}
