{"icao":"LPOV","metar":"LPOV 122300Z 01001KT CAVOK 15/08 Q1016","updated":"2025-10-12T23:14:38Z"}
