{"icao":"KJFK","metar":"KJFK 251451Z 21008KT 10SM FEW037 BKN140 BKN220 11/05 A3026 RMK AO2 SLP246 T01110050 58005","updated":"2025-11-25T15:21:32Z"}
