{"icao":"LPFR","metar":"LPFR 290630Z 24016KT 9000 SCT006 BKN020 16/15 Q1012","updated":"2026-01-29T06:44:26Z"}
