{"icao":"LPAZ","metar":"LPAZ 140500Z 15006KT 9999 FEW018 19/17 Q1012","updated":"2025-10-14T05:16:50Z"}
