{"icao":"LPOV","metar":"LPOV 070700Z 36002KT CAVOK 14/14 Q1020","updated":"2026-06-07T07:53:21Z"}
