{"icao":"LPLA","metar":"LPLA 291200Z 22009KT 180V260 9999 SCT025 19/12 Q1017","updated":"2025-10-29T12:39:30Z"}
