{"icao":"LPMA","metar":"LPMA 201500Z 20007KT 170V230 9999 BKN013 23/21 Q1018","updated":"2025-10-20T15:18:20Z"}
