{"icao":"KORD","metar":"KORD 251751Z 28009G18KT 10SM FEW033 00/M10 A2970 RMK AO2 SLP065 T00001100 10006 21028 51017","updated":"2026-02-25T17:56:14Z"}
