{"icao":"LPMA","metar":"LPMA 221400Z 15003KT 060V200 9999 SCT012 SCT030 19/15 Q1018","updated":"2026-01-22T14:29:27Z"}
