{"icao":"KJFK","metar":"KJFK 072251Z 35010G19KT 10SM FEW085 FEW110 SCT250 17/M02 A2976 RMK AO2 SLP078 T01671022","updated":"2026-05-07T23:01:20Z"}
