{"icao":"KORD","metar":"KORD 152151Z 22008KT 10SM SCT180 OVC250 M06/M13 A3005 RMK AO2 SLP191 VIRGA OHD T10611128","updated":"2025-12-15T22:19:32Z"}
