{"icao":"KORD","metar":"KORD 161251Z 31010KT 10SM CLR 03/M09 A2989 RMK AO2 SLP123 T00281094 $","updated":"2025-11-16T13:23:13Z"}
