{"icao":"LPBJ","metar":"LPBJ 191000Z 18011KT 150V210 CAVOK 23/14 Q1017","updated":"2025-10-19T10:16:39Z"}
