{"icao":"LPMR","metar":"LPMR 291600Z 34018KT CAVOK 17/03 Q1029","updated":"2026-03-29T16:33:33Z"}
