{"icao":"LPPR","metar":"LPPR 151830Z VRB02KT 7000 FEW010 SCT017 10/09 Q1014","updated":"2026-01-15T18:34:45Z"}
