{"icao":"LPMA","metar":"LPMA 081700Z 05006KT 350V090 9999 FEW015 20/14 Q1022","updated":"2026-02-08T17:25:33Z"}
