{"icao":"LPFL","metar":"LPFL 211700Z 14004KT 110V170 9999 FEW023 BKN035 18/08 Q1031","updated":"2025-11-21T17:16:14Z"}
