{"icao":"LPMT","metar":"LPMT 111900Z 19006KT 150V230 9999 BKN015 BKN030 14/13 Q1025","updated":"2026-01-11T19:14:37Z"}
