{"icao":"LPOV","metar":"LPOV 052000Z 23013KT 9999 FEW020CB BKN025 14/11 Q0996","updated":"2026-02-05T20:32:04Z"}
