{"icao":"KLAX","metar":"KLAX 191053Z 12004KT 10SM FEW020 FEW080 SCT250 10/08 A3001 RMK AO2 SLP159 T01000078","updated":"2025-11-19T11:16:31Z"}
