{"icao":"LPHR","metar":"LPHR 241730Z 14003KT 110V190 9999 SCT004 BKN006 19/17 Q1021","updated":"2026-05-24T18:04:34Z"}
