{"icao":"LPFL","metar":"LPFL 220900Z 32014G27KT 250V010 9999 BKN014 14/10 Q1002","updated":"2026-04-22T09:18:56Z"}
