{"icao":"LPPT","metar":"LPPT 220700Z 36004KT CAVOK 06/03 Q1030","updated":"2025-11-22T07:16:18Z"}
