{"icao":"LPHR","metar":"LPHR 212300Z 31013KT 5000 -RA BR SCT007 SCT012 BKN030 10/07 Q1001","updated":"2026-04-22T02:29:01Z"}
