{"icao":"LPMA","metar":"LPMA 011100Z 21006KT 170V320 9999 SCT015 20/12 Q1021","updated":"2026-02-01T11:20:17Z"}
