{"icao":"LPFR","metar":"LPFR 041900Z 25004KT CAVOK 21/16 Q1020","updated":"2025-10-04T19:11:48Z"}
