{"icao":"LPMR","metar":"LPMR 201600Z 32008KT 290V350 CAVOK 21/11 Q1010","updated":"2026-04-20T16:07:27Z"}
