{"icao":"LPCS","metar":"LPCS 231000Z 22003KT 190V280 9999 FEW018 14/11 Q1028","updated":"2025-11-23T10:17:38Z"}
