{"icao":"LPAZ","metar":"LPAZ 051100Z 13010KT 9999 FEW013 SCT020 23/20 Q1025","updated":"2025-10-05T11:12:39Z"}
