{"icao":"KLAX","metar":"KLAX 120553Z 27009KT 1/8SM R25L/2600VP6000FT FG VV001 14/14 A2995 RMK AO2 SLP141 T01440139 10189 20139 51005 $","updated":"2026-05-12T06:35:18Z"}
