{"icao":"KORD","metar":"KORD 101409Z 03009KT 6SM BR OVC007 07/06 A3019 RMK AO2 RAE1358 P0000 T00720061","updated":"2026-04-10T14:46:49Z"}
