{"icao":"LPOV","metar":"LPOV 211000Z 21007KT 170V260 9999 FEW007 SCT030 20/19 Q1013","updated":"2025-10-21T10:19:11Z"}
