{"icao":"LPAR","metar":"LPAR 201300Z 08007KT CAVOK 16/07 Q1030","updated":"2026-02-20T14:00:39Z"}
