{"icao":"LPAZ","metar":"LPAZ 071300Z 25004KT 210V310 9999 FEW025 20/13 Q1022","updated":"2025-11-07T13:26:51Z"}
