{"icao":"LPPT","metar":"LPPT 241500Z 32011KT 280V350 9999 VCSH FEW014 FEW020TCU SCT028 11/08 Q1013","updated":"2026-01-24T15:19:04Z"}
