{"icao":"KJFK","metar":"KJFK 301251Z 34020G30KT 10SM SCT044 SCT250 15/03 A2980 RMK AO2 PK WND 33039/1233 SLP092 T01500033 $","updated":"2026-05-30T13:26:32Z"}
