{"icao":"LPCS","metar":"LPCS 271700Z 30010KT 270V330 9999 FEW017 24/15 Q1020","updated":"2026-06-27T17:07:58Z"}
