{"icao":"LPMT","metar":"LPMT 311300Z 27006KT 240V300 9999 FEW025 16/09 Q1020","updated":"2026-01-31T13:39:46Z"}
