{"icao":"LPHR","metar":"LPHR 091330Z 30010KT 260V330 9999 FEW020 17/06 Q1021","updated":"2025-12-09T13:34:56Z"}
