{"icao":"LPLA","metar":"LPLA 161000Z VRB01KT 9999 FEW040 13/11 Q1023","updated":"2025-11-16T10:17:35Z"}
