{"icao":"LPPT","metar":"LPPT 150330Z 34009KT 300V010 9999 FEW022 13/10 Q1013","updated":"2026-05-15T03:46:33Z"}
