{"icao":"LPMA","metar":"LPMA 111630Z 36013KT 310V040 9999 SCT013 16/12 Q1024","updated":"2026-03-11T16:50:58Z"}
