{"icao":"LPMR","metar":"LPMR 222000Z 30002KT CAVOK 15/11 Q1014","updated":"2026-04-22T21:49:36Z"}
