{"icao":"KJFK","metar":"KJFK 202151Z 03009KT 1 1/2SM -DZ BR BKN005 OVC013 03/02 A2961 RMK AO2 SFC VIS 3 RAE48DZB48 SLP025 P0001 T00280022 $","updated":"2026-02-20T22:24:24Z"}
