{"icao":"KJFK","metar":"KJFK 280651Z 00000KT 10SM BKN085 OVC150 19/17 A2996 RMK SL146 T01940172 ","updated":"2026-06-28T07:49:43Z"}
