{"icao":"LPOV","metar":"LPOV 261700Z 35005KT CAVOK 14/10 Q1025","updated":"2025-11-26T17:17:14Z"}
