{"icao":"LPLA","metar":"LPLA 030300Z 10002KT CAVOK 09/06 Q1029","updated":"2026-03-03T04:44:36Z"}
