{"icao":"LPPS","metar":"LPPS 161800Z 35017KT 9999 SCT014 17/11 Q1026","updated":"2025-12-16T18:30:47Z"}
