{"icao":"KJFK","metar":"KJFK 191151Z 18010KT 10SM FEW040 FEW200 BKN250 17/14 A3001 RMK AO2 SLP162 T01670144 10167 20100 53001 $","updated":"2025-10-19T12:33:18Z"}
