{"icao":"LPMR","metar":"LPMR 131800Z 32008KT 290V350 CAVOK 20/16 Q1022","updated":"2025-09-13T18:20:40Z"}
