{"icao":"LPLA","metar":"LPLA 300100Z 30005KT 8000 SCT014 16/16 Q1029","updated":"2025-11-30T01:42:25Z"}
