{"icao":"KLAX","metar":"KLAX 091726Z 26009KT 6SM HZ OVC015 19/14 A2995 RMK AO2 T01890144","updated":"2026-05-09T17:50:33Z"}
