{"icao":"KORD","metar":"KORD 180651Z 19009KT 10SM FEW150 SCT250 18/12 A2971 RMK AO2 SLP056 T01830122","updated":"2025-10-18T07:15:58Z"}
