{"icao":"LPPR","metar":"LPPR 262200Z 06005KT CAVOK 14/07 Q1018","updated":"2026-03-26T22:28:03Z"}
