{"icao":"KJFK","metar":"KJFK 061751Z 31014KT 10SM BKN065 12/M02 A3005 RMK AO2 PK WND 32030/1655 SLP175 T01221017 10122 20089 50004 $","updated":"2025-11-06T18:27:58Z"}
