{"icao":"LPFR","metar":"LPFR 090400Z 35006KT CAVOK 16/13 Q1019","updated":"2025-10-09T04:21:08Z"}
