{"icao":"LPMA","metar":"LPMA 201100Z 21019KT 9999 SCT014 FEW016TCU 18/12 Q0995","updated":"2026-03-20T11:30:52Z"}
