{"icao":"KORD","metar":"KORD 172051Z 14009KT 10SM SCT160 BKN250 13/04 A2979 RMK AO2 SLP090 T01280044 56026 $","updated":"2026-02-17T21:34:28Z"}
