{"icao":"LPOV","metar":"LPOV 240900Z 23012KT 190V260 1500 -RADZ BR BKN004 BKN012 16/15 Q1015","updated":"2025-11-24T09:23:01Z"}
