{"icao":"LPMR","metar":"LPMR 131700Z 15011KT 9999 VCTS BKN020 FEW022CB BKN030 17/15 Q0995","updated":"2025-11-13T17:17:42Z"}
