{"icao":"LPPT","metar":"LPPT 231400Z 25009KT 220V280 9999 FEW012 FEW025CB 10/08 Q1001 WS R20","updated":"2026-01-23T14:23:47Z"}
