{"icao":"LPPT","metar":"LPPT 141830Z 32006KT 280V350 7000 -DZ SCT007 BKN010 14/13 Q1016","updated":"2026-03-14T18:36:45Z"}
