{"icao":"LPPS","metar":"LPPS 090600Z 22016KT 9999 SCT014 20/17 Q1016","updated":"2025-12-09T06:31:06Z"}
