{"icao":"KJFK","metar":"KJFK 102051Z 09008KT 4SM RA BR BKN019 BKN050 OVC075 04/03 A3009 RMK AO2 SLP189 P0012 60024 T00440028 56020","updated":"2026-01-10T21:17:27Z"}
