{"icao":"KLAX","metar":"KLAX 160353Z 25011KT 10SM FEW011 18/15 A2998 RMK AO2 SLP149 T01780150 $","updated":"2026-06-16T03:58:21Z"}
