{"icao":"LPMA","metar":"LPMA 100100Z 36009KT 320V020 9999 BKN015 21/16 Q1024","updated":"2025-10-10T01:18:26Z"}
