{"icao":"LPMA","metar":"LPMA 292000Z 02005KT 330V110 9999 SCT016 19/12 Q1022","updated":"2025-11-29T20:20:09Z"}
