{"icao":"LPPT","metar":"LPPT 121200Z 05008G20KT 020V090 9999 FEW040 23/13 Q1017","updated":"2025-10-12T12:32:20Z"}
