{"icao":"LPOV","metar":"LPOV 211200Z 21014KT 9999 FEW018 BKN025 BKN035 15/13 Q1002","updated":"2026-01-21T12:47:50Z"}
