{"icao":"KORD","metar":"KORD 241851Z 28008KT 10SM SCT030 BKN130 OVC250 20/13 A2971 RMK AO2 SLP058 T02000128","updated":"2026-04-24T19:52:02Z"}
