{"icao":"LPFL","metar":"LPFL 261900Z 33012KT 270V360 9999 FEW010 BKN014 16/13 Q1020","updated":"2025-11-26T19:14:31Z"}
