{"icao":"KORD","metar":"KORD 200951Z 24005KT 10SM CLR 05/01 A2997 RMK AO2 SLP150 T00500011 $","updated":"2025-10-20T10:20:23Z"}
