{"icao":"KLAX","metar":"KLAX 022053Z 23012KT 10SM FEW120 FEW160 SCT250 18/11 A2998 RMK AO2 SLP151 T01830111 58009","updated":"2026-03-02T21:32:13Z"}
