{"icao":"LPFR","metar":"LPFR 091900Z 28006KT CAVOK 20/16 Q1018","updated":"2025-10-09T19:14:35Z"}
