{"icao":"LPBJ","metar":"LPBJ 210600Z 11005KT CAVOK 07/05 Q1028","updated":"2026-02-21T06:40:01Z"}
