{"icao":"LPPR","metar":"LPPR 272100Z 15022KT 6000 -RA BKN015 BKN022 19/17 Q1006","updated":"2025-09-27T21:14:02Z"}
