{"icao":"LPMT","metar":"LPMT 241900Z 22004KT CAVOK 24/13 Q1019","updated":"2026-05-24T20:03:30Z"}
