{"icao":"KORD","metar":"KORD 232251Z 29005KT 10SM BKN250 08/01 A3016 RMK AO2 SLP216 T00830011","updated":"2025-12-23T23:18:13Z"}
