{"icao":"LPOV","metar":"LPOV 211600Z 36010KT CAVOK 14/05 Q1028","updated":"2025-11-21T16:23:36Z"}
