{"icao":"LPMA","metar":"LPMA 161330Z VRB07KT 9999 SCT015 17/11 Q1025","updated":"2026-01-16T13:37:08Z"}
