{"icao":"LPPR","metar":"LPPR 011230Z 23008KT 200V260 CAVOK 16/06 Q1021","updated":"2026-03-01T12:45:22Z"}
