{"icao":"KJFK","metar":"KJFK 242151Z 19015KT 10SM FEW250 05/M04 A3036 RMK AO2 SLP280 T00501044","updated":"2026-03-24T22:30:13Z"}
