{"icao":"KJFK","metar":"KJFK 110951Z 01008KT 10SM BKN049 BKN080 12/M03 A3010 RMK AO2 SLP194 T01221028 $","updated":"2026-05-11T10:37:14Z"}
