{"icao":"LPHR","metar":"LPHR 130730Z 25010KT 7000 VCSH SCT006 BKN012 FEW015TCU 19/18 Q1019","updated":"2026-06-13T07:45:00Z"}
