{"icao":"LPCS","metar":"LPCS 250830Z 02010KT CAVOK 14/09 Q1021","updated":"2026-03-25T08:50:28Z"}
