{"icao":"LPPT","metar":"LPPT 180800Z 36003KT 340V040 CAVOK 21/10 Q1020","updated":"2025-09-18T08:22:04Z"}
