{"icao":"LPAZ","metar":"LPAZ 200300Z 27010KT 9000 FEW001 SCT004 BKN011 23/22 Q1017","updated":"2025-10-20T03:14:14Z"}
