{"icao":"KORD","metar":"KORD 101116Z 35009KT 7SM OVC004 07/06 A3011 RMK AO2 T00670061","updated":"2026-04-10T11:47:45Z"}
