{"icao":"LPOV","metar":"LPOV 202200Z VRB01KT CAVOK 15/12 Q1008","updated":"2026-04-20T22:41:13Z"}
