{"icao":"LPPR","metar":"LPPR 051500Z 32010KT CAVOK 22/12 Q1020","updated":"2025-10-05T15:14:55Z"}
