{"icao":"KJFK","metar":"KJFK 051751Z 19007KT 10SM CLR 26/15 A3029 RMK AO2 SLP257 T02560150 10261 20172 58008","updated":"2025-10-05T18:21:59Z"}
