{"icao":"LPFR","metar":"LPFR 051400Z 25021KT 7000 FEW025 17/14 Q1002","updated":"2026-02-05T14:08:19Z"}
