{"icao":"LPCS","metar":"LPCS 011400Z 25005KT 200V280 9999 FEW012 SCT020 20/17 Q1018","updated":"2025-11-01T14:14:28Z"}
