{"icao":"LPAZ","metar":"LPAZ 261500Z 31018KT 9999 FEW016 SCT020 24/18 Q1013","updated":"2025-09-26T15:18:10Z"}
