{"icao":"LPPT","metar":"LPPT 211500Z 07008KT 020V100 9999 FEW020 FEW025TCU SCT048 18/13 Q1008","updated":"2026-03-21T15:24:24Z"}
