{"icao":"LPPT","metar":"LPPT 240830Z 17007KT 130V210 9999 BKN010 13/11 Q1019","updated":"2026-02-24T08:46:00Z"}
