{"icao":"LPPS","metar":"LPPS 012300Z 24011KT 210V270 9999 FEW014 17/13 Q1002","updated":"2026-01-01T23:18:57Z"}
