{"icao":"LPMR","metar":"LPMR 031800Z 27007KT 3500 -DZ BR SCT008 OVC018 19/17 Q1021","updated":"2026-06-03T18:21:29Z"}
