{"icao":"LPMA","metar":"LPMA 222300Z 02007KT 9999 FEW015 14/09 Q1025","updated":"2026-02-22T23:25:08Z"}
