{"icao":"LPAZ","metar":"LPAZ 011800Z 05011KT 020V090 9999 FEW035 SCT044 18/10 Q1020","updated":"2025-11-01T18:22:29Z"}
