{"icao":"LPLA","metar":"LPLA 101700Z 33009KT 9999 FEW025 24/18 Q1021","updated":"2025-10-10T17:15:45Z"}
