{"icao":"KORD","metar":"KORD 261651Z 06009KT 10SM OVC011 11/07 A3009 RMK AO2 SLP192 T01110072","updated":"2026-04-26T17:37:17Z"}
