{"icao":"LPCS","metar":"LPCS 081700Z 16012KT 9999 FEW016 17/12 Q1006","updated":"2026-05-08T17:15:17Z"}
