{"icao":"KLAX","metar":"KLAX 082053Z 34011G19KT 10SM FEW010 FEW060 SCT075 17/01 A3002 RMK AO2 SLP166 T01670006 58015 $","updated":"2026-01-08T21:20:01Z"}
