{"icao":"LPBJ","metar":"LPBJ 221200Z 24010KT 9999 VCSH FEW027 SCT045 13/07 Q1011","updated":"2026-01-22T12:47:08Z"}
