{"icao":"LPLA","metar":"LPLA 181400Z 32014KT 2500 DZ BR SCT002 BKN007 16/15 Q1029","updated":"2026-01-18T14:17:24Z"}
