{"icao":"KLAX","metar":"KLAX 162053Z 28007G16KT 3SM BR FEW000 SCT006 BKN140 16/13 A3004 RMK AO2 PRESFR SLP171 VIS 2 1/2V4 FG FEW000 T01560128 58022 $","updated":"2025-12-16T21:19:44Z"}
