{"icao":"LPMR","metar":"LPMR 231700Z VRB02KT 7000 -RA SCT030 BKN036 18/12 Q1019","updated":"2025-10-23T17:15:48Z"}
