{"icao":"LPMR","metar":"LPMR 141800Z 05002KT 010V110 CAVOK 15/09 Q1017","updated":"2025-12-14T18:26:36Z"}
