{"icao":"KORD","metar":"KORD 120051Z 24013G18KT 10SM BKN019 M02/M07 A3035 RMK AO2 SLP286 T10221067 $","updated":"2026-01-12T01:45:39Z"}
