{"icao":"LPMA","metar":"LPMA 030530Z 00000KT 9999 SCT015 17/13 Q1016","updated":"2026-05-03T05:58:16Z"}
