{"icao":"LPLA","metar":"LPLA 022300Z 09011KT 050V110 9999 FEW020 BKN030 15/11 Q1023","updated":"2026-05-02T23:41:01Z"}
