{"icao":"KORD","metar":"KORD 140451Z 20016G32KT 10SM BKN250 22/17 A2976 RMK AO2 PK WND 19032/0446 SLP073 T02220167","updated":"2026-04-14T05:22:28Z"}
