{"icao":"LPOV","metar":"LPOV 130400Z 00000KT CAVOK 13/09 Q1015","updated":"2025-10-13T04:21:08Z"}
