{"icao":"KJFK","metar":"KJFK 071451Z 31025G42KT 10SM FEW035 BKN050 BKN060 M11/M19 A2969 RMK AO2 PK WND 33043/1430 SLP054 T11061189 51032 $","updated":"2026-02-07T15:23:32Z"}
