{"icao":"LPHR","metar":"LPHR 101730Z 32011KT 280V360 9999 FEW011 SCT020 18/13 Q1029","updated":"2026-04-10T17:46:12Z"}
