{"icao":"LPAZ","metar":"LPAZ 011200Z 07011KT 020V120 9999 FEW017 BKN022 25/17 Q1030","updated":"2026-07-01T12:05:41Z"}
