{"icao":"KORD","metar":"KORD 272251Z 23010KT 10SM SCT090 BKN250 18/M05 A2970 RMK AO2 SLP061 T01781050","updated":"2026-02-27T23:23:17Z"}
