{"icao":"LPMT","metar":"LPMT 201600Z 28006KT 260V320 CAVOK 29/15 Q1019","updated":"2026-05-20T16:23:59Z"}
