{"icao":"LPFR","metar":"LPFR 081100Z 23005KT 190V270 9999 FEW020 15/10 Q1021","updated":"2026-03-08T11:19:55Z"}
