{"icao":"LPPS","metar":"LPPS 080630Z 05008KT 020V080 9999 FEW015 BKN030 13/06 Q1024","updated":"2026-03-08T06:40:38Z"}
