{"icao":"LPLA","metar":"LPLA 010502Z 34020KT 7000 -SHRA SCT006 BKN014 BKN022 14/13 Q1004","updated":"2026-01-01T05:26:06Z"}
