{"icao":"LPFL","metar":"LPFL 291030Z 17009KT 9999 FEW009 SCT017 BKN030 21/19 Q1029","updated":"2026-06-29T10:55:32Z"}
