{"icao":"LPPS","metar":"LPPS 110400Z 03006KT 360V070 9999 SCT015 BKN030 21/15 Q1020","updated":"2025-10-11T04:19:41Z"}
