{"icao":"KJFK","metar":"KJFK 180151Z 28016G26KT 10SM FEW075 SCT090 01/M10 A3011 RMK AO2 PK WND 27028/0116 SLP195 T00111100","updated":"2026-03-18T02:05:54Z"}
