{"icao":"KORD","metar":"KORD 181051Z 24013G20KT 10SM SCT017 BKN100 M13/M17 A3004 RMK AO2 SNE46 SLP187 P0000 T11281172 $","updated":"2026-01-18T11:16:29Z"}
