{"icao":"LPCS","metar":"LPCS 171700Z 28005KT CAVOK 25/14 Q1014","updated":"2025-10-17T17:15:09Z"}
