{"icao":"LPPD","metar":"LPPD 050730Z 28022KT 9999 FEW016 SCT030 13/09 Q1001","updated":"2026-02-05T07:51:28Z"}
