{"icao":"LPPT","metar":"LPPT 212100Z 32003KT 270V030 CAVOK 10/04 Q1029","updated":"2025-11-21T21:16:19Z"}
