{"icao":"KLAX","metar":"KLAX 201753Z 26009KT 10SM FEW007 23/18 A3001 RMK AO2 SLP160 T02280183 10228 20194 51012","updated":"2025-09-20T18:21:42Z"}
