{"icao":"LPLA","metar":"LPLA 220400Z 27012G22KT 240V320 9999 SCT020 SCT025 BKN032 19/14 Q1014","updated":"2026-01-22T04:46:55Z"}
