{"icao":"LPPD","metar":"LPPD 141200Z 26010KT 9999 FEW022 23/19 Q1027","updated":"2025-09-14T12:30:48Z"}
