{"icao":"LPFL","metar":"LPFL 252000Z 15008KT 8000 -RA FEW006 BKN012 22/20 Q1005","updated":"2025-09-25T23:15:43Z"}
