{"icao":"KJFK","metar":"KJFK 221751Z 09015G23KT 2 1/2SM -RASN BR BKN013 OVC026 02/00 A3001 RMK AO2 SFC VIS 5 SNB11 SLP163 P0000 60002 T00170000 10022 20017 58016 $","updated":"2026-02-22T18:33:47Z"}
