{"icao":"KLAX","metar":"KLAX 081853Z 26008KT 9SM OVC018 18/14 A3001 RMK AO2 SLP162 T01830139","updated":"2026-05-08T19:15:06Z"}
