{"icao":"LPPS","metar":"LPPS 010400Z 04009KT 360V060 9999 SCT015 BKN030 20/15 Q1020","updated":"2025-10-01T04:21:10Z"}
