{"icao":"LPBJ","metar":"LPBJ 221600Z 21011KT 3000 -RA BR FEW015 BKN025 11/10 Q1008","updated":"2026-01-22T16:34:38Z"}
