{"icao":"KORD","metar":"KORD 200451Z 26005KT 10SM CLR 08/01 A2993 RMK AO2 SLP137 T00830006 $","updated":"2025-10-20T05:19:07Z"}
