{"icao":"LPPT","metar":"LPPT 232330Z 31004KT CAVOK 20/18 Q1013","updated":"2026-06-23T23:54:46Z"}
