{"icao":"KJFK","metar":"KJFK 220351Z 24005KT 7SM SCT025 BKN040 BKN065 BKN150 BKN210 09/06 A2996 RMK AO2 SLP144 T00940061","updated":"2025-11-22T04:21:01Z"}
