{"icao":"KLAX","metar":"KLAX 152253Z 08006KT 5SM -RA BR FEW006 SCT026 OVC080 16/14 A2980 RMK AO2 SLP089 P0004 T01560139 $","updated":"2025-11-15T23:16:04Z"}
