{"icao":"LPMT","metar":"LPMT 080100Z 35009KT CAVOK 11/08 Q1020","updated":"2026-03-08T02:01:27Z"}
