{"icao":"KJFK","metar":"KJFK 281551Z 19005KT 10SM FEW022 SCT250 07/03 A3013 RMK AO2 SLP203 T00720033 $","updated":"2026-02-28T16:25:35Z"}
