{"icao":"LPMT","metar":"LPMT 011200Z 33009KT 290V360 9999 FEW030 26/15 Q1019","updated":"2026-06-01T12:35:08Z"}
