{"icao":"KORD","metar":"KORD 200551Z 19011G18KT 10SM FEW120 BKN250 M04/M09 A2993 RMK AO2 SLP147 T10441094 11044 21072 410441122 55010","updated":"2025-12-20T06:29:15Z"}
