{"icao":"LPLA","metar":"LPLA 071500Z 36007KT 330V030 9999 FEW030 24/19 Q1023","updated":"2025-10-07T15:19:09Z"}
