{"icao":"LPFR","metar":"LPFR 220800Z 04008KT CAVOK 11/M02 Q1029","updated":"2025-11-22T08:22:20Z"}
