{"icao":"LPFL","metar":"LPFL 271800Z 02012KT 9999 VCSH SCT023 SCT045 18/12 Q1023","updated":"2025-10-28T03:06:11Z"}
