{"icao":"LPPR","metar":"LPPR 161500Z 30008KT 270V340 9999 FEW015 16/12 Q1021","updated":"2026-04-16T15:24:23Z"}
