{"icao":"LPPD","metar":"LPPD 010900Z 28015KT 9000 -SHRA SCT006 BKN011 18/17 Q1025","updated":"2025-12-01T09:26:52Z"}
