{"icao":"LPBJ","metar":"LPBJ 011200Z 27006KT 230V030 CAVOK 32/16 Q1018","updated":"2026-07-01T12:05:39Z"}
