{"icao":"LPBJ","metar":"LPBJ 100100Z 28004KT CAVOK 16/14 Q1019","updated":"2025-10-10T01:18:24Z"}
