{"icao":"LPPT","metar":"LPPT 031500Z 25004KT 210V290 CAVOK 18/11 Q1021","updated":"2025-11-03T15:19:25Z"}
