{"icao":"LPLA","metar":"LPLA 280500Z 25016G29KT 220V290 9999 FEW018 SCT025 BKN040 19/15 Q1002","updated":"2026-01-28T05:27:18Z"}
