{"icao":"LPBJ","metar":"LPBJ 291500Z 28003KT 200V310 9999 SCT028 14/08 Q1018","updated":"2025-12-29T15:21:20Z"}
