{"icao":"LPAZ","metar":"LPAZ 180430Z 35019KT 9999 SCT022 FEW026TCU 08/03 Q1011","updated":"2026-03-18T04:54:49Z"}
