{"icao":"LPBJ","metar":"LPBJ 051500Z 12008KT CAVOK 27/01 Q1019","updated":"2026-04-05T15:31:24Z"}
