{"icao":"KJFK","metar":"KJFK 262251Z 13008KT 10SM FEW040 FEW080 FEW180 11/06 A3015 RMK SLP209 T01110056 $ ","updated":"2026-04-26T23:37:46Z"}
