{"icao":"LPMA","metar":"LPMA 212000Z 36009G20KT 290V060 9999 BKN015 16/12 Q1020","updated":"2025-12-21T20:20:34Z"}
