{"icao":"LPPT","metar":"LPPT 221600Z 06004KT CAVOK 21/07 Q1026","updated":"2026-02-22T16:28:03Z"}
