{"icao":"KLAX","metar":"KLAX 031324Z 09004KT 2SM BR VCFG FEW001 SCT024 OVC060 14/14 A3004 RMK AO2 T01390139","updated":"2026-01-03T13:27:49Z"}
