{"icao":"LPMT","metar":"LPMT 041400Z 36008KT 320V030 9999 FEW028 16/12 Q1002","updated":"2026-01-04T14:17:28Z"}
