{"icao":"LPFR","metar":"LPFR 111030Z 20008KT 9999 FEW020 SCT045 20/13 Q1017","updated":"2026-05-11T10:37:10Z"}
