{"icao":"LPFR","metar":"LPFR 080900Z 29004KT 240V350 CAVOK 22/13 Q1021","updated":"2025-10-08T09:19:07Z"}
