{"icao":"KLAX","metar":"KLAX 300553Z 24006KT 9SM CLR 16/13 A2999 RMK AO2 SLP153 T01610128 10194 20161 50006","updated":"2026-04-30T05:58:07Z"}
