{"icao":"LPMR","metar":"LPMR 151600Z 35016KT 9999 FEW015 21/15 Q1022","updated":"2025-09-15T16:21:31Z"}
