{"icao":"LPBJ","metar":"LPBJ 041300Z 28017KT 3000 -RADZ BR BKN007 OVC012 14/14 Q0999","updated":"2026-02-04T14:03:48Z"}
