{"icao":"KJFK","metar":"KJFK 312351Z VRB04KT 10SM FEW090 SCT110 BKN250 20/10 A2986 RMK AO2 SLP112 T02000100 10250 20189 56004 $","updated":"2026-06-01T00:04:46Z"}
