{"icao":"LPFR","metar":"LPFR 292000Z 01004KT CAVOK 11/09 Q1020","updated":"2025-12-29T20:22:26Z"}
