{"icao":"LPAZ","metar":"LPAZ 050130Z 28034G52KT 8000 -SHRA FEW016 FEW028TCU SCT030 12/10 Q1001","updated":"2026-02-05T01:59:12Z"}
