{"icao":"LPMA","metar":"LPMA 280600Z 24012G25KT 200V310 8000 -RA BKN015 22/18 Q1013","updated":"2025-10-28T06:28:28Z"}
