{"icao":"LPPT","metar":"LPPT 231300Z 35007KT 320V020 CAVOK 28/16 Q1021","updated":"2026-05-23T13:22:00Z"}
