{"icao":"KLAX","metar":"KLAX 201853Z 24010KT 10SM FEW016 SCT022 SCT027 20/13 A3000 RMK AO2 SLP158 T02000128","updated":"2026-06-20T19:24:03Z"}
