{"icao":"LPCS","metar":"LPCS 301300Z 08007KT 040V120 CAVOK 20/01 Q1029","updated":"2026-03-30T13:16:31Z"}
