{"icao":"LPMT","metar":"LPMT 051500Z 35005KT 310V020 CAVOK 27/13 Q1019","updated":"2026-04-05T16:35:12Z"}
