{"icao":"LPPS","metar":"LPPS 131100Z 33017KT 9999 FEW015 FEW018CB 17/09 Q1019","updated":"2026-01-13T11:19:32Z"}
