{"icao":"LPAZ","metar":"LPAZ 061330Z 06006KT 030V100 9999 BKN049 16/06 Q1034","updated":"2026-01-06T13:36:45Z"}
