{"icao":"LPPT","metar":"LPPT 061730Z 24007KT 210V270 9999 VCSH FEW020 11/07 Q1007","updated":"2026-02-06T17:39:51Z"}
