{"icao":"KORD","metar":"KORD 011451Z 32009KT 10SM SCT026 BKN037 BKN070 08/02 A3001 RMK AO2 SLP166 T00830017 51008 $","updated":"2026-05-01T14:53:49Z"}
