{"icao":"KLAX","metar":"KLAX 062253Z 25012KT 10SM FEW013 SCT220 SCT280 22/14 A2984 RMK AO2 SLP103 T02170139 $","updated":"2026-06-06T23:06:22Z"}
