{"icao":"LPMT","metar":"LPMT 300900Z 21007KT 180V250 5000 -RA BR FEW009 SCT015 BKN020 14/14 Q1013","updated":"2026-01-30T10:32:30Z"}
