{"icao":"LPMR","metar":"LPMR 061500Z 33015KT 9999 FEW026 21/13 Q1019","updated":"2026-06-06T15:13:31Z"}
