{"icao":"LPPR","metar":"LPPR 160530Z 03007KT 350V060 9999 FEW020 09/06 Q1018","updated":"2026-05-16T05:53:10Z"}
