{"icao":"LPMA","metar":"LPMA 301500Z 01012KT 330V040 9999 BKN015 20/12 Q1021","updated":"2025-11-30T15:16:52Z"}
