{"icao":"LPPT","metar":"LPPT 242100Z 32006KT 290V350 9000 -DZ FEW006 BKN012 15/15 Q1017","updated":"2025-11-24T21:17:46Z"}
