{"icao":"LPFR","metar":"LPFR 172130Z 30012KT CAVOK 16/10 Q1018","updated":"2026-05-17T21:53:45Z"}
