{"icao":"LPCS","metar":"LPCS 161230Z 29011KT 260V320 9999 FEW016 15/10 Q1032","updated":"2026-02-16T13:00:41Z"}
