{"icao":"LPOV","metar":"LPOV 081000Z 33007KT 290V360 6000 SCT012 BKN032 18/16 Q1022","updated":"2025-10-08T11:14:30Z"}
