{"icao":"LPMR","metar":"LPMR 242200Z 20005KT 9999 FEW009 SCT020 18/18 Q1016","updated":"2025-10-24T22:16:43Z"}
