{"icao":"LPBJ","metar":"LPBJ 152200Z 29007KT CAVOK 14/11 Q1023","updated":"2026-04-15T22:39:36Z"}
