{"icao":"KLAX","metar":"KLAX 090853Z 35005KT 10SM CLR 17/14 A2991 RMK AO2 SLP124 T01670139 57001 $","updated":"2025-10-09T09:18:48Z"}
