{"icao":"LPAZ","metar":"LPAZ 051100Z 21008KT 9999 SCT044 17/08 Q1021","updated":"2026-04-05T11:28:26Z"}
