{"icao":"LPPR","metar":"LPPR 271900Z 03006KT CAVOK 06/02 Q1011","updated":"2025-12-27T19:14:16Z"}
