{"icao":"KJFK","metar":"KJFK 121851Z 32021KT 10SM SCT048 SCT220 02/M08 A2996 RMK AO2 PK WND 33028/1809 SLP145 T00171083 $","updated":"2026-02-12T19:08:53Z"}
