{"icao":"LPFR","metar":"LPFR 140600Z 34003KT 9999 FEW035 09/08 Q1017","updated":"2026-01-14T06:32:22Z"}
