{"icao":"LPMA","metar":"LPMA 130900Z 29007KT 260V330 9999 SCT015 FEW018CB 14/08 Q1018","updated":"2026-01-13T09:26:48Z"}
