{"icao":"KJFK","metar":"KJFK 302151Z 04017G24KT 10SM FEW042 SCT055 SCT250 16/05 A3002 RMK AO2 PK WND 36030/2108 SLP166 T01610050 $","updated":"2026-05-30T22:01:43Z"}
