{"icao":"LPPD","metar":"LPPD 281800Z 25009KT 0600 FG VV001 16/15 Q1029","updated":"2026-02-28T18:31:32Z"}
