{"icao":"KLAX","metar":"KLAX 211053Z 05003KT 10SM CLR 08/03 A3012 RMK AO2 SLP196 T00780028 $","updated":"2026-02-21T11:20:57Z"}
