{"icao":"KJFK","metar":"KJFK 061951Z 25010KT 10SM SCT037 SCT046 BKN200 BKN250 05/M02 A2988 RMK AO2 SLP116 T00501017 $","updated":"2025-12-06T20:19:37Z"}
