{"icao":"LPMA","metar":"LPMA 111130Z 20007KT 130V240 9999 FEW016 20/13 Q1026","updated":"2026-02-11T11:43:33Z"}
