{"icao":"LPLA","metar":"LPLA 210800Z VRB03KT 9999 FEW016 SCT023 23/17 Q1012","updated":"2025-10-21T08:25:38Z"}
