{"icao":"KORD","metar":"KORD 092251Z 18007KT 10SM BKN140 OVC250 03/M07 A2999 RMK AO2 SLP161 T00281067","updated":"2026-02-09T23:35:05Z"}
