{"icao":"LPPD","metar":"LPPD 031030Z 25027KT 4000 BR FEW004 BKN008 17/16 Q1006","updated":"2026-02-03T10:38:25Z"}
