{"icao":"LPAR","metar":"LPAR 310900Z 20015KT 9000 VCSH FEW008 SCT014 BKN045 20/18 Q1012","updated":"2025-10-31T09:19:40Z"}
