{"icao":"LPFR","metar":"LPFR 051930Z 31014KT CAVOK 24/11 Q1015","updated":"2026-06-05T19:52:17Z"}
