{"icao":"LPPD","metar":"LPPD 251730Z 33007KT 260V040 9999 FEW025 16/11 Q1028","updated":"2026-02-25T17:55:56Z"}
