{"icao":"LPOV","metar":"LPOV 220700Z VRB02KT 6000 NSC 03/03 Q1028","updated":"2026-02-22T07:34:40Z"}
