{"icao":"LPCS","metar":"LPCS 161630Z 34020G30KT 9999 FEW018 17/10 Q1018 WS R35","updated":"2026-05-16T17:01:44Z"}
