{"icao":"LPOV","metar":"LPOV 121200Z 25008KT 220V280 9999 FEW028 24/13 Q1017","updated":"2025-10-12T14:14:12Z"}
