{"icao":"KJFK","metar":"KJFK 152251Z 10013KT 10SM SCT046 BKN080 OVC220 05/01 A3034 RMK AO2 SLP273 T00500011","updated":"2026-03-15T23:27:33Z"}
