{"icao":"LPHR","metar":"LPHR 141100Z 29013KT 8000 VCSH FEW004 SCT008 BKN012 18/17 Q1021","updated":"2025-12-14T11:15:50Z"}
