{"icao":"KLAX","metar":"KLAX 231953Z 24007KT 10SM FEW009 SCT025 22/15 A3003 RMK AO2 SLP167 T02170150 $","updated":"2026-06-23T20:03:39Z"}
