{"icao":"LPFR","metar":"LPFR 250300Z 29009KT 9999 FEW015 16/14 Q1018","updated":"2025-11-25T03:13:35Z"}
