{"icao":"KJFK","metar":"KJFK 250451Z 00000KT 10SM SCT150 BKN200 00/M05 A3028 RMK AO2 SLP252 T00001050 400830000 $","updated":"2025-12-25T05:22:58Z"}
