{"icao":"KORD","metar":"KORD 231451Z 27007KT 10SM BKN250 04/01 A3004 RMK AO2 SLP177 T00440006 53021","updated":"2025-12-23T15:21:05Z"}
