{"icao":"KLAX","metar":"KLAX 122053Z 27013KT 10SM FEW010 FEW045 23/17 A2985 RMK AO2 SLP104 T02280172 58013","updated":"2026-06-12T21:42:35Z"}
