{"icao":"KJFK","metar":"KJFK 290351Z 27017G25KT 10SM FEW065 02/M07 A3017 RMK PK WND 26027/0257 SLP215 T00171072 ","updated":"2025-11-29T04:22:00Z"}
