{"icao":"LPAR","metar":"LPAR 041400Z 15007KT 9999 FEW020 21/16 Q1014","updated":"2025-11-04T14:19:04Z"}
