{"icao":"LPPT","metar":"LPPT 291100Z 04015KT CAVOK 16/01 Q1030","updated":"2026-03-29T11:27:31Z"}
