{"icao":"KORD","metar":"KORD 220951Z 29012G21KT 10SM OVC030 08/02 A2974 RMK AO2 PK WND 27026/0910 SLP071 T00830017","updated":"2025-10-22T10:20:22Z"}
