{"icao":"LPFR","metar":"LPFR 271330Z 19004KT 150V230 CAVOK 18/13 Q1022","updated":"2026-02-27T14:00:48Z"}
