{"icao":"KORD","metar":"KORD 120451Z 26004KT 10SM CLR 00/M03 A3014 RMK AO2 SLP213 T00001033","updated":"2026-03-12T05:50:28Z"}
