{"icao":"LPPD","metar":"LPPD 300930Z 26009KT 9000 FEW007 SCT011 15/14 Q1020","updated":"2026-01-30T09:36:59Z"}
