{"icao":"LPFL","metar":"LPFL 151500Z 18016G27KT 150V220 9999 FEW018 SCT035 18/14 Q1023","updated":"2026-02-15T15:24:56Z"}
