{"icao":"KORD","metar":"KORD 112351Z 06013KT 10SM BKN250 09/M04 A3023 RMK AO2 SLP238 T00891044 10133 20089 55000 $","updated":"2026-05-11T23:56:42Z"}
