{"icao":"LPPT","metar":"LPPT 311700Z 21013KT 7000 3000W RADZ FEW004 BKN008 19/18 Q1013","updated":"2025-10-31T17:16:50Z"}
