{"icao":"LPHR","metar":"LPHR 142000Z 34004KT 290V030 9999 FEW028 13/09 Q1010","updated":"2025-11-14T20:20:30Z"}
