{"icao":"KORD","metar":"KORD 231251Z 20006KT 10SM FEW250 17/13 A2992 RMK AO2 SLP130 T01670128","updated":"2026-04-23T13:26:40Z"}
