{"icao":"KORD","metar":"KORD 121251Z 00000KT 10SM FEW026 FEW250 M06/M10 A3010 RMK AO2 SLP202 T10611100","updated":"2025-12-12T13:33:47Z"}
