{"icao":"KORD","metar":"KORD 181251Z 21011G18KT 10SM BKN016 BKN024 OVC034 12/09 A2946 RMK AO2 SLP975 T01170094","updated":"2026-02-18T13:01:44Z"}
