{"icao":"LPAZ","metar":"LPAZ 301600Z 16014KT 9000 -DZ BKN005 18/18 Q1011","updated":"2025-12-30T16:26:01Z"}
