{"icao":"LPOV","metar":"LPOV 021400Z 31006KT 290V350 9999 FEW003 21/15 Q1021","updated":"2025-10-02T15:17:43Z"}
