{"icao":"LPOV","metar":"LPOV 241000Z 20005KT 170V240 9999 SCT005 BKN009 21/20 Q1015","updated":"2026-06-24T10:47:27Z"}
