{"icao":"LPMA","metar":"LPMA 161100Z 35010KT 300V030 9999 SCT018 21/10 Q1021","updated":"2025-11-16T11:13:25Z"}
