{"icao":"KORD","metar":"KORD 070551Z 19010G21KT 10SM BKN050 OVC110 12/M02 A2969 RMK AO2 PK WND 18027/0513 SLP054 T01221017 10133 20117 401500017 58043 $","updated":"2025-11-07T06:27:47Z"}
