{"icao":"LPHR","metar":"LPHR 101330Z 21025G36KT 5000 -RA BR SCT005 BKN008 19/18 Q1012","updated":"2025-12-10T13:36:22Z"}
