{"icao":"LPAZ","metar":"LPAZ 011900Z 25006KT 9999 FEW007 SCT015 23/21 Q1022","updated":"2025-10-01T19:14:00Z"}
