{"icao":"LPBJ","metar":"LPBJ 232100Z 28005KT CAVOK 18/17 Q1020","updated":"2025-10-23T21:15:27Z"}
