{"icao":"LPFL","metar":"LPFL 011530Z 10006KT 040V140 9999 FEW017 18/12 Q1018","updated":"2026-05-01T15:56:15Z"}
