{"icao":"KJFK","metar":"KJFK 240151Z 17004KT 10SM BKN140 BKN250 12/09 A2986 RMK SLP109 T01220089 ","updated":"2026-04-24T02:33:25Z"}
