{"icao":"LPPR","metar":"LPPR 182000Z 20004KT 100V240 CAVOK 19/15 Q1020","updated":"2025-09-18T20:19:29Z"}
