{"icao":"LPBJ","metar":"LPBJ 070727Z 16012KT 3000 RA FEW018CB BKN025 09/09 Q1009","updated":"2026-02-07T07:30:31Z"}
