{"icao":"LPAZ","metar":"LPAZ 180300Z 22011KT 9999 FEW004 SCT007 BKN023 22/21 Q1015","updated":"2025-10-18T03:27:06Z"}
