{"icao":"LPPS","metar":"LPPS 010400Z 21011KT 9999 FEW015 21/16 Q1015","updated":"2025-11-01T04:19:04Z"}
