{"icao":"KORD","metar":"KORD 010751Z 35009KT 10SM CLR M10/M16 A3002 RMK AO2 SLP176 T11001161","updated":"2026-01-01T08:28:22Z"}
