{"icao":"LPAZ","metar":"LPAZ 131900Z 31010KT 9999 SCT025 14/09 Q1026","updated":"2026-01-13T19:19:02Z"}
