{"icao":"LPBJ","metar":"LPBJ 171800Z 35003KT 320V030 9999 FEW030 26/13 Q1014","updated":"2025-10-17T18:23:10Z"}
