{"icao":"LPPS","metar":"LPPS 260300Z 22008KT 190V250 9999 FEW014 22/21 Q1014","updated":"2025-10-26T03:08:57Z"}
