{"icao":"LPMT","metar":"LPMT 081400Z 33011KT CAVOK 26/14 Q1021","updated":"2026-06-08T14:46:48Z"}
