{"icao":"LPOV","metar":"LPOV 200500Z 01003KT 340V050 0100 FG OVC002 17/17 Q1016","updated":"2026-06-20T05:11:57Z"}
