{"icao":"LPPS","metar":"LPPS 122200Z 06013KT 020V110 9999 BKN015 16/11 Q1025","updated":"2026-03-12T22:24:06Z"}
