{"icao":"LPPD","metar":"LPPD 081900Z 04013KT 010V070 9999 FEW030 13/07 Q1030","updated":"2026-03-08T19:22:34Z"}
