{"icao":"LPLA","metar":"LPLA 161600Z 23011G21KT 200V260 9999 FEW023 26/19 Q1020","updated":"2025-09-16T16:21:40Z"}
