{"icao":"KORD","metar":"KORD 050551Z 19015G25KT 10SM SCT110 BKN250 01/M04 A2985 RMK AO2 SLP115 T00111044 10011 21011 400111061 58034 $","updated":"2026-01-05T06:37:39Z"}
