{"icao":"LPFR","metar":"LPFR 202300Z 02008KT CAVOK 21/08 Q1021","updated":"2026-05-20T23:11:43Z"}
