{"icao":"LPPS","metar":"LPPS 202300Z 08008KT 040V110 9999 FEW015 BKN030 15/10 Q1028","updated":"2026-02-20T23:27:32Z"}
