{"icao":"LPPD","metar":"LPPD 210800Z 06005KT 020V090 9999 FEW020 BKN035 15/09 Q1031","updated":"2025-11-21T08:26:23Z"}
