{"icao":"LPMR","metar":"LPMR 300500Z 18004KT 8000 FEW012 BKN032 13/12 Q1012","updated":"2025-10-30T06:27:31Z"}
