{"icao":"LPAZ","metar":"LPAZ 121630Z 28024KT 9999 SCT016 17/13 Q1019","updated":"2026-02-12T16:57:08Z"}
