{"icao":"LPFR","metar":"LPFR 051700Z 33012KT CAVOK 11/M01 Q1011","updated":"2026-01-05T17:21:30Z"}
