{"icao":"LPCS","metar":"LPCS 221700Z 29005KT 250V320 9999 FEW005 SCT012 BKN029 12/12 Q1014 RESHRA","updated":"2025-12-22T17:17:34Z"}
