{"icao":"LPPS","metar":"LPPS 191130Z 10010KT 050V130 9999 SCT015 17/11 Q1028","updated":"2026-02-19T11:37:39Z"}
