{"icao":"LPPT","metar":"LPPT 222300Z 30017G29KT 260V320 9999 FEW006 13/10 Q1004 WS R20","updated":"2026-01-22T23:19:46Z"}
