{"icao":"LPFR","metar":"LPFR 141500Z 26013KT CAVOK 27/18 Q1018","updated":"2025-09-14T15:14:27Z"}
