{"icao":"LPOV","metar":"LPOV 091000Z VRB02KT CAVOK 14/11 Q1022","updated":"2025-11-09T10:16:47Z"}
