{"icao":"LPCS","metar":"LPCS 271230Z 28016KT 250V310 9999 FEW015 13/08 Q1003","updated":"2026-01-27T12:48:06Z"}
