{"icao":"KJFK","metar":"KJFK 271651Z 27015KT 10SM FEW050 BKN250 M07/M16 A3008 RMK AO2 SLP184 T10671161 $","updated":"2026-01-27T17:26:33Z"}
