{"icao":"KLAX","metar":"KLAX 221153Z 10003KT 5SM BR OVC009 16/14 A2988 RMK AO2 SLP115 T01610144 10161 20156 56010","updated":"2026-03-22T12:49:39Z"}
