{"icao":"LPOV","metar":"LPOV 220600Z 36003KT 330V030 CAVOK 10/08 Q1022","updated":"2025-09-22T06:27:50Z"}
