{"icao":"LPLA","metar":"LPLA 011200Z 31019KT 7000 -RA SCT014 BKN018 BKN030 15/13 Q1024","updated":"2026-03-01T12:45:42Z"}
