{"icao":"LPPS","metar":"LPPS 211930Z 01009KT 9999 SCT015 18/14 Q1020","updated":"2026-05-21T19:56:29Z"}
