{"icao":"LPPR","metar":"LPPR 012200Z 19017KT 8000 -RADZ BKN002 BKN004 14/14 Q0998 RERA","updated":"2026-02-01T22:22:49Z"}
