{"icao":"LPMT","metar":"LPMT 281800Z 22007KT 170V260 CAVOK 19/14 Q1007","updated":"2026-04-28T18:15:48Z"}
