{"icao":"KORD","metar":"KORD 290751Z 18003KT 10SM OVC085 M02/M09 A3036 RMK AO2 SLP290 T10221089 $","updated":"2025-11-29T08:23:37Z"}
