{"icao":"LPFR","metar":"LPFR 281000Z 28013KT 3000 -RADZ BR FEW008 SCT018 BKN032 15/13 Q1005","updated":"2026-01-28T10:27:02Z"}
