{"icao":"LPMT","metar":"LPMT 010100Z 05002KT CAVOK 11/10 Q1019","updated":"2026-05-01T02:55:06Z"}
