{"icao":"LPMA","metar":"LPMA 011300Z 03012KT 360V070 9999 SCT015 BKN030 23/16 Q1022","updated":"2025-10-01T13:28:13Z"}
