{"icao":"LPPR","metar":"LPPR 290500Z 31005KT CAVOK 09/03 Q1030","updated":"2026-03-29T05:09:22Z"}
