{"icao":"LPMR","metar":"LPMR 252200Z 28002KT 7000 NSC 11/11 Q1018","updated":"2026-03-25T22:34:28Z"}
