{"icao":"KLAX","metar":"KLAX 290653Z 00000KT 10SM SCT250 15/03 A3017 RMK AO2 SLP214 T01500028","updated":"2026-01-29T07:38:34Z"}
