{"icao":"LPMT","metar":"LPMT 261700Z 02007KT CAVOK 14/07 Q1024","updated":"2025-11-26T17:17:16Z"}
