{"icao":"LPBJ","metar":"LPBJ 111200Z 06009KT 040V110 CAVOK 25/13 Q1019","updated":"2025-10-11T12:31:44Z"}
