{"icao":"LPFR","metar":"LPFR 310800Z 28004KT 250V330 7000 FEW030 BKN040 12/09 Q1020","updated":"2026-01-31T08:28:47Z"}
