{"icao":"KORD","metar":"KORD 071451Z 07010KT 10SM FEW037 01/M09 A3053 RMK AO2 SLP346 T00061094 51017 $","updated":"2026-04-07T15:06:40Z"}
