{"icao":"LPFL","metar":"LPFL 241400Z 18015KT 150V220 5000 RA FEW003 SCT008 BKN012 17/17 Q1018","updated":"2025-12-24T14:19:08Z"}
