{"icao":"LPPR","metar":"LPPR 270730Z 12007KT 3000 -RA BR SCT004 BKN011 11/10 Q1024","updated":"2026-02-27T07:44:37Z"}
