{"icao":"LPOV","metar":"LPOV 210900Z 08006KT 330V120 9000 -SHRA SCT011 SCT020CB BKN026 05/05 Q1008 RESHRAGS","updated":"2025-12-21T09:18:48Z"}
