{"icao":"LPFR","metar":"LPFR 302200Z 02010KT CAVOK 14/07 Q1018","updated":"2025-11-30T22:17:13Z"}
