{"icao":"KORD","metar":"KORD 180651Z 24009G19KT 9SM -SN SCT017 SCT065 BKN110 M11/M14 A3004 RMK AO2 SLP187 P0000 T11061144 $","updated":"2026-01-18T07:19:01Z"}
