{"icao":"LPFL","metar":"LPFL 131800Z 23015G28KT 190V290 9999 FEW009 20/16 Q1021","updated":"2025-12-13T18:25:02Z"}
