{"icao":"LPFR","metar":"LPFR 070800Z VRB02KT 9999 FEW010 16/12 Q1018","updated":"2025-11-07T08:24:49Z"}
