{"icao":"LPAR","metar":"LPAR 251000Z 24009KT 210V270 9999 4000N VCSH SCT007 BKN018 21/20 Q1014","updated":"2025-10-25T10:16:47Z"}
