{"icao":"LPMT","metar":"LPMT 220200Z 04004KT 020V090 CAVOK 07/05 Q1029","updated":"2025-11-22T03:02:50Z"}
