{"icao":"KJFK","metar":"KJFK 190251Z 19007KT 10SM SCT250 16/11 A3004 RMK AO2 SLP172 T01560111 51004 $","updated":"2025-10-19T03:14:35Z"}
