{"icao":"KLAX","metar":"KLAX 171053Z VRB03KT 10SM CLR 16/12 A2989 RMK AO2 SLP119 T01560122 $","updated":"2025-10-17T11:15:01Z"}
