{"icao":"KORD","metar":"KORD 211751Z 21014G23KT 10SM FEW060 FEW110 SCT200 BKN300 22/09 A2986 RMK AO2 PK WND 23027/1703 SLP111 CB DSNT N MOV SE T02220094 10222 20111 58022 $","updated":"2026-04-21T18:06:56Z"}
