{"icao":"KJFK","metar":"KJFK 212051Z 19016G24KT 10SM SCT030 SCT170 BKN220 01/M04 A3033 RMK PK WND 19027/1958 PRESFR SLP268 T00111039 56052 $ ","updated":"2026-01-21T21:27:39Z"}
