{"icao":"KORD","metar":"KORD 042051Z 26015G23KT 10SM OVC022 08/03 A2987 RMK AO2 PK WND 25028/2019 SLP117 T00830033 53006 $","updated":"2026-04-04T21:30:15Z"}
