{"icao":"LPOV","metar":"LPOV 070600Z 36008KT CAVOK 08/04 Q1019","updated":"2026-03-07T06:38:48Z"}
