{"icao":"KORD","metar":"KORD 151351Z 30008KT 10SM FEW024 M11/M15 A2999 RMK AO2 SLP167 T11061150 $","updated":"2026-01-15T14:23:49Z"}
