{"icao":"LPCS","metar":"LPCS 221400Z 10004KT 060V170 CAVOK 22/07 Q1026","updated":"2026-02-22T14:24:34Z"}
