{"icao":"KORD","metar":"KORD 220351Z 27012G21KT 10SM BKN030 OVC040 08/03 A2974 RMK AO2 SLP071 T00830033","updated":"2025-10-22T04:21:23Z"}
