{"icao":"LPST","metar":"LPST 141300Z 33012KT 300V360 9999 -SHRA BKN012 13/11 Q1020","updated":"2026-01-14T13:39:18Z"}
