{"icao":"LPAZ","metar":"LPAZ 081700Z 21012KT 9000 -SHRA SCT008 BKN014 21/19 Q1021","updated":"2025-11-08T17:14:27Z"}
