{"icao":"LPMR","metar":"LPMR 080400Z 17004KT 6000 FEW020 BKN028 05/05 Q1031","updated":"2026-01-08T04:38:16Z"}
