{"icao":"LPPT","metar":"LPPT 180600Z VRB01KT 1500 R20/1100U BR FEW001 SCT003 09/09 Q1022","updated":"2025-12-18T06:31:05Z"}
