{"icao":"LPPR","metar":"LPPR 121400Z 27005KT 230V300 9999 FEW030 26/12 Q1016","updated":"2025-10-12T14:14:12Z"}
