{"icao":"LPMA","metar":"LPMA 261830Z 36016KT 310V020 9999 SCT015 16/10 Q1023","updated":"2026-02-26T18:55:48Z"}
