{"icao":"LPMA","metar":"LPMA 211230Z 03010KT 350V070 9999 SCT015 25/21 Q1021","updated":"2025-10-21T12:39:14Z"}
