{"icao":"LPBJ","metar":"LPBJ 121000Z 08007KT 050V120 CAVOK 23/13 Q1017","updated":"2025-10-12T10:16:35Z"}
