{"icao":"LPPR","metar":"LPPR 050930Z 21016G29KT 9999 FEW016CB SCT020 14/10 Q0987","updated":"2026-02-05T09:42:26Z"}
