{"icao":"LPPD","metar":"LPPD 011700Z 23007KT 210V280 9999 FEW015 24/21 Q1021","updated":"2025-10-01T17:15:44Z"}
