{"icao":"KJFK","metar":"KJFK 190451Z 15010KT 8SM -RA FEW017 BKN043 OVC050 09/08 A2998 RMK AO2 RAB43 SLP152 P0000 T00940083 401001017","updated":"2025-12-19T05:20:43Z"}
