{"icao":"LPPT","metar":"LPPT 030300Z 31009KT CAVOK 16/14 Q1022","updated":"2025-10-03T03:27:36Z"}
