{"icao":"LPPR","metar":"LPPR 262100Z 18003KT 4000 BR SCT002 15/15 Q1019","updated":"2025-09-26T21:14:22Z"}
