{"icao":"LPCS","metar":"LPCS 291400Z 35010KT 320V020 9999 FEW030 26/15 Q1015","updated":"2025-09-29T14:17:56Z"}
