{"icao":"LPPT","metar":"LPPT 230600Z 29006KT 250V320 9999 BKN012 21/19 Q1020","updated":"2025-10-23T06:27:13Z"}
