{"icao":"LPAR","metar":"LPAR 101700Z 23005KT 9999 FEW015 19/14 Q1017","updated":"2025-11-11T01:24:24Z"}
