{"icao":"LPMR","metar":"LPMR 130600Z 17003KT CAVOK 13/10 Q1015","updated":"2025-10-13T06:28:28Z"}
