{"icao":"LPMA","metar":"LPMA 050930Z 02013KT 350V050 9999 FEW013 SCT070 18/12 Q1017","updated":"2026-04-05T09:37:38Z"}
