{"icao":"LPOV","metar":"LPOV 312000Z 35011KT 9999 BKN006 18/17 Q1020","updated":"2026-05-31T22:05:10Z"}
