{"icao":"LPCS","metar":"LPCS 170700Z 03007KT CAVOK 17/08 Q1020","updated":"2025-09-17T07:16:26Z"}
