{"icao":"LPHR","metar":"LPHR 131230Z 30018G29KT 9999 SCT025 16/10 Q1008 WS R28","updated":"2025-11-13T12:40:09Z"}
