{"icao":"LPFR","metar":"LPFR 240130Z 27023KT 9999 BKN035 11/05 Q1008","updated":"2026-01-24T01:38:38Z"}
