{"icao":"LPPR","metar":"LPPR 261530Z 30005KT 260V330 9999 FEW005 15/12 Q1024","updated":"2026-02-26T15:52:13Z"}
