{"icao":"LPMT","metar":"LPMT 172000Z 35009KT CAVOK 19/10 Q1016","updated":"2026-04-17T21:03:55Z"}
