{"icao":"LPPD","metar":"LPPD 061400Z 28007KT 250V310 9999 FEW025 BKN040 15/08 Q1023","updated":"2026-05-06T14:07:13Z"}
