{"icao":"LPBJ","metar":"LPBJ 162300Z 23007KT 9999 FEW017 SCT032 12/11 Q1013","updated":"2025-11-16T23:16:07Z"}
