{"icao":"LPLA","metar":"LPLA 051700Z 10005KT 070V140 9999 BKN040 13/03 Q1036","updated":"2026-03-05T18:02:25Z"}
