{"icao":"LPMR","metar":"LPMR 161200Z 31006KT 270V350 4000 BR FEW006 19/15 Q1015","updated":"2025-10-16T12:38:40Z"}
