{"icao":"KLAX","metar":"KLAX 060453Z 11006KT 10SM FEW015 FEW150 SCT250 17/15 A3008 RMK AO2 SLP185 T01720150","updated":"2026-02-06T05:52:16Z"}
