{"icao":"LPLA","metar":"LPLA 271200Z 36014KT 330V030 7000 -SHRA FEW015 BKN020 BKN040 18/14 Q1019","updated":"2025-10-27T12:39:17Z"}
