{"icao":"LPFR","metar":"LPFR 101100Z 34004KT 300V030 9999 FEW014 14/09 Q1031","updated":"2026-01-10T11:15:53Z"}
