{"icao":"LPPS","metar":"LPPS 061330Z 03014KT 360V060 9999 FEW015 16/07 Q1028","updated":"2026-01-06T13:36:49Z"}
