{"icao":"LPMA","metar":"LPMA 042000Z 17005KT 9999 BKN008 19/18 Q1016","updated":"2026-05-04T20:13:26Z"}
