{"icao":"KORD","metar":"KORD 201351Z 25008KT 10SM FEW020 M16/M20 A3035 RMK AO2 SLP296 T11561200 $","updated":"2026-01-20T14:30:00Z"}
