{"icao":"KJFK","metar":"KJFK 061451Z 29007KT 10SM BKN012 OVC050 03/M01 A2995 RMK AO2 SLP142 T00331006 53004 $","updated":"2025-12-06T15:17:24Z"}
