{"icao":"LPPS","metar":"LPPS 010430Z 04007KT 010V070 9999 FEW015 BKN030 17/10 Q1022","updated":"2025-12-01T04:48:48Z"}
