{"icao":"LPST","metar":"LPST 281100Z 15016KT 4000 -RA BR BKN009 BKN012 FEW013TCU 19/18 Q1013","updated":"2025-10-28T11:14:51Z"}
