{"icao":"LPMT","metar":"LPMT 212200Z 33003KT CAVOK 23/14 Q1017","updated":"2026-06-21T22:13:27Z"}
