{"icao":"KORD","metar":"KORD 030451Z 21013G20KT 9SM OVC008 M06/M08 A2998 RMK AO2 SLP165 T10611078","updated":"2025-12-03T05:19:17Z"}
