{"icao":"LPBJ","metar":"LPBJ 021200Z 30006KT 6000 2100N VCFG SCT004 SCT010 11/10 Q1019","updated":"2025-12-02T12:41:11Z"}
