{"icao":"LPAZ","metar":"LPAZ 091500Z 03012KT 350V050 9999 SCT005 BKN012 19/14 Q1032","updated":"2026-04-09T15:21:13Z"}
