{"icao":"LPFL","metar":"LPFL 232000Z 29003KT 240V360 9999 FEW028 19/13 Q1026","updated":"2025-09-24T02:57:46Z"}
