{"icao":"LPOV","metar":"LPOV 280700Z 23005KT 140V280 9999 FEW020 SCT045 07/06 Q0992","updated":"2026-01-28T07:24:50Z"}
