{"icao":"LPAZ","metar":"LPAZ 070300Z 09005KT 9999 BKN040 13/07 Q1034","updated":"2026-01-07T03:28:21Z"}
