{"icao":"LPFL","metar":"LPFL 301100Z VRB06KT 9999 FEW019 18/10 Q1008","updated":"2025-10-30T11:15:31Z"}
