{"icao":"LPAZ","metar":"LPAZ 250830Z 05007KT 020V110 9999 FEW020 BKN028 14/09 Q1028","updated":"2026-03-25T08:50:31Z"}
