{"icao":"LPCS","metar":"LPCS 241400Z 03011KT 9999 FEW027 13/07 Q1008","updated":"2025-12-24T14:18:49Z"}
