{"icao":"KORD","metar":"KORD 070251Z 27010KT 4SM BR OVC007 04/03 A2972 RMK AO2 DZE39 SLP069 P0000 60000 T00440033 53009","updated":"2026-01-07T03:28:37Z"}
