{"icao":"LPLA","metar":"LPLA 241705Z 20021KT 160V220 5000 -RADZ BR BKN006 BKN014 18/16 Q1009","updated":"2026-04-24T17:49:20Z"}
