{"icao":"LPHR","metar":"LPHR 230800Z 28005KT 240V310 9999 FEW012 20/17 Q1025","updated":"2026-06-23T08:33:24Z"}
