{"icao":"LPCS","metar":"LPCS 041900Z 36024KT 9999 FEW007 19/17 Q1022 WS R35","updated":"2025-10-04T19:11:49Z"}
