{"icao":"LPLA","metar":"LPLA 052000Z 16007KT 9999 FEW014 SCT023 BKN035 22/19 Q1021","updated":"2025-10-05T20:17:40Z"}
