{"icao":"LPAZ","metar":"LPAZ 110930Z 35003KT 320V030 9999 FEW023 BKN026 14/09 Q1033","updated":"2026-03-11T09:40:51Z"}
