{"icao":"LPAR","metar":"LPAR 161300Z 01006KT 320V070 CAVOK 25/12 Q1020","updated":"2026-04-16T13:27:40Z"}
