{"icao":"LPPS","metar":"LPPS 161300Z 01010KT 340V050 9999 FEW015 BKN030 19/12 Q1024","updated":"2026-05-16T13:19:33Z"}
