{"icao":"KJFK","metar":"KJFK 222051Z 25014KT 10SM FEW050 SCT220 BKN250 08/M06 A3000 RMK PK WND 25027/2023 SLP159 T00781056 $ ","updated":"2026-01-22T21:21:28Z"}
