{"icao":"KJFK","metar":"KJFK 141651Z 36017KT 10SM SCT012 BKN018 16/12 A3002 RMK AO2 RAE32 SLP167 P0000 T01560117","updated":"2025-10-14T17:15:34Z"}
