{"icao":"LPMT","metar":"LPMT 152200Z 05003KT CAVOK 19/11 Q1016","updated":"2025-10-15T22:15:09Z"}
