{"icao":"LPPS","metar":"LPPS 010830Z 06006KT 310V100 9999 FEW012 17/13 Q1023","updated":"2026-04-01T09:02:33Z"}
