{"icao":"LPAZ","metar":"LPAZ 041230Z 02011KT 350V050 9999 FEW020 SCT025 16/11 Q1020","updated":"2026-01-04T12:38:13Z"}
