{"icao":"LPFR","metar":"LPFR 261400Z 11011KT CAVOK 17/05 Q1022","updated":"2025-11-26T14:19:24Z"}
