{"icao":"LPPS","metar":"LPPS 020000Z 02010KT 9999 SCT011 BKN025 18/16 Q1025","updated":"2026-06-02T00:12:07Z"}
