{"icao":"LPFL","metar":"LPFL 030700Z 17008KT 110V220 9999 -DZ FEW008 BKN012 24/21 Q1017","updated":"2025-10-03T07:16:49Z"}
