{"icao":"KORD","metar":"KORD 151351Z 09006KT 10SM CLR 22/15 A3018 RMK AO2 SLP216 T02220150 $","updated":"2025-09-15T14:18:18Z"}
