{"icao":"LPLA","metar":"LPLA 171900Z 33023G39KT 9000 -SHRA BKN025 SCT030 10/03 Q1015","updated":"2026-03-17T19:06:24Z"}
