{"icao":"LPMA","metar":"LPMA 070800Z 25005KT 220V280 9999 SCT015 16/08 Q1019","updated":"2026-02-07T08:30:06Z"}
