{"icao":"LPCS","metar":"LPCS 220800Z 36016KT CAVOK 14/08 Q1020","updated":"2025-09-22T08:24:36Z"}
