{"icao":"LPAZ","metar":"LPAZ 260400Z 08005KT 050V110 9999 FEW018 SCT027 15/15 Q1026","updated":"2025-11-26T04:25:22Z"}
