{"icao":"KJFK","metar":"KJFK 242051Z 18008KT 10SM FEW250 07/M07 A3034 RMK AO2 SLP275 T00721072 56013","updated":"2026-03-24T21:36:53Z"}
