{"icao":"LPPD","metar":"LPPD 090900Z 32008KT 280V340 9999 -SHRA SCT025 SCT040 14/07 Q1018","updated":"2025-12-09T09:23:01Z"}
