{"icao":"LPAZ","metar":"LPAZ 010430Z 29013KT 9999 SCT004 BKN011 15/14 Q1026","updated":"2026-03-01T04:52:08Z"}
