{"icao":"LPBJ","metar":"LPBJ 121900Z 32019KT CAVOK 13/03 Q1018","updated":"2026-04-12T19:38:08Z"}
