{"icao":"LPPR","metar":"LPPR 181600Z 26007KT 220V300 9999 FEW025 16/09 Q1020","updated":"2026-05-18T16:20:50Z"}
