{"icao":"LPMT","metar":"LPMT 081600Z 24007KT 200V270 9999 3000S -RADZ FEW005 SCT008 BKN018 13/13 Q1031","updated":"2026-01-08T16:28:41Z"}
