{"icao":"LPAZ","metar":"LPAZ 022230Z 07008KT 030V120 9999 FEW018 SCT026 16/12 Q1020","updated":"2026-05-02T22:39:28Z"}
