{"icao":"KLAX","metar":"KLAX 291653Z VRB04KT 10SM FEW280 18/M02 A3020 RMK AO2 SLP225 T01781017","updated":"2026-01-29T17:36:03Z"}
