{"icao":"LPPR","metar":"LPPR 270800Z 11007KT CAVOK 07/05 Q1025","updated":"2025-11-27T08:26:57Z"}
