{"icao":"LPPR","metar":"LPPR 290330Z 17006KT 9999 SCT005 SCT011 16/15 Q1006","updated":"2026-04-29T03:42:09Z"}
