{"icao":"LPPT","metar":"LPPT 082200Z 32006KT CAVOK 14/11 Q1023","updated":"2025-11-08T22:15:08Z"}
