{"icao":"KLAX","metar":"KLAX 241453Z 04003KT 6SM HZ FEW009 16/14 A3002 RMK AO2 SLP163 T01610139 51008","updated":"2025-10-24T15:19:21Z"}
