{"icao":"LPCS","metar":"LPCS 111530Z 24006KT 200V300 9999 FEW035 18/10 Q1025","updated":"2026-03-11T15:47:10Z"}
