{"icao":"LPAZ","metar":"LPAZ 312200Z 25003KT 0900 R18/0900 FG VV002 19/19 Q1028","updated":"2026-05-31T22:05:13Z"}
