{"icao":"LPMA","metar":"LPMA 081300Z 29010KT 230V030 9999 SCT015 18/08 Q1021","updated":"2026-04-08T13:18:11Z"}
