{"icao":"LPPR","metar":"LPPR 231000Z 17008KT 9999 BKN004 BKN010 12/12 Q1026","updated":"2025-11-23T10:17:38Z"}
