{"icao":"KLAX","metar":"KLAX 082153Z 26006KT 10SM CLR 21/12 A3008 RMK AO2 SLP185 T02060122 $","updated":"2025-12-08T22:18:48Z"}
