{"icao":"LPFR","metar":"LPFR 031700Z 21004KT 180V240 CAVOK 25/15 Q1020","updated":"2025-10-03T17:14:21Z"}
