{"icao":"LPPS","metar":"LPPS 302300Z 32009KT 7000 SCT004 BKN008 17/17 Q1025","updated":"2026-01-30T23:24:02Z"}
