{"icao":"LPFL","metar":"LPFL 261630Z 21014G25KT 160V260 9999 VCSH SCT022 FEW026CB 16/11 Q1009","updated":"2026-05-26T16:41:03Z"}
