{"icao":"LPOV","metar":"LPOV 221200Z 19007KT 150V210 9999 SCT025 10/08 Q1012","updated":"2025-12-22T12:40:22Z"}
