{"icao":"KJFK","metar":"KJFK 120951Z 02005KT 10SM CLR 06/M03 A3049 RMK AO2 SLP325 T00561028","updated":"2026-04-12T10:37:28Z"}
