{"icao":"KJFK","metar":"KJFK 181351Z 35005KT 10SM BKN070 BKN250 14/04 A3006 RMK AO2 SLP178 T01390039","updated":"2025-10-18T14:14:57Z"}
