{"icao":"LPFL","metar":"LPFL 271030Z 18019G29KT 150V220 6000 -RA SCT006 SCT010 16/15 Q1013 RERA","updated":"2026-04-27T11:02:48Z"}
