{"icao":"LPPS","metar":"LPPS 251300Z 03015KT 360V060 9999 FEW013 19/14 Q1020","updated":"2026-03-25T13:07:50Z"}
