{"icao":"LPST","metar":"LPST 070900Z 23009KT 9000 -SHRA SCT012 BKN030 18/15 Q1016","updated":"2025-11-07T09:19:04Z"}
