{"icao":"LPOV","metar":"LPOV 281000Z 19004KT 8000 NSC 09/08 Q1025","updated":"2025-11-28T10:20:46Z"}
