{"icao":"LPHR","metar":"LPHR 271300Z 08011KT 050V110 9999 FEW035 BKN047 22/13 Q1026","updated":"2025-09-27T13:19:54Z"}
