{"icao":"LPAZ","metar":"LPAZ 092200Z 35007KT 9999 FEW009 BKN035 19/17 Q1030","updated":"2026-06-09T22:23:06Z"}
