{"icao":"KJFK","metar":"KJFK 261451Z 36013KT 10SM SCT180 OVC250 M04/M17 A3027 RMK AO2 SLP248 T10441167 51003 $","updated":"2025-12-26T15:19:33Z"}
