{"icao":"LPST","metar":"LPST 091700Z 28017KT 1500 -DZ BR OVC002 15/14 Q1013","updated":"2026-02-09T22:34:08Z"}
