{"icao":"LPFR","metar":"LPFR 241030Z 08007KT 060V120 6000 OVC003 14/13 Q1021","updated":"2026-02-24T10:47:44Z"}
