{"icao":"LPFR","metar":"LPFR 202100Z 26003KT CAVOK 24/19 Q1014","updated":"2026-06-20T21:16:46Z"}
