{"icao":"LPPT","metar":"LPPT 102330Z 23007KT 7000 -DZ BKN003 16/16 Q1018","updated":"2026-02-10T23:36:35Z"}
