{"icao":"LPPT","metar":"LPPT 082200Z 24005KT 210V310 9999 FEW010 SCT022 12/11 Q1030","updated":"2026-01-08T22:20:10Z"}
