{"icao":"LPAZ","metar":"LPAZ 122230Z 04006KT 360V060 9999 FEW022 13/09 Q1027","updated":"2026-05-12T22:59:05Z"}
