{"icao":"LPOV","metar":"LPOV 111200Z 16010KT 9999 BKN006 OVC011 13/13 Q1025","updated":"2026-01-11T12:39:01Z"}
