{"icao":"KORD","metar":"KORD 240551Z 30004KT 10SM CLR 04/00 A3018 RMK AO2 SLP225 T00390000 10094 20039 401170033 51005","updated":"2025-10-24T06:26:38Z"}
