{"icao":"LPPR","metar":"LPPR 020530Z 21014KT 180V240 9000 RA SCT006 BKN012 11/10 Q0991","updated":"2026-02-02T06:02:45Z"}
