{"icao":"LPHR","metar":"LPHR 081300Z 16010KT 7000 -RA SCT007 SCT011 BKN030 22/22 Q1022 RESHRA","updated":"2025-10-08T13:28:32Z"}
