{"icao":"KJFK","metar":"KJFK 191451Z 32022G31KT 10SM FEW008 SCT015 OVC022 12/07 A2981 RMK PK WND 32031/1449 SLP094 60000 T01220067 53011 ","updated":"2026-04-19T15:36:17Z"}
