{"icao":"LPMR","metar":"LPMR 210600Z 35005KT 9999 FEW030 13/10 Q1021","updated":"2025-09-21T06:24:27Z"}
