{"icao":"KLAX","metar":"KLAX 180953Z 09004KT 10SM CLR 18/14 A2997 RMK AO2 SLP147 T01830139 $","updated":"2026-03-18T10:51:45Z"}
