{"icao":"LPCS","metar":"LPCS 092030Z 23008KT 200V290 9999 VCSH FEW014 FEW022CB 15/10 Q1008","updated":"2026-05-09T23:45:52Z"}
