{"icao":"KORD","metar":"KORD 230251Z 29009G18KT 10SM BKN048 08/01 A2996 RMK AO2 SLP147 T00780011 51012","updated":"2025-10-23T03:02:35Z"}
