{"icao":"KORD","metar":"KORD 171951Z 12007KT 10SM BKN140 OVC250 13/04 A2981 RMK AO2 SLP095 T01280044 $","updated":"2026-02-17T20:36:28Z"}
