{"icao":"LPOV","metar":"LPOV 221800Z 22012KT 180V240 3000 -RADZ BR SCT002 BKN005 14/14 Q0998 REDZRA","updated":"2026-01-22T18:31:17Z"}
