{"icao":"LPHR","metar":"LPHR 011230Z 28029G42KT 9000 VCSH SCT020 FEW025TCU SCT040 15/08 Q1009 WS R28","updated":"2026-02-01T12:47:30Z"}
