{"icao":"LPPR","metar":"LPPR 230500Z 16008KT 8000 -RADZ FEW003 SCT006 BKN012 11/10 Q1026","updated":"2025-11-23T05:17:12Z"}
