{"icao":"LPBJ","metar":"LPBJ 132100Z 20015KT 8000 -RA SCT020 15/13 Q1002","updated":"2025-11-13T21:17:14Z"}
