{"icao":"KJFK","metar":"KJFK 251351Z 10012G19KT 10SM -RA OVC060 08/03 A3006 RMK RAB43 SLP178 P0000 T00830028 $ ","updated":"2026-04-25T14:40:05Z"}
