{"icao":"LPPT","metar":"LPPT 161300Z 33011KT 290V360 CAVOK 20/07 Q1018","updated":"2026-05-16T13:18:57Z"}
