{"icao":"KORD","metar":"KORD 150851Z 33013G23KT 10SM OVC032 M09/M16 A2999 RMK AO2 SLP168 T10891156 58001 $","updated":"2026-01-15T09:27:26Z"}
