{"icao":"LPMT","metar":"LPMT 282000Z 06004KT 040V100 9999 FEW014 BKN032 17/17 Q1009","updated":"2025-10-28T20:21:02Z"}
