{"icao":"LPOV","metar":"LPOV 250100Z 16007KT 9999 SCT020 14/11 Q1014","updated":"2026-02-25T02:03:15Z"}
