{"icao":"LPLA","metar":"LPLA 121000Z 23011KT 190V260 9999 FEW022 15/10 Q1030","updated":"2026-04-12T10:37:12Z"}
