{"icao":"LPBJ","metar":"LPBJ 071300Z 26015KT 9000 -SHRA BKN010 BKN030 12/09 Q1015","updated":"2026-04-07T13:16:25Z"}
