{"icao":"LPBJ","metar":"LPBJ 021100Z 21008KT 170V250 9999 FEW025 21/11 Q1018","updated":"2026-05-02T11:43:06Z"}
