{"icao":"LPPT","metar":"LPPT 220530Z 05002KT CAVOK 09/06 Q1027","updated":"2026-02-22T05:50:32Z"}
