{"icao":"LPBJ","metar":"LPBJ 220600Z 10005KT CAVOK 04/02 Q1029","updated":"2025-11-22T06:25:26Z"}
