{"icao":"KLAX","metar":"KLAX 050953Z 00000KT 9SM CLR 17/14 A2981 RMK AO2 SLP090 T01670139 $","updated":"2025-10-05T10:16:27Z"}
