{"icao":"LPPR","metar":"LPPR 092300Z 08006KT CAVOK 21/14 Q1021","updated":"2025-10-09T23:15:27Z"}
