{"icao":"LPMT","metar":"LPMT 171400Z 01005KT 330V040 CAVOK 26/09 Q1017","updated":"2026-04-17T14:53:56Z"}
