{"icao":"LPPS","metar":"LPPS 060530Z 04010KT 010V070 9999 SCT015 BKN030 14/05 Q1028","updated":"2026-03-06T05:43:30Z"}
