{"icao":"LPPT","metar":"LPPT 072030Z 16010KT 120V190 9999 -SHRA FEW006 FEW020TCU SCT024 11/09 Q1014","updated":"2026-04-07T20:45:19Z"}
