{"icao":"LPFL","metar":"LPFL 301000Z 17011KT 140V210 9999 -RA FEW013 17/12 Q1016","updated":"2026-01-30T10:32:31Z"}
