{"icao":"LPPD","metar":"LPPD 082330Z 03008KT 360V060 9999 BKN016 15/13 Q1035","updated":"2026-04-08T23:36:46Z"}
