{"icao":"LPPR","metar":"LPPR 190630Z 10010KT CAVOK 17/07 Q1004","updated":"2026-03-19T07:03:21Z"}
