{"icao":"LPFR","metar":"LPFR 140400Z 22016KT 5000 SHRA FEW014 FEW020CB BKN030 19/13 Q1006","updated":"2025-11-14T04:21:44Z"}
