{"icao":"LPFR","metar":"LPFR 250500Z 26018KT 8000 -SHRA SCT012 BKN020 13/11 Q1018","updated":"2026-01-25T05:27:20Z"}
