{"icao":"KORD","metar":"KORD 102351Z 19007KT 10SM SCT150 BKN200 OVC300 23/21 A2971 RMK AO2 SLP057 60052 T02280206 10328 20206 58020 $","updated":"2026-06-11T00:15:00Z"}
