{"icao":"KJFK","metar":"KJFK 231451Z 22011KT 10SM FEW035 FEW060 BKN250 23/16 A3004 RMK AO2 SLP170 T02330161 50002 $","updated":"2025-09-23T15:18:08Z"}
