{"icao":"LPLA","metar":"LPLA 191800Z 24010KT 9999 FEW006 SCT023 BKN030 25/21 Q1015","updated":"2025-10-19T18:22:43Z"}
