{"icao":"KORD","metar":"KORD 121351Z 35003KT 10SM BKN150 OVC250 M02/M07 A3028 RMK AO2 SLP262 T10221072","updated":"2026-02-12T14:45:40Z"}
