{"icao":"KLAX","metar":"KLAX 081353Z 00000KT 10SM FEW005 FEW250 12/10 A3014 RMK AO2 SLP204 T01170100 $","updated":"2025-12-08T14:20:54Z"}
