{"icao":"KORD","metar":"KORD 190751Z 00000KT 10SM SCT110 OVC250 02/M02 A3004 RMK AO2 SLP177 T00221017 $","updated":"2026-03-19T08:40:13Z"}
