{"icao":"LPFL","metar":"LPFL 161500Z 20016KT 8000 -TSRA FEW006 SCT012 FEW015CB 22/20 Q1013","updated":"2026-06-16T15:08:48Z"}
