{"icao":"LPMA","metar":"LPMA 010900Z 21016KT 9999 SCT011 BKN033 18/14 Q1002","updated":"2026-01-01T09:23:55Z"}
