{"icao":"KORD","metar":"KORD 291558Z 13008KT 1/2SM R10L/2200V4000FT SN FZFG VV008 M03/M04 A3029 RMK AO2 P0000 T10281044 $","updated":"2025-11-29T16:22:11Z"}
