{"icao":"LPMR","metar":"LPMR 211300Z 35021KT 9999 FEW025 20/08 Q1022","updated":"2025-09-21T13:20:32Z"}
