{"icao":"KJFK","metar":"KJFK 070451Z 29007KT 10SM FEW250 02/M04 A3000 RMK AO2 SLP159 T00221044 400560006 $","updated":"2025-12-07T05:17:25Z"}
