{"icao":"KJFK","metar":"KJFK 281651Z 21007KT 10SM FEW025 SCT250 07/03 A3012 RMK AO2 SLP198 T00720033 $","updated":"2026-02-28T17:19:49Z"}
