{"icao":"LPFR","metar":"LPFR 050230Z 36007KT CAVOK 14/07 Q1016","updated":"2026-05-05T02:37:43Z"}
