{"icao":"LPPS","metar":"LPPS 021330Z 28019KT 9999 FEW015 17/11 Q1014","updated":"2026-02-02T14:03:37Z"}
