{"icao":"LPMA","metar":"LPMA 181400Z 34007KT 280V050 9999 FEW015 21/13 Q1022","updated":"2025-11-18T14:19:08Z"}
