{"icao":"LPPS","metar":"LPPS 302300Z 04009KT 9999 SCT015 18/10 Q1023","updated":"2025-11-30T23:17:20Z"}
