{"icao":"LPMT","metar":"LPMT 290500Z 33006KT 300V360 9999 FEW020 18/15 Q1021","updated":"2026-06-29T05:48:46Z"}
