{"icao":"LPLA","metar":"LPLA 231400Z 11004KT 080V160 9999 FEW025 SCT040 19/13 Q1024","updated":"2025-12-23T14:20:16Z"}
