{"icao":"LPFL","metar":"LPFL 291500Z 34006KT 300V050 9999 FEW014 20/14 Q1029","updated":"2025-11-29T15:17:00Z"}
