{"icao":"LPPT","metar":"LPPT 130200Z 23015KT 5000 RADZ BR BKN006 FEW020TCU 13/13 Q1005","updated":"2026-02-13T02:08:18Z"}
