{"icao":"LPMR","metar":"LPMR 241600Z 30007KT 270V340 9999 SCT009 SCT018 BKN030 16/15 Q1015","updated":"2025-11-24T16:21:42Z"}
