{"icao":"KORD","metar":"KORD 281951Z 04016G23KT 10SM -SN BKN023 BKN070 BKN200 OVC250 00/M06 A3015 RMK AO2 SNB49 SLP214 P0000 T00001061 $","updated":"2026-02-28T20:24:29Z"}
