{"icao":"KLAX","metar":"KLAX 291253Z VRB05KT 10SM CLR 18/04 A2999 RMK AO2 SLP154 T01830044 $","updated":"2025-10-29T13:31:50Z"}
