{"icao":"LPPT","metar":"LPPT 280700Z 28015G25KT 240V300 9999 FEW022 BKN032 13/10 Q0998 WS R20","updated":"2026-01-28T07:24:48Z"}
