{"icao":"LPMT","metar":"LPMT 241200Z 25013KT 9999 SCT016 BKN026 17/15 Q1019","updated":"2025-11-24T12:39:38Z"}
