{"icao":"LPPT","metar":"LPPT 202200Z 32007KT CAVOK 10/07 Q1029","updated":"2026-02-20T22:24:20Z"}
