{"icao":"LPFR","metar":"LPFR 102300Z VRB03KT CAVOK 20/16 Q1019","updated":"2025-10-10T23:15:08Z"}
