{"icao":"KLAX","metar":"KLAX 060420Z 00000KT 10SM SCT018 BKN026 14/12 A3008 RMK AO2 T01440117 $","updated":"2026-01-06T04:38:56Z"}
