{"icao":"LPFL","metar":"LPFL 031100Z 20012G22KT 160V240 7000 -SHRA FEW009 SCT012 18/15 Q1026","updated":"2026-03-03T11:31:31Z"}
