{"icao":"KORD","metar":"KORD 082051Z 20006KT 10SM FEW030 BKN075 M03/M12 A3026 RMK AO2 SLP259 T10331117 56018","updated":"2025-12-08T21:16:25Z"}
