{"icao":"LPMT","metar":"LPMT 121900Z 34015G25KT 9999 FEW045 13/05 Q1021","updated":"2026-04-12T19:38:08Z"}
