{"icao":"LPFR","metar":"LPFR 161730Z 09010KT CAVOK 20/07 Q1016","updated":"2026-03-16T17:58:36Z"}
