{"icao":"LPPS","metar":"LPPS 150500Z 02006KT 350V050 9999 FEW010 BKN030 15/13 Q1021","updated":"2026-03-15T05:04:25Z"}
