{"icao":"LPLA","metar":"LPLA 150200Z 19014G30KT 150V230 9999 FEW022 SCT035 16/10 Q1028","updated":"2026-02-15T02:07:46Z"}
