{"icao":"LPPS","metar":"LPPS 180730Z 01008KT 9999 SCT014 SCT030 17/14 Q1023","updated":"2026-05-18T08:01:38Z"}
