{"icao":"LPMT","metar":"LPMT 131700Z 26008KT 9999 FEW036 26/14 Q1014","updated":"2025-10-13T17:15:18Z"}
