{"icao":"LPLA","metar":"LPLA 010626Z 32021KT 5000 RADZ BKN007 BKN015 16/15 Q1024","updated":"2025-12-01T06:31:34Z"}
