{"icao":"KLAX","metar":"KLAX 270253Z 26017KT 10SM FEW020 FEW060 16/11 A2978 RMK AO2 SLP083 T01610106 55005 $","updated":"2026-05-27T03:39:42Z"}
