{"icao":"LPOV","metar":"LPOV 190600Z 32005KT 0300 FG OVC002 16/16 Q1015 RMK RH100 RED","updated":"2026-06-19T06:16:52Z"}
