{"icao":"KJFK","metar":"KJFK 271251Z 26013KT 10SM FEW045 FEW220 M09/M16 A3014 RMK AO2 SLP207 T10891161 $","updated":"2026-01-27T13:45:47Z"}
