{"icao":"LPMA","metar":"LPMA 080430Z 34005KT 310V010 9999 FEW015 17/12 Q1022","updated":"2026-02-08T05:02:17Z"}
