{"icao":"KJFK","metar":"KJFK 291351Z 31010KT 10SM FEW035 FEW250 M10/M17 A3012 RMK SLP199 T11001172 $ ","updated":"2026-01-29T14:50:01Z"}
