{"icao":"LPMT","metar":"LPMT 081700Z 18007KT 3000 -RADZ BR FEW005 SCT008 BKN020 12/12 Q1013","updated":"2026-02-08T17:25:30Z"}
