{"icao":"LPMA","metar":"LPMA 081700Z 22022KT 9999 SCT016 19/09 Q1007","updated":"2026-05-08T17:15:36Z"}
