{"icao":"LPPT","metar":"LPPT 261930Z 29008KT 260V320 9999 FEW025 22/15 Q1018","updated":"2026-06-26T19:44:27Z"}
