{"icao":"KLAX","metar":"KLAX 280353Z VRB03KT 10SM FEW015 SCT023 SCT150 20/17 A2991 RMK AO2 SLP126 T02000167 $","updated":"2025-09-28T04:20:52Z"}
