{"icao":"LPPS","metar":"LPPS 041700Z 25008KT 220V280 9999 FEW015 24/19 Q1013","updated":"2025-11-04T17:13:39Z"}
