{"icao":"LPMT","metar":"LPMT 040500Z 26009KT 6000 -RADZ SCT008 BKN030 14/14 Q0996","updated":"2026-02-04T05:47:30Z"}
