{"icao":"LPAZ","metar":"LPAZ 211300Z 10011KT 070V150 9999 FEW030 BKN038 23/13 Q1028","updated":"2025-09-21T13:20:33Z"}
