{"icao":"LPMT","metar":"LPMT 162000Z 33005KT 300V360 CAVOK 17/12 Q1019","updated":"2026-04-16T20:46:36Z"}
