{"icao":"LPBJ","metar":"LPBJ 252100Z 19006KT CAVOK 17/16 Q1015","updated":"2026-04-25T21:35:23Z"}
