{"icao":"KORD","metar":"KORD 161251Z 20009G17KT 1SM R10L/6000VP6000FT -SN BR VV012 M03/M05 A2951 RMK AO2 SNB1156 SLP001 P0002 T10331050 $","updated":"2026-01-16T13:37:09Z"}
