{"icao":"KLAX","metar":"KLAX 242101Z VRB03KT 3SM -RA BR FEW009 BKN028 OVC048 14/14 A2990 RMK AO2 P0001 T01440139 $","updated":"2025-12-24T21:17:49Z"}
