{"icao":"LPMR","metar":"LPMR 151300Z 33017G27KT 9999 SCT025 SCT040 17/10 Q1016","updated":"2026-05-15T14:03:56Z"}
