{"icao":"LPOV","metar":"LPOV 291800Z 34008KT 9999 FEW018 BKN038 17/15 Q1010","updated":"2025-10-29T18:27:31Z"}
