{"icao":"LPBJ","metar":"LPBJ 301500Z 26012KT 9999 BKN040 21/12 Q1015","updated":"2025-10-30T15:20:01Z"}
