{"icao":"KJFK","metar":"KJFK 041451Z 01006KT 10SM FEW250 27/09 A3016 RMK AO2 SLP212 T02670094 58005 $","updated":"2026-06-04T14:57:18Z"}
