{"icao":"KORD","metar":"KORD 041851Z 21008KT 10SM FEW035 FEW200 BKN250 M01/M12 A3013 RMK AO2 SLP212 T10061117 $","updated":"2026-01-04T19:14:39Z"}
