{"icao":"KJFK","metar":"KJFK 050451Z 33011KT 10SM FEW250 M04/M15 A3031 RMK AO2 SLP261 T10441150 400611044 $","updated":"2025-12-05T05:19:03Z"}
