{"icao":"LPPR","metar":"LPPR 171000Z 06005KT 9999 SCT002 BKN005 13/12 Q1015","updated":"2025-11-17T10:21:20Z"}
