{"icao":"LPFR","metar":"LPFR 171600Z 13008KT CAVOK 24/16 Q1013","updated":"2025-10-17T16:21:29Z"}
