{"icao":"KJFK","metar":"KJFK 232251Z 18011KT 10SM FEW048 SCT060 BKN150 BKN250 22/20 A2997 RMK AO2 SLP148 T02220200 $","updated":"2025-09-23T23:15:03Z"}
