{"icao":"KJFK","metar":"KJFK 200751Z 02004KT 10SM BKN250 02/M02 A3024 RMK AO2 SLP239 T00221017 $","updated":"2025-11-20T08:26:29Z"}
