{"icao":"LPFL","metar":"LPFL 211230Z 21018G33KT 180V270 9999 FEW014 24/19 Q1008","updated":"2025-10-21T12:39:02Z"}
