{"icao":"KJFK","metar":"KJFK 110151Z 18004KT 10SM FEW250 11/05 A3000 RMK AO2 SLP158 T01060050","updated":"2026-03-11T02:19:55Z"}
