{"icao":"LPBJ","metar":"LPBJ 281200Z 07006KT 030V110 CAVOK 19/05 Q1021","updated":"2026-03-28T12:53:06Z"}
