{"icao":"KORD","metar":"KORD 021751Z 19005KT 10SM FEW250 BKN300 26/12 A3023 RMK AO2 SLP232 T02610117 10261 20150 58013","updated":"2025-10-02T18:24:45Z"}
