{"icao":"KLAX","metar":"KLAX 100253Z 24007KT 4SM BR OVC003 16/16 A3008 RMK AO2 SLP185 T01610156 53014 $","updated":"2025-11-10T03:17:48Z"}
