{"icao":"LPCS","metar":"LPCS 290700Z 01010KT 9999 FEW003 16/15 Q1016","updated":"2025-09-29T07:18:00Z"}
