{"icao":"KJFK","metar":"KJFK 211051Z 26007KT 10SM CLR M08/M17 A3056 RMK SLP347 T10831167 ","updated":"2026-01-21T11:22:58Z"}
