{"icao":"KJFK","metar":"KJFK 232051Z 27015G23KT 10SM FEW040 BKN055 BKN095 BKN250 10/02 A2994 RMK AO2 SLP138 T01000017 55001","updated":"2025-11-23T21:16:11Z"}
