{"icao":"LPAZ","metar":"LPAZ 290700Z 33007KT 9999 FEW028 BKN036 17/12 Q1020","updated":"2025-10-29T07:17:48Z"}
