{"icao":"KORD","metar":"KORD 131051Z 30013G21KT 10SM OVC190 M12/M18 A3011 RMK AO2 PK WND 29026/0954 SLP208 I1000 T11171178","updated":"2025-12-13T11:15:12Z"}
