{"icao":"LPBJ","metar":"LPBJ 180900Z VRB01KT CAVOK 13/10 Q1019","updated":"2025-11-18T09:20:32Z"}
