{"icao":"LPBJ","metar":"LPBJ 270600Z 09003KT CAVOK 05/04 Q1023","updated":"2025-11-27T06:30:17Z"}
