{"icao":"KORD","metar":"KORD 091751Z 32011KT 10SM BKN020 BKN037 08/02 A2998 RMK AO2 SLP154 60000 T00780022 10078 20050 51035","updated":"2026-01-09T18:30:52Z"}
