{"icao":"LPMR","metar":"LPMR 121000Z 14007KT 7000 -RADZ FEW006 BKN020 OVC035 11/11 Q1014","updated":"2025-12-12T19:16:32Z"}
