{"icao":"LPBJ","metar":"LPBJ 261900Z 35003KT CAVOK 18/10 Q1023","updated":"2026-02-26T19:42:48Z"}
