{"icao":"LPMT","metar":"LPMT 261300Z 22014KT 9000 SCT012 OVC020 16/14 Q1013","updated":"2026-01-26T13:42:59Z"}
