{"icao":"LPFR","metar":"LPFR 170700Z 32005KT CAVOK 06/05 Q1014","updated":"2026-01-17T07:18:01Z"}
