{"icao":"LPPR","metar":"LPPR 200430Z 06005KT 030V120 5000 BR BKN001 13/13 Q1023","updated":"2026-05-20T05:03:02Z"}
