{"icao":"KORD","metar":"KORD 201451Z 16003KT 10SM FEW060 SCT120 BKN250 23/17 A3007 RMK AO2 SLP179 T02280172 51005","updated":"2025-09-20T15:14:57Z"}
