{"icao":"LPMT","metar":"LPMT 060200Z 23003KT 190V250 9999 FEW012 BKN045 15/15 Q1023","updated":"2025-12-06T03:08:26Z"}
