{"icao":"LPAR","metar":"LPAR 131700Z 31020G33KT 270V360 9999 SCT022 14/07 Q1009","updated":"2026-02-13T17:38:36Z"}
