{"icao":"LPMT","metar":"LPMT 290100Z 15003KT 110V210 9999 SCT020 FEW025CB 17/17 Q1007","updated":"2025-10-29T01:25:29Z"}
