{"icao":"LPLA","metar":"LPLA 122200Z 27003KT 210V320 9999 FEW022 14/09 Q1032 WIND RWY15 VRB02KT RH73 BLU","updated":"2025-12-12T22:19:11Z"}
