{"icao":"LPFL","metar":"LPFL 211800Z 17004KT 130V210 9999 FEW023 BKN036 18/08 Q1031","updated":"2025-11-21T18:25:33Z"}
