{"icao":"LPPI","metar":"LPPI 280730Z 12005KT 9999 FEW032 BKN040 17/11 Q1028","updated":"2026-06-28T07:49:42Z"}
