{"icao":"LPBJ","metar":"LPBJ 261800Z 06006KT CAVOK 12/02 Q1024","updated":"2025-11-26T18:23:40Z"}
