{"icao":"LPOV","metar":"LPOV 050900Z 35006KT 330V030 9999 FEW005 17/15 Q1022","updated":"2025-10-05T09:15:11Z"}
