{"icao":"LPST","metar":"LPST 291100Z 25017G30KT 2000 -RADZ BR BKN004 BKN012 15/15 Q1009","updated":"2026-01-29T11:29:46Z"}
