{"icao":"LPMT","metar":"LPMT 170700Z VRB01KT 9999 FEW012 SCT022 12/12 Q1013","updated":"2025-11-17T07:18:52Z"}
