{"icao":"KJFK","metar":"KJFK 181651Z 18007KT 10SM BKN080 BKN250 17/02 A3004 RMK AO2 SLP173 T01720022 $","updated":"2025-10-18T17:13:28Z"}
