{"icao":"LPMT","metar":"LPMT 192100Z 32005KT 9999 FEW045 11/09 Q1022","updated":"2026-01-19T21:18:45Z"}
