{"icao":"LPMT","metar":"LPMT 082100Z 24005KT 180V280 7000 -RADZ SCT004 BKN006 15/15 Q1010 REDZRA","updated":"2026-02-08T21:25:31Z"}
