{"icao":"LPFR","metar":"LPFR 281400Z 25016KT 7000 FEW010 SCT020 16/14 Q1007","updated":"2026-01-28T14:28:30Z"}
