{"icao":"LPBJ","metar":"LPBJ 031400Z 29010KT 260V330 9999 SCT030 14/06 Q1023","updated":"2025-12-03T14:20:09Z"}
