{"icao":"KJFK","metar":"KJFK 150551Z 18008KT 5SM -RA BR SCT055 BKN080 OVC100 21/20 A2962 RMK AO2 TSB32E49 PRESFR SLP030 P0019 60053 T02110200 10222 20206 58022 $","updated":"2026-06-15T06:21:58Z"}
