{"icao":"KLAX","metar":"KLAX 022153Z 25013KT 10SM FEW011 BKN014 BKN220 BKN270 18/13 A2991 RMK AO2 SLP128 T01830128","updated":"2026-05-02T22:39:41Z"}
