{"icao":"LPPD","metar":"LPPD 261200Z 03026G39KT 360V060 4000 -SHRA FEW014 FEW020TCU BKN030 15/13 Q1021","updated":"2025-10-26T12:33:41Z"}
