{"icao":"LPFL","metar":"LPFL 100930Z 18006KT 150V210 9999 4900SE -DZ FEW006 SCT016 15/14 Q1032","updated":"2026-03-10T09:41:50Z"}
