{"icao":"LPPD","metar":"LPPD 202200Z 27016KT 9999 FEW004 BKN012 BKN030 16/15 Q1023","updated":"2026-01-20T22:21:30Z"}
