{"icao":"LPPS","metar":"LPPS 131030Z 32018KT 9999 FEW015 17/09 Q1026","updated":"2026-02-13T10:38:35Z"}
