{"icao":"LPMT","metar":"LPMT 170800Z 32005KT 280V350 9999 BKN032 16/11 Q1018","updated":"2026-05-17T09:03:40Z"}
