{"icao":"KLAX","metar":"KLAX 161053Z 09007KT 10SM FEW018 BKN035 BKN050 OVC200 13/09 A2987 RMK AO2 SLP115 T01330094","updated":"2026-02-16T11:39:19Z"}
