{"icao":"LPMT","metar":"LPMT 181600Z 02009KT 9999 FEW025 12/05 Q1014","updated":"2026-01-18T16:22:58Z"}
