{"icao":"LPFL","metar":"LPFL 110930Z 24009G24KT 200V300 9999 FEW020 15/09 Q1011","updated":"2026-02-11T10:01:50Z"}
