{"icao":"LPFL","metar":"LPFL 031530Z 23015G27KT 190V280 9999 -RA BKN010 18/15 Q0998","updated":"2026-02-03T15:49:15Z"}
