{"icao":"LPPR","metar":"LPPR 261500Z 35009KT CAVOK 15/08 Q1025","updated":"2025-11-26T15:17:52Z"}
