{"icao":"KJFK","metar":"KJFK 061751Z 26007KT 10SM BKN038 OVC041 05/M01 A2990 RMK AO2 SLP123 T00501006 10056 20011 56019 $","updated":"2025-12-06T18:24:57Z"}
