{"icao":"LPMR","metar":"LPMR 212000Z 02005KT CAVOK 09/04 Q1029","updated":"2025-11-21T20:21:10Z"}
