{"icao":"LPAZ","metar":"LPAZ 031700Z 26010KT 9999 BKN048 18/10 Q1028","updated":"2025-12-03T17:21:15Z"}
