{"icao":"LPBJ","metar":"LPBJ 180600Z 08003KT CAVOK 13/12 Q1016","updated":"2025-10-18T06:24:02Z"}
