{"icao":"LPMT","metar":"LPMT 071600Z 26008KT 9999 FEW030 24/16 Q1021","updated":"2025-10-07T16:21:34Z"}
