{"icao":"LPPT","metar":"LPPT 171100Z 10004KT 040V140 CAVOK 26/11 Q1021","updated":"2025-09-17T11:13:49Z"}
