{"icao":"LPPR","metar":"LPPR 172100Z 03003KT 330V050 6000 NSC 05/05 Q1010","updated":"2026-01-17T21:16:46Z"}
