{"icao":"LPHR","metar":"LPHR 081000Z 25018KT 9999 BKN007 18/17 Q1011","updated":"2026-02-08T10:25:21Z"}
