{"icao":"LPMT","metar":"LPMT 131100Z 03004KT 330V070 9999 SCT018 15/10 Q1024","updated":"2026-03-13T11:30:21Z"}
