{"icao":"LPFL","metar":"LPFL 011730Z 36006KT 9999 FEW022 16/10 Q1033","updated":"2026-04-01T17:50:55Z"}
