{"icao":"LPBJ","metar":"LPBJ 260300Z 26004KT CAVOK 04/03 Q1013","updated":"2025-12-26T03:23:32Z"}
