{"icao":"LPST","metar":"LPST 140700Z 34004KT 6000 SCT005 BKN015 13/12 Q1023","updated":"2026-04-14T07:43:18Z"}
