{"icao":"LPPT","metar":"LPPT 121500Z 05005G15KT 350V110 9999 FEW045 26/12 Q1015","updated":"2025-10-12T15:15:16Z"}
