{"icao":"KLAX","metar":"KLAX 072003Z 23007KT 10SM SCT019 21/14 A2989 RMK AO2 T02060144 $","updated":"2025-10-07T20:19:35Z"}
