{"icao":"LPPD","metar":"LPPD 042130Z 05011KT 360V070 9999 FEW020 BKN045 15/10 Q1025","updated":"2026-05-04T21:58:41Z"}
