{"icao":"LPMA","metar":"LPMA 061530Z 12006KT 090V150 9999 FEW015 20/09 Q1018","updated":"2026-02-06T15:38:38Z"}
