{"icao":"LPAR","metar":"LPAR 080800Z 06003KT 9999 FEW011 10/08 Q1016","updated":"2026-04-08T08:59:31Z"}
