{"icao":"LPFR","metar":"LPFR 230730Z 04006KT CAVOK 10/05 Q1024","updated":"2026-02-23T07:53:33Z"}
