{"icao":"LPAR","metar":"LPAR 031700Z 26008KT 220V280 9999 FEW025 12/08 Q1001","updated":"2026-02-04T07:42:37Z"}
