{"icao":"LPMA","metar":"LPMA 172200Z 35005KT 310V020 9999 FEW015 18/13 Q1023","updated":"2025-11-17T22:17:36Z"}
