{"icao":"LPAZ","metar":"LPAZ 091430Z 10008KT 060V120 9999 FEW036 16/06 Q1034","updated":"2026-03-09T14:48:55Z"}
