{"icao":"LPAZ","metar":"LPAZ 251300Z 05011KT 020V080 9999 FEW022 BKN026 16/11 Q1029","updated":"2026-03-25T13:07:46Z"}
