{"icao":"LPMT","metar":"LPMT 072200Z 35008KT CAVOK 18/14 Q1022","updated":"2025-10-07T22:16:16Z"}
