{"icao":"KJFK","metar":"KJFK 281851Z 35016G22KT 10SM BKN075 06/M14 A3042 RMK AO2 PK WND 33029/1754 SLP300 T00611139","updated":"2026-03-28T19:28:55Z"}
