{"icao":"KLAX","metar":"KLAX 261953Z 26006KT 5SM HZ FEW010 SCT280 19/14 A3003 RMK AO2 SLP169 T01890139 $","updated":"2025-10-26T20:19:22Z"}
