{"icao":"KORD","metar":"KORD 311951Z 24012G19KT 10SM BKN037 BKN055 BKN080 OVC150 20/15 A2978 RMK AO2 SLP080 T02000150","updated":"2026-03-31T20:41:04Z"}
