{"icao":"LPCS","metar":"LPCS 010900Z 35006KT 310V020 9999 FEW005 SCT040 17/16 Q1016","updated":"2025-11-01T09:16:49Z"}
