{"icao":"LPPD","metar":"LPPD 201000Z 04014KT 010V070 9999 FEW025 17/11 Q1028","updated":"2025-11-20T10:20:40Z"}
