{"icao":"LPLA","metar":"LPLA 200600Z 17011G22KT 100V240 9999 FEW012 BKN016 17/14 Q1020","updated":"2026-02-20T06:54:47Z"}
