{"icao":"LPOV","metar":"LPOV 061000Z 24006KT 210V290 9999 FEW012 FEW025TCU BKN030 16/13 Q1016","updated":"2025-11-06T10:20:54Z"}
