{"icao":"LPMA","metar":"LPMA 061400Z 02013KT 340V050 9999 BKN015 FEW018TCU 16/08 Q1027","updated":"2026-01-06T14:21:35Z"}
