{"icao":"LPFR","metar":"LPFR 072000Z 25013KT 9999 -DZ SCT018 BKN030 20/17 Q1018","updated":"2025-11-07T20:18:14Z"}
