{"icao":"LPOV","metar":"LPOV 220900Z VRB01KT 6000 BKN002 BKN004 13/13 Q1012","updated":"2026-03-22T09:31:03Z"}
