{"icao":"LPMR","metar":"LPMR 061100Z 13014KT 9999 SCT028 SCT042 22/06 Q1016","updated":"2026-04-06T11:47:23Z"}
