{"icao":"LPOV","metar":"LPOV 141600Z 27007KT 240V300 9999 FEW004 17/15 Q1023","updated":"2026-04-14T17:05:06Z"}
