{"icao":"KJFK","metar":"KJFK 240251Z 30007KT 10SM FEW065 SCT100 BKN250 21/17 A2989 RMK SLP121 T02060172 53016 ","updated":"2026-06-24T03:28:29Z"}
