{"icao":"LPPT","metar":"LPPT 130230Z 33005KT 9999 FEW022 10/08 Q1021","updated":"2026-04-13T02:34:41Z"}
