{"icao":"LPOV","metar":"LPOV 191000Z 00000KT 7000 NSC 07/07 Q1020","updated":"2026-01-19T10:27:19Z"}
