{"icao":"KORD","metar":"KORD 072151Z 25008KT 10SM FEW060 FEW090 SCT250 17/04 A2957 RMK AO2 SLP011 T01670044 $","updated":"2025-11-07T22:17:01Z"}
