{"icao":"LPPS","metar":"LPPS 111630Z 05015KT 360V070 9999 SCT012 16/12 Q1024","updated":"2026-03-11T16:50:58Z"}
