{"icao":"LPBJ","metar":"LPBJ 282300Z 29006KT 9999 FEW040 16/15 Q1015","updated":"2025-09-28T23:14:53Z"}
