{"icao":"LPLA","metar":"LPLA 131900Z 11003KT 9999 FEW030 20/11 Q1015","updated":"2025-10-13T19:13:13Z"}
