{"icao":"LPMR","metar":"LPMR 200400Z VRB01KT CAVOK 05/04 Q1019","updated":"2025-11-20T04:20:43Z"}
