{"icao":"LPFL","metar":"LPFL 281900Z 31006KT 250V350 9999 FEW021 16/11 Q1023","updated":"2025-10-28T19:15:07Z"}
