{"icao":"LPOV","metar":"LPOV 252300Z VRB01KT CAVOK 11/07 Q1018","updated":"2025-09-25T23:15:41Z"}
