{"icao":"LPMA","metar":"LPMA 251100Z 34006KT 260V060 9999 FEW015 21/12 Q1025","updated":"2025-11-25T11:16:58Z"}
