{"icao":"LPBJ","metar":"LPBJ 081300Z 32011KT 320V020 9999 SCT025 18/10 Q1022","updated":"2025-11-08T13:22:29Z"}
