{"icao":"LPLA","metar":"LPLA 060400Z 20023G40KT 180V240 8000 -RA SCT016 BKN022 BKN035 21/18 Q1010","updated":"2025-11-06T04:25:14Z"}
