{"icao":"KORD","metar":"KORD 101251Z 04005KT 5SM BR BKN006 BKN250 14/13 A2981 RMK AO2 SLP094 T01440133","updated":"2026-03-10T12:58:37Z"}
