{"icao":"LPPT","metar":"LPPT 032100Z 05009KT 9999 FEW003 BKN004 13/13 Q0999","updated":"2026-01-03T21:16:59Z"}
