{"icao":"LPAR","metar":"LPAR 201000Z 28004KT 230V350 9999 FEW020 SCT045 20/15 Q1015","updated":"2025-10-20T10:20:08Z"}
