{"icao":"LPHR","metar":"LPHR 171300Z 31011KT 280V340 9999 FEW016 BKN025 15/10 Q1032","updated":"2026-01-17T13:27:50Z"}
