{"icao":"LPFR","metar":"LPFR 301000Z 24009KT 3000 -RADZ BR FEW005 BKN010 15/15 Q1016","updated":"2026-01-30T10:32:28Z"}
