{"icao":"LPST","metar":"LPST 051000Z 25013KT 210V270 9999 SCT015 18/15 Q1008","updated":"2025-11-05T10:20:29Z"}
