{"icao":"KJFK","metar":"KJFK 170351Z 29019G28KT 10SM BKN075 06/M07 A2953 RMK AO2 PK WND 30037/0316 SLP998 T00611067 $","updated":"2025-11-17T04:25:41Z"}
