{"icao":"LPPD","metar":"LPPD 290330Z 26016KT 8000 -RA SCT005 BKN018 BKN025 14/13 Q1009 RERA","updated":"2026-04-29T03:42:11Z"}
