{"icao":"LPCS","metar":"LPCS 201100Z 35017KT 320V040 9999 FEW020 14/06 Q1021","updated":"2025-11-20T11:16:40Z"}
