{"icao":"LPCS","metar":"LPCS 161800Z 01007KT CAVOK 22/09 Q1014","updated":"2025-10-16T18:25:45Z"}
