{"icao":"LPPS","metar":"LPPS 171500Z 36011KT 310V040 9999 FEW014 23/17 Q1022","updated":"2026-06-17T15:24:51Z"}
