{"icao":"KJFK","metar":"KJFK 151751Z 33012G20KT 10SM BKN050 18/07 A2989 RMK AO2 SLP120 T01830067 10183 20133 53007","updated":"2026-05-15T18:21:39Z"}
