{"icao":"LPPR","metar":"LPPR 241300Z 27005KT 230V310 9999 FEW030 14/08 Q1011","updated":"2025-12-24T13:30:44Z"}
