{"icao":"LPBJ","metar":"LPBJ 030800Z VRB02KT CAVOK 19/13 Q1022","updated":"2025-10-03T08:22:01Z"}
