{"icao":"LPMA","metar":"LPMA 271900Z 02016G27KT 340V060 9999 -DZ SCT014 17/13 Q1026","updated":"2026-02-27T19:32:07Z"}
