{"icao":"LPMT","metar":"LPMT 160900Z 02007KT CAVOK 21/15 Q1017","updated":"2026-06-16T09:30:32Z"}
