{"icao":"LPBJ","metar":"LPBJ 020800Z 31002KT 9999 FEW040 13/11 Q1025","updated":"2025-11-02T08:20:03Z"}
