{"icao":"LPFR","metar":"LPFR 060900Z 09011KT CAVOK 18/10 Q1019","updated":"2026-04-06T09:07:04Z"}
