{"icao":"LPOV","metar":"LPOV 262000Z 36006KT 0500 FG OVC001 11/11 Q1025","updated":"2026-02-26T20:35:46Z"}
