{"icao":"LPLA","metar":"LPLA 192000Z 36010KT 330V030 9999 SCT025 BKN040 17/13 Q1027","updated":"2025-11-19T20:18:22Z"}
