{"icao":"KJFK","metar":"KJFK 031251Z 01007KT 10SM SCT250 23/05 A3021 RMK AO2 SLP230 T02280050 $","updated":"2026-06-03T13:21:02Z"}
