{"icao":"LPMA","metar":"LPMA 171500Z 20007KT 9999 FEW015 BKN025 22/17 Q1021","updated":"2026-06-17T15:24:40Z"}
