{"icao":"LPMA","metar":"LPMA 270400Z 33004KT CAVOK 20/17 Q1020","updated":"2025-09-27T04:20:13Z"}
