{"icao":"KLAX","metar":"KLAX 080953Z 36004KT 10SM OVC024 17/12 A2984 RMK AO2 SLP104 T01720122 $","updated":"2026-06-08T10:51:33Z"}
