{"icao":"LPST","metar":"LPST 220900Z 20004KT 110V250 9999 FEW020 15/09 Q1014","updated":"2026-04-22T09:18:54Z"}
