{"icao":"KORD","metar":"KORD 151051Z 22018G25KT 10SM BKN200 OVC250 16/13 A2958 RMK AO2 SLP013 T01610128 $","updated":"2025-11-15T11:14:01Z"}
