{"icao":"LPFL","metar":"LPFL 301100Z 15007KT 060V220 9999 VCFG FEW004 SCT010 BKN015 20/18 Q1020","updated":"2026-05-30T11:18:49Z"}
