{"icao":"LPOV","metar":"LPOV 090700Z 01002KT 330V050 0500 FG OVC002 15/15 Q1020","updated":"2025-10-09T07:17:11Z"}
