{"icao":"LPMA","metar":"LPMA 060400Z 34008KT 9999 FEW020 BKN030 18/09 Q1024","updated":"2025-12-06T04:21:01Z"}
