{"icao":"LPMR","metar":"LPMR 250400Z 30009KT 8000 FEW007 BKN015 FEW016CB BKN030 13/12 Q1013 RETSRA","updated":"2026-01-25T04:51:12Z"}
