{"icao":"LPFR","metar":"LPFR 150100Z 36011KT CAVOK 26/15 Q1017","updated":"2025-09-15T01:23:13Z"}
