{"icao":"KLAX","metar":"KLAX 160153Z 26005KT 10SM FEW250 17/14 A2994 RMK AO2 SLP139 T01670139 $","updated":"2026-03-16T02:22:54Z"}
