{"icao":"KLAX","metar":"KLAX 060853Z 00000KT 10SM -RA FEW014 SCT020 OVC050 14/12 A3007 RMK AO2 RAE06B31 SLP182 P0000 60003 T01390122 56006 $","updated":"2026-01-06T09:25:22Z"}
