{"icao":"LPMT","metar":"LPMT 242200Z 23004KT 200V260 9999 FEW006 BKN022 20/19 Q1016","updated":"2025-10-24T22:16:44Z"}
