{"icao":"LPHR","metar":"LPHR 110800Z 31018G32KT 9999 SCT016 SCT040 14/11 Q1006","updated":"2025-11-11T08:24:36Z"}
