{"icao":"LPBJ","metar":"LPBJ 191300Z 33008KT 9999 FEW012 BKN040 15/10 Q1016","updated":"2025-11-19T13:30:53Z"}
