{"icao":"LPMR","metar":"LPMR 260700Z 17003KT 5000 BR FEW004 04/03 Q1026","updated":"2025-11-26T07:18:13Z"}
