{"icao":"KORD","metar":"KORD 171551Z 29005KT 10SM BKN220 BKN250 03/M01 A2999 RMK AO2 SLP162 T00281011","updated":"2025-12-17T16:27:26Z"}
