{"icao":"LPMA","metar":"LPMA 101030Z 01016G26KT 330V050 9999 SCT015 16/05 Q1029","updated":"2026-03-10T10:37:59Z"}
