{"icao":"LPFL","metar":"LPFL 151400Z 20013G25KT 150V250 9999 VCSH FEW018 SCT025 FEW026TCU 19/15 Q1000","updated":"2025-10-15T14:18:54Z"}
