{"icao":"LPFR","metar":"LPFR 052300Z 25002KT CAVOK 20/18 Q1018","updated":"2025-10-05T23:13:35Z"}
