{"icao":"LPPT","metar":"LPPT 271930Z 33013KT CAVOK 16/08 Q1016","updated":"2026-03-27T19:40:20Z"}
