{"icao":"LPPT","metar":"LPPT 031630Z 30008KT 270V340 9999 SCT026 SCT048 17/11 Q1014","updated":"2026-05-03T16:49:11Z"}
