{"icao":"LPMT","metar":"LPMT 180700Z 21005KT 170V250 9999 BKN040 13/10 Q1021","updated":"2026-02-18T07:12:34Z"}
