{"icao":"KJFK","metar":"KJFK 250851Z 07003KT 10SM FEW250 18/14 A3004 RMK SLP173 T01780144 51003 ","updated":"2026-06-25T09:19:06Z"}
