{"icao":"LPMR","metar":"LPMR 271100Z 16013KT CAVOK 20/13 Q1016","updated":"2025-09-27T11:12:38Z"}
