{"icao":"KORD","metar":"KORD 250751Z 33007KT 10SM FEW023 SCT043 16/13 A2994 RMK AO2 SLP134 T01610133","updated":"2025-09-25T08:23:23Z"}
