{"icao":"LPMA","metar":"LPMA 230930Z 03017G28KT 360V060 9999 FEW015 20/15 Q1023","updated":"2026-05-23T09:50:44Z"}
