{"icao":"KJFK","metar":"KJFK 310351Z 27015G25KT 10SM SCT060 M02/M12 A2982 RMK AO2 PK WND 27029/0300 SLP096 T10221122 $","updated":"2025-12-31T04:37:17Z"}
