{"icao":"LPPT","metar":"LPPT 210330Z 20014KT 5000 -RA BR FEW004 BKN006 12/12 Q1011","updated":"2026-01-21T03:42:21Z"}
