{"icao":"KLAX","metar":"KLAX 120853Z 07004KT 10SM CLR 16/14 A2978 RMK AO2 SLP083 T01610139 58002 $","updated":"2025-10-12T09:15:54Z"}
