{"icao":"LPMT","metar":"LPMT 011100Z 23007KT 1600 -DZ BR BKN005 SCT020 15/15 Q1014","updated":"2026-02-01T11:20:01Z"}
