{"icao":"LPPS","metar":"LPPS 220100Z 06011KT 010V080 9999 FEW015 SCT030 21/14 Q1022","updated":"2025-09-22T01:24:09Z"}
