{"icao":"LPMR","metar":"LPMR 090400Z 16003KT 6000 NSC 08/07 Q1022","updated":"2025-11-09T05:16:50Z"}
