{"icao":"LPFR","metar":"LPFR 151400Z 20010KT CAVOK 17/12 Q1016","updated":"2026-03-15T14:28:29Z"}
