{"icao":"LPFR","metar":"LPFR 242230Z 33007KT CAVOK 18/12 Q1018","updated":"2026-04-24T22:37:02Z"}
