{"icao":"LPMR","metar":"LPMR 040800Z 33009KT 9999 FEW030 BKN040 18/12 Q1019","updated":"2026-06-04T08:19:28Z"}
