{"icao":"LPFL","metar":"LPFL 191830Z 21014G26KT 170V250 9999 VCSH SCT015 FEW018TCU 19/13 Q1004","updated":"2026-05-19T18:58:48Z"}
