{"icao":"LPFR","metar":"LPFR 180500Z 06007KT CAVOK 24/18 Q1018","updated":"2025-09-18T05:16:05Z"}
