{"icao":"LPST","metar":"LPST 301100Z 21012KT 170V230 9999 FEW020 BKN025 19/13 Q1014","updated":"2025-10-30T11:15:28Z"}
