{"icao":"LPBJ","metar":"LPBJ 260400Z VRB02KT CAVOK 13/06 Q1018","updated":"2025-09-26T04:20:50Z"}
