{"icao":"LPMT","metar":"LPMT 251200Z 02007KT 350V050 CAVOK 26/07 Q1017","updated":"2025-09-25T12:37:03Z"}
