{"icao":"KORD","metar":"KORD 152251Z 22010KT 10SM BKN120 BKN250 M05/M14 A2982 RMK AO2 SLP109 T10501139 $","updated":"2026-01-15T23:19:35Z"}
