{"icao":"LPPR","metar":"LPPR 220600Z 04003KT CAVOK 03/01 Q1030","updated":"2025-11-22T06:25:24Z"}
