{"icao":"KJFK","metar":"KJFK 240451Z 28011KT 10SM BKN080 08/01 A3003 RMK AO2 SLP170 T00780006 401000000","updated":"2025-11-24T05:20:17Z"}
