{"icao":"LPPR","metar":"LPPR 070330Z 00000KT 9000 NSC 12/12 Q1019","updated":"2026-06-07T03:45:48Z"}
