{"icao":"LPMT","metar":"LPMT 091600Z 26003KT 230V290 9999 FEW020 18/09 Q1019","updated":"2025-11-09T16:19:46Z"}
