{"icao":"LPFL","metar":"LPFL 121700Z 36010KT 9999 FEW018 SCT023 17/10 Q1030","updated":"2026-05-12T17:09:11Z"}
