{"icao":"KORD","metar":"KORD 020823Z 23009KT 8SM -FZDZ OVC009 M06/M08 A3006 RMK AO2 SNE00 P0000 I1000 T10561078","updated":"2026-02-02T08:41:01Z"}
