{"icao":"KORD","metar":"KORD 241951Z 04014G19KT 10SM SCT024 BKN036 BKN250 22/14 A2999 RMK AO2 SLP153 T02220144","updated":"2025-09-24T20:19:25Z"}
