{"icao":"LPPR","metar":"LPPR 281230Z 27008KT 230V320 9999 SCT025 14/08 Q0999","updated":"2026-01-28T12:48:07Z"}
