{"icao":"LPPS","metar":"LPPS 131200Z 34014KT 9999 FEW015 BKN030 21/15 Q1021","updated":"2026-06-13T12:23:32Z"}
