{"icao":"LPST","metar":"LPST 301000Z VRB01KT CAVOK 07/06 Q1022","updated":"2025-12-30T10:22:05Z"}
