{"icao":"LPPR","metar":"LPPR 162000Z 25004KT 210V290 8000 -DZ SCT004 BKN006 14/13 Q1028","updated":"2026-02-16T20:28:57Z"}
