{"icao":"KJFK","metar":"KJFK 190551Z 16004KT 10SM BKN120 BKN250 00/M07 A3037 RMK AO2 SLP285 T00001067 10000 21017 56010","updated":"2026-03-19T05:57:25Z"}
