{"icao":"LPMR","metar":"LPMR 271500Z 18013KT 3000 -RA BKN007 OVC020 19/18 Q1013","updated":"2025-09-27T15:14:32Z"}
