{"icao":"KJFK","metar":"KJFK 261751Z 04013G23KT 10SM FEW035 BKN050 BKN080 12/02 A3013 RMK SLP201 60000 T01220022 10122 20061 50000 $ ","updated":"2026-04-26T18:52:55Z"}
