{"icao":"LPFR","metar":"LPFR 130530Z 30013KT CAVOK 11/06 Q1021","updated":"2026-04-13T05:40:17Z"}
