{"icao":"LPHR","metar":"LPHR 071230Z 23008KT 190V250 9999 FEW020 20/12 Q1021","updated":"2025-11-07T12:37:03Z"}
