{"icao":"LPLA","metar":"LPLA 192100Z 34021KT 4500 -RADZ BR SCT004 BKN014 12/10 Q1018","updated":"2026-04-19T21:34:34Z"}
