{"icao":"LPPT","metar":"LPPT 111300Z 21011KT 7000 -RADZ FEW002 BKN008 14/14 Q1026","updated":"2026-01-11T13:28:49Z"}
