{"icao":"KORD","metar":"KORD 201251Z 23010G18KT 10SM SCT160 OVC250 11/05 A2977 RMK AO2 SLP082 T01110050","updated":"2026-03-20T12:57:26Z"}
