{"icao":"LPPS","metar":"LPPS 220130Z 08007KT 050V110 9999 SCT015 16/11 Q1026","updated":"2026-02-22T02:03:52Z"}
