{"icao":"LPBJ","metar":"LPBJ 051734Z 29009KT 6000 -RA FEW020 BKN025 14/10 Q1014","updated":"2026-03-05T18:02:24Z"}
