{"icao":"LPLA","metar":"LPLA 140800Z 250067KT 200V310 9999 BKN030 15/09 Q1030","updated":"2026-02-14T08:30:45Z"}
