{"icao":"LPCS","metar":"LPCS 071500Z 35007KT 320V020 9999 FEW015 BKN027 19/17 Q1015","updated":"2025-11-07T15:18:33Z"}
