{"icao":"LPPR","metar":"LPPR 170730Z 10004KT 060V130 4500 1500N PRFG SCT001 BKN003 10/10 Q1020","updated":"2026-04-17T07:44:23Z"}
