{"icao":"LPLA","metar":"LPLA 131300Z 32029KT 9999 SCT025 17/07 Q1006","updated":"2025-11-13T13:31:40Z"}
