{"icao":"LPFL","metar":"LPFL 041500Z 33016G27KT 290V360 9999 SCT025 16/08 Q1010","updated":"2025-11-04T15:20:52Z"}
