{"icao":"LPST","metar":"LPST 171400Z 34006KT 290V020 9999 FEW015 15/10 Q1021","updated":"2025-12-17T14:21:07Z"}
