{"icao":"KORD","metar":"KORD 021751Z 27007KT 8SM OVC010 M08/M11 A3001 RMK AO2 SLP173 4/007 933006 I6001 T10781111 11072 21083 57004","updated":"2025-12-02T18:30:53Z"}
