{"icao":"LPPR","metar":"LPPR 081800Z 22010KT 9999 SCT009 BKN035 13/12 Q1026","updated":"2026-01-08T18:27:08Z"}
