{"icao":"LPMA","metar":"LPMA 190900Z 22003KT 170V250 9999 FEW015 23/19 Q1018","updated":"2025-10-19T09:16:19Z"}
