{"icao":"LPMT","metar":"LPMT 160000Z VRB02KT CAVOK 17/14 Q1016","updated":"2025-10-16T01:19:47Z"}
