{"icao":"LPLA","metar":"LPLA 291500Z 23020G31KT 8000 FEW002 SCT007 BKN014 20/18 Q1019","updated":"2026-05-29T15:24:56Z"}
