{"icao":"LPLA","metar":"LPLA 111500Z 07004KT 020V090 9999 FEW020 FEW023TCU BKN025 21/17 Q1020","updated":"2025-10-11T15:14:47Z"}
