{"icao":"LPFL","metar":"LPFL 131900Z 22012G26KT 160V280 9999 FEW009 20/16 Q1021","updated":"2025-12-13T19:14:22Z"}
