{"icao":"LPST","metar":"LPST 191500Z 35014KT 9999 FEW025 14/06 Q1016","updated":"2025-11-19T15:19:59Z"}
