{"icao":"LPFR","metar":"LPFR 191730Z 34009KT CAVOK 17/05 Q1027","updated":"2026-02-19T17:48:50Z"}
