{"icao":"LPPS","metar":"LPPS 221400Z 06014KT 030V100 9999 SCT015 SCT030 19/11 Q1025","updated":"2025-11-22T14:15:37Z"}
