{"icao":"LPFR","metar":"LPFR 060600Z VRB02KT CAVOK 17/07 Q1018","updated":"2026-06-06T06:34:05Z"}
