{"icao":"LPMR","metar":"LPMR 120500Z 18004KT CAVOK 16/10 Q1017","updated":"2025-10-12T05:15:33Z"}
