{"icao":"LPMT","metar":"LPMT 151200Z VRB02KT 8000 -RA FEW006 BKN045 15/15 Q1006","updated":"2025-11-15T12:34:00Z"}
