{"icao":"LPPD","metar":"LPPD 202000Z 33006KT 300V010 9999 FEW023 BKN035 14/09 Q1028","updated":"2025-12-20T20:19:31Z"}
