{"icao":"LPPD","metar":"LPPD 062200Z 32005KT 9999 FEW020 16/13 Q1018","updated":"2025-11-06T22:17:33Z"}
