{"icao":"LPPT","metar":"LPPT 250300Z 30005KT CAVOK 09/05 Q1009","updated":"2025-12-25T03:25:17Z"}
