{"icao":"LPST","metar":"LPST 291500Z 30011KT 270V330 9999 FEW020 22/17 Q1021","updated":"2026-05-29T15:24:53Z"}
