{"icao":"KJFK","metar":"KJFK 051751Z 19019G25KT 10SM BKN180 17/06 A2987 RMK AO2 PK WND 18027/1705 PRESFR SLP116 T01670061 10172 20094 58063 $","updated":"2025-11-05T18:26:49Z"}
