{"icao":"LPFR","metar":"LPFR 290400Z 25014KT 7000 BKN006 16/15 Q1012","updated":"2026-01-29T04:08:21Z"}
