{"icao":"LPMR","metar":"LPMR 172200Z VRB02KT 3000 BR SCT003 SCT035 05/05 Q1010","updated":"2026-01-17T22:18:19Z"}
