{"icao":"LPAZ","metar":"LPAZ 120430Z 25023KT 9999 FEW025 SCT033 BKN039 17/11 Q1014","updated":"2026-01-12T04:49:21Z"}
