{"icao":"KJFK","metar":"KJFK 271151Z 23010KT 10SM BKN110 BKN140 BKN250 20/17 A2993 RMK AO2 SLP135 T02000167 10200 20167 58004 $","updated":"2026-05-27T12:19:18Z"}
