{"icao":"LPOV","metar":"LPOV 120600Z 01004KT 7000 -RA FEW017 BKN025 11/11 Q1013","updated":"2025-12-12T06:31:13Z"}
