{"icao":"LPMA","metar":"LPMA 081330Z 08003KT 020V140 9999 FEW015 BKN070 21/13 Q1023","updated":"2026-02-08T13:43:04Z"}
