{"icao":"KJFK","metar":"KJFK 290551Z 28014G22KT 10SM FEW065 02/M07 A3021 RMK PK WND 27028/0522 SLP228 T00171072 10039 20011 51021 ","updated":"2025-11-29T06:27:24Z"}
