{"icao":"KJFK","metar":"KJFK 191351Z 20006KT 10SM FEW055 BKN080 BKN110 BKN250 03/M07 A3033 RMK AO2 SLP271 T00281067","updated":"2026-03-19T14:45:22Z"}
