{"icao":"LPPS","metar":"LPPS 042000Z 02009KT 350V050 9999 FEW014 16/14 Q1019","updated":"2026-04-04T20:30:18Z"}
