{"icao":"LPAZ","metar":"LPAZ 011230Z 27030KT 9000 SCT024 17/13 Q1010","updated":"2026-02-01T12:47:29Z"}
