{"icao":"LPPS","metar":"LPPS 040700Z 20010KT 9999 FEW014 21/19 Q1014","updated":"2025-11-04T07:18:26Z"}
