{"icao":"KJFK","metar":"KJFK 132251Z 04020G29KT 9SM OVC013 14/13 A2993 RMK AO2 PK WND 06031/2204 RAB05E12 SLP136 P0000 T01440128","updated":"2025-10-13T23:15:29Z"}
