{"icao":"KORD","metar":"KORD 020151Z 06007KT 10SM SCT140 BKN250 M03/M10 A3049 RMK AO2 SLP333 T10281100 $","updated":"2026-03-02T02:01:21Z"}
