{"icao":"LPLA","metar":"LPLA 160100Z VRB01KT 9999 SCT035 12/08 Q1021","updated":"2025-11-16T01:37:04Z"}
