{"icao":"KLAX","metar":"KLAX 091053Z 00000KT 10SM FEW200 16/13 A2991 RMK AO2 SLP126 T01610133 $","updated":"2025-10-09T11:14:58Z"}
