{"icao":"LPFR","metar":"LPFR 190830Z 02004KT CAVOK 11/09 Q1027","updated":"2026-02-19T08:41:30Z"}
