{"icao":"LPPS","metar":"LPPS 252000Z 01004KT 9999 FEW015 21/15 Q1020","updated":"2025-09-25T20:19:39Z"}
