{"icao":"LPFL","metar":"LPFL 080700Z 15008KT 9999 BKN008 FEW012CB 21/19 Q1018","updated":"2025-10-08T07:17:07Z"}
