{"icao":"KJFK","metar":"KJFK 271851Z 04008KT 10SM FEW055 FEW250 13/M01 A3032 RMK AO2 SLP268 T01281006","updated":"2025-10-27T19:14:27Z"}
