{"icao":"KORD","metar":"KORD 300851Z 20006KT 10SM FEW150 11/02 A2994 RMK AO2 SLP139 T01110022 58013 $","updated":"2026-03-30T09:10:38Z"}
