{"icao":"LPMA","metar":"LPMA 140230Z VRB02KT 9999 FEW015 19/16 Q1016","updated":"2025-10-14T02:59:21Z"}
