{"icao":"LPPS","metar":"LPPS 282200Z 04012KT 9999 SCT014 BKN030 15/10 Q1026","updated":"2026-02-28T22:20:54Z"}
