{"icao":"LPOV","metar":"LPOV 141300Z 21008KT 1200 DZ BR OVC004 13/13 Q1015","updated":"2026-03-14T13:44:19Z"}
