{"icao":"LPAZ","metar":"LPAZ 201500Z 28019KT 9999 FEW006 SCT010 BKN024 18/15 Q1025","updated":"2026-01-20T15:29:19Z"}
