{"icao":"LPMT","metar":"LPMT 060300Z 24004KT 200V290 9999 FEW025 FEW028TCU 13/11 Q1016","updated":"2025-11-06T03:12:52Z"}
