{"icao":"LPOV","metar":"LPOV 031600Z 20008KT 9999 FEW014 12/08 Q0998","updated":"2026-02-03T16:52:08Z"}
