{"icao":"LPBJ","metar":"LPBJ 310300Z 30006KT CAVOK 14/13 Q1020","updated":"2026-05-31T03:41:01Z"}
