{"icao":"KJFK","metar":"KJFK 121551Z 26012KT 10SM FEW180 FEW250 03/M07 A3021 RMK AO2 SLP228 T00281072 $","updated":"2026-01-12T16:25:46Z"}
