{"icao":"LPAZ","metar":"LPAZ 281500Z 25020KT 7000 FEW010 BKN030 18/16 Q1010","updated":"2026-01-28T15:30:58Z"}
