{"icao":"LPCS","metar":"LPCS 040830Z 08004KT 050V120 CAVOK 19/08 Q1022","updated":"2026-04-04T08:39:15Z"}
