{"icao":"LPPT","metar":"LPPT 241600Z 25013KT 8000 -DZRA FEW006 BKN012 17/16 Q1016","updated":"2025-11-24T16:21:38Z"}
