{"icao":"KLAX","metar":"KLAX 161453Z 26003KT 1/4SM R25L/1400V6000FT FG VV002 14/14 A2999 RMK AO2 SLP156 VIS 1/8V3/4 T01440139 53004 $","updated":"2026-03-16T14:58:29Z"}
