{"icao":"KORD","metar":"KORD 281151Z 30008KT 10SM FEW030 M06/M10 A3032 RMK AO2 SLP277 T10561100 11039 21061 53013","updated":"2025-11-28T12:39:02Z"}
