{"icao":"LPPD","metar":"LPPD 231700Z 29019KT 9999 SCT022 14/07 Q1024","updated":"2026-01-23T17:24:54Z"}
