{"icao":"LPBJ","metar":"LPBJ 311100Z 20016KT 9999 SCT018 BKN045 21/15 Q1016","updated":"2025-10-31T11:15:03Z"}
