{"icao":"LPBJ","metar":"LPBJ 231234Z 30018KT 5000 2000N SHRA FEW020CB OVC030 09/08 Q1005","updated":"2026-01-23T12:44:03Z"}
