{"icao":"LPBJ","metar":"LPBJ 170500Z 13002KT CAVOK 15/14 Q1014","updated":"2025-10-17T05:17:04Z"}
