{"icao":"LPPR","metar":"LPPR 302000Z 30012G24KT 270V330 9999 BKN038 13/06 Q1008","updated":"2026-01-30T20:28:01Z"}
