{"icao":"KJFK","metar":"KJFK 080651Z 31010KT 10SM FEW030 SCT250 05/01 A3004 RMK AO2 SLP173 T00500006 $","updated":"2026-01-08T07:23:40Z"}
