{"icao":"KJFK","metar":"KJFK 151451Z 26017KT 10SM SCT027 BKN039 BKN110 04/M01 A2945 RMK AO2 PK WND 26028/1357 SLP973 FROPA 60000 T00441011 53025 $","updated":"2026-01-15T15:24:28Z"}
