{"icao":"LPOV","metar":"LPOV 312300Z 17007KT 7000 -RA SCT009 SCT014 17/17 Q1012","updated":"2025-11-01T09:16:50Z"}
