{"icao":"LPFL","metar":"LPFL 031000Z 13006KT 090V170 9999 4900SE -RADZ FEW004 BKN011 FEW013TCU 18/17 Q1025 REDZ","updated":"2025-12-03T10:22:03Z"}
