{"icao":"LPFL","metar":"LPFL 021830Z 15004KT 100V210 9999 FEW022 BKN029 15/10 Q1030","updated":"2026-04-02T18:55:20Z"}
