{"icao":"LPOV","metar":"LPOV 251700Z 22017KT 9999 SCT024 FEW026TCU SCT040 23/20 Q1015","updated":"2026-06-25T18:07:55Z"}
