{"icao":"LPMT","metar":"LPMT 012200Z 27007KT 240V300 9999 SCT025 16/11 Q1019","updated":"2026-05-01T23:50:55Z"}
