{"icao":"KORD","metar":"KORD 231613Z 30011KT 10SM SCT028 08/01 A3011 RMK AO2 T00830006","updated":"2025-10-23T16:23:00Z"}
