{"icao":"LPPT","metar":"LPPT 311230Z 06004KT 020V100 0700 R02/P2000 PRFG SCT001 BKN002 08/08 Q1018","updated":"2025-12-31T12:40:31Z"}
