{"icao":"LPMR","metar":"LPMR 121200Z 12009KT 090V150 CAVOK 26/12 Q1017","updated":"2025-10-12T15:15:20Z"}
