{"icao":"LPMR","metar":"LPMR 170600Z VRB01KT 3000 BR SCT004 11/11 Q1012","updated":"2025-11-17T06:29:19Z"}
