{"icao":"KORD","metar":"KORD 261205Z 24021G34KT 10SM -SN BKN019 OVC029 01/M02 A2969 RMK AO2 PK WND 26036/1154 SNB04 P0000 T00111022","updated":"2025-11-26T12:41:02Z"}
