{"icao":"LPCS","metar":"LPCS 291100Z 12004KT 070V160 9999 SCT012 21/18 Q1008","updated":"2025-10-29T11:16:03Z"}
