{"icao":"LPBJ","metar":"LPBJ 120700Z 09005KT CAVOK 15/11 Q1016","updated":"2025-10-12T07:15:25Z"}
