{"icao":"LPPD","metar":"LPPD 192100Z 36006KT 320V020 9999 FEW015 SCT030 15/11 Q1015","updated":"2026-04-19T21:34:33Z"}
