{"icao":"LPMR","metar":"LPMR 190700Z 15001KT 4500 BR FEW020 08/07 Q1017","updated":"2025-11-19T07:18:36Z"}
