{"icao":"KORD","metar":"KORD 241251Z 21008G15KT 10SM FEW030 SCT150 BKN200 BKN250 20/15 A2963 RMK AO2 PRESRR SLP028 T02000150","updated":"2026-04-24T13:23:12Z"}
