{"icao":"LPPD","metar":"LPPD 020830Z 36011G21KT 330V030 9999 FEW020 SCT040 12/03 Q1029","updated":"2026-03-02T08:42:38Z"}
