{"icao":"LPPR","metar":"LPPR 140600Z 17005KT 8000 -SHRA FEW012 BKN018 11/10 Q1016","updated":"2026-01-14T06:32:23Z"}
