{"icao":"KORD","metar":"KORD 200951Z 22009KT 10SM OVC180 09/04 A2980 RMK AO2 SLP094 T00940044 $","updated":"2026-03-20T10:36:49Z"}
