{"icao":"KLAX","metar":"KLAX 200253Z 26007KT 10SM FEW250 19/14 A2999 RMK AO2 SLP154 T01940139 53004","updated":"2025-10-20T03:14:28Z"}
