{"icao":"LPST","metar":"LPST 301000Z 24002KT 190V290 9999 SCT020 BKN040 16/13 Q1017","updated":"2026-04-30T10:54:00Z"}
