{"icao":"LPHR","metar":"LPHR 031230Z 26010KT 170V330 9999 SCT012 SCT025 16/13 Q1014","updated":"2026-01-03T12:37:25Z"}
