{"icao":"LPMT","metar":"LPMT 122300Z 16002KT CAVOK 15/14 Q1015","updated":"2025-10-12T23:14:39Z"}
