{"icao":"KJFK","metar":"KJFK 201512Z 09012KT 7SM -RA SCT008 OVC013 04/03 A2981 RMK AO2 PRESFR P0001 T00390028 $","updated":"2026-02-20T15:36:25Z"}
