{"icao":"KLAX","metar":"KLAX 220713Z 28007KT 3SM BR FEW002 OVC004 19/18 A2987 RMK AO2 VIS 2V4 T01890178 $","updated":"2025-09-22T07:18:27Z"}
