{"icao":"LPPS","metar":"LPPS 171530Z 15005KT 070V240 9999 FEW015 18/12 Q1025","updated":"2026-02-17T15:51:45Z"}
