{"icao":"KJFK","metar":"KJFK 221951Z 35008KT 10SM FEW025 SCT032 BKN041 10/04 A2986 RMK AO2 SLP112 T01000044","updated":"2025-11-22T20:19:25Z"}
