{"icao":"LPPR","metar":"LPPR 231500Z 26008KT 230V300 9999 SCT003 SCT007 BKN010 14/14 Q1022 RERA","updated":"2025-11-23T15:16:34Z"}
