{"icao":"LPMA","metar":"LPMA 251730Z 02010KT 9999 SCT016 19/12 Q1018","updated":"2026-04-25T17:35:48Z"}
