{"icao":"LPMA","metar":"LPMA 032200Z 35007KT 310V010 9999 SCT016 FEW018TCU 17/12 Q1028","updated":"2025-12-03T22:19:30Z"}
