{"icao":"LPST","metar":"LPST 160700Z 00000KT CAVOK 14/10 Q1015","updated":"2025-10-16T08:25:21Z"}
