{"icao":"LPFR","metar":"LPFR 161130Z 28008KT 250V310 9999 FEW026 BKN032 15/10 Q1033","updated":"2026-02-16T11:38:58Z"}
