{"icao":"LPCS","metar":"LPCS 222000Z 27005KT 230V310 9999 FEW003 BKN006 21/21 Q1020","updated":"2025-10-22T21:13:22Z"}
