{"icao":"KORD","metar":"KORD 071851Z 07009KT 10SM FEW040 FEW250 03/M08 A3049 RMK AO2 SLP333 T00281083 $","updated":"2026-04-07T19:17:16Z"}
