{"icao":"KJFK","metar":"KJFK 271451Z 11003KT 10SM BKN220 BKN250 23/16 A3001 RMK AO2 SLP162 T02330161 51011 $","updated":"2025-09-27T15:14:34Z"}
