{"icao":"KORD","metar":"KORD 030951Z 00000KT 10SM BKN120 OVC180 M06/M15 A3002 RMK AO2 SLP175 T10611150 $","updated":"2026-01-03T10:19:46Z"}
