{"icao":"LPPD","metar":"LPPD 251300Z 18005KT 150V210 9999 FEW013 SCT018 19/17 Q1028","updated":"2025-11-25T13:33:04Z"}
