{"icao":"LPHR","metar":"LPHR 142030Z 26010KT 9999 FEW008 SCT013 BKN020 20/18 Q1022","updated":"2026-06-14T22:08:11Z"}
