{"icao":"LPAZ","metar":"LPAZ 131900Z 22005KT 9999 FEW016 23/19 Q1026","updated":"2025-09-13T19:11:37Z"}
