{"icao":"LPMT","metar":"LPMT 201900Z 34009KT CAVOK 26/16 Q1014","updated":"2026-06-20T19:23:47Z"}
