{"icao":"KJFK","metar":"KJFK 261251Z 03007KT 10SM FEW030 BKN095 BKN250 11/04 A3042 RMK AO2 SLP301 T01110039","updated":"2025-10-26T13:22:30Z"}
