{"icao":"LPOV","metar":"LPOV 131600Z 22006KT 190V280 9999 FEW016 SCT028 BKN040 14/11 Q1021","updated":"2026-04-13T16:10:51Z"}
