{"icao":"LPHR","metar":"LPHR 171000Z 23020KT 8000 SCT003 BKN006 19/18 Q1019","updated":"2025-12-17T10:22:30Z"}
