{"icao":"LPFL","metar":"LPFL 211830Z VRB16G26KT 9999 FEW008 BKN010 18/15 Q1017 WS ALL RWY","updated":"2026-01-21T18:41:03Z"}
