{"icao":"LPMA","metar":"LPMA 101100Z 36009KT 300V050 9999 FEW015 SCT030 24/14 Q1024","updated":"2025-10-10T11:15:36Z"}
