{"icao":"LPPT","metar":"LPPT 132200Z 33006KT 290V360 9999 FEW013 15/13 Q1019","updated":"2026-05-13T22:09:50Z"}
