{"icao":"LPPT","metar":"LPPT 270830Z 34005KT 310V010 9999 BKN012 12/10 Q1025","updated":"2026-02-27T08:38:31Z"}
