{"icao":"LPHR","metar":"LPHR 241630Z 27009KT 240V300 9999 SCT004 BKN005 17/16 Q1009","updated":"2026-04-24T16:54:26Z"}
