{"icao":"LPAR","metar":"LPAR 091600Z 34009KT 300V020 9999 SCT025 15/07 Q1028","updated":"2026-01-09T16:26:37Z"}
