{"icao":"LPFL","metar":"LPFL 111100Z 33018G32KT 300V360 9999 SCT017 FEW020CB 16/09 Q1009","updated":"2025-11-11T11:16:23Z"}
