{"icao":"LPCS","metar":"LPCS 290830Z 25016KT 3500 BR SCT002 BKN003 15/15 Q1009","updated":"2026-01-29T08:37:25Z"}
