{"icao":"KORD","metar":"KORD 231951Z 05008KT 10SM FEW050 SCT250 23/11 A3019 RMK AO2 SLP221 T02280106","updated":"2026-06-23T20:03:41Z"}
