{"icao":"LPPD","metar":"LPPD 301200Z 03012KT 360V070 9999 FEW025 22/15 Q1031","updated":"2026-06-30T12:06:49Z"}
