{"icao":"LPPS","metar":"LPPS 140800Z 03005KT 350V060 9999 SCT013 14/13 Q1024","updated":"2026-03-14T08:34:14Z"}
