{"icao":"LPPD","metar":"LPPD 092230Z 02006KT 350V050 9999 BKN014 15/11 Q1032","updated":"2026-04-09T22:39:15Z"}
