{"icao":"LPLA","metar":"LPLA 071600Z 32009KT 8000 -RA SCT008 BKN020 14/13 Q1020","updated":"2026-03-07T16:26:27Z"}
