{"icao":"LPMT","metar":"LPMT 061600Z 36006KT 320V040 9999 FEW035 26/14 Q1018","updated":"2026-06-06T17:12:00Z"}
