{"icao":"LPBJ","metar":"LPBJ 011000Z 10006KT CAVOK 11/05 Q1021","updated":"2025-12-01T10:22:40Z"}
