{"icao":"LPPT","metar":"LPPT 132100Z 30010KT 280V340 9999 FEW024 FEW030CB 10/07 Q1014 WS R02","updated":"2026-02-13T21:33:44Z"}
