{"icao":"LPMA","metar":"LPMA 101600Z 04007KT 010V070 9999 SCT015 20/14 Q1023","updated":"2026-02-10T16:09:16Z"}
