{"icao":"LPHR","metar":"LPHR 220700Z 16009KT 2000 TSRA BR SCT003 BKN010 BKN013CB 20/20 Q1011","updated":"2025-10-22T07:17:37Z"}
