{"icao":"LPFL","metar":"LPFL 250800Z 21019G31KT 180V260 9999 FEW010 SCT016 FEW018TCU 18/15 Q1009 REDZ","updated":"2026-01-25T08:26:34Z"}
