{"icao":"LPFR","metar":"LPFR 051400Z 32013KT 290V350 CAVOK 13/01 Q1009","updated":"2026-01-05T14:23:17Z"}
