{"icao":"LPPR","metar":"LPPR 011000Z 10006KT 060V130 CAVOK 14/05 Q1022","updated":"2026-03-01T10:23:36Z"}
