{"icao":"LPST","metar":"LPST 141200Z 26005KT 210V310 CAVOK 28/10 Q1017","updated":"2025-10-14T12:38:48Z"}
