{"icao":"KORD","metar":"KORD 090751Z 20016G21KT 10SM FEW250 11/02 A2974 RMK AO2 SLP072 T01060022 $","updated":"2026-03-09T08:42:23Z"}
