{"icao":"LPMT","metar":"LPMT 300400Z 36006KT 330V040 9999 FEW020 13/10 Q1016","updated":"2025-11-30T04:32:42Z"}
