{"icao":"LPOV","metar":"LPOV 140700Z 16004KT 5000 BR SCT002 BKN003 10/10 Q1017","updated":"2026-01-14T07:23:52Z"}
