{"icao":"LPAR","metar":"LPAR 141000Z 04014KT CAVOK 13/08 Q1019","updated":"2025-12-14T10:18:41Z"}
