{"icao":"LPHR","metar":"LPHR 012200Z 29026G42KT 9999 SCT025 14/07 Q1012","updated":"2026-02-01T22:22:53Z"}
