{"icao":"LPCS","metar":"LPCS 302000Z 36022KT 9999 FEW002 20/16 Q1020","updated":"2026-06-30T21:26:52Z"}
