{"icao":"LPFL","metar":"LPFL 031300Z 34011KT 310V010 9999 FEW012 SCT017 16/12 Q1018","updated":"2026-01-03T13:27:47Z"}
