{"icao":"LPCS","metar":"LPCS 141400Z 33017KT 9999 FEW034 14/06 Q1027","updated":"2026-02-14T14:25:25Z"}
