{"icao":"LPBJ","metar":"LPBJ 172000Z 21007KT CAVOK 21/12 Q1016","updated":"2026-04-17T21:04:19Z"}
