{"icao":"LPFL","metar":"LPFL 091330Z 13003KT 070V170 9999 VCSH FEW010 SCT018 BKN035 17/14 Q1035","updated":"2026-04-09T13:47:31Z"}
