{"icao":"KLAX","metar":"KLAX 311853Z 26007KT 9SM FEW015 SCT140 21/14 A3001 RMK AO2 SLP159 T02110144 $","updated":"2025-10-31T19:13:18Z"}
