{"icao":"LPPT","metar":"LPPT 040400Z 00000KT 9999 FEW004 13/13 Q1018","updated":"2025-11-04T04:20:46Z"}
