{"icao":"LPBJ","metar":"LPBJ 052300Z 31007KT CAVOK 03/M01 Q1016","updated":"2026-01-05T23:18:56Z"}
