{"icao":"LPPR","metar":"LPPR 092030Z 03007KT CAVOK 21/15 Q1015","updated":"2026-04-09T20:49:54Z"}
