{"icao":"LPCS","metar":"LPCS 150900Z 21010KT 6000 -RA FEW008 SCT015 FEW022TCU 15/15 Q1006 RESHRA","updated":"2025-11-15T09:16:46Z"}
