{"icao":"KLAX","metar":"KLAX 270107Z 26007KT 5SM -RA BR FEW009 SCT012 BKN027 15/13 A3000 RMK AO2 RAB00 VIS SW 2 1/2 P0001 T01500128 $","updated":"2025-12-27T01:27:10Z"}
