{"icao":"LPOV","metar":"LPOV 281500Z 34008KT 9999 SCT035 15/11 Q1020","updated":"2025-11-28T15:19:05Z"}
