{"icao":"LPMT","metar":"LPMT 250400Z 09003KT CAVOK 09/09 Q1020","updated":"2026-03-25T04:52:23Z"}
