{"icao":"KJFK","metar":"KJFK 040751Z 27008KT 3SM -DZ BR SCT013 OVC020 03/03 A3021 RMK AO2 SFC VIS 6 RAE40DZB40 SLP230 P0003 T00330028","updated":"2026-03-04T08:37:34Z"}
