{"icao":"KLAX","metar":"KLAX 120453Z 24007KT 10SM BKN007 17/15 A3006 RMK AO2 SLP177 T01670150 $","updated":"2025-11-12T05:19:09Z"}
