{"icao":"KJFK","metar":"KJFK 051851Z 17007KT 10SM CLR 25/15 A3028 RMK AO2 SLP254 T02500150","updated":"2025-10-05T19:12:37Z"}
