{"icao":"LPCS","metar":"LPCS 311500Z 10007KT 060V140 9999 FEW020 14/09 Q1016","updated":"2025-12-31T15:19:45Z"}
