{"icao":"KORD","metar":"KORD 181151Z 17009KT 7SM -RA OVC100 17/16 A2968 RMK AO2 TSE30 SLP046 P0010 60017 70017 T01720161 10194 20172 50001 $","updated":"2025-10-18T12:32:57Z"}
