{"icao":"LPPD","metar":"LPPD 150700Z 35010KT 300V020 9999 FEW018 14/10 Q1024","updated":"2026-01-15T07:24:02Z"}
