{"icao":"LPLA","metar":"LPLA 242200Z 36005KT 330V060 9999 SCT018 SCT035 20/16 Q1018","updated":"2025-10-24T22:16:45Z"}
