{"icao":"LPFL","metar":"LPFL 200930Z 17012KT 140V200 9999 SCT007 SCT013 16/14 Q1013","updated":"2026-02-20T09:39:17Z"}
