{"icao":"KJFK","metar":"KJFK 141651Z 17008KT 10SM FEW045 SCT070 SCT250 24/18 A3006 RMK AO2 WSHFT 1555 SLP177 T02390178 $","updated":"2025-09-14T17:12:43Z"}
