{"icao":"LPPR","metar":"LPPR 302300Z 34007KT CAVOK 18/16 Q1021","updated":"2026-06-30T23:10:34Z"}
