{"icao":"LPPT","metar":"LPPT 241900Z 28007KT 250V320 9000 FEW002 BKN008 16/16 Q1017","updated":"2025-11-24T19:13:03Z"}
