{"icao":"KLAX","metar":"KLAX 241853Z 00000KT 10SM FEW024 BKN047 16/11 A2992 RMK AO2 SLP131 T01610106 $","updated":"2026-01-24T19:15:55Z"}
