{"icao":"LPCS","metar":"LPCS 030730Z 30007KT 250V340 9999 FEW020 FEW030TCU 10/09 Q1002 RESHRA","updated":"2026-02-03T07:41:05Z"}
