{"icao":"KLAX","metar":"KLAX 161853Z 00000KT 10SM FEW090 FEW140 23/05 A3001 RMK AO2 SLP160 T02330050","updated":"2026-01-16T19:19:55Z"}
