{"icao":"KJFK","metar":"KJFK 210551Z 27003KT 4SM BR OVC007 02/02 A2973 RMK AO2 SLP068 60000 T00220022 10028 20017 53011 $","updated":"2026-02-21T06:40:17Z"}
