{"icao":"LPPR","metar":"LPPR 132030Z 34019G31KT 9999 FEW020 FEW025CB BKN034 10/06 Q1011 RESHRA","updated":"2026-02-13T20:36:38Z"}
