{"icao":"LPPD","metar":"LPPD 042100Z 31014KT 9999 FEW018 FEW025TCU 16/07 Q1011","updated":"2025-11-04T21:17:07Z"}
