{"icao":"LPFL","metar":"LPFL 140800Z 01003KT 310V090 9999 VCSH FEW017 FEW018TCU SCT049 23/19 Q1025","updated":"2025-09-14T08:20:11Z"}
