{"icao":"KORD","metar":"KORD 311251Z 21016G24KT 10SM FEW050 SCT110 BKN160 OVC250 19/13 A2975 RMK AO2 SLP069 VIRGA T01890128","updated":"2026-03-31T13:16:17Z"}
