{"icao":"LPCS","metar":"LPCS 101330Z 35013KT 330V030 9999 FEW018 16/11 Q1020","updated":"2025-12-10T13:36:03Z"}
