{"icao":"LPCS","metar":"LPCS 101230Z VRB03KT CAVOK 27/13 Q1020","updated":"2025-10-10T12:36:38Z"}
