{"icao":"LPFR","metar":"LPFR 020700Z 02006KT CAVOK 20/16 Q1020","updated":"2025-10-02T07:16:13Z"}
