{"icao":"LPPT","metar":"LPPT 301500Z 26017G28KT 230V290 9999 VCSH FEW010 BKN016 16/12 Q1011","updated":"2026-01-30T15:32:57Z"}
