{"icao":"LPPD","metar":"LPPD 200800Z 31008KT 280V340 9999 FEW020 SCT045 13/09 Q1029","updated":"2025-12-20T08:24:11Z"}
