{"icao":"KORD","metar":"KORD 160751Z 19003KT 10SM FEW250 M08/M12 A3005 RMK AO2 SLP188 T10781117","updated":"2025-12-16T08:28:36Z"}
