{"icao":"LPMA","metar":"LPMA 051830Z 05004KT 010V070 9999 SCT015 SCT030 18/13 Q1015","updated":"2026-04-05T18:41:49Z"}
