{"icao":"LPMA","metar":"LPMA 271800Z 22015KT 9999 SCT013 FEW015TCU 23/20 Q1015","updated":"2025-10-27T18:27:17Z"}
