{"icao":"LPPT","metar":"LPPT 180700Z 01005KT CAVOK 12/08 Q1019","updated":"2025-11-18T07:18:11Z"}
