{"icao":"LPMA","metar":"LPMA 111100Z 03010KT 9999 FEW015 BKN030 23/13 Q1021","updated":"2025-10-11T11:13:06Z"}
