{"icao":"LPPR","metar":"LPPR 042100Z 17025KT 9999 FEW045 22/12 Q1008","updated":"2025-11-04T21:16:49Z"}
