{"icao":"LPPT","metar":"LPPT 170300Z 36005KT 320V050 CAVOK 17/06 Q1020","updated":"2025-09-17T03:26:48Z"}
