{"icao":"LPCS","metar":"LPCS 231100Z 33005KT 280V010 9999 FEW008 SCT017 BKN042 23/19 Q1021","updated":"2025-10-23T11:15:41Z"}
