{"icao":"LPMA","metar":"LPMA 140430Z 02019G36KT 330V050 9999 SCT015 FEW018CB 18/13 Q1017","updated":"2025-12-14T04:35:18Z"}
