{"icao":"LPMA","metar":"LPMA 091100Z 02009KT 350V050 9999 SCT015 SCT030 21/14 Q1023","updated":"2025-11-09T11:13:35Z"}
