{"icao":"LPPS","metar":"LPPS 170930Z 20007KT 160V230 9999 FEW014 17/12 Q1009","updated":"2026-03-17T09:54:33Z"}
