{"icao":"LPAZ","metar":"LPAZ 202300Z 29023KT 9999 FEW011 BKN025 17/13 Q1024","updated":"2026-01-20T23:20:54Z"}
