{"icao":"LPOV","metar":"LPOV 040200Z 35006KT 9999 OVC008 16/16 Q1024","updated":"2025-10-04T02:49:59Z"}
