{"icao":"LPPT","metar":"LPPT 031230Z 06006G17KT 330V100 CAVOK 22/10 Q1023","updated":"2026-04-03T13:01:00Z"}
