{"icao":"KORD","metar":"KORD 041151Z 00000KT 10SM FEW100 FEW200 BKN250 04/M03 A3027 RMK AO2 SLP253 T00441028 10072 20044 53005 $","updated":"2025-11-04T12:41:24Z"}
