{"icao":"LPMT","metar":"LPMT 191800Z 21009KT 180V250 9999 BKN020 21/18 Q1013","updated":"2025-10-19T18:22:42Z"}
