{"icao":"LPHR","metar":"LPHR 131900Z 25008KT 9999 SCT015 BKN030 16/13 Q1025","updated":"2026-01-13T19:19:02Z"}
