{"icao":"KLAX","metar":"KLAX 012053Z 26013KT 10SM FEW019 SCT030 BKN038 21/15 A2995 RMK AO2 SLP141 T02060150 58000","updated":"2026-07-01T21:27:11Z"}
