{"icao":"LPFR","metar":"LPFR 050700Z 16009KT 130V200 9999 FEW015 21/19 Q1011","updated":"2025-11-05T07:18:08Z"}
