{"icao":"KORD","metar":"KORD 021151Z 29007KT 10SM BKN028 M07/M12 A2989 RMK AO2 SLP132 T10671122 11061 21067 53006 $","updated":"2026-01-02T12:39:51Z"}
