{"icao":"LPCR","metar":"LPCR 191600Z 28022KT 9999 FEW020 SCT032 21/16 Q1006","updated":"2026-06-20T00:08:36Z"}
