{"icao":"LPFR","metar":"LPFR 122100Z 20009KT 170V230 4000 -RA BR SCT010 FEW022CB BKN030 19/18 Q1009","updated":"2025-11-12T21:17:09Z"}
