{"icao":"LPPS","metar":"LPPS 212000Z 03006KT 340V070 9999 SCT015 15/11 Q1026","updated":"2026-02-21T20:23:57Z"}
