{"icao":"LPAZ","metar":"LPAZ 151900Z 20011KT 170V230 9999 BKN029 16/12 Q1030","updated":"2026-02-15T19:24:00Z"}
