{"icao":"LPMA","metar":"LPMA 050500Z 01008KT 320V070 9999 SCT015 20/15 Q1021","updated":"2026-06-05T05:15:36Z"}
