{"icao":"LPST","metar":"LPST 081600Z METAR LPST 081600Z 32013KT 300V360 9999 FEW022 21/16 Q1022","updated":"2026-06-09T00:03:55Z"}
