{"icao":"LPFR","metar":"LPFR 211900Z 29012KT 9999 FEW015 FEW020TCU 11/03 Q1010","updated":"2025-12-21T19:14:18Z"}
