{"icao":"LPFL","metar":"LPFL 071500Z 19024G41KT 160V240 9000 -RA FEW010 SCT014 17/14 Q1006","updated":"2026-02-07T15:23:31Z"}
