{"icao":"KORD","metar":"KORD 150651Z 22005KT 10SM FEW100 OVC250 01/M02 A2992 RMK AO2 SLP137 T00111017 $","updated":"2026-02-15T07:37:03Z"}
