{"icao":"LPMA","metar":"LPMA 222000Z 30004KT 240V330 9999 SCT015 18/10 Q1017","updated":"2026-01-22T20:26:41Z"}
