{"icao":"KJFK","metar":"KJFK 220051Z 22007KT 9SM FEW025 BKN200 09/06 A2997 RMK AO2 SLP150 T00940061","updated":"2025-11-22T01:20:50Z"}
