{"icao":"KJFK","metar":"KJFK 250751Z 04011KT 10SM BKN090 BKN150 OVC250 M11/M21 A3064 RMK AO2 SLP373 T11061211 $","updated":"2026-01-25T08:26:36Z"}
