{"icao":"KJFK","metar":"KJFK 130651Z 33014KT 10SM BKN250 25/17 A2980 RMK SLP092 T02500167 $ ","updated":"2026-06-13T07:45:14Z"}
