{"icao":"KLAX","metar":"KLAX 020453Z 01004KT 10SM FEW010 15/14 A3009 RMK AO2 SLP189 T01500144 $","updated":"2026-01-02T05:24:38Z"}
