{"icao":"LPLA","metar":"LPLA 211700Z 21012G22KT 180V300 8000 -DZ SCT008 BKN015 18/16 Q1021","updated":"2026-02-21T17:24:16Z"}
