{"icao":"LPPS","metar":"LPPS 291900Z 35012KT 9999 FEW015 21/14 Q1017","updated":"2025-10-29T19:14:23Z"}
