{"icao":"KLAX","metar":"KLAX 180153Z 24009KT 10SM CLR 21/12 A2988 RMK AO2 SLP119 T02060117","updated":"2025-10-18T02:53:54Z"}
