{"icao":"KORD","metar":"KORD 010651Z 08004KT 10SM OVC250 19/14 A3017 RMK AO2 SLP211 T01940144","updated":"2025-10-01T07:18:00Z"}
