{"icao":"KLAX","metar":"KLAX 020153Z 27007KT 10SM FEW150 SCT250 18/14 A2994 RMK AO2 SLP137 T01830139","updated":"2026-03-02T02:01:20Z"}
