{"icao":"KJFK","metar":"KJFK 301551Z 31016G23KT 10SM FEW050 FEW250 M11/M21 A3019 RMK PK WND 30027/1531 SLP224 T11061206 $ ","updated":"2026-01-30T16:37:49Z"}
