{"icao":"LPFR","metar":"LPFR 051530Z 29018KT CAVOK 29/08 Q1013","updated":"2026-06-05T15:51:48Z"}
