{"icao":"LPAZ","metar":"LPAZ 281000Z 07010KT 020V100 9999 FEW015 BKN020 14/11 Q1032","updated":"2026-03-28T10:30:41Z"}
