{"icao":"LPPR","metar":"LPPR 151100Z 22008KT 9999 FEW006 BKN040 13/11 Q1029","updated":"2026-02-15T11:21:18Z"}
