{"icao":"LPFR","metar":"LPFR 041930Z 30014KT CAVOK 24/13 Q1014","updated":"2026-06-04T20:03:26Z"}
