{"icao":"LPMT","metar":"LPMT 182200Z 25002KT CAVOK 20/17 Q1016","updated":"2025-10-18T22:15:28Z"}
