{"icao":"LPMA","metar":"LPMA 130430Z 32003KT 260V020 9999 FEW015 14/11 Q1021","updated":"2026-05-13T04:41:55Z"}
