{"icao":"LPOV","metar":"LPOV 222000Z 35002KT CAVOK 11/10 Q1027","updated":"2026-02-22T20:25:39Z"}
