{"icao":"KJFK","metar":"KJFK 010651Z 28014G25KT 10SM FEW060 11/M02 A2972 RMK AO2 SLP065 T01111017 $","updated":"2025-11-01T07:15:56Z"}
