{"icao":"LPMA","metar":"LPMA 242000Z 21007KT 180V240 9999 -RA BKN013 17/15 Q1017","updated":"2026-02-24T20:33:53Z"}
