{"icao":"LPOV","metar":"LPOV 030200Z 34004KT 310V010 9999 BKN008 16/15 Q1023","updated":"2025-10-03T04:20:13Z"}
