{"icao":"LPBJ","metar":"LPBJ 112300Z 07005KT CAVOK 20/10 Q1017","updated":"2025-10-11T23:15:44Z"}
