{"icao":"LPFR","metar":"LPFR 031700Z 27011KT CAVOK 20/12 Q1020","updated":"2026-04-03T17:33:07Z"}
