{"icao":"KORD","metar":"KORD 052051Z 21014G24KT 10SM SCT055 BKN065 M02/M12 A2981 RMK AO2 SLP105 T10171122 56028","updated":"2025-12-05T21:17:22Z"}
