{"icao":"LPPT","metar":"LPPT 301300Z 35018KT 320V020 9999 FEW035 14/06 Q1018","updated":"2025-11-30T13:24:53Z"}
