{"icao":"LPPD","metar":"LPPD 040300Z 24016KT 9999 SCT013 BKN030 20/17 Q1007","updated":"2025-11-04T03:08:58Z"}
