{"icao":"LPMT","metar":"LPMT 291100Z 02007KT 340V050 CAVOK 26/15 Q1021","updated":"2026-05-29T11:27:32Z"}
