{"icao":"LPMT","metar":"LPMT 291800Z 33009KT CAVOK 25/17 Q1020","updated":"2026-05-29T18:30:42Z"}
