{"icao":"LPLA","metar":"LPLA 251800Z 11004KT 060V150 9999 FEW020 OVC025 15/10 Q1030","updated":"2026-03-25T19:01:09Z"}
