{"icao":"KLAX","metar":"KLAX 210914Z VRB05KT 2 1/2SM R25L/2600VP6000FT +RA BR BKN008 BKN015 OVC030 12/11 A2983 RMK AO2 VIS 2V4 CB DSNT W-SW MOV NE P0022 T01220111 $","updated":"2025-11-21T09:19:47Z"}
