{"icao":"KORD","metar":"KORD 050451Z 19007KT 10SM CLR 23/13 A3006 RMK AO2 SLP174 T02330133 $","updated":"2025-10-05T05:16:02Z"}
