{"icao":"LPPT","metar":"LPPT 151600Z 21016KT 1500 0800SW R20/1200D RADZ BR FEW003 BKN004 13/13 Q1014","updated":"2026-01-15T16:33:52Z"}
