{"icao":"KLAX","metar":"KLAX 020153Z 26011KT 10SM FEW250 19/09 A2999 RMK AO2 SLP155 T01890094","updated":"2026-02-02T02:04:13Z"}
