{"icao":"KORD","metar":"KORD 121051Z 28010KT 10SM SCT250 04/01 A2980 RMK AO2 SLP097 T00440006","updated":"2025-11-12T11:16:37Z"}
