{"icao":"KORD","metar":"KORD 232351Z 10009KT 10SM FEW050 SCT250 21/09 A3015 RMK AO2 SLP208 T02110089 10233 20211 56009","updated":"2026-06-23T23:59:37Z"}
