{"icao":"LPMA","metar":"LPMA 171130Z 04011KT 010V070 9999 FEW015 23/16 Q1021","updated":"2026-06-17T11:45:52Z"}
