{"icao":"LPPD","metar":"LPPD 081000Z 21025G35KT 6000 FEW006 BKN011 BKN025 20/18 Q0998","updated":"2025-12-08T10:22:10Z"}
