{"icao":"LPPR","metar":"LPPR 042100Z 34004KT 310V010 9999 BKN007 12/11 Q1015","updated":"2026-03-04T21:32:55Z"}
