{"icao":"LPPR","metar":"LPPR 081230Z 30007KT 9999 SCT016 BKN022 18/15 Q1022","updated":"2025-10-08T12:37:26Z"}
