{"icao":"LPMR","metar":"LPMR 290600Z 24005KT 1500 -RA BR BKN005 BKN020 FEW025CB 14/14 Q1007","updated":"2026-04-29T06:21:42Z"}
