{"icao":"LPCS","metar":"LPCS 012330Z 36007KT 9999 FEW018 16/14 Q1022","updated":"2025-11-02T01:27:37Z"}
