{"icao":"LPOV","metar":"LPOV 171600Z 33004KT 9999 FEW025 20/16 Q1015","updated":"2025-10-17T16:21:32Z"}
