{"icao":"LPBJ","metar":"LPBJ 081800Z 19010KT 3500 -DZRA SCT008 10/09 Q1015","updated":"2026-02-08T18:35:28Z"}
