{"icao":"LPCS","metar":"LPCS 291100Z 24014KT 3500 -DZ BR FEW001 BKN003 16/16 Q1010","updated":"2026-01-29T11:29:45Z"}
