{"icao":"LPMT","metar":"LPMT 130600Z 19008KT 9999 FEW005 SCT015 14/12 Q1007","updated":"2026-01-13T06:32:14Z"}
