{"icao":"KLAX","metar":"KLAX 171053Z 00000KT 10SM FEW070 FEW110 SCT200 21/18 A2989 RMK AO2 SLP118 T02110183","updated":"2025-09-17T11:13:52Z"}
