{"icao":"KLAX","metar":"KLAX 041453Z 07005KT 10SM FEW021 SCT028 17/13 A2993 RMK AO2 SLP134 T01670133 53004 $","updated":"2025-10-04T15:14:27Z"}
