{"icao":"LPBJ","metar":"LPBJ 231100Z 10007KT 070V130 CAVOK 17/10 Q1025","updated":"2026-02-23T11:38:51Z"}
