{"icao":"LPBJ","metar":"LPBJ 280700Z 31007KT 9999 SCT003 17/16 Q1021","updated":"2026-06-28T07:49:28Z"}
