{"icao":"LPPS","metar":"LPPS 301300Z 22009KT 180V260 9999 FEW015 SCT030 23/14 Q1017","updated":"2025-10-30T13:29:35Z"}
