{"icao":"KJFK","metar":"KJFK 280251Z 01007KT 10SM FEW040 FEW250 M04/M07 A3024 RMK AO2 SLP239 T10391067 53007 $","updated":"2025-12-28T03:46:48Z"}
