{"icao":"LPOV","metar":"LPOV 291800Z 23008KT 8000 FEW014 FEW020CB 14/13 Q1009","updated":"2026-01-29T18:43:04Z"}
