{"icao":"KORD","metar":"KORD 241151Z 17006KT 10SM BKN230 03/01 A3010 RMK AO2 SLP198 T00280006 10028 20017 58009","updated":"2025-11-24T12:39:54Z"}
