{"icao":"LPMA","metar":"LPMA 021700Z 19004KT 140V240 9999 FEW016 BKN070 22/18 Q1023","updated":"2025-11-02T17:14:41Z"}
