{"icao":"KJFK","metar":"KJFK 232151Z 32017KT 10SM FEW023 BKN032 BKN080 OVC250 01/M02 A2963 RMK AO2 PK WND 34028/2109 SLP034 T00111022 $","updated":"2026-02-23T22:39:05Z"}
