{"icao":"LPMR","metar":"LPMR 251300Z 27008KT 240V310 7000 FEW011 BKN014 BKN045 15/12 Q1014","updated":"2026-01-25T13:31:12Z"}
