{"icao":"KLAX","metar":"KLAX 140953Z 12005KT 10SM CLR 12/06 A3016 RMK AO2 SLP209 T01220056 $","updated":"2026-01-14T10:24:21Z"}
