{"icao":"LPLA","metar":"LPLA 182000Z 30006KT 220V320 9999 FEW020 20/08 Q1020","updated":"2026-05-18T20:23:22Z"}
