{"icao":"LPBJ","metar":"LPBJ 191100Z 30005KT CAVOK 08/05 Q1020","updated":"2026-01-19T11:20:28Z"}
