{"icao":"KORD","metar":"KORD 301451Z 06011KT 10SM FEW210 BKN250 19/08 A3008 RMK AO2 SLP183 T01890083 51013 $","updated":"2026-05-30T15:05:13Z"}
