{"icao":"KORD","metar":"KORD 270951Z 22004KT 10SM CLR 00/M02 A2987 RMK AO2 SLP120 T00001017","updated":"2026-02-27T10:36:05Z"}
