{"icao":"KLAX","metar":"KLAX 181453Z 32005KT 7SM FEW025 SCT060 OVC080 22/18 A2982 RMK AO2 RAE12 SLP097 P0000 60004 T02170183 50008","updated":"2025-09-18T15:18:10Z"}
