{"icao":"LPBJ","metar":"LPBJ 200400Z 32003KT CAVOK 14/13 Q1022","updated":"2026-05-20T05:03:04Z"}
