{"icao":"KJFK","metar":"KJFK 111251Z 32016KT 10SM FEW038 FEW250 12/03 A3022 RMK AO2 SLP231 T01220033","updated":"2026-04-11T12:55:33Z"}
