{"icao":"KLAX","metar":"KLAX 230953Z VRB03KT 10SM FEW012 FEW250 14/11 A2999 RMK AO2 SLP155 T01390106 $","updated":"2026-04-23T11:06:37Z"}
