{"icao":"LPMA","metar":"LPMA 091000Z 23015KT 8000 SHRA BKN013 FEW016CB 19/18 Q1019","updated":"2025-12-09T10:23:40Z"}
