{"icao":"LPBJ","metar":"LPBJ 091200Z 32006KT 260V010 CAVOK 21/14 Q1020","updated":"2025-10-09T12:37:20Z"}
