{"icao":"KJFK","metar":"KJFK 131551Z 18007KT 10SM FEW020 SCT160 BKN250 14/11 A3006 RMK AO2 SLP177 T01440106","updated":"2026-04-13T16:10:56Z"}
