{"icao":"KORD","metar":"KORD 032051Z 26005KT 10SM OVC060 M03/M17 A3003 RMK AO2 SLP177 T10331167 56011 $","updated":"2026-01-03T21:17:18Z"}
