{"icao":"KORD","metar":"KORD 080351Z 26010KT 10SM OVC018 04/01 A2992 RMK AO2 SLP135 T00440006","updated":"2026-03-08T04:41:38Z"}
