{"icao":"LPCS","metar":"LPCS 071600Z 27017G29KT 240V310 9999 FEW022 FEW025TCU SCT030 14/09 Q1004","updated":"2026-02-07T16:28:56Z"}
