{"icao":"LPBJ","metar":"LPBJ 171100Z VRB04KT CAVOK 24/14 Q1015","updated":"2025-10-17T11:14:46Z"}
