{"icao":"LPLA","metar":"LPLA 010500Z 24006KT 180V280 9999 FEW040 17/13 Q1005","updated":"2026-02-01T06:03:23Z"}
