{"icao":"LPPT","metar":"LPPT 281800Z 32006KT 9999 FEW018 13/09 Q1022","updated":"2025-11-28T18:26:16Z"}
