{"icao":"LPOV","metar":"LPOV 241800Z 31008KT 280V340 9999 SCT014 BKN028 11/05 Q1013","updated":"2026-01-25T04:51:11Z"}
