{"icao":"LPPS","metar":"LPPS 141230Z 27023KT 9999 FEW015 21/14 Q1012","updated":"2025-11-14T12:38:12Z"}
