{"icao":"KLAX","metar":"KLAX 231953Z 26009KT 10SM FEW120 FEW160 SCT180 BKN250 22/07 A3016 RMK AO2 SLP213 T02220067 $","updated":"2026-02-23T20:43:07Z"}
