{"icao":"KJFK","metar":"KJFK 021251Z 00000KT 10SM SCT025 BKN043 BKN090 BKN130 BKN250 12/08 A2990 ","updated":"2026-05-02T13:08:08Z"}
