{"icao":"KJFK","metar":"KJFK 142251Z 29007KT 10SM SCT070 SCT140 BKN190 BKN250 09/M03 A2997 RMK AO2 SLP148 T00891028","updated":"2025-11-14T23:16:58Z"}
