{"icao":"LPHR","metar":"LPHR 180830Z 28008KT 240V310 9999 FEW006 SCT011 BKN035 20/19 Q1014","updated":"2026-06-18T08:45:09Z"}
