{"icao":"LPHR","metar":"LPHR 112030Z 04008KT 360V110 9999 FEW020 15/09 Q1023","updated":"2026-05-11T23:56:41Z"}
