{"icao":"LPMR","metar":"LPMR 280402Z 17021G36KT 1500 +RA BR SCT012 FEW020CB BKN035 12/11 Q0983","updated":"2026-01-28T04:42:33Z"}
