{"icao":"KLAX","metar":"KLAX 071053Z 13003KT 4SM BR FEW003 OVC005 16/14 A2997 RMK AO2 SLP147 VIS SW 2 1/2 T01560144 $","updated":"2025-11-07T11:15:10Z"}
