{"icao":"LPPS","metar":"LPPS 262200Z 07008KT 020V110 9999 SCT015 BKN030 18/11 Q1023","updated":"2025-11-26T22:18:21Z"}
