{"icao":"LPPD","metar":"LPPD 181600Z 36008KT 340V040 9999 FEW008 SCT014 18/15 Q1028","updated":"2026-01-18T16:23:19Z"}
