{"icao":"LPCS","metar":"LPCS 081700Z 33009KT 9999 FEW035 17/11 Q1022","updated":"2025-11-08T17:14:09Z"}
