{"icao":"LPMA","metar":"LPMA 010630Z 34009KT 310V010 9999 BKN015 15/07 Q1023","updated":"2026-03-01T06:43:44Z"}
