{"icao":"LPPD","metar":"LPPD 310900Z 24014KT 4000 BR BKN004 BKN008 16/16 Q1017","updated":"2026-01-31T09:26:29Z"}
