{"icao":"LPBJ","metar":"LPBJ 132200Z 20014KT 9999 SCT020 15/13 Q1003","updated":"2025-11-13T22:18:01Z"}
