{"icao":"LPMT","metar":"LPMT 302100Z 15001KT 4000 0200N BCFG BR FEW003 05/05 Q1020","updated":"2025-12-30T22:18:23Z"}
