{"icao":"LPPT","metar":"LPPT 302000Z 28013G29KT 240V310 9999 VCSH FEW012 SCT020 13/11 Q1013 WS R20","updated":"2026-01-30T20:28:00Z"}
