{"icao":"KLAX","metar":"KLAX 020653Z 08006KT 10SM FEW220 15/12 A3005 RMK AO2 SLP173 T01500117","updated":"2026-02-02T07:48:57Z"}
