{"icao":"LPFR","metar":"LPFR 180900Z 10012KT CAVOK 26/20 Q1020","updated":"2025-09-18T09:18:25Z"}
