{"icao":"LPPT","metar":"LPPT 080300Z VRB01KT 9999 FEW026 09/06 Q1031","updated":"2026-01-08T03:28:40Z"}
