{"icao":"LPPS","metar":"LPPS 130530Z 04005KT 360V070 9999 FEW015 BKN030 15/07 Q1026","updated":"2026-04-13T05:40:39Z"}
