{"icao":"LPPR","metar":"LPPR 011700Z 19016KT 1200 R17/P2000 DZRA BR SCT001 BKN002 14/14 Q1004 RERA","updated":"2026-02-01T17:23:28Z"}
