{"icao":"KORD","metar":"KORD 131351Z 21007KT 8SM BKN009 OVC027 18/17 A2991 RMK AO2 DZE49 SLP128 P0000 T01780167","updated":"2026-04-13T14:47:11Z"}
