{"icao":"LPAZ","metar":"LPAZ 111400Z 03006KT 350V050 9999 FEW018 BKN028 15/10 Q1032","updated":"2026-03-11T14:07:25Z"}
