{"icao":"LPPR","metar":"LPPR 271000Z 07008KT CAVOK 08/01 Q1013","updated":"2025-12-27T10:18:44Z"}
