{"icao":"LPCS","metar":"LPCS 280830Z 02010KT CAVOK 16/06 Q1021","updated":"2026-03-28T08:37:11Z"}
