{"icao":"KORD","metar":"KORD 130602Z 27015G22KT 9SM BKN016 OVC022 M03/M07 A3002 RMK AO2 SNE0556 P0000 T10331072","updated":"2025-12-13T06:28:44Z"}
