{"icao":"LPOV","metar":"LPOV 121800Z 17015KT 9999 BKN025 BKN040 14/09 Q1012","updated":"2026-01-13T04:38:59Z"}
