{"icao":"LPPD","metar":"LPPD 061730Z 34016G26KT 9999 FEW025 12/01 Q1020","updated":"2026-04-06T17:42:39Z"}
