{"icao":"LPAZ","metar":"LPAZ 300800Z 25015KT 9999 VCSH FEW015 SCT018 FEW020TCU 15/12 Q1007","updated":"2026-04-30T08:27:57Z"}
