{"icao":"KLAX","metar":"KLAX 070353Z 25007KT 10SM OVC011 18/16 A2986 RMK AO2 SLP110 T01830156","updated":"2025-10-07T04:21:49Z"}
