{"icao":"LPPR","metar":"LPPR 011100Z 13007KT 100V160 CAVOK 11/05 Q1021","updated":"2025-12-01T11:17:16Z"}
