{"icao":"KORD","metar":"KORD 311151Z 09004KT 10SM FEW200 BKN250 14/04 A3012 RMK AO2 SLP199 T01440044 10144 20122 51004 $","updated":"2026-05-31T12:10:51Z"}
