{"icao":"KJFK","metar":"KJFK 041251Z 28010KT 10SM BKN060 M01/M08 A3020 RMK SLP227 T10061083 PNO $ ","updated":"2026-02-04T12:56:49Z"}
