{"icao":"LPPT","metar":"LPPT 201530Z 31011KT 290V350 CAVOK 30/15 Q1014","updated":"2026-06-20T15:49:07Z"}
