{"icao":"LPMT","metar":"LPMT 031100Z 12012KT 9999 FEW009 SCT012 BKN025 15/14 Q0998","updated":"2026-01-03T11:16:00Z"}
