{"icao":"LPMR","metar":"LPMR 081400Z 22010KT 4000 -DZ BKN008 BKN018 14/11 Q1030","updated":"2026-01-08T14:23:46Z"}
