{"icao":"LPMT","metar":"LPMT 042000Z 35005KT 9999 FEW023 12/10 Q1005","updated":"2026-01-04T20:21:20Z"}
