{"icao":"LPMA","metar":"LPMA 031530Z 36019G39KT 320V050 9999 BKN015 FEW018CB 15/05 Q1014","updated":"2026-03-03T15:46:55Z"}
