{"icao":"KORD","metar":"KORD 171851Z 20012G20KT 10SM FEW130 BKN230 BKN300 23/12 A2984 RMK AO2 SLP102 T02280117","updated":"2025-10-17T19:14:13Z"}
