{"icao":"LPPS","metar":"LPPS 082000Z 28015KT 9999 FEW011 17/15 Q1024","updated":"2026-02-08T20:26:30Z"}
