{"icao":"KORD","metar":"KORD 282151Z 27011KT 10SM FEW090 M09/M19 A3012 RMK AO2 SLP214 T10891189","updated":"2026-01-28T22:26:06Z"}
