{"icao":"LPBJ","metar":"LPBJ 261200Z 16005KT 120V210 9999 FEW035 BKN040 25/16 Q1019","updated":"2026-06-26T12:09:33Z"}
