{"icao":"LPLA","metar":"LPLA 182200Z 10003KT 030V130 9999 FEW015 SCT022 BKN035 23/21 Q1016","updated":"2025-10-18T22:15:30Z"}
