{"icao":"LPMR","metar":"LPMR 281600Z 15006KT 4000 -RA BR SCT015 FEW028CB BKN035 17/17 Q1010","updated":"2025-10-28T16:24:26Z"}
