{"icao":"LPMR","metar":"LPMR 142300Z 35004KT CAVOK 18/17 Q1023","updated":"2025-09-15T04:21:13Z"}
