{"icao":"KLAX","metar":"KLAX 140253Z 26006KT 10SM FEW015 BKN100 OVC250 18/17 A3002 RMK AO2 SLP166 T01830167 53017","updated":"2025-11-14T03:11:59Z"}
