{"icao":"LPPT","metar":"LPPT 191700Z 21012KT 9000 2000E VCSH FEW003 OVC004 19/19 Q1014","updated":"2025-10-19T17:13:54Z"}
