{"icao":"LPMR","metar":"LPMR 141100Z 01003KT 320V050 CAVOK 22/13 Q1018","updated":"2025-10-14T11:14:56Z"}
