{"icao":"KORD","metar":"KORD 101951Z 27006KT 10SM OVC020 10/06 A3029 RMK AO2 SLP260 T01000056","updated":"2026-04-10T20:35:04Z"}
