{"icao":"LPPT","metar":"LPPT 142300Z VRB01KT CAVOK 19/11 Q1017","updated":"2025-10-14T23:15:47Z"}
