{"icao":"LPOV","metar":"LPOV 242200Z 36006KT CAVOK 11/08 Q1019","updated":"2025-11-24T22:17:43Z"}
