{"icao":"LPPD","metar":"LPPD 290800Z 33005KT 9999 FEW022 12/08 Q1028","updated":"2025-11-29T08:23:21Z"}
