{"icao":"KLAX","metar":"KLAX 301853Z 24012KT 10SM CLR 21/12 A3001 RMK AO2 SLP162 T02060122 $","updated":"2026-05-30T19:12:47Z"}
