{"icao":"LPMR","metar":"LPMR 032300Z 35006KT 9999 OVC006 16/15 Q1024","updated":"2025-10-03T23:15:06Z"}
