{"icao":"LPPT","metar":"LPPT 150700Z 34009KT 9999 FEW010 19/16 Q1021","updated":"2025-09-15T07:17:42Z"}
