{"icao":"LPPR","metar":"LPPR 221900Z 36004KT 340V040 CAVOK 11/09 Q1027","updated":"2026-02-22T19:23:09Z"}
