{"icao":"LPAZ","metar":"LPAZ 231600Z 25006KT 220V280 9999 FEW020 BKN030 18/13 Q1027","updated":"2025-11-23T16:21:10Z"}
