{"icao":"LPMR","metar":"LPMR 252000Z 31002KT CAVOK 19/15 Q1022","updated":"2026-05-25T20:21:32Z"}
