{"icao":"KORD","metar":"KORD 211251Z 30004KT 10SM CLR M08/M14 A3037 RMK AO2 SLP292 T10831144","updated":"2025-12-21T13:26:54Z"}
