{"icao":"LPMA","metar":"LPMA 031500Z 03009KT 360V070 9999 SCT015 24/19 Q1023","updated":"2025-10-03T15:17:06Z"}
