{"icao":"LPFR","metar":"LPFR 210600Z 29006KT 9999 FEW006 BKN012 20/19 Q1015","updated":"2025-10-21T06:27:18Z"}
