{"icao":"KJFK","metar":"KJFK 161451Z 29019G28KT 10SM SCT049 SCT075 SCT200 BKN250 14/03 A2926 RMK AO2 PK WND 29029/1358 RAE1355 SLP910 P0000 60000 T01390028 50012 $","updated":"2025-11-16T15:17:00Z"}
