{"icao":"LPLA","metar":"LPLA 181300Z VRB02KT 9999 FEW006 BKN035 19/17 Q1016","updated":"2025-09-18T13:26:09Z"}
