{"icao":"LPPD","metar":"LPPD 200730Z 17010KT 9999 FEW006 BKN030 16/13 Q1023","updated":"2026-02-20T07:47:27Z"}
