{"icao":"LPOV","metar":"LPOV 121700Z 18009KT 2500 -RA BR SCT005 BKN011 OVC016 14/13 Q1015","updated":"2026-02-12T17:57:10Z"}
