{"icao":"LPFR","metar":"LPFR 261400Z 21009KT 9999 FEW014 FEW025TCU 24/19 Q1017","updated":"2025-10-26T14:14:54Z"}
