{"icao":"LPCS","metar":"LPCS 191830Z 09007KT 050V120 9999 -RA FEW005 SCT010 14/12 Q1005","updated":"2026-03-19T18:56:58Z"}
