{"icao":"LPFR","metar":"LPFR 181100Z 07005KT 010V110 CAVOK 19/09 Q1019","updated":"2025-11-18T11:17:13Z"}
