{"icao":"LPPD","metar":"LPPD 161300Z 33007KT 9000 -SHRA FEW006 SCT014 BKN030 21/20 Q1006","updated":"2025-10-16T13:29:41Z"}
