{"icao":"LPPT","metar":"LPPT 312300Z 20014KT 3000 -RADZ BR FEW002 BKN004 12/12 Q1018","updated":"2026-01-31T23:20:47Z"}
