{"icao":"KORD","metar":"KORD 101551Z 29008KT 3SM -RASN BR BKN009 OVC014 02/01 A2994 RMK AO2 SNB50 SLP143 P0001 T00170006","updated":"2026-01-10T16:23:25Z"}
