{"icao":"LPLA","metar":"LPLA 091600Z 18014KT 7000 -SHRA FEW009 BKN016 21/19 Q1020","updated":"2025-10-09T16:23:25Z"}
