{"icao":"LPPR","metar":"LPPR 160800Z 34008KT 9999 SCT025 10/07 Q1009","updated":"2025-12-16T08:28:33Z"}
