{"icao":"LPFR","metar":"LPFR 272330Z 15004KT CAVOK 18/15 Q1011","updated":"2026-04-27T23:52:37Z"}
