{"icao":"LPOV","metar":"LPOV 110500Z 14002KT 6000 SCT020 07/07 Q1025","updated":"2026-03-11T05:47:19Z"}
