{"icao":"LPPS","metar":"LPPS 021130Z 27006KT 220V340 9999 FEW015 20/14 Q1020","updated":"2026-05-02T11:43:24Z"}
