{"icao":"LPAZ","metar":"LPAZ 231900Z 30020KT 9999 BKN034 14/08 Q1026","updated":"2026-01-23T19:23:31Z"}
