{"icao":"KORD","metar":"KORD 210451Z 27012G22KT 10SM -RA BKN020 BKN035 OVC060 13/10 A2970 RMK AO2 PK WND 21026/0402 SLP055 P0001 T01280100 $","updated":"2025-10-21T05:17:38Z"}
