{"icao":"KJFK","metar":"KJFK 122151Z 15015KT 10SM FEW200 SCT250 08/03 A3041 RMK AO2 SLP298 T00780028 $","updated":"2026-04-12T22:32:56Z"}
