{"icao":"LPAZ","metar":"LPAZ 311300Z 24012KT 9999 FEW011 SCT021 BKN039 16/14 Q1004","updated":"2025-12-31T13:31:37Z"}
