{"icao":"LPPD","metar":"LPPD 291330Z 25010KT 9999 FEW018 SCT030 16/11 Q1007","updated":"2026-04-29T13:53:07Z"}
