{"icao":"LPAZ","metar":"LPAZ 190530Z 17009KT 4000 BR SCT004 BKN020 14/13 Q1024","updated":"2026-02-19T05:57:37Z"}
