{"icao":"LPMR","metar":"LPMR 310300Z 32001KT 9999 FEW016 14/14 Q1021","updated":"2026-05-31T03:41:00Z"}
