{"icao":"LPPD","metar":"LPPD 050630Z 03013KT 360V060 9999 FEW025 BKN040 11/03 Q1034","updated":"2026-03-05T06:51:03Z"}
