{"icao":"LPMA","metar":"LPMA 282000Z 03008KT 350V050 9999 BKN016 SCT030 19/13 Q1023","updated":"2025-11-28T20:21:17Z"}
