{"icao":"KJFK","metar":"KJFK 130751Z 19009KT 10SM SCT033 BKN150 BKN250 09/06 A3023 RMK AO2 SLP236 T00890061 $","updated":"2026-04-13T08:01:19Z"}
