{"icao":"KJFK","metar":"KJFK 300951Z 07005KT 10SM BKN043 BKN150 BKN250 01/M04 A3040 RMK AO2 SLP295 T00111044 $","updated":"2025-11-30T10:18:36Z"}
