{"icao":"KJFK","metar":"KJFK 311251Z 33006KT 10SM FEW050 SCT180 BKN220 M12/M17 A3021 RMK AO2 SLP228 T11171172 $","updated":"2026-01-31T13:40:17Z"}
