{"icao":"LPLA","metar":"LPLA 281700Z 25021G33KT 6000 -RA FEW012 18/16 Q1003","updated":"2026-01-28T17:30:43Z"}
