{"icao":"LPHR","metar":"LPHR 151800Z 22014KT 9999 FEW020 22/18 Q1005","updated":"2025-10-15T18:26:53Z"}
