{"icao":"LPPS","metar":"LPPS 101230Z 12006KT 090V160 9999 FEW015 22/15 Q1021","updated":"2025-11-10T12:38:38Z"}
