{"icao":"LPFR","metar":"LPFR 071000Z 21022KT 8000 FEW010 SCT018 BKN040 14/13 Q1011","updated":"2026-02-07T10:23:56Z"}
