{"icao":"KJFK","metar":"KJFK 241051Z 33016G25KT 10SM FEW250 M12/M22 A3056 RMK AO2 PK WND 33029/1007 SLP349 T11221222 $","updated":"2026-01-24T11:17:12Z"}
