{"icao":"LPPD","metar":"LPPD 151800Z 31007KT 290V350 9999 FEW025 16/08 Q1018","updated":"2025-11-15T18:23:24Z"}
