{"icao":"KJFK","metar":"KJFK 281751Z 18009KT 10SM SCT190 BKN250 16/01 A3016 RMK SLP213 T01610011 10167 20122 58012 ","updated":"2026-04-28T18:15:50Z"}
