{"icao":"LPPD","metar":"LPPD 142000Z 20014KT 160V220 9999 FEW016 FEW020CB 21/17 Q1006","updated":"2025-10-14T20:19:27Z"}
