{"icao":"LPOV","metar":"LPOV 141100Z 28004KT 240V300 9999 FEW020 20/14 Q1018","updated":"2025-10-14T11:14:56Z"}
