{"icao":"LPCS","metar":"LPCS 121930Z 14012KT 9999 FEW010 BKN035 16/15 Q1005","updated":"2025-11-13T03:13:35Z"}
