{"icao":"KORD","metar":"KORD 130351Z 22007KT 10SM FEW250 01/M02 A2999 RMK AO2 SLP163 T00111022 $","updated":"2026-01-13T04:39:17Z"}
