{"icao":"KLAX","metar":"KLAX 220453Z 24005KT 8SM CLR 15/14 A3007 RMK AO2 SLP180 T01500144 $","updated":"2025-12-22T05:23:19Z"}
