{"icao":"KLAX","metar":"KLAX 262053Z 00000KT 10SM FEW250 27/03 A3003 RMK AO2 SLP168 T02720028 58024 $","updated":"2025-11-26T21:16:48Z"}
