{"icao":"KLAX","metar":"KLAX 180153Z 26016KT 10SM CLR 19/12 A2993 RMK AO2 SLP133 T01890122","updated":"2026-04-18T02:17:09Z"}
