{"icao":"LPHR","metar":"LPHR 190900Z 28010KT 4000 -DZ BR SCT001 BKN003 22/21 Q1016","updated":"2025-10-19T09:16:16Z"}
