{"icao":"KORD","metar":"KORD 091051Z 21015G26KT 10SM SCT033 OVC044 M03/M08 A2984 RMK AO2 PK WND 21026/1051 SLP116 T10331078","updated":"2025-12-09T11:18:51Z"}
