{"icao":"LPPD","metar":"LPPD 011300Z 35019KT 9999 VCSH BKN017 FEW020TCU 15/10 Q1004","updated":"2026-01-01T13:32:22Z"}
