{"icao":"LPCS","metar":"LPCS 062000Z 35006KT 310V020 9999 FEW020 SCT038 09/04 Q1025","updated":"2026-01-06T20:22:30Z"}
