{"icao":"LPMA","metar":"LPMA 101300Z 06005KT 010V120 9999 FEW016 SCT033 22/15 Q1021","updated":"2025-11-10T13:30:36Z"}
