{"icao":"LPHR","metar":"LPHR 101300Z 28015KT 9999 SCT012 BKN050 18/16 Q1030","updated":"2026-04-10T13:07:16Z"}
