{"icao":"KORD","metar":"KORD 281226Z 00000KT 1/4SM R10L/2200V2800FT -RA FG VV002 09/09 A2965 RMK AO2 P0003 T00890089 $","updated":"2025-12-28T12:38:22Z"}
