{"icao":"LPHR","metar":"LPHR 070900Z 32005KT 270V350 9999 FEW020 16/11 Q1020","updated":"2025-11-07T09:19:06Z"}
