{"icao":"LPLA","metar":"LPLA 261003Z VRB08KT 5000 SHRA FEW022 FEW025TCU 18/12 Q1025","updated":"2025-10-26T10:16:58Z"}
