{"icao":"LPBJ","metar":"LPBJ 160711Z 20004KT 4000 1800N BCFG SCT005 SCT015 06/06 Q1015","updated":"2026-01-16T07:23:44Z"}
