{"icao":"LPFR","metar":"LPFR 201830Z 26004KT CAVOK 14/09 Q1026","updated":"2026-02-20T18:44:59Z"}
