{"icao":"LPPS","metar":"LPPS 161000Z 34015KT 310V020 9999 -RADZ SCT010 SCT030 14/12 Q1026","updated":"2026-01-16T10:22:57Z"}
