{"icao":"LPPT","metar":"LPPT 081300Z 09009KT 050V130 9999 BKN032 16/08 Q1017","updated":"2026-04-08T13:17:49Z"}
