{"icao":"LPPD","metar":"LPPD 172000Z 21010KT 9999 FEW008 SCT010 BKN025 22/20 Q1014","updated":"2025-10-17T20:19:45Z"}
