{"icao":"LPMA","metar":"LPMA 151600Z 03021KT 9999 FEW016 25/16 Q1021","updated":"2025-09-15T16:21:32Z"}
