{"icao":"LPFR","metar":"LPFR 300100Z 29006KT CAVOK 17/16 Q1013","updated":"2025-10-30T01:25:03Z"}
