{"icao":"LPBJ","metar":"LPBJ 230900Z 30004KT 250V350 9999 FEW012 15/11 Q1015","updated":"2026-04-23T09:26:19Z"}
