{"icao":"KJFK","metar":"KJFK 052251Z 20015KT 10SM OVC039 02/M02 A3010 RMK AO2 SLP192 T00221022 $","updated":"2026-01-05T23:19:11Z"}
