{"icao":"LPCS","metar":"LPCS 261900Z 08005KT 050V110 9999 FEW026 10/08 Q1013","updated":"2025-12-27T03:21:47Z"}
