{"icao":"LPMA","metar":"LPMA 210300Z 33007KT 280V020 9999 SCT015 15/10 Q1021","updated":"2025-12-21T03:28:14Z"}
