{"icao":"LPPR","metar":"LPPR 230100Z 24009KT 200V260 8000 SCT004 BKN007 19/18 Q1016","updated":"2025-10-23T01:21:09Z"}
