{"icao":"LPPR","metar":"LPPR 080230Z 00000KT 9999 FEW025 12/11 Q1018","updated":"2025-11-08T03:00:52Z"}
