{"icao":"KJFK","metar":"KJFK 191315Z 16019G28KT 3SM RA BR FEW007 BKN010 OVC027 12/12 A2950 RMK AO2 PK WND 15029/1303 SFC VIS 4 P0012 T01220117","updated":"2025-12-19T13:32:11Z"}
