{"icao":"LPHR","metar":"LPHR 201800Z 25015KT 6000 FEW004 BKN006 23/22 Q1013","updated":"2025-10-20T18:27:08Z"}
