{"icao":"LPPR","metar":"LPPR 220700Z 27003KT 220V320 9999 FEW018 SCT030 11/06 Q1006","updated":"2026-01-22T07:26:06Z"}
