{"icao":"LPPT","metar":"LPPT 221100Z 07007KT 320V100 CAVOK 10/03 Q1031","updated":"2025-11-22T11:13:18Z"}
