{"icao":"LPMA","metar":"LPMA 291000Z 02006KT 320V100 9999 BKN014 23/16 Q1015","updated":"2025-10-29T10:20:39Z"}
