{"icao":"LPMR","metar":"LPMR 192100Z 24005KT 200V290 3000 -DZ BR SCT003 OVC006 19/19 Q1013","updated":"2025-10-19T21:14:35Z"}
