{"icao":"KORD","metar":"KORD 202051Z 21005KT 10SM OVC250 M07/M18 A3027 RMK AO2 SLP264 T10721178 58028 $","updated":"2026-01-20T21:20:00Z"}
