{"icao":"LPMT","metar":"LPMT 280400Z 25010KT 9999 BKN015 BKN030 19/17 Q1012","updated":"2025-09-28T04:20:20Z"}
