{"icao":"LPBJ","metar":"LPBJ 100700Z 19004KT CAVOK 11/10 Q1014","updated":"2026-04-10T07:25:52Z"}
