{"icao":"KORD","metar":"KORD 241951Z VRB04KT 10SM SCT300 11/M01 A3028 RMK AO2 SLP256 T01111011 $","updated":"2025-10-24T20:20:44Z"}
