{"icao":"LPLA","metar":"LPLA 160500Z 15006KT 120V200 9999 OVC040 14/12 Q1023","updated":"2026-03-16T05:13:31Z"}
