{"icao":"LPPT","metar":"LPPT 180430Z 22004KT 9999 BKN035 12/10 Q1021","updated":"2026-02-18T04:51:51Z"}
