{"icao":"KLAX","metar":"KLAX 052253Z 25012KT 10SM SCT013 21/15 A2986 RMK AO2 SLP109 T02110150 $","updated":"2026-06-05T23:07:21Z"}
