{"icao":"LPBJ","metar":"LPBJ 211700Z 35016KT CAVOK 24/M01 Q1018","updated":"2025-09-21T17:13:36Z"}
