{"icao":"KJFK","metar":"KJFK 121451Z 04022G31KT 10SM -RA FEW021 SCT039 SCT070 BKN150 OVC220 16/11 A3006 RMK AO2 PK WND 04031/1405 SLP180 P0000 60000 T01560106 58002","updated":"2025-10-12T15:15:38Z"}
