{"icao":"KJFK","metar":"KJFK 110251Z 23011KT 10SM FEW048 SCT090 OVC130 05/03 A2943 RMK AO2 SLP965 60004 T00500028 56013","updated":"2025-12-11T03:23:41Z"}
