{"icao":"LPMR","metar":"LPMR 242200Z 14003KT CAVOK 05/05 Q1010","updated":"2025-12-24T22:18:45Z"}
