{"icao":"KORD","metar":"KORD 142151Z 15003KT 9SM BKN220 OVC250 10/M01 A2995 RMK AO2 SLP144 T01001006 $","updated":"2026-02-14T22:21:52Z"}
