{"icao":"LPPT","metar":"LPPT 161400Z 32006KT 290V360 9999 VCSH FEW015 FEW022CB 10/08 Q1013 RESHRA","updated":"2026-01-16T14:22:07Z"}
