{"icao":"KORD","metar":"KORD 102051Z 27013G20KT 10SM SCT029 BKN100 03/M04 A2992 RMK AO2 SLP138 60000 T00281039 53005","updated":"2026-01-10T21:17:30Z"}
