{"icao":"KORD","metar":"KORD 100551Z 21020G31KT 9SM -RA BKN045 OVC055 03/01 A2929 RMK AO2 PK WND 20033/0504 RAE0458B16 SLP922 4/005 P0002 60012 T00330006 10033 20017 400331061 56044","updated":"2025-12-10T06:31:27Z"}
