{"icao":"LPPR","metar":"LPPR 171500Z 31007KT 280V340 CAVOK 21/16 Q1021","updated":"2025-09-17T15:18:09Z"}
