{"icao":"KLAX","metar":"KLAX 300813Z 04006KT 4SM BR BKN012 15/13 A3001 RMK AO2 VIS 2 1/2 RWY24 T01500128 $","updated":"2025-11-30T08:22:40Z"}
