{"icao":"KJFK","metar":"KJFK 121251Z 22009KT 10SM FEW047 BKN070 05/M03 A2985 RMK AO2 SLP107 T00501033 $","updated":"2025-11-12T13:32:39Z"}
