{"icao":"LPPR","metar":"LPPR 121830Z 34007KT CAVOK 29/10 Q1018","updated":"2026-06-12T19:02:56Z"}
