{"icao":"LPPR","metar":"LPPR 141230Z 28004KT 250V320 CAVOK 22/15 Q1018","updated":"2025-10-14T12:38:47Z"}
