{"icao":"LPPD","metar":"LPPD 250700Z 00000KT 0250 R30/0050D FG VV000 16/15 Q1015","updated":"2026-04-25T07:13:41Z"}
