{"icao":"KORD","metar":"KORD 161451Z 23009G19KT 10SM SCT016 BKN043 19/16 A2974 RMK AO2 SLP068 T01890156 53001 $","updated":"2026-04-16T15:24:41Z"}
