{"icao":"KJFK","metar":"KJFK 251308Z 06011KT 1/2SM R04R/2400V3500FT SN FZFG VV005 M11/M13 A3055 RMK AO2 P0003 T11111128 $","updated":"2026-01-25T13:31:44Z"}
