{"icao":"KORD","metar":"KORD 052000Z 00000KT 4SM BR BKN010 OVC017 09/07 A2996 RMK AO2 T00890067","updated":"2026-03-05T20:35:57Z"}
