{"icao":"LPFL","metar":"LPFL 241000Z 16004KT 130V200 9999 FEW018 21/15 Q1024","updated":"2025-09-24T10:18:28Z"}
