{"icao":"LPMA","metar":"LPMA 290700Z VRB06KT 9999 SCT015 21/16 Q1013","updated":"2025-10-29T07:18:01Z"}
