{"icao":"LPLA","metar":"LPLA 160400Z 22007KT 180V250 6000 -RA SCT007 BKN020 BKN035 21/19 Q1004 RERA","updated":"2025-10-16T04:20:38Z"}
