{"icao":"LPAR","metar":"LPAR 021200Z 26015KT 230V290 9999 SCT020 FEW022CB SCT035 14/08 Q0999","updated":"2026-02-02T12:57:11Z"}
