{"icao":"LPPS","metar":"LPPS 181400Z 29008KT 260V320 9999 SCT005 24/21 Q1015","updated":"2025-10-18T14:14:56Z"}
