{"icao":"LPCS","metar":"LPCS 211000Z 04004KT 020V100 CAVOK 15/09 Q1030","updated":"2026-02-21T10:24:26Z"}
