{"icao":"LPMT","metar":"LPMT 151400Z 26009KT CAVOK 26/14 Q1015","updated":"2025-10-15T14:18:51Z"}
