{"icao":"LPMA","metar":"LPMA 220800Z 35007KT 320V030 9999 SCT016 SCT030 16/10 Q1025","updated":"2026-02-22T08:30:47Z"}
