{"icao":"KJFK","metar":"KJFK 092251Z 19009KT 10SM FEW250 12/04 A2999 RMK AO2 SLP155 T01220044 $","updated":"2026-03-09T23:26:48Z"}
