{"icao":"LPPR","metar":"LPPR 141600Z 32005KT 280V350 CAVOK 20/15 Q1016","updated":"2025-10-14T16:22:12Z"}
