{"icao":"KLAX","metar":"KLAX 080053Z 25007KT 10SM CLR 19/15 A2985 RMK AO2 SLP108 T01890150 $","updated":"2025-11-08T01:20:01Z"}
