{"icao":"LPOV","metar":"LPOV 041600Z 16012KT CAVOK 21/13 Q1011","updated":"2025-11-04T16:22:06Z"}
