{"icao":"LPCS","metar":"LPCS 081830Z 17008KT 3000 -RADZ BR FEW001 OVC003 13/13 Q1012","updated":"2026-02-08T18:35:25Z"}
