{"icao":"KLAX","metar":"KLAX 051853Z 04006KT 10SM FEW100 BKN160 BKN250 26/M02 A3006 RMK AO2 SLP179 T02561017","updated":"2026-02-05T19:35:52Z"}
