{"icao":"LPPR","metar":"LPPR 191100Z 24005KT 200V280 9999 3500W FEW007 18/15 Q1016","updated":"2026-04-19T11:33:44Z"}
