{"icao":"LPBJ","metar":"LPBJ 121200Z 12010KT 050V150 CAVOK 33/13 Q1019","updated":"2026-06-12T12:17:20Z"}
