{"icao":"KLAX","metar":"KLAX 220327Z 26008KT 10SM BKN010 16/13 A2984 RMK AO2 T01610133 $","updated":"2026-05-22T03:32:48Z"}
