{"icao":"KJFK","metar":"KJFK 162151Z 18016KT 3/4SM R04R/P6000FT -RA BR BKN003 BKN009 OVC016 09/09 A2955 RMK AO2 SFC VIS 4 SLP005 P0018 T00890089","updated":"2026-03-16T22:31:30Z"}
