{"icao":"LPMA","metar":"LPMA 151800Z VRB08KT 9999 SCT015 18/11 Q1021","updated":"2025-12-15T18:30:30Z"}
