{"icao":"KJFK","metar":"KJFK 131851Z 30019G30KT 10SM FEW038 BKN060 BKN120 09/01 A2987 RMK AO2 PK WND 30030/1846 SLP115 T00940006","updated":"2025-11-13T19:15:26Z"}
