{"icao":"LPAZ","metar":"LPAZ 090100Z 18012KT 9999 SCT012 BKN020 22/21 Q1025","updated":"2025-10-09T01:18:28Z"}
