{"icao":"KLAX","metar":"KLAX 092053Z 24007KT 10SM FEW160 FEW250 16/M02 A3030 RMK AO2 SLP259 T01611017 58014 $","updated":"2026-01-09T21:20:28Z"}
