{"icao":"KJFK","metar":"KJFK 271651Z 20005KT 10SM SCT043 BKN050 OVC070 25/17 A3003 RMK RAB14E44 CIG 043 W SLP170 P0000 T02500172 $ ","updated":"2026-06-27T17:08:01Z"}
