{"icao":"LPAZ","metar":"LPAZ 262100Z 30009KT 9999 FEW028 19/13 Q1024","updated":"2026-06-26T21:17:07Z"}
