{"icao":"LPMA","metar":"LPMA 240600Z 34005KT 9999 SCT015 22/17 Q1020","updated":"2025-10-24T06:26:26Z"}
