{"icao":"KJFK","metar":"KJFK 062151Z 20011KT 9SM OVC025 13/12 A2976 RMK AO2 SLP077 T01330117","updated":"2026-05-06T21:56:01Z"}
