{"icao":"KJFK","metar":"KJFK 281551Z 32015G22KT 10SM FEW060 FEW120 04/M14 A3045 RMK AO2 PK WND 01026/1512 SLP311 T00391139","updated":"2026-03-28T16:32:50Z"}
