{"icao":"LPMA","metar":"LPMA 140400Z 02015KT 9999 SCT015 23/17 Q1022","updated":"2025-09-14T04:19:44Z"}
