{"icao":"LPPS","metar":"LPPS 181400Z 36012KT 340V040 9999 SCT015 22/14 Q1022","updated":"2025-11-18T14:19:08Z"}
