{"icao":"LPFR","metar":"LPFR 011700Z 23007KT 9999 FEW018 SCT028 22/18 Q1019","updated":"2025-11-01T17:13:50Z"}
