{"icao":"LPMR","metar":"LPMR 251100Z 31008KT CAVOK 20/14 Q1017","updated":"2026-04-25T11:36:53Z"}
