{"icao":"KLAX","metar":"KLAX 251353Z 04003KT 10SM FEW010 FEW025 SCT150 15/11 A2998 RMK AO2 SLP149 T01500111 $","updated":"2026-05-25T13:58:14Z"}
