{"icao":"KJFK","metar":"KJFK 251851Z 13014G19KT 4SM -RA BR SCT012 BKN021 OVC050 06/03 A3006 RMK SLP179 P0013 T00560033 ","updated":"2026-04-25T19:42:35Z"}
