{"icao":"LPHR","metar":"LPHR 091030Z 35017G30KT 320V040 9999 FEW018 SCT045 14/05 Q1020","updated":"2026-05-09T10:56:11Z"}
