{"icao":"KORD","metar":"KORD 230351Z 28009KT 10SM BKN044 08/01 A2997 RMK AO2 SLP150 T00830006","updated":"2025-10-23T04:20:55Z"}
