{"icao":"LPLA","metar":"LPLA 020500Z VRB02KT CAVOK 16/13 Q1028","updated":"2026-06-02T05:47:09Z"}
