{"icao":"LPFR","metar":"LPFR 082000Z 29010KT CAVOK 27/15 Q1017","updated":"2026-06-08T20:12:09Z"}
