{"icao":"LPCS","metar":"LPCS 041130Z 32011KT 280V350 9999 FEW018 18/08 Q1018","updated":"2026-05-04T11:46:54Z"}
