{"icao":"LPAR","metar":"LPAR 191400Z 36011KT 330V040 9999 FEW025 SCT045 17/06 Q1016","updated":"2025-11-19T14:18:38Z"}
