{"icao":"LPLA","metar":"LPLA 241400Z 22026G39KT 4000 DZRA SCT010 BKN018 16/13 Q1018","updated":"2026-01-24T14:18:52Z"}
