{"icao":"LPPT","metar":"LPPT 301100Z 06009G23KT 030V090 9999 FEW030 23/14 Q1019","updated":"2025-09-30T11:14:55Z"}
