{"icao":"KLAX","metar":"KLAX 161553Z 00000KT 10SM FEW140 FEW180 14/05 A3000 RMK AO2 SLP157 T01440050","updated":"2026-01-16T16:27:46Z"}
