{"icao":"LPHR","metar":"LPHR 100000Z 25015KT 9000 SCT012 SCT080 18/15 Q1008","updated":"2026-02-10T05:02:30Z"}
