{"icao":"LPPR","metar":"LPPR 191030Z 23004KT 170V270 9999 2500W VCFG FEW007 17/14 Q1016","updated":"2026-04-19T10:37:20Z"}
