{"icao":"KLAX","metar":"KLAX 201053Z 10003KT 9SM CLR 12/09 A3004 RMK AO2 SLP170 T01220089 $","updated":"2026-01-20T11:22:26Z"}
