{"icao":"LPCS","metar":"LPCS 290730Z 04004KT 320V100 9999 FEW012 19/14 Q1021","updated":"2026-05-29T07:53:40Z"}
