{"icao":"KORD","metar":"KORD 171651Z 00000KT 10SM FEW060 FEW110 FEW250 06/M08 A3009 RMK AO2 SLP195 T00611078","updated":"2025-11-17T17:17:48Z"}
