{"icao":"LPHR","metar":"LPHR 271900Z 13015KT 9999 FEW020 SCT035 20/15 Q1027","updated":"2025-09-27T19:12:48Z"}
