{"icao":"LPBJ","metar":"LPBJ 291800Z 06007KT CAVOK 25/13 Q1015","updated":"2025-09-29T18:26:20Z"}
