{"icao":"LPHR","metar":"LPHR 051530Z 29012KT 260V330 9999 FEW016 21/16 Q1024","updated":"2026-06-05T15:51:52Z"}
