{"icao":"LPPR","metar":"LPPR 291300Z 30007KT 270V330 CAVOK 23/15 Q1017","updated":"2025-09-29T13:27:52Z"}
