{"icao":"LPPR","metar":"LPPR 180600Z 11006KT CAVOK 17/12 Q1016","updated":"2025-10-18T06:23:58Z"}
