{"icao":"LPMT","metar":"LPMT 261600Z 22015KT 180V250 7000 -DZ SCT013 BKN018 16/14 Q1011","updated":"2026-01-26T16:32:50Z"}
