{"icao":"LPPT","metar":"LPPT 170400Z VRB02KT CAVOK 18/08 Q1013","updated":"2025-10-17T04:21:05Z"}
