{"icao":"LPFL","metar":"LPFL 230900Z 25011G24KT 180V320 9999 FEW018 19/12 Q1025","updated":"2025-11-23T09:17:49Z"}
