{"icao":"LPMA","metar":"LPMA 201500Z 11003KT 040V160 9999 SCT016 18/08 Q1024","updated":"2026-01-20T15:29:20Z"}
