{"icao":"LPAZ","metar":"LPAZ 311130Z 09007KT 020V130 9999 FEW020 17/11 Q1030","updated":"2026-03-31T11:48:31Z"}
