{"icao":"LPMT","metar":"LPMT 171200Z 26006KT 240V300 9999 SCT025 13/08 Q1013","updated":"2026-01-17T12:37:24Z"}
