{"icao":"LPHR","metar":"LPHR 101700Z 22016KT 7000 VCSH FEW004 SCT009 BKN012 18/17 Q1017","updated":"2026-01-10T17:16:50Z"}
