{"icao":"LPAZ","metar":"LPAZ 050500Z 12010KT 9999 FEW015 BKN048 21/19 Q1025","updated":"2025-10-05T05:15:46Z"}
