{"icao":"LPMT","metar":"LPMT 121200Z 04005KT 010V090 9999 FEW015 16/12 Q1026","updated":"2026-03-12T12:57:16Z"}
