{"icao":"LPHR","metar":"LPHR 180000Z 03004KT 350V080 9999 FEW009 SCT025 17/15 Q1026","updated":"2025-11-18T05:18:39Z"}
