{"icao":"LPCS","metar":"LPCS 081100Z 23005KT 190V270 9999 VCSH FEW006 BKN020 13/11 Q1033","updated":"2026-01-08T11:19:44Z"}
