{"icao":"LPPR","metar":"LPPR 101600Z 23010KT 200V260 6000 -DZ BKN003 OVC005 15/15 Q1012","updated":"2026-02-10T16:08:41Z"}
