{"icao":"KORD","metar":"KORD 151951Z 30012G24KT 10SM FEW160 FEW250 21/09 A2949 RMK AO2 PK WND 28026/1922 SLP983 T02110089 $","updated":"2025-11-15T20:18:20Z"}
