{"icao":"LPMR","metar":"LPMR 141300Z 10008KT CAVOK 18/07 Q1018","updated":"2025-12-14T13:26:01Z"}
