{"icao":"KORD","metar":"KORD 111151Z 34006KT 10SM FEW035 09/07 A3015 RMK AO2 SLP211 70001 T00890067 10139 20083 53006","updated":"2025-10-11T12:32:00Z"}
