{"icao":"LPMR","metar":"LPMR 240500Z 26006KT 8000 -SHRA FEW020 FEW022CB BKN032 06/04 Q1002","updated":"2026-01-24T05:20:21Z"}
