{"icao":"LPCS","metar":"LPCS 181630Z 21005KT 170V260 CAVOK 24/09 Q1015","updated":"2026-04-18T16:38:49Z"}
