{"icao":"KJFK","metar":"KJFK 171051Z 00000KT 10SM FEW016 FEW130 SCT170 BKN250 18/16 A2984 RMK AO2 SLP103 T01830156 $","updated":"2026-06-17T11:45:53Z"}
