{"icao":"LPFR","metar":"LPFR 031800Z 27004KT CAVOK 19/12 Q1021","updated":"2025-11-03T18:26:29Z"}
