{"icao":"KJFK","metar":"KJFK 221051Z 36011KT 2SM RA BR FEW007 BKN025 OVC055 08/08 A2987 RMK AO2 SLP116 P0012 T00830078","updated":"2025-11-22T11:13:21Z"}
