{"icao":"LPPT","metar":"LPPT 051700Z 25014KT 9999 FEW014 FEW025TCU 15/11 Q1010 WS R20","updated":"2025-11-05T17:17:25Z"}
