{"icao":"KJFK","metar":"KJFK 220851Z 21010KT 10SM OVC070 04/M04 A3001 RMK SLP161 T00391044 56034 $ ","updated":"2026-01-22T09:31:16Z"}
