{"icao":"LPPT","metar":"LPPT 020630Z 11004KT 080V220 7000 BKN003 11/11 Q1012","updated":"2026-03-02T06:56:10Z"}
