{"icao":"LPBJ","metar":"LPBJ 141700Z 07006KT CAVOK 15/09 Q1015","updated":"2025-12-14T17:15:47Z"}
