{"icao":"LPAZ","metar":"LPAZ 240430Z 28025KT 8000 -SHRA SCT012 FEW018TCU BKN030 15/12 Q1012","updated":"2026-02-24T04:50:26Z"}
