{"icao":"LPMA","metar":"LPMA 031700Z 04012KT 9999 FEW015 24/18 Q1023","updated":"2025-10-03T17:14:57Z"}
