{"icao":"KORD","metar":"KORD 241551Z 03013KT 10SM FEW026 BKN036 BKN250 22/14 A3003 RMK AO2 SLP167 T02170144","updated":"2025-09-24T16:23:14Z"}
