{"icao":"LPPT","metar":"LPPT 080700Z 07004KT 040V100 9999 BKN009 12/12 Q1021","updated":"2025-12-08T07:22:32Z"}
