{"icao":"LPBJ","metar":"LPBJ 130700Z 13007KT CAVOK 22/09 Q1019","updated":"2026-06-13T07:44:44Z"}
