{"icao":"LPMT","metar":"LPMT 050500Z 36011KT CAVOK 15/09 Q1017","updated":"2026-06-05T05:15:03Z"}
