{"icao":"LPPT","metar":"LPPT 050600Z 27008KT 240V310 8000 -DZ FEW006 BKN009 16/16 Q1020","updated":"2025-12-05T06:30:28Z"}
