{"icao":"KJFK","metar":"KJFK 271251Z 01005KT 10SM CLR 13/06 A3023 RMK SLP237 T01330056 ","updated":"2026-04-27T13:50:38Z"}
