{"icao":"LPPI","metar":"LPPI 250900Z 01007KT 330V060 9999 FEW018 BKN041 18/13 Q1024","updated":"2026-06-25T09:18:53Z"}
