{"icao":"LPFL","metar":"LPFL 251100Z 17006KT 110V230 9999 FEW010 BKN012 20/17 Q1026","updated":"2025-11-25T11:16:46Z"}
