{"icao":"LPMA","metar":"LPMA 190130Z 02007KT 280V090 9999 SCT015 16/08 Q1023","updated":"2026-01-19T01:46:43Z"}
