{"icao":"KORD","metar":"KORD 281900Z 10003KT 6SM -RA BR BKN004 OVC036 13/12 A2942 RMK AO2 P0001 T01280122 $","updated":"2025-12-28T19:15:18Z"}
