{"icao":"KJFK","metar":"KJFK 020451Z 27013KT 10SM BKN085 OVC100 M04/M14 A2989 RMK AO2 SLP120 T10441144 400221061 $","updated":"2026-01-02T05:24:38Z"}
