{"icao":"LPMR","metar":"LPMR 180700Z 09002KT 0500 FG VV002 11/11 Q1018","updated":"2026-04-18T07:05:27Z"}
