{"icao":"LPAZ","metar":"LPAZ 201100Z 05011KT 020V090 9999 FEW030 SCT046 23/13 Q1027","updated":"2025-09-20T11:12:39Z"}
