{"icao":"LPST","metar":"LPST 151300Z 27010KT CAVOK 26/07 Q1017","updated":"2025-10-15T13:30:45Z"}
