{"icao":"LPMT","metar":"LPMT 211300Z 01008KT CAVOK 16/10 Q1029","updated":"2026-02-21T13:40:44Z"}
