{"icao":"LPMR","metar":"LPMR 011100Z 28004KT 250V320 9999 SCT024 19/12 Q1019","updated":"2026-05-01T11:58:12Z"}
