{"icao":"LPMR","metar":"LPMR 081500Z 34012KT 320V020 9999 BKN030 17/08 Q1018","updated":"2026-04-08T15:08:19Z"}
