{"icao":"LPMA","metar":"LPMA 240600Z 34004KT 270V030 9999 -RA SCT015 16/13 Q1015","updated":"2025-12-24T06:32:21Z"}
