{"icao":"LPMR","metar":"LPMR 161900Z 33009KT CAVOK 16/12 Q1020","updated":"2026-04-16T19:10:56Z"}
