{"icao":"LPOV","metar":"LPOV 201300Z 04006KT 340V080 CAVOK 15/06 Q1030","updated":"2026-02-20T14:00:38Z"}
