{"icao":"LPFR","metar":"LPFR 201300Z 33010KT 280V010 CAVOK 18/04 Q1019","updated":"2025-11-20T13:28:59Z"}
