{"icao":"LPPD","metar":"LPPD 242130Z 20013KT 8000 -RA SCT005 BKN008 17/16 Q1014","updated":"2026-04-24T21:45:37Z"}
