{"icao":"LPPT","metar":"LPPT 300400Z 21004KT 9999 SCT030 BKN038 16/15 Q1013","updated":"2025-10-30T04:20:44Z"}
