{"icao":"LPMT","metar":"LPMT 261800Z 25009KT CAVOK 27/15 Q1019","updated":"2026-05-26T19:20:25Z"}
