{"icao":"KLAX","metar":"KLAX 060153Z 26003KT 10SM FEW150 FEW200 SCT250 20/06 A3001 RMK AO2 SLP162 T02000061","updated":"2026-02-06T01:58:48Z"}
