{"icao":"KJFK","metar":"KJFK 132351Z 18018G29KT 10SM BKN120 BKN180 BKN250 14/09 A2986 RMK AO2 PK WND 16029/2349 SLP110 T01390094 10189 20139 55004","updated":"2026-05-13T23:56:39Z"}
