{"icao":"LPFL","metar":"LPFL 241030Z 35016KT 9999 FEW018 SCT025 20/15 Q1022","updated":"2026-06-24T10:47:46Z"}
