{"icao":"KJFK","metar":"KJFK 191451Z 26016KT 10SM FEW060 FEW110 BKN250 24/11 A2971 RMK AO2 SLP061 T02390106 58003 $","updated":"2026-06-19T15:12:32Z"}
