{"icao":"KJFK","metar":"KJFK 180851Z 00000KT 1/8SM R04R/2000V2400FT FG BKN002 OVC006 11/11 A3005 RMK AO2 SLP177 T01110111 55000","updated":"2026-04-18T09:47:10Z"}
