{"icao":"LPAZ","metar":"LPAZ 031300Z 07013KT 040V110 9999 FEW024 SCT028 18/11 Q1021","updated":"2026-05-03T13:07:19Z"}
