{"icao":"KLAX","metar":"KLAX 071953Z 25007KT 10SM FEW280 21/06 A3013 RMK AO2 SLP203 T02110056 $","updated":"2025-12-07T20:19:42Z"}
