{"icao":"LPOV","metar":"LPOV 271900Z 35010KT CAVOK 14/12 Q1018","updated":"2026-03-28T04:51:17Z"}
