{"icao":"KJFK","metar":"KJFK 172151Z 33011KT 10SM FEW040 BKN150 BKN250 24/13 A2988 RMK AO2 WSHFT 2118 SLP117 VCSH N-NE T02390128","updated":"2026-04-17T22:14:38Z"}
