{"icao":"LPPT","metar":"LPPT 112200Z 32009KT CAVOK 13/11 Q1027","updated":"2026-03-11T22:25:09Z"}
