{"icao":"LPFR","metar":"LPFR 172130Z 32003KT 220V020 CAVOK 19/10 Q1017","updated":"2026-04-17T21:52:53Z"}
