{"icao":"LPBJ","metar":"LPBJ 151200Z 19020KT 9999 FEW008 BKN012 BKN045 18/16 Q1006","updated":"2025-11-15T12:34:12Z"}
