{"icao":"LPAZ","metar":"LPAZ 241230Z 28021KT 8000 FEW019 SCT026 16/12 Q1016","updated":"2026-02-24T13:03:17Z"}
