{"icao":"LPLA","metar":"LPLA 130407Z 36009KT 7000 -RA FEW012 BKN018 BKN035 14/12 Q1028","updated":"2026-05-13T04:41:54Z"}
