{"icao":"LPBJ","metar":"LPBJ 172200Z 25008KT CAVOK 23/07 Q1020","updated":"2025-09-17T22:14:52Z"}
