{"icao":"LPMT","metar":"LPMT 120900Z 03009KT CAVOK 20/12 Q1017","updated":"2025-10-12T09:15:39Z"}
