{"icao":"LPMA","metar":"LPMA 010200Z 00000KT 9999 SCT015 17/13 Q1023","updated":"2026-02-01T02:12:54Z"}
