{"icao":"KLAX","metar":"KLAX 250053Z 25013KT 10SM FEW010 FEW080 22/18 A2992 RMK AO2 SLP131 T02220178 $","updated":"2025-09-25T01:18:54Z"}
