{"icao":"LPPR","metar":"LPPR 141500Z 31011KT 290V360 5000 -DZ BR OVC002 13/13 Q1014","updated":"2026-03-14T15:27:12Z"}
