{"icao":"KORD","metar":"KORD 092151Z 32016G23KT 10SM FEW043 BKN055 BKN075 00/M08 A3015 RMK AO2 PK WND 32027/2122 SLP215 T00001083 $","updated":"2025-11-09T22:15:58Z"}
