{"icao":"LPCS","metar":"LPCS 052100Z 03007KT CAVOK 18/09 Q1019","updated":"2026-04-05T21:30:12Z"}
