{"icao":"LPAR","metar":"LPAR 200900Z VRB02KT CAVOK 09/06 Q1020","updated":"2026-01-20T09:31:34Z"}
