{"icao":"LPFR","metar":"LPFR 271330Z 13010KT 9999 FEW035 23/13 Q1012","updated":"2026-04-27T13:50:02Z"}
