{"icao":"LPCS","metar":"LPCS 270900Z 17009KT 9999 BKN003 BKN018 17/16 Q1018","updated":"2025-09-27T09:15:27Z"}
