{"icao":"LPPR","metar":"LPPR 112200Z 29007KT 260V320 9999 FEW015 BKN030 14/10 Q1015","updated":"2026-02-11T22:28:16Z"}
