{"icao":"LPCS","metar":"LPCS 011830Z 33015G26KT 300V010 9999 -DZ FEW002 BKN009 18/15 Q1019","updated":"2026-06-01T18:36:34Z"}
