{"icao":"LPPT","metar":"LPPT 081500Z 03008KT 340V130 9999 SCT030 18/12 Q1021","updated":"2025-11-08T15:15:45Z"}
