{"icao":"KLAX","metar":"KLAX 252004Z 26007KT 6SM HZ SCT011 19/14 A2998 RMK AO2 SCT V BKN T01890144","updated":"2026-03-25T20:37:35Z"}
