{"icao":"LPOV","metar":"LPOV 060800Z VRB01KT CAVOK 17/12 Q1016","updated":"2026-04-06T09:07:05Z"}
