{"icao":"LPFR","metar":"LPFR 092100Z 33008KT 9999 FEW020 11/09 Q1029","updated":"2026-01-09T21:19:49Z"}
