{"icao":"LPLA","metar":"LPLA 170900Z 23019G30KT 9999 SCT005 BKN012 19/17 Q1019","updated":"2025-12-17T09:26:47Z"}
