{"icao":"KJFK","metar":"KJFK 120851Z 00000KT 2 1/2SM BR FEW003 BKN045 OVC100 08/08 A2956 RMK AO2 SFC VIS 5 SLP009 T00780078 56018","updated":"2026-03-12T09:41:31Z"}
