{"icao":"KJFK","metar":"KJFK 040151Z 24009KT 10SM CLR 12/02 A2991 RMK SLP127 T01170022 ","updated":"2026-05-04T02:45:04Z"}
