{"icao":"KJFK","metar":"KJFK 030451Z 01013KT 10SM BKN090 OVC250 11/M02 A2986 RMK SLP111 T01111022 401780106 ","updated":"2026-05-03T05:58:17Z"}
