{"icao":"LPMT","metar":"LPMT 180100Z VRB01KT CAVOK 11/11 Q1017","updated":"2025-11-18T01:23:55Z"}
