{"icao":"LPMA","metar":"LPMA 142200Z 36007KT 270V070 9999 FEW016 21/14 Q1022","updated":"2026-06-14T22:08:30Z"}
