{"icao":"LPFR","metar":"LPFR 140430Z 01003KT 310V030 9999 SCT045 09/08 Q1017","updated":"2026-01-14T04:45:32Z"}
