{"icao":"LPAR","metar":"LPAR 100900Z VRB01KT 0050 FG VV/// 15/14 Q1020","updated":"2025-11-10T09:22:30Z"}
