{"icao":"LPPT","metar":"LPPT 081400Z 24006KT 210V270 9999 4000SW VCSH FEW007 SCT010 BKN012 12/12 Q1031","updated":"2026-01-08T14:23:42Z"}
