{"icao":"LPMR","metar":"LPMR 032100Z 30001KT CAVOK 13/12 Q1023","updated":"2026-04-03T21:32:28Z"}
