{"icao":"LPLA","metar":"LPLA 290915Z 17012KT 140V200 9999 -RA FEW005 BKN014 BKN040 20/19 Q1024","updated":"2025-09-29T09:20:51Z"}
