{"icao":"LPAZ","metar":"LPAZ 281830Z 24023KT 6000 SCT012 18/16 Q1010","updated":"2026-01-28T18:35:50Z"}
