{"icao":"KJFK","metar":"KJFK 281051Z 17003KT 10SM SCT025 BKN045 BKN085 BKN190 BKN250 19/17 A3004 RMK AO2 SLP173 T01890172","updated":"2025-09-28T11:13:15Z"}
