{"icao":"KJFK","metar":"KJFK 260351Z 01003KT 10SM BKN080 BKN180 BKN240 12/03 A3036 RMK AO2 SLP280 T01170028","updated":"2025-10-26T04:20:25Z"}
