{"icao":"LPHR","metar":"LPHR 300000Z 32003KT 9999 FEW015 BKN030 17/16 Q1030","updated":"2025-11-30T03:25:38Z"}
