{"icao":"LPFL","metar":"LPFL 132200Z 20014G36KT 150V290 9999 FEW009 SCT012 20/16 Q1021","updated":"2025-12-14T05:18:33Z"}
