{"icao":"LPMR","metar":"LPMR 171500Z 32010KT 280V010 CAVOK 23/16 Q1017","updated":"2026-06-17T15:24:36Z"}
