{"icao":"LPMT","metar":"LPMT 101400Z 25008KT 220V280 9999 FEW020 22/15 Q1013","updated":"2026-04-10T14:46:33Z"}
