{"icao":"LPPD","metar":"LPPD 231700Z 21006KT 180V240 9999 FEW010 FEW020TCU 23/21 Q1017","updated":"2025-10-23T17:15:50Z"}
