{"icao":"LPMT","metar":"LPMT 202300Z 10004KT CAVOK 18/14 Q1021","updated":"2026-05-20T23:11:47Z"}
