{"icao":"LPMR","metar":"LPMR 152100Z 33004KT 9999 FEW020 11/09 Q1016","updated":"2026-01-15T21:20:19Z"}
