{"icao":"LPFL","metar":"LPFL 241400Z 16011KT 9999 FEW025 22/15 Q1022","updated":"2025-09-24T14:16:09Z"}
