{"icao":"LPPT","metar":"LPPT 262000Z 31004KT CAVOK 19/10 Q1019","updated":"2025-09-26T20:18:38Z"}
