{"icao":"LPMR","metar":"LPMR 142200Z 29003KT 9999 FEW012 BKN045 10/09 Q1022","updated":"2026-01-14T22:20:46Z"}
