{"icao":"LPPR","metar":"LPPR 132130Z 36007KT CAVOK 21/14 Q1017","updated":"2026-06-13T22:02:09Z"}
