{"icao":"LPST","metar":"LPST 151100Z 21008KT 180V240 9999 FEW022 BKN025 13/09 Q1018","updated":"2026-01-15T11:19:19Z"}
