{"icao":"LPAR","metar":"LPAR 191000Z 08004KT 030V120 9999 BKN045 14/12 Q1018","updated":"2025-11-19T10:20:52Z"}
