{"icao":"LPMR","metar":"LPMR 270600Z 14005KT CAVOK 14/07 Q1020","updated":"2025-10-27T06:30:20Z"}
