{"icao":"LPBJ","metar":"LPBJ 052200Z 32008KT CAVOK 14/08 Q1016","updated":"2026-05-05T23:03:56Z"}
