{"icao":"LPMT","metar":"LPMT 181500Z 26008KT CAVOK 25/11 Q1015","updated":"2026-04-18T15:36:05Z"}
