{"icao":"LPPT","metar":"LPPT 281000Z 04016KT CAVOK 17/05 Q1022","updated":"2026-03-28T10:30:22Z"}
