{"icao":"LPOV","metar":"LPOV 121400Z 34006KT 6000 -RA SCT020 12/11 Q1014","updated":"2025-12-13T09:18:06Z"}
