{"icao":"KORD","metar":"KORD 141251Z 10004KT 7SM CLR 20/18 A3003 RMK AO2 SLP166 T02000178 $","updated":"2025-09-14T13:18:22Z"}
