{"icao":"LPMR","metar":"LPMR 051300Z 01015KT CAVOK 09/M04 Q1015","updated":"2026-01-05T13:39:39Z"}
