{"icao":"KLAX","metar":"KLAX 030953Z 11003KT 3SM BR FEW006 BKN008 BKN200 15/14 A3002 RMK AO2 SLP165 T01500144 $","updated":"2025-11-03T10:22:09Z"}
