{"icao":"KJFK","metar":"KJFK 110151Z 20013KT 10SM BKN170 BKN250 09/06 A3016 RMK AO2 SLP213 T00890061","updated":"2026-04-11T02:07:46Z"}
