{"icao":"LPAZ","metar":"LPAZ 191800Z 03015KT 360V060 9999 FEW030 22/13 Q1023","updated":"2025-09-19T18:24:09Z"}
