{"icao":"KJFK","metar":"KJFK 161251Z 27008KT 10SM SCT160 SCT250 M04/M10 A3024 RMK AO2 SLP240 T10441100 $","updated":"2025-12-16T13:37:36Z"}
