{"icao":"LPOV","metar":"LPOV 041800Z 18013KT 9000 SCT005 SCT008 BKN012 14/14 Q0993","updated":"2026-02-04T18:49:10Z"}
