{"icao":"LPAZ","metar":"LPAZ 121600Z 32024G34KT 9999 FEW028 SCT032 16/10 Q1016","updated":"2026-01-12T16:25:29Z"}
