{"icao":"LPPD","metar":"LPPD 100130Z 20010KT 9999 FEW009 SCT016 17/15 Q1026","updated":"2026-01-10T01:38:07Z"}
