{"icao":"LPFL","metar":"LPFL 071100Z 16010KT 140V200 9000 -RA FEW010 BKN015 OVC030 15/14 Q1010","updated":"2026-02-07T11:20:30Z"}
