{"icao":"LPFR","metar":"LPFR 120200Z 25013KT 9000 SCT002 BKN020 15/15 Q1021","updated":"2026-02-12T02:05:36Z"}
