{"icao":"LPBJ","metar":"LPBJ 181430Z 24012KT 7000 -RA SCT014 OVC035 13/11 Q1020","updated":"2026-02-18T14:41:51Z"}
