{"icao":"LPPS","metar":"LPPS 141400Z 06011KT 030V090 9999 SCT015 17/09 Q1031","updated":"2026-02-14T14:26:03Z"}
