{"icao":"LPPR","metar":"LPPR 062000Z 24006KT 190V310 8000 TSRAGS FEW018 SCT020CB SCT040 11/07 Q1004","updated":"2026-02-06T20:32:45Z"}
