{"icao":"KORD","metar":"KORD 081751Z 08010KT 10SM BKN041 17/07 A3039 RMK AO2 SLP292 T01670072 10178 20089 50002","updated":"2025-10-08T18:27:08Z"}
