{"icao":"KORD","metar":"KORD 022251Z 28004KT 10SM FEW150 BKN250 M06/M15 A2997 RMK AO2 SLP159 T10561150 $","updated":"2026-01-02T23:18:05Z"}
