{"icao":"KLAX","metar":"KLAX 041905Z VRB04KT 5SM HZ FEW009 SCT014 18/13 A3011 RMK AO2 T01780133 $","updated":"2025-11-04T19:14:55Z"}
