{"icao":"KLAX","metar":"KLAX 220653Z 21005KT 9SM SCT012 16/13 A2986 RMK AO2 SLP107 T01560128 $","updated":"2026-05-22T07:43:10Z"}
