{"icao":"LPBJ","metar":"LPBJ 250800Z 26010KT 8000 -DZRA BKN006 BKN015 12/11 Q1016","updated":"2026-01-25T08:26:19Z"}
