{"icao":"LPPT","metar":"LPPT 251500Z 21006KT 9999 3500NW VCSH FEW008 SCT018 FEW025CB BKN038 20/19 Q1013","updated":"2025-10-25T15:15:32Z"}
