{"icao":"LPFL","metar":"LPFL 291300Z 20015G26KT 160V250 8000 -SHRA SCT008 BKN015 19/16 Q1012","updated":"2025-10-29T13:31:48Z"}
