{"icao":"LPPD","metar":"LPPD 010800Z 05006KT 010V090 9999 FEW016 SCT025 20/17 Q1031","updated":"2026-07-01T08:11:17Z"}
