{"icao":"LPHR","metar":"LPHR 240200Z 27029G39KT 9000 SCT015 FEW020TCU BKN035 16/10 Q1008","updated":"2026-02-24T05:57:50Z"}
