{"icao":"LPLA","metar":"LPLA 281200Z 34008KT 310V020 9999 BKN035 16/08 Q1028","updated":"2025-11-28T12:38:46Z"}
