{"icao":"LPPS","metar":"LPPS 231800Z 31025G35KT 9999 FEW015 16/09 Q1020","updated":"2026-01-23T18:31:46Z"}
