{"icao":"LPCS","metar":"LPCS 301830Z 28012KT 260V330 9999 FEW015 SCT030 14/12 Q1013","updated":"2026-01-30T18:40:05Z"}
