{"icao":"LPOV","metar":"LPOV 220900Z 01007KT 340V050 CAVOK 15/09 Q1023","updated":"2025-09-22T09:21:22Z"}
