{"icao":"LPMA","metar":"LPMA 071230Z 04010KT 350V060 9999 FEW014 25/17 Q1025","updated":"2025-10-07T12:37:14Z"}
