{"icao":"LPMA","metar":"LPMA 210900Z 01011KT 9999 SCT015 18/11 Q1024","updated":"2025-11-21T09:19:35Z"}
