{"icao":"LPOV","metar":"LPOV 121500Z 20011KT 6000 FEW005 BKN013 BKN020 15/12 Q1016","updated":"2026-02-12T15:51:52Z"}
