{"icao":"LPCS","metar":"LPCS 041100Z 19007KT 150V220 9999 FEW014 19/16 Q1017","updated":"2025-11-04T11:16:42Z"}
