{"icao":"LPFL","metar":"LPFL 272100Z 25022G37KT 200V320 8000 VCSH BKN014 19/16 Q1002","updated":"2026-01-28T07:25:06Z"}
