{"icao":"LPFL","metar":"LPFL 151300Z 18013KT 150V210 9999 -SHRA BKN019 FEW023TCU 19/15 Q1001","updated":"2025-10-15T13:30:46Z"}
