{"icao":"KORD","metar":"KORD 270551Z 28012G29KT 10SM OVC037 M01/M08 A3008 RMK AO2 PK WND 28029/0542 SLP195 T10061083 10000 21006 400501006 53015","updated":"2025-11-27T06:30:33Z"}
