{"icao":"LPLA","metar":"LPLA 230800Z 26003KT 210V310 9999 FEW018 15/12 Q1024","updated":"2025-12-23T08:28:30Z"}
