{"icao":"KLAX","metar":"KLAX 020453Z 10005KT 5SM BR CLR 15/13 A3004 RMK AO2 SLP173 T01500128 $","updated":"2025-12-02T05:19:02Z"}
