{"icao":"LPMT","metar":"LPMT 291500Z 25011KT 5000 -RADZ BR FEW007 SCT012 BKN045 15/15 Q1009","updated":"2026-01-29T15:34:06Z"}
