{"icao":"KORD","metar":"KORD 182251Z 00000KT 10SM FEW043 SCT110 OVC190 21/17 A2963 RMK AO2 SLP030 T02110172 $","updated":"2025-10-18T23:15:47Z"}
