{"icao":"LPHR","metar":"LPHR 251500Z 01010KT 310V050 9999 FEW010 SCT012 18/15 Q1023","updated":"2025-12-25T15:19:29Z"}
