{"icao":"LPCS","metar":"LPCS 131500Z 28008KT 240V320 9999 VCSH FEW016 FEW020TCU SCT025 15/12 Q1010","updated":"2026-01-13T15:23:52Z"}
