{"icao":"LPFR","metar":"LPFR 020430Z 26032G42KT 8000 RA SCT012 BKN025 12/11 Q1001 RERA","updated":"2026-02-02T04:55:48Z"}
