{"icao":"LPBJ","metar":"LPBJ 271800Z 34011KT 9999 BKN015 14/11 Q1023","updated":"2026-02-27T18:40:53Z"}
