{"icao":"LPLA","metar":"LPLA 200300Z 09011KT 070V130 9999 SCT020 SCT035 17/13 Q1028","updated":"2025-11-20T03:08:27Z"}
