{"icao":"KJFK","metar":"KJFK 090951Z 01009KT 10SM FEW250 12/06 A3035 RMK AO2 SLP277 T01170061","updated":"2025-10-09T10:19:23Z"}
