{"icao":"KORD","metar":"KORD 232051Z 33011KT 10SM FEW250 M21/M32 A3068 RMK AO2 SLP410 T12061322 55008","updated":"2026-01-23T21:19:58Z"}
