{"icao":"LPBJ","metar":"LPBJ 180400Z 12003KT CAVOK 14/12 Q1016","updated":"2025-10-18T04:20:03Z"}
