{"icao":"LPOV","metar":"LPOV 251300Z 30006KT CAVOK 23/08 Q1018","updated":"2025-09-25T13:28:01Z"}
