{"icao":"LPBJ","metar":"LPBJ 252000Z 25009KT 9999 SCT035 22/16 Q1018","updated":"2026-06-25T20:58:54Z"}
