{"icao":"LPLA","metar":"LPLA 162100Z 31016KT 9999 FEW025 BKN035 15/10 Q1034","updated":"2026-01-16T21:19:56Z"}
