{"icao":"KORD","metar":"KORD 141051Z 32011KT 10SM CLR M18/M24 A3046 RMK AO2 SLP331 T11831244","updated":"2025-12-14T11:16:03Z"}
