{"icao":"KJFK","metar":"KJFK 182213Z 01008KT 1 1/4SM -RA BR OVC005 03/02 A2978 RMK AO2 SFC VIS 3 RAB13 P0000 T00280022 $","updated":"2026-02-18T22:31:48Z"}
