{"icao":"LPBJ","metar":"LPBJ 080700Z 33005KT 0050 FG VV002 12/12 Q1021","updated":"2025-11-08T07:16:09Z"}
