{"icao":"LPHR","metar":"LPHR 281800Z 33005KT 270V010 9999 FEW025 SCT040 16/08 Q1028","updated":"2025-11-28T18:26:21Z"}
