{"icao":"LPST","metar":"LPST 141000Z 31006KT 270V350 9999 FEW013 SCT018 16/12 Q1024","updated":"2026-04-14T11:01:12Z"}
