{"icao":"LPPR","metar":"LPPR 271400Z 15016KT 9999 -RA BKN030 BKN040 22/10 Q1012","updated":"2025-09-27T14:14:16Z"}
