{"icao":"KJFK","metar":"KJFK 170951Z 36016KT 10SM CLR 09/M02 A2999 RMK AO2 PK WND 01027/0915 SLP155 T00941022","updated":"2025-10-17T10:19:18Z"}
