{"icao":"LPPI","metar":"LPPI 151300Z 22020KT 9999 FEW010 23/16 Q1019","updated":"2026-06-15T13:11:14Z"}
