{"icao":"LPPR","metar":"LPPR 011600Z 33008KT CAVOK 22/15 Q1021","updated":"2025-10-01T16:22:05Z"}
