{"icao":"LPPD","metar":"LPPD 230400Z 21009KT 8000 SCT007 BKN011 20/19 Q1021","updated":"2025-09-23T04:20:40Z"}
