{"icao":"LPPD","metar":"LPPD 211300Z 22012KT 7000 FEW005 BKN007 23/22 Q1016","updated":"2025-10-21T13:32:28Z"}
