{"icao":"LPAZ","metar":"LPAZ 211000Z 08008KT 050V110 9999 FEW021 BKN032 16/12 Q1031","updated":"2025-11-21T10:19:57Z"}
