{"icao":"KJFK","metar":"KJFK 030451Z 26005KT 10SM SCT210 BKN250 11/07 A3027 RMK AO2 SLP249 T01060067 401440039 $","updated":"2025-11-03T05:18:59Z"}
