{"icao":"LPMT","metar":"LPMT 081900Z 35010KT 320V020 9999 SCT026 BKN030 19/14 Q1021","updated":"2025-10-08T19:13:38Z"}
