{"icao":"LPMR","metar":"LPMR 020400Z 17002KT 2000 BR FEW003 10/10 Q1023","updated":"2025-11-02T04:21:22Z"}
