{"icao":"LPFR","metar":"LPFR 140900Z 31009KT 270V350 9999 FEW023 15/10 Q1019","updated":"2026-03-14T09:31:48Z"}
