{"icao":"LPST","metar":"LPST 250900Z VRB01KT 9999 FEW018 10/09 Q1023","updated":"2025-11-25T09:22:22Z"}
