{"icao":"LPMR","metar":"LPMR 182100Z 17006KT 5000 -RADZ SCT008 OVC018 13/12 Q1019","updated":"2025-12-18T21:16:40Z"}
