{"icao":"LPPD","metar":"LPPD 281600Z 05012KT 010V080 9999 FEW018 BKN030 16/10 Q1033","updated":"2026-03-28T16:32:45Z"}
