{"icao":"LPMA","metar":"LPMA 251530Z 03014KT 360V060 9999 SCT016 20/12 Q1018","updated":"2026-04-25T15:38:06Z"}
