{"icao":"LPMT","metar":"LPMT 172100Z 34007KT CAVOK 18/11 Q1017","updated":"2026-04-17T22:01:24Z"}
