{"icao":"LPPR","metar":"LPPR 201230Z 18014KT 5000 -RA BR SCT014 BKN018 OVC030 10/09 Q1017","updated":"2026-01-20T12:47:44Z"}
