{"icao":"LPPD","metar":"LPPD 111830Z 04014KT 010V070 9999 FEW020 SCT040 15/10 Q1020","updated":"2026-05-11T18:57:21Z"}
