{"icao":"LPPT","metar":"LPPT 052200Z 24008KT 9999 VCSH FEW014 FEW020CB 13/09 Q1015","updated":"2025-11-05T22:17:21Z"}
