{"icao":"KLAX","metar":"KLAX 291653Z 00000KT 10SM CLR 19/09 A3003 RMK AO2 SLP169 T01890094","updated":"2026-04-29T17:26:58Z"}
