{"icao":"LPMT","metar":"LPMT 110200Z 24007KT 200V260 3000 -DZ BR OVC004 15/15 Q1018","updated":"2026-02-11T02:11:54Z"}
