{"icao":"KORD","metar":"KORD 061851Z 28010KT 5SM HZ OVC010 06/03 A2958 RMK AO2 SLP023 T00560028","updated":"2026-01-06T19:16:50Z"}
