{"icao":"KJFK","metar":"KJFK 150451Z 36010KT 10SM -DZ BKN012 OVC018 14/13 A3003 RMK AO2 DZB33 SLP169 P0000 T01440133 401670122","updated":"2025-10-15T05:17:33Z"}
