{"icao":"LPHR","metar":"LPHR 131000Z 32008KT 260V020 9999 SCT025 SCT040 15/09 Q1008","updated":"2025-11-13T10:20:59Z"}
