{"icao":"LPHR","metar":"LPHR 030800Z 34007KT 310V010 9999 SCT014 BKN027 15/11 Q1012","updated":"2026-01-03T08:25:45Z"}
