{"icao":"LPAR","metar":"LPAR 131500Z 32022G32KT 290V350 9999 SCT020 15/08 Q1007","updated":"2026-02-13T15:40:26Z"}
