{"icao":"LPCS","metar":"LPCS 091400Z 21006KT 170V260 9999 FEW020 18/11 Q1020","updated":"2025-11-09T14:14:11Z"}
