{"icao":"LPPR","metar":"LPPR 201030Z 12006KT 090V160 9999 -RA FEW018TCU SCT040 15/13 Q1010","updated":"2026-03-20T10:36:32Z"}
