{"icao":"LPHR","metar":"LPHR 141700Z 21012KT 9999 FEW020 BKN040 17/13 Q1028","updated":"2026-02-14T17:24:46Z"}
