{"icao":"LPOV","metar":"LPOV 110600Z 36009KT 9000 SCT005 13/12 Q1015","updated":"2026-04-11T07:13:03Z"}
