{"icao":"LPMT","metar":"LPMT 241700Z 24009KT 200V260 9999 FEW020 16/12 Q1015","updated":"2026-02-24T17:08:33Z"}
