{"icao":"KORD","metar":"KORD 180651Z 20003KT 7SM RA OVC070 06/01 A3009 RMK AO2 RAB35 SLP192 P0002 T00560006","updated":"2025-11-18T07:18:46Z"}
