{"icao":"LPHR","metar":"LPHR 092100Z 34005KT 9999 SCT022 17/14 Q1024","updated":"2025-11-10T01:27:23Z"}
