{"icao":"LPPT","metar":"LPPT 020400Z VRB02KT 9999 FEW048 14/12 Q1023","updated":"2025-11-02T04:21:17Z"}
