{"icao":"LPMA","metar":"LPMA 012300Z 22020KT 9999 -RADZ SCT015 FEW018TCU 17/15 Q1012","updated":"2026-02-01T23:23:24Z"}
