{"icao":"LPFL","metar":"LPFL 241500Z 16012KT 140V200 9999 FEW025 22/15 Q1021","updated":"2025-09-24T15:18:38Z"}
