{"icao":"LPPD","metar":"LPPD 201900Z 04010KT 360V070 9999 FEW020 SCT045 20/13 Q1028","updated":"2025-09-20T19:11:23Z"}
