{"icao":"LPMT","metar":"LPMT 111600Z 35007KT 320V020 9999 FEW040 19/09 Q1024","updated":"2026-03-11T16:50:56Z"}
