{"icao":"LPMT","metar":"LPMT 270800Z 04008KT CAVOK 04/01 Q1010","updated":"2025-12-27T08:25:12Z"}
