{"icao":"KJFK","metar":"KJFK 102113Z 16012KT 10SM FEW008 BKN250 09/05 A3021 RMK AO2 T00890050","updated":"2026-04-10T21:36:20Z"}
