{"icao":"LPPD","metar":"LPPD 251030Z 05011KT 9999 FEW020 BKN030 15/09 Q1030","updated":"2026-03-25T10:47:42Z"}
