{"icao":"KLAX","metar":"KLAX 282053Z 25010KT 9SM FEW007 FEW230 SCT270 BKN300 19/14 A2997 RMK AO2 SLP149 T01890139 58015","updated":"2026-03-28T21:28:37Z"}
