{"icao":"LPST","metar":"LPST 171200Z 33014KT 9999 SCT020 FEW025CB 16/13 Q1015","updated":"2025-11-17T12:38:52Z"}
