{"icao":"KJFK","metar":"KJFK 100651Z 20007KT 10SM BKN012 BKN250 06/03 A3043 RMK AO2 SLP303 T00610033","updated":"2026-04-10T07:26:08Z"}
