{"icao":"LPPS","metar":"LPPS 120200Z 05010KT 020V080 9999 SCT014 SCT030 13/10 Q1026","updated":"2026-04-12T02:30:04Z"}
