{"icao":"LPMT","metar":"LPMT 222200Z VRB01KT CAVOK 09/06 Q1029","updated":"2025-11-22T22:16:49Z"}
