{"icao":"KJFK","metar":"KJFK 051051Z 05010KT 10SM FEW180 BKN250 M06/M18 A3037 RMK AO2 SLP284 T10611178 $","updated":"2025-12-05T11:18:01Z"}
