{"icao":"LPMR","metar":"LPMR 140700Z 35004KT 1200 -DZ BR VV002 18/18 Q1024","updated":"2025-09-14T07:14:46Z"}
