{"icao":"KLAX","metar":"KLAX 131653Z VRB04KT 10SM SCT140 SCT180 BKN250 25/03 A2999 RMK AO2 SLP153 T02500033","updated":"2026-03-13T17:33:21Z"}
