{"icao":"LPOV","metar":"LPOV 252300Z 33003KT CAVOK 14/13 Q1016","updated":"2025-10-25T23:15:18Z"}
