{"icao":"LPFR","metar":"LPFR 271230Z 10009KT 9999 SCT008 23/19 Q1020","updated":"2025-10-27T12:39:13Z"}
