{"icao":"KORD","metar":"KORD 272151Z 24009KT 10SM FEW075 FEW250 30/10 A2989 RMK AO2 SLP117 T03000100 $","updated":"2025-09-27T22:14:36Z"}
