{"icao":"LPFR","metar":"LPFR 010600Z 03009KT CAVOK 11/05 Q1019","updated":"2025-12-01T06:31:32Z"}
