{"icao":"LPFL","metar":"LPFL 171100Z 33011KT 9999 SCT010 22/18 Q1013","updated":"2025-09-17T11:13:51Z"}
