{"icao":"LPMA","metar":"LPMA 011500Z 22019KT 9999 FEW014 FEW015CB SCT033 18/14 Q1000","updated":"2026-01-01T15:20:23Z"}
