{"icao":"LPFR","metar":"LPFR 172100Z 31007KT CAVOK 27/16 Q1015","updated":"2026-06-17T21:06:57Z"}
