{"icao":"LPPR","metar":"LPPR 110900Z 17014KT 9999 BKN005 BKN011 12/11 Q1024","updated":"2026-01-11T09:19:37Z"}
