{"icao":"LPFR","metar":"LPFR 140130Z 31006KT CAVOK 13/10 Q1019","updated":"2026-03-14T01:56:29Z"}
