{"icao":"LPAR","metar":"LPAR 171400Z 17006KT CAVOK 26/13 Q1014","updated":"2025-10-17T14:17:24Z"}
