{"icao":"LPLA","metar":"LPLA 122300Z 32027KT 9999 SCT025 14/10 Q1003","updated":"2025-11-12T23:17:57Z"}
