{"icao":"LPPR","metar":"LPPR 121900Z 34006KT CAVOK 20/11 Q1017","updated":"2025-10-12T19:12:42Z"}
