{"icao":"KJFK","metar":"KJFK 050851Z 29004KT 10SM FEW055 FEW250 M02/M09 A3021 RMK AO2 SLP228 T10171094 51006 $","updated":"2026-01-05T09:30:50Z"}
