{"icao":"LPFR","metar":"LPFR 271530Z 22007KT 170V260 CAVOK 23/14 Q1010","updated":"2026-04-27T15:46:42Z"}
