{"icao":"LPPS","metar":"LPPS 042300Z 34015KT 9999 SCT014 14/08 Q1023","updated":"2026-03-04T23:28:21Z"}
