{"icao":"LPFL","metar":"LPFL 200830Z 33008KT 280V360 9999 -SHRA SCT014 SCT030 18/14 Q1009","updated":"2026-06-20T08:53:16Z"}
