{"icao":"LPLA","metar":"LPLA 270300Z 36010KT 340V040 9999 OVC035 19/11 Q1023","updated":"2025-09-27T03:26:01Z"}
