{"icao":"LPPT","metar":"LPPT 190830Z 05004KT 360V090 CAVOK 16/13 Q1016","updated":"2026-04-19T08:53:04Z"}
