{"icao":"LPLA","metar":"LPLA 101600Z 36009KT 9999 FEW007 BKN014 BKN030 20/17 Q1028","updated":"2026-06-10T16:56:40Z"}
