{"icao":"LPLA","metar":"LPLA 080300Z 20017KT 9999 FEW015 BKN022 17/13 Q1029","updated":"2026-01-08T03:28:59Z"}
