{"icao":"LPAZ","metar":"LPAZ 191700Z 03017KT 9999 FEW028 23/13 Q1022","updated":"2025-09-19T17:14:54Z"}
