{"icao":"KORD","metar":"KORD 050751Z 19007KT 10SM CLR 21/13 A3007 RMK AO2 SLP176 T02110128 $","updated":"2025-10-05T08:20:20Z"}
