{"icao":"LPMT","metar":"LPMT 140800Z 02004KT CAVOK 17/13 Q1016","updated":"2025-10-14T08:22:04Z"}
