{"icao":"KJFK","metar":"KJFK 221851Z 28019G31KT 10SM SCT055 18/02 A2973 RMK AO2 PK WND 28031/1851 SLP066 T01780017","updated":"2025-10-22T19:13:59Z"}
