{"icao":"LPOV","metar":"LPOV 080600Z 14003KT 100V170 9999 FEW030 09/08 Q1019","updated":"2025-11-08T06:25:00Z"}
