{"icao":"LPHR","metar":"LPHR 151900Z 33004KT 9999 FEW025 15/10 Q1018","updated":"2025-11-15T19:12:27Z"}
