{"icao":"LPMA","metar":"LPMA 091930Z 02014KT 9999 BKN013 FEW015TCU 15/10 Q1028","updated":"2026-03-09T19:39:35Z"}
