{"icao":"LPBJ","metar":"LPBJ 110900Z 15010KT 9999 4000S VCFG BKN003 14/14 Q1015","updated":"2025-11-11T09:20:23Z"}
