{"icao":"LPCS","metar":"LPCS 031400Z 26010KT 230V300 9999 -SHRA FEW022 FEW025TCU 13/08 Q1003","updated":"2026-02-03T14:06:22Z"}
