{"icao":"LPPR","metar":"LPPR 061930Z 18015KT 9999 -SHRA SCT008 FEW030CB SCT035 BKN045 16/15 Q1015","updated":"2026-04-06T19:54:00Z"}
