{"icao":"LPOV","metar":"LPOV 091300Z 21010KT 7000 TSRA FEW022CB BKN028 14/13 Q1003","updated":"2026-05-09T13:14:38Z"}
