{"icao":"LPMT","metar":"LPMT 132100Z 25003KT CAVOK 11/10 Q1014","updated":"2026-01-13T21:20:10Z"}
