{"icao":"LPPD","metar":"LPPD 131200Z 21007KT 9999 VCSH FEW006 BKN012 20/19 Q1023","updated":"2026-06-13T12:23:18Z"}
