{"icao":"KLAX","metar":"KLAX 261253Z 13004KT 10SM FEW010 BKN030 BKN050 BKN150 16/14 A3003 RMK AO2 RAE45 SLP168 P0000 T01610144 $","updated":"2025-12-26T13:31:42Z"}
