{"icao":"LPMA","metar":"LPMA 242200Z 25008KT 9999 SCT014 BKN030 21/17 Q1019","updated":"2025-10-24T22:16:47Z"}
