{"icao":"KORD","metar":"KORD 190151Z 21007KT 10SM FEW250 11/M11 A2961 RMK AO2 SLP025 T01111106 $","updated":"2026-02-19T02:04:19Z"}
