{"icao":"LPPR","metar":"LPPR 180100Z 36002KT CAVOK 10/09 Q1019","updated":"2025-11-18T01:23:51Z"}
