{"icao":"LPPD","metar":"LPPD 260830Z 29006KT 9999 SCT004 BKN008 15/15 Q1030","updated":"2026-02-26T08:47:25Z"}
