{"icao":"LPSJ","metar":"LPSJ 301630Z 15010KT 120V180 9999 FEW010 22/17 Q1031","updated":"2026-06-30T19:54:19Z"}
