{"icao":"LPFL","metar":"LPFL 301600Z 19011G26KT 150V270 9999 VCSH BKN019 19/14 Q1024","updated":"2025-11-30T16:21:46Z"}
