{"icao":"LPPI","metar":"LPPI 271700Z 03008KT 350V060 9999 FEW015 SCT020 BKN034 19/14 Q1026","updated":"2026-06-27T17:08:01Z"}
