{"icao":"KJFK","metar":"KJFK 021751Z 21007KT 10SM FEW050 FEW250 14/03 A3027 RMK AO2 SLP250 T01390033 10144 20061 58016 $","updated":"2025-11-02T18:21:51Z"}
