{"icao":"LPFR","metar":"LPFR 101100Z 09010KT 060V120 9999 FEW015 23/18 Q1020","updated":"2025-10-10T11:15:16Z"}
