{"icao":"KJFK","metar":"KJFK 222251Z 25011KT 10SM FEW180 SCT250 02/M07 A3047 RMK AO2 SLP316 T00171067 $","updated":"2025-12-22T23:18:22Z"}
