{"icao":"LPBJ","metar":"LPBJ 121300Z 18006KT 150V210 9999 FEW012 OVC030 12/09 Q1020","updated":"2026-01-12T13:41:13Z"}
