{"icao":"LPBJ","metar":"LPBJ 051200Z 25026KT 9999 BKN015 16/12 Q0999 WS ALL RWY","updated":"2026-02-05T12:59:32Z"}
