{"icao":"LPMR","metar":"LPMR 152100Z 20004KT 140V240 9999 FEW012 FEW020CB 14/13 Q1008","updated":"2025-11-15T21:14:41Z"}
