{"icao":"LPPT","metar":"LPPT 041000Z 03011KT 350V050 CAVOK 14/10 Q1002","updated":"2026-01-04T10:19:13Z"}
