{"icao":"LPPD","metar":"LPPD 221800Z 30014G24KT 280V340 9999 FEW025 15/06 Q1018","updated":"2026-01-22T18:31:35Z"}
