{"icao":"LPAZ","metar":"LPAZ 261900Z 28033KT 9000 FEW024 SCT035 13/09 Q1007","updated":"2026-01-26T19:22:31Z"}
