{"icao":"LPPT","metar":"LPPT 132100Z 33014KT 9999 FEW012 19/17 Q1023","updated":"2025-09-13T21:13:37Z"}
