{"icao":"LPHR","metar":"LPHR 011830Z 06013KT 9999 FEW016 BKN028 16/11 Q1031","updated":"2026-04-01T19:00:05Z"}
