{"icao":"LPFR","metar":"LPFR 101300Z 25006KT 210V290 9999 FEW014 SCT030 15/09 Q1029","updated":"2026-01-10T13:28:05Z"}
