{"icao":"LPOV","metar":"LPOV 081900Z 16011KT 6000 -RADZ SCT006 BKN018 10/10 Q1009","updated":"2026-02-08T19:23:28Z"}
