{"icao":"LPAR","metar":"LPAR 031200Z 08003KT CAVOK 16/11 Q1023","updated":"2025-11-03T12:38:52Z"}
