{"icao":"LPFL","metar":"LPFL 121900Z 33011G23KT 250V010 9999 SCT022 14/09 Q1021","updated":"2026-02-12T19:08:39Z"}
