{"icao":"LPPT","metar":"LPPT 290400Z 24015KT 6000 -DZRA SCT004 BKN006 16/16 Q1008","updated":"2026-01-29T04:08:21Z"}
