{"icao":"LPPS","metar":"LPPS 191930Z 09017G27KT 050V110 9999 FEW015 19/13 Q1009","updated":"2026-04-19T19:40:22Z"}
