{"icao":"KJFK","metar":"KJFK 230451Z 29015G25KT 10SM BKN225 04/M16 A3009 RMK PK WND 30027/0438 SLP192 T00391161 400890017 $ ","updated":"2026-01-23T05:26:29Z"}
