{"icao":"LPMT","metar":"LPMT 141300Z 26012KT 9999 FEW030 23/17 Q1016","updated":"2026-06-14T14:03:59Z"}
