{"icao":"LPCS","metar":"LPCS 090900Z VRB02KT CAVOK 13/12 Q1022","updated":"2025-11-09T09:16:17Z"}
