{"icao":"LPPS","metar":"LPPS 152000Z 03007KT 360V060 9999 SCT010 BKN030 15/13 Q1020","updated":"2026-03-15T20:28:24Z"}
