{"icao":"KJFK","metar":"KJFK 201751Z 28022G34KT 10SM BKN035 BKN045 BKN075 BKN250 17/08 A2978 RMK AO2 PK WND 26034/1747 SLP083 60000 T01720078 10178 20139 51000 $","updated":"2025-10-20T18:27:21Z"}
