{"icao":"LPAZ","metar":"LPAZ 072300Z 18012KT 9999 FEW017 17/15 Q1008","updated":"2025-12-07T23:16:41Z"}
