{"icao":"KORD","metar":"KORD 170351Z 22013G21KT 10SM BKN140 BKN200 BKN250 03/M02 A2974 RMK AO2 PK WND 20027/0258 SLP078 T00331022","updated":"2025-12-17T04:31:55Z"}
