{"icao":"KJFK","metar":"KJFK 012251Z 05006KT 10SM FEW055 FEW250 18/04 A3020 RMK AO2 SLP225 T01780039","updated":"2025-10-01T23:15:37Z"}
