{"icao":"LPMT","metar":"LPMT 171500Z 32008KT 290V360 9999 SCT040 21/10 Q1017","updated":"2026-05-17T15:57:34Z"}
