{"icao":"LPCS","metar":"LPCS 181500Z 24007KT CAVOK 24/13 Q1016","updated":"2025-10-18T15:15:24Z"}
