{"icao":"KORD","metar":"KORD 021251Z 25006KT 7SM OVC005 M05/M07 A3006 RMK AO2 FZDZE23 SLP189 P0000 I1000 T10501067","updated":"2026-02-02T12:57:14Z"}
