{"icao":"LPMT","metar":"LPMT 062000Z 36013KT CAVOK 12/07 Q1018","updated":"2026-03-06T20:30:37Z"}
