{"icao":"KLAX","metar":"KLAX 281253Z 10004KT 4SM R25L/2000VP6000FT BCFG BR FEW000 SCT002 10/10 A3002 RMK AO2 SLP162 VIS SE-S 1 FG FEW000 FG BANK SE-SW T01000100 $","updated":"2025-11-28T13:29:21Z"}
