{"icao":"LPPT","metar":"LPPT 090430Z 25009KT 4000 DZRA FEW002 BKN008 13/13 Q1028","updated":"2026-01-09T04:38:55Z"}
