{"icao":"LPMT","metar":"LPMT 080900Z 14006KT 100V180 9999 FEW025 16/11 Q1010","updated":"2026-05-08T09:18:39Z"}
