{"icao":"KJFK","metar":"KJFK 241951Z 29014G24KT 10SM BKN048 BKN250 M01/M12 A2989 RMK AO2 SLP121 T10111117 $","updated":"2026-02-24T20:33:53Z"}
