{"icao":"LPMT","metar":"LPMT 311000Z 03007KT 0100 FG VV002 06/06 Q1020","updated":"2025-12-31T10:20:55Z"}
