{"icao":"LPAZ","metar":"LPAZ 301230Z 33006KT 9999 FEW014 BKN016 18/15 Q1029","updated":"2025-11-30T12:35:24Z"}
