{"icao":"LPFL","metar":"LPFL 051230Z 17006KT 150V220 9999 FEW025 BKN040 13/04 Q1037","updated":"2026-03-05T12:58:05Z"}
