{"icao":"KJFK","metar":"KJFK 291951Z 29013KT 10SM FEW043 M06/M16 A3009 RMK SLP187 T10561161 $ ","updated":"2026-01-29T20:28:32Z"}
