{"icao":"LPPT","metar":"LPPT 132100Z 31008KT CAVOK 21/10 Q1016","updated":"2025-10-13T21:15:13Z"}
