{"icao":"LPPS","metar":"LPPS 092330Z 01008KT 9000 -SHRA SCT012 BKN030 13/12 Q1020","updated":"2026-04-09T23:36:34Z"}
