{"icao":"LPHR","metar":"LPHR 011600Z 15005KT 090V200 9999 FEW025 BKN045 19/09 Q1021","updated":"2025-11-01T16:19:21Z"}
