{"icao":"KORD","metar":"KORD 151251Z 24004KT 10SM SCT120 SCT250 01/M02 A2992 RMK AO2 SLP135 T00061017 $","updated":"2026-02-15T13:43:35Z"}
