{"icao":"LPMT","metar":"LPMT 081100Z 36005KT 320V040 9999 FEW030 16/09 Q1022","updated":"2026-03-08T11:19:58Z"}
