{"icao":"LPFR","metar":"LPFR 031730Z 08008G19KT 040V110 9999 FEW020 19/10 Q1010","updated":"2026-03-03T17:41:43Z"}
