{"icao":"KLAX","metar":"KLAX 300753Z 07003KT 10SM CLR 22/08 A2992 RMK AO2 SLP130 T02170083 403280161 $","updated":"2025-10-30T08:24:34Z"}
