{"icao":"LPPR","metar":"LPPR 130500Z 00000KT CAVOK 17/12 Q1015","updated":"2025-10-13T05:17:45Z"}
