{"icao":"LPOV","metar":"LPOV 141100Z 35017KT 9999 FEW015 13/06 Q1026","updated":"2026-02-14T11:21:00Z"}
