{"icao":"LPBJ","metar":"LPBJ 291400Z VRB05KT CAVOK 35/13 Q1019","updated":"2026-06-29T14:46:38Z"}
