{"icao":"LPST","metar":"LPST 171400Z 20005KT 120V250 9999 FEW020 27/13 Q1014","updated":"2025-10-17T14:17:22Z"}
