{"icao":"LPPT","metar":"LPPT 142100Z 22003KT 180V300 9999 FEW026 11/07 Q1029","updated":"2026-02-14T21:22:46Z"}
