{"icao":"LPMT","metar":"LPMT 131300Z 29010KT 240V320 9999 SCT025 13/10 Q1008","updated":"2026-02-13T14:03:05Z"}
