{"icao":"LPOV","metar":"LPOV 252000Z VRB02KT CAVOK 15/14 Q1016","updated":"2025-10-25T20:18:23Z"}
