{"icao":"KORD","metar":"KORD 081551Z 17008KT 10SM FEW160 SCT210 OVC250 10/04 A2980 RMK AO2 SLP094 T01000044","updated":"2026-01-08T16:28:57Z"}
