{"icao":"LPMT","metar":"LPMT 260400Z 34003KT 9999 SCT030 16/15 Q1015","updated":"2025-10-26T04:19:55Z"}
