{"icao":"KJFK","metar":"KJFK 101851Z 18009KT 10SM BKN047 16/04 A3044 RMK AO2 SLP306 T01560044","updated":"2025-10-10T19:13:59Z"}
