{"icao":"KLAX","metar":"KLAX 281253Z VRB03KT 9SM FEW010 17/13 A2995 RMK AO2 SLP140 T01670133 $","updated":"2025-10-28T13:29:50Z"}
