{"icao":"LPHR","metar":"LPHR 010800Z 27036G52KT 8000 -SHRA SCT012 FEW016TCU BKN030 14/12 Q1005","updated":"2026-02-01T08:30:58Z"}
