{"icao":"LPPR","metar":"LPPR 162300Z 12008KT 1300 0600S R17/2000D PRFG SCT001 BKN003 FEW020CB 06/06 Q1014","updated":"2026-01-16T23:18:48Z"}
