{"icao":"KORD","metar":"KORD 271051Z 10004KT 7SM OVC009 03/01 A2999 RMK AO2 SLP161 T00330011 $","updated":"2025-12-27T11:15:54Z"}
