{"icao":"LPPR","metar":"LPPR 290400Z 21008KT 190V250 5000 BR BKN008 15/14 Q1002","updated":"2026-01-29T04:08:21Z"}
