{"icao":"LPAZ","metar":"LPAZ 101300Z 03011KT 010V070 9999 FEW005 BKN012 23/18 Q1028","updated":"2026-06-10T13:34:08Z"}
