{"icao":"KORD","metar":"KORD 071651Z 06010G15KT 10SM FEW038 01/M09 A3053 RMK AO2 SLP345 T00111094 $","updated":"2026-04-07T16:57:22Z"}
