{"icao":"LPHR","metar":"LPHR 131230Z 28008KT 220V300 9999 FEW027 17/10 Q1031","updated":"2026-02-13T12:57:18Z"}
