{"icao":"LPMR","metar":"LPMR 240300Z 00000KT 3500 BR BKN002 18/18 Q1012","updated":"2026-06-24T03:28:25Z"}
