{"icao":"LPMA","metar":"LPMA 060430Z 01018G28KT 340V040 9999 SCT015 FEW018TCU 16/05 Q1025","updated":"2026-01-06T04:38:55Z"}
