{"icao":"KJFK","metar":"KJFK 142351Z 29012KT 10SM FEW065 BKN095 17/04 A2973 RMK AO2 SLP068 T01670039 10189 20150 53009","updated":"2026-05-14T23:56:54Z"}
