{"icao":"LPAZ","metar":"LPAZ 050930Z 28030G46KT 4000 -RA FEW005 SCT019 FEW025TCU 10/09 Q1005 RESHRA","updated":"2026-02-05T09:42:30Z"}
