{"icao":"LPCS","metar":"LPCS 010700Z 21008KT 2000 RADZ BR SCT003 BKN008 18/18 Q1014","updated":"2025-11-01T07:15:36Z"}
