{"icao":"LPBJ","metar":"LPBJ 111500Z 07007KT 020V190 CAVOK 27/11 Q1017","updated":"2025-10-11T15:14:45Z"}
