{"icao":"LPFR","metar":"LPFR 182200Z 05005KT 020V080 CAVOK 21/17 Q1017","updated":"2025-10-18T22:15:26Z"}
