{"icao":"LPPT","metar":"LPPT 100100Z 31005KT 9999 FEW011 SCT026 14/13 Q1019","updated":"2025-12-10T01:28:01Z"}
