{"icao":"LPOV","metar":"LPOV 161200Z 24009KT 200V270 9999 BKN008 BKN015 15/13 Q1029","updated":"2026-02-16T13:00:42Z"}
