{"icao":"LPMA","metar":"LPMA 121030Z 01017KT 330V040 9999 FEW016 17/09 Q1025","updated":"2026-03-12T10:37:14Z"}
