{"icao":"KORD","metar":"KORD 051651Z 22014G21KT 10SM SCT300 26/11 A3009 RMK AO2 PK WND 21026/1557 SLP184 T02610111 $","updated":"2025-10-05T17:13:17Z"}
