{"icao":"LPOV","metar":"LPOV 281900Z 35014G24KT CAVOK 12/09 Q1025","updated":"2026-02-28T20:24:11Z"}
