{"icao":"LPST","metar":"LPST 230800Z 30006KT 3000 BR BKN005 BKN012 20/19 Q1020","updated":"2025-10-23T08:24:59Z"}
