{"icao":"LPPS","metar":"LPPS 200600Z 34005KT 300V360 9999 -SHRA SCT014 SCT030 14/11 Q1025","updated":"2025-12-20T06:29:14Z"}
