{"icao":"LPPT","metar":"LPPT 071300Z 26007KT 190V310 9999 BKN030 23/16 Q1022","updated":"2025-10-07T13:27:56Z"}
