{"icao":"KORD","metar":"KORD 091351Z 24012G18KT 10SM FEW110 SCT250 15/09 A2964 RMK AO2 SLP035 T01500094","updated":"2026-05-09T14:49:29Z"}
