{"icao":"KORD","metar":"KORD 152051Z 33007KT 10SM CLR 16/M01 A2986 RMK AO2 SLP114 T01561011 56013","updated":"2026-02-15T21:23:39Z"}
