{"icao":"LPCS","metar":"LPCS 030930Z 28005KT 240V320 9999 FEW020 SCT030 11/10 Q1003","updated":"2026-02-03T09:39:23Z"}
