{"icao":"LPMT","metar":"LPMT 270700Z 26013KT 8000 -RADZ SCT013 BKN036 13/11 Q1000","updated":"2026-01-27T07:26:27Z"}
