{"icao":"LPFR","metar":"LPFR 031500Z 23004KT CAVOK 20/12 Q1021","updated":"2025-11-03T15:19:26Z"}
