{"icao":"KLAX","metar":"KLAX 231230Z 08004KT 6SM BR FEW007 FEW012 BKN080 BKN180 13/12 A2993 RMK AO2 T01280117 $","updated":"2026-01-23T12:44:20Z"}
