{"icao":"LPMT","metar":"LPMT 291700Z 25010KT 220V280 9999 SCT035 18/12 Q1010","updated":"2026-04-29T17:26:56Z"}
