{"icao":"LPMT","metar":"LPMT 020800Z VRB02KT CAVOK 12/12 Q1025","updated":"2025-11-02T08:19:51Z"}
