{"icao":"LPHR","metar":"LPHR 161430Z 19018KT 9000 FEW010 BKN013 BKN025 17/15 Q1023","updated":"2026-02-16T14:39:37Z"}
