{"icao":"LPMT","metar":"LPMT 260600Z 02002KT CAVOK 10/10 Q1022","updated":"2026-02-26T07:02:34Z"}
