{"icao":"LPCS","metar":"LPCS 080800Z 03004KT 9999 FEW016 13/12 Q1021","updated":"2025-11-08T08:21:22Z"}
