{"icao":"KLAX","metar":"KLAX 280653Z 09004KT 10SM FEW200 BKN250 14/09 A3026 RMK AO2 SLP244 T01390089","updated":"2026-01-28T07:25:08Z"}
