{"icao":"LPLA","metar":"LPLA 051400Z 29023KT 9999 FEW020 FEW022TCU SCT025 13/07 Q1004 R MK WIND RWY15 29028KT PK 29043/22 RH66 TCU S BLU","updated":"2026-02-05T14:08:22Z"}
