{"icao":"LPPS","metar":"LPPS 012200Z 26014KT 9999 FEW013 17/13 Q1002","updated":"2026-01-01T22:19:02Z"}
