{"icao":"LPHR","metar":"LPHR 221230Z 31021KT 9999 SCT022 15/08 Q1019 WS R28","updated":"2026-01-22T12:47:22Z"}
