{"icao":"LPAZ","metar":"LPAZ 150200Z 04009KT 010V070 9999 FEW018 BKN022 15/11 Q1030","updated":"2026-03-15T02:13:06Z"}
