{"icao":"LPPT","metar":"LPPT 271100Z 27010KT 230V310 9999 VCSH FEW015 SCT020 FEW025CB 12/10 Q1002","updated":"2026-01-27T11:21:47Z"}
