{"icao":"LPBJ","metar":"LPBJ 211500Z 26010KT 9999 SCT024 BKN045 23/19 Q1015","updated":"2025-10-21T15:19:09Z"}
