{"icao":"KJFK","metar":"KJFK 080451Z 21009KT 10SM FEW045 BKN095 OVC120 14/09 A2968 RMK AO2 SLP052 T01390094 401560017","updated":"2025-11-08T05:16:59Z"}
