{"icao":"LPMA","metar":"LPMA 131900Z 34003KT 300V020 9999 FEW016 21/16 Q1017","updated":"2025-10-13T19:13:14Z"}
