{"icao":"LPPR","metar":"LPPR 090500Z 00000KT 0400 R17/0500 FG VV001 14/14 Q1020","updated":"2025-10-09T05:17:17Z"}
