{"icao":"LPPS","metar":"LPPS 290900Z 35005KT 9999 FEW015 16/12 Q1023","updated":"2025-11-29T09:18:33Z"}
