{"icao":"KORD","metar":"KORD 280851Z 29011G18KT 10SM CLR M05/M09 A3028 RMK AO2 SLP263 T10501094 51005","updated":"2025-11-28T09:20:04Z"}
