{"icao":"LPPR","metar":"LPPR 312030Z VRB02KT CAVOK 18/11 Q1024","updated":"2026-03-31T20:40:31Z"}
