{"icao":"LPPD","metar":"LPPD 191630Z 36028G43KT 9999 FEW017 SCT025CB 15/12 Q0998","updated":"2026-03-19T16:56:28Z"}
