{"icao":"LPFL","metar":"LPFL 081230Z 36014KT 9999 FEW023 BKN040 12/03 Q1032","updated":"2026-03-08T12:46:07Z"}
