{"icao":"LPMA","metar":"LPMA 080800Z 35008KT 310V020 9999 BKN014 21/16 Q1021","updated":"2025-11-08T08:21:56Z"}
