{"icao":"LPMA","metar":"LPMA 220430Z 28004KT 230V350 9999 SCT013 17/14 Q1018","updated":"2026-01-22T04:46:56Z"}
