{"icao":"LPCS","metar":"LPCS 011900Z 36008KT 9999 FEW012 SCT030 17/16 Q1021","updated":"2025-11-01T19:12:17Z"}
