{"icao":"KJFK","metar":"KJFK 290351Z 30012KT 10SM FEW090 SCT250 M09/M18 A3004 RMK SLP172 T10891178 $ ","updated":"2026-01-29T04:08:25Z"}
