{"icao":"LPMA","metar":"LPMA 220300Z 22003KT 160V310 9999 FEW015 17/14 Q1019","updated":"2026-05-22T03:32:48Z"}
