{"icao":"KJFK","metar":"KJFK 150251Z 32015G21KT 10SM FEW070 BKN095 14/04 A2978 RMK AO2 SLP084 T01440044 51016","updated":"2026-05-15T03:46:55Z"}
