{"icao":"LPLA","metar":"LPLA 040135Z 24016KT 5000 RA SCT014 BKN020 16/14 Q0998","updated":"2026-02-04T01:57:51Z"}
