{"icao":"KORD","metar":"KORD 240351Z 33011KT 10SM FEW250 M23/M32 A3074 RMK AO2 SLP432 T12281317","updated":"2026-01-24T04:34:07Z"}
