{"icao":"LPFR","metar":"LPFR 110430Z 27007KT 9999 FEW048 15/13 Q1011","updated":"2026-04-11T04:53:20Z"}
