{"icao":"LPPD","metar":"LPPD 301830Z 18008KT 4000 -RA BR SCT005 BKN007 14/13 Q1019","updated":"2026-01-30T18:40:08Z"}
