{"icao":"LPMT","metar":"LPMT 042100Z 34005KT 9999 FEW020 19/17 Q1022","updated":"2025-10-04T21:13:43Z"}
