{"icao":"LPPT","metar":"LPPT 210130Z 30009KT 260V350 9999 FEW012 BKN025 FEW028TCU 11/09 Q1010","updated":"2025-12-21T01:43:02Z"}
