{"icao":"KORD","metar":"KORD 022002Z 19017G28KT 10SM SCT030 BKN044 OVC090 21/17 A2966 RMK AO2 PK WND 19028/2002 T02060167","updated":"2026-04-02T20:34:12Z"}
