{"icao":"LPOV","metar":"LPOV 252100Z VRB02KT CAVOK 15/15 Q1016","updated":"2025-10-25T21:14:33Z"}
