{"icao":"LPFR","metar":"LPFR 110100Z 06004KT CAVOK 19/17 Q1019","updated":"2025-10-11T01:15:34Z"}
