{"icao":"LPFR","metar":"LPFR 281800Z 29005KT CAVOK 15/08 Q1021","updated":"2025-11-28T18:26:16Z"}
