{"icao":"LPLA","metar":"LPLA 100400Z 25005KT CAVOK 09/06 Q1035","updated":"2026-03-10T04:09:19Z"}
