{"icao":"KORD","metar":"KORD 221251Z 06013G18KT 10SM OVC045 11/04 A3015 RMK AO2 SLP213 T01110044","updated":"2026-05-22T13:30:24Z"}
