{"icao":"LPOV","metar":"LPOV 172000Z VRB01KT CAVOK 15/14 Q1015","updated":"2025-10-17T20:19:30Z"}
