{"icao":"LPST","metar":"LPST 271600Z 32012KT CAVOK 18/07 Q1016","updated":"2026-03-27T17:48:58Z"}
