{"icao":"LPST","metar":"LPST 151200Z VRB03KT CAVOK 28/12 Q1017","updated":"2025-10-15T12:38:40Z"}
