{"icao":"LPMT","metar":"LPMT 142000Z 34007KT 9999 FEW035 16/11 Q1023","updated":"2026-04-14T21:50:57Z"}
