{"icao":"LPPT","metar":"LPPT 202330Z 06006KT CAVOK 20/13 Q1007","updated":"2026-04-20T23:40:39Z"}
