{"icao":"KORD","metar":"KORD 011151Z 34006KT 10SM SCT250 M12/M17 A3003 RMK AO2 SLP180 7//// T11171172 11089 21117 58002 $","updated":"2026-01-01T12:40:34Z"}
