{"icao":"LPFL","metar":"LPFL 281100Z 27003KT 230V290 9999 BKN040 15/06 Q1029","updated":"2025-11-28T11:16:30Z"}
