{"icao":"LPPT","metar":"LPPT 211400Z 32009KT 270V360 9999 -SHRA SCT028 FEW033TCU 10/06 Q1008","updated":"2025-12-21T14:17:10Z"}
