{"icao":"LPPT","metar":"LPPT 250500Z 01005KT CAVOK 08/05 Q1009","updated":"2025-12-25T05:22:40Z"}
