{"icao":"KORD","metar":"KORD 020951Z 13005KT 10SM BKN250 16/08 A3023 RMK AO2 SLP235 T01560078","updated":"2025-10-02T10:17:33Z"}
