{"icao":"LPPD","metar":"LPPD 151500Z 20013KT 9999 FEW022 SCT049 23/17 Q1008","updated":"2025-10-15T15:17:50Z"}
