{"icao":"KJFK","metar":"KJFK 260251Z 26011KT 10SM SCT025 BKN043 BKN120 BKN250 23/21 A2977 RMK AO2 PK WND 23027/0200 RAB30E47 SLP080 P0000 60001 T02280206 53008 $","updated":"2025-09-26T03:34:33Z"}
