{"icao":"KORD","metar":"KORD 041019Z 11006KT 6SM -RA BR FEW003 BKN038 OVC075 07/07 A2984 RMK AO2 WSHFT 0945 TSE09 P0019 T00720067 $","updated":"2026-04-04T10:32:23Z"}
