{"icao":"LPMA","metar":"LPMA 180300Z 33008KT 290V010 9999 SCT015 19/14 Q1022","updated":"2025-11-18T03:11:28Z"}
