{"icao":"LPPR","metar":"LPPR 091000Z 31009KT 280V340 9999 FEW018 SCT031 13/08 Q1027","updated":"2026-01-09T10:21:32Z"}
