{"icao":"LPPT","metar":"LPPT 282300Z 32009KT CAVOK 10/07 Q1023","updated":"2026-02-28T23:20:23Z"}
