{"icao":"KLAX","metar":"KLAX 091513Z 26006KT 1/4SM R25L/0700V1400FT FG VV001 15/15 A3006 RMK AO2 T01500150 $","updated":"2025-11-09T15:15:47Z"}
