{"icao":"LPFL","metar":"LPFL 070800Z 18017G34KT 150V220 9999 FEW018 16/13 Q1028","updated":"2026-01-07T08:29:16Z"}
