{"icao":"LPAZ","metar":"LPAZ 240730Z 22010KT 9999 FEW017 15/12 Q1014","updated":"2026-04-24T08:01:33Z"}
