{"icao":"LPPS","metar":"LPPS 070800Z 05007KT 330V090 9999 SCT015 14/08 Q1032","updated":"2026-01-07T08:29:17Z"}
