{"icao":"LPPD","metar":"LPPD 211400Z 04011KT 360V070 9999 FEW022 BKN030 17/12 Q1032","updated":"2025-11-21T14:17:56Z"}
