{"icao":"LPFR","metar":"LPFR 150700Z 04006KT CAVOK 20/17 Q1016","updated":"2025-10-15T07:18:27Z"}
