{"icao":"LPMR","metar":"LPMR 261500Z 06005KT 010V090 CAVOK 15/05 Q1025","updated":"2025-11-26T15:17:55Z"}
