{"icao":"LPPD","metar":"LPPD 201100Z 26022KT 1800 0900NW DZ BR SCT001 BKN003 16/15 Q1025","updated":"2026-01-20T11:22:24Z"}
