{"icao":"LPPT","metar":"LPPT 221630Z 21007KT 170V240 9999 FEW048 20/09 Q1013","updated":"2026-04-22T16:57:37Z"}
