{"icao":"LPFR","metar":"LPFR 262130Z 08010KT CAVOK 23/13 Q1021","updated":"2026-05-26T21:43:29Z"}
