{"icao":"LPPD","metar":"LPPD 300300Z 34005KT 310V010 9999 BKN020 17/14 Q1028","updated":"2025-11-30T03:25:37Z"}
