{"icao":"LPMA","metar":"LPMA 080200Z 26004KT 210V290 9999 FEW015 16/11 Q1023","updated":"2026-02-08T02:28:35Z"}
