{"icao":"LPMT","metar":"LPMT 221600Z 22011KT 190V250 2500 RA BR SCT007 SCT011 BKN018 13/13 Q1005","updated":"2026-01-22T16:34:37Z"}
