{"icao":"LPOV","metar":"LPOV 061900Z VRB01KT CAVOK 21/08 Q1020","updated":"2025-10-06T20:19:03Z"}
