{"icao":"KJFK","metar":"KJFK 020651Z 34005KT 10SM SCT250 08/01 A3019 RMK AO2 SLP222 T00780011 $","updated":"2025-11-02T07:15:53Z"}
