{"icao":"LPLA","metar":"LPLA 082100Z VRB03KT 9999 BKN045 13/04 Q1033","updated":"2026-03-08T21:21:56Z"}
