{"icao":"LPFL","metar":"LPFL 141600Z 33006KT 250V030 9999 SCT017 17/11 Q1023","updated":"2025-12-14T16:22:17Z"}
