{"icao":"LPHR","metar":"LPHR 281100Z 26012KT 4000 -RA BR SCT004 BKN006 17/16 Q1031","updated":"2026-02-28T11:17:46Z"}
