{"icao":"KLAX","metar":"KLAX 060253Z 27009KT 10SM SCT250 17/12 A3017 RMK AO2 SLP217 T01720117 53004 $","updated":"2025-11-06T03:12:54Z"}
