{"icao":"LPCS","metar":"LPCS 111400Z 18013KT 9999 FEW018 SCT024 20/16 Q1010","updated":"2025-11-11T14:19:23Z"}
