{"icao":"LPMT","metar":"LPMT 051000Z 01007KT 310V050 9999 FEW036 BKN045 18/09 Q1017","updated":"2026-05-05T10:44:46Z"}
