{"icao":"LPHR","metar":"LPHR 020800Z 17006KT 140V210 9999 BKN035 18/11 Q1022","updated":"2025-11-02T08:20:08Z"}
