{"icao":"LPFR","metar":"LPFR 010800Z 03006KT CAVOK 09/05 Q1020","updated":"2025-12-01T08:29:42Z"}
