{"icao":"LPFR","metar":"LPFR 280730Z 03003KT 320V080 CAVOK 26/12 Q1019","updated":"2026-06-28T07:49:25Z"}
