{"icao":"KJFK","metar":"KJFK 020951Z 32009KT 10SM SCT250 M09/M18 A2997 RMK AO2 SLP147 T10941183 PNO $","updated":"2026-02-02T10:43:02Z"}
