{"icao":"LPPT","metar":"LPPT 041900Z 20010KT CAVOK 20/15 Q1013","updated":"2025-11-04T19:14:51Z"}
