{"icao":"LPOV","metar":"LPOV 281900Z 35008KT CAVOK 15/11 Q1025","updated":"2026-03-28T21:28:16Z"}
