{"icao":"LPPD","metar":"LPPD 151100Z 31008KT 270V330 9999 FEW025 17/09 Q1016","updated":"2025-11-15T11:13:42Z"}
