{"icao":"LPBJ","metar":"LPBJ 251200Z 31007KT 270V330 9999 FEW015 SCT020 17/13 Q1017","updated":"2026-02-25T13:02:10Z"}
