{"icao":"KORD","metar":"KORD 010851Z 01007KT 9SM -RA SCT009 OVC028 05/03 A2996 RMK AO2 RAB33 SLP149 P0000 60000 T00500028 51002","updated":"2026-05-01T08:59:18Z"}
