{"icao":"LPHR","metar":"LPHR 061100Z 28014KT 0800 -DZ FG SCT001 BKN002 19/19 Q1024","updated":"2026-06-06T11:24:30Z"}
