{"icao":"LPPT","metar":"LPPT 031100Z 11008KT 090V170 6000 BKN004 14/14 Q0998","updated":"2026-01-03T11:15:58Z"}
