{"icao":"KORD","metar":"KORD 270751Z 22015G24KT 10SM BKN120 M12/M17 A2993 RMK AO2 PK WND 22026/0718 SLP151 T11171172","updated":"2026-01-27T08:32:18Z"}
