{"icao":"LPAR","metar":"LPAR 071500Z 36012KT 320V030 9999 FEW022 15/05 Q1026","updated":"2026-01-07T15:24:02Z"}
