{"icao":"LPMA","metar":"LPMA 052200Z 28003KT 200V340 9999 FEW015 16/10 Q1012","updated":"2026-02-05T22:25:13Z"}
