{"icao":"LPFL","metar":"LPFL 261430Z 34011G21KT 300V010 9999 FEW018 19/11 Q1030","updated":"2026-02-26T14:44:51Z"}
