{"icao":"KLAX","metar":"KLAX 270453Z 00000KT 10SM FEW250 19/06 A3006 RMK AO2 SLP178 T01940061 $","updated":"2025-11-27T05:19:26Z"}
