{"icao":"LPOV","metar":"LPOV 272000Z 36013KT CAVOK 12/04 Q1026","updated":"2026-02-27T20:26:20Z"}
