{"icao":"LPOV","metar":"LPOV 261900Z 34009KT CAVOK 17/14 Q1017","updated":"2026-04-26T22:36:21Z"}
