{"icao":"LPPT","metar":"LPPT 161230Z 28009KT 250V310 9999 BKN025 16/10 Q1032","updated":"2026-02-16T13:00:40Z"}
