{"icao":"LPLA","metar":"LPLA 180100Z 31019KT 9000 SCT008 SCT018 BKN020 15/13 Q1019","updated":"2025-12-18T01:25:26Z"}
