{"icao":"LPPR","metar":"LPPR 132300Z 18020KT 9999 -RA FEW020TCU BKN027 15/13 Q0995","updated":"2025-11-13T23:17:40Z"}
