{"icao":"LPLA","metar":"LPLA 172200Z 22010KT 9999 FEW007 SCT035 18/16 Q1022","updated":"2026-05-17T22:52:09Z"}
