{"icao":"LPPS","metar":"LPPS 201300Z 09016KT 050V110 9999 -SHRA SCT015 FEW018CB 19/14 Q1021","updated":"2025-11-20T13:29:16Z"}
