{"icao":"LPAZ","metar":"LPAZ 291230Z 25012KT 9000 -SHRA FEW010 SCT015 BKN018 16/15 Q1017","updated":"2026-01-29T12:55:10Z"}
