{"icao":"LPMR","metar":"LPMR 260100Z 34002KT 9999 FEW035 14/13 Q1016","updated":"2025-10-26T01:26:11Z"}
