{"icao":"LPPS","metar":"LPPS 200600Z 06005KT 030V090 9999 FEW015 17/12 Q1018","updated":"2025-11-20T06:27:43Z"}
