{"icao":"KJFK","metar":"KJFK 020751Z 08005KT 10SM BKN042 BKN250 01/M06 A3020 RMK AO2 SLP225 T00111056 $","updated":"2025-12-02T08:28:30Z"}
