{"icao":"KLAX","metar":"KLAX 142037Z 25007KT 10SM FEW015 SCT029 21/12 A3002 RMK AO2 S T02060117","updated":"2026-05-14T20:40:22Z"}
