{"icao":"LPFL","metar":"LPFL 121800Z 34008KT 300V020 9999 FEW033 18/10 Q1019","updated":"2025-10-12T18:22:03Z"}
