{"icao":"KJFK","metar":"KJFK 111851Z 20010G20KT 10SM FEW009 SCT060 BKN090 BKN130 BKN250 10/08 A2984 RMK AO2 SLP105 T01000078","updated":"2026-03-11T19:40:26Z"}
