{"icao":"LPPR","metar":"LPPR 271800Z 15017KT 5000 -RA BR SCT011 BKN013 OVC020 18/17 Q1009","updated":"2025-09-27T18:21:49Z"}
