{"icao":"LPPR","metar":"LPPR 140700Z 19004KT 150V270 8000 FEW002 BKN012 11/10 Q1016","updated":"2026-01-14T07:23:51Z"}
