{"icao":"KJFK","metar":"KJFK 100551Z 07004KT 10SM FEW250 04/04 A3003 RMK AO2 SLP169 T00440039 10106 20044 51002 $","updated":"2026-03-10T06:48:11Z"}
