{"icao":"LPPR","metar":"LPPR 282130Z 35006KT CAVOK 18/16 Q1023","updated":"2026-06-28T22:00:19Z"}
