{"icao":"LPHR","metar":"LPHR 131100Z 26008KT 230V290 9999 SCT035 20/12 Q1017","updated":"2025-10-13T11:15:28Z"}
