{"icao":"LPPR","metar":"LPPR 261630Z 35004KT 290V050 CAVOK 30/11 Q1020","updated":"2026-05-26T16:40:58Z"}
