{"icao":"LPPR","metar":"LPPR 031700Z 33011KT 9999 BKN005 BKN007 17/16 Q1023","updated":"2025-10-03T17:14:22Z"}
