{"icao":"LPPR","metar":"LPPR 210130Z 19019KT 4000 -RA BR BKN004 BKN011 13/12 Q1008","updated":"2026-01-21T01:44:24Z"}
