{"icao":"LPHR","metar":"LPHR 251500Z 24027G37KT 9000 SCT012 BKN050 18/16 Q1010","updated":"2026-01-25T15:19:24Z"}
