{"icao":"LPAZ","metar":"LPAZ 052330Z 10005KT 9999 FEW026 BKN037 12/05 Q1035","updated":"2026-03-05T23:50:09Z"}
