{"icao":"LPMA","metar":"LPMA 221500Z 05003KT 030V090 9999 SCT012 SCT030 19/15 Q1017","updated":"2026-01-22T15:29:42Z"}
