{"icao":"LPOV","metar":"LPOV 091700Z 09003KT 360V120 9999 SCT014 FEW018CB BKN040 09/08 Q1019 RESHRA","updated":"2026-03-09T17:53:25Z"}
