{"icao":"LPFL","metar":"LPFL 210900Z 19003KT 130V230 9999 FEW025 17/10 Q1032","updated":"2025-11-21T09:19:33Z"}
