{"icao":"LPHR","metar":"LPHR 281400Z 20007KT 9999 FEW035 17/08 Q1028","updated":"2025-11-28T14:19:02Z"}
