{"icao":"LPLA","metar":"LPLA 231600Z 01005KT 270V080 9999 BKN030 15/08 Q1025","updated":"2026-03-23T17:02:28Z"}
