{"icao":"LPMT","metar":"LPMT 162100Z 31005KT 270V330 9999 SCT016 BKN025 14/11 Q1031","updated":"2026-02-16T21:27:46Z"}
