{"icao":"LPOV","metar":"LPOV 151000Z 26008KT 330V050 9999 FEW040 23/17 Q1023","updated":"2025-09-15T10:18:30Z"}
