{"icao":"LPAZ","metar":"LPAZ 221200Z 08007KT 050V110 9999 SCT022 19/14 Q1032","updated":"2025-11-22T12:33:27Z"}
