{"icao":"LPPT","metar":"LPPT 201230Z 29006KT 190V340 9999 SCT028 22/14 Q1015","updated":"2025-10-20T12:38:08Z"}
