{"icao":"LPAZ","metar":"LPAZ 221100Z 03013G23KT 360V070 9999 SCT016 BKN038 16/12 Q1018","updated":"2026-03-22T11:22:12Z"}
