{"icao":"LPMA","metar":"LPMA 160500Z 35010KT 270V020 9999 -SHRA BKN015 17/11 Q1023","updated":"2025-12-16T05:21:24Z"}
