{"icao":"LPMT","metar":"LPMT 260100Z 35005KT 320V020 CAVOK 17/12 Q1015","updated":"2026-04-26T02:37:39Z"}
