{"icao":"LPHR","metar":"LPHR 051230Z 31023G43KT 280V340 9999 SCT014 FEW018CB 10/06 Q1006","updated":"2026-02-05T12:59:48Z"}
