{"icao":"LPMA","metar":"LPMA 221600Z 05005KT 010V090 9999 FEW013 24/20 Q1020","updated":"2025-10-22T16:24:28Z"}
