{"icao":"KORD","metar":"KORD 220751Z 22015G21KT 10SM FEW170 BKN190 20/09 A2955 RMK AO2 SLP002 T02000094","updated":"2026-03-22T08:33:28Z"}
