{"icao":"LPLA","metar":"LPLA 151800Z 23015G26KT 200V270 9999 FEW020 18/11 Q1026","updated":"2026-02-15T18:35:27Z"}
