{"icao":"LPAZ","metar":"LPAZ 271900Z 35020KT 9999 FEW011 BKN018 FEW028TCU 17/16 Q1011","updated":"2025-10-27T19:14:12Z"}
