{"icao":"KORD","metar":"KORD 071051Z 26006KT 8SM OVC005 02/01 A2983 RMK AO2 SLP107 T00220011","updated":"2026-01-07T11:19:30Z"}
