{"icao":"LPCS","metar":"LPCS 190900Z 34009KT 9999 FEW018 10/08 Q1021","updated":"2026-01-19T09:32:53Z"}
