{"icao":"KLAX","metar":"KLAX 231414Z 07003KT 10SM FEW010 BKN014 15/12 A3005 RMK AO2 T01500122","updated":"2025-10-23T14:18:58Z"}
