{"icao":"KORD","metar":"KORD 022051Z 26012G18KT 6SM HZ OVC009 M08/M10 A3000 RMK AO2 SLP169 T10781100 55003","updated":"2025-12-02T21:19:02Z"}
