{"icao":"LPBJ","metar":"LPBJ 041000Z 33007KT 300V010 9999 FEW011 SCT015 17/13 Q1024","updated":"2025-10-04T10:15:46Z"}
