{"icao":"LPMT","metar":"LPMT 251700Z 27009KT 7000 SCT006 SCT012 BKN020 14/14 Q1014","updated":"2026-01-25T17:16:51Z"}
