{"icao":"KORD","metar":"KORD 060651Z 21007KT 8SM OVC014 M02/M04 A2968 RMK AO2 SLP060 T10171044 $","updated":"2026-02-06T07:46:26Z"}
