{"icao":"LPPT","metar":"LPPT 270330Z 02003KT CAVOK 20/14 Q1019","updated":"2026-05-27T03:39:19Z"}
