{"icao":"LPMT","metar":"LPMT 290900Z 03013KT CAVOK 14/03 Q1029","updated":"2026-03-29T09:35:15Z"}
