{"icao":"LPST","metar":"LPST 231500Z 17012KT CAVOK 20/06 Q1022","updated":"2026-02-23T15:43:58Z"}
