{"icao":"LPPT","metar":"LPPT 201330Z 34008KT 300V010 CAVOK 31/13 Q1015","updated":"2026-06-20T13:59:28Z"}
