{"icao":"LPPD","metar":"LPPD 192100Z 26009KT 4000 BR SCT002 BKN004 22/22 Q1017","updated":"2025-10-19T21:14:36Z"}
