{"icao":"LPFL","metar":"LPFL 271300Z 15015KT 4500 -RA SCT005 BKN007 15/14 Q1017 RERA","updated":"2025-12-27T13:27:10Z"}
