{"icao":"KLAX","metar":"KLAX 022053Z 24012G19KT 10SM FEW010 SCT160 SCT250 20/12 A2997 RMK AO2 SLP147 T02000117 58014 $","updated":"2026-04-02T21:36:31Z"}
