{"icao":"LPLA","metar":"LPLA 030300Z 22007KT 180V260 9999 FEW016 BKN024 23/20 Q1020","updated":"2025-10-03T03:27:38Z"}
