{"icao":"LPPR","metar":"LPPR 131400Z 22009KT 190V260 9999 VCSH FEW011 SCT020 FEW023TCU 14/12 Q1007","updated":"2026-01-13T14:24:17Z"}
