{"icao":"LPOV","metar":"LPOV 022200Z VRB02KT CAVOK 12/11 Q1025","updated":"2025-11-02T22:15:22Z"}
