{"icao":"LPLA","metar":"LPLA 051600Z 20011G23KT 160V230 9999 FEW025 19/11 Q1015","updated":"2025-11-05T16:24:24Z"}
