{"icao":"LPHR","metar":"LPHR 261500Z 26010KT 9999 FEW020 20/14 Q1025","updated":"2026-06-26T15:22:18Z"}
