{"icao":"LPMA","metar":"LPMA 041530Z 01012KT 330V050 9999 -SHRA BKN015 FEW016CB 16/11 Q1021","updated":"2026-03-04T15:39:26Z"}
