{"icao":"LPFL","metar":"LPFL 191230Z 19004KT 120V290 9999 FEW018 17/11 Q1017","updated":"2026-02-19T13:02:52Z"}
