{"icao":"LPPD","metar":"LPPD 091530Z 11009KT 9999 FEW027 SCT035 15/07 Q1034","updated":"2026-03-09T15:57:11Z"}
