{"icao":"KLAX","metar":"KLAX 160653Z 08005KT 10SM FEW020 FEW050 SCT100 OVC250 13/09 A2992 RMK AO2 SLP131 T01330089","updated":"2026-02-16T07:53:43Z"}
