{"icao":"LPMT","metar":"LPMT 032100Z 34009KT CAVOK 17/14 Q1023","updated":"2025-10-03T21:14:10Z"}
