{"icao":"KJFK","metar":"KJFK 011151Z 33013KT 10SM FEW120 11/00 A2992 RMK SLP132 T01060000 10117 20083 51014 ","updated":"2026-05-01T11:58:29Z"}
