{"icao":"LPLA","metar":"LPLA 051207Z 14013KT 7000 -SHRA SCT018 FEW020TCU BKN030 22/19 Q1024","updated":"2025-10-05T12:32:13Z"}
