{"icao":"LPPT","metar":"LPPT 070830Z 26010KT 240V300 9999 VCSH SCT008 BKN016 13/13 Q1011 RESHRA","updated":"2026-04-07T09:00:36Z"}
