{"icao":"LPPD","metar":"LPPD 101530Z 27019KT 9999 FEW025 17/13 Q1029","updated":"2026-04-10T15:52:04Z"}
