{"icao":"LPPR","metar":"LPPR 190700Z 02008KT 340V050 9999 FEW025 07/04 Q1018","updated":"2025-11-19T07:18:34Z"}
