{"icao":"LPOV","metar":"LPOV 262000Z 34003KT CAVOK 25/11 Q1019","updated":"2026-05-27T03:39:21Z"}
