{"icao":"LPBJ","metar":"LPBJ 192300Z 14012KT 9999 -RA FEW035 13/12 Q1008","updated":"2026-03-19T23:28:19Z"}
