{"icao":"KLAX","metar":"KLAX 112253Z 25009KT 10SM FEW010 18/13 A3020 RMK AO2 SLP227 T01830128 $","updated":"2026-03-11T23:24:27Z"}
