{"icao":"LPAZ","metar":"LPAZ 111230Z 31023KT 9999 FEW030 SCT042 19/12 Q1006","updated":"2025-11-11T12:38:29Z"}
