{"icao":"LPPS","metar":"LPPS 152000Z 06012KT 030V090 9999 SCT015 SCT030 23/17 Q1022","updated":"2025-09-15T20:18:42Z"}
