{"icao":"LPLA","metar":"LPLA 030600Z 27020G33KT 9999 FEW020 SCT035 19/15 Q1004","updated":"2026-02-03T06:50:10Z"}
