{"icao":"KJFK","metar":"KJFK 020751Z 32004KT 10SM SCT250 08/01 A3020 RMK AO2 SLP227 T00780011 $","updated":"2025-11-02T08:20:23Z"}
