{"icao":"LPMT","metar":"LPMT 062100Z 18003KT CAVOK 19/17 Q1020","updated":"2025-10-06T21:14:54Z"}
