{"icao":"LPMA","metar":"LPMA 232200Z 32012KT 260V010 9999 SCT015 16/05 Q1022","updated":"2026-01-23T22:17:48Z"}
