{"icao":"LPBJ","metar":"LPBJ 211100Z 14012KT 110V170 9999 SCT015 BKN030 15/12 Q1009","updated":"2026-03-21T11:21:24Z"}
