{"icao":"LPLA","metar":"LPLA 272200Z 28034G52KT 9999 FEW016 BKN020 19/15 Q1001","updated":"2026-01-27T22:21:42Z"}
