{"icao":"LPMR","metar":"LPMR 271900Z 29007KT 9999 FEW012 22/17 Q1021","updated":"2026-06-27T19:18:08Z"}
