{"icao":"LPFL","metar":"LPFL 051730Z 17006KT 130V210 9999 FEW025 18/13 Q1025","updated":"2026-06-05T17:52:56Z"}
