{"icao":"LPPR","metar":"LPPR 210700Z 24004KT 190V270 3500 -DZRA BR FEW000 BKN001 18/18 Q1011","updated":"2025-10-21T07:18:28Z"}
