{"icao":"KJFK","metar":"KJFK 160851Z 34010KT 10SM BKN160 10/01 A2996 RMK AO2 SLP146 T01000011 56005","updated":"2025-10-16T09:20:01Z"}
