{"icao":"LPFL","metar":"LPFL 200730Z 17010KT 9999 FEW014 15/13 Q1014","updated":"2026-02-20T07:47:40Z"}
