{"icao":"LPLA","metar":"LPLA 090200Z 16021KT 9000 -RA FEW009 BKN018 FEW020CB 22/21 Q1021","updated":"2025-10-09T02:58:24Z"}
