{"icao":"LPFR","metar":"LPFR 231430Z 11010KT CAVOK 18/10 Q1023","updated":"2026-02-23T14:43:46Z"}
