{"icao":"KORD","metar":"KORD 210951Z 23007KT 10SM CLR 09/07 A2974 RMK AO2 SLP071 T00890067 $","updated":"2025-10-21T10:19:13Z"}
