{"icao":"LPMT","metar":"LPMT 151300Z 26004KT 230V300 CAVOK 25/13 Q1016","updated":"2025-10-15T13:30:45Z"}
