{"icao":"LPFL","metar":"LPFL 271430Z 02007KT 350V050 9999 FEW010 BKN013 15/12 Q1032","updated":"2026-03-27T14:48:52Z"}
