{"icao":"LPAZ","metar":"LPAZ 151600Z 20011KT 9999 FEW018 24/19 Q1009","updated":"2025-10-15T16:19:25Z"}
