{"icao":"LPFR","metar":"LPFR 280330Z 07005KT 040V180 9999 -SHRA FEW012 FEW025CB SCT048 10/08 Q1007","updated":"2025-12-28T03:46:30Z"}
