{"icao":"LPCS","metar":"LPCS 051200Z 35010KT 320V020 9999 FEW012 22/14 Q1020","updated":"2025-10-05T12:31:58Z"}
