{"icao":"LPBJ","metar":"LPBJ 090600Z 24007KT 9999 SCT002 BKN018 OVC030 11/11 Q1028","updated":"2026-01-09T06:32:46Z"}
