{"icao":"LPHR","metar":"LPHR 011300Z 05006KT 350V110 9999 BKN045 18/08 Q1022","updated":"2025-11-01T13:22:45Z"}
