{"icao":"LPPT","metar":"LPPT 260230Z 32010KT CAVOK 15/13 Q1015","updated":"2026-04-26T02:37:34Z"}
