{"icao":"LPFL","metar":"LPFL 061300Z 29014G26KT 230V350 9999 FEW025 19/12 Q1012","updated":"2025-11-06T13:31:20Z"}
