{"icao":"LPFL","metar":"LPFL 151000Z 32007KT 260V010 9999 FEW018 BKN036 14/06 Q1028","updated":"2026-01-15T10:23:25Z"}
