{"icao":"LPPD","metar":"LPPD 101500Z 21014KT 9999 FEW009 SCT035 18/16 Q1023","updated":"2026-01-10T15:18:25Z"}
