{"icao":"LPPR","metar":"LPPR 211930Z 34003KT 320V030 CAVOK 23/11 Q1020","updated":"2026-05-21T19:55:56Z"}
