{"icao":"LPMR","metar":"LPMR 102300Z 34020KT 8000 FEW008 SCT022 15/14 Q1013","updated":"2026-04-10T23:33:26Z"}
