{"icao":"LPPS","metar":"LPPS 301300Z 02013KT 9999 SCT015 19/14 Q1022","updated":"2025-11-30T13:25:12Z"}
