{"icao":"KJFK","metar":"KJFK 222351Z 11007KT 10SM FEW070 BKN180 BKN250 13/06 A3038 RMK AO2 SLP286 T01330056 10183 20133 51009","updated":"2026-05-23T00:05:24Z"}
