{"icao":"LPMA","metar":"LPMA 182000Z 35006KT 310V020 9999 FEW015 19/12 Q1021","updated":"2025-11-18T20:22:27Z"}
