{"icao":"LPPR","metar":"LPPR 201830Z 34006KT CAVOK 11/06 Q1030","updated":"2026-02-20T18:44:59Z"}
