{"icao":"LPMT","metar":"LPMT 031300Z 36013KT CAVOK 27/15 Q1021","updated":"2026-06-03T13:20:32Z"}
