{"icao":"LPST","metar":"LPST 041200Z 15013KT 9999 FEW018 19/14 Q1016","updated":"2025-11-04T12:40:49Z"}
