{"icao":"LPFR","metar":"LPFR 090430Z 35004KT 9999 FEW002 SCT016 BKN025 11/10 Q1030","updated":"2026-01-09T04:38:55Z"}
