{"icao":"KLAX","metar":"KLAX 071153Z 09003KT 10SM FEW250 13/11 A3014 RMK AO2 SLP205 T01280111 10156 20122 57009 $","updated":"2026-02-07T12:45:41Z"}
