{"icao":"LPOV","metar":"LPOV 261200Z 03007KT 360V060 CAVOK 14/07 Q1027","updated":"2025-11-26T12:40:30Z"}
