{"icao":"LPPD","metar":"LPPD 190800Z 21016KT 1200 R30/1400U -DZ BR VV002 17/16 Q1017","updated":"2026-05-19T08:33:55Z"}
