{"icao":"LPPR","metar":"LPPR 311230Z 13007KT 090V160 CAVOK 13/06 Q1019","updated":"2025-12-31T12:40:32Z"}
