{"icao":"LPMA","metar":"LPMA 071330Z 03013KT 360V070 9999 SCT015 17/09 Q1033","updated":"2026-01-07T13:38:53Z"}
