{"icao":"LPLA","metar":"LPLA 170300Z 29012KT 9999 BKN030 14/09 Q1032","updated":"2026-01-17T03:21:22Z"}
