{"icao":"LPMT","metar":"LPMT 051400Z 36005KT CAVOK 25/14 Q1019","updated":"2026-04-05T14:34:08Z"}
