{"icao":"LPPR","metar":"LPPR 010800Z 36007KT CAVOK 24/16 Q1021","updated":"2026-07-01T08:11:01Z"}
