{"icao":"KORD","metar":"KORD 121951Z 26007G18KT 10SM FEW045 SCT250 07/M06 A3010 RMK AO2 SLP199 T00671056 $","updated":"2026-03-12T20:33:42Z"}
