{"icao":"LPCS","metar":"LPCS 051230Z 24014KT 210V270 9999 FEW016 SCT040 19/15 Q1009","updated":"2025-11-05T12:38:29Z"}
