{"icao":"LPPR","metar":"LPPR 060830Z 20010KT 6000 -SHRA FEW025CB BKN040 10/07 Q0999","updated":"2026-02-06T08:39:38Z"}
