{"icao":"LPPD","metar":"LPPD 210430Z 28014KT 9999 FEW004 BKN007 16/15 Q1022","updated":"2026-01-21T04:42:40Z"}
