{"icao":"KJFK","metar":"KJFK 240451Z 22006KT 10SM FEW045 SCT065 SCT170 BKN250 22/19 A2999 RMK AO2 SLP156 T02220189 402560183 $","updated":"2025-09-24T05:17:31Z"}
