{"icao":"LPMR","metar":"LPMR 262200Z 18021KT 8000 -RA SCT014 BKN025 14/12 Q1002 RERA","updated":"2026-01-26T22:20:41Z"}
