{"icao":"LPPR","metar":"LPPR 220400Z 36005KT CAVOK 09/07 Q1022","updated":"2025-09-22T04:20:46Z"}
