{"icao":"KLAX","metar":"KLAX 072153Z 26010KT 10SM FEW300 19/08 A3011 RMK AO2 SLP197 T01940083 $","updated":"2025-12-07T22:17:13Z"}
