{"icao":"KJFK","metar":"KJFK 202051Z 23010KT 10SM FEW110 BKN250 02/M06 A3016 RMK AO2 SLP213 T00221061 58004 $","updated":"2025-12-20T21:15:49Z"}
