{"icao":"LPPR","metar":"LPPR 202200Z 36003KT 340V040 CAVOK 14/12 Q1021","updated":"2025-09-20T22:14:31Z"}
