{"icao":"LPFR","metar":"LPFR 290900Z 33003KT 270V360 CAVOK 11/09 Q1020","updated":"2025-11-29T09:18:12Z"}
