{"icao":"KLAX","metar":"KLAX 170653Z 00000KT 10SM FEW014 FEW250 16/13 A2990 RMK AO2 SLP123 T01610133","updated":"2026-04-17T07:44:30Z"}
