{"icao":"LPLA","metar":"LPLA 031600Z 09005KT 050V140 9999 FEW025 18/13 Q1025","updated":"2026-03-03T16:45:04Z"}
