{"icao":"KJFK","metar":"KJFK 301651Z 23004KT 10SM OVC011 11/09 A2974 RMK SLP071 CIG 009V013 T01110089 ","updated":"2026-04-30T17:19:13Z"}
