{"icao":"LPMA","metar":"LPMA 100600Z 36008KT 320V040 9999 SCT015 SCT030 21/16 Q1022","updated":"2025-10-10T06:27:34Z"}
