{"icao":"LPFR","metar":"LPFR 230330Z 30011KT 9999 SCT020 13/10 Q1006","updated":"2026-01-23T03:40:55Z"}
