{"icao":"LPFR","metar":"LPFR 121030Z 33019KT 300V010 CAVOK 18/02 Q1017","updated":"2026-04-12T10:36:53Z"}
