{"icao":"KORD","metar":"KORD 201451Z 20005KT 3SM BR BKN008 OVC022 07/05 A3009 RMK AO2 SLP193 60000 T00670050 56007","updated":"2025-11-20T15:20:14Z"}
