{"icao":"LPPS","metar":"LPPS 021800Z 14006KT 9999 FEW015 22/19 Q1023","updated":"2025-11-02T18:21:51Z"}
