{"icao":"LPFR","metar":"LPFR 152030Z VRB02KT CAVOK 17/14 Q1021","updated":"2026-04-15T20:45:47Z"}
