{"icao":"LPMR","metar":"LPMR 230600Z 33006KT 290V350 9999 BKN004 BKN015 19/18 Q1019 REDZ","updated":"2025-10-23T06:27:17Z"}
