{"icao":"KORD","metar":"KORD 080651Z 31006KT 10SM FEW085 12/06 A3024 RMK AO2 SLP240 T01220056 $","updated":"2025-10-08T07:17:08Z"}
