{"icao":"LPCS","metar":"LPCS 311930Z 36024G34KT 9999 FEW013 20/13 Q1018 WS R35","updated":"2026-05-31T19:37:28Z"}
