{"icao":"LPPT","metar":"LPPT 201300Z 22011KT 8000 -RA SCT006 SCT022 BKN028 13/12 Q1016 RERA","updated":"2025-12-20T13:26:25Z"}
