{"icao":"LPHR","metar":"LPHR 221000Z 20012KT 9999 FEW008 SCT067 17/16 Q1021","updated":"2026-02-22T10:23:30Z"}
