{"icao":"LPBJ","metar":"LPBJ 051400Z 31013G26KT 270V350 CAVOK 19/06 Q1016","updated":"2026-05-05T14:18:37Z"}
