{"icao":"LPBJ","metar":"LPBJ 260800Z 29006KT 8000 VCFG NSC 03/02 Q1014","updated":"2025-12-26T08:26:34Z"}
