{"icao":"KJFK","metar":"KJFK 030451Z 31010KT 10SM SCT055 M03/M15 A2988 RMK AO2 SLP118 T10331150 410111061 $","updated":"2026-01-03T05:21:01Z"}
