{"icao":"LPMR","metar":"LPMR 101300Z 23007KT 200V270 8000 FEW010 BKN020 19/14 Q1018","updated":"2025-11-10T14:18:46Z"}
