{"icao":"LPAZ","metar":"LPAZ 301300Z 28011KT 9999 BKN025 SCT042 20/16 Q1010","updated":"2025-10-30T13:29:34Z"}
