{"icao":"KLAX","metar":"KLAX 151253Z 01004KT 10SM FEW012 FEW035 SCT050 13/11 A3000 RMK AO2 SLP157 T01280106 $","updated":"2025-10-15T13:30:47Z"}
