{"icao":"LPMT","metar":"LPMT 270900Z 05003KT 360V100 CAVOK 08/07 Q1025","updated":"2025-11-27T09:21:07Z"}
