{"icao":"LPCS","metar":"LPCS 241900Z 27005KT 230V300 9999 SCT005 BKN020 20/19 Q1017","updated":"2025-10-24T19:14:23Z"}
