{"icao":"LPPR","metar":"LPPR 221330Z 28005KT CAVOK 17/10 Q1028","updated":"2026-02-22T13:42:04Z"}
