{"icao":"LPHR","metar":"LPHR 211100Z 06009KT 9999 FEW016 SCT040 17/12 Q1032","updated":"2025-11-21T11:15:50Z"}
