{"icao":"KJFK","metar":"KJFK 010051Z 27023G32KT 10SM FEW060 13/00 A2957 RMK AO2 PK WND 27033/0041 SLP013 T01280000 $","updated":"2025-11-01T01:26:40Z"}
