{"icao":"LPPS","metar":"LPPS 312200Z 22010KT 9999 FEW015 22/16 Q1015","updated":"2025-10-31T22:17:09Z"}
