{"icao":"KJFK","metar":"KJFK 150551Z 01005KT 10SM BKN022 OVC043 15/13 A3002 RMK AO2 DZE16 SLP164 P0000 60000 T01500128 10161 20144 58010","updated":"2025-10-15T06:27:34Z"}
