{"icao":"LPCS","metar":"LPCS 261500Z 21014KT 9000 FEW004 BKN010 15/15 Q1011","updated":"2026-01-26T15:27:47Z"}
