{"icao":"KORD","metar":"KORD 171051Z 19006KT 10SM SCT080 BKN250 14/06 A2999 RMK AO2 SLP156 T01390061 $","updated":"2025-10-17T11:15:01Z"}
