{"icao":"LPPR","metar":"LPPR 070330Z 35007KT CAVOK 06/03 Q1019","updated":"2026-03-07T03:59:46Z"}
