{"icao":"KLAX","metar":"KLAX 030653Z VRB05KT 7SM FEW007 SCT011 BKN200 16/14 A3004 RMK AO2 SLP170 T01560139 $","updated":"2025-11-03T07:18:28Z"}
