{"icao":"LPAZ","metar":"LPAZ 051030Z 07012KT 020V100 9999 FEW022 BKN038 13/05 Q1035","updated":"2026-03-05T10:37:36Z"}
