{"icao":"LPBJ","metar":"LPBJ 251500Z 22016KT 9999 FEW025 FEW030TCU SCT035 24/18 Q1017","updated":"2026-06-25T15:38:31Z"}
