{"icao":"LPLA","metar":"LPLA 241300Z 19020G30KT 6000 -RA SCT008 BKN016 FEW020TCU 16/15 Q1010","updated":"2026-04-24T13:22:58Z"}
