{"icao":"KJFK","metar":"KJFK 311251Z 26015KT 10SM FEW043 BKN150 BKN220 M02/M11 A2987 RMK AO2 SLP113 T10221106 $","updated":"2025-12-31T13:31:51Z"}
