{"icao":"LPPT","metar":"LPPT 112200Z 31005KT CAVOK 22/11 Q1018","updated":"2025-10-11T22:14:34Z"}
