{"icao":"KLAX","metar":"KLAX 030153Z 23008KT 10SM BKN012 BKN220 16/13 A2985 RMK AO2 SLP108 T01610128","updated":"2026-05-03T02:47:52Z"}
