{"icao":"LPLA","metar":"LPLA 100500Z 21005KT 180V250 9999 FEW017 17/13 Q1020","updated":"2025-11-10T05:18:57Z"}
