{"icao":"LPPR","metar":"LPPR 201500Z 27007KT 230V320 9999 FEW015 BKN038 13/07 Q1012","updated":"2025-12-20T15:17:29Z"}
