{"icao":"KJFK","metar":"KJFK 131351Z 23010KT 10SM BKN250 03/M08 A3018 RMK AO2 SLP220 T00281083 $","updated":"2026-03-13T14:00:33Z"}
