{"icao":"KORD","metar":"KORD 240651Z 02009KT 10SM FEW018 BKN034 BKN250 19/16 A2999 RMK AO2 SLP152 T01890161","updated":"2025-09-24T07:17:15Z"}
