{"icao":"LPMA","metar":"LPMA 072200Z 02013KT 350V060 9999 SCT015 22/18 Q1026","updated":"2025-10-07T22:16:36Z"}
