{"icao":"KORD","metar":"KORD 261851Z 06011KT 10SM FEW019 SCT250 13/08 A3005 RMK AO2 SLP179 T01330078 $","updated":"2026-04-26T19:45:04Z"}
