{"icao":"LPPS","metar":"LPPS 240130Z 31021KT 9999 FEW015 15/09 Q1023","updated":"2026-01-24T01:39:01Z"}
