{"icao":"KLAX","metar":"KLAX 050453Z 02003KT 10SM FEW250 22/01 A3008 RMK AO2 SLP184 T02220011 $","updated":"2026-02-05T05:54:20Z"}
