{"icao":"KORD","metar":"KORD 171512Z 18005KT 4SM RA BR FEW070 OVC100 15/12 A2965 RMK AO2 P0006 T01500122","updated":"2026-06-17T15:24:52Z"}
