{"icao":"LPCS","metar":"LPCS 300830Z 23010KT 8000 -DZ FEW004 BKN010 14/14 Q1013","updated":"2026-01-30T08:37:12Z"}
