{"icao":"LPMR","metar":"LPMR 120100Z 14004KT 6000 SCT006 SCT045 12/11 Q1015","updated":"2025-12-12T01:28:28Z"}
