{"icao":"LPHR","metar":"LPHR 161800Z 27006KT 9999 FEW020 22/17 Q1008","updated":"2025-10-16T18:25:49Z"}
