{"icao":"LPPS","metar":"LPPS 052000Z 33009KT 9999 SCT014 SCT033 21/12 Q1020","updated":"2025-11-05T20:21:21Z"}
