{"icao":"LPMT","metar":"LPMT 290800Z 34004KT 310V010 CAVOK 18/15 Q1016","updated":"2025-09-29T08:25:52Z"}
