{"icao":"LPOV","metar":"LPOV 061500Z 20010KT 3000 -DZ BR SCT015 OVC027 17/15 Q1021","updated":"2025-12-06T15:17:08Z"}
