{"icao":"LPBJ","metar":"LPBJ 151900Z 24007KT CAVOK 24/11 Q1016","updated":"2025-10-15T19:13:58Z"}
