{"icao":"LPFR","metar":"LPFR 112200Z 31006KT 260V020 CAVOK 14/07 Q1014","updated":"2026-04-11T22:30:41Z"}
