{"icao":"LPPD","metar":"LPPD 281900Z 26010KT 0800 SHRA FG VV002 16/15 Q1029","updated":"2026-02-28T19:19:29Z"}
