{"icao":"LPCS","metar":"LPCS 021800Z 34007KT 9999 FEW020 16/12 Q1025","updated":"2025-11-02T18:21:48Z"}
