{"icao":"LPFR","metar":"LPFR 210730Z 08011G21KT CAVOK 23/09 Q1020","updated":"2026-05-21T07:50:09Z"}
