{"icao":"LPPD","metar":"LPPD 201500Z 23011KT 9000 SCT005 BKN010 23/22 Q1016","updated":"2025-10-20T15:18:06Z"}
