{"icao":"LPFR","metar":"LPFR 042230Z 30011KT CAVOK 15/09 Q1017","updated":"2026-05-04T23:01:19Z"}
