{"icao":"KJFK","metar":"KJFK 151051Z 04006KT 7SM FEW011 FEW110 BKN250 18/17 A3019 RMK AO2 SLP221 T01830172 $","updated":"2025-09-15T11:14:31Z"}
