{"icao":"KLAX","metar":"KLAX 140253Z 27009KT 10SM FEW015 FEW250 16/12 A3002 RMK AO2 SLP164 T01610117 56006","updated":"2026-05-14T03:39:12Z"}
