{"icao":"LPLA","metar":"LPLA 221000Z 33004KT 290V360 9999 FEW007 SCT015 BKN035 19/17 Q1017","updated":"2026-05-22T10:48:52Z"}
