{"icao":"LPMT","metar":"LPMT 261100Z 03006KT 350V070 9999 FEW008 15/12 Q1025","updated":"2026-02-26T11:38:42Z"}
