{"icao":"KJFK","metar":"KJFK 010551Z 10004KT 4SM BR FEW250 02/02 A3002 RMK AO2 SLP166 4/005 T00170017 10061 20017 56009 $","updated":"2026-03-01T06:43:45Z"}
