{"icao":"LPBJ","metar":"LPBJ 041300Z 31006KT 240V360 CAVOK 24/13 Q1022","updated":"2025-10-04T13:19:53Z"}
