{"icao":"LPPR","metar":"LPPR 212000Z 30004KT 230V330 0600 R17/P2000 FG SCT001 OVC003 17/17 Q1019","updated":"2026-06-21T20:23:35Z"}
