{"icao":"LPHR","metar":"LPHR 161030Z 18017KT 9999 SCT012 BKN040 16/14 Q1025","updated":"2026-02-16T10:49:28Z"}
