{"icao":"KORD","metar":"KORD 162051Z 29008G19KT 10SM FEW250 09/M11 A2991 RMK AO2 SLP133 T00891106 55000 $","updated":"2025-11-16T21:15:37Z"}
