{"icao":"KORD","metar":"KORD 070851Z 36014KT 10SM CLR M10/M18 A3031 RMK AO2 SLP274 T11001183 51021 $","updated":"2026-02-07T09:30:04Z"}
