{"icao":"LPPD","metar":"LPPD 061000Z 20008KT 9999 FEW009 FEW018CB 22/20 Q1020","updated":"2025-10-06T10:20:02Z"}
