{"icao":"KJFK","metar":"KJFK 100251Z 20005KT 9SM OVC019 07/07 A3008 RMK AO2 SLP187 60000 T00720067 53004 $","updated":"2026-01-10T03:22:35Z"}
