{"icao":"LPPR","metar":"LPPR 052100Z 24009KT 9999 FEW018 FEW020CB BKN040 12/10 Q0996","updated":"2026-02-05T21:27:22Z"}
