{"icao":"LPOV","metar":"LPOV 281600Z 06003KT 360V130 9999 FEW025 16/06 Q1014","updated":"2025-12-28T16:23:04Z"}
