{"icao":"KJFK","metar":"KJFK 241251Z 05004KT 10SM BKN095 BKN160 BKN250 13/07 A2984 RMK SLP103 T01280067 $ ","updated":"2026-04-24T13:23:11Z"}
