{"icao":"LPPR","metar":"LPPR 081330Z 19011KT 3600 -DZRA BR SCT002 OVC003 12/12 Q1028","updated":"2026-01-08T13:39:19Z"}
