{"icao":"KLAX","metar":"KLAX 190153Z 27018G25KT 10SM FEW018 SCT043 SCT070 13/04 A2999 RMK AO2 SLP155 T01280039","updated":"2026-02-19T02:04:18Z"}
