{"icao":"LPPT","metar":"LPPT 092200Z 24004KT 220V290 CAVOK 14/13 Q1020","updated":"2025-11-09T22:15:41Z"}
