{"icao":"KORD","metar":"KORD 261651Z 28013KT 10SM FEW040 M16/M24 A3029 RMK AO2 SLP273 T11561244","updated":"2026-01-26T17:28:39Z"}
