{"icao":"KORD","metar":"KORD 130751Z 30015G26KT 10SM FEW130 BKN250 M07/M14 A3005 RMK AO2 PK WND 28026/0750 SLP187 T10721139","updated":"2025-12-13T08:24:09Z"}
