{"icao":"LPAZ","metar":"LPAZ 041900Z 14007KT 100V160 9999 FEW022 22/18 Q1027","updated":"2025-10-04T19:11:51Z"}
