{"icao":"LPMT","metar":"LPMT 261600Z 01014KT CAVOK 22/07 Q1013","updated":"2026-03-26T16:59:23Z"}
