{"icao":"LPBJ","metar":"LPBJ 060700Z 33008KT CAVOK 02/M02 Q1019","updated":"2026-01-06T07:24:32Z"}
