{"icao":"KORD","metar":"KORD 231451Z 27005KT 10SM FEW200 06/01 A3015 RMK AO2 SLP214 T00610011 53025","updated":"2025-11-23T15:16:51Z"}
