{"icao":"LPMT","metar":"LPMT 121200Z 08007KT 040V110 6000 -RA FEW009 BKN025 12/12 Q1013","updated":"2025-12-13T08:23:38Z"}
