{"icao":"KLAX","metar":"KLAX 051653Z 03007KT 10SM FEW100 SCT160 BKN200 22/M02 A3006 RMK AO2 SLP178 T02171022","updated":"2026-02-05T17:46:04Z"}
