{"icao":"LPFL","metar":"LPFL 161000Z 18011KT 130V240 9999 FEW016 17/12 Q1019","updated":"2026-03-16T10:05:40Z"}
