{"icao":"LPHR","metar":"LPHR 121800Z 16005KT 110V210 9999 SCT035 21/13 Q1018","updated":"2025-10-12T18:22:03Z"}
