{"icao":"LPAZ","metar":"LPAZ 152130Z 02003KT 340V050 9999 FEW027 BKN040 15/07 Q1031","updated":"2026-05-15T21:58:15Z"}
