{"icao":"LPMT","metar":"LPMT 011200Z 09007KT 040V110 9999 FEW010 SCT030 12/10 Q1011","updated":"2026-01-01T12:40:19Z"}
