{"icao":"LPLA","metar":"LPLA 291900Z 22016G28KT 170V260 9999 FEW025 20/14 Q1009","updated":"2025-10-29T19:14:10Z"}
