{"icao":"KJFK","metar":"KJFK 201651Z 24005KT 10SM FEW110 SCT240 02/M08 A3020 RMK AO2 SLP225 T00221078 $","updated":"2025-12-20T17:15:33Z"}
