{"icao":"LPBJ","metar":"LPBJ 171900Z 28009KT CAVOK 29/04 Q1019","updated":"2025-09-17T19:13:46Z"}
