{"icao":"LPMR","metar":"LPMR 161300Z 30006KT 9999 FEW016 SCT020 FEW022CB BKN040 12/07 Q1013","updated":"2026-01-16T13:36:52Z"}
