{"icao":"LPAR","metar":"LPAR 081300Z 35009KT 9999 BKN030 21/11 Q1021","updated":"2025-10-08T13:28:28Z"}
