{"icao":"LPBJ","metar":"LPBJ 031800Z 31012KT CAVOK 27/11 Q1021","updated":"2025-10-03T18:24:18Z"}
