{"icao":"LPPD","metar":"LPPD 172330Z 23005KT 9999 FEW004 BKN006 16/15 Q1024","updated":"2026-05-18T00:03:57Z"}
