{"icao":"LPFL","metar":"LPFL 201500Z 22014G31KT 160V290 9999 FEW006 SCT010 24/19 Q1010","updated":"2025-10-20T15:18:08Z"}
