{"icao":"LPHR","metar":"LPHR 101030Z 25008KT 220V320 9999 FEW014 SCT050 17/14 Q1030","updated":"2026-04-10T10:53:03Z"}
