{"icao":"LPHR","metar":"LPHR 261500Z 13007KT 9999 FEW008 BKN012 16/14 Q1023","updated":"2025-12-26T15:19:32Z"}
