{"icao":"KORD","metar":"KORD 031351Z 24005KT 10SM FEW070 22/14 A3021 RMK AO2 SLP227 T02170144","updated":"2025-10-03T14:16:47Z"}
