{"icao":"LPPR","metar":"LPPR 301900Z 33011KT CAVOK 18/14 Q1022","updated":"2026-05-30T19:12:30Z"}
