{"icao":"LPPT","metar":"LPPT 071700Z 26021G38KT 8000 -SHRA SCT025 FEW030CB 13/09 Q1004 WS R20","updated":"2026-02-07T17:24:13Z"}
