{"icao":"KORD","metar":"KORD 141851Z 07005KT 10SM FEW300 18/M01 A3007 RMK AO2 SLP182 T01831006","updated":"2026-05-14T18:59:19Z"}
