{"icao":"LPMT","metar":"LPMT 040400Z 12005KT CAVOK 14/13 Q1018","updated":"2025-11-04T04:20:48Z"}
