{"icao":"KLAX","metar":"KLAX 122053Z 25008KT 10SM SCT022 OVC028 18/12 A3004 RMK AO2 SLP173 T01830122 50004","updated":"2026-05-12T21:18:12Z"}
