{"icao":"LPPS","metar":"LPPS 211600Z 06016KT 9999 SCT014 BKN030 17/13 Q1025","updated":"2025-11-21T16:24:08Z"}
