{"icao":"KORD","metar":"KORD 031651Z 25004KT 10SM CLR 29/15 A3019 RMK AO2 SLP218 T02890150","updated":"2025-10-03T17:14:59Z"}
