{"icao":"LPMT","metar":"LPMT 201200Z 34008KT 210V020 CAVOK 25/15 Q1021","updated":"2026-05-20T12:22:35Z"}
