{"icao":"KJFK","metar":"KJFK 251908Z 04017KT 1/4SM R04R/3000V3500FT PLSN BR VV007 M09/M11 A3015 RMK AO2 SFC VIS 3/4 P0004 T10941106 $","updated":"2026-01-25T19:16:17Z"}
