{"icao":"LPMT","metar":"LPMT 141800Z 01005KT CAVOK 14/11 Q1016","updated":"2025-12-14T18:26:36Z"}
