{"icao":"LPBJ","metar":"LPBJ 162100Z 28006KT 9999 FEW023 07/06 Q1014","updated":"2026-01-16T21:19:42Z"}
