{"icao":"LPLA","metar":"LPLA 271321Z 24029G46KT 7000 -RA SCT010 SCT020 15/12 Q1003","updated":"2026-01-27T13:45:45Z"}
