{"icao":"LPMA","metar":"LPMA 111100Z 09003KT 040V140 9999 FEW015 SCT030 19/10 Q1024","updated":"2025-12-11T11:18:06Z"}
