{"icao":"LPFL","metar":"LPFL 301900Z 01008KT 9999 FEW024 17/12 Q1011","updated":"2026-04-30T19:18:43Z"}
