{"icao":"LPCS","metar":"LPCS 041230Z 27011G21KT 230V320 3000 -RADZ BR FEW002 SCT005 BKN010 15/15 Q0998 RERA REDZ","updated":"2026-02-04T12:56:46Z"}
