{"icao":"LPLA","metar":"LPLA 110600Z VRB02KT 9999 FEW025 17/16 Q1021","updated":"2025-10-11T06:23:23Z"}
