{"icao":"LPPS","metar":"LPPS 060800Z 07004KT 030V110 8000 VCSH SCT010 SCT030 20/19 Q1022","updated":"2025-10-06T08:24:19Z"}
