{"icao":"LPST","metar":"LPST 200900Z VRB02KT CAVOK 19/15 Q1022","updated":"2026-05-20T09:29:58Z"}
