{"icao":"LPMR","metar":"LPMR 311000Z 32007KT 9999 FEW018 21/16 Q1022","updated":"2026-05-31T10:14:09Z"}
