{"icao":"KORD","metar":"KORD 050751Z 23005KT 10SM CLR M12/M16 A3010 RMK AO2 SLP207 T11221161","updated":"2025-12-05T08:26:55Z"}
