{"icao":"LPMT","metar":"LPMT 191800Z 34009KT 9999 FEW030 22/14 Q1022","updated":"2026-05-19T18:58:47Z"}
