{"icao":"LPPT","metar":"LPPT 080300Z 30003KT 240V360 CAVOK 16/14 Q1022","updated":"2025-10-08T03:30:23Z"}
