{"icao":"LPBJ","metar":"LPBJ 101600Z 07008KT 030V110 CAVOK 30/10 Q1018","updated":"2025-10-10T16:21:20Z"}
