{"icao":"LPFL","metar":"LPFL 031800Z 32008KT 280V360 9999 VCSH FEW013 FEW016TCU SCT030 14/12 Q1018","updated":"2026-01-04T03:49:55Z"}
