{"icao":"LPBJ","metar":"LPBJ 081600Z 30004KT 260V340 9999 OVC028 12/07 Q1031","updated":"2026-01-08T16:28:41Z"}
