{"icao":"LPCS","metar":"LPCS 211630Z 21011KT 9999 4000NW VCSH FEW005 BKN014 17/15 Q1006","updated":"2026-04-21T16:59:30Z"}
