{"icao":"LPPD","metar":"LPPD 170500Z 31011KT 280V350 9999 FEW020 BKN030 14/09 Q1032","updated":"2026-01-17T05:19:44Z"}
