{"icao":"LPPR","metar":"LPPR 252100Z 23002KT 5000 BR FEW030 10/09 Q1012","updated":"2026-01-25T21:18:06Z"}
