{"icao":"LPCS","metar":"LPCS 042000Z 01012KT 9999 FEW007 13/11 Q1014","updated":"2026-03-04T20:30:10Z"}
