{"icao":"LPPT","metar":"LPPT 230830Z 08005G15KT 340V110 CAVOK 13/11 Q1013","updated":"2026-03-23T08:54:25Z"}
