{"icao":"LPHR","metar":"LPHR 270800Z 36017G31KT 320V050 9999 SCT015 17/11 Q1022","updated":"2025-11-27T08:27:16Z"}
