{"icao":"LPBJ","metar":"LPBJ 192300Z 32007KT CAVOK 08/05 Q1029","updated":"2026-02-19T23:28:27Z"}
