{"icao":"KORD","metar":"KORD 021851Z 31006KT 10SM FEW020 FEW250 M06/M14 A2994 RMK AO2 SLP150 T10561144","updated":"2026-01-02T19:13:28Z"}
