{"icao":"LPPR","metar":"LPPR 291100Z 21007KT 9000 -RA FEW016 SCT040 13/12 Q1005","updated":"2026-01-29T11:29:44Z"}
