{"icao":"LPMT","metar":"LPMT 050400Z 33006KT CAVOK 13/09 Q1017","updated":"2026-05-05T05:41:48Z"}
