{"icao":"LPMA","metar":"LPMA 272030Z 02013KT 330V060 9999 FEW016 16/10 Q1019","updated":"2026-03-27T20:37:24Z"}
