{"icao":"LPLA","metar":"LPLA 200600Z 09007KT 050V120 9999 FEW020 SCT030 17/12 Q1029","updated":"2025-11-20T06:27:30Z"}
