{"icao":"LPPT","metar":"LPPT 151630Z 34016KT 290V360 9999 SCT030 18/11 Q1015","updated":"2026-05-15T16:49:52Z"}
