{"icao":"LPOV","metar":"LPOV 211600Z 22004KT 180V250 9999 BKN007 BKN020 19/19 Q1012","updated":"2025-10-21T16:23:49Z"}
