{"icao":"KJFK","metar":"KJFK 050351Z 35009KT 10SM SCT220 BKN250 M03/M12 A3018 RMK AO2 SLP220 T10281122 PNO $","updated":"2026-02-05T04:20:36Z"}
