{"icao":"LPMR","metar":"LPMR 172200Z VRB02KT CAVOK 13/11 Q1018","updated":"2025-11-17T22:17:34Z"}
