{"icao":"LPCS","metar":"LPCS 271130Z 03007KT CAVOK 19/03 Q1018","updated":"2026-03-27T11:40:15Z"}
