{"icao":"KJFK","metar":"KJFK 120351Z 06013KT 10SM FEW030 BKN090 BKN250 16/11 A3014 RMK AO2 SLP206 T01610111","updated":"2025-10-12T04:20:22Z"}
