{"icao":"LPFR","metar":"LPFR 162300Z 29008KT 9999 FEW030 08/07 Q1015","updated":"2026-01-16T23:18:48Z"}
