{"icao":"LPFR","metar":"LPFR 070700Z 21008KT 6000 FEW012 SCT016 BKN025 17/16 Q1014","updated":"2026-04-07T07:14:36Z"}
