{"icao":"KORD","metar":"KORD 100115Z 33019G29KT 9SM -SN BKN050 BKN075 OVC090 M02/M10 A3019 RMK AO2 PK WND 32029/0115 SNB14 P0000 T10171100 $","updated":"2025-11-10T01:27:39Z"}
