{"icao":"KORD","metar":"KORD 020851Z 00000KT 10SM FEW028 BKN060 BKN075 06/04 A3016 RMK AO2 SLP217 T00560044 51006 $","updated":"2025-11-02T09:16:16Z"}
