{"icao":"LPPI","metar":"LPPI 131200Z 24012KT 9999 FEW018 SCT025 BKN035 21/16 Q1021","updated":"2026-06-13T12:23:31Z"}
