{"icao":"KORD","metar":"KORD 160651Z 33012G21KT 10SM CLR 08/M09 A2976 RMK AO2 PK WND 33027/0600 SLP077 T00831089 $","updated":"2025-11-16T07:17:26Z"}
