{"icao":"LPMA","metar":"LPMA 230300Z 34010KT 300V020 9999 BKN015 18/14 Q1020","updated":"2025-09-23T03:31:14Z"}
