{"icao":"KJFK","metar":"KJFK 261551Z 23009KT 2 1/2SM R04R/2800VP6000FT BR FEW003 OVC009 14/13 A2981 RMK AO2 SFC VIS 5 DZE19 SLP095 P0001 T01390133","updated":"2025-11-26T16:24:42Z"}
