{"icao":"KORD","metar":"KORD 200859Z 21008KT 4SM BR OVC008 06/04 A3013 RMK AO2 T00560044","updated":"2025-11-20T09:20:13Z"}
