{"icao":"LPST","metar":"LPST 201500Z 25008KT 220V280 9999 BKN025 21/16 Q1015","updated":"2025-10-20T15:18:04Z"}
