{"icao":"LPHR","metar":"LPHR 241800Z 29016KT 9999 SCT005 BKN012 FEW015TCU 15/15 Q1018 RERA","updated":"2026-01-24T18:28:50Z"}
