{"icao":"LPOV","metar":"LPOV 130600Z 16013KT 6000 RA FEW018 FEW020TCU BKN035 12/11 Q1005","updated":"2026-01-13T06:32:14Z"}
