{"icao":"LPLA","metar":"LPLA 301700Z 29018KT 9999 FEW025 19/11 Q1006","updated":"2025-10-30T17:16:48Z"}
