{"icao":"LPLA","metar":"LPLA 250200Z 23007KT 9999 FEW015 16/13 Q1013","updated":"2026-04-25T02:22:47Z"}
