{"icao":"LPBJ","metar":"LPBJ 031600Z 36009KT CAVOK 25/03 Q1021","updated":"2026-04-03T16:39:08Z"}
