{"icao":"LPST","metar":"LPST 091000Z 18021G31KT 2000 -RADZ BR BKN005 BKN012 16/15 Q1015","updated":"2025-12-09T10:23:24Z"}
