{"icao":"LPPR","metar":"LPPR 261630Z 33008KT CAVOK 19/09 Q1017","updated":"2026-03-26T16:59:19Z"}
