{"icao":"LPMA","metar":"LPMA 161900Z 35007KT 310V040 9999 FEW013 SCT030 22/16 Q1020","updated":"2026-06-16T19:33:25Z"}
