{"icao":"LPMR","metar":"LPMR 162300Z 16003KT 0300 FG VV001 14/13 Q1015","updated":"2025-10-16T23:14:55Z"}
