{"icao":"LPMR","metar":"LPMR 021400Z 33016KT CAVOK 18/09 Q1022","updated":"2026-04-02T14:54:14Z"}
