{"icao":"LPHR","metar":"LPHR 040730Z 25025G38KT 8000 -SHRA SCT015 BKN030 17/14 Q0995","updated":"2026-02-04T07:42:51Z"}
