{"icao":"LPPR","metar":"LPPR 151000Z 17016KT 9999 VCSH FEW009 SCT012 FEW025CB 16/13 Q1003","updated":"2025-11-15T10:17:16Z"}
