{"icao":"KJFK","metar":"KJFK 181451Z 05003KT 10SM BKN070 BKN250 15/02 A3006 RMK AO2 SLP180 T01500022 51010","updated":"2025-10-18T15:15:45Z"}
