{"icao":"LPBJ","metar":"LPBJ 040800Z 04010KT CAVOK 11/08 Q1012","updated":"2026-03-04T08:37:32Z"}
