{"icao":"LPFR","metar":"LPFR 050300Z 04007KT CAVOK 20/15 Q1018","updated":"2025-10-05T03:05:49Z"}
