{"icao":"LPFL","metar":"LPFL 230800Z 33018G33KT 290V360 9999 SCT030 13/03 Q1024","updated":"2026-01-23T08:29:17Z"}
