{"icao":"LPCR","metar":"LPCR 181530Z 29008KT 260V320 9999 FEW020 20/14 Q1014","updated":"2026-06-18T16:29:36Z"}
