{"icao":"LPAR","metar":"LPAR 261300Z 14003KT 070V200 9999 FEW015 10/08 Q1013","updated":"2025-12-28T15:18:40Z"}
