{"icao":"LPMR","metar":"LPMR 050400Z 35012KT 9999 OVC007 15/14 Q1022","updated":"2025-10-05T04:19:13Z"}
