{"icao":"LPBJ","metar":"LPBJ 290500Z 26015KT 6000 -DZ OVC004 15/15 Q1009","updated":"2026-01-29T05:41:57Z"}
