{"icao":"KORD","metar":"KORD 052151Z 30008KT 10SM FEW100 BKN170 OVC250 13/M05 A2978 RMK AO2 SLP085 T01331050","updated":"2026-05-05T21:59:49Z"}
