{"icao":"LPAZ","metar":"LPAZ 292030Z 22012KT 9999 FEW020 SCT025 16/11 Q1007","updated":"2026-04-29T21:03:05Z"}
