{"icao":"LPPS","metar":"LPPS 131300Z 11007KT 070V160 9999 FEW015 23/16 Q1018","updated":"2025-10-13T13:29:03Z"}
