{"icao":"LPOV","metar":"LPOV 111600Z 19008KT 6000 -RADZ BKN008 OVC014 14/13 Q1024","updated":"2026-01-11T17:16:36Z"}
