{"icao":"KJFK","metar":"KJFK 121451Z 26013KT 10SM FEW055 SCT180 SCT250 02/M08 A3022 RMK AO2 SLP232 T00171078 50019 $","updated":"2026-01-12T15:24:25Z"}
