{"icao":"LPBJ","metar":"LPBJ 091227Z 30012KT 260V330 9999 FEW006 SCT012 OVC015 10/09 Q1022","updated":"2026-03-09T13:00:27Z"}
