{"icao":"LPAZ","metar":"LPAZ 161230Z 16014KT 9999 FEW022 BKN028 17/13 Q1029","updated":"2026-02-16T13:00:44Z"}
