{"icao":"KLAX","metar":"KLAX 021353Z 32004KT 6SM BR OVC007 15/13 A2996 RMK AO2 SLP143 T01500133","updated":"2026-05-02T14:44:57Z"}
