{"icao":"KORD","metar":"KORD 220951Z 31003KT 10SM CLR 02/M02 A3003 RMK AO2 SLP175 T00171022","updated":"2025-11-22T10:18:17Z"}
