{"icao":"LPMT","metar":"LPMT 151400Z 27008KT 9999 FEW015 BKN030 15/11 Q1031","updated":"2026-02-15T14:26:11Z"}
