{"icao":"LPFR","metar":"LPFR 210900Z 21012KT 3000 -RADZ BR SCT005 SCT010 BKN015 14/12 Q1013 RERA","updated":"2026-01-21T09:31:00Z"}
