{"icao":"LPPR","metar":"LPPR 290830Z 29005KT 230V340 5000 RADZ BR SCT002 BKN003 14/13 Q1003","updated":"2026-01-29T08:37:25Z"}
