{"icao":"LPPD","metar":"LPPD 240230Z 36009KT 330V030 9000 -SHRA FEW016 BKN040 17/15 Q1023","updated":"2025-09-24T02:57:45Z"}
