{"icao":"KJFK","metar":"KJFK 251451Z 05015KT 1/2SM R04R/2400V2800FT SN FZFG VV005 M11/M12 A3048 RMK AO2 SLP319 SNINCR 1/3 DRSN P0004 60016 T11061122 58038 $","updated":"2026-01-25T15:19:25Z"}
