{"icao":"KORD","metar":"KORD 041451Z 22005KT 10SM CLR 24/16 A3014 RMK AO2 SLP201 T02440161 50005 $","updated":"2025-10-04T15:14:27Z"}
