{"icao":"KORD","metar":"KORD 300651Z 28004KT 10SM SCT095 M14/M19 A3032 RMK AO2 SLP282 T11391194","updated":"2026-01-30T07:39:13Z"}
