{"icao":"LPBJ","metar":"LPBJ 121800Z 17016KT CAVOK 35/14 Q1016","updated":"2026-06-12T19:03:28Z"}
