{"icao":"KORD","metar":"KORD 191051Z 00000KT 10SM SCT100 BKN200 04/M06 A2964 RMK AO2 SLP038 T00441061 $","updated":"2026-02-19T11:37:41Z"}
