{"icao":"LPMR","metar":"LPMR 260400Z 16003KT 9999 FEW018 SCT028 20/19 Q1017","updated":"2026-06-26T05:06:45Z"}
