{"icao":"LPBJ","metar":"LPBJ 261400Z 25001KT 5000 -DZRA BR SCT008 BKN016 BKN045 16/13 Q1014","updated":"2026-01-26T14:27:31Z"}
