{"icao":"LPMR","metar":"LPMR 081600Z 22010KT 1600 -DZ BR FEW005 OVC007 13/12 Q1029","updated":"2026-01-08T16:28:41Z"}
