{"icao":"LPPS","metar":"LPPS 251730Z 01012KT 340V040 9999 SCT015 18/12 Q1018","updated":"2026-04-25T17:35:48Z"}
