{"icao":"KJFK","metar":"KJFK 301651Z 19014KT 10SM FEW050 FEW090 BKN250 28/19 A3010 RMK SLP193 T02780189 $ ","updated":"2026-06-30T17:52:04Z"}
