{"icao":"KORD","metar":"KORD 011851Z 06011G21KT 10SM FEW033 SCT250 M01/M17 A3047 RMK AO2 PRESFR SLP329 T10061167 $","updated":"2026-03-01T19:21:21Z"}
