{"icao":"LPMA","metar":"LPMA 280800Z 36008KT 290V050 9999 FEW015 17/10 Q1016","updated":"2026-04-28T08:34:22Z"}
