{"icao":"LPOV","metar":"LPOV 151800Z 22009KT 9999 FEW008 SCT019 BKN024 13/12 Q1029","updated":"2026-02-15T18:34:55Z"}
