{"icao":"LPMR","metar":"LPMR 202200Z 23005KT 5000 SHRA FEW009 BKN015 BKN030 10/09 Q1010","updated":"2025-12-20T22:16:57Z"}
