{"icao":"LPCS","metar":"LPCS 241700Z 26011G21KT 230V300 8000 -DZRA SCT003 BKN006 17/17 Q1017","updated":"2025-11-24T17:17:47Z"}
