{"icao":"LPPT","metar":"LPPT 270600Z 35004KT 330V030 CAVOK 09/04 Q1023","updated":"2025-11-27T06:30:13Z"}
