{"icao":"KJFK","metar":"KJFK 271551Z 36009KT 10SM FEW047 12/00 A3038 RMK AO2 SLP286 T01220000","updated":"2025-10-27T16:24:15Z"}
