{"icao":"LPBJ","metar":"LPBJ 280800Z 22004KT 190V250 9999 FEW020 17/14 Q1010","updated":"2026-04-28T08:34:20Z"}
