{"icao":"LPFR","metar":"LPFR 201530Z 23007KT CAVOK 27/18 Q1013","updated":"2026-06-20T15:49:07Z"}
