{"icao":"LPPR","metar":"LPPR 160500Z 15004KT 9999 FEW019 12/11 Q1022","updated":"2026-04-16T05:29:27Z"}
