{"icao":"LPPD","metar":"LPPD 231000Z 15005KT 130V200 9999 FEW007 SCT012 FEW018TCU BKN020 23/22 Q1017","updated":"2025-10-23T10:19:29Z"}
