{"icao":"KJFK","metar":"KJFK 291451Z 32016G25KT 10SM FEW050 04/M08 A3044 RMK AO2 SLP306 T00391083 52018 $","updated":"2025-11-29T15:17:13Z"}
