{"icao":"LPPR","metar":"LPPR 182000Z VRB02KT 9999 FEW048 11/10 Q1018","updated":"2025-11-18T20:22:10Z"}
