{"icao":"LPMT","metar":"LPMT 150900Z 14004KT CAVOK 09/09 Q1012","updated":"2025-12-15T09:30:35Z"}
