{"icao":"LPHR","metar":"LPHR 261230Z 29030G49KT 9999 SCT012 SCT030 BKN060 11/07 Q1006","updated":"2026-01-26T12:45:50Z"}
