{"icao":"LPBJ","metar":"LPBJ 231513Z 25013KT 8000 -SHRA FEW015 FEW020CB BKN030 10/08 Q1002","updated":"2026-01-23T15:24:29Z"}
