{"icao":"KORD","metar":"KORD 111551Z 12014KT 10SM FEW100 SCT150 BKN250 11/M03 A3043 RMK AO2 SLP310 T01061033 $","updated":"2026-04-11T16:36:02Z"}
