{"icao":"LPPS","metar":"LPPS 041100Z 21016KT 180V240 9999 FEW012 24/18 Q1015","updated":"2025-11-04T11:17:01Z"}
