{"icao":"LPPT","metar":"LPPT 090730Z 13006G18KT 100V170 9999 VCSH FEW008 BKN010 13/12 Q1003","updated":"2026-05-09T07:54:05Z"}
