{"icao":"LPBJ","metar":"LPBJ 120400Z 09006KT CAVOK 17/11 Q1016","updated":"2025-10-12T04:20:18Z"}
