{"icao":"KJFK","metar":"KJFK 032051Z 00000KT 10SM FEW160 BKN250 04/M07 A3005 RMK AO2 SLP174 T00441072 55003","updated":"2025-12-03T21:17:34Z"}
