{"icao":"LPFL","metar":"LPFL 291500Z 14008KT 110V170 5000 DZ BKN004 16/14 Q1011","updated":"2025-12-29T15:21:22Z"}
