{"icao":"KORD","metar":"KORD 061025Z 00000KT 3SM -SN BKN030 OVC055 M01/M03 A2963 RMK AO2 SNB16 P0000 T10111028 $","updated":"2026-02-06T10:37:41Z"}
