{"icao":"LPBJ","metar":"LPBJ 120800Z 11009KT CAVOK 25/16 Q1020","updated":"2026-06-12T08:23:41Z"}
