{"icao":"KJFK","metar":"KJFK 280351Z 15005KT 10SM BKN080 OVC100 21/18 A2999 RMK AO2 RAE20 SLP156 P0000 T02060183","updated":"2025-09-28T04:20:51Z"}
