{"icao":"LPST","metar":"LPST 030900Z 09012KT 9999 SCT030 14/09 Q1011","updated":"2026-03-03T09:40:07Z"}
