{"icao":"LPAZ","metar":"LPAZ 261400Z 02014KT 9000 FEW009 BKN019 FEW025TCU 18/16 Q1018","updated":"2025-10-26T14:14:59Z"}
