{"icao":"LPFR","metar":"LPFR 170600Z 06007KT CAVOK 19/16 Q1013","updated":"2025-10-17T06:26:24Z"}
