{"icao":"LPAZ","metar":"LPAZ 260800Z 36003KT 3000 -DZ BR BKN004 14/14 Q1024","updated":"2025-12-26T08:26:35Z"}
