{"icao":"LPHR","metar":"LPHR 281100Z 19005KT 130V260 9999 VCSH FEW014 BKN030 17/12 Q1022","updated":"2025-10-28T11:14:53Z"}
