{"icao":"LPPR","metar":"LPPR 072000Z 32023G37KT 9999 SCT024 BKN030 10/06 Q1000","updated":"2026-02-07T20:25:04Z"}
