{"icao":"LPFR","metar":"LPFR 141000Z 21017KT 9999 -SHRA FEW015 FEW018CB SCT028 20/15 Q1007","updated":"2025-11-14T10:20:37Z"}
