{"icao":"LPOV","metar":"LPOV 301900Z 34020KT CAVOK 19/16 Q1020","updated":"2026-06-30T21:26:52Z"}
