{"icao":"KJFK","metar":"KJFK 160351Z 24006KT 10SM BKN095 OVC110 11/07 A2932 RMK AO2 RAE0253 SLP930 P0000 T01060067","updated":"2025-11-16T04:24:27Z"}
