{"icao":"LPLA","metar":"LPLA 212300Z 12003KT 9999 FEW025 18/14 Q1027","updated":"2025-09-21T23:15:09Z"}
