{"icao":"KJFK","metar":"KJFK 202251Z 26015G21KT 10SM FEW048 BKN060 16/06 A2986 RMK AO2 PK WND 31031/2209 SLP111 T01610061","updated":"2025-10-20T23:15:58Z"}
