{"icao":"LPCS","metar":"LPCS 141300Z 34007KT 300V360 9999 FEW020 SCT025 17/12 Q1024","updated":"2026-04-14T13:23:03Z"}
