{"icao":"LPMT","metar":"LPMT 301600Z 23007KT 200V260 9999 FEW030 21/15 Q1013","updated":"2025-10-30T16:23:13Z"}
