{"icao":"LPCS","metar":"LPCS 141100Z 34008KT 9999 FEW007 SCT017 13/12 Q1021","updated":"2026-01-14T11:20:12Z"}
