{"icao":"LPST","metar":"LPST 051100Z 24013KT 220V280 9999 FEW015 19/14 Q1008","updated":"2025-11-05T11:16:15Z"}
