{"icao":"LPPS","metar":"LPPS 261500Z 06013KT 030V100 9999 FEW015 SCT030 19/11 Q1022","updated":"2025-11-26T15:18:14Z"}
