{"icao":"KLAX","metar":"KLAX 152053Z VRB04KT 10SM FEW280 SCT330 28/02 A2998 RMK AO2 SLP151 T02780022 58028 $","updated":"2026-01-15T21:20:22Z"}
