{"icao":"LPFR","metar":"LPFR 011500Z 18007KT 150V210 9999 FEW018 25/18 Q1019","updated":"2025-10-01T15:17:27Z"}
