{"icao":"LPMR","metar":"LPMR 131200Z 32006KT 260V030 9999 FEW030 26/13 Q1016","updated":"2025-10-13T12:37:06Z"}
