{"icao":"KORD","metar":"KORD 060251Z 13004KT 10SM OVC230 03/01 A2976 RMK AO2 SLP085 T00330006 58014","updated":"2026-01-06T03:28:04Z"}
