{"icao":"LPPT","metar":"LPPT 081100Z 22005KT 180V250 9999 FEW012 BKN025 12/10 Q1033 VCSH","updated":"2026-01-08T11:19:43Z"}
