{"icao":"LPBJ","metar":"LPBJ 020400Z 27003KT CAVOK 18/12 Q1019","updated":"2025-10-02T04:19:56Z"}
