{"icao":"LPFR","metar":"LPFR 091300Z 21014KT 9999 FEW018 BKN030 19/14 Q1009","updated":"2026-05-09T13:14:36Z"}
