{"icao":"LPHR","metar":"LPHR 291500Z 26005KT 210V310 3000 -RADZ BR SCT002 BKN004 18/17 Q1020","updated":"2026-05-29T15:24:57Z"}
