{"icao":"LPMR","metar":"LPMR 020800Z 16003KT 2000 BR SCT003 07/07 Q1017","updated":"2025-12-02T08:28:11Z"}
