{"icao":"KJFK","metar":"KJFK 171351Z 29021G33KT 10SM SCT055 SCT090 04/M07 A2972 RMK AO2 PK WND 27034/1335 SLP064 T00441072 $","updated":"2025-11-17T14:19:09Z"}
