{"icao":"LPMA","metar":"LPMA 091230Z 01018KT 340V040 9999 BKN015 21/15 Q1024","updated":"2026-06-09T12:35:44Z"}
