{"icao":"LPFR","metar":"LPFR 112000Z 35003KT 9999 FEW020 11/09 Q1026","updated":"2026-01-11T20:21:42Z"}
