{"icao":"KJFK","metar":"KJFK 070651Z 30008KT 10SM FEW250 02/M04 A3005 RMK AO2 SLP175 T00221044 $","updated":"2025-12-07T07:17:35Z"}
