{"icao":"KORD","metar":"KORD 310851Z 30006KT 10SM FEW190 SCT250 06/02 A2981 RMK AO2 SLP095 T00560017 56005 $","updated":"2025-10-31T09:19:56Z"}
