{"icao":"LPBJ","metar":"LPBJ 142200Z 31007KT CAVOK 22/16 Q1021","updated":"2025-09-14T22:14:45Z"}
