{"icao":"LPBJ","metar":"LPBJ 231600Z 31009KT 280V340 9999 FEW035 SCT042 24/16 Q1019","updated":"2025-10-23T16:22:45Z"}
