{"icao":"LPFL","metar":"LPFL 051930Z VRB01KT 9999 FEW028 BKN040 16/08 Q1029","updated":"2026-05-06T05:56:40Z"}
