{"icao":"LPPR","metar":"LPPR 141400Z 32009KT 9999 FEW014 SCT022 14/09 Q1020","updated":"2026-01-14T14:24:04Z"}
