{"icao":"KJFK","metar":"KJFK 281451Z 35011KT 310V040 10SM FEW060 SCT085 SCT200 24/11 A2985 RMK AO2 SLP109 T02390106 53004 $","updated":"2026-05-28T15:50:31Z"}
