{"icao":"LPPD","metar":"LPPD 272300Z 36018G29KT 4500 -RADZ BR SCT008 BKN045 16/14 Q1023","updated":"2025-11-27T23:16:49Z"}
