{"icao":"LPPD","metar":"LPPD 021800Z 32012G25KT 290V360 9999 VCSH FEW016 FEW020TCU BKN030 14/10 Q1004","updated":"2026-01-02T18:29:10Z"}
