{"icao":"LPFL","metar":"LPFL 171900Z VRB04KT 9999 FEW020 BKN026 16/11 Q1030","updated":"2026-01-17T19:14:13Z"}
