{"icao":"LPST","metar":"LPST 140800Z 02003KT 340V040 8000 -SHRA FEW008 SCT016 10/10 Q1019","updated":"2026-01-14T08:29:05Z"}
