{"icao":"LPCS","metar":"LPCS 301500Z 19005KT 9999 FEW010 BKN040 18/17 Q1014","updated":"2025-10-30T15:20:00Z"}
