{"icao":"LPOV","metar":"LPOV 150500Z VRB02KT 4000 BR BKN008 10/10 Q1016","updated":"2025-10-15T05:17:17Z"}
