{"icao":"LPAZ","metar":"LPAZ 260600Z 04017KT 010V070 9999 BKN020 18/13 Q1016","updated":"2025-10-26T06:25:06Z"}
