{"icao":"KLAX","metar":"KLAX 190453Z 22003KT 7SM CLR 17/14 A2994 RMK AO2 SLP138 T01720139","updated":"2026-05-19T04:58:53Z"}
