{"icao":"KORD","metar":"KORD 020451Z 08010G20KT 7SM -RA OVC019 04/01 A3010 RMK AO2 RAB30 SLP199 P0002 T00390011","updated":"2026-04-02T05:01:31Z"}
