{"icao":"LPLA","metar":"LPLA 041400Z 34006KT 300V020 9999 FEW025 22/17 Q1027","updated":"2026-06-04T14:57:01Z"}
