{"icao":"LPAR","metar":"LPAR 301500Z 25012G22KT 210V300 4000 -DZRA FEW007 BKN020 BKN035 19/14 Q1014","updated":"2025-10-30T15:20:02Z"}
