{"icao":"LPCS","metar":"LPCS 222200Z 29018KT 6000 -DZRA FEW003 SCT008 BKN012 14/14 Q1004 RESHRA","updated":"2026-01-22T22:21:22Z"}
