{"icao":"LPPR","metar":"LPPR 110130Z 11009KT CAVOK 11/09 Q1021","updated":"2025-12-11T01:37:54Z"}
