{"icao":"LPPS","metar":"LPPS 051400Z 06013G23KT 030V090 9999 SCT014 SCT030 15/09 Q1020","updated":"2026-01-05T14:23:34Z"}
