{"icao":"KLAX","metar":"KLAX 100453Z 24003KT 10SM OVC210 17/13 A2994 RMK AO2 SLP135 T01670133 $","updated":"2026-02-10T05:02:31Z"}
