{"icao":"LPAR","metar":"LPAR 091500Z 36016KT CAVOK 24/06 Q1018","updated":"2026-06-09T15:53:17Z"}
