{"icao":"LPLA","metar":"LPLA 121600Z 22008KT 9999 FEW020 16/08 Q1031 WIND RWY15 20008KT RH60 BKN250 BLU","updated":"2025-12-12T16:24:04Z"}
