{"icao":"LPLA","metar":"LPLA 201800Z 29021G32KT 9999 FEW018 SCT040 17/13 Q1021","updated":"2026-01-20T18:35:37Z"}
