{"icao":"LPLA","metar":"LPLA 300801Z 13011KT 6000 -DZ SCT004 BKN006 BKN012 15/14 Q1013","updated":"2025-12-30T08:27:55Z"}
