{"icao":"LPHR","metar":"LPHR 031100Z 24016KT 9999 FEW007 SCT011 20/18 Q1013","updated":"2025-11-03T11:15:32Z"}
