{"icao":"LPOV","metar":"LPOV 040600Z 33009KT 9999 SCT020 SCT035 14/11 Q1015","updated":"2026-05-04T06:11:46Z"}
