{"icao":"KJFK","metar":"KJFK 310251Z 02003KT 10SM CLR 11/04 A3011 RMK AO2 SLP197 T01110044 51020 $","updated":"2026-05-31T03:41:36Z"}
