{"icao":"KORD","metar":"KORD 261951Z 31009KT 10SM OVC014 08/04 A2973 RMK AO2 SLP071 T00780044 $","updated":"2025-12-26T20:20:37Z"}
