{"icao":"LPMA","metar":"LPMA 201000Z 04004KT 350V090 9999 SCT015 24/21 Q1021","updated":"2025-09-20T10:16:30Z"}
