{"icao":"KORD","metar":"KORD 291751Z 06019G25KT 10SM SCT038 SCT250 13/03 A3002 RMK AO2 PK WND 07030/1701 SLP168 T01280033 10128 20094 58009","updated":"2025-10-29T18:28:03Z"}
