{"icao":"LPPD","metar":"LPPD 242030Z 27008KT 5000 -DZ BR SCT002 BKN005 19/18 Q1020","updated":"2026-06-24T20:47:08Z"}
