{"icao":"LPFL","metar":"LPFL 261700Z 16009KT 2500 RADZ BKN003 16/15 Q1022","updated":"2025-12-26T17:16:19Z"}
