{"icao":"KJFK","metar":"KJFK 101851Z 19019G28KT 10SM FEW028 BKN110 OVC250 07/02 A2949 RMK AO2 PK WND 19032/1801 SLP987 T00720022","updated":"2025-12-10T19:17:03Z"}
