{"icao":"LPAZ","metar":"LPAZ 061830Z 24026G38KT 8000 FEW022 SCT028 BKN042 16/13 Q1011","updated":"2026-02-06T18:49:50Z"}
