{"icao":"KLAX","metar":"KLAX 201653Z 08005KT 10SM SCT030 SCT047 BKN120 13/09 A3006 RMK AO2 SLP177 T01330094 $","updated":"2025-11-20T17:15:13Z"}
