{"icao":"KLAX","metar":"KLAX 190853Z 07005KT 10SM CLR 18/14 A3004 RMK AO2 SLP168 T01780144 50001 $","updated":"2026-03-19T09:41:49Z"}
