{"icao":"KJFK","metar":"KJFK 250351Z 18003KT 10SM SCT180 BKN250 06/01 A3028 RMK AO2 SLP254 T00560011","updated":"2025-11-25T04:25:27Z"}
