{"icao":"LPMT","metar":"LPMT 220100Z 27007KT 9999 SCT020 14/10 Q1011","updated":"2026-04-22T02:28:47Z"}
