{"icao":"LPLA","metar":"LPLA 300900Z 25004KT 210V290 9999 FEW025 17/13 Q1008","updated":"2025-10-30T09:19:52Z"}
