{"icao":"KORD","metar":"KORD 160851Z 09003KT 10SM OVC043 15/09 A3020 RMK AO2 SLP226 T01500094 58000 $","updated":"2025-10-16T09:20:02Z"}
