{"icao":"LPLA","metar":"LPLA 120100Z VRB02KT 9999 FEW035 18/15 Q1018","updated":"2025-10-12T01:21:50Z"}
