{"icao":"LPPR","metar":"LPPR 292300Z 29003KT 250V330 9999 BKN004 17/16 Q1022","updated":"2026-05-29T23:10:27Z"}
