{"icao":"LPPR","metar":"LPPR 181630Z 14009KT 090V170 9999 FEW018 SCT045 20/10 Q1002","updated":"2026-03-18T16:57:54Z"}
