{"icao":"LPMR","metar":"LPMR 290500Z 15001KT 110V240 8000 NSC 13/12 Q1016","updated":"2025-09-29T05:17:49Z"}
