{"icao":"KLAX","metar":"KLAX 110553Z 28007KT 10SM FEW015 FEW250 15/11 A3019 RMK AO2 SLP221 T01500106 10178 20139 51016 $","updated":"2026-03-11T06:52:48Z"}
