{"icao":"KORD","metar":"KORD 191751Z 28010G20KT 10SM FEW025 FEW220 M09/M17 A2993 RMK AO2 SLP146 T10891167 11089 21122 51026","updated":"2025-12-19T18:28:30Z"}
