{"icao":"KJFK","metar":"KJFK 191951Z 34014KT 10SM -RA SCT015 BKN044 OVC0600 06/03 A2992 RMK PK WND 33030/1853 RAB35 SLP131 P0002 T00560033 ","updated":"2026-04-19T20:36:13Z"}
