{"icao":"LPMT","metar":"LPMT 142200Z 33003KT 280V350 9999 FEW036 10/07 Q1030","updated":"2026-02-14T22:21:48Z"}
