{"icao":"KJFK","metar":"KJFK 200851Z 23015KT 10SM FEW016 BKN023 OVC050 17/14 A2971 RMK AO2 PK WND 19031/0824 WSHFT 0830 SLP061 60000 T01670144 56003 $","updated":"2025-10-20T09:21:13Z"}
