{"icao":"KORD","metar":"KORD 040751Z 22005KT 10SM BKN250 18/08 A3016 RMK AO2 SLP210 T01780083 $","updated":"2026-06-04T08:19:44Z"}
