{"icao":"KORD","metar":"KORD 211551Z 00000KT 10SM CLR M06/M15 A3044 RMK AO2 SLP319 T10611150","updated":"2025-12-21T16:22:34Z"}
