{"icao":"LPMT","metar":"LPMT 170700Z 26005KT 9999 FEW030 08/05 Q1013","updated":"2026-01-17T07:18:02Z"}
