{"icao":"KLAX","metar":"KLAX 020853Z 08004KT 10SM FEW014 18/16 A2999 RMK AO2 SLP151 T01780161 58006 $","updated":"2025-10-02T09:17:57Z"}
