{"icao":"LPPT","metar":"LPPT 230400Z 25006KT 220V290 9999 -DZ BKN008 21/20 Q1020","updated":"2025-10-23T04:20:52Z"}
