{"icao":"LPPS","metar":"LPPS 100700Z 02003KT 330V050 9999 SCT015 SCT030 20/14 Q1021","updated":"2025-11-10T07:18:20Z"}
