{"icao":"LPCS","metar":"LPCS 151900Z 27004KT 230V300 9999 FEW006 BKN020 13/12 Q1031","updated":"2026-02-15T19:23:44Z"}
