{"icao":"KJFK","metar":"KJFK 141413Z 00000KT 1/4SM R04R/3500V5500FT -SN BR BKN004 OVC008 00/00 A2996 RMK AO2 SFC VIS 3/4 P0003 T00000000 $","updated":"2025-12-14T14:17:01Z"}
