{"icao":"LPAZ","metar":"LPAZ 032100Z 00000KT 9999 FEW024 OVC038 15/07 Q1024","updated":"2026-04-03T21:32:42Z"}
