{"icao":"LPFL","metar":"LPFL 301600Z 22004KT 120V280 9999 FEW012 18/14 Q1005","updated":"2025-12-30T16:26:01Z"}
