{"icao":"LPPD","metar":"LPPD 141900Z VRB04KT 9999 SCT020 24/19 Q1026","updated":"2025-09-14T19:11:45Z"}
