{"icao":"LPOV","metar":"LPOV 042100Z 16016KT 120V180 9999 FEW040 22/13 Q1008","updated":"2025-11-05T01:24:16Z"}
