{"icao":"KJFK","metar":"KJFK 190551Z 15012KT 9SM FEW024 SCT035 BKN042 10/08 A2993 RMK AO2 RAE06 SLP135 P0001 60001 T01000083 10100 20056 58045","updated":"2025-12-19T06:30:35Z"}
