{"icao":"LPMR","metar":"LPMR 271000Z VRB01KT CAVOK 09/05 Q1025","updated":"2025-11-27T10:21:23Z"}
