{"icao":"LPMR","metar":"LPMR 070200Z 15002KT CAVOK 15/13 Q1021","updated":"2025-10-07T02:56:11Z"}
