{"icao":"LPMT","metar":"LPMT 030300Z 09003KT CAVOK 10/10 Q1024","updated":"2025-11-03T03:15:52Z"}
