{"icao":"KORD","metar":"KORD 282251Z 09010KT 10SM SCT055 BKN130 BKN200 BKN250 13/02 A3003 RMK AO2 SLP169 T01330022","updated":"2025-10-28T23:16:52Z"}
