{"icao":"LPMT","metar":"LPMT 232300Z 34004KT CAVOK 15/12 Q1016","updated":"2026-03-23T23:31:06Z"}
