{"icao":"LPAZ","metar":"LPAZ 201230Z 24013KT 9000 SCT004 SCT016 BKN022 24/23 Q1018","updated":"2025-10-20T12:38:12Z"}
