{"icao":"KORD","metar":"KORD 061351Z 00000KT 10SM FEW110 FEW200 SCT250 04/M02 A3023 RMK AO2 SLP241 T00441022","updated":"2025-11-06T14:19:02Z"}
