{"icao":"KJFK","metar":"KJFK 112151Z 34017G28KT 10SM CLR 17/M05 A3026 RMK AO2 PK WND 34030/2139 SLP245 T01671050","updated":"2026-04-11T22:31:15Z"}
