{"icao":"KORD","metar":"KORD 080851Z 19008KT 10SM FEW250 05/02 A2986 RMK AO2 SLP114 T00500022 56004","updated":"2026-01-08T09:27:36Z"}
