{"icao":"LPAR","metar":"LPAR 091600Z 35011KT 310V020 9999 SCT025 22/12 Q1013","updated":"2026-04-09T22:39:14Z"}
