{"icao":"KLAX","metar":"KLAX 301703Z 04004KT 1 1/2SM BR SCT007 SCT013 OVC019 14/13 A3001 RMK AO2 VIS W 1 T01440128 $","updated":"2025-11-30T17:15:43Z"}
