{"icao":"LPBJ","metar":"LPBJ 021000Z 07006KT 040V110 CAVOK 35/12 Q1017","updated":"2026-07-02T10:37:07Z"}
