{"icao":"LPAZ","metar":"LPAZ 080000Z 35005KT 320V020 9999 SCT004 BKN030 19/18 Q1032","updated":"2026-06-08T00:05:15Z"}
