{"icao":"LPBJ","metar":"LPBJ 202300Z 30006KT CAVOK 25/12 Q1016","updated":"2026-06-20T23:06:50Z"}
