{"icao":"LPOV","metar":"LPOV 021800Z VRB02KT CAVOK 15/13 Q1025","updated":"2025-11-02T18:21:48Z"}
