{"icao":"KORD","metar":"KORD 160751Z 04004KT 10SM OVC042 15/09 A3020 RMK AO2 SLP228 T01500089 $","updated":"2025-10-16T08:25:57Z"}
