{"icao":"LPPT","metar":"LPPT 071500Z 25021G35KT 220V280 4000 SHRA SCT024 SCT032CB 13/11 Q1002 RESHRA WS R20","updated":"2026-02-07T15:23:26Z"}
