{"icao":"LPST","metar":"LPST 231400Z 26008KT 230V290 9999 SCT018 BKN037 23/18 Q1019","updated":"2025-10-23T14:18:41Z"}
