{"icao":"LPFR","metar":"LPFR 280100Z 07006KT 9999 SCT004 20/19 Q1017","updated":"2025-10-28T01:20:02Z"}
