{"icao":"LPPT","metar":"LPPT 011400Z 10006KT 060V200 9999 FEW025 17/09 Q1020","updated":"2026-03-01T14:22:27Z"}
