{"icao":"LPCS","metar":"LPCS 251000Z 09007KT 050V130 CAVOK 24/03 Q1018","updated":"2025-09-25T10:18:29Z"}
