{"icao":"KLAX","metar":"KLAX 020353Z 28004KT 6SM BR OVC006 16/14 A3005 RMK AO2 SLP174 T01560144 $","updated":"2025-11-02T04:21:55Z"}
