{"icao":"KORD","metar":"KORD 060751Z 23006KT 8SM OVC012 M02/M04 A2968 RMK AO2 SLP057 T10171039 $","updated":"2026-02-06T08:40:10Z"}
