{"icao":"KORD","metar":"KORD 061924Z 16009KT 5SM BR FEW014 SCT038 BKN090 16/14 A2984 RMK AO2 RAE21 TSE07 CB DSNT NE P0001 T01560144","updated":"2026-03-06T19:33:10Z"}
