{"icao":"LPFR","metar":"LPFR 220900Z 28005KT 240V310 9999 FEW005 BKN008 21/20 Q1020","updated":"2025-10-22T09:20:31Z"}
