{"icao":"LPPS","metar":"LPPS 191100Z 33010KT 9999 SCT012 SCT030 24/21 Q1020","updated":"2025-10-19T11:13:15Z"}
