{"icao":"LPMR","metar":"LPMR 291000Z 03005KT 360V070 CAVOK 20/12 Q1018","updated":"2025-09-29T10:19:57Z"}
