{"icao":"LPMR","metar":"LPMR 220900Z 15002KT CAVOK 04/02 Q1031","updated":"2025-11-22T09:17:22Z"}
