{"icao":"LPMA","metar":"LPMA 050900Z 03015KT 360V060 9999 SCT015 15/11 Q1018","updated":"2026-01-05T09:30:47Z"}
