{"icao":"LPMR","metar":"LPMR 231800Z 29010KT 9999 SCT020 BKN032 08/04 Q0999 RETSRA","updated":"2026-01-23T18:31:43Z"}
