{"icao":"LPFR","metar":"LPFR 280500Z 22030G43KT 8000 -RA SCT012 BKN020 15/13 Q1000 RERA","updated":"2026-01-28T05:26:58Z"}
