{"icao":"LPLA","metar":"LPLA 232000Z 13003KT 9999 SCT025 21/19 Q1016","updated":"2025-10-23T20:19:06Z"}
