{"icao":"LPHR","metar":"LPHR 151230Z 30011G27KT 280V340 9999 -SHRA FEW025 BKN040 15/10 Q1029","updated":"2026-01-15T12:43:45Z"}
