{"icao":"LPAR","metar":"LPAR 141000Z 07006KT 040V120 CAVOK 22/12 Q1017","updated":"2025-10-14T10:18:59Z"}
