{"icao":"LPLA","metar":"LPLA 180500Z 29010KT 8000 -RADZ SCT007 BKN014 16/15 Q1025","updated":"2025-11-18T05:18:37Z"}
