{"icao":"LPAZ","metar":"LPAZ 130800Z 34009KT 9999 FEW028 13/08 Q1023","updated":"2026-01-13T08:29:24Z"}
