{"icao":"LPAR","metar":"LPAR 211600Z 21004KT 160V280 CAVOK 32/12 Q1019","updated":"2026-05-22T07:42:51Z"}
