{"icao":"LPBJ","metar":"LPBJ 231100Z 28008KT 260V320 9999 SCT018 BKN028 24/18 Q1021","updated":"2025-10-23T11:15:42Z"}
