{"icao":"LPPR","metar":"LPPR 270700Z 10005KT CAVOK 10/02 Q1020","updated":"2026-03-27T07:05:10Z"}
