{"icao":"KLAX","metar":"KLAX 071553Z 23006KT 10SM FEW018 OVC025 19/14 A2984 RMK AO2 SLP103 T01890139 $","updated":"2026-06-07T16:13:48Z"}
