{"icao":"LPPR","metar":"LPPR 231530Z 22006KT CAVOK 21/06 Q1021","updated":"2026-02-23T15:43:58Z"}
