{"icao":"LPMR","metar":"LPMR 262300Z 01003KT CAVOK 14/05 Q1017","updated":"2026-03-26T23:31:34Z"}
