{"icao":"LPPR","metar":"LPPR 140530Z 11012G23KT 9999 -TSRA SCT040CB 19/17 Q1015 RESHRA","updated":"2026-06-14T05:47:00Z"}
