{"icao":"LPPD","metar":"LPPD 022330Z 27014KT 9999 SCT002 BKN006 18/17 Q1031","updated":"2026-06-02T23:43:49Z"}
