{"icao":"LPCS","metar":"LPCS 042000Z 01004KT CAVOK 17/07 Q1021","updated":"2026-04-05T02:25:05Z"}
