{"icao":"LPPR","metar":"LPPR 221630Z 27005KT 230V320 CAVOK 17/11 Q1014","updated":"2026-04-22T16:57:37Z"}
