{"icao":"LPMA","metar":"LPMA 041730Z 21021KT 9999 SCT015 19/15 Q1009","updated":"2026-02-04T17:43:44Z"}
