{"icao":"LPHR","metar":"LPHR 182200Z 06006KT 9999 FEW014 15/12 Q1014","updated":"2026-04-18T22:33:33Z"}
