{"icao":"KJFK","metar":"KJFK 041751Z 20009KT 10SM FEW250 24/13 A3019 RMK AO2 SLP223 T02390133 10250 20161 57015","updated":"2025-10-04T18:21:44Z"}
