{"icao":"LPCS","metar":"LPCS 290900Z 22008KT 190V250 9999 FEW012 SCT016 BKN035 16/12 Q1008","updated":"2026-04-29T09:07:50Z"}
