{"icao":"KLAX","metar":"KLAX 010353Z 26010KT 10SM CLR 20/16 A3000 RMK AO2 SLP156 T02000161 $","updated":"2025-10-01T04:21:11Z"}
