{"icao":"KORD","metar":"KORD 172251Z 17020G29KT 10SM SCT055 OVC250 26/16 A2965 RMK AO2 PK WND 15034/2239 SLP036 T02610161 $","updated":"2026-04-17T22:54:13Z"}
