{"icao":"LPCS","metar":"LPCS 061530Z 29010KT 240V310 9999 FEW020 FEW025CB SCT035 12/08 Q1006","updated":"2026-02-06T15:38:20Z"}
