{"icao":"LPCS","metar":"LPCS 162000Z 29004KT 230V310 9999 FEW015 BKN020 14/13 Q1031","updated":"2026-02-16T20:28:57Z"}
