{"icao":"KLAX","metar":"KLAX 062253Z 26006KT 10SM FEW029 SCT050 BKN075 BKN180 17/11 A3000 RMK AO2 SLP158 T01720111 $","updated":"2026-01-06T23:19:27Z"}
