{"icao":"LPMR","metar":"LPMR 270300Z 15004KT CAVOK 04/M00 Q1013","updated":"2025-12-27T03:21:49Z"}
