{"icao":"LPPR","metar":"LPPR 301400Z 35009KT CAVOK 14/06 Q1020","updated":"2025-11-30T14:16:17Z"}
