{"icao":"LPAZ","metar":"LPAZ 110900Z 02004KT 9999 SCT010 20/19 Q1021","updated":"2025-10-11T09:15:41Z"}
