{"icao":"LPBJ","metar":"LPBJ 291600Z 04011KT 010V070 CAVOK 27/13 Q1014","updated":"2025-09-29T16:18:14Z"}
