{"icao":"LPAR","metar":"LPAR 211200Z 26011KT 230V290 7000 FEW007 BKN015 16/16 Q1007","updated":"2026-01-21T12:48:04Z"}
