{"icao":"LPHR","metar":"LPHR 280900Z 11025G37KT 7000 -RA SCT010 SCT025 BKN040 15/14 Q1009","updated":"2025-12-28T09:19:11Z"}
