{"icao":"KORD","metar":"KORD 090351Z 07006KT 10SM FEW035 13/04 A3043 RMK AO2 SLP304 T01330044 $","updated":"2025-10-09T04:21:45Z"}
