{"icao":"KJFK","metar":"KJFK 051251Z 27006KT 10SM FEW045 BKN160 BKN250 M01/M07 A3025 RMK AO2 SLP242 T10111072 $","updated":"2026-01-05T13:39:58Z"}
