{"icao":"LPFR","metar":"LPFR 142100Z 32012KT CAVOK 12/07 Q1029","updated":"2026-02-14T21:22:46Z"}
