{"icao":"LPAZ","metar":"LPAZ 201830Z 18015KT 9999 BKN049 17/13 Q1023","updated":"2026-02-20T18:45:04Z"}
