{"icao":"LPPD","metar":"LPPD 250800Z 04019G32KT 4500 -RA FEW012 FEW020CB SCT040 17/16 Q1016 RETS","updated":"2025-10-25T08:20:17Z"}
