{"icao":"LPBJ","metar":"LPBJ 262000Z 21014KT 9999 BKN040 14/11 Q1011","updated":"2026-01-26T20:26:38Z"}
