{"icao":"LPOV","metar":"LPOV 171300Z 34012KT CAVOK 17/12 Q1019","updated":"2026-04-17T13:16:53Z"}
