{"icao":"LPLA","metar":"LPLA 162200Z 19016G26KT 160V220 8000 -RADZ SCT010 SCT015 BKN020 16/14 Q1022","updated":"2026-02-16T22:27:18Z"}
