{"icao":"KORD","metar":"KORD 270751Z 24004KT 10SM CLR 18/12 A2990 RMK AO2 SLP120 T01830122 $","updated":"2025-09-27T08:20:14Z"}
