{"icao":"LPHR","metar":"LPHR 251030Z 07006KT 040V100 9999 BKN025 14/08 Q1030","updated":"2026-03-25T10:47:44Z"}
