{"icao":"KORD","metar":"KORD 071251Z 03013KT 10SM FEW035 FEW250 M01/M11 A3050 RMK AO2 SLP336 T10111106 $","updated":"2026-04-07T13:16:56Z"}
