{"icao":"LPHR","metar":"LPHR 161130Z 18018KT 9999 FEW010 BKN013 BKN040 17/15 Q1025","updated":"2026-02-16T11:39:16Z"}
