{"icao":"LPMT","metar":"LPMT 280700Z 36009KT 320V020 CAVOK 11/05 Q1025","updated":"2026-02-28T07:25:33Z"}
