{"icao":"LPFR","metar":"LPFR 222300Z 30007KT CAVOK 18/07 Q1015","updated":"2025-09-22T23:15:27Z"}
