{"icao":"LPCS","metar":"LPCS 080700Z 09008KT 060V120 9999 FEW010 SCT030 10/08 Q1015","updated":"2026-04-08T07:17:34Z"}
