{"icao":"KORD","metar":"KORD 211051Z 03010KT 10SM FEW050 SCT150 09/02 A3030 RMK AO2 SLP263 VIRGA W T00890022","updated":"2026-05-21T11:21:57Z"}
