{"icao":"LPPD","metar":"LPPD 111000Z 28011KT 8000 -SHRA FEW009 BKN013 15/13 Q1018","updated":"2026-01-11T10:20:04Z"}
