{"icao":"KLAX","metar":"KLAX 131853Z VRB05KT 10SM FEW060 FEW110 19/09 A3002 RMK AO2 SLP165 T01890089","updated":"2026-02-13T19:40:47Z"}
