{"icao":"LPFR","metar":"LPFR 212300Z 02008KT CAVOK 12/02 Q1027","updated":"2025-11-21T23:16:36Z"}
