{"icao":"LPPD","metar":"LPPD 131430Z 26006KT 1500 -RA BR FEW004 BKN010 BKN030 19/18 Q1022","updated":"2026-06-13T14:59:05Z"}
