{"icao":"LPPD","metar":"LPPD 061230Z 16011KT 9999 FEW025 BKN048 14/06 Q1032","updated":"2026-03-06T12:53:31Z"}
