{"icao":"KORD","metar":"KORD 251113Z 00000KT 3SM -RA BR BKN005 OVC010 08/08 A2978 RMK AO2 P0001 T00830078","updated":"2025-11-25T11:16:59Z"}
