{"icao":"KLAX","metar":"KLAX 051453Z 04004KT 8SM FEW018 OVC034 17/12 A3019 RMK AO2 SLP221 T01670117 50020 $","updated":"2025-11-05T15:19:25Z"}
