{"icao":"KORD","metar":"KORD 300951Z 03005KT 7SM CLR 18/17 A3019 RMK AO2 SLP220 T01830167","updated":"2025-09-30T10:18:29Z"}
