{"icao":"LPPT","metar":"LPPT 010500Z 21015KT 9999 -DZRA BKN009 FEW016TCU 19/18 Q1013","updated":"2025-11-01T05:16:32Z"}
