{"icao":"LPOV","metar":"LPOV 051200Z 32009KT 280V350 9999 FEW015 20/13 Q1021","updated":"2025-10-05T12:31:58Z"}
