{"icao":"LPMA","metar":"LPMA 170800Z 34006KT 260V020 9999 SCT015 19/12 Q1023","updated":"2025-11-17T08:27:17Z"}
