{"icao":"LPPS","metar":"LPPS 101000Z 05003KT 330V120 9999 FEW015 SCT030 21/15 Q1022","updated":"2025-11-10T10:21:46Z"}
