{"icao":"LPMA","metar":"LPMA 171030Z 02012KT 9999 SCT016 18/12 Q1019","updated":"2026-04-17T10:54:28Z"}
