{"icao":"LPMT","metar":"LPMT 030600Z 08002KT CAVOK 14/13 Q1021","updated":"2025-10-03T07:16:48Z"}
