{"icao":"LPFL","metar":"LPFL 201700Z 13005KT 090V180 9999 SCT014 SCT033 18/13 Q1031","updated":"2025-11-20T17:15:12Z"}
