{"icao":"LPCS","metar":"LPCS 210800Z 26009KT 230V290 9999 BKN002 BKN004 20/20 Q1014","updated":"2025-10-21T08:25:34Z"}
