{"icao":"LPPS","metar":"LPPS 101500Z 36008KT 330V030 9999 FEW015 18/12 Q1025","updated":"2025-12-10T15:23:42Z"}
