{"icao":"LPPT","metar":"LPPT 051800Z 27011KT 9999 VCSH FEW011 FEW025CB SCT028 15/11 Q1011 RESHRA","updated":"2025-11-05T18:26:44Z"}
