{"icao":"KLAX","metar":"KLAX 290053Z 26013KT 10SM FEW060 FEW150 22/16 A2997 RMK AO2 SLP146 T02170161 $","updated":"2025-09-29T01:20:31Z"}
