{"icao":"LPFR","metar":"LPFR 101230Z 19005KT 140V230 9999 FEW014 SCT030 14/09 Q1030","updated":"2026-01-10T12:37:35Z"}
