{"icao":"LPFR","metar":"LPFR 112030Z 25016KT 8000 -DZ OVC006 15/15 Q1021","updated":"2026-02-11T20:37:11Z"}
