{"icao":"LPMA","metar":"LPMA 262130Z 19004KT 140V230 9999 FEW016 BKN033 19/14 Q1020","updated":"2026-05-26T21:43:50Z"}
