{"icao":"KJFK","metar":"KJFK 101551Z 36006KT 10SM BKN020 BKN042 OVC150 14/11 A2962 RMK AO2 RAE07 SLP030 P0000 T01390111","updated":"2025-11-10T16:25:26Z"}
