{"icao":"KORD","metar":"KORD 020751Z 08005KT 10SM FEW250 M03/M09 A3045 RMK AO2 SLP318 T10281089 $","updated":"2026-03-02T08:42:41Z"}
