{"icao":"LPMT","metar":"LPMT 100000Z 17003KT CAVOK 14/13 Q1019","updated":"2025-11-10T01:27:06Z"}
