{"icao":"LPST","metar":"LPST 151300Z 22005KT 8000 -RA SCT012 14/12 Q1010","updated":"2025-12-15T13:39:33Z"}
