{"icao":"KJFK","metar":"KJFK 131651Z 27010KT 9SM -RA SCT034 BKN050 BKN090 08/02 A2986 RMK AO2 RAB29 SLP111 P0000 T00830017","updated":"2025-11-13T17:17:44Z"}
