{"icao":"LPFR","metar":"LPFR 200430Z 30007KT CAVOK 08/06 Q1021","updated":"2026-01-20T04:43:05Z"}
