{"icao":"KLAX","metar":"KLAX 061053Z 09005KT 10SM FEW014 SCT020 OVC060 13/12 A3008 RMK AO2 SLP185 T01280117 $","updated":"2026-01-06T11:18:11Z"}
