{"icao":"LPOV","metar":"LPOV 162000Z 22005KT 190V250 7000 FEW002 OVC005 14/14 Q1029","updated":"2026-02-16T20:28:59Z"}
