{"icao":"LPPT","metar":"LPPT 190530Z 14012KT 100V160 6000 -RA FEW006 SCT016 13/13 Q1003","updated":"2026-03-19T05:57:07Z"}
