{"icao":"KORD","metar":"KORD 170851Z 26015G23KT 10SM FEW050 SCT110 M08/M15 A2977 RMK AO2 SLP088 T10781150 53020 $","updated":"2026-01-17T09:19:16Z"}
