{"icao":"LPPR","metar":"LPPR 231900Z 20003KT CAVOK 16/08 Q1021","updated":"2026-02-23T19:18:10Z"}
