{"icao":"LPPT","metar":"LPPT 131300Z VRB06KT CAVOK 28/11 Q1016","updated":"2025-10-13T13:28:41Z"}
