{"icao":"LPPD","metar":"LPPD 181000Z 20011G26KT 140V220 9999 FEW014 23/21 Q1017","updated":"2025-09-18T10:18:31Z"}
