{"icao":"LPLA","metar":"LPLA 022000Z 23005KT 9999 FEW025 BKN040 15/08 Q1030","updated":"2025-12-02T20:23:18Z"}
