{"icao":"LPFL","metar":"LPFL 131000Z 21003KT 150V260 9999 FEW017 BKN030 14/10 Q1024","updated":"2026-01-13T10:23:15Z"}
