{"icao":"LPOV","metar":"LPOV 200400Z VRB01KT CAVOK 05/05 Q1030","updated":"2026-02-20T04:21:11Z"}
