{"icao":"KJFK","metar":"KJFK 010151Z 19014KT 10SM FEW060 SCT130 BKN250 13/09 A2994 RMK AO2 SLP137 T01280094","updated":"2026-04-01T02:30:31Z"}
