{"icao":"KORD","metar":"KORD 150351Z 20008KT 10SM BKN250 17/12 A2976 RMK AO2 SLP078 T01670122 $","updated":"2025-11-15T04:20:52Z"}
