{"icao":"LPMT","metar":"LPMT 220400Z 20003KT 9999 FEW020 13/11 Q1012","updated":"2026-04-22T05:24:23Z"}
