{"icao":"LPCS","metar":"LPCS 091430Z 33014KT 290V350 9999 SCT024 12/05 Q1022","updated":"2026-03-09T14:48:53Z"}
