{"icao":"KJFK","metar":"KJFK 111051Z 14006KT 10SM FEW075 SCT250 07/05 A2996 RMK AO2 SLP146 T00720050","updated":"2026-03-11T11:32:29Z"}
