{"icao":"KORD","metar":"KORD 131251Z 21014G22KT 10SM SCT110 BKN160 OVC210 04/M02 A2964 RMK AO2 PRESFR SLP042 T00441017 $","updated":"2026-01-13T13:40:27Z"}
