{"icao":"LPOV","metar":"LPOV 210900Z VRB01KT CAVOK 06/06 Q1031","updated":"2026-02-21T09:28:24Z"}
