{"icao":"LPPT","metar":"LPPT 160800Z 35007KT 9999 FEW003 18/16 Q1021","updated":"2025-09-16T08:23:44Z"}
