{"icao":"LPLA","metar":"LPLA 100800Z 21026G40KT 180V240 4500 RADZ SCT005 BKN010 BKN016 18/16 Q1020","updated":"2026-01-10T08:25:32Z"}
