{"icao":"LPBJ","metar":"LPBJ 060900Z 20004KT 8000 BCFG FEW003 SCT040 14/13 Q1025","updated":"2025-12-06T09:18:02Z"}
