{"icao":"LPPS","metar":"LPPS 010500Z 04007KT 350V090 9999 SCT015 BKN030 21/15 Q1021","updated":"2025-10-01T05:17:30Z"}
