{"icao":"LPAZ","metar":"LPAZ 091630Z 08008KT 040V120 9999 FEW034 15/06 Q1034","updated":"2026-03-09T16:59:39Z"}
