{"icao":"LPCS","metar":"LPCS 140900Z 31010KT 270V350 9999 FEW012 SCT020 14/10 Q1020","updated":"2026-03-14T09:31:50Z"}
