{"icao":"LPPT","metar":"LPPT 301400Z VRB03KT CAVOK 29/11 Q1018","updated":"2025-09-30T14:18:17Z"}
