{"icao":"LPPS","metar":"LPPS 051100Z 30016KT 9999 FEW014 23/12 Q1019","updated":"2025-11-05T11:16:19Z"}
