{"icao":"KORD","metar":"KORD 152251Z 21004KT 10SM BKN180 OVC250 M06/M12 A3007 RMK AO2 SLP197 VIRGA OHD T10611122","updated":"2025-12-15T23:19:29Z"}
