{"icao":"KJFK","metar":"KJFK 110751Z 18007KT 10SM SCT027 BKN030 BKN042 17/11 A3026 RMK AO2 SLP246 T01670111","updated":"2025-10-11T08:20:27Z"}
