{"icao":"LPOV","metar":"LPOV 241700Z 32013KT 9999 FEW020 18/14 Q1018","updated":"2026-04-24T17:49:18Z"}
