{"icao":"LPPS","metar":"LPPS 221230Z 13007KT 090V160 9999 SCT015 17/11 Q1026","updated":"2026-02-22T12:47:24Z"}
