{"icao":"LPBJ","metar":"LPBJ 040100Z 07009KT 9999 FEW015 BKN035 12/11 Q0998","updated":"2026-01-04T01:49:06Z"}
