{"icao":"LPHR","metar":"LPHR 251430Z 27010KT 9999 VCSH SCT009 BKN015 16/14 Q1028","updated":"2026-02-25T14:46:49Z"}
