{"icao":"LPMR","metar":"LPMR 292300Z 24003KT 5000 -RA BR SCT008 BKN023 12/12 Q1016","updated":"2025-11-29T23:16:56Z"}
