{"icao":"LPPR","metar":"LPPR 181100Z 25006KT 210V290 9000 3000W BCFG FEW002 17/14 Q1021","updated":"2025-09-18T11:13:44Z"}
