{"icao":"KJFK","metar":"KJFK 061351Z 18017G25KT 10SM BKN120 BKN180 BKN250 14/11 A2984 RMK AO2 PK WND 18026/1339 SLP103 T01440111","updated":"2026-05-06T14:07:28Z"}
