{"icao":"LPMA","metar":"LPMA 190600Z 02003KT 270V080 9999 FEW015 22/17 Q1018","updated":"2025-09-19T06:26:21Z"}
