{"icao":"LPPS","metar":"LPPS 080300Z 05005KT 020V090 9999 SCT015 14/12 Q1034","updated":"2026-01-08T03:29:02Z"}
