{"icao":"LPOV","metar":"LPOV 252200Z VRB01KT CAVOK 13/08 Q1018","updated":"2025-09-25T22:14:10Z"}
