{"icao":"LPPS","metar":"LPPS 181030Z 31006KT 260V330 9999 FEW012 17/13 Q1026","updated":"2026-02-18T10:42:32Z"}
