{"icao":"KLAX","metar":"KLAX 172001Z 32004KT 2 1/2SM BR FEW004 SCT011 BKN140 17/13 A3004 RMK AO2 VIS 2V3 VIS S-W 1 1/2 SCT V BKN T01720133 $","updated":"2025-12-17T20:22:48Z"}
