{"icao":"KJFK","metar":"KJFK 122151Z 29008KT 2 1/2SM -SN BR SCT008 OVC022 02/M01 A2987 RMK AO2 SFC VIS 6 RAE45 SLP116 P0002 T00171006","updated":"2026-03-12T22:24:07Z"}
