{"icao":"LPMA","metar":"LPMA 170500Z 29008KT 260V320 9999 BKN015 18/13 Q1022","updated":"2025-11-17T05:19:35Z"}
