{"icao":"LPMT","metar":"LPMT 031900Z 33007KT CAVOK 21/09 Q1021","updated":"2026-04-03T19:37:28Z"}
