{"icao":"KORD","metar":"KORD 121551Z 29012G21KT 10SM FEW250 08/M02 A2993 RMK AO2 SLP137 T00831022","updated":"2025-11-12T16:25:07Z"}
