{"icao":"KJFK","metar":"KJFK 130851Z 03019G29KT 5SM -RA BR SCT013 OVC018 13/12 A2988 RMK AO2 PK WND 02035/0801 SLP116 P0004 60019 T01280117 55004","updated":"2025-10-13T09:21:21Z"}
