{"icao":"LPPR","metar":"LPPR 140800Z 00000KT CAVOK 15/13 Q1018","updated":"2025-10-14T08:22:03Z"}
