{"icao":"LPFL","metar":"LPFL 221700Z 34004KT 260V030 9999 FEW030 BKN035 16/07 Q1023","updated":"2026-03-22T17:24:06Z"}
