{"icao":"LPPR","metar":"LPPR 121300Z 02006KT 320V060 9999 -RA FEW007 SCT012 13/11 Q1015","updated":"2025-12-12T13:33:29Z"}
