{"icao":"LPMR","metar":"LPMR 150300Z 15004KT 3000 BR FEW009 BKN040 08/08 Q1020","updated":"2026-01-15T03:39:46Z"}
