{"icao":"LPMR","metar":"LPMR 061200Z 13009KT 100V160 CAVOK 28/11 Q1020","updated":"2025-10-06T12:37:33Z"}
