{"icao":"LPOV","metar":"LPOV 102300Z 19006KT 9000 FEW006 SCT014 15/15 Q1015","updated":"2026-02-10T23:36:37Z"}
