{"icao":"KLAX","metar":"KLAX 022153Z 26014KT 10SM FEW015 FEW100 SCT150 23/15 A2998 RMK AO2 SLP150 T02280150 $","updated":"2025-10-02T22:16:13Z"}
