{"icao":"LPFR","metar":"LPFR 212200Z 26004KT CAVOK 23/21 Q1018","updated":"2026-06-21T22:13:06Z"}
