{"icao":"LPPS","metar":"LPPS 081700Z 06006KT 030V090 9999 SCT014 SCT030 17/12 Q1033","updated":"2026-01-08T17:25:29Z"}
