{"icao":"LPBJ","metar":"LPBJ 270600Z 08004KT CAVOK 17/13 Q1019","updated":"2025-10-27T06:30:21Z"}
