{"icao":"LPHR","metar":"LPHR 021030Z 08014KT 9999 SCT016 18/12 Q1019","updated":"2026-05-02T10:50:18Z"}
