{"icao":"LPHR","metar":"LPHR 021400Z 24004KT 170V280 9999 FEW022 BKN038 17/08 Q1031","updated":"2025-12-02T14:20:45Z"}
