{"icao":"KJFK","metar":"KJFK 071810Z 20008KT 3SM BR BKN006 OVC013 06/04 A3014 RMK AO2 T00610044","updated":"2026-03-07T18:32:07Z"}
