{"icao":"LPLA","metar":"LPLA 080200Z 24017G30KT 210V270 8000 -RADZ SCT009 BKN015 18/16 Q1010","updated":"2026-02-08T02:28:17Z"}
