{"icao":"LPHR","metar":"LPHR 211300Z 28030KT 9000 VCSH SCT016 BKN030 16/11 Q1006","updated":"2026-04-21T13:24:08Z"}
