{"icao":"KJFK","metar":"KJFK 150651Z 32007KT 10SM FEW095 SCT250 11/05 A2978 RMK AO2 SLP083 T01060050","updated":"2026-05-15T06:54:07Z"}
