{"icao":"KJFK","metar":"KJFK 231751Z 24014KT 10SM BKN050 BKN120 16/04 A2991 RMK AO2 SLP129 T01610039 10167 20117 56010 VISNO W $","updated":"2025-10-23T18:26:41Z"}
