{"icao":"LPLA","metar":"LPLA 050300Z 27007KT 9999 SCT025 13/08 Q1015","updated":"2025-11-05T03:10:08Z"}
