{"icao":"KLAX","metar":"KLAX 280953Z VRB04KT 10SM CLR 10/07 A3014 RMK AO2 SLP203 T01000072 $","updated":"2025-12-28T10:19:27Z"}
