{"icao":"LPFL","metar":"LPFL 271100Z 17011KT 9999 FEW017 16/12 Q1035","updated":"2026-02-27T11:31:23Z"}
