{"icao":"LPGR","metar":"LPGR 210830Z 31012KT 280V340 9999 FEW013 BKN040 18/15 Q1017","updated":"2026-06-21T08:56:24Z"}
