{"icao":"LPFR","metar":"LPFR 021530Z 20007KT CAVOK 20/10 Q1018","updated":"2026-04-02T15:59:30Z"}
