{"icao":"LPLA","metar":"LPLA 310900Z VRB01KT 9999 FEW025 12/11 Q1003","updated":"2025-12-31T09:23:26Z"}
