{"icao":"KJFK","metar":"KJFK 012051Z 36012KT 10SM FEW055 FEW250 21/04 A3016 RMK AO2 SLP212 T02110039 55004","updated":"2025-10-01T21:15:27Z"}
