{"icao":"LPPR","metar":"LPPR 102200Z 00000KT 9000 MIFG NSC 09/09 Q1023","updated":"2025-12-10T22:19:13Z"}
