{"icao":"KLAX","metar":"KLAX 250953Z 00000KT 8SM CLR 13/12 A3009 RMK AO2 SLP188 T01280117","updated":"2025-11-25T10:22:35Z"}
