{"icao":"LPMA","metar":"LPMA 012200Z 25009KT 9999 -SHRA SCT013 FEW018TCU 15/12 Q1002","updated":"2026-01-01T22:19:02Z"}
