{"icao":"LPPR","metar":"LPPR 281300Z 10008KT 030V140 9999 FEW018 SCT037 18/13 Q1012","updated":"2025-10-28T13:29:15Z"}
