{"icao":"KORD","metar":"KORD 151908Z 19013G27KT 10SM BKN026 OVC037 15/11 A2928 RMK AO2 PK WND 18028/1855 RAE05 P0000 T01500111 $","updated":"2026-03-15T19:26:57Z"}
