{"icao":"LPMA","metar":"LPMA 230900Z 34013KT 290V010 9999 SCT015 17/09 Q1017","updated":"2026-01-23T09:28:43Z"}
