{"icao":"LPPR","metar":"LPPR 171700Z 33003KT 300V010 CAVOK 19/13 Q1015","updated":"2025-10-17T17:15:08Z"}
