{"icao":"LPPR","metar":"LPPR 180500Z VRB02KT CAVOK 09/07 Q1020","updated":"2025-11-18T05:18:18Z"}
