{"icao":"KJFK","metar":"KJFK 150551Z 21008KT 10SM BKN060 OVC090 06/03 A2939 RMK AO2 SLP953 60000 T00610033 10067 20061 56031 $","updated":"2026-01-15T06:32:15Z"}
