{"icao":"LPMA","metar":"LPMA 140130Z 02009KT 340V050 9999 BKN015 15/11 Q1025","updated":"2026-03-14T01:56:34Z"}
