{"icao":"LPLA","metar":"LPLA 260400Z 18006KT 9999 FEW007 SCT014 BKN030 17/15 Q1025","updated":"2025-11-26T04:25:22Z"}
