{"icao":"LPBJ","metar":"LPBJ 100100Z 28006KT 6000 -RA SCT020 06/05 Q1021","updated":"2026-03-10T01:54:50Z"}
