{"icao":"LPMA","metar":"LPMA 271230Z 13005KT 080V190 9999 SCT014 19/12 Q1017","updated":"2026-01-27T12:48:10Z"}
