{"icao":"LPPT","metar":"LPPT 072100Z 32011KT CAVOK 17/14 Q1023","updated":"2025-10-07T21:14:44Z"}
