{"icao":"LPPT","metar":"LPPT 051800Z 32010KT CAVOK 21/15 Q1018","updated":"2025-10-05T18:21:55Z"}
