{"icao":"LPMR","metar":"LPMR 310400Z 14002KT 2000 BR FEW004 04/04 Q1019","updated":"2025-12-31T04:37:01Z"}
