{"icao":"LPFR","metar":"LPFR 022300Z 31007KT 9999 FEW015 FEW020CB SCT035 10/08 Q1007","updated":"2026-02-02T23:27:05Z"}
