{"icao":"LPMA","metar":"LPMA 201600Z 02010KT 330V070 9999 FEW015 28/19 Q1018","updated":"2025-09-20T16:18:42Z"}
