{"icao":"KORD","metar":"KORD 091651Z 26010G18KT 220V290 10SM FEW100 SCT160 BKN250 21/07 A2965 RMK AO2 SLP037 T02110072","updated":"2026-05-09T16:53:40Z"}
