{"icao":"LPPR","metar":"LPPR 231400Z 30004KT 240V360 9999 FEW018 BKN025 18/12 Q1020","updated":"2025-10-23T14:18:41Z"}
