{"icao":"LPMA","metar":"LPMA 151300Z 03012KT 340V070 9999 FEW015 24/16 Q1021","updated":"2026-06-15T13:11:26Z"}
