{"icao":"KJFK","metar":"KJFK 010951Z 23012KT 10SM OVC080 02/M04 A2955 RMK AO2 SLP006 T00221039 $","updated":"2026-01-01T10:21:28Z"}
