{"icao":"LPMR","metar":"LPMR 071800Z 16005KT CAVOK 15/12 Q1022","updated":"2025-12-07T18:24:50Z"}
