{"icao":"KJFK","metar":"KJFK 112151Z 31019G28KT 10SM FEW043 BKN060 04/M07 A2977 RMK AO2 PK WND 30028/2149 SLP079 T00391067 $","updated":"2026-02-11T22:28:20Z"}
