{"icao":"KLAX","metar":"KLAX 141053Z 15005KT 10SM FEW016 SCT040 BKN080 OVC150 18/12 A2996 RMK AO2 RAE05 SLP145 P0000 T01780122","updated":"2025-11-14T11:15:50Z"}
