{"icao":"KJFK","metar":"KJFK 182251Z 18008KT 10SM FEW045 FEW250 22/19 A2992 RMK AO2 SLP131 T02170189 $","updated":"2025-09-18T23:16:06Z"}
