{"icao":"LPFL","metar":"LPFL 222000Z 34014G24KT 300V360 9999 FEW010 BKN017 20/17 Q1021","updated":"2025-09-22T23:15:30Z"}
