{"icao":"LPCS","metar":"LPCS 161900Z 28007KT 240V320 9999 -SHRA FEW020 FEW025CB 15/13 Q1012","updated":"2025-11-16T23:16:06Z"}
