{"icao":"KORD","metar":"KORD 081551Z 02010KT 10SM FEW012 BKN031 OVC047 07/04 A2988 RMK AO2 SLP120 T00720039 $","updated":"2025-11-08T16:20:12Z"}
