{"icao":"LPPS","metar":"LPPS 131230Z 33022KT 9999 FEW015 18/10 Q1027","updated":"2026-02-13T12:57:32Z"}
