{"icao":"LPMR","metar":"LPMR 210700Z 15002KT CAVOK 03/02 Q1027","updated":"2025-11-21T07:18:29Z"}
