{"icao":"KLAX","metar":"KLAX 281453Z 13004KT 10SM FEW170 SCT200 BKN280 17/12 A2990 RMK AO2 SLP123 T01720122 53011","updated":"2026-02-28T15:20:34Z"}
