{"icao":"LPMT","metar":"LPMT 071300Z 21006KT 170V260 9999 SCT015 SCT030 18/13 Q1023","updated":"2025-12-07T13:23:57Z"}
