{"icao":"LPBJ","metar":"LPBJ 210800Z 10005KT CAVOK 07/05 Q1029","updated":"2026-02-21T08:29:16Z"}
