{"icao":"KORD","metar":"KORD 270851Z 09004KT 8SM OVC009 03/01 A2999 RMK AO2 SLP159 T00330011 53010 $","updated":"2025-12-27T09:19:13Z"}
