{"icao":"LPCS","metar":"LPCS 151900Z 02011KT 350V050 9999 FEW014 13/09 Q1019","updated":"2026-03-15T22:26:42Z"}
