{"icao":"LPFL","metar":"LPFL 311000Z 31003KT 250V360 9999 SCT014 FEW017TCU 14/11 Q1003","updated":"2025-12-31T10:20:58Z"}
