{"icao":"LPFL","metar":"LPFL 251500Z 02014KT 9999 VCSH FEW016 SCT020 19/14 Q1025","updated":"2025-10-25T15:15:36Z"}
