{"icao":"LPFR","metar":"LPFR 040630Z 04008KT 020V090 CAVOK 14/09 Q1021","updated":"2026-04-04T07:00:46Z"}
