{"icao":"LPPT","metar":"LPPT 150400Z VRB01KT CAVOK 17/10 Q1016","updated":"2025-10-15T04:20:55Z"}
