{"icao":"LPBJ","metar":"LPBJ 182100Z VRB02KT CAVOK 19/09 Q1017","updated":"2026-04-18T21:33:37Z"}
