{"icao":"LPOV","metar":"LPOV 071000Z 13014G27KT 100V170 4500 RA BR BKN020 OVC040 09/08 Q0998","updated":"2026-02-07T10:23:57Z"}
