{"icao":"KLAX","metar":"KLAX 092019Z 27010G16KT 10SM FEW009 21/14 A2992 RMK AO2 T02060144","updated":"2026-05-09T20:55:23Z"}
