{"icao":"KLAX","metar":"KLAX 021653Z 27008KT 10SM FEW010 BKN033 BKN160 BKN250 17/12 A3000 RMK AO2 SLP159 T01670117 $","updated":"2026-04-02T17:05:06Z"}
