{"icao":"LPMR","metar":"LPMR 172100Z 11003KT 8000 FEW002 SCT035 07/06 Q1009","updated":"2026-01-17T21:16:48Z"}
