{"icao":"LPCS","metar":"LPCS 052000Z 26008KT 230V300 9999 FEW018 FEW025TCU 15/11 Q1013","updated":"2025-11-06T05:18:47Z"}
