{"icao":"KORD","metar":"KORD 130951Z 17003KT 10SM CLR M03/M05 A3020 RMK AO2 SLP235 I1000 T10331050 $","updated":"2026-02-13T10:38:37Z"}
