{"icao":"KLAX","metar":"KLAX 300853Z 00000KT 10SM CLR 19/07 A2993 RMK AO2 SLP131 T01940072 56007 $","updated":"2025-10-30T09:20:23Z"}
