{"icao":"LPMT","metar":"LPMT 011200Z 35006KT 330V030 CAVOK 27/14 Q1020","updated":"2025-10-01T12:38:13Z"}
