{"icao":"LPAZ","metar":"LPAZ 240830Z 03012KT 350V060 9999 FEW018 BKN022 14/09 Q1025","updated":"2026-03-24T08:52:09Z"}
