{"icao":"LPOV","metar":"LPOV 210800Z 20002KT 170V240 2500 BR FEW002 BKN006 BKN030 19/18 Q1012","updated":"2025-10-21T08:25:35Z"}
