{"icao":"LPPR","metar":"LPPR 031730Z 20010KT 9999 -RA BKN030 11/07 Q0996","updated":"2026-02-03T17:51:42Z"}
