{"icao":"LPLA","metar":"LPLA 100900Z 22020G30KT 190V250 9999 FEW015 18/13 Q1009","updated":"2026-02-10T09:59:38Z"}
