{"icao":"LPPD","metar":"LPPD 170500Z 18007KT 9999 FEW020 BKN030 18/13 Q1024","updated":"2025-11-17T05:19:20Z"}
