{"icao":"LPOV","metar":"LPOV 081400Z 20014KT 170V230 9999 SCT028 15/09 Q1012","updated":"2026-02-08T14:26:30Z"}
