{"icao":"LPMA","metar":"LPMA 141500Z 01013KT 330V050 9999 SCT016 18/09 Q1031","updated":"2026-02-14T15:24:02Z"}
