{"icao":"KJFK","metar":"KJFK 260851Z 19003KT 5SM -RA BR FEW049 OVC065 19/18 A3005 RMK RAB44 SLP175 P0003 60003 T01940178 58004 ","updated":"2026-06-26T09:22:55Z"}
