{"icao":"LPLA","metar":"LPLA 031800Z 08005KT 060V120 9999 FEW025 24/20 Q1023","updated":"2025-10-03T18:24:20Z"}
