{"icao":"LPMT","metar":"LPMT 222300Z VRB01KT CAVOK 08/07 Q1029","updated":"2025-11-22T23:16:46Z"}
