{"icao":"LPPS","metar":"LPPS 091700Z 34017KT 6000 -RA SCT010 BKN030 16/15 Q1020","updated":"2025-12-09T17:19:16Z"}
