{"icao":"LPBJ","metar":"LPBJ 172100Z 25008KT CAVOK 20/11 Q1017","updated":"2026-04-17T22:02:42Z"}
