{"icao":"KJFK","metar":"KJFK 272151Z 21011KT 10SM FEW055 FEW140 FEW210 BKN250 26/18 A2976 RMK AO2 SLP079 T02560178 $","updated":"2026-05-27T21:53:27Z"}
