{"icao":"KLAX","metar":"KLAX 310853Z 09003KT 10SM FEW007 FEW012 17/14 A2994 RMK AO2 SLP134 T01670144 58000 $","updated":"2025-10-31T09:19:56Z"}
