{"icao":"LPFR","metar":"LPFR 242200Z 06005KT 030V100 CAVOK 16/11 Q1021","updated":"2026-03-24T22:29:50Z"}
