{"icao":"LPOV","metar":"LPOV 261800Z 32007KT CAVOK 29/11 Q1020","updated":"2026-05-26T19:20:24Z"}
