{"icao":"LPPR","metar":"LPPR 261000Z 21014G25KT 4500 -RADZ BR SCT003 BKN005 14/14 Q1007","updated":"2026-01-26T10:25:05Z"}
