{"icao":"LPST","metar":"LPST 251000Z 31004KT 260V350 CAVOK 17/11 Q1021","updated":"2026-03-25T10:47:40Z"}
