{"icao":"LPLA","metar":"LPLA 122300Z 30016G26KT 9999 FEW025 14/09 Q1023","updated":"2026-02-12T23:27:59Z"}
