{"icao":"LPPT","metar":"LPPT 011500Z 08006KT 5000 BR FEW002 BKN007 11/11 Q1009 WS R20","updated":"2026-01-01T15:20:03Z"}
