{"icao":"KORD","metar":"KORD 191051Z 29015G26KT 4SM -SN BLSN BKN016 BKN024 BKN050 M14/M18 A2995 RMK AO2 PK WND 27030/1041 SLP155 P0000 T11391183 $","updated":"2026-01-19T11:20:46Z"}
