{"icao":"LPPT","metar":"LPPT 041100Z 04005KT 020V080 CAVOK 20/11 Q1023","updated":"2026-04-04T11:28:00Z"}
