{"icao":"LPMA","metar":"LPMA 130930Z 35007KT 280V050 9999 FEW016 18/08 Q1025","updated":"2026-02-13T09:42:25Z"}
