{"icao":"LPMA","metar":"LPMA 052130Z 03013KT 7000 RA FEW006 BKN012 15/14 Q1018","updated":"2026-05-05T21:59:48Z"}
