{"icao":"LPMR","metar":"LPMR 020600Z 15002KT 2000 BR SCT003 10/10 Q1024","updated":"2025-11-02T06:25:55Z"}
