{"icao":"LPOV","metar":"LPOV 101000Z 22010KT 3000 -SHRA BR BKN005 SCT010 15/15 Q1012","updated":"2026-02-10T11:04:10Z"}
