{"icao":"LPMT","metar":"LPMT 132300Z 23009KT 200V260 9999 FEW015 SCT030 16/13 Q1001","updated":"2025-11-13T23:17:43Z"}
