{"icao":"LPPR","metar":"LPPR 221900Z 25008KT 210V300 7000 FEW004 SCT009 BKN017 14/13 Q0997","updated":"2026-01-22T19:23:49Z"}
