{"icao":"LPMT","metar":"LPMT 290400Z 33004KT CAVOK 17/15 Q1015","updated":"2025-09-29T04:21:44Z"}
