{"icao":"KJFK","metar":"KJFK 220651Z 02006KT 10SM BKN047 BKN060 OVC250 02/00 A3011 RMK AO2 SLP196 T00220000 $","updated":"2026-02-22T07:34:43Z"}
