{"icao":"LPMA","metar":"LPMA 301630Z 04006KT 010V070 9999 FEW013 20/16 Q1023","updated":"2026-01-30T16:37:48Z"}
