{"icao":"LPMA","metar":"LPMA 222100Z 01007KT 330V070 9999 FEW015 23/18 Q1022","updated":"2025-10-22T21:13:39Z"}
