{"icao":"LPPR","metar":"LPPR 300800Z 13008KT 9999 OVC036 14/12 Q1012","updated":"2025-10-30T08:23:58Z"}
