{"icao":"LPCS","metar":"LPCS 011600Z 33011KT CAVOK 27/11 Q1019","updated":"2025-10-01T16:22:05Z"}
