{"icao":"LPST","metar":"LPST 100800Z VRB01KT 8000 SCT014 12/11 Q1019","updated":"2025-11-10T08:27:07Z"}
