{"icao":"LPLA","metar":"LPLA 221105Z 33014KT 1500 TSRA FEW005 BKN013 SCT020CB BKN022 19/19 Q1013","updated":"2025-10-22T11:16:15Z"}
