{"icao":"LPPD","metar":"LPPD 082100Z 23014KT 5000 -DZ BR SCT002 BKN007 17/16 Q1014","updated":"2026-02-08T21:25:31Z"}
