{"icao":"LPPS","metar":"LPPS 181330Z 10013KT 060V130 9999 SCT014 18/12 Q1017","updated":"2026-04-18T14:03:42Z"}
