{"icao":"KLAX","metar":"KLAX 261653Z 01006KT 10SM FEW080 21/04 A3010 RMK AO2 SLP192 T02110039","updated":"2025-11-26T17:17:47Z"}
