{"icao":"LPLA","metar":"LPLA 261600Z 07010KT 020V140 9999 SCT025 SCT035 19/12 Q1023","updated":"2025-10-26T16:20:13Z"}
