{"icao":"LPMR","metar":"LPMR 042100Z 03005KT 360V060 9999 BKN028 10/04 Q1007","updated":"2026-01-04T21:17:42Z"}
