{"icao":"LPPS","metar":"LPPS 271800Z 22016KT 9999 FEW011 23/21 Q1014","updated":"2025-10-27T18:27:29Z"}
