{"icao":"LPCS","metar":"LPCS 021530Z 28018G29KT 9999 FEW016 FEW025TCU SCT028 13/07 Q1001","updated":"2026-02-02T15:36:35Z"}
