{"icao":"LPPS","metar":"LPPS 311930Z 01012KT 9999 SCT012 19/16 Q1023","updated":"2026-05-31T19:37:45Z"}
