{"icao":"LPHR","metar":"LPHR 081600Z 31019G35KT 8000 -SHRA SCT013 BKN027 14/10 Q0999","updated":"2025-12-08T16:26:52Z"}
