{"icao":"LPPR","metar":"LPPR 281330Z 36009KT CAVOK 14/05 Q1026","updated":"2026-02-28T13:35:06Z"}
