{"icao":"KORD","metar":"KORD 222151Z 03015KT 10SM FEW045 FEW250 22/11 A3004 RMK AO2 SLP170 T02220106","updated":"2026-06-22T22:46:09Z"}
