{"icao":"KJFK","metar":"KJFK 212051Z 19017G26KT 10SM FEW250 18/10 A2984 RMK AO2 PK WND 18026/2049 SLP104 T01780100 56016","updated":"2025-10-21T21:16:57Z"}
