{"icao":"KJFK","metar":"KJFK 201851Z 23016KT 10SM SCT065 33/17 A2991 RMK AO2 SLP129 T03330172","updated":"2026-05-20T19:23:12Z"}
