{"icao":"LPOV","metar":"LPOV 170400Z VRB02KT CAVOK 07/07 Q1013","updated":"2026-03-17T07:12:36Z"}
