{"icao":"LPLA","metar":"LPLA 280400Z 26022G35KT 230V290 9999 FEW018 SCT025 BKN035 19/15 Q1002","updated":"2026-01-28T04:42:35Z"}
