{"icao":"LPFR","metar":"LPFR 231130Z 10010KT CAVOK 17/11 Q1025","updated":"2026-02-23T11:38:35Z"}
