{"icao":"LPAZ","metar":"LPAZ 191200Z 25015KT 8000 FEW002 SCT007 BKN015 23/22 Q1018","updated":"2025-10-19T12:33:14Z"}
