{"icao":"KLAX","metar":"KLAX 031632Z 24006KT 10SM SCT023 OVC030 16/11 A2996 RMK AO2 T01610106","updated":"2026-05-03T16:49:33Z"}
