{"icao":"LPPT","metar":"LPPT 232100Z 28012G24KT 250V320 9999 VCSH FEW025TCU 09/03 Q1003","updated":"2026-01-23T21:19:54Z"}
