{"icao":"KORD","metar":"KORD 011951Z 28006KT 10SM OVC080 M08/M16 A2996 RMK AO2 SLP157 VIRGA T10831156 $","updated":"2026-01-01T20:22:37Z"}
