{"icao":"LPMA","metar":"LPMA 090700Z 36010KT 330V040 9999 BKN015 SCT030 14/05 Q1027","updated":"2026-03-09T07:05:04Z"}
