{"icao":"KJFK","metar":"KJFK 291751Z 01012KT 10SM BKN024 OVC250 12/06 A3013 RMK AO2 SLP201 T01170056 10122 20100 58012","updated":"2025-10-29T18:28:02Z"}
