{"icao":"LPFR","metar":"LPFR 131500Z 06017G27KT CAVOK 20/10 Q1015","updated":"2025-12-13T15:17:13Z"}
