{"icao":"KORD","metar":"KORD 071651Z 28012G20KT 10SM FEW250 14/06 A2954 RMK AO2 SLP003 T01440056 $","updated":"2025-11-07T17:16:35Z"}
