{"icao":"KJFK","metar":"KJFK 010108Z 26012KT 10SM OVC013 06/04 A3009 RMK AO2 T00560039 $","updated":"2025-12-01T01:49:43Z"}
