{"icao":"LPPR","metar":"LPPR 080430Z 13008KT 6000 -RADZ BKN005 BKN011 08/07 Q1030","updated":"2026-01-08T04:38:15Z"}
