{"icao":"LPPS","metar":"LPPS 251800Z 36009KT 340V040 9999 FEW015 20/15 Q1019","updated":"2026-05-25T18:24:41Z"}
