{"icao":"KORD","metar":"KORD 141417Z 36025G34KT 1/4SM R10L/1600V3000FT SN BLSN FZFG VV006 M03/M05 A2970 RMK AO2 PK WND 36034/1417 P0000 T10331050 $","updated":"2026-01-14T14:24:22Z"}
