{"icao":"LPHR","metar":"LPHR 161700Z 26007KT 9999 FEW020 21/18 Q1007","updated":"2025-10-16T17:16:03Z"}
