{"icao":"KJFK","metar":"KJFK 252251Z 05004KT 10SM FEW060 BKN075 BKN250 13/02 A3037 RMK AO2 SLP283 T01280022","updated":"2025-10-25T23:15:34Z"}
