{"icao":"KORD","metar":"KORD 232251Z 18017G25KT 10SM SCT065 BKN300 27/12 A2971 RMK AO2 SLP058 T02670117","updated":"2026-04-23T23:43:39Z"}
