{"icao":"LPMA","metar":"LPMA 181100Z 01009KT 340V040 9999 SCT015 20/13 Q1024","updated":"2025-11-18T11:17:48Z"}
