{"icao":"KORD","metar":"KORD 272017Z 13010KT 9SM OVC010 06/03 A2990 RMK AO2 T00560028 $","updated":"2025-12-27T20:21:02Z"}
