{"icao":"KORD","metar":"KORD 190751Z 28006KT 10SM -RA BKN009 BKN065 OVC080 14/13 A2951 RMK AO2 SLP991 P0000 T01390128 $","updated":"2025-10-19T08:21:01Z"}
