{"icao":"LPPT","metar":"LPPT 040730Z 30006KT 260V330 5000 -RA FEW005 SCT011 BKN018 12/12 Q0997 RERA","updated":"2026-02-04T07:42:31Z"}
