{"icao":"LPCS","metar":"LPCS 271600Z 19014KT 1500 BR VV002 18/18 Q1015","updated":"2025-09-27T16:19:12Z"}
