{"icao":"LPPS","metar":"LPPS 191730Z 08006KT 050V120 9999 FEW015 SCT030 17/11 Q1026","updated":"2026-02-19T17:49:26Z"}
