{"icao":"LPPS","metar":"LPPS 301430Z 06017G27KT 030V090 9999 FEW015 18/12 Q1025","updated":"2026-03-30T15:02:30Z"}
