{"icao":"LPPT","metar":"LPPT 040430Z 04012KT 9999 FEW018 SCT028 12/10 Q0999","updated":"2026-01-04T04:47:50Z"}
