{"icao":"KJFK","metar":"KJFK 011651Z 22012G19KT 10SM FEW060 FEW250 14/02 A2990 RMK SLP126 T01440017 ","updated":"2026-05-01T16:59:00Z"}
