{"icao":"LPMA","metar":"LPMA 051400Z 04009KT 360V080 9999 FEW015 25/15 Q1023","updated":"2025-10-05T14:13:58Z"}
