{"icao":"LPLA","metar":"LPLA 171200Z 31011KT 9999 FEW018 BKN024 16/13 Q1021","updated":"2026-02-17T13:00:58Z"}
