{"icao":"LPMA","metar":"LPMA 250800Z 14003KT 070V180 9999 FEW015 21/13 Q1020","updated":"2025-09-25T08:23:22Z"}
