{"icao":"LPPD","metar":"LPPD 291100Z 28010KT 9999 FEW008 SCT016 15/12 Q1007","updated":"2026-04-29T11:27:26Z"}
