{"icao":"LPFR","metar":"LPFR 071730Z 26010KT CAVOK 24/16 Q1018","updated":"2026-06-07T18:02:19Z"}
