{"icao":"LPPD","metar":"LPPD 251700Z 23020KT 8000 FEW007 SCT012 17/15 Q1014","updated":"2026-01-25T17:17:04Z"}
