{"icao":"LPMA","metar":"LPMA 270700Z 36009KT 320V050 9999 BKN016 16/11 Q1017","updated":"2026-03-27T07:05:15Z"}
