{"icao":"LPCS","metar":"LPCS 092000Z 01016KT 9999 FEW015 18/14 Q1020","updated":"2025-10-09T20:19:39Z"}
