{"icao":"LPFR","metar":"LPFR 162330Z 36007KT CAVOK 17/09 Q1016","updated":"2026-05-16T23:51:21Z"}
