{"icao":"KJFK","metar":"KJFK 190751Z 14003KT 10SM FEW250 17/14 A3011 RMK AO2 SLP194 T01670144","updated":"2026-05-19T08:33:56Z"}
