{"icao":"LPFR","metar":"LPFR 050700Z VRB02KT CAVOK 18/15 Q1018","updated":"2025-10-05T07:14:27Z"}
