{"icao":"KLAX","metar":"KLAX 050453Z 08004KT 10SM FEW013 BKN060 BKN120 14/13 A3001 RMK AO2 SLP161 T01440128","updated":"2026-01-05T05:35:13Z"}
