{"icao":"LPMR","metar":"LPMR 201200Z 17004KT 8000 SCT025 SCT038 11/10 Q1019","updated":"2026-01-20T12:47:47Z"}
