{"icao":"LPFL","metar":"LPFL 221100Z 33013G25KT 300V010 9999 FEW012 BKN014 14/10 Q1003","updated":"2026-04-22T11:17:41Z"}
