{"icao":"KORD","metar":"KORD 272151Z 16010G19KT 10SM SCT065 BKN250 19/14 A2959 RMK AO2 PK WND 18029/2128 SLP017 T01940144 $","updated":"2026-04-27T22:50:50Z"}
