{"icao":"LPMA","metar":"LPMA 282200Z 31003KT 9999 FEW015 18/14 Q1020","updated":"2026-01-28T22:26:04Z"}
