{"icao":"LPBJ","metar":"LPBJ 072100Z 27008KT CAVOK 19/14 Q1022","updated":"2025-10-07T21:14:46Z"}
