{"icao":"LPAR","metar":"LPAR 261700Z 07003KT 030V120 CAVOK 22/13 Q1023","updated":"2026-02-26T21:31:03Z"}
