{"icao":"LPMT","metar":"LPMT 260800Z 23014KT 6000 -DZ BKN008 OVC012 15/15 Q1013","updated":"2026-01-26T09:32:58Z"}
