{"icao":"LPOV","metar":"LPOV 160100Z VRB02KT 0300 FG OVC001 15/15 Q1016","updated":"2025-10-16T05:17:07Z"}
