{"icao":"LPFR","metar":"LPFR 051900Z 23002KT CAVOK 21/18 Q1017","updated":"2025-10-05T19:12:32Z"}
