{"icao":"LPCS","metar":"LPCS 241230Z 20009KT CAVOK 25/06 Q1017","updated":"2025-09-24T12:36:12Z"}
