{"icao":"LPMR","metar":"LPMR 251700Z 36010KT 9999 FEW018 13/07 Q1024","updated":"2025-11-25T17:18:37Z"}
