{"icao":"LPFR","metar":"LPFR 280130Z 15005KT 9999 FEW012 11/08 Q1007","updated":"2025-12-28T01:47:54Z"}
