{"icao":"KJFK","metar":"KJFK 211351Z 23008KT 10SM SCT250 14/06 A2996 RMK AO2 SLP146 T01390056","updated":"2025-10-21T14:17:33Z"}
