{"icao":"KJFK","metar":"KJFK 051951Z 06008KT 10SM BKN031 OVC060 M01/M08 A3014 RMK AO2 SLP207 T10111078 $","updated":"2025-12-05T20:21:38Z"}
