{"icao":"LPPR","metar":"LPPR 070100Z 18004KT CAVOK 18/13 Q1020","updated":"2025-10-07T01:17:40Z"}
