{"icao":"LPPR","metar":"LPPR 311400Z 19013KT 3500 RADZ BR BKN004 BKN013 18/17 Q1007","updated":"2025-10-31T14:18:06Z"}
