{"icao":"KJFK","metar":"KJFK 201451Z 03007KT 10SM FEW050 FEW250 21/09 A3026 RMK AO2 SLP245 T02060094 51013 $","updated":"2025-09-20T15:14:56Z"}
