{"icao":"LPAZ","metar":"LPAZ 040700Z 01012KT 9999 FEW012 BKN034 14/13 Q1016","updated":"2026-01-04T07:20:10Z"}
