{"icao":"KJFK","metar":"KJFK 160851Z 03011KT 2SM -SN BR FEW008 BKN012 OVC025 M01/M02 A3006 RMK AO2 SLP179 P0000 60005 T10111017 56003 $","updated":"2026-02-16T09:52:49Z"}
