{"icao":"KORD","metar":"KORD 220351Z 20006KT 10SM FEW055 FEW080 OVC230 22/17 A2987 RMK AO2 RAB0257E16 SLP110 CB DSNT E MOV E P0000 T02170167 $","updated":"2025-09-22T04:21:05Z"}
