{"icao":"LPBJ","metar":"LPBJ 191500Z 33012KT 9999 SCT018 13/09 Q1018","updated":"2025-12-19T15:20:52Z"}
