{"icao":"KORD","metar":"KORD 010751Z 09005KT 10SM OVC250 19/14 A3017 RMK AO2 SLP214 T01890144","updated":"2025-10-01T08:24:13Z"}
