{"icao":"LPMT","metar":"LPMT 112300Z VRB02KT CAVOK 23/13 Q1017","updated":"2026-06-11T23:29:45Z"}
