{"icao":"LPBJ","metar":"LPBJ 082300Z 32003KT CAVOK 11/07 Q1023","updated":"2025-11-08T23:15:34Z"}
