{"icao":"LPCS","metar":"LPCS 241600Z 26013KT 230V290 9999 VCSH SCT004 BKN009 17/17 Q1017","updated":"2025-11-24T16:21:40Z"}
