{"icao":"KORD","metar":"KORD 111951Z 25005KT 10SM FEW028 FEW160 BKN250 M03/M11 A2997 RMK AO2 SLP158 T10331106","updated":"2025-12-11T20:22:47Z"}
