{"icao":"KLAX","metar":"KLAX 272253Z 26010KT 10SM CLR 20/14 A2992 RMK AO2 SLP129 T02000144 $","updated":"2025-10-27T23:16:13Z"}
