{"icao":"LPBJ","metar":"LPBJ 150800Z 32009KT 9999 FEW025 11/09 Q1017","updated":"2026-03-15T08:34:51Z"}
