{"icao":"LPLA","metar":"LPLA 120800Z 22010G21KT 190V270 9999 FEW022 13/09 Q1030","updated":"2026-04-12T08:46:36Z"}
