{"icao":"LPHR","metar":"LPHR 051100Z 30017KT 9999 SCT014 FEW018CB SCT030 11/08 Q1004","updated":"2026-02-05T11:34:10Z"}
