{"icao":"LPHR","metar":"LPHR 020700Z 02008KT 9000 -SHRA FEW003 SCT010 BKN020 13/11 Q1031","updated":"2026-04-02T07:10:50Z"}
