{"icao":"KLAX","metar":"KLAX 222053Z 13004KT 10SM SCT095 BKN140 20/07 A2992 RMK AO2 SLP130 T02000067 58016 $","updated":"2025-11-22T21:15:32Z"}
