{"icao":"LPLA","metar":"LPLA 092200Z 30004KT 9999 FEW007 BKN020 15/14 Q1033","updated":"2026-04-09T22:39:15Z"}
