{"icao":"LPPS","metar":"LPPS 241030Z 05012KT 010V080 9999 FEW014 SCT030 18/13 Q1018","updated":"2026-03-24T10:51:14Z"}
