{"icao":"KLAX","metar":"KLAX 240753Z 24005KT 8SM FEW003 BKN005 20/18 A2992 RMK AO2 SLP131 T02000183 402720189 $","updated":"2025-09-24T08:23:46Z"}
