{"icao":"LPFL","metar":"LPFL 170730Z 02006KT 360V060 9999 BKN023 14/07 Q1019","updated":"2026-04-17T07:44:28Z"}
