{"icao":"KLAX","metar":"KLAX 150253Z 09006KT 10SM FEW048 FEW090 16/11 A2995 RMK AO2 SLP141 T01610106 53014 $","updated":"2025-10-15T03:03:45Z"}
