{"icao":"KORD","metar":"KORD 300851Z 28007KT 10SM FEW019 M11/M14 A3022 RMK AO2 SLP245 T11061144 53005","updated":"2025-12-30T09:24:34Z"}
