{"icao":"LPST","metar":"LPST 070900Z 34007KT 9999 SCT017 11/08 Q1024","updated":"2026-01-07T09:26:50Z"}
