{"icao":"LPBJ","metar":"LPBJ 130500Z 29006KT CAVOK 16/12 Q1015","updated":"2025-10-13T05:17:46Z"}
