{"icao":"LPFR","metar":"LPFR 261430Z 11007KT 080V150 CAVOK 19/11 Q1022","updated":"2026-02-26T14:44:47Z"}
