{"icao":"LPFR","metar":"LPFR 122200Z 34018G30KT CAVOK 13/03 Q1020","updated":"2026-04-12T22:32:33Z"}
