{"icao":"LPPD","metar":"LPPD 282000Z 03010KT 360V060 9999 FEW018 BKN030 14/11 Q1034","updated":"2026-03-28T20:29:18Z"}
