{"icao":"LPPS","metar":"LPPS 010500Z VRB01KT CAVOK 15/11 Q1022","updated":"2026-04-01T05:22:50Z"}
