{"icao":"KLAX","metar":"KLAX 271653Z 12005KT 9SM SCT026 OVC031 21/15 A2992 RMK AO2 SLP130 T02110150 $","updated":"2025-09-27T17:13:15Z"}
