{"icao":"LPHR","metar":"LPHR 232000Z 18004KT 140V230 9999 FEW015 21/17 Q1022","updated":"2026-06-23T23:58:06Z"}
