{"icao":"LPMA","metar":"LPMA 051000Z 33009KT 270V010 9999 SCT016 23/16 Q1018","updated":"2025-11-05T10:20:46Z"}
