{"icao":"LPAZ","metar":"LPAZ 232300Z 32015KT 9999 FEW027 14/08 Q1027","updated":"2026-01-23T23:20:38Z"}
