{"icao":"LPCS","metar":"LPCS 141700Z 34020KT 9999 FEW018 23/17 Q1021","updated":"2025-09-14T17:12:41Z"}
