{"icao":"LPAZ","metar":"LPAZ 031330Z 29010KT 9999 SCT022 16/09 Q1029","updated":"2026-03-03T13:59:22Z"}
