{"icao":"LPAZ","metar":"LPAZ 301400Z 28008KT 9999 FEW022 19/18 Q1009","updated":"2025-10-30T14:19:00Z"}
