{"icao":"KLAX","metar":"KLAX 300253Z 25006KT 10SM CLR 21/11 A2993 RMK AO2 SLP132 T02110111 55000 $","updated":"2025-10-30T03:10:26Z"}
