{"icao":"LPPD","metar":"LPPD 210900Z 29018KT 8000 FEW003 BKN005 16/15 Q1021","updated":"2026-01-21T09:31:02Z"}
