{"icao":"LPMA","metar":"LPMA 112000Z VRB05KT 9999 BKN015 17/14 Q1025","updated":"2026-01-11T20:21:59Z"}
