{"icao":"LPHR","metar":"LPHR 241430Z 13003KT 070V200 9999 SCT006 BKN008 19/16 Q1022","updated":"2026-05-24T15:02:12Z"}
