{"icao":"LPCS","metar":"LPCS 261200Z 12006KT 070V160 CAVOK 22/14 Q1018","updated":"2025-10-26T12:33:25Z"}
