{"icao":"LPFR","metar":"LPFR 270700Z 03008G19KT CAVOK 14/05 Q1014","updated":"2026-03-27T07:05:10Z"}
