{"icao":"KJFK","metar":"KJFK 150051Z 32018G24KT 10SM FEW060 M05/M13 A3009 RMK AO2 PK WND 34032/2358 SLP187 DRSN T10501133 $","updated":"2025-12-15T01:41:59Z"}
