{"icao":"LPLA","metar":"LPLA 191700Z 35024G36KT 6000 -SHRA FEW007 BKN012 BKN018 15/12 Q1005","updated":"2026-03-19T17:53:10Z"}
