{"icao":"LPHR","metar":"LPHR 271230Z 12004KT 030V200 9999 FEW020 SCT080 17/10 Q1036","updated":"2026-02-27T12:57:00Z"}
