{"icao":"KJFK","metar":"KJFK 120551Z 26019G28KT 10SM SCT060 SCT190 04/M05 A2993 RMK AO2 PK WND 25032/0505 SLP134 T00441050 10056 20044 51009 $","updated":"2025-11-12T06:28:33Z"}
