{"icao":"LPPR","metar":"LPPR 012000Z 21012KT 4500 -RADZ BR FEW001 BKN002 14/14 Q1001 RERA","updated":"2026-02-01T20:25:21Z"}
