{"icao":"KJFK","metar":"KJFK 131051Z 02003KT 10SM FEW010 BKN130 BKN250 16/16 A3018 RMK AO2 SLP220 T01610156 $","updated":"2025-09-13T11:12:21Z"}
