{"icao":"LPFR","metar":"LPFR 302000Z 03007KT 020V080 CAVOK 11/10 Q1020","updated":"2025-12-30T20:22:01Z"}
