{"icao":"LPPD","metar":"LPPD 281100Z 36019G29KT 9999 SCT012 FEW016TCU 18/14 Q1018","updated":"2025-10-28T11:14:52Z"}
