{"icao":"LPFR","metar":"LPFR 220400Z 05011KT CAVOK 11/M01 Q1027","updated":"2025-11-22T04:20:43Z"}
