{"icao":"LPLA","metar":"LPLA 071700Z 21005KT 140V300 9999 FEW028 20/12 Q1020","updated":"2025-11-07T17:16:22Z"}
