{"icao":"LPMA","metar":"LPMA 101600Z 03012KT 350V050 9999 FEW015 24/15 Q1021","updated":"2025-10-10T16:21:37Z"}
