{"icao":"LPPD","metar":"LPPD 141500Z 26011KT 9999 FEW025 24/20 Q1026","updated":"2025-09-14T15:14:29Z"}
