{"icao":"KJFK","metar":"KJFK 141851Z 18004KT 10SM FEW075 BKN100 BKN250 08/02 A2960 RMK AO2 SLP023 T00780022 $","updated":"2026-01-14T19:18:49Z"}
