{"icao":"LPPD","metar":"LPPD 290430Z 09012KT 060V120 9999 FEW006 SCT014 BKN025 16/14 Q1009","updated":"2025-12-29T04:47:59Z"}
