{"icao":"LPPT","metar":"LPPT 240300Z 24005KT 210V280 9999 BKN009 19/17 Q1013","updated":"2026-06-24T03:28:24Z"}
