{"icao":"LPLA","metar":"LPLA 221600Z 19003KT 170V240 9999 FEW025 18/11 Q1022","updated":"2025-12-22T16:24:42Z"}
