{"icao":"LPLA","metar":"LPLA 241500Z 06005KT 020V080 9999 FEW024 20/13 Q1026","updated":"2025-11-24T15:21:22Z"}
