{"icao":"LPCS","metar":"LPCS 131430Z 31012KT 280V340 9999 FEW016 SCT026 16/09 Q1022","updated":"2026-04-13T14:46:49Z"}
