{"icao":"KJFK","metar":"KJFK 212151Z 16006KT 10SM FEW050 SCT170 BKN250 13/02 A2993 RMK AO2 SLP133 T01280022","updated":"2026-03-21T22:23:09Z"}
