{"icao":"KORD","metar":"KORD 122051Z 22006KT 10SM -RA SCT065 BKN090 OVC110 18/11 A2984 RMK AO2 RAB08 SLP105 P0003 60003 T01780111 58036 $","updated":"2026-05-12T21:18:13Z"}
