{"icao":"LPPR","metar":"LPPR 061100Z 10010KT CAVOK 24/09 Q1020","updated":"2025-10-06T11:14:44Z"}
