{"icao":"LPPT","metar":"LPPT 261800Z 35005KT CAVOK 12/06 Q1024","updated":"2025-11-26T18:23:37Z"}
