{"icao":"LPAZ","metar":"LPAZ 092300Z 15012KT 9999 FEW010 SCT013 22/21 Q1024","updated":"2025-10-09T23:15:29Z"}
