{"icao":"LPPD","metar":"LPPD 010100Z 03005KT 360V060 9999 FEW022 BKN045 16/07 Q1016","updated":"2025-11-01T01:26:38Z"}
