{"icao":"LPBJ","metar":"LPBJ 290300Z 26006KT 4500 2100N -DZ VCFG OVC004 15/14 Q1008","updated":"2026-04-29T03:42:10Z"}
