{"icao":"LPBJ","metar":"LPBJ 071100Z 28007KT 230V330 9999 FEW030 18/08 Q1011","updated":"2026-05-07T11:45:36Z"}
