{"icao":"LPHR","metar":"LPHR 261730Z 06007KT 030V100 9999 FEW015 BKN028 15/11 Q1029","updated":"2026-03-26T18:04:17Z"}
