{"icao":"LPHR","metar":"LPHR 051600Z 07012KT 040V100 9999 FEW020 BKN045 18/09 Q1028","updated":"2026-05-05T16:23:26Z"}
