{"icao":"LPOV","metar":"LPOV 161700Z 24005KT 220V280 8000 BKN008 BKN012 14/14 Q1029","updated":"2026-02-16T17:36:23Z"}
