{"icao":"LPMT","metar":"LPMT 141400Z 27006KT 220V310 9999 FEW025 SCT045 20/14 Q1023","updated":"2026-04-14T15:11:38Z"}
