{"icao":"LPLA","metar":"LPLA 052100Z 21020G31KT 180V240 9999 VCSH FEW017 BKN024 16/12 Q1009","updated":"2026-04-05T21:30:16Z"}
