{"icao":"LPHR","metar":"LPHR 141900Z 02004KT 330V070 9999 FEW030 16/09 Q1009","updated":"2025-11-14T19:14:35Z"}
