{"icao":"KLAX","metar":"KLAX 240053Z 26008KT 10SM SCT011 SCT029 BKN130 16/13 A2988 RMK AO2 SLP116 T01560128 $","updated":"2026-01-24T01:39:02Z"}
