{"icao":"LPFR","metar":"LPFR 230430Z 01004KT CAVOK 13/11 Q1011","updated":"2026-03-23T05:01:40Z"}
