{"icao":"LPMA","metar":"LPMA 141800Z 29003KT 250V350 9999 SCT015 FEW016TCU 21/14 Q1013","updated":"2025-11-14T18:26:36Z"}
