{"icao":"KORD","metar":"KORD 030551Z 31005KT 10SM SCT130 OVC170 M07/M15 A3001 RMK AO2 SLP173 T10671150 11067 21072 410441078 50002 $","updated":"2026-01-03T06:29:39Z"}
