{"icao":"LPMA","metar":"LPMA 042300Z 01007KT 320V050 9999 FEW015 21/14 Q1026","updated":"2025-10-04T23:15:37Z"}
