{"icao":"LPMR","metar":"LPMR 262000Z 08002KT CAVOK 10/07 Q1025","updated":"2025-11-26T20:20:28Z"}
