{"icao":"LPMA","metar":"LPMA 201200Z 11005KT 080V170 9999 FEW015 25/21 Q1021","updated":"2025-09-20T12:32:32Z"}
