{"icao":"LPMA","metar":"LPMA 240800Z 35011KT 320V030 9999 -SHRA SCT015 15/13 Q1015","updated":"2025-12-24T08:28:31Z"}
