{"icao":"KORD","metar":"KORD 282251Z 02016KT 10SM BKN300 18/06 A3016 RMK AO2 SLP211 T01830061","updated":"2026-05-28T23:14:30Z"}
