{"icao":"LPMT","metar":"LPMT 152200Z 35011KT 320V030 9999 FEW030 15/10 Q1017","updated":"2026-05-15T23:00:31Z"}
