{"icao":"KJFK","metar":"KJFK 301451Z 27020G30KT 10SM BKN060 00/M13 A2970 RMK AO2 PK WND 28036/1424 SLP056 T00001133 51017 $","updated":"2025-12-30T15:21:32Z"}
