{"icao":"LPMA","metar":"LPMA 072100Z 01009KT 320V030 9999 SCT015 16/09 Q1034","updated":"2026-01-07T21:18:56Z"}
