{"icao":"KJFK","metar":"KJFK 241451Z 08009KT 4SM -RA BR OVC009 13/12 A3035 RMK AO2 VIS 2 W SLP277 P0015 60035 T01280117 58006 $","updated":"2026-05-24T15:02:25Z"}
