{"icao":"LPCS","metar":"LPCS 152000Z 28007KT 250V310 9999 FEW008 FEW020TCU SCT030 12/09 Q1007","updated":"2025-12-15T20:22:31Z"}
