{"icao":"LPOV","metar":"LPOV 161400Z 10003KT 9000 FEW010 FEW018CB SCT020 BKN045 09/09 Q1012","updated":"2026-01-16T14:22:08Z"}
