{"icao":"LPFL","metar":"LPFL 171800Z 29007KT 230V010 9999 FEW008 17/11 Q1016","updated":"2025-12-17T18:30:47Z"}
