{"icao":"KLAX","metar":"KLAX 070253Z 25004KT 10SM FEW008 16/14 A3002 RMK AO2 SLP165 T01610144 57005 $","updated":"2025-11-07T03:09:51Z"}
