{"icao":"KJFK","metar":"KJFK 091051Z 01007KT 10SM SCT250 M07/M17 A3029 RMK AO2 SLP257 T10721172 $","updated":"2025-12-09T11:18:50Z"}
