{"icao":"LPFR","metar":"LPFR 012300Z 01005KT CAVOK 10/08 Q1019","updated":"2025-12-01T23:17:53Z"}
