{"icao":"LPFR","metar":"LPFR 170230Z 02003KT CAVOK 21/17 Q1019","updated":"2025-09-17T02:54:24Z"}
