{"icao":"LPMA","metar":"LPMA 171000Z 03004KT 360V060 9999 BKN013 FEW015CB 23/22 Q1012","updated":"2025-10-17T10:19:17Z"}
