{"icao":"KJFK","metar":"KJFK 281351Z 27020G28KT 10SM FEW050 FEW110 FEW200 03/M07 A2992 RMK AO2 PK WND 27030/1334 SLP132 T00281072","updated":"2025-11-28T14:19:15Z"}
