{"icao":"LPMA","metar":"LPMA 091230Z 19004KT 130V220 5000 -RA BR SCT007 BKN014 19/18 Q1019","updated":"2025-12-09T12:41:32Z"}
