{"icao":"LPPS","metar":"LPPS 070300Z 04004KT 010V070 9999 BKN012 20/18 Q1023","updated":"2025-10-07T03:31:18Z"}
