{"icao":"LPFL","metar":"LPFL 191100Z 28013G23KT 230V340 9999 FEW017 SCT025 21/15 Q1007","updated":"2026-06-19T11:20:46Z"}
