{"icao":"LPMT","metar":"LPMT 132100Z 30005KT 9999 BKN040 14/10 Q1023","updated":"2026-04-13T21:47:49Z"}
