{"icao":"LPPT","metar":"LPPT 070100Z 34003KT CAVOK 17/15 Q1021","updated":"2025-10-07T01:17:39Z"}
