{"icao":"LPMT","metar":"LPMT 061700Z 27008KT CAVOK 22/17 Q1019","updated":"2025-10-06T17:15:53Z"}
