{"icao":"KJFK","metar":"KJFK 032151Z 05007KT 3SM -RA BR BKN004 OVC018 02/02 A3034 RMK AO2 SFC VIS 4 SLP275 P0010 T00220017","updated":"2026-03-03T22:27:48Z"}
