{"icao":"LPPT","metar":"LPPT 101300Z 10004KT 030V160 9999 FEW014 BKN030 18/16 Q1018","updated":"2025-11-10T13:30:14Z"}
