{"icao":"KORD","metar":"KORD 280751Z 01009KT 10SM FEW250 16/08 A3009 RMK AO2 SLP187 T01560083 $","updated":"2026-05-28T07:56:00Z"}
