{"icao":"KORD","metar":"KORD 111051Z 35007KT 10SM FEW040 09/07 A3014 RMK AO2 SLP208 T00890072","updated":"2025-10-11T11:13:07Z"}
