{"icao":"KJFK","metar":"KJFK 221251Z 09003KT 10SM FEW017 FEW050 SCT250 17/12 A3018 RMK AO2 SLP218 T01720122 $","updated":"2025-09-22T13:27:28Z"}
