{"icao":"LPAZ","metar":"LPAZ 042130Z 04009KT 020V080 9999 SCT023 BKN049 15/10 Q1024","updated":"2026-05-04T21:58:41Z"}
