{"icao":"LPPS","metar":"LPPS 090600Z 00000KT 9999 SCT014 BKN030 14/13 Q1033","updated":"2026-01-09T06:33:04Z"}
