{"icao":"LPST","metar":"LPST 041300Z 02006KT 340V040 CAVOK 19/09 Q1013","updated":"2026-03-04T13:57:29Z"}
