{"icao":"LPMR","metar":"LPMR 251900Z 23003KT 7000 FEW007 SCT018 BKN035 12/11 Q1014","updated":"2026-01-25T19:15:47Z"}
