{"icao":"KLAX","metar":"KLAX 191553Z 00000KT 6SM HZ FEW016 FEW230 SCT280 20/12 A2998 RMK AO2 SLP151 FU FEW016 T02000122","updated":"2026-05-19T16:17:43Z"}
