{"icao":"KORD","metar":"KORD 210351Z 26013G18KT 10SM OVC021 M03/M07 A2993 RMK AO2 SLP144 T10281072","updated":"2026-02-21T04:06:21Z"}
