{"icao":"LPPT","metar":"LPPT 060300Z 25006KT 9999 FEW020 FEW025TCU 13/10 Q1016","updated":"2025-11-06T03:12:50Z"}
