{"icao":"LPST","metar":"LPST 171400Z 28008KT 260V330 CAVOK 22/15 Q1018","updated":"2026-04-17T14:53:56Z"}
