{"icao":"LPBJ","metar":"LPBJ 031800Z 31014KT CAVOK 30/14 Q1018","updated":"2026-06-03T18:21:29Z"}
