{"icao":"LPFR","metar":"LPFR 012230Z 33008KT CAVOK 16/07 Q1020","updated":"2026-04-01T22:35:46Z"}
