{"icao":"KLAX","metar":"KLAX 252053Z 27006KT 10SM FEW015 FEW200 SCT230 BKN280 20/02 A3014 RMK AO2 SLP207 T02000022 58011 $","updated":"2026-01-25T21:18:42Z"}
