{"icao":"LPFL","metar":"LPFL 121130Z VRB09G22KT 9999 FEW024 FEW025TCU 15/08 Q1016","updated":"2026-02-12T11:38:34Z"}
