{"icao":"LPPR","metar":"LPPR 152200Z 21009KT 190V250 9999 FEW020 BKN046 13/12 Q1028","updated":"2026-02-15T22:22:18Z"}
