{"icao":"LPOV","metar":"LPOV 141300Z 34008KT 320V020 CAVOK 23/19 Q1015","updated":"2026-06-14T14:03:58Z"}
