{"icao":"LPHR","metar":"LPHR 270000Z 25005KT 150V310 9000 -RA FEW008 SCT012 BKN030 17/15 Q1021","updated":"2025-11-27T03:10:05Z"}
