{"icao":"KJFK","metar":"KJFK 061051Z 32013KT 10SM SCT050 SCT250 05/M05 A3001 RMK AO2 SLP162 T00501050","updated":"2026-04-06T11:47:39Z"}
