{"icao":"LPCS","metar":"LPCS 261400Z 23015KT 9000 FEW004 BKN010 15/15 Q1012","updated":"2026-01-26T14:27:28Z"}
