{"icao":"LPFR","metar":"LPFR 052100Z 27019KT 9999 FEW015 FEW018CB SCT048 18/12 Q1016","updated":"2025-11-05T21:17:03Z"}
