{"icao":"LPMT","metar":"LPMT 221100Z 01006KT CAVOK 10/05 Q1031","updated":"2025-11-22T11:13:19Z"}
