{"icao":"LPLA","metar":"LPLA 070700Z VRB01KT 9999 FEW023 13/11 Q1020","updated":"2025-11-07T07:17:57Z"}
