{"icao":"LPMT","metar":"LPMT 271600Z 34005KT 280V360 9999 FEW040 24/14 Q1018","updated":"2025-10-27T16:24:01Z"}
