{"icao":"LPHR","metar":"LPHR 132300Z 26016KT 8000 -SHRA SCT007 BKN012 16/14 Q1025","updated":"2026-01-13T23:18:57Z"}
