{"icao":"LPLA","metar":"LPLA 081200Z 23017G27KT 9999 FEW015 SCT035 18/15 Q1030","updated":"2026-01-08T12:42:55Z"}
