{"icao":"KJFK","metar":"KJFK 131151Z AUTO 19010KT 10SM OVC018 11/09 A3017 RMK AO2 SLP215 T01110094 10111 20078 56014 PWINO $","updated":"2026-04-13T12:01:49Z"}
