{"icao":"LPMT","metar":"LPMT 110200Z 02008KT CAVOK 19/13 Q1019","updated":"2025-10-11T02:52:18Z"}
