{"icao":"LPPS","metar":"LPPS 050930Z 06009KT 030V120 9999 SCT014 17/13 Q1018","updated":"2026-04-05T09:37:39Z"}
