{"icao":"KORD","metar":"KORD 132151Z 21009G18KT 10SM SCT030 SCT065 BKN180 BKN250 27/20 A2982 RMK AO2 SLP095 T02670200 $","updated":"2026-06-13T22:02:56Z"}
