{"icao":"KLAX","metar":"KLAX 301853Z 25010KT 10SM FEW009 SCT018 BKN040 21/14 A2996 RMK AO2 SLP145 SCT V BKN T02060139 $","updated":"2026-06-30T19:54:37Z"}
