{"icao":"LPHR","metar":"LPHR 250830Z 36008KT 9999 FEW017 13/09 Q1028","updated":"2026-02-25T08:47:31Z"}
