{"icao":"LPBJ","metar":"LPBJ 101500Z 01009KT 9999 FEW030 BKN037 13/05 Q1019","updated":"2026-03-10T15:58:13Z"}
