{"icao":"LPMT","metar":"LPMT 300900Z 34006KT 300V360 CAVOK 21/14 Q1022","updated":"2026-05-30T09:13:10Z"}
