{"icao":"KJFK","metar":"KJFK 051251Z 01003KT 9SM FEW250 21/17 A3031 RMK AO2 SLP262 T02060172","updated":"2025-10-05T13:20:34Z"}
