{"icao":"LPBJ","metar":"LPBJ 161900Z 32013KT CAVOK 31/17 Q1015","updated":"2026-06-16T19:33:22Z"}
