{"icao":"LPBJ","metar":"LPBJ 151200Z 36012KT 9999 FEW028 17/10 Q1017","updated":"2026-03-15T12:51:19Z"}
