{"icao":"KORD","metar":"KORD 260851Z 00000KT 10SM BKN070 09/03 A3034 RMK AO2 SLP276 T00940033 51003 $","updated":"2025-10-26T09:16:36Z"}
