{"icao":"KORD","metar":"KORD 251006Z 35009KT 4SM -SN OVC027 M14/M18 A3024 RMK AO2 P0000 T11441178 $","updated":"2026-01-25T10:20:53Z"}
