{"icao":"LPPR","metar":"LPPR 261430Z 03011KT 320V060 CAVOK 20/05 Q1018","updated":"2026-03-26T15:02:25Z"}
