{"icao":"LPLA","metar":"LPLA 051804Z 28019G38KT 260V320 7000 -SHRA FEW015 SCT018CB 11/07 Q1007","updated":"2026-02-05T18:45:29Z"}
