{"icao":"LPCS","metar":"LPCS 100930Z 24013KT 0250 R17/0600N FG VV002 15/15 Q1017","updated":"2026-02-10T09:59:35Z"}
