{"icao":"LPMR","metar":"LPMR 251400Z 30010KT 8000 FEW009 18/12 Q1020","updated":"2026-03-25T14:57:28Z"}
