{"icao":"LPMT","metar":"LPMT 081300Z 19013KT 150V210 9999 FEW020 SCT032 18/14 Q1019","updated":"2025-12-08T13:33:51Z"}
