{"icao":"LPMT","metar":"LPMT 251100Z 30003KT 220V010 CAVOK 22/13 Q1016","updated":"2026-04-25T11:36:53Z"}
