{"icao":"LPPD","metar":"LPPD 091030Z 02012KT 340V060 9999 FEW007 SCT013 17/13 Q1034","updated":"2026-04-09T10:57:29Z"}
