{"icao":"LPFL","metar":"LPFL 241100Z 16010KT 130V190 9999 FEW008 BKN010 19/17 Q1025","updated":"2025-11-24T11:16:36Z"}
