{"icao":"KLAX","metar":"KLAX 051153Z 00000KT 6SM HZ FEW008 OVC011 18/15 A2984 RMK AO2 SLP103 T01780150 10183 20178 56009 $","updated":"2026-06-05T12:36:03Z"}
