{"icao":"LPPT","metar":"LPPT 070700Z 29003KT 260V320 9999 FEW003 BKN023 18/15 Q1022","updated":"2025-10-07T07:17:12Z"}
