{"icao":"KJFK","metar":"KJFK 041551Z 19014KT 10SM FEW050 FEW080 17/06 A2992 RMK SLP130 T01670061 ","updated":"2026-05-04T16:02:39Z"}
