{"icao":"LPBJ","metar":"LPBJ 110000Z 30005KT CAVOK 20/12 Q1017","updated":"2026-06-11T00:13:29Z"}
