{"icao":"LPMT","metar":"LPMT 142100Z 33003KT CAVOK 10/10 Q1021","updated":"2026-01-14T21:20:36Z"}
