{"icao":"LPBJ","metar":"LPBJ 081100Z 20007KT 100V230 9999 SCT042 19/06 Q1010","updated":"2026-05-08T11:12:44Z"}
