{"icao":"LPMR","metar":"LPMR 010100Z 14010KT CAVOK 10/06 Q1015","updated":"2026-01-01T01:48:51Z"}
