{"icao":"KJFK","metar":"KJFK 130351Z 33017G22KT 10SM SCT040 SCT190 BKN250 M02/M10 A3007 RMK AO2 SLP181 T10221100 $","updated":"2026-02-13T04:51:38Z"}
