{"icao":"LPPR","metar":"LPPR 281230Z 09003KT 050V130 9999 BKN024 13/09 Q1024","updated":"2025-11-28T12:38:29Z"}
