{"icao":"KJFK","metar":"KJFK 190451Z 23007KT 10SM SCT250 13/09 A3005 RMK AO2 SLP176 T01330094 401830083 $","updated":"2025-10-19T05:17:27Z"}
