{"icao":"LPPT","metar":"LPPT 181700Z 32009KT 290V350 9999 FEW030 16/12 Q1018","updated":"2025-11-18T17:18:02Z"}
