{"icao":"LPFL","metar":"LPFL 300900Z 15017KT 1000 +RADZ BKN005 FEW012CB 17/16 Q1005","updated":"2025-12-30T09:24:21Z"}
