{"icao":"KJFK","metar":"KJFK 162251Z 24014KT 10SM FEW085 SCT250 M01/M11 A3004 RMK AO2 SLP172 T10061106 $","updated":"2026-01-16T23:18:52Z"}
