{"icao":"LPMT","metar":"LPMT 301300Z 36012KT 330V030 CAVOK 15/06 Q1018","updated":"2025-11-30T13:24:56Z"}
