{"icao":"LPPR","metar":"LPPR 201100Z 34008KT 8000 -RA FEW015 BKN020 17/16 Q1021","updated":"2025-09-20T11:12:36Z"}
