{"icao":"LPPT","metar":"LPPT 121530Z 22013KT 9999 SCT014 BKN025 15/12 Q1018","updated":"2026-02-12T15:51:49Z"}
