{"icao":"LPMA","metar":"LPMA 260900Z 13003KT 090V200 9999 FEW015 22/16 Q1021","updated":"2025-09-26T09:20:05Z"}
