{"icao":"LPMT","metar":"LPMT 241000Z 16004KT 9999 FEW011 SCT015 15/11 Q1019","updated":"2026-02-24T10:47:46Z"}
