{"icao":"LPMT","metar":"LPMT 090500Z 11002KT CAVOK 08/08 Q1021 RMK SCT220 BLU","updated":"2025-11-09T06:25:27Z"}
