{"icao":"KLAX","metar":"KLAX 190653Z 00000KT 10SM CLR 14/08 A3004 RMK AO2 SLP169 T01390078","updated":"2026-01-19T07:28:25Z"}
