{"icao":"KJFK","metar":"KJFK 290651Z 29013G20KT 10SM FEW065 01/M07 A3024 RMK SLP240 T00111072 ","updated":"2025-11-29T07:16:56Z"}
