{"icao":"LPOV","metar":"LPOV 170600Z 13003KT 100V160 0100 FG OVC002 13/13 Q1021","updated":"2025-09-17T06:26:49Z"}
