{"icao":"LPLA","metar":"LPLA 132100Z 00000KT 9999 FEW030 18/13 Q1014","updated":"2025-10-13T21:15:17Z"}
