{"icao":"LPCS","metar":"LPCS 252130Z VRB02KT 1200 BR SCT002 BKN010 12/12 Q1014","updated":"2026-01-26T04:55:30Z"}
