{"icao":"KJFK","metar":"KJFK 081251Z 35017G24KT 10SM FEW050 BKN250 M01/M12 A3024 RMK AO2 SLP240 T10111122 $","updated":"2025-12-08T13:34:07Z"}
