{"icao":"LPMR","metar":"LPMR 290700Z 34006KT 310V010 9999 FEW009 BKN013 17/14 Q1021","updated":"2026-05-29T07:53:42Z"}
