{"icao":"LPMT","metar":"LPMT 211600Z 30005KT 260V350 9999 FEW025 SCT045 10/04 Q1009","updated":"2025-12-21T16:22:00Z"}
