{"icao":"LPBJ","metar":"LPBJ 012318Z 20012KT 4000 RADZ BR BKN008 BKN020 13/13 Q1005","updated":"2026-02-01T23:23:22Z"}
