{"icao":"KLAX","metar":"KLAX 110853Z 28006KT 10SM FEW012 SCT024 BKN045 16/14 A2997 RMK AO2 SLP146 T01610139 58003 $","updated":"2026-04-11T09:38:58Z"}
