{"icao":"LPFR","metar":"LPFR 052200Z 08009KT CAVOK 19/07 Q1019","updated":"2026-04-05T22:29:16Z"}
