{"icao":"LPFL","metar":"LPFL 201400Z 13005KT 090V160 9999 FEW014 SCT034 18/14 Q1031","updated":"2025-11-20T14:18:41Z"}
