{"icao":"LPHR","metar":"LPHR 131700Z 25011KT 9999 FEW018 BKN035 16/11 Q1024","updated":"2026-01-13T17:25:35Z"}
