{"icao":"LPPT","metar":"LPPT 041500Z 05007KT 020V090 9999 FEW025 17/11 Q1002","updated":"2026-01-04T15:18:01Z"}
