{"icao":"LPPT","metar":"LPPT 170600Z 03003KT 360V060 CAVOK 15/10 Q1014","updated":"2025-10-17T06:26:23Z"}
