{"icao":"LPPR","metar":"LPPR 031900Z 16007KT CAVOK 15/11 Q1020","updated":"2025-11-03T19:14:39Z"}
