{"icao":"LPLA","metar":"LPLA 021000Z 15005KT CAVOK 22/15 Q1030","updated":"2026-06-02T10:20:43Z"}
