{"icao":"LPHR","metar":"LPHR 021200Z 20006KT 9999 BKN035 19/12 Q1022","updated":"2025-11-02T12:32:50Z"}
