{"icao":"LPBJ","metar":"LPBJ 211600Z 04004KT 350V080 CAVOK 22/05 Q1027","updated":"2026-02-21T16:27:29Z"}
