{"icao":"LPMT","metar":"LPMT 031500Z 03013KT 9999 FEW035 20/12 Q1011","updated":"2026-03-03T15:46:35Z"}
