{"icao":"KJFK","metar":"KJFK 191851Z 18015KT 10SM FEW060 FEW250 25/17 A3002 RMK AO2 SLP165 T02500167","updated":"2026-05-19T18:58:49Z"}
