{"icao":"KLAX","metar":"KLAX 170553Z 13005KT 10SM FEW010 FEW035 17/12 A2986 RMK AO2 SLP108 T01720117 10189 20167 51007","updated":"2026-05-17T06:24:18Z"}
