{"icao":"KJFK","metar":"KJFK 271651Z 02004G15KT 10SM FEW050 12/M01 A3037 RMK AO2 SLP282 T01221006","updated":"2025-10-27T17:15:44Z"}
