{"icao":"LPCS","metar":"LPCS 141100Z 20009KT 9999 FEW006 BKN019 FEW020TCU 15/13 Q1003","updated":"2025-11-14T11:15:31Z"}
