{"icao":"LPMR","metar":"LPMR 231900Z 29005KT CAVOK 23/19 Q1012","updated":"2026-06-23T20:02:05Z"}
