{"icao":"KLAX","metar":"KLAX 181853Z 27007KT 10SM FEW250 27/14 A3003 RMK AO2 SLP167 T02720144 $","updated":"2026-03-18T19:48:22Z"}
