{"icao":"LPLA","metar":"LPLA 301400Z 20006KT 150V240 9999 FEW016 SCT035 17/12 Q1019","updated":"2026-01-30T14:34:43Z"}
