{"icao":"LPPT","metar":"LPPT 151900Z 31009KT CAVOK 23/08 Q1016","updated":"2025-10-15T19:13:54Z"}
