{"icao":"KORD","metar":"KORD 280751Z 26013G25KT 10SM OVC020 13/09 A2968 RMK AO2 PK WND 28034/0736 SLP050 T01280094 $","updated":"2026-04-28T08:34:22Z"}
