{"icao":"LPPR","metar":"LPPR 060600Z 09004KT 050V150 2300 -DZRA BR BKN004 BKN007 15/14 Q1019","updated":"2026-06-06T06:34:05Z"}
