{"icao":"LPFR","metar":"LPFR 272200Z 01005KT 330V040 CAVOK 13/01 Q1022","updated":"2025-11-27T22:17:14Z"}
