{"icao":"KJFK","metar":"KJFK 211051Z 26003KT 7SM BKN055 BKN250 06/06 A2979 RMK AO2 SLP086 T00610061","updated":"2026-03-21T11:21:27Z"}
