{"icao":"LPBJ","metar":"LPBJ 131609Z 22005KT 140V260 1500 +RA FEW010 FEW020CB 15/14 Q1001 RESH","updated":"2025-11-13T16:22:28Z"}
