{"icao":"KJFK","metar":"KJFK 151451Z 34010KT 10SM FEW065 BKN160 BKN250 18/11 A2997 RMK AO2 SLP148 T01780111 58006 $","updated":"2025-10-15T15:18:07Z"}
