{"icao":"LPLA","metar":"LPLA 090500Z 33003KT 7000 -DZ FEW005 SCT007 BKN014 15/14 Q1034","updated":"2026-04-09T05:08:07Z"}
