{"icao":"KLAX","metar":"KLAX 181653Z 27020G29KT 10SM FEW065 SCT095 SCT190 12/02 A3002 RMK AO2 PK WND 27029/1649 SLP163 T01220022","updated":"2026-02-18T17:01:51Z"}
