{"icao":"LPPT","metar":"LPPT 191200Z 21011KT 9999 SCT020 23/17 Q1016","updated":"2025-10-19T12:32:56Z"}
