{"icao":"LPPT","metar":"LPPT 140400Z 31004KT CAVOK 19/10 Q1016","updated":"2025-10-14T04:21:06Z"}
