{"icao":"LPPS","metar":"LPPS 081300Z 06011KT 9999 SCT015 22/16 Q1022","updated":"2025-11-08T13:22:48Z"}
