{"icao":"KLAX","metar":"KLAX 280853Z 09006KT 10SM CLR 10/07 A3013 RMK AO2 SLP200 T01000067 53005 $","updated":"2025-12-28T09:19:26Z"}
