{"icao":"KJFK","metar":"KJFK 191351Z 31010KT 10SM CLR 26/14 A2999 RMK AO2 SLP154 T02560144 $","updated":"2025-09-19T14:17:04Z"}
