{"icao":"LPPS","metar":"LPPS 210700Z 08014KT 050V110 9999 SCT015 17/12 Q1024","updated":"2025-11-21T07:18:44Z"}
