{"icao":"LPPS","metar":"LPPS 191000Z 02005KT 350V050 9999 SCT015 SCT030 20/12 Q1020","updated":"2025-11-19T10:21:07Z"}
