{"icao":"KLAX","metar":"KLAX 122253Z 25012KT 10SM FEW015 FEW250 21/16 A2970 RMK AO2 SLP055 T02110161 $","updated":"2025-10-12T23:15:12Z"}
