{"icao":"KORD","metar":"KORD 100310Z 31013G23KT 2 1/2SM -SN BR FEW013 OVC018 M03/M06 A3018 RMK AO2 PK WND 28027/0257 P0000 T10331056 $","updated":"2025-11-10T03:17:48Z"}
