{"icao":"KLAX","metar":"KLAX 012253Z 26013KT 10SM SCT016 21/14 A2993 RMK AO2 SLP133 T02060144 $","updated":"2026-07-01T23:13:58Z"}
