{"icao":"LPMA","metar":"LPMA 231600Z 04014KT 9999 SCT016 21/13 Q1024","updated":"2025-11-23T16:21:23Z"}
