{"icao":"LPPR","metar":"LPPR 241930Z 17010KT 9999 FEW012 BKN030 14/11 Q1014","updated":"2026-02-24T19:51:45Z"}
