{"icao":"LPHR","metar":"LPHR 302030Z 26006KT 230V290 0200 FG VV001 18/18 Q1025","updated":"2026-05-30T20:54:48Z"}
