{"icao":"LPFR","metar":"LPFR 170500Z 31005KT CAVOK 06/05 Q1014","updated":"2026-01-17T05:19:40Z"}
