{"icao":"LPFR","metar":"LPFR 191230Z 27006KT 230V310 9999 FEW020 15/09 Q1028","updated":"2026-02-19T13:02:49Z"}
