{"icao":"LPOV","metar":"LPOV 060500Z 36021G34KT CAVOK 10/04 Q1019","updated":"2026-03-06T05:43:28Z"}
