{"icao":"LPFR","metar":"LPFR 031330Z 09014KT 9999 FEW030 19/09 Q1009","updated":"2026-03-03T13:59:19Z"}
