{"icao":"LPAZ","metar":"LPAZ 100830Z 22017KT 0400 R18/M0050 FG VV001 17/17 Q1014","updated":"2026-02-10T08:54:16Z"}
