{"icao":"LPPT","metar":"LPPT 240900Z 04012KT CAVOK 21/03 Q1018","updated":"2025-09-24T09:18:50Z"}
