{"icao":"LPPS","metar":"LPPS 040930Z 07004KT 350V140 9999 FEW012 16/13 Q1020","updated":"2026-04-04T09:36:14Z"}
