{"icao":"LPPR","metar":"LPPR 052100Z 02002KT CAVOK 14/08 Q1019","updated":"2026-04-05T21:30:11Z"}
