{"icao":"LPFR","metar":"LPFR 152300Z 22015KT 6000 -DZ SCT005 FEW012TCU BKN015 15/14 Q1017","updated":"2026-01-15T23:19:31Z"}
