{"icao":"KORD","metar":"KORD 291451Z 28020G33KT 8SM -SN OVC020 M07/M11 A2986 RMK AO2 PK WND 30033/1448 SLP121 P0000 60000 T10671106 52046","updated":"2025-12-29T15:21:35Z"}
