{"icao":"LPPS","metar":"LPPS 121700Z 33009KT 9999 FEW015 23/15 Q1017","updated":"2025-10-12T17:13:33Z"}
