{"icao":"KJFK","metar":"KJFK 192251Z 07008KT 10SM OVC036 03/M01 A3005 RMK AO2 SLP176 T00281011 $","updated":"2026-02-19T23:29:00Z"}
