{"icao":"LPPR","metar":"LPPR 122200Z 16012KT 9000 -RA FEW006 SCT011 FEW018CB BKN035 12/11 Q1007 RERA","updated":"2026-02-12T22:31:10Z"}
