{"icao":"LPAR","metar":"LPAR 011600Z 35007KT 320V020 9999 FEW027 31/13 Q1018","updated":"2025-10-02T09:17:54Z"}
