{"icao":"LPLA","metar":"LPLA 221400Z 12008KT 9000 -SHRA SCT006 BKN012 BKN020 20/19 Q1012 RETS","updated":"2025-10-22T14:20:02Z"}
