{"icao":"LPFR","metar":"LPFR 121130Z 25005KT 220V280 9999 FEW008 SCT020 17/14 Q1022","updated":"2026-02-12T11:38:15Z"}
