{"icao":"LPBJ","metar":"LPBJ 140900Z 34008KT 320V030 9999 FEW010 16/10 Q1015","updated":"2026-05-14T09:33:05Z"}
