{"icao":"LPMA","metar":"LPMA 151100Z VRB05KT 9999 SCT015 17/09 Q1026","updated":"2026-01-15T11:19:38Z"}
