{"icao":"LPPR","metar":"LPPR 201600Z 32007KT CAVOK 23/10 Q1021","updated":"2026-05-20T16:23:57Z"}
