{"icao":"LPHR","metar":"LPHR 210800Z 26013KT 7000 SCT007 BKN012 22/21 Q1012","updated":"2025-10-21T08:25:50Z"}
