{"icao":"LPPD","metar":"LPPD 230900Z 16003KT 130V190 9999 FEW007 BKN030 22/21 Q1017","updated":"2025-10-23T09:19:46Z"}
