{"icao":"LPPD","metar":"LPPD 102200Z 02003KT 360V060 9999 SCT018 20/19 Q1022","updated":"2025-10-10T22:15:22Z"}
