{"icao":"KJFK","metar":"KJFK 102151Z 00000KT 10SM FEW070 SCT110 BKN130 BKN250 18/13 A2994 RMK AO2 SLP138 T01780133 $","updated":"2026-05-10T22:45:18Z"}
