{"icao":"LPMA","metar":"LPMA 270130Z 34016KT 290V020 9999 BKN015 16/10 Q1025","updated":"2026-02-27T01:58:32Z"}
