{"icao":"KJFK","metar":"KJFK 291751Z 18016KT 10SM FEW100 FEW150 FEW250 09/M04 A3053 RMK AO2 SLP338 T00891039 10094 20011 56028 $","updated":"2026-03-29T18:46:06Z"}
