{"icao":"LPHR","metar":"LPHR 200530Z 35009KT 320V030 9999 -SHRA SCT025 BKN050 12/05 Q1021","updated":"2026-04-20T05:39:40Z"}
