{"icao":"LPPD","metar":"LPPD 201430Z 34013KT 310V020 9999 FEW025 15/06 Q1017","updated":"2026-04-20T14:49:32Z"}
