{"icao":"LPAZ","metar":"LPAZ 161400Z 31021KT 9999 FEW005 BKN007 23/21 Q1005","updated":"2025-10-16T14:18:29Z"}
