{"icao":"LPOV","metar":"LPOV 181101Z 19014KT 5000 -RA SCT006 BKN010 14/14 Q1017","updated":"2026-02-18T11:37:14Z"}
