{"icao":"KLAX","metar":"KLAX 121653Z VRB03KT 6SM HZ FEW003 FEW007 19/14 A2978 RMK AO2 SLP082 VIS W 2 1/2 T01890144 $","updated":"2025-10-12T17:13:33Z"}
