{"icao":"LPFR","metar":"LPFR 041430Z 11005KT 070V140 9999 FEW020 16/10 Q1012","updated":"2026-03-04T14:40:44Z"}
