{"icao":"LPPS","metar":"LPPS 261900Z 25009KT 210V280 9999 FEW015 18/11 Q1017","updated":"2026-01-26T19:22:34Z"}
