{"icao":"KLAX","metar":"KLAX 260853Z 00000KT 10SM BKN180 BKN250 13/10 A3024 RMK AO2 SLP237 T01280100 51002 $","updated":"2026-01-26T09:33:14Z"}
