{"icao":"LPMT","metar":"LPMT 081000Z 24003KT 200V270 9999 FEW025 13/09 Q1016","updated":"2026-02-08T10:25:19Z"}
