{"icao":"LPLA","metar":"LPLA 200000Z 25002KT 9999 FEW023 SCT035 19/15 Q1010","updated":"2026-06-20T00:08:36Z"}
