{"icao":"LPAZ","metar":"LPAZ 200300Z 04008KT 9999 FEW026 18/10 Q1026","updated":"2025-09-20T03:25:56Z"}
