{"icao":"KLAX","metar":"KLAX 240253Z 22006KT 10SM FEW009 18/16 A3000 RMK AO2 SLP157 T01780156 53001","updated":"2025-10-24T03:36:15Z"}
