{"icao":"LPPR","metar":"LPPR 061900Z 36003KT 310V090 CAVOK 20/12 Q1020","updated":"2025-10-06T19:13:39Z"}
