{"icao":"LPMA","metar":"LPMA 261300Z 01013G23KT 340V050 9999 BKN016 17/11 Q1018","updated":"2026-03-26T13:12:54Z"}
