{"icao":"LPFL","metar":"LPFL 261400Z 17011KT 130V210 9999 VCSH FEW012 SCT032 20/17 Q1017","updated":"2025-11-26T14:19:28Z"}
