{"icao":"KLAX","metar":"KLAX 051453Z 09003KT 7SM FEW006 SCT025 SCT140 12/11 A3005 RMK AO2 SLP173 T01220111 53011 $","updated":"2026-01-05T15:22:53Z"}
