{"icao":"LPCS","metar":"LPCS 201400Z 23008KT 190V270 9999 FEW016 SCT024 21/17 Q1015","updated":"2025-10-20T14:17:39Z"}
