{"icao":"LPAZ","metar":"LPAZ 261100Z 26030KT 9000 FEW014 SCT032 17/13 Q1007","updated":"2026-01-26T11:19:59Z"}
