{"icao":"KJFK","metar":"KJFK 011151Z 02012KT 10SM FEW035 FEW250 14/06 A3016 RMK AO2 SLP213 T01440061 10178 20139 53017 $","updated":"2025-10-01T12:38:45Z"}
