{"icao":"KLAX","metar":"KLAX 220415Z 24007KT 2SM BR OVC002 16/15 A2991 RMK AO2 VIS SW-NW 1/2 T01560150","updated":"2026-03-22T04:50:42Z"}
