{"icao":"LPHR","metar":"LPHR 181230Z 13005KT 090V160 9999 FEW020 16/10 Q1026","updated":"2026-02-18T13:01:43Z"}
