{"icao":"KLAX","metar":"KLAX 231112Z 00000KT 2SM BR FEW002 OVC004 16/14 A2989 RMK AO2 VIS W 1 1/2 T01560144","updated":"2026-03-23T11:41:58Z"}
