{"icao":"LPCS","metar":"LPCS 111630Z 36032G44KT 9999 FEW025 14/06 Q1014 WS R35","updated":"2026-04-11T16:35:27Z"}
