{"icao":"LPMA","metar":"LPMA 031500Z VRB04KT 9999 FEW015 21/11 Q1000","updated":"2026-01-03T15:18:39Z"}
