{"icao":"LPLA","metar":"LPLA 011700Z 33025KT 9999 FEW025 SCT040 14/06 Q1025","updated":"2026-03-01T17:20:46Z"}
