{"icao":"KJFK","metar":"KJFK 211151Z 27009KT 10SM FEW250 11/05 A2996 RMK AO2 SLP145 T01110050 10128 20106 52006","updated":"2025-10-21T12:39:15Z"}
