{"icao":"LPAZ","metar":"LPAZ 071600Z 29005KT 9999 FEW017 18/14 Q1011","updated":"2025-12-07T16:21:04Z"}
