{"icao":"LPMA","metar":"LPMA 180400Z 35007KT 300V020 9999 -RA SCT015 17/15 Q1022","updated":"2025-11-18T04:22:57Z"}
