{"icao":"LPMA","metar":"LPMA 020700Z 36007KT 310V030 9999 SCT014 SCT030 21/17 Q1021","updated":"2025-10-02T07:16:33Z"}
