{"icao":"LPFL","metar":"LPFL 261100Z VRB14G34KT 8000 3500N -SHRA FEW012 SCT017 09/04 Q1006","updated":"2026-01-26T11:20:00Z"}
