{"icao":"LPAR","metar":"LPAR 021100Z 29012KT 240V340 9999 -SHRA SCT020 FEW022CB SCT035 11/06 Q1000","updated":"2026-02-02T11:34:17Z"}
