{"icao":"KORD","metar":"KORD 060557Z 23010KT 10SM TS BKN060CB OVC250 24/21 A2982 RMK AO2 TSE56B57 CONS LTGICCC NW-NE TS NW-NE MOV SE T02440206","updated":"2026-06-06T06:34:23Z"}
