{"icao":"LPMT","metar":"LPMT 032100Z 18007KT 140V230 6000 RADZ BKN006 BKN020 12/12 Q0995","updated":"2026-02-03T21:33:00Z"}
