{"icao":"KJFK","metar":"KJFK 081051Z 22016G24KT 10SM BKN024 BKN037 OVC090 22/19 A2990 RMK AO2 RAB0954E04 SLP123 P0000 T02170189","updated":"2025-10-08T11:14:48Z"}
