{"icao":"KORD","metar":"KORD 021651Z VRB04KT 10SM FEW250 BKN300 25/11 A3024 RMK AO2 SLP236 T02500106","updated":"2025-10-02T17:13:01Z"}
