{"icao":"LPPT","metar":"LPPT 020830Z 25013G25KT 220V300 9000 SHRA FEW015 FEW025CB BKN032 11/08 Q0997 WS R20","updated":"2026-02-02T08:40:57Z"}
