{"icao":"LPFR","metar":"LPFR 082100Z VRB02KT 9999 FEW020 BKN026 11/09 Q1032","updated":"2026-01-08T21:19:43Z"}
