{"icao":"LPBJ","metar":"LPBJ 281900Z 28008KT 9999 FEW025 BKN030 BKN038 19/16 Q1014","updated":"2025-09-28T19:12:07Z"}
