{"icao":"LPMT","metar":"LPMT 200500Z 08004KT 8000 FEW008 11/10 Q1012","updated":"2026-04-20T05:39:38Z"}
