{"icao":"LPBJ","metar":"LPBJ 201600Z 33006KT 290V360 CAVOK 27/14 Q1017","updated":"2025-09-20T16:18:41Z"}
