{"icao":"LPAZ","metar":"LPAZ 251800Z 22021KT 7000 FEW012 SCT049 18/16 Q1016","updated":"2026-01-25T18:28:52Z"}
