{"icao":"KLAX","metar":"KLAX 060053Z 25007KT 10SM FEW280 16/08 A3003 RMK AO2 SLP169 T01610083 $","updated":"2025-12-06T01:22:42Z"}
