{"icao":"LPBJ","metar":"LPBJ 180900Z 03006KT 9999 BKN035 06/05 Q1011","updated":"2026-01-18T09:19:45Z"}
