{"icao":"LPPS","metar":"LPPS 090330Z 06010KT 020V110 9999 FEW015 BKN030 21/16 Q1024","updated":"2025-10-09T03:35:48Z"}
