{"icao":"KORD","metar":"KORD 021851Z 23010G17KT 10SM SCT047 SCT250 11/00 A3015 RMK AO2 SLP212 T01110000 $","updated":"2025-11-02T19:12:33Z"}
