{"icao":"LPMT","metar":"LPMT 121200Z 23007KT 9999 FEW015 SCT025 16/13 Q1021","updated":"2026-02-12T13:04:49Z"}
