{"icao":"LPPD","metar":"LPPD 201530Z 26013KT 9999 VCSH FEW016 FEW018CB 21/17 Q1012","updated":"2026-06-20T15:49:11Z"}
