{"icao":"LPMT","metar":"LPMT 281800Z 34008KT CAVOK 14/07 Q1022","updated":"2026-02-28T18:31:32Z"}
