{"icao":"LPMR","metar":"LPMR 060300Z 03006KT CAVOK 06/02 Q1020","updated":"2026-01-06T03:27:49Z"}
