{"icao":"LPFL","metar":"LPFL 061530Z 18018G28KT 9999 SCT020 SCT045 16/11 Q1023","updated":"2026-03-06T15:35:54Z"}
