{"icao":"LPOV","metar":"LPOV 221700Z 33007KT 280V360 9999 FEW028 18/10 Q1013","updated":"2026-04-22T18:03:00Z"}
