{"icao":"LPHR","metar":"LPHR 081100Z 23011KT 9999 VCSH SCT004 SCT010 BKN025 17/16 Q1030","updated":"2026-01-08T11:19:48Z"}
