{"icao":"LPMA","metar":"LPMA 181900Z 02013G35KT 290V080 9999 SCT015 16/08 Q1021","updated":"2026-01-18T19:15:38Z"}
