{"icao":"LPMT","metar":"LPMT 302100Z 34012KT CAVOK 22/16 Q1020","updated":"2026-06-30T21:26:54Z"}
