{"icao":"LPPR","metar":"LPPR 200730Z 11003KT 070V150 9999 FEW020 BKN035 07/05 Q1031","updated":"2026-02-20T07:47:23Z"}
