{"icao":"LPMA","metar":"LPMA 041330Z 01010G22KT 270V050 9999 BKN015 FEW016CB 16/11 Q1021","updated":"2026-03-04T13:57:33Z"}
