{"icao":"LPPD","metar":"LPPD 222300Z 29023KT 9999 FEW022 14/06 Q1020","updated":"2026-01-22T23:19:48Z"}
