{"icao":"KLAX","metar":"KLAX 240853Z 00000KT 10SM SCT250 16/09 A3009 RMK AO2 SLP187 T01560094 55003","updated":"2026-02-24T09:52:00Z"}
