{"icao":"LPLA","metar":"LPLA 150700Z 22016G28KT 190V260 9999 FEW018 16/11 Q1027","updated":"2026-02-15T07:37:01Z"}
