{"icao":"LPLA","metar":"LPLA 131900Z 22020G34KT 180V250 9999 FEW014 SCT018 18/14 Q1017","updated":"2026-04-13T19:23:07Z"}
