{"icao":"KJFK","metar":"KJFK 032251Z 16005KT 10SM FEW120 BKN230 14/10 A3014 RMK AO2 SLP206 T01390100","updated":"2026-04-03T23:32:18Z"}
