{"icao":"LPPD","metar":"LPPD 231130Z 05013KT 010V070 9999 FEW025 15/08 Q1024","updated":"2026-03-23T11:41:54Z"}
