{"icao":"LPPS","metar":"LPPS 022100Z 34023G35KT 9999 SCT015 FEW018TCU 14/06 Q1019","updated":"2026-03-02T21:32:12Z"}
