{"icao":"KORD","metar":"KORD 212211Z 11011G18KT 4SM RA BR FEW020 OVC085 16/14 A2986 RMK AO2 P0001 T01610144 $","updated":"2026-06-21T22:14:26Z"}
