{"icao":"KORD","metar":"KORD 101451Z 14005KT 10SM CLR 13/M04 A3008 RMK AO2 SLP188 T01331039 51017 $","updated":"2026-05-10T15:52:32Z"}
