{"icao":"KORD","metar":"KORD 262151Z 23016G23KT 10SM FEW025 FEW250 M13/M22 A3020 RMK AO2 SLP244 T11331217","updated":"2026-01-26T22:20:58Z"}
