{"icao":"KJFK","metar":"KJFK 070051Z 34010KT 10SM FEW070 BKN250 08/M04 A3016 RMK AO2 SLP212 T00831039 $","updated":"2025-11-07T01:24:09Z"}
