{"icao":"LPFR","metar":"LPFR 280800Z 24036G49KT 2500 -RA BR SCT008 BKN012 16/15 Q1001 RERA","updated":"2026-01-28T08:30:39Z"}
