{"icao":"LPPD","metar":"LPPD 050830Z 04009KT 360V080 9999 FEW025 11/03 Q1035","updated":"2026-03-05T08:39:46Z"}
