{"icao":"LPFL","metar":"LPFL 141400Z 01005KT 340V040 9999 FEW025 FEW026TCU 21/13 Q1002","updated":"2025-10-14T14:18:31Z"}
