{"icao":"LPFR","metar":"LPFR 281700Z 26015KT 2500 -RA BR SCT012 BKN030 14/14 Q1009","updated":"2026-01-28T17:30:40Z"}
