{"icao":"KORD","metar":"KORD 210551Z 29020G31KT 10SM CLR M02/M12 A3014 RMK AO2 PK WND 29031/0550 SLP213 T10171117 10028 21017 400441044 53035","updated":"2025-12-21T06:28:50Z"}
