{"icao":"LPAZ","metar":"LPAZ 201000Z 24008KT 9000 SCT004 23/23 Q1018","updated":"2025-10-20T10:20:09Z"}
