{"icao":"LPPR","metar":"LPPR 250800Z 28005KT 240V330 6000 FEW020 FEW025CB BKN046 13/10 Q1010","updated":"2026-01-25T08:26:15Z"}
