{"icao":"KORD","metar":"KORD 100651Z 20011G17KT 10SM BKN250 03/M03 A2983 RMK AO2 SLP108 T00281028","updated":"2026-02-10T07:02:54Z"}
