{"icao":"LPBJ","metar":"LPBJ 242100Z 13010KT CAVOK 14/09 Q1016","updated":"2026-02-24T21:33:20Z"}
