{"icao":"KORD","metar":"KORD 170551Z 29006KT 10SM CLR 02/M08 A2998 RMK AO2 SLP158 T00221078 10067 20022 400940022 51007 $","updated":"2025-11-17T06:29:53Z"}
