{"icao":"LPAZ","metar":"LPAZ 241400Z 24018KT 9999 FEW033 BKN045 17/11 Q1024","updated":"2026-01-24T14:18:52Z"}
