{"icao":"LPPR","metar":"LPPR 091400Z 32011KT 9999 FEW020 14/07 Q1027","updated":"2026-01-09T14:23:16Z"}
