{"icao":"LPAZ","metar":"LPAZ 212000Z 23013KT 9999 FEW004 BKN008 23/22 Q1018","updated":"2025-10-21T20:20:54Z"}
