{"icao":"LPBJ","metar":"LPBJ 261200Z 19003KT 130V260 9999 FEW015 BKN030 22/16 Q1019","updated":"2025-10-26T12:33:28Z"}
