{"icao":"LPPS","metar":"LPPS 250500Z VRB01KT 9999 FEW015 19/14 Q1019","updated":"2025-09-25T05:17:33Z"}
