{"icao":"LPPD","metar":"LPPD 201800Z 25015KT 6000 FEW004 BKN007 23/22 Q1015","updated":"2025-10-20T18:27:07Z"}
