{"icao":"KORD","metar":"KORD 110551Z 36007KT 10SM FEW040 13/11 A3012 RMK AO2 SLP200 T01330106 10172 20128 401940100 51009","updated":"2025-10-11T06:23:37Z"}
