{"icao":"LPCS","metar":"LPCS 271400Z 01007KT 320V070 CAVOK 17/05 Q1023","updated":"2025-11-27T14:18:33Z"}
