{"icao":"LPOV","metar":"LPOV 070700Z 17010KT 6000 -RA BKN004 BKN010 FEW012CB 15/14 Q1012","updated":"2025-11-07T07:17:55Z"}
