{"icao":"KORD","metar":"KORD 250302Z 00000KT 10SM OVC013 06/02 A3006 RMK AO2 T00610022 $","updated":"2025-12-25T03:25:36Z"}
