{"icao":"LPMT","metar":"LPMT 280300Z 11004KT 080V140 9999 SCT035 18/18 Q1016","updated":"2025-10-28T03:05:55Z"}
