{"icao":"LPPD","metar":"LPPD 081830Z 24016KT 2500 1400NW -DZ BR SCT001 BKN004 17/16 Q1014","updated":"2026-02-08T18:35:30Z"}
