{"icao":"LPPS","metar":"LPPS 050900Z 03005KT 350V050 9999 FEW015 SCT030 17/09 Q1026","updated":"2025-12-05T09:21:07Z"}
