{"icao":"LPPD","metar":"LPPD 230200Z 26020KT 9999 FEW020 14/09 Q1002","updated":"2026-04-23T02:32:01Z"}
