{"icao":"LPMA","metar":"LPMA 281300Z 03011KT 350V060 9999 BKN016 SCT030 20/13 Q1023","updated":"2025-11-28T13:29:21Z"}
