{"icao":"LPST","metar":"LPST 061400Z 18016KT 9999 FEW035 21/11 Q1015","updated":"2026-04-06T14:44:47Z"}
