{"icao":"LPPT","metar":"LPPT 020730Z 13004KT 110V180 5000 BR BKN003 11/11 Q1011","updated":"2026-03-02T07:49:30Z"}
