{"icao":"LPAR","metar":"LPAR 291300Z 18004KT 130V290 6000 -SHRA BKN018 FEW020CB BKN040 20/17 Q1008","updated":"2025-10-29T13:31:34Z"}
