{"icao":"LPFL","metar":"LPFL 230800Z 36011KT 9999 FEW019 SCT035 19/11 Q1025","updated":"2025-09-23T08:22:51Z"}
