{"icao":"LPMA","metar":"LPMA 271230Z 02009KT 300V060 9999 FEW016 21/11 Q1022","updated":"2025-11-27T12:39:57Z"}
