{"icao":"KORD","metar":"KORD 240951Z 20007KT 10SM BKN043 BKN070 BKN250 21/14 A2963 RMK AO2 SLP027 T02060139","updated":"2026-04-24T10:20:11Z"}
