{"icao":"LPFR","metar":"LPFR 110200Z 24014KT 3000 -DZ BR BKN002 15/15 Q1021","updated":"2026-02-11T02:11:52Z"}
