{"icao":"KORD","metar":"KORD 142251Z 08010KT 10SM CLR 26/15 A3005 RMK AO2 SLP171 T02610150 $","updated":"2025-09-14T23:14:31Z"}
