{"icao":"KLAX","metar":"KLAX 120706Z 25008KT 10SM FEW025 BKN033 BKN055 17/11 A2999 RMK AO2 T01670111 $","updated":"2026-04-12T07:12:26Z"}
