{"icao":"LPBJ","metar":"LPBJ 261600Z 01004KT 310V040 CAVOK 23/05 Q1022","updated":"2026-02-26T16:57:02Z"}
