{"icao":"LPPR","metar":"LPPR 140300Z 19010G20KT 7000 SHRA FEW014 15/13 Q0999","updated":"2025-11-14T03:11:55Z"}
