{"icao":"LPOV","metar":"LPOV 070600Z 16011KT 130V190 9999 FEW016 09/07 Q1007","updated":"2026-02-07T06:40:16Z"}
