{"icao":"KORD","metar":"KORD 212051Z 26010G19KT 10SM FEW025 OVC048 M03/M09 A2990 RMK AO2 PK WND 24026/2001 SLP134 T10331089 55000 $","updated":"2026-01-21T21:27:41Z"}
