{"icao":"LPMR","metar":"LPMR 131000Z 25005KT 190V290 2500 -RADZ BR BKN009 BKN014 12/11 Q1009","updated":"2026-01-13T10:23:12Z"}
