{"icao":"LPMA","metar":"LPMA 230230Z 34009KT 310V020 9999 SCT015 23/18 Q1021","updated":"2025-10-23T03:02:34Z"}
