{"icao":"LPFL","metar":"LPFL 221800Z 32010G22KT 240V010 9999 VCSH SCT027 12/06 Q1020","updated":"2026-01-22T18:31:51Z"}
