{"icao":"LPCS","metar":"LPCS 302100Z 01012KT CAVOK 11/06 Q1020","updated":"2025-11-30T21:16:12Z"}
