{"icao":"KORD","metar":"KORD 221451Z 28011G22KT 10SM OVC030 09/03 A2981 RMK AO2 PK WND 27026/1353 SLP098 T00890028 53018","updated":"2025-10-22T15:18:40Z"}
