{"icao":"LPPS","metar":"LPPS 050430Z 02020KT 9999 SCT012 15/11 Q1015","updated":"2026-01-05T04:55:59Z"}
