{"icao":"LPFR","metar":"LPFR 111830Z 26005KT CAVOK 14/09 Q1025","updated":"2026-03-11T18:52:20Z"}
