{"icao":"KLAX","metar":"KLAX 031053Z 10003KT 10SM FEW012 BKN017 OVC022 16/11 A2991 RMK AO2 SLP126 T01610111","updated":"2026-05-03T11:40:47Z"}
