{"icao":"LPCS","metar":"LPCS 131700Z 16015KT 9000 -SHRA FEW004 SCT010 FEW020TCU BKN040 17/17 Q0996","updated":"2025-11-13T17:17:41Z"}
