{"icao":"LPPR","metar":"LPPR 031600Z 32009KT 8000 VCFG BKN004 BKN007 17/16 Q1023","updated":"2025-10-03T16:20:38Z"}
