{"icao":"LPPT","metar":"LPPT 081800Z 23009KT 6000 -DZ FEW006 SCT010 BKN012 12/11 Q1031","updated":"2026-01-08T18:27:08Z"}
