{"icao":"KJFK","metar":"KJFK 131751Z 19011KT 10SM SCT055 28/13 A2989 RMK SLP122 T02830139 10289 20239 58007 $ ","updated":"2026-06-13T18:06:03Z"}
