{"icao":"LPHR","metar":"LPHR 141700Z 04006KT 320V130 9999 SCT030 17/09 Q1008","updated":"2025-11-14T17:16:58Z"}
