{"icao":"LPOV","metar":"LPOV 150600Z 17007KT 2000 -SHRA BR BKN008 BKN016 09/09 Q1029","updated":"2026-02-15T06:50:47Z"}
