{"icao":"LPCS","metar":"LPCS 011030Z 22005KT 180V250 9999 FEW014 19/09 Q1020","updated":"2026-05-01T10:39:38Z"}
