{"icao":"KORD","metar":"KORD 281751Z 27012G20KT 10SM FEW250 M12/M20 A3015 RMK AO2 SLP227 4/002 933002 T11171200 11111 21172 58013","updated":"2026-01-28T18:35:52Z"}
