{"icao":"KORD","metar":"KORD 231414Z 33004KT 10SM BKN012 OVC120 21/18 A2994 RMK AO2 T02060178","updated":"2025-09-23T14:17:54Z"}
