{"icao":"LPFR","metar":"LPFR 200430Z VRB02KT CAVOK 17/15 Q1020","updated":"2026-05-20T05:03:02Z"}
