{"icao":"LPPS","metar":"LPPS 301800Z 25007KT 9999 FEW015 22/14 Q1015","updated":"2025-10-30T18:27:10Z"}
