{"icao":"LPBJ","metar":"LPBJ 051921Z 33017KT 9999 SCT008 BKN023 10/08 Q1016","updated":"2026-03-05T19:50:40Z"}
