{"icao":"LPBJ","metar":"LPBJ 131700Z 32012KT 9999 FEW026 18/08 Q1020","updated":"2026-03-13T17:33:06Z"}
