{"icao":"LPPS","metar":"LPPS 011300Z 04012KT 360V090 9999 FEW015 SCT030 24/16 Q1022","updated":"2025-10-01T13:28:14Z"}
