{"icao":"KLAX","metar":"KLAX 142253Z 26015KT 10SM FEW010 FEW250 17/13 A3006 RMK AO2 SLP179 T01670133","updated":"2025-12-14T23:17:28Z"}
