{"icao":"LPAZ","metar":"LPAZ 070400Z 23012KT 9999 FEW005 SCT010 23/22 Q1021","updated":"2025-10-07T04:21:32Z"}
