{"icao":"LPFR","metar":"LPFR 080700Z 02004KT CAVOK 06/04 Q1032","updated":"2026-01-08T07:23:22Z"}
