{"icao":"LPAZ","metar":"LPAZ 251600Z 06009KT 020V110 9999 BKN024 17/10 Q1028","updated":"2026-03-25T16:14:06Z"}
