{"icao":"LPCS","metar":"LPCS 271800Z 05016KT 9000 -RA FEW014 FEW025TCU BKN028 09/07 Q1006","updated":"2025-12-27T18:26:47Z"}
