{"icao":"LPFR","metar":"LPFR 112100Z 32007KT CAVOK 21/13 Q1016","updated":"2025-10-11T21:13:41Z"}
