{"icao":"LPFL","metar":"LPFL 131300Z 03007KT 360V060 9999 FEW017 BKN035 16/11 Q1032","updated":"2026-05-13T13:09:59Z"}
