{"icao":"LPPR","metar":"LPPR 281630Z 22009KT 200V260 9000 VCSH FEW015 SCT025 13/10 Q1002","updated":"2026-01-28T16:35:35Z"}
