{"icao":"KORD","metar":"KORD 061951Z 19005KT 10SM SCT047 BKN075 BKN110 BKN250 26/18 A3003 RMK AO2 RAB34E49 SLP163 CB DSNT W-NW MOV NE P0000 T02610178 $","updated":"2025-10-06T20:19:35Z"}
