{"icao":"LPBJ","metar":"LPBJ 240100Z 34008KT 9999 FEW012 BKN025 05/03 Q1007","updated":"2026-01-24T01:38:43Z"}
