{"icao":"KJFK","metar":"KJFK 270951Z 03014KT 1SM R04R/P6000FT -SN BR BKN012 BKN017 OVC024 M02/M03 A2990 RMK AO2 SLP124 P0000 T10171028 $","updated":"2025-12-27T10:19:06Z"}
