{"icao":"LPFR","metar":"LPFR 141230Z 31020KT CAVOK 16/03 Q1026","updated":"2026-02-14T12:44:35Z"}
