{"icao":"LPPD","metar":"LPPD 130100Z 31013KT 9999 FEW020 FEW022CB 15/09 Q1002","updated":"2025-11-13T01:24:47Z"}
