{"icao":"LPPT","metar":"LPPT 302200Z 19013KT 9999 SCT010 18/16 Q1014","updated":"2025-10-30T22:17:14Z"}
