{"icao":"LPMT","metar":"LPMT 101700Z 32003KT 290V350 9999 FEW030 28/12 Q1018","updated":"2025-10-10T17:15:30Z"}
