{"icao":"KLAX","metar":"KLAX 061053Z 00000KT 10SM FEW010 17/15 A2979 RMK AO2 SLP086 T01670150 $","updated":"2025-10-06T11:14:48Z"}
