{"icao":"LPHR","metar":"LPHR 311230Z 21003KT 150V230 9999 FEW012 17/14 Q1003","updated":"2025-12-31T12:40:36Z"}
