{"icao":"KJFK","metar":"KJFK 150451Z 28009KT 10SM SCT070 SCT250 08/M03 A2992 RMK AO2 SLP132 T00781033 401110044","updated":"2025-11-15T05:17:49Z"}
