{"icao":"LPHR","metar":"LPHR 282000Z 28015KT 9999 SCT008 BKN012 17/15 Q1028","updated":"2026-02-28T20:24:27Z"}
