{"icao":"LPMT","metar":"LPMT 020800Z 13006KT 7000 SCT020 BKN040 12/11 Q1011","updated":"2026-03-02T08:42:37Z"}
