{"icao":"LPMT","metar":"LPMT 211800Z 01006KT CAVOK 17/12 Q1027","updated":"2026-02-21T18:33:16Z"}
