{"icao":"LPOV","metar":"LPOV 251500Z 34016KT 9999 FEW025 19/14 Q1015","updated":"2026-04-25T15:38:03Z"}
