{"icao":"LPMA","metar":"LPMA 190930Z 01010KT 340V050 9999 FEW011 SCT015TCU 20/12 Q1012","updated":"2026-04-19T09:45:44Z"}
