{"icao":"LPAR","metar":"LPAR 271200Z 29005KT 250V320 9999 BKN020 15/12 Q1025","updated":"2026-02-27T12:56:45Z"}
