{"icao":"LPPT","metar":"LPPT 220600Z 27004KT 8000 SHRA FEW018 FEW020TCU BKN035 07/06 Q1012","updated":"2025-12-22T06:33:13Z"}
