{"icao":"LPAZ","metar":"LPAZ 231230Z 24014KT 210V270 9000 VCSH FEW003 SCT006 BKN012 23/21 Q1022","updated":"2025-09-23T12:36:10Z"}
