{"icao":"LPLA","metar":"LPLA 250900Z 24019G34KT 9999 FEW015 SCT040 18/14 Q1014","updated":"2026-01-25T09:20:19Z"}
