{"icao":"LPAZ","metar":"LPAZ 151130Z 27008KT 9999 FEW028 16/08 Q1025","updated":"2026-04-15T11:57:57Z"}
