{"icao":"LPBJ","metar":"LPBJ 170500Z 02012KT 300V060 5000 -RADZ BR SCT006 BKN015 12/12 Q1009 RERA","updated":"2025-11-17T05:19:19Z"}
