{"icao":"KLAX","metar":"KLAX 100653Z 24004KT 3SM BR FEW002 FEW004 16/14 A3012 RMK AO2 SLP198 VIS SW 2 T01560144 $","updated":"2025-11-10T07:18:20Z"}
