{"icao":"LPPS","metar":"LPPS 180500Z VRB02KT 9999 FEW013 20/15 Q1018","updated":"2025-09-18T05:16:07Z"}
