{"icao":"LPHR","metar":"LPHR 071500Z 25010KT 9999 VCSH FEW010 SCT014 BKN095 16/16 Q1012","updated":"2026-02-07T15:23:30Z"}
