{"icao":"KJFK","metar":"KJFK 232051Z 05005KT 10SM FEW009 SCT013 OVC033 04/03 A3002 RMK AO2 RAE42 SLP166 P0000 60003 T00440033 56026 $","updated":"2025-12-23T21:18:30Z"}
