{"icao":"KJFK","metar":"KJFK 231051Z 31009KT 10SM SCT220 00/M14 A3016 RMK AO2 SLP212 T00001144 $","updated":"2026-01-23T11:19:39Z"}
