{"icao":"LPPS","metar":"LPPS 101630Z 35020KT 3000 DZ BR BKN005 BKN030 15/14 Q1018","updated":"2026-04-10T16:49:55Z"}
