{"icao":"LPPD","metar":"LPPD 082000Z 24003KT 180V290 9999 FEW014 SCT035 17/15 Q1032","updated":"2026-01-08T20:23:52Z"}
