{"icao":"KLAX","metar":"KLAX 232053Z 24014KT 10SM FEW095 FEW240 SCT290 21/11 A2996 RMK AO2 SLP145 T02060106 56015 $","updated":"2026-04-23T21:44:04Z"}
