{"icao":"LPOV","metar":"LPOV 090400Z VRB02KT 8000 OVC006 15/15 Q1020","updated":"2025-10-09T04:21:11Z"}
