{"icao":"LPHR","metar":"LPHR 261900Z 20016KT 6000 -RADZ FEW006 BKN010 19/18 Q1021","updated":"2025-11-26T19:14:31Z"}
