{"icao":"KORD","metar":"KORD 150951Z 25006KT 10SM CLR M01/M03 A2991 RMK AO2 SLP134 T10111028 $","updated":"2026-02-15T10:25:58Z"}
