{"icao":"LPCS","metar":"LPCS 050700Z 18016KT 8000 -SHRA SCT004 BKN012 FEW018CB 20/20 Q1005","updated":"2025-11-05T07:18:09Z"}
