{"icao":"LPHR","metar":"LPHR 171600Z 23027KT 3000 -RADZ BR SCT004 BKN007 19/18 Q1015 RERA","updated":"2025-12-17T16:27:11Z"}
