{"icao":"LPFR","metar":"LPFR 212000Z 03005KT CAVOK 16/05 Q1027","updated":"2026-02-21T20:23:21Z"}
