{"icao":"LPPR","metar":"LPPR 040900Z 22003KT 190V260 9999 FEW040 16/11 Q1015","updated":"2025-11-04T09:20:28Z"}
