{"icao":"LPOV","metar":"LPOV 150700Z 16003KT 7000 BKN008 BKN016 09/09 Q1029","updated":"2026-02-15T08:31:35Z"}
