{"icao":"LPLA","metar":"LPLA 180900Z 31019KT 7000 -DZ FEW003 SCT006 BKN012 16/15 Q1025","updated":"2025-11-18T09:20:46Z"}
