{"icao":"LPPR","metar":"LPPR 251000Z 35005KT 330V030 9999 -RA FEW019 SCT040 15/13 Q1015","updated":"2025-10-25T10:16:45Z"}
