{"icao":"KJFK","metar":"KJFK 211851Z 18016G23KT 10SM FEW170 BKN230 M01/M11 A3040 RMK PRESFR SLP295 T10061106 $ ","updated":"2026-01-21T19:25:28Z"}
