{"icao":"LPPR","metar":"LPPR 022100Z 33006KT 4900 2000W BR BCFG SCT001 BKN003 16/15 Q1023","updated":"2025-10-02T21:14:33Z"}
