{"icao":"LPMT","metar":"LPMT 280100Z 06009KT 9999 SCT018 BKN026 10/09 Q1007","updated":"2025-12-28T01:47:56Z"}
