{"icao":"LPMA","metar":"LPMA 220400Z 35007KT 9999 SCT015 23/19 Q1020","updated":"2025-10-22T04:21:22Z"}
