{"icao":"KORD","metar":"KORD 262051Z 01024G36KT 10SM -RA BKN043 OVC140 10/06 A2981 RMK AO2 PK WND 36036/2042 RAE09B44 SLP096 P0000 60000 T01000056 53013","updated":"2026-03-26T21:30:33Z"}
