{"icao":"KORD","metar":"KORD 150851Z 14003KT 10SM CLR 19/14 A3013 RMK AO2 SLP197 T01890139 53005 $","updated":"2025-09-15T09:20:42Z"}
