{"icao":"LPOV","metar":"LPOV 261800Z 18019KT 5000 -RA BR FEW009 SCT014 BKN020 15/14 Q1004","updated":"2026-01-26T19:22:15Z"}
