{"icao":"LPFR","metar":"LPFR 170900Z 30005KT 280V340 9999 FEW018 08/06 Q1014","updated":"2026-01-17T09:19:11Z"}
