{"icao":"LPPT","metar":"LPPT 262100Z 31008KT CAVOK 15/12 Q1024","updated":"2026-02-26T21:30:56Z"}
