{"icao":"LPMA","metar":"LPMA 011730Z 01013KT 9999 FEW015 22/09 Q1022","updated":"2026-04-01T17:50:56Z"}
