{"icao":"LPMA","metar":"LPMA 281700Z 06004KT 020V100 9999 FEW014 20/14 Q1018","updated":"2026-01-28T17:30:57Z"}
