{"icao":"LPHR","metar":"LPHR 301100Z 11017KT 5000 -RA BR FEW007 SCT011 BKN030 17/17 Q1009","updated":"2025-12-30T11:18:38Z"}
