{"icao":"LPHR","metar":"LPHR 151400Z 07009KT 040V130 9999 FEW018 BKN033 18/11 Q1029","updated":"2026-03-15T14:28:45Z"}
