{"icao":"LPCS","metar":"LPCS 011000Z 08009KT 050V120 9999 FEW010 BKN026 09/09 Q1012","updated":"2026-01-01T10:21:26Z"}
