{"icao":"LPFR","metar":"LPFR 230900Z 10006KT 060V140 CAVOK 24/06 Q1016","updated":"2025-09-23T09:18:56Z"}
