{"icao":"LPAZ","metar":"LPAZ 110430Z 23019KT 3200 BR SCT004 16/16 Q1014","updated":"2026-02-11T05:01:35Z"}
