{"icao":"LPFR","metar":"LPFR 222000Z 23016KT 9000 BKN005 BKN012 15/14 Q1008","updated":"2026-01-22T20:26:20Z"}
