{"icao":"LPFL","metar":"LPFL 240900Z 17015KT 150V210 9999 FEW005 SCT008 17/16 Q1018","updated":"2025-12-24T09:23:05Z"}
