{"icao":"LPPR","metar":"LPPR 241030Z 20007KT 170V230 9999 BKN006 20/18 Q1015","updated":"2026-06-24T10:47:25Z"}
