{"icao":"LPAZ","metar":"LPAZ 151900Z 26005KT 230V300 9999 SCT020 SCT034 23/19 Q1026","updated":"2025-09-15T19:13:39Z"}
