{"icao":"LPMT","metar":"LPMT 240200Z 32003KT CAVOK 13/10 Q1015","updated":"2026-04-24T02:32:55Z"}
