{"icao":"LPOV","metar":"LPOV 241400Z 24008KT 200V270 9999 FEW020 16/12 Q1016","updated":"2026-02-24T14:48:19Z"}
