{"icao":"LPPR","metar":"LPPR 131230Z 16020KT 9999 SCT037 18/14 Q0999","updated":"2025-11-13T12:40:04Z"}
