{"icao":"LPHR","metar":"LPHR 271300Z 06011G21KT 020V080 9999 VCSH SCT014 FEW018TCU BKN035 19/14 Q1020","updated":"2025-10-27T13:30:33Z"}
