{"icao":"LPCS","metar":"LPCS 251300Z 10003KT 020V130 9999 -RA SCT012 BKN020 FEW024TCU 20/20 Q1014","updated":"2025-10-25T13:21:35Z"}
