{"icao":"LPBJ","metar":"LPBJ 231600Z VRB02KT CAVOK 34/07 Q1019","updated":"2026-05-23T16:07:16Z"}
