{"icao":"LPLA","metar":"LPLA 061100Z 01005KT 330V060 9999 FEW030 BKN045 16/07 Q1024","updated":"2026-05-06T11:05:13Z"}
