{"icao":"LPAZ","metar":"LPAZ 300600Z 17009KT 9999 SCT005 18/18 Q1025","updated":"2026-05-30T06:22:57Z"}
