{"icao":"LPHR","metar":"LPHR 180600Z 26009KT 9000 SCT002 BKN004 22/21 Q1012","updated":"2025-10-18T06:24:17Z"}
