{"icao":"LPHR","metar":"LPHR 161130Z 26005KT 220V290 9999 SCT011 BKN027 15/14 Q1021","updated":"2026-03-16T11:45:06Z"}
