{"icao":"LPPR","metar":"LPPR 292030Z 19007KT 9999 VCSH FEW011 BKN040 16/13 Q1010","updated":"2026-04-29T21:02:49Z"}
