{"icao":"LPMT","metar":"LPMT 120700Z 02006KT CAVOK 16/12 Q1016","updated":"2025-10-12T07:15:25Z"}
