{"icao":"KLAX","metar":"KLAX 151453Z 33005KT 10SM FEW015 FEW035 SCT060 13/10 A3001 RMK AO2 SLP163 T01330100 53007 $","updated":"2025-10-15T15:18:08Z"}
