{"icao":"LPMT","metar":"LPMT 250500Z 27009KT 230V300 7000 -RADZ FEW009 SCT015 BKN025 13/13 Q1015","updated":"2026-01-25T05:27:22Z"}
