{"icao":"LPFR","metar":"LPFR 031300Z 16007KT CAVOK 25/15 Q1021","updated":"2025-10-03T13:24:24Z"}
