{"icao":"LPMA","metar":"LPMA 271000Z 22016KT 9999 BKN013 FEW016CB 23/21 Q1016","updated":"2025-10-27T10:21:25Z"}
