{"icao":"KLAX","metar":"KLAX 100053Z 24012KT 10SM FEW015 FEW040 SCT150 20/15 A2986 RMK AO2 SLP111 T02000150 $","updated":"2025-10-10T01:18:27Z"}
