{"icao":"LPPS","metar":"LPPS 291600Z 35010KT 320V020 9999 SCT015 20/13 Q1021","updated":"2025-11-29T16:21:58Z"}
