{"icao":"LPBJ","metar":"LPBJ 060100Z 31005KT CAVOK 02/M01 Q1017","updated":"2026-01-06T01:40:48Z"}
