{"icao":"LPBJ","metar":"LPBJ 030200Z 27003KT 200V310 CAVOK 10/07 Q1021","updated":"2026-04-03T02:10:54Z"}
