{"icao":"LPLA","metar":"LPLA 291000Z 24004KT 210V280 9999 SCT040 17/10 Q1018","updated":"2025-10-29T10:20:26Z"}
