{"icao":"LPMR","metar":"LPMR 160100Z 13003KT 0300 FG BKN003 06/06 Q1015","updated":"2026-01-16T01:41:53Z"}
