{"icao":"LPAR","metar":"LPAR 221400Z 22012KT 4000 -RA BR SCT009 BKN020 BKN035 13/11 Q1007","updated":"2026-01-22T14:29:09Z"}
