{"icao":"KJFK","metar":"KJFK 172251Z 04004KT 10SM FEW140 FEW250 15/00 A2994 RMK AO2 SLP138 T01500000","updated":"2025-10-17T23:15:35Z"}
