{"icao":"LPFL","metar":"LPFL 240800Z 17009KT 120V220 9999 SCT012 19/16 Q1024","updated":"2025-11-24T08:27:33Z"}
