{"icao":"LPBJ","metar":"LPBJ 141200Z 09004KT 040V170 9999 FEW048 28/11 Q1017","updated":"2025-10-14T12:38:51Z"}
