{"icao":"LPST","metar":"LPST 161400Z 32009KT 9999 FEW025 23/12 Q1014","updated":"2025-10-16T14:18:27Z"}
