{"icao":"LPMA","metar":"LPMA 311330Z 18005KT 140V220 9999 BKN015 19/15 Q1025","updated":"2026-01-31T13:40:04Z"}
