{"icao":"KJFK","metar":"KJFK 200851Z 20006KT 10SM SCT160 BKN250 18/16 A2997 RMK AO2 SLP148 T01780161 56007 $","updated":"2026-05-20T09:30:15Z"}
