{"icao":"KJFK","metar":"KJFK 151151Z 08006KT 10SM FEW110 SCT170 BKN250 02/M06 A3048 RMK AO2 SLP320 T00221056 10039 20017 51021","updated":"2026-03-15T12:51:22Z"}
