{"icao":"LPBJ","metar":"LPBJ 082300Z 16011KT CAVOK 12/09 Q1021","updated":"2025-12-08T23:18:26Z"}
