{"icao":"KJFK","metar":"KJFK 241451Z 33011KT 10SM FEW050 BKN180 BKN250 M11/M23 A3067 RMK AO2 SLP384 T11061228 53022 $","updated":"2026-01-24T15:19:09Z"}
