{"icao":"KJFK","metar":"KJFK 082051Z 36014G22KT 10SM FEW180 BKN250 M03/M22 A3029 RMK AO2 SLP255 T10281217 53006 $","updated":"2025-12-08T21:16:24Z"}
