{"icao":"LPPR","metar":"LPPR 140400Z 00000KT CAVOK 14/12 Q1016","updated":"2025-10-14T04:21:07Z"}
