{"icao":"LPMA","metar":"LPMA 241600Z 03012KT 360V060 9999 FEW015 20/15 Q1023","updated":"2025-11-24T16:22:00Z"}
