{"icao":"LPPS","metar":"LPPS 232130Z 06015KT 9999 SCT010 16/14 Q1015","updated":"2026-03-23T21:35:36Z"}
