{"icao":"KORD","metar":"KORD 251651Z 34012KT 3/4SM R10L/5000VP6000FT -SN VV015 M11/M13 A3010 RMK AO2 SLP208 SNINCR 1/3 P0000 T11061133 $","updated":"2026-01-25T17:17:22Z"}
