{"icao":"LPPR","metar":"LPPR 162130Z 35003KT 8000 FEW005 11/11 Q1021","updated":"2026-04-16T21:41:33Z"}
