{"icao":"LPFL","metar":"LPFL 250800Z VRB04KT 9999 -DZ BKN009 19/17 Q1025","updated":"2025-11-25T08:27:03Z"}
