{"icao":"KORD","metar":"KORD 181851Z VRB03KT 10SM SCT250 29/12 A3004 RMK AO2 SLP169 T02940122","updated":"2025-09-18T19:14:21Z"}
