{"icao":"LPPR","metar":"LPPR 081500Z 28004KT 230V310 9999 FEW028 17/10 Q1022","updated":"2025-11-08T15:15:46Z"}
