{"icao":"LPOV","metar":"LPOV 301000Z 21022KT 180V250 7000 SCT013 SCT014CB BKN040 12/12 Q1008","updated":"2026-01-30T10:32:29Z"}
