{"icao":"KLAX","metar":"KLAX 141227Z 16011G18KT 5SM -RA BR FEW015 BKN030 OVC038 16/13 A2979 RMK AO2 P0006 T01560133 $","updated":"2025-10-14T12:39:20Z"}
