{"icao":"LPPT","metar":"LPPT 090330Z 24009KT 5000 DZ FEW002 SCT006 BKN010 13/13 Q1028","updated":"2026-01-09T03:38:09Z"}
