{"icao":"LPHR","metar":"LPHR 030800Z 22004KT 9999 FEW002 BKN005 22/22 Q1021","updated":"2025-10-03T08:22:02Z"}
