{"icao":"LPPR","metar":"LPPR 111700Z 24011KT 210V270 7000 FEW007 BKN012 16/15 Q1010","updated":"2026-02-11T17:13:24Z"}
