{"icao":"LPAZ","metar":"LPAZ 150230Z 21014KT 9999 FEW019 22/18 Q1008","updated":"2025-10-15T03:03:40Z"}
