{"icao":"LPMA","metar":"LPMA 052200Z 36012KT 320V060 9999 SCT015 FEW018TCU 14/08 Q1024","updated":"2026-01-05T22:19:43Z"}
