{"icao":"LPBJ","metar":"LPBJ 202100Z 33004KT CAVOK 09/05 Q1022","updated":"2025-11-20T21:17:13Z"}
