{"icao":"LPOV","metar":"LPOV 251000Z 00000KT 9999 SCT028 BKN045 07/07 Q1011","updated":"2025-12-25T11:17:14Z"}
