{"icao":"LPPR","metar":"LPPR 132300Z 09006KT CAVOK 13/08 Q1023","updated":"2025-12-13T23:17:09Z"}
