{"icao":"LPHR","metar":"LPHR 141400Z 33009KT 230V360 9999 FEW020 17/09 Q1008","updated":"2025-11-14T14:18:09Z"}
