{"icao":"KORD","metar":"KORD 290951Z 21006KT 10SM FEW120 BKN210 BKN250 05/M02 A3024 RMK AO2 SLP244 T00501017 $","updated":"2026-03-29T10:32:07Z"}
