{"icao":"LPPT","metar":"LPPT 092300Z 24002KT 5000 BR FEW001 13/13 Q1019","updated":"2025-12-09T23:18:23Z"}
