{"icao":"LPBJ","metar":"LPBJ 281200Z 30003KT 230V010 CAVOK 14/08 Q1023","updated":"2025-11-28T12:38:32Z"}
