{"icao":"LPAZ","metar":"LPAZ 080230Z 21012KT 9999 FEW028 SCT036 19/14 Q1022","updated":"2025-11-08T03:00:54Z"}
