{"icao":"LPOV","metar":"LPOV 131100Z 33007KT 290V360 CAVOK 22/13 Q1023","updated":"2025-09-13T11:12:05Z"}
