{"icao":"LPLA","metar":"LPLA 181600Z 12009KT 9000 SCT004 SCT010 BKN015 16/15 Q1014","updated":"2026-04-18T16:39:06Z"}
