{"icao":"LPMR","metar":"LPMR 151500Z 29006KT 9999 FEW008 21/14 Q1016","updated":"2025-10-15T15:17:36Z"}
