{"icao":"KLAX","metar":"KLAX 042153Z 25010KT 10SM FEW009 22/15 A2989 RMK AO2 SLP119 T02170150 $","updated":"2026-06-04T22:19:49Z"}
