{"icao":"KJFK","metar":"KJFK 302051Z 05008KT 10SM FEW200 BKN250 26/11 A3003 RMK AO2 SLP167 T02610106 56008 $","updated":"2025-09-30T21:15:39Z"}
