{"icao":"KORD","metar":"KORD 142251Z 26008KT 10SM FEW020 FEW200 BKN250 M14/M22 A3063 RMK AO2 SLP390 T11391217","updated":"2025-12-14T23:17:30Z"}
