{"icao":"KORD","metar":"KORD 270951Z 09007KT 10SM FEW027 08/05 A3025 RMK AO2 SLP244 T00780050 $","updated":"2025-10-27T10:21:38Z"}
