{"icao":"LPFL","metar":"LPFL 271600Z 02007KT 350V050 9999 FEW025 BKN038 16/08 Q1026","updated":"2025-11-27T16:23:36Z"}
