{"icao":"LPHR","metar":"LPHR 081230Z 34035G53KT 290V010 8000 VCSH SCT010 FEW018CB BKN097 15/12 Q0989 RESHRA","updated":"2025-12-08T12:40:14Z"}
