{"icao":"KORD","metar":"KORD 242051Z 20007KT 10SM FEW080 SCT150 OVC250 09/M09 A3025 RMK AO2 SLP248 T00941089 56025","updated":"2026-03-24T21:36:53Z"}
