{"icao":"KLAX","metar":"KLAX 121553Z 26005KT 8SM FEW007 SCT013 21/17 A2990 RMK AO2 SLP123 SCT V BKN T02110167","updated":"2026-06-12T16:16:04Z"}
