{"icao":"LPCS","metar":"LPCS 211500Z 28015KT 240V310 9999 VCSH FEW006 SCT014 16/14 Q1005","updated":"2026-01-21T15:30:33Z"}
