{"icao":"LPMR","metar":"LPMR 192200Z 15003KT 110V180 0100 FG VV001 05/05 Q1022","updated":"2026-01-19T22:20:03Z"}
