{"icao":"KORD","metar":"KORD 120251Z 09011KT 10SM BKN029 16/08 A3009 RMK AO2 SLP188 T01560083 55004","updated":"2025-10-12T03:01:12Z"}
