{"icao":"LPST","metar":"LPST 140900Z 36002KT 310V040 8000 FEW008 SCT016 FEW025CB 11/10 Q1019","updated":"2026-01-14T09:27:37Z"}
