{"icao":"LPPT","metar":"LPPT 061700Z 24013KT CAVOK 24/17 Q1019","updated":"2025-10-06T17:15:50Z"}
