{"icao":"LPPD","metar":"LPPD 282300Z 36006KT 9999 FEW016 14/08 Q1029","updated":"2025-11-28T23:16:59Z"}
