{"icao":"LPFR","metar":"LPFR 241230Z 09010KT 9000 BKN007 17/14 Q1020","updated":"2026-02-24T13:02:59Z"}
