{"icao":"LPMA","metar":"LPMA 181000Z 01024G40KT 330V050 9999 BKN014 16/10 Q1017","updated":"2026-01-18T10:19:58Z"}
