{"icao":"KORD","metar":"KORD 201751Z 22006KT 9SM -RA SCT065 BKN095 BKN140 OVC250 24/17 A3007 RMK AO2 RAB28 SLP179 P0000 60000 T02440172 10250 20194 53000","updated":"2025-09-20T18:21:43Z"}
