{"icao":"LPMA","metar":"LPMA 171800Z 35008KT 290V020 9999 SCT015 16/10 Q1019","updated":"2026-01-17T18:27:16Z"}
