{"icao":"KLAX","metar":"KLAX 111753Z 04006KT 10SM FEW260 FEW300 18/M02 A3025 RMK AO2 SLP242 T01831017 10183 20072 51007 $","updated":"2026-01-11T18:27:48Z"}
