{"icao":"KJFK","metar":"KJFK 310451Z 26011KT 10SM BKN047 BKN060 BKN250 15/13 A2931 RMK AO2 SLP925 T01500133 401720106","updated":"2025-10-31T05:19:24Z"}
