{"icao":"KJFK","metar":"KJFK 310551Z 26018KT 10SM SCT047 BKN060 13/11 A2932 RMK AO2 PK WND 26026/0547 SLP928 60016 T01330111 10167 20133 55012","updated":"2025-10-31T06:27:39Z"}
