{"icao":"LPPD","metar":"LPPD 021430Z 07009KT 020V110 9999 SCT020 SCT035 17/13 Q1019","updated":"2026-05-02T14:44:41Z"}
