{"icao":"LPLA","metar":"LPLA 090800Z 08003KT 050V130 9999 BKN038 12/05 Q1035","updated":"2026-03-09T08:42:09Z"}
