{"icao":"LPPS","metar":"LPPS 050330Z 02020KT 9999 SCT012 15/12 Q1015","updated":"2026-01-05T03:54:34Z"}
