{"icao":"KORD","metar":"KORD 132251Z 18003KT 10SM FEW100 BKN130 BKN250 11/M02 A3013 RMK AO2 SLP205 T01061017","updated":"2025-11-13T23:18:14Z"}
