{"icao":"LPMR","metar":"LPMR 292300Z 15003KT 3500 1200S BR PRFG FEW003 07/06 Q1021","updated":"2025-12-29T23:18:35Z"}
