{"icao":"LPFR","metar":"LPFR 142000Z 26010KT 9999 FEW005 20/18 Q1016","updated":"2026-06-14T20:16:05Z"}
