{"icao":"KORD","metar":"KORD 291551Z 32004KT 10SM FEW025 SCT250 M13/M21 A3033 RMK AO2 SLP286 T11281206","updated":"2026-01-29T16:42:04Z"}
