{"icao":"LPPT","metar":"LPPT 181000Z 06004KT 340V140 CAVOK 20/14 Q1018","updated":"2025-10-18T10:16:32Z"}
