{"icao":"KJFK","metar":"KJFK 250951Z 21006KT 10SM BKN210 06/02 A3027 RMK AO2 SLP249 T00610022","updated":"2025-11-25T10:22:34Z"}
