{"icao":"KORD","metar":"KORD 250851Z 35009KT 5SM -SN OVC033 M15/M18 A3026 RMK AO2 SLP264 P0000 60003 T11501183 58033 $","updated":"2026-01-25T09:20:21Z"}
