{"icao":"LPBJ","metar":"LPBJ 281500Z 02010KT 350V050 CAVOK 21/06 Q1020","updated":"2026-03-28T15:29:25Z"}
