{"icao":"LPMR","metar":"LPMR 151100Z 23006KT 170V300 4000 -RA FEW012 OVC024 14/13 Q1005","updated":"2025-11-15T11:13:28Z"}
