{"icao":"LPFL","metar":"LPFL 111500Z 33018G29KT 300V360 9999 VCSH SCT026 FEW028TCU 17/08 Q1008","updated":"2025-11-11T15:19:37Z"}
