{"icao":"KJFK","metar":"KJFK 300351Z 30012KT 10SM FEW050 FEW250 M08/M16 A3015 RMK SLP209 T10831161 $ ","updated":"2026-01-30T04:10:19Z"}
