{"icao":"LPLA","metar":"LPLA 171300Z 18012KT 140V220 9999 FEW015 SCT022 23/18 Q1012","updated":"2025-10-17T13:26:44Z"}
