{"icao":"LPST","metar":"LPST 271000Z VRB01KT CAVOK 13/07 Q1025","updated":"2025-11-27T10:21:22Z"}
