{"icao":"KORD","metar":"KORD 241651Z VRB05KT 10SM SCT012 BKN023 BKN110 19/15 A3005 RMK AO2 SLP175 T01890150 $","updated":"2026-05-24T16:59:12Z"}
