{"icao":"LPHR","metar":"LPHR 091530Z 13010KT 9999 FEW033 15/08 Q1035","updated":"2026-03-09T15:57:12Z"}
