{"icao":"LPPS","metar":"LPPS 110900Z 20013KT 9999 FEW015 21/14 Q1014","updated":"2025-11-11T09:20:26Z"}
