{"icao":"LPOV","metar":"LPOV 070700Z 36006KT CAVOK 07/04 Q1019","updated":"2026-03-07T07:27:25Z"}
