{"icao":"LPLA","metar":"LPLA 271600Z 09005KT 040V130 9999 SCT030 15/07 Q1035","updated":"2026-02-27T16:39:22Z"}
