{"icao":"LPPS","metar":"LPPS 031400Z 01010KT 340V050 9999 SCT015 19/12 Q1027","updated":"2025-12-03T14:20:38Z"}
