{"icao":"LPPD","metar":"LPPD 132330Z 21014KT 9999 FEW013 16/13 Q1021","updated":"2026-04-13T23:40:51Z"}
