{"icao":"KLAX","metar":"KLAX 121853Z 24005KT 10SM FEW075 FEW180 SCT250 17/08 A3015 RMK AO2 SLP210 T01720083","updated":"2026-02-12T19:08:53Z"}
