{"icao":"LPMT","metar":"LPMT 220900Z 24005KT 200V260 9999 FEW028 12/09 Q1010","updated":"2026-01-22T09:31:14Z"}
