{"icao":"KJFK","metar":"KJFK 021451Z 00000KT 10SM FEW250 12/02 A3032 RMK AO2 SLP266 T01170022 50016 $","updated":"2025-11-02T15:16:05Z"}
