{"icao":"LPPR","metar":"LPPR 170400Z 00000KT CAVOK 11/10 Q1020","updated":"2025-09-17T04:20:44Z"}
