{"icao":"KORD","metar":"KORD 041427Z 24014G22KT 1 1/4SM BR OVC003 13/13 A2978 RMK AO2 T01330128 $","updated":"2026-04-04T14:32:44Z"}
