{"icao":"LPBJ","metar":"LPBJ 091400Z 22010KT 8000 -SHRA FEW020 FEW025CB BKN030 16/13 Q1007 RESHRA","updated":"2026-05-09T14:49:13Z"}
