{"icao":"LPHR","metar":"LPHR 280530Z 26005KT 230V310 8000 -SHRA SCT006 SCT012 BKN035 17/15 Q1013","updated":"2026-04-28T05:58:11Z"}
