{"icao":"KJFK","metar":"KJFK 111951Z 28017G28KT 10SM BKN055 BKN120 BKN200 08/M05 A2976 RMK AO2 PK WND 27029/1930 SLP077 T00831050","updated":"2026-01-11T20:22:00Z"}
