{"icao":"LPAZ","metar":"LPAZ 301900Z 29019KT 9999 FEW022 19/15 Q1009","updated":"2025-10-30T19:14:34Z"}
