{"icao":"KJFK","metar":"KJFK 242051Z 14009KT 10SM SCT160 BKN250 13/05 A2983 RMK SLP100 T01280050 53004 $ ","updated":"2026-04-24T21:45:54Z"}
