{"icao":"KJFK","metar":"KJFK 200051Z 07004KT 10SM FEW047 05/00 A3023 RMK AO2 SLP237 T00500000 $","updated":"2025-11-20T01:22:27Z"}
