{"icao":"KJFK","metar":"KJFK 131651Z 33014G19KT 10SM CLR 00/M10 A3017 RMK AO2 SLP217 T00001100 $","updated":"2026-02-13T17:38:38Z"}
