{"icao":"LPPT","metar":"LPPT 140900Z 34007KT 280V020 9999 BKN012 21/18 Q1023","updated":"2025-09-14T09:15:28Z"}
