{"icao":"LPCS","metar":"LPCS 162130Z 36019KT 9999 FEW010 19/14 Q1017","updated":"2026-06-16T22:09:40Z"}
