{"icao":"KJFK","metar":"KJFK 060951Z 36007KT 10SM FEW180 BKN250 M06/M12 A2983 RMK AO2 SLP102 T10611117 PNO $","updated":"2026-02-06T10:37:41Z"}
