{"icao":"LPCS","metar":"LPCS 031100Z 12005KT 090V180 CAVOK 16/11 Q1023","updated":"2025-11-03T11:15:30Z"}
