{"icao":"LPPT","metar":"LPPT 270600Z 24010KT 9999 FEW015 SCT022 13/11 Q1000","updated":"2026-01-27T06:33:43Z"}
