{"icao":"LPFL","metar":"LPFL 070730Z 26011G24KT 210V310 7000 -DZ FEW006 SCT011 20/18 Q1024","updated":"2026-06-07T07:53:39Z"}
