{"icao":"LPMR","metar":"LPMR 132300Z 16004KT 7000 FEW020 09/08 Q1014","updated":"2026-01-13T23:18:43Z"}
