{"icao":"LPMT","metar":"LPMT 111400Z 29005KT 240V010 9999 FEW045 27/15 Q1017","updated":"2025-10-11T14:13:32Z"}
