{"icao":"KORD","metar":"KORD 281557Z 25011G17KT 10SM BKN026 OVC031 12/06 A2994 RMK AO2 T01220061 $","updated":"2026-04-28T16:49:48Z"}
