{"icao":"LPBJ","metar":"LPBJ 182300Z 21003KT CAVOK 16/09 Q1017","updated":"2026-04-18T23:33:15Z"}
