{"icao":"LPBJ","metar":"LPBJ 101900Z 27009KT 9999 FEW020 19/14 Q1012","updated":"2026-04-10T19:42:17Z"}
