{"icao":"KJFK","metar":"KJFK 221051Z 17011G19KT 10SM FEW036 BKN070 OVC095 08/04 A3018 RMK RAE47 SLP218 P0001 T00780039 ","updated":"2026-04-22T11:17:43Z"}
