{"icao":"LPPR","metar":"LPPR 201900Z 00000KT CAVOK 16/12 Q1010","updated":"2026-04-20T19:08:12Z"}
