{"icao":"KJFK","metar":"KJFK 101751Z 17010KT 10SM FEW015 FEW250 11/05 A3029 RMK AO2 SLP257 T01060050 10111 20061 58026","updated":"2026-04-10T18:51:18Z"}
