{"icao":"LPHR","metar":"LPHR 281700Z 12012KT 9999 -RA FEW015 SCT040 BKN070 21/17 Q1026","updated":"2025-09-28T17:13:04Z"}
