{"icao":"LPMA","metar":"LPMA 170900Z 34011KT 260V030 9999 BKN015 15/09 Q1022","updated":"2026-01-17T09:19:15Z"}
