{"icao":"LPLA","metar":"LPLA 081400Z 30029G43KT 3500 RA BR SCT009 BKN014 FEW020CB 19/16 Q0987","updated":"2025-12-08T14:20:53Z"}
