{"icao":"LPPR","metar":"LPPR 160900Z 26003KT 220V290 5000 BR BKN005 17/16 Q1018","updated":"2026-06-16T09:30:29Z"}
