{"icao":"LPCS","metar":"LPCS 191800Z 30004KT 250V340 9999 FEW009 11/10 Q1021","updated":"2026-01-19T18:30:47Z"}
