{"icao":"LPBJ","metar":"LPBJ 130100Z 15017KT 9000 -RA SCT008 SCT012 18/17 Q1006","updated":"2025-11-13T01:24:45Z"}
