{"icao":"LPMA","metar":"LPMA 241700Z 36007KT 290V070 9999 BKN015 17/10 Q1014","updated":"2025-12-24T17:16:15Z"}
