{"icao":"LPLA","metar":"LPLA 041000Z 28022KT 7000 -SHRA FEW020 FEW022TCU SCT040 18/12 Q1004","updated":"2025-11-04T10:21:44Z"}
