{"icao":"KLAX","metar":"KLAX 061253Z 10006KT 10SM FEW009 FEW012 SCT110 BKN150 16/14 A3011 RMK AO2 SLP192 T01560139","updated":"2026-02-06T12:56:52Z"}
