{"icao":"LPBJ","metar":"LPBJ 081400Z 31013KT 280V350 CAVOK 28/09 Q1020","updated":"2026-06-08T14:46:48Z"}
