{"icao":"LPHR","metar":"LPHR 210800Z 24006KT 6000 SCT005 SCT008 BKN025 17/16 Q1020","updated":"2026-02-21T08:29:35Z"}
