{"icao":"LPPR","metar":"LPPR 060700Z 27006KT 220V330 9999 -SHRA FEW020 FEW025CB 15/10 Q1013","updated":"2025-11-06T07:17:51Z"}
