{"icao":"LPPR","metar":"LPPR 031630Z 27006KT 230V300 9999 SCT030 18/11 Q1014","updated":"2026-03-03T16:45:02Z"}
