{"icao":"LPLA","metar":"LPLA 301900Z 31009KT 9999 FEW022 BKN030 17/13 Q1026","updated":"2025-11-30T19:14:24Z"}
