{"icao":"KJFK","metar":"KJFK 281551Z 25005KT 10SM FEW035 FEW170 BKN220 M02/M06 A3020 RMK AO2 SLP224 T10221061 $","updated":"2025-12-28T16:23:20Z"}
