{"icao":"LPOV","metar":"LPOV 061000Z 22011KT 2000 -DZRA BR SCT001 BKN006 OVC011 16/16 Q1022","updated":"2025-12-06T10:18:20Z"}
