{"icao":"LPST","metar":"LPST 221400Z 27009KT 9999 FEW010 OVC018 22/19 Q1019","updated":"2025-10-22T14:19:46Z"}
