{"icao":"KORD","metar":"KORD 241151Z 32009KT 10SM FEW190 BKN250 M23/M31 A3072 RMK AO2 SLP425 4/001 T12331311 11222 21233 55007","updated":"2026-01-24T12:38:51Z"}
