{"icao":"LPPD","metar":"LPPD 250600Z 04010KT 9999 FEW016 SCT045 19/16 Q1015","updated":"2025-10-25T06:23:54Z"}
