{"icao":"KLAX","metar":"KLAX 260853Z 11006KT 10SM FEW012 FEW024 BKN050 16/14 A3006 RMK AO2 SLP179 T01610144 58012 $","updated":"2025-12-26T09:21:38Z"}
