{"icao":"KJFK","metar":"KJFK 241851Z 33022G34KT 10SM FEW055 FEW250 08/M04 A3012 RMK AO2 PK WND 33034/1847 SLP199 T00831044 $","updated":"2025-12-24T19:15:11Z"}
