{"icao":"LPMT","metar":"LPMT 280600Z VRB01KT CAVOK 05/05 Q1023","updated":"2025-11-28T06:29:30Z"}
