{"icao":"LPMT","metar":"LPMT 291100Z 03005KT CAVOK 10/08 Q1020","updated":"2025-12-29T11:17:44Z"}
