{"icao":"LPPR","metar":"LPPR 281000Z 05003KT 320V130 CAVOK 10/05 Q1015","updated":"2025-12-28T10:19:09Z"}
