{"icao":"LPGR","metar":"LPGR 011900Z 08011KT 9999 FEW012 SCT025 22/19 Q1031","updated":"2026-07-01T23:13:56Z"}
