{"icao":"KORD","metar":"KORD 081451Z 36007KT 10SM FEW035 15/08 A3039 RMK AO2 SLP291 T01500083 51020","updated":"2025-10-08T15:19:03Z"}
