{"icao":"LPCS","metar":"LPCS 140700Z 02005KT CAVOK 16/11 Q1016","updated":"2025-10-14T07:18:13Z"}
