{"icao":"KORD","metar":"KORD 101637Z 36008KT 10SM FEW010 BKN015 OVC023 09/06 A3024 RMK AO2 T00890056","updated":"2026-04-10T16:49:56Z"}
