{"icao":"LPCS","metar":"LPCS 131630Z 31018G29KT 9999 VCSH FEW014 FEW022TCU SCT030 13/10 Q1010","updated":"2026-02-13T16:43:48Z"}
