{"icao":"LPMA","metar":"LPMA 290800Z 02010KT 340V040 9999 SCT015 SCT030 22/12 Q1022","updated":"2025-09-29T08:25:55Z"}
