{"icao":"LPLA","metar":"LPLA 070200Z 14003KT 100V200 9999 -RA FEW015 SCT030 BKN040 13/12 Q1013","updated":"2026-05-07T02:45:08Z"}
