{"icao":"LPHR","metar":"LPHR 231330Z 30017G29KT 9999 FEW018 15/07 Q1026","updated":"2026-01-23T13:41:34Z"}
