{"icao":"KORD","metar":"KORD 210451Z 26009KT 10SM BKN019 OVC027 M03/M07 A2995 RMK AO2 SLP148 T10281072","updated":"2026-02-21T05:40:46Z"}
