{"icao":"KORD","metar":"KORD 291551Z 08015G26KT 10SM SCT038 SCT250 12/02 A3006 RMK AO2 PK WND 07031/1533 SLP180 T01220017","updated":"2025-10-29T16:24:52Z"}
