{"icao":"LPPR","metar":"LPPR 092230Z 17014KT 6000 TSRA SCT018 SCT025CB 13/11 Q1008","updated":"2026-05-09T22:41:19Z"}
