{"icao":"KJFK","metar":"KJFK 170151Z 23008KT 10SM FEW035 FEW180 BKN250 M01/M03 A3020 RMK AO2 SLP226 T10111033 $","updated":"2026-02-17T02:01:15Z"}
