{"icao":"KJFK","metar":"KJFK 212351Z 19012KT 10SM SCT080 SCT110 BKN250 24/14 A2990 RMK SLP123 T02390144 $ ","updated":"2026-06-22T00:10:52Z"}
