{"icao":"LPMT","metar":"LPMT 120700Z 35014KT 320V020 9999 FEW025 12/05 Q1018","updated":"2026-04-12T08:46:21Z"}
