{"icao":"KORD","metar":"KORD 221951Z 02018G33KT 10SM BKN015 OVC021 03/M02 A2990 RMK AO2 PK WND 03039/1939 SLP126 T00281017","updated":"2026-03-22T20:26:34Z"}
