{"icao":"LPAZ","metar":"LPAZ 192200Z 03010KT 9999 FEW012 BKN035 15/13 Q1015","updated":"2026-04-19T22:33:56Z"}
