{"icao":"LPPD","metar":"LPPD 041400Z 01011KT 340V060 9999 SCT020 16/10 Q1021","updated":"2026-01-04T14:17:29Z"}
