{"icao":"LPFR","metar":"LPFR 130430Z 29004KT 250V340 CAVOK 21/14 Q1017"}
