{"icao":"LPPT","metar":"LPPT 020730Z 18010KT 150V210 9999 FEW010 SCT045 16/13 Q1017","updated":"2026-05-02T07:41:50Z"}
