{"icao":"LPFL","metar":"LPFL 161900Z 19006KT 140V260 9999 SCT017 16/12 Q1017","updated":"2026-02-16T19:32:08Z"}
