{"icao":"LPMA","metar":"LPMA 142300Z 02009KT 340V040 9999 FEW016 15/09 Q1032","updated":"2026-02-14T23:23:17Z"}
