{"icao":"LPPI","metar":"LPPI 281200Z 06006KT 010V080 9999 FEW032 SCT038 20/12 Q1029","updated":"2026-06-28T12:14:54Z"}
