{"icao":"LPMA","metar":"LPMA 221400Z 12004KT 070V230 9999 FEW013 SCT016 26/20 Q1020","updated":"2025-10-22T14:20:05Z"}
