{"icao":"LPPR","metar":"LPPR 182300Z 11005KT 010V140 CAVOK 07/06 Q1018","updated":"2026-01-18T23:18:34Z"}
