{"icao":"LPBJ","metar":"LPBJ 220600Z 20007KT 9000 VCFG FEW020 01/01 Q1012","updated":"2025-12-22T06:33:18Z"}
