{"icao":"LPAZ","metar":"LPAZ 120900Z 27031G41KT 9999 SCT023 SCT028 17/11 Q1013","updated":"2026-01-12T09:31:21Z"}
