{"icao":"LPMA","metar":"LPMA 170830Z VRB01KT 9999 FEW015 FEW018CB 15/11 Q1009","updated":"2026-03-17T08:52:40Z"}
