{"icao":"LPPS","metar":"LPPS 131230Z 05012KT 010V080 9999 FEW015 BKN030 16/11 Q1026","updated":"2026-03-13T12:56:25Z"}
