{"icao":"KORD","metar":"KORD 221051Z 18003KT 10SM SCT055 OVC095 01/M08 A3034 RMK AO2 SLP284 T00061078","updated":"2025-12-22T11:17:38Z"}
