{"icao":"LPLA","metar":"LPLA 091500Z 35008KT 9999 FEW008 SCT015 17/14 Q1034","updated":"2026-04-09T15:21:13Z"}
