{"icao":"LPPD","metar":"LPPD 160500Z 19004KT 150V210 9999 FEW017 22/18 Q1024","updated":"2025-09-16T05:16:19Z"}
