{"icao":"KORD","metar":"KORD 190851Z 28005KT 10SM -RA BKN009 BKN014 OVC080 14/13 A2949 RMK AO2 SLP983 P0000 60003 T01390128 58019 $","updated":"2025-10-19T09:16:32Z"}
