{"icao":"KJFK","metar":"KJFK 312151Z 27024G37KT 10SM BKN070 14/02 A2948 RMK AO2 PK WND 28040/2111 SLP983 T01390017 $","updated":"2025-10-31T22:17:10Z"}
