{"icao":"KLAX","metar":"KLAX 120053Z 25008KT 10SM CLR 21/14 A2975 RMK AO2 SLP074 T02060139 $","updated":"2025-10-12T01:22:04Z"}
