{"icao":"LPMT","metar":"LPMT 281600Z 20013KT 160V220 8000 -SHRA SCT025 FEW028CB BKN036 20/18 Q1010","updated":"2025-10-28T16:24:27Z"}
