{"icao":"KJFK","metar":"KJFK 181551Z 14012KT 10SM SCT025 BKN250 16/11 A3009 RMK AO2 SLP188 T01560106","updated":"2026-04-18T16:39:09Z"}
