{"icao":"LPPD","metar":"LPPD 141500Z 29010KT 260V320 9999 FEW025 BKN045 17/10 Q1007","updated":"2025-11-14T15:17:13Z"}
