{"icao":"LPMT","metar":"LPMT 181100Z 02006KT CAVOK 16/11 Q1020","updated":"2025-11-18T12:39:03Z"}
