{"icao":"LPLA","metar":"LPLA 301700Z 21011KT 170V240 9999 FEW007 SCT014 16/14 Q1016","updated":"2026-01-30T17:32:32Z"}
