{"icao":"LPPS","metar":"LPPS 262200Z 20014KT 9999 SCT006 22/21 Q1016","updated":"2025-10-26T22:16:38Z"}
