{"icao":"LPBJ","metar":"LPBJ 011000Z 23011KT 2500 -DZRA BR BKN004 BKN020 14/14 Q1016","updated":"2026-02-01T10:23:53Z"}
