{"icao":"LPMA","metar":"LPMA 302100Z 03013KT 9999 SCT015 18/09 Q1022","updated":"2025-11-30T21:16:14Z"}
