{"icao":"LPFL","metar":"LPFL 170900Z 19014KT 160V230 7000 -RADZ FEW007 SCT010 BKN014 22/21 Q1006","updated":"2025-10-17T09:19:52Z"}
