{"icao":"LPAR","metar":"LPAR 241200Z 17009KT 8000 SCT020 15/12 Q1018","updated":"2026-02-24T13:03:04Z"}
