{"icao":"LPPT","metar":"LPPT 271630Z 24013KT CAVOK 31/09 Q1017","updated":"2026-05-27T16:35:24Z"}
