{"icao":"LPMT","metar":"LPMT 031400Z 30007KT 260V340 9999 SCT036 16/07 Q1023","updated":"2025-12-03T14:20:08Z"}
