{"icao":"KJFK","metar":"KJFK 112351Z 22008KT 10SM FEW065 FEW100 FEW250 13/01 A3007 RMK AO2 SLP182 T01330011 10167 20133 53003 $","updated":"2026-05-11T23:56:42Z"}
