{"icao":"LPHR","metar":"LPHR 260900Z 28037G52KT 9999 SCT012 BKN030 BKN070 14/09 Q1003","updated":"2026-01-26T09:33:12Z"}
