{"icao":"KLAX","metar":"KLAX 291953Z 23004KT 8SM FEW230 SCT280 19/11 A3001 RMK AO2 SLP160 T01890111 $","updated":"2025-11-29T20:20:10Z"}
