{"icao":"KORD","metar":"KORD 241451Z 28012G21KT 10SM SCT026 BKN032 OVC110 19/13 A2967 RMK AO2 SLP042 T01940128 53021","updated":"2026-04-24T15:06:39Z"}
