{"icao":"LPPR","metar":"LPPR 230800Z VRB03KT CAVOK 16/07 Q1021","updated":"2025-09-23T08:22:49Z"}
