{"icao":"LPFL","metar":"LPFL 051800Z 09003KT 040V170 9999 FEW034 BKN044 16/09 Q1029","updated":"2026-05-05T18:09:34Z"}
