{"icao":"LPPR","metar":"LPPR 312030Z 34009KT 9999 FEW007 18/15 Q1020","updated":"2026-05-31T20:58:14Z"}
