{"icao":"LPMT","metar":"LPMT 061000Z 25005KT 220V280 9999 SCT020 SCT030 13/11 Q1005","updated":"2026-02-06T10:37:38Z"}
