{"icao":"KLAX","metar":"KLAX 190553Z 14003KT 10SM CLR 16/08 A3003 RMK AO2 SLP166 T01610083 10183 20161 53003","updated":"2026-01-19T06:36:50Z"}
