{"icao":"LPPR","metar":"LPPR 151400Z 22009KT 190V260 9999 FEW018 BKN030 14/12 Q1028","updated":"2026-02-15T14:26:07Z"}
