{"icao":"LPFL","metar":"LPFL 171230Z 34009KT 9999 -DZ SCT007 SCT011 21/19 Q1024","updated":"2025-11-17T12:38:55Z"}
