{"icao":"KORD","metar":"KORD 120651Z 12005KT 10SM FEW029 12/08 A3004 RMK AO2 SLP170 T01170078 $","updated":"2025-10-12T07:15:55Z"}
