{"icao":"LPPT","metar":"LPPT 191630Z 22007KT 180V250 CAVOK 25/11 Q1014","updated":"2026-04-19T16:38:35Z"}
