{"icao":"LPPT","metar":"LPPT 081000Z 11011G23KT 060V150 9999 FEW012 13/09 Q1017","updated":"2026-04-08T10:14:28Z"}
