{"icao":"LPMR","metar":"LPMR 112200Z 15012KT CAVOK 17/13 Q1006","updated":"2025-11-11T22:17:49Z"}
