{"icao":"LPPS","metar":"LPPS 291800Z 01014KT 9999 SCT015 19/14 Q1025","updated":"2026-05-29T18:30:44Z"}
