{"icao":"LPLA","metar":"LPLA 230609Z 33017KT 6000 -RADZ BKN008 BKN018 19/17 Q1021","updated":"2025-09-23T06:27:10Z"}
