{"icao":"LPPD","metar":"LPPD 272300Z 01019G29KT 340V050 9999 -SHRA FEW007 SCT014 BKN025 18/14 Q1013","updated":"2025-10-27T23:15:59Z"}
