{"icao":"LPBJ","metar":"LPBJ 311700Z 31010KT CAVOK 33/11 Q1017","updated":"2026-05-31T17:59:55Z"}
