{"icao":"LPMA","metar":"LPMA 280900Z 36007KT 9999 BKN016 19/12 Q1023","updated":"2025-11-28T09:20:03Z"}
