{"icao":"LPFR","metar":"LPFR 062300Z 02005KT CAVOK 22/18 Q1020","updated":"2025-10-06T23:15:40Z"}
