{"icao":"LPPT","metar":"LPPT 012100Z 31011KT CAVOK 25/16 Q1017 NOSIG","updated":"2026-07-01T21:26:31Z"}
