{"icao":"LPMR","metar":"LPMR 190300Z 17004KT CAVOK 19/17 Q1015","updated":"2025-10-19T03:14:32Z"}
