{"icao":"LPMA","metar":"LPMA 222100Z 03016KT 350V060 9999 SCT015 18/10 Q1026","updated":"2025-11-22T21:15:32Z"}
