{"icao":"LPAZ","metar":"LPAZ 040900Z 11006KT 9999 FEW012 SCT049 20/19 Q1027","updated":"2025-10-04T09:15:45Z"}
