{"icao":"KJFK","metar":"KJFK 071051Z 11004KT 4SM BR BKN004 OVC008 03/02 A3029 RMK AO2 SLP257 T00280022","updated":"2026-03-07T11:18:47Z"}
