{"icao":"LPOV","metar":"LPOV 101300Z 18009KT 150V210 9999 FEW009 BKN016 18/16 Q1017","updated":"2025-11-10T13:30:17Z"}
