{"icao":"LPPR","metar":"LPPR 130100Z 10001KT CAVOK 16/12 Q1016","updated":"2025-10-13T01:23:30Z"}
