{"icao":"LPPR","metar":"LPPR 071900Z 22003KT 9000 BKN015 17/16 Q1023","updated":"2025-10-07T19:13:41Z"}
