{"icao":"LPPT","metar":"LPPT 061730Z 13008KT 7000 -RA SCT008 BKN020 16/15 Q1016","updated":"2026-04-06T17:42:21Z"}
