{"icao":"KORD","metar":"KORD 270951Z 24014G24KT 9SM BKN120 M11/M16 A2990 RMK AO2 PK WND 24027/0852 SLP140 T11061156","updated":"2026-01-27T10:26:53Z"}
