{"icao":"LPPR","metar":"LPPR 301200Z 22010KT 190V260 9999 FEW019 SCT040 18/12 Q1017","updated":"2026-04-30T12:13:57Z"}
