{"icao":"KORD","metar":"KORD 061451Z 34016G23KT 9SM OVC013 01/M02 A2973 RMK AO2 SLP076 60000 T00061017 53038 $","updated":"2026-02-06T15:38:39Z"}
