{"icao":"LPPR","metar":"LPPR 131330Z 21012KT 2000 -RADZ BR BKN003 13/12 Q1021","updated":"2026-03-13T14:00:17Z"}
