{"icao":"LPMA","metar":"LPMA 051500Z 36009KT 320V030 9999 FEW020 23/13 Q1018","updated":"2025-11-05T15:19:23Z"}
