{"icao":"LPPT","metar":"LPPT 201100Z 22004KT 190V260 9999 FEW026 12/09 Q1021","updated":"2026-01-20T11:22:22Z"}
