{"icao":"LPFR","metar":"LPFR 282200Z 27009KT CAVOK 18/16 Q1015","updated":"2025-09-28T22:15:03Z"}
