{"icao":"LPPD","metar":"LPPD 171230Z 16006KT 090V180 7000 -RA FEW006 SCT012 BKN025 18/17 Q1026","updated":"2025-11-17T12:38:54Z"}
