{"icao":"LPAZ","metar":"LPAZ 241930Z 20006KT 170V230 9000 BKN002 19/18 Q1023","updated":"2026-05-24T20:03:31Z"}
