{"icao":"KLAX","metar":"KLAX 080653Z 10006KT 7SM BKN008 18/16 A2991 RMK AO2 SLP127 T01780161 $","updated":"2025-11-08T07:16:30Z"}
