{"icao":"LPOV","metar":"LPOV 310500Z 16013G23KT 7000 RA SCT008 BKN014 16/15 Q1008","updated":"2025-10-31T05:18:51Z"}
