{"icao":"LPMA","metar":"LPMA 060100Z 36005KT 330V050 9999 FEW015 SCT030 22/16 Q1022","updated":"2025-10-06T01:19:08Z"}
