{"icao":"LPMA","metar":"LPMA 241530Z 04007KT 010V070 9999 FEW015 20/13 Q1016","updated":"2026-02-24T15:57:42Z"}
