{"icao":"LPBJ","metar":"LPBJ 221000Z 33004KT 260V040 CAVOK 18/05 Q1019","updated":"2025-09-22T10:20:00Z"}
