{"icao":"LPPR","metar":"LPPR 241800Z 34014KT 300V360 9999 SCT040 14/11 Q1015","updated":"2025-11-24T18:28:07Z"}
