{"icao":"LPHR","metar":"LPHR 032000Z 28011KT 8000 FEW003 BKN005 19/18 Q1028","updated":"2026-06-03T23:41:43Z"}
