{"icao":"LPAZ","metar":"LPAZ 301730Z 08012KT 9999 FEW020 17/10 Q1030","updated":"2026-03-30T17:53:22Z"}
