{"icao":"LPOV","metar":"LPOV 281600Z 15007KT 120V180 9999 FEW015 SCT038 22/16 Q1009","updated":"2025-10-28T16:24:25Z"}
