{"icao":"LPGR","metar":"LPGR 211630Z 32010KT 260V350 9999 FEW018 BKN030 20/15 Q1021","updated":"2026-06-21T16:44:26Z"}
