{"icao":"LPOV","metar":"LPOV 081700Z 18013KT 6000 -RA SCT022 BKN045 11/10 Q1011","updated":"2026-02-08T17:25:30Z"}
