{"icao":"KORD","metar":"KORD 261351Z 12008KT 10SM FEW070 11/03 A3039 RMK AO2 SLP292 T01060033 $","updated":"2025-10-26T14:15:13Z"}
