{"icao":"LPPR","metar":"LPPR 270400Z 08005KT CAVOK 07/06 Q1025","updated":"2025-11-27T04:22:51Z"}
