{"icao":"KJFK","metar":"KJFK 091851Z 10010KT 5SM -RA BR BKN008 BKN075 OVC095 15/14 A2975 RMK AO2 RAB25 SLP075 P0001 T01500144 $","updated":"2025-11-09T19:12:38Z"}
