{"icao":"LPFR","metar":"LPFR 031600Z 22006KT CAVOK 25/16 Q1020","updated":"2025-10-03T16:20:38Z"}
