{"icao":"LPHR","metar":"LPHR 022230Z 05015KT 9999 SCT016 BKN035 16/12 Q1021","updated":"2026-05-02T22:39:29Z"}
