{"icao":"LPHR","metar":"LPHR 021330Z 27004KT 210V330 9999 FEW022 BKN038 16/08 Q1031","updated":"2025-12-02T13:35:44Z"}
