{"icao":"KLAX","metar":"KLAX 110653Z 14017G23KT 10SM FEW020 BKN028 BKN050 OVC150 17/13 A2994 RMK AO2 PK WND 16026/0602 SLP136 T01670133 $","updated":"2026-02-11T06:59:43Z"}
