{"icao":"LPFL","metar":"LPFL 211400Z 21013G24KT 160V290 9999 SCT015 24/18 Q1008","updated":"2025-10-21T14:17:20Z"}
