{"icao":"LPBJ","metar":"LPBJ 051500Z 25019KT 9999 SCT030 20/11 Q1010","updated":"2025-11-05T15:19:04Z"}
