{"icao":"LPPR","metar":"LPPR 070600Z 12005KT 080V150 CAVOK 16/12 Q1021","updated":"2025-10-07T06:26:42Z"}
