{"icao":"LPFL","metar":"LPFL 101300Z 19023G40KT 160V220 9999 SCT009 18/15 Q1004","updated":"2026-02-10T13:11:07Z"}
