{"icao":"LPCS","metar":"LPCS 202030Z 09008KT 060V130 CAVOK 23/08 Q1006","updated":"2026-04-20T20:43:29Z"}
