{"icao":"KJFK","metar":"KJFK 050251Z 21005KT 10SM BKN250 19/18 A3022 RMK AO2 SLP233 T01940178 51008","updated":"2025-10-05T03:06:25Z"}
