{"icao":"KORD","metar":"KORD 241951Z 15009KT 10SM OVC230 08/M02 A3013 RMK AO2 SLP206 T00781017 $","updated":"2025-12-24T20:20:55Z"}
