{"icao":"LPCS","metar":"LPCS 311730Z 35025KT 9999 FEW014 22/12 Q1018 WS R35","updated":"2026-05-31T17:59:53Z"}
