{"icao":"KJFK","metar":"KJFK 270751Z 28017G24KT 10SM FEW090 06/M05 A2987 RMK AO2 PK WND 28026/0717 SLP113 T00611050","updated":"2025-11-27T08:27:30Z"}
