{"icao":"LPPD","metar":"LPPD 080430Z 24017KT 8000 FEW005 BKN008 17/15 Q1013","updated":"2026-02-08T05:02:00Z"}
