{"icao":"KLAX","metar":"KLAX 120512Z 02003KT 1/2SM R25L/P6000FT FG SCT004 17/16 A3000 RMK AO2 T01670156 $","updated":"2025-12-12T05:20:32Z"}
