{"icao":"LPPT","metar":"LPPT 050100Z 24010KT 8000 -DZRA FEW006 SCT010 BKN016 15/15 Q1020","updated":"2025-12-05T01:26:42Z"}
