{"icao":"LPPD","metar":"LPPD 051600Z 03007KT 350V060 9999 FEW025 BKN045 15/07 Q1029","updated":"2026-01-05T16:26:25Z"}
