{"icao":"KORD","metar":"KORD 161451Z 21010G19KT 10SM BKN085 BKN110 BKN250 21/11 A2966 RMK AO2 SLP038 60000 T02060106 58019","updated":"2026-06-16T15:09:02Z"}
