{"icao":"LPPR","metar":"LPPR 082100Z 24002KT CAVOK 16/15 Q1021","updated":"2025-10-08T21:15:47Z"}
