{"icao":"LPHR","metar":"LPHR 071230Z 10005KT 9999 FEW009 BKN095 15/14 Q1021","updated":"2026-03-07T12:43:52Z"}
