{"icao":"LPCS","metar":"LPCS 051030Z 24019G31KT 9999 FEW016 SCT020 15/14 Q0996","updated":"2026-02-05T10:38:46Z"}
