{"icao":"LPMT","metar":"LPMT 110500Z 04007KT CAVOK 17/13 Q1019","updated":"2025-10-11T05:15:29Z"}
