{"icao":"KORD","metar":"KORD 070951Z 01009KT 4SM RA BR BKN006 BKN021 OVC040 16/15 A3000 RMK AO2 TSE28 SLP157 OCNL LTGIC DSNT SE CB DSNT SE MOV E P0014 T01560150 $","updated":"2025-10-07T10:19:03Z"}
