{"icao":"LPPD","metar":"LPPD 231900Z 26017KT 9999 FEW022 16/09 Q1009","updated":"2026-04-23T19:06:02Z"}
