{"icao":"LPCS","metar":"LPCS 201630Z 33008KT 300V010 CAVOK 16/09 Q1028","updated":"2026-02-20T16:37:10Z"}
