{"icao":"LPPS","metar":"LPPS 171500Z 13006KT 080V170 9999 FEW015 25/19 Q1020","updated":"2025-09-17T15:18:12Z"}
