{"icao":"LPPD","metar":"LPPD 230400Z VRB02KT 9999 FEW018 15/13 Q1029","updated":"2025-11-23T04:31:41Z"}
