{"icao":"LPLA","metar":"LPLA 270300Z 28015G26KT 9000 -SHRA SCT025 SCT035 10/06 Q1007 RM K WIND RWY15 28023KT PK 29039/76 RH77 BLU","updated":"2026-01-27T03:46:46Z"}
