{"icao":"LPLA","metar":"LPLA 012201Z 33036G49KT 5000 SHRA BKN025 FEW027TCU BKN035 14/10 Q1005","updated":"2026-01-01T22:18:49Z"}
