{"icao":"LPPS","metar":"LPPS 281500Z 03013KT 360V060 9999 SCT014 BKN030 16/12 Q1024","updated":"2026-03-28T15:29:26Z"}
