{"icao":"LPBJ","metar":"LPBJ 230500Z 24004KT CAVOK 10/09 Q1013","updated":"2026-04-23T05:28:49Z"}
