{"icao":"KLAX","metar":"KLAX 121753Z VRB04KT 10SM FEW070 FEW180 SCT250 16/08 A3017 RMK AO2 SLP216 T01610083 10161 20100 51002","updated":"2026-02-12T17:57:13Z"}
