{"icao":"LPST","metar":"LPST 241400Z 30005KT 280V340 9999 FEW030 22/18 Q1021","updated":"2026-05-24T15:02:08Z"}
