{"icao":"LPMA","metar":"LPMA 081400Z 04016KT 9999 FEW015 SCT033 24/16 Q1025","updated":"2025-10-08T14:18:30Z"}
