{"icao":"KORD","metar":"KORD 211551Z 11005KT 10SM BKN130 BKN250 22/13 A2991 RMK AO2 SLP124 T02170133 $","updated":"2026-06-21T16:44:28Z"}
