{"icao":"LPST","metar":"LPST 291500Z 24009KT 210V280 9999 FEW014 BKN030 16/13 Q1009","updated":"2026-04-29T15:54:34Z"}
