{"icao":"LPPS","metar":"LPPS 240700Z 33017KT 9999 FEW015 15/07 Q1024","updated":"2026-01-24T07:18:52Z"}
