{"icao":"LPMA","metar":"LPMA 240600Z 35007KT 320V020 9999 SCT015 20/11 Q1020","updated":"2025-09-24T06:26:53Z"}
