{"icao":"LPOV","metar":"LPOV 200700Z VRB02KT 4000 -RA BR FEW018 BKN040 13/13 Q1009","updated":"2026-03-20T07:44:30Z"}
