{"icao":"LPBJ","metar":"LPBJ 181600Z 18012KT CAVOK 28/08 Q1015","updated":"2026-04-18T16:38:52Z"}
