{"icao":"LPCS","metar":"LPCS 011000Z 22006KT 0250 -DZ FG VV002 15/15 Q1014","updated":"2026-02-01T10:23:49Z"}
