{"icao":"LPPD","metar":"LPPD 250900Z 01004KT 9999 FEW020 BKN030 13/08 Q1023","updated":"2025-12-25T09:22:09Z"}
