{"icao":"LPOV","metar":"LPOV 131800Z 22007KT 7000 -SHRA FEW008 SCT017 12/12 Q1010","updated":"2026-01-13T18:29:52Z"}
