{"icao":"LPOV","metar":"LPOV 031500Z 33012KT 290V350 9999 SCT016 17/14 Q1014","updated":"2026-05-03T15:45:14Z"}
