{"icao":"LPFL","metar":"LPFL 122100Z VRB06G16KT 9999 FEW023 14/08 Q1023","updated":"2026-02-12T23:27:59Z"}
