{"icao":"KORD","metar":"KORD 041910Z 06010KT 7SM OVC014 06/01 A3009 RMK AO2 T00610006","updated":"2026-03-04T19:37:14Z"}
