{"icao":"LPBJ","metar":"LPBJ 181100Z 15011KT 100V180 CAVOK 25/07 Q1017","updated":"2026-04-18T11:33:09Z"}
