{"icao":"KORD","metar":"KORD 102251Z 33012KT 10SM OVC028 M01/M07 A2983 RMK AO2 SLP109 T10111067","updated":"2025-12-10T23:17:12Z"}
