{"icao":"KORD","metar":"KORD 270851Z 30013G22KT 260V320 10SM BKN032 M01/M08 A3013 RMK AO2 PK WND 29027/0803 SLP210 T10111083 51015","updated":"2025-11-27T09:21:37Z"}
