{"icao":"LPLA","metar":"LPLA 311000Z 13008KT 100V160 9999 BKN020 14/09 Q1032","updated":"2026-03-31T10:10:19Z"}
