{"icao":"LPPS","metar":"LPPS 051230Z 06010KT 040V110 9999 SCT013 SCT030 18/14 Q1018","updated":"2026-04-05T12:55:32Z"}
