{"icao":"LPMR","metar":"LPMR 021300Z 35007KT 9999 SCT008 19/16 Q1022","updated":"2025-10-02T13:25:13Z"}
