{"icao":"LPMT","metar":"LPMT 191100Z 04005KT 340V100 CAVOK 25/14 Q1015","updated":"2026-06-19T11:20:45Z"}
