{"icao":"KORD","metar":"KORD 201651Z 18013KT 10SM FEW250 16/01 A2993 RMK AO2 SLP135 T01610006","updated":"2025-10-20T17:16:28Z"}
