{"icao":"LPMR","metar":"LPMR 121900Z 33006KT CAVOK 26/14 Q1018","updated":"2026-06-12T21:42:00Z"}
