{"icao":"LPAZ","metar":"LPAZ 272230Z 16008KT 9999 FEW008 BKN014 17/16 Q1020","updated":"2026-04-27T22:50:48Z"}
