{"icao":"LPFL","metar":"LPFL 080800Z 14012KT 110V170 9999 -RA SCT005 FEW012CB 21/19 Q1018","updated":"2025-10-08T08:24:20Z"}
