{"icao":"KJFK","metar":"KJFK 112051Z 29023G37KT 10SM SCT047 BKN060 05/M06 A2974 RMK AO2 PK WND 27037/2049 SLP070 VCSH S-SW 60000 T00501061 53010 $","updated":"2025-11-11T21:16:37Z"}
