{"icao":"LPBJ","metar":"LPBJ 212000Z 27014KT 9999 FEW025 SCT045 12/10 Q1006","updated":"2026-01-21T20:28:49Z"}
