{"icao":"LPHR","metar":"LPHR 042000Z 25005KT 220V280 9999 FEW014 BKN030 16/13 Q1022","updated":"2026-04-04T20:30:05Z"}
