{"icao":"KORD","metar":"KORD 110151Z 25004KT 10SM FEW170 02/M03 A3002 RMK AO2 SLP172 T00221028 $","updated":"2026-02-11T02:11:56Z"}
