{"icao":"KJFK","metar":"KJFK 271851Z 02013G23KT 10SM SCT050 BKN120 BKN160 BKN250 10/M03 A3006 RMK AO2 SLP179 T01001028 $","updated":"2026-03-27T19:40:23Z"}
