{"icao":"LPAZ","metar":"LPAZ 221100Z 19017KT 9999 SCT006 BKN012 24/22 Q1016","updated":"2025-10-22T11:16:15Z"}
