{"icao":"LPBJ","metar":"LPBJ 201016Z 29007KT 1500 0600S PRFG FEW004 07/07 Q1021","updated":"2026-01-20T10:26:26Z"}
