{"icao":"LPMT","metar":"LPMT 281700Z 23008KT 190V250 9999 SCT020 15/13 Q1006","updated":"2026-01-28T17:30:42Z"}
