{"icao":"LPMR","metar":"LPMR 291500Z 25013KT 9999 SCT020 SCT025CB 18/14 Q1008 RETS","updated":"2026-04-29T15:54:34Z"}
