{"icao":"LPMT","metar":"LPMT 031300Z 31006KT 260V350 9999 SCT030 16/07 Q1023","updated":"2025-12-03T13:34:55Z"}
