{"icao":"LPPS","metar":"LPPS 030300Z 06007KT 010V110 9999 SCT015 21/18 Q1022","updated":"2025-10-03T03:27:40Z"}
