{"icao":"LPFL","metar":"LPFL 121000Z 21003KT 160V240 9999 SCT024 14/08 Q1032","updated":"2025-12-12T10:21:20Z"}
