{"icao":"LPPT","metar":"LPPT 181230Z 06008KT 030V090 9999 FEW020 09/06 Q1013","updated":"2026-01-18T12:37:43Z"}
