{"icao":"KORD","metar":"KORD 221751Z 20008KT 10SM FEW025 BKN100 BKN250 08/01 A3006 RMK AO2 SLP183 T00780011 10083 20000 58016","updated":"2025-11-22T18:24:48Z"}
