{"icao":"LPMA","metar":"LPMA 080730Z VRB02KT 9999 FEW015 SCT060 16/12 Q1023","updated":"2026-02-08T07:37:41Z"}
