{"icao":"LPOV","metar":"LPOV 220100Z VRB02KT 4000 BR FEW002 05/05 Q1029","updated":"2026-02-22T02:03:19Z"}
