{"icao":"LPFR","metar":"LPFR 061100Z 32016KT 290V350 9999 FEW020 SCT030 12/05 Q1017","updated":"2026-03-06T11:27:30Z"}
