{"icao":"KLAX","metar":"KLAX 170153Z 25008KT 10SM SCT080 SCT220 17/14 A2992 RMK AO2 SLP129 T01720144 $","updated":"2026-03-17T02:01:50Z"}
