{"icao":"KLAX","metar":"KLAX 110053Z 25007KT 10SM FEW008 SCT250 17/16 A3005 RMK AO2 SLP175 T01670156 $","updated":"2025-11-11T01:24:26Z"}
