{"icao":"LPBJ","metar":"LPBJ 252200Z 23005KT 9999 -DZ BKN005 OVC012 13/13 Q1015","updated":"2026-01-25T22:19:13Z"}
