{"icao":"KORD","metar":"KORD 061351Z 34013KT 7SM BKN012 OVC036 01/M02 A2968 RMK AO2 SNE04 SLP058 P0000 T00061017 $","updated":"2026-02-06T14:03:29Z"}
