{"icao":"LPFR","metar":"LPFR 211300Z 01008KT 340V060 CAVOK 17/01 Q1024","updated":"2025-11-21T13:27:10Z"}
