{"icao":"LPOV","metar":"LPOV 291600Z 22008KT 7000 BKN014 BKN020 15/14 Q1008","updated":"2026-01-29T16:42:00Z"}
