{"icao":"KLAX","metar":"KLAX 110653Z 25006KT 10SM FEW012 SCT025 BKN045 16/14 A2997 RMK AO2 SLP147 T01610139 $","updated":"2026-04-11T07:13:08Z"}
