{"icao":"LPMT","metar":"LPMT 100100Z 22002KT CAVOK 15/14 Q1019","updated":"2025-10-10T01:18:24Z"}
