{"icao":"LPST","metar":"LPST 131200Z 29009KT 250V330 9999 FEW024 27/12 Q1016","updated":"2025-10-13T12:37:04Z"}
