{"icao":"LPPT","metar":"LPPT 270130Z 31013KT CAVOK 12/09 Q1024","updated":"2026-02-27T01:57:56Z"}
