{"icao":"KORD","metar":"KORD 041351Z 07009KT 4SM BR SCT005 BKN250 02/01 A3020 RMK AO2 SLP233 T00220006","updated":"2026-03-04T13:57:34Z"}
