{"icao":"KORD","metar":"KORD 011251Z 03020KT 10SM OVC012 02/M01 A3020 RMK AO2 PK WND 04028/1235 SLP231 T00221011","updated":"2026-04-01T13:19:38Z"}
