{"icao":"LPPR","metar":"LPPR 210400Z 09004KT 040V110 CAVOK 06/05 Q1029","updated":"2026-02-21T04:06:16Z"}
