{"icao":"KJFK","metar":"KJFK 051751Z 32005KT 10SM FEW250 M02/M11 A3005 RMK AO2 SLP175 4/005 933010 T10171106 11017 21072 58026 PNO $","updated":"2026-02-05T18:45:32Z"}
