{"icao":"LPAZ","metar":"LPAZ 112200Z 30020KT 8000 16/10 Q1005 RESHRA","updated":"2025-11-11T22:17:50Z"}
