{"icao":"LPFR","metar":"LPFR 310800Z 21010KT 9999 FEW022 21/16 Q1016","updated":"2025-10-31T08:23:33Z"}
