{"icao":"LPMT","metar":"LPMT 030600Z 23005KT 9999 SCT030 11/08 Q1001","updated":"2026-02-03T08:34:44Z"}
