{"icao":"LPCS","metar":"LPCS 191700Z 19008KT 3500 1500N BR OVC002 19/19 Q1014","updated":"2025-10-19T17:13:56Z"}
