{"icao":"LPBJ","metar":"LPBJ 251000Z 26005KT 210V300 9999 FEW016 BKN020 21/16 Q1016","updated":"2025-10-25T10:16:47Z"}
