{"icao":"LPLA","metar":"LPLA 121900Z 21014KT 9999 FEW007 SCT012 BKN035 15/13 Q1027","updated":"2026-04-12T19:38:10Z"}
