{"icao":"KJFK","metar":"KJFK 211551Z 33011G17KT 10SM BKN039 BKN250 07/M02 A2999 RMK AO2 SLP154 T00671017 $","updated":"2026-02-21T16:27:47Z"}
