{"icao":"LPFR","metar":"LPFR 201730Z 09005KT 050V130 CAVOK 21/11 Q1009","updated":"2026-04-20T17:56:14Z"}
