{"icao":"LPPD","metar":"LPPD 201000Z 04012KT 360V070 9999 FEW025 21/11 Q1028","updated":"2025-09-20T10:16:15Z"}
