{"icao":"LPMA","metar":"LPMA 080500Z 35009KT 310V030 9999 SCT015 14/10 Q1033","updated":"2026-01-08T05:24:06Z"}
