{"icao":"LPFL","metar":"LPFL 271400Z 09004KT 030V130 9999 FEW025 BKN040 20/11 Q1027","updated":"2025-09-27T14:14:19Z"}
