{"icao":"LPAZ","metar":"LPAZ 311400Z 24015KT 6000 FEW004 SCT013 BKN020 18/17 Q1019","updated":"2026-01-31T14:22:36Z"}
