{"icao":"LPBJ","metar":"LPBJ 122000Z 32018KT CAVOK 12/03 Q1019","updated":"2026-04-12T20:34:43Z"}
