{"icao":"LPOV","metar":"LPOV 300700Z 11001KT CAVOK 02/02 Q1021","updated":"2025-12-30T07:21:38Z"}
