{"icao":"LPPD","metar":"LPPD 242200Z 32011KT 9999 FEW022 13/08 Q1022","updated":"2026-02-24T22:32:30Z"}
