{"icao":"LPMA","metar":"LPMA 162100Z 10007KT 040V170 9999 SCT014 17/13 Q1029","updated":"2026-02-16T21:28:17Z"}
