{"icao":"LPPT","metar":"LPPT 180900Z 06003KT CAVOK 21/12 Q1020","updated":"2025-09-18T09:18:25Z"}
