{"icao":"LPAZ","metar":"LPAZ 250530Z 33021KT 9999 FEW024 13/07 Q1025","updated":"2026-02-25T05:59:27Z"}
