{"icao":"LPOV","metar":"LPOV 161700Z 31004KT 270V350 6000 FEW001 SCT004 17/15 Q1014","updated":"2025-10-16T17:15:46Z"}
