{"icao":"LPPT","metar":"LPPT 271330Z 25007KT 190V300 9999 FEW040 26/14 Q1020","updated":"2026-06-27T13:39:10Z"}
