{"icao":"LPLA","metar":"LPLA 121800Z 22013KT 190V250 9999 FEW022 23/17 Q1021","updated":"2026-06-12T19:03:44Z"}
