{"icao":"LPPR","metar":"LPPR 212100Z 36008KT CAVOK 15/09 Q1023","updated":"2025-09-21T21:14:26Z"}
