{"icao":"LPPT","metar":"LPPT 270700Z VRB02KT 9999 FEW003 15/13 Q1018","updated":"2025-09-27T07:14:01Z"}
