{"icao":"LPMA","metar":"LPMA 292330Z 34004KT 310V010 9999 FEW015 16/10 Q1015","updated":"2026-04-29T23:53:52Z"}
