{"icao":"LPMT","metar":"LPMT 020300Z 34003KT CAVOK 20/19 Q1016","updated":"2026-07-02T03:26:56Z"}
