{"icao":"KLAX","metar":"KLAX 200953Z 08003KT 4SM BR BKN009 15/13 A3005 RMK AO2 SLP172 T01500133","updated":"2025-12-20T10:18:56Z"}
