{"icao":"LPOV","metar":"LPOV 300800Z 16011KT 8000 FEW018 SCT035 12/11 Q1009","updated":"2026-01-30T08:37:14Z"}
