{"icao":"LPMT","metar":"LPMT 222200Z 34004KT CAVOK 22/11 Q1020","updated":"2026-05-22T22:06:00Z"}
