{"icao":"LPAZ","metar":"LPAZ 111800Z 29008KT 9999 FEW014 SCT044 16/13 Q1017","updated":"2026-01-11T18:27:34Z"}
