{"icao":"LPLA","metar":"LPLA 220200Z VRB01KT 9999 FEW020 SCT035 14/11 Q1033","updated":"2025-11-22T03:02:52Z"}
