{"icao":"KJFK","metar":"KJFK 181251Z 01008KT 10SM OVC070 12/03 A3005 RMK AO2 SLP177 T01220033","updated":"2025-10-18T13:21:42Z"}
