{"icao":"LPCS","metar":"LPCS 220600Z 36009KT 330V040 CAVOK 13/08 Q1020","updated":"2025-09-22T06:27:49Z"}
