{"icao":"LPCS","metar":"LPCS 011000Z 02003KT 340V080 CAVOK 12/06 Q1022","updated":"2025-12-01T10:22:38Z"}
