{"icao":"LPMT","metar":"LPMT 040600Z 33003KT 260V350 9999 FEW025 12/09 Q1016","updated":"2026-05-04T06:11:46Z"}
