{"icao":"KJFK","metar":"KJFK 051651Z 36007KT 10SM FEW250 M03/M11 A3009 RMK AO2 SLP188 T10281106 PNO $","updated":"2026-02-05T17:46:04Z"}
