{"icao":"LPAZ","metar":"LPAZ 271300Z 02019G29KT 3300 SHRA BR SCT006 BKN010 FEW028TCU 18/17 Q1013","updated":"2025-10-27T13:30:32Z"}
