{"icao":"LPAR","metar":"LPAR 031400Z 22004KT 190V270 CAVOK 20/11 Q1021","updated":"2025-11-03T14:18:41Z"}
