{"icao":"LPPD","metar":"LPPD 191630Z 34006KT 250V010 9999 FEW018 BKN025 17/13 Q1014","updated":"2026-04-19T16:38:36Z"}
