{"icao":"LPLA","metar":"LPLA 231700Z 19007KT 9999 FEW025 24/18 Q1015","updated":"2025-10-23T17:15:50Z"}
