{"icao":"KLAX","metar":"KLAX 021253Z 26004KT 8SM OVC008 15/13 A2995 RMK AO2 SLP139 T01500133","updated":"2026-05-02T13:08:20Z"}
