{"icao":"LPPR","metar":"LPPR 210400Z 28005KT 200V340 0900 R17/1700U -DZRA FG VV001 18/18 Q1010","updated":"2025-10-21T04:21:11Z"}
