{"icao":"KJFK","metar":"KJFK 060751Z 21006KT 10SM FEW250 17/15 A3028 RMK AO2 SLP254 T01720150","updated":"2025-10-06T08:24:20Z"}
