{"icao":"LPHR","metar":"LPHR 060730Z 26021G31KT 7000 -RA FEW010 BKN014 BKN030 14/11 Q1012","updated":"2026-02-06T07:46:09Z"}
