{"icao":"LPPS","metar":"LPPS 091130Z 02021KT 9999 SCT014 17/11 Q1020","updated":"2026-04-09T11:56:58Z"}
