{"icao":"LPFR","metar":"LPFR 270130Z VRB02KT CAVOK 12/09 Q1023","updated":"2026-02-27T01:57:57Z"}
