{"icao":"LPPS","metar":"LPPS 011600Z 24009KT 220V280 9999 FEW014 19/13 Q1016","updated":"2026-02-01T16:28:25Z"}
