{"icao":"LPBJ","metar":"LPBJ 121400Z 25012KT 210V290 9999 BKN032 FEW035TCU 21/09 Q1019","updated":"2026-05-12T14:21:57Z"}
