{"icao":"LPPR","metar":"LPPR 290800Z 11009KT 070V130 CAVOK 08/05 Q1019","updated":"2025-12-29T08:29:59Z"}
