{"icao":"LPFL","metar":"LPFL 101900Z 20016G27KT 130V280 9000 -RA FEW010 BKN014 18/15 Q1001 RERA","updated":"2026-02-10T19:20:31Z"}
