{"icao":"KLAX","metar":"KLAX 262253Z 24019G25KT 10SM FEW024 FEW090 18/08 A2996 RMK AO2 SLP143 T01830083 $","updated":"2026-04-26T23:37:46Z"}
