{"icao":"LPPD","metar":"LPPD 061330Z 23025KT 6000 -RA FEW006 SCT014 BKN030 15/13 Q1011","updated":"2026-02-06T14:03:15Z"}
