{"icao":"LPMT","metar":"LPMT 022300Z VRB01KT CAVOK 12/10 Q1025","updated":"2025-11-02T23:15:33Z"}
