{"icao":"LPMR","metar":"LPMR 091300Z 21011KT 180V250 9999 BKN022 SCT040 19/11 Q1003","updated":"2026-05-09T13:14:38Z"}
