{"icao":"LPLA","metar":"LPLA 101500Z 02006KT 330V060 9999 SCT030 15/07 Q1033","updated":"2026-03-10T15:58:14Z"}
