{"icao":"LPPT","metar":"LPPT 011800Z 32012KT CAVOK 25/12 Q1019","updated":"2025-10-01T18:25:22Z"}
