{"icao":"LPBJ","metar":"LPBJ 102300Z 30005KT CAVOK 08/06 Q1023","updated":"2026-03-10T23:34:48Z"}
