{"icao":"KORD","metar":"KORD 120451Z 15008KT 10SM BKN085 OVC110 12/05 A3014 RMK AO2 SLP208 T01170050 $","updated":"2026-04-12T05:22:38Z"}
