{"icao":"LPCS","metar":"LPCS 291600Z 33009KT 290V360 9999 FEW008 SCT018 FEW022TCU 20/16 Q1009","updated":"2025-10-29T16:24:35Z"}
