{"icao":"LPPT","metar":"LPPT 272300Z 35011KT 310V020 9999 FEW026 SCT032 11/07 Q1026","updated":"2026-02-27T23:22:54Z"}
