{"icao":"KJFK","metar":"KJFK 201551Z 02005KT 10SM BKN180 06/M02 A3026 RMK AO2 SLP246 T00611022 $","updated":"2025-11-20T16:25:18Z"}
