{"icao":"LPMA","metar":"LPMA 012000Z 02010KT 350V050 9999 SCT015 22/16 Q1021","updated":"2025-10-01T20:19:49Z"}
