{"icao":"LPCS","metar":"LPCS 211700Z 28009KT 250V310 9999 SCT006 BKN014 21/20 Q1015","updated":"2025-10-21T17:16:32Z"}
