{"icao":"KJFK","metar":"KJFK 132251Z 17018KT 10SM FEW050 SCT120 BKN250 04/M01 A2992 RMK AO2 SLP132 T00391011","updated":"2026-03-13T23:27:13Z"}
