{"icao":"LPAR","metar":"LPAR 121700Z 19006KT 160V220 9999 FEW007 SCT018 15/14 Q1005","updated":"2025-11-12T23:17:54Z"}
