{"icao":"LPLA","metar":"LPLA 241200Z 02005KT 9999 FEW030 SCT040 21/13 Q1023","updated":"2025-09-24T12:36:30Z"}
