{"icao":"LPCS","metar":"LPCS 302330Z 01008KT CAVOK 10/06 Q1020","updated":"2025-12-01T05:26:50Z"}
