{"icao":"KJFK","metar":"KJFK 181251Z 36005KT 10SM FEW013 SCT085 20/17 A3000 RMK AO2 SLP157 T02000172","updated":"2025-09-18T13:26:10Z"}
