{"icao":"KORD","metar":"KORD 271751Z 21016G25KT 10SM FEW110 BKN250 13/M03 A2984 RMK AO2 SLP107 I6000 T01281028 10128 21011 58020","updated":"2026-02-27T18:41:26Z"}
