{"icao":"KJFK","metar":"KJFK 051751Z 11007KT 1SM R04R/P6000FT -RA BR FEW000 OVC004 04/04 A3025 RMK AO2 SFC VIS 2 1/2 SLP243 BR FEW000 P0002 60043 T00440044 10056 20044 50002","updated":"2026-03-05T18:02:27Z"}
