{"icao":"LPFL","metar":"LPFL 230900Z 18011KT 150V210 9999 FEW005 SCT008 17/16 Q1021","updated":"2025-12-23T09:24:40Z"}
