{"icao":"LPPS","metar":"LPPS 200700Z 08008KT 9999 SCT015 18/13 Q1019","updated":"2025-11-20T07:18:20Z"}
