{"icao":"LPAZ","metar":"LPAZ 210230Z 23012KT 9000 BKN005 23/22 Q1016","updated":"2025-10-21T03:04:29Z"}
