{"icao":"LPOV","metar":"LPOV 180400Z 18002KT CAVOK 12/11 Q1015","updated":"2025-10-18T04:20:02Z"}
