{"icao":"LPPT","metar":"LPPT 171000Z 34008KT 9999 FEW012 FEW025CB SCT042 16/13 Q1015","updated":"2025-11-17T10:21:20Z"}
