{"icao":"LPGR","metar":"LPGR 260900Z 32007KT 270V350 9999 FEW018 BKN035 19/11 Q1025","updated":"2026-06-26T09:22:52Z"}
