{"icao":"KJFK","metar":"KJFK 192151Z 16015G22KT 10SM FEW020 SCT180 BKN250 18/16 A2988 RMK AO2 SLP118 T01830161 $","updated":"2025-10-19T22:16:02Z"}
