{"icao":"LPHR","metar":"LPHR 110700Z 29024G35KT 9999 SCT016 SCT040 17/09 Q1006","updated":"2025-11-11T07:18:23Z"}
