{"icao":"LPBJ","metar":"LPBJ 130500Z 16013KT 8000 -RA OVC035 12/11 Q1009","updated":"2026-01-13T05:24:27Z"}
