{"icao":"LPPR","metar":"LPPR 271530Z 34017KT 9999 FEW025 14/06 Q1025","updated":"2026-02-27T15:36:23Z"}
