{"icao":"LPAZ","metar":"LPAZ 200500Z 25012KT 9999 FEW016 20/18 Q1011","updated":"2026-06-20T05:12:14Z"}
