{"icao":"LPPT","metar":"LPPT 031430Z VRB03KT CAVOK 24/05 Q1022","updated":"2026-04-03T14:40:22Z"}
