{"icao":"LPPS","metar":"LPPS 091100Z 02008KT 350V060 9999 SCT015 BKN030 16/09 Q1029","updated":"2026-03-09T11:33:36Z"}
