{"icao":"LPPD","metar":"LPPD 181700Z 02006KT 320V120 9999 FEW006 SCT014 16/15 Q1028","updated":"2026-01-18T17:17:07Z"}
