{"icao":"LPST","metar":"LPST 031400Z 07009KT 030V090 9999 FEW030 19/10 Q1012","updated":"2026-03-03T14:55:41Z"}
