{"icao":"LPPS","metar":"LPPS 071400Z 36012KT 9999 SCT015 24/19 Q1025","updated":"2025-10-07T14:18:18Z"}
