{"icao":"LPFR","metar":"LPFR 221730Z 25008KT 9999 FEW006 22/20 Q1015","updated":"2026-06-22T17:39:00Z"}
