{"icao":"KORD","metar":"KORD 241551Z 17012KT 10SM BKN200 OVC250 08/02 A3008 RMK AO2 SLP191 T00780022","updated":"2025-11-24T16:22:13Z"}
