{"icao":"LPLA","metar":"LPLA 201800Z 07006KT 360V110 9999 FEW025 BKN038 17/10 Q1031","updated":"2025-11-20T18:27:59Z"}
