{"icao":"LPOV","metar":"LPOV 110600Z VRB02KT 9999 MIFG SCT040 06/06 Q1020","updated":"2025-12-11T06:32:00Z"}
