{"icao":"LPFR","metar":"LPFR 192030Z 00000KT CAVOK 18/14 Q1015","updated":"2026-04-19T20:36:10Z"}
