{"icao":"LPMT","metar":"LPMT 141500Z 26013KT 6000 -DZRA FEW005 BKN015 BKN035 14/13 Q1017","updated":"2026-03-14T15:27:15Z"}
