{"icao":"LPPD","metar":"LPPD 030800Z VRB02KT 9999 SCT006 BKN010 21/20 Q1023","updated":"2025-10-03T08:22:01Z"}
