{"icao":"LPCS","metar":"LPCS 171300Z VRB04KT CAVOK 31/08 Q1020","updated":"2025-09-17T13:26:08Z"}
