{"icao":"LPPT","metar":"LPPT 192230Z 33009KT 290V010 CAVOK 19/15 Q1016","updated":"2026-06-19T22:55:39Z"}
