{"icao":"LPCS","metar":"LPCS 131030Z 35012KT 310V010 9999 FEW018 15/08 Q1023","updated":"2026-04-13T10:43:37Z"}
