{"icao":"LPPR","metar":"LPPR 212200Z 21010KT 3000 -RA BR BKN002 BKN010 18/18 Q1013","updated":"2025-10-21T22:15:29Z"}
