{"icao":"LPHR","metar":"LPHR 241500Z 25008KT 9999 SCT010 19/16 Q1026","updated":"2025-11-24T15:21:22Z"}
