{"icao":"KLAX","metar":"KLAX 180346Z 26011KT 10SM BKN014 18/14 A2993 RMK AO2 T01780144 $","updated":"2026-06-18T03:54:25Z"}
