{"icao":"LPAZ","metar":"LPAZ 280400Z 10005KT 9999 FEW010 14/14 Q1023","updated":"2025-11-28T04:22:30Z"}
