{"icao":"LPPT","metar":"LPPT 121530Z 09003KT 030V170 9999 FEW038 19/10 Q1025","updated":"2026-03-12T15:57:46Z"}
