{"icao":"LPCS","metar":"LPCS 212100Z 03006KT CAVOK 24/14 Q1020","updated":"2026-05-21T21:27:03Z"}
