{"icao":"LPMT","metar":"LPMT 201100Z 36006KT 320V040 CAVOK 27/17 Q1015","updated":"2026-06-20T11:16:45Z"}
