{"icao":"KJFK","metar":"KJFK 190451Z 12006KT 1SM R04R/P6000FT BR OVC003 08/08 A2994 RMK SFC VIS 4 SLP138 T00830078 401670083 ","updated":"2026-04-19T05:27:49Z"}
