{"icao":"KORD","metar":"KORD 282007Z 13005KT 5SM BR OVC004 13/13 A2936 RMK AO2 RAE02 P0001 T01280128 $","updated":"2025-12-28T20:21:48Z"}
