{"icao":"KORD","metar":"KORD 242251Z 00000KT 6SM -SN OVC047 M15/M22 A3053 RMK AO2 SLP357 P0000 T11501222","updated":"2026-01-24T23:19:11Z"}
