{"icao":"KORD","metar":"KORD 271451Z 29014G28KT 10SM -SN BKN032 BKN041 M11/M18 A3003 RMK AO2 PK WND 29028/1443 SNB47 SLP182 P0000 60000 T11061183 53037","updated":"2026-01-27T15:29:54Z"}
