{"icao":"LPMT","metar":"LPMT 261100Z 22017KT 7000 -DZ SCT009 SCT010 BKN016 16/14 Q1014","updated":"2026-01-26T11:19:45Z"}
