{"icao":"LPMT","metar":"LPMT 091500Z 34014KT CAVOK 25/10 Q1018","updated":"2026-06-09T15:53:17Z"}
