{"icao":"LPMT","metar":"LPMT 082100Z 35006KT CAVOK 14/11 Q1022","updated":"2025-11-08T21:14:03Z"}
