{"icao":"KJFK","metar":"KJFK 072151Z 19019G26KT 10SM FEW033 FEW065 SCT210 BKN250 14/09 A2981 RMK AO2 PK WND 20035/2058 SLP094 T01390089","updated":"2025-11-07T22:17:00Z"}
