{"icao":"KLAX","metar":"KLAX 010853Z 10004KT 9SM CLR 16/13 A2994 RMK AO2 SLP134 T01610128 51003","updated":"2026-03-01T09:29:11Z"}
