{"icao":"LPMA","metar":"LPMA 221000Z 01011KT 330V040 9999 BKN015 18/13 Q1026","updated":"2025-11-22T10:18:03Z"}
