{"icao":"LPHR","metar":"LPHR 101030Z 06004KT 030V090 9999 BKN019 14/10 Q1034","updated":"2026-03-10T10:37:56Z"}
