{"icao":"LPMT","metar":"LPMT 091700Z 22011KT 190V260 9999 FEW021 FEW025TCU SCT045 17/12 Q1007","updated":"2026-05-09T17:50:02Z"}
