{"icao":"LPMT","metar":"LPMT 092200Z 18005KT 160V230 9999 FEW040 16/13 Q1014","updated":"2026-04-09T22:39:14Z"}
