{"icao":"KJFK","metar":"KJFK 090251Z 36012KT 10SM FEW190 BKN240 M04/M21 A3031 RMK AO2 SLP264 T10441206 50001 $","updated":"2025-12-09T03:17:36Z"}
