{"icao":"KORD","metar":"KORD 202151Z 04011KT 10SM OVC250 13/04 A2985 RMK AO2 SLP108 T01280044","updated":"2026-03-20T22:27:24Z"}
