{"icao":"LPPD","metar":"LPPD 041230Z 29007KT 260V330 1300 R30/1700U -RADZ BR VV003 16/15 Q1025","updated":"2026-03-04T12:54:27Z"}
