{"icao":"LPBJ","metar":"LPBJ 271200Z 06007KT 030V090 CAVOK 14/02 Q1024","updated":"2025-11-27T12:39:40Z"}
