{"icao":"LPST","metar":"LPST 311000Z 20013KT 9999 FEW009 BKN012 OVC016 19/17 Q1013","updated":"2025-10-31T10:19:20Z"}
