{"icao":"LPAZ","metar":"LPAZ 152200Z 08004KT 040V100 7000 -DZ SCT007 BKN014 14/12 Q1026","updated":"2026-03-15T22:27:00Z"}
