{"icao":"LPMA","metar":"LPMA 142000Z 36014KT 320V040 9999 BKN016 18/12 Q1020","updated":"2025-12-14T20:20:13Z"}
