{"icao":"LPPR","metar":"LPPR 160730Z 02008KT 330V060 CAVOK 13/06 Q1019","updated":"2026-05-16T08:02:21Z"}
