{"icao":"KORD","metar":"KORD 091713Z 32010G16KT 10SM SCT018 BKN037 06/02 A2995 RMK AO2 T00610017","updated":"2026-01-09T17:22:11Z"}
