{"icao":"KORD","metar":"KORD 211351Z 19006KT 10SM FEW045 FEW075 BKN120 BKN250 21/17 A2996 RMK AO2 SLP142 T02060172 $","updated":"2025-09-21T14:13:56Z"}
