{"icao":"LPMA","metar":"LPMA 102200Z 33005KT 290V360 9999 FEW016 17/10 Q1026","updated":"2025-12-10T22:19:30Z"}
