{"icao":"LPBJ","metar":"LPBJ 051526Z 25021G32KT 5000 -SHRA SCT020CB BKN022 15/11 Q1000","updated":"2026-02-05T15:39:10Z"}
