{"icao":"LPPT","metar":"LPPT 061100Z 32012KT 290V350 9999 FEW022 SCT030 18/11 Q1014","updated":"2026-05-06T11:05:10Z"}
