{"icao":"LPFR","metar":"LPFR 021730Z 14013KT 9000 SCT012 SCT018 16/14 Q1008","updated":"2026-03-02T17:43:43Z"}
