{"icao":"LPPR","metar":"LPPR 031400Z 20009KT 4600 -SHRA FEW011 SCT020 BKN049 12/10 Q1021","updated":"2025-12-03T14:20:04Z"}
