{"icao":"LPMA","metar":"LPMA 060400Z 01016G27KT 340V130 9999 SCT014 14/06 Q1028","updated":"2026-03-06T04:15:46Z"}
