{"icao":"LPMA","metar":"LPMA 101300Z 03008KT 360V060 9999 FEW015 SCT030 23/15 Q1023","updated":"2025-10-10T13:26:40Z"}
