{"icao":"LPFR","metar":"LPFR 140630Z VRB01KT CAVOK 14/12 Q1015","updated":"2026-05-14T06:44:43Z"}
