{"icao":"LPST","metar":"LPST 311300Z 35006KT 310V050 CAVOK 24/11 Q1025","updated":"2026-03-31T13:15:57Z"}
