{"icao":"LPBJ","metar":"LPBJ 181200Z 30010KT 260V350 9999 FEW025 20/07 Q1020","updated":"2026-05-18T12:28:10Z"}
