{"icao":"KLAX","metar":"KLAX 272253Z 27006KT 10SM SCT180 BKN250 28/11 A2989 RMK AO2 SLP121 T02830106","updated":"2026-02-27T23:23:17Z"}
