{"icao":"LPPT","metar":"LPPT 041700Z 33012KT CAVOK 23/07 Q1020","updated":"2026-04-04T17:28:08Z"}
