{"icao":"LPFL","metar":"LPFL 161400Z 34005KT 280V040 9999 FEW025 21/12 Q1007","updated":"2025-10-16T14:18:30Z"}
