{"icao":"LPCS","metar":"LPCS 162000Z 33008KT 280V020 9999 FEW018 14/08 Q1018","updated":"2026-05-16T21:47:23Z"}
