{"icao":"LPOV","metar":"LPOV 092200Z 03003KT CAVOK 16/14 Q1020","updated":"2025-10-09T22:15:37Z"}
