{"icao":"LPLA","metar":"LPLA 271903Z 35015KT 330V030 7000 -SHRA SCT007 BKN018 BKN030 17/15 Q1018","updated":"2025-10-27T19:14:12Z"}
