{"icao":"LPPR","metar":"LPPR 261200Z 05007G17KT 340V090 CAVOK 18/10 Q1021","updated":"2025-10-26T12:33:25Z"}
