{"icao":"KJFK","metar":"KJFK 182251Z 18005KT 10SM FEW180 BKN250 15/07 A3002 RMK AO2 SLP164 T01500067 $","updated":"2025-10-18T23:15:35Z"}
