{"icao":"LPOV","metar":"LPOV 180700Z VRB03KT 9999 SCT040 14/11 Q1003","updated":"2026-03-18T07:51:23Z"}
