{"icao":"LPMT","metar":"LPMT 131000Z 11007KT CAVOK 30/10 Q1017","updated":"2026-06-13T10:26:44Z"}
