{"icao":"LPMR","metar":"LPMR 300900Z 33010KT 9999 OVC012 18/16 Q1023","updated":"2026-05-30T09:13:10Z"}
