{"icao":"LPPD","metar":"LPPD 172100Z 25006KT 210V280 9999 SCT004 BKN013 19/18 Q1024","updated":"2025-11-17T21:17:05Z"}
