{"icao":"KORD","metar":"KORD 270551Z 00000KT 9SM OVC010 04/01 A2996 RMK AO2 SLP148 T00390011 10056 20039 400830039 51009 $","updated":"2025-12-27T06:29:52Z"}
