{"icao":"LPOV","metar":"LPOV 051400Z 20011KT 170V240 9999 FEW014 19/16 Q1004","updated":"2025-11-05T14:19:02Z"}
