{"icao":"LPCS","metar":"LPCS 301200Z 21010KT 180V240 9999 FEW014 SCT040 18/13 Q1017","updated":"2026-04-30T12:13:57Z"}
