{"icao":"LPOV","metar":"LPOV 051800Z 34011KT CAVOK 19/12 Q1019","updated":"2025-10-05T18:21:56Z"}
