{"icao":"KLAX","metar":"KLAX 050253Z 29008KT 10SM FEW026 BKN038 OVC080 15/12 A3000 RMK AO2 RAB05E29 CIG 031 RWY24 SLP159 P0010 60018 T01500122 53005","updated":"2026-01-05T03:54:35Z"}
