{"icao":"LPMT","metar":"LPMT 081500Z 22008KT 170V250 9999 FEW025 SCT035 14/09 Q1014","updated":"2026-02-08T15:24:45Z"}
