{"icao":"KORD","metar":"KORD 270651Z 02021G37KT 10SM OVC017 00/M04 A3021 RMK AO2 PK WND 02037/0645 SLP235 T00001039 $","updated":"2026-03-27T07:05:16Z"}
