{"icao":"LPST","metar":"LPST 101300Z 36007KT 330V030 9999 SCT025 15/10 Q1021","updated":"2025-12-10T13:36:04Z"}
