{"icao":"LPFL","metar":"LPFL 031630Z VRB07KT 9999 FEW023 BKN037 17/08 Q1024","updated":"2026-04-04T04:48:48Z"}
