{"icao":"LPLA","metar":"LPLA 290300Z 12019G30KT 6000 -RADZ SCT008 BKN012 BKN018 14/13 Q1009","updated":"2025-12-29T03:47:42Z"}
