{"icao":"LPFR","metar":"LPFR 100500Z 08007KT CAVOK 19/17 Q1018","updated":"2025-10-10T05:17:16Z"}
