{"icao":"KORD","metar":"KORD 251451Z 04014KT 5SM BR OVC009 04/02 A3018 RMK AO2 SLP224 T00440022 51024 $","updated":"2025-12-25T15:19:31Z"}
