{"icao":"LPAZ","metar":"LPAZ 252030Z 32013KT 9999 FEW022 BKN047 19/14 Q1023","updated":"2026-06-25T21:00:40Z"}
