{"icao":"LPOV","metar":"LPOV 272100Z 36005KT 340V040 CAVOK 21/15 Q1019","updated":"2026-05-27T21:53:06Z"}
