{"icao":"LPBJ","metar":"LPBJ 120500Z 32017KT CAVOK 08/02 Q1015","updated":"2026-04-12T05:22:20Z"}
