{"icao":"LPLA","metar":"LPLA 062100Z 13009KT 7000 -SHRA BKN015 SCT020 BKN030 22/21 Q1018","updated":"2025-10-06T21:14:56Z"}
