{"icao":"LPCS","metar":"LPCS 090930Z 23010KT 0250 R17/1100D -DZ FG VV002 15/15 Q1013","updated":"2026-02-09T10:01:44Z"}
