{"icao":"KJFK","metar":"KJFK 200951Z 36005KT 10SM BKN250 02/M02 A3025 RMK AO2 SLP244 T00221022 $","updated":"2025-11-20T10:21:00Z"}
