{"icao":"LPLA","metar":"LPLA 042100Z 15007KT 9999 FEW015 22/21 Q1027","updated":"2025-10-04T21:13:44Z"}
