{"icao":"LPMR","metar":"LPMR 151900Z 22004KT 170V290 9999 SCT012 SCT030 15/14 Q1007","updated":"2025-11-15T20:18:02Z"}
