{"icao":"LPPR","metar":"LPPR 201600Z 33011KT 300V360 9999 FEW030 19/13 Q1020","updated":"2025-09-20T16:18:40Z"}
