{"icao":"KORD","metar":"KORD 281851Z 28008KT 10SM FEW033 FEW250 M01/M12 A3035 RMK AO2 SLP287 T10111117 $","updated":"2025-11-28T19:14:26Z"}
