{"icao":"LPPT","metar":"LPPT 081900Z 34010KT 280V010 9999 SCT020 18/14 Q1022","updated":"2025-10-08T19:13:33Z"}
