{"icao":"LPFR","metar":"LPFR 022100Z 27004KT CAVOK 23/17 Q1020","updated":"2025-10-02T21:14:32Z"}
