{"icao":"LPFR","metar":"LPFR 211400Z 12011KT 9999 FEW009 26/22 Q1017","updated":"2026-06-21T14:07:33Z"}
