{"icao":"LPPR","metar":"LPPR 240200Z 00000KT 6000 FEW007 BKN010 12/12 Q1015","updated":"2026-04-24T02:32:51Z"}
