{"icao":"KJFK","metar":"KJFK 071151Z 07003KT 10SM FEW033 SCT250 02/M01 A3013 RMK AO2 SLP201 T00221006 10056 20017 56008 $","updated":"2025-11-07T12:37:04Z"}
