{"icao":"KJFK","metar":"KJFK 282351Z 18005KT 10SM BKN085 BKN110 BKN250 11/06 A3009 RMK SLP189 T01110061 10161 20111 55002 ","updated":"2026-04-28T23:58:15Z"}
