{"icao":"LPPS","metar":"LPPS 112030Z 30006KT 9999 SCT015 BKN030 17/13 Q1027","updated":"2026-02-11T20:37:47Z"}
