{"icao":"LPPR","metar":"LPPR 261600Z 13007KT 080V140 9999 FEW046 12/03 Q1013","updated":"2025-12-26T16:22:53Z"}
