{"icao":"LPMT","metar":"LPMT 020400Z VRB01KT CAVOK 09/09 Q1020","updated":"2026-04-02T05:01:15Z"}
