{"icao":"KLAX","metar":"KLAX 241653Z 12006KT 7SM FEW009 19/14 A3003 RMK AO2 SLP169 T01940139","updated":"2025-10-24T17:16:35Z"}
