{"icao":"KJFK","metar":"KJFK 180451Z 22006KT 6SM BR BKN170 BKN250 M01/M02 A3013 RMK AO2 SLP201 T10111022 400441022 $","updated":"2026-01-18T05:22:38Z"}
