{"icao":"LPOV","metar":"LPOV 251000Z 34009KT 9999 -RA FEW018 BKN035 15/13 Q1015","updated":"2025-10-25T10:16:46Z"}
