{"icao":"LPMT","metar":"LPMT 300600Z 36010KT 9999 FEW025 12/07 Q1017","updated":"2025-11-30T06:28:01Z"}
