{"icao":"LPPT","metar":"LPPT 191800Z 21013KT 3000 DZ BR FEW002 BKN004 20/19 Q1014","updated":"2025-10-19T18:22:41Z"}
