{"icao":"KORD","metar":"KORD 222151Z 02012KT 10SM SCT080 BKN210 OVC250 18/06 A3001 RMK AO2 SLP160 T01830061","updated":"2026-05-22T22:06:19Z"}
