{"icao":"LPFL","metar":"LPFL 231800Z 15006KT 9999 BKN033 15/08 Q1026","updated":"2026-03-23T18:53:09Z"}
