{"icao":"KLAX","metar":"KLAX 270553Z 28008KT 10SM FEW016 BKN021 BKN033 20/17 A2989 RMK AO2 SLP118 T02000172 10217 20200 50011 $","updated":"2025-09-27T06:22:27Z"}
