{"icao":"LPCS","metar":"LPCS 231200Z 19005KT 120V290 CAVOK 26/17 Q1013","updated":"2026-06-23T12:05:07Z"}
