{"icao":"LPPS","metar":"LPPS 040630Z 36005KT 320V040 9999 SCT013 13/12 Q1020","updated":"2026-04-04T07:01:04Z"}
