{"icao":"LPPD","metar":"LPPD 041530Z 36026G38KT 5000 -DZ FEW004 SCT007 15/13 Q1025","updated":"2026-03-04T15:39:09Z"}
