{"icao":"LPLA","metar":"LPLA 202000Z 23012KT 200V260 9999 FEW015 SCT025 24/19 Q1013","updated":"2025-10-20T20:21:00Z"}
