{"icao":"LPFR","metar":"LPFR 182000Z 31013KT CAVOK 19/10 Q1020","updated":"2026-05-18T20:23:03Z"}
