{"icao":"LPMR","metar":"LPMR 250300Z 28011G26KT 230V310 3000 RADZ BR BKN008 BKN015 FEW016TCU 13/12 Q1013","updated":"2026-01-25T03:53:01Z"}
