{"icao":"LPHR","metar":"LPHR 291230Z 06010KT 020V110 9999 SCT012 18/14 Q1012","updated":"2025-12-29T12:42:19Z"}
