{"icao":"LPMA","metar":"LPMA 222000Z 02015KT 350V050 9999 SCT015 19/11 Q1025","updated":"2025-11-22T20:19:24Z"}
