{"icao":"LPAZ","metar":"LPAZ 062000Z 24027KT 9000 FEW023 SCT030 16/13 Q1011","updated":"2026-02-06T20:32:48Z"}
