{"icao":"LPMR","metar":"LPMR 011100Z 13019KT CAVOK 10/06 Q1012","updated":"2026-01-01T11:17:21Z"}
