{"icao":"KJFK","metar":"KJFK 301351Z 03009KT 10SM BKN250 22/11 A3010 RMK AO2 SLP192 T02220106","updated":"2025-09-30T14:18:54Z"}
