{"icao":"LPPD","metar":"LPPD 231900Z 31012KT 9999 SCT020 14/07 Q1026","updated":"2026-01-23T19:23:31Z"}
