{"icao":"LPAR","metar":"LPAR 300900Z 33008KT 290V360 CAVOK 25/18 Q1020","updated":"2026-06-30T09:32:07Z"}
