{"icao":"LPBJ","metar":"LPBJ 212100Z 26007KT CAVOK 16/14 Q1009","updated":"2026-04-21T21:44:00Z"}
