{"icao":"LPPD","metar":"LPPD 230200Z 05007KT 020V100 9999 FEW016 SCT030 13/07 Q1022","updated":"2026-03-23T02:08:05Z"}
