{"icao":"KJFK","metar":"KJFK 021051Z 04007KT 10SM FEW037 12/07 A3043 RMK AO2 SLP305 T01170072","updated":"2025-10-02T11:13:52Z"}
