{"icao":"LPMA","metar":"LPMA 141030Z 01008KT 340V040 9999 SCT015 BKN030 16/10 Q1025","updated":"2026-04-14T11:01:29Z"}
