{"icao":"LPCS","metar":"LPCS 011900Z 30003KT CAVOK 13/08 Q1018","updated":"2026-03-01T19:21:05Z"}
