{"icao":"LPMR","metar":"LPMR 140100Z 18008KT 9999 SCT020 SCT025 14/13 Q1000","updated":"2025-11-14T01:24:30Z"}
