{"icao":"LPPR","metar":"LPPR 270100Z VRB02KT 8000 NSC 07/07 Q1025","updated":"2025-11-27T01:23:11Z"}
