{"icao":"KJFK","metar":"KJFK 172051Z 21008KT 7SM BKN250 03/01 A3009 RMK AO2 SLP188 T00330011 56010 $","updated":"2026-02-17T21:34:28Z"}
