{"icao":"KORD","metar":"KORD 240351Z 31004KT 10SM CLR 06/00 A3018 RMK AO2 SLP223 T00560000","updated":"2025-10-24T04:21:36Z"}
