{"icao":"LPCS","metar":"LPCS 231030Z 10006KT 070V140 CAVOK 17/10 Q1024","updated":"2026-02-23T10:49:43Z"}
