{"icao":"LPOV","metar":"LPOV 042100Z 34010KT 1400 BR OVC003 16/16 Q1023","updated":"2025-10-04T22:14:25Z"}
