{"icao":"LPHR","metar":"LPHR 121830Z 24011KT 9999 FEW005 SCT011 BKN030 16/15 Q1027","updated":"2026-04-12T18:47:51Z"}
