{"icao":"LPST","metar":"LPST 101000Z 25015KT 1500 -RADZ BR BKN003 BKN012 15/15 Q1017","updated":"2026-02-10T11:04:10Z"}
