{"icao":"LPMR","metar":"LPMR 150600Z 34007KT 5000 -DZ BR OVC009 17/17 Q1016","updated":"2026-06-15T06:21:42Z"}
