{"icao":"LPLA","metar":"LPLA 252300Z 33008KT 8000 -RA FEW013 SCT020 15/14 Q1007","updated":"2026-01-25T23:18:57Z"}
