{"icao":"KORD","metar":"KORD 200351Z 36008KT 10SM -RA BKN009 BKN020 OVC043 04/02 A2942 RMK AO2 RAB32 SLP965 P0001 T00440022 $","updated":"2026-02-20T04:21:46Z"}
