{"icao":"LPPT","metar":"LPPT 200530Z 33003KT CAVOK 08/06 Q1029","updated":"2026-02-20T05:52:25Z"}
