{"icao":"KORD","metar":"KORD 270351Z 22020G30KT 10SM BKN140 BKN180 M14/M19 A3004 RMK AO2 PK WND 21030/0347 SLP190 T11391194","updated":"2026-01-27T04:45:31Z"}
