{"icao":"LPBJ","metar":"LPBJ 191000Z 12007KT 090V150 CAVOK 22/10 Q1017","updated":"2026-04-19T10:37:22Z"}
