{"icao":"KJFK","metar":"KJFK 260119Z 02013KT 4SM -PL BR SCT020 OVC027 M06/M07 A2980 RMK AO2 PRESFR P0002 T10561067 $","updated":"2026-01-26T01:50:14Z"}
