{"icao":"LPOV","metar":"LPOV 201100Z 32006KT CAVOK 22/18 Q1016","updated":"2026-06-20T11:16:45Z"}
