{"icao":"LPPS","metar":"LPPS 300630Z 29015KT 9999 SCT013 18/15 Q1022","updated":"2026-01-30T06:46:26Z"}
