{"icao":"LPLA","metar":"LPLA 041500Z 30024G36KT 9999 FEW025 SCT040 17/10 Q1005","updated":"2025-11-04T15:20:39Z"}
