{"icao":"LPBJ","metar":"LPBJ 261400Z 08007KT 050V110 CAVOK 22/07 Q1023","updated":"2026-02-26T14:44:49Z"}
