{"icao":"KJFK","metar":"KJFK 180651Z 36004KT 10SM FEW250 11/02 A2999 RMK AO2 SLP154 T01060017","updated":"2025-10-18T07:15:46Z"}
