{"icao":"LPCS","metar":"LPCS 101900Z 26010KT 210V310 0400 FG VV002 15/15 Q1017","updated":"2026-02-11T06:59:08Z"}
