{"icao":"LPPD","metar":"LPPD 012100Z 33015KT 310V010 9999 FEW025 SCT035 12/05 Q1026","updated":"2026-03-01T21:21:14Z"}
