{"icao":"LPST","metar":"LPST 131100Z 19004KT 150V250 9999 -SHRA SCT015 FEW018TCU 12/10 Q1009","updated":"2026-01-13T11:19:12Z"}
