{"icao":"KLAX","metar":"KLAX 311153Z 10006KT 10SM CLR 17/00 A3014 RMK AO2 SLP204 T01670000 10217 20161 58007 $","updated":"2026-01-31T12:44:38Z"}
