{"icao":"LPPT","metar":"LPPT 221900Z 31002KT CAVOK 16/08 Q1026","updated":"2026-02-22T19:23:08Z"}
