{"icao":"LPPD","metar":"LPPD 191900Z 29007KT 0600 R30/P2000 FG VV000 22/21 Q1017","updated":"2025-10-19T19:13:12Z"}
