{"icao":"LPCS","metar":"LPCS 171500Z 22006KT 160V240 CAVOK 32/05 Q1019","updated":"2025-09-17T15:18:09Z"}
