{"icao":"KJFK","metar":"KJFK 091251Z 34012KT 10SM CLR M11/M19 A3029 RMK AO2 SLP258 T11111189 $","updated":"2026-02-09T13:06:33Z"}
