{"icao":"LPPD","metar":"LPPD 181200Z 12004KT 100V190 6000 -SHRA SCT003 BKN005 20/20 Q1014","updated":"2026-06-18T12:24:06Z"}
