{"icao":"LPPS","metar":"LPPS 181800Z 01015KT 9999 SCT015 15/08 Q1021","updated":"2026-01-18T18:26:41Z"}
