{"icao":"LPPT","metar":"LPPT 090300Z 32002KT CAVOK 11/10 Q1022","updated":"2025-11-09T03:11:45Z"}
