{"icao":"KORD","metar":"KORD 121651Z 16007KT 10SM FEW032 BKN250 18/08 A3002 RMK AO2 SLP166 T01780083 $","updated":"2025-10-12T17:13:33Z"}
