{"icao":"LPPS","metar":"LPPS 081230Z 06010KT 340V090 9999 FEW015 BKN030 23/17 Q1026","updated":"2025-10-08T12:37:30Z"}
