{"icao":"LPAZ","metar":"LPAZ 231600Z 17006KT 130V200 0650 R18/0600 FG BKN001 OVC004 19/18 Q1025","updated":"2026-05-23T16:07:18Z"}
