{"icao":"KJFK","metar":"KJFK 111951Z 33008KT 10SM FEW065 BKN150 BKN250 15/M03 A3007 RMK AO2 SLP181 T01501028 $","updated":"2026-05-11T20:47:02Z"}
