{"icao":"LPFR","metar":"LPFR 211700Z 03009KT CAVOK 16/01 Q1024","updated":"2025-11-21T17:16:09Z"}
