{"icao":"KJFK","metar":"KJFK 140951Z 28005KT 9SM -SN SCT015 BKN030 OVC050 M02/M06 A3013 RMK AO2 SNB22 SLP203 P0000 T10171056 $","updated":"2026-02-14T10:25:35Z"}
