{"icao":"LPLA","metar":"LPLA 291500Z 24010KT 210V280 9999 3000W -SHRA FEW008 SCT018 BKN035 24/22 Q1022","updated":"2025-09-29T15:18:16Z"}
