{"icao":"LPLA","metar":"LPLA 261200Z 32014KT 280V340 9999 BKN030 19/11 Q1025","updated":"2026-06-26T12:09:34Z"}
