{"icao":"LPBJ","metar":"LPBJ 140900Z 17009KT 140V200 9999 BKN020 22/17 Q1017","updated":"2026-06-14T09:31:11Z"}
