{"icao":"KLAX","metar":"KLAX 192353Z 26017KT 10SM FEW005 FEW007 SCT016 19/13 A2999 RMK AO2 SLP152 FU FEW005 T01940133 10217 20194 58009","updated":"2026-06-20T00:08:50Z"}
