{"icao":"KJFK","metar":"KJFK 252113Z 04016G25KT 1SM R04R/3500V4500FT PLSN BR VV008 M08/M09 A3005 RMK AO2 TWR VIS 1 1/2 P0003 T10781089 $","updated":"2026-01-25T21:18:41Z"}
