{"icao":"LPFR","metar":"LPFR 031300Z 24012KT 9999 FEW020 20/14 Q1015","updated":"2026-05-03T13:07:16Z"}
