{"icao":"LPAZ","metar":"LPAZ 281630Z 24022KT 7000 FEW015 18/16 Q1009","updated":"2026-01-28T16:35:38Z"}
