{"icao":"LPOV","metar":"LPOV 180600Z VRB01KT CAVOK 12/11 Q1015","updated":"2025-10-18T06:24:00Z"}
