{"icao":"LPOV","metar":"LPOV 021700Z 22011KT 190V250 9999 FEW022 SCT030 18/15 Q1014","updated":"2026-05-02T17:41:37Z"}
