{"icao":"KJFK","metar":"KJFK 020951Z 32004KT 10SM SCT250 07/01 A3024 RMK AO2 SLP241 T00670011 $","updated":"2025-11-02T10:17:24Z"}
