{"icao":"LPPR","metar":"LPPR 160700Z 03006KT CAVOK 08/06 Q1021","updated":"2026-03-16T07:15:00Z"}
