{"icao":"LPOV","metar":"LPOV 081000Z VRB02KT CAVOK 15/12 Q1022","updated":"2025-11-08T10:16:56Z"}
