{"icao":"LPFL","metar":"LPFL 271400Z 36012KT 330V040 9999 FEW027 BKN037 15/09 Q1026","updated":"2025-11-27T14:18:52Z"}
