{"icao":"LPMA","metar":"LPMA 260400Z 30006KT 280V340 9999 SCT015 15/10 Q1020","updated":"2025-12-26T04:33:35Z"}
