{"icao":"LPPR","metar":"LPPR 071330Z 21020G30KT 8000 -SHRA FEW010 FEW018CB BKN021 14/11 Q0994","updated":"2026-02-07T13:42:32Z"}
