{"icao":"LPPS","metar":"LPPS 271330Z 36012KT 330V030 9999 FEW015 BKN030 18/11 Q1017","updated":"2026-04-27T13:50:37Z"}
