{"icao":"LPCS","metar":"LPCS 131000Z 36011KT 320V040 CAVOK 23/15 Q1022","updated":"2025-09-13T10:15:31Z"}
