{"icao":"LPPS","metar":"LPPS 070330Z 04009KT 9999 FEW015 BKN030 14/06 Q1025","updated":"2026-03-07T04:00:03Z"}
