{"icao":"KORD","metar":"KORD 211151Z 17006KT 7SM SCT046 BKN060 BKN075 BKN150 19/18 A2996 RMK AO2 SLP143 60001 70001 T01940178 10206 20194 55000 $","updated":"2025-09-21T12:32:11Z"}
