{"icao":"LPCS","metar":"LPCS 181600Z 02013KT CAVOK 27/14 Q1014","updated":"2026-06-18T16:29:18Z"}
