{"icao":"LPST","metar":"LPST 030800Z 00000KT CAVOK 07/07 Q1023","updated":"2025-11-03T09:22:13Z"}
