{"icao":"LPAZ","metar":"LPAZ 010530Z 22026KT 3000 RA BR FEW004 SCT007 BKN013 17/16 Q1011","updated":"2026-02-01T06:03:22Z"}
