{"icao":"LPHR","metar":"LPHR 181600Z 26009KT 230V310 9999 FEW009 SCT013 21/18 Q1014","updated":"2026-06-18T16:29:37Z"}
