{"icao":"LPFL","metar":"LPFL 010800Z 33016G26KT 280V360 9999 VCSH FEW010 BKN015 15/13 Q1025","updated":"2026-03-01T08:29:15Z"}
