{"icao":"KLAX","metar":"KLAX 151853Z 03006KT 6SM -RA BR FEW007 SCT026 OVC048 15/14 A2986 RMK AO2 SLP108 P0008 T01500139 $","updated":"2025-11-15T19:12:27Z"}
