{"icao":"KORD","metar":"KORD 032151Z 26004KT 10SM BKN050 OVC065 M03/M15 A3002 RMK AO2 SLP174 T10331150 $","updated":"2026-01-03T22:18:31Z"}
