{"icao":"KJFK","metar":"KJFK 200451Z 21009KT 10SM BKN050 OVC090 03/01 A3020 RMK AO2 SLP225 T00330006 400441006","updated":"2026-03-20T05:51:24Z"}
