{"icao":"LPCS","metar":"LPCS 170600Z VRB02KT CAVOK 17/09 Q1014","updated":"2025-10-17T06:26:25Z"}
