{"icao":"LPLA","metar":"LPLA 051800Z 20024G39KT 170V230 9999 FEW022 17/11 Q1010","updated":"2026-04-05T18:41:46Z"}
