{"icao":"LPLA","metar":"LPLA 271500Z 07008KT 030V110 9999 FEW030 BKN045 20/12 Q1027","updated":"2025-09-27T15:14:33Z"}
