{"icao":"LPMR","metar":"LPMR 060500Z 27003KT 220V310 9999 FEW030 13/10 Q1015","updated":"2025-11-06T05:18:48Z"}
