{"icao":"KLAX","metar":"KLAX 050653Z 14004KT 9SM CLR 18/15 A2981 RMK AO2 SLP092 T01830150 $","updated":"2025-10-05T07:14:31Z"}
