{"icao":"LPMA","metar":"LPMA 222300Z 01005KT 340V040 9999 BKN015 23/19 Q1022","updated":"2025-10-22T23:14:54Z"}
