{"icao":"LPFR","metar":"LPFR 100930Z 29006KT 250V350 9999 FEW010 BKN030 12/07 Q1020","updated":"2026-03-10T09:41:46Z"}
