{"icao":"LPLA","metar":"LPLA 011200Z 29032G49KT 9999 FEW024 FEW025CB SCT035 14/08 Q1006 RESHRA","updated":"2026-02-01T12:47:29Z"}
