{"icao":"LPAR","metar":"LPAR 041700Z 26003KT CAVOK 21/16 Q1013","updated":"2025-11-04T21:17:05Z"}
