{"icao":"LPOV","metar":"LPOV 282300Z 34005KT CAVOK 16/15 Q1016","updated":"2025-09-28T23:14:51Z"}
