{"icao":"LPFL","metar":"LPFL 291600Z 14009KT 110V170 9999 VCSH FEW006 SCT009 BKN025 16/14 Q1010","updated":"2025-12-29T16:24:48Z"}
