{"icao":"KORD","metar":"KORD 240151Z 17009KT 10SM BKN250 23/11 A2970 RMK AO2 SLP052 T02330106","updated":"2026-04-24T02:33:26Z"}
