{"icao":"KJFK","metar":"KJFK 020951Z 06014G21KT 10SM -RA OVC014 07/06 A3034 RMK AO2 SLP272 P0002 T00720056 $","updated":"2026-04-02T10:01:15Z"}
