{"icao":"KORD","metar":"KORD 170251Z 26016G25KT 10SM FEW050 BKN090 OVC120 M01/M08 A2966 RMK AO2 PK WND 26028/0240 SLP052 60002 T10111083 51025 $","updated":"2026-01-17T03:21:23Z"}
