{"icao":"LPOV","metar":"LPOV 221700Z 29005KT 260V330 9999 SCT007 SCT014 20/19 Q1017","updated":"2026-06-22T17:39:02Z"}
