{"icao":"LPAZ","metar":"LPAZ 201900Z 25013KT 7000 BKN004 23/23 Q1017","updated":"2025-10-20T19:15:12Z"}
