{"icao":"KORD","metar":"KORD 142251Z 32012G19KT 10SM FEW025 SCT034 BKN050 M07/M13 A2995 RMK AO2 SNE39 SLP150 P0000 T10721128 $","updated":"2026-01-14T23:17:09Z"}
