{"icao":"LPPS","metar":"LPPS 270700Z 27012KT 250V310 9000 SHRA SCT014 17/15 Q1015","updated":"2026-01-27T07:26:30Z"}
