{"icao":"LPHR","metar":"LPHR 200700Z 24014KT 7000 FEW003 BKN005 22/22 Q1014","updated":"2025-10-20T07:18:53Z"}
