{"icao":"KJFK","metar":"KJFK 110551Z 30017G29KT 10SM SCT042 02/M08 A2972 RMK AO2 PK WND 28031/0529 SLP063 T00171078 10050 20017 51005 $","updated":"2025-11-11T06:28:52Z"}
