{"icao":"LPMT","metar":"LPMT 130900Z 16014KT 7000 -TSRA FEW009 FEW018CB SCT025 16/15 Q1000 RETSRA","updated":"2025-11-13T09:20:26Z"}
