{"icao":"LPPT","metar":"LPPT 161300Z 14005KT 090V190 CAVOK 27/09 Q1014","updated":"2025-10-16T13:29:37Z"}
