{"icao":"LPFL","metar":"LPFL 272000Z VRB05KT 9999 FEW006 17/11 Q1013","updated":"2026-04-27T21:00:20Z"}
