{"icao":"LPFR","metar":"LPFR 191300Z 10009KT CAVOK 27/20 Q1020","updated":"2025-09-19T13:26:18Z"}
