{"icao":"LPMA","metar":"LPMA 051700Z 35010KT 310V020 9999 FEW020 22/12 Q1018","updated":"2025-11-05T17:17:44Z"}
