{"icao":"LPMT","metar":"LPMT 271400Z 27017G27KT 8000 -SHRA FEW020 FEW022CB SCT040 10/08 Q1004","updated":"2026-01-27T14:28:21Z"}
