{"icao":"KJFK","metar":"KJFK 082051Z 20009KT 10SM FEW250 05/M04 A3061 RMK AO2 SLP365 T00501044 55002","updated":"2026-04-08T21:39:33Z"}
