{"icao":"KORD","metar":"KORD 071151Z 27005KT 3SM BR OVC003 02/01 A2984 RMK AO2 SLP111 T00170011 10033 20017 53011","updated":"2026-01-07T12:43:00Z"}
