{"icao":"KJFK","metar":"KJFK 111851Z 30012G21KT 10SM SCT060 BKN120 BKN200 08/M03 A2975 RMK AO2 SLP072 T00781033","updated":"2026-01-11T19:14:55Z"}
