{"icao":"LPMR","metar":"LPMR 252300Z 21005KT 9999 BKN025 SCT035 12/11 Q1014","updated":"2026-01-25T23:18:56Z"}
