{"icao":"KORD","metar":"KORD 170651Z 15007KT 10SM FEW250 14/04 A3001 RMK AO2 SLP160 T01440044","updated":"2025-10-17T07:18:11Z"}
