{"icao":"KLAX","metar":"KLAX 040853Z 11003KT 6SM BR FEW004 BKN012 OVC019 14/14 A3003 RMK AO2 SLP166 VIS SE 3 T01440139 51002","updated":"2026-01-04T09:18:47Z"}
