{"icao":"LPPT","metar":"LPPT 241400Z 05011KT 020V100 9999 FEW030 12/07 Q1009","updated":"2025-12-24T14:18:48Z"}
