{"icao":"KLAX","metar":"KLAX 091453Z 08004KT 7SM OVC012 17/15 A2995 RMK AO2 SLP141 T01720150 53014 $","updated":"2026-04-09T15:21:27Z"}
