{"icao":"LPMR","metar":"LPMR 271100Z 28007KT 240V330 9999 FEW012 24/16 Q1020","updated":"2026-06-27T11:25:35Z"}
