{"icao":"LPPS","metar":"LPPS 101330Z 02009KT 350V050 9999 FEW015 19/11 Q1026","updated":"2025-12-10T13:36:24Z"}
