{"icao":"LPFL","metar":"LPFL 211100Z 21015G34KT 170V310 9999 FEW013 SCT016 24/19 Q1008","updated":"2025-10-21T11:15:13Z"}
