{"icao":"LPLA","metar":"LPLA 051700Z 19011KT 160V220 9999 SCT022 SCT030 23/18 Q1021","updated":"2025-10-05T17:13:15Z"}
