{"icao":"LPMA","metar":"LPMA 252100Z 01015G31KT 310V040 9999 SCT015 FEW018CB 15/09 Q1021","updated":"2026-02-25T21:33:52Z"}
