{"icao":"LPMR","metar":"LPMR 241200Z 25012KT 2100 -RADZ BR BKN005 OVC009 16/16 Q1016","updated":"2025-11-24T12:39:37Z"}
