{"icao":"LPMA","metar":"LPMA 250400Z 35011KT 310V010 9999 FEW015 17/11 Q1024","updated":"2025-11-25T04:25:26Z"}
