{"icao":"LPPR","metar":"LPPR 162000Z 12003KT 080V140 8000 -SHRA FEW006 FEW020CB SCT022 BKN047 07/07 Q1014","updated":"2026-01-16T20:20:30Z"}
