{"icao":"LPMA","metar":"LPMA 030700Z 34012G23KT 280V030 9999 SCT015 FEW018CB 16/10 Q0997","updated":"2026-01-03T07:18:15Z"}
