{"icao":"LPPR","metar":"LPPR 270330Z 14003KT 8000 NSC 20/15 Q1018","updated":"2026-05-27T03:39:20Z"}
