{"icao":"LPLA","metar":"LPLA 022000Z 28005KT 230V310 9999 FEW035 12/06 Q1031","updated":"2026-03-02T20:36:40Z"}
