{"icao":"LPPD","metar":"LPPD 291400Z 28012KT 9999 FEW018 17/14 Q1028","updated":"2025-11-29T14:16:14Z"}
