{"icao":"KORD","metar":"KORD 162302Z 22010G17KT 10SM FEW023 SCT033 OVC060 02/M02 A2957 RMK AO2 SNE01 P0000 T00221022 $","updated":"2026-01-16T23:18:52Z"}
