{"icao":"LPLA","metar":"LPLA 040300Z 24013KT 220V280 9999 FEW014 SCT018 18/16 Q1025","updated":"2025-12-04T03:18:15Z"}
