{"icao":"LPCS","metar":"LPCS 081000Z 26006KT 220V280 9999 FEW023 13/10 Q1016","updated":"2026-02-08T10:25:18Z"}
