{"icao":"KJFK","metar":"KJFK 130251Z 31009KT 10SM FEW250 27/22 A2978 RMK AO2 SLP084 T02670217 53012 $","updated":"2026-06-13T03:35:32Z"}
