{"icao":"KJFK","metar":"KJFK 060351Z 21008KT 10SM CLR 20/14 A3029 RMK AO2 SLP258 T02000144","updated":"2025-10-06T04:20:52Z"}
