{"icao":"KORD","metar":"KORD 182051Z 26005KT 10SM FEW028 SCT043 SCT110 OVC250 22/17 A2963 RMK AO2 SLP030 T02220167 56016 $","updated":"2025-10-18T21:14:08Z"}
