{"icao":"LPPT","metar":"LPPT 011400Z 06007G21KT 330V110 CAVOK 29/10 Q1020","updated":"2025-10-01T14:17:54Z"}
