{"icao":"LPPT","metar":"LPPT 200500Z 30003KT 230V340 9999 FEW007 BKN024 18/16 Q1014","updated":"2025-10-20T05:18:31Z"}
