{"icao":"LPFR","metar":"LPFR 151230Z 30010KT 9999 FEW028 16/08 Q1032","updated":"2026-02-15T12:48:13Z"}
