{"icao":"KORD","metar":"KORD 032251Z 29005KT 10SM OVC055 M03/M15 A3003 RMK AO2 SLP179 T10331150 $","updated":"2026-01-03T23:18:15Z"}
