{"icao":"LPMT","metar":"LPMT 071700Z 31004KT 280V360 9999 FEW020 SCT030 18/16 Q1015","updated":"2025-11-07T17:16:20Z"}
