{"icao":"LPPT","metar":"LPPT 161330Z 31010G30KT 270V340 8000 SHRA FEW012 SCT018 SCT020CB 11/08 Q1014","updated":"2026-01-16T13:36:49Z"}
