{"icao":"KJFK","metar":"KJFK 222251Z 17006KT 10SM FEW030 SCT042 SCT250 19/16 A3005 RMK AO2 SLP176 T01940156 $","updated":"2025-09-22T23:15:30Z"}
