{"icao":"LPPS","metar":"LPPS 241100Z 05007KT 360V090 9999 SCT015 20/13 Q1027","updated":"2025-11-24T11:16:37Z"}
