{"icao":"LPCR","metar":"LPCR 291030Z 24008KT 210V270 9999 FEW009 BKN030 21/19 Q1028","updated":"2026-06-29T10:55:20Z"}
