{"icao":"LPBJ","metar":"LPBJ 162100Z 34018KT 9999 FEW040 11/07 Q1014","updated":"2025-12-16T21:19:29Z"}
