{"icao":"LPOV","metar":"LPOV 070600Z VRB01KT CAVOK 13/12 Q1021","updated":"2025-10-07T06:26:43Z"}
