{"icao":"LPPS","metar":"LPPS 120330Z 01007KT 340V050 9999 BKN015 19/15 Q1019","updated":"2026-06-12T03:50:41Z"}
