{"icao":"LPFR","metar":"LPFR 201030Z VRB03KT CAVOK 16/05 Q1029","updated":"2026-02-20T10:35:54Z"}
