{"icao":"LPHR","metar":"LPHR 121330Z 21016KT 9000 SCT003 BKN005 15/14 Q1029","updated":"2026-04-12T14:01:58Z"}
