{"icao":"LPPT","metar":"LPPT 151800Z 31010KT CAVOK 24/07 Q1015","updated":"2025-10-15T18:26:51Z"}
