{"icao":"LPMA","metar":"LPMA 050500Z 36007KT 9999 BKN014 21/17 Q1014","updated":"2025-11-05T05:19:26Z"}
