{"icao":"LPCS","metar":"LPCS 112100Z 01013KT CAVOK 26/11 Q1017","updated":"2026-06-11T21:18:06Z"}
