{"icao":"LPAZ","metar":"LPAZ 250500Z 04007KT 010V070 9999 FEW022 20/17 Q1015","updated":"2025-10-25T05:16:18Z"}
