{"icao":"LPAZ","metar":"LPAZ 160800Z 12003KT 9999 SCT017 19/18 Q1024","updated":"2025-09-16T08:23:47Z"}
