{"icao":"LPPD","metar":"LPPD 211330Z 02021G37KT 350V050 9999 SCT016 16/11 Q1013 WS R30","updated":"2026-03-21T13:41:03Z"}
