{"icao":"LPCS","metar":"LPCS 151830Z 30005KT 9999 FEW006 BKN020 13/12 Q1031","updated":"2026-02-15T18:34:54Z"}
