{"icao":"KORD","metar":"KORD 292251Z 31014G24KT 10SM -SN FEW020 BKN028 M06/M12 A3012 RMK AO2 PK WND 29029/2201 SLP213 P0000 T10611122","updated":"2025-12-29T23:18:37Z"}
