{"icao":"LPOV","metar":"LPOV 261400Z 02009KT 350V060 9999 FEW025 21/12 Q1019","updated":"2025-10-26T14:14:56Z"}
