{"icao":"LPST","metar":"LPST 101500Z 26009KT CAVOK 22/12 Q1012","updated":"2026-04-10T15:52:02Z"}
