{"icao":"LPCS","metar":"LPCS 100830Z 21014KT 9999 FEW020 17/09 Q1010","updated":"2026-05-10T08:52:19Z"}
