{"icao":"KORD","metar":"KORD 020851Z 10004KT 10SM CLR M03/M10 A3043 RMK AO2 SLP313 T10331100 58011 $","updated":"2026-03-02T09:48:34Z"}
