{"icao":"LPOV","metar":"LPOV 281800Z 36014KT CAVOK 12/09 Q1025","updated":"2026-02-28T19:19:26Z"}
