{"icao":"LPLA","metar":"LPLA 211900Z 29004KT 9999 BKN030 14/08 Q1026","updated":"2025-12-21T19:14:23Z"}
