{"icao":"LPPT","metar":"LPPT 250500Z 32007KT CAVOK 13/11 Q1016","updated":"2026-04-25T05:10:21Z"}
