{"icao":"LPMT","metar":"LPMT 142000Z 20006KT 170V230 9999 FEW026CB SCT036 15/13 Q1005 RETS","updated":"2025-11-14T20:20:29Z"}
