{"icao":"LPPD","metar":"LPPD 140100Z 30014KT 9999 FEW018 15/08 Q1007","updated":"2025-11-14T01:24:31Z"}
