{"icao":"LPLA","metar":"LPLA 041000Z 23004KT 200V290 9999 FEW023 OVC035 14/11 Q1023","updated":"2026-04-04T10:32:07Z"}
