{"icao":"LPPS","metar":"LPPS 191700Z 07015KT 040V100 9999 FEW015 21/13 Q1010","updated":"2026-04-19T17:34:19Z"}
