{"icao":"LPPR","metar":"LPPR 011900Z 18014KT 0900 R17/2000D -DZRA PRFG BKN001 14/14 Q1001","updated":"2026-02-01T19:23:09Z"}
