{"icao":"LPPS","metar":"LPPS 141300Z 06012KT 010V100 9999 FEW015 BKN030 25/19 Q1024","updated":"2025-09-14T13:18:21Z"}
