{"icao":"LPMR","metar":"LPMR 300800Z 15003KT 6000 NSC 03/03 Q1021","updated":"2025-12-30T08:27:52Z"}
