{"icao":"LPPT","metar":"LPPT 082300Z 31006KT CAVOK 14/11 Q1023","updated":"2025-11-08T23:15:30Z"}
