{"icao":"LPBJ","metar":"LPBJ 140300Z 10004KT 0800 FG NSC 06/06 Q1017","updated":"2026-01-14T03:45:54Z"}
