{"icao":"LPPD","metar":"LPPD 290500Z 08008KT 050V130 9999 FEW017 BKN030 14/09 Q1033","updated":"2026-03-29T05:09:39Z"}
