{"icao":"LPFR","metar":"LPFR 222000Z 04005KT CAVOK 15/06 Q1026","updated":"2026-02-22T20:25:36Z"}
