{"icao":"KJFK","metar":"KJFK 010451Z 09003KT 7SM FEW250 03/02 A3003 RMK AO2 SLP168 T00280022 400941022 $","updated":"2026-03-01T05:50:59Z"}
