{"icao":"LPPD","metar":"LPPD 170900Z 23014KT 9999 FEW008 SCT010 BKN030 18/16 Q1023","updated":"2025-12-17T09:26:46Z"}
