{"icao":"LPFR","metar":"LPFR 110730Z 08004KT CAVOK 10/07 Q1024","updated":"2026-03-11T07:42:06Z"}
