{"icao":"LPPT","metar":"LPPT 181800Z 24011KT CAVOK 22/13 Q1016","updated":"2025-10-18T18:22:10Z"}
