{"icao":"KORD","metar":"KORD 101451Z 30008KT 10SM BKN240 04/M02 A2983 RMK AO2 SLP106 T00391017 51016","updated":"2026-02-10T14:57:01Z"}
