{"icao":"LPPS","metar":"LPPS 201730Z 17014KT 9999 FEW015 17/13 Q0996","updated":"2026-03-20T17:34:43Z"}
