{"icao":"LPAR","metar":"LPAR 051400Z 25015KT 230V300 9999 VCSH FEW014CB SCT016 20/12 Q1008","updated":"2025-11-05T14:19:03Z"}
