{"icao":"LPPR","metar":"LPPR 191700Z 25003KT 150V290 9999 FEW012 11/09 Q1020","updated":"2026-01-19T17:22:16Z"}
