{"icao":"KJFK","metar":"KJFK 030351Z 33018G29KT 10SM FEW014 OVC038 03/00 A2971 RMK AO2 PK WND 32029/0351 SLP060 T00280000","updated":"2025-12-03T04:28:22Z"}
