{"icao":"LPPT","metar":"LPPT 270100Z 07006KT CAVOK 06/05 Q1012","updated":"2025-12-27T01:26:53Z"}
