{"icao":"LPPT","metar":"LPPT 141900Z 30008KT 270V330 9999 FEW020 16/12 Q1023","updated":"2026-04-14T19:13:10Z"}
