{"icao":"KORD","metar":"KORD 250951Z 19004KT 10SM FEW250 15/12 A3010 RMK AO2 SLP191 T01500117 $","updated":"2026-05-25T10:02:20Z"}
