{"icao":"KJFK","metar":"KJFK 132251Z 24012KT 10SM SCT250 00/M06 A3014 RMK AO2 SLP205 T00001061 $","updated":"2026-02-13T23:29:50Z"}
