{"icao":"LPPR","metar":"LPPR 170700Z 10004KT 050V120 9999 FEW017 05/05 Q1012","updated":"2026-01-17T07:18:01Z"}
