{"icao":"LPHR","metar":"LPHR 011100Z 36011G23KT 320V040 9999 FEW018 15/09 Q1009","updated":"2026-01-01T11:17:36Z"}
