{"icao":"LPOV","metar":"LPOV 021800Z 32012KT 8000 SCT016 BKN035 11/10 Q1015 RETSRA","updated":"2025-12-03T04:27:51Z"}
