{"icao":"LPPR","metar":"LPPR 301900Z 26004KT 210V290 9999 SCT015 16/14 Q1018","updated":"2026-04-30T19:18:39Z"}
