{"icao":"LPFR","metar":"LPFR 050630Z 22026KT 6000 -RA BKN015 16/15 Q0998","updated":"2026-02-05T06:57:39Z"}
