{"icao":"LPPT","metar":"LPPT 191200Z 33005KT 310V010 9999 FEW024 BKN028 19/14 Q1023","updated":"2026-05-19T12:08:20Z"}
