{"icao":"LPMR","metar":"LPMR 022100Z 20002KT 9999 FEW015 SCT030 15/15 Q1016","updated":"2026-05-02T21:38:57Z"}
