{"icao":"LPMA","metar":"LPMA 100000Z 02019G29KT 9999 SCT015 18/12 Q1022","updated":"2026-06-10T00:11:50Z"}
