{"icao":"LPPD","metar":"LPPD 201600Z 32011KT 280V350 9999 VCSH FEW025 BKN040 15/08 Q1028","updated":"2025-12-20T16:22:18Z"}
