{"icao":"LPAR","metar":"LPAR 261700Z 25007KT 9999 FEW030 28/15 Q1017","updated":"2026-06-26T17:45:44Z"}
