{"icao":"LPLA","metar":"LPLA 231000Z 20008KT 160V220 9999 FEW016 SCT022 23/18 Q1015","updated":"2025-10-23T10:19:30Z"}
