{"icao":"LPFR","metar":"LPFR 252200Z 26004KT CAVOK 20/18 Q1017","updated":"2025-09-25T22:14:09Z"}
