{"icao":"LPBJ","metar":"LPBJ 140700Z 14001KT 2000 0900N PRFG NSC 05/05 Q1018","updated":"2026-01-14T07:23:55Z"}
