{"icao":"LPFL","metar":"LPFL 141800Z 34017KT 310V010 5000 RA FEW008 SCT012 BKN016 14/13 Q1020","updated":"2026-01-14T19:18:47Z"}
