{"icao":"KORD","metar":"KORD 070051Z 19008KT 10SM BKN140 OVC250 17/16 A2986 RMK AO2 SLP111 T01670156","updated":"2026-03-07T01:52:24Z"}
