{"icao":"KORD","metar":"KORD 250325Z 02008KT 2SM -SN OVC024 M15/M18 A3042 RMK AO2 P0000 T11501183","updated":"2026-01-25T03:53:04Z"}
