{"icao":"KJFK","metar":"KJFK 230751Z 24008KT 10SM SCT250 18/17 A3003 RMK AO2 SLP170 T01830172 $","updated":"2025-09-23T08:22:51Z"}
