{"icao":"LPST","metar":"LPST 131100Z VRB03KT CAVOK 27/12 Q1016","updated":"2025-10-13T11:15:11Z"}
