{"icao":"LPHR","metar":"LPHR 012000Z 22005KT 160V290 9999 FEW030 SCT043 13/05 Q1029","updated":"2026-03-01T20:25:57Z"}
