{"icao":"KORD","metar":"KORD 141051Z 07005KT 6SM -RA BR FEW015 BKN037 BKN055 OVC150 14/12 A2985 RMK AO2 RAB45 SLP104 P0001 T01440122","updated":"2026-04-14T11:01:30Z"}
