{"icao":"LPMA","metar":"LPMA 082000Z 02013KT 350V060 9999 SCT015 22/16 Q1025","updated":"2025-10-08T20:19:41Z"}
