{"icao":"LPPS","metar":"LPPS 010700Z 03007KT 360V080 9999 FEW015 BKN030 21/16 Q1021","updated":"2025-10-01T07:18:00Z"}
