{"icao":"LPPT","metar":"LPPT 140500Z 24016G26KT 5000 TSRA FEW008 SCT015 SCT020CB 14/12 Q1002","updated":"2025-11-14T05:18:19Z"}
