{"icao":"LPPS","metar":"LPPS 112300Z 04012KT 010V070 7000 -RA BKN011 15/13 Q1025","updated":"2026-03-11T23:24:26Z"}
