{"icao":"LPOV","metar":"LPOV 032000Z VRB02KT CAVOK 14/12 Q1020","updated":"2025-11-04T01:23:10Z"}
