{"icao":"LPOV","metar":"LPOV 100700Z 00000KT 9999 MIFG FEW012 09/09 Q1020","updated":"2025-12-10T07:21:27Z"}
