{"icao":"LPPD","metar":"LPPD 301900Z 17014KT 140V220 5000 -RA BR SCT004 BKN008 17/17 Q1009","updated":"2025-12-30T19:16:22Z"}
