{"icao":"LPPR","metar":"LPPR 211630Z 27011KT 210V330 7000 VCSH FEW022 SCT025CB BKN035 14/09 Q0999","updated":"2026-01-21T16:42:47Z"}
