{"icao":"LPHR","metar":"LPHR 011330Z 08012KT 050V120 9999 FEW020 19/13 Q1016","updated":"2026-05-01T13:42:32Z"}
