{"icao":"LPPR","metar":"LPPR 031930Z 19016KT 5000 -RA BR BKN018 BKN040 10/07 Q0994","updated":"2026-02-03T19:43:36Z"}
