{"icao":"LPAR","metar":"LPAR 291600Z 34016KT 320V020 CAVOK 30/16 Q1019","updated":"2026-06-29T21:25:12Z"}
