{"icao":"LPPT","metar":"LPPT 150830Z 34008KT 290V030 9999 FEW025 13/08 Q1019 WS R02","updated":"2026-03-15T08:34:46Z"}
