{"icao":"LPPD","metar":"LPPD 021400Z 31015G25KT 9999 SCT023 FEW025TCU 13/09 Q1004 WS ALL RWY","updated":"2026-01-02T14:19:16Z"}
