{"icao":"LPPS","metar":"LPPS 091900Z 05008KT 350V080 9999 FEW015 BKN030 21/16 Q1024","updated":"2025-10-09T19:14:40Z"}
