{"icao":"LPBJ","metar":"LPBJ 151300Z 32006KT 260V020 CAVOK 28/16 Q1016","updated":"2026-06-15T13:10:56Z"}
