{"icao":"LPMR","metar":"LPMR 261100Z 23014KT 190V260 2000 BR BKN008 BKN022 15/14 Q1012","updated":"2026-01-26T11:19:44Z"}
