{"icao":"LPMR","metar":"LPMR 101400Z 30010KT 280V340 CAVOK 27/09 Q1012","updated":"2026-04-10T14:46:33Z"}
