{"icao":"KJFK","metar":"KJFK 261551Z VRB03KT 10SM FEW038 SCT190 SCT250 26/17 A2983 RMK AO2 SLP100 T02560167 $","updated":"2025-09-26T16:22:12Z"}
