{"icao":"KJFK","metar":"KJFK 050851Z 00000KT 10SM FEW027 SCT037 OVC065 04/02 A3022 RMK AO2 SLP232 T00390022 58007 $","updated":"2026-03-05T09:41:21Z"}
