{"icao":"LPOV","metar":"LPOV 221900Z VRB01KT 9999 BKN030 10/07 Q1029","updated":"2025-11-22T19:13:42Z"}
