{"icao":"LPAZ","metar":"LPAZ 161230Z 19008KT 160V220 9999 FEW022 25/19 Q1024","updated":"2025-09-16T12:36:10Z"}
