{"icao":"LPFR","metar":"LPFR 011930Z 26009KT CAVOK 18/13 Q1018","updated":"2026-05-01T20:02:44Z"}
