{"icao":"LPBJ","metar":"LPBJ 200500Z 26004KT 0400 FG VV002 05/05 Q1020","updated":"2026-01-20T05:27:25Z"}
