{"icao":"KLAX","metar":"KLAX 031253Z 00000KT 9SM OVC012 16/13 A2997 RMK AO2 SLP147 T01610128 $","updated":"2026-06-03T13:21:03Z"}
