{"icao":"LPFR","metar":"LPFR 181000Z 09013KT CAVOK 27/19 Q1020","updated":"2025-09-18T10:18:14Z"}
