{"icao":"LPPT","metar":"LPPT 282100Z 33011KT 290V350 9999 FEW010 SCT045 18/15 Q1016","updated":"2025-09-28T21:14:04Z"}
