{"icao":"LPPS","metar":"LPPS 081200Z 06009KT 020V090 9999 SCT015 22/16 Q1023","updated":"2025-11-08T12:33:10Z"}
