{"icao":"LPMA","metar":"LPMA 121400Z 21020KT 180V240 9999 SCT015 20/11 Q1017","updated":"2026-01-12T14:24:19Z"}
