{"icao":"KORD","metar":"KORD 160151Z 36018KT 4SM RA BR BKN009 OVC028 01/00 A2929 RMK AO2 PK WND 36027/0145 TSE15 SLP922 P0028 T00110000 $","updated":"2026-03-16T02:22:54Z"}
