{"icao":"LPFR","metar":"LPFR 161900Z 33014KT 290V350 9999 -RADZ FEW018 BKN028 13/08 Q1012","updated":"2025-12-16T19:18:01Z"}
