{"icao":"KORD","metar":"KORD 191051Z 23005KT 10SM CLR 02/M03 A3008 RMK AO2 SLP190 T00221028 $","updated":"2026-04-19T11:34:18Z"}
