{"icao":"LPFR","metar":"LPFR 121000Z 06007KT 0700 R28/0600 FG VV002 10/10 Q1023","updated":"2026-01-12T10:24:03Z"}
