{"icao":"LPMA","metar":"LPMA 021130Z 36015KT 320V020 9999 FEW015 23/04 Q1023","updated":"2026-04-02T11:43:08Z"}
