{"icao":"KJFK","metar":"KJFK 171951Z 24008KT 10SM SCT040 SCT060 BKN140 BKN250 24/15 A2986 RMK AO2 RAE17 TSE17 SLP110 VCSH SE-W AND NW P0000 T02440150","updated":"2026-04-17T20:09:09Z"}
