{"icao":"KJFK","metar":"KJFK 161751Z 32017G25KT 10SM CLR 16/M04 A2989 RMK AO2 PK WND 34029/1719 SLP122 T01561044 10156 20089 58021","updated":"2025-10-16T18:26:02Z"}
