{"icao":"LPMA","metar":"LPMA 251600Z 19008KT 130V210 9999 FEW015 22/15 Q1023","updated":"2025-11-25T16:26:34Z"}
