{"icao":"LPMA","metar":"LPMA 111800Z 35009KT 310V020 9999 FEW015 22/15 Q1018","updated":"2025-10-11T18:20:38Z"}
