{"icao":"KORD","metar":"KORD 270751Z 11007KT 10SM BKN210 OVC250 11/08 A2994 RMK AO2 SLP140 T01060083 $","updated":"2026-04-27T08:23:10Z"}
