{"icao":"LPMA","metar":"LPMA 260930Z 04005KT 010V090 9999 SCT015 BKN030 19/15 Q1021","updated":"2026-05-26T09:55:36Z"}
