{"icao":"LPPD","metar":"LPPD 231330Z 31017KT 270V350 9999 FEW025 15/07 Q1025","updated":"2026-01-23T13:41:21Z"}
