{"icao":"KJFK","metar":"KJFK 021851Z 25009KT 10SM FEW055 BKN070 BKN120 M02/M11 A2974 RMK AO2 SLP071 T10171106 $","updated":"2026-01-02T19:13:15Z"}
