{"icao":"KJFK","metar":"KJFK 280851Z 04009KT 10SM FEW250 07/03 A3032 RMK AO2 SLP267 T00670033 58009","updated":"2025-10-28T09:20:17Z"}
