{"icao":"LPPR","metar":"LPPR 220600Z VRB05KT 3000 BR BKN002 17/17 Q1016","updated":"2026-06-22T06:27:35Z"}
