{"icao":"KORD","metar":"KORD 161351Z 32011KT 10SM CLR 03/M09 A2991 RMK AO2 SLP132 T00331094 $","updated":"2025-11-16T14:15:18Z"}
