{"icao":"LPFR","metar":"LPFR 081500Z 25016KT CAVOK 23/16 Q1019","updated":"2025-10-08T15:18:58Z"}
