{"icao":"LPAZ","metar":"LPAZ 280300Z 22011KT 9999 FEW024 17/12 Q1021","updated":"2026-05-28T03:28:42Z"}
