{"icao":"KORD","metar":"KORD 150751Z 07012KT 10SM OVC085 03/M03 A2978 RMK AO2 SLP091 T00281033 $","updated":"2026-03-15T08:35:10Z"}
