{"icao":"LPPS","metar":"LPPS 262300Z 31018KT 6000 -SHRA BKN012 14/13 Q1016","updated":"2025-12-26T23:19:05Z"}
