{"icao":"KLAX","metar":"KLAX 180153Z 27006KT 10SM FEW200 FEW300 25/08 A2989 RMK AO2 SLP120 T02500078 $","updated":"2026-03-18T02:05:54Z"}
