{"icao":"LPPT","metar":"LPPT 082130Z 36003KT 330V040 CAVOK 14/08 Q1019","updated":"2026-04-08T21:39:30Z"}
