{"icao":"LPMT","metar":"LPMT 091700Z 34006KT 290V010 9999 SCT040 14/09 Q1028","updated":"2026-01-09T17:22:09Z"}
