{"icao":"LPAZ","metar":"LPAZ 041100Z 23017KT 7000 -SHRA FEW008 SCT015 BKN046 17/15 Q1000","updated":"2026-02-04T11:31:55Z"}
