{"icao":"KORD","metar":"KORD 091551Z 22015G21KT 10SM FEW250 15/03 A2973 RMK AO2 PK WND 21026/1454 SLP067 T01500033 $","updated":"2026-03-09T15:57:13Z"}
