{"icao":"KLAX","metar":"KLAX 061230Z 00000KT 10SM BKN011 17/15 A2981 RMK AO2 BKN V SCT T01670150 $","updated":"2025-10-06T12:38:04Z"}
