{"icao":"KORD","metar":"KORD 272051Z 31012G21KT 10SM BKN048 M01/M10 A3021 RMK AO2 PK WND 30029/2012 SLP239 T10061100 53002","updated":"2025-11-27T21:17:09Z"}
