{"icao":"KORD","metar":"KORD 012251Z 07009KT 10SM FEW030 SCT120 BKN170 BKN250 M02/M12 A3046 RMK AO2 SLP323 T10221117 $","updated":"2026-03-01T23:22:33Z"}
