{"icao":"LPPT","metar":"LPPT 171030Z VRB05KT CAVOK 19/12 Q1019","updated":"2026-04-17T10:54:10Z"}
