{"icao":"KJFK","metar":"KJFK 231451Z 07008KT 10SM -RA BKN080 OVC110 13/05 A3046 RMK AO2 RAB42 SLP314 P0000 60000 T01330050 51003","updated":"2026-05-23T14:59:40Z"}
