{"icao":"KLAX","metar":"KLAX 021231Z 11004KT 10SM BKN009 17/16 A2999 RMK AO2 BKN V SCT T01720161 $","updated":"2025-10-02T12:35:37Z"}
