{"icao":"LPPR","metar":"LPPR 280630Z VRB02KT CAVOK 05/03 Q1026","updated":"2026-02-28T06:36:46Z"}
