{"icao":"KORD","metar":"KORD 140351Z 22007KT 10SM CLR 06/M03 A3006 RMK AO2 SLP184 T00611028","updated":"2026-02-14T04:11:50Z"}
