{"icao":"LPPR","metar":"LPPR 121700Z 02006KT 340V050 9999 -RA FEW012 12/10 Q1016","updated":"2025-12-12T17:18:07Z"}
