{"icao":"LPLA","metar":"LPLA 011000Z 34026KT 9000 -SHRA SCT007 SCT020 BKN030 14/12 Q1005","updated":"2026-01-01T10:21:27Z"}
