{"icao":"KORD","metar":"KORD 240351Z 03010KT 10SM FEW014 OVC024 19/16 A3000 RMK AO2 SLP154 T01940156","updated":"2025-09-24T04:20:37Z"}
