{"icao":"KORD","metar":"KORD 281051Z 08006KT 10SM FEW250 09/05 A3012 RMK AO2 SLP200 T00890050","updated":"2025-10-28T11:14:54Z"}
