{"icao":"KORD","metar":"KORD 121851Z 21022G33KT 10SM FEW055 SCT070 SCT090 BKN140 BKN250 26/13 A2987 RMK AO2 PK WND 20037/1809 SLP112 T02610133 $","updated":"2026-04-12T19:38:25Z"}
