{"icao":"KORD","metar":"KORD 140751Z 35006KT 10SM FEW019 BKN050 16/14 A3022 RMK AO2 SLP231 T01560139 $","updated":"2025-10-14T08:22:05Z"}
