{"icao":"LPPT","metar":"LPPT 072300Z 30012KT 270V330 9999 FEW025 FEW028TCU 11/08 Q1010","updated":"2026-02-07T23:28:10Z"}
