{"icao":"KORD","metar":"KORD 202051Z 16017G25KT 10SM FEW250 18/01 A2976 RMK AO2 PK WND 17030/2008 SLP077 T01830011 56045","updated":"2025-10-20T21:16:39Z"}
