{"icao":"LPFR","metar":"LPFR 212100Z 33011KT CAVOK 21/03 Q1018","updated":"2025-09-21T21:14:25Z"}
