{"icao":"LPPT","metar":"LPPT 091630Z 31013G25KT 280V340 9999 -SHRA SCT028 FEW030TCU 11/06 Q1022","updated":"2026-03-09T16:59:33Z"}
