{"icao":"LPFR","metar":"LPFR 120700Z 33019KT CAVOK 11/01 Q1015","updated":"2026-04-12T07:12:20Z"}
