{"icao":"LPMA","metar":"LPMA 121900Z 21015KT 9999 -SHRA BKN015 16/14 Q1015","updated":"2026-01-12T19:19:46Z"}
