{"icao":"KORD","metar":"KORD 062151Z 29012G21KT 10SM BKN055 10/M03 A3018 RMK AO2 SLP225 T01001028 $","updated":"2026-04-06T22:35:31Z"}
