{"icao":"LPLA","metar":"LPLA 040600Z 28013KT 9999 FEW020 17/13 Q1003","updated":"2025-11-04T06:28:29Z"}
