{"icao":"KJFK","metar":"KJFK 231101Z 35030G47KT 1/4SM R04R/1600V2600FT SN BLSN FZFG VV005 M02/M02 A2945 RMK AO2 PK WND 35047/1054 SFC VIS 1/2 P0000 T10171017 $","updated":"2026-02-23T11:39:28Z"}
