{"icao":"KJFK","metar":"KJFK 111051Z 25007KT 10SM FEW250 M01/M04 A2973 RMK AO2 SLP068 T10061039 $","updated":"2026-02-11T11:43:46Z"}
