{"icao":"LPFR","metar":"LPFR 212200Z 28015KT 9000 FEW025 14/12 Q1007","updated":"2026-01-21T22:23:46Z"}
