{"icao":"KORD","metar":"KORD 310051Z 00000KT 10SM FEW045 BKN250 09/02 A2984 RMK AO2 SLP108 T00890022 $","updated":"2025-10-31T01:22:33Z"}
