{"icao":"LPLA","metar":"LPLA 301800Z 21007KT 170V260 9999 FEW014 SCT018 24/20 Q1019","updated":"2025-09-30T18:23:18Z"}
