{"icao":"KORD","metar":"KORD 081251Z 11004KT 7SM BKN095 09/06 A2985 RMK AO2 SLP111 T00890061","updated":"2026-05-08T13:44:40Z"}
