{"icao":"LPMT","metar":"LPMT 191800Z 10012KT 7000 -RA FEW008 SCT020 14/14 Q1005","updated":"2026-03-19T18:57:01Z"}
