{"icao":"LPFR","metar":"LPFR 191500Z 36010KT 330V030 CAVOK 16/04 Q1019","updated":"2026-01-19T15:25:12Z"}
