{"icao":"KORD","metar":"KORD 200551Z 00000KT 10SM BKN260 05/01 A2993 RMK AO2 SLP135 T00500006 10083 20044 401670011 56025 $","updated":"2026-03-20T06:54:05Z"}
