{"icao":"LPCS","metar":"LPCS 191630Z 26006KT 220V290 CAVOK 23/11 Q1015","updated":"2026-04-19T16:38:35Z"}
