{"icao":"LPFR","metar":"LPFR 170300Z 29004KT CAVOK 07/06 Q1015","updated":"2026-01-17T03:21:19Z"}
