{"icao":"LPMR","metar":"LPMR 111700Z 34014KT CAVOK 29/12 Q1017","updated":"2026-06-11T18:10:17Z"}
