{"icao":"KORD","metar":"KORD 250351Z 11005KT 10SM SCT140 SCT250 05/M04 A3020 RMK AO2 SLP233 T00501039","updated":"2026-03-25T04:52:39Z"}
