{"icao":"KORD","metar":"KORD 111051Z 00000KT 10SM CLR 02/00 A3041 RMK AO2 SLP303 T00170000 $","updated":"2026-04-11T11:29:24Z"}
