{"icao":"LPFL","metar":"LPFL 131930Z 18008KT 110V230 9999 FEW018 16/11 Q1028","updated":"2026-02-13T19:40:46Z"}
