{"icao":"LPFR","metar":"LPFR 150200Z 31011KT CAVOK 11/06 Q1030","updated":"2026-02-15T02:07:44Z"}
