{"icao":"LPLA","metar":"LPLA 020830Z 35005KT 330V040 3000 -DZRA BR SCT004 BKN008 BKN012 13/12 Q1032","updated":"2026-04-02T08:54:54Z"}
