{"icao":"LPPT","metar":"LPPT 060930Z 26007KT 230V300 9999 VCSH FEW015 FEW020TCU 12/10 Q1004","updated":"2026-02-06T09:41:07Z"}
