{"icao":"LPST","metar":"LPST 270800Z VRB01KT CAVOK 03/02 Q1024","updated":"2025-11-27T08:26:58Z"}
