{"icao":"LPMR","metar":"LPMR 052300Z 12002KT CAVOK 15/11 Q1019","updated":"2026-04-05T23:32:20Z"}
