{"icao":"LPFL","metar":"LPFL 161430Z 18017G29KT 150V220 9999 FEW009 BKN013 17/14 Q1017","updated":"2026-02-16T14:39:37Z"}
