{"icao":"LPCS","metar":"LPCS 131730Z 31020G34KT 270V330 9999 FEW014 SCT030 13/08 Q1010","updated":"2026-02-13T17:38:34Z"}
