{"icao":"LPPR","metar":"LPPR 270900Z VRB02KT CAVOK 09/06 Q1025","updated":"2025-11-27T09:21:04Z"}
