{"icao":"LPMA","metar":"LPMA 132230Z 01010KT 320V040 9999 SCT016 15/08 Q1026","updated":"2026-04-13T22:41:19Z"}
