{"icao":"LPPR","metar":"LPPR 111900Z 18017G27KT 4800 RA BR SCT008 BKN012 OVC017 16/15 Q1006","updated":"2025-11-11T19:14:55Z"}
