{"icao":"LPFR","metar":"LPFR 151900Z 27010KT 9999 FEW015 18/15 Q1011","updated":"2025-11-15T19:12:23Z"}
