{"icao":"LPPD","metar":"LPPD 071700Z 24004KT 200V270 9999 FEW025 17/14 Q1010","updated":"2025-12-07T17:14:53Z"}
