{"icao":"KLAX","metar":"KLAX 042253Z 23008KT 10SM FEW250 29/00 A3003 RMK AO2 SLP167 T02890000 $","updated":"2026-02-04T23:26:04Z"}
