{"icao":"LPBJ","metar":"LPBJ 011000Z 34005KT 260V050 CAVOK 19/10 Q1019","updated":"2026-05-01T10:39:41Z"}
