{"icao":"KLAX","metar":"KLAX 131053Z 05003KT 10SM FEW250 18/06 A2997 RMK AO2 SLP144 T01830056 $","updated":"2026-03-13T11:30:26Z"}
