{"icao":"LPPD","metar":"LPPD 021430Z 11009KT 070V140 9999 FEW018 BKN030 16/10 Q1030","updated":"2026-04-02T14:54:27Z"}
