{"icao":"LPPR","metar":"LPPR 012300Z 03007KT CAVOK 27/17 Q1018","updated":"2026-07-01T23:13:19Z"}
