{"icao":"LPPT","metar":"LPPT 200300Z 34010KT CAVOK 11/06 Q1019","updated":"2025-11-20T03:08:25Z"}
