{"icao":"LPAZ","metar":"LPAZ 071400Z 26010KT 8000 FEW006 BKN030 16/15 Q1017","updated":"2026-02-07T14:24:32Z"}
