{"icao":"KLAX","metar":"KLAX 110253Z 35004KT 10SM FEW220 16/M01 A3028 RMK AO2 SLP254 T01611011 52002 $","updated":"2026-01-11T03:49:24Z"}
