{"icao":"KORD","metar":"KORD 302151Z 32009KT 10SM FEW028 BKN034 M01/M07 A3030 RMK AO2 SLP270 T10111067 $","updated":"2025-11-30T22:17:31Z"}
