{"icao":"LPPR","metar":"LPPR 111900Z 18013KT 9999 SCT003 BKN005 14/13 Q1022","updated":"2026-01-11T19:14:34Z"}
