{"icao":"KORD","metar":"KORD 170451Z 00000KT 10SM CLR 19/15 A3013 RMK AO2 SLP200 T01940150 $","updated":"2025-09-17T05:16:27Z"}
