{"icao":"LPBJ","metar":"LPBJ 201900Z 27015KT CAVOK 26/13 Q1020","updated":"2026-05-20T19:22:58Z"}
