{"icao":"KORD","metar":"KORD 270851Z 22005KT 10SM CLR 01/M02 A2986 RMK AO2 SLP116 T00061017 58007","updated":"2026-02-27T09:39:49Z"}
