{"icao":"LPPR","metar":"LPPR 101300Z 19018KT 9999 FEW020 FEW025CB 17/11 Q1009","updated":"2026-05-10T13:15:21Z"}
