{"icao":"LPMT","metar":"LPMT 312000Z 34008KT CAVOK 22/12 Q1019","updated":"2026-05-31T20:58:16Z"}
