{"icao":"LPPT","metar":"LPPT 210900Z 22014KT 1500 RADZ BR FEW002 BKN004 15/15 Q1008","updated":"2026-01-21T09:30:59Z"}
