{"icao":"KORD","metar":"KORD 300051Z 10004KT 10SM CLR 24/16 A3017 RMK AO2 SLP214 T02390156","updated":"2025-09-30T01:20:08Z"}
