{"icao":"LPPD","metar":"LPPD 061800Z 19006KT 150V210 9999 FEW007 SCT010 FEW018TCU 23/22 Q1019","updated":"2025-10-06T18:26:04Z"}
