{"icao":"KORD","metar":"KORD 200051Z 34004KT 10SM SCT075 BKN100 BKN150 OVC250 25/17 A3000 RMK AO2 SLP156 T02500172","updated":"2025-09-20T01:15:45Z"}
