{"icao":"LPOV","metar":"LPOV 182300Z 15006KT CAVOK 18/15 Q1015","updated":"2025-10-18T23:15:31Z"}
