{"icao":"LPBJ","metar":"LPBJ 231400Z 32005KT 280V020 9999 FEW030 16/08 Q1025","updated":"2025-11-23T14:15:25Z"}
