{"icao":"KORD","metar":"KORD 180551Z 19012G18KT 5SM -RA BR OVC010 11/09 A2960 RMK AO2 LTG DSNT S RAB0459 SLP025 P0001 60004 T01060089 10117 20094 401390050 56005 $","updated":"2026-02-18T06:00:18Z"}
