{"icao":"KJFK","metar":"KJFK 030351Z 34004KT 10SM FEW190 M03/M12 A3011 RMK SLP195 T10331117 PNO $ ","updated":"2026-02-03T04:45:12Z"}
