{"icao":"LPMT","metar":"LPMT 312300Z 34010KT CAVOK 19/15 Q1019","updated":"2026-06-01T00:04:30Z"}
