{"icao":"LPSJ","metar":"LPSJ 131430Z 29007KT 250V320 9999 FEW016 22/15 Q1021","updated":"2026-06-13T14:59:06Z"}
