{"icao":"LPCS","metar":"LPCS 302200Z 01011KT CAVOK 11/05 Q1021","updated":"2025-11-30T22:17:14Z"}
