{"icao":"LPOT","metar":"LPOT 140800Z VRB02KT 9999 BKN005 15/14 Q1023 RMK RH95 SCT100 YLO","updated":"2026-04-21T23:33:23Z"}
