{"icao":"LPMT","metar":"LPMT 252200Z 36008KT 9999 -RADZ FEW012 SCT035 17/16 Q1014","updated":"2025-10-25T22:15:06Z"}
