{"icao":"KJFK","metar":"KJFK 030651Z 32017G25KT 10SM FEW023 BKN060 02/M02 A2981 RMK AO2 PK WND 32029/0640 PRESRR SLP094 T00221022","updated":"2025-12-03T07:20:59Z"}
