{"icao":"LPCS","metar":"LPCS 031400Z VRB06KT CAVOK 19/13 Q1022","updated":"2025-11-03T14:18:40Z"}
