{"icao":"LPMT","metar":"LPMT 110300Z 11005KT 1500 BR BKN004 14/14 Q1015","updated":"2025-11-11T03:12:30Z"}
