{"icao":"LPMA","metar":"LPMA 161700Z VRB10G22KT 9999 -SHRA BKN015 17/09 Q1025","updated":"2026-01-16T17:23:42Z"}
