{"icao":"LPBJ","metar":"LPBJ 110831Z 30009KT 8000 VCFG BKN004 13/13 Q1013","updated":"2026-04-11T08:41:24Z"}
