{"icao":"KJFK","metar":"KJFK 272051Z 17008KT 10SM FEW050 FEW250 16/03 A3026 RMK SLP247 T01560028 53002 ","updated":"2026-04-27T21:00:21Z"}
