{"icao":"LPPT","metar":"LPPT 042000Z 31009KT CAVOK 19/04 Q1021","updated":"2026-04-04T20:30:00Z"}
