{"icao":"KJFK","metar":"KJFK 200651Z 18005KT 10SM BKN065 BKN250 03/M01 A3018 RMK AO2 SLP218 T00331011","updated":"2026-03-20T07:44:36Z"}
