{"icao":"LPHR","metar":"LPHR 201700Z 28024KT 6000 VCSH SCT006 BKN012 BKN025 17/15 Q1023","updated":"2026-01-20T17:28:15Z"}
