{"icao":"KJFK","metar":"KJFK 121151Z 04019G31KT 10SM -RA FEW030 SCT060 BKN110 BKN160 OVC250 16/10 A3007 RMK AO2 PK WND 04031/1143 RAB1054E04B47 SLP181 P0000 60000 70007 T01610100 10178 20161 50002","updated":"2025-10-12T12:32:37Z"}
