{"icao":"LPBJ","metar":"LPBJ 210700Z 11008KT CAVOK 18/09 Q1004","updated":"2026-04-21T07:47:53Z"}
