{"icao":"LPMA","metar":"LPMA 081830Z 01007KT 300V050 9999 FEW015 19/14 Q1023","updated":"2026-02-08T18:35:48Z"}
