{"icao":"LPPT","metar":"LPPT 071300Z 23013KT 5000 -RADZ BR SCT006 BKN010 18/17 Q1015","updated":"2025-11-07T13:26:48Z"}
