{"icao":"LPMT","metar":"LPMT 180600Z 06003KT CAVOK 10/10 Q1018","updated":"2025-11-18T06:28:06Z"}
