{"icao":"LPPR","metar":"LPPR 271100Z 00000KT CAVOK 13/08 Q1026","updated":"2025-11-27T11:16:46Z"}
