{"icao":"KJFK","metar":"KJFK 040051Z 24007KT 10SM BKN110 OVC140 M02/M10 A3001 RMK AO2 SLP160 T10171100 $","updated":"2026-01-04T01:49:21Z"}
