{"icao":"LPPS","metar":"LPPS 201400Z 07015G28KT 040V110 8000 -SHRA BKN013 FEW018TCU 19/14 Q1021","updated":"2025-11-20T14:18:53Z"}
