{"icao":"KJFK","metar":"KJFK 190351Z 22008KT 10SM SCT250 14/09 A3005 RMK AO2 SLP176 T01440094 $","updated":"2025-10-19T04:21:21Z"}
