{"icao":"LPMT","metar":"LPMT 070100Z 20004KT 9999 FEW022 16/13 Q1017","updated":"2025-11-07T01:23:39Z"}
