{"icao":"LPLA","metar":"LPLA 012200Z 19005KT 9999 FEW017 SCT040 22/19 Q1020","updated":"2025-10-01T22:16:10Z"}
