{"icao":"KJFK","metar":"KJFK 121651Z 32021G32KT 10SM FEW025 OVC065 06/M01 A2978 RMK AO2 PK WND 31034/1600 SLP083 T00561006","updated":"2026-03-12T17:02:53Z"}
