{"icao":"LPPD","metar":"LPPD 091400Z 28016KT 9999 SCT020 SCT035 19/14 Q1024","updated":"2025-11-09T14:14:28Z"}
