{"icao":"LPPD","metar":"LPPD 291030Z 24012KT 8000 FEW009 15/14 Q1014","updated":"2026-01-29T10:35:37Z"}
