{"icao":"LPPR","metar":"LPPR 191900Z 14008KT CAVOK 24/09 Q1018","updated":"2025-09-19T19:13:32Z"}
