{"icao":"LPPR","metar":"LPPR 270500Z 12008KT 9999 FEW006 13/11 Q1016","updated":"2025-09-27T05:15:59Z"}
