{"icao":"KORD","metar":"KORD 140051Z 30011G18KT 10SM FEW110 SCT150 M14/M21 A3029 RMK AO2 SLP271 T11391211","updated":"2025-12-14T01:43:22Z"}
