{"icao":"KJFK","metar":"KJFK 181951Z 30010G17KT 10SM FEW050 SCT120 BKN150 BKN250 07/M06 A3014 RMK AO2 SLP204 T00721061 $","updated":"2025-11-18T20:22:27Z"}
