{"icao":"KJFK","metar":"KJFK 191351Z 32009KT 5SM BR OVC008 11/09 A2979 RMK DZE08 SLP086 P0000 T01110094 ","updated":"2026-04-19T14:02:45Z"}
