{"icao":"KJFK","metar":"KJFK 301251Z 23003KT 10SM BKN035 BKN042 BKN140 BKN250 03/M02 A3036 RMK AO2 SLP278 T00331022 $","updated":"2025-11-30T13:25:12Z"}
