{"icao":"LPPR","metar":"LPPR 211400Z 25013G25KT 200V310 5000 SHRA SCT022 FEW025CB BKN030 14/09 Q1000","updated":"2026-01-21T14:29:29Z"}
