{"icao":"KLAX","metar":"KLAX 110353Z 27008KT 10SM CLR 15/11 A3016 RMK AO2 SLP212 T01500111 $","updated":"2026-03-11T04:09:34Z"}
