{"icao":"KJFK","metar":"KJFK 181251Z 10011KT 10SM FEW009 SCT250 16/09 A3008 RMK AO2 SLP184 T01560089","updated":"2026-04-18T13:00:19Z"}
