{"icao":"LPMT","metar":"LPMT 081700Z 34002KT 9999 FEW025 17/13 Q1021","updated":"2025-11-08T17:14:12Z"}
