{"icao":"KLAX","metar":"KLAX 140453Z 09004KT 10SM FEW015 OVC100 19/16 A3004 RMK AO2 RAB0359E51 SLP170 P0001 T01890161","updated":"2025-11-14T05:18:57Z"}
