{"icao":"LPBJ","metar":"LPBJ 011300Z 03008KT CAVOK 20/05 Q1022","updated":"2026-04-01T13:19:19Z"}
