{"icao":"LPMR","metar":"LPMR 050700Z 16008KT 9999 TS SCT018CB BKN035 18/16 Q1005","updated":"2025-11-05T07:18:11Z"}
