{"icao":"LPPD","metar":"LPPD 111430Z 24011KT 8000 FEW007 17/15 Q1018","updated":"2026-02-11T14:51:58Z"}
