{"icao":"LPBJ","metar":"LPBJ 021700Z 27011KT 9999 SCT020CB SCT032 11/07 Q1003","updated":"2026-02-02T17:37:00Z"}
