{"icao":"KJFK","metar":"KJFK 021951Z 06008KT 10SM OVC013 07/04 A3046 RMK AO2 SLP314 T00670039","updated":"2026-04-02T20:34:00Z"}
