{"icao":"KJFK","metar":"KJFK 200051Z 34007KT 10SM FEW060 26/12 A3003 RMK AO2 SLP169 T02560122 $","updated":"2025-09-20T01:15:44Z"}
