{"icao":"LPFL","metar":"LPFL 021100Z 20008KT 130V280 9999 FEW008 BKN014 24/20 Q1018","updated":"2025-10-02T11:13:39Z"}
