{"icao":"LPPD","metar":"LPPD 231700Z 24008KT 9999 FEW016 BKN030 18/14 Q1027","updated":"2025-11-23T17:14:46Z"}
