{"icao":"LPPR","metar":"LPPR 120830Z 06005KT 030V130 9999 BKN009 BKN012 12/10 Q1027","updated":"2026-03-12T08:40:33Z"}
