{"icao":"LPPD","metar":"LPPD 291530Z 22009KT 9999 FEW020 FEW025TCU 17/12 Q1006","updated":"2026-04-29T15:54:36Z"}
