{"icao":"LPPS","metar":"LPPS 171300Z 01011KT 350V050 9999 FEW015 BKN030 18/08 Q1025","updated":"2026-05-17T13:18:03Z"}
