{"icao":"LPCS","metar":"LPCS 141700Z 31013KT 280V340 2000 -DZ BR FEW002 BKN005 14/13 Q1016","updated":"2026-03-14T17:25:28Z"}
