{"icao":"LPMT","metar":"LPMT 220400Z 03007KT CAVOK 08/04 Q1030","updated":"2025-11-22T04:20:46Z"}
