{"icao":"KLAX","metar":"KLAX 281953Z 24010KT 10SM SCT041 23/16 A3001 RMK AO2 SLP160 T02330161 $","updated":"2025-09-28T20:17:20Z"}
