{"icao":"LPFR","metar":"LPFR 101400Z 20007KT 170V230 9999 FEW035 21/14 Q1019","updated":"2025-11-10T14:18:44Z"}
