{"icao":"KJFK","metar":"KJFK 260451Z 00000KT 10SM BKN085 BKN180 BKN240 11/03 A3036 RMK AO2 SLP281 T01110028 401560072","updated":"2025-10-26T05:17:09Z"}
