{"icao":"LPFL","metar":"LPFL 200900Z 18005KT 100V250 9999 VCSH FEW016 16/10 Q1007","updated":"2026-05-20T09:30:02Z"}
