{"icao":"LPMT","metar":"LPMT 251700Z 36011KT 330V030 CAVOK 14/05 Q1022","updated":"2025-11-25T17:18:38Z"}
