{"icao":"LPPS","metar":"LPPS 081800Z 03012KT 360V060 9999 -DZ SCT014 SCT030 15/09 Q1026","updated":"2026-03-08T18:32:52Z"}
