{"icao":"LPAZ","metar":"LPAZ 272300Z 26032KT 9000 FEW013 BKN028 17/15 Q1009","updated":"2026-01-27T23:20:41Z"}
