{"icao":"LPLA","metar":"LPLA 031800Z 31005KT 270V360 9999 SCT025 BKN030 15/09 Q1024","updated":"2026-04-03T18:44:56Z"}
