{"icao":"KLAX","metar":"KLAX 012053Z 27011KT 10SM FEW012 FEW029 SCT180 19/11 A2999 RMK AO2 SLP155 T01940111 58005 $","updated":"2026-04-01T20:56:12Z"}
