{"icao":"LPPD","metar":"LPPD 190800Z 25010KT 3500 -DZ BR SCT001 BKN003 22/22 Q1016","updated":"2025-10-19T08:20:40Z"}
