{"icao":"LPOV","metar":"LPOV 091500Z 34012KT 310V010 9999 FEW020 21/14 Q1019","updated":"2025-10-09T15:29:14Z"}
