{"icao":"LPFR","metar":"LPFR 051900Z 33010KT 300V010 CAVOK 09/M03 Q1013","updated":"2026-01-05T19:19:29Z"}
