{"icao":"KJFK","metar":"KJFK 221151Z 26008KT 10SM FEW013 SCT035 BKN100 14/12 A2972 RMK AO2 SLP064 60008 70017 T01390117 10150 20139 53000","updated":"2025-10-22T12:39:16Z"}
