{"icao":"LPPS","metar":"LPPS 281230Z 21010KT 160V240 9999 FEW015 25/15 Q1011","updated":"2025-10-28T12:37:55Z"}
