{"icao":"KORD","metar":"KORD 120851Z 35004KT 10SM FEW250 M03/M08 A3025 RMK AO2 SLP251 T10281078 50001 $","updated":"2026-02-12T09:48:45Z"}
