{"icao":"LPPD","metar":"LPPD 151000Z 21013KT 9999 FEW018 BKN035 16/13 Q1031","updated":"2026-02-15T10:25:38Z"}
