{"icao":"LPAR","metar":"LPAR 231300Z 31013KT 4000 -SHRA SCT018 SCT022CB BKN030 09/07 Q1002","updated":"2026-01-23T13:41:20Z"}
