{"icao":"KORD","metar":"KORD 242251Z 16008KT 10SM OVC100 09/06 A2996 RMK AO2 SLP151 T00890056","updated":"2025-11-24T23:17:27Z"}
