{"icao":"LPOV","metar":"LPOV 161400Z 23009KT 210V270 8000 BKN007 BKN012 15/14 Q1028","updated":"2026-02-16T14:39:35Z"}
