{"icao":"LPFL","metar":"LPFL 261930Z 32005KT 260V010 9999 FEW017 16/11 Q1032","updated":"2026-02-26T19:43:02Z"}
