{"icao":"LPPS","metar":"LPPS 121200Z 36007KT 300V040 9999 FEW015 24/13 Q1019","updated":"2025-10-12T12:32:37Z"}
