{"icao":"LPFR","metar":"LPFR 191700Z 32007KT 9999 FEW048 17/07 Q1015","updated":"2025-11-19T17:17:26Z"}
