{"icao":"LPCS","metar":"LPCS 241130Z 21010KT 180V240 9999 FEW025 19/14 Q1018","updated":"2026-04-24T11:55:27Z"}
