{"icao":"LPFL","metar":"LPFL 170930Z VRB01KT 9999 SCT030 13/07 Q1020","updated":"2026-02-17T09:46:54Z"}
