{"icao":"LPAZ","metar":"LPAZ 262200Z 32008KT 8000 SCT002 BKN005 16/15 Q1032","updated":"2026-02-26T22:32:05Z"}
