{"icao":"LPMA","metar":"LPMA 151030Z 02013KT 350V050 9999 SCT015 16/11 Q1024","updated":"2026-04-15T10:57:58Z"}
