{"icao":"LPBJ","metar":"LPBJ 072000Z 08005KT 050V140 9999 FEW010 SCT044 09/08 Q1015","updated":"2026-04-07T20:45:25Z"}
