{"icao":"KLAX","metar":"KLAX 092053Z 26011KT 9SM FEW008 SCT011 21/14 A2992 RMK AO2 SLP130 T02060139 57010","updated":"2026-05-09T21:41:27Z"}
