{"icao":"KLAX","metar":"KLAX 010453Z 21003KT 10SM CLR 18/14 A2992 RMK AO2 SLP129 T01780139","updated":"2026-03-01T05:51:11Z"}
