{"icao":"LPBJ","metar":"LPBJ 201400Z 32006KT 250V360 9999 FEW045 15/04 Q1019","updated":"2025-11-20T14:18:39Z"}
