{"icao":"LPMR","metar":"LPMR 302300Z 34006KT 9999 FEW016 16/15 Q1023","updated":"2026-05-30T23:08:32Z"}
