{"icao":"KORD","metar":"KORD 271351Z 23004KT 10SM FEW250 21/13 A2994 RMK AO2 SLP133 T02060133 $","updated":"2025-09-27T14:14:20Z"}
