{"icao":"LPLA","metar":"LPLA 260800Z 15002KT 080V190 9999 FEW018 SCT028 16/14 Q1028","updated":"2026-02-26T08:47:27Z"}
