{"icao":"LPAZ","metar":"LPAZ 032200Z 24022G32KT 8000 FEW003 BKN015 17/16 Q1005","updated":"2026-02-03T22:28:28Z"}
