{"icao":"LPMA","metar":"LPMA 121000Z 21008KT 9999 SCT015 17/12 Q1020","updated":"2026-01-12T10:24:24Z"}
