{"icao":"LPBJ","metar":"LPBJ 162000Z 09003KT CAVOK 16/06 Q1017","updated":"2026-03-16T20:36:58Z"}
