{"icao":"KORD","metar":"KORD 151951Z 19017G30KT 9SM -RA SCT026 BKN037 OVC048 16/12 A2925 RMK AO2 PK WND 20030/1944 RAE05B34 SLP908 P0001 T01560117 $","updated":"2026-03-15T20:28:35Z"}
