{"icao":"LPMR","metar":"LPMR 101900Z VRB02KT CAVOK 18/10 Q1020","updated":"2025-10-10T19:13:44Z"}
