{"icao":"LPOV","metar":"LPOV 022300Z 36005KT 320V020 8000 SCT002 BKN005 16/16 Q1023","updated":"2025-10-02T23:15:24Z"}
