{"icao":"LPPS","metar":"LPPS 032300Z 17014KT 9999 BKN015 21/18 Q1019","updated":"2025-11-03T23:16:07Z"}
