{"icao":"LPFL","metar":"LPFL 251900Z VRB07G17KT 9999 FEW013 19/14 Q1025","updated":"2026-02-25T19:06:27Z"}
