{"icao":"LPMA","metar":"LPMA 071700Z 22010KT 160V250 9999 FEW015 20/13 Q1020","updated":"2026-02-07T17:24:18Z"}
