{"icao":"LPCS","metar":"LPCS 092100Z 02013KT 9999 FEW015 17/14 Q1020","updated":"2025-10-09T21:15:39Z"}
