{"icao":"KLAX","metar":"KLAX 020253Z 25006KT 5SM BR OVC006 16/14 A3004 RMK AO2 SLP170 VIS W 2 T01610144 53013 $","updated":"2025-11-02T03:14:06Z"}
