{"icao":"LPPS","metar":"LPPS 020130Z 25011KT 210V270 9999 FEW014 17/12 Q1000","updated":"2026-01-02T01:41:20Z"}
