{"icao":"LPFL","metar":"LPFL 291800Z 32013G28KT 250V010 9999 2500N -RADZ FEW014 SCT016 FEW017CB BKN040 18/14 Q1008","updated":"2025-10-29T18:27:49Z"}
