{"icao":"LPMR","metar":"LPMR 141300Z 29012KT 250V320 9999 SCT028 22/18 Q1016","updated":"2026-06-14T14:03:59Z"}
