{"icao":"LPMT","metar":"LPMT 021000Z 27017G29KT 9999 VCSH FEW020 FEW025TCU SCT035 13/07 Q0999","updated":"2026-02-02T10:42:42Z"}
