{"icao":"LPPT","metar":"LPPT 031930Z 32009KT CAVOK 20/08 Q1022","updated":"2026-04-03T19:37:26Z"}
