{"icao":"LPFR","metar":"LPFR 201500Z 25015KT 9999 FEW030 23/19 Q1015","updated":"2025-10-20T15:18:03Z"}
