{"icao":"LPMT","metar":"LPMT 190600Z 33004KT 9999 FEW002 17/15 Q1014 RMK BLU","updated":"2026-06-19T06:16:53Z"}
