{"icao":"LPBJ","metar":"LPBJ 310500Z 27004KT CAVOK 09/07 Q1018","updated":"2026-01-31T05:37:20Z"}
