{"icao":"LPBJ","metar":"LPBJ 231800Z 08003KT 9999 FEW045 21/09 Q1014","updated":"2026-03-23T18:52:53Z"}
