{"icao":"LPFR","metar":"LPFR 131400Z 21020KT 1500 R28/1100D +TSRA FEW008 SCT018CB BKN025 17/16 Q1002","updated":"2025-11-13T14:18:35Z"}
