{"icao":"LPLA","metar":"LPLA 150600Z 31011KT 9999 FEW025 14/08 Q1013","updated":"2025-11-15T06:25:29Z"}
