{"icao":"LPBJ","metar":"LPBJ 090300Z 31002KT CAVOK 09/07 Q1021","updated":"2025-11-09T03:11:47Z"}
