{"icao":"LPHR","metar":"LPHR 201030Z 20019KT 7000 VCSH SCT007 SCT011 BKN030 17/15 Q1019","updated":"2026-02-20T10:36:15Z"}
