{"icao":"KJFK","metar":"KJFK 232051Z 35015KT 10SM SCT017 OVC050 06/01 A2996 RMK AO2 SLP143 T00560006 53022","updated":"2026-03-23T21:35:36Z"}
