{"icao":"KORD","metar":"KORD 170951Z 31011G18KT 10SM BKN070 M09/M18 A3002 RMK AO2 SLP177 T10891178 $","updated":"2026-03-17T10:50:51Z"}
