{"icao":"LPMT","metar":"LPMT 241100Z 14004KT 110V200 8000 SCT015 16/11 Q1018","updated":"2026-02-24T11:39:20Z"}
