{"icao":"KJFK","metar":"KJFK 042251Z 10022G36KT 10SM OVC035 08/03 A3025 RMK AO2 PK WND 09040/2212 RAE20 SLP242 P0000 T00830033","updated":"2026-04-04T23:30:27Z"}
