{"icao":"KORD","metar":"KORD 252251Z 29011G17KT 10SM FEW250 02/M13 A2974 RMK AO2 SLP078 T00221128","updated":"2026-02-25T23:27:05Z"}
