{"icao":"LPMA","metar":"LPMA 251400Z 06005KT 020V150 9999 FEW015 20/09 Q1026","updated":"2026-01-25T14:18:04Z"}
