{"icao":"LPAZ","metar":"LPAZ 291230Z 25014KT 9999 SCT015 SCT024 18/15 Q1012","updated":"2025-12-29T12:42:18Z"}
