{"icao":"LPAZ","metar":"LPAZ 010700Z 06005KT 9999 SCT007 BKN020 13/12 Q1028","updated":"2026-04-01T07:18:46Z"}
