{"icao":"LPMA","metar":"LPMA 050130Z 22016KT 9999 SCT015 19/15 Q1008","updated":"2026-02-05T01:59:13Z"}
