{"icao":"LPPT","metar":"LPPT 220800Z 06004G16KT 020V090 9999 FEW008 09/07 Q1028","updated":"2026-02-22T08:30:11Z"}
