{"icao":"LPOV","metar":"LPOV 100800Z 20018KT 2000 RA BR BKN002 BKN011CB 15/15 Q1009","updated":"2026-02-10T08:54:14Z"}
