{"icao":"KJFK","metar":"KJFK 261151Z 36014KT 10SM FEW170 SCT250 M06/M14 A3026 RMK AO2 SLP245 T10611144 11033 21061 51009 $","updated":"2025-12-26T12:39:39Z"}
