{"icao":"KLAX","metar":"KLAX 041953Z 22004KT 10SM CLR 29/M06 A3010 RMK AO2 SLP192 T02941056 $","updated":"2026-02-04T20:33:16Z"}
