{"icao":"KLAX","metar":"KLAX 291153Z 10003KT 10SM FEW003 16/13 A2999 RMK AO2 SLP154 T01610128 10194 20161 58007 $","updated":"2025-10-29T12:39:45Z"}
