{"icao":"KLAX","metar":"KLAX 171553Z 07003KT 10SM FEW240 BKN280 14/01 A3006 RMK AO2 SLP178 T01440011","updated":"2026-01-17T16:21:53Z"}
