{"icao":"LPMR","metar":"LPMR 091200Z 32008KT 280V350 9999 FEW020 SCT030 14/10 Q1029","updated":"2026-01-09T12:42:06Z"}
