{"icao":"LPAZ","metar":"LPAZ 191630Z 32010KT 290V350 9999 SCT007 BKN030 18/14 Q1014","updated":"2026-04-19T16:38:37Z"}
