{"icao":"LPPT","metar":"LPPT 201930Z 07007KT 9999 RA SCT010 BKN015 14/13 Q1007","updated":"2026-03-20T19:35:52Z"}
