{"icao":"LPMA","metar":"LPMA 081900Z 02010KT 9999 SCT014 21/16 Q1022","updated":"2025-11-08T19:13:23Z"}
