{"icao":"LPAZ","metar":"LPAZ 091900Z 20016KT 8000 -DZ FEW010 BKN016 17/14 Q1029","updated":"2026-01-09T19:18:50Z"}
