{"icao":"LPPT","metar":"LPPT 090930Z 23008KT 2500 DZ BR BKN003 15/15 Q1013 REDZ","updated":"2026-02-09T10:01:42Z"}
