{"icao":"LPCS","metar":"LPCS 161100Z 34024G38KT 9999 FEW020 FEW025TCU SCT035 14/08 Q1012","updated":"2025-12-16T11:18:21Z"}
