{"icao":"LPPD","metar":"LPPD 241730Z 19012KT 9000 -RA SCT007 BKN011 16/15 Q1014","updated":"2026-04-24T17:49:20Z"}
