{"icao":"KJFK","metar":"KJFK 141751Z 23008KT 10SM FEW045 FEW095 SCT250 03/M04 A3006 RMK AO2 SLP179 4/003 933006 T00281039 10028 21028 58017 $","updated":"2026-02-14T18:33:14Z"}
