{"icao":"LPPR","metar":"LPPR 190430Z 09010KT CAVOK 17/07 Q1003","updated":"2026-03-19T04:53:04Z"}
