{"icao":"LPHR","metar":"LPHR 071400Z 22006KT 9999 FEW015 24/21 Q1023","updated":"2025-10-07T14:18:17Z"}
