{"icao":"LPMR","metar":"LPMR 281500Z 34008KT 300V010 9999 FEW025 15/09 Q1022","updated":"2025-11-28T15:19:06Z"}
