{"icao":"LPPT","metar":"LPPT 010100Z 20018KT 9999 FEW008 BKN010 19/18 Q1014","updated":"2025-11-01T01:26:35Z"}
