{"icao":"LPMT","metar":"LPMT 191100Z 01003KT 9999 FEW020 13/08 Q1021","updated":"2026-01-19T11:20:27Z"}
