{"icao":"KLAX","metar":"KLAX 150723Z 09007KT 4SM BR BKN005 15/14 A2997 RMK AO2 T01500139 $","updated":"2026-03-15T07:44:14Z"}
