{"icao":"LPAZ","metar":"LPAZ 150500Z 34017KT 9999 FEW005 SCT007 BKN034 14/13 Q1023","updated":"2026-01-15T05:24:48Z"}
