{"icao":"LPFR","metar":"LPFR 090930Z 32005KT 280V350 9999 FEW035 13/08 Q1023","updated":"2026-03-09T09:50:30Z"}
