{"icao":"LPMA","metar":"LPMA 212200Z 02009KT 340V050 9999 FEW016 15/10 Q1026","updated":"2026-02-21T22:22:21Z"}
