{"icao":"LPPT","metar":"LPPT 261500Z 22017KT 8000 BKN006 15/14 Q1011 WS R20","updated":"2026-01-26T15:27:45Z"}
