{"icao":"KJFK","metar":"KJFK 040151Z 28009KT 10SM SCT047 SCT250 00/M09 A3018 RMK AO2 SLP219 T00001094 PNO $","updated":"2026-02-04T01:57:53Z"}
