{"icao":"LPBJ","metar":"LPBJ 091700Z 30007KT CAVOK 25/13 Q1018","updated":"2025-10-09T17:16:03Z"}
