{"icao":"KORD","metar":"KORD 071351Z 08008KT 10SM BKN250 22/16 A2999 RMK AO2 SLP151 T02220156 $","updated":"2026-06-07T14:50:51Z"}
