{"icao":"LPPT","metar":"LPPT 190930Z 11009KT 090V150 9999 FEW002 BKN006 13/13 Q1005","updated":"2026-03-19T09:41:30Z"}
