{"icao":"LPFL","metar":"LPFL 031530Z 24006KT 150V270 9999 FEW023 BKN035 16/09 Q1024","updated":"2026-04-03T15:37:52Z"}
