{"icao":"KORD","metar":"KORD 070751Z 03006KT 10SM SCT110 BKN250 20/13 A2990 RMK AO2 SLP120 T02000133 $","updated":"2026-06-07T07:53:54Z"}
