{"icao":"LPMT","metar":"LPMT 142200Z 12003KT CAVOK 17/12 Q1016","updated":"2025-10-14T22:16:29Z"}
