{"icao":"LPFR","metar":"LPFR 242330Z 30007KT CAVOK 18/12 Q1018","updated":"2026-04-24T23:37:33Z"}
