{"icao":"LPFL","metar":"LPFL 071400Z 19022G33KT 160V220 7000 -RA FEW010 SCT015 17/14 Q1007","updated":"2026-02-07T14:24:33Z"}
