{"icao":"LPPT","metar":"LPPT 210100Z 34011KT 280V020 9999 FEW020 17/13 Q1020","updated":"2025-09-21T01:24:47Z"}
