{"icao":"LPOV","metar":"LPOV 281000Z 03008KT 360V070 CAVOK 17/04 Q1025","updated":"2026-03-28T10:30:25Z"}
