{"icao":"LPOV","metar":"LPOV 160900Z 30003KT 270V330 9999 BKN008 BKN012 18/16 Q1018","updated":"2026-06-16T09:30:30Z"}
