{"icao":"LPCS","metar":"LPCS 061730Z 14012KT 9999 -RA FEW008 SCT035 16/14 Q1015","updated":"2026-04-06T17:42:23Z"}
