{"icao":"LPBJ","metar":"LPBJ 010700Z 06008KT CAVOK 12/03 Q1022","updated":"2026-04-01T07:18:45Z"}
