{"icao":"KJFK","metar":"KJFK 032251Z 19013KT 10SM FEW250 18/12 A3026 RMK AO2 SLP246 T01780117","updated":"2025-10-03T23:15:08Z"}
