{"icao":"LPPT","metar":"LPPT 231600Z 26016KT 230V310 8000 -SHRA FEW020 FEW022TCU BKN028 09/07 Q1000","updated":"2026-01-23T16:28:39Z"}
