{"icao":"LPPR","metar":"LPPR 022200Z 04005G16KT 350V070 9999 FEW020 FEW025CB BKN040 08/07 Q1017","updated":"2025-12-02T22:16:32Z"}
