{"icao":"LPLA","metar":"LPLA 072100Z 35012KT 5000 -DZ BR BKN005 BKN012 12/11 Q1023","updated":"2026-03-07T21:20:19Z"}
