{"icao":"LPFR","metar":"LPFR 260630Z 31005KT CAVOK 12/09 Q1021","updated":"2026-02-26T07:02:32Z"}
