{"icao":"LPMA","metar":"LPMA 130900Z 01017G27KT 340V050 9999 FEW015 24/16 Q1022","updated":"2025-09-13T09:15:32Z"}
