{"icao":"LPAZ","metar":"LPAZ 201100Z 25012KT 8000 BKN004 23/23 Q1019","updated":"2025-10-20T11:15:56Z"}
