{"icao":"LPMR","metar":"LPMR 171000Z 32005KT CAVOK 09/07 Q1023","updated":"2025-12-17T10:22:28Z"}
