{"icao":"KLAX","metar":"KLAX 291053Z 00000KT 10SM FEW250 09/04 A3014 RMK AO2 SLP204 T00890044 $","updated":"2025-12-29T11:17:59Z"}
