{"icao":"LPMR","metar":"LPMR 121200Z 30010KT CAVOK 31/12 Q1019","updated":"2026-06-12T12:17:19Z"}
