{"icao":"LPBJ","metar":"LPBJ 110400Z 18004KT 0500 FG FEW003 05/05 Q1028","updated":"2026-01-11T04:46:26Z"}
