{"icao":"LPPT","metar":"LPPT 181930Z 31009KT 290V350 CAVOK 21/13 Q1015","updated":"2026-04-18T19:39:49Z"}
