{"icao":"LPFR","metar":"LPFR 202300Z 22003KT CAVOK 23/20 Q1015","updated":"2026-06-20T23:06:48Z"}
