{"icao":"LPAZ","metar":"LPAZ 271600Z 25027G37KT 9999 SCT017 SCT040 16/14 Q1009","updated":"2026-01-27T16:29:10Z"}
