{"icao":"KLAX","metar":"KLAX 210253Z 25007KT 10SM FEW250 19/12 A2982 RMK AO2 SLP095 T01940122 56006","updated":"2026-05-21T03:34:26Z"}
