{"icao":"LPBJ","metar":"LPBJ 200400Z 29007KT 0400 FG VV002 05/05 Q1020","updated":"2026-01-20T04:43:07Z"}
