{"icao":"KJFK","metar":"KJFK 231415Z 34032G44KT 1/4SM R04R/1600V2200FT SN BLSN FZFG VV007 M02/M03 A2945 RMK AO2 PK WND 36044/1406 SFC VIS 1/2 P0001 T10171028 $","updated":"2026-02-23T14:43:51Z"}
