{"icao":"KJFK","metar":"KJFK 281151Z 34007KT 10SM FEW035 FEW200 SCT250 M06/M08 A3024 RMK AO2 SLP238 4/003 T10561078 11044 21061 53004 $","updated":"2025-12-28T12:38:21Z"}
