{"icao":"LPMR","metar":"LPMR 221100Z 20003KT 150V270 9999 FEW030 19/08 Q1014","updated":"2026-04-22T11:17:24Z"}
