{"icao":"KORD","metar":"KORD 191651Z 29017G28KT 10SM FEW023 M17/M24 A3020 RMK AO2 PK WND 29031/1630 SLP241 T11721244 $","updated":"2026-01-19T17:22:38Z"}
