{"icao":"LPFR","metar":"LPFR 171030Z 09013KT CAVOK 25/10 Q1017","updated":"2026-04-17T10:54:11Z"}
