{"icao":"LPHR","metar":"LPHR 051400Z 22017KT 9999 SCT018 17/13 Q1015","updated":"2026-04-05T14:34:11Z"}
