{"icao":"LPAZ","metar":"LPAZ 080400Z 22012KT 9999 FEW028 19/14 Q1021","updated":"2025-11-08T04:20:15Z"}
