{"icao":"LPPD","metar":"LPPD 241100Z 18006KT 150V220 9999 SCT005 BKN010 18/17 Q1025","updated":"2026-05-24T11:15:05Z"}
