{"icao":"KLAX","metar":"KLAX 132253Z 00000KT 10SM FEW038 BKN120 22/15 A2997 RMK AO2 RAB22E43 SLP149 P0000 T02170150","updated":"2025-11-13T23:18:13Z"}
