{"icao":"LPPS","metar":"LPPS 181000Z 11012KT 9999 FEW014 24/19 Q1020","updated":"2025-09-18T10:18:34Z"}
