{"icao":"LPCS","metar":"LPCS 091500Z 25005KT 210V290 9000 -RADZ FEW004 SCT015 BKN048 17/17 Q1016","updated":"2025-12-09T15:22:32Z"}
