{"icao":"LPMA","metar":"LPMA 141900Z 28006KT 240V310 9999 FEW015 15/08 Q1025","updated":"2026-01-14T19:18:48Z"}
