{"icao":"LPPD","metar":"LPPD 182300Z 01007KT 330V050 6000 -SHRA SCT007 BKN010 17/15 Q1023","updated":"2025-11-18T23:17:05Z"}
