{"icao":"LPBJ","metar":"LPBJ 200700Z 29004KT 0800 FG FEW003 BKN008 05/05 Q1020","updated":"2026-01-20T07:26:53Z"}
