{"icao":"KORD","metar":"KORD 021951Z 11006KT 10SM SCT250 06/M09 A3030 RMK AO2 SLP269 T00561089 $","updated":"2026-03-02T20:36:41Z"}
