{"icao":"LPPS","metar":"LPPS 152130Z 04007KT 340V070 9999 SCT015 BKN030 15/11 Q1023","updated":"2026-04-15T21:51:26Z"}
