{"icao":"LPLA","metar":"LPLA 230800Z 23005KT 9999 FEW015 BKN035 16/14 Q1028","updated":"2025-11-23T08:22:47Z"}
