{"icao":"LPFL","metar":"LPFL 131230Z 32009KT 280V360 9999 FEW025 14/09 Q1011","updated":"2025-11-13T12:40:09Z"}
