{"icao":"LPMR","metar":"LPMR 131900Z VRB02KT 9999 FEW015 SCT040 12/10 Q1012","updated":"2026-01-13T19:19:01Z"}
