{"icao":"LPPR","metar":"LPPR 260900Z VRB02KT CAVOK 09/06 Q1027","updated":"2025-11-26T09:21:46Z"}
