{"icao":"LPPT","metar":"LPPT 181130Z 15014KT 120V180 9999 FEW020 SCT022 16/12 Q1003","updated":"2026-03-18T11:43:58Z"}
