{"icao":"KJFK","metar":"KJFK 290951Z 32013KT 10SM SCT250 M10/M17 A3007 RMK SLP182 T11001172 $ ","updated":"2026-01-29T10:35:54Z"}
