{"icao":"LPMA","metar":"LPMA 302100Z 02011KT 340V050 9999 SCT015 22/14 Q1021","updated":"2025-09-30T21:15:37Z"}
