{"icao":"LPBJ","metar":"LPBJ 140500Z 28003KT CAVOK 16/11 Q1016","updated":"2025-10-14T05:16:49Z"}
