{"icao":"KJFK","metar":"KJFK 060551Z 02006KT 10SM SCT022 BKN035 OVC050 01/M02 A2997 RMK AO2 SLP147 T00061017 10011 21011 58023 $","updated":"2025-12-06T06:26:48Z"}
