{"icao":"LPPT","metar":"LPPT 021630Z 21012KT 9999 SCT020 19/14 Q1016","updated":"2026-05-02T16:43:52Z"}
