{"icao":"LPFR","metar":"LPFR 220730Z 07009KT CAVOK 13/05 Q1027","updated":"2026-02-22T07:34:39Z"}
