{"icao":"LPMT","metar":"LPMT 300900Z 03010KT CAVOK 19/14 Q1018","updated":"2025-09-30T10:18:26Z"}
