{"icao":"KORD","metar":"KORD 160551Z 00000KT 10SM SCT250 03/M02 A2993 RMK AO2 SLP140 T00281022 10117 20028 401561011 50000","updated":"2026-02-16T06:08:32Z"}
