{"icao":"LPPT","metar":"LPPT 041700Z 20011KT CAVOK 21/15 Q1013","updated":"2025-11-04T17:13:35Z"}
