{"icao":"LPFR","metar":"LPFR 310700Z 01003KT 340V050 CAVOK 15/07 Q1024","updated":"2026-03-31T07:11:44Z"}
