{"icao":"LPPT","metar":"LPPT 161630Z 31015KT 280V350 9999 FEW045 18/09 Q1017","updated":"2026-05-16T17:01:42Z"}
