{"icao":"LPMT","metar":"LPMT 301600Z 26018G28KT 9999 SCT015 16/13 Q1011","updated":"2026-01-30T16:37:46Z"}
