{"icao":"KJFK","metar":"KJFK 262051Z 32018G24KT 10SM BKN032 BKN100 BKN250 M03/M09 A2975 RMK AO2 SLP073 60000 T10281094 53002 $","updated":"2026-01-26T21:23:00Z"}
