{"icao":"LPBJ","metar":"LPBJ 242300Z 29005KT CAVOK 20/13 Q1021","updated":"2026-05-25T00:03:11Z"}
