{"icao":"KJFK","metar":"KJFK 161751Z 03011KT 10SM FEW042 BKN060 02/M03 A3013 RMK AO2 SLP202 4/003 933005 T00171033 10017 21017 58012 $","updated":"2026-02-16T18:40:54Z"}
