{"icao":"LPMT","metar":"LPMT 102300Z 33006KT CAVOK 17/13 Q1012","updated":"2026-04-10T23:33:26Z"}
