{"icao":"KJFK","metar":"KJFK 251251Z 36008KT 10SM FEW060 10/03 A3036 RMK AO2 SLP281 T01000033","updated":"2025-10-25T13:21:51Z"}
