{"icao":"KORD","metar":"KORD 020734Z 22011KT 8SM -FZDZSN OVC011 M06/M08 A3006 RMK AO2 FZDZB33 P0000 I1000 T10561083","updated":"2026-02-02T07:48:58Z"}
