{"icao":"LPLA","metar":"LPLA 190825Z 34029KT 4000 -SHRA SCT012 BKN016 13/11 Q1006","updated":"2026-03-19T08:40:12Z"}
