{"icao":"LPMA","metar":"LPMA 281500Z 23014G27KT 170V260 8000 -SHRA SCT015 FEW016TCU 23/18 Q1009","updated":"2025-10-28T15:20:29Z"}
