{"icao":"LPPD","metar":"LPPD 192000Z 19006KT 9999 FEW008 SCT040 16/15 Q1024","updated":"2026-02-19T20:30:53Z"}
