{"icao":"KJFK","metar":"KJFK 032251Z 25006KT 10SM FEW140 BKN250 03/M07 A3008 RMK AO2 SLP184 T00281067","updated":"2025-12-03T23:16:14Z"}
