{"icao":"LPFL","metar":"LPFL 141300Z 35007KT 310V010 9999 SCT027 17/10 Q1010","updated":"2025-11-14T13:29:08Z"}
