{"icao":"LPMT","metar":"LPMT 272300Z 35007KT CAVOK 19/14 Q1010","updated":"2026-04-27T23:54:29Z"}
