{"icao":"LPPT","metar":"LPPT 050300Z 25011KT 6000 -DZRA FEW004 SCT008 BKN012 16/15 Q1019","updated":"2025-12-05T03:17:31Z"}
