{"icao":"KORD","metar":"KORD 051910Z 20012KT 9SM -SN SCT028 BKN055 OVC070 M02/M08 A2988 RMK AO2 PRESFR P0000 T10171078","updated":"2026-02-05T19:35:52Z"}
