{"icao":"LPAZ","metar":"LPAZ 200400Z 04011KT 9999 FEW026 SCT040 20/11 Q1025","updated":"2025-09-20T04:19:45Z"}
