{"icao":"LPMR","metar":"LPMR 180300Z 12003KT CAVOK 13/12 Q1015","updated":"2025-10-18T03:27:04Z"}
