{"icao":"LPPD","metar":"LPPD 071400Z 24004KT 210V270 8000 -DZ FEW007 SCT012 BKN020 15/13 Q1016","updated":"2026-02-07T14:24:32Z"}
