{"icao":"KJFK","metar":"KJFK 132051Z 28020G29KT 10SM SCT055 BKN070 11/M02 A2991 RMK AO2 PK WND 29034/2029 RAB31E46 SLP128 VCSH NW-N P0000 60000 T01061022 53012","updated":"2025-11-13T21:17:16Z"}
