{"icao":"LPPR","metar":"LPPR 171230Z 13005KT 080V150 9999 FEW020 FEW023TCU SCT043 09/07 Q1011","updated":"2026-01-17T12:37:21Z"}
