{"icao":"LPHR","metar":"LPHR 231300Z 27017KT 9999 FEW014 SCT025 BKN055 15/11 Q1006","updated":"2026-04-23T13:26:26Z"}
