{"icao":"LPMA","metar":"LPMA 260830Z 02012KT 340V070 9999 SCT016 17/11 Q1018","updated":"2026-04-26T08:59:13Z"}
