{"icao":"LPHR","metar":"LPHR 042100Z 32012KT 9999 SCT025 15/09 Q1013","updated":"2025-11-04T21:17:10Z"}
