{"icao":"LPMT","metar":"LPMT 071900Z 33008KT CAVOK 12/08 Q1018","updated":"2026-03-07T19:20:16Z"}
