{"icao":"LPLA","metar":"LPLA 241900Z 21015KT 7000 -RADZ BKN006 BKN014 18/16 Q1010","updated":"2026-04-24T19:51:45Z"}
