{"icao":"LPPR","metar":"LPPR 251100Z 03005KT 350V070 CAVOK 13/07 Q1024","updated":"2025-11-25T11:16:41Z"}
