{"icao":"LPMA","metar":"LPMA 172200Z 27006KT 230V300 9999 BKN015 15/11 Q1017","updated":"2026-01-17T22:18:22Z"}
