{"icao":"KJFK","metar":"KJFK 191251Z 06007KT 10SM OVC030 02/M04 A3007 RMK AO2 SLP181 T00221039 $","updated":"2026-02-19T13:02:53Z"}
