{"icao":"LPPD","metar":"LPPD 221700Z 29017G27KT 270V330 9999 FEW025 SCT040 15/08 Q1018","updated":"2026-01-22T17:27:34Z"}
