{"icao":"LPPT","metar":"LPPT 301900Z 17010KT 140V200 9999 FEW012 18/16 Q1013","updated":"2025-10-30T19:14:14Z"}
