{"icao":"LPFR","metar":"LPFR 132100Z 33014KT CAVOK 15/10 Q1020","updated":"2026-03-13T21:31:37Z"}
