{"icao":"LPMA","metar":"LPMA 220500Z 27003KT 220V320 9999 SCT015 14/09 Q1013","updated":"2026-04-22T05:24:25Z"}
