{"icao":"LPLA","metar":"LPLA 051700Z 09005KT 050V120 9999 FEW024 SCT040 15/09 Q1030","updated":"2026-01-05T17:21:48Z"}
