{"icao":"LPPT","metar":"LPPT 010200Z 03011KT CAVOK 17/07 Q1023","updated":"2026-04-01T02:30:14Z"}
