{"icao":"KORD","metar":"KORD 081351Z 21016G25KT 10SM FEW180 04/01 A2989 RMK AO2 PK WND 22027/1337 SLP127 T00390006","updated":"2026-03-08T14:24:20Z"}
