{"icao":"KORD","metar":"KORD 281451Z 27011KT 10SM FEW022 FEW250 M16/M20 A3019 RMK AO2 SLP240 T11561200 56005","updated":"2026-01-28T15:31:00Z"}
