{"icao":"KJFK","metar":"KJFK 161651Z 23008KT 10SM FEW250 M02/M09 A3021 RMK AO2 SLP229 T10171089 $","updated":"2025-12-16T17:22:40Z"}
