{"icao":"LPFR","metar":"LPFR 192300Z 11019KT 9000 -RA SCT008 15/14 Q1007","updated":"2026-03-19T23:28:16Z"}
