{"icao":"LPFR","metar":"LPFR 091800Z 26006KT CAVOK 20/17 Q1018","updated":"2025-10-09T18:25:32Z"}
