{"icao":"LPPR","metar":"LPPR 271100Z 23006KT 170V270 9999 3500W BCFG FEW001 SCT011 21/18 Q1020","updated":"2026-06-27T11:25:34Z"}
