{"icao":"LPPD","metar":"LPPD 130900Z 32008KT 9999 FEW020 12/07 Q1024","updated":"2026-01-13T09:26:47Z"}
