{"icao":"KJFK","metar":"KJFK 222251Z 24008KT 10SM FEW050 BKN250 04/M03 A3003 RMK SLP169 T00441033 $ ","updated":"2026-01-22T23:19:50Z"}
