{"icao":"LPHR","metar":"LPHR 271000Z 01010KT 290V090 9999 SCT015 17/11 Q1023","updated":"2025-11-27T10:21:25Z"}
