{"icao":"LPPD","metar":"LPPD 072230Z 31008KT 280V340 9999 FEW025 SCT035 14/08 Q1034","updated":"2026-04-07T22:36:32Z"}
