{"icao":"KORD","metar":"KORD 090451Z 21009KT 10SM FEW250 14/09 A2968 RMK AO2 SLP049 T01390094","updated":"2026-05-09T05:47:18Z"}
