{"icao":"LPBJ","metar":"LPBJ 010800Z 05011KT CAVOK 13/04 Q1022","updated":"2026-04-01T09:02:17Z"}
