{"icao":"LPMA","metar":"LPMA 272200Z 28006KT 240V350 9999 SCT016 FEW018TCU 16/06 Q1017","updated":"2025-12-27T22:17:52Z"}
