{"icao":"LPAZ","metar":"LPAZ 191000Z 24013KT 6000 FEW001 SCT002 BKN010 23/23 Q1018","updated":"2025-10-19T10:16:40Z"}
