{"icao":"LPAR","metar":"LPAR 131200Z 30017G29KT 270V340 7000 -SHRA SCT020 SCT022CB BKN030 13/09 Q1008 RESHRA","updated":"2026-02-13T12:57:14Z"}
