{"icao":"LPPR","metar":"LPPR 222330Z 03002KT CAVOK 11/10 Q1014","updated":"2026-04-22T23:43:36Z"}
