{"icao":"KORD","metar":"KORD 010951Z 10003KT 10SM OVC250 18/13 A3019 RMK AO2 SLP220 T01830133","updated":"2025-10-01T10:18:50Z"}
