{"icao":"KJFK","metar":"KJFK 141251Z 28011KT 10SM FEW035 FEW110 FEW250 06/M01 A3012 RMK AO2 SLP197 T00611011","updated":"2025-11-14T13:29:11Z"}
