{"icao":"LPPD","metar":"LPPD 261000Z 14007KT 9999 FEW018 18/15 Q1025","updated":"2025-11-26T10:21:29Z"}
