{"icao":"LPMT","metar":"LPMT 190600Z 17012KT 150V220 9999 -RA FEW012 SCT025 14/13 Q1003 RERA","updated":"2026-03-19T07:03:24Z"}
