{"icao":"LPBJ","metar":"LPBJ 191700Z 28012KT CAVOK 25/12 Q1014","updated":"2025-10-19T17:13:59Z"}
