{"icao":"KJFK","metar":"KJFK 040551Z 00000KT 10SM SCT080 BKN250 11/10 A3011 RMK AO2 SLP197 T01060100 10122 20100 56007","updated":"2026-04-04T05:56:05Z"}
