{"icao":"LPMR","metar":"LPMR 251100Z 03009KT 360V060 9999 FEW015 13/05 Q1024","updated":"2025-11-25T11:16:43Z"}
