{"icao":"KORD","metar":"KORD 240851Z 16005KT 10SM SCT250 02/M01 A3013 RMK AO2 SLP207 T00221011 56005","updated":"2025-11-24T09:23:16Z"}
