{"icao":"KORD","metar":"KORD 291007Z 17006KT 3SM -SN OVC028 M03/M07 A3036 RMK AO2 P0000 T10281072 $","updated":"2025-11-29T10:18:47Z"}
