{"icao":"LPMT","metar":"LPMT 271000Z 19009KT 9999 FEW015 21/15 Q1018","updated":"2025-09-27T10:15:44Z"}
