{"icao":"KORD","metar":"KORD 242251Z 06007KT 10SM FEW046 FEW250 24/12 A3002 RMK AO2 SLP162 T02390117 $","updated":"2026-05-24T22:57:16Z"}
