{"icao":"KLAX","metar":"KLAX 240953Z 08004KT 10SM FEW200 SCT250 15/12 A2991 RMK AO2 SLP127 T01500117 $","updated":"2026-04-24T10:20:10Z"}
