{"icao":"LPPR","metar":"LPPR 241400Z 28006KT 250V310 9999 FEW016 SCT020 18/15 Q1015","updated":"2025-10-24T14:18:31Z"}
