{"icao":"LPPR","metar":"LPPR 100700Z 05005KT 020V090 CAVOK 18/10 Q1014","updated":"2026-04-10T07:25:49Z"}
