{"icao":"LPPS","metar":"LPPS 042300Z 03009KT 360V060 9999 SCT015 21/16 Q1026","updated":"2025-10-04T23:15:38Z"}
