{"icao":"KORD","metar":"KORD 160951Z 19013G22KT 10SM OVC013 M04/M07 A2955 RMK AO2 SLP016 T10441072 $","updated":"2026-01-16T10:22:58Z"}
