{"icao":"LPLA","metar":"LPLA 061900Z 19016G26KT 9000 -SHRA FEW018 BKN020 14/08 Q1027","updated":"2026-03-06T19:32:55Z"}
