{"icao":"LPMA","metar":"LPMA 141900Z 01009KT 330V080 9999 BKN014 16/13 Q1023","updated":"2026-03-14T19:25:46Z"}
