{"icao":"LPAZ","metar":"LPAZ 122300Z 22005KT 9999 FEW018 BKN040 20/18 Q1023","updated":"2026-06-12T23:15:08Z"}
