{"icao":"LPAZ","metar":"LPAZ 041600Z 27005KT 240V310 9999 OVC048 17/07 Q1023","updated":"2026-04-04T16:34:23Z"}
