{"icao":"LPPR","metar":"LPPR 101900Z VRB04KT CAVOK 19/11 Q1021","updated":"2025-10-10T19:13:42Z"}
