{"icao":"LPFR","metar":"LPFR 051800Z 32010KT CAVOK 10/M01 Q1012","updated":"2026-01-05T18:31:03Z"}
