{"icao":"LPFL","metar":"LPFL 211500Z 32013G24KT 240V020 2000 RADZ FEW010 SCT016 OVC049 14/11 Q1005","updated":"2026-04-21T15:11:33Z"}
