{"icao":"LPMT","metar":"LPMT 201300Z 10009KT 9999 SCT020 BKN024 16/13 Q1007","updated":"2026-03-20T14:02:16Z"}
