{"icao":"LPAR","metar":"LPAR 101600Z 01006KT 340V050 9999 FEW023 17/10 Q1021","updated":"2025-12-11T06:32:01Z"}
