{"icao":"LPPS","metar":"LPPS 142300Z 01004KT 330V080 9999 SCT015 BKN030 15/08 Q1027","updated":"2026-01-14T23:17:08Z"}
