{"icao":"LPHR","metar":"LPHR 060900Z 31017G28KT 9999 -SHRA SCT018 10/04 Q1016","updated":"2026-04-06T09:07:20Z"}
