{"icao":"LPFL","metar":"LPFL 011200Z 34003KT 300V030 9999 BKN049 17/07 Q1023","updated":"2025-11-01T12:33:08Z"}
