{"icao":"LPMR","metar":"LPMR 140400Z 11001KT 9999 FEW018 SCT025 12/12 Q1016","updated":"2026-05-14T06:44:45Z"}
