{"icao":"KJFK","metar":"KJFK 071451Z 20009KT 10SM FEW037 FEW050 SCT250 23/16 A3018 RMK AO2 SLP221 T02280161 58003","updated":"2025-10-07T15:19:10Z"}
