{"icao":"LPMT","metar":"LPMT 241800Z 28009KT 250V310 8000 -RADZ SCT007 BKN016 17/17 Q1016","updated":"2025-11-24T18:28:09Z"}
