{"icao":"LPPS","metar":"LPPS 091400Z 06013KT 9999 FEW015 23/17 Q1024","updated":"2025-10-09T14:17:38Z"}
