{"icao":"KJFK","metar":"KJFK 141051Z 28008KT 10SM CLR 05/M02 A3008 RMK AO2 SLP184 T00501017","updated":"2025-11-14T11:15:50Z"}
