{"icao":"LPPR","metar":"LPPR 250700Z 10008KT 070V130 CAVOK 17/03 Q1018","updated":"2025-09-25T07:17:27Z"}
