{"icao":"LPPR","metar":"LPPR 230300Z 14006KT 040V180 5000 RA BR FEW003 BKN006 BKN012 11/11 Q1027","updated":"2025-11-23T03:25:56Z"}
