{"icao":"KORD","metar":"KORD 122251Z 09007KT 10SM FEW075 SCT095 02/M04 A3023 RMK AO2 SLP246 T00171039 $","updated":"2026-02-12T23:28:00Z"}
