{"icao":"LPBJ","metar":"LPBJ 082000Z 22004KT 9999 BKN026 11/08 Q1031","updated":"2026-01-08T20:23:52Z"}
