{"icao":"KORD","metar":"KORD 190651Z 04010KT 10SM OVC008 06/04 A3010 RMK AO2 SLP198 T00560039 $","updated":"2025-11-19T07:18:51Z"}
