{"icao":"LPHR","metar":"LPHR 100800Z 18028G40KT 6000 RA FEW008 SCT012 BKN030 17/16 Q1016","updated":"2025-12-10T08:27:24Z"}
