{"icao":"LPOV","metar":"LPOV 281900Z 17011KT 9000 -RA FEW015 SCT030 BKN045 19/16 Q1009","updated":"2025-10-28T19:14:34Z"}
