{"icao":"KJFK","metar":"KJFK 191051Z 16018G30KT 10SM -RA FEW017 BKN065 OVC085 12/11 A2967 RMK AO2 PK WND 17030/1042 SLP048 P0003 T01220106","updated":"2025-12-19T11:17:51Z"}
