{"icao":"LPMR","metar":"LPMR 042300Z 14003KT 2000 -RA BR SCT022 SCT025 BKN030 11/11 Q1020","updated":"2025-12-04T23:18:15Z"}
