{"icao":"LPPT","metar":"LPPT 052100Z 31009KT CAVOK 19/12 Q1019","updated":"2025-10-05T21:13:49Z"}
