{"icao":"LPAZ","metar":"LPAZ 251100Z 07012KT 6000 -SHRA FEW008 BKN015 18/17 Q1016","updated":"2025-10-25T11:13:00Z"}
