{"icao":"LPAR","metar":"LPAR 061700Z 28005KT 250V310 9999 FEW025 18/09 Q1017","updated":"2025-11-06T19:14:58Z"}
