{"icao":"LPMR","metar":"LPMR 021700Z 12009KT 9999 FEW016 SCT020 14/12 Q1000","updated":"2026-01-02T17:16:45Z"}
