{"icao":"LPPI","metar":"LPPI 182000Z 35003KT 290V040 9999 FEW014 SCT030 20/17 Q1014","updated":"2026-06-18T22:07:12Z"}
