{"icao":"LPBJ","metar":"LPBJ 242100Z 36005KT CAVOK 07/05 Q1009","updated":"2025-12-24T21:17:29Z"}
