{"icao":"KLAX","metar":"KLAX 211953Z 08010KT 10SM SCT027 BKN033 BKN160 16/11 A2993 RMK AO2 SLP134 T01610106 $","updated":"2025-11-21T20:21:41Z"}
