{"icao":"LPPS","metar":"LPPS 100500Z 03013KT 360V060 9999 SCT015 SCT030 17/12 Q1022","updated":"2026-06-10T05:16:25Z"}
