{"icao":"KORD","metar":"KORD 210558Z 28013G24KT 10SM SCT020 BKN055 BKN095 11/07 A2971 RMK AO2 T01110072 $","updated":"2025-10-21T06:27:53Z"}
