{"icao":"LPPD","metar":"LPPD 060200Z 28022KT 5000 -SHRA BR SCT005 SCT010 BKN025 13/12 Q1011","updated":"2026-04-06T02:26:17Z"}
