{"icao":"LPPS","metar":"LPPS 110400Z 03013KT 360V060 9999 SCT014 14/10 Q1026","updated":"2026-03-11T04:09:34Z"}
