{"icao":"KJFK","metar":"KJFK 161051Z 14003KT 10SM FEW180 BKN250 17/13 A2991 RMK AO2 SLP127 T01670128","updated":"2026-04-16T11:01:19Z"}
