{"icao":"LPPD","metar":"LPPD 121630Z 23011KT 9999 FEW025 15/08 Q1030","updated":"2026-04-12T16:37:22Z"}
