{"icao":"LPMA","metar":"LPMA 280400Z 29004KT 250V320 9999 SCT015 21/16 Q1014","updated":"2025-10-28T04:21:30Z"}
