{"icao":"LPFR","metar":"LPFR 030430Z 01004KT 260V050 CAVOK 14/07 Q1019","updated":"2026-04-03T05:03:27Z"}
