{"icao":"LPPT","metar":"LPPT 221230Z 27011KT 240V300 9999 FEW018 BKN022 24/18 Q1019","updated":"2025-10-22T12:38:58Z"}
