{"icao":"KORD","metar":"KORD 200351Z 27008KT 10SM CLR 09/01 A2992 RMK AO2 SLP133 T00890006 $","updated":"2025-10-20T04:24:15Z"}
