{"icao":"LPLA","metar":"LPLA 161000Z 25010KT 220V280 9999 FEW017 17/13 Q1018","updated":"2026-04-16T11:01:06Z"}
