{"icao":"LPBJ","metar":"LPBJ 130400Z 16016KT 9999 FEW022 SCT045 18/16 Q1005","updated":"2025-11-13T04:23:57Z"}
