{"icao":"LPHR","metar":"LPHR 081100Z 24019KT 9999 SCT007 18/17 Q1011","updated":"2026-02-08T11:21:32Z"}
