{"icao":"KORD","metar":"KORD 281951Z 08008KT 10SM FEW030 FEW200 BKN250 13/04 A3006 RMK AO2 SLP180 T01330044","updated":"2025-10-28T20:21:17Z"}
