{"icao":"LPCS","metar":"LPCS 110700Z 06012KT CAVOK 20/12 Q1020","updated":"2025-10-11T07:15:00Z"}
