{"icao":"KLAX","metar":"KLAX 281853Z 33003KT 10SM FEW140 SCT180 BKN250 19/M01 A3024 RMK AO2 SLP241 T01891011","updated":"2026-01-28T19:27:01Z"}
