{"icao":"LPBJ","metar":"LPBJ 221900Z 34008KT 310V010 CAVOK 21/M01 Q1016","updated":"2025-09-22T19:14:05Z"}
