{"icao":"LPMR","metar":"LPMR 200700Z 16001KT CAVOK 04/03 Q1020","updated":"2025-11-20T07:18:05Z"}
