{"icao":"LPPD","metar":"LPPD 030300Z 28005KT 9999 SCT005 BKN012 19/18 Q1016","updated":"2025-11-03T03:15:52Z"}
