{"icao":"LPPT","metar":"LPPT 221500Z VRB03KT 9999 FEW030 FEW033CB 20/14 Q1010","updated":"2026-03-22T15:24:53Z"}
