{"icao":"LPPT","metar":"LPPT 120630Z 15005KT 120V180 9999 FEW002 BKN020 12/11 Q1021","updated":"2026-01-12T06:34:53Z"}
