{"icao":"KLAX","metar":"KLAX 170353Z 24010KT 10SM FEW100 21/19 A2991 RMK AO2 SLP124 T02110189","updated":"2025-09-17T04:20:47Z"}
