{"icao":"KLAX","metar":"KLAX 141053Z 07007KT 10SM BKN011 13/12 A3008 RMK AO2 SLP182 T01330117","updated":"2026-02-14T11:21:03Z"}
