{"icao":"KJFK","metar":"KJFK 161551Z 31019G31KT 10SM FEW049 FEW075 SCT200 SCT250 14/01 A2926 RMK AO2 PK WND 30036/1516 RAB02E35 SLP909 P0000 T01440006 $","updated":"2025-11-16T16:20:20Z"}
