{"icao":"LPFL","metar":"LPFL 221400Z 19010KT 160V220 9999 VCSH FEW017 SCT034 18/12 Q1029","updated":"2025-11-22T14:15:25Z"}
