{"icao":"KJFK","metar":"KJFK 281651Z 02015KT 10SM SCT030 BKN037 BKN250 12/04 A3029 RMK AO2 SLP255 T01170044","updated":"2025-10-28T17:17:46Z"}
