{"icao":"KJFK","metar":"KJFK 081451Z 29011G17KT 10SM FEW050 SCT095 SCT130 16/00 A2991 RMK AO2 SLP128 T01560000 56003","updated":"2026-05-08T15:20:51Z"}
