{"icao":"LPLA","metar":"LPLA 261900Z 30015KT 9999 FEW020 17/14 Q1030","updated":"2026-02-26T19:42:50Z"}
