{"icao":"LPFL","metar":"LPFL 141400Z VRB06KT 3000 +DZ BR SCT008 BKN012 18/15 Q1019","updated":"2026-01-14T14:24:09Z"}
