{"icao":"LPPR","metar":"LPPR 151230Z 18013KT 140V200 3900 RA BR BKN008 SCT013TCU OVC035 10/10 Q1013","updated":"2026-01-15T12:42:52Z"}
