{"icao":"LPBJ","metar":"LPBJ 010400Z 20011KT 8000 -RA SCT007 OVC018 12/11 Q1017","updated":"2026-02-01T04:59:44Z"}
