{"icao":"LPFL","metar":"LPFL 191000Z 25006KT 9999 FEW026 13/07 Q1033","updated":"2026-01-19T10:27:37Z"}
