{"icao":"LPCS","metar":"LPCS 301030Z 18008KT 160V220 9999 FEW014 SCT022 18/13 Q1017","updated":"2026-04-30T10:54:00Z"}
