{"icao":"KLAX","metar":"KLAX 101253Z 11003KT 6SM BR OVC010 16/14 A2991 RMK AO2 SLP125 T01610139","updated":"2026-05-10T13:15:38Z"}
