{"icao":"LPBJ","metar":"LPBJ 052000Z 32007KT CAVOK 16/08 Q1015","updated":"2026-05-05T20:06:12Z"}
