{"icao":"LPPT","metar":"LPPT 290100Z 14005KT 9999 FEW012 FEW025TCU 16/15 Q1007","updated":"2025-10-29T01:25:26Z"}
