{"icao":"LPPT","metar":"LPPT 222300Z 24008KT 220V300 9999 FEW012 BKN018 22/19 Q1021","updated":"2025-10-22T23:14:49Z"}
