{"icao":"LPAZ","metar":"LPAZ 271400Z 02019G30KT 3600 BR SCT005 BKN010 FEW028TCU 18/17 Q1012 RESHRA","updated":"2025-10-27T14:19:06Z"}
