{"icao":"LPBJ","metar":"LPBJ 082300Z 32010KT CAVOK 18/14 Q1020","updated":"2026-06-09T00:03:56Z"}
