{"icao":"LPBJ","metar":"LPBJ 020700Z 09003KT 060V120 CAVOK 27/14 Q1017","updated":"2026-07-02T07:29:56Z"}
