{"icao":"LPPR","metar":"LPPR 270830Z 10007KT 070V130 CAVOK 13/03 Q1020","updated":"2026-03-27T08:51:25Z"}
