{"icao":"LPLA","metar":"LPLA 272300Z 10006KT 070V130 9999 BKN040 19/11 Q1029","updated":"2025-09-27T23:14:45Z"}
