{"icao":"KORD","metar":"KORD 161236Z 20009G17KT 1 1/2SM R10L/5500VP6000FT -SN BR OVC015 M03/M05 A2952 RMK AO2 SNB1156 P0001 T10331050 $","updated":"2026-01-16T12:42:13Z"}
