{"icao":"LPHR","metar":"LPHR 271700Z 06011KT 030V090 9999 FEW016 BKN030 20/14 Q1026","updated":"2026-06-27T17:08:00Z"}
