{"icao":"LPCS","metar":"LPCS 011900Z 21017KT 180V240 3000 -RADZ BR VV002 14/14 Q1007","updated":"2026-02-01T19:23:10Z"}
