{"icao":"LPFR","metar":"LPFR 060430Z 33006KT 310V080 CAVOK 07/M02 Q1017","updated":"2026-01-06T04:38:38Z"}
