{"icao":"LPPR","metar":"LPPR 241830Z 30005KT 240V330 9999 SCT015 FEW020CB 21/17 Q1013","updated":"2026-06-24T18:49:59Z"}
