{"icao":"LPHR","metar":"LPHR 282130Z 29013KT 7000 -SHRA FEW005 SCT009 BKN018 FEW020TCU 14/13 Q1010","updated":"2026-04-28T21:56:58Z"}
