{"icao":"LPBJ","metar":"LPBJ 201200Z 30005KT 260V350 9999 FEW025 14/06 Q1020","updated":"2025-11-20T12:38:13Z"}
