{"icao":"LPFR","metar":"LPFR 100100Z 00000KT CAVOK 18/14 Q1018","updated":"2025-10-10T01:18:22Z"}
