{"icao":"KJFK","metar":"KJFK 082151Z 00000KT 10SM SCT150 BKN250 18/09 A2981 RMK AO2 SLP094 T01780089","updated":"2026-03-08T22:21:53Z"}
