{"icao":"KJFK","metar":"KJFK 101451Z 01007KT 5SM -RA BR BKN018 BKN045 OVC140 13/11 A2966 RMK AO2 RAB04 SLP044 P0001 60001 T01280111 58010","updated":"2025-11-10T15:20:54Z"}
