{"icao":"KJFK","metar":"KJFK 270251Z 29003KT 10SM FEW050 BKN250 23/19 A2990 RMK AO2 SLP123 T02280189 51014 $","updated":"2025-09-27T03:26:02Z"}
