{"icao":"LPBJ","metar":"LPBJ 021000Z 01008KT CAVOK 16/09 Q1026","updated":"2025-11-02T10:16:53Z"}
