{"icao":"LPHR","metar":"LPHR 211700Z 21005KT 9999 FEW003 18/16 Q1021","updated":"2026-02-21T17:24:17Z"}
