{"icao":"KORD","metar":"KORD 261951Z 08010KT 10SM FEW019 BKN250 14/08 A3004 RMK AO2 SLP173 T01440078 $","updated":"2026-04-26T20:37:21Z"}
