{"icao":"KJFK","metar":"KJFK 280951Z 25014KT 10SM FEW150 01/M05 A2989 RMK AO2 SLP121 T00111050","updated":"2025-11-28T10:20:48Z"}
