{"icao":"LPCS","metar":"LPCS 050930Z 33010KT 310V010 9999 FEW014 BKN020 13/10 Q1017","updated":"2026-03-05T09:41:16Z"}
