{"icao":"LPPT","metar":"LPPT 111300Z 23018KT 1500 -DZ BR BKN002 15/15 Q1016 WS R20","updated":"2026-02-11T13:07:14Z"}
