{"icao":"LPBJ","metar":"LPBJ 311100Z 30009KT 9999 SCT030 13/08 Q1022","updated":"2026-01-31T11:19:58Z"}
