{"icao":"LPPI","metar":"LPPI 142030Z 24013KT 9999 FEW018 21/16 Q1021","updated":"2026-06-15T00:08:46Z"}
