{"icao":"KJFK","metar":"KJFK 311751Z 19013KT 10SM BKN080 BKN190 BKN250 19/09 A2996 RMK AO2 SLP146 T01940089 10222 20144 58024 $","updated":"2026-05-31T18:00:11Z"}
