{"icao":"KLAX","metar":"KLAX 070153Z 26014KT 10SM CLR 17/12 A3001 RMK AO2 SLP161 T01720122","updated":"2026-05-07T02:45:14Z"}
