{"icao":"LPST","metar":"LPST 281000Z 14012KT 7000 -SHRA BKN009 BKN012 20/17 Q1014","updated":"2025-10-28T10:20:27Z"}
