{"icao":"LPPS","metar":"LPPS 032300Z 06006KT 020V090 9999 SCT015 21/18 Q1026","updated":"2025-10-03T23:15:08Z"}
