{"icao":"LPMT","metar":"LPMT 040800Z 29004KT 270V340 9999 FEW008 BKN028 14/14 Q1022","updated":"2025-12-04T08:27:46Z"}
