{"icao":"LPST","metar":"LPST 211100Z 26011KT 6000 BKN006 BKN012 21/19 Q1015","updated":"2025-10-21T11:14:57Z"}
