{"icao":"LPBJ","metar":"LPBJ 231600Z 30008KT 9999 FEW030 16/09 Q1025","updated":"2025-11-23T16:21:08Z"}
