{"icao":"LPMR","metar":"LPMR 281500Z 33012KT 290V010 9999 FEW018 22/16 Q1020","updated":"2026-05-28T15:50:15Z"}
