{"icao":"LPAZ","metar":"LPAZ 301630Z 22009KT 2000 BR FEW001 BKN002 20/19 Q1026","updated":"2026-05-30T17:02:16Z"}
