{"icao":"LPOV","metar":"LPOV 231100Z 16008KT 130V190 4000 -DZ BR BKN009 BKN015 12/12 Q1026","updated":"2025-11-23T12:32:48Z"}
