{"icao":"KORD","metar":"KORD 302051Z 05010KT 10SM SCT047 SCT250 12/03 A2983 RMK AO2 SLP102 T01220028 55010 $","updated":"2025-10-30T21:16:27Z"}
