{"icao":"KJFK","metar":"KJFK 081551Z 35018G23KT 10SM BKN015 BKN085 BKN160 18/16 A2997 RMK AO2 RAE1455 SLP148 CIG 013V017 P0000 T01780156","updated":"2025-10-08T16:22:33Z"}
