{"icao":"LPPD","metar":"LPPD 201130Z 36016G26KT 330V030 9999 SCT030 13/06 Q1019","updated":"2026-04-20T12:03:00Z"}
