{"icao":"LPPS","metar":"LPPS 211400Z 29018G29KT 9999 VCSH SCT006 BKN010 17/15 Q1019","updated":"2026-01-21T14:30:04Z"}
