{"icao":"LPPD","metar":"LPPD 210100Z 04009KT 010V070 9999 FEW018 BKN040 15/12 Q1030","updated":"2025-11-21T01:23:09Z"}
