{"icao":"LPCS","metar":"LPCS 201800Z 23007KT 9999 FEW006 BKN013 20/18 Q1015","updated":"2025-10-20T18:27:04Z"}
