{"icao":"LPMT","metar":"LPMT 021700Z 15009KT 6000 -TSRA SCT012 SCT020CB BKN030 14/13 Q0999 RERA","updated":"2026-01-02T17:16:45Z"}
