{"icao":"LPMR","metar":"LPMR 130500Z 18014KT 0800 +TSRA SCT014 SCT022CB 17/16 Q1000","updated":"2025-11-13T05:18:51Z"}
