{"icao":"LPBJ","metar":"LPBJ 242200Z 27010KT 9999 BKN006 OVC014 15/15 Q1018","updated":"2025-11-24T22:17:44Z"}
