{"icao":"LPBJ","metar":"LPBJ 120600Z 10007KT CAVOK 16/11 Q1016","updated":"2025-10-12T06:23:30Z"}
