{"icao":"LPPT","metar":"LPPT 021900Z 33008KT CAVOK 15/11 Q1025","updated":"2025-11-02T19:12:28Z"}
