{"icao":"LPPR","metar":"LPPR 240700Z 23011KT 200V260 4000 -RADZ BR SCT004 BKN006 15/15 Q1014 RERA","updated":"2025-11-24T07:18:45Z"}
