{"icao":"LPMR","metar":"LPMR 250800Z 35004KT 9999 FEW020 SCT040 10/06 Q1022","updated":"2025-11-25T08:26:46Z"}
