{"icao":"LPFR","metar":"LPFR 012100Z 27006KT CAVOK 20/18 Q1019","updated":"2025-10-01T21:15:24Z"}
