{"icao":"LPPT","metar":"LPPT 101500Z VRB03KT 9999 FEW015 28/12 Q1019","updated":"2025-10-10T15:17:40Z"}
