{"icao":"KJFK","metar":"KJFK 011751Z 18014KT 10SM FEW055 29/21 A2999 RMK SLP156 T02890211 10306 20244 55000 $ ","updated":"2026-07-01T17:53:51Z"}
