{"icao":"LPMT","metar":"LPMT 170700Z 05004KT 9999 FEW018 11/10 Q1019","updated":"2026-04-17T07:44:25Z"}
