{"icao":"LPFL","metar":"LPFL 262100Z 31004KT 260V010 9999 FEW016 15/10 Q1033","updated":"2026-02-27T01:58:19Z"}
