{"icao":"KJFK","metar":"KJFK 010351Z 04011G18KT 10SM FEW060 BKN250 19/13 A3007 RMK AO2 SLP183 T01890133 $","updated":"2025-10-01T04:21:10Z"}
