{"icao":"LPHR","metar":"LPHR 031130Z 06019KT 9999 FEW018 18/11 Q1022","updated":"2026-05-03T11:40:46Z"}
