{"icao":"LPMA","metar":"LPMA 131730Z 03007KT 310V080 9999 SCT016 18/08 Q1026","updated":"2026-02-13T17:38:37Z"}
