{"icao":"LPFR","metar":"LPFR 271100Z 06015G25KT 050V110 3000 R10/1100D +RA BR FEW006 SCT012 FEW018CB BKN020 09/08 Q1008","updated":"2025-12-27T11:15:36Z"}
