{"icao":"LPOV","metar":"LPOV 140500Z VRB01KT 8000 NSC 12/11 Q1016","updated":"2025-10-14T05:16:48Z"}
