{"icao":"KLAX","metar":"KLAX 080353Z 24006KT 10SM BKN012 18/15 A2990 RMK AO2 SLP122 T01780150 $","updated":"2025-10-08T04:20:28Z"}
