{"icao":"LPAR","metar":"LPAR 171700Z 04003KT CAVOK 15/10 Q1021","updated":"2025-12-18T06:31:08Z"}
