{"icao":"LPLA","metar":"LPLA 291333Z 13012KT 9999 FEW009 BKN018 15/12 Q1035","updated":"2026-03-29T13:52:39Z"}
