{"icao":"LPFR","metar":"LPFR 021230Z 32010KT 270V360 9999 FEW018 17/06 Q1019","updated":"2025-12-02T12:41:06Z"}
