{"icao":"KORD","metar":"KORD 010551Z 06007KT 10SM BKN030 BKN042 OVC065 05/03 A2995 RMK AO2 RAE48 SLP147 P0007 60015 T00500033 10061 20050 401330028 58008","updated":"2026-05-01T06:15:49Z"}
