{"icao":"LPBJ","metar":"LPBJ 011622Z 23011KT 9999 BKN007 BKN015 15/15 Q1011","updated":"2026-02-01T16:28:23Z"}
