{"icao":"KORD","metar":"KORD 180251Z 11005KT 10SM SCT110 05/M03 A3006 RMK AO2 SLP182 T00501028 58000","updated":"2025-11-18T03:11:30Z"}
