{"icao":"KORD","metar":"KORD 081751Z 16008KT 10SM FEW030 FEW120 BKN250 M05/M14 A3032 RMK AO2 SLP278 4/008 933009 T10501139 11050 21083 58017","updated":"2025-12-08T18:30:05Z"}
