{"icao":"LPPR","metar":"LPPR 110100Z 11009KT CAVOK 20/09 Q1021","updated":"2025-10-11T01:15:34Z"}
