{"icao":"LPAR","metar":"LPAR 041500Z VRB05KT 9999 FEW035 17/10 Q1021","updated":"2025-12-04T15:22:19Z"}
