{"icao":"LPPT","metar":"LPPT 152100Z 32013KT CAVOK 18/14 Q1021","updated":"2025-09-15T21:15:02Z"}
