{"icao":"LPPR","metar":"LPPR 062000Z 35014KT CAVOK 12/04 Q1020","updated":"2026-03-06T20:30:22Z"}
