{"icao":"LPBJ","metar":"LPBJ 271700Z 30014KT CAVOK 29/16 Q1019","updated":"2026-06-27T17:07:59Z"}
