{"icao":"LPPT","metar":"LPPT 260700Z 33004KT 300V360 9999 FEW010 15/13 Q1016","updated":"2025-10-26T07:15:25Z"}
