{"icao":"LPFL","metar":"LPFL 291800Z 32003KT 280V360 9999 FEW008 23/19 Q1020","updated":"2025-09-29T18:26:35Z"}
