{"icao":"KORD","metar":"KORD 212151Z 27011G21KT 10SM BKN060 24/11 A2984 RMK AO2 PK WND 26026/2139 SLP101 T02440111 $","updated":"2026-04-21T22:37:14Z"}
