{"icao":"LPMA","metar":"LPMA 122100Z 01017G32KT 310V090 8000 SHRA BKN015 SCT018CB 13/10 Q1021 RESHRA","updated":"2025-12-12T21:17:45Z"}
