{"icao":"LPMR","metar":"LPMR 080400Z 12006KT 090V150 CAVOK 08/07 Q1015","updated":"2026-04-08T05:09:41Z"}
