{"icao":"LPFR","metar":"LPFR 151330Z 21009KT CAVOK 20/12 Q1022","updated":"2026-04-15T13:52:53Z"}
