{"icao":"KJFK","metar":"KJFK 132051Z 04020G30KT 9SM -RA FEW008 BKN011 OVC036 15/13 A2991 RMK AO2 PK WND 03032/2009 SLP129 P0000 60000 T01500133 53005","updated":"2025-10-13T21:15:19Z"}
