{"icao":"LPMT","metar":"LPMT 222300Z 35004KT CAVOK 22/16 Q1014","updated":"2026-06-23T00:04:05Z"}
