{"icao":"KJFK","metar":"KJFK 242251Z 00000KT 10SM FEW170 BKN250 08/M02 A3026 RMK AO2 SLP248 T00781022","updated":"2025-11-24T23:17:26Z"}
