{"icao":"LPLA","metar":"LPLA 060700Z VRB02KT 9999 SCT030 BKN045 13/07 Q1032","updated":"2026-01-06T07:24:34Z"}
