{"icao":"LPMA","metar":"LPMA 212100Z 35006KT 300V030 9999 SCT014 23/18 Q1021","updated":"2025-10-21T21:16:56Z"}
