{"icao":"KJFK","metar":"KJFK 180551Z 30011G19KT 10SM SCT055 04/M07 A3001 RMK AO2 SLP163 T00391067 10056 20039 51011 $","updated":"2025-11-18T06:28:09Z"}
