{"icao":"KLAX","metar":"KLAX 210853Z 00000KT 9SM CLR 17/16 A3005 RMK AO2 SLP175 T01670156 50001","updated":"2025-10-21T09:20:10Z"}
