{"icao":"LPFL","metar":"LPFL 091600Z 34004KT 270V070 9999 FEW024 20/13 Q1024","updated":"2025-11-09T16:20:01Z"}
