{"icao":"LPLA","metar":"LPLA 080100Z 17021KT 6000 -RA SCT007 BKN015 BKN025 17/16 Q1000 RERA","updated":"2025-12-08T01:27:00Z"}
