{"icao":"LPFL","metar":"LPFL 221300Z 02004KT 330V070 8000 -RA FEW015 SCT022 19/17 Q1009 RERA","updated":"2025-10-22T13:32:04Z"}
