{"icao":"LPFR","metar":"LPFR 262000Z 30004KT 280V010 9999 FEW015 20/18 Q1018","updated":"2025-10-26T20:18:44Z"}
