{"icao":"KLAX","metar":"KLAX 251853Z 01004KT 10SM FEW025 22/06 A3008 RMK AO2 SLP186 T02220056","updated":"2025-11-25T19:16:54Z"}
