{"icao":"LPFL","metar":"LPFL 251330Z VRB02KT 6000 -RADZ SCT005 SCT008 16/14 Q1020","updated":"2026-05-25T13:58:02Z"}
