{"icao":"LPHR","metar":"LPHR 152000Z 32009KT 290V030 9999 SCT016 14/08 Q1031","updated":"2026-01-15T20:24:23Z"}
