{"icao":"KORD","metar":"KORD 041551Z 23008KT 10SM CLR 26/16 A3013 RMK AO2 SLP196 T02610161 $","updated":"2025-10-04T16:18:49Z"}
