{"icao":"LPMA","metar":"LPMA 302000Z 35003KT 310V040 9999 SCT015 20/15 Q1024","updated":"2026-01-30T20:28:35Z"}
