{"icao":"LPHR","metar":"LPHR 111300Z 31024G35KT 9000 SHRA SCT016 FEW018TCU 18/08 Q1006","updated":"2025-11-11T13:29:55Z"}
