{"icao":"LPOV","metar":"LPOV 231700Z 29006KT 250V340 CAVOK 21/17 Q1020","updated":"2026-05-23T17:59:24Z"}
