{"icao":"LPAR","metar":"LPAR 121700Z 22011KT 9999 FEW025 BKN035 16/12 Q1017","updated":"2026-02-13T05:58:36Z"}
