{"icao":"LPPR","metar":"LPPR 032230Z 34007KT 9999 FEW019 SCT040 14/10 Q1015","updated":"2026-05-03T22:39:19Z"}
