{"icao":"LPPT","metar":"LPPT 061100Z VRB05G21KT CAVOK 23/14 Q1021","updated":"2025-10-06T11:14:43Z"}
