{"icao":"LPFL","metar":"LPFL 221230Z 34008KT 290V010 6000 RA FEW012 BKN018 FEW019TCU 19/17 Q1009 RERA","updated":"2025-10-22T12:39:03Z"}
