{"icao":"LPOV","metar":"LPOV 130700Z 16011KT 130V190 6000 -TSRA SCT016 SCT022CB BKN025 15/14 Q0999","updated":"2025-11-13T07:18:10Z"}
