{"icao":"LPLA","metar":"LPLA 241400Z 31028KT 9999 SCT025 16/09 Q1015","updated":"2026-02-24T14:48:22Z"}
