{"icao":"LPOV","metar":"LPOV 031500Z 04009KT 360V070 9999 FEW030 21/M06 Q1013","updated":"2026-03-03T15:46:33Z"}
