{"icao":"LPBJ","metar":"LPBJ 050800Z 33008KT CAVOK 05/02 Q1009","updated":"2026-01-05T08:31:46Z"}
