{"icao":"LPPT","metar":"LPPT 170500Z VRB02KT CAVOK 16/08 Q1013","updated":"2025-10-17T05:17:01Z"}
