{"icao":"LPMR","metar":"LPMR 230700Z 18001KT 110V260 CAVOK 08/07 Q1019","updated":"2025-09-23T07:17:28Z"}
