{"icao":"LPCS","metar":"LPCS 311830Z 36014KT CAVOK 19/11 Q1022","updated":"2026-03-31T19:01:30Z"}
