{"icao":"KJFK","metar":"KJFK 110951Z 29016G27KT 10SM SCT033 SCT065 03/M02 A2948 RMK AO2 PK WND 28031/0938 SLP983 T00331022","updated":"2025-12-11T10:23:13Z"}
