{"icao":"LPPR","metar":"LPPR 251030Z 28005KT 250V310 CAVOK 19/13 Q1018","updated":"2026-04-25T10:41:44Z"}
