{"icao":"LPPD","metar":"LPPD 221230Z 32020G33KT 9999 FEW016 16/12 Q1017","updated":"2026-01-22T12:47:09Z"}
