{"icao":"KJFK","metar":"KJFK 011251Z 26013KT 10SM FEW014 FEW060 BKN250 10/02 A2991 RMK AO2 SLP126 T01000017 $","updated":"2025-11-01T13:22:49Z"}
