{"icao":"KJFK","metar":"KJFK 200851Z 29012G20KT 10SM FEW250 M06/M16 A3019 RMK AO2 SLP223 T10611156 51023 $","updated":"2026-01-20T09:31:36Z"}
