{"icao":"KLAX","metar":"KLAX 170453Z 14003KT 10SM CLR 18/13 A2988 RMK AO2 SLP115 T01830128 $","updated":"2025-10-17T05:17:20Z"}
