{"icao":"LPOV","metar":"LPOV 101400Z 31005KT 270V340 CAVOK 24/12 Q1021","updated":"2025-10-10T14:17:17Z"}
