{"icao":"LPAZ","metar":"LPAZ 011200Z 04011KT 010V080 9999 BKN045 19/11 Q1020","updated":"2025-11-01T12:33:07Z"}
