{"icao":"LPLA","metar":"LPLA 160700Z 24011KT 9999 FEW017 SCT040 15/11 Q1018","updated":"2026-04-16T07:44:07Z"}
