{"icao":"LPMA","metar":"LPMA 271330Z 03009KT 360V090 9999 SCT014 20/12 Q1016","updated":"2026-01-27T13:45:46Z"}
