{"icao":"LPLA","metar":"LPLA 101500Z 23015KT 190V260 9999 FEW016 SCT022 19/15 Q1012","updated":"2025-11-10T15:20:52Z"}
