{"icao":"LPPR","metar":"LPPR 191330Z 23005KT 180V310 9999 2000W BCFG SCT007 17/14 Q1016","updated":"2026-04-19T14:02:27Z"}
