{"icao":"KLAX","metar":"KLAX 161853Z 24007KT 10SM SCT011 21/14 A2999 RMK AO2 SLP155 T02060144 $","updated":"2026-06-16T19:33:26Z"}
