{"icao":"LPPD","metar":"LPPD 272200Z 09010KT 050V110 9999 FEW025 14/09 Q1019","updated":"2025-12-27T22:17:48Z"}
