{"icao":"LPCS","metar":"LPCS 232100Z 02011KT CAVOK 15/11 Q1016","updated":"2026-03-23T21:35:19Z"}
