{"icao":"LPOV","metar":"LPOV 120600Z 00000KT CAVOK 14/10 Q1017","updated":"2025-10-12T06:23:29Z"}
