{"icao":"LPBJ","metar":"LPBJ 300500Z 06007KT CAVOK 08/M01 Q1029","updated":"2026-03-30T05:22:51Z"}
