{"icao":"LPPT","metar":"LPPT 290000Z 36006KT 330V050 9999 FEW018 18/14 Q1023","updated":"2026-06-29T00:07:25Z"}
