{"icao":"LPST","metar":"LPST 061500Z 21010KT 170V240 CAVOK 26/15 Q1020","updated":"2025-10-06T15:17:59Z"}
