{"icao":"LPST","metar":"LPST 281600Z 33008KT 290V350 9999 SCT027 14/08 Q1022","updated":"2025-11-28T16:23:21Z"}
