{"icao":"LPCS","metar":"LPCS 240900Z 27009KT 230V300 9999 SCT014 SCT026 16/15 Q1020","updated":"2025-11-24T09:23:00Z"}
