{"icao":"KJFK","metar":"KJFK 180851Z 22005KT 1/4SM R04R/1000V1200FT FG VV002 01/01 A3002 RMK AO2 SLP167 T00060006 58017 $","updated":"2026-02-18T09:46:19Z"}
