{"icao":"LPFR","metar":"LPFR 280130Z 32010KT CAVOK 13/09 Q1022","updated":"2026-02-28T01:48:25Z"}
