{"icao":"LPPT","metar":"LPPT 250330Z 25015KT 5000 -RADZ FEW006 BKN012 13/12 Q1014","updated":"2026-01-25T03:52:59Z"}
