{"icao":"LPPD","metar":"LPPD 171700Z 23009KT 9999 SCT016 22/19 Q1013","updated":"2025-10-17T17:15:11Z"}
