{"icao":"LPMT","metar":"LPMT 081400Z 20010KT 170V260 9999 SCT030 20/08 Q1008","updated":"2026-05-08T15:20:20Z"}
