{"icao":"LPAZ","metar":"LPAZ 211100Z 22016KT 9000 SCT005 24/22 Q1017","updated":"2025-10-21T11:15:01Z"}
