{"icao":"KJFK","metar":"KJFK 091851Z 15012KT 10SM SCT020 SCT250 08/01 A3057 RMK AO2 SLP353 T00780011","updated":"2026-04-09T19:05:07Z"}
