{"icao":"LPBJ","metar":"LPBJ 031400Z 26008KT 230V310 9999 SCT040 19/10 Q1014","updated":"2026-05-03T14:47:17Z"}
