{"icao":"LPBJ","metar":"LPBJ 291500Z 26008KT 210V290 CAVOK 34/10 Q1019","updated":"2026-05-29T15:24:54Z"}
