{"icao":"KJFK","metar":"KJFK 170651Z 29019G26KT 10SM BKN060 BKN070 04/M06 A2958 RMK AO2 PK WND 28034/0616 SLP017 T00391061 $","updated":"2025-11-17T07:18:55Z"}
