{"icao":"LPPD","metar":"LPPD 061900Z 08004KT 050V110 9999 FEW025 BKN045 14/06 Q1034","updated":"2026-01-06T19:16:16Z"}
