{"icao":"LPFL","metar":"LPFL 242100Z 19005KT 140V260 9999 FEW010 SCT016 20/17 Q1025","updated":"2025-11-25T07:18:46Z"}
