{"icao":"LPPR","metar":"LPPR 130430Z 29010KT 260V330 9999 -SHRA SCT006 BKN011 FEW018CB 13/11 Q0996","updated":"2026-02-13T04:51:19Z"}
