{"icao":"LPMR","metar":"LPMR 250600Z 17006KT 9999 TS FEW018 FEW025CB BKN030 19/17 Q1012","updated":"2025-10-25T06:23:53Z"}
