{"icao":"LPST","metar":"LPST 161300Z 31008KT 9999 FEW009 SCT018 FEW022CB 12/08 Q1013","updated":"2026-01-16T13:36:51Z"}
