{"icao":"LPAZ","metar":"LPAZ 051800Z 05012KT 010V070 9999 SCT022 SCT032 17/09 Q1025","updated":"2026-05-05T18:09:33Z"}
