{"icao":"KLAX","metar":"KLAX 061853Z 19006KT 10SM BKN025 21/14 A2988 RMK AO2 SLP116 T02110144 $","updated":"2026-06-06T19:20:31Z"}
