{"icao":"LPPS","metar":"LPPS 101600Z 27009KT 240V300 9999 SCT008 20/16 Q1023","updated":"2026-02-10T16:09:16Z"}
