{"icao":"LPPT","metar":"LPPT 272200Z 36005KT 340V040 9999 FEW022 BKN026 11/08 Q1026","updated":"2026-02-27T22:21:26Z"}
