{"icao":"LPAZ","metar":"LPAZ 201730Z 03026G39KT 9000 FEW018 SCT025 16/11 Q1004","updated":"2026-03-20T17:34:39Z"}
