{"icao":"LPPR","metar":"LPPR 191530Z 13005KT 090V160 9999 FEW030TCU 22/08 Q1006","updated":"2026-03-19T15:53:26Z"}
