{"icao":"LPHR","metar":"LPHR 270700Z 33011G22KT 280V020 9000 VCSH SCT012 17/12 Q1022","updated":"2025-11-27T07:19:44Z"}
