{"icao":"LPPS","metar":"LPPS 191400Z 32008KT 270V350 9999 FEW006 SCT030 24/20 Q1018","updated":"2025-10-19T14:14:58Z"}
