{"icao":"LPOV","metar":"LPOV 100900Z 22015KT 6000 -SHRA BKN005 15/15 Q1011 RERA","updated":"2026-02-10T09:59:36Z"}
