{"icao":"KLAX","metar":"KLAX 031853Z 27007KT 10SM FEW031 SCT037 BKN044 18/10 A2996 RMK AO2 SLP145 T01830100","updated":"2026-05-03T18:57:49Z"}
