{"icao":"LPHR","metar":"LPHR 171400Z 29011KT 9999 SCT005 SCT007 BKN025 20/19 Q1023","updated":"2025-11-17T14:19:08Z"}
