{"icao":"LPBJ","metar":"LPBJ 091600Z 19015KT 4000 -RA OVC035 16/14 Q1018","updated":"2025-12-09T16:26:36Z"}
