{"icao":"KLAX","metar":"KLAX 290653Z 10003KT 4SM BR FEW004 BKN007 BKN270 14/13 A3002 RMK AO2 SLP164 T01440133 $","updated":"2025-11-29T07:16:57Z"}
