{"icao":"LPFR","metar":"LPFR 090430Z 26004KT 9999 SCT044 11/09 Q1022","updated":"2026-03-09T04:49:47Z"}
