{"icao":"KJFK","metar":"KJFK 031251Z 12003KT 10SM BKN120 OVC250 11/08 A3020 RMK AO2 SLP226 T01060078 $","updated":"2025-11-03T13:29:59Z"}
