{"icao":"LPPR","metar":"LPPR 282000Z 35007KT CAVOK 20/15 Q1016","updated":"2025-09-28T20:17:17Z"}
