{"icao":"KORD","metar":"KORD 230751Z 23006KT 10SM BKN050 BKN110 OVC250 21/17 A2987 RMK AO2 SLP110 FRQ LTGIC DSNT NW CB DSNT NW MOV E T02110172","updated":"2025-09-23T08:22:52Z"}
