{"icao":"KORD","metar":"KORD 281851Z 10010KT 10SM BKN250 13/04 A3007 RMK AO2 SLP184 T01280039","updated":"2025-10-28T19:15:24Z"}
