{"icao":"KLAX","metar":"KLAX 050753Z VRB03KT 9SM OVC011 14/12 A2994 RMK AO2 SLP137 T01440117 401830122","updated":"2026-03-05T08:39:49Z"}
