{"icao":"KORD","metar":"KORD 150351Z 24004KT 10SM BKN240 03/M01 A2996 RMK AO2 SLP151 T00281006 $","updated":"2026-02-15T04:52:46Z"}
