{"icao":"LPPR","metar":"LPPR 271300Z 11008KT 070V150 CAVOK 12/02 Q1012","updated":"2025-12-27T13:27:06Z"}
