{"icao":"LPLA","metar":"LPLA 231500Z 01006KT 340V070 9999 BKN030 15/07 Q1026","updated":"2026-03-23T15:58:37Z"}
