{"icao":"KORD","metar":"KORD 201351Z 13006KT 10SM FEW038 SCT250 07/M02 A3036 RMK AO2 SLP283 T00671017","updated":"2026-04-20T14:49:50Z"}
