{"icao":"LPPD","metar":"LPPD 102000Z 21014KT 9999 FEW008 SCT016 17/15 Q1022","updated":"2026-01-10T20:20:51Z"}
