{"icao":"LPMR","metar":"LPMR 140800Z 34006KT 9000 SCT002 BKN006 19/18 Q1024","updated":"2025-09-14T08:19:56Z"}
