{"icao":"LPBJ","metar":"LPBJ 290600Z 20006KT 4000 VCFG SCT005 03/03 Q1020","updated":"2025-11-29T06:26:51Z"}
