{"icao":"LPPR","metar":"LPPR 121630Z 20012KT 3800 -RADZ BR BKN007 BKN013 14/12 Q1015","updated":"2026-02-12T16:56:50Z"}
