{"icao":"KJFK","metar":"KJFK 262251Z 06005KT 10SM FEW080 SCT250 12/M01 A3036 RMK AO2 SLP281 T01171011","updated":"2025-10-26T23:16:23Z"}
