{"icao":"KLAX","metar":"KLAX 101853Z 26010KT 10SM SCT013 BKN100 BKN280 18/13 A3000 RMK AO2 SLP157 T01830133","updated":"2026-04-10T19:42:46Z"}
