{"icao":"KJFK","metar":"KJFK 190751Z 30007KT 10SM FEW250 20/14 A2993 RMK AO2 SLP135 T02000139 $","updated":"2025-09-19T08:23:03Z"}
