{"icao":"LPMT","metar":"LPMT 261200Z 03007KT 360V060 CAVOK 14/07 Q1025","updated":"2025-11-26T12:40:31Z"}
