{"icao":"LPMT","metar":"LPMT 170100Z 11005KT CAVOK 12/08 Q1014","updated":"2026-03-17T02:01:35Z"}
