{"icao":"LPCS","metar":"LPCS 022000Z 01015KT CAVOK 19/14 Q1021","updated":"2025-10-02T20:18:38Z"}
