{"icao":"LPFR","metar":"LPFR 021500Z 13016KT 5000 -SHRA BR FEW020 FEW025TCU SCT045 17/14 Q1002","updated":"2026-01-02T15:20:24Z"}
