{"icao":"LPMR","metar":"LPMR 122000Z 34012KT 9999 SCT020 12/07 Q1022","updated":"2026-04-12T20:34:42Z"}
