{"icao":"LPPT","metar":"LPPT 121830Z 32014KT CAVOK 29/13 Q1016","updated":"2026-06-12T19:02:52Z"}
