{"icao":"LPPT","metar":"LPPT 170100Z 34012KT CAVOK 12/09 Q1018","updated":"2025-12-17T01:24:34Z"}
