{"icao":"LPHR","metar":"LPHR 061530Z 26025KT 7000 SCT008 SCT012 FEW015CB BKN030 17/14 Q1006","updated":"2026-02-06T15:38:36Z"}
