{"icao":"LPMA","metar":"LPMA 151330Z 11004KT 060V170 9999 FEW016 20/12 Q1019","updated":"2025-12-15T13:39:49Z"}
