{"icao":"LPBJ","metar":"LPBJ 031900Z 31009KT CAVOK 24/10 Q1021","updated":"2025-10-03T19:13:42Z"}
