{"icao":"LPMA","metar":"LPMA 220500Z 35007KT 320V030 9999 BKN015 19/16 Q1021","updated":"2025-09-22T05:17:45Z"}
