{"icao":"KORD","metar":"KORD 161503Z 22013KT 6SM -SN BR BKN014 OVC019 M02/M04 A2950 RMK AO2 P0000 T10221044 $","updated":"2026-01-16T15:22:35Z"}
