{"icao":"LPMA","metar":"LPMA 091400Z 36011KT 330V030 4000 RA BR SCT005 BKN014 19/18 Q1018","updated":"2025-12-09T14:20:58Z"}
