{"icao":"KORD","metar":"KORD 160251Z 04008KT 10SM FEW025 BKN045 BKN100 15/09 A3022 RMK AO2 SLP233 T01500094 53008","updated":"2025-10-16T03:02:08Z"}
