{"icao":"LPAZ","metar":"LPAZ 280800Z 35020KT 8000 SCT014 BKN020 BKN049 17/16 Q1014","updated":"2025-10-28T08:25:08Z"}
