{"icao":"KORD","metar":"KORD 071851Z 20007KT 8SM FEW008 SCT250 03/00 A2989 RMK AO2 SLP127 T00330000","updated":"2026-01-07T19:19:22Z"}
