{"icao":"LPBJ","metar":"LPBJ 271100Z 08011KT CAVOK 07/04 Q1009","updated":"2025-12-27T11:15:38Z"}
