{"icao":"LPFR","metar":"LPFR 081100Z 33010KT 300V360 CAVOK 24/11 Q1021","updated":"2025-10-08T11:14:29Z"}
