{"icao":"KJFK","metar":"KJFK 041151Z 29019G25KT 10SM FEW037 FEW250 09/00 A3004 RMK AO2 PK WND 30028/1125 SLP171 70001 T00940000 10117 20089 51019 $","updated":"2025-11-04T12:41:23Z"}
