{"icao":"KJFK","metar":"KJFK 271851Z 28015G23KT 10SM SCT050 BKN210 BKN250 07/M06 A2989 RMK AO2 PK WND 28028/1755 SLP121 T00721056","updated":"2025-11-27T19:14:50Z"}
