{"icao":"LPCS","metar":"LPCS 241730Z 22005KT 180V260 CAVOK 25/11 Q1019","updated":"2026-05-24T18:04:30Z"}
