{"icao":"LPMR","metar":"LPMR 181700Z 32006KT 290V350 CAVOK 20/12 Q1016","updated":"2026-04-18T17:35:14Z"}
