{"icao":"KJFK","metar":"KJFK 181951Z 11014G22KT 10SM SCT012 BKN180 BKN250 14/10 A3003 RMK SLP167 T01440100 ","updated":"2026-04-18T20:35:43Z"}
