{"icao":"KLAX","metar":"KLAX 081453Z 00000KT 10SM FEW006 FEW250 12/10 A3015 RMK AO2 SLP207 T01220100 53007 $","updated":"2025-12-08T15:22:27Z"}
