{"icao":"LPLA","metar":"LPLA 151908Z 07005KT 030V100 9999 FEW009 BKN018 BKN032 15/13 Q1027","updated":"2026-03-15T19:26:42Z"}
