{"icao":"KJFK","metar":"KJFK 131151Z 11003KT 10SM FEW010 FEW055 BKN090 BKN250 18/17 A3018 RMK AO2 SLP220 T01830167 10183 20156 53002 $","updated":"2025-09-13T12:31:35Z"}
