{"icao":"KORD","metar":"KORD 301051Z 33003KT 10SM FEW080 03/02 A3002 RMK AO2 SLP169 T00330022","updated":"2026-04-30T10:54:17Z"}
