{"icao":"KJFK","metar":"KJFK 091951Z 11010KT 5SM -RA BR BKN005 OVC025 15/14 A2974 RMK AO2 RAE07B30 SLP070 P0002 T01500144 $","updated":"2025-11-09T20:17:53Z"}
