{"icao":"LPPR","metar":"LPPR 102300Z 11006KT 9999 MIFG NSC 10/10 Q1022","updated":"2025-12-10T23:16:39Z"}
