{"icao":"LPPT","metar":"LPPT 292300Z 32003KT 290V020 9999 FEW012 17/15 Q1013","updated":"2025-10-29T23:16:47Z"}
