{"icao":"LPFR","metar":"LPFR 070130Z 29006KT CAVOK 12/06 Q1017","updated":"2026-03-07T01:52:19Z"}
