{"icao":"KJFK","metar":"KJFK 241951Z 34008KT 10SM SCT250 11/M03 A3022 RMK AO2 SLP233 T01111028","updated":"2025-11-24T20:21:58Z"}
