{"icao":"LPPT","metar":"LPPT 181700Z 20013KT 9999 SCT014 BKN030 15/12 Q1020","updated":"2025-12-18T17:21:55Z"}
