{"icao":"LPMA","metar":"LPMA 122200Z VRB03KT 9999 FEW015 16/13 Q1016","updated":"2026-01-12T22:17:50Z"}
