{"icao":"LPLA","metar":"LPLA 260400Z 14038G50KT 4000 RA SCT004 BKN010 21/21 Q0995","updated":"2025-09-26T04:20:54Z"}
