{"icao":"LPMT","metar":"LPMT 100700Z 04005KT CAVOK 16/14 Q1020","updated":"2025-10-10T07:16:56Z"}
