{"icao":"LPFL","metar":"LPFL 281900Z 29010G22KT 230V360 9999 VCSH FEW012 FEW015CB 16/12 Q1003","updated":"2026-01-28T19:27:01Z"}
