{"icao":"LPMA","metar":"LPMA 212300Z 35008KT 260V070 9999 -SHRA BKN015 16/11 Q1021","updated":"2025-12-21T23:17:49Z"}
