{"icao":"LPOV","metar":"LPOV 241900Z 31003KT 270V360 9999 SCT030 20/18 Q1020","updated":"2026-05-24T20:03:30Z"}
