{"icao":"LPAZ","metar":"LPAZ 231930Z 36009KT 340V040 9999 SCT008 22/19 Q1021","updated":"2026-06-23T20:02:43Z"}
