{"icao":"KJFK","metar":"KJFK 232351Z 36005KT 10SM FEW020 FEW046 SCT100 BKN180 BKN230 20/17 A2990 RMK RAE34 SLP123 P0000 60003 T02000167 10217 20200 53016 ","updated":"2026-06-23T23:59:12Z"}
