{"icao":"LPPR","metar":"LPPR 161100Z 22009KT 190V260 9999 -SHRA SCT014 SCT018CB BKN040 15/13 Q1008","updated":"2025-11-16T11:13:21Z"}
