{"icao":"LPMT","metar":"LPMT 060900Z 26011KT 8000 -SHRA FEW025 BKN040 14/13 Q1018","updated":"2025-11-06T09:20:09Z"}
