{"icao":"LPOV","metar":"LPOV 080500Z 00000KT 9999 MIFG FEW012 12/12 Q1022","updated":"2026-06-08T05:48:28Z"}
