{"icao":"LPCS","metar":"LPCS 240600Z 26007KT 230V290 9999 FEW003 BKN008 21/20 Q1017","updated":"2025-10-24T06:26:05Z"}
