{"icao":"LPPD","metar":"LPPD 030500Z 29007KT 9999 FEW006 SCT016 19/18 Q1015","updated":"2025-11-03T05:18:57Z"}
