{"icao":"KORD","metar":"KORD 151951Z 19016G22KT 10SM CLR 22/09 A2986 RMK AO2 SLP109 T02170089","updated":"2026-05-15T20:16:05Z"}
