{"icao":"LPCS","metar":"LPCS 142000Z 04003KT 9999 FEW035 13/10 Q1017","updated":"2025-12-14T20:20:08Z"}
