{"icao":"KORD","metar":"KORD 202251Z 24003KT 9SM OVC014 09/06 A3003 RMK AO2 SLP171 T00890056","updated":"2025-11-20T23:17:44Z"}
