{"icao":"LPMT","metar":"LPMT 240100Z 28005KT 250V320 6000 -RADZ FEW009 BKN025 14/14 Q1023","updated":"2025-11-24T01:38:47Z"}
