{"icao":"KORD","metar":"KORD 160216Z 21016G24KT 10SM BKN027 BKN035 OVC047 22/16 A2975 RMK AO2 PK WND 22028/0204 T02170161","updated":"2026-04-16T02:33:58Z"}
