{"icao":"LPPS","metar":"LPPS 202300Z 03005KT 9999 SCT015 SCT030 18/14 Q1021","updated":"2026-05-20T23:12:19Z"}
