{"icao":"LPLA","metar":"LPLA 071200Z 30006KT 220V360 9000 -RA FEW015 BKN022 16/13 Q1021","updated":"2026-03-07T12:43:52Z"}
