{"icao":"KORD","metar":"KORD 130651Z 03005KT 10SM BKN060 13/08 A2984 RMK AO2 SLP102 T01330078 $","updated":"2026-05-13T07:48:06Z"}
