{"icao":"LPFL","metar":"LPFL 191700Z 01008KT 340V040 9999 FEW025 SCT030 20/10 Q1027","updated":"2025-09-19T17:14:54Z"}
