{"icao":"LPMA","metar":"LPMA 151100Z 03019G29KT 360V060 9999 FEW016 25/17 Q1023","updated":"2025-09-15T11:14:31Z"}
