{"icao":"KORD","metar":"KORD 092151Z 06006KT 10SM CLR 17/04 A3036 RMK AO2 SLP281 T01670039","updated":"2025-10-09T22:15:40Z"}
