{"icao":"KORD","metar":"KORD 152051Z 08008KT 10SM OVC017 15/11 A3021 RMK AO2 SLP230 T01500111 56010","updated":"2025-10-15T21:15:46Z"}
