{"icao":"LPLA","metar":"LPLA 160300Z 22008G18KT 140V270 9999 FEW020 15/10 Q1026","updated":"2025-12-16T03:23:03Z"}
