{"icao":"LPCS","metar":"LPCS 141900Z 32009KT 290V350 3000 -DZ BR FEW002 BKN006 14/13 Q1016","updated":"2026-03-14T19:25:24Z"}
