{"icao":"KORD","metar":"KORD 152151Z 20013G20KT 10SM CLR 24/09 A2983 RMK AO2 SLP097 T02390094","updated":"2026-05-15T21:58:33Z"}
