{"icao":"KORD","metar":"KORD 171604Z 25017G22KT 10SM SCT029 M11/M18 A2998 RMK AO2 PK WND 24027/1553 T11061178 $","updated":"2026-01-17T16:21:53Z"}
