{"icao":"LPPD","metar":"LPPD 081700Z 05016G26KT 010V080 9999 FEW030 15/08 Q1029","updated":"2026-03-08T17:21:40Z"}
