{"icao":"LPLA","metar":"LPLA 010500Z 23006KT 9999 FEW020 16/12 Q1024","updated":"2026-03-01T05:50:58Z"}
