{"icao":"LPBJ","metar":"LPBJ 201600Z 19010KT CAVOK 28/05 Q1009","updated":"2026-04-20T16:07:28Z"}
