{"icao":"LPFR","metar":"LPFR 290500Z 01003KT CAVOK 07/06 Q1016","updated":"2025-12-29T05:27:20Z"}
