{"icao":"LPPR","metar":"LPPR 080500Z 13008KT 9000 -RADZ FEW005 SCT011 BKN030 07/07 Q1030","updated":"2026-01-08T05:23:50Z"}
