{"icao":"KLAX","metar":"KLAX 200753Z 31006G15KT 10SM FEW010 11/02 A2994 RMK AO2 SLP136 T01060017 401440083","updated":"2026-02-20T08:38:38Z"}
