{"icao":"KORD","metar":"KORD 020451Z 12010KT 10SM BKN250 20/10 A3021 RMK AO2 SLP226 T02000100","updated":"2025-10-02T05:16:26Z"}
