{"icao":"KORD","metar":"KORD 122051Z 28010G26KT 10SM FEW060 FEW250 13/M03 A2994 RMK AO2 PK WND 26034/2032 SLP140 T01281028 53006","updated":"2025-11-12T21:17:13Z"}
