{"icao":"LPFL","metar":"LPFL 231500Z 20009KT 160V250 9999 VCSH FEW010 SCT015 20/14 Q1025","updated":"2025-11-23T15:16:38Z"}
