{"icao":"KORD","metar":"KORD 261051Z 31010KT 10SM FEW043 BKN080 M17/M23 A3021 RMK AO2 SLP245 T11721233 $","updated":"2026-01-26T11:20:04Z"}
