{"icao":"LPMR","metar":"LPMR 262300Z 15004KT 4000 BR FEW020 07/06 Q1026","updated":"2025-11-26T23:17:08Z"}
