{"icao":"LPHR","metar":"LPHR 180800Z 31005KT 290V360 9999 FEW012 14/12 Q1026","updated":"2025-11-18T08:25:36Z"}
