{"icao":"KJFK","metar":"KJFK 171451Z 01015KT 10SM FEW140 SCT250 13/00 A3001 RMK AO2 SLP161 T01330000 50002","updated":"2025-10-17T15:18:17Z"}
