{"icao":"LPPD","metar":"LPPD 230400Z 20007KT 9999 SCT009 BKN030 22/21 Q1015","updated":"2025-10-23T04:20:54Z"}
