{"icao":"LPFR","metar":"LPFR 241630Z 11012KT CAVOK 26/13 Q1019","updated":"2026-05-24T16:58:48Z"}
