{"icao":"LPPT","metar":"LPPT 071100Z 24019KT 8000 VCSH FEW010 BKN015 FEW018CB 14/13 Q1002 WS R20","updated":"2026-02-07T11:20:26Z"}
