{"icao":"LPPR","metar":"LPPR 111800Z 34008KT CAVOK 22/11 Q1019","updated":"2025-10-11T18:20:36Z"}
