{"icao":"KJFK","metar":"KJFK 161551Z 19012KT 10SM FEW120 FEW250 21/09 A3009 RMK AO2 SLP190 T02060094","updated":"2026-05-16T15:57:08Z"}
