{"icao":"LPAZ","metar":"LPAZ 010700Z 32017KT 9999 SCT016 15/12 Q1003","updated":"2026-01-01T07:21:26Z"}
