{"icao":"KLAX","metar":"KLAX 010153Z 24006KT 10SM FEW027 OVC110 18/14 A2993 RMK AO2 SLP134 T01830139 $","updated":"2026-04-01T02:30:31Z"}
