{"icao":"KORD","metar":"KORD 022251Z 08008KT 10SM SCT250 04/M08 A3027 RMK AO2 SLP258 T00441083 $","updated":"2026-03-02T23:24:20Z"}
