{"icao":"LPBJ","metar":"LPBJ 061600Z 28009KT 230V320 CAVOK 22/05 Q1010","updated":"2026-05-06T16:26:03Z"}
