{"icao":"KORD","metar":"KORD 221351Z 26012G19KT 10SM FEW030 BKN043 M09/M17 A3018 RMK AO2 SLP229 T10941167 $","updated":"2026-01-22T14:29:29Z"}
