{"icao":"KORD","metar":"KORD 210602Z 25005KT 8SM -DZ BKN011 OVC014 08/06 A3003 RMK AO2 P0000 T00780061","updated":"2025-11-21T06:29:24Z"}
