{"icao":"LPBJ","metar":"LPBJ 160200Z 31005KT CAVOK 10/09 Q1021","updated":"2026-04-16T02:33:43Z"}
