{"icao":"LPFL","metar":"LPFL 161600Z 27005KT 190V320 9999 FEW028 22/12 Q1007","updated":"2025-10-16T16:23:27Z"}
