{"icao":"LPAZ","metar":"LPAZ 011930Z 07006KT 040V100 9999 FEW016 BKN018 22/17 Q1029","updated":"2026-07-01T19:51:55Z"}
