{"icao":"LPHR","metar":"LPHR 202200Z 04012KT 010V080 9000 -SHRA SCT011 BKN022 15/11 Q1015 WS R28","updated":"2026-03-20T22:27:11Z"}
