{"icao":"KORD","metar":"KORD 250751Z 08003KT 7SM FEW014 BKN027 OVC034 08/07 A2983 RMK AO2 SLP103 T00830072","updated":"2025-11-25T08:27:17Z"}
