{"icao":"LPMT","metar":"LPMT 040100Z 26018G28KT 8000 -RADZ BKN006 BKN016 15/15 Q0994","updated":"2026-02-04T01:57:50Z"}
