{"icao":"LPPT","metar":"LPPT 292100Z 34004KT 300V360 9999 VCSH FEW005 BKN012 14/13 Q1016","updated":"2025-11-29T21:15:32Z"}
