{"icao":"LPLA","metar":"LPLA 201000Z 23014KT 9999 FEW009 SCT015 BKN025 25/22 Q1014","updated":"2025-10-20T10:20:21Z"}
