{"icao":"LPAZ","metar":"LPAZ 220500Z 28022KT 250V310 9999 -RA SCT004 SCT012 13/12 Q0998","updated":"2026-04-22T05:24:24Z"}
