{"icao":"KLAX","metar":"KLAX 221453Z 00000KT 10SM FEW180 FEW250 11/01 A3020 RMK AO2 SLP224 T01110006 53009 $","updated":"2026-02-22T15:23:35Z"}
