{"icao":"KLAX","metar":"KLAX 030753Z 00000KT 10SM FEW006 SCT034 BKN180 16/14 A3006 RMK AO2 SLP178 T01610144 401780117","updated":"2026-01-03T08:25:59Z"}
