{"icao":"LPAZ","metar":"LPAZ 111700Z 02010KT 350V060 9999 FEW026 BKN046 15/07 Q1031","updated":"2026-04-11T17:30:07Z"}
