{"icao":"LPBJ","metar":"LPBJ 171900Z 22007KT CAVOK 24/12 Q1016","updated":"2026-04-17T20:03:35Z"}
