{"icao":"KJFK","metar":"KJFK 241951Z 29008KT 10SM SCT050 BKN070 BKN250 14/02 A3010 RMK AO2 SLP191 T01440022","updated":"2025-10-24T20:20:43Z"}
