{"icao":"KLAX","metar":"KLAX 112053Z 25008KT 10SM CLR 19/13 A3024 RMK AO2 SLP238 T01890128 58008 $","updated":"2026-03-11T21:32:26Z"}
