{"icao":"LPPT","metar":"LPPT 141700Z 28006KT 250V320 CAVOK 27/09 Q1015","updated":"2025-10-14T17:15:16Z"}
