{"icao":"KJFK","metar":"KJFK 121651Z 13012KT 10SM FEW150 SCT250 11/M01 A3052 RMK AO2 SLP336 T01061011 $","updated":"2026-04-12T17:33:18Z"}
