{"icao":"LPMA","metar":"LPMA 300900Z 02013G26KT 330V060 9999 FEW015 20/13 Q1025","updated":"2026-05-30T09:13:25Z"}
