{"icao":"KORD","metar":"KORD 090659Z 19010G18KT 5SM -SN SCT032 BKN043 OVC060 M06/M10 A3002 RMK AO2 SNB55 P0000 T10611100","updated":"2025-12-09T07:21:02Z"}
