{"icao":"LPFL","metar":"LPFL 081900Z 21015G28KT 170V340 9999 VCSH FEW008 BKN010 19/16 Q1004","updated":"2026-02-08T19:23:46Z"}
