{"icao":"LPHR","metar":"LPHR 040730Z 32017KT 8000 -RA SCT003 BKN007 16/14 Q1023","updated":"2026-03-04T07:36:35Z"}
