{"icao":"LPMA","metar":"LPMA 230400Z 33005KT 280V010 9999 SCT015 SCT030 23/18 Q1021","updated":"2025-10-23T04:20:55Z"}
