{"icao":"KLAX","metar":"KLAX 060653Z 34003KT 10SM FEW012 18/16 A2982 RMK AO2 SLP094 T01780156 $","updated":"2025-10-06T07:18:13Z"}
