{"icao":"KLAX","metar":"KLAX 161253Z VRB03KT 10SM CLR 13/08 A2994 RMK AO2 SLP136 T01330078 $","updated":"2025-10-16T13:29:56Z"}
