{"icao":"LPFR","metar":"LPFR 152130Z 31010KT CAVOK 18/10 Q1014","updated":"2026-05-15T21:57:56Z"}
