{"icao":"LPAZ","metar":"LPAZ 200400Z 34017KT 9999 SCT021 SCT039 14/07 Q1030","updated":"2025-12-20T04:25:08Z"}
