{"icao":"KORD","metar":"KORD 272301Z 31014G25KT 10SM SCT039 OVC055 M01/M11 A3023 RMK AO2 SNE00 P0000 T10111106","updated":"2025-11-27T23:17:04Z"}
