{"icao":"LPAZ","metar":"LPAZ 142200Z 25017KT 9999 FEW018 OVC040 17/14 Q1024","updated":"2026-01-14T22:20:48Z"}
