{"icao":"KORD","metar":"KORD 200351Z 18005KT 6SM BR BKN013 OVC032 06/04 A3017 RMK AO2 SLP221 T00610039","updated":"2025-11-20T04:21:13Z"}
