{"icao":"KJFK","metar":"KJFK 110751Z 30013G24KT 10SM SCT045 01/M08 A2972 RMK AO2 PK WND 30029/0709 SLP064 T00111083 $","updated":"2025-11-11T08:24:36Z"}
