{"icao":"LPPR","metar":"LPPR 301930Z 35004KT 320V020 CAVOK 16/11 Q1029","updated":"2026-03-30T19:57:59Z"}
