{"icao":"KJFK","metar":"KJFK 260451Z 35013KT 8SM -SN BKN010 OVC018 M04/M06 A2976 RMK AO2 SLP078 P0000 T10441061 410441111 $","updated":"2026-01-26T04:55:34Z"}
