{"icao":"LPMT","metar":"LPMT 211300Z 01014KT CAVOK 16/05 Q1027","updated":"2025-11-21T13:27:14Z"}
