{"icao":"LPFR","metar":"LPFR 012200Z 26007KT CAVOK 20/18 Q1019","updated":"2025-10-01T22:15:50Z"}
