{"icao":"LPFR","metar":"LPFR 271230Z 12013KT CAVOK 18/07 Q1015","updated":"2026-03-27T13:03:56Z"}
