{"icao":"LPFR","metar":"LPFR 202100Z 33005KT 300V020 CAVOK 24/16 Q1017","updated":"2025-09-20T21:13:27Z"}
