{"icao":"LPPT","metar":"LPPT 191330Z 11006KT 060V170 9999 FEW030 24/11 Q1015","updated":"2026-04-19T14:02:26Z"}
