{"icao":"LPMA","metar":"LPMA 141200Z 02019KT 350V050 9999 SCT015 26/18 Q1023","updated":"2025-09-14T12:30:48Z"}
