{"icao":"LPFR","metar":"LPFR 261330Z 24012KT 8000 FEW010 BKN042 16/15 Q1017","updated":"2026-01-26T13:42:54Z"}
