{"icao":"LPPD","metar":"LPPD 071000Z 29007KT 8000 SCT014 SCT030 15/12 Q1015","updated":"2026-02-07T10:23:58Z"}
