{"icao":"KORD","metar":"KORD 241351Z 32005KT 10SM FEW035 04/M01 A3029 RMK AO2 SLP260 T00441006 $","updated":"2025-10-24T14:19:05Z"}
