{"icao":"LPFR","metar":"LPFR 100630Z 25011KT 7000 -DZ FEW002 BKN003 15/15 Q1019","updated":"2026-02-10T07:02:17Z"}
