{"icao":"LPHR","metar":"LPHR 181800Z 11009KT 040V140 9999 FEW010 BKN020 18/15 Q1025","updated":"2025-11-18T18:28:00Z"}
