{"icao":"LPFL","metar":"LPFL 130800Z 21005KT 9999 FEW015 13/09 Q1023","updated":"2026-01-13T08:29:25Z"}
