{"icao":"KLAX","metar":"KLAX 250453Z 26011KT 10SM BKN009 17/14 A2997 RMK AO2 SLP145 T01670144 $","updated":"2026-06-25T05:03:36Z"}
