{"icao":"KORD","metar":"KORD 191551Z 10003KT 10SM FEW180 FEW250 11/01 A3009 RMK AO2 SLP192 T01060006 $","updated":"2026-03-19T15:53:44Z"}
