{"icao":"LPMT","metar":"LPMT 142100Z 33005KT 300V360 9999 SCT036 12/07 Q1030","updated":"2026-02-14T21:22:48Z"}
