{"icao":"KJFK","metar":"KJFK 201451Z 29015G26KT 10SM FEW060 SCT120 SCT250 25/10 A2976 RMK AO2 PK WND 29027/1417 SLP078 T02500100 57002 $","updated":"2026-06-20T15:49:25Z"}
