{"icao":"LPBJ","metar":"LPBJ 212000Z VRB02KT CAVOK 08/01 Q1028","updated":"2025-11-21T20:21:23Z"}
