{"icao":"KORD","metar":"KORD 151451Z 20013G19KT 10SM BKN150 OVC250 M12/M18 A3023 RMK AO2 SLP253 T11171183 58022","updated":"2025-12-15T15:23:45Z"}
