{"icao":"LPPT","metar":"LPPT 182100Z 31008KT 280V340 CAVOK 20/12 Q1016","updated":"2026-04-18T21:33:35Z"}
