{"icao":"KORD","metar":"KORD 251810Z 35013KT 2SM R10L/1600VP6000FT -SN OVC026 M11/M14 A3007 RMK AO2 4/003 933001 P0000 T11061139 $","updated":"2026-01-25T18:29:08Z"}
