{"icao":"KORD","metar":"KORD 111951Z 29011KT 10SM FEW250 04/M07 A3019 RMK AO2 SLP230 T00441067 $","updated":"2026-02-11T20:37:49Z"}
