{"icao":"LPOV","metar":"LPOV 051900Z 34007KT CAVOK 17/13 Q1019","updated":"2025-10-05T19:12:33Z"}
