{"icao":"LPMT","metar":"LPMT 160100Z 32005KT 9999 FEW020 11/10 Q1016","updated":"2026-01-16T01:41:53Z"}
