{"icao":"LPOV","metar":"LPOV 301500Z 18012KT 140V220 9999 SCT006 BKN018 16/15 Q1012","updated":"2025-10-30T15:20:01Z"}
