{"icao":"LPOV","metar":"LPOV 211300Z 03007KT CAVOK 14/03 Q1028","updated":"2025-11-21T13:27:12Z"}
