{"icao":"LPAZ","metar":"LPAZ 110530Z 02012KT 9999 FEW013 BKN034 13/07 Q1030","updated":"2026-04-11T05:59:46Z"}
