{"icao":"LPSJ","metar":"LPSJ 201330Z 27011KT 240V300 9999 FEW016 21/16 Q1011","updated":"2026-06-20T13:59:46Z"}
