{"icao":"LPBJ","metar":"LPBJ 230800Z 10005KT 7000 3000NW BCFG NSC 12/11 Q1013","updated":"2026-03-23T08:54:28Z"}
