{"icao":"LPBJ","metar":"LPBJ 241800Z 31017KT 9999 FEW035 22/13 Q1016","updated":"2026-04-24T18:50:12Z"}
