{"icao":"LPPD","metar":"LPPD 080530Z 01020G31KT 4000 -RA BR BKN008 BKN012 12/10 Q1022","updated":"2026-03-08T05:41:42Z"}
