{"icao":"LPOV","metar":"LPOV 041300Z 16016KT CAVOK 21/13 Q1013","updated":"2025-11-04T13:32:33Z"}
