{"icao":"LPHR","metar":"LPHR 081400Z 24020KT 9000 BKN007 18/17 Q1010","updated":"2026-02-08T14:26:32Z"}
