{"icao":"KORD","metar":"KORD 050151Z 21010G22KT 10SM FEW060 SCT100 BKN150 BKN250 18/11 A2950 RMK AO2 SLP987 OCNL LTGICCC DSNT SE-S CB DSNT SE-S T01830111","updated":"2026-05-05T02:37:59Z"}
