{"icao":"KORD","metar":"KORD 090251Z 17010KT 10SM FEW045 BKN170 OVC250 M06/M11 A3016 RMK AO2 SLP224 T10611111 58023","updated":"2025-12-09T03:17:37Z"}
