{"icao":"KLAX","metar":"KLAX 260853Z 23005KT 10SM FEW012 BKN025 OVC049 13/12 A2988 RMK AO2 RAE38 SLP117 P0018 60029 T01330117 58007","updated":"2026-04-26T08:59:13Z"}
