{"icao":"LPOV","metar":"LPOV 161800Z 33005KT 5000 BR FEW002 16/15 Q1014","updated":"2025-10-16T18:25:46Z"}
