{"icao":"LPPD","metar":"LPPD 080630Z 03019G29KT 4000 -RA BR SCT012 BKN030 11/09 Q1023","updated":"2026-03-08T06:40:37Z"}
