{"icao":"KLAX","metar":"KLAX 311253Z 15003KT 10SM SCT016 BKN030 OVC200 18/14 A2995 RMK AO2 SLP141 T01830144","updated":"2026-03-31T13:16:14Z"}
