{"icao":"KJFK","metar":"KJFK 151751Z 12013G21KT 10SM BKN060 BKN110 OVC200 04/M04 A3046 RMK AO2 SLP314 T00391039 10056 20022 58012","updated":"2026-03-15T18:37:31Z"}
