{"icao":"KLAX","metar":"KLAX 232353Z 27014KT 10SM BKN012 18/13 A2995 RMK AO2 SLP141 T01830133 10206 20178 55008","updated":"2026-05-23T23:56:10Z"}
