{"icao":"KORD","metar":"KORD 021251Z 00000KT 9SM -RA FEW019 BKN036 06/04 A3020 RMK AO2 SLP232 P0003 T00560044 $","updated":"2025-11-02T13:21:31Z"}
