{"icao":"LPOV","metar":"LPOV 121600Z 33009KT 290V350 9999 FEW020 16/11 Q1026","updated":"2026-03-12T17:02:36Z"}
