{"icao":"KORD","metar":"KORD 120051Z 02003KT 10SM OVC025 M04/M09 A2999 RMK AO2 SLP165 T10391094","updated":"2025-12-12T01:28:44Z"}
