{"icao":"LPBJ","metar":"LPBJ 071100Z 22025KT 2000 +RADZ BR BKN006 BKN018 12/11 Q1007 RERADZ","updated":"2026-02-07T11:20:29Z"}
