{"icao":"LPCS","metar":"LPCS 231600Z 28016G28KT 240V310 9000 -SHRA FEW008 SCT020 FEW030CB BKN040 10/06 Q1001","updated":"2026-01-23T16:28:39Z"}
