{"icao":"LPLA","metar":"LPLA 070500Z 32004KT 290V020 9999 SCT035 16/11 Q1010","updated":"2025-12-07T05:17:22Z"}
