{"icao":"LPFR","metar":"LPFR 241600Z 25011KT CAVOK 23/20 Q1016","updated":"2025-10-24T16:22:19Z"}
