{"icao":"LPCS","metar":"LPCS 231300Z 22007KT 9999 FEW025 19/10 Q1014","updated":"2026-03-23T13:04:47Z"}
