{"icao":"LPPR","metar":"LPPR 241800Z 30007KT 260V360 9999 SCT035 11/05 Q1012","updated":"2026-01-24T18:28:34Z"}
