{"icao":"LPOV","metar":"LPOV 271100Z 17005KT 100V200 2500 -DZ BR BKN006 BKN015 12/12 Q1025","updated":"2026-02-27T11:31:05Z"}
