{"icao":"LPHR","metar":"LPHR 061500Z 29021KT 9999 FEW018 21/16 Q1013","updated":"2025-11-06T15:20:20Z"}
