{"icao":"LPMT","metar":"LPMT 161900Z VRB02KT CAVOK 21/12 Q1013","updated":"2025-10-16T19:12:41Z"}
