{"icao":"LPFR","metar":"LPFR 181600Z 11006KT 070V140 CAVOK 27/21 Q1019","updated":"2025-09-18T16:21:08Z"}
