{"icao":"KJFK","metar":"KJFK 250051Z 09004KT 10SM FEW220 BKN250 07/M02 A3028 RMK AO2 SLP254 T00671017","updated":"2025-11-25T01:24:41Z"}
