{"icao":"LPHR","metar":"LPHR 290730Z 22016KT 1500 -DZ BR SCT002 BKN004 18/17 Q1017","updated":"2026-05-29T07:53:45Z"}
