{"icao":"LPHR","metar":"LPHR 010830Z 07006KT 030V090 9999 FEW024 BKN030 15/09 Q1031","updated":"2026-04-01T09:02:31Z"}
