{"icao":"LPFL","metar":"LPFL 261730Z 23010KT 170V270 9999 FEW013 BKN045 23/18 Q1023","updated":"2026-06-26T17:45:45Z"}
