{"icao":"KLAX","metar":"KLAX 281453Z 00000KT 10SM BCFG FEW000 FEW100 SCT250 11/11 A3004 RMK AO2 SLP170 FG FEW000 T01110106 53006 $","updated":"2025-11-28T15:19:22Z"}
