{"icao":"KORD","metar":"KORD 061108Z 21004KT 10SM TS OVC018CB 23/21 A2984 RMK AO2 LTG DSNT SE RAE1055 TSB02 OCNL LTGIC S TS S MOV SE P0000 T02280211 $","updated":"2026-06-06T11:24:43Z"}
