{"icao":"LPPD","metar":"LPPD 271800Z 36019KT 4000 -SHRA BR SCT012 BKN030 18/14 Q1013","updated":"2025-10-27T18:27:13Z"}
