{"icao":"LPBJ","metar":"LPBJ 201500Z 29010KT CAVOK 27/14 Q1018","updated":"2025-09-20T15:14:55Z"}
