{"icao":"KJFK","metar":"KJFK 151551Z 36012G18KT 10SM FEW090 BKN160 BKN250 18/11 A2995 RMK AO2 SLP142 T01830111","updated":"2025-10-15T16:19:38Z"}
