{"icao":"KJFK","metar":"KJFK 050351Z 23005KT 10SM BKN250 19/16 A3022 RMK AO2 SLP232 T01940156","updated":"2025-10-05T04:19:15Z"}
