{"icao":"LPMA","metar":"LPMA 242300Z 01013KT 340V050 9999 BKN015 16/12 Q1020","updated":"2026-03-24T23:31:09Z"}
