{"icao":"LPPS","metar":"LPPS 150730Z 02006KT 9000 -RADZ SCT010 BKN030 15/13 Q1021","updated":"2026-03-15T07:44:13Z"}
