{"icao":"KLAX","metar":"KLAX 112053Z 25008KT 10SM CLR 22/09 A2997 RMK AO2 SLP147 T02170094 58023 $","updated":"2025-12-11T21:20:43Z"}
