{"icao":"LPMT","metar":"LPMT 141900Z 33011KT 8000 FEW009 SCT013 BKN015 15/13 Q1016","updated":"2026-03-14T19:25:27Z"}
