{"icao":"KJFK","metar":"KJFK 051051Z 00000KT 10SM FEW250 16/15 A3027 RMK AO2 SLP249 T01610150","updated":"2025-10-05T11:12:40Z"}
