{"icao":"LPAZ","metar":"LPAZ 301900Z 18010KT 9999 FEW004 23/21 Q1022","updated":"2025-09-30T19:13:59Z"}
