{"icao":"KLAX","metar":"KLAX 252153Z 24006KT 6SM HZ SCT014 BKN250 19/14 A2999 RMK AO2 SLP155 T01940144 $","updated":"2025-10-25T22:15:36Z"}
