{"icao":"LPPS","metar":"LPPS 142030Z 03009KT 360V060 9999 FEW015 BKN030 16/11 Q1024","updated":"2026-04-14T20:52:47Z"}
