{"icao":"LPPT","metar":"LPPT 232200Z 32010KT 8000 SHRA FEW022 FEW025CB SCT045 05/04 Q1005 RETS","updated":"2026-01-23T22:17:26Z"}
