{"icao":"LPFR","metar":"LPFR 252030Z VRB01KT 9999 FEW035 18/15 Q1015","updated":"2026-04-25T20:37:24Z"}
