{"icao":"KJFK","metar":"KJFK 090651Z 13005KT 3SM BR SCT006 SCT090 SCT190 SCT250 12/12 A2990 RMK AO2 SLP124 T01170117 $","updated":"2025-11-09T07:16:41Z"}
