{"icao":"LPBJ","metar":"LPBJ 011900Z 22011KT 5000 -DZRA BR FEW004 BKN007 BKN015 15/14 Q1009","updated":"2026-02-01T19:23:11Z"}
