{"icao":"LPFL","metar":"LPFL 141000Z 20010KT 9000 -RA SCT019 FEW025CB SCT036 17/13 Q1004","updated":"2025-10-14T10:19:01Z"}
