{"icao":"KJFK","metar":"KJFK 271351Z 00000KT 10SM SCT250 00/M06 A3015 RMK AO2 SLP208 T00001061 $","updated":"2026-02-27T14:01:25Z"}
