{"icao":"LPCS","metar":"LPCS 221730Z 22006KT 180V260 CAVOK 18/09 Q1013","updated":"2026-04-22T18:02:59Z"}
