{"icao":"LPPT","metar":"LPPT 281400Z 18007KT 140V230 9000 RA FEW006 SCT025 FEW030CB 19/18 Q1011 RERA","updated":"2025-10-28T14:18:44Z"}
