{"icao":"LPPD","metar":"LPPD 261600Z 17006KT 140V200 9999 SCT011 SCT030 18/16 Q1023","updated":"2025-11-26T16:24:40Z"}
