{"icao":"LPHR","metar":"LPHR 291230Z 24013KT 9999 FEW018 BKN042 16/13 Q1013","updated":"2026-01-29T12:55:10Z"}
