{"icao":"LPMR","metar":"LPMR 140600Z 17002KT CAVOK 11/10 Q1016","updated":"2025-10-14T06:27:18Z"}
