{"icao":"LPBJ","metar":"LPBJ 170200Z 30007KT CAVOK 11/09 Q1017","updated":"2026-05-17T02:56:08Z"}
