{"icao":"LPCS","metar":"LPCS 181300Z 15007KT 120V220 CAVOK 25/13 Q1017","updated":"2025-10-18T13:21:25Z"}
