{"icao":"LPOV","metar":"LPOV 281400Z 24010KT 210V270 9999 FEW030 14/10 Q1001","updated":"2026-01-28T14:28:32Z"}
