{"icao":"KORD","metar":"KORD 250251Z 36007KT 10SM FEW018 SCT033 SCT047 17/14 A3000 RMK AO2 SLP158 T01670144 58002","updated":"2025-09-25T02:59:56Z"}
