{"icao":"LPAZ","metar":"LPAZ 152300Z 05004KT 020V090 9999 FEW007 SCT014 BKN030 14/12 Q1025","updated":"2026-03-15T23:27:31Z"}
