{"icao":"LPOV","metar":"LPOV 191100Z 16010KT 9999 -RA SCT020 19/18 Q1013","updated":"2025-10-19T11:12:59Z"}
