{"icao":"LPOV","metar":"LPOV 081400Z 33011KT 300V360 9999 FEW020 BKN035 19/15 Q1021","updated":"2025-10-08T14:17:57Z"}
