{"icao":"LPPR","metar":"LPPR 310300Z VRB02KT 6000 NSC 07/06 Q1020","updated":"2025-12-31T03:25:44Z"}
