{"icao":"LPHR","metar":"LPHR 171230Z 28010KT 9999 VCSH SCT005 BKN008 BKN025 20/19 Q1023","updated":"2025-11-17T12:38:54Z"}
