{"icao":"LPPR","metar":"LPPR 051730Z 23011KT 190V270 8000 FEW020CB BKN025 14/11 Q0992","updated":"2026-02-05T17:45:28Z"}
