{"icao":"KLAX","metar":"KLAX 261217Z VRB06KT 6SM -RA BR FEW010 BKN030 OVC048 16/14 A3004 RMK AO2 P0000 T01610144 $","updated":"2025-12-26T12:39:39Z"}
