{"icao":"LPPT","metar":"LPPT 222300Z 34015KT CAVOK 16/09 Q1018","updated":"2025-09-22T23:15:27Z"}
