{"icao":"KJFK","metar":"KJFK 151251Z 35009KT 10SM FEW023 SCT180 BKN250 15/11 A2999 RMK AO2 SLP153 T01500111 $","updated":"2025-10-15T13:30:47Z"}
