{"icao":"LPFR","metar":"LPFR 020300Z 09007KT CAVOK 20/15 Q1019","updated":"2025-10-02T03:29:12Z"}
