{"icao":"LPFR","metar":"LPFR 311000Z 29003KT 260V320 9999 FEW030 14/10 Q1022","updated":"2026-01-31T10:23:16Z"}
