{"icao":"LPOV","metar":"LPOV 052300Z 23014KT 190V260 9999 FEW018 FEW020CB SCT028 13/09 Q0998","updated":"2026-02-05T23:22:00Z"}
