{"icao":"LPHR","metar":"LPHR 222100Z 19018KT 9999 FEW009 SCT013 BKN035 17/15 Q1018","updated":"2026-02-23T06:06:03Z"}
