{"icao":"LPLA","metar":"LPLA 050900Z 11003KT 9999 FEW014 SCT035 12/10 Q1029","updated":"2026-01-05T09:30:34Z"}
