{"icao":"LPFL","metar":"LPFL 231530Z 15007KT 120V180 9999 BKN033 16/08 Q1026","updated":"2026-03-23T15:58:38Z"}
