{"icao":"LPPR","metar":"LPPR 082200Z 11005KT CAVOK 12/11 Q1023","updated":"2025-11-08T22:15:09Z"}
