{"icao":"KJFK","metar":"KJFK 201151Z 24018KT 10SM BKN016 BKN080 BKN250 15/13 A2974 RMK AO2 PK WND 25027/1136 RAB21E33 SLP071 P0000 60000 T01500128 10200 20144 51010 $","updated":"2025-10-20T12:38:26Z"}
