{"icao":"LPLA","metar":"LPLA 050600Z 21004KT 100V240 9999 FEW015 SCT024 11/10 Q1028","updated":"2026-01-05T06:37:23Z"}
