{"icao":"LPBJ","metar":"LPBJ 062100Z 31005KT CAVOK 05/M01 Q1024","updated":"2026-01-06T21:19:48Z"}
