{"icao":"KORD","metar":"KORD 110451Z 31006KT 10SM FEW250 00/M04 A3007 RMK AO2 SLP189 T00001039 $","updated":"2026-02-11T05:01:37Z"}
