{"icao":"KORD","metar":"KORD 051451Z 29013G21KT 10SM SCT032 04/M03 A3012 RMK AO2 SLP204 T00441028 53026 $","updated":"2026-04-05T15:31:43Z"}
