{"icao":"KORD","metar":"KORD 161251Z 30014G29KT 4SM -SN BKN023 BKN046 OVC060 M05/M08 A2948 RMK AO2 PK WND 32034/1205 PRESRR SLP992 DRSN P0000 T10501083","updated":"2026-03-16T13:09:32Z"}
