{"icao":"LPPS","metar":"LPPS 291230Z 03013KT 9999 SCT015 BKN030 22/14 Q1023","updated":"2025-09-29T12:37:45Z"}
