{"icao":"KJFK","metar":"KJFK 131951Z 19013KT 10SM FEW080 BKN250 06/00 A2995 RMK AO2 SLP141 T00610000 $","updated":"2026-01-13T20:24:03Z"}
