{"icao":"LPPS","metar":"LPPS 051330Z 02022KT 9999 SCT015 18/11 Q1025","updated":"2026-03-05T14:02:44Z"}
