{"icao":"LPCS","metar":"LPCS 300700Z 02008KT 360V060 CAVOK 12/M03 Q1030","updated":"2026-03-30T07:25:28Z"}
