{"icao":"LPFL","metar":"LPFL 191330Z 35022G33KT 9999 SCT017 BKN034 14/08 Q1018","updated":"2026-04-19T14:02:43Z"}
