{"icao":"LPPT","metar":"LPPT 131000Z 14008KT 110V200 9999 -SHRA FEW012 FEW016TCU BKN042 16/15 Q1001","updated":"2025-11-13T10:20:42Z"}
