{"icao":"LPFR","metar":"LPFR 081600Z 35009KT CAVOK 22/08 Q1020","updated":"2025-11-08T16:20:08Z"}
