{"icao":"LPAZ","metar":"LPAZ 302300Z 09005KT 040V120 9999 BKN018 21/17 Q1031","updated":"2026-06-30T23:10:37Z"}
