{"icao":"LPAZ","metar":"LPAZ 181430Z 18010KT 9999 FEW013 SCT016 BKN020 17/13 Q1026","updated":"2026-02-18T14:41:51Z"}
