{"icao":"LPFR","metar":"LPFR 150800Z 35004KT 9999 FEW035 SCT045 07/07 Q1021","updated":"2026-01-15T08:29:27Z"}
