{"icao":"LPST","metar":"LPST 161600Z 31011KT 280V340 9999 FEW014 21/16 Q1017","updated":"2026-06-16T22:09:40Z"}
