{"icao":"KJFK","metar":"KJFK 161251Z 22004KT 10SM FEW130 FEW180 BKN250 19/13 A2992 RMK AO2 SLP133 T01940133","updated":"2026-04-16T13:27:55Z"}
