{"icao":"LPFR","metar":"LPFR 171700Z 29007KT 9999 -RA SCT020 19/12 Q1014","updated":"2025-11-17T17:17:43Z"}
