{"icao":"LPPT","metar":"LPPT 181700Z 06005KT 340V100 9999 FEW035 FEW090CB 29/10 Q1019","updated":"2025-09-18T17:15:24Z"}
