{"icao":"KORD","metar":"KORD 131151Z 29010G18KT 10SM FEW025 OVC140 M12/M18 A3015 RMK AO2 SLP222 60000 I6000 T11221178 11033 21122 53024","updated":"2025-12-13T12:36:53Z"}
