{"icao":"LPPR","metar":"LPPR 031100Z 23006KT 190V270 7000 SHRA FEW025CB BKN040 09/06 Q1000","updated":"2026-02-03T11:33:17Z"}
