{"icao":"LPAZ","metar":"LPAZ 030600Z 32022KT 9999 SCT012 SCT044 15/12 Q1006","updated":"2026-01-03T06:29:25Z"}
