{"icao":"LPMR","metar":"LPMR 021800Z 33006KT 8000 SCT008 18/15 Q1022","updated":"2025-10-02T18:24:42Z"}
