{"icao":"LPPR","metar":"LPPR 180800Z 18017KT CAVOK 13/09 Q1019","updated":"2025-12-18T08:28:05Z"}
