{"icao":"LPFL","metar":"LPFL 201000Z 03005KT 360V070 9999 VCSH FEW008 SCT013 BKN025 17/13 Q1031","updated":"2025-11-20T10:20:45Z"}
