{"icao":"KORD","metar":"KORD 301151Z 33006KT 10SM FEW028 FEW250 06/04 A2991 RMK AO2 SLP131 T00560039 10089 20050 55004 $","updated":"2025-10-30T12:38:03Z"}
