{"icao":"LPHR","metar":"LPHR 091930Z 06007KT 010V140 9999 FEW014 SCT030 16/09 Q1020","updated":"2026-05-09T19:59:20Z"}
