{"icao":"LPPR","metar":"LPPR 041400Z 28005KT 240V320 CAVOK 20/10 Q1022","updated":"2026-04-04T14:32:05Z"}
