{"icao":"LPPR","metar":"LPPR 080100Z 36004KT 300V040 9999 FEW025 SCT042 12/11 Q1018","updated":"2025-11-08T01:19:24Z"}
