{"icao":"LPMA","metar":"LPMA 211500Z 19005KT 120V250 9999 FEW016 22/17 Q1019","updated":"2026-05-21T15:21:23Z"}
