{"icao":"KJFK","metar":"KJFK 161951Z 02006KT 10SM BKN036 BKN060 03/M04 A3014 RMK AO2 SLP205 T00281039 $","updated":"2026-02-16T20:29:32Z"}
