{"icao":"LPOV","metar":"LPOV 091800Z 33010KT 9999 SCT015 12/08 Q1027","updated":"2026-01-10T01:37:52Z"}
