{"icao":"LPPT","metar":"LPPT 091730Z 21012KT 9999 FEW015 FEW025TCU 16/13 Q1007","updated":"2026-05-09T17:49:57Z"}
