{"icao":"LPHR","metar":"LPHR 311230Z 27014KT 9000 SCT006 BKN011 18/17 Q1016","updated":"2026-01-31T12:44:35Z"}
