{"icao":"LPMA","metar":"LPMA 280500Z 36008KT 310V040 9999 BKN013 21/18 Q1023","updated":"2025-09-28T05:16:38Z"}
