{"icao":"LPMA","metar":"LPMA 200900Z 05005KT 010V070 9999 SCT015 BKN030 19/14 Q1021","updated":"2026-05-20T09:30:15Z"}
