{"icao":"LPPR","metar":"LPPR 281600Z 34012KT CAVOK 14/07 Q1025","updated":"2026-02-28T16:24:59Z"}
