{"icao":"LPLA","metar":"LPLA 021400Z 08008KT 050V110 9999 SCT015 BKN025 16/11 Q1031","updated":"2026-04-02T14:54:29Z"}
