{"icao":"LPBJ","metar":"LPBJ 010300Z 30008KT CAVOK 18/15 Q1019","updated":"2026-07-01T03:41:02Z"}
