{"icao":"LPPS","metar":"LPPS 011230Z 02014KT 350V060 9999 FEW015 SCT030 24/15 Q1022","updated":"2025-10-01T12:38:44Z"}
