{"icao":"KJFK","metar":"KJFK 162251Z 20020G26KT 10SM FEW120 SCT250 18/11 A2994 RMK AO2 PK WND 20026/2228 SLP139 T01830106","updated":"2026-05-16T23:51:40Z"}
