{"icao":"LPFR","metar":"LPFR 071100Z 21004KT 180V270 9999 FEW010 20/13 Q1019","updated":"2025-11-07T11:15:06Z"}
