{"icao":"LPMR","metar":"LPMR 100300Z 18002KT 150V220 9999 FEW008 BKN018 BKN035 15/13 Q1018","updated":"2025-11-10T03:17:45Z"}
