{"icao":"LPPR","metar":"LPPR 300600Z 00000KT 3500 BR BKN002 17/16 Q1022","updated":"2026-05-30T06:22:53Z"}
