{"icao":"KORD","metar":"KORD 020451Z 21004KT 3/4SM R10L/P6000FT -SN BR BKN010 OVC021 M04/M05 A3002 RMK AO2 SLP173 P0003 T10391050","updated":"2025-12-02T05:19:03Z"}
