{"icao":"LPAZ","metar":"LPAZ 272300Z 24008KT 9999 FEW024 17/12 Q1022","updated":"2026-05-27T23:15:41Z"}
