{"icao":"LPLA","metar":"LPLA 131100Z 23008KT 190V250 9999 FEW020 SCT035 18/13 Q1029","updated":"2025-12-13T11:14:57Z"}
