{"icao":"LPOV","metar":"LPOV 290800Z VRB03KT CAVOK 16/13 Q1018","updated":"2025-09-29T08:25:51Z"}
