{"icao":"KORD","metar":"KORD 301151Z 26014G24KT 3SM -SN BKN014 OVC019 M02/M04 A2986 RMK AO2 PK WND 27027/1120 SLP121 DRSN 4/007 P0000 60002 70068 T10171044 10006 21017 53037 $","updated":"2025-11-30T12:35:39Z"}
