{"icao":"LPPD","metar":"LPPD 180600Z 25015KT 5000 BR SCT002 BKN006 22/22 Q1014","updated":"2025-10-18T06:24:14Z"}
