{"icao":"LPCS","metar":"LPCS 211000Z 01019KT 9999 SCT022 20/11 Q1022","updated":"2025-09-21T10:16:02Z"}
