{"icao":"KORD","metar":"KORD 271951Z 26011G22KT 10SM FEW075 BKN250 30/11 A2989 RMK AO2 SLP116 T03000106 $","updated":"2025-09-27T20:17:22Z"}
