{"icao":"LPPT","metar":"LPPT 030700Z 36004KT 320V040 CAVOK 11/10 Q1022","updated":"2026-04-03T07:06:11Z"}
