{"icao":"KJFK","metar":"KJFK 221307Z 26012KT 10SM SCT013 SCT110 14/12 A2975 RMK AO2 T01440122","updated":"2025-10-22T13:32:06Z"}
