{"icao":"LPST","metar":"LPST 271600Z 34009KT CAVOK 16/06 Q1023","updated":"2025-11-27T16:23:20Z"}
