{"icao":"LPPT","metar":"LPPT 070230Z 00000KT 9999 BKN020 18/15 Q1021","updated":"2025-10-07T02:56:09Z"}
