{"icao":"LPAR","metar":"LPAR 121200Z 24009KT 210V270 8000 BKN020 18/12 Q1020","updated":"2026-02-12T13:04:50Z"}
