{"icao":"LPBJ","metar":"LPBJ 111100Z 06007KT 030V100 CAVOK 24/14 Q1020","updated":"2025-10-11T11:12:51Z"}
