{"icao":"LPPR","metar":"LPPR 251530Z 20011KT 170V230 9999 VCSH FEW014 FEW025CB BKN031 22/18 Q1015","updated":"2026-06-25T15:38:30Z"}
