{"icao":"LPPT","metar":"LPPT 260700Z 35009KT CAVOK 10/06 Q1025","updated":"2025-11-26T07:18:11Z"}
