{"icao":"LPPS","metar":"LPPS 131000Z 28019KT 9999 FEW014 FEW016TCU 18/11 Q1002","updated":"2025-11-13T10:21:01Z"}
