{"icao":"KJFK","metar":"KJFK 270151Z 00000KT 10SM FEW080 BKN120 BKN250 03/M02 A2992 RMK AO2 SLP130 T00281017 $","updated":"2026-02-27T01:58:33Z"}
