{"icao":"LPOV","metar":"LPOV 251500Z 20013KT 6000 -SHRA SCT020 FEW025TCU BKN040 21/19 Q1015","updated":"2026-06-25T15:38:30Z"}
