{"icao":"LPFR","metar":"LPFR 220300Z 01012KT CAVOK 17/06 Q1016","updated":"2025-09-22T03:05:56Z"}
