{"icao":"LPOV","metar":"LPOV 172200Z 01003KT CAVOK 15/14 Q1016","updated":"2025-10-17T22:15:54Z"}
