{"icao":"LPAZ","metar":"LPAZ 210700Z 18010KT 9999 FEW028 15/13 Q1024","updated":"2026-02-21T07:30:49Z"}
