{"icao":"LPST","metar":"LPST 161700Z 31008KT 9999 FEW010 SCT020 FEW022CB 10/06 Q1013","updated":"2026-01-18T22:18:22Z"}
