{"icao":"LPBJ","metar":"LPBJ 201000Z 25002KT 210V350 9999 OVC006 20/19 Q1020","updated":"2025-09-20T10:16:15Z"}
