{"icao":"KJFK","metar":"KJFK 151951Z 28018G25KT 10SM FEW055 FEW250 02/M11 A2946 RMK AO2 PK WND 25029/1930 SLP975 T00221111 $","updated":"2026-01-15T20:24:24Z"}
