{"icao":"LPAZ","metar":"LPAZ 211900Z 28012KT 8000 BKN005 17/16 Q1020","updated":"2026-01-21T19:25:27Z"}
