{"icao":"LPFR","metar":"LPFR 021400Z 32010KT 290V350 9999 FEW025 18/06 Q1018","updated":"2025-12-02T14:20:40Z"}
