{"icao":"KJFK","metar":"KJFK 111851Z 27022G38KT 10SM BKN055 BKN070 04/M07 A2970 RMK AO2 PK WND 27038/1848 SNB17E50 SLP058 VCSH ALQDS P0000 T00441067 $","updated":"2025-11-11T19:15:18Z"}
