{"icao":"KORD","metar":"KORD 020151Z 20014KT 10SM FEW030 BKN055 OVC070 M04/M11 A3011 RMK AO2 SLP210 T10441106","updated":"2026-02-02T02:04:13Z"}
