{"icao":"LPOV","metar":"LPOV 131900Z 26003KT 240V300 6000 -RADZ FEW004 SCT008 BKN018 13/13 Q1019","updated":"2026-03-13T19:29:57Z"}
