{"icao":"KORD","metar":"KORD 170351Z 29006KT 10SM CLR 03/M08 A2997 RMK AO2 SLP153 T00331083 $","updated":"2025-11-17T04:25:42Z"}
