{"icao":"KJFK","metar":"KJFK 090151Z 16008KT 10SM FEW250 03/M01 A3063 RMK AO2 SLP372 T00281011","updated":"2026-04-09T02:08:45Z"}
