{"icao":"LPOV","metar":"LPOV 250800Z VRB02KT CAVOK 13/13 Q1018","updated":"2026-04-25T08:51:25Z"}
