{"icao":"LPFR","metar":"LPFR 301000Z 17005KT 150V210 CAVOK 23/17 Q1018","updated":"2025-09-30T10:18:24Z"}
