{"icao":"LPOV","metar":"LPOV 170900Z VRB02KT 2500 BR BKN004 15/14 Q1022","updated":"2025-09-18T10:18:17Z"}
