{"icao":"KJFK","metar":"KJFK 070451Z 22007KT 10SM SCT250 18/17 A3022 RMK AO2 SLP234 T01830167 402390161 $","updated":"2025-10-07T05:16:43Z"}
