{"icao":"LPFR","metar":"LPFR 150500Z 04005KT CAVOK 20/17 Q1016","updated":"2025-10-15T05:17:16Z"}
