{"icao":"KORD","metar":"KORD 151251Z 20010KT 10SM OVC170 M13/M19 A3030 RMK AO2 SLP276 T11281194 $","updated":"2025-12-15T13:39:50Z"}
