{"icao":"KLAX","metar":"KLAX 190753Z 07004KT 10SM SCT280 18/14 A3000 RMK AO2 SLP155 T01830144 402780144 $","updated":"2025-10-19T08:21:00Z"}
