{"icao":"KLAX","metar":"KLAX 301453Z 00000KT 10SM FEW009 OVC016 16/12 A2993 RMK AO2 SLP133 T01610122 53003","updated":"2026-04-30T15:08:39Z"}
