{"icao":"LPLA","metar":"LPLA 171200Z 17011KT 110V240 9999 FEW015 22/17 Q1012","updated":"2025-10-17T12:36:56Z"}
