{"icao":"LPMR","metar":"LPMR 071100Z 21014KT 2500 -RADZ BR BKN009 BKN012 FEW016CB 18/17 Q1014","updated":"2025-11-07T11:15:07Z"}
