{"icao":"LPOV","metar":"LPOV 112000Z 35002KT CAVOK 18/13 Q1018","updated":"2025-10-11T20:16:48Z"}
