{"icao":"LPAZ","metar":"LPAZ 101030Z 21016KT 1500 BR FEW001 BKN002 17/17 Q1015","updated":"2026-02-10T11:04:12Z"}
