{"icao":"LPAZ","metar":"LPAZ 300730Z 27010KT 8000 FEW004 16/15 Q1020","updated":"2026-01-30T07:38:56Z"}
