{"icao":"LPST","metar":"LPST 040800Z 13011KT CAVOK 15/11 Q1016","updated":"2025-11-04T08:26:19Z"}
