{"icao":"LPMA","metar":"LPMA 012100Z 34012KT 310V010 9999 SCT016 15/07 Q1021","updated":"2026-03-01T21:21:16Z"}
