{"icao":"LPCS","metar":"LPCS 301900Z 29005KT 250V320 9999 FEW016 17/10 Q1018","updated":"2026-04-30T19:18:39Z"}
