{"icao":"LPPD","metar":"LPPD 120300Z 31011KT 270V340 9999 FEW020 FEW022CB 15/09 Q1002","updated":"2025-11-12T03:10:52Z"}
