{"icao":"LPPR","metar":"LPPR 201930Z 35003KT CAVOK 10/06 Q1030","updated":"2026-02-20T19:35:39Z"}
