{"icao":"LPMA","metar":"LPMA 101230Z 02011KT 330V050 9999 FEW015 SCT030 23/15 Q1023","updated":"2025-10-10T12:36:41Z"}
