{"icao":"LPPT","metar":"LPPT 061300Z 23011KT 200V280 CAVOK 26/14 Q1020","updated":"2025-10-06T13:27:30Z"}
