{"icao":"LPLA","metar":"LPLA 040500Z 22003KT 9999 FEW025 BKN035 14/09 Q1022","updated":"2026-04-04T05:55:50Z"}
