{"icao":"KJFK","metar":"KJFK 271451Z 12009KT 10SM SCT250 01/M07 A3016 RMK AO2 SLP211 T00111072 51017 $","updated":"2026-02-27T15:36:28Z"}
