{"icao":"LPMA","metar":"LPMA 291300Z 35011KT 9999 VCSH BKN014 22/18 Q1016","updated":"2025-10-29T13:31:49Z"}
