{"icao":"LPMT","metar":"LPMT 090400Z 13001KT CAVOK 10/10 Q1021","updated":"2025-11-09T05:16:50Z"}
