{"icao":"KLAX","metar":"KLAX 081353Z 10005KT 10SM FEW020 OVC025 18/12 A2986 RMK AO2 SLP109 T01830122 $","updated":"2026-06-08T14:47:03Z"}
