{"icao":"LPAZ","metar":"LPAZ 111030Z 02005KT 350V050 9999 SCT020 BKN027 14/10 Q1033","updated":"2026-03-11T10:37:50Z"}
