{"icao":"LPPT","metar":"LPPT 192300Z 32006KT CAVOK 09/06 Q1030","updated":"2026-02-19T23:28:21Z"}
