{"icao":"LPMA","metar":"LPMA 071800Z 35003KT 250V040 9999 FEW015 19/13 Q1021","updated":"2026-02-07T18:34:11Z"}
