{"icao":"LPPR","metar":"LPPR 252000Z 29003KT 270V330 9000 NSC 18/16 Q1022","updated":"2026-05-25T20:21:31Z"}
