{"icao":"LPFR","metar":"LPFR 080100Z 30003KT CAVOK 16/15 Q1018","updated":"2025-11-08T01:19:24Z"}
