{"icao":"KORD","metar":"KORD 060451Z 21007KT 8SM OVC016 M02/M05 A2975 RMK AO2 SLP083 T10171050 $","updated":"2026-02-06T05:52:16Z"}
