{"icao":"LPLA","metar":"LPLA 021100Z 22006KT 190V270 9999 FEW015 BKN023 25/20 Q1021","updated":"2025-10-02T11:13:39Z"}
