{"icao":"LPPD","metar":"LPPD 182100Z 26009KT 5000 BR SCT002 BKN005 22/22 Q1017","updated":"2025-10-18T21:14:07Z"}
