{"icao":"KJFK","metar":"KJFK 211351Z 23006KT 10SM FEW250 M05/M13 A3056 RMK SLP347 T10501128 $ ","updated":"2026-01-21T14:30:04Z"}
