{"icao":"KORD","metar":"KORD 230051Z 26011G18KT 10SM CLR M09/M18 A3022 RMK AO2 PK WND 28027/0004 SLP246 T10891183 $","updated":"2026-01-23T01:41:46Z"}
