{"icao":"LPMT","metar":"LPMT 131100Z 02005KT 320V040 CAVOK 24/13 Q1016","updated":"2025-10-13T11:15:13Z"}
