{"icao":"KLAX","metar":"KLAX 270053Z 23007KT 10SM FEW026 BKN037 21/17 A2984 RMK AO2 SLP103 T02110172 $","updated":"2025-09-27T01:15:34Z"}
