{"icao":"LPBJ","metar":"LPBJ 181500Z 23012KT 9000 -RA SCT014 OVC035 14/11 Q1020","updated":"2026-02-18T15:51:14Z"}
