{"icao":"LPPT","metar":"LPPT 011430Z 22009KT 190V260 9999 FEW048 21/09 Q1018","updated":"2026-05-01T14:53:43Z"}
