{"icao":"LPFR","metar":"LPFR 110430Z 33003KT CAVOK 08/07 Q1028","updated":"2026-01-11T04:46:24Z"}
