{"icao":"LPPT","metar":"LPPT 291600Z 30009KT 270V340 CAVOK 25/14 Q1015","updated":"2025-09-29T16:17:57Z"}
