{"icao":"LPCS","metar":"LPCS 071900Z 33010KT 9999 FEW014 17/14 Q1018","updated":"2025-11-07T21:13:21Z"}
