{"icao":"LPPR","metar":"LPPR 211300Z 20008KT 160V220 9999 FEW040 18/14 Q1004","updated":"2026-04-21T13:23:49Z"}
