{"icao":"LPOV","metar":"LPOV 141700Z 34010KT 9999 FEW008 22/19 Q1022","updated":"2025-09-14T17:12:41Z"}
