{"icao":"KORD","metar":"KORD 050451Z 26009KT 10SM BKN028 BKN050 05/00 A2996 RMK AO2 SLP150 SHRA AT AP T00500000 $","updated":"2026-04-05T05:11:06Z"}
