{"icao":"LPPR","metar":"LPPR 151900Z 23007KT 190V270 9999 FEW015 16/12 Q1005","updated":"2025-11-15T19:12:23Z"}
