{"icao":"LPMT","metar":"LPMT 040600Z 02012KT 9999 FEW015 BKN030 12/12 Q0999","updated":"2026-01-04T06:30:05Z"}
