{"icao":"LPMR","metar":"LPMR 171700Z 28003KT CAVOK 22/15 Q1014","updated":"2025-10-17T17:15:10Z"}
