{"icao":"LPMA","metar":"LPMA 010900Z 21014KT 9999 SCT015 22/17 Q1017","updated":"2025-11-01T09:16:52Z"}
