{"icao":"LPPS","metar":"LPPS 201730Z 26011KT 9999 SCT010 18/15 Q1003","updated":"2026-04-20T17:56:48Z"}
