{"icao":"LPST","metar":"LPST 120800Z 15005KT 100V180 CAVOK 23/17 Q1019","updated":"2026-06-12T08:23:40Z"}
