{"icao":"KJFK","metar":"KJFK 161131Z 03012KT 10SM FEW012 OVC025 M02/M03 A3010 RMK AO2 SNE30 P0000 T10171033 $","updated":"2026-02-16T11:39:19Z"}
