{"icao":"LPPS","metar":"LPPS 131730Z 01011KT 350V050 9999 FEW015 16/08 Q1025","updated":"2026-04-13T17:58:29Z"}
