{"icao":"LPCR","metar":"LPCR 011730Z 12008KT 090V150 9999 FEW010 BKN035 22/19 Q1031","updated":"2026-07-01T21:26:53Z"}
