{"icao":"KLAX","metar":"KLAX 262153Z 26008KT 6SM HZ FEW010 FEW250 18/14 A3000 RMK AO2 SLP158 T01830139 $","updated":"2025-10-26T22:16:38Z"}
