{"icao":"LPPR","metar":"LPPR 030930Z 20007KT 8000 -SHRA FEW015 FEW020CB BKN025 10/08 Q0998 RESHRA","updated":"2026-02-03T09:39:22Z"}
