{"icao":"LPCS","metar":"LPCS 041330Z 32012KT 280V340 9999 FEW022 18/09 Q1017","updated":"2026-05-04T13:56:53Z"}
