{"icao":"KJFK","metar":"KJFK 221419Z 17016KT 10SM BKN009 OVC040 08/06 A2986 RMK AO2 T00780061 $","updated":"2026-03-22T14:27:25Z"}
