{"icao":"LPCS","metar":"LPCS 151400Z 32006KT 290V350 9999 VCSH FEW011 SCT020 BKN035 13/11 Q1032","updated":"2026-02-15T14:26:08Z"}
