{"icao":"KORD","metar":"KORD 140351Z 30010KT 10SM CLR M16/M22 A3032 RMK AO2 SLP284 T11561222","updated":"2025-12-14T04:35:19Z"}
