{"icao":"LPPD","metar":"LPPD 291900Z 09014KT 9999 FEW018 BKN030 15/09 Q1033","updated":"2026-03-29T19:35:01Z"}
