{"icao":"LPPT","metar":"LPPT 131730Z 29008KT 260V320 9999 FEW030 SCT038 15/08 Q1022","updated":"2026-04-13T17:58:27Z"}
