{"icao":"LPMT","metar":"LPMT 201900Z 10007KT 9999 FEW010 BKN025 15/13 Q1007","updated":"2026-03-20T19:35:57Z"}
