{"icao":"LPFR","metar":"LPFR 130300Z 15016KT 9999 -RA FEW030 20/18 Q1006","updated":"2025-11-13T03:13:33Z"}
