{"icao":"LPOV","metar":"LPOV 221300Z 21011KT 3000 -RADZ BR BKN004 BKN014 20/19 Q1016","updated":"2025-10-22T13:31:47Z"}
