{"icao":"LPBJ","metar":"LPBJ 132000Z 26007KT 220V310 CAVOK 26/15 Q1016","updated":"2026-06-13T20:13:44Z"}
