{"icao":"LPFL","metar":"LPFL 051400Z 21020G30KT 170V240 9999 SCT015 17/12 Q1009","updated":"2026-04-05T14:34:11Z"}
