{"icao":"KJFK","metar":"KJFK 122151Z 25008KT 10SM BKN065 BKN110 09/M01 A2975 RMK AO2 SLP074 T00941011 $","updated":"2025-11-12T22:17:50Z"}
