{"icao":"LPFR","metar":"LPFR 221600Z 09011KT CAVOK 20/03 Q1025","updated":"2026-02-22T16:28:03Z"}
