{"icao":"LPFR","metar":"LPFR 302130Z 30010KT CAVOK 17/09 Q1018","updated":"2026-04-30T22:02:32Z"}
