{"icao":"KORD","metar":"KORD 270451Z 28016G25KT 10SM OVC037 M01/M08 A3006 RMK AO2 PK WND 28029/0429 SLP188 T10061078","updated":"2025-11-27T05:19:26Z"}
