{"icao":"LPPS","metar":"LPPS 072100Z 03010KT 9999 SCT012 22/18 Q1026","updated":"2025-10-07T21:14:48Z"}
