{"icao":"LPPS","metar":"LPPS 110500Z 06006KT 020V080 9999 SCT015 BKN030 21/14 Q1020","updated":"2025-10-11T05:16:02Z"}
