{"icao":"LPCS","metar":"LPCS 251030Z 01006KT 340V040 9999 VCSH FEW005 BKN032 14/13 Q1017","updated":"2026-02-25T10:50:20Z"}
