{"icao":"LPPT","metar":"LPPT 220430Z 05006KT CAVOK 13/11 Q1010","updated":"2026-03-22T04:50:39Z"}
