{"icao":"LPFR","metar":"LPFR 120200Z 32011KT CAVOK 12/04 Q1013","updated":"2026-04-12T02:29:42Z"}
