{"icao":"LPAZ","metar":"LPAZ 271530Z 15011KT 9999 FEW014 20/16 Q1020","updated":"2026-04-27T15:47:01Z"}
