{"icao":"LPPD","metar":"LPPD 030400Z 32010KT 290V350 9999 SCT018 14/11 Q1007","updated":"2026-01-03T04:31:27Z"}
