{"icao":"KORD","metar":"KORD 040951Z 31007KT 10SM OVC035 M04/M13 A3013 RMK AO2 SLP214 T10391128 $","updated":"2026-01-04T10:19:48Z"}
