{"icao":"LPFL","metar":"LPFL 051400Z 16013KT 9999 FEW019 SCT034 18/15 Q1015","updated":"2025-12-05T14:20:07Z"}
