{"icao":"KORD","metar":"KORD 282251Z 08009KT 10SM CLR 24/09 A3016 RMK AO2 SLP210 T02390089 $","updated":"2025-09-28T23:15:09Z"}
