{"icao":"LPMR","metar":"LPMR 272300Z 21018G28KT 8000 -RA OVC007 18/18 Q1009","updated":"2025-09-27T23:14:43Z"}
