{"icao":"LPBJ","metar":"LPBJ 071000Z 20020KT 2500 RADZ BR BKN006 OVC020 12/11 Q1007","updated":"2026-02-07T10:23:58Z"}
