{"icao":"LPLA","metar":"LPLA 202000Z 32022KT 9999 BKN030 OVC040 15/08 Q1029","updated":"2025-12-20T20:19:32Z"}
