{"icao":"KORD","metar":"KORD 191451Z 32012G18KT 10SM FEW046 21/09 A2996 RMK AO2 SLP143 T02110089 51010 $","updated":"2026-06-19T15:12:48Z"}
