{"icao":"KLAX","metar":"KLAX 281233Z 30005KT 5SM BR BKN006 14/13 A2998 RMK AO2 T01440133 $","updated":"2026-03-28T12:53:10Z"}
