{"icao":"LPPD","metar":"LPPD 261300Z 02025G36KT 360V060 9000 -SHRA FEW018 FEW022TCU 17/12 Q1021","updated":"2025-10-26T13:22:16Z"}
