{"icao":"LPPS","metar":"LPPS 190300Z 32012KT 9999 BKN008 21/20 Q1017","updated":"2025-10-19T03:14:35Z"}
