{"icao":"LPPS","metar":"LPPS 212300Z 06008KT 030V100 9999 SCT015 16/11 Q1027","updated":"2026-02-21T23:22:25Z"}
