{"icao":"LPPD","metar":"LPPD 022130Z 04014KT 010V070 9999 -SHRA FEW010 16/13 Q1020","updated":"2026-05-02T21:39:11Z"}
