{"icao":"LPAR","metar":"LPAR 091500Z 34007KT 300V030 9999 SCT025 15/08 Q1028","updated":"2026-01-09T15:22:35Z"}
