{"icao":"LPBJ","metar":"LPBJ 190100Z 30005KT CAVOK 04/02 Q1017","updated":"2026-01-19T01:46:28Z"}
