{"icao":"KORD","metar":"KORD 121451Z 20015G30KT 10SM SCT120 BKN250 21/13 A2995 RMK AO2 PK WND 19031/1418 SLP143 T02060128 58014 $","updated":"2026-04-12T15:35:10Z"}
