{"icao":"KJFK","metar":"KJFK 252020Z 06019G24KT 2SM R04R/4000VP6000FT PLSN BR FEW009 OVC015 M07/M09 A3010 RMK AO2 SNB19 P0004 T10721089 $","updated":"2026-01-25T20:22:49Z"}
