{"icao":"LPLA","metar":"LPLA 292300Z VRB02KT CAVOK 20/16 Q1031","updated":"2026-06-30T00:02:57Z"}
