{"icao":"LPPD","metar":"LPPD 091600Z 30012KT 270V330 9999 VCSH FEW020 BKN040 19/12 Q1024","updated":"2025-11-09T16:19:48Z"}
