{"icao":"KLAX","metar":"KLAX 051353Z 02005KT 10SM SCT220 16/M02 A3003 RMK AO2 SLP166 T01611017 $","updated":"2026-02-05T14:08:24Z"}
