{"icao":"LPAZ","metar":"LPAZ 050700Z 06006KT 9999 FEW022 BKN048 13/08 Q1026","updated":"2026-01-05T07:27:20Z"}
