{"icao":"LPST","metar":"LPST 051500Z 25019G31KT 9999 BKN020 SCT025 14/11 Q0997","updated":"2026-02-05T15:39:07Z"}
