{"icao":"LPLA","metar":"LPLA 011500Z 02007KT 320V100 9999 BKN045 18/06 Q1022","updated":"2025-11-01T15:15:05Z"}
