{"icao":"LPFR","metar":"LPFR 140330Z 02006KT CAVOK 10/09 Q1017","updated":"2026-01-14T03:45:52Z"}
