{"icao":"LPOV","metar":"LPOV 081100Z 27008KT 9999 FEW018 14/11 Q1022","updated":"2026-03-08T11:19:57Z"}
