{"icao":"LPMT","metar":"LPMT 271700Z 36011KT 9999 BKN025 15/12 Q1024","updated":"2026-02-27T17:33:58Z"}
