{"icao":"LPPR","metar":"LPPR 251300Z 36006KT 330V040 9999 -RA NSC 16/13 Q1015","updated":"2025-10-25T13:21:34Z"}
