{"icao":"LPPD","metar":"LPPD 102100Z 21025KT 2000 RA BR SCT007 BKN010 BKN025 18/17 Q1015","updated":"2025-12-11T03:23:26Z"}
