{"icao":"LPMR","metar":"LPMR 272000Z 30003KT 8000 NSC 16/15 Q1012","updated":"2026-04-27T21:00:17Z"}
