{"icao":"LPFR","metar":"LPFR 181100Z 02014KT 9999 FEW030 11/05 Q1011","updated":"2026-01-18T11:15:52Z"}
