{"icao":"LPAZ","metar":"LPAZ 192000Z 18009KT 9999 FEW005 BKN049 16/15 Q1024","updated":"2026-02-19T20:30:55Z"}
