{"icao":"LPMR","metar":"LPMR 121000Z 34015KT 9999 FEW020 14/06 Q1020","updated":"2026-04-12T10:36:56Z"}
