{"icao":"LPPT","metar":"LPPT 251030Z 07004KT 340V110 CAVOK 19/10 Q1021","updated":"2026-03-25T10:47:39Z"}
