{"icao":"LPFR","metar":"LPFR 090330Z 34005KT CAVOK 16/13 Q1019","updated":"2025-10-09T03:35:10Z"}
