{"icao":"KJFK","metar":"KJFK 101951Z 19015KT 10SM FEW028 FEW075 BKN100 OVC250 07/02 A2947 RMK AO2 PK WND 19028/1858 SLP977 T00720022","updated":"2025-12-10T20:23:25Z"}
