{"icao":"LPFR","metar":"LPFR 221800Z 24017G29KT 6000 -RADZ FEW015 SCT018 BKN025 14/12 Q1009","updated":"2026-01-22T18:31:15Z"}
