{"icao":"LPMT","metar":"LPMT 010300Z 03004KT CAVOK 06/05 Q1021","updated":"2025-12-01T03:49:59Z"}
