{"icao":"LPOV","metar":"LPOV 211700Z 34006KT 300V360 CAVOK 27/11 Q1020","updated":"2026-05-21T17:56:38Z"}
