{"icao":"KORD","metar":"KORD 221851Z 29014G22KT 10SM OVC032 10/03 A2986 RMK AO2 SLP113 T01000028","updated":"2025-10-22T19:14:00Z"}
