{"icao":"KJFK","metar":"KJFK 191451Z 17034G48KT 2SM -RA BR BKN007 OVC016 13/13 A2932 RMK AO2 PK WND 17048/1450 SFC VIS 3 SLP929 P0022 60068 T01330128 58083","updated":"2025-12-19T15:21:07Z"}
