{"icao":"LPPS","metar":"LPPS 211900Z 30014KT 5000 -DZ BR SCT004 BKN010 17/16 Q1019","updated":"2026-01-21T19:25:28Z"}
