{"icao":"LPPT","metar":"LPPT 082100Z 01008KT 320V040 9999 BKN016 18/15 Q1022","updated":"2025-10-08T21:15:46Z"}
