{"icao":"LPPS","metar":"LPPS 011000Z 03014KT 010V070 9999 FEW015 BKN030 22/16 Q1022","updated":"2025-10-01T10:18:49Z"}
