{"icao":"LPFL","metar":"LPFL 171030Z 34024G39KT 9999 SCT020 FEW022TCU 10/03 Q1020","updated":"2026-03-17T10:50:36Z"}
