{"icao":"LPCS","metar":"LPCS 070700Z 22010KT 200V270 9999 FEW006 SCT018 18/17 Q1016","updated":"2025-11-07T07:17:54Z"}
