{"icao":"LPPR","metar":"LPPR 031030Z 28007KT 230V330 8000 -SHRA FEW020CB BKN030 10/07 Q0999","updated":"2026-02-03T10:38:23Z"}
