{"icao":"LPMA","metar":"LPMA 152200Z 34011KT 310V010 9999 FEW015 20/12 Q1017","updated":"2025-11-15T22:14:21Z"}
