{"icao":"LPFR","metar":"LPFR 182330Z 31005KT CAVOK 15/09 Q1021","updated":"2026-05-19T00:04:21Z"}
