{"icao":"LPMT","metar":"LPMT 071100Z 23012KT 200V260 9999 SCT020 SCT035 21/17 Q1016","updated":"2025-11-07T11:15:07Z"}
