{"icao":"KLAX","metar":"KLAX 161231Z 32004KT 1 1/4SM BR BKN002 BKN004 19/18 A2990 RMK AO2 VIS 3/4V2 T01890178","updated":"2025-09-16T12:36:11Z"}
