{"icao":"LPPS","metar":"LPPS 271900Z 03014KT 9000 VCSH BKN010 16/14 Q1027","updated":"2026-02-27T19:32:07Z"}
