{"icao":"KJFK","metar":"KJFK 270311Z 04007KT 4SM -SN BR OVC006 M03/M04 A2995 RMK AO2 P0001 T10281039 $","updated":"2025-12-27T03:22:04Z"}
