{"icao":"KJFK","metar":"KJFK 301851Z 19009KT 10SM FEW085 FEW120 BKN250 16/06 A3010 RMK AO2 SLP193 T01610061 $","updated":"2026-03-30T18:59:01Z"}
