{"icao":"LPCS","metar":"LPCS 211230Z 27012KT 230V310 9999 VCSH FEW004 SCT009 BKN012 15/15 Q1007","updated":"2026-01-21T12:47:48Z"}
