{"icao":"LPMR","metar":"LPMR 231000Z 05004KT 030V100 CAVOK 18/07 Q1020","updated":"2025-09-23T10:18:29Z"}
