{"icao":"LPPR","metar":"LPPR 301500Z 22008KT 190V260 9999 FEW017 18/12 Q1017","updated":"2026-04-30T15:08:34Z"}
