{"icao":"KLAX","metar":"KLAX 121653Z VRB03KT 10SM FEW002 FEW300 15/11 A3005 RMK AO2 SLP174 T01500111 $","updated":"2025-12-12T17:18:40Z"}
