{"icao":"LPMR","metar":"LPMR 302200Z 16005KT CAVOK 17/14 Q1013","updated":"2025-10-30T22:17:18Z"}
