{"icao":"KJFK","metar":"KJFK 100751Z 12004KT 10SM FEW250 04/04 A3002 RMK AO2 SLP166 T00440039 $","updated":"2026-03-10T08:40:18Z"}
