{"icao":"LPFR","metar":"LPFR 210630Z 02007KT CAVOK 10/06 Q1027","updated":"2026-02-21T06:39:58Z"}
