{"icao":"LPPR","metar":"LPPR 141300Z 13008KT CAVOK 17/09 Q1019","updated":"2025-12-14T13:26:00Z"}
