{"icao":"LPBJ","metar":"LPBJ 290300Z 05003KT 8000 3000S BCFG FEW003 06/06 Q1017","updated":"2025-12-29T03:47:40Z"}
