{"icao":"LPPR","metar":"LPPR 082030Z 02003KT 340V100 8000 NSC 13/12 Q1021","updated":"2026-04-08T20:40:27Z"}
