{"icao":"LPLA","metar":"LPLA 301400Z 11016KT 8000 -RADZ SCT002 BKN005 16/15 Q1009","updated":"2025-12-30T14:20:19Z"}
