{"icao":"KORD","metar":"KORD 061814Z 30012KT 5SM HZ OVC014 06/03 A2957 RMK AO2 T00610028","updated":"2026-01-06T18:30:33Z"}
