{"icao":"KORD","metar":"KORD 270851Z 24020G30KT 7SM SCT120 M11/M16 A2992 RMK AO2 PK WND 24030/0850 SLP146 T11061161 56021","updated":"2026-01-27T09:32:21Z"}
