{"icao":"LPMR","metar":"LPMR 050600Z 17014KT 9000 TS SCT025CB BKN035 17/16 Q1005","updated":"2025-11-05T06:27:46Z"}
