{"icao":"LPPT","metar":"LPPT 012300Z 36005KT CAVOK 20/11 Q1020","updated":"2025-10-01T23:15:33Z"}
