{"icao":"KJFK","metar":"KJFK 170651Z 27026G39KT 10SM -RA SCT019 BKN035 OVC070 06/02 A2952 RMK AO2 PK WND 26039/0649 SLP994 P0000 T00610017","updated":"2026-03-17T07:12:56Z"}
