{"icao":"LPPR","metar":"LPPR 171030Z 34005KT 290V030 9999 FEW009 SCT012 15/12 Q1020","updated":"2026-04-17T10:54:11Z"}
