{"icao":"LPOV","metar":"LPOV 241200Z 28012KT 6000 -SHRA SCT004 SCT013 16/16 Q1014 RERADZ","updated":"2025-11-24T12:39:37Z"}
