{"icao":"LPST","metar":"LPST 191600Z 33012KT 300V360 9999 FEW030 13/05 Q1028","updated":"2026-02-19T16:51:01Z"}
