{"icao":"LPBJ","metar":"LPBJ 161400Z 08011KT 050V110 CAVOK 21/05 Q1019","updated":"2026-03-16T14:58:13Z"}
