{"icao":"LPST","metar":"LPST 150900Z 18003KT 140V220 9999 FEW011 11/09 Q1011","updated":"2025-12-15T09:30:34Z"}
