{"icao":"LPHR","metar":"LPHR 041100Z 31022G36KT 9999 FEW018 SCT080 17/10 Q1006","updated":"2025-11-04T11:16:59Z"}
