{"icao":"LPMA","metar":"LPMA 040800Z 02010KT 350V050 9999 FEW015 22/17 Q1026","updated":"2025-10-04T08:20:15Z"}
