{"icao":"LPCS","metar":"LPCS 220700Z VRB02KT 9000 -SHRA FEW010 FEW020TCU SCT035 07/07 Q1012","updated":"2025-12-22T07:23:13Z"}
