{"icao":"LPBJ","metar":"LPBJ 090400Z 17010KT CAVOK 11/09 Q1020","updated":"2025-12-09T04:27:51Z"}
