{"icao":"LPPS","metar":"LPPS 140430Z 04016G26KT 010V070 9999 SCT014 17/13 Q1017","updated":"2025-12-14T04:35:18Z"}
