{"icao":"LPFL","metar":"LPFL 251000Z 21018G28KT 170V250 4500 RA BR SCT007 BKN011 FEW018TCU 18/16 Q1008","updated":"2026-01-25T10:20:41Z"}
