{"icao":"LPPR","metar":"LPPR 010900Z 00000KT CAVOK 21/13 Q1022","updated":"2025-10-01T09:19:36Z"}
