{"icao":"KLAX","metar":"KLAX 302253Z 02008KT 10SM SCT150 22/03 A3004 RMK AO2 SLP170 T02220028 $","updated":"2025-12-30T23:18:25Z"}
