{"icao":"LPMT","metar":"LPMT 222200Z 25004KT 200V280 9999 SCT026 12/12 Q1015","updated":"2025-12-22T22:19:09Z"}
