{"icao":"KLAX","metar":"KLAX 300653Z 13003KT 5SM BR FEW250 14/13 A3002 RMK AO2 SLP162 T01440128 $","updated":"2025-11-30T07:16:55Z"}
