{"icao":"LPMA","metar":"LPMA 042000Z 01007KT 330V060 9999 BKN014 15/10 Q1022","updated":"2026-03-04T20:30:13Z"}
