{"icao":"LPPT","metar":"LPPT 060300Z 36007KT CAVOK 07/04 Q1019","updated":"2026-01-06T03:27:47Z"}
