{"icao":"LPPT","metar":"LPPT 220600Z 34005KT 300V360 CAVOK 20/15 Q1017","updated":"2026-06-22T06:27:34Z"}
