{"icao":"LPLA","metar":"LPLA 010700Z 32021KT 8000 -RA BKN008 BKN015 16/15 Q1025 REDZRA","updated":"2025-12-01T07:22:14Z"}
