{"icao":"KJFK","metar":"KJFK 072151Z 30020G26KT 10SM BKN042 09/01 A2986 RMK AO2 PK WND 30026/2057 SLP110 T00890006 $","updated":"2026-01-07T22:19:53Z"}
