{"icao":"LPHR","metar":"LPHR 261730Z VRB06G16KT 9999 FEW015 19/14 Q1030","updated":"2026-02-26T17:56:31Z"}
