{"icao":"KLAX","metar":"KLAX 270949Z 27004KT 1 1/2SM BR VV002 16/15 A2993 RMK AO2 VIS SW-N 1","updated":"2026-03-27T09:53:36Z"}
