{"icao":"LPFR","metar":"LPFR 132000Z 33009KT CAVOK 16/10 Q1019","updated":"2026-03-13T20:33:01Z"}
