{"icao":"LPOV","metar":"LPOV 211100Z 35008KT CAVOK 12/03 Q1029","updated":"2025-11-21T11:15:47Z"}
