{"icao":"LPFL","metar":"LPFL 042100Z 32012G26KT 240V020 9999 FEW017 SCT020 FEW024TCU 13/07 Q0996","updated":"2026-02-04T23:26:03Z"}
