{"icao":"KORD","metar":"KORD 021851Z 32004KT 10SM BKN070 11/M04 A3007 RMK AO2 SLP187 VIRGA T01061044 $","updated":"2026-05-02T18:57:42Z"}
