{"icao":"KJFK","metar":"KJFK 031151Z 33012KT 10SM FEW035 00/M05 A2997 RMK AO2 SLP147 70088 T00001050 10022 21006 51034","updated":"2025-12-03T12:41:18Z"}
