{"icao":"LPPD","metar":"LPPD 041630Z 25022KT 8000 BKN014 16/13 Q0994","updated":"2026-02-04T16:45:25Z"}
