{"icao":"LPLA","metar":"LPLA 291400Z 32004KT 290V350 9999 4000W VCSH FEW008 SCT018 BKN035 23/22 Q1023","updated":"2025-09-29T14:18:14Z"}
