{"icao":"LPPD","metar":"LPPD 111500Z 01010KT 340V040 9999 FEW022 BKN040 14/07 Q1033","updated":"2026-04-11T15:32:27Z"}
