{"icao":"LPMR","metar":"LPMR 022200Z VRB02KT 8000 FEW007 16/15 Q1023","updated":"2025-10-02T22:15:40Z"}
