{"icao":"LPPD","metar":"LPPD 290730Z 21012KT 9999 FEW006 18/16 Q1022","updated":"2026-05-29T07:53:43Z"}
