{"icao":"KJFK","metar":"KJFK 162051Z 24012KT 10SM SCT250 M02/M11 A3017 RMK AO2 SLP217 T10171106 56007 $","updated":"2025-12-16T21:19:44Z"}
