{"icao":"LPMR","metar":"LPMR 130900Z 16015KT 120V180 8000 -TSRA FEW016 SCT022CB 16/14 Q1000","updated":"2025-11-13T09:20:26Z"}
