{"icao":"LPPD","metar":"LPPD 301600Z 28008KT 240V300 9999 SCT016 SCT030 18/15 Q1026","updated":"2025-11-30T16:21:45Z"}
