{"icao":"LPPT","metar":"LPPT 110800Z VRB02KT 1500 -DZ BR FEW001 BKN010 10/10 Q1027","updated":"2026-01-11T08:25:27Z"}
