{"icao":"LPPR","metar":"LPPR 230200Z VRB01KT 5000 BR NSC 10/09 Q1013","updated":"2026-03-23T02:07:49Z"}
