{"icao":"LPFR","metar":"LPFR 230300Z VRB02KT CAVOK 16/06 Q1014","updated":"2025-09-23T03:30:57Z"}
