{"icao":"KJFK","metar":"KJFK 040251Z 21006KT 10SM CLR 18/09 A3020 RMK AO2 SLP225 T01780094 51006 $","updated":"2026-06-04T03:53:33Z"}
