{"icao":"LPMA","metar":"LPMA 161900Z 21013KT 9999 FEW015 22/19 Q1013","updated":"2025-10-16T19:12:44Z"}
