{"icao":"LPPD","metar":"LPPD 271400Z 21009KT 8000 -RA SCT005 BKN014 17/16 Q1022","updated":"2025-11-27T14:18:49Z"}
