{"icao":"KORD","metar":"KORD 141551Z 10008KT 10SM FEW030 SCT110 OVC250 02/M07 A3020 RMK AO2 SLP232 T00221067 $","updated":"2026-03-14T16:30:24Z"}
