{"icao":"LPBJ","metar":"LPBJ 131028Z 36003KT 290V070 3000 1000N PRFG BKN002 10/10 Q1024","updated":"2026-03-13T10:35:13Z"}
