{"icao":"LPAZ","metar":"LPAZ 021400Z 35010KT 9999 FEW030 BKN042 17/09 Q1030","updated":"2025-12-02T14:20:44Z"}
