{"icao":"KORD","metar":"KORD 061108Z 21006KT 3SM -SN BR SCT021 OVC026 M01/M03 A2959 RMK AO2 PRESFR P0001 T10111028 $","updated":"2026-02-06T11:32:46Z"}
