{"icao":"LPFR","metar":"LPFR 222200Z 24018KT 9000 -RA SCT007 BKN012 16/14 Q1007","updated":"2026-01-22T22:21:21Z"}
