{"icao":"LPHR","metar":"LPHR 071400Z 02009KT 340V060 9999 -RA FEW005 BKN095 15/14 Q1021","updated":"2026-03-07T14:23:01Z"}
