{"icao":"LPPS","metar":"LPPS 212200Z VRB02KT 9999 BKN013 22/21 Q1022","updated":"2025-10-21T22:15:50Z"}
