{"icao":"KJFK","metar":"KJFK 251351Z 36009KT 10SM FEW060 12/03 A3038 RMK AO2 SLP286 T01220028","updated":"2025-10-25T14:14:55Z"}
