{"icao":"LPFR","metar":"LPFR 021100Z 10009KT 050V130 CAVOK 25/16 Q1021","updated":"2025-10-02T11:13:36Z"}
