{"icao":"LPLA","metar":"LPLA 280900Z 10007KT 070V130 9999 FEW018 OVC025 14/09 Q1033","updated":"2026-03-28T09:36:08Z"}
