{"icao":"LPFL","metar":"LPFL 061100Z 18020G31KT 9999 FEW021 16/09 Q1026","updated":"2026-03-06T11:27:48Z"}
