{"icao":"KORD","metar":"KORD 222351Z 03011KT 10SM BKN085 OVC250 17/06 A2999 RMK AO2 SLP154 T01670056 10189 20167 56012","updated":"2026-05-23T00:05:24Z"}
