{"icao":"KORD","metar":"KORD 022251Z 22006KT 10SM FEW045 SCT170 BKN250 09/M01 A3011 RMK AO2 SLP199 T00941006 $","updated":"2025-11-02T23:15:35Z"}
