{"icao":"LPBJ","metar":"LPBJ 311900Z 24004KT 9999 FEW030 12/09 Q1021","updated":"2026-01-31T19:19:30Z"}
