{"icao":"LPPR","metar":"LPPR 060500Z 28006KT 250V310 9999 FEW020 15/09 Q1012","updated":"2025-11-06T05:18:46Z"}
