{"icao":"LPAZ","metar":"LPAZ 141500Z 26018KT 9999 FEW015 SCT020 BKN028 17/12 Q1025","updated":"2026-01-14T15:24:45Z"}
