{"icao":"LPMT","metar":"LPMT 280000Z 01006KT CAVOK 13/10 Q1018","updated":"2026-03-28T02:03:41Z"}
