{"icao":"LPPD","metar":"LPPD 251600Z 04015KT 010V070 9999 FEW018 SCT030 19/15 Q1017","updated":"2025-10-25T16:19:46Z"}
