{"icao":"LPOV","metar":"LPOV 240700Z 18005KT 0800 -DZ FG OVC002 19/19 Q1014","updated":"2026-06-24T07:38:48Z"}
