{"icao":"LPMA","metar":"LPMA 181500Z 02016G27KT 330V060 9999 SCT015 17/09 Q1019","updated":"2026-01-18T15:18:03Z"}
