{"icao":"LPPD","metar":"LPPD 132300Z 21006KT 9999 FEW017 20/16 Q1014","updated":"2025-10-13T23:15:27Z"}
