{"icao":"KLAX","metar":"KLAX 242053Z 23007G17KT 10SM FEW010 FEW035 SCT120 SCT160 BKN250 22/12 A2989 RMK AO2 SLP119 T02220122 56014 $","updated":"2026-04-24T21:45:55Z"}
