{"icao":"LPCS","metar":"LPCS 071700Z 34015KT 9999 FEW018 13/08 Q1018","updated":"2026-03-07T17:20:00Z"}
