{"icao":"KJFK","metar":"KJFK 242151Z 13007KT 10SM BKN010 BKN060 BKN120 OVC250 22/20 A3004 RMK AO2 SLP170 T02220200 $","updated":"2025-09-24T22:16:04Z"}
