{"icao":"LPMA","metar":"LPMA 081630Z 28010KT 240V300 9999 BKN015 17/08 Q1019","updated":"2026-04-08T17:00:48Z"}
