{"icao":"LPOV","metar":"LPOV 081600Z 34007KT 8000 -RA FEW026 14/12 Q1018","updated":"2026-04-08T17:00:32Z"}
