{"icao":"LPBJ","metar":"LPBJ 170900Z 08005KT CAVOK 19/15 Q1015","updated":"2025-10-17T09:19:37Z"}
