{"icao":"LPMT","metar":"LPMT 091700Z 35015KT CAVOK 23/08 Q1018","updated":"2026-06-09T18:02:59Z"}
