{"icao":"LPFL","metar":"LPFL 181600Z VRB03KT 9000 -DZ FEW005 SCT009 BKN015 24/22 Q1013","updated":"2025-10-18T16:19:31Z"}
