{"icao":"LPOV","metar":"LPOV 271700Z 34017KT 9999 FEW018 14/02 Q1025","updated":"2026-02-27T17:33:57Z"}
