{"icao":"LPAZ","metar":"LPAZ 022100Z 15004KT 9999 FEW008 22/21 Q1022","updated":"2025-10-02T21:14:51Z"}
