{"icao":"LPHR","metar":"LPHR 281600Z 29009KT 230V330 9999 FEW025 17/08 Q1027","updated":"2025-11-28T16:23:25Z"}
