{"icao":"KLAX","metar":"KLAX 020453Z 24008KT 10SM CLR 19/16 A3000 RMK AO2 SLP156 T01890161 $","updated":"2025-10-02T05:16:26Z"}
