{"icao":"LPOV","metar":"LPOV 051500Z 17009KT 140V200 7000 -SHRA SCT014 BKN020 SCT022CB BKN035 15/11 Q1005 RESHRA","updated":"2025-11-05T16:24:22Z"}
