{"icao":"KORD","metar":"KORD 080617Z 32005KT 10SM OVC031 M08/M12 A3031 RMK AO2 SNE17 P0000 T10831122","updated":"2025-12-08T06:33:16Z"}
