{"icao":"LPFR","metar":"LPFR 100400Z 03005KT CAVOK 18/14 Q1018","updated":"2025-10-10T04:20:53Z"}
