{"icao":"LPLA","metar":"LPLA 310600Z 33005KT 300V360 9999 FEW025 14/12 Q1004","updated":"2025-12-31T06:32:07Z"}
