{"icao":"LPHR","metar":"LPHR 311100Z 35010KT 300V030 9999 FEW018 SCT035 18/12 Q1011","updated":"2025-10-31T11:15:19Z"}
