{"icao":"LPFL","metar":"LPFL 111600Z 02008KT 360V060 9999 SCT024 FEW026TCU SCT049 15/10 Q1025","updated":"2026-05-11T16:31:57Z"}
