{"icao":"KORD","metar":"KORD 011751Z 17006KT 10SM FEW039 BKN120 OVC250 M02/M08 A3028 RMK AO2 SLP263 4/006 933005 T10171083 11017 21072 58034","updated":"2025-12-01T18:31:39Z"}
