{"icao":"LPBJ","metar":"LPBJ 220100Z 09006KT CAVOK 12/07 Q1028","updated":"2026-02-22T02:03:22Z"}
