{"icao":"LPPT","metar":"LPPT 281230Z 35007KT 320V020 9999 FEW028 15/09 Q1023","updated":"2025-11-28T12:38:28Z"}
