{"icao":"KORD","metar":"KORD 161851Z 22008KT 10SM FEW042 BKN250 27/15 A2988 RMK AO2 SLP113 T02720150","updated":"2026-05-16T19:01:51Z"}
