{"icao":"LPPD","metar":"LPPD 221730Z 01010KT 320V050 9999 FEW025 21/15 Q1026","updated":"2026-06-22T17:39:18Z"}
