{"icao":"LPPD","metar":"LPPD 290700Z 15007KT 9999 FEW020 BKN035 21/17 Q1026","updated":"2025-09-29T07:18:17Z"}
