{"icao":"KLAX","metar":"KLAX 050653Z 25006KT 10SM OVC014 17/13 A3013 RMK AO2 SLP203 T01670133 $","updated":"2025-11-05T07:18:29Z"}
