{"icao":"KJFK","metar":"KJFK 050451Z 25008KT 10SM FEW250 09/00 A3016 RMK AO2 SLP214 T00890000 401610083 $","updated":"2025-11-05T05:19:27Z"}
