{"icao":"KJFK","metar":"KJFK 311651Z 27027G33KT 10SM BKN047 13/03 A2940 RMK AO2 PK WND 28039/1615 SLP954 T01330028 $","updated":"2025-10-31T17:16:54Z"}
