{"icao":"KJFK","metar":"KJFK 200151Z 32013G26KT 10SM -RA FEW046 BKN055 OVC080 08/00 A3008 RMK PK WND 32029/0138 RAB32 CIG 048 W SLP186 P0000 T00780000 ","updated":"2026-04-20T02:35:11Z"}
