{"icao":"KJFK","metar":"KJFK 280551Z 28004KT 10SM SCT025 11/03 A3022 RMK SLP232 T01060028 10106 20083 50007 ","updated":"2026-04-28T05:58:13Z"}
