{"icao":"KORD","metar":"KORD 191551Z 28021G33KT 10SM FEW022 M18/M25 A3017 RMK AO2 PK WND 29033/1549 SLP230 DRSN T11781250 $","updated":"2026-01-19T16:27:55Z"}
