{"icao":"LPPT","metar":"LPPT 080230Z 29003KT 9999 FEW020 14/12 Q1019","updated":"2025-11-08T03:00:51Z"}
