{"icao":"LPLA","metar":"LPLA 261100Z 21009KT 180V240 9999 FEW014 SCT018 18/14 Q1024","updated":"2025-11-26T11:16:45Z"}
