{"icao":"LPHR","metar":"LPHR 121330Z 31021KT 9999 VCSH SCT018 15/09 Q1018","updated":"2026-01-12T13:41:28Z"}
