{"icao":"KORD","metar":"KORD 030151Z 21005KT 10SM FEW090 FEW250 11/M03 A2999 RMK AO2 SLP159 T01061033","updated":"2026-05-03T02:47:53Z"}
