{"icao":"LPFR","metar":"LPFR 070330Z VRB02KT CAVOK 20/15 Q1017","updated":"2026-06-07T03:45:47Z"}
