{"icao":"KJFK","metar":"KJFK 220551Z 04006KT 10SM BKN100 OVC250 07/M02 A2999 RMK AO2 SLP155 T00721017 10100 20067 55001","updated":"2026-03-22T06:50:39Z"}
