{"icao":"LPFL","metar":"LPFL 201800Z 34012KT 9999 SCT032 15/07 Q1032","updated":"2025-12-20T18:24:34Z"}
