{"icao":"LPPT","metar":"LPPT 131700Z 30008KT CAVOK 27/10 Q1015","updated":"2025-10-13T17:15:16Z"}
