{"icao":"KJFK","metar":"KJFK 211251Z 34006KT 10SM FEW250 06/M09 A3041 RMK SLP297 T00561089 ","updated":"2026-04-21T13:24:14Z"}
