{"icao":"KJFK","metar":"KJFK 280051Z 07003KT 10SM FEW250 01/M02 A3017 RMK AO2 SLP215 T00061017","updated":"2026-02-28T01:49:02Z"}
