{"icao":"KJFK","metar":"KJFK 121551Z 24012KT 10SM FEW050 BKN130 BKN250 31/21 A2972 RMK AO2 SLP062 T03110206 $","updated":"2026-06-12T16:16:04Z"}
