{"icao":"LPMT","metar":"LPMT 200300Z 29003KT 9999 FEW025 10/08 Q1021","updated":"2026-01-20T03:42:24Z"}
