{"icao":"LPHR","metar":"LPHR 211900Z 13014KT 9999 SCT017 BKN035 17/11 Q1031","updated":"2025-11-21T19:15:39Z"}
