{"icao":"LPMA","metar":"LPMA 011930Z 05005KT 9999 FEW015 18/12 Q1019","updated":"2026-05-01T20:02:48Z"}
