{"icao":"LPLA","metar":"LPLA 031800Z 26006KT 220V290 9999 FEW016 SCT025 20/16 Q1009","updated":"2025-11-03T18:26:49Z"}
