{"icao":"KJFK","metar":"KJFK 181228Z 00000KT 1 1/2SM -RASN BR OVC009 01/00 A3009 RMK AO2 SFC VIS 2 1/2 P0004 T00060000 $","updated":"2026-01-18T12:37:47Z"}
