{"icao":"LPMT","metar":"LPMT 011000Z 02007KT CAVOK 24/14 Q1021","updated":"2025-10-01T10:18:32Z"}
