{"icao":"LPPS","metar":"LPPS 250400Z 21004KT 9999 FEW014 SCT030 22/17 Q1016","updated":"2025-10-25T04:20:27Z"}
