{"icao":"LPMR","metar":"LPMR 240500Z 14001KT CAVOK 11/11 Q1015","updated":"2026-04-24T05:33:37Z"}
