{"icao":"LPPR","metar":"LPPR 262000Z 05003KT 020V090 CAVOK 13/11 Q1021","updated":"2025-10-26T20:18:45Z"}
