{"icao":"KLAX","metar":"KLAX 040753Z 08003KT 9SM FEW005 FEW008 OVC012 17/14 A2990 RMK AO2 SLP123 T01670144 402060156 $","updated":"2026-06-04T08:19:44Z"}
