{"icao":"LPFR","metar":"LPFR 270800Z 08006KT 040V100 CAVOK 20/13 Q1013","updated":"2026-04-27T08:22:19Z"}
