{"icao":"LPPT","metar":"LPPT 080430Z 28004KT 9999 SCT026 09/07 Q1031","updated":"2026-01-08T04:38:15Z"}
