{"icao":"LPPR","metar":"LPPR 141330Z 32013KT 300V360 9999 FEW034 13/07 Q1026","updated":"2026-02-14T13:42:46Z"}
