{"icao":"LPPR","metar":"LPPR 061230Z 01010KT 340V040 9999 FEW040 09/02 Q1025","updated":"2026-01-06T12:42:09Z"}
