{"icao":"LPBJ","metar":"LPBJ 121700Z 06003KT 010V090 9999 FEW042 26/11 Q1015","updated":"2025-10-12T17:13:18Z"}
