{"icao":"LPOV","metar":"LPOV 110100Z VRB01KT CAVOK 13/10 Q1020","updated":"2025-10-11T01:15:36Z"}
