{"icao":"LPLA","metar":"LPLA 221500Z 15012KT 9000 -SHRA FEW006 SCT012 BKN019 20/19 Q1011","updated":"2025-10-22T15:18:26Z"}
