{"icao":"LPLA","metar":"LPLA 192200Z 35023G34KT 8000 -SHRA SCT015 BKN018 BKN022 14/11 Q1007","updated":"2026-03-19T22:27:39Z"}
