{"icao":"LPFL","metar":"LPFL 042000Z 17008KT 150V210 9999 FEW010 23/21 Q1025","updated":"2025-10-04T22:14:28Z"}
