{"icao":"LPMR","metar":"LPMR 111000Z 14006KT 3500 -DZ BR BKN007 OVC018 11/10 Q1027","updated":"2026-01-11T11:16:42Z"}
