{"icao":"LPPR","metar":"LPPR 021900Z 11011KT 080V140 9999 FEW040 15/09 Q1001","updated":"2026-01-02T19:12:54Z"}
