{"icao":"KORD","metar":"KORD 220529Z 30009KT 10SM -SN FEW029 OVC035 M03/M09 A3016 RMK AO2 P0000 T10331089 $","updated":"2026-02-22T05:50:55Z"}
