{"icao":"LPFL","metar":"LPFL 211000Z 23003KT 180V260 9999 FEW024 17/11 Q1032","updated":"2025-11-21T10:19:59Z"}
