{"icao":"LPFR","metar":"LPFR 271500Z 27006KT CAVOK 17/07 Q1021","updated":"2025-11-27T15:19:03Z"}
