{"icao":"LPPS","metar":"LPPS 310700Z 08018KT 9999 FEW015 15/10 Q1024","updated":"2026-03-31T07:12:01Z"}
