{"icao":"LPMT","metar":"LPMT 010800Z 03008KT CAVOK 18/14 Q1020","updated":"2025-10-01T08:23:41Z"}
