{"icao":"LPMR","metar":"LPMR 201900Z 02002KT 9999 FEW045 21/10 Q1009","updated":"2026-04-20T19:08:14Z"}
