{"icao":"LPLA","metar":"LPLA 132200Z 30009KT 9999 FEW025 14/12 Q1032","updated":"2026-03-13T22:27:05Z"}
