{"icao":"LPMR","metar":"LPMR 051000Z 31008KT 280V010 9999 FEW020 SCT032 17/08 Q1017","updated":"2026-05-05T10:44:46Z"}
