{"icao":"LPOV","metar":"LPOV 051100Z 21015KT 7000 FEW010 FEW020CB BKN028 14/13 Q0990","updated":"2026-02-05T11:33:53Z"}
