{"icao":"LPPT","metar":"LPPT 230930Z 08004KT 040V120 9999 FEW015 15/12 Q1014","updated":"2026-03-23T10:01:19Z"}
