{"icao":"LPMT","metar":"LPMT 300500Z 35006KT CAVOK 16/13 Q1020","updated":"2026-05-30T06:22:55Z"}
