{"icao":"KJFK","metar":"KJFK 061851Z 32019G29KT 10SM BKN070 12/M04 A3005 RMK AO2 PK WND 33033/1815 SLP176 T01171044 $","updated":"2025-11-06T19:15:17Z"}
