{"icao":"KJFK","metar":"KJFK 150651Z 35008KT 10SM OVC024 16/12 A3001 RMK AO2 SLP161 T01560122","updated":"2025-10-15T07:18:44Z"}
