{"icao":"LPHR","metar":"LPHR 031000Z 24013KT 9999 FEW008 BKN011 20/18 Q1013","updated":"2025-11-03T10:21:55Z"}
