{"icao":"LPAZ","metar":"LPAZ 261300Z 06014KT 4000 -SHRA SCT011 BKN019 FEW025TCU 17/15 Q1019 RESHRA","updated":"2025-10-26T13:22:17Z"}
