{"icao":"LPCS","metar":"LPCS 312100Z 36014KT CAVOK 18/08 Q1023","updated":"2026-04-01T05:22:33Z"}
