{"icao":"KORD","metar":"KORD 141051Z 03004KT 9SM FEW025 SCT250 13/12 A3025 RMK AO2 SLP244 T01330117 $","updated":"2025-10-14T11:15:12Z"}
