{"icao":"LPPR","metar":"LPPR 112200Z 18016KT 5000 -DZ BR OVC005 13/13 Q1022","updated":"2026-01-11T22:18:21Z"}
