{"icao":"KORD","metar":"KORD 022251Z 16008KT 10SM SCT300 27/11 A3018 RMK AO2 SLP216 T02720111","updated":"2025-10-02T23:15:58Z"}
