{"icao":"KLAX","metar":"KLAX 250453Z 27004KT 5SM BR OVC004 16/15 A2999 RMK AO2 SLP154 T01610150","updated":"2025-10-25T05:16:32Z"}
