{"icao":"KLAX","metar":"KLAX 090653Z 00000KT 9SM OVC009 16/13 A2996 RMK AO2 SLP144 T01560133","updated":"2026-05-09T07:54:10Z"}
