{"icao":"LPMR","metar":"LPMR 170400Z 12004KT 4000 BR FEW020 05/05 Q1013","updated":"2026-01-17T04:31:11Z"}
