{"icao":"LPPS","metar":"LPPS 211630Z 29016KT 8000 SCT006 BKN010 17/15 Q1018","updated":"2026-01-21T16:43:21Z"}
