{"icao":"LPMA","metar":"LPMA 172130Z 33003KT 240V050 9999 SCT014 FEW018TCU 16/12 Q1005","updated":"2026-03-17T21:36:06Z"}
