{"icao":"LPFR","metar":"LPFR 271230Z 19005KT 150V220 CAVOK 18/13 Q1023","updated":"2026-02-27T12:56:41Z"}
