{"icao":"LPPT","metar":"LPPT 161100Z 34012KT 300V360 9999 VCSH FEW025 FEW030CB 12/09 Q1012","updated":"2025-12-16T11:18:20Z"}
