{"icao":"LPFR","metar":"LPFR 291230Z 22009KT 9999 FEW040 23/16 Q1015","updated":"2025-09-29T12:37:42Z"}
