{"icao":"LPPD","metar":"LPPD 010330Z 35004KT 310V040 9999 FEW018 13/10 Q1003","updated":"2026-01-01T03:49:09Z"}
