{"icao":"LPPS","metar":"LPPS 072300Z 03007KT 360V080 9999 SCT014 21/18 Q1026","updated":"2025-10-07T23:16:13Z"}
