{"icao":"LPPT","metar":"LPPT 212300Z 31010KT 280V350 9999 FEW012 11/09 Q1007 WS R20","updated":"2026-01-21T23:23:53Z"}
