{"icao":"LPHR","metar":"LPHR 231430Z 22005KT 9999 FEW020 19/15 Q1024","updated":"2026-05-23T14:59:38Z"}
