{"icao":"LPBJ","metar":"LPBJ 011000Z 07011KT 040V110 CAVOK 17/04 Q1023","updated":"2026-04-01T10:54:24Z"}
