{"icao":"LPPT","metar":"LPPT 082030Z 12012G22KT 090V150 9999 -SHRA FEW014 FEW020TCU 15/12 Q1005","updated":"2026-05-08T20:58:10Z"}
