{"icao":"LPSJ","metar":"LPSJ 221630Z 26009KT 190V290 9999 FEW006 22/20 Q1026","updated":"2026-06-22T17:39:19Z"}
