{"icao":"LPPT","metar":"LPPT 021130Z 34008KT 290V020 CAVOK 21/08 Q1021","updated":"2026-04-02T11:43:03Z"}
