{"icao":"KLAX","metar":"KLAX 130653Z 05003KT 10SM BKN200 BKN250 15/09 A3003 RMK AO2 SLP168 T01500094","updated":"2026-02-13T07:08:44Z"}
