{"icao":"LPLA","metar":"LPLA 292200Z 16003KT 130V190 9999 FEW025 SCT035 13/09 Q1005","updated":"2026-04-29T22:55:35Z"}
