{"icao":"LPCS","metar":"LPCS 081400Z 33010KT 9999 FEW030 19/12 Q1022","updated":"2025-11-08T14:15:15Z"}
