{"icao":"LPLA","metar":"LPLA 242000Z 32025KT 9999 FEW025 14/08 Q1020","updated":"2026-02-24T20:33:52Z"}
