{"icao":"LPBJ","metar":"LPBJ 132300Z 20005KT CAVOK 08/08 Q1016","updated":"2026-01-13T23:18:43Z"}
