{"icao":"KLAX","metar":"KLAX 011053Z 24004KT 3SM BR OVC004 16/16 A3001 RMK AO2 SLP160 T01610156 $","updated":"2025-11-01T11:13:14Z"}
