{"icao":"LPMA","metar":"LPMA 302100Z 24003KT 190V280 9999 SCT015 19/16 Q1024","updated":"2026-01-30T21:27:15Z"}
