{"icao":"KORD","metar":"KORD 182251Z 05014G19KT 6SM BR OVC008 06/04 A2999 RMK AO2 SLP159 T00610039","updated":"2025-11-18T23:17:22Z"}
