{"icao":"LPLA","metar":"LPLA 110800Z 32018KT 9999 SCT040 13/06 Q1025","updated":"2025-12-11T08:28:34Z"}
