{"icao":"LPMA","metar":"LPMA 271900Z 36007KT 330V030 9999 SCT016 18/11 Q1022","updated":"2025-11-27T19:14:50Z"}
