{"icao":"LPLA","metar":"LPLA 111300Z 36008KT 330V030 9999 FEW030 BKN045 15/06 Q1033","updated":"2026-04-11T13:56:11Z"}
