{"icao":"LPPT","metar":"LPPT 221000Z 06007KT 020V090 CAVOK 14/11 Q1012","updated":"2026-03-22T10:26:07Z"}
