{"icao":"LPLA","metar":"LPLA 162100Z 25017G27KT 220V290 9999 FEW015 SCT020 18/14 Q1023","updated":"2025-12-16T21:19:30Z"}
