{"icao":"LPCS","metar":"LPCS 251600Z 26004KT 230V300 9999 FEW004 SCT010 FEW022TCU BKN045 21/19 Q1013","updated":"2025-10-25T16:19:43Z"}
