{"icao":"KORD","metar":"KORD 112207Z 34010KT 10SM SCT017 BKN043 BKN065 BKN250 02/M01 A2994 RMK AO2 SNE01 P0000 T00221006","updated":"2026-03-11T22:25:15Z"}
