{"icao":"LPPS","metar":"LPPS 190700Z 07002KT 9999 FEW013 20/19 Q1018","updated":"2025-09-19T07:16:49Z"}
