{"icao":"LPBJ","metar":"LPBJ 142100Z 28007KT 9999 FEW035 14/12 Q1023","updated":"2026-04-14T21:50:58Z"}
