{"icao":"LPHR","metar":"LPHR 231600Z 25009KT 9999 FEW025 20/13 Q1026","updated":"2025-11-23T16:21:11Z"}
