{"icao":"LPPR","metar":"LPPR 041230Z 21012KT 8000 BKN008 BKN012 14/13 Q0993","updated":"2026-02-04T12:56:46Z"}
