{"icao":"LPAZ","metar":"LPAZ 051900Z 24011KT 9999 FEW031 18/11 Q1018","updated":"2025-11-05T19:14:37Z"}
