{"icao":"LPPD","metar":"LPPD 091900Z 16009KT 8000 -RA FEW011 22/20 Q1023","updated":"2025-10-09T19:14:38Z"}
