{"icao":"LPPT","metar":"LPPT 230600Z 29007KT 230V310 9999 FEW015 10/06 Q1004","updated":"2026-01-23T06:33:53Z"}
