{"icao":"LPST","metar":"LPST 251200Z 01003KT 340V040 9999 SCT010 SCT018 BKN030 14/12 Q1017","updated":"2026-02-25T13:02:09Z"}
