{"icao":"LPMT","metar":"LPMT 051500Z 25020KT 8000 SCT025 SCT035 16/12 Q0998","updated":"2026-02-05T15:39:09Z"}
