{"icao":"LPMA","metar":"LPMA 021900Z 33004KT 300V360 9999 SCT014 FEW016CB 16/12 Q0998","updated":"2026-01-02T19:13:14Z"}
