{"icao":"KJFK","metar":"KJFK 221751Z 18011KT 10SM FEW005 SCT009 BKN018 BKN150 BKN250 11/08 A2976 RMK AO2 SLP079 60000 T01060078 10106 20067 58028 $","updated":"2026-03-22T18:35:59Z"}
