{"icao":"LPHR","metar":"LPHR 010900Z 29027G38KT 9000 VCSH SCT013 BKN035 BKN070 14/11 Q1006","updated":"2026-02-01T09:29:18Z"}
