{"icao":"LPMA","metar":"LPMA 081330Z 03014G24KT 9999 SCT015 SCT030 16/05 Q1026","updated":"2026-03-08T13:38:47Z"}
