{"icao":"KORD","metar":"KORD 060951Z 21007KT 10SM CLR 20/14 A3006 RMK AO2 SLP174 T02000139 $","updated":"2025-10-06T10:20:21Z"}
