{"icao":"KORD","metar":"KORD 040751Z 30006KT 10SM OVC037 M04/M13 A3010 RMK AO2 SLP204 T10391128 $","updated":"2026-01-04T08:26:32Z"}
