{"icao":"LPFR","metar":"LPFR 170200Z 04006KT CAVOK 18/11 Q1017","updated":"2026-04-17T02:29:30Z"}
