{"icao":"LPHR","metar":"LPHR 051530Z 30023G37KT 9999 VCSH SCT017 FEW020TCU SCT035 12/06 Q1007","updated":"2026-02-05T15:39:25Z"}
