{"icao":"KLAX","metar":"KLAX 191853Z 17003KT 7SM FEW009 FEW140 SCT200 19/10 A3004 RMK AO2 SLP169 T01940100 $","updated":"2025-12-19T19:16:04Z"}
