{"icao":"LPOV","metar":"LPOV 180900Z VRB01KT CAVOK 19/14 Q1016","updated":"2025-10-18T09:16:39Z"}
