{"icao":"KJFK","metar":"KJFK 090751Z 02011KT 10SM CLR 13/07 A3029 RMK AO2 SLP258 T01280067","updated":"2025-10-09T08:23:37Z"}
