{"icao":"LPAZ","metar":"LPAZ 130000Z 03006KT 9999 FEW024 SCT032 13/09 Q1027","updated":"2026-05-13T00:08:55Z"}
