{"icao":"KORD","metar":"KORD 230751Z 22007KT 10SM BKN250 05/M02 A2996 RMK AO2 SLP150 T00501017 $","updated":"2025-12-23T08:28:34Z"}
