{"icao":"KLAX","metar":"KLAX 191953Z 12005KT 10SM FEW180 FEW250 22/04 A3001 RMK AO2 SLP162 T02170044 $","updated":"2026-01-19T20:22:42Z"}
