{"icao":"LPCS","metar":"LPCS 141500Z 35019KT 9999 FEW018 26/17 Q1021","updated":"2025-09-14T15:14:27Z"}
