{"icao":"LPAZ","metar":"LPAZ 120800Z 13005KT 090V150 9999 FEW034 21/16 Q1023","updated":"2026-06-12T08:23:43Z"}
