{"icao":"LPPR","metar":"LPPR 102300Z 31009KT 250V330 9000 OVC007 13/12 Q1015","updated":"2026-04-10T23:33:24Z"}
