{"icao":"LPMA","metar":"LPMA 182000Z 27004KT 9999 FEW016 SCT033 18/11 Q1023","updated":"2025-12-18T20:19:38Z"}
