{"icao":"LPAZ","metar":"LPAZ 282000Z 26008KT 3000 BR BKN002 16/15 Q1029","updated":"2026-02-28T20:24:14Z"}
