{"icao":"LPLA","metar":"LPLA 011007Z 30019KT 3000 RA FEW005 SCT007 BKN012 16/15 Q1023","updated":"2026-03-01T10:23:39Z"}
