{"icao":"KORD","metar":"KORD 050851Z 19008KT 10SM SCT046 BKN075 OVC250 22/14 A2992 RMK AO2 SLP127 T02220139 56013 $","updated":"2026-06-05T09:44:23Z"}
