{"icao":"LPAZ","metar":"LPAZ 170700Z 18008KT 9999 FEW024 BKN032 18/13 Q1025","updated":"2025-11-17T07:18:53Z"}
