{"icao":"KORD","metar":"KORD 140251Z 29010G22KT 10SM CLR M15/M22 A3031 RMK AO2 SLP281 T11501217 51017","updated":"2025-12-14T03:28:01Z"}
