{"icao":"LPPT","metar":"LPPT 072330Z 13006KT 080V160 9000 -SHRA FEW006 FEW018TCU SCT022 11/10 Q1015","updated":"2026-04-07T23:35:25Z"}
