{"icao":"LPPT","metar":"LPPT 050530Z 35006KT 310V030 9999 BKN012 12/10 Q1015","updated":"2026-03-05T05:46:38Z"}
