{"icao":"LPMT","metar":"LPMT 280100Z VRB01KT CAVOK 16/13 Q1018","updated":"2026-05-28T03:28:28Z"}
