{"icao":"LPMR","metar":"LPMR 100500Z 14004KT 0700 FG BKN003 10/09 Q1019","updated":"2025-12-10T05:20:16Z"}
