{"icao":"LPHR","metar":"LPHR 140800Z 35005KT 9999 FEW015 SCT045 14/09 Q1008","updated":"2025-11-14T08:24:49Z"}
