{"icao":"KJFK","metar":"KJFK 120451Z 01010KT 10SM CLR 09/M03 A3042 RMK AO2 SLP300 T00891033 401780083","updated":"2026-04-12T05:22:38Z"}
