{"icao":"KJFK","metar":"KJFK 211951Z 01008KT 10SM FEW040 FEW200 BKN250 14/02 A2990 RMK AO2 SLP124 T01390022","updated":"2026-03-21T20:25:41Z"}
