{"icao":"LPMR","metar":"LPMR 160500Z 01002KT CAVOK 11/08 Q1017","updated":"2026-05-16T05:53:11Z"}
