{"icao":"LPFR","metar":"LPFR 292330Z 31004KT CAVOK 15/10 Q1015","updated":"2026-04-29T23:53:48Z"}
