{"icao":"LPFL","metar":"LPFL 140900Z 18012KT 140V230 9999 SCT016 21/16 Q1019","updated":"2026-06-14T09:31:25Z"}
