{"icao":"LPMR","metar":"LPMR 020100Z 11003KT CAVOK 09/09 Q1022","updated":"2026-04-02T02:09:11Z"}
