{"icao":"LPMA","metar":"LPMA 080100Z 02012KT 9999 SCT015 22/17 Q1026","updated":"2025-10-08T01:18:14Z"}
