{"icao":"LPMT","metar":"LPMT 021900Z 34005KT CAVOK 16/11 Q1025","updated":"2025-11-02T19:12:29Z"}
