{"icao":"LPAZ","metar":"LPAZ 070900Z 28015KT 7000 FEW008 15/13 Q1015","updated":"2026-02-07T09:29:47Z"}
