{"icao":"KORD","metar":"KORD 120551Z 09005KT 10SM FEW250 06/M01 A3019 RMK AO2 SLP226 T00561011 10089 20056 401330056 58015 $","updated":"2026-05-12T06:35:18Z"}
