{"icao":"KLAX","metar":"KLAX 250653Z VRB04KT 10SM FEW012 BKN025 BKN035 15/14 A3003 RMK AO2 SLP167 T01500139 $","updated":"2025-12-25T07:21:04Z"}
