{"icao":"KORD","metar":"KORD 300851Z 32007KT 10SM FEW030 06/04 A2992 RMK AO2 SLP135 T00610039 56009 $","updated":"2025-10-30T09:20:23Z"}
