{"icao":"KJFK","metar":"KJFK 280951Z 35013KT 10SM SCT055 01/M09 A3028 RMK AO2 SLP254 T00061094","updated":"2026-03-28T10:30:57Z"}
