{"icao":"LPFR","metar":"LPFR 031630Z 24016KT 9999 FEW025 20/14 Q1014","updated":"2026-05-03T16:49:12Z"}
