{"icao":"KJFK","metar":"KJFK 130351Z 21011KT 10SM BKN250 11/09 A3013 RMK AO2 PK WND 20026/0300 SLP201 T01060089","updated":"2026-05-13T04:41:55Z"}
