{"icao":"LPFL","metar":"LPFL 021830Z 19024G34KT 170V230 2500 DZRA SCT010 FEW015CB BKN030 15/13 Q1008","updated":"2026-02-02T18:41:56Z"}
