{"icao":"LPMT","metar":"LPMT 010500Z 24008KT 3000 -DZ BR BKN003 BKN010 15/15 Q1015","updated":"2026-02-01T06:03:09Z"}
