{"icao":"KLAX","metar":"KLAX 141853Z 00000KT 10SM FEW140 FEW180 23/06 A3013 RMK AO2 SLP201 T02280061 $","updated":"2026-01-14T19:18:50Z"}
