{"icao":"LPPD","metar":"LPPD 102000Z 30005KT 9999 FEW025 13/07 Q1033","updated":"2026-03-10T20:32:24Z"}
