{"icao":"LPAZ","metar":"LPAZ 141600Z 01010KT 340V050 9999 FEW016 BKN028 18/13 Q1030","updated":"2026-03-14T16:30:22Z"}
