{"icao":"LPAR","metar":"LPAR 211400Z 25014KT 8000 SCT030 22/13 Q1005","updated":"2026-04-21T15:11:19Z"}
