{"icao":"KORD","metar":"KORD 060351Z 14004KT 10SM OVC250 02/00 A2975 RMK AO2 SLP081 T00220000","updated":"2026-01-06T04:38:56Z"}
