{"icao":"LPAZ","metar":"LPAZ 171500Z 20012KT 9999 SCT016 BKN030 26/20 Q1019","updated":"2025-09-17T15:18:11Z"}
