{"icao":"KJFK","metar":"KJFK 270951Z 27014KT 10SM FEW120 06/M05 A2990 RMK AO2 SLP123 T00611050","updated":"2025-11-27T10:21:38Z"}
