{"icao":"LPMT","metar":"LPMT 032300Z 26018G29KT 6000 -RADZ BKN005 SCT018 15/15 Q0994","updated":"2026-02-03T23:26:43Z"}
