{"icao":"KJFK","metar":"KJFK 180051Z 31020G28KT 10SM FEW055 06/M08 A2994 RMK AO2 PK WND 31028/0051 SLP139 T00561083 $","updated":"2025-11-18T01:24:13Z"}
