{"icao":"LPOV","metar":"LPOV 251600Z 34014KT 9999 FEW025 15/09 Q1023","updated":"2025-11-25T16:26:15Z"}
