{"icao":"LPMT","metar":"LPMT 291900Z 23007KT 190V250 9999 SCT025 SCT030 15/11 Q1016","updated":"2025-11-29T19:14:14Z"}
