{"icao":"LPPR","metar":"LPPR 210800Z VRB02KT CAVOK 04/03 Q1028","updated":"2025-11-21T08:26:20Z"}
