{"icao":"LPHR","metar":"LPHR 200000Z 06008KT 9999 FEW022 16/12 Q1029","updated":"2025-11-20T03:08:28Z"}
