{"icao":"LPAZ","metar":"LPAZ 232300Z 24017KT 8000 FEW020 17/15 Q1012","updated":"2026-02-23T23:33:16Z"}
