{"icao":"LPPR","metar":"LPPR 050130Z 19014KT 7000 -RA BKN004 13/13 Q0988","updated":"2026-02-05T01:59:10Z"}
