{"icao":"LPFL","metar":"LPFL 191700Z 20005KT 110V250 9999 FEW023 16/11 Q1029","updated":"2026-01-19T17:22:35Z"}
