{"icao":"LPBJ","metar":"LPBJ 121800Z 32020KT CAVOK 15/03 Q1018","updated":"2026-04-12T18:47:49Z"}
