{"icao":"KORD","metar":"KORD 310451Z 33012G22KT 10SM FEW060 SCT070 BKN100 M11/M16 A3042 RMK AO2 SLP316 T11111161","updated":"2026-01-31T05:37:50Z"}
