{"icao":"LPLA","metar":"LPLA 181000Z 30009KT 260V350 9999 FEW023 25/20 Q1014","updated":"2025-10-18T10:16:34Z"}
