{"icao":"LPPS","metar":"LPPS 191800Z 35008KT 9999 SCT015 15/11 Q1026","updated":"2026-01-19T18:30:51Z"}
