{"icao":"LPFR","metar":"LPFR 050800Z 32007KT 290V350 CAVOK 16/08 Q1017","updated":"2026-05-05T08:07:04Z"}
