{"icao":"LPLA","metar":"LPLA 032000Z 08007KT 050V120 9999 FEW025 SCT030 15/09 Q1023","updated":"2026-05-03T20:41:35Z"}
