{"icao":"KJFK","metar":"KJFK 090451Z 35012KT 10SM CLR 14/04 A3024 RMK AO2 SLP239 T01390044 402220139","updated":"2025-10-09T05:17:37Z"}
