{"icao":"KJFK","metar":"KJFK 080351Z 21009KT 10SM BKN095 BKN190 14/08 A2971 RMK AO2 SLP061 T01390083","updated":"2025-11-08T04:20:17Z"}
