{"icao":"KORD","metar":"KORD 070651Z 26008KT 7SM OVC005 03/02 A2977 RMK AO2 SLP085 T00330022","updated":"2026-01-07T07:24:05Z"}
