{"icao":"LPPS","metar":"LPPS 111530Z 04014KT 010V070 9999 SCT012 16/13 Q1025","updated":"2026-03-11T15:47:28Z"}
