{"icao":"LPPT","metar":"LPPT 212300Z 36014KT CAVOK 15/10 Q1021","updated":"2025-09-21T23:14:51Z"}
