{"icao":"KORD","metar":"KORD 081851Z 21020G30KT 10SM FEW250 14/01 A2979 RMK AO2 PK WND 23030/1826 SLP091 T01440011 $","updated":"2026-03-08T19:22:52Z"}
