{"icao":"LPLA","metar":"LPLA 261700Z VRB12G22KT 9999 SCT025 19/12 Q1023","updated":"2025-10-26T17:14:05Z"}
