{"icao":"LPFR","metar":"LPFR 061600Z 24007KT 9999 FEW008 SCT048 16/15 Q1024","updated":"2025-12-06T16:21:12Z"}
