{"icao":"LPPR","metar":"LPPR 212000Z 13007KT 9999 -RA FEW028 BKN036 06/05 Q1008","updated":"2025-12-21T20:20:13Z"}
