{"icao":"LPPR","metar":"LPPR 090600Z 16021KT 6000 RA FEW012 BKN027 15/12 Q1012","updated":"2025-12-09T06:30:46Z"}
