{"icao":"LPLA","metar":"LPLA 182300Z 23003KT 220V020 9999 FEW020 16/10 Q1020","updated":"2026-05-19T00:04:41Z"}
