{"icao":"LPBJ","metar":"LPBJ 122300Z 19007KT CAVOK 23/15 Q1019","updated":"2026-06-12T23:14:54Z"}
