{"icao":"LPPR","metar":"LPPR 291430Z 23009KT 200V260 7000 VCSH BKN012 BKN030 15/13 Q1006","updated":"2026-01-29T14:49:41Z"}
