{"icao":"LPPS","metar":"LPPS 201800Z 31012KT 9999 SCT015 17/10 Q1023","updated":"2025-12-20T18:24:46Z"}
