{"icao":"KJFK","metar":"KJFK 241151Z 31011KT 10SM FEW038 FEW070 07/M01 A3016 RMK AO2 SLP211 T00721011 10078 20067 53031","updated":"2025-11-24T12:39:53Z"}
