{"icao":"LPOV","metar":"LPOV 132000Z 25006KT 220V280 4000 -RADZ BR SCT003 SCT006 BKN018 13/13 Q1019","updated":"2026-03-13T20:33:02Z"}
