{"icao":"LPBJ","metar":"LPBJ 231000Z 10006KT CAVOK 15/11 Q1025","updated":"2026-02-23T10:49:45Z"}
