{"icao":"KORD","metar":"KORD 100851Z 25014G23KT 10SM BKN022 BKN027 OVC039 04/01 A2926 RMK AO2 RAB16E50 SLP911 P0002 60004 T00440011 56009","updated":"2025-12-10T09:23:52Z"}
