{"icao":"KLAX","metar":"KLAX 031304Z VRB04KT 8SM FEW014 SCT025 BKN038 13/10 A2996 RMK AO2 T01330100 $","updated":"2025-12-03T13:35:11Z"}
