{"icao":"LPMA","metar":"LPMA 171400Z 04008KT 360V090 9999 FEW015 SCT030 24/19 Q1020","updated":"2025-09-17T14:16:34Z"}
