{"icao":"KLAX","metar":"KLAX 261953Z 05003KT 10SM FEW250 26/02 A3005 RMK AO2 SLP176 T02610017 $","updated":"2025-11-26T20:20:43Z"}
