{"icao":"LPFL","metar":"LPFL 020900Z 16008KT 130V210 9999 BKN034 18/11 Q1020","updated":"2025-11-02T09:16:15Z"}
