{"icao":"LPMA","metar":"LPMA 302200Z VRB02KT 9999 SCT015 19/16 Q1025","updated":"2026-01-30T22:24:28Z"}
