{"icao":"LPPD","metar":"LPPD 172300Z 20008KT 9999 SCT006 BKN009 22/21 Q1014","updated":"2025-10-17T23:15:20Z"}
