{"icao":"LPLA","metar":"LPLA 192300Z VRB05KT 9999 SCT025 BKN040 17/13 Q1029","updated":"2025-11-19T23:17:26Z"}
