{"icao":"LPAZ","metar":"LPAZ 141500Z 29017KT 1300 R18/1200 -RA BR SCT002 BKN012 14/14 Q1021","updated":"2026-04-14T15:11:40Z"}
