{"icao":"LPCS","metar":"LPCS 281500Z 25011KT 230V290 9999 VCSH FEW014 15/14 Q1005","updated":"2026-01-28T15:30:56Z"}
