{"icao":"LPMR","metar":"LPMR 031100Z 13010KT CAVOK 17/09 Q1023","updated":"2025-11-03T11:15:30Z"}
