{"icao":"LPCS","metar":"LPCS 121700Z 27004KT 220V300 9999 FEW045 26/13 Q1015","updated":"2025-10-12T17:13:16Z"}
