{"icao":"LPBJ","metar":"LPBJ 222300Z 29006KT CAVOK 12/10 Q1014","updated":"2026-04-22T23:43:39Z"}
