{"icao":"LPFR","metar":"LPFR 030700Z 06003KT 010V140 CAVOK 14/09 Q1022","updated":"2025-11-03T07:18:09Z"}
