{"icao":"LPPR","metar":"LPPR 160900Z 22009KT 190V250 5000 SHRA SCT009 SCT017CB BKN025 14/13 Q1007 RETSRA","updated":"2025-11-16T09:17:20Z"}
