{"icao":"LPPT","metar":"LPPT 110930Z 23017G29KT 1500 -DZ BR FEW001 BKN003 15/15 Q1017","updated":"2026-02-11T10:01:31Z"}
