{"icao":"LPHR","metar":"LPHR 221730Z 30018KT 9999 -SHRA SCT012 SCT050 22/19 Q1026","updated":"2026-06-22T17:39:21Z"}
