{"icao":"LPFR","metar":"LPFR 132130Z VRB01KT 9999 FEW015 21/18 Q1017","updated":"2026-06-13T22:02:04Z"}
