{"icao":"KJFK","metar":"KJFK 011851Z 21011KT 10SM FEW050 SCT095 BKN140 BKN250 24/12 A3003 RMK AO2 SLP170 T02390122","updated":"2026-04-01T19:00:21Z"}
