{"icao":"LPMA","metar":"LPMA 021800Z 19004KT 150V230 9999 FEW016 SCT070 22/18 Q1023","updated":"2025-11-02T18:21:51Z"}
