{"icao":"KORD","metar":"KORD 091651Z 25014G22KT 10SM OVC016 01/M03 A2971 RMK AO2 PK WND 27026/1627 SLP070 T00061033","updated":"2025-12-09T17:19:16Z"}
