{"icao":"LPPT","metar":"LPPT 241500Z 24014KT 5000 -RADZ FEW006 BKN008 17/16 Q1016 REDZ","updated":"2025-11-24T15:21:17Z"}
