{"icao":"LPHR","metar":"LPHR 061100Z 27018KT 9000 SCT012 21/19 Q1012","updated":"2025-11-06T11:16:34Z"}
