{"icao":"KLAX","metar":"KLAX 222004Z 26008KT 4SM HZ FEW009 SCT180 BKN230 BKN300 19/14 A2992 RMK AO2 T01940144","updated":"2026-03-22T20:26:34Z"}
