{"icao":"KORD","metar":"KORD 282051Z 05011G19KT 10SM FEW300 20/07 A3017 RMK AO2 SLP216 T02000072 58005","updated":"2026-05-28T21:07:30Z"}
