{"icao":"LPLA","metar":"LPLA 161500Z 31012KT 9999 SCT023 BKN030 17/12 Q1029","updated":"2026-05-16T15:57:07Z"}
