{"icao":"LPLA","metar":"LPLA 090700Z 22020G34KT 6000 -DZ SCT007 BKN014 18/17 Q1008","updated":"2026-02-09T07:56:28Z"}
