{"icao":"LPMT","metar":"LPMT 241100Z 36004KT 300V110 CAVOK 17/12 Q1020","updated":"2026-03-24T11:43:33Z"}
