{"icao":"LPAZ","metar":"LPAZ 050200Z 10004KT 9999 BKN042 13/07 Q1022","updated":"2026-04-05T02:25:22Z"}
