{"icao":"LPAZ","metar":"LPAZ 301030Z 30011KT 9999 VCSH SCT015 FEW025TCU SCT049 15/12 Q1009","updated":"2026-04-30T10:54:03Z"}
