{"icao":"LPMT","metar":"LPMT 011800Z 34010KT CAVOK 21/09 Q1020","updated":"2026-04-01T18:59:50Z"}
