{"icao":"LPPT","metar":"LPPT 291230Z 34006KT 300V020 9000 -SHRA FEW012 FEW020CB BKN036 20/17 Q1008","updated":"2025-10-29T12:39:11Z"}
