{"icao":"LPAR","metar":"LPAR 241300Z 20009KT 160V230 9999 FEW025 SCT035 27/18 Q1014","updated":"2026-06-24T13:21:11Z"}
