{"icao":"LPPD","metar":"LPPD 182000Z 25004KT 2000 1000NW -DZ BR SCT002 BKN004 16/16 Q1021","updated":"2026-05-18T20:23:21Z"}
