{"icao":"LPMA","metar":"LPMA 112300Z 01011KT 330V050 9999 BKN013 14/11 Q1025","updated":"2026-04-11T23:32:22Z"}
