{"icao":"LPPS","metar":"LPPS 260800Z 32009KT 9999 FEW015 16/10 Q1019","updated":"2025-12-26T08:26:49Z"}
