{"icao":"LPAZ","metar":"LPAZ 230800Z 13004KT 100V160 9999 FEW022 BKN030 16/14 Q1029","updated":"2025-11-23T08:22:47Z"}
