{"icao":"LPFR","metar":"LPFR 060500Z 05005KT CAVOK 19/16 Q1018","updated":"2025-10-06T05:16:57Z"}
