{"icao":"LPFR","metar":"LPFR 211800Z 23010KT 9000 FEW010 18/16 Q1007","updated":"2026-04-21T18:06:40Z"}
