{"icao":"KORD","metar":"KORD 251851Z 12006KT 10SM FEW040 SCT090 BKN150 BKN250 12/02 A3035 RMK AO2 SLP281 VIRGA OHD T01220022 $","updated":"2025-10-25T19:13:19Z"}
