{"icao":"LPFL","metar":"LPFL 111600Z 20010KT 160V260 9999 FEW020 22/16 Q1018","updated":"2025-10-11T16:18:46Z"}
