{"icao":"LPMA","metar":"LPMA 271700Z 34010KT 300V010 9999 SCT016 FEW018TCU 17/08 Q1015","updated":"2025-12-27T17:16:18Z"}
