{"icao":"KJFK","metar":"KJFK 021351Z 01003KT 10SM FEW090 FEW250 10/02 A3032 RMK AO2 SLP267 T01000022 $","updated":"2025-11-02T14:14:43Z"}
