{"icao":"LPMT","metar":"LPMT 030700Z VRB02KT 9999 FEW015 15/12 Q1014","updated":"2026-05-03T08:06:51Z"}
