{"icao":"LPPT","metar":"LPPT 220530Z 06007KT CAVOK 13/10 Q1010","updated":"2026-03-22T05:52:40Z"}
