{"icao":"LPPR","metar":"LPPR 181630Z 30010KT 9999 VCSH FEW018CB SCT025 14/08 Q1016","updated":"2026-02-18T17:01:46Z"}
