{"icao":"KLAX","metar":"KLAX 102253Z 27009KT 8SM FEW010 20/14 A2992 RMK AO2 SLP131 T02000144","updated":"2026-05-10T23:51:37Z"}
