{"icao":"KJFK","metar":"KJFK 272151Z 36006KT 10SM FEW055 FEW250 12/M01 A3033 RMK AO2 SLP269 T01171006","updated":"2025-10-27T22:16:33Z"}
