{"icao":"LPPS","metar":"LPPS 091230Z 07008KT 040V100 9999 SCT012 16/13 Q1034","updated":"2026-01-09T12:42:22Z"}
