{"icao":"LPFL","metar":"LPFL 071700Z 20018G35KT 160V250 9999 FEW008 BKN012 18/15 Q1004","updated":"2026-02-07T17:24:18Z"}
