{"icao":"LPMR","metar":"LPMR 211800Z 36007KT 9999 FEW015 09/04 Q1028","updated":"2025-11-21T18:25:16Z"}
