{"icao":"KJFK","metar":"KJFK 271651Z 14005KT 10SM BKN250 03/M07 A3015 RMK AO2 SLP210 T00281067 $","updated":"2026-02-27T17:34:01Z"}
