{"icao":"LPFL","metar":"LPFL 281800Z 11006KT 020V180 9999 SCT010 SCT013 BKN028 16/13 Q1011","updated":"2025-12-28T19:15:15Z"}
