{"icao":"LPST","metar":"LPST 061400Z 19012KT CAVOK 26/15 Q1020","updated":"2025-10-06T14:17:28Z"}
