{"icao":"LPPR","metar":"LPPR 220800Z 12003KT 060V170 CAVOK 11/10 Q1011","updated":"2026-03-22T08:32:55Z"}
