{"icao":"LPPT","metar":"LPPT 232300Z 34012KT 290V020 8000 -SHRA BKN014 FEW020TCU 06/05 Q1006","updated":"2026-01-23T23:20:19Z"}
