{"icao":"LPST","metar":"LPST 071400Z 32007KT 2500 -RADZ BR BKN006 OVC011 17/16 Q1015","updated":"2025-11-07T14:18:21Z"}
