{"icao":"KJFK","metar":"KJFK 160551Z 27010KT 10SM RA SCT050 BKN070 OVC090 10/07 A2925 RMK AO2 PRESFR SLP904 P0003 60003 T01000072 10122 20100 56045 $","updated":"2025-11-16T06:26:32Z"}
