{"icao":"KORD","metar":"KORD 312251Z 36012KT 10SM SCT030 M04/M11 A3039 RMK AO2 SLP303 T10441106","updated":"2026-01-31T23:21:24Z"}
