{"icao":"LPHR","metar":"LPHR 091300Z 29014KT 9999 FEW020 20/14 Q1025","updated":"2025-11-09T13:22:49Z"}
