{"icao":"LPBJ","metar":"LPBJ 300916Z 21008KT 9000 SCT007 11/11 Q1015","updated":"2026-01-30T09:36:58Z"}
