{"icao":"LPBJ","metar":"LPBJ 161300Z 27010KT 240V300 8000 -SHRA FEW020 FEW023CB BKN026 15/12 Q1013","updated":"2025-11-16T13:22:43Z"}
