{"icao":"LPBJ","metar":"LPBJ 261500Z 07009KT 040V100 CAVOK 28/10 Q1014","updated":"2026-04-26T15:40:04Z"}
