{"icao":"LPBJ","metar":"LPBJ 210500Z 09005KT CAVOK 08/05 Q1027","updated":"2026-02-21T05:40:13Z"}
