{"icao":"LPBJ","metar":"LPBJ 101600Z 24016G26KT 9999 SCT035 20/06 Q1012","updated":"2026-05-10T16:54:30Z"}
