{"icao":"LPPD","metar":"LPPD 291330Z 23008KT 8000 FEW008 BKN035 16/14 Q1015","updated":"2026-01-29T13:59:40Z"}
