{"icao":"LPBJ","metar":"LPBJ 090400Z 27013KT 6000 -RADZ OVC004 14/14 Q1012","updated":"2026-02-09T04:58:32Z"}
