{"icao":"LPST","metar":"LPST 261700Z 34007KT CAVOK 14/07 Q1024","updated":"2025-11-26T21:16:31Z"}
