{"icao":"KLAX","metar":"KLAX 032053Z 25008KT 7SM CLR 20/14 A3002 RMK AO2 SLP166 T02000139 58022 $","updated":"2025-11-03T21:16:56Z"}
