{"icao":"LPAZ","metar":"LPAZ 201330Z 03028G42KT 9000 SCT020 FEW022TCU BKN040 17/11 Q1004","updated":"2026-03-20T14:02:31Z"}
