{"icao":"LPPD","metar":"LPPD 251400Z 23016G29KT 9999 FEW008 SCT012 18/15 Q1017","updated":"2026-01-25T14:18:02Z"}
