{"icao":"KJFK","metar":"KJFK 280151Z 14003KT 10SM FEW250 10/04 A3028 RMK SLP254 T01000039 ","updated":"2026-04-28T02:47:24Z"}
