{"icao":"LPOV","metar":"LPOV 110800Z 35025G36KT 9000 SCT005 SCT012 BKN025 13/11 Q1015","updated":"2026-04-11T08:41:22Z"}
