{"icao":"LPFL","metar":"LPFL 181830Z 25008KT 220V300 9999 FEW016 19/11 Q1019","updated":"2026-05-18T18:50:06Z"}
