{"icao":"LPHR","metar":"LPHR 181300Z 35019G36KT 3500 SHRA FEW011 BKN024 FEW030TCU 10/06 Q1017","updated":"2026-03-18T13:09:12Z"}
