{"icao":"LPHR","metar":"LPHR 091100Z 29012KT 9999 FEW020 19/14 Q1025","updated":"2025-11-09T11:13:22Z"}
