{"icao":"LPPS","metar":"LPPS 301830Z 30015KT 6000 SCT004 BKN010 18/17 Q1023","updated":"2026-01-30T18:40:10Z"}
