{"icao":"LPCS","metar":"LPCS 150730Z 30003KT 9999 FEW015 BKN026 11/09 Q1031","updated":"2026-02-15T07:36:59Z"}
