{"icao":"LPFR","metar":"LPFR 122100Z 26008KT CAVOK 17/14 Q1021","updated":"2026-05-12T21:18:09Z"}
