{"icao":"LPBJ","metar":"LPBJ 071000Z VRB02KT CAVOK 26/10 Q1020","updated":"2026-06-07T10:27:37Z"}
