{"icao":"LPMR","metar":"LPMR 242100Z 27006KT 230V300 9999 FEW020 SCT035 11/07 Q1015","updated":"2026-01-24T21:17:20Z"}
