{"icao":"LPBJ","metar":"LPBJ 260300Z 25009KT 9999 BKN003 OVC012 13/13 Q1015","updated":"2026-01-26T03:55:54Z"}
