{"icao":"LPMR","metar":"LPMR 101800Z 25003KT 9999 FEW022 BKN035 12/09 Q1028","updated":"2026-01-10T18:27:32Z"}
