{"icao":"LPPD","metar":"LPPD 180800Z 33009KT 300V010 9999 FEW018 15/09 Q1023","updated":"2025-12-18T08:28:08Z"}
