{"icao":"LPMR","metar":"LPMR 110100Z VRB01KT 3500 BR FEW014 08/08 Q1022","updated":"2025-12-11T01:37:58Z"}
