{"icao":"LPST","metar":"LPST 301300Z 36005KT 310V050 CAVOK 19/02 Q1029","updated":"2026-03-30T13:16:32Z"}
