{"icao":"KORD","metar":"KORD 120751Z 25005KT 10SM FEW030 FEW250 18/14 A2982 RMK AO2 SLP095 T01780144 $","updated":"2026-06-12T08:23:57Z"}
