{"icao":"KORD","metar":"KORD 091451Z 23014G26KT 10SM SCT019 SCT250 M01/M05 A2974 RMK AO2 PK WND 22030/1426 SLP080 T10111050 56025","updated":"2025-12-09T15:22:49Z"}
