{"icao":"LPPT","metar":"LPPT 202000Z 33010KT CAVOK 11/08 Q1028","updated":"2026-02-20T20:29:54Z"}
