{"icao":"LPAZ","metar":"LPAZ 041530Z 24028G38KT 4500 -SHRA BR SCT013 FEW025TCU BKN030 17/14 Q0996","updated":"2026-02-04T15:41:15Z"}
