{"icao":"LPHR","metar":"LPHR 181530Z 16007KT 9999 FEW025 17/11 Q1025","updated":"2026-02-18T15:51:18Z"}
