{"icao":"LPPD","metar":"LPPD 231730Z 21019KT 5000 BR SCT005 BKN009 17/16 Q1009","updated":"2026-02-23T18:00:21Z"}
