{"icao":"LPBJ","metar":"LPBJ 221500Z 06006KT 010V120 CAVOK 15/M03 Q1028","updated":"2025-11-22T15:16:18Z"}
