{"icao":"LPPD","metar":"LPPD 281700Z 10023G38KT 070V130 2500 -RA BR FEW004 BKN007 BKN016 FEW025TCU 12/11 Q1010","updated":"2025-12-28T17:16:41Z"}
