{"icao":"LPPS","metar":"LPPS 111400Z 36009KT 320V040 9999 SCT015 23/14 Q1019","updated":"2025-10-11T14:13:46Z"}
