{"icao":"KLAX","metar":"KLAX 261853Z 24010KT 10SM SCT025 BKN032 18/10 A2989 RMK AO2 SLP119 T01780100 $","updated":"2026-05-26T19:20:42Z"}
