{"icao":"KJFK","metar":"KJFK 220951Z 04012KT 10SM FEW070 SCT100 BKN200 BKN250 13/07 A3031 RMK AO2 SLP263 T01330072 $","updated":"2026-05-22T10:48:54Z"}
