{"icao":"LPLA","metar":"LPLA 181100Z 30009KT 9999 FEW023 26/20 Q1014","updated":"2025-10-18T11:13:14Z"}
