{"icao":"LPMT","metar":"LPMT 171700Z 29002KT CAVOK 14/10 Q1021","updated":"2025-12-17T17:22:09Z"}
