{"icao":"LPPR","metar":"LPPR 172300Z 06003KT 010V110 CAVOK 12/09 Q1019","updated":"2025-11-17T23:17:03Z"}
