{"icao":"LPBJ","metar":"LPBJ 101700Z 25014KT 1800 -DZ BR OVC004 15/15 Q1017","updated":"2026-02-10T18:00:18Z"}
