{"icao":"LPBJ","metar":"LPBJ 132300Z 32009KT CAVOK 20/12 Q1022","updated":"2025-09-13T23:14:17Z"}
