{"icao":"KORD","metar":"KORD 090851Z 22017G30KT 10SM SCT029 SCT035 15/11 A2938 RMK AO2 PK WND 20042/0835 SLP949 T01500111 56002 $","updated":"2026-01-09T09:27:10Z"}
