{"icao":"LPFL","metar":"LPFL 041230Z 35011KT 3500 -RADZ SCT003 OVC007 12/11 Q1024","updated":"2026-04-04T12:53:34Z"}
