{"icao":"KJFK","metar":"KJFK 170451Z 21006KT 10SM FEW060 SCT250 14/12 A2975 RMK AO2 SLP074 T01440122 402670139","updated":"2026-04-17T05:26:52Z"}
