{"icao":"LPFR","metar":"LPFR 241930Z 07006KT 9000 FEW010 15/14 Q1017","updated":"2026-02-24T19:51:45Z"}
