{"icao":"KJFK","metar":"KJFK 241751Z 33022G31KT 10SM SCT055 SCT250 08/M05 A3011 RMK AO2 PK WND 33034/1728 SLP197 T00781050 10083 20056 51021 $","updated":"2025-12-24T18:28:56Z"}
