{"icao":"LPHR","metar":"LPHR 192030Z 01026G39KT 350V050 9999 SCT012 FEW014TCU SCT025 15/10 Q1008","updated":"2026-03-19T20:36:07Z"}
