{"icao":"LPFR","metar":"LPFR 191100Z 09010KT 040V100 CAVOK 26/20 Q1020","updated":"2025-09-19T11:14:12Z"}
