{"icao":"LPPT","metar":"LPPT 211000Z 12006KT 080V190 9000 FEW005 BKN012 14/13 Q1009","updated":"2026-03-21T10:24:54Z"}
