{"icao":"LPPS","metar":"LPPS 060830Z 03011KT 340V060 9999 SCT015 BKN030 13/07 Q1028","updated":"2026-03-06T08:36:21Z"}
