{"icao":"KJFK","metar":"KJFK 172151Z 26010KT 9SM FEW009 BKN014 BKN100 01/00 A3008 RMK AO2 SLP186 T00110000 $","updated":"2026-01-17T22:18:22Z"}
