{"icao":"LPFL","metar":"LPFL 061100Z 32011G23KT 240V030 9999 -DZ FEW010 SCT016 FEW017CB 17/13 Q1005","updated":"2025-12-06T11:14:34Z"}
