{"icao":"KORD","metar":"KORD 271151Z 06003KT 10SM CLR 07/04 A3025 RMK AO2 SLP244 T00720039 10100 20072 56002 $","updated":"2025-10-27T12:39:31Z"}
