{"icao":"LPMA","metar":"LPMA 092200Z 01016G28KT 340V040 9999 BKN013 FEW015TCU 15/08 Q1029","updated":"2026-03-09T22:27:44Z"}
