{"icao":"LPLA","metar":"LPLA 200300Z 12004KT 090V170 9999 FEW020 11/08 Q1027","updated":"2026-01-20T03:42:39Z"}
