{"icao":"LPMT","metar":"LPMT 232000Z 36007KT CAVOK 22/16 Q1019","updated":"2026-05-23T20:50:05Z"}
