{"icao":"LPFR","metar":"LPFR 160230Z VRB02KT CAVOK 21/16 Q1015","updated":"2025-10-16T03:01:50Z"}
