{"icao":"LPPT","metar":"LPPT 092000Z 32005KT 250V350 9999 FEW024 10/06 Q1022","updated":"2026-03-09T20:33:03Z"}
