{"icao":"KORD","metar":"KORD 181651Z 18016G28KT 10SM OVC009 09/08 A2938 RMK AO2 PK WND 18036/1610 PRESFR SLP954 T00940078","updated":"2025-12-18T17:22:18Z"}
