{"icao":"LPPD","metar":"LPPD 141300Z 28012KT 260V320 9999 FEW027 SCT035 17/10 Q1008","updated":"2025-11-14T13:28:53Z"}
