{"icao":"LPCS","metar":"LPCS 231930Z 04005KT 010V070 9999 FEW010 23/17 Q1012","updated":"2026-06-23T20:01:45Z"}
