{"icao":"LPAZ","metar":"LPAZ 141130Z 28010KT 9999 FEW019 21/15 Q1023","updated":"2026-06-14T11:56:15Z"}
