{"icao":"KLAX","metar":"KLAX 061653Z VRB04KT 7SM FEW009 OVC018 19/14 A2986 RMK AO2 SLP108 T01940144 $","updated":"2025-10-06T17:16:09Z"}
