{"icao":"LPHR","metar":"LPHR 011230Z 34015KT 300V020 9999 FEW025 16/08 Q1009","updated":"2026-01-01T12:40:21Z"}
