{"icao":"LPPR","metar":"LPPR 190800Z 12008KT 8000 NSC 05/04 Q1020","updated":"2026-01-19T08:31:27Z"}
