{"icao":"LPLA","metar":"LPLA 031100Z 34014KT 9999 SCT012 BKN020 15/13 Q1012","updated":"2026-01-03T11:16:02Z"}
