{"icao":"LPAR","metar":"LPAR 201100Z 36013KT CAVOK 14/05 Q1021","updated":"2025-11-20T11:16:43Z"}
