{"icao":"LPCS","metar":"LPCS 151300Z 36014KT 330V030 9999 FEW013 22/15 Q1017","updated":"2026-06-15T13:10:53Z"}
