{"icao":"LPCS","metar":"LPCS 262000Z VRB01KT CAVOK 25/10 Q1019","updated":"2026-05-26T23:08:46Z"}
