{"icao":"KORD","metar":"KORD 170251Z 29006KT 10SM CLR 04/M08 A2996 RMK AO2 SLP151 T00441083 53007 $","updated":"2025-11-17T03:15:29Z"}
