{"icao":"LPMR","metar":"LPMR 011200Z 29007KT 260V320 CAVOK 25/15 Q1021","updated":"2025-10-01T12:38:13Z"}
