{"icao":"LPPR","metar":"LPPR 302100Z 14003KT CAVOK 07/05 Q1021","updated":"2025-11-30T21:16:12Z"}
