{"icao":"KLAX","metar":"KLAX 291226Z 08003KT 4SM BR SCT005 13/12 A3000 RMK AO2 VIS 2 RWY24 T01330122 $","updated":"2025-11-29T12:35:38Z"}
