{"icao":"LPCS","metar":"LPCS 012030Z 28004KT 230V340 CAVOK 16/12 Q1019","updated":"2026-05-01T21:51:48Z"}
