{"icao":"LPBJ","metar":"LPBJ 282013Z 22009KT 4000 -DZ SCT004 OVC007 13/13 Q1008","updated":"2026-01-28T20:29:29Z"}
