{"icao":"LPBJ","metar":"LPBJ 011100Z 06009KT 030V090 CAVOK 18/04 Q1023","updated":"2026-04-01T11:52:10Z"}
