{"icao":"KJFK","metar":"KJFK 211051Z 05006KT 10SM FEW030 BKN250 13/11 A3032 RMK AO2 SLP267 T01330111 $","updated":"2025-09-21T11:12:51Z"}
