{"icao":"LPMA","metar":"LPMA 060300Z 33006KT 290V030 9999 FEW018 SCT040 20/10 Q1020","updated":"2025-11-06T03:12:54Z"}
