{"icao":"LPMR","metar":"LPMR 092300Z 12002KT 5000 BR NSC 14/13 Q1014","updated":"2026-04-09T23:36:18Z"}
