{"icao":"LPCS","metar":"LPCS 300800Z 03004KT 330V090 9999 FEW014 11/06 Q1018","updated":"2025-11-30T08:22:06Z"}
