{"icao":"LPAZ","metar":"LPAZ 161000Z 13014KT 8000 -SHRA FEW009 BKN011 21/20 Q1003","updated":"2025-10-16T10:20:22Z"}
