{"icao":"LPPT","metar":"LPPT 091030Z 20015KT 180V240 9999 BKN020 FEW025TCU 17/12 Q1004","updated":"2026-05-09T10:55:52Z"}
