{"icao":"LPPT","metar":"LPPT 032300Z VRB02KT CAVOK 13/11 Q1020","updated":"2025-11-03T23:16:03Z"}
