{"icao":"LPPT","metar":"LPPT 190400Z 35010KT 8000 RA NSC 12/11 Q1018","updated":"2025-12-19T04:33:13Z"}
