{"icao":"KORD","metar":"KORD 161451Z 29014G24KT 2 1/2SM -SN BKN023 BKN033 OVC047 M04/M08 A2956 RMK AO2 PK WND 30031/1414 SLP018 DRSN P0000 60000 T10391083 51045","updated":"2026-03-16T14:58:29Z"}
