{"icao":"LPPD","metar":"LPPD 261800Z 16006KT 9999 VCSH SCT011 BKN030 18/16 Q1023","updated":"2025-11-26T18:23:41Z"}
