{"icao":"KLAX","metar":"KLAX 031453Z 00000KT 3SM BR FEW002 SCT006 OVC010 16/14 A3007 RMK AO2 SLP180 VIS SW-N 2 1/2 T01610144 51014 $","updated":"2025-11-03T15:19:45Z"}
