{"icao":"LPOV","metar":"LPOV 242100Z 15007KT 120V190 9999 SCT030 14/11 Q1014","updated":"2026-02-24T22:32:29Z"}
