{"icao":"LPMR","metar":"LPMR 240900Z 23007KT 8000 BKN007 BKN018 20/19 Q1017","updated":"2025-10-24T09:19:41Z"}
