{"icao":"KJFK","metar":"KJFK 281851Z 21007KT 10SM FEW032 FEW085 SCT200 SCT250 26/18 A3004 RMK AO2 SLP173 T02560178","updated":"2025-09-28T19:12:10Z"}
