{"icao":"LPPR","metar":"LPPR 210100Z 35002KT CAVOK 04/03 Q1026","updated":"2025-11-21T01:23:07Z"}
