{"icao":"LPFR","metar":"LPFR 261900Z 24010KT 9999 SCT018 BKN040 14/13 Q1014","updated":"2026-01-26T19:22:14Z"}
