{"icao":"LPPR","metar":"LPPR 281700Z 33007KT 300V360 CAVOK 19/10 Q1024","updated":"2026-03-28T17:27:28Z"}
