{"icao":"KJFK","metar":"KJFK 291751Z 30010G14KT 10SM FEW065 FEW150 SCT250 24/06 A2988 RMK AO2 SLP119 T02440056 10244 20167 58029 $","updated":"2026-05-29T18:30:44Z"}
