{"icao":"KJFK","metar":"KJFK 271151Z 02005KT 10SM FEW035 FEW085 FEW250 06/02 A3041 RMK AO2 SLP295 T00610022 10072 20056 51011","updated":"2025-10-27T12:39:31Z"}
