{"icao":"LPLA","metar":"LPLA 251200Z 36005KT 320V040 9999 FEW007 SCT016 BKN024 16/14 Q1017","updated":"2026-04-25T13:01:30Z"}
