{"icao":"LPMR","metar":"LPMR 221800Z 34002KT CAVOK 09/04 Q1029","updated":"2025-11-22T18:24:32Z"}
