{"icao":"LPBJ","metar":"LPBJ 261700Z 32011KT CAVOK 28/17 Q1017","updated":"2026-06-26T17:45:43Z"}
