{"icao":"KORD","metar":"KORD 251051Z 16007KT 10SM FEW070 BKN160 OVC250 06/M03 A3009 RMK AO2 SLP190 T00611033","updated":"2026-03-25T11:40:50Z"}
