{"icao":"KJFK","metar":"KJFK 031251Z 31006G18KT 10SM FEW035 FEW075 FEW250 01/M05 A3000 RMK AO2 SLP158 T00061050","updated":"2025-12-03T13:35:11Z"}
