{"icao":"LPPS","metar":"LPPS 140900Z 07009KT 040V110 9999 FEW015 BKN030 15/10 Q1025","updated":"2026-04-14T09:16:32Z"}
