{"icao":"KJFK","metar":"KJFK 091351Z 16003KT 10SM FEW055 BKN085 OVC100 14/09 A2990 RMK AO2 SLP125 T01440089 $","updated":"2026-05-09T14:49:29Z"}
