{"icao":"LPBJ","metar":"LPBJ 151900Z 30010KT CAVOK 29/14 Q1018","updated":"2025-09-15T19:13:38Z"}
