{"icao":"LPCS","metar":"LPCS 130730Z 14006KT 110V170 CAVOK 25/10 Q1018","updated":"2026-06-13T07:44:41Z"}
