{"icao":"KORD","metar":"KORD 270451Z 03007KT 10SM OVC011 04/02 A2995 RMK AO2 SLP147 T00390017 $","updated":"2025-12-27T05:20:17Z"}
