{"icao":"KJFK","metar":"KJFK 011351Z 36015KT 6SM -RAPL BKN055 BKN150 BKN250 02/M03 A3015 RMK AO2 RAB20PLB20 SLP211 P0000 T00171033 VISNO W $","updated":"2026-03-01T14:22:49Z"}
