{"icao":"LPMA","metar":"LPMA 110400Z 25008KT 9999 SCT016 20/14 Q1015","updated":"2025-11-11T04:23:27Z"}
