{"icao":"LPPR","metar":"LPPR 061900Z 01009KT CAVOK 12/04 Q1019","updated":"2026-03-06T19:32:51Z"}
