{"icao":"KJFK","metar":"KJFK 200851Z 08010KT 10SM SCT028 OVC060 02/00 A2996 RMK AO2 SLP145 T00220000 58016 $","updated":"2026-02-20T09:39:20Z"}
