{"icao":"LPPT","metar":"LPPT 231430Z 19007KT 160V230 CAVOK 21/09 Q1022","updated":"2026-02-23T14:43:46Z"}
