{"icao":"LPFL","metar":"LPFL 251400Z 01010KT 340V040 9999 FEW016 FEW020TCU SCT049 18/13 Q1025","updated":"2025-10-25T14:14:54Z"}
