{"icao":"LPAZ","metar":"LPAZ 141330Z 03011KT 360V060 9999 FEW009 BKN020 17/13 Q1031","updated":"2026-03-14T13:44:22Z"}
