{"icao":"KORD","metar":"KORD 221251Z 02017G26KT 10SM FEW120 BKN170 BKN250 06/01 A2975 RMK AO2 PK WND 02037/1157 SLP073 T00610011","updated":"2026-03-22T13:42:44Z"}
