{"icao":"LPLA","metar":"LPLA 100600Z 24011KT 9999 FEW030 18/13 Q1009","updated":"2026-02-10T07:02:37Z"}
