{"icao":"LPBJ","metar":"LPBJ 282300Z 28006KT CAVOK 21/12 Q1020","updated":"2026-05-28T23:14:15Z"}
