{"icao":"LPPD","metar":"LPPD 132030Z 33004KT 9999 FEW027 14/10 Q1032","updated":"2026-02-13T20:36:41Z"}
