{"icao":"LPMR","metar":"LPMR 152300Z 02001KT 7000 SCT006 13/13 Q1024","updated":"2026-04-15T23:40:12Z"}
