{"icao":"LPHR","metar":"LPHR 301030Z VRB02KT 9999 FEW025 16/11 Q1007","updated":"2026-04-30T10:54:04Z"}
