{"icao":"LPMR","metar":"LPMR 050600Z 20003KT 7000 FEW015 BKN030 15/14 Q1019","updated":"2025-12-05T06:30:29Z"}
