{"icao":"LPMA","metar":"LPMA 271100Z 36012KT 310V050 9999 FEW015 24/16 Q1022","updated":"2026-06-27T11:25:38Z"}
