{"icao":"LPMA","metar":"LPMA 161100Z VRB04KT 9999 SCT015 17/10 Q1026","updated":"2026-01-16T11:18:43Z"}
