{"icao":"KJFK","metar":"KJFK 282151Z 19007KT 10SM FEW085 FEW250 23/19 A3006 RMK AO2 SLP178 T02330189","updated":"2025-09-28T22:15:07Z"}
