{"icao":"LPPS","metar":"LPPS 242300Z 36007KT 9999 FEW015 20/13 Q1021","updated":"2025-09-24T23:16:11Z"}
