{"icao":"KLAX","metar":"KLAX 290653Z 26010KT 10SM BKN060 OVC110 16/11 A2997 RMK AO2 SLP149 T01610111 $","updated":"2026-05-29T07:53:58Z"}
