{"icao":"LPPD","metar":"LPPD 281100Z 01018KT 9000 -DZ SCT007 15/13 Q1026","updated":"2025-11-28T11:16:29Z"}
