{"icao":"LPPS","metar":"LPPS 210600Z 34010KT 9000 -DZ SCT006 SCT030 22/21 Q1018","updated":"2025-10-21T06:27:40Z"}
