{"icao":"LPBJ","metar":"LPBJ 090600Z 29011KT 5000 -DZ OVC004 14/14 Q1013","updated":"2026-02-09T06:10:11Z"}
