{"icao":"LPCS","metar":"LPCS 210900Z 23009KT 190V260 1500 -RADZ BR BKN003 15/15 Q1008 RERA","updated":"2026-01-21T09:31:00Z"}
