{"icao":"LPCS","metar":"LPCS 160900Z 28003KT 250V320 9000 -SHRA FEW013 FEW020CB BKN035 11/10 Q1015","updated":"2026-01-16T09:25:48Z"}
