{"icao":"LPPD","metar":"LPPD 270800Z 21007G21KT 190V270 9999 FEW020 18/14 Q1022","updated":"2025-11-27T08:27:14Z"}
