{"icao":"KORD","metar":"KORD 201351Z 27005KT 10SM FEW060 SCT120 BKN250 21/17 A3007 RMK AO2 SLP178 T02110172","updated":"2025-09-20T14:14:23Z"}
