{"icao":"LPLA","metar":"LPLA 240700Z 32003KT 9999 BKN015 17/15 Q1020","updated":"2026-06-24T07:39:04Z"}
