{"icao":"LPMR","metar":"LPMR 280700Z 31015KT 280V340 2000 -RA OVC003 16/16 Q1008","updated":"2025-09-28T07:14:21Z"}
