{"icao":"KORD","metar":"KORD 140451Z 18006KT 10SM SCT110 08/M01 A3008 RMK AO2 SLP189 T00831006","updated":"2025-11-14T05:18:58Z"}
