{"icao":"LPFR","metar":"LPFR 221500Z 11010KT CAVOK 17/03 Q1026","updated":"2025-11-22T15:16:13Z"}
