{"icao":"LPAZ","metar":"LPAZ 212000Z 28017KT 9000 BKN004 17/16 Q1020","updated":"2026-01-21T20:29:02Z"}
