{"icao":"LPFR","metar":"LPFR 201330Z 22007KT CAVOK 27/18 Q1013","updated":"2026-06-20T13:59:28Z"}
