{"icao":"LPAZ","metar":"LPAZ 160230Z 36007KT 9999 BKN038 14/06 Q1031","updated":"2026-05-16T02:47:38Z"}
