{"icao":"KORD","metar":"KORD 142251Z 14007KT 9SM BKN220 OVC250 09/M01 A2994 RMK AO2 SLP144 T00891006 $","updated":"2026-02-14T23:23:19Z"}
