{"icao":"LPLA","metar":"LPLA 271200Z 23009KT 180V270 9999 SCT030 19/11 Q1017","updated":"2026-05-27T12:19:04Z"}
