{"icao":"LPMA","metar":"LPMA 071330Z 01011KT 340V050 9999 SCT016 SCT033 16/05 Q1025","updated":"2026-03-07T13:37:48Z"}
