{"icao":"LPMA","metar":"LPMA 231500Z 03014KT 350V050 9999 SCT016 21/13 Q1024","updated":"2025-11-23T15:16:50Z"}
