{"icao":"LPMA","metar":"LPMA 221800Z 27005KT 240V320 9999 BKN014 19/15 Q1017","updated":"2026-01-22T18:31:54Z"}
