{"icao":"KJFK","metar":"KJFK 040551Z 26011KT 10SM FEW085 11/02 A2993 RMK SLP135 T01110017 10150 20106 51016 ","updated":"2026-05-04T06:11:48Z"}
