{"icao":"LPMA","metar":"LPMA 011930Z 02015KT 330V030 9999 FEW015 21/03 Q1021","updated":"2026-04-01T20:00:02Z"}
