{"icao":"LPOV","metar":"LPOV 262100Z 35005KT 5000 BR OVC003 11/11 Q1025","updated":"2026-02-26T21:30:59Z"}
