{"icao":"LPPR","metar":"LPPR 050400Z 24006KT 180V290 5000 +SHRA FEW005 FEW020CB BKN035 16/15 Q1006 RETS","updated":"2025-11-05T04:21:25Z"}
