{"icao":"KLAX","metar":"KLAX 072053Z 26009KT 10SM FEW240 FEW280 19/13 A3014 RMK AO2 SLP205 T01940128 58020","updated":"2026-02-07T21:25:56Z"}
