{"icao":"LPCS","metar":"LPCS 141800Z 33009KT 290V350 9999 FEW010 22/15 Q1016","updated":"2026-06-14T18:10:35Z"}
