{"icao":"LPLA","metar":"LPLA 160200Z 03002KT 9999 FEW018 SCT040 22/19 Q1024","updated":"2025-09-16T02:55:14Z"}
