{"icao":"LPPR","metar":"LPPR 032030Z 34003KT CAVOK 12/10 Q1023","updated":"2026-04-03T20:35:05Z"}
