{"icao":"KLAX","metar":"KLAX 201053Z 08004KT 10SM FEW012 15/13 A2995 RMK AO2 SLP141 FU FEW012 T01500133","updated":"2026-06-20T11:16:47Z"}
