{"icao":"KORD","metar":"KORD 051951Z 22014G23KT 10SM FEW060 SCT080 BKN250 M02/M13 A2982 RMK AO2 PK WND 23028/1941 SLP109 T10171133","updated":"2025-12-05T20:21:39Z"}
