{"icao":"LPFL","metar":"LPFL 271300Z VRB05KT 9999 FEW030 BKN040 20/11 Q1027","updated":"2025-09-27T13:19:54Z"}
