{"icao":"LPLA","metar":"LPLA 031200Z 24013KT 9999 FEW023 21/16 Q1013","updated":"2025-11-03T12:38:53Z"}
