{"icao":"LPBJ","metar":"LPBJ 100700Z VRB02KT 4500 1500S VCFG FEW003 BKN028 08/08 Q1020","updated":"2025-11-10T07:18:18Z"}
