{"icao":"LPPS","metar":"LPPS 180400Z 03004KT 9999 FEW013 20/18 Q1019","updated":"2025-09-18T04:21:03Z"}
