{"icao":"KORD","metar":"KORD 171818Z 24013G24KT 10SM BKN035 M09/M17 A2997 RMK AO2 PK WND 23028/1754 SNE17 P0000 T10891172 $","updated":"2026-01-17T18:27:29Z"}
