{"icao":"LPHR","metar":"LPHR 281100Z 10026G38KT 8000 -RA SCT011 BKN030 16/13 Q1009","updated":"2025-12-28T11:16:22Z"}
