{"icao":"KLAX","metar":"KLAX 231053Z 26007KT 5SM BR FEW002 SCT004 BKN150 19/18 A2980 RMK AO2 SLP090 VIS SW-NW 2 1/2 T01890178 $","updated":"2025-09-23T11:14:10Z"}
