{"icao":"LPMA","metar":"LPMA 171030Z 01008KT 340V040 9999 BKN015 18/12 Q1025","updated":"2026-05-17T11:04:32Z"}
