{"icao":"LPFR","metar":"LPFR 250200Z 26004KT CAVOK 17/13 Q1016","updated":"2026-04-25T02:22:44Z"}
