{"icao":"LPPT","metar":"LPPT 150900Z 33005KT 300V010 9999 FEW014 BKN018 15/12 Q1025","updated":"2026-04-15T09:17:41Z"}
