{"icao":"LPPD","metar":"LPPD 040430Z 34003KT 300V360 9999 FEW018 BKN035 14/08 Q1023","updated":"2026-04-04T04:48:46Z"}
