{"icao":"LPAZ","metar":"LPAZ 090400Z 32010KT 9999 FEW022 18/14 Q1023","updated":"2025-11-09T04:20:44Z"}
