{"icao":"LPMA","metar":"LPMA 230500Z 36010KT 330V030 9999 FEW015 18/11 Q1025","updated":"2025-11-23T05:17:33Z"}
