{"icao":"LPMR","metar":"LPMR 191700Z 01008KT 9999 FEW020 13/06 Q1017","updated":"2025-11-19T17:17:28Z"}
