{"icao":"LPMR","metar":"LPMR 091600Z 21012KT 170V240 9999 FEW020 FEW022CB BKN035 17/13 Q1005","updated":"2026-05-09T16:53:26Z"}
