{"icao":"LPMR","metar":"LPMR 031900Z 32007KT 9999 SCT020 BKN030 15/11 Q1014","updated":"2026-05-03T19:55:27Z"}
