{"icao":"LPPR","metar":"LPPR 201800Z 19010KT 9999 SCT015 BKN020 18/16 Q1012","updated":"2025-10-20T18:27:03Z"}
