{"icao":"LPPR","metar":"LPPR 231130Z VRB04KT CAVOK 20/07 Q1015","updated":"2026-03-23T11:41:51Z"}
