{"icao":"KLAX","metar":"KLAX 190653Z 33003KT 10SM CLR 17/14 A2998 RMK AO2 SLP150 T01720139 $","updated":"2025-12-19T07:20:39Z"}
