{"icao":"LPBJ","metar":"LPBJ 071600Z VRB04KT CAVOK 29/14 Q1020","updated":"2025-10-07T16:21:45Z"}
