{"icao":"LPMR","metar":"LPMR 160200Z 35005KT 320V020 9999 FEW030 13/10 Q1018","updated":"2026-05-16T02:47:23Z"}
