{"icao":"KORD","metar":"KORD 110951Z 03010KT 10SM FEW100 07/03 A3016 RMK AO2 SLP213 T00670028 $","updated":"2026-05-11T10:37:14Z"}
