{"icao":"KLAX","metar":"KLAX 280253Z 26005KT 10SM SCT250 17/11 A3002 RMK AO2 SLP165 T01720106 51008 $","updated":"2025-11-28T03:10:11Z"}
