{"icao":"LPFR","metar":"LPFR 121600Z 11009KT 9999 FEW020 SCT030 14/11 Q1019","updated":"2026-01-12T16:25:26Z"}
