{"icao":"LPFR","metar":"LPFR 222330Z 27003KT 220V290 CAVOK 22/20 Q1015","updated":"2026-06-23T00:04:03Z"}
