{"icao":"LPLA","metar":"LPLA 261900Z 23005KT 170V270 9999 -RA FEW015 SCT040 16/12 Q1014","updated":"2026-05-26T19:20:28Z"}
