{"icao":"LPAR","metar":"LPAR 211500Z VRB04KT CAVOK 32/11 Q1020","updated":"2026-05-21T15:21:05Z"}
