{"icao":"KLAX","metar":"KLAX 111753Z VRB05KT 10SM CLR 23/14 A2981 RMK AO2 SLP091 T02330139 10233 20161 50006 $","updated":"2025-10-11T18:20:38Z"}
