{"icao":"LPLA","metar":"LPLA 131900Z 29004KT 260V320 9999 FEW020 SCT025 15/10 Q1031","updated":"2026-02-13T19:40:45Z"}
