{"icao":"LPPR","metar":"LPPR 180830Z 19017KT 9999 BKN004 12/11 Q1016","updated":"2026-02-18T08:42:18Z"}
