{"icao":"KORD","metar":"KORD 270251Z 28014G23KT 10SM OVC033 M01/M08 A3004 RMK AO2 PK WND 29027/0240 SLP179 T10061078 53024","updated":"2025-11-27T03:10:33Z"}
