{"icao":"KLAX","metar":"KLAX 072253Z 27013KT 10SM SCT009 SCT110 19/14 A2995 RMK AO2 SLP143 T01940144","updated":"2026-05-07T23:01:21Z"}
