{"icao":"LPBJ","metar":"LPBJ 160600Z 25003KT 0400 FG VV001 08/08 Q1015","updated":"2026-01-16T06:32:46Z"}
