{"icao":"KLAX","metar":"KLAX 031753Z 28009KT 10SM FEW020 BKN150 19/13 A2999 RMK AO2 SLP156 T01940133 10200 20161 50002 $","updated":"2026-06-03T18:21:31Z"}
