{"icao":"LPAZ","metar":"LPAZ 010300Z 03010KT 010V070 9999 FEW027 BKN040 17/09 Q1015","updated":"2025-11-01T03:10:28Z"}
