{"icao":"KJFK","metar":"KJFK 070751Z 00000KT 10SM SCT250 04/00 A3016 RMK AO2 SLP211 T00390000 $","updated":"2025-11-07T08:25:25Z"}
