{"icao":"KJFK","metar":"KJFK 080651Z 01010KT 10SM -RA SCT100 BKN110 BKN250 11/03 A2985 RMK AO2 RAB30 SLP109 P0000 T01110028","updated":"2026-05-08T07:28:34Z"}
