{"icao":"KJFK","metar":"KJFK 091151Z 16006KT 10SM FEW010 SCT090 BKN250 13/12 A2989 RMK AO2 SLP122 70001 T01330122 10133 20100 53003 $","updated":"2025-11-09T12:33:54Z"}
