{"icao":"LPPT","metar":"LPPT 072300Z 18004KT 9999 FEW008 SCT010 14/13 Q1022","updated":"2025-12-07T23:16:23Z"}
