{"icao":"LPPD","metar":"LPPD 230130Z 11004KT 070V140 9999 FEW016 BKN020 16/13 Q1030","updated":"2025-11-23T01:43:03Z"}
