{"icao":"LPPT","metar":"LPPT 301000Z 26008KT 220V290 6000 -RA FEW006 SCT011 BKN022 14/14 Q1013 RERA","updated":"2026-01-30T10:32:28Z"}
