{"icao":"LPMT","metar":"LPMT 202100Z 25009KT 9000 -RA FEW015 SCT020 13/12 Q1016","updated":"2026-01-20T21:19:42Z"}
