{"icao":"LPMA","metar":"LPMA 162130Z 02012KT 360V060 9999 BKN016 17/11 Q1020","updated":"2026-04-16T21:41:50Z"}
