{"icao":"LPPT","metar":"LPPT 131000Z 07005G16KT 020V100 CAVOK 23/12 Q1017","updated":"2025-10-13T10:20:56Z"}
