{"icao":"LPCS","metar":"LPCS 161430Z 34024KT 9999 FEW020 19/09 Q1018","updated":"2026-05-16T14:54:45Z"}
