{"icao":"LPBJ","metar":"LPBJ 211421Z 28016KT 5000 -DZRA BR BKN005 BKN012 15/14 Q1006 REDZRA","updated":"2026-01-21T14:29:45Z"}
