{"icao":"LPPT","metar":"LPPT 170130Z 30003KT 260V330 9999 OVC015 13/11 Q1030","updated":"2026-02-17T02:01:11Z"}
