{"icao":"LPMA","metar":"LPMA 141500Z 22015KT 9999 SCT015 FEW016TCU 23/15 Q1011","updated":"2025-11-14T15:17:14Z"}
