{"icao":"LPBJ","metar":"LPBJ 031200Z 31007KT 280V350 9999 FEW020 13/08 Q1024","updated":"2025-12-03T12:41:04Z"}
