{"icao":"LPAZ","metar":"LPAZ 010900Z 24026KT 5000 BR FEW004 SCT008 BKN012 17/16 Q1009","updated":"2026-02-01T09:29:18Z"}
