{"icao":"LPOV","metar":"LPOV 301500Z 27013KT 240V300 9999 FEW007 BKN012 15/10 Q1007","updated":"2026-01-30T15:32:59Z"}
