{"icao":"LPPT","metar":"LPPT 120700Z 05009KT CAVOK 19/11 Q1017","updated":"2025-10-12T07:15:21Z"}
