{"icao":"LPAZ","metar":"LPAZ 262300Z 30003KT 260V340 9999 FEW008 SCT029 BKN040 14/14 Q1017","updated":"2026-05-26T23:08:49Z"}
