{"icao":"LPFL","metar":"LPFL 060800Z 19009KT 160V220 9999 FEW020 16/11 Q1029","updated":"2026-01-06T08:29:09Z"}
