{"icao":"LPFL","metar":"LPFL 141500Z VRB06G16KT 5000 2400N DZ FEW007 BKN014 17/15 Q1018 RERA","updated":"2026-01-14T15:24:46Z"}
