{"icao":"LPMR","metar":"LPMR 221400Z 34018KT CAVOK 19/08 Q1019","updated":"2025-09-22T14:18:34Z"}
