{"icao":"LPPT","metar":"LPPT 151900Z 33011KT CAVOK 14/09 Q1019","updated":"2026-03-15T19:26:38Z"}
