{"icao":"KLAX","metar":"KLAX 230453Z 28005KT 4SM BR FEW007 16/15 A2991 RMK AO2 SLP128 T01610150","updated":"2026-03-23T05:01:58Z"}
