{"icao":"LPMT","metar":"LPMT 241700Z 26014KT 7000 FEW008 SCT011 BKN018 17/16 Q1016","updated":"2025-11-24T17:17:48Z"}
