{"icao":"LPPS","metar":"LPPS 010900Z 25006KT CAVOK 17/14 Q1021","updated":"2026-02-01T09:29:19Z"}
