{"icao":"LPLA","metar":"LPLA 271600Z 35015KT 9999 FEW009 FEW015TCU SCT018 17/15 Q1018","updated":"2025-10-27T16:24:02Z"}
