{"icao":"LPPT","metar":"LPPT 040130Z 27018G29KT 230V300 6000 -RA FEW008 SCT012 16/15 Q0994","updated":"2026-02-04T01:57:48Z"}
