{"icao":"LPPR","metar":"LPPR 211230Z 01008KT 310V060 CAVOK 12/04 Q1029","updated":"2025-11-21T12:37:05Z"}
