{"icao":"LPHR","metar":"LPHR 031900Z 27014KT 7000 VCSH SCT005 BKN008 BKN012 18/17 Q1026","updated":"2025-12-03T19:17:04Z"}
