{"icao":"LPMA","metar":"LPMA 181300Z 35010KT 310V030 9999 BKN013 FEW018CB 14/07 Q1000","updated":"2026-03-18T13:09:24Z"}
