{"icao":"LPPT","metar":"LPPT 152000Z 34013KT 9999 FEW018 15/11 Q1016","updated":"2026-05-15T20:15:43Z"}
