{"icao":"LPCS","metar":"LPCS 011500Z 10010KT 070V140 9999 FEW004 BKN011 13/13 Q1008","updated":"2026-01-01T15:20:04Z"}
