{"icao":"LPFR","metar":"LPFR 221900Z 32004KT 290V050 CAVOK 22/14 Q1014","updated":"2025-09-22T19:14:04Z"}
