{"icao":"KLAX","metar":"KLAX 131253Z 13004KT 10SM FEW250 09/07 A2997 RMK AO2 SLP145 T00940067","updated":"2026-02-13T12:57:33Z"}
