{"icao":"LPOV","metar":"LPOV 110600Z VRB01KT CAVOK 13/10 Q1021","updated":"2025-10-11T06:23:20Z"}
