{"icao":"LPFR","metar":"LPFR 021900Z 02008KT 330V030 CAVOK 20/13 Q1023","updated":"2025-11-02T19:12:28Z"}
