{"icao":"LPCS","metar":"LPCS 191430Z 33012KT 300V360 9999 FEW020 14/05 Q1028","updated":"2026-02-19T14:48:11Z"}
