{"icao":"LPAZ","metar":"LPAZ 061800Z 08003KT 9999 BKN043 14/08 Q1033","updated":"2026-01-06T18:30:19Z"}
