{"icao":"LPAZ","metar":"LPAZ 121030Z 26005KT 200V290 9999 SCT038 15/06 Q1032","updated":"2026-04-12T10:37:11Z"}
