{"icao":"KORD","metar":"KORD 291951Z 18013G24KT 10SM SCT039 BKN200 BKN250 33/23 A2989 RMK AO2 SLP115 T03280233 $","updated":"2026-06-29T19:54:59Z"}
