{"icao":"LPST","metar":"LPST 031200Z 15009KT CAVOK 17/10 Q1023","updated":"2025-11-03T12:38:51Z"}
