{"icao":"LPPT","metar":"LPPT 250430Z 27012KT 240V300 7000 -RADZ FEW006 BKN012 13/12 Q1015 RERA","updated":"2026-01-25T04:51:10Z"}
