{"icao":"LPCS","metar":"LPCS 041700Z 28004KT 240V320 9999 FEW025 15/11 Q1022","updated":"2025-12-04T17:21:27Z"}
