{"icao":"KORD","metar":"KORD 301151Z 26007KT 10SM SCT090 M12/M16 A3022 RMK AO2 SLP247 4/001 T11171156 11094 21117 50001","updated":"2025-12-30T12:41:46Z"}
