{"icao":"LPCS","metar":"LPCS 110600Z 06010KT CAVOK 20/12 Q1020","updated":"2025-10-11T06:23:19Z"}
