{"icao":"LPFL","metar":"LPFL 041500Z 18016G29KT 150V230 7000 -SHRA FEW010 BKN013 19/16 Q1017","updated":"2025-12-04T15:22:22Z"}
