{"icao":"LPFL","metar":"LPFL 081100Z 36005KT 280V090 9999 SCT025 18/12 Q1019","updated":"2025-11-08T11:13:20Z"}
