{"icao":"KORD","metar":"KORD 250808Z 35008KT 3SM -SN OVC037 M15/M18 A3028 RMK AO2 P0000 T11501178 $","updated":"2026-01-25T08:26:37Z"}
