{"icao":"KJFK","metar":"KJFK 061251Z 36007KT 10SM BKN180 BKN250 M05/M11 A2980 RMK AO2 SLP090 T10501106 PNO $","updated":"2026-02-06T12:56:52Z"}
