{"icao":"LPFR","metar":"LPFR 271100Z 06009KT 040V100 CAVOK 16/01 Q1023","updated":"2025-11-27T11:16:46Z"}
