{"icao":"LPPD","metar":"LPPD 092000Z 19009KT 9999 FEW006 SCT016 16/15 Q1028","updated":"2026-01-09T20:23:13Z"}
