{"icao":"LPOV","metar":"LPOV 121800Z 33009KT 9999 FEW012 14/10 Q1026","updated":"2026-03-12T18:52:24Z"}
