{"icao":"LPMR","metar":"LPMR 150500Z 13001KT 0500 FG OVC004 11/11 Q1023","updated":"2026-04-15T05:22:32Z"}
