{"icao":"LPPD","metar":"LPPD 262200Z 04017G30KT 010V080 9999 SCT018 FEW020TCU BKN030 18/14 Q1020","updated":"2025-10-26T22:16:24Z"}
