{"icao":"LPPR","metar":"LPPR 260630Z 00000KT 3000 1400N MIFG FEW001 07/07 Q1024","updated":"2026-02-26T07:02:32Z"}
