{"icao":"LPPS","metar":"LPPS 182200Z 03008KT 350V060 9999 BKN012 SCT025 16/13 Q1027","updated":"2026-02-18T22:31:48Z"}
