{"icao":"LPFR","metar":"LPFR 240600Z VRB02KT 9999 SCT020 BKN030 13/10 Q1023","updated":"2025-11-24T06:29:32Z"}
