{"icao":"LPMR","metar":"LPMR 312100Z 33009KT 9999 FEW009 17/17 Q1021","updated":"2026-05-31T22:05:10Z"}
