{"icao":"KJFK","metar":"KJFK 310251Z 28017G28KT 10SM SCT055 M02/M13 A2980 RMK AO2 PK WND 26032/0237 SLP090 T10221133 51014 $","updated":"2025-12-31T03:26:17Z"}
