{"icao":"LPPT","metar":"LPPT 091100Z VRB04KT 9999 VCFG FEW002 13/12 Q1023","updated":"2025-11-09T11:13:00Z"}
