{"icao":"LPCS","metar":"LPCS 010700Z 05012KT 020V090 CAVOK 16/02 Q1023","updated":"2026-04-01T07:18:43Z"}
