{"icao":"LPAR","metar":"LPAR 291700Z VRB01KT 9999 FEW032 14/08 Q1019","updated":"2025-12-30T09:24:19Z"}
