{"icao":"LPPD","metar":"LPPD 061100Z 15008KT 120V180 9999 FEW025 BKN040 13/06 Q1033","updated":"2026-03-06T11:27:35Z"}
