{"icao":"LPAZ","metar":"LPAZ 170600Z 34005KT 320V020 9999 FEW017 18/16 Q1011","updated":"2025-10-17T06:26:42Z"}
