{"icao":"KORD","metar":"KORD 171751Z 21012G20KT 10SM FEW130 SCT230 BKN300 21/11 A2988 RMK AO2 SLP116 T02110111 10211 20144 58029","updated":"2025-10-17T18:23:39Z"}
