{"icao":"LPMA","metar":"LPMA 031000Z 32011G22KT 250V360 9999 SCT015 FEW018CB 17/10 Q0999","updated":"2026-01-03T10:19:45Z"}
