{"icao":"LPPR","metar":"LPPR 282300Z VRB02KT CAVOK 07/05 Q1017","updated":"2025-12-28T23:18:01Z"}
