{"icao":"LPCS","metar":"LPCS 221000Z 06007KT CAVOK 11/01 Q1031","updated":"2025-11-22T10:17:43Z"}
