{"icao":"LPOV","metar":"LPOV 121800Z 17009KT 3000 -RA BR BKN006 BKN011 OVC016 13/13 Q1014","updated":"2026-02-12T19:08:20Z"}
