{"icao":"LPPR","metar":"LPPR 280100Z 11009KT CAVOK 16/09 Q1017","updated":"2025-10-28T01:20:03Z"}
