{"icao":"LPMA","metar":"LPMA 041230Z 36008KT 310V070 9999 SCT015 FEW016CB 19/13 Q1009","updated":"2026-01-04T12:38:26Z"}
