{"icao":"KLAX","metar":"KLAX 061853Z 00000KT 10SM FEW090 SCT160 BKN250 22/M04 A3004 RMK AO2 SLP172 T02171039","updated":"2026-03-06T19:33:09Z"}
