{"icao":"LPBJ","metar":"LPBJ 160200Z VRB03KT CAVOK 18/09 Q1015","updated":"2025-10-16T03:01:52Z"}
