{"icao":"KJFK","metar":"KJFK 230751Z 01026G40KT 1/2SM R04R/3000V6000FT -SN BLSN BR VV007 M01/M02 A2946 RMK AO2 PK WND 36047/0719 SFC VIS 3/4 SLP974 SNINCR 2/11 P0001 T10111017 $","updated":"2026-02-23T08:50:11Z"}
