{"icao":"LPCS","metar":"LPCS 092030Z 02006KT CAVOK 16/13 Q1014","updated":"2026-04-09T20:49:55Z"}
