{"icao":"LPFR","metar":"LPFR 170500Z 07005KT CAVOK 19/17 Q1013","updated":"2025-10-17T05:17:02Z"}
