{"icao":"LPFL","metar":"LPFL 171800Z 20011KT 160V260 9999 FEW009 SCT016 25/21 Q1006","updated":"2025-10-17T19:14:00Z"}
