{"icao":"LPMR","metar":"LPMR 151100Z 34009KT 310V010 9999 FEW015 23/17 Q1023","updated":"2025-09-15T11:14:28Z"}
