{"icao":"LPCS","metar":"LPCS 201500Z 35019KT 9999 FEW025 14/06 Q1020","updated":"2025-11-20T15:19:57Z"}
