{"icao":"LPBJ","metar":"LPBJ 070900Z 34006KT CAVOK 10/07 Q1018","updated":"2026-03-07T09:27:08Z"}
