{"icao":"KJFK","metar":"KJFK 231551Z 21008KT 10SM FEW037 FEW060 FEW140 BKN250 24/17 A3002 RMK AO2 SLP165 T02390167 $","updated":"2025-09-23T16:21:49Z"}
