{"icao":"LPPT","metar":"LPPT 132300Z 24004KT 9999 FEW015 10/09 Q1015","updated":"2026-01-13T23:18:40Z"}
