{"icao":"LPAZ","metar":"LPAZ 231200Z 32013KT 9999 FEW006 BKN011 23/19 Q1023","updated":"2026-06-23T12:05:09Z"}
