{"icao":"LPPR","metar":"LPPR 260500Z 05003KT 020V080 CAVOK 09/09 Q1017","updated":"2025-10-26T05:16:47Z"}
