{"icao":"KJFK","metar":"KJFK 161751Z 28012G26KT 10SM FEW060 BKN130 BKN250 M01/M14 A2993 RMK AO2 PK WND 28027/1657 SLP133 T10111139 11006 21056 51016 $","updated":"2026-01-16T18:31:15Z"}
