{"icao":"KORD","metar":"KORD 122151Z 20026G36KT 10SM SCT065 BKN100 BKN220 BKN250 26/11 A2981 RMK AO2 PK WND 19037/2104 SLP089 T02610111 $","updated":"2026-04-12T22:33:08Z"}
