{"icao":"LPPT","metar":"LPPT 222230Z 30008KT CAVOK 14/11 Q1014","updated":"2026-04-22T22:45:32Z"}
