{"icao":"KORD","metar":"KORD 291407Z 14008KT 3/4SM R10L/4000V5000FT -SN BR VV011 M03/M05 A3031 RMK AO2 P0001 T10331050 $","updated":"2025-11-29T14:16:31Z"}
