{"icao":"LPHR","metar":"LPHR 280700Z 32003KT 250V030 9999 SCT012 BKN030 16/12 Q1020","updated":"2025-10-28T07:17:33Z"}
