{"icao":"KORD","metar":"KORD 031251Z 00000KT 10SM BKN250 18/09 A3036 RMK AO2 SLP280 T01780089","updated":"2026-06-03T13:21:03Z"}
