{"icao":"KJFK","metar":"KJFK 030051Z 28011KT 10SM SCT041 BKN055 M02/M10 A2984 RMK AO2 SNB01E34 SLP105 P0000 T10171100 $","updated":"2026-01-03T01:26:33Z"}
