{"icao":"LPMT","metar":"LPMT 261000Z 12003KT 9999 FEW020 09/06 Q1015","updated":"2025-12-26T10:20:22Z"}
