{"icao":"LPMT","metar":"LPMT 011200Z 23009KT 200V260 2000 -DZ BR BKN005 SCT020 15/15 Q1013","updated":"2026-02-01T12:47:15Z"}
