{"icao":"LPPD","metar":"LPPD 311500Z 23013KT 5000 BR SCT003 BKN007 17/16 Q1017","updated":"2026-01-31T15:22:05Z"}
