{"icao":"LPLA","metar":"LPLA 152200Z 17010KT 9999 SCT017 21/19 Q1006","updated":"2025-10-15T22:15:24Z"}
