{"icao":"LPMA","metar":"LPMA 190800Z 02014KT 350V060 9999 BKN015 17/13 Q1024","updated":"2025-12-19T08:28:01Z"}
