{"icao":"KORD","metar":"KORD 070051Z 22004KT 10SM OVC024 M01/M04 A2997 RMK AO2 SLP158 T10061044","updated":"2025-12-07T01:42:24Z"}
