{"icao":"LPAZ","metar":"LPAZ 142300Z 26020KT 9000 -SHRA SCT018 OVC040 17/14 Q1024","updated":"2026-01-14T23:17:07Z"}
