{"icao":"LPPR","metar":"LPPR 131900Z 19008KT 2800 -RADZ BR BKN004 BKN012 11/11 Q1021","updated":"2026-04-13T19:23:03Z"}
