{"icao":"LPLA","metar":"LPLA 012300Z 23005KT 170V280 9999 FEW017 22/19 Q1020","updated":"2025-10-01T23:15:36Z"}
