{"icao":"LPPS","metar":"LPPS 161400Z 35020KT 9999 FEW015 18/10 Q1026","updated":"2025-12-16T14:23:04Z"}
