{"icao":"KJFK","metar":"KJFK 080851Z 01013KT 10SM FEW250 M01/M09 A3055 RMK AO2 SLP344 T10111094 53008","updated":"2026-04-08T08:59:46Z"}
