{"icao":"LPCS","metar":"LPCS 211700Z 06004KT 030V110 CAVOK 20/06 Q1027","updated":"2026-02-21T17:23:56Z"}
