{"icao":"LPPD","metar":"LPPD 010800Z 00000KT 9999 FEW006 SCT010 20/19 Q1022","updated":"2025-10-01T08:23:54Z"}
