{"icao":"LPBJ","metar":"LPBJ 251000Z 18003KT 140V290 9999 FEW020 16/12 Q1016","updated":"2026-02-25T10:50:21Z"}
