{"icao":"KORD","metar":"KORD 150751Z 22006KT 10SM SCT250 00/M02 A2992 RMK AO2 SLP134 T00001022 $","updated":"2026-02-15T08:31:56Z"}
