{"icao":"LPPT","metar":"LPPT 061300Z 29008KT 230V330 9999 FEW020 FEW025TCU SCT038 19/10 Q1018","updated":"2025-11-06T13:30:58Z"}
