{"icao":"KORD","metar":"KORD 202151Z 23007KT 9SM OVC014 08/06 A3003 RMK AO2 SLP172 T00830056","updated":"2025-11-20T22:17:32Z"}
