{"icao":"LPFL","metar":"LPFL 151900Z 20006KT 170V230 9999 FEW024 16/11 Q1017","updated":"2025-11-15T19:12:27Z"}
