{"icao":"LPCS","metar":"LPCS 041500Z 16005KT CAVOK 20/16 Q1014","updated":"2025-11-04T15:20:20Z"}
