{"icao":"LPFL","metar":"LPFL 120900Z 35027G41KT 310V010 9999 VCSH BKN028 FEW030CB 13/08 Q1007","updated":"2025-11-12T09:20:14Z"}
