{"icao":"LPPR","metar":"LPPR 211400Z 30006KT 270V350 9999 FEW045 18/10 Q1010","updated":"2026-03-21T14:25:30Z"}
