{"icao":"LPPR","metar":"LPPR 192100Z VRB02KT 8000 MIFG NSC 06/06 Q1021","updated":"2026-01-19T21:18:41Z"}
