{"icao":"KORD","metar":"KORD 011751Z 09008KT 10SM BKN250 23/13 A3020 RMK AO2 SLP223 T02280128 10233 20172 58007","updated":"2025-10-01T18:25:28Z"}
