{"icao":"LPPR","metar":"LPPR 160100Z VRB02KT 0400 R17/0650N FG VV001 14/14 Q1016","updated":"2025-10-16T01:19:46Z"}
