{"icao":"LPMR","metar":"LPMR 141900Z 34011KT 9999 FEW005 20/18 Q1023","updated":"2025-09-14T19:11:45Z"}
