{"icao":"LPCS","metar":"LPCS 271630Z 26008KT 230V300 CAVOK 27/10 Q1018","updated":"2026-05-27T16:35:26Z"}
