{"icao":"LPPT","metar":"LPPT 042000Z 20008KT CAVOK 20/15 Q1013","updated":"2025-11-04T20:20:51Z"}
