{"icao":"LPOV","metar":"LPOV 131700Z 33016KT 9999 SCT022 FEW026CB 12/10 Q1005 RESHRA","updated":"2026-02-13T17:38:35Z"}
