{"icao":"LPBJ","metar":"LPBJ 140700Z 19009KT 150V210 7000 -RA SCT030 13/11 Q1006","updated":"2025-11-14T07:18:05Z"}
