{"icao":"LPBJ","metar":"LPBJ 120600Z 19008KT 9999 FEW015 FEW020TCU FEW021CB 11/11 Q1018","updated":"2026-05-12T06:35:15Z"}
