{"icao":"KORD","metar":"KORD 262212Z 28020G29KT 10SM BKN035 OVC047 01/M07 A2992 RMK AO2 PK WND 29038/2154 SNE12 P0000 T00061067","updated":"2025-11-26T22:18:22Z"}
