{"icao":"LPPR","metar":"LPPR 010900Z 12009KT 070V130 CAVOK 08/03 Q1020","updated":"2025-12-01T09:26:49Z"}
