{"icao":"LPMT","metar":"LPMT 082300Z 24005KT 7000 -RA SCT007 SCT015 OVC030 13/13 Q1030","updated":"2026-01-08T23:17:28Z"}
