{"icao":"LPFL","metar":"LPFL 271600Z 14006KT 030V180 9999 FEW025 BKN042 21/12 Q1026","updated":"2025-09-27T16:19:15Z"}
