{"icao":"LPFL","metar":"LPFL 011600Z 16007KT 130V200 9999 FEW040 18/08 Q1021","updated":"2025-11-01T16:19:22Z"}
