{"icao":"KJFK","metar":"KJFK 011651Z 32019G30KT 10SM SCT060 M03/M15 A2977 RMK AO2 PK WND 31037/1558 SLP082 T10331150 $","updated":"2026-01-01T17:18:32Z"}
