{"icao":"LPPT","metar":"LPPT 261400Z 06004KT 360V110 9999 FEW032 22/14 Q1018","updated":"2025-10-26T14:14:54Z"}
