{"icao":"LPHR","metar":"LPHR 142100Z 33004KT 9999 FEW020 15/12 Q1032","updated":"2026-03-15T02:13:07Z"}
