{"icao":"LPAZ","metar":"LPAZ 141130Z 05013KT 010V070 9999 SCT016 SCT048 17/11 Q1029","updated":"2026-05-14T11:51:06Z"}
