{"icao":"LPMR","metar":"LPMR 020800Z VRB02KT 8000 -RA FEW015 SCT030 14/13 Q1017","updated":"2026-05-02T09:04:40Z"}
