{"icao":"KORD","metar":"KORD 201651Z 26019G31KT 10SM OVC019 01/M04 A2952 RMK AO2 PK WND 24035/1637 SNE27 SLP000 P0000 T00061039","updated":"2026-02-20T17:36:16Z"}
