{"icao":"LPPT","metar":"LPPT 300700Z 20004KT 150V230 9999 FEW020 16/15 Q1013","updated":"2025-10-30T07:17:26Z"}
