{"icao":"LPPT","metar":"LPPT 141100Z 33016KT 9999 FEW032 13/06 Q1027","updated":"2026-02-14T11:20:58Z"}
