{"icao":"LPCS","metar":"LPCS 141300Z 07010KT 040V110 CAVOK 16/09 Q1017","updated":"2025-12-14T13:26:00Z"}
