{"icao":"LPPR","metar":"LPPR 190930Z 35006KT 320V020 9999 FEW025 SCT032 11/06 Q1026","updated":"2026-02-19T09:43:10Z"}
