{"icao":"LPMT","metar":"LPMT 260800Z 04006KT CAVOK 17/13 Q1016","updated":"2026-04-26T08:59:10Z"}
