{"icao":"KJFK","metar":"KJFK 182051Z 19013KT 10SM FEW045 24/18 A2990 RMK AO2 SLP126 T02440178 56014 $","updated":"2025-09-18T21:15:28Z"}
