{"icao":"LPMR","metar":"LPMR 240400Z 24008KT 6000 OVC004 20/19 Q1016","updated":"2025-10-24T04:21:05Z"}
