{"icao":"LPAZ","metar":"LPAZ 060930Z 27021KT 8000 -SHRA FEW023 BKN048 14/10 Q1015","updated":"2026-02-06T09:41:28Z"}
