{"icao":"LPPS","metar":"LPPS 260300Z 06013KT 9999 FEW015 18/13 Q1023","updated":"2025-11-26T03:13:41Z"}
