{"icao":"LPMR","metar":"LPMR 301000Z 20008KT 9999 FEW020 BKN040 18/13 Q1013","updated":"2025-10-30T10:19:43Z"}
