{"icao":"LPFR","metar":"LPFR 291730Z 25017KT 4000 -DZ BR OVC004 16/15 Q1013","updated":"2026-01-29T17:35:59Z"}
