{"icao":"LPPR","metar":"LPPR 131830Z 25005KT 220V280 8000 -RADZ BKN002 BKN011 13/13 Q1019","updated":"2026-03-13T18:40:35Z"}
