{"icao":"LPBJ","metar":"LPBJ 160200Z 29003KT CAVOK 10/09 Q1016","updated":"2026-05-16T02:47:24Z"}
