{"icao":"LPPR","metar":"LPPR 222100Z 01008KT CAVOK 15/08 Q1020","updated":"2025-09-22T21:14:46Z"}
