{"icao":"LPMR","metar":"LPMR 101000Z 101000Z 15006KT 8000 FEW005 SCT020 BKN035 15/14 Q1019","updated":"2025-11-10T10:21:43Z"}
