{"icao":"LPMR","metar":"LPMR 061900Z 15009KT 8000 -RA FEW022 16/15 Q1015","updated":"2026-04-06T19:54:02Z"}
