{"icao":"KLAX","metar":"KLAX 252014Z 24008KT 5SM HZ OVC015 18/15 A3003 RMK AO2 CIG 009 RWY24 T01780150 $","updated":"2025-10-25T20:18:54Z"}
