{"icao":"KJFK","metar":"KJFK 111351Z 25010KT 10SM SCT055 SCT250 02/M03 A2978 RMK AO2 SLP082 T00171033 $","updated":"2026-02-11T14:51:59Z"}
