{"icao":"LPFR","metar":"LPFR 112300Z 00000KT CAVOK 20/13 Q1016","updated":"2025-10-11T23:15:27Z"}
