{"icao":"LPBJ","metar":"LPBJ 080500Z 32006KT 0050 FG VV002 13/12 Q1019","updated":"2025-11-08T05:16:43Z"}
