{"icao":"LPBJ","metar":"LPBJ 011500Z 29007KT CAVOK 38/07 Q1017","updated":"2026-07-01T15:39:59Z"}
