{"icao":"LPBJ","metar":"LPBJ 221100Z 08007KT 040V110 CAVOK 11/01 Q1030","updated":"2025-11-22T11:13:19Z"}
