{"icao":"KORD","metar":"KORD 301105Z 27016G23KT 4SM -SN BR OVC014 M02/M04 A2983 RMK AO2 DRSN P0000 T10171039 $","updated":"2025-11-30T11:14:42Z"}
