{"icao":"LPLA","metar":"LPLA 311200Z 33016KT 9999 SCT020 18/11 Q1010","updated":"2025-10-31T12:38:03Z"}
