{"icao":"KORD","metar":"KORD 050451Z 19013G20KT 10SM BKN120 OVC250 01/M05 A2989 RMK AO2 PK WND 17026/0415 SLP130 T00061050 $","updated":"2026-01-05T05:35:13Z"}
