{"icao":"LPMR","metar":"LPMR 210100Z 23010KT 6000 SCT002 OVC005 19/19 Q1013","updated":"2025-10-21T01:21:49Z"}
