{"icao":"LPBJ","metar":"LPBJ 191500Z 11008KT CAVOK 28/18 Q1019","updated":"2025-09-19T15:17:25Z"}
