{"icao":"LPMA","metar":"LPMA 011330Z 01014KT 310V050 9999 FEW018 18/09 Q1023","updated":"2026-03-01T13:37:33Z"}
