{"icao":"LPPR","metar":"LPPR 302300Z 28013G23KT 240V310 9999 VCTS FEW020CB BKN038 12/07 Q1011 WS R35","updated":"2026-01-30T23:23:58Z"}
