{"icao":"LPLA","metar":"LPLA 151600Z 35008KT 320V030 9999 FEW025 BKN045 17/09 Q1032","updated":"2026-05-15T16:50:10Z"}
