{"icao":"LPMR","metar":"LPMR 110300Z 15008KT CAVOK 20/10 Q1020","updated":"2025-10-11T03:25:08Z"}
