{"icao":"LPLA","metar":"LPLA 271700Z 36009KT 330V040 9999 SCT018 BKN030 19/14 Q1026","updated":"2026-06-27T17:08:00Z"}
