{"icao":"LPST","metar":"LPST 131300Z 20018KT 8000 -SHRA BKN006 BKN015 FEW022CB 17/16 Q0997 RESHRA","updated":"2025-11-13T13:31:38Z"}
