{"icao":"LPFR","metar":"LPFR 051500Z 18006KT CAVOK 24/20 Q1018","updated":"2025-10-05T15:14:55Z"}
