{"icao":"KJFK","metar":"KJFK 051351Z 18011KT 10SM FEW047 FEW130 FEW250 17/11 A2988 RMK SLP119 T01720111 ","updated":"2026-05-05T14:18:39Z"}
