{"icao":"KORD","metar":"KORD 031351Z 32006KT 10SM BKN080 OVC110 M06/M15 A3006 RMK AO2 SLP188 VIRGA N T10611150 $","updated":"2026-01-03T14:17:41Z"}
