{"icao":"LPMT","metar":"LPMT 102100Z VRB02KT CAVOK 16/14 Q1013","updated":"2026-04-10T21:35:50Z"}
