{"icao":"LPPR","metar":"LPPR 272300Z 13018KT 3500 RA BR BKN011 OVC016 18/17 Q1003","updated":"2025-09-27T23:14:42Z"}
