{"icao":"LPPT","metar":"LPPT 141100Z 07005G21KT 350V110 CAVOK 23/13 Q1018","updated":"2025-10-14T11:14:54Z"}
