{"icao":"LPHR","metar":"LPHR 030000Z 26020G30KT 9000 -RADZ SCT004 BKN010 17/16 Q1009","updated":"2026-02-03T04:45:09Z"}
