{"icao":"KJFK","metar":"KJFK 081051Z 31007KT 10SM FEW065 FEW110 10/03 A2990 RMK AO2 SLP126 T01000033","updated":"2026-05-08T11:12:46Z"}
