{"icao":"KORD","metar":"KORD 251651Z 14006KT 10SM FEW040 FEW120 BKN160 BKN250 12/03 A3038 RMK AO2 SLP291 VIRGA W T01220033 $","updated":"2025-10-25T17:14:19Z"}
