{"icao":"LPPT","metar":"LPPT 280730Z 36007KT CAVOK 14/04 Q1020","updated":"2026-03-28T07:48:59Z"}
