{"icao":"LPFR","metar":"LPFR 021800Z 27010KT CAVOK 20/17 Q1023","updated":"2025-11-02T18:21:48Z"}
