{"icao":"LPMA","metar":"LPMA 171600Z 36012KT 330V030 9999 SCT015 20/11 Q1022","updated":"2025-11-17T16:25:58Z"}
