{"icao":"LPST","metar":"LPST 070900Z VRB02KT 9999 SCT009 BKN020 19/16 Q1023","updated":"2025-10-07T10:18:27Z"}
