{"icao":"LPST","metar":"LPST 291200Z 26015KT 3000 -DZ BR BKN003 BKN010 15/15 Q1010","updated":"2026-01-29T12:55:08Z"}
