{"icao":"LPFL","metar":"LPFL 121930Z 23008KT 170V300 9999 FEW013 21/16 Q1016","updated":"2026-06-12T21:42:30Z"}
