{"icao":"LPAZ","metar":"LPAZ 270700Z 03019G30KT 9999 FEW015 BKN019 FEW025TCU 18/16 Q1014","updated":"2025-10-27T07:18:05Z"}
