{"icao":"LPMT","metar":"LPMT 110400Z VRB03KT 0500 FG OVC003 14/14 Q1014","updated":"2025-11-11T04:23:12Z"}
