{"icao":"LPCS","metar":"LPCS 160700Z 01005KT 9999 FEW010 18/16 Q1020","updated":"2025-09-16T07:17:18Z"}
