{"icao":"LPHR","metar":"LPHR 150930Z 08003KT 050V130 9999 FEW018 BKN035 16/07 Q1032","updated":"2026-05-15T09:46:47Z"}
