{"icao":"KJFK","metar":"KJFK 121851Z 14014KT 10SM SCT160 SCT250 11/M03 A3048 RMK AO2 SLP322 T01061033 $","updated":"2026-04-12T19:38:24Z"}
