{"icao":"LPPS","metar":"LPPS 150200Z 04007KT 360V060 9999 SCT015 BKN030 14/11 Q1025","updated":"2026-04-15T02:27:18Z"}
