{"icao":"LPPR","metar":"LPPR 061730Z 24011KT 210V270 9999 FEW020CB SCT040 12/05 Q1002","updated":"2026-02-06T17:39:52Z"}
