{"icao":"LPPT","metar":"LPPT 281330Z 07009KT 020V100 CAVOK 21/07 Q1022","updated":"2026-03-28T13:50:30Z"}
