{"icao":"KORD","metar":"KORD 260651Z 25021G38KT 10SM OVC034 04/M03 A2971 RMK AO2 PK WND 27038/0643 SLP062 T00391028","updated":"2025-11-26T07:18:29Z"}
