{"icao":"LPHR","metar":"LPHR 311730Z 22004KT 170V260 9999 FEW024 BKN033 16/10 Q1030","updated":"2026-03-31T17:55:41Z"}
