{"icao":"LPMT","metar":"LPMT 272200Z 34004KT CAVOK 20/14 Q1018","updated":"2026-05-27T23:15:40Z"}
