{"icao":"LPST","metar":"LPST 250900Z 16012KT 4500 -RADZ FEW006 SCT009 BKN015 18/18 Q1015","updated":"2026-06-25T09:18:32Z"}
