{"icao":"LPMA","metar":"LPMA 301500Z 02018G28KT 340V070 9999 FEW014 25/15 Q1022","updated":"2026-06-30T15:25:19Z"}
