{"icao":"LPMR","metar":"LPMR 140300Z 14003KT 6000 FEW015 BKN020 09/09 Q1015","updated":"2026-01-14T03:45:53Z"}
