{"icao":"LPOV","metar":"LPOV 261500Z 13006KT 100V160 9999 FEW035 FEW040CB 13/03 Q1012","updated":"2025-12-26T15:19:31Z"}
