{"icao":"KORD","metar":"KORD 302051Z 04013KT 10SM FEW200 BKN250 21/03 A3009 RMK AO2 SLP188 T02060033 58003 $","updated":"2026-05-30T20:54:50Z"}
