{"icao":"KJFK","metar":"KJFK 171351Z 06014KT 10SM FEW021 BKN029 BKN085 BKN250 20/14 A3011 RMK AO2 SLP196 T02000139","updated":"2025-09-17T14:16:34Z"}
