{"icao":"LPLA","metar":"LPLA 140500Z 30015KT 9999 FEW020 BKN030 15/09 Q1007","updated":"2025-11-14T05:18:40Z"}
