{"icao":"LPPR","metar":"LPPR 050600Z 35007KT 9999 BKN009 12/11 Q1022","updated":"2025-10-05T06:23:22Z"}
