{"icao":"KJFK","metar":"KJFK 061351Z 31017G27KT 10SM BKN047 10/M01 A3002 RMK AO2 PK WND 34034/1312 SLP165 T01001006 $","updated":"2025-11-06T14:19:02Z"}
