{"icao":"LPAR","metar":"LPAR 061200Z 22004KT 9999 FEW018 BKN042 17/16 Q1024","updated":"2025-12-06T12:35:52Z"}
