{"icao":"LPMT","metar":"LPMT 110600Z 11003KT 9999 FEW020 07/07 Q1024","updated":"2026-03-11T06:52:15Z"}
