{"icao":"LPOV","metar":"LPOV 152000Z 35010KT CAVOK 13/12 Q1020","updated":"2026-03-15T20:28:19Z"}
