{"icao":"LPBJ","metar":"LPBJ 302100Z 31008KT CAVOK 29/15 Q1019","updated":"2026-06-30T21:26:54Z"}
