{"icao":"LPPR","metar":"LPPR 210730Z 11014KT CAVOK 24/08 Q1000","updated":"2026-04-21T07:47:50Z"}
