{"icao":"LPCS","metar":"LPCS 190900Z 20003KT 110V280 9999 FEW024 25/12 Q1019","updated":"2025-09-19T09:18:43Z"}
