{
  "icao": "LPPT",
  "metar": "METAR LPPT 130300Z 33008KT 300V360 CAVOK 17/15 Q1020 RMK AO2 SLP123 T01720152"
}
