{"icao":"KJFK","metar":"KJFK 020951Z 26009KT 10SM -RA BKN065 BKN085 OVC100 11/08 A2989 RMK RAB0859E12B44 SLP119 P0000 T01110078 ","updated":"2026-05-02T10:50:31Z"}
