{"icao":"LPHR","metar":"LPHR 280800Z 36009G20KT 330V030 9999 SCT012 BKN030 16/12 Q1020","updated":"2025-10-28T08:25:10Z"}
