{"icao":"LPMR","metar":"LPMR 060600Z 15001KT CAVOK 11/10 Q1018","updated":"2025-10-06T06:27:18Z"}
