{"icao":"LPPR","metar":"LPPR 151100Z 19004KT 150V250 CAVOK 25/15 Q1017","updated":"2025-10-15T11:15:04Z"}
