{"icao":"LPPS","metar":"LPPS 070500Z 04009KT 360V060 9999 FEW015 14/09 Q1030","updated":"2026-01-07T05:24:23Z"}
