{"icao":"LPPR","metar":"LPPR 100700Z 06004KT 020V080 5000 SHRA SCT012 SCT020CB BKN034 11/10 Q1021","updated":"2025-12-10T07:21:27Z"}
