{"icao":"LPOV","metar":"LPOV 241600Z 31004KT 270V340 9999 BKN018 BKN030 18/17 Q1015","updated":"2025-10-24T16:22:20Z"}
