{"icao":"KLAX","metar":"KLAX 291053Z 11004KT 10SM FEW003 17/16 A3000 RMK AO2 SLP154 T01670156 $","updated":"2025-10-29T11:16:36Z"}
