{"icao":"LPPR","metar":"LPPR 101230Z 17006KT 9999 FEW012 SCT039 12/08 Q1030","updated":"2026-01-10T12:37:35Z"}
