{"icao":"KLAX","metar":"KLAX 140953Z 06005KT 9SM SCT010 13/12 A3008 RMK AO2 SLP186 T01280117","updated":"2026-02-14T10:25:35Z"}
