{"icao":"KJFK","metar":"KJFK 270151Z 00000KT 10SM FEW055 FEW250 08/04 A3020 RMK SLP225 T00830039 $ ","updated":"2026-04-27T02:40:25Z"}
