{"icao":"LPAR","metar":"LPAR 031000Z 05011KT CAVOK 15/11 Q1012","updated":"2026-03-03T10:37:16Z"}
