{"icao":"LPPT","metar":"LPPT 012000Z 31011KT CAVOK 22/12 Q1020","updated":"2025-10-01T20:19:29Z"}
