{"icao":"LPMA","metar":"LPMA 030830Z 02009KT 290V080 9999 FEW016 18/06 Q1022","updated":"2026-04-03T08:52:38Z"}
