{"icao":"LPMT","metar":"LPMT 130200Z 22011KT 170V250 8000 -RA SCT009 BKN018 OVC030 13/13 Q1005","updated":"2026-02-13T02:08:20Z"}
