{"icao":"LPFR","metar":"LPFR 091800Z 29004KT CAVOK 17/11 Q1019","updated":"2025-11-09T18:22:47Z"}
