{"icao":"KORD","metar":"KORD 040751Z 02007KT 1 1/2SM R10L/6000VP6000FT BR OVC002 01/00 A3020 RMK AO2 SLP232 T00060000","updated":"2026-03-04T08:37:35Z"}
