{"icao":"KJFK","metar":"KJFK 060751Z 31018G33KT 10SM FEW055 SCT095 11/M01 A2981 RMK AO2 PK WND 29042/0739 SLP093 T01061006","updated":"2025-11-06T08:25:36Z"}
