{"icao":"LPMR","metar":"LPMR 211400Z 31009KT 280V340 9999 FEW007 24/19 Q1017","updated":"2026-06-21T14:07:35Z"}
