{"icao":"LPFL","metar":"LPFL 141330Z 18017G28KT 130V210 9999 FEW020 18/13 Q1025","updated":"2026-02-14T13:42:50Z"}
