{"icao":"KJFK","metar":"KJFK 221151Z 28006KT 10SM FEW040 M03/M10 A3049 RMK AO2 SLP322 T10331100 11017 21033 51021 $","updated":"2025-12-22T12:40:24Z"}
