{"icao":"KJFK","metar":"KJFK 050651Z 00000KT 10SM SCT250 17/14 A3023 RMK AO2 SLP235 T01720144","updated":"2025-10-05T07:14:31Z"}
