{"icao":"LPBJ","metar":"LPBJ 021100Z 35010KT 320V020 CAVOK 18/09 Q1026","updated":"2025-11-02T11:12:57Z"}
