{"icao":"LPMT","metar":"LPMT 061900Z 34011KT CAVOK 21/14 Q1018","updated":"2026-06-06T19:20:12Z"}
