{"icao":"LPPS","metar":"LPPS 302000Z 22004KT 9999 FEW015 21/15 Q1016","updated":"2025-10-30T20:20:27Z"}
