{"icao":"LPBJ","metar":"LPBJ 172300Z 28005KT CAVOK 17/10 Q1017","updated":"2026-04-17T23:39:28Z"}
