{"icao":"KJFK","metar":"KJFK 222251Z 04016G26KT 1/2SM R04R/3500V4500FT SN FZFG VV007 M01/M01 A2985 RMK AO2 PK WND 04027/2232 SLP108 SNINCR 1/1 P0008 T10061011 $","updated":"2026-02-22T23:25:08Z"}
