{"icao":"LPOV","metar":"LPOV 010600Z 01001KT CAVOK 09/05 Q1025","updated":"2026-04-01T07:18:44Z"}
