{"icao":"LPMT","metar":"LPMT 231900Z 24010KT CAVOK 15/10 Q1022","updated":"2026-02-23T19:18:13Z"}
