{"icao":"LPAZ","metar":"LPAZ 151830Z 21010KT 9999 BKN029 16/11 Q1030","updated":"2026-02-15T18:35:26Z"}
