{"icao":"KJFK","metar":"KJFK 132351Z 19008KT 10SM FEW075 FEW100 SCT250 24/17 A2986 RMK SLP112 T02440167 10294 20244 50003 ","updated":"2026-06-14T00:07:06Z"}
