{"icao":"LPLA","metar":"LPLA 240300Z 34010KT 9999 SCT022 BKN033 19/14 Q1024","updated":"2025-09-24T03:33:37Z"}
