{"icao":"KLAX","metar":"KLAX 061753Z 10003KT 10SM CLR 17/03 A3008 RMK AO2 SLP185 T01670033 10167 20083 51010 $","updated":"2025-12-06T18:24:57Z"}
