{"icao":"LPPD","metar":"LPPD 040930Z 23023KT 8000 FEW010 SCT020 16/14 Q0998","updated":"2026-02-04T09:42:06Z"}
