{"icao":"LPCS","metar":"LPCS 161700Z 30006KT 270V330 9999 FEW010 FEW025TCU 10/08 Q1013","updated":"2026-01-16T17:23:17Z"}
