{"icao":"LPLA","metar":"LPLA 170927Z 35015G32KT 3000 SHRA BKN020 SCT022CB BKN040 11/06 Q1016","updated":"2026-03-17T09:54:32Z"}
