{"icao":"LPFR","metar":"LPFR 091030Z 30006KT 260V320 9999 FEW015 15/12 Q1015","updated":"2026-04-09T10:57:12Z"}
