{"icao":"KJFK","metar":"KJFK 292351Z 19010KT 10SM FEW060 FEW100 BKN250 24/18 A3011 RMK SLP194 T02390178 10289 20239 53004 $ ","updated":"2026-06-30T00:03:02Z"}
