{"icao":"LPPD","metar":"LPPD 260200Z 03006KT 360V070 9999 FEW014 BKN022 14/11 Q1029","updated":"2026-03-26T02:11:30Z"}
