{"icao":"LPMT","metar":"LPMT 102000Z 21011KT 180V240 9999 BKN025 FEW030CB 17/12 Q1010","updated":"2026-05-10T20:43:39Z"}
