{"icao":"LPPS","metar":"LPPS 161230Z 33017KT 9999 SCT014 18/11 Q1026","updated":"2026-01-16T12:42:12Z"}
