{"icao":"LPOV","metar":"LPOV 281100Z 02010KT 350V050 CAVOK 19/05 Q1024","updated":"2026-03-28T13:50:31Z"}
