{"icao":"LPPD","metar":"LPPD 281200Z 02010KT 350V070 9999 FEW022 BKN040 21/14 Q1028","updated":"2026-06-28T12:14:53Z"}
