{"icao":"LPPS","metar":"LPPS 132200Z 06008KT 360V090 9999 SCT015 BKN030 23/19 Q1024","updated":"2025-09-13T22:14:24Z"}
