{"icao":"LPPD","metar":"LPPD 221630Z 26028KT 9000 SCT014 BKN020 15/12 Q0999","updated":"2026-04-22T16:57:40Z"}
