{"icao":"LPOV","metar":"LPOV 041200Z 31009KT 270V340 9999 BKN020 20/16 Q1025","updated":"2025-10-04T12:31:35Z"}
