{"icao":"LPCS","metar":"LPCS 151700Z 26008KT 240V310 9999 FEW022 17/13 Q1008","updated":"2025-11-15T17:13:44Z"}
