{"icao":"LPPR","metar":"LPPR 180700Z 18015KT CAVOK 13/09 Q1019","updated":"2025-12-18T07:21:13Z"}
