{"icao":"LPMR","metar":"LPMR 271500Z 28009KT 240V320 9999 FEW014 24/14 Q1021","updated":"2026-06-27T15:13:43Z"}
