{"icao":"LPPR","metar":"LPPR 101000Z 18017KT 9999 FEW020 FEW025CB 16/07 Q1008","updated":"2026-05-10T10:13:17Z"}
