{"icao":"LPPT","metar":"LPPT 151430Z VRB05KT 9999 FEW028 19/11 Q1024","updated":"2026-04-15T15:04:00Z"}
