{"icao":"LPMR","metar":"LPMR 250900Z 35001KT 2000 BR BKN008 12/11 Q1022","updated":"2026-03-25T09:52:26Z"}
