{"icao":"LPPS","metar":"LPPS 231230Z 09008KT 050V120 9999 FEW015 BKN030 24/19 Q1022","updated":"2025-10-23T12:38:56Z"}
