{"icao":"LPHR","metar":"LPHR 191900Z 28014KT 7000 FEW003 BKN005 23/22 Q1015","updated":"2025-10-19T19:13:14Z"}
