{"icao":"LPFR","metar":"LPFR 101600Z 26014KT 2000 -DZ BR FEW002 SCT004 BKN010 15/15 Q1019","updated":"2026-02-10T16:08:41Z"}
