{"icao":"KORD","metar":"KORD 142351Z 31013KT 10SM SCT060 21/08 A2990 RMK AO2 SLP124 T02060078 10211 20183 55002 $","updated":"2026-06-15T00:09:19Z"}
