{"icao":"LPMA","metar":"LPMA 061230Z 02012KT 350V050 9999 SCT015 FEW018TCU 17/08 Q1028","updated":"2026-01-06T12:42:29Z"}
