{"icao":"KJFK","metar":"KJFK 251751Z 20007KT 10SM FEW011 BKN016 OVC250 17/16 A3008 RMK AO2 SLP185 60016 T01720156 10178 20139 58010 $","updated":"2026-05-25T18:24:42Z"}
