{"icao":"KORD","metar":"KORD 182051Z 22009KT 10SM SCT031 OVC100 M08/M16 A2991 RMK AO2 SLP140 T10831156 56016 $","updated":"2026-01-18T21:18:09Z"}
