{"icao":"LPMT","metar":"LPMT 050700Z 20014KT 170V230 9999 -SHRA BKN012 OVC018 21/19 Q1005 RETS","updated":"2025-11-05T07:18:11Z"}
