{"icao":"KLAX","metar":"KLAX 110153Z 13010KT 10SM BKN018 OVC034 17/13 A2997 RMK AO2 SLP146 T01670133 $","updated":"2026-02-11T02:11:56Z"}
