{"icao":"LPPS","metar":"LPPS 200230Z 10014KT 9999 SCT011 17/16 Q1007","updated":"2026-04-20T02:35:11Z"}
