{"icao":"KJFK","metar":"KJFK 111251Z 28006KT 10SM FEW015 SCT075 BKN100 BKN150 06/04 A2982 RMK AO2 SLP096 T00610044","updated":"2026-01-11T13:29:10Z"}
