{"icao":"LPMA","metar":"LPMA 202330Z 35009KT 280V030 9999 SCT015 19/12 Q1005","updated":"2026-04-20T23:40:57Z"}
