{"icao":"KJFK","metar":"KJFK 241351Z 32019G24KT 10SM FEW040 M04/M11 A2991 RMK AO2 PK WND 32026/1305 SLP128 T10441111 $","updated":"2026-02-24T14:48:23Z"}
