{"icao":"LPLA","metar":"LPLA 290100Z 31012G28KT 8000 -RA FEW012 BKN020 BKN035 15/14 Q1007","updated":"2026-01-29T01:56:13Z"}
