{"icao":"KORD","metar":"KORD 160451Z 06006KT 10SM BKN048 OVC100 14/09 A3020 RMK AO2 SLP228 T01440094 $","updated":"2025-10-16T05:17:24Z"}
