{"icao":"LPMA","metar":"LPMA 210500Z 34015G26KT 310V020 9999 SCT015 16/10 Q1006","updated":"2026-04-21T05:26:18Z"}
