{"icao":"LPPS","metar":"LPPS 241930Z 07013KT 030V100 9999 SCT014 BKN030 18/14 Q1020","updated":"2026-05-24T20:03:32Z"}
