{"icao":"KORD","metar":"KORD 021151Z 13005KT 10SM BKN250 15/08 A3024 RMK AO2 SLP239 T01500083 10183 20150 53003","updated":"2025-10-02T12:35:38Z"}
