{"icao":"KLAX","metar":"KLAX 161653Z 00000KT 10SM FEW140 FEW180 17/07 A3002 RMK AO2 SLP163 T01720067","updated":"2026-01-16T17:23:58Z"}
