{"icao":"KLAX","metar":"KLAX 200753Z 24004KT 10SM FEW011 15/13 A2997 RMK AO2 SLP147 T01500128 402220150","updated":"2026-04-20T08:04:50Z"}
