{"icao":"KLAX","metar":"KLAX 282253Z 26016KT 10SM FEW055 SCT095 SCT120 BKN180 19/07 A2994 RMK AO2 SLP138 T01940072 $","updated":"2026-05-28T23:14:29Z"}
