{"icao":"LPMT","metar":"LPMT 162200Z 30004KT 270V330 9999 SCT016 BKN025 14/11 Q1031","updated":"2026-02-16T22:27:03Z"}
