{"icao":"LPCS","metar":"LPCS 100600Z 21008KT 9999 FEW015 FEW025TCU 14/09 Q1009","updated":"2026-05-10T06:10:44Z"}
