{"icao":"KORD","metar":"KORD 271851Z 23015G27KT 10SM SCT100 BKN120 BKN250 14/M03 A2980 RMK AO2 PK WND 22027/1842 SLP095 T01391033","updated":"2026-02-27T19:32:07Z"}
