{"icao":"LPMA","metar":"LPMA 241400Z 09005KT 030V120 9999 FEW014 SCT033 23/18 Q1019","updated":"2025-10-24T14:18:52Z"}
