{"icao":"LPFR","metar":"LPFR 210500Z VRB02KT CAVOK 08/04 Q1023","updated":"2025-11-21T05:18:35Z"}
