{"icao":"LPBJ","metar":"LPBJ 272200Z 01003KT CAVOK 09/03 Q1023","updated":"2025-11-27T22:17:16Z"}
