{"icao":"LPFL","metar":"LPFL 271100Z 15016KT 5000 RA FEW005 BKN007 15/14 Q1017","updated":"2025-12-27T11:15:41Z"}
