{"icao":"KLAX","metar":"KLAX 040653Z 00000KT 10SM BKN007 OVC013 15/13 A3003 RMK AO2 SLP167 T01500133 $","updated":"2026-01-04T07:20:24Z"}
