{"icao":"LPPR","metar":"LPPR 291900Z VRB02KT 9999 VCSH FEW006 SCT011 13/12 Q1014","updated":"2025-11-29T19:14:12Z"}
