{"icao":"LPFR","metar":"LPFR 220500Z 02005KT CAVOK 05/04 Q1013","updated":"2025-12-22T05:23:01Z"}
