{"icao":"LPPS","metar":"LPPS 110100Z 20007KT 9999 FEW015 SCT030 20/16 Q1017","updated":"2025-11-11T01:24:26Z"}
