{"icao":"LPHR","metar":"LPHR 170000Z 21017KT 5000 RADZ SCT006 BKN013 BKN025 17/16 Q1020","updated":"2026-02-17T02:01:14Z"}
