{"icao":"KLAX","metar":"KLAX 140653Z 00000KT 10SM CLR 16/08 A3016 RMK AO2 SLP211 T01610078 $","updated":"2026-01-14T07:24:25Z"}
