{"icao":"KJFK","metar":"KJFK 061551Z 19019G25KT 10SM SCT033 BKN110 OVC250 15/12 A2982 RMK AO2 PK WND 19031/1508 SLP099 T01500117","updated":"2026-05-06T16:26:05Z"}
