{"icao":"LPMT","metar":"LPMT 070600Z 32004KT 290V350 9999 FEW015 13/09 Q1010","updated":"2026-05-07T06:08:53Z"}
