{"icao":"LPMR","metar":"LPMR 041700Z 14015KT CAVOK 21/14 Q1012","updated":"2025-11-04T17:13:36Z"}
