{"icao":"LPMR","metar":"LPMR 230600Z 17003KT 9999 FEW015 06/05 Q1029","updated":"2025-11-23T06:26:38Z"}
