{"icao":"LPPT","metar":"LPPT 191900Z 34008KT 9999 FEW040 12/07 Q1017","updated":"2025-11-19T19:15:12Z"}
