{"icao":"LPFL","metar":"LPFL 241700Z 19011KT 5000 -SHRA FEW006 BKN012 FEW015TCU 18/17 Q1018 RESHRA","updated":"2025-12-24T17:16:15Z"}
