{"icao":"LPFR","metar":"LPFR 111600Z 21005KT 180V240 9999 FEW020 15/10 Q1026","updated":"2026-01-11T16:23:06Z"}
