{"icao":"LPFL","metar":"LPFL 011400Z VRB05G15KT 9999 VCSH FEW007 BKN014 25/21 Q1018","updated":"2025-10-01T14:17:57Z"}
