{"icao":"KJFK","metar":"KJFK 240751Z 27010KT 10SM BKN070 08/00 A3005 RMK AO2 SLP176 T00780000","updated":"2025-11-24T08:27:51Z"}
