{"icao":"LPPT","metar":"LPPT 230800Z VRB02KT 9999 FEW010 10/08 Q1027","updated":"2025-11-23T08:22:28Z"}
