{"icao":"LPMR","metar":"LPMR 132200Z 03003KT CAVOK 12/08 Q1022","updated":"2025-12-13T22:17:09Z"}
