{"icao":"KJFK","metar":"KJFK 220818Z 07007KT 10SM BKN008 OVC049 02/00 A3010 RMK AO2 T00220000 $","updated":"2026-02-22T08:30:48Z"}
