{"icao":"LPOV","metar":"LPOV 272000Z 31002KT 280V340 9999 FEW012 21/19 Q1021","updated":"2026-06-28T03:39:22Z"}
