{"icao":"KLAX","metar":"KLAX 032253Z 27013KT 10SM FEW230 SCT270 BKN300 21/14 A2997 RMK AO2 SLP148 T02060139 $","updated":"2026-04-03T23:32:18Z"}
