{"icao":"LPPD","metar":"LPPD 300430Z 28001KT 0800 R30/P1200 -DZ FG VV001 14/14 Q1013","updated":"2025-12-30T04:37:55Z"}
