{"icao":"LPPD","metar":"LPPD 192000Z 33005KT CAVOK 11/07 Q1030","updated":"2026-01-19T20:22:40Z"}
