{"icao":"LPST","metar":"LPST 211600Z 30017KT 7000 SCT008 BKN017 14/11 Q1005","updated":"2026-01-21T16:42:48Z"}
