{"icao":"KJFK","metar":"KJFK 211951Z 32019G28KT 10SM SCT050 SCT180 BKN250 07/M08 A3009 RMK AO2 PK WND 31034/1927 SLP189 T00671078 $","updated":"2025-12-21T20:20:35Z"}
