{"icao":"KJFK","metar":"KJFK 211951Z 18014KT 10SM SCT070 BKN100 BKN250 24/13 A2988 RMK AO2 SLP117 T02440133 $","updated":"2026-06-21T20:23:57Z"}
