{"icao":"LPCS","metar":"LPCS 311800Z 19012KT 7000 FEW004 BKN014 19/19 Q1013","updated":"2025-10-31T18:26:34Z"}
