{"icao":"LPMA","metar":"LPMA 211900Z 01011KT 340V060 9999 FEW016 16/11 Q1025","updated":"2026-02-21T19:22:55Z"}
