{"icao":"LPAR","metar":"LPAR 161000Z 24006KT 210V300 9999 FEW025 15/13 Q1032","updated":"2026-02-16T10:49:25Z"}
