{"icao":"LPMT","metar":"LPMT 031300Z 25010KT 9999 FEW020 SCT035 20/11 Q1014","updated":"2026-05-03T13:07:18Z"}
