{"icao":"KORD","metar":"KORD 071051Z 34008KT 10SM CLR M11/M18 A3036 RMK AO2 SLP292 T11111183 $","updated":"2026-02-07T11:20:32Z"}
