{"icao":"KORD","metar":"KORD 221751Z 07010KT 10SM FEW050 BKN250 18/07 A3007 RMK AO2 SLP182 T01780067 10183 20111 58021","updated":"2026-05-22T18:53:03Z"}
