{"icao":"LPMR","metar":"LPMR 090800Z 15014KT 7000 -RA SCT022 OVC033 14/12 Q1014","updated":"2025-12-09T09:22:47Z"}
