{"icao":"LPPT","metar":"LPPT 200630Z 33006KT CAVOK 08/06 Q1030","updated":"2026-02-20T06:54:44Z"}
