{"icao":"KORD","metar":"KORD 052251Z 18012G21KT 10SM FEW250 28/07 A3000 RMK AO2 SLP156 T02780067 $","updated":"2025-10-05T23:13:51Z"}
