{"icao":"LPMA","metar":"LPMA 062300Z 36011KT 330V030 9999 SCT015 14/07 Q1030","updated":"2026-01-06T23:19:26Z"}
