{"icao":"LPPS","metar":"LPPS 021230Z 07012KT 040V100 9999 SCT015 23/18 Q1022","updated":"2025-10-02T12:35:36Z"}
