{"icao":"KLAX","metar":"KLAX 261353Z 00000KT 10SM CLR 14/04 A3006 RMK AO2 SLP178 T01390039","updated":"2025-11-26T14:19:30Z"}
