{"icao":"LPFR","metar":"LPFR 020900Z 01006KT 9999 FEW014 20/17 Q1024","updated":"2025-11-02T09:16:11Z"}
