{"icao":"LPBJ","metar":"LPBJ 030900Z VRB01KT CAVOK 23/13 Q1023","updated":"2025-10-03T09:17:22Z"}
