{"icao":"LPPR","metar":"LPPR 200700Z 12011KT 9999 -SHRA FEW015 FEW020CB BKN041 06/05 Q1019","updated":"2026-01-20T07:26:52Z"}
