{"icao":"LPMT","metar":"LPMT 191000Z 23007KT 200V270 9999 SCT027 22/18 Q1016","updated":"2025-10-19T10:16:39Z"}
