{"icao":"LPPD","metar":"LPPD 050530Z 04009KT 010V070 9999 FEW020 BKN045 14/09 Q1024","updated":"2026-05-05T05:41:48Z"}
