{"icao":"LPLA","metar":"LPLA 200800Z 18017KT 140V200 9999 FEW012 SCT016 BKN040 16/14 Q1019","updated":"2026-02-20T08:38:36Z"}
