{"icao":"LPMR","metar":"LPMR 160600Z 16003KT 5000 BR FEW025 BKN030 08/07 Q1013 RESHRA","updated":"2026-01-16T06:32:46Z"}
