{"icao":"LPBJ","metar":"LPBJ 232000Z 29010KT CAVOK 15/10 Q1014","updated":"2026-04-23T20:51:12Z"}
