{"icao":"LPPD","metar":"LPPD 301900Z 28009KT 3000 -DZ BR SCT005 BKN010 16/15 Q1026","updated":"2025-11-30T19:14:23Z"}
