{"icao":"LPPR","metar":"LPPR 272000Z 35009KT CAVOK 11/07 Q1026","updated":"2026-02-27T20:26:18Z"}
