{"icao":"LPAZ","metar":"LPAZ 311000Z 10006KT 050V140 9999 FEW020 16/10 Q1030","updated":"2026-03-31T10:10:18Z"}
