{"icao":"LPFR","metar":"LPFR 191530Z 35011KT CAVOK 17/05 Q1026","updated":"2026-02-19T15:46:47Z"}
