{"icao":"LPMA","metar":"LPMA 171230Z 06004KT 010V110 9999 SCT013 FEW015TCU 25/19 Q1012","updated":"2025-10-17T12:37:09Z"}
