{"icao":"LPHR","metar":"LPHR 211300Z 25010KT 8000 FEW007 SCT012 BKN060 23/22 Q1013","updated":"2025-10-21T13:32:29Z"}
