{"icao":"KJFK","metar":"KJFK 010851Z 20007KT 10SM SCT130 BKN250 11/08 A2992 RMK AO2 SLP131 T01060083 51006","updated":"2026-04-01T09:02:33Z"}
