{"icao":"LPPS","metar":"LPPS 111430Z 35011KT 320V020 2000 -RADZ BR SCT005 BKN010 16/15 Q1023","updated":"2026-04-11T14:36:14Z"}
