{"icao":"LPPR","metar":"LPPR 090830Z 20010KT 3500 -DZRA BR BKN003 BKN012 14/13 Q1009","updated":"2026-02-09T08:55:25Z"}
