{"icao":"KLAX","metar":"KLAX 160353Z 24005KT 10SM CLR 18/08 A2997 RMK AO2 SLP146 T01780078 $","updated":"2026-01-16T04:39:13Z"}
