{"icao":"LPMT","metar":"LPMT 292000Z 33010KT CAVOK 21/15 Q1020","updated":"2026-05-29T21:05:38Z"}
