{"icao":"KLAX","metar":"KLAX 271853Z 26007KT 10SM FEW018 BKN024 OVC032 22/16 A2991 RMK AO2 SLP127 T02170156 $","updated":"2025-09-27T19:13:03Z"}
