{"icao":"KJFK","metar":"KJFK 121116Z 19004KT 1SM R04R/P6000FT BR BKN003 BKN110 BKN250 07/07 A2955 RMK AO2 SFC VIS 3 T00720067","updated":"2026-03-12T11:30:28Z"}
