{"icao":"LPFR","metar":"LPFR 032100Z 21014KT 4500 RA BKN005 BKN012 14/13 Q1001","updated":"2026-02-03T21:32:58Z"}
