{"icao":"LPBJ","metar":"LPBJ 150100Z 18010KT 9999 FEW025 14/13 Q1009","updated":"2025-11-15T01:21:43Z"}
