{"icao":"LPMA","metar":"LPMA 032000Z 35025G41KT 320V020 9999 BKN015 FEW018CB 15/07 Q1015","updated":"2026-03-03T20:31:17Z"}
