{"icao":"LPMR","metar":"LPMR 022300Z 15018G28KT 9999 FEW022 SCT035 15/10 Q0999","updated":"2026-01-02T23:18:03Z"}
