{"icao":"LPPS","metar":"LPPS 200930Z 17009KT 9999 SCT014 FEW018TCU 14/13 Q0995 RERA","updated":"2026-03-20T09:39:29Z"}
