{"icao":"LPMA","metar":"LPMA 271800Z 03008KT 9999 4500NE -RADZ FEW008 BKN015 24/20 Q1022","updated":"2025-09-27T18:22:09Z"}
