{"icao":"LPPR","metar":"LPPR 221230Z 21012KT 4000 -RADZ BR OVC003 19/19 Q1015","updated":"2025-10-22T12:38:59Z"}
