{"icao":"KJFK","metar":"KJFK 202051Z 28017G28KT 10SM BKN047 BKN060 BKN085 BKN250 17/07 A2981 RMK AO2 PK WND 26033/2020 SLP095 T01670067 51013","updated":"2025-10-20T21:16:39Z"}
