{"icao":"KJFK","metar":"KJFK 221051Z 26011KT 10SM BKN015 BKN028 BKN095 14/13 A2972 RMK AO2 SLP064 CIG 012V018 T01440128","updated":"2025-10-22T11:16:28Z"}
