{"icao":"LPCS","metar":"LPCS 201200Z 15006KT 110V180 CAVOK 26/13 Q1021","updated":"2026-05-20T12:22:33Z"}
