{"icao":"LPPT","metar":"LPPT 151600Z 33008KT 300V360 CAVOK 26/08 Q1015","updated":"2025-10-15T16:19:20Z"}
