{"icao":"LPMT","metar":"LPMT 112300Z 19006KT 170V230 9999 FEW015 BKN030 13/12 Q1025","updated":"2026-01-11T23:18:21Z"}
