{"icao":"LPPT","metar":"LPPT 170500Z 33004KT CAVOK 11/10 Q1018","updated":"2026-04-17T05:26:28Z"}
