{"icao":"KJFK","metar":"KJFK 202151Z 27022G31KT 10SM BKN050 BKN085 BKN250 16/06 A2984 RMK AO2 PK WND 26033/2058 SLP103 T01610061","updated":"2025-10-20T22:16:35Z"}
