{"icao":"KLAX","metar":"KLAX 221253Z 09003KT 10SM FEW110 10/08 A2993 RMK AO2 SLP133 T01000083 $","updated":"2025-11-22T13:22:34Z"}
