{"icao":"LPLA","metar":"LPLA 031100Z 24007KT 210V290 9999 FEW025 BKN035 17/11 Q1028","updated":"2025-12-03T11:17:49Z"}
