{"icao":"KLAX","metar":"KLAX 271653Z 03006KT 10SM FEW160 FEW250 16/M04 A3028 RMK AO2 SLP251 T01561044 $","updated":"2026-01-27T17:26:34Z"}
