{"icao":"LPMT","metar":"LPMT 121600Z 34003KT 290V020 9999 FEW035 20/10 Q1024","updated":"2026-03-12T17:02:37Z"}
