{"icao":"LPMT","metar":"LPMT 310200Z 19009KT 150V220 9999 SCT020 19/17 Q1013","updated":"2025-10-31T03:09:25Z"}
