{"icao":"LPBJ","metar":"LPBJ 130200Z 23018KT 2000 -DZRA OVC005 14/13 Q1007","updated":"2026-02-13T02:08:20Z"}
