{"icao":"LPOV","metar":"LPOV 230500Z 34007KT CAVOK 19/18 Q1017","updated":"2025-10-23T05:17:33Z"}
