{"icao":"LPLA","metar":"LPLA 292300Z 30013KT 7000 -RA SCT020 16/14 Q1008 RERA","updated":"2025-10-29T23:16:51Z"}
