{"icao":"KJFK","metar":"KJFK 250851Z 22007KT 10SM BKN220 05/02 A3028 RMK AO2 SLP253 T00500017 51003","updated":"2025-11-25T09:22:42Z"}
