{"icao":"LPHR","metar":"LPHR 261000Z 06014G25KT 020V110 9999 FEW016 SCT035 19/12 Q1025","updated":"2025-10-26T10:16:59Z"}
