{"icao":"KJFK","metar":"KJFK 181151Z 31012KT 10SM FEW065 03/M07 A3013 RMK AO2 SLP204 T00331072 10044 20028 53022 $","updated":"2025-11-18T12:39:06Z"}
