{"icao":"LPPD","metar":"LPPD 270700Z 28032KT 9999 FEW020 FEW025CB SCT040 14/09 Q1009","updated":"2026-01-27T07:26:28Z"}
