{"icao":"LPMT","metar":"LPMT 020100Z 21017G28KT 160V240 9999 -RADZ SCT008 SCT016 BKN032 14/14 Q0999","updated":"2026-02-02T02:04:10Z"}
