{"icao":"LPPR","metar":"LPPR 101330Z 01004KT 270V060 9999 FEW020 16/10 Q1022","updated":"2025-12-10T13:36:03Z"}
