{"icao":"LPMR","metar":"LPMR 211700Z 32005KT CAVOK 27/10 Q1020","updated":"2026-05-21T17:56:39Z"}
