{"icao":"LPFL","metar":"LPFL 131100Z 22012KT 180V260 9999 FEW023 16/10 Q1029","updated":"2026-02-13T11:30:21Z"}
