{"icao":"LPMR","metar":"LPMR 050300Z 02006KT CAVOK 06/M01 Q1010","updated":"2026-01-05T03:54:19Z"}
