{"icao":"LPFR","metar":"LPFR 210600Z 31004KT 290V040 CAVOK 08/04 Q1023","updated":"2025-11-21T06:29:07Z"}
