{"icao":"LPBJ","metar":"LPBJ 260900Z 09003KT 7000 VCFG NSC 13/11 Q1024","updated":"2026-02-26T09:49:08Z"}
