{"icao":"LPPS","metar":"LPPS 041330Z 27017KT 9999 FEW013 19/16 Q1012","updated":"2026-02-04T14:04:10Z"}
