{"icao":"LPHR","metar":"LPHR 241300Z 13012KT 8000 -SHRA SCT007 BKN012 16/15 Q1022","updated":"2025-12-24T13:31:02Z"}
