{"icao":"LPBJ","metar":"LPBJ 290700Z 30005KT 0200 FG FEW003 14/14 Q1015","updated":"2025-09-29T07:18:15Z"}
