{"icao":"LPPR","metar":"LPPR 140400Z 14004KT 5000 -DZ BR OVC002 18/18 Q1023","updated":"2025-09-14T04:19:41Z"}
