{"icao":"LPCS","metar":"LPCS 311100Z 19015KT 9999 VCSH FEW008 SCT016 BKN045 20/18 Q1013","updated":"2025-10-31T11:14:59Z"}
