{"icao":"LPMR","metar":"LPMR 181900Z 33004KT 9999 FEW020 13/12 Q1018","updated":"2025-11-18T19:15:38Z"}
