{"icao":"LPAZ","metar":"LPAZ 230700Z 10004KT 9999 FEW018 BKN030 15/13 Q1029","updated":"2025-11-23T07:16:52Z"}
