{"icao":"LPCS","metar":"LPCS 161100Z 33017KT 230V350 9999 -SHRA FEW012 FEW020CB SCT030 12/09 Q1015","updated":"2026-01-16T11:18:40Z"}
