{"icao":"LPPD","metar":"LPPD 250930Z 14004KT 110V170 9999 FEW008 SCT014 BKN028 18/17 Q1024","updated":"2026-05-25T10:02:06Z"}
