{"icao":"LPPT","metar":"LPPT 272200Z 23013KT 210V270 9999 VCSH FEW012 FEW020TCU SCT032 11/08 Q1005","updated":"2026-01-27T22:21:36Z"}
