{"icao":"KJFK","metar":"KJFK 300851Z 22008KT 10SM SCT250 21/18 A3012 RMK SLP198 T02060178 56004 ","updated":"2026-06-30T09:32:26Z"}
