{"icao":"LPPT","metar":"LPPT 081100Z 23008KT 200V260 9999 FEW025 13/09 Q1016","updated":"2026-02-08T11:21:28Z"}
