{"icao":"LPLA","metar":"LPLA 060500Z 21018KT 190V250 7000 -RA SCT015 BKN020 BKN030 21/18 Q1010","updated":"2025-11-06T05:18:50Z"}
