{"icao":"LPAZ","metar":"LPAZ 221500Z 03013KT 360V060 9999 FEW012 BKN033 16/12 Q1018","updated":"2026-03-22T15:24:55Z"}
