{"icao":"LPPR","metar":"LPPR 221700Z 24003KT 9999 BKN035 12/06 Q1029","updated":"2025-11-22T17:14:35Z"}
