{"icao":"LPMA","metar":"LPMA 080630Z 34007KT 290V020 9999 BKN015 14/06 Q1024","updated":"2026-03-08T06:40:38Z"}
