{"icao":"LPMR","metar":"LPMR 171600Z 32005KT CAVOK 22/13 Q1014","updated":"2025-10-17T16:21:33Z"}
