{"icao":"KLAX","metar":"KLAX 270153Z 26005KT 10SM FEW250 18/14 A2995 RMK AO2 SLP141 T01830139","updated":"2026-02-27T01:58:34Z"}
