{"icao":"LPPT","metar":"LPPT 310800Z 03003KT 0100 R02/0350N FG VV001 05/05 Q1019","updated":"2025-12-31T08:28:07Z"}
