{"icao":"LPPR","metar":"LPPR 010200Z 09001KT CAVOK 07/05 Q1023","updated":"2026-03-01T02:10:12Z"}
