{"icao":"LPBJ","metar":"LPBJ 241800Z 25012KT 8000 1500NW -DZ BKN006 OVC013 15/15 Q1018","updated":"2025-11-24T18:28:09Z"}
