{"icao":"LPBJ","metar":"LPBJ 310400Z 10003KT 2000 1000S BCFG NSC 03/03 Q1019","updated":"2025-12-31T04:37:02Z"}
