{"icao":"LPPS","metar":"LPPS 080800Z 28013KT 9999 FEW006 SCT010 17/16 Q1023","updated":"2026-02-08T08:31:54Z"}
