{"icao":"LPLA","metar":"LPLA 280100Z 15006KT 9999 BKN035 19/11 Q1029","updated":"2025-09-28T01:25:36Z"}
