{"icao":"LPMT","metar":"LPMT 200700Z 32005KT 290V360 9999 FEW022 20/17 Q1015","updated":"2026-06-20T08:53:00Z"}
