{"icao":"LPCS","metar":"LPCS 311130Z 05012KT 360V090 CAVOK 24/05 Q1026","updated":"2026-03-31T11:48:28Z"}
