{"icao":"LPBJ","metar":"LPBJ 311200Z 31009KT CAVOK 29/11 Q1019","updated":"2026-05-31T12:10:35Z"}
