{"icao":"KJFK","metar":"KJFK 082051Z 31022G29KT 10SM CLR M08/M20 A3015 RMK AO2 PK WND 31034/2023 SLP210 T10831200 53003 $","updated":"2026-02-08T21:25:33Z"}
