{"icao":"KORD","metar":"KORD 221451Z 28008KT 10SM BKN021 20/14 A2994 RMK AO2 SLP135 T02000144 51008","updated":"2026-04-22T15:12:03Z"}
