{"icao":"LPPT","metar":"LPPT 291600Z 32008KT 280V340 9999 FEW018 FEW025TCU 21/16 Q1009","updated":"2025-10-29T16:24:34Z"}
