{"icao":"LPFR","metar":"LPFR 300500Z VRB02KT CAVOK 15/14 Q1013","updated":"2025-10-30T05:18:06Z"}
