{"icao":"LPOV","metar":"LPOV 191900Z 34009KT 9999 SCT006 20/18 Q1016","updated":"2026-06-19T19:48:46Z"}
