{"icao":"LPAR","metar":"LPAR 071600Z 22010KT 8000 -RA FEW018 BKN030 12/09 Q1014","updated":"2026-04-07T23:35:26Z"}
