{"icao":"LPPR","metar":"LPPR 020830Z 24010KT 220V300 8000 -SHRA FEW015 FEW018CB BKN025 09/07 Q0992 RESHRA","updated":"2026-02-02T08:40:58Z"}
