{"icao":"LPAZ","metar":"LPAZ 121900Z 30022KT 9999 FEW018 15/11 Q1021","updated":"2026-02-12T19:08:36Z"}
