{"icao":"KORD","metar":"KORD 160451Z 32012KT 7SM RA FEW050 BKN070 OVC090 16/14 A2982 RMK AO2 TSE02 SLP095 P0009 T01560144 $","updated":"2026-04-16T05:29:44Z"}
