{"icao":"LPBJ","metar":"LPBJ 011300Z VRB01KT 9999 FEW030 16/05 Q1020","updated":"2025-12-01T13:34:14Z"}
