{"icao":"LPMA","metar":"LPMA 071700Z 02011KT 340V070 9999 SCT015 24/18 Q1024","updated":"2025-10-07T17:15:23Z"}
