{"icao":"LPHR","metar":"LPHR 080630Z 24024KT 8000 VCSH SCT005 BKN010 18/17 Q1009 RESHRA","updated":"2026-02-08T06:48:44Z"}
