{"icao":"LPMA","metar":"LPMA 081130Z VRB07G18KT 9999 SCT015 15/08 Q1022","updated":"2026-04-08T11:54:08Z"}
