{"icao":"LPPS","metar":"LPPS 280530Z 04009KT 350V080 9999 SCT014 SCT030 15/12 Q1021","updated":"2026-03-28T05:55:50Z"}
