{"icao":"KLAX","metar":"KLAX 110853Z 00000KT 10SM FEW015 14/11 A3020 RMK AO2 SLP225 T01440111 53004 $","updated":"2026-03-11T09:41:05Z"}
