{"icao":"LPPR","metar":"LPPR 120800Z 09016KT CAVOK 28/06 Q1019","updated":"2026-06-12T08:23:39Z"}
