{"icao":"LPPD","metar":"LPPD 251130Z 14004KT 100V160 8000 SCT002 SCT012 BKN040 16/16 Q1017","updated":"2026-04-25T11:36:54Z"}
