{"icao":"LPPS","metar":"LPPS 060900Z 01005KT 300V040 9999 FEW014 20/12 Q1021","updated":"2025-11-06T09:20:25Z"}
