{"icao":"LPPR","metar":"LPPR 110300Z 12007KT CAVOK 10/08 Q1022","updated":"2025-12-11T03:23:23Z"}
