{"icao":"KLAX","metar":"KLAX 020253Z 25009KT 10SM SCT014 18/14 A2991 RMK AO2 SLP125 T01830144 56006 $","updated":"2026-07-02T03:27:29Z"}
