{"icao":"LPBJ","metar":"LPBJ 011100Z 23012KT 2500 -DZRA BR BKN004 BKN016 15/14 Q1015","updated":"2026-02-01T11:20:01Z"}
