{"icao":"LPST","metar":"LPST 121300Z 30007KT 260V330 9999 FEW020 17/12 Q1026","updated":"2026-03-12T14:04:38Z"}
