{"icao":"KJFK","metar":"KJFK 280051Z 28019KT 10SM SCT055 BKN180 BKN250 04/M07 A2992 RMK AO2 PK WND 29027/0021 SLP131 T00441067","updated":"2025-11-28T01:22:52Z"}
