{"icao":"LPST","metar":"LPST 180800Z 33006KT 300V360 9999 FEW009 17/15 Q1018","updated":"2026-06-18T08:45:05Z"}
