{"icao":"KJFK","metar":"KJFK 221751Z 27010KT 10SM FEW250 02/M08 A3047 RMK AO2 SLP318 T00221083 10028 21033 58019 $","updated":"2025-12-22T18:29:41Z"}
