{"icao":"KLAX","metar":"KLAX 062253Z 25010KT 10SM FEW012 18/14 A3005 RMK AO2 SLP175 T01830144 $","updated":"2025-11-06T23:17:13Z"}
