{"icao":"LPMA","metar":"LPMA 261430Z 01021G38KT 330V040 9999 SCT015 FEW018CB 17/09 Q1022","updated":"2026-02-26T14:44:52Z"}
