{"icao":"LPBJ","metar":"LPBJ 030700Z 12009KT 9999 -RA FEW008 FEW020CB OVC045 13/12 Q0999","updated":"2026-01-03T07:17:59Z"}
