{"icao":"LPMT","metar":"LPMT 020000Z 26004KT 220V290 9999 SCT025 16/11 Q1018","updated":"2026-05-02T02:36:12Z"}
