{"icao":"KORD","metar":"KORD 180655Z 17010G18KT 10SM OVC024 06/01 A2970 RMK AO2 T00610006","updated":"2025-12-18T07:21:34Z"}
