{"icao":"LPOV","metar":"LPOV 170500Z 23002KT 9999 OVC009 13/13 Q1027","updated":"2026-02-17T05:56:30Z"}
