{"icao":"KJFK","metar":"KJFK 221751Z 14013KT 10SM BKN022 BKN039 BKN085 11/06 A3008 RMK SLP187 60001 T01110061 10111 20078 58016 ","updated":"2026-04-22T18:03:16Z"}
