{"icao":"LPMT","metar":"LPMT 111500Z 23017KT 5000 -DZ BR OVC007 15/15 Q1016","updated":"2026-02-11T15:59:53Z"}
