{"icao":"LPHR","metar":"LPHR 182000Z 27010KT 0800 FG VV003 22/22 Q1015","updated":"2025-10-18T20:17:41Z"}
