{"icao":"LPMT","metar":"LPMT 280800Z 19002KT 9999 0300S BCFG NSC 05/05 Q1023","updated":"2025-11-28T08:25:59Z"}
