{"icao":"LPSJ","metar":"LPSJ 271330Z 01013KT 330V040 9999 FEW015 BKN026 19/14 Q1025","updated":"2026-06-27T13:39:37Z"}
