{"icao":"KLAX","metar":"KLAX 110753Z VRB04KT 10SM FEW015 FEW250 15/11 A3019 RMK AO2 SLP222 T01500111 401940139 $","updated":"2026-03-11T08:39:32Z"}
