{"icao":"LPPT","metar":"LPPT 011900Z 21022KT 3500 RA BR BKN004 14/14 Q1007","updated":"2026-02-01T19:23:09Z"}
