{"icao":"LPMA","metar":"LPMA 040400Z VRB17G31KT 9999 BKN015 FEW018CB 15/11 Q1017","updated":"2026-03-04T04:10:19Z"}
