{"icao":"LPMR","metar":"LPMR 040400Z 25005KT 220V300 4000 RADZ BKN009 BKN018 15/14 Q1019","updated":"2025-12-04T05:18:46Z"}
