{"icao":"LPPD","metar":"LPPD 082000Z 36010KT 9999 FEW020 SCT030 20/17 Q1032","updated":"2026-06-08T20:12:13Z"}
