{"icao":"LPHR","metar":"LPHR 251600Z 06016G28KT 030V100 9999 FEW015 FEW017TCU 20/14 Q1020","updated":"2025-10-25T16:19:47Z"}
