{"icao":"KORD","metar":"KORD 260951Z 14003KT 10SM BKN070 09/03 A3034 RMK AO2 SLP275 T00940028 $","updated":"2025-10-26T10:17:12Z"}
