{"icao":"LPFR","metar":"LPFR 180200Z 04006KT CAVOK 18/08 Q1016","updated":"2026-04-18T02:12:41Z"}
