{"icao":"KORD","metar":"KORD 141851Z 24014G23KT 10SM SCT036 BKN250 27/17 A2977 RMK AO2 PK WND 23026/1759 SLP077 T02670172","updated":"2026-04-14T19:13:30Z"}
