{"icao":"LPLA","metar":"LPLA 170400Z 15013KT 9999 -RA SCT015 BKN018 BKN045 17/16 Q1022","updated":"2025-11-17T04:25:25Z"}
