{"icao":"LPLA","metar":"LPLA 211400Z 34016KT 9000 -RA FEW017 BKN020 14/10 Q1017","updated":"2026-03-21T14:25:34Z"}
