{"icao":"KJFK","metar":"KJFK 210951Z 05006KT 10SM SCT250 13/11 A3031 RMK AO2 SLP265 T01330111 $","updated":"2025-09-21T10:16:23Z"}
