{"icao":"LPFL","metar":"LPFL 061300Z 36004KT 300V030 9999 FEW018 22/18 Q1017","updated":"2025-10-06T13:27:34Z"}
