{"icao":"LPLA","metar":"LPLA 171306Z 31008KT 2500 -RADZ BR FEW004 BKN006 BKN012 14/14 Q1018","updated":"2026-04-17T13:16:56Z"}
