{"icao":"LPLA","metar":"LPLA 171435Z 36008KT 330V060 6000 -DZRA FEW004 BKN006 BKN012 15/14 Q1018 RERA","updated":"2026-04-17T14:53:57Z"}
