{"icao":"LPOV","metar":"LPOV 270900Z 05007KT 010V090 CAVOK 14/02 Q1020","updated":"2026-03-27T09:53:19Z"}
