{"icao":"LPBJ","metar":"LPBJ 012200Z 21005KT CAVOK 07/04 Q1019","updated":"2025-12-01T22:16:55Z"}
