{"icao":"LPPD","metar":"LPPD 280730Z 06007KT 030V090 9999 FEW016 BKN023 13/09 Q1031","updated":"2026-03-28T07:49:17Z"}
