{"icao":"LPMT","metar":"LPMT 072000Z 35009KT CAVOK 20/10 Q1021","updated":"2026-06-07T20:10:07Z"}
