{"icao":"LPAR","metar":"LPAR 031200Z 15005KT 110V180 CAVOK 25/14 Q1023","updated":"2025-10-03T12:35:12Z"}
