{"icao":"KJFK","metar":"KJFK 142151Z 08006KT 10SM BKN090 BKN110 OVC250 07/02 A2955 RMK AO2 SLP006 T00670017 $","updated":"2026-01-14T22:21:03Z"}
