{"icao":"LPMT","metar":"LPMT 181100Z 22008KT 180V260 7000 FEW010 SCT015 BKN020 14/12 Q1021","updated":"2026-02-18T11:37:16Z"}
