{"icao":"KLAX","metar":"KLAX 251053Z 21003KT 10SM SCT021 BKN029 BKN034 15/12 A2988 RMK AO2 SLP117 T01500117 $","updated":"2026-04-25T11:36:56Z"}
