{"icao":"LPFR","metar":"LPFR 100430Z 25011KT 2000 BR BKN002 15/15 Q1018","updated":"2026-02-10T05:02:26Z"}
