{"icao":"LPCS","metar":"LPCS 141130Z 35017KT 320V020 9999 FEW018 SCT023 18/11 Q1015","updated":"2026-05-14T11:51:04Z"}
