{"icao":"LPPT","metar":"LPPT 051930Z 30013KT CAVOK 18/08 Q1018","updated":"2026-06-05T19:52:16Z"}
