{"icao":"LPFL","metar":"LPFL 311430Z VRB06G17KT 9999 FEW003 BKN008 21/19 Q1022","updated":"2026-05-31T14:43:08Z"}
