{"icao":"LPPT","metar":"LPPT 052200Z 32008KT CAVOK 20/05 Q1019","updated":"2026-04-05T22:29:16Z"}
