{"icao":"LPMA","metar":"LPMA 040800Z 35012KT 270V030 9999 FEW013 25/15 Q1023","updated":"2026-06-04T08:19:43Z"}
