{"icao":"KLAX","metar":"KLAX 121653Z 08004KT 10SM FEW140 SCT180 BKN250 14/01 A3024 RMK AO2 SLP237 T01440011 $","updated":"2026-01-12T17:22:52Z"}
