{"icao":"KJFK","metar":"KJFK 170151Z 20006KT 10SM BKN250 14/12 A2975 RMK AO2 SLP075 T01440122","updated":"2026-04-17T02:29:33Z"}
