{"icao":"LPAZ","metar":"LPAZ 261130Z 31005KT 9999 FEW015 BKN026 16/15 Q1031","updated":"2026-02-26T11:38:43Z"}
