{"icao":"KJFK","metar":"KJFK 202151Z 34012G24KT 10SM SCT060 SCT080 10/M09 A3019 RMK PK WND 35026/2125 SLP222 VIRGA S AND NW T01001089 ","updated":"2026-04-20T22:41:29Z"}
