{"icao":"LPBJ","metar":"LPBJ 201700Z 19009KT CAVOK 28/05 Q1009","updated":"2026-04-20T17:56:19Z"}
