{"icao":"KORD","metar":"KORD 141551Z 26006KT 10SM CLR 13/03 A2999 RMK AO2 SLP158 T01280028 $","updated":"2025-11-14T16:23:41Z"}
