{"icao":"LPBJ","metar":"LPBJ 162100Z 31012KT CAVOK 16/09 Q1017","updated":"2026-05-16T21:47:27Z"}
