{"icao":"LPMA","metar":"LPMA 112300Z VRB02KT 9999 BKN015 18/11 Q1027","updated":"2026-02-11T23:31:15Z"}
