{"icao":"LPPT","metar":"LPPT 081330Z 18013KT 140V210 9999 FEW035 SCT042 20/09 Q1008","updated":"2026-05-08T13:43:42Z"}
