{"icao":"LPPS","metar":"LPPS 211400Z 16009KT 120V190 9999 FEW015 24/19 Q1021","updated":"2026-06-21T14:07:40Z"}
