{"icao":"LPAZ","metar":"LPAZ 291600Z 17009KT 9999 FEW027 24/17 Q1024","updated":"2025-09-29T16:18:17Z"}
