{"icao":"LPPD","metar":"LPPD 270500Z 03018G30KT 360V060 9999 FEW018 18/13 Q1016","updated":"2025-10-27T05:18:55Z"}
