{"icao":"LPPR","metar":"LPPR 260830Z 04008KT CAVOK 13/04 Q1021","updated":"2026-03-26T08:54:17Z"}
