{"icao":"LPPT","metar":"LPPT 051700Z 34016KT 9999 FEW030 09/01 Q1014","updated":"2026-01-05T17:21:30Z"}
