{"icao":"LPCS","metar":"LPCS 011230Z 23007KT 190V250 9999 FEW026 28/14 Q1021","updated":"2025-10-01T12:38:10Z"}
