{"icao":"LPST","metar":"LPST 201600Z 27007KT 220V290 CAVOK 24/09 Q1010","updated":"2026-04-21T05:26:02Z"}
