{"icao":"KORD","metar":"KORD 090708Z 35017G22KT 5SM -RASN BR BKN006 OVC013 02/01 A2986 RMK AO2 SNB07 P0000 T00170006 $","updated":"2025-11-09T07:16:42Z"}
