{"icao":"LPPT","metar":"LPPT 140600Z 21007KT 9999 FEW025 FEW030TCU 13/12 Q1002","updated":"2025-11-14T06:28:37Z"}
