{"icao":"KORD","metar":"KORD 210851Z 25007KT 10SM OVC017 M04/M08 A3000 RMK AO2 SLP167 T10391078 53012 $","updated":"2026-02-21T09:28:40Z"}
