{"icao":"LPMA","metar":"LPMA 242130Z 01016G27KT 330V030 9999 SCT015 17/12 Q1019","updated":"2026-03-24T21:36:52Z"}
