{"icao":"KJFK","metar":"KJFK 300051Z 05005KT 10SM FEW200 SCT250 02/M07 A3051 RMK AO2 SLP332 T00171072 $","updated":"2025-11-30T01:42:38Z"}
