{"icao":"LPMT","metar":"LPMT 031000Z 04005KT 010V070 9999 FEW020 13/11 Q1024","updated":"2025-11-03T10:21:39Z"}
