{"icao":"LPCS","metar":"LPCS 041030Z 25010KT 220V290 6000 -RADZ FEW002 BKN004 15/15 Q0998","updated":"2026-02-04T10:36:48Z"}
