{"icao":"KORD","metar":"KORD 130351Z 16011KT 10SM OVC095 06/M04 A2988 RMK AO2 SLP121 T00561044 $","updated":"2026-03-13T04:19:07Z"}
