{"icao":"LPFR","metar":"LPFR 142030Z 30011KT CAVOK 19/11 Q1011","updated":"2026-05-14T20:39:47Z"}
