{"icao":"LPLA","metar":"LPLA 140500Z 17005KT 120V220 9999 SCT013 18/16 Q1022 WIND RWY15 21010KT PK 22016/18 RH87 SCT120 BKN240 BLU","updated":"2025-12-14T05:18:32Z"}
