{"icao":"LPBJ","metar":"LPBJ 260400Z 25004KT CAVOK 04/03 Q1013","updated":"2025-12-26T04:33:18Z"}
