{"icao":"KJFK","metar":"KJFK 042251Z 18023G29KT 10SM FEW250 14/09 A2982 RMK PK WND 19029/2157 SLP097 T01390089 ","updated":"2026-05-04T23:01:54Z"}
