{"icao":"LPOV","metar":"LPOV 060600Z 01002KT CAVOK 15/09 Q1018","updated":"2025-10-06T06:27:17Z"}
