{"icao":"LPPR","metar":"LPPR 220300Z 36007KT CAVOK 10/07 Q1022","updated":"2025-09-22T03:05:56Z"}
