{"icao":"LPMT","metar":"LPMT 161600Z 35012KT 320V030 9999 FEW030 21/10 Q1017","updated":"2026-05-16T17:01:47Z"}
