{"icao":"LPMA","metar":"LPMA 041900Z 02007KT 9999 FEW015 22/16 Q1026","updated":"2025-10-04T19:11:53Z"}
