{"icao":"LPMA","metar":"LPMA 091900Z 03010KT 350V050 9999 FEW016 22/15 Q1024","updated":"2025-10-09T19:14:40Z"}
