{"icao":"LPMT","metar":"LPMT 201700Z 05007KT CAVOK 17/08 Q1028","updated":"2026-02-20T17:36:12Z"}
