{"icao":"LPMR","metar":"LPMR 220700Z 25006KT 220V280 7000 BKN004 OVC013 20/19 Q1015","updated":"2025-10-22T07:17:36Z"}
