{"icao":"LPHR","metar":"LPHR 190000Z 03006KT 340V060 9999 -DZ SCT003 SCT009 BKN025 17/15 Q1026","updated":"2025-11-19T03:10:34Z"}
