{"icao":"KORD","metar":"KORD 021051Z 00000KT 10SM -RA FEW019 BKN045 BKN065 06/04 A3020 RMK AO2 SLP229 P0000 T00560044 $","updated":"2025-11-02T11:13:00Z"}
