{"icao":"LPCS","metar":"LPCS 221300Z 08004KT 040V130 CAVOK 15/00 Q1029","updated":"2025-11-22T13:22:16Z"}
