{"icao":"LPFR","metar":"LPFR 022300Z 15016KT 9999 -RA SCT018 BKN040 16/13 Q1001","updated":"2026-01-02T23:18:02Z"}
