{"icao":"LPPR","metar":"LPPR 040700Z 30008KT 260V330 9999 SCT030 BKN048 14/08 Q1019","updated":"2025-12-04T07:19:55Z"}
