{"icao":"LPAZ","metar":"LPAZ 211600Z 07007KT 030V110 9999 VCSH FEW017 SCT022 18/13 Q1030","updated":"2025-11-21T16:23:53Z"}
