{"icao":"KORD","metar":"KORD 112051Z 14008KT 10SM FEW110 OVC250 13/03 A3030 RMK AO2 SLP264 T01280028 58026 $","updated":"2026-04-11T21:31:31Z"}
