{"icao":"LPPD","metar":"LPPD 302300Z 27011KT 5000 -RA FEW004 BKN011 16/15 Q1008","updated":"2025-12-30T23:18:08Z"}
