{"icao":"KLAX","metar":"KLAX 220553Z 25007KT 10SM FEW015 17/14 A2991 RMK AO2 SLP125 T01720144 10211 20172 50009 $","updated":"2026-06-22T06:28:10Z"}
