{"icao":"LPLA","metar":"LPLA 210700Z 09005KT 060V120 9999 FEW015 BKN035 15/12 Q1032","updated":"2025-11-21T07:18:31Z"}
