{"icao":"KLAX","metar":"KLAX 260853Z 03003KT 10SM CLR 18/04 A3006 RMK AO2 SLP178 T01780044 58003","updated":"2025-11-26T09:22:07Z"}
