{"icao":"KJFK","metar":"KJFK 301151Z 09022G31KT 8SM -RA BKN010 OVC022 13/12 A2986 RMK AO2 PK WND 11032/1134 RAE10B50 SLP112 CIG 008V012 P0001 60006 70007 T01330122 10133 20106 56028","updated":"2025-10-30T12:38:03Z"}
