{"icao":"LPMA","metar":"LPMA 032300Z 29006G21KT 220V020 9999 FEW015 18/10 Q1005","updated":"2026-01-03T23:18:14Z"}
