{"icao":"LPMR","metar":"LPMR 081700Z 23007KT 200V270 3000 -DZ BR SCT005 BKN007 13/12 Q1029","updated":"2026-01-08T17:25:27Z"}
