{"icao":"KORD","metar":"KORD 231151Z 26006KT 10SM FEW025 04/01 A3004 RMK AO2 SLP175 T00390011 10078 20039 53018","updated":"2025-10-23T12:38:56Z"}
