{"icao":"LPPR","metar":"LPPR 312100Z 11010KT CAVOK 10/04 Q1017","updated":"2025-12-31T21:17:25Z"}
