{"icao":"KORD","metar":"KORD 071305Z 24010G18KT 10SM SCT010 BKN150 BKN250 11/09 A2950 RMK AO2 T01060094 $","updated":"2025-11-07T13:26:53Z"}
