{"icao":"KLAX","metar":"KLAX 251053Z 23004KT 1/4SM R25L/P6000FT FG VV002 18/18 A2997 RMK AO2 SLP145 VIS SE 1 T01830178 $","updated":"2025-09-25T11:15:20Z"}
