{"icao":"KORD","metar":"KORD 140551Z 17006KT 10SM FEW110 07/M01 A3006 RMK AO2 SLP183 T00721011 10106 20072 401220017 58011","updated":"2025-11-14T06:28:42Z"}
