{"icao":"KJFK","metar":"KJFK 281551Z 26024G33KT 10SM FEW050 FEW110 FEW250 05/M07 A2993 RMK AO2 PK WND 28035/1521 RAB23RAEMM SLP136 P0000 T00501072 $","updated":"2025-11-28T16:23:38Z"}
