{"icao":"KORD","metar":"KORD 120751Z 26006KT 10SM CLR 00/M06 A3015 RMK AO2 SLP217 T00001056","updated":"2026-03-12T08:40:38Z"}
