{"icao":"LPBJ","metar":"LPBJ 201200Z 05004KT 360V100 CAVOK 13/05 Q1030","updated":"2026-02-20T12:56:16Z"}
