{"icao":"LPPT","metar":"LPPT 120500Z 13005KT 9000 -RA FEW002 SCT004 FEW022CB BKN045 13/13 Q1013 RERA","updated":"2025-12-12T05:20:14Z"}
