{"icao":"KORD","metar":"KORD 150515Z 10004KT 2 1/2SM R10L/4000VP6000FT +TSRA BR FEW020 BKN034CB OVC150 18/17 A2972 RMK AO2 VIS 1 3/4V4 FRQ LTGICCCCG OHD TS OHD MOV E P0015 T01780167","updated":"2026-04-15T05:22:48Z"}
