{"icao":"LPMR","metar":"LPMR 041400Z 35012KT 9999 SCT017 SCT030 20/15 Q1024","updated":"2025-10-04T14:14:00Z"}
