{"icao":"LPMA","metar":"LPMA 092200Z 02019G29KT 9999 SCT015 18/13 Q1023","updated":"2026-06-09T22:23:19Z"}
