{"icao":"LPLA","metar":"LPLA 312200Z 35009KT 320V020 9999 FEW025 BKN040 16/08 Q1016","updated":"2025-10-31T22:16:53Z"}
