{"icao":"KJFK","metar":"KJFK 282151Z 22004KT 10SM FEW020 BKN100 OVC250 00/M03 A3005 RMK AO2 SLP176 T00001028 $","updated":"2025-12-28T22:18:52Z"}
