{"icao":"LPPD","metar":"LPPD 081400Z 14009KT 120V180 9999 SCT006 BKN014 FEW018TCU 23/21 Q1025","updated":"2025-10-08T14:18:13Z"}
