{"icao":"LPFR","metar":"LPFR 181800Z 26004KT CAVOK 17/12 Q1017","updated":"2025-11-18T18:27:55Z"}
