{"icao":"KJFK","metar":"KJFK 180551Z 33003KT 10SM BKN250 03/M01 A3020 RMK SLP227 4/001 T00281006 10061 20006 51012 ","updated":"2025-12-18T06:31:23Z"}
