{"icao":"LPPR","metar":"LPPR 141500Z 32014KT 9999 FEW030 13/07 Q1026","updated":"2026-02-14T15:23:58Z"}
