{"icao":"LPPT","metar":"LPPT 171300Z 08005KT 050V120 CAVOK 23/12 Q1018","updated":"2026-04-17T13:16:51Z"}
