{"icao":"LPPT","metar":"LPPT 022300Z 28011KT 240V310 9000 -SHRA SCT020 FEW025CB 08/07 Q1003 RESHRA","updated":"2026-02-02T23:27:04Z"}
