{"icao":"LPCS","metar":"LPCS 260700Z 36005KT 310V050 9999 FEW002 15/13 Q1016","updated":"2026-04-26T07:27:03Z"}
