{"icao":"LPFR","metar":"LPFR 190130Z 31006KT CAVOK 12/10 Q1024","updated":"2026-02-19T02:03:41Z"}
