{"icao":"LPPR","metar":"LPPR 011400Z 11011KT 080V140 9999 FEW040 10/06 Q1009","updated":"2026-01-01T14:18:34Z"}
