{"icao":"LPBJ","metar":"LPBJ 011700Z 31005KT 9999 FEW030 15/06 Q1019","updated":"2025-12-01T17:20:36Z"}
