{"icao":"LPMA","metar":"LPMA 062300Z 27004KT 240V330 9999 FEW015 15/08 Q1021","updated":"2026-02-06T23:24:38Z"}
