{"icao":"LPPT","metar":"LPPT 210600Z 24009KT 9000 -DZ BKN004 20/20 Q1014","updated":"2025-10-21T06:27:18Z"}
