{"icao":"LPMR","metar":"LPMR 310700Z 18010KT 6000 -RA FEW020 OVC025 17/16 Q1011","updated":"2025-10-31T07:16:50Z"}
