{"icao":"KORD","metar":"KORD 051051Z 21006KT 10SM BKN150 OVC250 M07/M12 A3015 RMK AO2 SLP218 T10721122","updated":"2026-02-05T11:34:25Z"}
