{"icao":"LPHR","metar":"LPHR 131400Z 23007KT 9999 FEW025 21/13 Q1015","updated":"2025-10-13T14:18:53Z"}
