{"icao":"LPMR","metar":"LPMR 271900Z 31005KT CAVOK 18/15 Q1012","updated":"2026-04-27T19:18:59Z"}
