{"icao":"KJFK","metar":"KJFK 050751Z 31007KT 10SM FEW047 M02/M09 A3021 RMK AO2 SLP228 T10171094 $","updated":"2026-01-05T08:32:01Z"}
