{"icao":"LPFR","metar":"LPFR 140900Z 12005KT CAVOK 22/17 Q1016","updated":"2025-10-14T09:19:46Z"}
