{"icao":"KORD","metar":"KORD 070251Z 36009KT 10SM OVC008 19/17 A3004 RMK AO2 SLP170 T01890172 51014 $","updated":"2025-10-07T03:31:19Z"}
