{"icao":"LPPT","metar":"LPPT 101000Z 33009KT 9999 FEW020 14/11 Q1022","updated":"2025-12-10T10:22:16Z"}
