{"icao":"LPCS","metar":"LPCS 071300Z 23012G22KT 9000 -DZ FEW005 BKN008 18/18 Q1015","updated":"2025-11-07T13:26:48Z"}
