{"icao":"KORD","metar":"KORD 081651Z 18018G25KT 10SM FEW130 BKN220 BKN300 13/M01 A3015 RMK AO2 SLP214 T01331006","updated":"2026-04-08T17:00:49Z"}
