{"icao":"LPPR","metar":"LPPR 011000Z 20007KT 1000 0800N R17/1700N -DZ PRFG BKN002 OVC005 14/14 Q1011","updated":"2026-02-01T10:23:49Z"}
