{"icao":"LPAZ","metar":"LPAZ 061300Z 31022KT 9999 SCT035 14/05 Q1017","updated":"2026-04-06T13:07:12Z"}
