{"icao":"LPMA","metar":"LPMA 080700Z 33006KT 300V010 9999 FEW015 15/12 Q1007","updated":"2026-05-08T07:28:22Z"}
