{"icao":"LPBJ","metar":"LPBJ 311300Z 21017KT 9999 FEW030 22/14 Q1015","updated":"2025-10-31T13:28:28Z"}
