{"icao":"KJFK","metar":"KJFK 221651Z 14014KT 10SM FEW025 BKN036 OVC085 09/05 A3010 RMK SLP192 T00940050 ","updated":"2026-04-22T16:57:54Z"}
