{"icao":"LPFR","metar":"LPFR 031300Z 23013KT CAVOK 24/14 Q1018","updated":"2026-06-03T13:20:28Z"}
