{"icao":"LPHR","metar":"LPHR 052230Z 02008KT 9999 FEW017 SCT035 15/09 Q1029","updated":"2026-05-05T23:04:10Z"}
