{"icao":"LPAZ","metar":"LPAZ 200530Z 17011KT 9999 FEW007 SCT036 15/14 Q1024","updated":"2026-02-20T05:52:29Z"}
