{"icao":"LPMA","metar":"LPMA 010100Z 34008KT 310V010 9999 SCT015 20/15 Q1021","updated":"2025-10-01T01:27:01Z"}
