{"icao":"LPMT","metar":"LPMT 162300Z 36004KT CAVOK 13/09 Q1019","updated":"2026-04-16T23:38:59Z"}
