{"icao":"LPMT","metar":"LPMT 101000Z 03010KT CAVOK 21/12 Q1021","updated":"2025-10-10T10:19:17Z"}
