{"icao":"LPMA","metar":"LPMA 302300Z 24003KT 9999 SCT015 18/15 Q1025","updated":"2026-01-30T23:24:02Z"}
