{"icao":"LPFR","metar":"LPFR 200300Z 31005KT CAVOK 08/05 Q1020","updated":"2025-12-20T03:13:56Z"}
