{"icao":"LPPD","metar":"LPPD 190400Z 26009KT 6000 SCT001 BKN003 22/22 Q1017","updated":"2025-10-19T04:21:19Z"}
