{"icao":"KLAX","metar":"KLAX 040253Z 28008KT 10SM BKN250 16/12 A3007 RMK AO2 SLP179 T01610122 53018","updated":"2025-12-04T03:18:31Z"}
