{"icao":"LPPS","metar":"LPPS 191500Z 13006KT 080V170 9999 SCT014 SCT030 22/17 Q1018","updated":"2026-06-19T15:12:31Z"}
