{"icao":"LPFR","metar":"LPFR 062100Z 33005KT CAVOK 07/01 Q1025","updated":"2026-01-06T21:19:46Z"}
