{"icao":"LPPR","metar":"LPPR 190530Z 09009KT CAVOK 17/07 Q1003","updated":"2026-03-19T05:57:07Z"}
