{"icao":"LPPR","metar":"LPPR 250400Z 36003KT CAVOK 07/06 Q1020","updated":"2025-11-25T04:25:09Z"}
