{"icao":"LPPR","metar":"LPPR 171000Z 28004KT 230V350 CAVOK 19/14 Q1022","updated":"2025-09-17T10:18:22Z"}
