{"icao":"LPFR","metar":"LPFR 181200Z 24012KT CAVOK 19/11 Q1020","updated":"2026-05-18T12:28:08Z"}
