{"icao":"KORD","metar":"KORD 060251Z 22009G18KT 10SM BKN060 OVC085 M03/M10 A2977 RMK AO2 SLP092 T10331100 58003","updated":"2025-12-06T03:08:56Z"}
