{"icao":"LPLA","metar":"LPLA 310200Z 15010KT 9999 FEW016 SCT020 13/10 Q1032","updated":"2026-03-31T02:12:59Z"}
