{"icao":"LPMR","metar":"LPMR 080300Z 16004KT 5000 2000S BR PRFG FEW020 SCT030 05/04 Q1031","updated":"2026-01-08T03:28:44Z"}
