{"icao":"LPFR","metar":"LPFR 302300Z 29003KT CAVOK 19/17 Q1018","updated":"2025-09-30T23:15:48Z"}
