{"icao":"LPCS","metar":"LPCS 082100Z 27004KT 230V310 9999 FEW006 SCT012 13/13 Q1031","updated":"2026-01-09T01:41:11Z"}
