{"icao":"LPLA","metar":"LPLA 181800Z 33019KT 9999 SCT018 BKN024 15/10 Q1031","updated":"2026-01-18T18:26:39Z"}
