{"icao":"LPAZ","metar":"LPAZ 012000Z 35011KT 9999 SCT044 15/08 Q1028","updated":"2025-12-01T20:19:43Z"}
