{"icao":"LPHR","metar":"LPHR 011600Z 33021G33KT 300V360 9999 SCT028 16/08 Q1008","updated":"2026-01-01T16:25:39Z"}
