{"icao":"LPHR","metar":"LPHR 202030Z 25011KT 9999 FEW013 SCT070 16/13 Q1011","updated":"2026-05-20T21:51:24Z"}
