{"icao":"KJFK","metar":"KJFK 151651Z 34011KT 10SM FEW045 FEW090 BKN160 BKN250 18/11 A2994 RMK AO2 SLP137 T01830106","updated":"2025-10-15T17:16:27Z"}
