{"icao":"LPLA","metar":"LPLA 250800Z 17012KT 9999 FEW012 BKN015 OVC040 14/13 Q1022","updated":"2025-12-25T08:27:01Z"}
