{"icao":"LPLA","metar":"LPLA 212200Z 24007KT 210V290 9999 FEW012 16/14 Q1014","updated":"2026-05-21T23:02:08Z"}
