{"icao":"KORD","metar":"KORD 151851Z 23012G18KT 10SM FEW015 FEW080 BKN110 OVC250 20/16 A2981 RMK AO2 RAB27E42 SLP090 P0000 T02000156","updated":"2026-04-15T19:15:57Z"}
