{"icao":"LPAZ","metar":"LPAZ 100630Z 07003KT 9999 BKN032 10/06 Q1034","updated":"2026-03-10T06:48:07Z"}
