{"icao":"LPAZ","metar":"LPAZ 250700Z 19012KT 0600 R18/0600 -SHRA FG VV002 17/16 Q1015","updated":"2026-04-25T07:13:41Z"}
