{"icao":"LPHR","metar":"LPHR 030930Z 25026G36KT 9999 SCT009 BKN013 18/17 Q1004","updated":"2026-02-03T09:39:26Z"}
