{"icao":"LPFL","metar":"LPFL 301300Z 13007KT 070V180 6000 DZ VCFG FEW004 SCT008 BKN014 21/18 Q1021","updated":"2026-05-30T13:26:19Z"}
