{"icao":"LPLA","metar":"LPLA 230800Z 33016KT 9999 4000W VCSH FEW009 BKN018 BKN030 19/15 Q1022","updated":"2025-09-23T08:22:51Z"}
