{"icao":"KJFK","metar":"KJFK 010351Z 28025G36KT 10SM FEW060 12/M02 A2964 RMK AO2 PK WND 26036/0349 SLP036 T01221017 $","updated":"2025-11-01T04:19:05Z"}
