{"icao":"LPPR","metar":"LPPR 011800Z 28003KT 250V310 CAVOK 19/15 Q1021","updated":"2025-10-01T18:25:23Z"}
