{"icao":"KORD","metar":"KORD 211651Z VRB03KT 10SM CLR M04/M16 A3046 RMK AO2 SLP323 T10441161","updated":"2025-12-21T17:16:08Z"}
