{"icao":"LPPS","metar":"LPPS 271100Z 36019KT 9999 FEW015 18/12 Q1027","updated":"2026-02-27T11:31:25Z"}
