{"icao":"LPFR","metar":"LPFR 081330Z 21009KT 9999 FEW020 16/12 Q1021","updated":"2026-03-08T13:38:43Z"}
