{"icao":"KJFK","metar":"KJFK 311451Z 26014KT 10SM FEW048 FEW180 BKN250 M02/M11 A2988 RMK AO2 SLP118 T10171111 51010 $","updated":"2025-12-31T15:20:08Z"}
