{"icao":"LPPR","metar":"LPPR 151800Z 22006KT 190V260 9999 FEW012 15/13 Q1004","updated":"2025-11-15T18:23:20Z"}
