{"icao":"KJFK","metar":"KJFK 170451Z 34011KT 10SM CLR 09/M02 A2997 RMK AO2 SLP147 T00941017 401670078","updated":"2025-10-17T05:17:19Z"}
