{"icao":"LPBJ","metar":"LPBJ 031200Z 27010KT 9999 FEW020 11/08 Q1005","updated":"2026-02-03T12:57:28Z"}
