{"icao":"LPPS","metar":"LPPS 132300Z 04011KT 010V070 9999 SCT014 15/11 Q1026","updated":"2026-03-13T23:27:12Z"}
