{"icao":"LPCS","metar":"LPCS 021430Z 21011KT 180V240 9999 FEW008 SCT016 18/15 Q1017","updated":"2026-05-02T14:44:38Z"}
