{"icao":"KORD","metar":"KORD 060951Z 14004KT 8SM OVC070 02/01 A2959 RMK AO2 SLP023 T00220006","updated":"2026-01-06T10:22:34Z"}
