{"icao":"LPFR","metar":"LPFR 270100Z 02007KT CAVOK 12/05 Q1023","updated":"2025-11-27T01:23:11Z"}
