{"icao":"KJFK","metar":"KJFK 291751Z 12008KT 10SM FEW200 BKN250 25/11 A3020 RMK AO2 SLP228 T02500111 10256 20194 58010 $","updated":"2025-09-29T18:26:37Z"}
