{"icao":"LPLA","metar":"LPLA 050500Z 27010KT 9000 -SHRA SCT025 SCT035 10/07 Q0999","updated":"2026-02-05T05:54:19Z"}
