{"icao":"LPMA","metar":"LPMA 190830Z 35009KT 9999 BKN013 16/13 Q1027","updated":"2026-02-19T08:41:34Z"}
