{"icao":"KLAX","metar":"KLAX 110953Z 14006KT 10SM OVC012 19/16 A2983 RMK AO2 SLP098 T01890156","updated":"2026-06-11T10:20:52Z"}
