{"icao":"LPST","metar":"LPST 111000Z 22009KT 190V250 9999 BKN018 16/13 Q1014","updated":"2026-05-11T10:37:10Z"}
