{"icao":"LPOV","metar":"LPOV 041200Z 15013KT CAVOK 20/13 Q1015","updated":"2025-11-04T12:40:50Z"}
