{"icao":"KLAX","metar":"KLAX 030353Z 27006KT 9SM OVC008 16/14 A3003 RMK AO2 SLP169 T01610144 $","updated":"2025-11-03T04:27:32Z"}
