{"icao":"KORD","metar":"KORD 141351Z 33003KT 10SM -RA SCT055 BKN070 BKN100 OVC200 16/14 A2982 RMK AO2 SLP096 P0006 T01560139 $","updated":"2026-06-14T14:04:16Z"}
