{"icao":"LPPT","metar":"LPPT 231230Z 26003KT 200V300 9999 FEW020 BKN034 23/18 Q1020","updated":"2025-10-23T12:38:53Z"}
