{"icao":"KJFK","metar":"KJFK 200951Z 00000KT 10SM SCT090 SCT250 03/M01 A3012 RMK SLP199 T00331006 ","updated":"2026-04-20T10:47:00Z"}
