{"icao":"LPFL","metar":"LPFL 051600Z 18019G34KT 140V210 9999 VCSH BKN018 FEW019TCU 19/15 Q1009","updated":"2025-11-05T16:24:25Z"}
