{"icao":"KLAX","metar":"KLAX 220453Z 00000KT 10SM SCT034 SCT120 16/09 A2999 RMK AO2 SLP155 T01610094 $","updated":"2025-11-22T05:17:15Z"}
