{"icao":"LPBJ","metar":"LPBJ 281200Z 34010KT 310V010 CAVOK 15/04 Q1024","updated":"2026-02-28T12:42:30Z"}
