{"icao":"LPAZ","metar":"LPAZ 160700Z 33007KT 9999 FEW031 15/10 Q1022","updated":"2025-11-16T07:17:08Z"}
