{"icao":"LPHR","metar":"LPHR 130930Z 31005KT 9999 FEW027 14/10 Q1030","updated":"2026-02-13T09:42:23Z"}
