{"icao":"LPLA","metar":"LPLA 041500Z 34011KT 9999 FEW020 BKN042 15/08 Q1022","updated":"2026-01-04T15:18:06Z"}
