{"icao":"LPHR","metar":"LPHR 250130Z 32007KT 300V360 9999 FEW025 14/09 Q1025","updated":"2026-02-25T02:03:31Z"}
