{"icao":"LPAR","metar":"LPAR 251300Z 01013KT 9999 FEW035 16/05 Q1022","updated":"2025-11-25T13:33:04Z"}
