{"icao":"KJFK","metar":"KJFK 061651Z 11004KT 8SM FEW050 BKN180 OVC250 04/M01 A2994 RMK AO2 SLP139 T00441006 $","updated":"2026-01-06T17:22:28Z"}
