{"icao":"LPLA","metar":"LPLA 130300Z 22013G23KT 190V250 9999 FEW015 SCT030 21/18 Q1019","updated":"2026-06-13T03:35:19Z"}
