{"icao":"LPCS","metar":"LPCS 150800Z 36002KT CAVOK 18/12 Q1017","updated":"2025-10-15T08:25:10Z"}
