{"icao":"LPPR","metar":"LPPR 011500Z 22006KT 190V250 CAVOK 15/08 Q1019","updated":"2026-03-01T15:22:07Z"}
