{"icao":"LPCS","metar":"LPCS 021330Z 26019G32KT 9999 FEW012 FEW025CB SCT028 13/10 Q0999","updated":"2026-02-02T14:03:33Z"}
