{"icao":"KLAX","metar":"KLAX 030901Z 00000KT 3SM BR FEW006 SCT009 BKN200 14/13 A3003 RMK AO2 T01390133 $","updated":"2025-11-03T09:22:16Z"}
