{"icao":"KORD","metar":"KORD 172251Z 17008KT 10SM FEW130 SCT240 BKN350 22/12 A2977 RMK AO2 SLP078 T02220117","updated":"2025-10-17T23:15:35Z"}
