{"icao":"LPPT","metar":"LPPT 270300Z 00000KT 9999 FEW010 14/13 Q1018","updated":"2025-09-27T03:25:59Z"}
