{"icao":"KORD","metar":"KORD 181151Z 28012G19KT 10SM OVC021 17/13 A2957 RMK AO2 SLP009 70068 T01670133 10200 20167 53040","updated":"2026-06-18T12:24:21Z"}
