{"icao":"LPGR","metar":"LPGR 111400Z 13009KT 090V160 9999 FEW012 BKN022 21/17 Q1025","updated":"2026-06-11T14:34:14Z"}
