{"icao":"LPCS","metar":"LPCS 212030Z 29016KT 9999 FEW008 12/11 Q1006","updated":"2026-01-22T04:46:53Z"}
