{"icao":"KORD","metar":"KORD 130701Z 29018G26KT 10SM SCT019 OVC250 M04/M09 A3003 RMK AO2 PK WND 28026/0700 T10441094","updated":"2025-12-13T07:20:32Z"}
