{"icao":"LPMA","metar":"LPMA 052230Z 04017KT 7000 -RA FEW006 BKN012 15/14 Q1019","updated":"2026-05-05T23:04:12Z"}
