{"icao":"LPMT","metar":"LPMT 030900Z VRB03KT CAVOK 18/15 Q1023","updated":"2025-10-03T09:17:21Z"}
