{"icao":"KLAX","metar":"KLAX 091853Z 23008KT 10SM FEW080 FEW160 SCT250 22/12 A2992 RMK AO2 SLP130 T02170122 $","updated":"2025-10-09T19:14:40Z"}
