{"icao":"LPPD","metar":"LPPD 020130Z 32025G41KT 8000 -SHRA SCT014 FEW022CB BKN030 13/10 Q1001 WS ALL RWY","updated":"2026-01-02T01:40:59Z"}
