{"icao":"KJFK","metar":"KJFK 091751Z 12012KT 10SM BKN007 BKN100 BKN250 16/14 A2978 RMK AO2 RAB1657E12 SLP085 P0000 60000 T01560139 10167 20133 58031 $","updated":"2025-11-09T18:23:06Z"}
