{"icao":"KORD","metar":"KORD 020651Z 23006KT 10SM CLR 28/23 A2999 RMK AO2 SLP149 T02780228 $","updated":"2026-07-02T07:30:27Z"}
