{"icao":"LPPD","metar":"LPPD 042000Z 01010G21KT 320V050 9999 FEW020 SCT030 13/07 Q1030","updated":"2026-03-04T20:30:12Z"}
