{"icao":"LPCS","metar":"LPCS 162300Z 26004KT 230V300 9999 FEW012 BKN016 13/13 Q1031","updated":"2026-02-16T23:27:45Z"}
