{"icao":"LPFR","metar":"LPFR 210400Z 02006KT CAVOK 12/06 Q1026","updated":"2026-02-21T04:06:15Z"}
