{"icao":"LPPS","metar":"LPPS 020300Z 07003KT 020V160 9999 -SHRA SCT012 SCT030 20/18 Q1021","updated":"2025-10-02T03:29:16Z"}
