{"icao":"LPAZ","metar":"LPAZ 132030Z 36003KT 310V020 9999 FEW024 12/10 Q1032","updated":"2026-02-13T20:36:41Z"}
