{"icao":"LPPR","metar":"LPPR 162030Z 33009KT 9999 FEW025 14/09 Q1018","updated":"2026-05-16T20:43:18Z"}
