{"icao":"LPPR","metar":"LPPR 311400Z VRB02KT CAVOK 15/08 Q1018","updated":"2025-12-31T14:18:51Z"}
