{"icao":"LPOV","metar":"LPOV 050400Z 21020G32KT 3000 RA BR BKN005 BKN010 15/15 Q0986","updated":"2026-02-05T04:20:33Z"}
