{"icao":"LPPT","metar":"LPPT 171930Z 27006KT 240V300 9999 BKN021 13/08 Q1025","updated":"2026-02-17T19:47:26Z"}
