{"icao":"LPPS","metar":"LPPS 180830Z 28017KT 9000 -RA SCT012 FEW015CB 11/09 Q1000","updated":"2026-03-18T08:48:35Z"}
