{"icao":"LPPT","metar":"LPPT 030400Z 33005KT CAVOK 12/10 Q1024","updated":"2025-11-03T04:27:10Z"}
