{"icao":"LPPD","metar":"LPPD 311230Z 23014KT 4000 BR SCT003 BKN005 17/16 Q1018","updated":"2026-01-31T12:44:22Z"}
