{"icao":"LPPT","metar":"LPPT 160900Z VRB02KT CAVOK 23/10 Q1015","updated":"2025-10-16T09:19:43Z"}
