{"icao":"LPFR","metar":"LPFR 291500Z 25020KT 5000 -DZ BR OVC006 16/15 Q1012","updated":"2026-01-29T15:34:02Z"}
