{"icao":"LPAR","metar":"LPAR 221700Z 34006KT 310V010 9999 FEW025 BKN045 13/08 Q1014","updated":"2025-12-22T21:17:25Z"}
