{"icao":"LPMA","metar":"LPMA 102000Z 01012KT 320V040 9999 BKN015 15/08 Q1027","updated":"2026-03-10T20:32:26Z"}
