{"icao":"KJFK","metar":"KJFK 140751Z 22007KT 10SM SCT065 BKN100 BKN250 19/16 A3002 RMK AO2 SLP166 T01890161 $","updated":"2025-09-14T08:20:13Z"}
