{"icao":"KORD","metar":"KORD 271451Z 14010KT 5SM -RA SCT070 OVC095 14/11 A2981 RMK AO2 RAB1353 SLP097 P0002 60002 T01390111 56022 $","updated":"2026-04-27T15:47:19Z"}
