{"icao":"KLAX","metar":"KLAX 201653Z 10005KT 3SM HZ FEW008 OVC011 14/12 A3009 RMK AO2 SLP189 VIS SW-W 2 T01440117","updated":"2025-12-20T17:15:33Z"}
