{"icao":"LPOV","metar":"LPOV 160700Z 00000KT 0200 FG NSC 09/09 Q1022","updated":"2026-04-16T07:44:04Z"}
