{"icao":"LPFL","metar":"LPFL 200800Z 27016G33KT 210V320 9000 -DZ FEW010 BKN017 18/15 Q1023","updated":"2026-01-20T08:30:23Z"}
