{"icao":"LPFR","metar":"LPFR 090800Z 02007KT CAVOK 13/08 Q1021","updated":"2025-11-09T08:20:27Z"}
