{"icao":"LPFR","metar":"LPFR 221700Z 23008KT CAVOK 21/13 Q1014","updated":"2025-09-22T17:14:32Z"}
