{"icao":"LPLA","metar":"LPLA 151700Z 22017G31KT 190V260 9999 FEW020 19/10 Q1025","updated":"2026-02-15T17:24:22Z"}
