{"icao":"KJFK","metar":"KJFK 250451Z 11006KT 10SM -RA SCT005 BKN017 OVC075 22/21 A3003 RMK AO2 RAE0359B50 SLP169 P0000 T02170206 402560200 $","updated":"2025-09-25T05:17:33Z"}
