{"icao":"LPMT","metar":"LPMT 201600Z 21004KT 180V240 9999 VCSH FEW022 BKN025 13/13 Q1014","updated":"2025-12-20T16:22:05Z"}
