{"icao":"LPLA","metar":"LPLA 091900Z 29007KT 9999 FEW022 17/13 Q1024","updated":"2025-11-09T19:12:37Z"}
