{"icao":"KLAX","metar":"KLAX 020353Z 26008KT 10SM FEW011 19/16 A2999 RMK AO2 SLP154 T01890161 $","updated":"2025-10-02T04:19:59Z"}
