{"icao":"KORD","metar":"KORD 182151Z 23019G31KT 10SM CLR 17/M12 A2953 RMK AO2 PK WND 25040/2101 SLP999 T01671117","updated":"2026-02-18T22:31:49Z"}
