{"icao":"LPPR","metar":"LPPR 082300Z 00000KT 8000 FEW006 14/14 Q1021","updated":"2025-10-08T23:15:29Z"}
