{"icao":"KORD","metar":"KORD 040851Z 31005KT 10SM BKN022 M08/M12 A3033 RMK AO2 SLP282 T10831122 53004","updated":"2026-02-04T09:42:22Z"}
