{"icao":"KLAX","metar":"KLAX 160053Z 25010KT 10SM FEW050 17/09 A2997 RMK AO2 SLP150 T01720094 $","updated":"2025-10-16T01:20:03Z"}
