{"icao":"LPPD","metar":"LPPD 210600Z 34009KT 8000 -SHRA FEW009 SCT017 BKN030 14/10 Q1027","updated":"2025-12-21T06:28:35Z"}
