{"icao":"KORD","metar":"KORD 131551Z 24013G24KT 10SM BKN100 BKN130 05/M01 A2959 RMK AO2 PK WND 25027/1541 SLP025 T00501011 $","updated":"2026-01-13T16:30:55Z"}
