{"icao":"KORD","metar":"KORD 220451Z 35008KT 10SM BKN120 BKN250 05/M02 A3000 RMK AO2 SLP162 T00501017","updated":"2025-11-22T05:17:16Z"}
