{"icao":"KORD","metar":"KORD 152151Z 22010KT 10SM BKN150 BKN250 M04/M13 A2984 RMK AO2 SLP116 T10441133 $","updated":"2026-01-15T22:20:28Z"}
