{"icao":"LPMT","metar":"LPMT 022100Z 36009KT 330V030 CAVOK 20/14 Q1021","updated":"2025-10-02T21:14:36Z"}
