{"icao":"LPPR","metar":"LPPR 242330Z 01004KT 9000 NSC 16/15 Q1020","updated":"2026-05-25T00:03:09Z"}
