{"icao":"LPPS","metar":"LPPS 060130Z 02016KT 360V060 9999 SCT015 SCT030 15/06 Q1025","updated":"2026-01-06T01:40:50Z"}
