{"icao":"LPFR","metar":"LPFR 021700Z 24005KT 190V270 CAVOK 20/15 Q1018","updated":"2026-04-02T17:04:48Z"}
