{"icao":"LPPT","metar":"LPPT 211800Z 27006KT 230V310 9999 -DZ FEW010 BKN015 21/18 Q1015","updated":"2025-10-21T18:25:36Z"}
