{"icao":"LPCS","metar":"LPCS 271900Z 07013KT 030V100 9999 FEW012 BKN018 FEW020TCU 09/08 Q1006","updated":"2025-12-27T19:14:17Z"}
