{"icao":"KJFK","metar":"KJFK 180451Z 30016G25KT 10SM FEW060 FEW075 SCT250 00/M12 A3020 RMK AO2 SLP227 T00001117 400830000","updated":"2026-03-18T04:55:03Z"}
