{"icao":"LPMR","metar":"LPMR 080500Z 17003KT 8000 FEW020 BKN028 06/05 Q1031","updated":"2026-01-08T05:23:51Z"}
