{"icao":"LPPS","metar":"LPPS 191430Z 12011KT 9999 SCT015 18/10 Q1026","updated":"2026-02-19T14:48:30Z"}
