{"icao":"KORD","metar":"KORD 211151Z 26007KT 10SM BKN018 M03/M08 A3005 RMK AO2 SLP186 T10331078 11028 21039 53018 $","updated":"2026-02-21T12:44:21Z"}
