{"icao":"KLAX","metar":"KLAX 172153Z 26012G19KT 10SM FEW070 21/12 A2998 RMK AO2 SLP150 T02110122","updated":"2026-04-17T22:54:11Z"}
