{"icao":"KJFK","metar":"KJFK 290151Z 28016KT 10SM FEW040 SCT120 SCT250 M08/M17 A3005 RMK AO2 SLP174 T10781167 $","updated":"2026-01-29T01:56:14Z"}
