{"icao":"LPLA","metar":"LPLA 171229Z 22023G34KT 190V260 8000 -DZ SCT005 BKN011 OVC020 20/18 Q1018 REDZRA","updated":"2025-12-17T12:41:56Z"}
