{"icao":"LPFR","metar":"LPFR 110800Z 03005KT 9999 FEW007 15/14 Q1015","updated":"2025-11-11T08:24:32Z"}
