{"icao":"LPOV","metar":"LPOV 271800Z VRB02KT CAVOK 16/12 Q1020","updated":"2025-10-27T18:26:57Z"}
