{"icao":"LPPS","metar":"LPPS 060700Z 36003KT 320V050 9999 SCT011 SCT030 20/19 Q1021","updated":"2025-10-06T07:18:12Z"}
