{"icao":"KORD","metar":"KORD 221351Z 28009G21KT 10SM OVC026 08/03 A2979 RMK AO2 PK WND 28026/1304 SLP091 T00780028","updated":"2025-10-22T14:20:19Z"}
