{"icao":"LPPT","metar":"LPPT 041600Z 23006KT 190V300 CAVOK 26/06 Q1020","updated":"2026-04-04T16:34:05Z"}
