{"icao":"LPPR","metar":"LPPR 041500Z 28007KT 230V350 9999 FEW025 SCT030 BKN035 15/09 Q1019","updated":"2025-12-04T15:22:17Z"}
