{"icao":"LPPD","metar":"LPPD 312200Z 23003KT 0200 R30/M0050 -DZ FG VV001 18/18 Q1027","updated":"2026-05-31T22:05:12Z"}
