{"icao":"LPPT","metar":"LPPT 090330Z 31012KT 280V340 9999 SCT010 17/15 Q1019","updated":"2025-10-09T03:35:09Z"}
