{"icao":"LPPT","metar":"LPPT 131400Z 34012KT 300V010 CAVOK 27/12 Q1021","updated":"2025-09-13T14:12:52Z"}
