{"icao":"KORD","metar":"KORD 130951Z 18008KT 10SM SCT080 OVC120 21/12 A3003 RMK AO2 SLP165 T02110117 $","updated":"2025-09-13T10:15:33Z"}
