{"icao":"LPPS","metar":"LPPS 280900Z 06007KT 020V090 9999 SCT015 BKN030 19/13 Q1023","updated":"2025-11-28T09:20:03Z"}
