{"icao":"LPPT","metar":"LPPT 051400Z 24018KT 210V270 9000 SCT020 SCT025 16/13 Q0997 WS R20","updated":"2026-02-05T14:08:18Z"}
