{"icao":"LPFR","metar":"LPFR 151700Z 22009KT CAVOK 16/12 Q1016","updated":"2026-03-15T17:26:33Z"}
