{"icao":"LPFL","metar":"LPFL 151930Z 19011G24KT 140V270 9999 FEW020 16/10 Q1018","updated":"2026-04-15T23:40:27Z"}
