{"icao":"LPFR","metar":"LPFR 171530Z 14013KT 9999 FEW015 SCT020 17/13 Q1010","updated":"2026-03-17T16:04:25Z"}
