{"icao":"LPMA","metar":"LPMA 250300Z 36007KT 320V030 9999 FEW015 17/11 Q1025","updated":"2025-11-25T03:13:52Z"}
