{"icao":"LPHR","metar":"LPHR 181100Z 27013KT 6000 VCSH SCT004 SCT006 BKN012 22/22 Q1014","updated":"2025-10-18T11:13:14Z"}
