{"icao":"LPOV","metar":"LPOV 100200Z 19015KT 7000 -RA BKN002 SCT012CB 15/15 Q1011 RESHRA","updated":"2026-02-10T02:23:17Z"}
