{"icao":"LPPR","metar":"LPPR 131000Z 00000KT CAVOK 23/14 Q1017","updated":"2025-10-13T10:20:57Z"}
