{"icao":"LPFL","metar":"LPFL 301000Z VRB11G23KT 9999 FEW019 18/10 Q1008","updated":"2025-10-30T10:19:58Z"}
