{"icao":"KJFK","metar":"KJFK 191651Z 30012G18KT 280V350 10SM FEW050 SCT250 29/14 A2997 RMK AO2 SLP148 T02890139 $","updated":"2025-09-19T17:14:56Z"}
