{"icao":"KORD","metar":"KORD 160551Z 34004KT 10SM CLR 19/17 A3017 RMK AO2 SLP213 T01890167 10244 20189 402830183 55004 $","updated":"2025-09-16T06:26:36Z"}
