{"icao":"KLAX","metar":"KLAX 240553Z 24004KT 10SM FEW004 SCT032 BKN055 20/18 A2991 RMK AO2 SLP125 T02000183 10222 20200 51014 $","updated":"2025-09-24T06:26:55Z"}
