{"icao":"LPFL","metar":"LPFL 161830Z 20007KT 140V240 9999 FEW017 19/12 Q1027","updated":"2026-05-16T19:01:50Z"}
