{"icao":"LPPD","metar":"LPPD 210600Z 22016KT 8000 SCT005 BKN008 22/22 Q1014","updated":"2025-10-21T06:27:35Z"}
