{"icao":"LPPT","metar":"LPPT 111500Z 08007KT 040V130 CAVOK 28/10 Q1017","updated":"2025-10-11T15:14:43Z"}
