{"icao":"LPMT","metar":"LPMT 301900Z 34008KT CAVOK 17/08 Q1026","updated":"2026-03-30T19:58:02Z"}
