{"icao":"LPMA","metar":"LPMA 021530Z 02014KT 340V050 9999 FEW016 21/10 Q1022","updated":"2026-04-02T16:00:03Z"}
