{"icao":"LPCS","metar":"LPCS 071500Z 33008KT 290V360 9999 FEW018 23/15 Q1022","updated":"2025-10-07T15:19:06Z"}
