{"icao":"LPLA","metar":"LPLA 040700Z 26019G29KT 9999 FEW030 17/12 Q0996","updated":"2026-02-04T07:42:50Z"}
