{"icao":"LPPT","metar":"LPPT 020100Z 33004KT CAVOK 20/11 Q1020","updated":"2025-10-02T01:16:41Z"}
