{"icao":"LPPR","metar":"LPPR 280300Z 36003KT CAVOK 17/14 Q1019","updated":"2026-05-28T03:28:25Z"}
