{"icao":"LPPD","metar":"LPPD 212000Z 03005KT 350V070 9999 FEW016 SCT025 15/13 Q1032","updated":"2025-11-21T20:21:24Z"}
