{"icao":"LPAZ","metar":"LPAZ 270600Z 28031KT 9999 FEW026 SCT042 14/10 Q1011","updated":"2026-01-27T06:34:02Z"}
