{"icao":"KORD","metar":"KORD 290816Z 26018G34KT 1 3/4SM -SN BLSN OVC019 M08/M12 A2964 RMK AO2 PK WND 27040/0804 P0000 T10831122 $","updated":"2025-12-29T08:30:16Z"}
