{"icao":"LPMA","metar":"LPMA 110230Z 35006KT 300V020 9999 SCT015 BKN030 21/13 Q1021","updated":"2025-10-11T02:52:19Z"}
