{"icao":"LPFR","metar":"LPFR 201900Z 25006KT CAVOK 27/16 Q1013","updated":"2026-06-20T19:23:45Z"}
