{"icao":"LPMT","metar":"LPMT 062100Z 35011KT CAVOK 12/08 Q1019","updated":"2026-03-06T21:28:06Z"}
