{"icao":"KORD","metar":"KORD 260851Z 24020G33KT 10SM BKN028 OVC032 03/M03 A2971 RMK AO2 PK WND 24036/0817 SLP062 T00281033 56001","updated":"2025-11-26T09:22:07Z"}
