{"icao":"LPCS","metar":"LPCS 311000Z VRB02KT CAVOK 22/08 Q1026","updated":"2026-03-31T10:10:01Z"}
