{"icao":"LPPR","metar":"LPPR 241630Z 29004KT 260V350 9999 FEW013 24/16 Q1020","updated":"2026-05-24T16:58:48Z"}
