{"icao":"LPOV","metar":"LPOV 200700Z 13003KT 090V170 0800 FG OVC002 17/17 Q1020","updated":"2025-09-20T07:15:12Z"}
