{"icao":"LPPD","metar":"LPPD 191100Z 26011KT 4000 -SHRA BR SCT003 BKN006 22/22 Q1016","updated":"2025-10-19T11:13:01Z"}
