{"icao":"KJFK","metar":"KJFK 141151Z 26008KT 10SM SCT200 BKN250 24/17 A2990 RMK AO2 SLP123 T02440167 10244 20200 53010 $","updated":"2026-06-14T11:56:19Z"}
