{"icao":"LPCS","metar":"LPCS 041300Z 35017KT 9999 FEW014 23/16 Q1023","updated":"2025-10-04T13:19:38Z"}
