{"icao":"LPMA","metar":"LPMA 130800Z 30008KT 270V360 9999 SCT015 FEW018CB 15/09 Q1017","updated":"2026-01-13T08:29:25Z"}
