{"icao":"LPPD","metar":"LPPD 030800Z 04010KT 010V080 9999 FEW020 15/10 Q1021","updated":"2026-05-03T08:06:52Z"}
