{"icao":"LPFR","metar":"LPFR 100500Z 28003KT CAVOK 14/13 Q1013","updated":"2026-04-10T05:23:48Z"}
