{"icao":"LPPT","metar":"LPPT 301030Z VRB04KT 9999 SCT020 17/13 Q1017","updated":"2026-04-30T10:53:59Z"}
