{"icao":"LPPS","metar":"LPPS 200330Z 34009KT 9999 SCT014 14/08 Q1026","updated":"2026-01-20T03:42:54Z"}
