{"icao":"KLAX","metar":"KLAX 280653Z 00000KT 10SM CLR 17/16 A2994 RMK AO2 SLP137 T01720156 $","updated":"2025-10-28T07:17:45Z"}
