{"icao":"KJFK","metar":"KJFK 232351Z 07010KT 4SM -RA BR FEW020 BKN055 OVC075 10/08 A3047 RMK AO2 SLP317 P0013 60048 T01000083 10139 20100 56003","updated":"2026-05-23T23:56:09Z"}
