{"icao":"LPPR","metar":"LPPR 030500Z 11007KT CAVOK 11/09 Q1023","updated":"2025-11-03T05:18:54Z"}
