{"icao":"LPLA","metar":"LPLA 092200Z 22017KT 9000 -DZ SCT007 SCT014 BKN030 18/16 Q1008","updated":"2026-02-09T22:34:24Z"}
