{"icao":"LPCS","metar":"LPCS 131100Z VRB01KT 9000 -RA FEW014 FEW020TCU SCT024 12/12 Q1009","updated":"2026-01-13T11:19:11Z"}
