{"icao":"LPFL","metar":"LPFL 191730Z 35007KT 260V060 9999 FEW021 18/11 Q1016","updated":"2026-02-19T17:49:12Z"}
