{"icao":"LPPT","metar":"LPPT 270730Z 07008KT 040V100 CAVOK 22/13 Q1020","updated":"2026-05-27T08:01:53Z"}
