{"icao":"LPMT","metar":"LPMT 301600Z 34011KT 320V020 CAVOK 27/15 Q1020","updated":"2026-05-30T17:02:15Z"}
