{"icao":"KORD","metar":"KORD 201511Z 26020G32KT 10SM SCT010 OVC016 01/M02 A2941 RMK AO2 PK WND 25032/1509 SNE09 P0000 T00061017","updated":"2026-02-20T15:36:26Z"}
