{"icao":"LPMR","metar":"LPMR 120900Z 17006KT 140V200 9999 SCT021 FEW022CB 19/13 Q1018","updated":"2026-05-12T09:36:46Z"}
