{"icao":"LPPR","metar":"LPPR 081200Z 02005KT 350V080 9999 SCT023 17/11 Q1023","updated":"2025-11-08T12:33:06Z"}
