{"icao":"LPPD","metar":"LPPD 231130Z 19022G32KT 9000 SCT013 BKN035 17/15 Q1014","updated":"2026-02-23T11:38:53Z"}
