{"icao":"KORD","metar":"KORD 121051Z 22011G19KT 10SM BKN240 M02/M08 A3014 RMK AO2 SLP214 T10221078 $","updated":"2026-01-12T11:20:02Z"}
