{"icao":"LPFL","metar":"LPFL 212100Z VRB17G30KT 9999 SCT013 18/15 Q1015 WS ALL RWY","updated":"2026-01-21T22:23:51Z"}
