{"icao":"LPPT","metar":"LPPT 070630Z 18016KT 5000 RADZ BR FEW008 BKN012 11/10 Q1007","updated":"2026-02-07T06:40:14Z"}
