{"icao":"KJFK","metar":"KJFK 021651Z 31011KT 10SM FEW250 M02/M13 A3000 RMK SLP158 T10221128 PNO $ ","updated":"2026-02-02T17:37:20Z"}
