{"icao":"KJFK","metar":"KJFK 070951Z 27006KT 10SM FEW250 M01/M04 A3006 RMK AO2 SLP180 T10061039 $","updated":"2025-12-07T10:17:36Z"}
