{"icao":"LPPS","metar":"LPPS 241000Z 06006KT 020V090 9999 SCT015 19/14 Q1027","updated":"2025-11-24T10:21:58Z"}
