{"icao":"LPPT","metar":"LPPT 252100Z 32008KT CAVOK 13/12 Q1019","updated":"2026-02-25T21:33:48Z"}
