{"icao":"KJFK","metar":"KJFK 302251Z 31014G23KT 10SM FEW055 FEW250 M09/M20 A3017 RMK AO2 SLP214 T10891200 $","updated":"2026-01-30T23:24:02Z"}
