{"icao":"LPPD","metar":"LPPD 261900Z 04014G26KT 010V080 9999 SCT018 FEW020TCU SCT030 18/14 Q1019","updated":"2025-10-26T19:13:41Z"}
