{"icao":"LPCS","metar":"LPCS 211400Z 22006KT 180V260 CAVOK 33/10 Q1017","updated":"2026-06-21T14:07:34Z"}
