{"icao":"LPMR","metar":"LPMR 301600Z 31005KT 270V340 9999 FEW025 14/07 Q1020","updated":"2025-12-30T16:26:00Z"}
