{"icao":"LPFL","metar":"LPFL 112100Z 20017G30KT 170V240 9999 BKN015 17/13 Q1013","updated":"2026-02-12T04:56:37Z"}
