{"icao":"LPPT","metar":"LPPT 170900Z 27003KT 210V310 9999 FEW015 FEW025TCU 09/07 Q1014","updated":"2026-01-17T09:19:11Z"}
