{"icao":"LPPT","metar":"LPPT 090500Z 00000KT CAVOK 11/10 Q1021","updated":"2025-11-09T05:16:49Z"}
