{"icao":"LPPD","metar":"LPPD 180300Z 31003KT 270V010 9999 BKN022 18/16 Q1025","updated":"2025-11-18T03:11:13Z"}
