{"icao":"LPPT","metar":"LPPT 301300Z 06005KT 330V110 9999 FEW045 27/14 Q1018","updated":"2025-09-30T13:27:41Z"}
