{"icao":"KLAX","metar":"KLAX 162015Z 27012G21KT 3SM -RA BR FEW008 SCT012 OVC036 13/12 A2974 RMK AO2 PRESFR P0009 T01330117 $","updated":"2026-02-16T20:29:33Z"}
