{"icao":"LPST","metar":"LPST 021600Z 28007KT CAVOK 22/16 Q1021","updated":"2025-10-03T06:25:48Z"}
