{"icao":"LPLA","metar":"LPLA 040800Z 36009KT 9999 FEW016 BKN022 14/11 Q1020","updated":"2026-01-04T08:26:16Z"}
