{"icao":"LPMR","metar":"LPMR 210100Z 35004KT CAVOK 08/03 Q1025","updated":"2025-11-21T01:23:08Z"}
