{"icao":"LPCS","metar":"LPCS 021700Z 36022KT 9999 FEW015 18/08 Q1020","updated":"2026-04-02T17:04:49Z"}
