{"icao":"KLAX","metar":"KLAX 230053Z 26007KT 10SM FEW085 SCT150 BKN220 16/12 A2995 RMK AO2 SLP143 T01610122 $","updated":"2026-01-23T01:41:46Z"}
