{"icao":"LPHR","metar":"LPHR 251300Z 17015KT 9999 SCT020 22/18 Q1013","updated":"2025-09-25T13:28:18Z"}
