{"icao":"LPOV","metar":"LPOV 130500Z 36001KT CAVOK 12/09 Q1015","updated":"2025-10-13T05:17:45Z"}
