{"icao":"KLAX","metar":"KLAX 060353Z 16003KT 10SM FEW150 SCT250 18/13 A3008 RMK AO2 SLP183 T01830128","updated":"2026-02-06T04:20:47Z"}
