{"icao":"KLAX","metar":"KLAX 211502Z 00000KT 3SM BCFG BR FEW001 SCT005 16/16 A3003 RMK AO2 T01610161","updated":"2025-10-21T15:19:24Z"}
