{"icao":"LPAZ","metar":"LPAZ 202130Z 33015KT 9999 SCT033 12/04 Q1016","updated":"2026-04-20T21:44:46Z"}
