{"icao":"KJFK","metar":"KJFK 310451Z 32009KT 10SM FEW050 SCT250 M12/M19 A3021 RMK AO2 SLP228 T11171194 410781128 $","updated":"2026-01-31T05:37:38Z"}
