{"icao":"LPPR","metar":"LPPR 312200Z 16011KT 9999 FEW018 SCT028 12/09 Q1017","updated":"2026-01-31T22:20:57Z"}
