{"icao":"LPHR","metar":"LPHR 241000Z 18015KT 6000 RA SCT007 BKN011 BKN030 16/15 Q1010","updated":"2026-04-24T10:19:56Z"}
