{"icao":"LPLA","metar":"LPLA 171800Z 35011KT 8000 -DZ SCT003 BKN006 BKN012 14/13 Q1018","updated":"2026-04-17T18:58:34Z"}
