{"icao":"LPFR","metar":"LPFR 111100Z 23007KT 170V270 9999 FEW025 18/15 Q1012","updated":"2026-04-11T11:28:49Z"}
