{"icao":"KJFK","metar":"KJFK 212251Z 02007KT 10SM BKN045 BKN250 07/M01 A3004 RMK AO2 SLP173 T00671011 $","updated":"2026-02-21T23:22:25Z"}
