{"icao":"KLAX","metar":"KLAX 080453Z 23005KT 10SM BKN015 18/15 A2991 RMK AO2 SLP125 T01780150 $","updated":"2025-10-08T05:17:23Z"}
