{"icao":"LPPS","metar":"LPPS 031230Z 27016KT 9999 FEW014 18/13 Q1015","updated":"2026-02-03T12:57:31Z"}
