{"icao":"LPHR","metar":"LPHR 162100Z 35020G31KT 310V020 9999 FEW014 SCT030 13/08 Q1017","updated":"2026-03-16T22:31:28Z"}
