{"icao":"LPPT","metar":"LPPT 252300Z 01004KT 320V050 CAVOK 19/02 Q1018","updated":"2025-09-25T23:15:40Z"}
