{"icao":"LPHR","metar":"LPHR 071900Z 19014KT 9999 SCT018 BKN040 19/16 Q1019","updated":"2025-11-07T19:15:27Z"}
