{"icao":"LPPR","metar":"LPPR 152130Z 34011KT CAVOK 13/09 Q1017","updated":"2026-05-15T21:57:56Z"}
