{"icao":"KLAX","metar":"KLAX 231453Z 09011KT 5SM BR FEW009 SCT015 OVC120 15/13 A2993 RMK AO2 SLP135 T01500133 55001 $","updated":"2025-12-23T15:21:04Z"}
