{"icao":"LPOV","metar":"LPOV 260100Z VRB02KT 8000 MIFG NSC 13/13 Q1016","updated":"2025-10-26T01:26:10Z"}
