{"icao":"LPOV","metar":"LPOV 010800Z 08012KT CAVOK 16/04 Q1025","updated":"2026-04-01T09:02:16Z"}
