{"icao":"LPPT","metar":"LPPT 081230Z 22013KT 9999 SCT025 14/09 Q1016","updated":"2026-02-08T12:47:21Z"}
