{"icao":"LPMR","metar":"LPMR 250500Z 01007KT 9999 FEW018 SCT033 BKN045 11/06 Q1021","updated":"2025-11-25T05:18:51Z"}
