{"icao":"KORD","metar":"KORD 102151Z 32012G16KT 10SM SCT090 BKN250 18/M05 A3008 RMK AO2 SLP188 T01781050 $","updated":"2026-05-10T22:45:19Z"}
