{"icao":"KORD","metar":"KORD 052051Z 31013G21KT 10SM FEW035 12/M06 A3015 RMK AO2 SLP212 T01171061 58003 $","updated":"2026-04-05T21:30:30Z"}
