{"icao":"LPPT","metar":"LPPT 150430Z 28005KT 9999 FEW022 BKN027 11/08 Q1030","updated":"2026-02-15T04:52:41Z"}
