{"icao":"LPFR","metar":"LPFR 140800Z 34006KT 9999 FEW035 10/08 Q1019","updated":"2026-01-14T08:29:03Z"}
