{"icao":"LPPR","metar":"LPPR 220500Z 07004KT CAVOK 05/02 Q1030","updated":"2025-11-22T05:16:58Z"}
