{"icao":"KORD","metar":"KORD 030951Z 22010KT 10SM SCT250 07/M02 A2994 RMK AO2 SLP138 T00721017","updated":"2026-05-03T10:02:54Z"}
