{"icao":"KJFK","metar":"KJFK 230851Z 01004KT 10SM FEW065 SCT250 07/06 A2996 RMK SLP143 T00720061 55005 ","updated":"2026-04-23T09:26:20Z"}
