{"icao":"KJFK","metar":"KJFK 210651Z 22011KT 10SM BKN100 BKN230 03/M01 A3001 RMK AO2 SLP163 T00331006 $","updated":"2025-12-21T07:18:12Z"}
