{"icao":"LPBJ","metar":"LPBJ 241800Z 15006KT CAVOK 18/11 Q1016","updated":"2026-02-24T19:00:13Z"}
