{"icao":"LPFR","metar":"LPFR 152000Z 08005KT 040V100 CAVOK 23/17 Q1015","updated":"2025-10-15T20:20:11Z"}
