{"icao":"LPHR","metar":"LPHR 222000Z 19017KT 9999 FEW009 SCT013 BKN033 17/16 Q1018","updated":"2026-02-22T20:25:58Z"}
