{"icao":"LPFR","metar":"LPFR 070300Z 02004KT CAVOK 13/10 Q1018","updated":"2025-11-07T03:09:13Z"}
