{"icao":"LPST","metar":"LPST 081600Z 11011KT 9999 SCT025 17/07 Q1017","updated":"2026-04-09T05:08:06Z"}
