{"icao":"KLAX","metar":"KLAX 160153Z 25011KT 10SM SCT013 18/13 A2993 RMK AO2 SLP132 T01780133","updated":"2026-05-16T02:47:55Z"}
