{"icao":"LPPS","metar":"LPPS 211700Z 06009KT 030V090 9999 SCT015 17/11 Q1025","updated":"2026-02-21T17:24:20Z"}
