{"icao":"LPPD","metar":"LPPD 282230Z 15009KT 9999 -RA FEW006 SCT015 BKN035 16/15 Q1012","updated":"2026-04-28T22:57:18Z"}
