{"icao":"LPPT","metar":"LPPT 092100Z 32009KT CAVOK 18/14 Q1020","updated":"2025-10-09T21:15:38Z"}
