{"icao":"KORD","metar":"KORD 150551Z 25003KT 10SM FEW060 13/08 A2999 RMK AO2 SLP156 T01330078 10206 20133 402110133 53002 $","updated":"2026-06-15T06:21:59Z"}
