{"icao":"KJFK","metar":"KJFK 311351Z 25009KT 10SM FEW200 SCT250 18/06 A3006 RMK AO2 SLP177 T01780061 $","updated":"2026-05-31T14:43:10Z"}
