{"icao":"LPLA","metar":"LPLA 312000Z 14009KT 9999 FEW007 21/18 Q1025","updated":"2026-05-31T20:58:18Z"}
