{"icao":"LPPR","metar":"LPPR 311300Z 13006KT 080V170 CAVOK 13/06 Q1018","updated":"2025-12-31T13:31:34Z"}
