{"icao":"LPMA","metar":"LPMA 262030Z 36012KT 330V060 9999 BKN015 16/11 Q1025","updated":"2026-02-26T20:36:18Z"}
