{"icao":"KJFK","metar":"KJFK 240651Z 27010KT 10SM BKN080 08/M01 A3005 RMK AO2 SLP174 T00781006","updated":"2025-11-24T07:19:02Z"}
