{"icao":"KJFK","metar":"KJFK 201751Z 34016G24KT 10SM SCT055 BKN085 BKN120 12/M03 A3015 RMK SLP209 VIRGA E T01171033 10122 20061 58003 ","updated":"2026-04-20T17:56:48Z"}
