{"icao":"KLAX","metar":"KLAX 051653Z 13003KT 10SM FEW012 20/15 A2984 RMK AO2 SLP104 T02000150 $","updated":"2025-10-05T17:13:17Z"}
