{"icao":"LPHR","metar":"LPHR 091830Z 02006KT 310V110 9999 FEW014 SCT030 16/09 Q1020","updated":"2026-05-09T18:59:29Z"}
