{"icao":"KLAX","metar":"KLAX 171953Z 12008KT 10SM R25L/3000VP6000FT SCT021 BKN055 OVC070 18/13 A2989 RMK AO2 SLP122 T01780128 $","updated":"2025-11-17T20:21:39Z"}
