{"icao":"LPLA","metar":"LPLA 120600Z 14003KT 110V180 9999 FEW015 BKN023 14/12 Q1030","updated":"2026-03-12T06:53:50Z"}
