{"icao":"LPPT","metar":"LPPT 041430Z 32014KT 290V350 9999 SCT038 22/11 Q1018","updated":"2026-06-04T14:56:39Z"}
