{"icao":"LPHR","metar":"LPHR 040700Z 08006KT 060V130 9999 SCT010 BKN025 14/11 Q1020","updated":"2026-01-04T07:20:22Z"}
