{"icao":"KORD","metar":"KORD 060551Z 01010KT 10SM FEW110 SCT140 BKN250 09/M04 A2985 RMK AO2 SLP108 T00941039 10128 20078 401610078 53010","updated":"2026-05-06T05:56:55Z"}
