{"icao":"LPLA","metar":"LPLA 201300Z 07008KT 040V110 9999 FEW028 18/10 Q1031","updated":"2025-11-20T13:29:03Z"}
