{"icao":"KLAX","metar":"KLAX 252153Z 24014G22KT 10SM FEW019 19/12 A2993 RMK AO2 SLP133 T01940122 $","updated":"2026-05-25T22:07:16Z"}
