{"icao":"LPMA","metar":"LPMA 080600Z 01006KT 320V030 9999 SCT015 14/10 Q1033","updated":"2026-01-08T06:33:27Z"}
