{"icao":"LPLA","metar":"LPLA 040900Z 29017KT 4000 -RADZ SCT006 BKN014 BKN022 17/15 Q1023","updated":"2026-03-04T09:39:17Z"}
