{"icao":"LPAZ","metar":"LPAZ 122100Z 23005KT 9999 SCT022 21/17 Q1018","updated":"2025-10-12T21:14:21Z"}
