{"icao":"LPPR","metar":"LPPR 110430Z 19012KT 5000 -RADZ BR BKN002 14/14 Q1012","updated":"2026-02-11T05:01:33Z"}
