{"icao":"LPPT","metar":"LPPT 291100Z VRB06KT CAVOK 22/15 Q1017","updated":"2025-09-29T11:14:33Z"}
