{"icao":"LPBJ","metar":"LPBJ 260400Z 28002KT 9999 SCT006 SCT020 17/17 Q1015","updated":"2025-10-26T04:19:56Z"}
