{"icao":"KORD","metar":"KORD 191751Z 28012G24KT 10SM FEW023 M17/M24 A3021 RMK AO2 PK WND 29030/1711 SLP244 4/001 60000 T11671239 11161 21183 51026 $","updated":"2026-01-19T18:31:03Z"}
