{"icao":"LPMA","metar":"LPMA 291330Z 11004KT 9999 FEW014 21/15 Q1022","updated":"2026-01-29T13:59:57Z"}
