{"icao":"LPFR","metar":"LPFR 261400Z 24013KT 7000 FEW010 BKN042 16/15 Q1016","updated":"2026-01-26T14:27:27Z"}
