{"icao":"LPPR","metar":"LPPR 241000Z 11006KT 070V150 9999 FEW024 BKN034 17/15 Q1017","updated":"2025-10-24T10:20:05Z"}
