{"icao":"LPAR","metar":"LPAR 291200Z 07006KT 040V120 9999 FEW035 26/14 Q1016","updated":"2025-09-29T12:37:43Z"}
