{"icao":"LPFR","metar":"LPFR 121800Z 27006KT 9999 FEW030 23/16 Q1014","updated":"2025-10-12T18:21:43Z"}
