{"icao":"LPST","metar":"LPST 261100Z VRB04KT CAVOK 23/07 Q1020","updated":"2025-09-26T11:14:08Z"}
