{"icao":"LPMT","metar":"LPMT 230900Z VRB03KT CAVOK 11/08 Q1027","updated":"2025-11-23T09:17:33Z"}
