{"icao":"LPMA","metar":"LPMA 211930Z 02011KT 9999 SCT016 BKN030 19/15 Q1019","updated":"2026-05-21T19:56:18Z"}
