{"icao":"LPAZ","metar":"LPAZ 251100Z 21007KT 170V240 9999 FEW022 23/16 Q1018","updated":"2025-09-25T11:15:19Z"}
