{"icao":"LPMR","metar":"LPMR 100500Z 15003KT 2000 BR FEW003 06/05 Q1029","updated":"2026-01-10T05:19:41Z"}
