{"icao":"KJFK","metar":"KJFK 231851Z 06008KT 10SM -RA FEW050 BKN065 OVC110 12/07 A3047 RMK AO2 SLP318 P0001 T01220067","updated":"2026-05-23T19:23:32Z"}
