{"icao":"LPPR","metar":"LPPR 220200Z 19004KT 9999 FEW018 BKN035 13/12 Q1010","updated":"2026-04-22T02:28:45Z"}
