{"icao":"LPAZ","metar":"LPAZ 201030Z 02026G40KT 9999 FEW018 SCT020 FEW022TCU 15/11 Q1003","updated":"2026-03-20T10:36:35Z"}
