{"icao":"LPCS","metar":"LPCS 011000Z VRB02KT CAVOK 14/07 Q1022","updated":"2026-03-01T10:23:37Z"}
