{"icao":"LPMR","metar":"LPMR 212200Z VRB01KT CAVOK 21/11 Q1020","updated":"2026-05-21T23:02:05Z"}
