{"icao":"KJFK","metar":"KJFK 070251Z 30007KT 10SM FEW250 03/M04 A2996 RMK AO2 SLP146 T00281039 51011 $","updated":"2025-12-07T03:26:07Z"}
