{"icao":"LPOV","metar":"LPOV 150900Z 36009KT CAVOK 12/08 Q1020","updated":"2026-03-15T09:32:35Z"}
