{"icao":"LPOV","metar":"LPOV 131800Z 23008KT 3000 -RADZ BR SCT004 BKN006 BKN018 13/13 Q1019 RERADZ","updated":"2026-03-13T18:40:37Z"}
