{"icao":"LPCS","metar":"LPCS 181500Z 02010KT 350V050 9999 FEW020 SCT032 12/05 Q1013","updated":"2026-01-18T15:17:59Z"}
