{"icao":"LPOV","metar":"LPOV 140500Z 09003KT 360V130 9999 TS SCT035 SCT045CB 18/18 Q1015","updated":"2026-06-14T05:47:01Z"}
