{"icao":"LPBJ","metar":"LPBJ 281600Z 02012KT 350V050 CAVOK 21/06 Q1020","updated":"2026-03-28T16:32:32Z"}
