{"icao":"LPOV","metar":"LPOV 271400Z 27009KT 230V310 9999 -SHRA SCT022 FEW025CB SCT040 11/07 Q0999 RESHRAGS","updated":"2026-01-27T14:28:20Z"}
