{"icao":"LPFL","metar":"LPFL 201330Z 27018G37KT 200V340 9999 FEW016 18/12 Q1023","updated":"2026-01-20T13:45:56Z"}
