{"icao":"KLAX","metar":"KLAX 031221Z 22003KT 2 1/2SM BR SCT003 OVC005 16/14 A3003 RMK AO2 T01560144 $","updated":"2025-11-03T12:38:54Z"}
