{"icao":"LPPD","metar":"LPPD 061330Z 11006KT 070V130 9999 FEW025 BKN045 16/06 Q1034","updated":"2026-01-06T13:36:44Z"}
