{"icao":"LPPT","metar":"LPPT 021230Z 16011KT 9999 BKN018 15/11 Q1010","updated":"2026-03-02T12:56:04Z"}
