{"icao":"KLAX","metar":"KLAX 041853Z 00000KT 10SM CLR 27/M02 A3014 RMK AO2 SLP206 T02721017 $","updated":"2026-02-04T19:37:21Z"}
