{"icao":"LPOV","metar":"LPOV 081900Z 33004KT 7000 NSC 16/15 Q1021","updated":"2025-10-08T19:13:36Z"}
