{"icao":"LPCS","metar":"LPCS 031900Z 00000KT CAVOK 15/12 Q1021","updated":"2025-11-03T23:16:04Z"}
