{"icao":"LPPR","metar":"LPPR 131030Z 19009KT 170V240 9000 -SHRA SCT009 BKN020 BKN032 12/11 Q1021","updated":"2026-04-13T10:43:36Z"}
