{"icao":"LPOV","metar":"LPOV 112200Z VRB01KT CAVOK 15/13 Q1018","updated":"2025-10-11T22:14:36Z"}
