{"icao":"LPLA","metar":"LPLA 190300Z 35005KT 9999 BKN030 14/08 Q1031","updated":"2026-01-19T03:49:14Z"}
