{"icao":"KORD","metar":"KORD 242251Z 03013KT 10SM SCT027 SCT037 BKN250 20/14 A3001 RMK AO2 SLP159 T02000139","updated":"2025-09-24T23:16:12Z"}
