{"icao":"LPPT","metar":"LPPT 180900Z VRB02KT 0450 R20/0450N PRFG FEW001 SCT002 BKN010 09/09 Q1022","updated":"2025-12-18T09:25:43Z"}
