{"icao":"LPPS","metar":"LPPS 021630Z 26008KT 220V300 9999 FEW015 20/14 Q1019","updated":"2026-05-02T16:44:16Z"}
