{"icao":"LPAZ","metar":"LPAZ 181100Z 27012KT 9000 FEW005 24/23 Q1017","updated":"2025-10-18T11:13:14Z"}
