{"icao":"LPMA","metar":"LPMA 150800Z 27004KT 180V320 9999 SCT016 SCT033 22/16 Q1016","updated":"2025-10-15T08:25:26Z"}
