{"icao":"LPPD","metar":"LPPD 241900Z 34003KT 280V010 9999 FEW015 18/16 Q1027","updated":"2025-11-24T19:13:21Z"}
