{"icao":"KORD","metar":"KORD 030051Z 22010KT 7SM OVC008 M07/M09 A3000 RMK AO2 SLP170 T10671089","updated":"2025-12-03T01:26:14Z"}
