{"icao":"LPAZ","metar":"LPAZ 131230Z 32013KT 9999 FEW024 17/10 Q1031","updated":"2026-02-13T12:57:16Z"}
