{"icao":"LPOV","metar":"LPOV 220100Z 21008KT 180V240 5000 BR BKN005 BKN020 19/19 Q1014","updated":"2025-10-22T01:23:24Z"}
