{"icao":"KLAX","metar":"KLAX 160753Z 00000KT 8SM FEW003 14/13 A3006 RMK AO2 SLP178 T01440133 401890133","updated":"2025-12-16T08:28:36Z"}
