{"icao":"KJFK","metar":"KJFK 261751Z 34008KT 6SM -SN BKN015 BKN027 BKN250 M05/M08 A2974 RMK AO2 SLP071 4/008 933010 P0000 60000 T10501078 11050 21061 58022 $","updated":"2026-01-26T18:34:21Z"}
