{"icao":"LPPT","metar":"LPPT 300300Z 00000KT 6000 VCFG SCT001 06/06 Q1021","updated":"2025-12-30T03:26:16Z"}
