{"icao":"LPFR","metar":"LPFR 010600Z 03003KT 360V120 CAVOK 19/15 Q1018","updated":"2025-10-01T06:27:00Z"}
