{"icao":"LPMT","metar":"LPMT 131000Z 30014G25KT 270V330 9999 FEW022CB SCT025 13/08 Q1006","updated":"2026-02-13T10:38:04Z"}
