{"icao":"LPMT","metar":"LPMT 010800Z VRB02KT CAVOK 16/13 Q1019","updated":"2026-05-01T08:59:14Z"}
