{"icao":"LPOV","metar":"LPOV 042000Z 33010KT 310V010 0800 FG OVC002 17/16 Q1023","updated":"2025-10-04T20:16:47Z"}
