{"icao":"KLAX","metar":"KLAX 122053Z 26006KT 10SM FEW140 FEW180 SCT250 22/00 A3015 RMK AO2 SLP211 T02170000 56026 $","updated":"2026-01-12T21:19:59Z"}
