{"icao":"KORD","metar":"KORD 252151Z 34015KT 5SM -SN OVC031 M11/M15 A3008 RMK AO2 SLP200 P0000 T11061150 $","updated":"2026-01-25T22:19:15Z"}
