{"icao":"LPPD","metar":"LPPD 170500Z 19009KT 9999 FEW015 22/19 Q1020","updated":"2025-09-17T05:16:25Z"}
