{"icao":"LPPD","metar":"LPPD 231900Z 24019KT 5000 -SHRA BR FEW005 SCT014 BKN030 15/14 Q1009","updated":"2026-02-23T19:18:27Z"}
