{"icao":"LPMT","metar":"LPMT 030200Z 34003KT CAVOK 13/10 Q1021","updated":"2026-04-03T07:06:13Z"}
