{"icao":"LPPR","metar":"LPPR 081700Z 23005KT 140V270 9999 FEW025 18/06 Q1007","updated":"2026-05-08T17:15:17Z"}
