{"icao":"LPMT","metar":"LPMT 280300Z 26010KT 7000 BKN015 BKN030 19/17 Q1012","updated":"2025-09-28T03:06:43Z"}
