{"icao":"KJFK","metar":"KJFK 182151Z 19013KT 10SM FEW045 FEW250 23/19 A2991 RMK AO2 SLP127 T02280189 $","updated":"2025-09-18T22:13:58Z"}
