{"icao":"LPMA","metar":"LPMA 161430Z 03013KT 360V070 9999 SCT015 FEW016TCU 20/13 Q1023","updated":"2026-05-16T14:55:22Z"}
