{"icao":"LPPR","metar":"LPPR 040530Z 24009KT 200V280 7000 BKN015 OVC020 14/12 Q0990","updated":"2026-02-04T05:47:27Z"}
