{"icao":"LPAR","metar":"LPAR 091400Z 04006KT 350V100 CAVOK 25/15 Q1019","updated":"2025-10-09T14:17:37Z"}
