{"icao":"LPHR","metar":"LPHR 190900Z VRB07G21KT 9999 FEW014 SCT030 16/11 Q1026","updated":"2025-11-19T09:21:00Z"}
