{"icao":"LPPS","metar":"LPPS 022200Z 05007KT 9999 FEW015 SCT030 17/07 Q1027","updated":"2025-12-02T22:16:53Z"}
