{"icao":"LPPT","metar":"LPPT 041230Z 03010KT 360V070 9999 FEW025 16/10 Q1002","updated":"2026-01-04T12:38:09Z"}
