{"icao":"LPMA","metar":"LPMA 060130Z 02018G28KT 9999 SCT015 FEW018TCU 15/08 Q1025","updated":"2026-01-06T01:40:50Z"}
