{"icao":"LPPR","metar":"LPPR 252130Z 01013KT CAVOK 15/06 Q1018","updated":"2026-03-25T21:37:53Z"}
