{"icao":"LPLA","metar":"LPLA 142000Z 28015KT 9999 FEW025 15/07 Q1020","updated":"2026-04-14T20:52:34Z"}
