{"icao":"LPMR","metar":"LPMR 190300Z 15002KT 3500 BR FEW020 SCT035 09/09 Q1017","updated":"2025-11-19T03:10:31Z"}
