{"icao":"KORD","metar":"KORD 290351Z 31008KT 10SM CLR M12/M18 A3023 RMK AO2 SLP251 T11221183","updated":"2026-01-29T04:08:25Z"}
