{"icao":"KORD","metar":"KORD 300651Z 33006KT 10SM SCT033 07/04 A2994 RMK AO2 SLP140 T00670039 $","updated":"2025-10-30T07:18:04Z"}
