{"icao":"KORD","metar":"KORD 222251Z 03025G38KT 10SM -RA BKN018 BKN070 OVC090 01/M03 A2994 RMK AO2 PK WND 02038/2242 RAB48 SLP143 P0000 T00111028","updated":"2026-03-22T23:26:42Z"}
