{"icao":"KLAX","metar":"KLAX 270253Z 23005KT 9SM FEW010 17/15 A2999 RMK AO2 SLP153 T01670150 55001 $","updated":"2025-10-27T03:18:43Z"}
