{"icao":"LPFL","metar":"LPFL 031130Z 21004KT 170V260 9999 FEW022 BKN032 15/09 Q1026","updated":"2026-04-03T11:36:52Z"}
