{"icao":"LPCS","metar":"LPCS 040730Z 31006KT 5000 -RA BR FEW003 SCT010 BKN020 13/13 Q0997 RERA","updated":"2026-02-04T07:42:33Z"}
