{"icao":"LPPR","metar":"LPPR 051000Z 20010KT 8000 -RA SCT005 BKN025 16/16 Q1004","updated":"2025-11-05T10:20:28Z"}
