{"icao":"LPMT","metar":"LPMT 020300Z 14019KT 7000 -RA FEW015 BKN028 14/13 Q1003","updated":"2026-01-02T03:38:48Z"}
