{"icao":"LPMT","metar":"LPMT 251200Z 04004KT 340V100 CAVOK 23/13 Q1016","updated":"2026-04-25T13:01:29Z"}
