{"icao":"LPPR","metar":"LPPR 261800Z 19020G30KT 5000 -RADZ BR BKN006 BKN011 14/13 Q1003","updated":"2026-01-26T18:34:16Z"}
