{"icao":"LPPD","metar":"LPPD 130230Z 22012KT 9999 FEW016 BKN022 15/12 Q1026","updated":"2026-04-13T02:34:44Z"}
