{"icao":"KLAX","metar":"KLAX 121353Z 18009KT 4SM -RA BKN020 BKN027 OVC050 16/13 A2994 RMK AO2 RAB40 SLP137 VIS SW-NW 2 P0000 T01610128 $","updated":"2026-04-12T14:02:01Z"}
