{"icao":"LPBJ","metar":"LPBJ 011200Z 09003KT 030V140 CAVOK 14/05 Q1021","updated":"2025-12-01T12:40:29Z"}
