{"icao":"LPOV","metar":"LPOV 011100Z 20009KT 1100 -DZ BR BKN001 OVC004 14/14 Q1012","updated":"2026-02-01T11:20:00Z"}
