{"icao":"LPBJ","metar":"LPBJ 081000Z 29005KT 250V330 9999 FEW005 11/08 Q1021","updated":"2026-03-08T10:24:09Z"}
