{"icao":"LPMR","metar":"LPMR 131200Z 15013G23KT 2000 RADZ BKN009 FEW020CB BKN030 16/15 Q0999","updated":"2025-11-13T12:40:05Z"}
