{"icao":"KJFK","metar":"KJFK 081851Z 32022G29KT 10SM CLR M09/M21 A3013 RMK AO2 PK WND 31031/1811 SLP202 T10941206 $","updated":"2026-02-08T19:23:48Z"}
