{"icao":"LPLA","metar":"LPLA 021400Z 09014KT 050V110 9999 FEW014 BKN018 17/13 Q1022","updated":"2026-05-02T14:44:42Z"}
