{"icao":"LPPT","metar":"LPPT 140400Z 34009KT 290V010 9999 VCSH SCT035 10/05 Q1021 WS R02","updated":"2026-02-14T04:11:46Z"}
