{"icao":"LPHR","metar":"LPHR 262300Z 12009KT 7000 SCT006 SCT012 BKN020 17/16 Q1020","updated":"2026-04-27T02:40:10Z"}
