{"icao":"KLAX","metar":"KLAX 131105Z 08006KT 10SM FEW010 BKN014 17/14 A2971 RMK AO2 T01670139 $","updated":"2025-10-13T11:15:32Z"}
