{"icao":"LPMA","metar":"LPMA 251500Z 18007KT 120V210 9999 FEW015 22/14 Q1023","updated":"2025-11-25T15:21:32Z"}
