{"icao":"KORD","metar":"KORD 220851Z 22012G18KT 10SM OVC150 20/11 A2953 RMK AO2 SLP995 T02000106 58017","updated":"2026-03-22T09:31:35Z"}
