{"icao":"KJFK","metar":"KJFK 252151Z 20012KT 10SM SCT060 03/M01 A2966 RMK AO2 SLP044 T00281006 $","updated":"2026-02-25T22:32:46Z"}
