{"icao":"LPFL","metar":"LPFL 060930Z 19016KT 160V220 9999 FEW024 15/09 Q1026","updated":"2026-03-06T09:36:54Z"}
