{"icao":"LPFR","metar":"LPFR 280130Z 23015KT 9000 -RA FEW020 14/12 Q1006","updated":"2026-01-28T01:43:58Z"}
