{"icao":"LPBJ","metar":"LPBJ 270700Z VRB01KT 9999 FEW007 10/08 Q1023","updated":"2026-02-27T07:44:40Z"}
