{"icao":"KLAX","metar":"KLAX 151316Z 00000KT 1 1/2SM BR OVC004 13/13 A3011 RMK AO2 VIS 1V2 VIS N 3/4 T01330128","updated":"2025-12-15T13:39:50Z"}
