{"icao":"LPPT","metar":"LPPT 161430Z 34014KT 300V360 9999 FEW045 20/08 Q1017","updated":"2026-05-16T14:54:42Z"}
