{"icao":"LPPT","metar":"LPPT 160530Z 34013G23KT 9999 FEW020 13/09 Q1017","updated":"2026-05-16T05:53:10Z"}
