{"icao":"LPHR","metar":"LPHR 232000Z 31004KT 270V330 9999 FEW025 18/14 Q1026","updated":"2025-11-23T20:20:06Z"}
