{"icao":"LPST","metar":"LPST 100800Z 13002KT 1200 BR SCT002 08/07 Q1020","updated":"2025-12-10T08:27:20Z"}
