{"icao":"LPPD","metar":"LPPD 201200Z 02015KT 350V060 9999 FEW025 21/13 Q1028","updated":"2025-09-20T12:32:31Z"}
