{"icao":"LPFR","metar":"LPFR 202100Z VRB02KT 9999 FEW040 12/08 Q1019","updated":"2026-01-20T21:19:38Z"}
