{"icao":"LPLA","metar":"LPLA 042005Z 29031G44KT 9999 -SHRA SCT025 BKN030 13/09 Q0992","updated":"2026-02-04T20:33:14Z"}
