{"icao":"LPMT","metar":"LPMT 192300Z 26009KT 9999 FEW008 BKN028 20/19 Q1014","updated":"2025-10-19T23:15:34Z"}
