{"icao":"LPST","metar":"LPST 310800Z VRB01KT CAVOK 13/09 Q1026","updated":"2026-03-31T08:58:04Z"}
