{"icao":"LPPR","metar":"LPPR 112000Z 17022KT 4500 -RA BR SCT006 BKN013 16/15 Q1006 RERA","updated":"2025-11-11T20:20:00Z"}
