{"icao":"LPMT","metar":"LPMT 121400Z 23007KT 200V260 9999 FEW018 SCT025 16/12 Q1019","updated":"2026-02-12T14:45:38Z"}
