{"icao":"LPMR","metar":"LPMR 141400Z 33016KT 9999 FEW022 23/16 Q1023","updated":"2025-09-14T14:13:35Z"}
