{"icao":"KJFK","metar":"KJFK 302251Z 29021G32KT 10SM BKN060 M01/M13 A2973 RMK AO2 PK WND 27036/2226 SLP068 T10061133 $","updated":"2025-12-30T23:18:25Z"}
