{"icao":"LPPT","metar":"LPPT 252000Z 35013KT CAVOK 12/07 Q1024","updated":"2025-11-25T20:21:09Z"}
