{"icao":"LPLA","metar":"LPLA 161500Z 25008G21KT 230V290 9999 FEW015 BKN018 24/19 Q1017","updated":"2026-06-16T15:08:47Z"}
