{"icao":"LPLA","metar":"LPLA 270200Z VRB01KT 9999 BKN040 17/14 Q1023","updated":"2026-06-27T02:56:32Z"}
