{"icao":"LPCS","metar":"LPCS 201600Z 22010KT 170V240 9999 FEW016 BKN020 21/17 Q1015","updated":"2025-10-20T16:22:08Z"}
