{"icao":"LPMR","metar":"LPMR 220100Z 24006KT 210V270 9999 BKN005 SCT013 OVC022 20/19 Q1016","updated":"2025-10-22T01:23:25Z"}
