{"icao":"KORD","metar":"KORD 252051Z 30009G17KT 10SM FEW200 FEW250 03/M12 A2970 RMK AO2 SLP063 T00281117 55001","updated":"2026-02-25T21:33:53Z"}
