{"icao":"LPBJ","metar":"LPBJ 141100Z 32015KT 9999 FEW015 12/06 Q1026","updated":"2026-02-14T11:21:01Z"}
