{"icao":"LPPR","metar":"LPPR 232200Z 09003KT 030V120 CAVOK 13/10 Q1019","updated":"2025-09-23T22:15:45Z"}
