{"icao":"LPAZ","metar":"LPAZ 051230Z 06006KT 010V090 9999 FEW032 BKN042 15/07 Q1030","updated":"2026-01-05T12:43:59Z"}
