{"icao":"KJFK","metar":"KJFK 022051Z 02011G24KT 10SM FEW080 FEW210 BKN250 26/01 A3011 RMK AO2 PK WND 03030/2033 SLP197 T02560006 56008 $","updated":"2026-06-02T21:46:56Z"}
