{"icao":"KORD","metar":"KORD 090151Z 14005KT 10SM BKN250 13/06 A2969 RMK AO2 SLP055 T01330061","updated":"2026-05-09T02:43:50Z"}
