{"icao":"LPCS","metar":"LPCS 241000Z 25008KT 220V280 9999 SCT012 SCT026 16/15 Q1020","updated":"2025-11-24T10:21:41Z"}
