{"icao":"KORD","metar":"KORD 140951Z 28010KT 10SM BKN038 OVC046 04/M01 A2958 RMK AO2 SLP021 T00441011 $","updated":"2026-01-14T10:24:22Z"}
