{"icao":"KJFK","metar":"KJFK 100751Z 06006KT 10SM CLR 07/02 A3050 RMK AO2 SLP327 T00720017","updated":"2025-10-10T08:23:19Z"}
