{"icao":"LPPD","metar":"LPPD 261900Z 28033G44KT 9999 FEW020 FEW025CB BKN030 13/07 Q1006","updated":"2026-01-26T19:22:18Z"}
