{"icao":"LPAZ","metar":"LPAZ 280800Z 04007KT 9999 VCSH SCT010 13/13 Q1024","updated":"2025-11-28T08:26:01Z"}
