{"icao":"LPAZ","metar":"LPAZ 152000Z 33014KT 9999 FEW028 BKN046 14/07 Q1029","updated":"2026-01-15T20:24:23Z"}
