{"icao":"LPBJ","metar":"LPBJ 280500Z 25013KT 9999 -RA SCT010 SCT016 17/17 Q1014","updated":"2025-09-28T05:16:20Z"}
