{"icao":"LPPS","metar":"LPPS 282230Z 36007KT 9999 SCT015 SCT030 16/13 Q1016","updated":"2026-04-28T22:57:20Z"}
