{"icao":"LPMA","metar":"LPMA 192300Z 03014KT 9999 BKN016 16/09 Q1028","updated":"2026-02-19T23:28:57Z"}
