{"icao":"LPMT","metar":"LPMT 261400Z 01008KT CAVOK 15/07 Q1024","updated":"2025-11-26T14:19:26Z"}
