{"icao":"LPMA","metar":"LPMA 302330Z 20013KT 9999 BKN015 17/15 Q1018","updated":"2026-04-30T23:51:34Z"}
