{"icao":"LPAZ","metar":"LPAZ 100200Z 01008KT 9999 FEW010 14/11 Q1031","updated":"2026-04-10T02:27:42Z"}
