{"icao":"LPMT","metar":"LPMT 031300Z VRB03KT CAVOK 25/14 Q1022","updated":"2025-10-03T13:24:25Z"}
