{"icao":"LPAR","metar":"LPAR 131300Z 31004KT 300V040 9999 SCT020 18/11 Q1022","updated":"2026-03-13T14:00:19Z"}
