{"icao":"LPFR","metar":"LPFR 162200Z 28005KT CAVOK 21/19 Q1015","updated":"2026-06-16T22:09:39Z"}
