{"icao":"KLAX","metar":"KLAX 102053Z 26010KT 10SM FEW001 FEW120 19/14 A3008 RMK AO2 SLP184 T01940144 58023 $","updated":"2025-11-10T21:16:47Z"}
