{"icao":"LPPR","metar":"LPPR 242000Z 35008KT CAVOK 12/08 Q1017","updated":"2025-11-24T20:21:40Z"}
