{"icao":"LPPS","metar":"LPPS 261630Z 31009KT 280V340 9999 FEW015 SCT030 20/13 Q1020","updated":"2026-05-26T16:41:15Z"}
