{"icao":"LPPT","metar":"LPPT 221000Z 23005KT 9999 FEW025 SCT045 13/09 Q1010","updated":"2026-01-22T10:26:15Z"}
