{"icao":"LPST","metar":"LPST 261200Z 01007KT 330V040 CAVOK 15/04 Q1025","updated":"2025-11-26T12:40:29Z"}
