{"icao":"LPMR","metar":"LPMR 131300Z 32011KT CAVOK 23/13 Q1022","updated":"2025-09-13T13:18:42Z"}
