{"icao":"LPPT","metar":"LPPT 142030Z 31009KT 9999 FEW010 14/12 Q1024","updated":"2026-04-14T20:52:29Z"}
