{"icao":"LPPR","metar":"LPPR 261000Z VRB07G18KT CAVOK 17/09 Q1020","updated":"2025-10-26T10:16:55Z"}
