{"icao":"LPFR","metar":"LPFR 240800Z 06007KT 030V110 CAVOK 21/05 Q1016","updated":"2025-09-24T08:18:45Z"}
