{"icao":"KORD","metar":"KORD 160351Z 20006KT 10SM FEW080 SCT180 SCT250 20/08 A2983 RMK AO2 SLP099 T02000083","updated":"2026-06-16T03:58:21Z"}
