{"icao":"LPAR","metar":"LPAR 051300Z 01013KT 310V050 CAVOK 10/M03 Q1014","updated":"2026-01-05T13:39:52Z"}
