{"icao":"LPLA","metar":"LPLA 241205Z 22013G25KT 160V260 4000 -DZRA SCT010 SCT022 BKN035 15/12 Q1020","updated":"2026-01-24T12:38:38Z"}
