{"icao":"LPPD","metar":"LPPD 022100Z 32020KT 9999 -SHRA SCT012 FEW020TCU SCT030 14/12 Q1005","updated":"2026-01-02T21:15:09Z"}
