{"icao":"KJFK","metar":"KJFK 250951Z 20007KT 10SM SCT110 OVC160 02/M02 A3014 RMK AO2 SLP207 T00171017 $","updated":"2025-12-25T10:20:48Z"}
