{"icao":"LPMA","metar":"LPMA 280500Z 34003KT 290V040 9999 SCT015 21/17 Q1013","updated":"2025-10-28T05:18:46Z"}
