{"icao":"LPPR","metar":"LPPR 301300Z 29005KT 260V320 CAVOK 17/07 Q1031","updated":"2026-03-30T13:16:31Z"}
