{"icao":"LPPT","metar":"LPPT 212100Z 27006KT 9999 -RA FEW015 08/06 Q1010","updated":"2025-12-21T21:16:46Z"}
