{"icao":"KORD","metar":"KORD 200451Z 30010KT 10SM SCT034 BKN100 BKN250 16/10 A3013 RMK AO2 SLP199 T01610100 $","updated":"2026-05-20T05:03:20Z"}
