{"icao":"LPAZ","metar":"LPAZ 212200Z 15007KT 9999 FEW022 BKN049 16/14 Q1026","updated":"2026-02-21T22:22:19Z"}
