{"icao":"LPHR","metar":"LPHR 031630Z 22004KT 190V260 9999 FEW020 BKN035 16/09 Q1024","updated":"2026-04-03T16:39:56Z"}
