{"icao":"LPFR","metar":"LPFR 142200Z 31005KT 260V350 CAVOK 11/07 Q1029","updated":"2026-02-14T22:21:46Z"}
