{"icao":"LPPD","metar":"LPPD 202100Z 27011KT 9999 FEW016 FEW020TCU SCT030 19/17 Q1013","updated":"2026-06-20T21:17:03Z"}
