{"icao":"LPBJ","metar":"LPBJ 192000Z 25007KT CAVOK 21/14 Q1015","updated":"2025-10-19T20:18:22Z"}
