{"icao":"LPMT","metar":"LPMT 141300Z 04010KT CAVOK 16/10 Q1017","updated":"2025-12-14T13:26:01Z"}
