{"icao":"KORD","metar":"KORD 232151Z 29005KT 10SM BKN250 10/01 A3012 RMK AO2 SLP205 T01000011","updated":"2025-12-23T22:18:51Z"}
