{"icao":"KJFK","metar":"KJFK 302051Z 29023G35KT 10SM BKN065 00/M14 A2969 RMK AO2 PK WND 26036/2038 SLP052 VIRGA NW-N T00001139 53006 $","updated":"2025-12-30T21:18:59Z"}
