{"icao":"LPHR","metar":"LPHR 192100Z 06009KT 030V090 9999 FEW025 16/10 Q1028","updated":"2025-11-19T21:14:34Z"}
