{"icao":"LPMA","metar":"LPMA 240900Z VRB06KT 9999 SCT015 SCT030 21/11 Q1021","updated":"2025-09-24T09:18:54Z"}
