{"icao":"KJFK","metar":"KJFK 262251Z 20003KT 10SM FEW050 BKN100 BKN250 03/M01 A2988 RMK AO2 SLP118 T00281011 $","updated":"2026-02-26T23:28:42Z"}
