{"icao":"LPPR","metar":"LPPR 031100Z 12007KT 060V150 CAVOK 17/10 Q1023","updated":"2025-11-03T11:15:29Z"}
