{"icao":"LPHR","metar":"LPHR 121030Z 21014KT 5000 DZ BR SCT004 BKN007 14/13 Q1030","updated":"2026-04-12T10:37:13Z"}
