{"icao":"KJFK","metar":"KJFK 150551Z 31017G29KT 10SM FEW055 M07/M14 A3012 RMK AO2 PK WND 31032/0536 SLP198 4/003 DRSN T10721139 11050 21072 50004 $","updated":"2025-12-15T06:33:59Z"}
