{"icao":"LPHR","metar":"LPHR 141300Z 32011KT 280V350 9999 FEW005 SCT010 BKN030 19/16 Q1022","updated":"2025-12-14T13:26:04Z"}
