{"icao":"LPMT","metar":"LPMT 100600Z VRB02KT 9999 FEW040 08/08 Q1029","updated":"2026-01-10T06:29:16Z"}
