{"icao":"KLAX","metar":"KLAX 241253Z 14015G25KT 3SM -RA BR FEW007 BKN010 OVC019 18/16 A2984 RMK AO2 PK WND 14030/1233 SLP103 VIS 2V4 P0025 T01780161 $","updated":"2025-12-24T13:31:20Z"}
