{"icao":"KLAX","metar":"KLAX 290853Z 07003KT 10SM FEW250 14/11 A3003 RMK AO2 SLP167 T01440111 58004 $","updated":"2026-04-29T09:07:54Z"}
