{"icao":"LPHR","metar":"LPHR 121230Z 21015KT 9999 4000W DZ FEW003 BKN006 15/14 Q1030","updated":"2026-04-12T12:59:13Z"}
