{"icao":"LPMR","metar":"LPMR 140000Z 20002KT CAVOK 18/18 Q1017","updated":"2026-06-14T00:05:46Z"}
