{"icao":"LPOV","metar":"LPOV 210200Z 21007KT 170V250 0800 -DZRA FG OVC001 19/19 Q1011 RERADZ","updated":"2025-10-21T03:04:27Z"}
