{"icao":"LPOV","metar":"LPOV 290600Z 22008KT 2500 -RADZ BR BKN005 BKN014 15/15 Q1002","updated":"2026-01-29T06:44:27Z"}
