{"icao":"KJFK","metar":"KJFK 281551Z 30012KT 10SM FEW250 M07/M17 A3017 RMK AO2 SLP215 T10671167 $","updated":"2026-01-28T16:35:39Z"}
