{"icao":"LPHR","metar":"LPHR 022100Z 28005KT 240V340 9999 SCT018 SCT035 14/08 Q1011","updated":"2026-01-02T21:15:11Z"}
