{"icao":"LPPS","metar":"LPPS 050530Z 26015KT 9999 SCT014 18/16 Q1006","updated":"2026-02-05T05:54:20Z"}
