{"icao":"KORD","metar":"KORD 031251Z 35004KT 10SM SCT080 OVC110 M06/M14 A3004 RMK AO2 SLP184 T10611144 $","updated":"2026-01-03T13:27:49Z"}
