{"icao":"LPAZ","metar":"LPAZ 281100Z 07011KT 040V100 9999 FEW015 BKN020 15/10 Q1032","updated":"2026-03-28T11:27:34Z"}
