{"icao":"LPBJ","metar":"LPBJ 100500Z 04002KT CAVOK 11/10 Q1013","updated":"2026-04-10T05:23:53Z"}
