{"icao":"KLAX","metar":"KLAX 261753Z 05006KT 10SM FEW090 SCT160 BKN250 17/M03 A3028 RMK AO2 SLP253 T01721033 10178 20094 51012 $","updated":"2026-01-26T18:34:21Z"}
