{"icao":"KORD","metar":"KORD 130351Z 26009G21KT 10SM OVC013 M03/M07 A3003 RMK AO2 SLP177 T10331067","updated":"2025-12-13T04:25:15Z"}
