{"icao":"LPFL","metar":"LPFL 050930Z 19019G35KT 160V220 9999 VCSH SCT015 16/12 Q1013","updated":"2026-04-05T09:37:38Z"}
