{"icao":"LPCS","metar":"LPCS 261400Z 07006KT 020V110 CAVOK 17/05 Q1024","updated":"2025-11-26T14:19:25Z"}
