{"icao":"LPPI","metar":"LPPI 252030Z 35005KT 320V050 9999 FEW020 SCT034 19/11 Q1026","updated":"2026-06-25T21:01:43Z"}
