{"icao":"LPBJ","metar":"LPBJ 051600Z 35014KT CAVOK 10/M02 Q1011","updated":"2026-01-05T16:26:24Z"}
