{"icao":"LPBJ","metar":"LPBJ 121500Z 03003KT 330V110 9999 SCT040 27/11 Q1015","updated":"2025-10-12T15:15:21Z"}
