{"icao":"LPLA","metar":"LPLA 031500Z 06010KT 030V090 9999 SCT025 17/10 Q1024","updated":"2026-05-03T15:45:30Z"}
