{"icao":"LPPT","metar":"LPPT 011000Z 22008KT 2500 BR FEW002 BKN003 15/15 Q1014","updated":"2026-02-01T10:23:48Z"}
