{"icao":"LPMA","metar":"LPMA 100830Z 08003KT 010V150 9999 FEW015 17/09 Q1016","updated":"2026-05-10T08:52:22Z"}
