{"icao":"KORD","metar":"KORD 140951Z 21003KT 10SM CLR 02/M03 A3002 RMK AO2 SLP167 T00171028 $","updated":"2026-02-14T10:25:46Z"}
