{"icao":"LPFR","metar":"LPFR 012230Z 34005KT CAVOK 17/10 Q1019","updated":"2026-05-01T22:48:39Z"}
