{"icao":"LPBJ","metar":"LPBJ 261200Z 24017KT 9999 BKN008 BKN012 BKN042 16/13 Q1015","updated":"2026-01-26T12:45:48Z"}
