{"icao":"KJFK","metar":"KJFK 061751Z 03008KT 10SM OVC013 06/02 A3039 RMK AO2 SLP289 T00560022 10056 20028 51012","updated":"2026-03-06T18:42:51Z"}
