{"icao":"KLAX","metar":"KLAX 080853Z 31007KT 10SM CLR 14/04 A3001 RMK AO2 SLP159 T01440039 51011 $","updated":"2026-01-08T09:27:36Z"}
