{"icao":"LPPD","metar":"LPPD 090900Z 35005KT 260V050 9999 FEW007 SCT013 16/13 Q1034","updated":"2026-04-09T09:05:56Z"}
