{"icao":"LPAZ","metar":"LPAZ 021700Z 08008KT 040V130 9999 FEW022 18/10 Q1028","updated":"2026-04-02T17:04:52Z"}
