{"icao":"KORD","metar":"KORD 130851Z 26007KT 10SM CLR 03/M03 A3011 RMK AO2 SLP200 T00331028 51014 $","updated":"2025-11-13T09:20:29Z"}
