{"icao":"LPPD","metar":"LPPD 130300Z 33009KT 310V010 9999 FEW020 13/08 Q1022","updated":"2026-01-13T03:26:48Z"}
