{"icao":"LPBJ","metar":"LPBJ 110100Z 26002KT 7000 VCFG FEW003 06/05 Q1028","updated":"2026-01-11T01:49:02Z"}
