{"icao":"LPMA","metar":"LPMA 012200Z 22019KT 9999 -RA SCT015 17/14 Q1012","updated":"2026-02-01T22:22:54Z"}
