{"icao":"KLAX","metar":"KLAX 281053Z 11004KT 2SM R25L/1200V2800FT BR SCT001 SCT002 11/11 A3003 RMK AO2 SLP165 VIS 3/4V4 VIS SE-S 1/2 T01110111 $","updated":"2025-11-28T11:16:43Z"}
