{"icao":"LPPT","metar":"LPPT 250830Z 33006KT 290V360 CAVOK 17/12 Q1017","updated":"2026-04-25T08:51:22Z"}
