{"icao":"LPMA","metar":"LPMA 231100Z 23012KT 190V250 9999 FEW015 21/12 Q1014","updated":"2026-04-23T11:06:36Z"}
