{"icao":"LPPT","metar":"LPPT 191030Z 36006KT 290V040 9999 SCT030 SCT045 13/08 Q1028","updated":"2026-02-19T10:41:18Z"}
