{"icao":"KORD","metar":"KORD 041551Z 21015KT 10SM FEW300 22/06 A2958 RMK AO2 SLP013 T02170061","updated":"2026-05-04T16:02:40Z"}
