{"icao":"LPCS","metar":"LPCS 151800Z 35018KT 310V020 9999 FEW012 SCT025 16/11 Q1016","updated":"2026-05-15T18:21:35Z"}
