{"icao":"KORD","metar":"KORD 171351Z 10005KT 10SM SCT300 22/17 A3011 RMK AO2 SLP192 T02170172","updated":"2025-09-17T14:16:35Z"}
