{"icao":"LPMA","metar":"LPMA 201230Z 03010KT 010V090 9999 SCT015 21/14 Q1021","updated":"2025-11-20T12:38:27Z"}
