{"icao":"KLAX","metar":"KLAX 280053Z 25007KT 10SM SCT150 BKN250 26/13 A2987 RMK AO2 SLP114 T02560128","updated":"2026-02-28T01:49:02Z"}
