{"icao":"LPOV","metar":"LPOV 221300Z 19006KT 140V220 9999 FEW020 11/08 Q1012","updated":"2025-12-22T13:32:58Z"}
