{"icao":"LPMR","metar":"LPMR 130100Z 15003KT CAVOK 15/10 Q1016","updated":"2025-10-13T01:23:31Z"}
