{"icao":"KORD","metar":"KORD 111951Z 12005KT 10SM SCT110 OVC250 12/03 A3033 RMK AO2 SLP274 T01220028 $","updated":"2026-04-11T20:32:07Z"}
