{"icao":"LPPD","metar":"LPPD 211800Z 22011KT 4500 -SHRA BR FEW004 SCT008 BKN010 23/22 Q1015","updated":"2025-10-21T18:25:40Z"}
