{"icao":"LPCS","metar":"LPCS 251100Z 10004KT 060V160 CAVOK 27/04 Q1018","updated":"2025-09-25T11:15:16Z"}
