{"icao":"LPMT","metar":"LPMT 112000Z 26013KT 8000 OVC005 15/15 Q1018","updated":"2026-02-11T20:37:16Z"}
