{"icao":"LPSJ","metar":"LPSJ 261500Z 25010KT 220V280 9999 FEW025 21/14 Q1025","updated":"2026-06-26T15:22:16Z"}
