{"icao":"LPCS","metar":"LPCS 250800Z 00000KT CAVOK 21/03 Q1018","updated":"2025-09-25T08:23:19Z"}
