{"icao":"KORD","metar":"KORD 031751Z 28003KT 10SM OVC090 M04/M14 A3006 RMK AO2 SLP189 T10441144 11044 21061 58004 $","updated":"2026-01-03T18:27:26Z"}
