{"icao":"LPHR","metar":"LPHR 201230Z 19012KT 6000 VCSH SCT007 SCT012 BKN030 17/15 Q1019","updated":"2026-02-20T12:56:21Z"}
