{"icao":"LPHR","metar":"LPHR 040000Z 03005KT 010V070 9999 FEW010 14/12 Q1019","updated":"2026-01-04T05:24:28Z"}
