{"icao":"KORD","metar":"KORD 110851Z 24006KT 10SM BKN250 M04/M08 A3009 RMK AO2 SLP198 T10391078 56015","updated":"2025-11-11T09:20:26Z"}
