{"icao":"LPMT","metar":"LPMT 131000Z 18004KT 150V210 9999 VCSH FEW018 FEW020TCU SCT030 14/14 Q1009","updated":"2026-01-13T10:23:12Z"}
