{"icao":"LPOV","metar":"LPOV 171400Z 33006KT 290V360 5000 BR FEW001 19/16 Q1015","updated":"2025-10-17T14:17:22Z"}
