{"icao":"LPOV","metar":"LPOV 121100Z 34005KT 310V020 9999 BKN012 BKN020 13/11 Q1028","updated":"2026-03-12T11:30:24Z"}
