{"icao":"KLAX","metar":"KLAX 081053Z 15008KT 9SM FEW008 OVC012 17/13 A2999 RMK AO2 SLP152 T01670133","updated":"2026-05-08T11:12:47Z"}
