{"icao":"LPMT","metar":"LPMT 180500Z 01003KT 340V050 CAVOK 12/09 Q1016","updated":"2026-04-18T05:05:07Z"}
