{"icao":"LPFL","metar":"LPFL 130900Z 21010KT 170V240 9999 VCSH FEW022 19/12 Q1014","updated":"2025-10-13T09:21:08Z"}
