{"icao":"LPMT","metar":"LPMT 091700Z 22004KT 190V250 9999 FEW005 SCT016 BKN038 16/16 Q1017","updated":"2025-12-09T17:19:15Z"}
