{"icao":"LPPD","metar":"LPPD 261400Z 18010KT 150V210 9999 -SHRA FEW008 SCT015 BKN025 17/16 Q1024","updated":"2025-11-26T14:19:27Z"}
