{"icao":"LPAZ","metar":"LPAZ 200900Z 25007KT 9000 FEW007 SCT031 23/22 Q1018","updated":"2025-10-20T09:21:09Z"}
