{"icao":"LPMA","metar":"LPMA 071600Z 01014KT 9999 SCT015 17/08 Q1032","updated":"2026-01-07T16:29:44Z"}
