{"icao":"LPMT","metar":"LPMT 012000Z 35010KT CAVOK 17/08 Q1021","updated":"2026-04-01T20:56:11Z"}
