{"icao":"KORD","metar":"KORD 210251Z 03010KT 10SM FEW250 09/01 A3027 RMK AO2 SLP251 T00940011 51006","updated":"2026-05-21T03:34:27Z"}
