{"icao":"LPBJ","metar":"LPBJ 241800Z 29007KT 9999 SCT025 10/08 Q1015","updated":"2026-01-24T18:28:36Z"}
