{"icao":"LPLA","metar":"LPLA 281800Z 19013KT 8000 3500SW -RA FEW004 SCT014 BKN035 17/15 Q1010 RERA","updated":"2026-04-28T18:15:49Z"}
