{"icao":"KLAX","metar":"KLAX 181053Z 07003KT 10SM CLR 16/12 A2995 RMK AO2 SLP138 T01560117","updated":"2026-04-18T11:33:38Z"}
