{"icao":"KORD","metar":"KORD 130951Z 21007KT 10SM CLR 18/14 A2994 RMK AO2 SLP133 T01830144 $","updated":"2026-06-13T10:27:01Z"}
