{"icao":"LPLA","metar":"LPLA 171000Z 29006KT 220V340 9000 -RA FEW008 SCT015 19/17 Q1022","updated":"2025-11-17T10:21:23Z"}
