{"icao":"LPMA","metar":"LPMA 280130Z 01013KT 310V050 9999 FEW015 16/10 Q1020","updated":"2026-03-28T02:03:59Z"}
