{"icao":"KORD","metar":"KORD 210751Z 29004KT 8SM BKN012 OVC015 08/06 A3003 RMK AO2 SLP173 T00830061","updated":"2025-11-21T08:26:39Z"}
