{"icao":"LPAZ","metar":"LPAZ 260900Z 04015G25KT 020V080 9999 SCT020 BKN040 19/14 Q1018","updated":"2025-10-26T09:16:19Z"}
