{"icao":"LPMT","metar":"LPMT 042100Z 24004KT 170V290 9999 FEW025 SCT032 13/12 Q1021","updated":"2025-12-04T21:18:12Z"}
