{"icao":"LPPD","metar":"LPPD 070800Z 29014KT 9000 -SHRA BKN016 14/12 Q1013","updated":"2026-02-07T08:30:05Z"}
