{"icao":"LPPD","metar":"LPPD 031800Z 25009KT 9999 FEW010 BKN016 19/17 Q1011","updated":"2025-11-03T18:26:47Z"}
