{"icao":"KORD","metar":"KORD 240551Z 35007KT 10SM BKN250 02/M03 A3026 RMK AO2 SLP250 T00171028 10067 20017 401220017 53017","updated":"2025-12-24T06:32:35Z"}
