{"icao":"LPPS","metar":"LPPS 191230Z 01010KT 340V040 9999 FEW015 17/11 Q1027","updated":"2026-01-19T12:47:16Z"}
