{"icao":"LPPT","metar":"LPPT 231200Z 09004KT 040V190 9999 SCT025 16/11 Q1027","updated":"2025-11-23T12:32:47Z"}
