{"icao":"LPPT","metar":"LPPT 111830Z 25015KT 4500 -RADZ BR FEW002 BKN004 15/15 Q1017","updated":"2026-02-11T19:01:25Z"}
