{"icao":"LPBJ","metar":"LPBJ 051011Z 32004KT 4000 BR OVC005 11/10 Q1017","updated":"2026-03-05T10:37:35Z"}
