{"icao":"LPMR","metar":"LPMR 151300Z 30006KT 250V350 9999 SCT024 18/10 Q1024","updated":"2026-04-15T13:52:56Z"}
