{"icao":"LPMA","metar":"LPMA 021830Z 03017KT 9999 BKN013 20/16 Q1025","updated":"2026-06-02T18:38:03Z"}
