{"icao":"KLAX","metar":"KLAX 180253Z 26005KT 10SM SCT250 17/10 A3008 RMK AO2 SLP183 T01670100 53010 $","updated":"2026-01-18T03:44:56Z"}
