{"icao":"LPHR","metar":"LPHR 121700Z 32010G20KT 280V360 9999 FEW016 SCT030 15/10 Q1019","updated":"2026-01-12T17:22:39Z"}
