{"icao":"KORD","metar":"KORD 101151Z 19007KT 10SM FEW085 SCT140 BKN250 11/04 A3023 RMK AO2 SLP236 T01110039 10117 20100 58009 $","updated":"2025-10-10T12:36:41Z"}
