{"icao":"LPPT","metar":"LPPT 241300Z 06005KT 320V110 9999 FEW023 19/13 Q1020","updated":"2026-03-24T13:09:21Z"}
