{"icao":"LPOV","metar":"LPOV 150400Z VRB01KT 2000 BR BKN004 11/11 Q1016","updated":"2025-10-15T04:20:57Z"}
