{"icao":"LPHR","metar":"LPHR 191530Z 28011KT 9999 3500W -DZ SCT003 SCT012 BKN035 17/15 Q1015","updated":"2026-04-19T15:36:15Z"}
