{"icao":"LPPT","metar":"LPPT 140900Z 33010KT 300V360 9999 FEW032 11/05 Q1026","updated":"2026-02-14T09:28:46Z"}
