{"icao":"KORD","metar":"KORD 100451Z 01011KT 10SM SCT110 OVC150 09/04 A3009 RMK AO2 SLP191 T00940039","updated":"2026-04-10T05:24:23Z"}
