{"icao":"KLAX","metar":"KLAX 061553Z 04004KT 10SM FEW010 16/11 A3016 RMK AO2 SLP211 T01610106 $","updated":"2025-11-06T16:25:12Z"}
