{"icao":"LPHR","metar":"LPHR 251730Z 13005KT 080V180 9999 FEW008 BKN011 17/15 Q1017","updated":"2026-04-25T17:35:48Z"}
