{"icao":"LPMR","metar":"LPMR 250700Z 27011KT 240V300 9999 FEW009 BKN014 FEW018CB BKN022 14/12 Q1013","updated":"2026-01-25T07:20:23Z"}
