{"icao":"LPBJ","metar":"LPBJ 121200Z 08006KT 040V140 9999 FEW040 19/09 Q1026","updated":"2026-03-12T12:57:16Z"}
