{"icao":"LPMT","metar":"LPMT 140100Z 19010KT 160V220 9999 TS SCT015 SCT018CB 15/13 Q1001","updated":"2025-11-14T01:24:30Z"}
