{"icao":"LPAR","metar":"LPAR 061100Z VRB03KT CAVOK 23/12 Q1020","updated":"2025-10-06T11:14:46Z"}
