{"icao":"LPFL","metar":"LPFL 101000Z 18027G48KT 160V240 8000 VCSH BKN009 21/18 Q1005","updated":"2025-12-10T10:22:37Z"}
