{"icao":"LPOV","metar":"LPOV 151500Z 16014KT 7000 -RA FEW008 SCT016 12/12 Q1005","updated":"2025-12-15T15:23:24Z"}
