{"icao":"LPCS","metar":"LPCS 221800Z 13005KT CAVOK 20/08 Q1026","updated":"2026-02-22T18:33:43Z"}
