{"icao":"KORD","metar":"KORD 290951Z 29005KT 10SM SCT250 M16/M22 A3026 RMK AO2 SLP263 T11611217","updated":"2026-01-29T10:35:55Z"}
