{"icao":"LPBJ","metar":"LPBJ 051211Z 27012KT 8000 FEW005 BKN008 BKN012 16/15 Q1023","updated":"2025-12-05T12:39:41Z"}
