{"icao":"LPHR","metar":"LPHR 222000Z 19006KT 150V230 9999 FEW012 SCT030 17/14 Q1029","updated":"2025-11-22T20:19:22Z"}
