{"icao":"KJFK","metar":"KJFK 052251Z 19024G36KT 10SM FEW060 SCT110 SCT200 BKN250 16/11 A2980 RMK PK WND 19038/2228 SLP091 T01610106 ","updated":"2026-05-05T23:04:13Z"}
