{"icao":"LPMA","metar":"LPMA 111400Z 04006KT 360V080 9999 FEW015 18/13 Q1026","updated":"2026-01-11T14:18:16Z"}
