{"icao":"KORD","metar":"KORD 010751Z 25006KT 10SM OVC070 06/02 A2994 RMK AO2 SLP140 T00560017 $","updated":"2025-11-01T08:21:49Z"}
