{"icao":"LPMR","metar":"LPMR 281400Z 33018KT 300V360 CAVOK 24/14 Q1023","updated":"2026-06-28T14:46:55Z"}
