{"icao":"LPLA","metar":"LPLA 070300Z VRB03KT 9999 BKN025 21/17 Q1025","updated":"2026-06-07T03:45:51Z"}
