{"icao":"LPHR","metar":"LPHR 011800Z 08005KT 010V120 9999 FEW025 BKN045 18/09 Q1022","updated":"2025-11-01T18:22:29Z"}
