{"icao":"LPFR","metar":"LPFR 280430Z 35011KT CAVOK 10/05 Q1022","updated":"2026-02-28T04:54:09Z"}
