{"icao":"LPST","metar":"LPST 261100Z VRB02KT CAVOK 17/12 Q1025","updated":"2026-02-26T11:38:41Z"}
