{"icao":"LPMA","metar":"LPMA 262300Z 02010KT 9999 SCT016 SCT030 18/11 Q1023","updated":"2025-11-26T23:17:41Z"}
