{"icao":"KORD","metar":"KORD 041912Z 25017G24KT 10SM BKN015 BKN110 BKN250 09/06 A2985 RMK AO2 T00890056 $","updated":"2026-04-04T19:30:23Z"}
