{"icao":"LPLA","metar":"LPLA 041000Z 13004KT 100V160 9999 BKN047 23/21 Q1027","updated":"2025-10-04T10:16:00Z"}
