{"icao":"KLAX","metar":"KLAX 190853Z 29007KT 10SM FEW015 FEW040 SCT150 BKN200 11/04 A3002 RMK AO2 SLP163 T01110039 50001","updated":"2026-02-19T09:43:15Z"}
