{"icao":"KJFK","metar":"KJFK 170351Z 33013KT 10SM CLR 11/M02 A2997 RMK AO2 SLP147 T01061022","updated":"2025-10-17T04:21:23Z"}
