{"icao":"LPPS","metar":"LPPS 081600Z 03012KT 9999 SCT015 22/16 Q1022","updated":"2025-11-08T16:20:12Z"}
