{"icao":"KJFK","metar":"KJFK 041851Z 21010KT 10SM SCT250 25/12 A3018 RMK AO2 SLP218 T02500117","updated":"2025-10-04T19:11:53Z"}
