{"icao":"LPPR","metar":"LPPR 231800Z 33009KT 300V360 9999 FEW025 18/08 Q1019","updated":"2025-09-23T18:26:16Z"}
