{"icao":"KORD","metar":"KORD 250451Z 21008KT 10SM SCT110 SCT200 18/17 A2991 RMK AO2 SLP125 T01780167 $","updated":"2026-06-25T05:03:47Z"}
