{"icao":"LPAR","metar":"LPAR 151300Z 36008KT 330V030 9999 SCT022 BKN028 19/11 Q1024","updated":"2026-04-15T13:52:57Z"}
