{"icao":"LPLA","metar":"LPLA 112300Z 36006KT 310V060 9999 FEW022 SCT035 14/09 Q1025","updated":"2026-05-11T23:56:40Z"}
