{"icao":"LPMR","metar":"LPMR 220400Z 16003KT CAVOK 02/02 Q1030","updated":"2025-11-22T04:20:45Z"}
