{"icao":"LPOV","metar":"LPOV 110100Z 00000KT CAVOK 09/08 Q1024","updated":"2026-03-11T02:00:23Z"}
