{"icao":"KLAX","metar":"KLAX 301953Z 00000KT 10SM SCT250 27/M02 A3019 RMK AO2 SLP223 T02671017 $","updated":"2026-01-30T20:28:37Z"}
