{"icao":"KLAX","metar":"KLAX 241053Z 00000KT 9SM FEW007 16/15 A2999 RMK AO2 SLP152 T01610150","updated":"2025-10-24T11:16:02Z"}
