{"icao":"KJFK","metar":"KJFK 010551Z 29011G22KT 10SM FEW027 BKN250 05/00 A3013 RMK AO2 PK WND 30027/0526 SLP201 60000 T00500000 10061 20050 53009 $","updated":"2025-12-01T06:31:35Z"}
