{"icao":"LPFL","metar":"LPFL 241300Z 17007KT 0300 FG VV/// 18/17 Q1020","updated":"2026-05-24T13:23:13Z"}
