{"icao":"KORD","metar":"KORD 290751Z 09009KT 10SM BKN250 09/04 A3002 RMK AO2 SLP168 T00940039","updated":"2025-10-29T08:25:40Z"}
