{"icao":"LPHR","metar":"LPHR 200730Z 04031G44KT 9999 SCT012 SCT025 14/11 Q1008","updated":"2026-03-20T07:44:34Z"}
