{"icao":"LPFL","metar":"LPFL 121800Z 34025G36KT 9999 SCT028 FEW030TCU 15/09 Q1008","updated":"2025-11-12T21:17:12Z"}
