{"icao":"LPPD","metar":"LPPD 260830Z 04004KT 350V070 9999 FEW010 SCT025 13/11 Q1029","updated":"2026-03-26T08:54:19Z"}
