{"icao":"KORD","metar":"KORD 140751Z 06003KT 6SM BR CLR 19/18 A2999 RMK AO2 SLP151 T01940183 $","updated":"2025-09-14T08:20:14Z"}
