{"icao":"KORD","metar":"KORD 051451Z 20010KT 10SM SCT300 24/12 A3012 RMK AO2 SLP195 T02390122 51004 $","updated":"2025-10-05T15:15:16Z"}
