{"icao":"LPMT","metar":"LPMT 141900Z 34007KT 310V010 9999 FEW035 17/11 Q1022","updated":"2026-04-14T19:13:14Z"}
