{"icao":"LPLA","metar":"LPLA 180500Z 30012KT 9999 FEW012 SCT020 BKN030 15/13 Q1028","updated":"2026-01-18T05:22:36Z"}
