{"icao":"LPFR","metar":"LPFR 302200Z 05003KT 360V090 CAVOK 18/15 Q1016","updated":"2025-10-30T22:17:15Z"}
