{"icao":"LPMT","metar":"LPMT 052200Z 23005KT 200V260 9999 FEW012 BKN030 15/15 Q1023","updated":"2025-12-05T22:17:45Z"}
