{"icao":"LPST","metar":"LPST 181500Z 30005KT 260V360 CAVOK 32/03 Q1020","updated":"2025-09-19T05:16:12Z"}
