{"icao":"LPMA","metar":"LPMA 111630Z 02011KT 340V050 8000 -SHRA BKN013 17/14 Q1022","updated":"2026-04-11T16:35:49Z"}
