{"icao":"LPPR","metar":"LPPR 162100Z VRB02KT CAVOK 16/13 Q1021","updated":"2025-09-16T21:15:08Z"}
