{"icao":"LPPD","metar":"LPPD 121030Z 24007KT 9999 FEW018 BKN030 15/11 Q1032","updated":"2026-03-12T10:37:12Z"}
