{"icao":"LPFL","metar":"LPFL 021900Z 20014KT 9999 SCT017 19/15 Q1016","updated":"2025-11-02T19:12:31Z"}
