{"icao":"LPPR","metar":"LPPR 271600Z 31003KT 240V010 CAVOK 21/11 Q1020","updated":"2025-10-27T16:23:59Z"}
