{"icao":"LPMT","metar":"LPMT 011100Z 07004KT 030V140 9999 FEW010 BKN030 11/09 Q1013","updated":"2026-01-01T11:17:22Z"}
