{"icao":"LPHR","metar":"LPHR 021900Z 24009KT 190V270 9999 FEW020 BKN035 18/11 Q1019","updated":"2025-11-02T19:12:31Z"}
