{"icao":"LPMR","metar":"LPMR 280600Z 33003KT CAVOK 07/06 Q1021","updated":"2026-03-28T06:58:29Z"}
