{"icao":"LPMT","metar":"LPMT 151600Z 21010KT 170V230 3000 -DZRA BR BKN008 OVC020 13/13 Q1014","updated":"2026-01-15T16:33:54Z"}
