{"icao":"KJFK","metar":"KJFK 090351Z 33013KT 10SM CLR 15/04 A3023 RMK AO2 SLP237 T01500044","updated":"2025-10-09T04:21:44Z"}
