{"icao":"LPPT","metar":"LPPT 272100Z 04006KT 360V070 9999 SCT022 11/08 Q1026","updated":"2026-02-27T21:27:55Z"}
