{"icao":"LPPD","metar":"LPPD 021630Z 36012KT 320V020 9999 FEW030 SCT040 13/05 Q1030","updated":"2026-03-02T16:43:25Z"}
