{"icao":"LPFR","metar":"LPFR 020400Z 36003KT 9999 SCT030 10/06 Q1017","updated":"2025-12-02T04:28:58Z"}
