{"icao":"KORD","metar":"KORD 090851Z 21008KT 10SM BKN250 12/09 A2964 RMK AO2 SLP035 T01170094 56014","updated":"2026-05-09T09:18:02Z"}
