{"icao":"LPMT","metar":"LPMT 211600Z 23009KT 9999 FEW040 20/14 Q1005","updated":"2026-04-21T16:59:32Z"}
