{"icao":"LPAZ","metar":"LPAZ 102230Z 21019KT 0900 R18/0900 FG VV001 17/17 Q1014","updated":"2026-02-10T22:37:58Z"}
