{"icao":"LPFR","metar":"LPFR 211100Z 07010KT 050V110 CAVOK 18/04 Q1028","updated":"2026-02-21T11:20:38Z"}
