{"icao":"LPAZ","metar":"LPAZ 091430Z 21020KT 3300 BR FEW001 BKN002 18/17 Q1014","updated":"2026-02-09T14:51:11Z"}
