{"icao":"LPPD","metar":"LPPD 232330Z 20004KT 0200 R30/0075U -DZ FG VV001 17/17 Q1025","updated":"2026-05-23T23:56:04Z"}
