{"icao":"KORD","metar":"KORD 122151Z 09009KT 10SM BKN220 BKN250 18/10 A2994 RMK AO2 SLP138 T01830100 $","updated":"2025-10-12T22:15:46Z"}
