{"icao":"KORD","metar":"KORD 082051Z 11008KT 10SM FEW012 BKN060 M01/M09 A3027 RMK AO2 SLP260 T10111089 56016 $","updated":"2026-02-08T21:25:34Z"}
