{"icao":"KJFK","metar":"KJFK 092251Z 15010KT 10SM BKN250 06/02 A3051 RMK AO2 SLP330 T00610022","updated":"2026-04-09T23:36:34Z"}
