{"icao":"KJFK","metar":"KJFK 292251Z 16004KT 10SM BKN230 21/13 A3019 RMK AO2 SLP224 T02110133 $","updated":"2025-09-29T23:15:48Z"}
