{"icao":"LPMA","metar":"LPMA 041730Z 01013KT 330V040 9999 FEW013 23/16 Q1022","updated":"2026-06-04T17:45:58Z"}
