{"icao":"LPMA","metar":"LPMA 081500Z 03011KT 350V050 9999 SCT015 SCT033 24/17 Q1025","updated":"2025-10-08T15:19:02Z"}
