{"icao":"LPMR","metar":"LPMR 171400Z 03008KT 360V060 9999 SCT018 FEW022CB SCT045 16/12 Q1014","updated":"2025-11-17T14:18:47Z"}
