{"icao":"KJFK","metar":"KJFK 150051Z 23006KT 10SM SCT075 SCT120 BKN250 07/M01 A2994 RMK AO2 SLP138 T00671006","updated":"2025-11-15T01:22:01Z"}
