{"icao":"LPHR","metar":"LPHR 151900Z 22013KT 9999 FEW020 SCT070 22/18 Q1005","updated":"2025-10-15T19:14:00Z"}
