{"icao":"LPMR","metar":"LPMR 021700Z 32006KT 290V350 9999 FEW012 19/15 Q1021","updated":"2025-10-02T17:12:59Z"}
