{"icao":"LPMR","metar":"LPMR 091000Z 15005KT CAVOK 12/09 Q1022","updated":"2025-11-09T10:16:48Z"}
