{"icao":"KLAX","metar":"KLAX 222253Z 26016G26KT 10SM FEW010 FEW100 SCT250 18/09 A3007 RMK AO2 PK WND 25026/2245 SLP183 T01830089 $","updated":"2026-04-22T23:43:57Z"}
