{"icao":"KORD","metar":"KORD 011651Z 36015KT 10SM FEW037 BKN055 BKN080 09/M03 A3001 RMK AO2 SLP165 T00941028 $","updated":"2026-05-01T16:59:13Z"}
