{"icao":"KJFK","metar":"KJFK 121651Z 31017KT 10SM BKN044 BKN120 BKN220 01/M08 A2998 RMK AO2 PK WND 33029/1557 SLP152 T00061083 $","updated":"2026-02-12T16:57:25Z"}
