{"icao":"LPOV","metar":"LPOV 190700Z 16005KT 1200 BR OVC002 12/12 Q1016","updated":"2026-04-19T07:17:24Z"}
