{"icao":"LPFL","metar":"LPFL 021300Z 18009KT 140V220 9999 VCSH FEW010 BKN018 25/20 Q1018","updated":"2025-10-02T13:25:28Z"}
