{"icao":"LPHR","metar":"LPHR 231430Z 25025KT 9000 SCT013 SCT030 18/14 Q1006","updated":"2026-02-23T14:43:50Z"}
