{"icao":"LPBJ","metar":"LPBJ 301700Z 12004KT 9999 FEW022 13/07 Q1020","updated":"2025-12-30T17:19:08Z"}
