{"icao":"LPMA","metar":"LPMA 210500Z 34005KT 9999 SCT015 14/08 Q1021","updated":"2026-01-21T05:27:18Z"}
