{"icao":"LPFL","metar":"LPFL 231100Z 35013KT 9999 SCT018 20/13 Q1027","updated":"2025-09-23T11:14:09Z"}
