{"icao":"KORD","metar":"KORD 090151Z 20015G24KT 10SM FEW200 SCT250 14/02 A2975 RMK AO2 PK WND 20026/0109 SLP076 T01390022 $","updated":"2026-03-09T02:02:45Z"}
