{"icao":"LPMA","metar":"LPMA 020830Z 36020KT 330V030 4000 -RA BR SCT008 BKN015 15/11 Q1016","updated":"2026-03-02T08:42:40Z"}
