{"icao":"LPMA","metar":"LPMA 301200Z 02017G27KT 320V050 9999 FEW014 24/16 Q1023","updated":"2026-06-30T12:06:50Z"}
