{"icao":"KJFK","metar":"KJFK 131251Z 19011KT 10SM BKN110 BKN160 BKN250 14/09 A3001 RMK AO2 SLP163 T01390094","updated":"2026-05-13T13:10:00Z"}
