{"icao":"LPPR","metar":"LPPR 131000Z 15017KT 9999 -RA FEW025 SCT040 17/13 Q1000","updated":"2025-11-13T10:20:43Z"}
