{"icao":"LPPT","metar":"LPPT 102000Z 32008KT CAVOK 13/11 Q1022","updated":"2025-12-10T20:23:07Z"}
