{"icao":"LPPR","metar":"LPPR 102230Z 19008KT 9000 FEW006 SCT009 BKN015 14/14 Q1015","updated":"2026-02-10T22:37:39Z"}
