{"icao":"LPOV","metar":"LPOV 222000Z 34010KT 330V030 8000 -RA BKN020 10/09 Q1013","updated":"2025-12-23T05:22:46Z"}
