{"icao":"LPMA","metar":"LPMA 301500Z 01015KT 340V040 9999 SCT015 21/13 Q1025","updated":"2026-05-30T15:05:00Z"}
