{"icao":"KORD","metar":"KORD 220727Z 29008KT 10SM FEW026 OVC036 M04/M09 A3016 RMK AO2 SNE26 P0000 T10441089 $","updated":"2026-02-22T07:34:44Z"}
