{"icao":"KORD","metar":"KORD 061051Z 25003KT 10SM SCT250 02/M03 A3022 RMK AO2 SLP236 T00221028","updated":"2025-11-06T11:16:35Z"}
