{"icao":"LPFL","metar":"LPFL 151400Z 18014G32KT 130V210 9999 FEW017 18/14 Q1023","updated":"2026-02-15T14:26:29Z"}
