{"icao":"LPPS","metar":"LPPS 301900Z 22007G18KT 180V270 9999 SCT015 22/15 Q1016","updated":"2025-10-30T19:14:51Z"}
