{"icao":"KLAX","metar":"KLAX 201453Z 33005KT 8SM CLR 19/16 A2997 RMK AO2 SLP147 T01890156 53006","updated":"2026-03-20T15:41:21Z"}
