{"icao":"LPFL","metar":"LPFL 111130Z 20014G25KT 170V240 9999 VCSH SCT018 FEW019TCU 16/10 Q1012","updated":"2026-02-11T11:43:32Z"}
