{"icao":"LPPT","metar":"LPPT 161130Z 06007KT 310V100 CAVOK 18/11 Q1021","updated":"2026-03-16T11:45:02Z"}
