{"icao":"LPMR","metar":"LPMR 142200Z 34006KT 8000 FEW005 19/17 Q1023","updated":"2025-09-14T22:14:45Z"}
