{"icao":"LPPR","metar":"LPPR 251800Z 00000KT CAVOK 24/13 Q1022","updated":"2026-05-25T18:24:08Z"}
