{"icao":"LPOV","metar":"LPOV 160500Z 35008KT CAVOK 08/07 Q1018","updated":"2026-05-16T05:53:11Z"}
