{"icao":"LPFR","metar":"LPFR 271100Z 25006KT CAVOK 23/12 Q1020","updated":"2025-09-27T11:12:36Z"}
