{"icao":"LPMR","metar":"LPMR 271700Z 19015KT 9999 SCT009 BKN019 BKN030 21/17 Q1012","updated":"2025-09-27T17:13:12Z"}
