{"icao":"LPMR","metar":"LPMR 071200Z 22013KT 4000 -RA BR BKN009 BKN012 FEW016CB 18/17 Q1013","updated":"2025-11-07T12:37:02Z"}
