{"icao":"LPBJ","metar":"LPBJ 160810Z 20004KT 8000 VCSH FEW020 SCT030 07/07 Q1015","updated":"2026-01-16T08:28:42Z"}
