{"icao":"KORD","metar":"KORD 041951Z 20010KT 10SM FEW095 BKN250 00/M12 A3011 RMK AO2 SLP204 T00001117 $","updated":"2026-01-04T20:21:21Z"}
