{"icao":"LPFR","metar":"LPFR 022000Z 19017KT 4000 -TSRA SCT004 FEW012CB BKN030 15/14 Q1002 RESHRA","updated":"2026-01-02T20:21:07Z"}
