{"icao":"LPFR","metar":"LPFR 131900Z 31011KT CAVOK 18/11 Q1019","updated":"2026-03-13T19:29:55Z"}
