{"icao":"KORD","metar":"KORD 061151Z 24004KT 10SM FEW250 03/M03 A3023 RMK AO2 SLP240 T00281033 10056 20022 53005","updated":"2025-11-06T12:38:22Z"}
