{"icao":"LPPT","metar":"LPPT 141700Z 31008KT 9999 FEW018 FEW024TCU 13/10 Q1020","updated":"2026-01-14T17:25:40Z"}
