{"icao":"LPMR","metar":"LPMR 301900Z 33013KT CAVOK 21/16 Q1021","updated":"2026-06-30T19:54:04Z"}
