{"icao":"KORD","metar":"KORD 080851Z 03012KT 4SM -DZ BR BKN015 OVC029 07/06 A2978 RMK AO2 DZB33 SLP084 P0000 60000 T00720056 51017 $","updated":"2025-11-08T09:16:41Z"}
