{"icao":"LPPR","metar":"LPPR 040830Z 23012KT 190V270 6000 FEW012 SCT038 BKN049 14/13 Q0991","updated":"2026-02-04T08:39:31Z"}
