{"icao":"LPFR","metar":"LPFR 061000Z 31003KT 270V360 9999 FEW008 17/15 Q1026","updated":"2025-12-06T10:18:19Z"}
