{"icao":"LPPR","metar":"LPPR 231430Z 20006KT 160V220 CAVOK 23/04 Q1022","updated":"2026-02-23T14:43:47Z"}
