{"icao":"LPPR","metar":"LPPR 120430Z 36003KT 7000 BKN004 OVC007 11/11 Q1026","updated":"2026-03-12T04:45:35Z"}
