{"icao":"KJFK","metar":"KJFK 132151Z 19016KT 10SM FEW150 SCT210 BKN250 05/M01 A2990 RMK AO2 PK WND 18026/2120 SLP124 T00501011 $","updated":"2026-01-13T22:21:23Z"}
