{"icao":"KJFK","metar":"KJFK 291651Z 30014KT 10SM FEW055 FEW250 06/M09 A3043 RMK AO2 SLP303 T00561089 $","updated":"2025-11-29T17:15:55Z"}
