{"icao":"KLAX","metar":"KLAX 060853Z 12005KT 10SM BKN013 OVC017 18/14 A2984 RMK AO2 SLP103 T01830144 56008 $","updated":"2026-06-06T09:24:50Z"}
