{"icao":"KJFK","metar":"KJFK 080951Z 34022G33KT 10SM SCT250 M16/M24 A3012 RMK AO2 PK WND 33035/0913 SLP197 T11561239 $","updated":"2026-02-08T10:25:22Z"}
