{"icao":"LPFR","metar":"LPFR 230830Z 06003KT CAVOK 13/07 Q1024","updated":"2026-02-23T08:49:45Z"}
