{"icao":"LPPD","metar":"LPPD 172300Z 32004KT 280V050 9999 SCT007 BKN018 18/18 Q1025","updated":"2025-11-17T23:17:05Z"}
