{"icao":"LPBJ","metar":"LPBJ 091400Z 26014KT 8000 -RADZ OVC003 16/15 Q1014","updated":"2026-02-09T14:51:08Z"}
