{"icao":"LPMT","metar":"LPMT 242300Z 18005KT 9999 FEW020 BKN025 15/13 Q1015","updated":"2026-02-24T23:30:15Z"}
