{"icao":"LPFL","metar":"LPFL 071500Z 18013KT 150V220 9999 SCT024 20/15 Q1016","updated":"2025-11-07T15:18:37Z"}
