{"icao":"LPPR","metar":"LPPR 190200Z 09006KT CAVOK 16/08 Q1005","updated":"2026-03-19T02:06:29Z"}
