{"icao":"KJFK","metar":"KJFK 061551Z 04012KT 10SM OVC012 05/02 A3036 RMK AO2 SLP281 T00500022","updated":"2026-03-06T16:40:02Z"}
