{"icao":"KORD","metar":"KORD 132151Z 19013G19KT 10SM FEW040 SCT110 BKN160 OVC250 26/16 A2983 RMK AO2 SLP097 T02560161","updated":"2026-04-13T22:41:32Z"}
