{"icao":"LPPD","metar":"LPPD 110830Z 25012KT 5000 BR FEW006 16/15 Q1015","updated":"2026-02-11T08:59:35Z"}
