{"icao":"LPPT","metar":"LPPT 210700Z 35010KT CAVOK 10/03 Q1026","updated":"2025-11-21T07:18:27Z"}
