{"icao":"KORD","metar":"KORD 271651Z 28012G23KT 10SM SCT035 M01/M10 A3022 RMK AO2 PK WND 31026/1558 SLP240 T10061100","updated":"2025-11-27T17:15:45Z"}
