{"icao":"KORD","metar":"KORD 292351Z 20017G26KT 10SM SCT042 BKN250 32/23 A2988 RMK AO2 PK WND 19028/2330 SLP110 T03170228 10333 20311 55001 $","updated":"2026-06-30T00:03:14Z"}
