{"icao":"LPMR","metar":"LPMR 220900Z 25008KT 210V280 5000 BR BKN005 BKN013 20/19 Q1017","updated":"2025-10-22T09:20:35Z"}
