{"icao":"LPMR","metar":"LPMR 010100Z 32001KT CAVOK 14/12 Q1020","updated":"2025-10-01T01:26:46Z"}
