{"icao":"LPOV","metar":"LPOV 101800Z 35014KT CAVOK 16/14 Q1012","updated":"2026-04-10T18:51:02Z"}
