{"icao":"KJFK","metar":"KJFK 040651Z 25009KT 10SM SCT250 02/M03 A3005 RMK AO2 SLP176 T00171033","updated":"2025-12-04T07:19:57Z"}
