{"icao":"LPBJ","metar":"LPBJ 150600Z 30009KT 4000 BR OVC005 16/15 Q1016","updated":"2026-06-15T06:21:42Z"}
