{"icao":"KORD","metar":"KORD 281951Z 27008KT 10SM FEW035 M01/M11 A3035 RMK AO2 SLP287 T10061106 $","updated":"2025-11-28T20:21:18Z"}
