{"icao":"LPMT","metar":"LPMT 100800Z 35004KT 9999 FEW012 11/11 Q1020","updated":"2025-12-10T08:27:21Z"}
