{"icao":"KLAX","metar":"KLAX 132353Z 27013KT 10SM SCT011 21/16 A2989 RMK AO2 SLP121 T02060156 10222 20200 56012 $","updated":"2026-06-14T00:07:19Z"}
