{"icao":"LPFL","metar":"LPFL 150930Z 02004KT 340V060 9999 FEW018 BKN038 17/10 Q1033","updated":"2026-05-15T09:46:48Z"}
