{"icao":"LPPD","metar":"LPPD 220700Z 26022KT 5000 -DZ SCT005 BKN007 16/15 Q1015","updated":"2026-01-22T07:26:10Z"}
