{"icao":"KLAX","metar":"KLAX 130453Z 14003KT 10SM CLR 16/01 A3017 RMK AO2 SLP216 T01560011 $","updated":"2026-01-13T05:24:56Z"}
