{"icao":"KJFK","metar":"KJFK 220651Z 30011G22KT 10SM FEW250 M02/M11 A3042 RMK AO2 SLP299 T10171111 $","updated":"2025-12-22T07:23:34Z"}
