{"icao":"LPPS","metar":"LPPS 271600Z 29018KT 9999 SCT015 18/13 Q1016","updated":"2026-01-27T16:29:26Z"}
