{"icao":"LPPR","metar":"LPPR 250100Z 35002KT CAVOK 09/07 Q1020","updated":"2025-11-25T01:24:08Z"}
