{"icao":"KORD","metar":"KORD 272251Z 06008KT 10SM FEW060 27/12 A2999 RMK AO2 SLP152 T02720117","updated":"2026-05-27T23:15:56Z"}
