{"icao":"LPBJ","metar":"LPBJ 120800Z 07004KT CAVOK 17/11 Q1017","updated":"2025-10-12T08:20:11Z"}
