{"icao":"LPPT","metar":"LPPT 062100Z 35010KT 9999 BKN038 09/04 Q1025","updated":"2026-01-06T21:19:46Z"}
