{"icao":"KJFK","metar":"KJFK 161051Z 29006KT 10SM BKN070 BKN250 M03/M09 A3022 RMK AO2 SLP231 T10331089 $","updated":"2025-12-16T11:18:38Z"}
