{"icao":"LPMR","metar":"LPMR 130400Z 00000KT CAVOK 14/13 Q1021"}
