{"icao":"LPMR","metar":"LPMR 050600Z 02007KT CAVOK 05/M03 Q1011","updated":"2026-01-05T06:37:07Z"}
