{"icao":"LPLA","metar":"LPLA 070400Z 28003KT 220V330 9999 FEW025 15/10 Q1019","updated":"2025-11-07T04:20:52Z"}
