{"icao":"KJFK","metar":"KJFK 021351Z 04011KT 10SM FEW047 SCT250 16/07 A3049 RMK AO2 SLP324 T01610067","updated":"2025-10-02T14:17:17Z"}
