{"icao":"LPMT","metar":"LPMT 171800Z 33009KT 9999 FEW030CB 27/16 Q1015","updated":"2026-06-17T18:13:50Z"}
