{"icao":"LPLA","metar":"LPLA 041700Z 29007KT 240V320 9999 FEW030 BKN040 17/10 Q1022","updated":"2026-04-04T17:28:29Z"}
