{"icao":"LPAZ","metar":"LPAZ 092000Z 17012KT 9999 FEW010 SCT013 23/21 Q1024","updated":"2025-10-09T20:19:40Z"}
