{"icao":"LPMT","metar":"LPMT 210100Z 23006KT 9999 BKN008 BKN035 19/08 Q1014","updated":"2025-10-21T01:21:50Z"}
