{"icao":"KLAX","metar":"KLAX 271353Z 00000KT 2SM BR OVC004 16/14 A2995 RMK AO2 SLP139 VIS SW-N 1 1/2 T01560144","updated":"2026-03-27T14:48:54Z"}
