{"icao":"KORD","metar":"KORD 140551Z 35006KT 10SM OVC055 16/12 A3020 RMK AO2 SLP226 T01610122 10189 20161 402000128 51010 $","updated":"2025-10-14T06:27:49Z"}
