{"icao":"KLAX","metar":"KLAX 111053Z 10004KT 10SM CLR 13/07 A3000 RMK AO2 SLP156 T01280067 $","updated":"2025-12-11T11:18:07Z"}
