{"icao":"KLAX","metar":"KLAX 100153Z 25004KT 10SM OVC230 17/13 A2992 RMK AO2 SLP133 T01670133 $","updated":"2026-02-10T02:23:52Z"}
