{"icao":"LPMR","metar":"LPMR 221700Z 22004KT 3500 -RA BR FEW006 BKN035 10/09 Q1013","updated":"2025-12-22T17:17:35Z"}
