{"icao":"LPLA","metar":"LPLA 131300Z 32013KT 9999 SCT020 16/12 Q1031","updated":"2026-03-13T14:00:20Z"}
