{"icao":"KJFK","metar":"KJFK 140251Z 17014KT 10SM BKN100 BKN140 BKN250 13/10 A2983 RMK AO2 SLP102 T01330100 58007","updated":"2026-05-14T03:39:12Z"}
