{"icao":"LPLA","metar":"LPLA 061500Z 26023G34KT 9000 -SHRA FEW020 SCT030 17/12 Q1006","updated":"2026-02-06T15:38:36Z"}
