{"icao":"LPBJ","metar":"LPBJ 071900Z 31004KT 250V330 9999 FEW042 15/09 Q1017","updated":"2026-03-07T19:20:17Z"}
