{"icao":"LPMT","metar":"LPMT 270600Z 04006KT CAVOK 03/01 Q1010","updated":"2025-12-27T07:17:37Z"}
