{"icao":"LPFL","metar":"LPFL 292100Z 26009G22KT 200V340 9999 FEW019 16/09 Q1012","updated":"2026-01-30T06:46:26Z"}
