{"icao":"KLAX","metar":"KLAX 162053Z 28007KT 10SM FEW009 SCT180 BKN250 21/13 A2995 RMK AO2 SLP140 FG BANK W T02060133 58018 $","updated":"2026-03-16T21:38:25Z"}
