{"icao":"LPFR","metar":"LPFR 142000Z 28015KT 9999 FEW010 SCT038 15/12 Q1017","updated":"2026-03-14T20:27:06Z"}
