{"icao":"LPFL","metar":"LPFL 162100Z 19006KT 150V220 9999 VCSH SCT016 15/13 Q1018","updated":"2026-02-17T05:56:32Z"}
