{"icao":"LPFR","metar":"LPFR 171500Z 12009KT CAVOK 25/16 Q1013","updated":"2025-10-17T15:17:54Z"}
