{"icao":"LPMT","metar":"LPMT 101400Z 22015G26KT 180V250 9999 BKN035 20/11 Q1010","updated":"2026-05-10T14:51:15Z"}
