{"icao":"LPOV","metar":"LPOV 300700Z 17005KT 9999 FEW016 BKN035 11/11 Q1012","updated":"2025-10-30T07:17:29Z"}
