{"icao":"LPMT","metar":"LPMT 170300Z 10003KT CAVOK 14/11 Q1013","updated":"2025-10-17T04:21:07Z"}
