{"icao":"LPPT","metar":"LPPT 282000Z 08003KT 010V110 9999 SCT002 BKN009 17/17 Q1010","updated":"2025-10-28T20:21:00Z"}
