{"icao":"KLAX","metar":"KLAX 150053Z 30006KT 10SM FEW200 FEW250 20/09 A3003 RMK AO2 SLP170 T02000089 $","updated":"2026-01-15T01:39:59Z"}
