{"icao":"LPPD","metar":"LPPD 280130Z 05008KT 360V080 9999 SCT018 BKN030 14/09 Q1031","updated":"2026-03-28T02:03:54Z"}
