{"icao":"LPHR","metar":"LPHR 050000Z 01007KT 9999 SCT030 12/08 Q1027","updated":"2026-01-05T03:54:22Z"}
