{"icao":"LPOV","metar":"LPOV 230400Z VRB01KT CAVOK 09/06 Q1019","updated":"2025-09-23T04:20:38Z"}
