{"icao":"LPPR","metar":"LPPR 220500Z 21008KT 2000 BR BKN001 BKN004 18/18 Q1013","updated":"2025-10-22T05:17:58Z"}
