{"icao":"LPPR","metar":"LPPR 071600Z 31010KT 270V330 9999 FEW025 14/07 Q1018","updated":"2026-03-07T16:26:24Z"}
