{"icao":"LPFR","metar":"LPFR 100700Z 34003KT 300V010 CAVOK 07/06 Q1030","updated":"2026-01-10T07:18:07Z"}
