{"icao":"KJFK","metar":"KJFK 220751Z 08004KT 7SM RA BKN070 OVC085 14/13 A2972 RMK AO2 SLP062 P0005 T01440133","updated":"2025-10-22T08:26:48Z"}
