{"icao":"LPFL","metar":"LPFL 251300Z 18008KT 140V210 9999 BKN030 15/08 Q1031","updated":"2026-03-25T13:07:48Z"}
