{"icao":"LPLA","metar":"LPLA 230737Z 19034G48KT 5000 -RA SCT009 BKN014 BKN018 17/15 Q1008","updated":"2026-02-23T07:53:36Z"}
