{"icao":"LPMT","metar":"LPMT 041100Z 32006KT 280V010 9999 SCT030 18/14 Q1017","updated":"2025-11-04T11:16:44Z"}
