{"icao":"KORD","metar":"KORD 170851Z 19006KT 10SM OVC230 20/16 A2988 RMK AO2 SLP115 T02000161 58001","updated":"2026-05-17T09:03:44Z"}
