{"icao":"KLAX","metar":"KLAX 022253Z 25012KT 10SM FEW015 FEW060 SCT250 19/12 A2993 RMK AO2 SLP133 T01890117 $","updated":"2026-04-02T23:34:18Z"}
