{"icao":"LPLA","metar":"LPLA 251300Z 36009G19KT 300V080 9999 SCT025 SCT035 20/13 Q1022","updated":"2025-10-25T13:21:38Z"}
