{"icao":"KORD","metar":"KORD 030151Z 19011G23KT 10SM -RA SCT022 BKN070 BKN100 OVC160 17/12 A2964 RMK AO2 PK WND 23041/0119 RAB17 TSB13E50 SLP039 FRQ LTGICCCCG DSNT NW-NE-SE-SW CB DSNT NW-NE-SE-SW MOV NE P0015 T01670117","updated":"2026-04-03T02:11:10Z"}
