{"icao":"LPFL","metar":"LPFL 210800Z 15005KT 110V180 9999 FEW020 17/10 Q1031","updated":"2025-11-21T08:26:37Z"}
