{"icao":"KORD","metar":"KORD 030851Z 25018G25KT 10SM OVC013 11/08 A2987 RMK AO2 PK WND 24026/0754 SLP116 T01060078 51042 $","updated":"2026-04-03T10:42:00Z"}
