{"icao":"LPPD","metar":"LPPD 011400Z 36016G26KT 330V030 9999 FEW020 SCT045 17/11 Q1026","updated":"2025-12-01T14:20:54Z"}
