{"icao":"LPPT","metar":"LPPT 012300Z 12012KT 090V160 9999 BKN010 15/14 Q1005","updated":"2026-01-01T23:18:52Z"}
