{"icao":"LPMA","metar":"LPMA 210630Z 01010KT 330V030 9999 SCT016 15/10 Q1026","updated":"2026-02-21T06:40:17Z"}
