{"icao":"KJFK","metar":"KJFK 100951Z 36009KT 10SM OVC075 14/12 A2968 RMK AO2 SLP051 T01390117 $","updated":"2025-11-10T10:21:46Z"}
