{"icao":"LPCS","metar":"LPCS 261500Z 23011KT 210V270 9999 FEW012 23/17 Q1019","updated":"2026-06-26T15:22:00Z"}
