{"icao":"LPPT","metar":"LPPT 090900Z 10004KT 0400 R02/P2000 FG VV001 11/11 Q1022","updated":"2025-11-09T09:16:16Z"}
