{"icao":"LPPR","metar":"LPPR 172300Z VRB02KT CAVOK 14/12 Q1016","updated":"2025-10-17T23:15:17Z"}
