{"icao":"LPLA","metar":"LPLA 230000Z 25003KT 230V320 9999 FEW012 15/14 Q1022","updated":"2026-05-23T00:05:22Z"}
