{"icao":"KORD","metar":"KORD 191751Z 07003KT 10SM FEW250 15/02 A3008 RMK AO2 SLP188 T01500022 10150 20022 58002 $","updated":"2026-03-19T17:53:14Z"}
