{"icao":"LPPR","metar":"LPPR 180100Z 14010KT CAVOK 11/08 Q1021","updated":"2025-12-18T01:25:22Z"}
