{"icao":"KLAX","metar":"KLAX 172153Z 26013KT 10SM FEW040 21/13 A2977 RMK AO2 SLP080 T02060128","updated":"2026-05-17T22:52:50Z"}
