{"icao":"KORD","metar":"KORD 270451Z 08010KT 9SM OVC250 08/06 A2999 RMK AO2 SLP157 T00780056 $","updated":"2026-04-27T05:52:34Z"}
