{"icao":"KLAX","metar":"KLAX 292053Z 26016KT 10SM FEW025 FEW040 SCT075 19/12 A3002 RMK AO2 SLP165 T01890122 50000 $","updated":"2026-05-29T21:05:57Z"}
