{"icao":"KJFK","metar":"KJFK 240951Z 35010KT 10SM SCT090 SCT170 SCT250 18/13 A2992 RMK SLP130 T01830133 ","updated":"2026-06-24T10:47:49Z"}
