{"icao":"KJFK","metar":"KJFK 030251Z 27010KT 10SM FEW042 BKN060 M02/M09 A2987 RMK AO2 SLP115 60000 T10221094 51018 $","updated":"2026-01-03T03:21:12Z"}
