{"icao":"KLAX","metar":"KLAX 150508Z 00000KT 10SM BKN009 16/14 A3009 RMK AO2 T01560139","updated":"2025-12-15T05:24:19Z"}
