{"icao":"LPPS","metar":"LPPS 221900Z 07013KT 040V100 9999 FEW015 SCT030 18/11 Q1026","updated":"2025-11-22T19:13:58Z"}
