{"icao":"KJFK","metar":"KJFK 110851Z 24004KT 10SM SCT027 BKN037 BKN060 16/11 A3026 RMK AO2 SLP246 T01610111 56008","updated":"2025-10-11T09:15:54Z"}
