{"icao":"LPPS","metar":"LPPS 221900Z 29014KT 9999 FEW014 17/14 Q1017","updated":"2026-01-22T19:23:53Z"}
