{"icao":"LPLA","metar":"LPLA 092000Z 23004KT 9999 FEW022 16/13 Q1024","updated":"2025-11-09T20:17:52Z"}
