{"icao":"LPPS","metar":"LPPS 131900Z 28016KT 9999 FEW015 FEW018CB 19/12 Q1007","updated":"2025-11-13T19:15:14Z"}
