{"icao":"LPPD","metar":"LPPD 050730Z 04009KT 010V080 9999 FEW025 SCT040 11/03 Q1034","updated":"2026-03-05T07:40:53Z"}
