{"icao":"LPHR","metar":"LPHR 091900Z 21019KT 9000 -RA FEW006 SCT010 BKN050 18/17 Q1023","updated":"2026-01-09T19:18:51Z"}
