{"icao":"LPFR","metar":"LPFR 222200Z 01007KT CAVOK 12/01 Q1028","updated":"2025-11-22T22:16:45Z"}
