{"icao":"LPPD","metar":"LPPD 192300Z 02008KT 350V050 9999 FEW025 19/10 Q1027","updated":"2025-09-19T23:14:58Z"}
