{"icao":"LPMT","metar":"LPMT 111900Z VRB01KT CAVOK 20/16 Q1017","updated":"2025-10-11T19:12:12Z"}
