{"icao":"LPMT","metar":"LPMT 131200Z 30016G30KT 7000 -SHRA FEW025CB BKN028 12/09 Q1008","updated":"2026-02-13T12:57:01Z"}
