{"icao":"KLAX","metar":"KLAX 241453Z 09003KT 4SM BR OVC011 17/14 A2999 RMK AO2 SLP155 T01670144 53012","updated":"2026-03-24T14:56:49Z"}
