{"icao":"LPPT","metar":"LPPT 282200Z 24020G30KT 6000 -RADZ FEW004 BKN006 16/16 Q1005","updated":"2026-01-28T22:25:28Z"}
