{"icao":"LPHR","metar":"LPHR 040800Z 07003KT 040V100 9999 FEW011 17/15 Q1028","updated":"2026-06-04T08:19:31Z"}
