{"icao":"KLAX","metar":"KLAX 150953Z 10004KT 9SM OVC013 19/17 A2985 RMK AO2 SLP104 T01940167 $","updated":"2025-09-15T10:18:32Z"}
