{"icao":"KJFK","metar":"KJFK 231951Z 29013KT 10SM SCT050 SCT070 16/03 A2992 RMK AO2 SLP132 T01560033 $","updated":"2025-10-23T20:19:19Z"}
