{"icao":"LPMA","metar":"LPMA 141600Z 02010KT 340V060 9999 SCT016 17/08 Q1031","updated":"2026-02-14T16:28:15Z"}
