{"icao":"LPHR","metar":"LPHR 091100Z 24010KT 9999 3000W SHRA FEW008 FEW020TCU BKN030 21/19 Q1020","updated":"2025-10-09T11:14:57Z"}
