{"icao":"LPPT","metar":"LPPT 240430Z 19011KT 9999 BKN012 13/11 Q1019","updated":"2026-02-24T04:50:23Z"}
