{"icao":"LPCS","metar":"LPCS 061930Z 13005KT 9999 -RA FEW005 BKN040 16/15 Q1015","updated":"2026-04-06T19:54:01Z"}
