{"icao":"KORD","metar":"KORD 290851Z 08012KT 10SM BKN250 10/04 A3001 RMK AO2 SLP165 T01000039 56007","updated":"2025-10-29T09:19:48Z"}
