{"icao":"LPLA","metar":"LPLA 271800Z 36012G22KT 9999 FEW007 SCT018 BKN040 17/14 Q1018 RESHRA","updated":"2025-10-27T18:27:14Z"}
