{"icao":"LPPT","metar":"LPPT 191300Z 12004KT 020V170 CAVOK 26/15 Q1019","updated":"2025-09-19T13:26:18Z"}
