{"icao":"LPAZ","metar":"LPAZ 081130Z 34021KT 9999 FEW018 BKN030 18/11 Q1033","updated":"2026-04-08T11:53:55Z"}
