{"icao":"KLAX","metar":"KLAX 062253Z 25013KT 10SM FEW250 21/13 A2999 RMK AO2 SLP153 T02060133 $","updated":"2026-04-06T23:34:29Z"}
