{"icao":"LPCS","metar":"LPCS 221100Z 24010KT 9999 FEW025 BKN035 14/10 Q1010","updated":"2026-01-22T11:21:50Z"}
