{"icao":"LPST","metar":"LPST 261000Z 01008KT 340V050 CAVOK 13/05 Q1026","updated":"2025-11-26T10:21:27Z"}
