{"icao":"LPAZ","metar":"LPAZ 241400Z 02012KT 350V050 9999 FEW022 BKN035 22/15 Q1021","updated":"2025-09-24T14:16:06Z"}
