{"icao":"LPLA","metar":"LPLA 201700Z 09008KT 9999 FEW025 SCT038 17/09 Q1031","updated":"2025-11-20T17:15:12Z"}
