{"icao":"LPAR","metar":"LPAR 131500Z 29009KT 270V340 9999 SCT020 16/09 Q1010","updated":"2026-01-13T15:23:53Z"}
