{"icao":"LPPD","metar":"LPPD 162230Z 31007KT 9999 FEW025 14/09 Q1028","updated":"2026-05-16T22:42:16Z"}
