{"icao":"LPPS","metar":"LPPS 212000Z 34005KT 9999 FEW014 22/20 Q1021","updated":"2025-10-21T20:20:58Z"}
