{"icao":"LPBJ","metar":"LPBJ 200100Z 01003KT 9999 FEW040 09/07 Q1018","updated":"2025-11-20T01:22:25Z"}
