{"icao":"LPBJ","metar":"LPBJ 301700Z 25006KT 9999 SCT045 20/12 Q1015","updated":"2025-10-30T17:16:45Z"}
