{"icao":"LPPI","metar":"LPPI 021030Z 11013KT 9999 FEW012 SCT020 21/17 Q1029","updated":"2026-07-02T10:37:36Z"}
