{"icao":"LPST","metar":"LPST 141700Z 34009KT 9999 SCT016 12/09 Q1020","updated":"2026-01-15T01:39:42Z"}
