{"icao":"KORD","metar":"KORD 030551Z 17006KT 10SM CLR 21/12 A3020 RMK AO2 SLP221 T02060122 10239 20206 402940150 50001","updated":"2025-10-03T06:26:26Z"}
