{"icao":"LPPR","metar":"LPPR 291900Z 26006KT 200V300 7000 VCSH FEW020CB BKN030 14/11 Q1009","updated":"2026-01-29T19:29:19Z"}
