{"icao":"LPMR","metar":"LPMR 070100Z VRB01KT CAVOK 15/13 Q1021","updated":"2025-10-07T01:17:41Z"}
