{"icao":"KORD","metar":"KORD 242251Z 10008KT 10SM FEW250 FEW300 09/01 A3028 RMK AO2 SLP258 T00890006 $","updated":"2025-10-24T23:16:13Z"}
