{"icao":"LPFR","metar":"LPFR 161500Z 21006KT 160V240 CAVOK 28/19 Q1019","updated":"2025-09-16T15:18:46Z"}
