{"icao":"LPFR","metar":"LPFR 020700Z 31011KT 6000 -RADZ SCT004 BKN009 13/12 Q1018","updated":"2025-12-02T07:20:33Z"}
