{"icao":"KJFK","metar":"KJFK 181412Z 06003KT 1/4SM R04R/P6000FT -RA BR BKN003 BKN012 OVC060 01/01 A2993 RMK AO2 SFC VIS 2 1/2 P0000 T00110011 $","updated":"2026-02-18T14:41:53Z"}
