{"icao":"KORD","metar":"KORD 120751Z 25009KT 10SM FEW050 03/01 A2975 RMK AO2 SLP080 T00330006","updated":"2025-11-12T08:26:52Z"}
