{"icao":"LPFR","metar":"LPFR 251800Z 27009KT 9999 FEW030 23/18 Q1016","updated":"2025-09-25T18:26:14Z"}
