{"icao":"LPMT","metar":"LPMT 092300Z 23005KT 200V270 5000 BR BKN004 SCT016 15/15 Q1016","updated":"2026-02-09T23:35:02Z"}
