{"icao":"LPBJ","metar":"LPBJ 051000Z 13007KT CAVOK 20/07 Q1022","updated":"2026-04-05T10:31:50Z"}
