{"icao":"LPMA","metar":"LPMA 092200Z 31004KT 270V340 9999 SCT016 19/12 Q1022","updated":"2025-11-09T22:15:47Z"}
