{"icao":"LPMT","metar":"LPMT 280900Z 36014KT CAVOK 12/07 Q1026","updated":"2026-02-28T09:24:43Z"}
