{"icao":"LPMA","metar":"LPMA 090700Z 32003KT 280V360 9999 SCT015 SCT030 20/14 Q1022","updated":"2025-11-09T07:16:40Z"}
