{"icao":"LPBJ","metar":"LPBJ 010800Z 23011KT 4000 -DZ BR BKN007 OVC020 13/13 Q1016","updated":"2026-02-01T08:30:57Z"}
