{"icao":"KORD","metar":"KORD 192051Z 26010KT 10SM FEW060 FEW250 24/08 A2995 RMK AO2 SLP139 T02390083 55008 $","updated":"2026-06-19T21:09:26Z"}
