{"icao":"LPPD","metar":"LPPD 021200Z 09008KT 050V130 9999 FEW018 SCT030 20/16 Q1022","updated":"2025-11-02T12:32:47Z"}
