{"icao":"LPFL","metar":"LPFL 161100Z 17010KT 9000 -RA SCT005 BKN009 19/18 Q1019 RERA","updated":"2025-11-16T11:13:24Z"}
