{"icao":"LPPR","metar":"LPPR 150430Z 24006KT 200V270 5000 -SHRA BR FEW004 SCT008 BKN012 11/11 Q1028","updated":"2026-02-15T04:52:41Z"}
