{"icao":"KLAX","metar":"KLAX 311653Z 36008KT 10SM FEW080 OVC100 19/03 A3003 RMK AO2 SLP166 T01890028 $","updated":"2025-12-31T17:18:18Z"}
