{"icao":"LPMT","metar":"LPMT 291000Z 03012KT 360V060 CAVOK 15/04 Q1029","updated":"2026-03-29T10:31:37Z"}
