{"icao":"LPAZ","metar":"LPAZ 191500Z 03018KT 350V050 9999 FEW022 SCT035 23/15 Q1021","updated":"2025-09-19T15:17:26Z"}
