{"icao":"KLAX","metar":"KLAX 132211Z 26009KT 2 1/2SM HZ BKN006 BKN280 15/12 A3000 RMK AO2 VIS SW-W 1 3/4 T01500122 $","updated":"2025-12-13T22:17:40Z"}
