{"icao":"KLAX","metar":"KLAX 241453Z 08005KT 6SM R25L/4500VP6000FT BR FEW005 OVC008 14/13 A3016 RMK AO2 SLP213 T01440128 53008","updated":"2025-11-24T15:21:35Z"}
