{"icao":"LPFR","metar":"LPFR 132100Z 09004KT CAVOK 11/11 Q1016","updated":"2026-01-13T21:20:06Z"}
