{"icao":"LPCS","metar":"LPCS 142000Z 36019G29KT 9999 FEW014 20/17 Q1021","updated":"2025-09-14T20:16:32Z"}
