{"icao":"KJFK","metar":"KJFK 160251Z 20013KT 10SM -RA FEW039 BKN055 OVC110 12/09 A2938 RMK AO2 RAB37 SLP948 P0000 60000 T01170089 58060","updated":"2025-11-16T03:17:10Z"}
