{"icao":"LPBJ","metar":"LPBJ 211600Z 03012KT CAVOK 15/M00 Q1025","updated":"2025-11-21T16:23:39Z"}
