{"icao":"LPOV","metar":"LPOV 222100Z 20010KT 160V240 9999 BKN006 SCT012 20/19 Q1016","updated":"2025-10-22T21:13:23Z"}
