{"icao":"KLAX","metar":"KLAX 140913Z 06005KT 9SM BKN012 13/12 A3008 RMK AO2 T01330117","updated":"2026-02-14T09:28:50Z"}
