{"icao":"LPPR","metar":"LPPR 292230Z 21008KT 190V250 9999 VCSH SCT011 BKN040 16/13 Q1012","updated":"2026-04-29T22:55:11Z"}
