{"icao":"KORD","metar":"KORD 081038Z 11007KT 5SM -TSRA BR SCT030CB BKN045 OVC090 21/19 A2997 RMK AO2 RAB13 OCNL LTGIC NW-N TS NW-N MOV N P0006 T02060189 $","updated":"2026-06-08T10:51:33Z"}
