{"icao":"LPAZ","metar":"LPAZ 180800Z 25012KT 9000 FEW002 BKN004 23/22 Q1015","updated":"2025-10-18T08:21:02Z"}
