{"icao":"LPMT","metar":"LPMT 181800Z 03007KT 9999 FEW020 10/05 Q1015","updated":"2026-01-18T18:26:38Z"}
