{"icao":"LPFL","metar":"LPFL 130830Z 21004KT 170V250 9999 FEW024 14/09 Q1028","updated":"2026-02-13T08:40:48Z"}
