{"icao":"KJFK","metar":"KJFK 250451Z 00000KT 10SM SCT170 BKN210 06/02 A3028 RMK AO2 SLP254 T00610022 401170050","updated":"2025-11-25T05:19:11Z"}
