{"icao":"LPMA","metar":"LPMA 292000Z 01014KT 320V060 9999 SCT016 SCT030 22/13 Q1021","updated":"2025-09-29T20:17:59Z"}
