{"icao":"LPHR","metar":"LPHR 041600Z 31024G34KT 9999 SCT030 18/08 Q1008 WS ALL RWY","updated":"2025-11-04T16:22:08Z"}
