{"icao":"LPHR","metar":"LPHR 271100Z 13019KT 9999 FEW012 BKN030 15/10 Q1020","updated":"2025-12-27T11:15:41Z"}
