{"icao":"LPBJ","metar":"LPBJ 260100Z 25008KT 9999 OVC003 13/13 Q1015","updated":"2026-01-26T01:50:11Z"}
