{"icao":"LPMA","metar":"LPMA 090500Z 34020G32KT 310V010 9999 BKN015 FEW016TCU 15/08 Q1016","updated":"2026-04-09T05:08:08Z"}
