{"icao":"LPSJ","metar":"LPSJ 221230Z 26007KT 230V300 9999 FEW018 BKN045 21/18 Q1027","updated":"2026-06-22T12:48:39Z"}
