{"icao":"KORD","metar":"KORD 251851Z 05011KT 10SM FEW017 OVC220 05/00 A3012 RMK AO2 SLP205 T00500000 $","updated":"2025-12-25T19:15:26Z"}
