{"icao":"LPMR","metar":"LPMR 140500Z 15010KT 9999 SCT020 13/11 Q1001","updated":"2025-11-14T05:18:24Z"}
