{"icao":"LPMA","metar":"LPMA 301000Z 36008KT 260V040 9999 SCT016 24/13 Q1022","updated":"2025-09-30T10:18:28Z"}
