{"icao":"LPFL","metar":"LPFL 210900Z VRB06G20KT 9999 -DZ FEW005 BKN008 18/16 Q1021","updated":"2026-01-21T09:31:03Z"}
