{"icao":"LPOV","metar":"LPOV 281800Z 33009KT 9999 FEW025 21/15 Q1007","updated":"2026-04-28T18:15:47Z"}
