{"icao":"LPMA","metar":"LPMA 241600Z 16005KT 140V210 9999 SCT016 18/09 Q1026","updated":"2026-01-24T16:23:32Z"}
