{"icao":"KLAX","metar":"KLAX 261053Z 00000KT 10SM FEW140 BKN180 BKN250 12/08 A3023 RMK AO2 SLP236 T01170083 $","updated":"2026-01-26T11:20:03Z"}
