{"icao":"KJFK","metar":"KJFK 281951Z 20009KT 10SM FEW028 FEW085 SCT250 25/18 A3004 RMK AO2 SLP173 T02500183","updated":"2025-09-28T20:17:20Z"}
