{"icao":"LPCS","metar":"LPCS 100730Z 35014KT 9999 FEW012 SCT021 10/08 Q1021","updated":"2026-03-10T07:39:22Z"}
