{"icao":"LPLA","metar":"LPLA 292000Z 09013KT 070V130 8000 -DZ BKN005 BKN012 15/14 Q1013","updated":"2025-12-29T20:22:45Z"}
