{"icao":"LPLA","metar":"LPLA 010400Z 22005KT 140V260 9999 FEW015 21/18 Q1020","updated":"2025-10-01T04:20:54Z"}
