{"icao":"LPLA","metar":"LPLA 142200Z 31021KT 4000 RADZ BKN007 BKN015 BKN030 15/14 Q1021","updated":"2026-01-14T22:20:49Z"}
