{"icao":"LPMR","metar":"LPMR 130500Z VRB01KT CAVOK 14/13 Q1021"}
