{"icao":"KORD","metar":"KORD 241251Z 33006KT 2SM RA BR OVC070 15/14 A3000 RMK AO2 TSE42 SLP158 OCNL LTGIC DSNT E-SE CB DSNT E-SE MOV NE P0025 T01500139 $","updated":"2026-05-24T13:23:27Z"}
