{"icao":"LPFR","metar":"LPFR 230900Z 26004KT 230V290 9999 BKN038 23/20 Q1021","updated":"2025-10-23T09:19:42Z"}
