{"icao":"LPMR","metar":"LPMR 030800Z 17003KT CAVOK 08/07 Q1023","updated":"2025-11-03T09:22:14Z"}
