{"icao":"LPMR","metar":"LPMR 061600Z 33017KT CAVOK 19/13 Q1019","updated":"2026-06-06T17:12:00Z"}
