{"icao":"LPHR","metar":"LPHR 212100Z 18004KT 150V210 9999 FEW006 BKN055 17/16 Q1022","updated":"2026-02-21T23:22:24Z"}
