{"icao":"LPPR","metar":"LPPR 272100Z 01003KT 330V070 CAVOK 09/07 Q1025","updated":"2025-11-27T21:16:35Z"}
