{"icao":"KJFK","metar":"KJFK 151851Z 10015G23KT 10SM BKN060 BKN110 OVC200 04/M03 A3043 RMK AO2 SLP305 T00391028","updated":"2026-03-15T19:26:56Z"}
