{"icao":"LPPT","metar":"LPPT 252230Z 32008KT 280V350 CAVOK 17/11 Q1016","updated":"2026-04-25T22:35:26Z"}
