{"icao":"LPMA","metar":"LPMA 080230Z 03005KT 340V060 9999 VCSH BKN013 20/18 Q1021","updated":"2025-11-08T03:00:55Z"}
