{"icao":"LPPS","metar":"LPPS 171230Z 11011KT 9999 SCT015 23/19 Q1021","updated":"2025-09-17T12:36:34Z"}
