{"icao":"LPPR","metar":"LPPR 160700Z 35014KT CAVOK 11/07 Q1008","updated":"2025-12-16T07:21:40Z"}
