{"icao":"LPFR","metar":"LPFR 150530Z 25006KT CAVOK 10/08 Q1030","updated":"2026-02-15T05:55:05Z"}
