{"icao":"LPOV","metar":"LPOV 201000Z 02004KT 350V060 9999 FEW040 12/07 Q1032","updated":"2026-02-20T10:35:57Z"}
