{"icao":"LPLA","metar":"LPLA 261417Z 30024KT 9999 FEW012 BKN018 19/16 Q1029","updated":"2026-02-26T14:44:51Z"}
