{"icao":"KORD","metar":"KORD 122251Z 22009KT 10SM FEW250 04/M03 A3004 RMK AO2 SLP180 T00391028 $","updated":"2026-01-12T23:16:04Z"}
