{"icao":"LPBJ","metar":"LPBJ 290800Z 03003KT 9999 SCT016 SCT042 17/17 Q1007","updated":"2025-10-29T08:25:25Z"}
