{"icao":"LPLA","metar":"LPLA 311200Z 23005KT 180V270 9999 FEW012 SCT020 19/16 Q1015","updated":"2026-01-31T12:44:34Z"}
