{"icao":"KLAX","metar":"KLAX 010453Z 26012KT 10SM CLR 20/17 A3000 RMK AO2 SLP157 T02000167 $","updated":"2025-10-01T05:17:30Z"}
