{"icao":"LPHR","metar":"LPHR 271630Z 18006KT 150V220 9999 SCT018 16/12 Q1034","updated":"2026-02-27T16:39:23Z"}
