{"icao":"LPPS","metar":"LPPS 121000Z 22008KT 9999 FEW008 SCT012 18/16 Q1006","updated":"2025-11-12T10:20:48Z"}
