{"icao":"LPFL","metar":"LPFL 281000Z VRB12G23KT 7000 -RA FEW009 BKN012 19/16 Q1001 RERA","updated":"2026-01-28T10:27:06Z"}
