{"icao":"LPFR","metar":"LPFR 100100Z 33003KT 300V010 CAVOK 12/09 Q1019","updated":"2025-11-10T01:27:01Z"}
