{"icao":"KJFK","metar":"KJFK 240551Z 33015G26KT 10SM FEW250 M11/M24 A3047 RMK PK WND 34036/0528 SLP316 T11061239 10011 21106 51035 $ ","updated":"2026-01-24T06:30:15Z"}
