{"icao":"LPLA","metar":"LPLA 250800Z 31010KT 9999 FEW025 SCT040 13/09 Q1027","updated":"2026-02-25T08:47:31Z"}
