{"icao":"KJFK","metar":"KJFK 300851Z 08011G21KT 6SM -DZ BR BKN008 OVC012 11/11 A2994 RMK AO2 DZB13 SLP140 P0000 60000 T01110106 56027","updated":"2025-10-30T09:20:23Z"}
