{"icao":"LPHR","metar":"LPHR 091300Z 23021KT 5000 BR FEW005 BKN007 18/17 Q1008","updated":"2026-02-09T13:06:31Z"}
