{"icao":"LPPD","metar":"LPPD 100600Z 19010KT 9000 -RA SCT005 BKN010 20/20 Q1022","updated":"2025-10-10T06:27:17Z"}
