{"icao":"LPOV","metar":"LPOV 180300Z 16003KT CAVOK 12/11 Q1015","updated":"2025-10-18T03:27:03Z"}
