{"icao":"LPMT","metar":"LPMT 152100Z 04003KT CAVOK 19/11 Q1016","updated":"2025-10-15T21:15:44Z"}
