{"icao":"KJFK","metar":"KJFK 012051Z 18020KT 10SM FEW060 FEW250 13/05 A2987 RMK PK WND 20028/2036 SLP116 T01330050 55004 ","updated":"2026-05-01T21:52:08Z"}
