{"icao":"LPPR","metar":"LPPR 271700Z 30002KT CAVOK 20/10 Q1020","updated":"2025-10-27T17:15:41Z"}
