{"icao":"KJFK","metar":"KJFK 311751Z 29020G37KT 10SM BKN055 14/02 A2939 RMK AO2 PK WND 27040/1654 SLP952 T01390022 10144 20117 58002 $","updated":"2025-10-31T18:27:09Z"}
