{"icao":"LPAZ","metar":"LPAZ 290300Z 05005KT 9999 SCT032 12/09 Q1028","updated":"2025-11-29T03:10:25Z"}
