{"icao":"LPAZ","metar":"LPAZ 041230Z 24018KT 7000 FEW006 17/15 Q0999","updated":"2026-02-04T12:56:48Z"}
