{"icao":"LPCS","metar":"LPCS 271100Z 25013KT 8000 -SHRA FEW010 BKN015 FEW018CB 12/11 Q1002","updated":"2026-01-27T11:21:48Z"}
