{"icao":"LPPR","metar":"LPPR 260300Z 00000KT CAVOK 11/09 Q1017","updated":"2025-10-26T03:08:40Z"}
