{"icao":"LPMR","metar":"LPMR 301600Z 33012KT 9999 OVC014 19/16 Q1022","updated":"2026-05-30T17:02:14Z"}
