{"icao":"KORD","metar":"KORD 021451Z 12010KT 10SM FEW080 FEW250 01/M11 A3042 RMK AO2 SLP309 T00061106 50000","updated":"2026-03-02T15:40:49Z"}
