{"icao":"LPLA","metar":"LPLA 311200Z 05006KT 350V080 9999 FEW010 23/18 Q1025","updated":"2026-05-31T12:10:37Z"}
