{"icao":"LPFL","metar":"LPFL 091930Z 20012G24KT 140V260 9999 BKN017 19/14 Q1002","updated":"2026-02-09T20:03:27Z"}
