{"icao":"LPLA","metar":"LPLA 142200Z 30004KT 9999 FEW014 SCT022 BKN045 22/21 Q1028","updated":"2025-09-14T22:14:46Z"}
