{"icao":"KJFK","metar":"KJFK 010351Z 23016KT 10SM BKN049 OVC060 01/M08 A2973 RMK AO2 PK WND 22027/0319 SLP065 T00061078 $","updated":"2026-01-01T04:47:05Z"}
