{"icao":"LPHR","metar":"LPHR 102030Z 25027G37KT 6000 -RA SCT006 BKN011 BKN030 18/16 Q1006 RERA","updated":"2026-02-10T20:43:01Z"}
