{"icao":"LPHR","metar":"LPHR 311300Z 08010KT 050V110 9999 FEW015 BKN030 16/11 Q1031","updated":"2026-03-31T13:16:01Z"}
