{"icao":"KJFK","metar":"KJFK 170551Z 33010KT 10SM CLR 09/M02 A2997 RMK AO2 SLP148 T00941022 10139 20094 53002","updated":"2025-10-17T06:26:57Z"}
