{"icao":"LPPT","metar":"LPPT 232230Z 23009KT 9999 SCT006 13/13 Q1022","updated":"2026-02-23T22:39:00Z"}
