{"icao":"LPPR","metar":"LPPR 130400Z 18016KT 140V200 8000 RA SCT020 FEW022CB BKN027 16/15 Q1002","updated":"2025-11-13T04:23:55Z"}
