{"icao":"LPAR","metar":"LPAR 171600Z 19005KT CAVOK 27/13 Q1013","updated":"2025-10-17T23:15:20Z"}
