{"icao":"LPCS","metar":"LPCS 141100Z 22006KT CAVOK 25/12 Q1017","updated":"2025-10-14T11:14:55Z"}
