{"icao":"LPPT","metar":"LPPT 191100Z VRB04G14KT CAVOK 22/14 Q1016","updated":"2026-04-19T11:33:43Z"}
