{"icao":"LPPR","metar":"LPPR 092300Z 18011KT 6000 -RA FEW017 BKN022 15/13 Q1017","updated":"2025-11-09T23:15:46Z"}
