{"icao":"LPPT","metar":"LPPT 082000Z 18004KT 120V220 4000 RADZ BR FEW001 BKN003 13/13 Q1011","updated":"2026-02-08T20:26:25Z"}
