{"icao":"LPMA","metar":"LPMA 060400Z 36004KT 9999 FEW015 15/08 Q1014","updated":"2026-02-06T04:20:47Z"}
