{"icao":"KLAX","metar":"KLAX 191053Z 05004KT 10SM FEW020 SCT100 BKN150 BKN200 10/03 A3001 RMK AO2 SLP162 T01000033","updated":"2026-02-19T11:37:40Z"}
