{"icao":"LPPS","metar":"LPPS 112100Z 03005KT 360V060 9999 FEW014 20/16 Q1019","updated":"2025-10-11T21:14:03Z"}
