{"icao":"LPPD","metar":"LPPD 100600Z 23009KT 9999 SCT018 BKN030 18/14 Q1021","updated":"2025-11-10T06:30:42Z"}
