{"icao":"LPAZ","metar":"LPAZ 261500Z 14007KT 110V170 9999 VCSH SCT015 SCT040 18/16 Q1024","updated":"2025-11-26T15:18:10Z"}
