{"icao":"KLAX","metar":"KLAX 011253Z 25007KT 10SM FEW008 FEW020 SCT060 BKN150 15/13 A2994 RMK AO2 SLP135 T01500133 $","updated":"2026-04-01T13:19:38Z"}
