{"icao":"LPBJ","metar":"LPBJ 252300Z 20004KT 5000 -DZRA OVC003 13/13 Q1015","updated":"2026-01-25T23:18:56Z"}
