{"icao":"LPPT","metar":"LPPT 140900Z 04004KT 350V110 CAVOK 22/12 Q1017","updated":"2025-10-14T09:19:46Z"}
