{"icao":"LPPR","metar":"LPPR 151700Z 22009KT 190V250 9999 FEW012 SCT020 BKN035 14/12 Q1028","updated":"2026-02-15T17:24:05Z"}
