{"icao":"LPFL","metar":"LPFL 050930Z 16004KT 130V220 9999 FEW025 BKN040 11/02 Q1037","updated":"2026-03-05T09:41:20Z"}
