{"icao":"LPAZ","metar":"LPAZ 241600Z 05008KT 010V080 9999 FEW024 BKN036 15/10 Q1022","updated":"2025-12-24T16:24:05Z"}
