{"icao":"LPST","metar":"LPST 130800Z 16018KT 6000 -RA SCT004 SCT012 FEW018CB 16/15 Q0999","updated":"2025-11-13T08:25:18Z"}
