{"icao":"LPPT","metar":"LPPT 172300Z VRB02KT CAVOK 19/11 Q1016","updated":"2025-10-17T23:15:16Z"}
