{"icao":"KJFK","metar":"KJFK 221551Z 19012KT 6SM -DZ BR OVC005 07/06 A2982 RMK AO2 SLP097 P0000 T00720056 $","updated":"2026-03-22T16:29:27Z"}
