{"icao":"LPMA","metar":"LPMA 020500Z 25007KT 9999 FEW015 20/13 Q1022","updated":"2025-11-02T05:17:25Z"}
