{"icao":"LPMT","metar":"LPMT 260100Z 03005KT 9999 FEW015 SCT025 16/16 Q1015","updated":"2025-10-26T01:26:11Z"}
