{"icao":"LPMA","metar":"LPMA 071400Z 02013KT 340V050 9999 SCT016 SCT033 17/07 Q1024","updated":"2026-03-07T14:23:14Z"}
