{"icao":"LPFL","metar":"LPFL 141500Z 02006KT 320V070 9999 -DZ BKN007 BKN028 22/19 Q1027","updated":"2025-09-14T15:14:29Z"}
