{"icao":"LPMA","metar":"LPMA 310600Z 23014KT 9999 SCT015 20/15 Q1014","updated":"2025-10-31T06:27:39Z"}
