{"icao":"LPFR","metar":"LPFR 122030Z 32016KT CAVOK 15/03 Q1019","updated":"2026-04-12T20:34:40Z"}
