{"icao":"LPPT","metar":"LPPT 251330Z 23010KT CAVOK 27/10 Q1021","updated":"2026-05-25T13:57:57Z"}
