{"icao":"KORD","metar":"KORD 111800Z 25009KT 10SM -TSRA SCT030 BKN041CB OVC080 26/21 A2984 RMK AO2 RAB1759 TSB1757 FRQ LTGICCG SW TS SW MOV E CB DSNT NW-N P0000 T02610206","updated":"2026-06-11T18:10:20Z"}
