{"icao":"KORD","metar":"KORD 211651Z 02005KT 9SM OVC170 07/02 A3003 RMK AO2 SLP173 T00720022","updated":"2025-11-21T17:16:27Z"}
