{"icao":"LPPR","metar":"LPPR 260800Z 21011KT 4500 RA BKN003 14/14 Q1007","updated":"2026-01-26T08:31:13Z"}
