{"icao":"LPFL","metar":"LPFL 241230Z 26017G45KT 180V320 9999 VCSH FEW009 FEW012TCU 18/15 Q1015 REDZ","updated":"2026-01-24T12:38:39Z"}
