{"icao":"LPPD","metar":"LPPD 180330Z 25010KT 2000 BR OVC002 16/15 Q1023","updated":"2026-05-18T03:51:56Z"}
