{"icao":"LPPD","metar":"LPPD 261730Z 12010KT 090V160 9999 FEW007 BKN012 16/14 Q1022","updated":"2026-04-26T17:37:02Z"}
