{"icao":"LPBJ","metar":"LPBJ 010600Z 30005KT 9000 NSC 10/09 Q1018","updated":"2026-05-01T06:15:34Z"}
