{"icao":"KJFK","metar":"KJFK 081751Z 26011KT 10SM SCT040 SCT200 18/08 A2976 RMK AO2 SLP077 60001 T01830083 10183 20133 53001 $","updated":"2025-11-08T18:23:35Z"}
