{"icao":"LPPS","metar":"LPPS 180800Z 02010KT 9999 SCT015 18/13 Q1023","updated":"2025-11-18T08:25:38Z"}
