{"icao":"LPMA","metar":"LPMA 271530Z VRB05KT 9999 SCT015 20/13 Q1017","updated":"2026-04-27T15:47:05Z"}
