{"icao":"KLAX","metar":"KLAX 150936Z 26004KT 10SM FEW009 FEW012 BKN016 16/13 A2998 RMK AO2 T01610133","updated":"2026-05-15T09:46:49Z"}
