{"icao":"LPMA","metar":"LPMA 250600Z 31005KT 240V360 9999 FEW015 20/13 Q1020","updated":"2025-09-25T06:27:31Z"}
