{"icao":"LPAZ","metar":"LPAZ 021430Z 07011KT 040V100 9999 BKN022 17/11 Q1029","updated":"2026-04-02T14:54:28Z"}
