{"icao":"KJFK","metar":"KJFK 101003Z 23005KT 10SM BKN011 BKN250 04/03 A3040 RMK AO2 T00390028","updated":"2026-04-10T10:53:06Z"}
