{"icao":"LPBJ","metar":"LPBJ 221900Z 34006KT CAVOK 21/10 Q1011","updated":"2026-04-22T20:03:59Z"}
