{"icao":"LPLA","metar":"LPLA 211000Z 21007KT 180V250 9999 FEW017 24/19 Q1013","updated":"2025-10-21T10:19:12Z"}
