{"icao":"LPPS","metar":"LPPS 132100Z 03011KT 360V080 9999 -RA SCT014 BKN030 16/11 Q1026","updated":"2026-03-13T21:32:00Z"}
