{"icao":"LPMA","metar":"LPMA 191000Z 36008KT 290V060 9999 FEW015 16/09 Q1026","updated":"2026-01-19T10:27:39Z"}
