{"icao":"LPMT","metar":"LPMT 292100Z 32005KT 290V350 9999 FEW015 18/15 Q1012","updated":"2025-10-29T21:16:49Z"}
