{"icao":"LPPT","metar":"LPPT 021600Z 26007KT 230V300 9999 FEW016 FEW025CB 14/09 Q1018","updated":"2025-12-02T16:27:04Z"}
