{"icao":"KLAX","metar":"KLAX 061053Z 09003KT 10SM CLR 11/04 A3003 RMK AO2 SLP169 T01110039 $","updated":"2025-12-06T11:14:36Z"}
