{"icao":"KORD","metar":"KORD 310051Z 34012KT 10SM FEW030 SCT055 M10/M16 A3042 RMK AO2 SNE17 SLP315 P0000 T11001161","updated":"2026-01-31T01:53:04Z"}
