{"icao":"LPPS","metar":"LPPS 182300Z 32009KT 9999 -DZ BKN008 21/21 Q1018","updated":"2025-10-18T23:15:35Z"}
