{"icao":"KORD","metar":"KORD 060651Z 25006KT 10SM BKN030 OVC060 M02/M07 A2976 RMK AO2 SLP087 T10221067","updated":"2025-12-06T07:17:29Z"}
