{"icao":"KLAX","metar":"KLAX 292253Z 25005KT 10SM FEW250 26/M02 A3012 RMK AO2 SLP199 T02611022 $","updated":"2026-01-29T23:25:14Z"}
