{"icao":"LPHR","metar":"LPHR 171100Z 18013KT 5000 -RADZ BR SCT006 BKN009 21/20 Q1012","updated":"2025-10-17T11:14:48Z"}
