{"icao":"KJFK","metar":"KJFK 120151Z 29017G27KT 10SM BKN050 BKN095 02/M07 A2985 RMK AO2 PK WND 30029/0106 SLP106 T00221072 $","updated":"2026-02-12T02:05:40Z"}
