{"icao":"LPPD","metar":"LPPD 172200Z 29007KT 9999 SCT004 BKN015 19/18 Q1025","updated":"2025-11-17T22:17:35Z"}
