{"icao":"LPBJ","metar":"LPBJ 191900Z 32007KT CAVOK 10/06 Q1020","updated":"2026-01-19T19:18:13Z"}
