{"icao":"KLAX","metar":"KLAX 011807Z 25008KT 8SM FEW009 SCT047 BKN085 BKN150 17/16 A3007 RMK AO2 T01670156 $","updated":"2026-01-01T18:29:05Z"}
