{"icao":"LPMR","metar":"LPMR 051300Z 25008KT 3500 -DZ BR OVC007 17/16 Q1021","updated":"2025-12-05T13:31:01Z"}
