{"icao":"LPPD","metar":"LPPD 251830Z 29008KT 9999 FEW015 SCT040 17/15 Q1018","updated":"2026-04-25T18:51:02Z"}
