{"icao":"LPPR","metar":"LPPR 211600Z 33016KT 9999 FEW025 18/10 Q1022","updated":"2025-09-21T16:18:55Z"}
