{"icao":"LPOV","metar":"LPOV 122100Z 17008KT 7000 -RA SCT013 12/12 Q1009","updated":"2026-02-12T21:32:02Z"}
