{"icao":"LPPD","metar":"LPPD 230500Z 21012KT 9999 SCT007 BKN011 21/19 Q1021","updated":"2025-09-23T05:16:45Z"}
