{"icao":"LPBJ","metar":"LPBJ 181600Z 17014KT 9999 FEW035 SCT042 17/12 Q1004","updated":"2026-03-18T16:57:54Z"}
