{"icao":"LPPS","metar":"LPPS 252130Z 02011KT 9999 SCT015 16/12 Q1019","updated":"2026-04-25T21:35:25Z"}
