{"icao":"KJFK","metar":"KJFK 110051Z 24017G25KT 10SM -RA FEW017 BKN038 OVC065 05/03 A2946 RMK AO2 SLP975 P0004 T00500028","updated":"2025-12-11T01:38:29Z"}
