{"icao":"LPFR","metar":"LPFR 082000Z 20006KT 3000 -DZ BR BKN002 BKN007 14/13 Q1015","updated":"2026-02-08T20:26:26Z"}
