{"icao":"KORD","metar":"KORD 060551Z 18007KT 10SM CLR 22/13 A3004 RMK AO2 SLP169 T02170128 10256 20217 402890183 53005 $","updated":"2025-10-06T06:27:21Z"}
