{"icao":"KORD","metar":"KORD 261551Z 00000KT 10SM BKN250 26/11 A3006 RMK AO2 SLP176 T02560111","updated":"2026-05-26T16:41:16Z"}
