{"icao":"LPPR","metar":"LPPR 010500Z 11013KT CAVOK 08/02 Q1014","updated":"2026-01-01T05:25:48Z"}
