{"icao":"LPBJ","metar":"LPBJ 181200Z 13007KT 070V180 CAVOK 26/13 Q1018","updated":"2025-10-18T12:32:56Z"}
