{"icao":"KORD","metar":"KORD 200559Z 18004KT 5SM BR BKN009 OVC028 06/04 A3014 RMK AO2 T00560039","updated":"2025-11-20T06:27:44Z"}
