{"icao":"LPCS","metar":"LPCS 171930Z 01013KT CAVOK 18/10 Q1016","updated":"2026-04-17T20:02:53Z"}
