{"icao":"KORD","metar":"KORD 100351Z 15003KT 10SM FEW250 12/07 A3032 RMK AO2 SLP268 T01170072","updated":"2025-10-10T04:21:31Z"}
