{"icao":"LPPR","metar":"LPPR 241500Z 29004KT 260V330 9999 FEW016 BKN020 18/15 Q1015","updated":"2025-10-24T15:19:05Z"}
