{"icao":"LPBJ","metar":"LPBJ 031300Z 28007KT 220V330 9999 SCT037 20/10 Q1015","updated":"2026-05-03T13:07:18Z"}
