{"icao":"LPMA","metar":"LPMA 092130Z 34003KT 310V020 9999 FEW015 18/15 Q1024","updated":"2026-02-09T21:37:50Z"}
