{"icao":"LPMA","metar":"LPMA 150730Z 03012KT 360V060 7000 -SHRA BKN013 15/11 Q1024","updated":"2026-04-15T07:43:27Z"}
