{"icao":"LPFR","metar":"LPFR 062000Z 30011KT CAVOK 18/09 Q1009","updated":"2026-05-06T20:20:37Z"}
