{"icao":"KJFK","metar":"KJFK 281951Z 27020G30KT 10SM SCT060 SCT250 06/M08 A2996 RMK AO2 PK WND 28033/1921 SLP145 VIRGA NW T00611083 $","updated":"2025-11-28T20:21:18Z"}
