{"icao":"LPPR","metar":"LPPR 242030Z 32003KT 290V350 CAVOK 13/09 Q1022","updated":"2026-03-24T20:39:49Z"}
