{"icao":"LPAZ","metar":"LPAZ 061700Z 07007KT 9999 BKN047 15/06 Q1033","updated":"2026-01-06T17:22:13Z"}
