{"icao":"LPFR","metar":"LPFR 301300Z 11015KT CAVOK 16/01 Q1027","updated":"2026-03-30T13:16:30Z"}
