{"icao":"KLAX","metar":"KLAX 131753Z 00000KT 10SM SCT140 BKN180 BKN250 28/03 A2999 RMK AO2 SLP153 T02780033 10278 20167 51008","updated":"2026-03-13T18:41:09Z"}
