{"icao":"KLAX","metar":"KLAX 202053Z 26013KT 10SM FEW030 FEW180 SCT250 21/13 A3001 RMK AO2 SLP161 T02060128 $","updated":"2026-04-20T21:44:50Z"}
