{"icao":"LPMA","metar":"LPMA 130400Z 22008KT 190V270 9999 SCT015 FEW018CB 17/10 Q0999 RETSRA","updated":"2025-11-13T04:23:59Z"}
