{"icao":"LPFR","metar":"LPFR 142000Z 21003KT 160V230 CAVOK 21/18 Q1018","updated":"2025-09-14T20:16:31Z"}
