{"icao":"LPBJ","metar":"LPBJ 082300Z 03004KT CAVOK 08/06 Q1019","updated":"2026-04-08T23:36:33Z"}
