{"icao":"LPST","metar":"LPST 300800Z 12005KT 9999 FEW020 OVC040 15/12 Q1016","updated":"2026-04-30T08:27:41Z"}
