{"icao":"LPFR","metar":"LPFR 252200Z 07008KT CAVOK 24/13 Q1022","updated":"2026-05-25T22:06:40Z"}
