{"icao":"KORD","metar":"KORD 270551Z 05007KT 10SM OVC055 16/14 A3002 RMK AO2 SLP163 T01610144 10167 20156 401890156 58009 $","updated":"2026-06-27T06:30:04Z"}
