{"icao":"KJFK","metar":"KJFK 232151Z 07012KT 5SM RA BR FEW020 SCT050 OVC065 11/09 A3047 RMK AO2 SLP319 P0013 T01060089","updated":"2026-05-23T21:55:53Z"}
