{"icao":"KJFK","metar":"KJFK 122151Z 25013KT 10SM FEW070 BKN250 04/M06 A3012 RMK AO2 SLP199 T00391061 $","updated":"2026-01-12T22:17:50Z"}
