{"icao":"KLAX","metar":"KLAX 201553Z 00000KT 10SM FEW014 SCT140 BKN250 14/04 A3008 RMK AO2 SLP186 T01440044 $","updated":"2026-01-20T16:34:48Z"}
