{"icao":"LPMT","metar":"LPMT 072000Z 33004KT 300V360 9999 FEW025 17/14 Q1018","updated":"2025-11-07T20:18:17Z"}
