{"icao":"LPFR","metar":"LPFR 112100Z 07006KT CAVOK 17/16 Q1010","updated":"2025-11-11T21:16:16Z"}
