{"icao":"LPPD","metar":"LPPD 052300Z 03005KT 9999 FEW025 BKN045 14/07 Q1032","updated":"2026-01-05T23:18:57Z"}
