{"icao":"KLAX","metar":"KLAX 090853Z 04004KT 10SM CLR 18/03 A3007 RMK AO2 SLP181 T01780033 58009 $","updated":"2025-12-09T09:23:26Z"}
