{"icao":"KORD","metar":"KORD 012051Z 23016G24KT 10SM FEW045 SCT300 35/17 A2996 RMK AO2 SLP136 T03500172 57003","updated":"2026-07-01T21:27:12Z"}
