{"icao":"LPOV","metar":"LPOV 211100Z 14005KT 9999 FEW012 BKN026 06/06 Q1008","updated":"2025-12-21T12:36:56Z"}
