{"icao":"LPMA","metar":"LPMA 141900Z 02012KT 340V050 9999 BKN020 16/11 Q1023","updated":"2026-04-14T19:13:29Z"}
