{"icao":"LPMR","metar":"LPMR 041400Z 36007KT CAVOK 14/08 Q1003","updated":"2026-01-04T14:17:28Z"}
