{"icao":"KORD","metar":"KORD 071751Z 25017G26KT 7SM -DZ BKN012 BKN019 OVC029 12/09 A2972 RMK AO2 PK WND 27032/1714 RAB00E36DZB51 SLP063 P0000 60001 T01170089 10167 20117 53016","updated":"2026-03-07T18:32:08Z"}
