{"icao":"LPPD","metar":"LPPD 181700Z 26007KT 7000 SCT004 BKN006 23/22 Q1016","updated":"2025-10-18T17:13:14Z"}
