{"icao":"KLAX","metar":"KLAX 232253Z 25013KT 10SM FEW009 FEW110 SCT150 23/18 A2982 RMK AO2 SLP095 T02280178 $","updated":"2025-09-23T23:15:04Z"}
