{"icao":"LPAZ","metar":"LPAZ 011500Z 31020KT 270V330 9999 FEW003 SCT014 BKN020 15/14 Q1023","updated":"2026-03-01T15:22:25Z"}
