{"icao":"KORD","metar":"KORD 201851Z 19012G23KT 10SM CLR 18/01 A2985 RMK AO2 SLP108 T01780011","updated":"2025-10-20T19:15:15Z"}
