{"icao":"LPMA","metar":"LPMA 161630Z 04005KT 350V130 9999 SCT014 18/13 Q1029","updated":"2026-02-16T16:41:44Z"}
