{"icao":"LPMR","metar":"LPMR 250900Z 35001KT 3500 BR FEW007 20/16 Q1022","updated":"2026-05-25T10:02:04Z"}
