{"icao":"LPPR","metar":"LPPR 092100Z 01004KT 340V050 9999 FEW020 SCT025 09/07 Q1028","updated":"2026-01-09T21:19:50Z"}
