{"icao":"LPST","metar":"LPST 121200Z 21004KT 170V250 9000 -RA FEW008 14/13 Q1006","updated":"2025-11-12T13:32:05Z"}
