{"icao":"LPCS","metar":"LPCS 090730Z 12005KT 070V160 9999 FEW005 SCT011 BKN020 13/12 Q1003","updated":"2026-05-09T07:54:05Z"}
