{"icao":"LPHR","metar":"LPHR 072030Z 28011KT 9999 FEW016 20/16 Q1030","updated":"2026-06-07T22:02:19Z"}
