{"icao":"LPFR","metar":"LPFR 300800Z 03006KT 9999 FEW025 08/06 Q1021","updated":"2025-12-30T08:27:51Z"}
