{"icao":"KJFK","metar":"KJFK 100236Z 09003KT 1/8SM R04R/1600V2000FT FG VV002 12/11 A2987 RMK AO2 SFC VIS 1/2 T01170111 $","updated":"2026-05-10T02:49:59Z"}
