{"icao":"LPLA","metar":"LPLA 280800Z 10007KT 070V130 9999 FEW018 OVC023 14/09 Q1033","updated":"2026-03-28T08:37:15Z"}
