{"icao":"LPOV","metar":"LPOV 301500Z 34010KT 9999 FEW016 23/13 Q1019","updated":"2025-09-30T15:16:40Z"}
