{"icao":"KJFK","metar":"KJFK 080051Z 20019G27KT 10SM FEW045 BKN180 BKN220 21/18 A3006 RMK AO2 PK WND 20027/0049 SLP180 T02110183","updated":"2025-10-08T01:18:30Z"}
