{"icao":"LPAZ","metar":"LPAZ 111430Z 03011KT 350V070 9999 SCT024 BKN040 15/08 Q1032","updated":"2026-04-11T14:36:00Z"}
