{"icao":"LPMA","metar":"LPMA 110000Z 36015KT 320V030 9999 FEW015 19/12 Q1021","updated":"2026-06-11T00:14:44Z"}
