{"icao":"KORD","metar":"KORD 042251Z 00000KT 10SM FEW030 M08/M19 A3030 RMK AO2 SLP273 T10781194","updated":"2025-12-04T23:18:46Z"}
