{"icao":"LPPS","metar":"LPPS 220130Z 31016KT 6000 -SHRA SCT005 SCT010 17/16 Q1019","updated":"2026-01-22T01:44:41Z"}
