{"icao":"LPLA","metar":"LPLA 172200Z 31009KT 7000 -RADZ FEW007 BKN014 18/17 Q1024","updated":"2025-11-17T22:17:35Z"}
