{"icao":"KJFK","metar":"KJFK 120851Z 36009KT 10SM SCT090 SCT250 09/M01 A3015 RMK AO2 SLP210 T00891011 53003 $","updated":"2026-05-12T09:37:17Z"}
