{"icao":"LPBJ","metar":"LPBJ 232300Z VRB02KT CAVOK 14/12 Q1016","updated":"2026-03-23T23:31:07Z"}
