{"icao":"LPPD","metar":"LPPD 221730Z 25027G37KT 9000 -SHRA FEW007 BKN016 14/12 Q1000","updated":"2026-04-22T18:03:01Z"}
