{"icao":"LPPT","metar":"LPPT 161100Z 26011KT 230V290 9999 FEW018 FEW025TCU 17/13 Q1013","updated":"2025-11-16T11:13:21Z"}
