{"icao":"LPMT","metar":"LPMT 231100Z VRB02KT 9999 FEW018 15/09 Q1028","updated":"2025-11-23T12:32:49Z"}
