{"icao":"KLAX","metar":"KLAX 281453Z 08003KT 10SM FEW210 FEW270 08/06 A3016 RMK AO2 SLP212 T00830056 53007 $","updated":"2025-12-28T15:19:09Z"}
