{"icao":"LPLA","metar":"LPLA 121100Z 24007KT 9999 FEW028 22/16 Q1018","updated":"2025-10-12T11:12:58Z"}
