{"icao":"LPAZ","metar":"LPAZ 230600Z 30026G36KT 9999 SCT026 14/09 Q1021","updated":"2026-01-23T06:34:11Z"}
