{"icao":"LPAZ","metar":"LPAZ 282100Z 02011KT 350V050 9999 FEW014 BKN018 15/13 Q1027","updated":"2025-11-28T21:16:07Z"}
