{"icao":"KJFK","metar":"KJFK 030851Z 07007KT 3SM -DZ BR BKN005 OVC013 06/05 A3036 RMK AO2 SLP281 P0000 60000 T00560050 56025","updated":"2026-04-03T10:41:59Z"}
