{"icao":"LPFL","metar":"LPFL 211700Z 32005KT 300V360 9999 FEW030 16/10 Q1020","updated":"2026-02-21T17:24:18Z"}
