{"icao":"LPCS","metar":"LPCS 190900Z 19006KT 160V220 9000 VCFG BKN003 20/19 Q1016","updated":"2025-10-19T09:15:59Z"}
