{"icao":"LPMA","metar":"LPMA 110700Z 36005KT 330V040 9999 FEW015 BKN030 21/14 Q1020","updated":"2025-10-11T07:15:16Z"}
