{"icao":"LPPR","metar":"LPPR 240700Z 17011KT 9999 FEW011 BKN021 13/11 Q1018","updated":"2026-02-24T07:06:56Z"}
