{"icao":"LPOV","metar":"LPOV 052100Z 23015G25KT 9999 FEW016 FEW020CB BKN024 13/10 Q0996","updated":"2026-02-05T21:27:23Z"}
