{"icao":"LPMR","metar":"LPMR 311400Z 31013KT 290V350 CAVOK 23/09 Q1025","updated":"2026-03-31T15:00:07Z"}
