{"icao":"KJFK","metar":"KJFK 210851Z 24006KT 6SM BR FEW060 SCT090 BKN220 06/06 A2976 RMK AO2 SLP076 T00560056 55003","updated":"2026-03-21T09:30:34Z"}
