{"icao":"LPMT","metar":"LPMT 030500Z 13009KT 9999 -RA BKN018 14/13 Q0997","updated":"2026-01-03T05:20:31Z"}
