{"icao":"LPFL","metar":"LPFL 261400Z 03011KT 360V060 9999 FEW023 SCT039 19/12 Q1028","updated":"2025-10-26T14:15:00Z"}
