{"icao":"LPPR","metar":"LPPR 070800Z VRB03KT 8000 SCT004 BKN015 08/07 Q1023","updated":"2026-01-07T08:29:14Z"}
