{"icao":"KORD","metar":"KORD 071551Z 27014G25KT 10SM FEW250 13/06 A2953 RMK AO2 SLP000 T01330056 $","updated":"2025-11-07T16:19:24Z"}
