{"icao":"LPPD","metar":"LPPD 211000Z 34007KT 310V010 9999 FEW018 BKN030 14/11 Q1027","updated":"2025-12-21T10:18:52Z"}
