{"icao":"LPOV","metar":"LPOV 281200Z 33003KT 280V360 CAVOK 13/09 Q1024","updated":"2025-11-28T12:38:30Z"}
