{"icao":"LPMT","metar":"LPMT 081300Z 23005KT 200V260 9999 FEW020 BKN028 14/11 Q1032","updated":"2026-01-08T13:39:21Z"}
