{"icao":"LPMR","metar":"LPMR 240600Z 27006KT 230V300 9999 FEW007 SCT013 16/13 Q1018","updated":"2025-11-24T06:29:35Z"}
