{"icao":"LPAZ","metar":"LPAZ 292230Z 22013KT 9999 FEW020 SCT027 15/10 Q1007","updated":"2026-04-29T22:55:31Z"}
