{"icao":"LPPT","metar":"LPPT 121500Z 16008KT 120V200 4500 RA FEW004 SCT035 15/14 Q1006","updated":"2025-11-12T15:20:47Z"}
