{"icao":"KLAX","metar":"KLAX 171853Z VRB05KT 7SM RA FEW008 BKN014 BKN021 12/11 A3010 RMK AO2 SLP194 P0020 T01220106","updated":"2026-02-17T18:56:37Z"}
