{"icao":"LPLA","metar":"LPLA 151400Z 31021KT 9999 FEW028 17/08 Q1027","updated":"2025-12-15T14:23:57Z"}
