{"icao":"LPAZ","metar":"LPAZ 270900Z 27024KT 9000 FEW028 SCT048 14/10 Q1012","updated":"2026-01-27T09:31:46Z"}
