{"icao":"LPBJ","metar":"LPBJ 081700Z 21020KT CAVOK 19/09 Q1007","updated":"2026-05-08T17:15:20Z"}
