{"icao":"LPOV","metar":"LPOV 110600Z 18010KT 6000 -RADZ BKN004 BKN012 15/15 Q1011","updated":"2026-02-11T06:59:09Z"}
