{"icao":"LPPT","metar":"LPPT 150400Z 35008KT 9999 FEW012 19/16 Q1020","updated":"2025-09-15T04:21:11Z"}
