{"icao":"LPPR","metar":"LPPR 030530Z 06007G17KT 050V150 9999 FEW048 11/10 Q1013","updated":"2026-03-03T05:48:00Z"}
