{"icao":"LPPS","metar":"LPPS 221500Z 04010KT 360V090 9999 FEW015 22/14 Q1021","updated":"2025-09-22T15:18:57Z"}
