{"icao":"LPFR","metar":"LPFR 300300Z 04004KT CAVOK 08/07 Q1021","updated":"2025-12-30T03:26:16Z"}
