{"icao":"LPMA","metar":"LPMA 052100Z 02019G29KT 350V050 9999 SCT015 FEW018TCU 15/07 Q1023","updated":"2026-01-05T21:19:39Z"}
