{"icao":"LPPS","metar":"LPPS 291800Z 20016KT 9999 FEW013 17/14 Q1017","updated":"2025-12-29T18:29:28Z"}
