{"icao":"LPHR","metar":"LPHR 201730Z 03010KT 320V080 9999 SCT014 SCT030 16/10 Q1012","updated":"2026-03-20T17:34:41Z"}
