{"icao":"LPPR","metar":"LPPR 180400Z 16011KT CAVOK 11/08 Q1020","updated":"2025-12-18T04:32:58Z"}
