{"icao":"LPCS","metar":"LPCS 071100Z 22009KT 200V260 9999 VCSH FEW006 BKN020 19/17 Q1017","updated":"2025-11-07T11:15:06Z"}
