{"icao":"LPCS","metar":"LPCS 011400Z 23008KT 0100 R17/0375D -DZ FG VV002 15/15 Q1011","updated":"2026-02-01T14:24:37Z"}
