{"icao":"LPMA","metar":"LPMA 251800Z 36011KT 8000 VCSH FEW015 20/15 Q1023","updated":"2025-11-25T18:29:05Z"}
