{"icao":"LPOV","metar":"LPOV 091500Z 21009KT 0900 FG OVC001 15/15 Q1009","updated":"2026-02-09T15:54:38Z"}
