{"icao":"LPFL","metar":"LPFL 110900Z 26004KT 190V310 9999 FEW021 SCT036 14/05 Q1017","updated":"2026-01-11T09:19:54Z"}
