{"icao":"LPPR","metar":"LPPR 061100Z 36017KT 330V030 9999 FEW010 11/03 Q1021","updated":"2026-03-06T11:27:31Z"}
