{"icao":"LPFR","metar":"LPFR 260800Z 05007KT 010V090 CAVOK 12/05 Q1023","updated":"2025-11-26T08:26:17Z"}
