{"icao":"LPAR","metar":"LPAR 130900Z 01007KT 330V040 9999 SCT018 13/10 Q1024","updated":"2026-03-13T09:37:00Z"}
