{"icao":"KORD","metar":"KORD 032151Z 04012KT 10SM OVC028 M03/M08 A3022 RMK AO2 SLP245 T10281078","updated":"2026-02-03T22:28:41Z"}
