{"icao":"LPOV","metar":"LPOV 231700Z 29002KT 7000 -RA SCT008 BKN018 17/14 Q1019","updated":"2025-10-23T17:15:47Z"}
