{"icao":"LPFR","metar":"LPFR 081000Z 29003KT 260V320 CAVOK 12/10 Q1018","updated":"2026-02-08T10:25:18Z"}
