{"icao":"LPAZ","metar":"LPAZ 270800Z 13006KT 9999 FEW004 SCT011 16/16 Q1021","updated":"2026-04-27T08:22:38Z"}
