{"icao":"LPPS","metar":"LPPS 271900Z 32011KT 9999 FEW015 20/14 Q1021","updated":"2026-05-27T19:23:23Z"}
