{"icao":"LPBJ","metar":"LPBJ 120900Z 26009KT 230V300 9999 VCSH FEW017 SCT025 FEW026CB 16/12 Q1019","updated":"2026-05-12T09:36:47Z"}
