{"icao":"LPFR","metar":"LPFR 161700Z 33003KT 250V360 9999 FEW015 FEW020CB SCT038 11/09 Q1014","updated":"2026-01-16T17:23:16Z"}
