{"icao":"LPHR","metar":"LPHR 171100Z 27008KT 9999 FEW005 SCT008 BKN012 20/19 Q1023","updated":"2025-11-17T11:16:52Z"}
