{"icao":"KORD","metar":"KORD 261251Z 19003KT 1SM R10L/P6000FT -DZ BR OVC002 05/04 A2965 RMK AO2 DZE14B32RAB14E32 SLP043 P0002 T00500044 $","updated":"2025-12-26T13:31:43Z"}
