{"icao":"LPOV","metar":"LPOV 061700Z 31006KT CAVOK 28/07 Q1019","updated":"2025-10-06T17:15:52Z"}
