{"icao":"LPMA","metar":"LPMA 190330Z 01010KT 290V050 9999 SCT015 15/08 Q1023","updated":"2026-01-19T03:49:29Z"}
