{"icao":"LPCS","metar":"LPCS 130830Z 36012KT 9999 FEW014 19/15 Q1022"}
