{"icao":"KORD","metar":"KORD 191651Z 27015G30KT 10SM -RA BKN050 OVC250 07/M02 A3012 RMK AO2 PK WND 30031/1601 RAB50 SLP204 P0000 T00671022 $","updated":"2026-04-19T17:34:20Z"}
