{"icao":"KORD","metar":"KORD 170051Z 13004KT 10SM FEW250 16/09 A3008 RMK AO2 SLP184 T01610094","updated":"2025-10-17T01:19:57Z"}
