{"icao":"LPPT","metar":"LPPT 210900Z 35010KT CAVOK 11/03 Q1027","updated":"2025-11-21T09:19:13Z"}
