{"icao":"LPMT","metar":"LPMT 260400Z 25010KT 8000 BKN007 OVC012 13/13 Q1014","updated":"2026-01-26T04:55:31Z"}
