{"icao":"LPPT","metar":"LPPT 091000Z 31008KT 280V340 9999 BKN012 18/15 Q1021","updated":"2025-10-09T10:19:00Z"}
