{"icao":"LPFL","metar":"LPFL 191630Z 36027KT 9999 FEW020 SCT037 14/06 Q1020","updated":"2026-04-19T16:38:37Z"}
