{"icao":"LPST","metar":"LPST 271200Z 14010KT 110V170 9999 FEW030 23/16 Q1020","updated":"2025-10-27T12:39:14Z"}
