{"icao":"KJFK","metar":"KJFK 042251Z 18007KT 10SM BKN250 21/17 A3019 RMK AO2 SLP223 T02060172","updated":"2025-10-04T23:15:39Z"}
