{"icao":"LPMA","metar":"LPMA 111830Z 15004KT 110V190 9999 SCT016 18/12 Q1016","updated":"2026-05-11T18:57:38Z"}
