{"icao":"LPFL","metar":"LPFL 081800Z 16004KT 110V200 9999 BKN008 BKN013 16/14 Q1028","updated":"2026-01-08T18:27:12Z"}
