{"icao":"LPPD","metar":"LPPD 220400Z 22010KT 9000 FEW004 BKN007 22/21 Q1015","updated":"2025-10-22T04:21:09Z"}
