{"icao":"KJFK","metar":"KJFK 011751Z 03015G24KT 10SM FEW055 FEW250 20/03 A3017 RMK AO2 SLP217 T02000033 10200 20144 58010","updated":"2025-10-01T18:25:27Z"}
