{"icao":"LPBJ","metar":"LPBJ 071500Z 14006KT 060V170 9999 FEW045 28/14 Q1020","updated":"2025-10-07T15:19:07Z"}
