{"icao":"LPOV","metar":"LPOV 031700Z 02004KT 350V060 9999 FEW030 21/09 Q1013","updated":"2026-03-03T17:41:44Z"}
