{"icao":"LPPS","metar":"LPPS 302200Z 04009KT 010V100 9999 SCT015 18/11 Q1023","updated":"2025-11-30T22:17:30Z"}
