{"icao":"LPMA","metar":"LPMA 201730Z 04005KT 350V080 9999 FEW013 20/15 Q1003","updated":"2026-04-20T17:56:36Z"}
