{"icao":"LPOV","metar":"LPOV 121600Z 17013KT 9999 SCT025 BKN040 14/10 Q1013","updated":"2026-01-12T16:25:27Z"}
