{"icao":"LPBJ","metar":"LPBJ 191700Z 30010KT 270V330 CAVOK 34/09 Q1012","updated":"2026-06-19T17:58:36Z"}
