{"icao":"KORD","metar":"KORD 190451Z 00000KT 10SM BKN180 OVC250 03/M02 A3004 RMK AO2 SLP179 T00281017 $","updated":"2026-03-19T04:53:38Z"}
