{"icao":"KORD","metar":"KORD 241951Z 32009KT 10SM FEW044 FEW110 24/09 A3002 RMK AO2 SLP162 T02440094 $","updated":"2026-05-24T20:03:32Z"}
