{"icao":"LPBJ","metar":"LPBJ 242000Z 25008KT CAVOK 21/04 Q1016","updated":"2025-09-24T20:19:23Z"}
