{"icao":"LPLA","metar":"LPLA 161000Z 29009KT 9999 FEW020 21/18 Q1005","updated":"2025-10-16T10:20:22Z"}
