{"icao":"LPAZ","metar":"LPAZ 171230Z 26005KT 220V290 9999 FEW020 23/17 Q1014","updated":"2025-10-17T12:36:56Z"}
