{"icao":"KLAX","metar":"KLAX 031653Z VRB05KT 5SM HZ FEW025 SCT033 BKN150 15/10 A3004 RMK AO2 SLP173 T01500100 $","updated":"2025-12-03T17:21:29Z"}
