{"icao":"LPPR","metar":"LPPR 201030Z 10004KT 060V140 9999 FEW040 13/07 Q1032","updated":"2026-02-20T10:35:55Z"}
