{"icao":"LPOV","metar":"LPOV 081800Z 34007KT 9999 FEW012 17/15 Q1021","updated":"2025-10-08T18:26:34Z"}
