{"icao":"LPBJ","metar":"LPBJ 251900Z 31006KT CAVOK 11/05 Q1022","updated":"2025-11-25T19:16:24Z"}
