{"icao":"LPCS","metar":"LPCS 191500Z 36017KT CAVOK 25/12 Q1014","updated":"2026-06-19T15:11:59Z"}
