{"icao":"LPMA","metar":"LPMA 182200Z 01016G26KT 330V050 9999 SCT015 16/08 Q1023","updated":"2026-01-18T22:18:55Z"}
