{"icao":"LPOV","metar":"LPOV 142100Z 35011KT 9000 SCT005 BKN012 13/12 Q1016","updated":"2026-03-14T21:25:24Z"}
