{"icao":"LPPR","metar":"LPPR 180900Z 18017KT CAVOK 13/09 Q1020","updated":"2025-12-18T09:25:44Z"}
