{"icao":"KJFK","metar":"KJFK 170051Z 23015KT 10SM SCT110 SCT250 M01/M11 A3007 RMK AO2 SLP181 T10061111 $","updated":"2026-01-17T01:28:32Z"}
