{"icao":"LPPS","metar":"LPPS 302100Z 03011KT 9999 SCT015 18/10 Q1022","updated":"2025-11-30T21:16:14Z"}
