{"icao":"KORD","metar":"KORD 082151Z 20021G31KT 10SM FEW170 FEW250 22/04 A3000 RMK AO2 PK WND 20038/2118 SLP158 T02170039","updated":"2026-04-08T22:37:34Z"}
