{"icao":"LPFR","metar":"LPFR 020700Z 01004KT 320V050 9999 FEW008 SCT030 19/18 Q1023","updated":"2025-11-02T07:15:50Z"}
