{"icao":"LPPR","metar":"LPPR 210700Z 34004KT CAVOK 11/09 Q1022","updated":"2025-09-21T07:14:09Z"}
