{"icao":"LPPR","metar":"LPPR 130730Z 12004KT 080V140 9000 FEW009 BKN014 14/13 Q1020","updated":"2026-05-13T07:48:02Z"}
