{"icao":"LPFL","metar":"LPFL 051330Z 20022G37KT 170V230 9999 SCT015 18/13 Q1010","updated":"2026-04-05T13:54:34Z"}
