{"icao":"LPCS","metar":"LPCS 211800Z 35017KT CAVOK 25/12 Q1017","updated":"2026-06-21T18:18:43Z"}
