{"icao":"LPMA","metar":"LPMA 211100Z 23006KT 180V280 9999 FEW016 25/21 Q1020","updated":"2025-10-21T11:15:14Z"}
