{"icao":"KJFK","metar":"KJFK 210051Z 28012KT 10SM CLR M07/M18 A3046 RMK AO2 SLP315 T10721178 $","updated":"2026-01-21T01:44:28Z"}
