{"icao":"LPPT","metar":"LPPT 130700Z 35003KT 330V050 CAVOK 17/11 Q1015","updated":"2025-10-13T07:18:19Z"}
