{"icao":"LPPR","metar":"LPPR 182030Z 35002KT CAVOK 15/13 Q1016","updated":"2026-04-18T20:35:25Z"}
