{"icao":"LPFR","metar":"LPFR 031000Z 30009KT CAVOK 13/08 Q1025","updated":"2025-12-03T10:22:01Z"}
