{"icao":"LPPT","metar":"LPPT 061400Z 34016KT 9999 FEW030 11/00 Q1023","updated":"2026-01-06T14:21:17Z"}
