{"icao":"LPLA","metar":"LPLA 070700Z 26005KT 9999 FEW035 16/09 Q1010","updated":"2025-12-07T07:17:18Z"}
