{"icao":"KORD","metar":"KORD 092251Z 08007KT 10SM CLR 16/06 A3035 RMK AO2 SLP279 T01560056","updated":"2025-10-09T23:15:31Z"}
