{"icao":"KORD","metar":"KORD 200651Z 11005KT 4SM BR OVC003 05/04 A2931 RMK AO2 SLP925 T00500039 $","updated":"2026-02-20T06:54:49Z"}
