{"icao":"LPMR","metar":"LPMR 201000Z 03007KT 330V050 9999 FEW016 SCT025 22/17 Q1021","updated":"2025-09-20T11:12:38Z"}
