{"icao":"KJFK","metar":"KJFK 100051Z 12006KT 7SM SCT007 BKN011 OVC017 14/14 A2972 RMK AO2 SLP063 T01440139 $","updated":"2025-11-10T01:27:37Z"}
