{"icao":"LPFR","metar":"LPFR 191030Z 09010KT 060V130 CAVOK 23/09 Q1016","updated":"2026-04-19T10:37:20Z"}
