{"icao":"LPAZ","metar":"LPAZ 161230Z 29017KT 9999 FEW005 SCT007 23/22 Q1004","updated":"2025-10-16T12:38:42Z"}
