{"icao":"LPMT","metar":"LPMT 150700Z 11003KT 9999 FEW017 13/12 Q1024","updated":"2026-04-15T07:43:10Z"}
