{"icao":"LPMR","metar":"LPMR 132300Z 20011KT 160V230 9999 SCT015 BKN028 15/14 Q0998","updated":"2025-11-13T23:17:42Z"}
