{"icao":"KORD","metar":"KORD 092051Z 31015G24KT 10SM BKN047 BKN090 02/M07 A3012 RMK AO2 PK WND 32030/1956 SLP205 60000 T00171072 53013 $","updated":"2025-11-09T21:15:30Z"}
