{"icao":"LPCS","metar":"LPCS 011100Z 10004KT 060V130 CAVOK 13/04 Q1021","updated":"2025-12-01T11:17:17Z"}
