{"icao":"LPPR","metar":"LPPR 161700Z 34015KT 9999 FEW035 13/07 Q1015","updated":"2025-12-16T17:22:19Z"}
