{"icao":"KLAX","metar":"KLAX 202301Z 25014KT 2 1/2SM HZ BKN005 OVC250 17/14 A3005 RMK AO2 T01670139 $","updated":"2026-01-20T23:21:11Z"}
