{"icao":"KLAX","metar":"KLAX 021953Z 13008KT 9SM SCT039 BKN044 OVC050 18/14 A3007 RMK AO2 RAB26E37 SLP180 P0000 T01780144 $","updated":"2026-01-02T20:21:25Z"}
