{"icao":"KLAX","metar":"KLAX 012053Z 24006KT 10SM SCT010 BKN060 BKN160 18/14 A3005 RMK AO2 SLP175 T01780144 58004 $","updated":"2026-01-01T21:18:40Z"}
