{"icao":"KJFK","metar":"KJFK 222051Z 26019G29KT 10SM FEW060 BKN090 16/01 A2976 RMK AO2 PK WND 25031/1959 SLP078 T01610006 53011","updated":"2025-10-22T21:13:40Z"}
