{"icao":"LPPS","metar":"LPPS 101400Z 15007KT 120V180 9999 SCT015 BKN030 22/16 Q1020","updated":"2025-11-10T14:18:48Z"}
