{"icao":"KLAX","metar":"KLAX 071453Z 09007KT 10SM FEW100 FEW130 17/M07 A3003 RMK AO2 SLP169 T01721067 51013 $","updated":"2026-03-07T15:22:03Z"}
