{"icao":"LPMT","metar":"LPMT 130200Z VRB02KT CAVOK 14/13 Q1015","updated":"2025-10-13T03:08:23Z"}
