{"icao":"KLAX","metar":"KLAX 121953Z 26012KT 10SM FEW028 SCT050 BKN070 19/07 A3000 RMK AO2 RAB1857E06 SLP157 P0000 T01890072 $","updated":"2026-04-12T20:34:58Z"}
