{"icao":"LPCS","metar":"LPCS 271930Z 36016KT CAVOK 15/09 Q1016","updated":"2026-03-27T19:40:21Z"}
