{"icao":"KLAX","metar":"KLAX 181153Z 19003KT 10SM FEW008 FEW011 OVC019 17/14 A2993 RMK AO2 SLP131 T01720139 10178 20167 56002 $","updated":"2026-06-18T12:24:20Z"}
