{"icao":"LPBJ","metar":"LPBJ 140400Z 17013KT 9999 SCT026 14/12 Q1005","updated":"2025-11-14T04:21:46Z"}
