{"icao":"LPFR","metar":"LPFR 111200Z 10013KT 9999 FEW025 25/14 Q1018","updated":"2025-10-11T12:31:42Z"}
