{"icao":"LPFL","metar":"LPFL 281500Z 10004KT 050V160 9999 FEW006 SCT014 16/12 Q1034","updated":"2026-03-28T15:29:26Z"}
