{"icao":"LPPD","metar":"LPPD 070900Z 28007KT 9999 FEW014 22/19 Q1023","updated":"2025-10-07T09:19:02Z"}
