{"icao":"KLAX","metar":"KLAX 270653Z 00000KT 10SM BKN012 17/15 A3000 RMK AO2 SLP157 T01720150 $","updated":"2025-10-27T07:18:19Z"}
