{"icao":"LPLA","metar":"LPLA 230800Z 34009KT 9999 SCT006 BKN014 BKN028 19/17 Q1024","updated":"2026-06-23T08:33:22Z"}
