{"icao":"LPMA","metar":"LPMA 050500Z 01006KT 310V030 9999 SCT016 21/15 Q1024","updated":"2025-10-05T05:15:49Z"}
