{"icao":"LPCS","metar":"LPCS 161830Z 28006KT 230V310 9999 FEW014 SCT023 14/13 Q1031","updated":"2026-02-16T18:40:50Z"}
