{"icao":"LPLA","metar":"LPLA 271400Z 01011KT 330V070 9999 FEW015 SCT022 19/14 Q1018","updated":"2025-10-27T14:19:06Z"}
