{"icao":"LPFL","metar":"LPFL 261200Z 03010KT 360V060 9999 SCT024 19/11 Q1029","updated":"2025-10-26T12:33:44Z"}
