{"icao":"KJFK","metar":"KJFK 281951Z 25008KT 10SM FEW015 BKN170 OVC250 M01/M04 A3009 RMK AO2 SLP188 T10061039 $","updated":"2025-12-28T20:21:47Z"}
