{"icao":"LPPS","metar":"LPPS 301700Z 02012KT 9999 SCT015 18/12 Q1021","updated":"2025-11-30T17:15:42Z"}
