{"icao":"LPAZ","metar":"LPAZ 271700Z 21007KT 9999 FEW028 20/14 Q1022","updated":"2025-11-27T17:15:31Z"}
