{"icao":"LPBJ","metar":"LPBJ 120900Z 33020KT 9999 FEW030 12/01 Q1017","updated":"2026-04-12T09:43:18Z"}
