{"icao":"LPOV","metar":"LPOV 171300Z 30006KT 270V330 4000 BR FEW001 18/15 Q1015","updated":"2025-10-17T13:26:41Z"}
