{"icao":"KORD","metar":"KORD 160751Z 33013G21KT 10SM CLR 07/M09 A2979 RMK AO2 SLP086 T00721089 $","updated":"2025-11-16T08:22:05Z"}
