{"icao":"KLAX","metar":"KLAX 021253Z 15006KT 10SM SCT009 SCT012 18/16 A2999 RMK AO2 SLP154 T01780156 $","updated":"2025-10-02T13:25:30Z"}
