{"icao":"LPMA","metar":"LPMA 231400Z 04011KT 9999 SCT015 BKN030 24/19 Q1021","updated":"2025-10-23T14:18:57Z"}
