{"icao":"LPAZ","metar":"LPAZ 220430Z 27020KT 9999 FEW010 BKN042 17/15 Q1018","updated":"2026-01-22T04:46:55Z"}
