{"icao":"LPPS","metar":"LPPS 141400Z 04012KT 350V070 9999 FEW015 BKN030 26/19 Q1023","updated":"2025-09-14T14:13:37Z"}
