{"icao":"LPLA","metar":"LPLA 122100Z 32025KT 9999 SCT025 15/08 Q1003","updated":"2025-11-12T21:17:12Z"}
