{"icao":"LPPD","metar":"LPPD 192300Z 31010KT 9999 FEW018 14/11 Q1029","updated":"2025-12-19T23:18:24Z"}
