{"icao":"LPLA","metar":"LPLA 291500Z 26015KT 230V300 9999 SCT025 20/13 Q1014","updated":"2025-10-29T15:20:23Z"}
