{"icao":"LPPR","metar":"LPPR 261900Z 31003KT 280V340 CAVOK 30/13 Q1019","updated":"2026-05-26T19:20:23Z"}
