{"icao":"LPPR","metar":"LPPR 041100Z 30004KT 250V330 9999 FEW010 BKN015 20/16 Q1025","updated":"2025-10-04T11:12:36Z"}
