{"icao":"LPMA","metar":"LPMA 181530Z 04015KT 9999 FEW015 18/13 Q1015","updated":"2026-04-18T15:36:21Z"}
