{"icao":"LPPD","metar":"LPPD 060500Z 29025KT 9999 FEW006 SCT010 BKN035 13/06 Q1012","updated":"2026-04-06T05:22:24Z"}
