{"icao":"KJFK","metar":"KJFK 010251Z 05009KT 10SM FEW070 BKN250 19/14 A3006 RMK AO2 SLP180 T01940144 50003 $","updated":"2025-10-01T03:09:49Z"}
