{"icao":"LPOV","metar":"LPOV 261600Z 33006KT 300V360 9999 FEW006 15/10 Q1024","updated":"2026-02-26T16:57:00Z"}
