{"icao":"LPLA","metar":"LPLA 261500Z 01005KT 340V080 9999 BKN022 14/10 Q1024","updated":"2025-12-26T15:19:32Z"}
