{"icao":"LPPR","metar":"LPPR 310730Z VRB02KT 0400 R17/0450N FG VV001 15/15 Q1022","updated":"2026-05-31T07:44:11Z"}
