{"icao":"KJFK","metar":"KJFK 241651Z 32010G18KT 10SM FEW060 FEW250 11/M02 A3020 RMK AO2 PK WND 33026/1610 SLP225 T01061022","updated":"2025-11-24T17:18:03Z"}
