{"icao":"LPOV","metar":"LPOV 161100Z 31006KT 280V350 CAVOK 19/15 Q1022","updated":"2025-09-16T11:14:04Z"}
