{"icao":"KORD","metar":"KORD 230551Z 28011G24KT 10SM BKN230 M15/M24 A3032 RMK AO2 PK WND 31027/0537 SLP280 4/001 T11501244 11078 21150 410331150 51022 $","updated":"2026-01-23T06:34:28Z"}
