{"icao":"LPFR","metar":"LPFR 202200Z 36007KT CAVOK 12/05 Q1022","updated":"2025-11-20T22:16:58Z"}
