{"icao":"LPFR","metar":"LPFR 020530Z 28014KT 8000 -RA FEW012 SCT025 BKN040 12/10 Q1002 RERA","updated":"2026-02-02T06:02:45Z"}
