{"icao":"LPBJ","metar":"LPBJ 171400Z 08008KT 050V110 CAVOK 15/08 Q1020","updated":"2025-12-17T14:21:08Z"}
