{"icao":"LPHR","metar":"LPHR 241600Z 26023G34KT 5000 -RADZ BR SCT006 BKN011 17/16 Q1017","updated":"2026-01-24T16:23:30Z"}
