{"icao":"LPPS","metar":"LPPS 292300Z 36011KT 8000 -SHRA FEW008 BKN012 FEW016TCU 17/16 Q1023","updated":"2025-11-29T23:17:14Z"}
