{"icao":"LPMA","metar":"LPMA 251600Z 21008KT 150V270 9999 SCT015 FEW018CB BKN070 23/20 Q1014","updated":"2025-10-25T16:20:00Z"}
