{"icao":"LPOV","metar":"LPOV 012000Z 35007KT CAVOK 21/15 Q1017","updated":"2026-07-01T21:26:35Z"}
