{"icao":"LPFR","metar":"LPFR 171130Z 10012KT CAVOK 25/12 Q1017","updated":"2026-04-17T11:51:16Z"}
