{"icao":"LPPS","metar":"LPPS 161730Z 11006KT 060V140 9999 FEW015 BKN030 17/12 Q1014","updated":"2026-03-16T17:58:38Z"}
