{"icao":"LPBJ","metar":"LPBJ 040900Z 08008KT CAVOK 13/09 Q1013","updated":"2026-03-04T09:39:02Z"}
