{"icao":"LPST","metar":"LPST 131700Z 16019KT 8000 BKN006 SCT015 FEW025TCU 17/15 Q0995","updated":"2025-11-13T22:18:01Z"}
