{"icao":"LPAZ","metar":"LPAZ 031400Z 31007KT 270V350 9999 FEW007 SCT020 21/19 Q1013","updated":"2025-11-03T14:18:42Z"}
