{"icao":"LPMT","metar":"LPMT 130500Z 21018G29KT 170V250 2000 +TSRA BR FEW009 BKN015 SCT018CB 17/14 Q1001","updated":"2025-11-13T05:18:51Z"}
