{"icao":"KORD","metar":"KORD 260951Z 24013G30KT 10SM OVC026 02/M03 A2969 RMK AO2 PK WND 23036/0929 SLP057 T00221028","updated":"2025-11-26T10:21:44Z"}
