{"icao":"LPBJ","metar":"LPBJ 130400Z 16014KT 8000 -RA OVC040 13/10 Q1010","updated":"2026-01-13T04:39:00Z"}
