{"icao":"LPMT","metar":"LPMT 140400Z 03011KT CAVOK 12/09 Q1019","updated":"2025-12-14T04:35:03Z"}
