{"icao":"KLAX","metar":"KLAX 311653Z 04007KT 10SM CLR 22/00 A3017 RMK AO2 SLP215 T02170000 $","updated":"2026-01-31T17:22:37Z"}
