{"icao":"KLAX","metar":"KLAX 221411Z VRB06KT 8SM FEW009 BKN015 17/14 A3004 RMK AO2 T01670144","updated":"2025-10-22T14:20:18Z"}
