{"icao":"LPBJ","metar":"LPBJ 180800Z 31002KT CAVOK 09/08 Q1019","updated":"2025-11-18T08:25:22Z"}
