{"icao":"LPPT","metar":"LPPT 110600Z 00000KT 9999 4500NW FEW007 SCT010 09/09 Q1026","updated":"2026-01-11T06:30:12Z"}
