{"icao":"LPPT","metar":"LPPT 242130Z 32009KT CAVOK 15/11 Q1021","updated":"2026-03-24T21:36:35Z"}
