{"icao":"LPHR","metar":"LPHR 182300Z 31005KT 260V330 9999 FEW014 15/13 Q1014","updated":"2026-04-19T02:34:37Z"}
