{"icao":"LPMA","metar":"LPMA 111100Z 04007KT 360V060 9999 FEW015 18/13 Q1028","updated":"2026-01-11T11:16:58Z"}
