{"icao":"LPFL","metar":"LPFL 231730Z VRB17G36KT 9000 SCT021 FEW023CB 15/10 Q1001 RESHRA WS ALL RWY","updated":"2026-02-23T18:00:22Z"}
