{"icao":"KORD","metar":"KORD 231051Z 33011KT 10SM -SN OVC029 M07/M12 A3041 RMK AO2 SLP308 P0000 T10671117 $","updated":"2026-02-23T11:39:29Z"}
