{"icao":"KORD","metar":"KORD 102151Z 31009G19KT 10SM FEW035 BKN120 BKN250 00/M09 A3021 RMK AO2 SLP238 T00001089","updated":"2025-11-10T22:18:49Z"}
