{"icao":"LPFL","metar":"LPFL 272000Z 17006KT 140V200 9999 FEW019 BKN034 20/14 Q1027","updated":"2025-09-27T21:14:05Z"}
