{"icao":"LPCS","metar":"LPCS 211630Z 29014G24KT 260V320 9000 FEW006 SCT014 15/13 Q1005","updated":"2026-01-21T16:42:47Z"}
