{"icao":"LPMA","metar":"LPMA 081900Z 36007KT 9999 -SHRA BKN013 16/13 Q1033","updated":"2026-01-08T19:19:17Z"}
