{"icao":"LPPT","metar":"LPPT 150700Z 03002KT CAVOK 15/10 Q1016","updated":"2025-10-15T07:18:27Z"}
