{"icao":"LPFL","metar":"LPFL 100900Z 21003KT 160V260 9999 FEW020 20/16 Q1020","updated":"2025-10-10T09:19:18Z"}
