{"icao":"LPCS","metar":"LPCS 091030Z 03010KT 360V070 9999 FEW024 17/10 Q1017","updated":"2026-04-09T10:57:13Z"}
