{"icao":"LPPT","metar":"LPPT 281100Z 16012KT 130V190 9999 FEW015 BKN017 FEW020TCU 21/18 Q1014","updated":"2025-10-28T11:14:51Z"}
