{"icao":"LPPT","metar":"LPPT 140600Z VRB02KT CAVOK 18/10 Q1016","updated":"2025-10-14T06:27:15Z"}
