{"icao":"LPBJ","metar":"LPBJ 202000Z 18004KT CAVOK 21/11 Q1009","updated":"2026-04-20T20:43:32Z"}
