{"icao":"KJFK","metar":"KJFK 121651Z 03019G29KT 10SM -RA FEW032 BKN048 BKN070 OVC150 14/11 A3006 RMK AO2 PK WND 05030/1620 RAB1559 SLP178 P0000 T01390106","updated":"2025-10-12T17:13:33Z"}
