{"icao":"LPPT","metar":"LPPT 020430Z 15013KT 6000 RA SCT004 BKN008 FEW020TCU 13/13 Q1002","updated":"2026-01-02T04:39:38Z"}
