{"icao":"LPPS","metar":"LPPS 210300Z 34008KT 9999 SCT006 SCT030 22/22 Q1018","updated":"2025-10-21T03:04:43Z"}
