{"icao":"KLAX","metar":"KLAX 221753Z VRB05KT 10SM FEW050 21/12 A3006 RMK AO2 SLP177 T02110122 10211 20161 50001","updated":"2025-10-22T18:28:01Z"}
