{"icao":"LPPS","metar":"LPPS 240130Z VRB01KT 9999 FEW014 SCT030 15/13 Q1021","updated":"2026-02-24T02:00:34Z"}
