{"icao":"LPMA","metar":"LPMA 131230Z 01014KT 330V030 9999 BKN015 18/10 Q1026","updated":"2026-03-13T12:56:25Z"}
