{"icao":"LPFL","metar":"LPFL 202000Z VRB07KT 9999 FEW014 17/13 Q1013","updated":"2026-02-20T20:30:14Z"}
