{"icao":"LPMR","metar":"LPMR 032000Z 30003KT CAVOK 14/11 Q1023","updated":"2026-04-03T20:35:08Z"}
