{"icao":"LPPD","metar":"LPPD 061530Z 26022KT 1000 R30/1500U +RA BR FEW005 BKN010 SCT018CB 14/13 Q1009","updated":"2026-02-06T15:38:24Z"}
