{"icao":"LPPD","metar":"LPPD 161230Z 31010KT 290V360 9999 FEW018 15/09 Q1033","updated":"2026-01-16T12:42:10Z"}
