{"icao":"KORD","metar":"KORD 160351Z 21009G19KT 10SM SCT050 BKN065 OVC085 M04/M13 A2974 RMK AO2 SLP080 T10441128 $","updated":"2026-01-16T04:39:14Z"}
