{"icao":"KJFK","metar":"KJFK 211251Z 35015G22KT 10SM FEW040 SCT060 12/08 A2983 RMK AO2 SLP100 T01170083","updated":"2026-03-21T13:41:06Z"}
