{"icao":"LPHR","metar":"LPHR 181030Z 07012KT 030V090 9999 FEW016 17/11 Q1015","updated":"2026-04-18T10:38:58Z"}
