{"icao":"LPMR","metar":"LPMR 130100Z 16011KT 8000 -RA BKN025 12/10 Q1009","updated":"2026-01-13T01:28:13Z"}
