{"icao":"KJFK","metar":"KJFK 141851Z 27008KT 10SM FEW045 FEW095 SCT250 05/M04 A3003 RMK AO2 SLP169 T00501044 $","updated":"2026-02-14T19:23:01Z"}
