{"icao":"LPCS","metar":"LPCS 200830Z 36013KT 9999 FEW010 22/16 Q1016","updated":"2026-06-20T08:52:56Z"}
