{"icao":"LPPR","metar":"LPPR 241100Z 23006KT 190V270 7000 BKN005 18/16 Q1021","updated":"2026-05-24T11:15:04Z"}
