{"icao":"KLAX","metar":"KLAX 150053Z 13005KT 3SM RA BR FEW010 BKN029 OVC033 18/16 A2994 RMK AO2 RAB24 SLP136 VIS SW-W 2 P0006 T01780161 $","updated":"2025-11-15T01:22:01Z"}
