{"icao":"LPPT","metar":"LPPT 201030Z 02008KT CAVOK 12/06 Q1031","updated":"2026-02-20T10:35:53Z"}
