{"icao":"LPPR","metar":"LPPR 201700Z 20008KT 9999 FEW008 BKN030 18/16 Q1012","updated":"2025-10-20T17:15:53Z"}
