{"icao":"KORD","metar":"KORD 120651Z 24009KT 10SM FEW050 03/00 A2975 RMK AO2 SLP079 T00330000","updated":"2025-11-12T07:18:20Z"}
