{"icao":"LPMR","metar":"LPMR 111700Z 16005KT 9999 FEW025 14/09 Q1018","updated":"2025-12-11T18:28:31Z"}
