{"icao":"LPPT","metar":"LPPT 010600Z 01004KT 350V050 CAVOK 17/12 Q1020","updated":"2025-10-01T06:26:59Z"}
