{"icao":"KJFK","metar":"KJFK 300251Z 28018G37KT 10SM SCT060 SCT100 00/M12 A2951 RMK AO2 PK WND 27045/0215 SLP992 T00001117 53035 $","updated":"2025-12-30T03:26:38Z"}
