{"icao":"LPPR","metar":"LPPR 160900Z 20003KT 130V260 9999 FEW009 BKN020 16/12 Q1022","updated":"2026-04-16T09:17:23Z"}
