{"icao":"LPPS","metar":"LPPS 291000Z 33016KT 9999 SCT015 FEW018TCU 22/17 Q1016","updated":"2025-10-29T10:20:39Z"}
