{"icao":"LPMA","metar":"LPMA 100200Z 35017G27KT 320V020 9999 BKN015 FEW016TCU 16/11 Q1017","updated":"2026-04-10T02:27:46Z"}
