{"icao":"KORD","metar":"KORD 020251Z 16006KT 1SM R10L/P6000FT -SN BR FEW008 BKN018 OVC030 M04/M05 A3005 RMK AO2 SLP184 P0002 60004 T10391050 56023","updated":"2025-12-02T03:17:42Z"}
