{"icao":"LPAZ","metar":"LPAZ 212300Z 16009KT 9999 FEW019 BKN049 16/14 Q1026","updated":"2026-02-21T23:22:23Z"}
