{"icao":"KJFK","metar":"KJFK 081751Z 36018G24KT 10SM BKN024 BKN047 BKN085 18/13 A2999 RMK AO2 SLP156 60012 T01830128 10222 20172 51013","updated":"2025-10-08T18:27:07Z"}
