{"icao":"LPOV","metar":"LPOV 151600Z 28004KT 230V310 9999 1000N PRFG SCT002 17/15 Q1016","updated":"2025-10-15T16:19:22Z"}
