{"icao":"LPFR","metar":"LPFR 111300Z 25013KT 1400 R28/1500D -DZ BR OVC002 15/15 Q1021","updated":"2026-02-11T13:07:14Z"}
