{"icao":"LPBJ","metar":"LPBJ 111434Z 25016KT 9999 OVC008 16/14 Q1018","updated":"2026-02-11T14:51:57Z"}
