{"icao":"KJFK","metar":"KJFK 221251Z 09015G24KT 10SM -RA OVC007 02/01 A3010 RMK AO2 SLP193 P0000 T00170011 $","updated":"2026-02-22T13:42:08Z"}
