{"icao":"LPCS","metar":"LPCS 230800Z 01003KT 9999 FEW014 08/08 Q1027","updated":"2025-11-23T08:22:30Z"}
