{"icao":"LPMA","metar":"LPMA 271200Z 06005KT 020V110 9999 FEW015 25/18 Q1022","updated":"2025-09-27T12:31:49Z"}
