{"icao":"LPFR","metar":"LPFR 112000Z 04004KT 9999 FEW012 17/15 Q1011","updated":"2025-11-11T20:19:59Z"}
