{"icao":"KLAX","metar":"KLAX 271253Z 06004KT 10SM CLR 09/08 A3002 RMK AO2 SLP165 T00940078 $","updated":"2025-12-27T13:27:22Z"}
