{"icao":"KJFK","metar":"KJFK 131051Z 33008KT 10SM FEW180 FEW250 M06/M12 A3013 RMK AO2 SLP203 T10561117 $","updated":"2026-02-13T11:30:24Z"}
