{"icao":"KORD","metar":"KORD 081751Z 14008KT 10SM FEW012 FEW070 M02/M09 A3032 RMK AO2 SLP277 4/001 T10221089 11017 21061 58007 $","updated":"2026-02-08T18:35:50Z"}
