{"icao":"KJFK","metar":"KJFK 220651Z 04007KT 10SM FEW060 SCT075 BKN150 BKN250 14/08 A3027 RMK AO2 SLP251 T01390083","updated":"2026-05-22T07:43:09Z"}
