{"icao":"LPLA","metar":"LPLA 261300Z 22009KT 170V250 9999 FEW022 19/13 Q1023","updated":"2025-11-26T13:33:51Z"}
