{"icao":"KLAX","metar":"KLAX 191001Z 25004KT 10SM FEW005 BKN007 BKN100 20/18 A2987 RMK AO2 T02000183","updated":"2025-09-19T10:19:06Z"}
