{"icao":"LPMT","metar":"LPMT 251300Z VRB03KT 9999 SCT014 BKN025 22/18 Q1013","updated":"2025-10-25T13:21:36Z"}
