{"icao":"LPBJ","metar":"LPBJ 260900Z 13012KT CAVOK 26/09 Q1023","updated":"2026-05-26T09:55:16Z"}
