{"icao":"LPMT","metar":"LPMT 241300Z 02010KT 9999 SCT030 12/08 Q1009","updated":"2025-12-24T13:30:47Z"}
