{"icao":"LPPS","metar":"LPPS 031230Z 06011KT 030V100 9999 FEW015 24/18 Q1025","updated":"2025-10-03T12:35:14Z"}
