{"icao":"LPMT","metar":"LPMT 061000Z 05003KT 320V110 CAVOK 22/14 Q1020","updated":"2025-10-06T10:19:48Z"}
