{"icao":"LPFR","metar":"LPFR 181900Z VRB02KT CAVOK 16/13 Q1018","updated":"2025-11-18T19:15:36Z"}
