{"icao":"LPPT","metar":"LPPT 230830Z 05004KT CAVOK 10/09 Q1025","updated":"2026-02-23T08:49:44Z"}
