{"icao":"LPAZ","metar":"LPAZ 271400Z 26028KT 9000 FEW022 16/12 Q1011","updated":"2026-01-27T14:28:22Z"}
