{"icao":"KORD","metar":"KORD 280810Z 10003KT 1/2SM R10L/5000VP6000FT DZ FG VV003 07/07 A2972 RMK AO2 P0000 T00670067 $","updated":"2025-12-28T08:25:51Z"}
