{"icao":"LPBJ","metar":"LPBJ 171200Z 30007KT 270V330 9999 SCT020 10/06 Q1013","updated":"2026-01-17T12:37:24Z"}
