{"icao":"KORD","metar":"KORD 281151Z 36006KT 10SM FEW025 FEW250 M03/M11 A3061 RMK AO2 SLP373 T10331111 11011 21044 53000","updated":"2026-03-28T12:53:10Z"}
