{"icao":"LPPS","metar":"LPPS 041500Z 34014KT 9999 SCT014 18/14 Q1008","updated":"2026-01-04T15:18:19Z"}
