{"icao":"KJFK","metar":"KJFK 150551Z 21004KT 10SM BKN110 BKN250 19/18 A3014 RMK AO2 SLP205 T01890178 10206 20189 52011 $","updated":"2025-09-15T06:28:13Z"}
