{"icao":"LPPR","metar":"LPPR 070900Z 17006KT 140V210 CAVOK 19/13 Q1022","updated":"2025-10-07T09:18:58Z"}
