{"icao":"LPPT","metar":"LPPT 192000Z 25008KT CAVOK 24/19 Q1019","updated":"2025-09-19T20:18:35Z"}
