{"icao":"KORD","metar":"KORD 110643Z 02009KT 8SM BKN005 OVC022 06/05 A2965 RMK AO2 T00560050 $","updated":"2026-03-11T06:52:48Z"}
