{"icao":"LPPT","metar":"LPPT 202100Z 07010KT 8000 -RA FEW002 BKN005 14/14 Q1008 RERA","updated":"2026-03-20T21:28:42Z"}
