{"icao":"LPFR","metar":"LPFR 302100Z 02005KT CAVOK 18/15 Q1016","updated":"2025-10-30T21:16:22Z"}
