{"icao":"KLAX","metar":"KLAX 282053Z 24008KT 10SM FEW022 FEW045 SCT060 BKN150 20/07 A2995 RMK AO2 SLP140 T02000072 58004 $","updated":"2026-05-28T21:07:29Z"}
