{"icao":"LPPT","metar":"LPPT 180400Z 13002KT CAVOK 17/11 Q1015","updated":"2025-10-18T04:20:00Z"}
