{"icao":"LPFL","metar":"LPFL 081800Z 18014G30KT 150V220 9999 SCT012 FEW018TCU 23/20 Q1015","updated":"2025-10-08T18:26:53Z"}
