{"icao":"LPOV","metar":"LPOV 051600Z 23014KT 200V260 9000 VCTS FEW015 FEW018CB BKN026 16/12 Q0993","updated":"2026-02-05T16:45:36Z"}
