{"icao":"KJFK","metar":"KJFK 191551Z 17015G25KT 10SM FEW030 FEW200 BKN250 21/14 A2999 RMK AO2 PK WND 17026/1524 SLP154 T02060144 $","updated":"2025-10-19T16:19:47Z"}
