{"icao":"LPFR","metar":"LPFR 152000Z VRB01KT CAVOK 15/12 Q1017","updated":"2026-03-15T20:28:18Z"}
