{"icao":"LPBJ","metar":"LPBJ 112100Z 18005KT 9999 FEW035 SCT048 13/12 Q1019","updated":"2025-12-11T21:20:42Z"}
