{"icao":"KORD","metar":"KORD 071751Z 06004KT 10SM FEW030 SCT250 M06/M17 A3043 RMK AO2 SLP317 4/001 T10611167 11056 21111 50008 $","updated":"2026-02-07T18:34:12Z"}
