{"icao":"KJFK","metar":"KJFK 310951Z 28009KT 10SM SCT055 M02/M13 A2982 RMK AO2 SLP098 T10221128 $","updated":"2025-12-31T10:21:10Z"}
