{"icao":"LPPD","metar":"LPPD 032100Z 26003KT 220V280 9999 FEW016 BKN045 22/20 Q1025","updated":"2025-10-03T21:14:12Z"}
