{"icao":"LPPR","metar":"LPPR 220800Z 12007KT CAVOK 05/02 Q1031","updated":"2025-11-22T08:22:20Z"}
