{"icao":"KORD","metar":"KORD 160651Z 00000KT 10SM CLR M08/M12 A3004 RMK AO2 SLP185 T10781117","updated":"2025-12-16T07:22:14Z"}
