{"icao":"LPFL","metar":"LPFL 201900Z 13005KT 090V190 9999 SCT015 BKN033 18/13 Q1031","updated":"2025-11-20T19:15:23Z"}
