{"icao":"LPFL","metar":"LPFL 161700Z 36009KT 9999 SCT015 15/11 Q1018","updated":"2026-04-16T17:12:42Z"}
