{"icao":"LPPR","metar":"LPPR 200630Z 19003KT 9000 RA BKN040 13/13 Q1009","updated":"2026-03-20T06:53:47Z"}
