{"icao":"LPPD","metar":"LPPD 101500Z 20020KT 7000 -RA FEW016 BKN045 18/15 Q1018","updated":"2025-12-10T15:23:37Z"}
