{"icao":"LPPR","metar":"LPPR 290600Z 03005KT 330V070 CAVOK 14/12 Q1017","updated":"2025-09-29T06:28:31Z"}
