{"icao":"LPPR","metar":"LPPR 130700Z 14003KT 100V160 CAVOK 16/12 Q1016","updated":"2025-10-13T07:18:20Z"}
