{"icao":"KJFK","metar":"KJFK 090851Z 25010KT 10SM FEW250 16/07 A3027 RMK AO2 SLP251 T01610072 56002 $","updated":"2026-06-09T09:40:40Z"}
