{"icao":"LPAZ","metar":"LPAZ 171400Z 22017KT 9000 SCT010 BKN030 19/17 Q1022","updated":"2025-12-17T14:21:10Z"}
