{"icao":"LPMA","metar":"LPMA 082100Z 25003KT 220V300 9999 FEW015 18/12 Q1024","updated":"2026-02-08T21:25:33Z"}
