{"icao":"LPPR","metar":"LPPR 051530Z 36017KT 9999 -RA FEW036 BKN049 10/07 Q1017","updated":"2026-03-05T15:49:18Z"}
