{"icao":"KORD","metar":"KORD 111651Z 32012KT 10SM OVC028 M01/M07 A3033 RMK AO2 SLP279 T10061072 $","updated":"2026-01-11T17:16:53Z"}
