{"icao":"LPFL","metar":"LPFL 220600Z VRB02KT 9999 SCT008 BKN030 21/19 Q1025","updated":"2026-06-22T06:27:56Z"}
