{"icao":"LPHR","metar":"LPHR 272100Z 26026G40KT 7000 SCT007 SCT011 BKN016 17/16 Q1004","updated":"2026-01-27T21:17:15Z"}
