{"icao":"LPPR","metar":"LPPR 051700Z 35009KT CAVOK 22/12 Q1019","updated":"2025-10-05T17:13:13Z"}
