{"icao":"LPPS","metar":"LPPS 022130Z 31005KT 280V350 9999 FEW015 17/14 Q1020","updated":"2026-05-02T21:39:27Z"}
