{"icao":"LPAZ","metar":"LPAZ 161000Z 33013KT 9999 FEW030 14/07 Q1032","updated":"2026-01-16T10:22:41Z"}
