{"icao":"LPPS","metar":"LPPS 141000Z 03011KT 360V060 9999 FEW015 SCT030 16/08 Q1032","updated":"2026-02-14T10:25:35Z"}
