{"icao":"LPLA","metar":"LPLA 071000Z 25002KT 9999 FEW022 13/10 Q1014","updated":"2026-02-07T10:23:59Z"}
