{"icao":"KJFK","metar":"KJFK 080051Z 31011KT 10SM BKN032 07/01 A2995 RMK AO2 SLP142 T00670006","updated":"2026-01-08T01:41:18Z"}
