{"icao":"KORD","metar":"KORD 242051Z VRB04KT 10SM SCT300 12/M01 A3027 RMK AO2 SLP255 T01171011 56012 $","updated":"2025-10-24T21:15:49Z"}
