{"icao":"LPPT","metar":"LPPT 022100Z 31005KT CAVOK 15/10 Q1025","updated":"2025-11-02T21:14:24Z"}
