{"icao":"KJFK","metar":"KJFK 212151Z 17014KT 10SM FEW060 SCT110 SCT250 08/M05 A3028 RMK SLP252 T00781050 ","updated":"2026-04-21T22:37:13Z"}
