{"icao":"LPPR","metar":"LPPR 051530Z 24014G26KT 210V270 9999 FEW020CB BKN025 15/11 Q0991","updated":"2026-02-05T15:39:06Z"}
