{"icao":"LPHR","metar":"LPHR 281900Z 27019KT 5000 -RA BR SCT005 BKN008 BKN095 17/16 Q1005","updated":"2026-01-28T19:27:01Z"}
