{"icao":"KORD","metar":"KORD 181351Z 28014G25KT 10SM SCT024 SCT100 BKN210 OVC250 07/02 A2980 RMK AO2 SLP090 T00720017 $","updated":"2026-04-18T14:03:42Z"}
