{"icao":"LPPT","metar":"LPPT 052000Z 01005KT 9999 FEW025TCU 07/03 Q1016","updated":"2026-01-05T20:24:07Z"}
