{"icao":"LPMR","metar":"LPMR 012200Z 33009KT 3500 -DZ BR SCT005 BKN008 BKN010 17/17 Q1021","updated":"2026-06-02T00:12:03Z"}
