{"icao":"KJFK","metar":"KJFK 032016Z 18008KT 10SM SCT016 BKN250 12/08 A3018 RMK AO2 T01170083","updated":"2026-04-03T20:35:26Z"}
