{"icao":"LPFL","metar":"LPFL 182100Z 17019KT 9999 FEW016 16/13 Q1021","updated":"2026-02-19T05:57:49Z"}
