{"icao":"KJFK","metar":"KJFK 071551Z 32010G18KT 10SM FEW050 SCT120 SCT250 16/02 A2984 RMK AO2 SLP104 T01610017","updated":"2026-05-07T16:48:35Z"}
