{"icao":"KORD","metar":"KORD 152051Z 25010KT 10SM FEW150 SCT250 M05/M14 A2986 RMK AO2 SLP123 T10501139 56024 $","updated":"2026-01-15T21:20:33Z"}
