{"icao":"LPLA","metar":"LPLA 221000Z 17011KT 9999 FEW023 21/16 Q1024","updated":"2025-09-22T10:20:14Z"}
