{"icao":"LPPS","metar":"LPPS 030800Z 16007KT 9999 FEW012 18/15 Q1017","updated":"2026-05-03T08:06:53Z"}
