{"icao":"LPLA","metar":"LPLA 181500Z 03003KT 350V060 5000 -RA BR FEW007 SCT040 18/18 Q1016 RERA","updated":"2025-09-18T15:18:09Z"}
