{"icao":"LPOV","metar":"LPOV 291000Z 26008KT 220V280 6000 -RA FEW003 SCT035 BKN045 13/13 Q1006","updated":"2026-01-29T10:35:21Z"}
