{"icao":"LPPT","metar":"LPPT 120900Z 04006KT 300V080 4000 1800NW -RA BR SCT001 BKN004 12/12 Q1012","updated":"2025-12-12T09:23:32Z"}
