{"icao":"LPMA","metar":"LPMA 071400Z 04004KT 360V080 9999 SCT015 BKN060 17/10 Q1014","updated":"2026-05-07T14:04:46Z"}
