{"icao":"KLAX","metar":"KLAX 090853Z 09003KT 10SM CLR 14/11 A3010 RMK AO2 SLP189 T01440106 56009 $","updated":"2026-02-09T08:56:01Z"}
