{"icao":"KORD","metar":"KORD 190444Z 25011G16KT 8SM -SN SCT024 BKN033 OVC041 M08/M11 A2982 RMK AO2 P0000 T10781111 $","updated":"2026-01-19T04:50:44Z"}
