{"icao":"LPPR","metar":"LPPR 022130Z 23003KT 200V280 9999 FEW012 SCT022 FEW025CB BKN028 16/14 Q1015","updated":"2026-05-02T21:38:54Z"}
