{"icao":"LPPR","metar":"LPPR 100300Z 18009KT 9000 FEW004 BKN015 14/13 Q1017","updated":"2025-11-10T03:17:44Z"}
