{"icao":"LPBJ","metar":"LPBJ 070900Z 32006KT 280V010 9999 FEW025 14/09 Q1011","updated":"2026-05-07T09:30:05Z"}
