{"icao":"KJFK","metar":"KJFK 011451Z 04013G22KT 10SM FEW043 FEW250 17/07 A3020 RMK AO2 SLP227 T01720067 51014","updated":"2025-10-01T15:18:03Z"}
