{"icao":"LPHR","metar":"LPHR 301400Z 21013KT 6000 -RA SCT003 SCT007 BKN012 18/17 Q1007","updated":"2025-12-30T14:20:19Z"}
