{"icao":"LPPR","metar":"LPPR 031800Z 23005KT 210V270 7000 BKN006 BKN013 18/16 Q1020","updated":"2026-06-03T18:21:28Z"}
