{"icao":"LPBJ","metar":"LPBJ 291100Z 25004KT 160V320 CAVOK 29/14 Q1021","updated":"2026-05-29T11:27:32Z"}
