{"icao":"LPPR","metar":"LPPR 181100Z 03005KT 360V060 CAVOK 15/09 Q1021","updated":"2025-11-18T11:17:14Z"}
