{"icao":"LPBJ","metar":"LPBJ 162000Z 32005KT CAVOK 21/10 Q1018","updated":"2026-04-16T20:46:36Z"}
