{"icao":"LPOV","metar":"LPOV 282000Z 34015KT CAVOK 19/17 Q1023","updated":"2026-06-28T20:11:41Z"}
