{"icao":"LPPT","metar":"LPPT 261000Z 05007G18KT 330V110 CAVOK 19/14 Q1018","updated":"2025-10-26T10:16:54Z"}
