{"icao":"LPPS","metar":"LPPS 071500Z 02012KT 350V050 9999 SCT015 16/07 Q1032","updated":"2026-01-07T15:24:19Z"}
