{"icao":"LPPR","metar":"LPPR 030730Z 07008KT 340V090 CAVOK 13/09 Q1014","updated":"2026-03-03T07:40:57Z"}
