{"icao":"LPOV","metar":"LPOV 270800Z 07005KT 030V130 CAVOK 13/02 Q1019","updated":"2026-03-27T08:51:26Z"}
