{"icao":"LPHR","metar":"LPHR 122300Z VRB07KT 9999 FEW020 FEW023CB 15/09 Q1006","updated":"2025-11-12T23:17:58Z"}
