{"icao":"LPHR","metar":"LPHR 070900Z 31019KT 270V340 9999 FEW016 SCT030 15/10 Q1013","updated":"2026-05-07T09:30:20Z"}
