{"icao":"KLAX","metar":"KLAX 150253Z 00000KT 10SM CLR 19/09 A3005 RMK AO2 SLP175 T01890089 53002 $","updated":"2026-01-15T03:40:02Z"}
