{"icao":"KORD","metar":"KORD 100901Z 09006KT 5SM -RA BR SCT005 BKN039 OVC050 07/06 A3008 RMK AO2 P0000 T00670056","updated":"2026-04-10T09:07:43Z"}
