{"icao":"LPFL","metar":"LPFL 142000Z 32013G28KT 250V360 9999 FEW020 15/05 Q1025","updated":"2025-12-14T20:20:12Z"}
