{"icao":"LPPT","metar":"LPPT 241630Z 22009KT 190V260 CAVOK 27/12 Q1020","updated":"2026-05-24T16:58:47Z"}
