{"icao":"KLAX","metar":"KLAX 260053Z 27004KT 10SM CLR 18/12 A3003 RMK AO2 SLP168 T01830117","updated":"2025-11-26T01:24:44Z"}
