{"icao":"LPOV","metar":"LPOV 222000Z 22005KT 180V240 9999 SCT009 SCT015 BKN020 15/13 Q0998","updated":"2026-01-22T20:26:22Z"}
