{"icao":"KLAX","metar":"KLAX 182053Z 25007KT 10SM SCT180 SCT230 BKN290 23/06 A3005 RMK AO2 SLP175 T02330061 58025 $","updated":"2026-01-18T21:18:08Z"}
