{"icao":"LPMR","metar":"LPMR 121700Z 17016KT 9999 FEW025 BKN048 14/09 Q1014","updated":"2026-01-12T17:22:36Z"}
