{"icao":"LPMR","metar":"LPMR 160900Z 16002KT 120V200 1500 BR FEW004 15/14 Q1015","updated":"2025-10-16T09:19:46Z"}
