{"icao":"LPAR","metar":"LPAR 131300Z 04008KT 360V070 CAVOK 17/12 Q1020","updated":"2025-12-13T13:25:56Z"}
