{"icao":"LPAR","metar":"LPAR 131300Z 08006KT 040V110 9999 FEW045 29/11 Q1015","updated":"2025-10-13T13:28:45Z"}
