{"icao":"KJFK","metar":"KJFK 102151Z 16013KT 10SM FEW008 BKN250 09/06 A3020 RMK AO2 SLP225 T00890056","updated":"2026-04-10T22:35:58Z"}
