{"icao":"KJFK","metar":"KJFK 250651Z 10009KT 10SM FEW014 BKN090 BKN250 09/05 A2998 RMK SLP152 T00890050 $ ","updated":"2026-04-25T07:13:43Z"}
