{"icao":"LPMR","metar":"LPMR 271900Z 35002KT CAVOK 11/08 Q1024","updated":"2025-11-27T19:14:47Z"}
