{"icao":"LPMA","metar":"LPMA 082000Z 36018G28KT 320V030 9999 VCSH SCT014 20/16 Q1024","updated":"2026-06-08T20:12:15Z"}
