{"icao":"LPMR","metar":"LPMR 301100Z 32010KT 9999 OVC018 20/16 Q1023","updated":"2026-05-30T11:18:32Z"}
