{"icao":"LPAZ","metar":"LPAZ 262100Z 31008KT 9000 BKN003 16/15 Q1032","updated":"2026-02-26T21:31:16Z"}
