{"icao":"LPST","metar":"LPST 061100Z 27016KT 9999 FEW020 FEW022CB 13/07 Q1005","updated":"2026-02-06T11:32:10Z"}
