{"icao":"KJFK","metar":"KJFK 251351Z 04012G20KT 1/2SM R04R/3000V4000FT -SN BR VV007 M11/M13 A3053 RMK AO2 SFC VIS 3/4 SLP338 SNINCR 1/2 P0009 T11061128 $","updated":"2026-01-25T14:18:04Z"}
