{"icao":"LPFR","metar":"LPFR 211000Z 36011KT 320V030 CAVOK 23/07 Q1018","updated":"2025-09-21T10:16:01Z"}
