{"icao":"KJFK","metar":"KJFK 071251Z 00000KT 1 1/2SM -DZ BR OVC004 03/02 A3027 RMK AO2 DZB1157 SLP251 P0000 T00280022","updated":"2026-03-07T13:37:49Z"}
