{"icao":"LPPS","metar":"LPPS 281400Z 36010KT 340V040 9999 FEW015 17/09 Q1018","updated":"2025-12-28T14:18:00Z"}
