{"icao":"LPPD","metar":"LPPD 080230Z 20013KT 9999 FEW016 BKN045 19/16 Q1020","updated":"2025-11-08T03:00:53Z"}
