{"icao":"KORD","metar":"KORD 130451Z 26007KT 10SM BKN300 06/M02 A3006 RMK AO2 SLP181 T00611022 $","updated":"2025-11-13T05:18:55Z"}
