{"icao":"LPCS","metar":"LPCS 020930Z 27018G31KT 240V300 9999 FEW025 FEW030CB SCT032 12/07 Q0999","updated":"2026-02-02T09:47:44Z"}
