{"icao":"LPOV","metar":"LPOV 130900Z VRB01KT CAVOK 18/14 Q1016","updated":"2025-10-13T09:21:05Z"}
