{"icao":"LPBJ","metar":"LPBJ 242300Z 31008KT CAVOK 15/12 Q1018","updated":"2026-04-24T23:37:36Z"}
