{"icao":"LPMA","metar":"LPMA 260700Z 25009KT 220V280 9999 SCT015 17/07 Q1022","updated":"2026-01-26T07:27:21Z"}
