{"icao":"KORD","metar":"KORD 100451Z 21015G25KT 9SM -RA BKN045 OVC055 03/01 A2932 RMK AO2 PK WND 17026/0415 RAE0355B48 SLP935 P0000 T00330006","updated":"2025-12-10T05:20:47Z"}
