{"icao":"LPHR","metar":"LPHR 251600Z 24024KT 9000 SCT012 BKN040 18/16 Q1010","updated":"2026-01-25T16:24:34Z"}
