{"icao":"LPOV","metar":"LPOV 261700Z 34006KT CAVOK 19/13 Q1019","updated":"2025-10-26T17:14:02Z"}
