{"icao":"LPMA","metar":"LPMA 192100Z 35007KT 320V020 9999 SCT016 16/07 Q1027","updated":"2025-12-19T21:17:47Z"}
