{"icao":"LPBJ","metar":"LPBJ 081900Z 15008KT 5000 -DZRA BKN005 OVC015 11/10 Q1014","updated":"2026-02-08T19:23:30Z"}
