{"icao":"LPOV","metar":"LPOV 170800Z 32002KT 250V030 9999 FEW030 15/11 Q1018","updated":"2026-05-17T09:03:40Z"}
