{"icao":"KORD","metar":"KORD 302251Z 31008KT 10SM SCT033 M02/M07 A3033 RMK AO2 SLP281 T10171072 $","updated":"2025-11-30T23:17:20Z"}
