{"icao":"KLAX","metar":"KLAX 250653Z 00000KT 5SM BR OVC005 17/15 A2999 RMK AO2 SLP155 T01670150","updated":"2025-10-25T07:16:32Z"}
