{"icao":"KORD","metar":"KORD 010751Z 26005KT 10SM BKN250 M07/M09 A3045 RMK AO2 SLP323 T10721089 $","updated":"2025-12-01T08:29:59Z"}
