{"icao":"LPMA","metar":"LPMA 110300Z 25007KT 9999 SCT016 20/14 Q1015","updated":"2025-11-11T03:12:33Z"}
