{"icao":"LPBJ","metar":"LPBJ 092000Z 20007KT 9999 FEW025 SCT035 14/11 Q1011","updated":"2026-05-09T20:55:20Z"}
