{"icao":"LPPS","metar":"LPPS 180430Z 29012G25KT 6000 -RA SCT012 BKN030 13/12 Q1001","updated":"2026-03-18T04:55:03Z"}
