{"icao":"KLAX","metar":"KLAX 241053Z 08004KT 10SM FEW011 FEW018 SCT200 SCT250 14/12 A2991 RMK AO2 SLP125 T01440117 $","updated":"2026-04-24T11:55:44Z"}
