{"icao":"LPBJ","metar":"LPBJ 220700Z 25006KT 9999 SCT045 09/07 Q1010","updated":"2026-01-22T07:26:09Z"}
