{"icao":"LPMT","metar":"LPMT 071000Z 25017KT 4000 TSRA BR SCT015 FEW018CB BKN022 BKN030 13/12 Q1001","updated":"2026-02-07T10:23:58Z"}
