{"icao":"KLAX","metar":"KLAX 062153Z 26010KT 10SM SCT010 SCT014 19/14 A3006 RMK AO2 SLP178 T01940144 $","updated":"2025-11-06T22:17:35Z"}
