{"icao":"LPLA","metar":"LPLA 191620Z 35025G35KT 7000 -SHRA FEW007 BKN012 BKN018 15/12 Q1005","updated":"2026-03-19T16:56:29Z"}
