{"icao":"LPHR","metar":"LPHR 221700Z 17014KT 9000 -SHRA SCT008 BKN012 FEW016TCU BKN070 22/20 Q1009","updated":"2025-10-22T17:17:15Z"}
