{"icao":"LPLA","metar":"LPLA 061120Z 32023KT 9999 SCT024 FEW026CB 11/06 Q1017 RESHRAGS","updated":"2026-04-06T11:47:26Z"}
