{"icao":"LPCS","metar":"LPCS 051600Z 36024G37KT 9999 FEW020 10/01 Q1014","updated":"2026-01-05T16:26:22Z"}
