{"icao":"KLAX","metar":"KLAX 280053Z 27008KT 10SM FEW024 FEW035 14/08 A3005 RMK AO2 SLP175 T01440083 $","updated":"2025-12-28T01:48:12Z"}
