{"icao":"KORD","metar":"KORD 030851Z 19003KT 10SM FEW070 19/12 A3019 RMK AO2 SLP218 T01890117 58003","updated":"2025-10-03T09:17:52Z"}
