{"icao":"LPCS","metar":"LPCS 211330Z 08005KT 350V120 CAVOK 19/07 Q1028","updated":"2026-02-21T13:40:43Z"}
