{"icao":"LPAZ","metar":"LPAZ 021900Z 18006KT 150V210 9999 FEW007 23/21 Q1022","updated":"2025-10-02T19:13:47Z"}
