{"icao":"LPFR","metar":"LPFR 171230Z 26010KT 9999 FEW015 FEW025TCU 13/08 Q1013","updated":"2026-01-17T12:37:20Z"}
