{"icao":"LPBJ","metar":"LPBJ 141000Z 08008KT CAVOK 12/08 Q1019","updated":"2025-12-14T10:18:40Z"}
