{"icao":"LPPD","metar":"LPPD 072000Z 16003KT 130V190 9999 FEW022 17/14 Q1009","updated":"2025-12-07T20:19:28Z"}
