{"icao":"KLAX","metar":"KLAX 191853Z 26007KT 10SM FEW240 SCT290 24/14 A3004 RMK AO2 SLP170 T02440144 $","updated":"2025-10-19T19:13:17Z"}
