{"icao":"LPAZ","metar":"LPAZ 050730Z 04012KT 010V070 9999 SCT038 12/04 Q1033","updated":"2026-03-05T07:40:54Z"}
