{"icao":"KORD","metar":"KORD 100709Z 34013G27KT 1SM R10L/P6000FT -SN VV013 M02/M08 A3012 RMK AO2 PK WND 33027/0707 P0000 T10221078 $","updated":"2025-11-10T07:18:32Z"}
