{"icao":"KLAX","metar":"KLAX 241853Z 23006KT 6SM HZ FEW018 SCT140 21/14 A3002 RMK AO2 SLP164 T02060144","updated":"2026-03-24T19:01:45Z"}
