{"icao":"LPPR","metar":"LPPR 270100Z 07007KT CAVOK 13/07 Q1021","updated":"2025-10-27T01:27:55Z"}
