{"icao":"LPMT","metar":"LPMT 302300Z 29009G20KT 250V330 9999 SCT025 14/09 Q1016","updated":"2026-01-30T23:23:59Z"}
