{"icao":"LPLA","metar":"LPLA 291700Z 09017KT 8000 -DZ SCT005 BKN007 BKN013 15/13 Q1012","updated":"2025-12-29T17:17:17Z"}
