{"icao":"LPMR","metar":"LPMR 302100Z 36002KT CAVOK 17/12 Q1020","updated":"2025-09-30T21:15:07Z"}
