{"icao":"LPPS","metar":"LPPS 171000Z 18009KT 8000 -RA SCT002 BKN005 22/21 Q1012","updated":"2025-10-17T10:19:18Z"}
