{"icao":"KORD","metar":"KORD 240351Z 20003KT 10SM CLR 04/M03 A3014 RMK AO2 SLP211 T00441033","updated":"2025-11-24T04:33:08Z"}
