{"icao":"LPFL","metar":"LPFL 011700Z 17009KT 9999 FEW045 18/08 Q1021","updated":"2025-11-01T17:13:53Z"}
