{"icao":"LPFR","metar":"LPFR 231800Z 29005KT CAVOK 15/08 Q1025","updated":"2025-11-23T18:24:55Z"}
