{"icao":"LPFR","metar":"LPFR 260830Z 10007KT 070V130 9999 FEW015 20/15 Q1016","updated":"2026-04-26T08:59:08Z"}
