{"icao":"LPMT","metar":"LPMT 161500Z 32004KT 270V350 CAVOK 24/12 Q1019","updated":"2026-04-16T15:24:25Z"}
