{"icao":"LPFR","metar":"LPFR 151400Z 22006KT 190V250 CAVOK 25/18 Q1019","updated":"2025-09-15T14:18:14Z"}
