{"icao":"KLAX","metar":"KLAX 201453Z 04005KT 9SM FEW009 16/10 A3006 RMK AO2 SLP176 T01610100 53013 $","updated":"2025-10-20T15:18:21Z"}
