{"icao":"LPPS","metar":"LPPS 050130Z 35012KT 9999 SCT014 BKN030 15/10 Q1023","updated":"2026-03-05T02:00:14Z"}
