{"icao":"LPMR","metar":"LPMR 241500Z 23008KT 200V260 9999 SCT007 BKN016 20/19 Q1016","updated":"2025-10-24T15:19:06Z"}
