{"icao":"LPPT","metar":"LPPT 261430Z 08006KT CAVOK 20/13 Q1023","updated":"2026-02-26T14:44:47Z"}
