{"icao":"KJFK","metar":"KJFK 281451Z 31011KT 10SM FEW250 M08/M17 A3018 RMK AO2 SLP217 T10781167 50001 $","updated":"2026-01-28T15:31:00Z"}
