{"icao":"LPPS","metar":"LPPS 050530Z 20004KT 6000 RA FEW003 BKN006 FEW012CB 17/16 Q1016","updated":"2026-05-05T05:41:50Z"}
