{"icao":"LPAZ","metar":"LPAZ 102300Z 30004KT 260V330 9000 -SHRA FEW008 SCT012 BKN040 21/20 Q1022","updated":"2025-10-10T23:15:26Z"}
