{"icao":"LPPR","metar":"LPPR 231100Z 29006KT 240V320 CAVOK 17/11 Q1014","updated":"2026-04-23T11:06:19Z"}
