{"icao":"KJFK","metar":"KJFK 210951Z 07003KT 10SM OVC034 06/02 A3010 RMK AO2 SLP192 T00560022 $","updated":"2025-11-21T10:20:12Z"}
