{"icao":"LPFR","metar":"LPFR 191800Z 34009KT 9999 FEW020 13/04 Q1019","updated":"2026-01-19T18:30:46Z"}
