{"icao":"LPPS","metar":"LPPS 051830Z 27013KT 240V300 9999 FEW015 SCT030 17/13 Q1011","updated":"2026-02-05T18:45:32Z"}
