{"icao":"KLAX","metar":"KLAX 102253Z 25011KT 10SM FEW016 FEW045 SCT110 BKN240 19/13 A2994 RMK AO2 SLP139 T01890128 $","updated":"2026-04-10T23:33:42Z"}
