{"icao":"LPMR","metar":"LPMR 100400Z VRB01KT CAVOK 12/12 Q1020","updated":"2025-10-10T04:20:57Z"}
