{"icao":"LPHR","metar":"LPHR 292100Z 26006KT 5000 BR FEW001 BKN003 18/17 Q1021","updated":"2026-05-29T21:05:53Z"}
