{"icao":"KORD","metar":"KORD 011651Z 30005KT 10SM OVC055 M10/M16 A3004 RMK AO2 SLP185 T11001161 $","updated":"2026-01-01T17:18:45Z"}
