{"icao":"LPPR","metar":"LPPR 020430Z 20010KT 9000 -RA SCT006 BKN012 11/11 Q0991","updated":"2026-02-02T04:55:48Z"}
