{"icao":"LPSJ","metar":"LPSJ 180830Z 29006KT 250V320 9999 FEW008 BKN014 19/19 Q1014","updated":"2026-06-18T08:45:08Z"}
