{"icao":"LPMA","metar":"LPMA 200100Z 04004KT 330V110 9999 BKN015 18/14 Q1018","updated":"2025-11-20T01:22:26Z"}
