{"icao":"LPAZ","metar":"LPAZ 241130Z 28018KT 9000 FEW020 SCT024 16/12 Q1016","updated":"2026-02-24T11:39:21Z"}
