{"icao":"KLAX","metar":"KLAX 021453Z 08004KT 10SM FEW009 FEW028 BKN050 BKN270 14/11 A3006 RMK AO2 SLP177 T01390111 53000 $","updated":"2026-01-02T15:20:58Z"}
