{"icao":"LPPT","metar":"LPPT 211300Z 02019KT CAVOK 15/02 Q1027","updated":"2025-11-21T13:27:09Z"}
