{"icao":"LPST","metar":"LPST 141100Z VRB02KT CAVOK 27/10 Q1017","updated":"2025-10-14T11:14:55Z"}
