{"icao":"LPST","metar":"LPST 241500Z 26014KT 3000 -RADZ BKN009 BKN028 16/15 Q1017","updated":"2025-11-24T15:21:19Z"}
