{"icao":"LPAZ","metar":"LPAZ 031600Z 18008KT 140V210 9999 FEW016 24/21 Q1023","updated":"2025-10-03T16:20:40Z"}
