{"icao":"LPOV","metar":"LPOV 240700Z 00000KT CAVOK 07/06 Q1019","updated":"2026-03-24T07:15:37Z"}
