{"icao":"LPMR","metar":"LPMR 031400Z 29007KT 260V320 9999 VCSH FEW020 14/07 Q1023","updated":"2025-12-03T14:20:08Z"}
