{"icao":"LPAZ","metar":"LPAZ 061400Z 24019KT 7000 FEW006 BKN011 BKN032 22/20 Q1015","updated":"2025-11-06T14:19:00Z"}
