{"icao":"KLAX","metar":"KLAX 061053Z 00000KT 10SM SCT011 SCT150 BKN220 16/14 A3011 RMK AO2 SLP192 T01560144","updated":"2026-02-06T11:32:45Z"}
