{"icao":"LPPT","metar":"LPPT 232030Z 31014KT CAVOK 19/14 Q1020","updated":"2026-05-23T20:50:02Z"}
