{"icao":"KLAX","metar":"KLAX 140153Z 26016KT 10SM FEW085 17/09 A3001 RMK AO2 SLP163 T01670089 $","updated":"2026-04-14T02:28:51Z"}
