{"icao":"LPPT","metar":"LPPT 151800Z 32010KT 280V350 9999 FEW022 17/12 Q1015","updated":"2026-05-15T18:21:34Z"}
