{"icao":"LPBJ","metar":"LPBJ 271200Z 05011KT 020V090 CAVOK 18/04 Q1017","updated":"2026-03-27T13:04:00Z"}
