{"icao":"LPPT","metar":"LPPT 071500Z 20006KT 9999 SCT030 17/14 Q1022","updated":"2025-12-07T15:16:10Z"}
