{"icao":"LPMR","metar":"LPMR 011400Z 32013KT CAVOK 21/07 Q1023","updated":"2026-04-01T15:02:32Z"}
