{"icao":"LPPT","metar":"LPPT 311500Z 20018KT 1600 RADZ BR FEW004 BKN008 FEW015TCU 19/18 Q1012 WS R20","updated":"2025-10-31T15:17:43Z"}
