{"icao":"KORD","metar":"KORD 022051Z 04010KT 10SM FEW300 23/M01 A3034 RMK AO2 SLP274 T02281006 50001 $","updated":"2026-06-02T21:46:57Z"}
