{"icao":"LPBJ","metar":"LPBJ 152100Z 28006KT CAVOK 21/11 Q1016","updated":"2025-10-15T21:15:44Z"}
