{"icao":"LPHR","metar":"LPHR 031400Z 14007KT 090V260 9999 -DZ SCT012 SCT022 16/13 Q1014","updated":"2026-01-03T14:17:27Z"}
