{"icao":"KJFK","metar":"KJFK 040851Z 33009KT 10SM BKN080 OVC120 M02/M11 A3001 RMK AO2 SLP161 T10171106 51005 $","updated":"2026-01-04T09:18:47Z"}
