{"icao":"LPMT","metar":"LPMT 040600Z 11008KT CAVOK 14/12 Q1017 RMK FEW120 SCT200 BLU","updated":"2025-11-04T06:28:13Z"}
