{"icao":"LPAZ","metar":"LPAZ 220300Z 07006KT 9999 FEW026 18/14 Q1025","updated":"2025-09-22T03:05:58Z"}
