{"icao":"LPMT","metar":"LPMT 210700Z 21009KT 5000 -RA BR FEW007 SCT009 BKN020 14/14 Q1009","updated":"2026-01-21T07:27:20Z"}
