{"icao":"KJFK","metar":"KJFK 271451Z 13006KT 10SM FEW036 BKN085 BKN120 25/18 A3004 RMK SLP172 T02500178 53001 $ ","updated":"2026-06-27T15:13:46Z"}
