{"icao":"LPPD","metar":"LPPD 030800Z 33011KT 8000 -SHRA FEW015 SCT020 15/12 Q1008","updated":"2026-01-03T08:25:42Z"}
