{"icao":"LPPT","metar":"LPPT 100200Z 23014KT 8000 BKN003 15/15 Q1016","updated":"2026-02-10T02:23:14Z"}
