{"icao":"LPST","metar":"LPST 271000Z 10008KT CAVOK 19/12 Q1021","updated":"2025-10-27T10:21:04Z"}
