{"icao":"LPFL","metar":"LPFL 031430Z 32004KT 230V360 9999 FEW023 BKN034 16/08 Q1025","updated":"2026-04-03T14:40:40Z"}
