{"icao":"LPOV","metar":"LPOV 082200Z 16013KT 5000 -RADZ BR SCT006 BKN013 11/11 Q1008","updated":"2026-02-08T22:25:38Z"}
