{"icao":"LPBJ","metar":"LPBJ 012300Z 21006KT CAVOK 06/04 Q1019","updated":"2025-12-01T23:17:56Z"}
