{"icao":"LPBJ","metar":"LPBJ 020900Z 14016KT 9999 FEW015 SCT040 13/11 Q1006","updated":"2026-01-02T09:23:31Z"}
