{"icao":"KJFK","metar":"KJFK 202151Z 27016G25KT 10SM FEW050 M07/M18 A3038 RMK AO2 PK WND 27028/2135 SLP287 T10671178 $","updated":"2026-01-20T22:21:44Z"}
