{"icao":"LPPR","metar":"LPPR 131730Z 24005KT 190V300 3800 -RADZ BR BKN004 BKN012 12/11 Q1021","updated":"2026-04-13T17:58:27Z"}
