{"icao":"LPMT","metar":"LPMT 181500Z 26009KT CAVOK 24/15 Q1015","updated":"2025-10-18T15:15:27Z"}
