{"icao":"LPMA","metar":"LPMA 180900Z 32005KT 270V360 9999 SCT016 BKN033 18/09 Q1024","updated":"2025-12-18T09:26:04Z"}
