{"icao":"LPMT","metar":"LPMT 211400Z 13003KT 100V180 9999 SCT028 BKN040 19/13 Q1008","updated":"2026-03-21T14:25:32Z"}
