{"icao":"KORD","metar":"KORD 231151Z 32017G22KT 10SM SCT022 M22/M30 A3053 RMK AO2 SNB1054E19 SLP355 4/001 P0000 60000 T12221300 11150 21222 53041 $","updated":"2026-01-23T12:44:21Z"}
