{"icao":"LPPD","metar":"LPPD 031430Z 06015KT 020V080 9999 FEW025 17/09 Q1022","updated":"2026-05-03T14:47:19Z"}
