{"icao":"LPMT","metar":"LPMT 271000Z 04003KT 310V120 CAVOK 22/15 Q1014","updated":"2026-04-27T11:02:30Z"}
