{"icao":"LPPD","metar":"LPPD 191400Z 01015G30KT 340V050 9999 FEW020 BKN035 17/11 Q1023","updated":"2025-11-19T14:18:39Z"}
