{"icao":"LPMT","metar":"LPMT 110900Z 11005KT 3000 BR SCT006 BKN015 11/11 Q1027","updated":"2026-01-11T10:19:51Z"}
