{"icao":"LPLA","metar":"LPLA 022200Z 10003KT 060V140 9999 FEW018 OVC023 14/11 Q1030","updated":"2026-04-02T22:30:06Z"}
