{"icao":"KLAX","metar":"KLAX 160153Z 25006KT 10SM FEW050 BKN250 15/08 A2994 RMK AO2 SLP138 T01500083 $","updated":"2026-02-16T02:03:51Z"}
