{"icao":"LPCS","metar":"LPCS 011900Z 04002KT 9999 FEW024 11/09 Q1019","updated":"2025-12-02T03:17:24Z"}
