{"icao":"KORD","metar":"KORD 201051Z 21004KT 3SM BR BKN007 OVC011 06/05 A3011 RMK AO2 SLP200 T00560050","updated":"2025-11-20T11:17:13Z"}
