{"icao":"KLAX","metar":"KLAX 020953Z 00000KT 9SM FEW008 OVC011 17/14 A2999 RMK AO2 SLP152 T01670139 $","updated":"2026-06-02T10:20:57Z"}
