{"icao":"LPFR","metar":"LPFR 121730Z 23005KT 1500 BR BKN002 BKN004 15/15 Q1018","updated":"2026-02-12T17:57:09Z"}
