{"icao":"KJFK","metar":"KJFK 051151Z 25006KT 10SM FEW045 BKN160 BKN250 M03/M07 A3025 RMK AO2 SLP242 T10281072 11006 21044 53014 $","updated":"2026-01-05T12:44:03Z"}
