{"icao":"KORD","metar":"KORD 281751Z 03012KT 10SM BKN070 BKN100 OVC200 02/M09 A3017 RMK AO2 SLP222 T00171094 10022 20006 50016 $","updated":"2026-02-28T18:31:46Z"}
