{"icao":"LPBJ","metar":"LPBJ 151900Z 31011KT CAVOK 19/12 Q1021","updated":"2026-04-15T19:15:41Z"}
