{"icao":"LPAR","metar":"LPAR 061700Z 28007KT 9999 VCSH FEW022 FEW025TCU BKN035 13/07 Q1006","updated":"2026-02-07T04:07:27Z"}
