{"icao":"LPMT","metar":"LPMT 272100Z 34006KT 310V010 CAVOK 13/07 Q1024","updated":"2025-11-27T21:16:38Z"}
