{"icao":"KJFK","metar":"KJFK 132051Z 23012KT 10SM FEW250 01/M07 A3013 RMK AO2 SLP202 T00111067 56005 $","updated":"2026-02-13T21:33:49Z"}
