{"icao":"KLAX","metar":"KLAX 071753Z 26007KT 10SM FEW060 SCT180 17/11 A2998 RMK AO2 SLP149 T01670111 10167 20111 52011 $","updated":"2026-01-07T18:31:46Z"}
