{"icao":"LPFR","metar":"LPFR 011030Z 22005KT 180V250 CAVOK 19/11 Q1019","updated":"2026-05-01T10:39:37Z"}
