{"icao":"KJFK","metar":"KJFK 171751Z 18013KT 10SM FEW040 SCT100 SCT250 24/14 A2983 RMK AO2 SLP102 T02390139 10244 20200 55003 $","updated":"2026-06-17T18:14:21Z"}
