{"icao":"KLAX","metar":"KLAX 062253Z 26008KT 10SM CLR 19/09 A3001 RMK AO2 SLP163 T01890094 $","updated":"2025-12-06T23:16:52Z"}
