{"icao":"LPBJ","metar":"LPBJ 191600Z 30010KT 260V350 9999 FEW040 25/14 Q1021","updated":"2026-05-19T16:17:40Z"}
