{"icao":"LPPS","metar":"LPPS 231430Z 12007KT 070V160 9999 FEW014 18/13 Q1022","updated":"2026-02-23T14:43:51Z"}
