{"icao":"LPPS","metar":"LPPS 250430Z 04012KT 360V080 9999 SCT013 SCT030 16/12 Q1018","updated":"2026-03-25T04:52:27Z"}
