{"icao":"KORD","metar":"KORD 281551Z 22005KT 10SM FEW250 02/M11 A3062 RMK AO2 SLP375 T00171111","updated":"2026-03-28T16:33:02Z"}
