{"icao":"KJFK","metar":"KJFK 052251Z 03005KT 10SM FEW250 M02/M12 A2998 RMK AO2 SLP153 T10171117 PNO $","updated":"2026-02-05T23:22:33Z"}
