{"icao":"KORD","metar":"KORD 081951Z 20016G32KT 10SM FEW200 SCT250 20/03 A3005 RMK AO2 PK WND 22034/1922 SLP178 T02000028","updated":"2026-04-08T20:40:45Z"}
