{"icao":"LPHR","metar":"LPHR 191230Z 25004KT 210V350 9999 FEW028 15/09 Q1033","updated":"2026-01-19T12:47:15Z"}
