{"icao":"LPPD","metar":"LPPD 192030Z 36034G52KT 9999 BKN015 FEW025CB 15/11 Q0999","updated":"2026-03-19T20:36:05Z"}
