{"icao":"LPPR","metar":"LPPR 301430Z 28008KT 220V320 8000 FEW018 FEW025CB BKN030 14/10 Q1005","updated":"2026-01-30T14:34:40Z"}
