{"icao":"LPBJ","metar":"LPBJ 161400Z 18006KT 090V250 9999 FEW030 28/15 Q1014","updated":"2025-10-16T14:18:28Z"}
