{"icao":"KORD","metar":"KORD 151951Z 08010KT 10SM CLR 28/14 A3017 RMK AO2 SLP211 T02830139 $","updated":"2025-09-15T20:18:42Z"}
