{"icao":"LPLA","metar":"LPLA 061914Z 25023G33KT 8000 -RA FEW016 SCT025 16/13 Q1003","updated":"2026-02-06T19:36:52Z"}
