{"icao":"LPMT","metar":"LPMT 211900Z 28015KT 7000 -RA SCT020 OVC030 14/10 Q1006","updated":"2026-01-21T19:25:25Z"}
