{"icao":"LPOV","metar":"LPOV 111500Z 23016KT 200V260 1200 -RADZ BR OVC002 15/15 Q1010","updated":"2026-02-11T15:59:52Z"}
