{"icao":"LPPR","metar":"LPPR 060600Z 16003KT 110V190 CAVOK 03/01 Q1022","updated":"2026-01-06T06:33:09Z"}
