{"icao":"LPMR","metar":"LPMR 092300Z 17002KT CAVOK 14/14 Q1021","updated":"2025-10-09T23:15:28Z"}
