{"icao":"LPBJ","metar":"LPBJ 192200Z 33006KT CAVOK 09/05 Q1029","updated":"2026-02-19T22:30:07Z"}
