{"icao":"LPPR","metar":"LPPR 040430Z 13004KT 100V170 CAVOK 14/05 Q1021","updated":"2026-04-04T04:48:29Z"}
