{"icao":"LPCS","metar":"LPCS 231800Z 22006KT 9999 FEW011 SCT038 20/19 Q1019","updated":"2025-10-23T18:26:24Z"}
