{"icao":"KJFK","metar":"KJFK 301851Z 25010KT 8SM -RA SCT012 OVC017 05/03 A3016 RMK AO2 SLP212 P0003 T00500033 $","updated":"2025-11-30T19:14:38Z"}
