{"icao":"LPPT","metar":"LPPT 310330Z 33008KT CAVOK 16/13 Q1020","updated":"2026-05-31T03:40:56Z"}
