{"icao":"KLAX","metar":"KLAX 071953Z 03015G21KT 10SM FEW120 24/M06 A3004 RMK AO2 PK WND 02029/1918 SLP170 T02391061 $","updated":"2026-03-07T20:24:17Z"}
