{"icao":"KORD","metar":"KORD 280251Z 25004KT 10SM CLR 23/11 A2995 RMK AO2 SLP139 T02280111 52013 $","updated":"2025-09-28T03:06:59Z"}
