{"icao":"KJFK","metar":"KJFK 261851Z VRB03KT 10SM FEW100 SCT140 OVC230 M03/M17 A3015 RMK AO2 SLP209 T10281172 $","updated":"2025-12-26T19:15:08Z"}
