{"icao":"LPFR","metar":"LPFR 231700Z 26007KT CAVOK 16/08 Q1025","updated":"2025-11-23T17:14:43Z"}
