{"icao":"LPOV","metar":"LPOV 031000Z 31004KT 270V350 6000 BKN008 BKN018 16/14 Q1024","updated":"2025-10-03T10:17:48Z"}
