{"icao":"LPBJ","metar":"LPBJ 140800Z 18014KT 9999 SCT030 13/11 Q1006","updated":"2025-11-14T08:24:35Z"}
