{"icao":"LPFR","metar":"LPFR 190430Z 31005KT CAVOK 11/09 Q1025","updated":"2026-02-19T04:50:50Z"}
