{"icao":"LPHR","metar":"LPHR 191830Z 21012KT 9000 SCT004 BKN007 17/16 Q1019","updated":"2026-02-19T18:49:32Z"}
