{"icao":"LPHR","metar":"LPHR 022100Z 21007KT 9999 FEW003 BKN020 23/22 Q1020","updated":"2025-10-02T21:14:53Z"}
