{"icao":"KLAX","metar":"KLAX 240653Z 23005KT 8SM FEW003 BKN005 BKN055 20/19 A2992 RMK AO2 SLP130 T02000189 $","updated":"2025-09-24T07:17:15Z"}
