{"icao":"KORD","metar":"KORD 190651Z 30008KT 10SM -RA FEW012 BKN055 OVC075 14/13 A2953 RMK AO2 SLP996 P0003 T01440133 $","updated":"2025-10-19T07:15:39Z"}
