{"icao":"LPOV","metar":"LPOV 090500Z 15002KT 110V190 7000 -RA FEW018 BKN035 09/09 Q1020","updated":"2026-03-09T05:56:22Z"}
