{"icao":"KLAX","metar":"KLAX 070253Z 25009KT 10SM BKN012 18/16 A2984 RMK AO2 SLP104 T01830156 53015","updated":"2025-10-07T02:56:14Z"}
