{"icao":"LPBJ","metar":"LPBJ 062200Z 30004KT CAVOK 20/17 Q1021","updated":"2025-10-06T22:15:44Z"}
