{"icao":"LPPD","metar":"LPPD 031900Z 25010KT 9999 FEW006 BKN012 19/17 Q1011","updated":"2025-11-03T19:14:56Z"}
