{"icao":"LPPS","metar":"LPPS 151000Z 05010KT 010V080 9999 FEW015 SCT030 24/17 Q1023","updated":"2025-09-15T10:18:32Z"}
