{"icao":"LPFL","metar":"LPFL 281800Z 14004KT 100V160 9999 FEW012 SCT030 15/12 Q1034","updated":"2026-03-28T23:29:45Z"}
