{"icao":"LPCS","metar":"LPCS 041630Z 35013KT 9999 FEW012 17/12 Q1013","updated":"2026-03-04T16:41:59Z"}
