{"icao":"KORD","metar":"KORD 012151Z 23005KT 10SM FEW040 BKN070 09/00 A3006 RMK AO2 SLP183 T00940000 $","updated":"2025-11-01T22:15:44Z"}
