{"icao":"KORD","metar":"KORD 030251Z 23012KT 6SM BR OVC008 M06/M08 A3001 RMK AO2 SLP173 T10611083 53006","updated":"2025-12-03T03:16:26Z"}
