{"icao":"KORD","metar":"KORD 201751Z 20008KT 5SM BR OVC013 08/06 A3006 RMK AO2 SLP184 60000 T00780056 10083 20061 56007","updated":"2025-11-20T18:28:13Z"}
