{"icao":"LPPD","metar":"LPPD 040500Z 36008KT 320V030 9999 FEW007 BKN014 14/12 Q1017","updated":"2026-01-04T05:24:27Z"}
