{"icao":"KORD","metar":"KORD 182251Z 29017G28KT 10SM FEW050 FEW250 09/M03 A2996 RMK AO2 PK WND 26034/2227 SLP147 T00891033 $","updated":"2026-04-18T23:33:48Z"}
