{"icao":"LPCS","metar":"LPCS 081300Z 34008KT 300V360 9999 FEW030 19/11 Q1022","updated":"2025-11-08T13:22:13Z"}
