{"icao":"KORD","metar":"KORD 282351Z 26004KT 10SM BKN140 OVC250 17/07 A2988 RMK AO2 SLP119 T01670067 10178 20144 56010 $","updated":"2026-04-28T23:58:27Z"}
