{"icao":"LPAZ","metar":"LPAZ 280900Z 25025KT 6000 FEW008 SCT012 BKN040 17/15 Q1010","updated":"2026-01-28T09:32:46Z"}
