{"icao":"LPPD","metar":"LPPD 272300Z VRB02KT 9999 FEW022 12/08 Q1035","updated":"2026-02-27T23:23:00Z"}
