{"icao":"LPPR","metar":"LPPR 161700Z 30003KT 260V330 CAVOK 18/15 Q1014","updated":"2025-10-16T17:15:44Z"}
