{"icao":"LPMA","metar":"LPMA 160900Z 03013KT 9999 SCT016 17/10 Q1021","updated":"2026-04-16T09:17:59Z"}
