{"icao":"LPBJ","metar":"LPBJ 141800Z 34007KT CAVOK 32/14 Q1019","updated":"2025-09-14T18:21:03Z"}
