{"icao":"LPMR","metar":"LPMR 201100Z 31008KT 260V340 9999 FEW010 23/17 Q1016","updated":"2026-06-20T13:59:31Z"}
