{"icao":"LPOV","metar":"LPOV 140700Z 14002KT CAVOK 05/05 Q1021","updated":"2025-12-14T07:17:40Z"}
