{"icao":"KJFK","metar":"KJFK 271251Z 02014KT 10SM OVC016 M03/M05 A3002 RMK AO2 SNE26 SLP164 P0000 T10331050 $","updated":"2025-12-27T13:27:11Z"}
