{"icao":"LPPR","metar":"LPPR 191600Z 23005KT 200V270 CAVOK 24/14 Q1018","updated":"2025-09-19T16:20:25Z"}
