{"icao":"KORD","metar":"KORD 091851Z 13008KT 10SM FEW045 17/04 A3042 RMK AO2 SLP302 T01720044","updated":"2025-10-09T19:14:40Z"}
