{"icao":"KORD","metar":"KORD 191551Z 28012G21KT 10SM SCT026 SCT200 M11/M17 A2990 RMK AO2 PK WND 29026/1510 PRESRR SLP136 T11111172","updated":"2025-12-19T16:25:37Z"}
