{"icao":"LPPR","metar":"LPPR 291230Z 22009G19KT 200V260 3000 SHRA BR FEW008 BKN010 FEW020CB 14/13 Q1005","updated":"2026-01-29T12:55:08Z"}
