{"icao":"LPFR","metar":"LPFR 082300Z 33007KT CAVOK 14/09 Q1022","updated":"2025-11-08T23:15:31Z"}
