{"icao":"LPBJ","metar":"LPBJ 070600Z 18011KT 8000 -RA FEW006 FEW018CB BKN025 09/07 Q1011","updated":"2026-02-07T06:40:17Z"}
