{"icao":"LPCS","metar":"LPCS 132030Z 32004KT CAVOK 22/15 Q1017","updated":"2026-06-14T00:05:07Z"}
