{"icao":"KLAX","metar":"KLAX 052004Z VRB03KT 8SM FEW015 SCT025 BKN060 BKN150 17/12 A3007 RMK AO2 SCT V BKN T01670117 $","updated":"2026-01-05T20:24:29Z"}
