{"icao":"LPAR","metar":"LPAR 011500Z 10005KT 040V150 9999 FEW027 30/11 Q1019","updated":"2025-10-01T15:17:44Z"}
