{"icao":"LPBJ","metar":"LPBJ 232100Z 03004KT CAVOK 19/M01 Q1017","updated":"2025-09-23T21:15:00Z"}
