{"icao":"LPMA","metar":"LPMA 180530Z 01007KT 340V050 9999 SCT013 FEW018CB 14/12 Q0999","updated":"2026-03-18T06:01:58Z"}
