{"icao":"LPLA","metar":"LPLA 132100Z 21022G40KT 180V240 9999 SCT013 SCT018 17/14 Q1017","updated":"2026-04-13T21:48:04Z"}
