{"icao":"LPHR","metar":"LPHR 091200Z 28013KT 9999 FEW020 20/14 Q1025","updated":"2025-11-09T12:33:39Z"}
