{"icao":"LPMR","metar":"LPMR 252300Z 16003KT CAVOK 13/09 Q1019","updated":"2025-09-25T23:15:41Z"}
