{"icao":"LPHR","metar":"LPHR 101030Z 24010KT 8000 SCT007 17/16 Q1010","updated":"2026-02-10T11:04:13Z"}
