{"icao":"LPST","metar":"LPST 091400Z 26015KT 1500 -RADZ BR OVC002 15/15 Q1013","updated":"2026-02-09T14:50:54Z"}
