{"icao":"LPPS","metar":"LPPS 111600Z 21018KT 9999 FEW015 SCT030 22/15 Q1009","updated":"2025-11-11T16:24:11Z"}
