{"icao":"LPMT","metar":"LPMT 191500Z 35008KT 310V020 9999 SCT040 17/08 Q1016","updated":"2025-11-19T16:25:28Z"}
