{"icao":"LPPT","metar":"LPPT 300700Z 04010KT CAVOK 11/M00 Q1030","updated":"2026-03-30T07:25:27Z"}
