{"icao":"LPAZ","metar":"LPAZ 292200Z 33009KT 9999 SCT012 BKN032 17/15 Q1029","updated":"2025-11-29T22:17:09Z"}
