{"icao":"LPFR","metar":"LPFR 131300Z 21024G36KT 2000 R28/1000U TSRA SCT006 SCT018CB BKN025 16/16 Q1004 RERA","updated":"2025-11-13T13:31:37Z"}
