{"icao":"KJFK","metar":"KJFK 290851Z 16003KT 10SM BKN050 OVC100 10/06 A3004 RMK SLP171 T010000056 58005 ","updated":"2026-04-29T09:07:54Z"}
