{"icao":"LPAZ","metar":"LPAZ 191600Z 36007KT 330V060 9999 FEW030 16/08 Q1030","updated":"2026-01-19T16:27:53Z"}
