{"icao":"LPPR","metar":"LPPR 111000Z 18015KT 9999 -DZRA BKN005 BKN011 12/12 Q1025","updated":"2026-01-11T10:19:48Z"}
