{"icao":"LPMA","metar":"LPMA 140100Z VRB03KT 9999 SCT015 17/11 Q1010","updated":"2025-11-14T01:24:32Z"}
