{"icao":"KORD","metar":"KORD 281651Z 10012KT 10SM FEW024 FEW210 BKN250 13/04 A3009 RMK AO2 SLP192 T01280044","updated":"2025-10-28T17:17:46Z"}
