{"icao":"LPPR","metar":"LPPR 230600Z 03005KT 360V090 CAVOK 10/06 Q1020","updated":"2025-09-23T06:26:52Z"}
