{"icao":"KJFK","metar":"KJFK 160658Z 11017G26KT 4SM RA BR SCT006 BKN021 OVC034 08/07 A2997 RMK AO2 PRESFR P0001 T00780072 $","updated":"2026-03-16T07:15:23Z"}
