{"icao":"LPFR","metar":"LPFR 110900Z 06006KT 9999 FEW012 16/15 Q1016","updated":"2025-11-11T09:20:21Z"}
