{"icao":"KLAX","metar":"KLAX 250953Z 00000KT 10SM FEW010 SCT250 13/12 A3002 RMK AO2 SLP164 T01330122","updated":"2026-02-25T10:50:24Z"}
