{"icao":"LPBJ","metar":"LPBJ 181400Z 13006KT 090V170 CAVOK 33/15 Q1020","updated":"2025-09-18T14:17:34Z"}
