{"icao":"KJFK","metar":"KJFK 201651Z VRB03KT 10SM FEW050 FEW250 22/09 A3027 RMK AO2 SLP249 T02220094 $","updated":"2025-09-20T17:12:36Z"}
