{"icao":"KLAX","metar":"KLAX 101253Z 00000KT 10SM FEW090 FEW160 SCT220 18/14 A2987 RMK AO2 SLP113 T01780139 $","updated":"2025-10-10T13:26:40Z"}
