{"icao":"KLAX","metar":"KLAX 090653Z 11011KT 10SM CLR 16/12 A2985 RMK AO2 SLP103 T01610117 $","updated":"2026-03-09T07:05:17Z"}
