{"icao":"LPMT","metar":"LPMT 021300Z 24012KT 4000 SHRA BR FEW020 SCT025CB BKN035 11/09 Q1000","updated":"2026-02-02T14:03:34Z"}
