{"icao":"LPPR","metar":"LPPR 020100Z 00000KT CAVOK 15/13 Q1021","updated":"2025-10-02T01:16:42Z"}
