{"icao":"LPHR","metar":"LPHR 130000Z 32012G23KT 9999 FEW020 FEW023CB 15/09 Q1006","updated":"2025-11-13T03:13:53Z"}
