{"icao":"LPMT","metar":"LPMT 191900Z 25008KT CAVOK 18/12 Q1014","updated":"2026-04-19T19:40:07Z"}
