{"icao":"KLAX","metar":"KLAX 030153Z 24009KT 10SM FEW015 FEW250 15/13 A2995 RMK AO2 SLP141 T01500128","updated":"2026-03-03T02:03:17Z"}
