{"icao":"LPFR","metar":"LPFR 200800Z 01002KT CAVOK 08/06 Q1020","updated":"2025-12-20T08:24:08Z"}
