{"icao":"KJFK","metar":"KJFK 151351Z 08010KT 10SM FEW110 SCT140 BKN250 04/M06 A3048 RMK AO2 SLP321 T00441056","updated":"2026-03-15T14:28:47Z"}
