{"icao":"LPPD","metar":"LPPD 070230Z 24014KT 9999 -RA FEW009 SCT014 BKN040 14/12 Q1014","updated":"2026-05-07T02:44:55Z"}
