{"icao":"LPHR","metar":"LPHR 151100Z 31007KT 250V350 9999 FEW025 16/09 Q1028","updated":"2025-12-15T11:17:54Z"}
