{"icao":"LPMR","metar":"LPMR 140900Z 17002KT 1700 -SHRA BCFG SCT005 SCT016 10/09 Q1019","updated":"2026-01-14T09:27:38Z"}
