{"icao":"LPPD","metar":"LPPD 051700Z 19007KT 160V220 9999 FEW020 23/18 Q1022","updated":"2025-10-05T17:13:15Z"}
