{"icao":"LPPS","metar":"LPPS 011030Z 29007KT 260V320 9999 FEW014 19/10 Q1019","updated":"2026-05-01T10:39:58Z"}
