{"icao":"LPMT","metar":"LPMT 161100Z 23005KT 180V260 9999 FEW018 FEW024CB 18/15 Q1013","updated":"2025-11-16T11:13:22Z"}
