{"icao":"LPFR","metar":"LPFR 241300Z 25017KT 9999 FEW015 SCT040 18/14 Q1021","updated":"2025-11-24T13:32:22Z"}
