{"icao":"KORD","metar":"KORD 212251Z 23009KT 10SM FEW043 SCT130 SCT250 M03/M09 A2989 RMK AO2 SLP130 T10281094 $","updated":"2026-01-21T23:24:34Z"}
