{"icao":"LPMA","metar":"LPMA 180300Z 26005KT 9999 SCT015 21/18 Q1013","updated":"2025-10-18T03:27:19Z"}
