{"icao":"LPOV","metar":"LPOV 301300Z 18012KT 150V210 9999 -RA FEW015 BKN030 19/14 Q1012","updated":"2025-10-30T13:29:32Z"}
