{"icao":"LPLA","metar":"LPLA 210100Z 17013KT 130V200 9999 BKN018 17/14 Q1020","updated":"2026-02-21T01:54:12Z"}
