{"icao":"KLAX","metar":"KLAX 251253Z 28003KT 10SM BKN016 BKN035 BKN200 15/11 A2988 RMK AO2 SLP116 T01500111 $","updated":"2026-04-25T13:01:32Z"}
