{"icao":"KORD","metar":"KORD 141851Z 06010KT 10SM SCT030 BKN220 20/12 A3030 RMK AO2 SLP259 T02000117 $","updated":"2025-10-14T19:14:06Z"}
