{"icao":"LPBJ","metar":"LPBJ 151400Z 28012KT 9999 SCT018 BKN045 17/14 Q1007","updated":"2025-11-15T14:15:29Z"}
