{"icao":"LPBJ","metar":"LPBJ 150500Z 03003KT CAVOK 16/10 Q1016","updated":"2025-10-15T05:17:18Z"}
