{"icao":"LPBJ","metar":"LPBJ 240300Z 30003KT 0500 FG OVC002 18/18 Q1019","updated":"2025-10-24T03:35:58Z"}
