{"icao":"LPFR","metar":"LPFR 131230Z 07015G25KT CAVOK 19/10 Q1017","updated":"2025-12-13T12:36:21Z"}
