{"icao":"LPCS","metar":"LPCS 291000Z 01003KT 340V040 9999 FEW008 19/18 Q1007","updated":"2025-10-29T10:20:22Z"}
