{"icao":"LPBJ","metar":"LPBJ 261200Z 07007KT 010V110 CAVOK 14/05 Q1025","updated":"2025-11-26T12:40:32Z"}
