{"icao":"KORD","metar":"KORD 131651Z 20005KT 10SM BKN090 OVC120 19/09 A3010 RMK AO2 SLP190 T01890094 $","updated":"2025-10-13T17:15:34Z"}
