{"icao":"KJFK","metar":"KJFK 290251Z 19010KT 2 1/2SM BR OVC009 03/03 A2989 RMK AO2 DZB23E40 SLP120 P0000 60000 T00280028 58050 $","updated":"2025-12-29T03:47:55Z"}
