{"icao":"LPMR","metar":"LPMR 080500Z 33003KT 8000 FEW006 SCT012 13/13 Q1021","updated":"2026-06-08T05:48:29Z"}
