{"icao":"LPPD","metar":"LPPD 132100Z 30003KT 240V360 9999 FEW020 SCT035 15/10 Q1026","updated":"2026-01-13T21:20:23Z"}
