{"icao":"KJFK","metar":"KJFK 042151Z 34010KT 10SM BKN250 M01/M12 A3019 RMK AO2 SLP221 T10061122 PNO $","updated":"2026-02-04T22:26:35Z"}
