{"icao":"LPPS","metar":"LPPS 011800Z 29015KT 9999 FEW014 18/14 Q1014","updated":"2026-02-01T18:33:42Z"}
