{"icao":"LPCS","metar":"LPCS 142000Z 32009KT 280V350 9999 FEW020 11/10 Q1029","updated":"2026-02-14T20:24:51Z"}
