{"icao":"LPFL","metar":"LPFL 021100Z 18013KT 150V230 9999 SCT032 19/12 Q1020","updated":"2025-11-02T11:12:58Z"}
