{"icao":"LPMT","metar":"LPMT 181500Z 23012KT 190V250 4000 -RADZ BR FEW009 SCT012 BKN015 15/14 Q1018","updated":"2026-02-18T15:51:02Z"}
