{"icao":"LPHR","metar":"LPHR 281500Z 03010KT 350V080 9999 FEW020 BKN035 18/11 Q1021","updated":"2025-10-28T15:20:16Z"}
