{"icao":"LPOV","metar":"LPOV 291300Z 26005KT 210V290 9999 FEW020 21/17 Q1007","updated":"2025-10-29T13:31:33Z"}
