{"icao":"LPLA","metar":"LPLA 041300Z 34023KT 9999 VCSH SCT007 BKN014 BKN022 13/12 Q1028","updated":"2026-03-04T13:57:32Z"}
