{"icao":"LPMT","metar":"LPMT 142300Z 34003KT 9999 FEW030 13/11 Q1024","updated":"2026-04-14T23:42:25Z"}
