{"icao":"LPBJ","metar":"LPBJ 112200Z 06005KT CAVOK 21/10 Q1018","updated":"2025-10-11T22:14:37Z"}
