{"icao":"KJFK","metar":"KJFK 202051Z 19029G38KT 10SM FEW045 SCT100 SCT160 BKN230 07/02 A2983 RMK AO2 PK WND 18040/2018 SLP100 T00720022 56052","updated":"2026-03-20T21:29:00Z"}
