{"icao":"KJFK","metar":"KJFK 240451Z 34004KT 10SM BKN150 BKN250 15/04 A2983 RMK SLP101 T015000039 402390056 ","updated":"2026-04-24T05:33:56Z"}
