{"icao":"LPMA","metar":"LPMA 190200Z 24008KT 210V270 9999 FEW013 FEW018CB 12/06 Q0997","updated":"2026-03-19T02:06:50Z"}
