{"icao":"LPFR","metar":"LPFR 201800Z 28010KT CAVOK 24/18 Q1016","updated":"2025-09-20T18:21:22Z"}
