{"icao":"LPMT","metar":"LPMT 310100Z 30008KT 9999 SCT028 13/08 Q1017","updated":"2026-01-31T01:52:31Z"}
