{"icao":"LPPD","metar":"LPPD 291000Z 27006KT 220V300 9999 VCSH FEW018 16/14 Q1019","updated":"2025-10-29T10:20:25Z"}
