{"icao":"LPMA","metar":"LPMA 291500Z 03009KT 350V060 9999 FEW016 21/11 Q1021","updated":"2025-11-29T15:17:12Z"}
