{"icao":"KORD","metar":"KORD 180551Z 11004KT 10SM SCT075 BKN095 OVC140 06/00 A3007 RMK AO2 SLP185 T00610000 10061 20044 400831006 51004","updated":"2025-11-18T06:28:09Z"}
