{"icao":"LPPR","metar":"LPPR 171230Z 29005KT 260V360 CAVOK 19/14 Q1022","updated":"2025-09-17T12:36:17Z"}
