{"icao":"KJFK","metar":"KJFK 140951Z 31014G23KT 10SM FEW120 05/M02 A3006 RMK AO2 SLP179 T00501017","updated":"2025-11-14T10:21:13Z"}
