{"icao":"LPPT","metar":"LPPT 060500Z 02003KT CAVOK 16/12 Q1018","updated":"2025-10-06T05:16:56Z"}
