{"icao":"LPCS","metar":"LPCS 141600Z 23006KT 170V280 CAVOK 28/10 Q1016","updated":"2025-10-14T16:22:13Z"}
