{"icao":"KJFK","metar":"KJFK 090851Z 00000KT 9SM FEW250 01/01 A3032 RMK AO2 SLP268 T00060006 53006 $","updated":"2026-01-09T09:27:10Z"}
