{"icao":"LPPT","metar":"LPPT 110530Z 32013KT 290V350 9999 FEW010 13/10 Q1013","updated":"2026-04-11T05:59:42Z"}
