{"icao":"KLAX","metar":"KLAX 040753Z 27004KT 9SM BKN011 16/14 A3007 RMK AO2 SLP180 T01610139 402060139 $","updated":"2025-11-04T08:26:54Z"}
