{"icao":"LPFL","metar":"LPFL 191400Z 21012G26KT 150V260 9999 FEW004 SCT008 25/22 Q1013 WS R18","updated":"2025-10-19T14:14:56Z"}
