{"icao":"KORD","metar":"KORD 180558Z 17008KT 3SM -SN OVC028 M05/M08 A3012 RMK AO2 P0000 T10501078 $","updated":"2026-03-18T06:01:59Z"}
