{"icao":"LPOV","metar":"LPOV 211900Z 29014KT 260V320 9999 -TSRA SCT018CB SCT030 BKN040 12/08 Q1002","updated":"2026-01-22T05:27:20Z"}
