{"icao":"LPCS","metar":"LPCS 011100Z 22007KT 0300 DZRA FG VV002 15/15 Q1014","updated":"2026-02-01T11:20:00Z"}
