{"icao":"LPBJ","metar":"LPBJ 080300Z 32002KT 3000 0500S BCFG SCT002 02/02 Q1031","updated":"2026-01-08T03:28:45Z"}
