{"icao":"LPPT","metar":"LPPT 282200Z 36010KT CAVOK 16/06 Q1025","updated":"2026-03-28T22:27:49Z"}
