{"icao":"KLAX","metar":"KLAX 101853Z 00000KT 10SM FEW230 FEW280 18/M03 A3039 RMK AO2 SLP291 T01781033 $","updated":"2026-01-10T19:14:41Z"}
