{"icao":"LPFR","metar":"LPFR 121100Z 10012KT CAVOK 25/16 Q1016","updated":"2025-10-12T11:12:40Z"}
