{"icao":"KLAX","metar":"KLAX 200102Z 26008KT 7SM SCT005 SCT250 19/18 A2997 RMK AO2 T01940178","updated":"2025-10-20T01:25:58Z"}
