{"icao":"LPAZ","metar":"LPAZ 222030Z 20009KT 0350 R18/0150 FG VV001 18/18 Q1022","updated":"2026-05-22T20:42:08Z"}
