{"icao":"LPBJ","metar":"LPBJ 191100Z 29007KT 270V330 CAVOK 29/07 Q1014","updated":"2026-06-19T11:20:45Z"}
