{"icao":"LPCS","metar":"LPCS 252230Z 04007KT CAVOK 19/14 Q1022","updated":"2026-05-26T00:03:50Z"}
