{"icao":"LPMA","metar":"LPMA 021230Z 01012KT 6000 -RA FEW013 BKN016 18/15 Q1025","updated":"2025-12-02T12:41:28Z"}
