{"icao":"LPOV","metar":"LPOV 022000Z 34003KT CAVOK 12/11 Q1025","updated":"2025-11-02T20:17:32Z"}
