{"icao":"LPOV","metar":"LPOV 260900Z 36006KT 330V040 CAVOK 15/11 Q1020","updated":"2025-10-26T09:16:03Z"}
