{"icao":"KORD","metar":"KORD 131251Z 25004KT 10SM SCT250 02/M03 A3017 RMK AO2 SLP221 T00171028 $","updated":"2025-11-13T13:31:42Z"}
