{"icao":"LPHR","metar":"LPHR 201800Z 30011KT 270V340 9999 FEW018 SCT035 15/08 Q1031","updated":"2025-12-20T18:24:34Z"}
