{"icao":"LPBJ","metar":"LPBJ 281600Z 31010KT 270V350 CAVOK 31/13 Q1020","updated":"2026-06-28T16:08:33Z"}
