{"icao":"KORD","metar":"KORD 231651Z 29003KT 10SM FEW200 10/M01 A3015 RMK AO2 SLP214 T01001011","updated":"2025-11-23T17:15:01Z"}
