{"icao":"LPCS","metar":"LPCS 151230Z 22006KT 190V260 CAVOK 25/12 Q1017","updated":"2025-10-15T12:38:39Z"}
