{"icao":"LPFL","metar":"LPFL 251230Z 12006KT 080V160 9999 FEW020 SCT030 17/12 Q1017","updated":"2026-04-25T13:01:31Z"}
