{"icao":"KJFK","metar":"KJFK 301510Z 10020G34KT 4SM -RA BR OVC008 14/13 A2973 RMK AO2 PK WND 08035/1456 P0000 T01390128","updated":"2025-10-30T15:20:03Z"}
