{"icao":"KJFK","metar":"KJFK 022251Z 32009KT 10SM FEW250 00/M12 A3005 RMK SLP175 T00001122 PNO $ ","updated":"2026-02-02T23:27:40Z"}
