{"icao":"LPBJ","metar":"LPBJ 252200Z 10002KT CAVOK 13/11 Q1019","updated":"2026-02-25T22:32:26Z"}
