{"icao":"LPCS","metar":"LPCS 091330Z 32010KT 280V350 9999 FEW018 15/07 Q1029","updated":"2026-01-09T13:36:40Z"}
