{"icao":"LPPR","metar":"LPPR 241800Z 34009KT CAVOK 20/08 Q1018","updated":"2025-09-24T18:23:49Z"}
