{"icao":"LPOV","metar":"LPOV 200800Z 15004KT 9999 FEW018 BKN040 07/07 Q1016","updated":"2025-12-20T09:18:40Z"}
