{"icao":"LPFR","metar":"LPFR 281600Z 17008KT CAVOK 18/08 Q1020","updated":"2026-02-28T16:24:58Z"}
