{"icao":"LPMT","metar":"LPMT 070400Z 33009KT CAVOK 11/08 Q1017","updated":"2026-03-07T05:04:13Z"}
