{"icao":"LPBJ","metar":"LPBJ 211700Z 11006KT 9999 FEW035 18/11 Q1008","updated":"2026-03-21T17:24:00Z"}
