{"icao":"LPPR","metar":"LPPR 280500Z 10003KT 8000 NSC 05/05 Q1024","updated":"2025-11-28T05:19:16Z"}
