{"icao":"LPLA","metar":"LPLA 141900Z 31010KT 8000 -DZ FEW007 SCT020 BKN040 21/20 Q1026","updated":"2025-09-14T19:11:45Z"}
