{"icao":"KORD","metar":"KORD 160705Z 27007KT 1 1/4SM -SN BR OVC013 M01/M02 A2931 RMK AO2 P0001 T10111022 $","updated":"2026-03-16T07:15:23Z"}
