{"icao":"LPLA","metar":"LPLA 310900Z 25004KT 220V330 9999 FEW008 BKN025 17/16 Q1015","updated":"2026-01-31T09:26:30Z"}
