{"icao":"LPFR","metar":"LPFR 072100Z 27013KT 9000 FEW020 SCT030 14/11 Q1011","updated":"2026-02-07T21:25:23Z"}
