{"icao":"LPMA","metar":"LPMA 181600Z 04005KT 350V120 9999 SCT016 23/16 Q1020","updated":"2026-06-18T16:29:39Z"}
