{"icao":"KJFK","metar":"KJFK 110851Z 29011KT 10SM SCT047 02/M09 A2971 RMK AO2 SLP061 T00171089 58002 $","updated":"2025-11-11T09:20:26Z"}
