{"icao":"LPPR","metar":"LPPR 131200Z 21008KT 170V260 9999 FEW055CB 28/17 Q1018","updated":"2026-06-13T12:23:14Z"}
