{"icao":"KLAX","metar":"KLAX 040653Z 18004KT 10SM FEW200 15/12 A3002 RMK AO2 SLP163 T01500122","updated":"2026-03-04T07:36:36Z"}
