{"icao":"KJFK","metar":"KJFK 180351Z 36007KT 10SM FEW180 12/01 A2999 RMK AO2 SLP154 T01170011","updated":"2025-10-18T04:20:19Z"}
