{"icao":"LPPT","metar":"LPPT 130400Z 17018KT 8000 TSRA FEW006 BKN014 SCT016CB 18/17 Q1001","updated":"2025-11-13T04:23:55Z"}
