{"icao":"KLAX","metar":"KLAX 310953Z 07007KT 10SM SCT110 BKN200 19/03 A3006 RMK AO2 SLP176 T01890028 $","updated":"2025-12-31T10:21:10Z"}
