{"icao":"KORD","metar":"KORD 140551Z 22007KT 10SM CLR 04/M02 A3006 RMK AO2 SLP182 T00441022 10089 20044 401221039 50003 $","updated":"2026-02-14T06:42:41Z"}
