{"icao":"LPFR","metar":"LPFR 242130Z 07008KT CAVOK 24/13 Q1020","updated":"2026-05-24T21:55:10Z"}
