{"icao":"LPMA","metar":"LPMA 180500Z 25003KT 210V270 9999 SCT015 20/17 Q1013","updated":"2025-10-18T05:16:10Z"}
