{"icao":"KJFK","metar":"KJFK 181251Z 02003KT 1SM R04R/P6000FT -SNRA BR BKN008 OVC015 01/00 A3009 RMK AO2 SLP188 P0007 T00060000 $","updated":"2026-01-18T13:27:41Z"}
