{"icao":"LPPD","metar":"LPPD 162200Z 32006KT 290V350 9999 FEW020 BKN030 14/10 Q1034","updated":"2026-01-16T22:19:56Z"}
