{"icao":"LPAZ","metar":"LPAZ 061100Z 05004KT 9999 BKN048 14/07 Q1034","updated":"2026-01-06T11:18:10Z"}
