{"icao":"LPMA","metar":"LPMA 290900Z 01009KT 310V050 9999 SCT015 SCT030 22/13 Q1023","updated":"2025-09-29T09:20:53Z"}
