{"icao":"LPPS","metar":"LPPS 101130Z 36018KT 9999 SCT012 BKN030 16/13 Q1019","updated":"2026-04-10T11:47:33Z"}
