{"icao":"LPMR","metar":"LPMR 010200Z 10001KT CAVOK 13/08 Q1024","updated":"2026-04-01T02:30:16Z"}
