{"icao":"KLAX","metar":"KLAX 171053Z 00000KT 10SM FEW280 14/03 A3003 RMK AO2 SLP164 T01390033","updated":"2026-01-17T11:16:03Z"}
