{"icao":"KLAX","metar":"KLAX 071553Z 08003KT 10SM FEW050 SCT180 13/08 A2996 RMK AO2 SLP142 T01280078 $","updated":"2026-01-07T16:29:45Z"}
