{"icao":"LPBJ","metar":"LPBJ 140500Z 28004KT 8000 BKN005 10/10 Q1023","updated":"2026-04-14T05:21:58Z"}
