{"icao":"LPBJ","metar":"LPBJ 022000Z 29008KT CAVOK 18/12 Q1015","updated":"2026-05-02T20:39:43Z"}
