{"icao":"LPBJ","metar":"LPBJ 212200Z VRB01KT CAVOK 26/15 Q1018","updated":"2026-06-21T22:13:30Z"}
