{"icao":"LPLA","metar":"LPLA 281400Z 12025G35KT 6000 -RA SCT009 SCT012 BKN028 13/11 Q1011","updated":"2025-12-28T14:17:59Z"}
