{"icao":"LPPR","metar":"LPPR 270900Z 13009KT CAVOK 16/09 Q1016","updated":"2025-09-27T09:15:27Z"}
