{"icao":"LPPT","metar":"LPPT 010130Z 09007KT 070V130 CAVOK 09/07 Q1015","updated":"2026-01-01T01:48:49Z"}
