{"icao":"KLAX","metar":"KLAX 041459Z 05005KT 2 1/2SM BR OVC009 16/14 A3010 RMK AO2 VIS 2V3 T01560139 $","updated":"2025-11-04T15:20:56Z"}
