{"icao":"LPFR","metar":"LPFR 190800Z 01003KT 290V040 9999 FEW030 12/09 Q1017","updated":"2025-11-19T08:25:08Z"}
