{"icao":"LPPT","metar":"LPPT 270500Z 33004KT 300V010 CAVOK 09/05 Q1024","updated":"2025-11-27T05:19:08Z"}
