{"icao":"LPPR","metar":"LPPR 311500Z 28004KT 250V320 CAVOK 15/08 Q1017","updated":"2025-12-31T15:19:45Z"}
