{"icao":"KORD","metar":"KORD 021251Z 28006KT 4SM BR FEW006 M08/M09 A2998 RMK AO2 SLP164 I1001 T10781094","updated":"2025-12-02T13:35:57Z"}
