{"icao":"LPAZ","metar":"LPAZ 151400Z 18013KT 9999 BKN035 17/12 Q1031","updated":"2026-02-15T14:26:26Z"}
