{"icao":"KJFK","metar":"KJFK 080451Z 24004KT 10SM SCT130 BKN250 11/08 A2981 RMK AO2 SLP093 T01060078 401890100","updated":"2026-05-08T05:29:10Z"}
