{"icao":"LPOV","metar":"LPOV 110800Z 15001KT CAVOK 08/08 Q1027","updated":"2026-03-11T08:39:12Z"}
