{"icao":"LPHR","metar":"LPHR 301500Z 14006KT 110V190 9999 SCT006 SCT010 BKN070 16/16 Q1015","updated":"2026-01-30T15:33:01Z"}
