{"icao":"LPFR","metar":"LPFR 122300Z 09013KT CAVOK 24/13 Q1019","updated":"2026-06-12T23:14:49Z"}
