{"icao":"LPCS","metar":"LPCS 151600Z 04006KT 9999 FEW045 26/08 Q1015","updated":"2025-10-15T16:19:21Z"}
