{"icao":"LPAR","metar":"LPAR 100900Z 05010KT 010V080 CAVOK 22/10 Q1021","updated":"2025-10-10T09:19:17Z"}
