{"icao":"LPPT","metar":"LPPT 280700Z 34006KT CAVOK 10/08 Q1023","updated":"2025-11-28T07:18:34Z"}
