{"icao":"LPLA","metar":"LPLA 050600Z 15007KT 9999 FEW015 20/19 Q1024","updated":"2025-10-05T06:23:42Z"}
