{"icao":"LPCS","metar":"LPCS 171300Z 20006KT 150V270 CAVOK 25/15 Q1015","updated":"2025-10-17T13:26:40Z"}
