{"icao":"LPMR","metar":"LPMR 202100Z 19007KT 9999 FEW020 SCT035 12/11 Q1014","updated":"2026-01-20T21:19:41Z"}
