{"icao":"LPBJ","metar":"LPBJ 140500Z 18011KT 7000 -RA SCT026 13/12 Q1005","updated":"2025-11-14T05:18:25Z"}
