{"icao":"KJFK","metar":"KJFK 240651Z 28008KT 10SM FEW065 10/04 A3004 RMK AO2 SLP172 T01000039","updated":"2025-10-24T07:17:56Z"}
