{"icao":"LPLA","metar":"LPLA 182000Z 32013KT 9999 FEW025 13/08 Q1029","updated":"2025-12-18T20:19:25Z"}
