{"icao":"LPFL","metar":"LPFL 271900Z 19009KT 150V210 9999 FEW026 16/08 Q1016","updated":"2026-05-27T19:23:21Z"}
