{"icao":"LPMT","metar":"LPMT 171500Z 27004KT 230V310 9999 BKN030 15/09 Q1025","updated":"2026-02-17T15:51:27Z"}
