{"icao":"LPPT","metar":"LPPT 121700Z 33017KT 300V360 9999 SCT040 15/06 Q1020 WS R02","updated":"2026-04-12T17:33:00Z"}
