{"icao":"KJFK","metar":"KJFK 100351Z 15004KT 10SM FEW250 06/05 A3003 RMK AO2 SLP169 T00560050 $","updated":"2026-03-10T04:09:24Z"}
