{"icao":"KORD","metar":"KORD 231551Z 36016G20KT 10SM FEW038 02/M09 A3040 RMK AO2 SLP302 T00221094","updated":"2026-03-23T15:58:51Z"}
