{"icao":"LPAR","metar":"LPAR 141200Z 35015KT 320V030 9999 SCT025 15/05 Q1027","updated":"2026-02-14T12:44:37Z"}
