{"icao":"KJFK","metar":"KJFK 051051Z 09003KT 1/8SM R04R/2800V3000FT FG VV003 08/08 A2991 RMK AO2 SFC VIS 1/4 DZE04 SLP127 P0000 T00830083","updated":"2026-04-05T11:28:42Z"}
