{"icao":"KJFK","metar":"KJFK 310851Z 32008KT 10SM SCT250 M12/M18 A3019 RMK AO2 SLP223 T11221183 57001 $","updated":"2026-01-31T09:26:31Z"}
