{"icao":"LPMA","metar":"LPMA 181430Z 11006KT 090V190 9999 SCT013 FEW018CB 15/06 Q0998","updated":"2026-03-18T15:01:10Z"}
