{"icao":"LPPR","metar":"LPPR 142200Z 34004KT CAVOK 18/17 Q1024","updated":"2025-09-14T22:14:43Z"}
