{"icao":"LPMT","metar":"LPMT 312200Z 20007KT 7000 -RA FEW009 SCT016 BKN030 14/13 Q1019","updated":"2026-01-31T22:21:01Z"}
