{"icao":"KJFK","metar":"KJFK 141451Z 35007KT 1/4SM R04R/4000V5500FT -SN BR OVC006 00/00 A2996 RMK AO2 SFC VIS 3/4 SLP145 SNINCR 1/4 P0006 60017 T00000000 53003 $","updated":"2025-12-14T15:17:37Z"}
