{"icao":"LPBJ","metar":"LPBJ 071400Z 29007KT 220V350 CAVOK 31/12 Q1019","updated":"2026-06-07T14:50:36Z"}
