{"icao":"KORD","metar":"KORD 161651Z 22013KT 10SM FEW150 BKN210 11/07 A2992 RMK AO2 SLP135 T01110067","updated":"2026-02-16T17:36:58Z"}
