{"icao":"LPPD","metar":"LPPD 042230Z 05008KT 010V090 9999 FEW020 BKN045 15/10 Q1025","updated":"2026-05-04T23:01:37Z"}
