{"icao":"LPPR","metar":"LPPR 091030Z 31009KT 280V350 9999 FEW006 SCT029 BKN046 10/06 Q1021","updated":"2026-03-09T10:43:28Z"}
