{"icao":"KJFK","metar":"KJFK 081051Z 24006KT 10SM -RA SCT022 BKN035 OVC100 13/12 A2967 RMK AO2 SLP046 P0000 T01280117","updated":"2025-11-08T11:13:21Z"}
