{"icao":"LPMA","metar":"LPMA 071400Z 03013G23KT 350V050 9999 FEW015 25/17 Q1024","updated":"2025-10-07T14:18:18Z"}
