{"icao":"LPFL","metar":"LPFL 262100Z 28013G31KT 210V360 9999 FEW017 BKN020 10/03 Q1008","updated":"2026-01-26T23:20:57Z"}
