{"icao":"LPPT","metar":"LPPT 302300Z 34007KT CAVOK 10/05 Q1021","updated":"2025-11-30T23:17:02Z"}
