{"icao":"LPFR","metar":"LPFR 160100Z 03006KT CAVOK 21/16 Q1015","updated":"2025-10-16T01:19:46Z"}
