{"icao":"KORD","metar":"KORD 200351Z 27012G20KT 10SM BKN095 M15/M22 A3030 RMK AO2 SLP279 T11501217 $","updated":"2026-01-20T04:43:10Z"}
