{"icao":"LPAZ","metar":"LPAZ 141500Z 21014KT 9999 FEW010 SCT019 21/18 Q1008","updated":"2025-10-14T15:20:23Z"}
