{"icao":"LPMA","metar":"LPMA 112100Z 26004KT 230V350 9999 FEW014 20/15 Q1019","updated":"2026-06-11T21:23:29Z"}
