{"icao":"LPPD","metar":"LPPD 291900Z 24020G31KT 9999 VCSH FEW020 SCT045 20/14 Q1013","updated":"2025-10-29T19:14:10Z"}
