{"icao":"LPPD","metar":"LPPD 040100Z 25011KT 9999 FEW010 17/15 Q1028","updated":"2025-12-04T01:26:44Z"}
