{"icao":"LPLA","metar":"LPLA 112200Z 22014KT 180V260 9999 FEW020 BKN028 17/12 Q1017","updated":"2026-02-11T22:28:19Z"}
