{"icao":"KORD","metar":"KORD 080451Z 06004KT 10SM BKN065 BKN075 BKN220 19/13 A2996 RMK AO2 SLP142 T01940133 $","updated":"2026-06-08T05:48:46Z"}
