{"icao":"LPFL","metar":"LPFL 061400Z 36004KT 9999 FEW017 22/18 Q1017","updated":"2025-10-06T14:17:31Z"}
