{"icao":"LPPT","metar":"LPPT 202200Z 35012KT CAVOK 11/05 Q1024","updated":"2025-11-20T22:16:57Z"}
