{"icao":"LPPD","metar":"LPPD 132100Z 36007KT 320V030 9999 SCT017 15/11 Q1031","updated":"2026-03-13T21:31:55Z"}
