{"icao":"LPPR","metar":"LPPR 161030Z 25008KT 210V300 7000 SCT003 BKN005 14/13 Q1028","updated":"2026-02-16T10:49:09Z"}
