{"icao":"LPLA","metar":"LPLA 251900Z 23023G33KT 4000 RADZ SCT008 BKN022 18/16 Q1008","updated":"2026-01-25T19:16:02Z"}
