{"icao":"LPMR","metar":"LPMR 251000Z 35004KT 3500 BR SCT006 BKN009 14/13 Q1022","updated":"2026-03-25T10:47:41Z"}
