{"icao":"KORD","metar":"KORD 041951Z 23012G26KT 200V270 10SM SCT085 BKN100 BKN250 26/06 A2950 RMK AO2 PK WND 21026/1947 SLP985 T02560061","updated":"2026-05-04T20:13:28Z"}
