{"icao":"LPAR","metar":"LPAR 100900Z 24009KT 3000 -DZRA BR BKN006 BKN012 16/16 Q1016","updated":"2026-02-10T09:59:37Z"}
