{"icao":"LPPT","metar":"LPPT 121930Z 31014KT 9999 FEW015 12/10 Q1025","updated":"2026-03-12T19:41:09Z"}
