{"icao":"LPPT","metar":"LPPT 210900Z 02005KT CAVOK 10/07 Q1030","updated":"2026-02-21T09:28:23Z"}
