{"icao":"KJFK","metar":"KJFK 191451Z 04008KT 7SM -RA FEW018 SCT047 BKN060 BKN150 04/03 A3019 RMK AO2 SLP223 P0005 60017 T00440028 51004 $","updated":"2025-11-19T15:20:15Z"}
