{"icao":"LPPR","metar":"LPPR 111700Z 33010KT CAVOK 24/12 Q1019","updated":"2025-10-11T17:12:53Z"}
