{"icao":"LPAR","metar":"LPAR 261200Z VRB02KT 8000 FEW012 08/06 Q1014","updated":"2025-12-26T12:39:25Z"}
