{"icao":"KORD","metar":"KORD 100751Z 04006KT 10SM FEW250 08/M01 A2995 RMK AO2 SLP142 T00781006","updated":"2026-05-10T08:52:23Z"}
