{"icao":"KJFK","metar":"KJFK 221051Z 04003KT 10SM FEW046 FEW180 SCT250 12/10 A3018 RMK AO2 SLP219 T01170100 $","updated":"2025-09-22T11:15:34Z"}
