{"icao":"LPPR","metar":"LPPR 080700Z 14003KT 040V180 9999 FEW020 11/09 Q1020","updated":"2025-11-08T07:15:53Z"}
