{"icao":"LPPD","metar":"LPPD 221100Z 18010KT 9999 SCT007 SCT012 BKN030 23/22 Q1015","updated":"2025-10-22T11:16:14Z"}
