{"icao":"KORD","metar":"KORD 090051Z 08006KT 10SM CLR 14/06 A3040 RMK AO2 SLP297 T01390061 $","updated":"2025-10-09T01:18:30Z"}
