{"icao":"KORD","metar":"KORD 272351Z 20007KT 10SM -TSRA OVC050CB 19/14 A2961 RMK AO2 RAB43 TSB32 SLP026 FRQ LTGICCG NW-N TS SW-NW MOV NE P0000 60023 T01940144 10200 20139 51010 $","updated":"2026-04-27T23:59:13Z"}
