{"icao":"LPPR","metar":"LPPR 112300Z 35012KT CAVOK 09/01 Q1020","updated":"2026-04-11T23:32:20Z"}
