{"icao":"LPFL","metar":"LPFL 150730Z 20019G34KT 160V240 9999 SCT016 18/14 Q1022","updated":"2026-02-15T07:37:02Z"}
