{"icao":"LPPS","metar":"LPPS 051800Z 34009KT 9999 SCT012 22/18 Q1022","updated":"2025-10-05T18:21:59Z"}
