{"icao":"LPAZ","metar":"LPAZ 271800Z 35024KT 9999 VCSH FEW010 SCT018 FEW028TCU BKN045 18/16 Q1011","updated":"2025-10-27T18:27:14Z"}
