{"icao":"KJFK","metar":"KJFK 152251Z 19015G22KT 10SM BKN035 OVC100 09/03 A2960 RMK AO2 SLP021 T00940033","updated":"2025-11-15T23:16:04Z"}
