{"icao":"LPMT","metar":"LPMT 241400Z 25014KT 4000 BR SCT012 BKN018 17/15 Q1017","updated":"2025-11-24T14:19:04Z"}
