{"icao":"LPMA","metar":"LPMA 132200Z 01017G28KT 340V040 9999 BKN015 16/09 Q1026","updated":"2026-03-13T22:27:08Z"}
