{"icao":"LPPR","metar":"LPPR 232200Z 00000KT CAVOK 19/17 Q1012","updated":"2026-06-23T22:11:02Z"}
