{"icao":"LPLA","metar":"LPLA 182000Z 21004KT 170V250 9999 FEW015 SCT030 16/14 Q1013","updated":"2026-04-18T20:35:29Z"}
