{"icao":"KLAX","metar":"KLAX 231456Z VRB03KT 4SM BR FEW006 BKN012 OVC085 13/12 A2993 RMK AO2 VIS SE 2 1/2 T01280122 $","updated":"2026-01-23T15:24:49Z"}
