{"icao":"LPPT","metar":"LPPT 201030Z 11009KT 080V140 9999 BKN012 14/12 Q1008","updated":"2026-03-20T10:36:31Z"}
