{"icao":"LPPT","metar":"LPPT 070500Z 23009KT 9999 FEW018 17/14 Q1016","updated":"2025-11-07T05:17:56Z"}
