{"icao":"LPMA","metar":"LPMA 101230Z 02014KT 330V050 9999 SCT015 16/07 Q1028","updated":"2026-03-10T12:58:23Z"}
