{"icao":"LPMR","metar":"LPMR 241600Z 33011KT CAVOK 24/05 Q1016","updated":"2025-09-24T22:16:02Z"}
