{"icao":"LPMA","metar":"LPMA 020900Z 35009KT 320V030 9999 SCT014 SCT030 22/17 Q1021","updated":"2025-10-02T09:17:56Z"}
