{"icao":"LPHR","metar":"LPHR 042200Z 32011KT 290V350 9999 FEW025 16/08 Q1014","updated":"2025-11-04T22:16:34Z"}
