{"icao":"LPAR","metar":"LPAR 180800Z 32005KT 270V020 CAVOK 22/14 Q1016","updated":"2026-06-18T08:45:07Z"}
