{"icao":"LPPT","metar":"LPPT 011000Z 06006KT CAVOK 12/08 Q1023","updated":"2026-03-01T10:23:36Z"}
