{"icao":"LPPR","metar":"LPPR 291600Z 31009KT 290V010 CAVOK 19/05 Q1029","updated":"2026-03-29T16:33:32Z"}
