{"icao":"KORD","metar":"KORD 231951Z 31011KT 10SM SCT047 11/M02 A3009 RMK AO2 SLP191 T01061017","updated":"2025-10-23T20:19:20Z"}
