{"icao":"LPMR","metar":"LPMR 231900Z 23006KT 9999 SCT020 SCT025 BKN030 13/12 Q1023","updated":"2025-11-23T19:14:06Z"}
