{"icao":"LPPT","metar":"LPPT 261600Z 19006KT 150V210 9999 FEW032 12/05 Q1013","updated":"2025-12-26T16:22:52Z"}
