{"icao":"LPFL","metar":"LPFL 281800Z 27006KT 200V010 9999 FEW012 19/12 Q1028","updated":"2026-02-28T18:31:34Z"}
