{"icao":"LPCS","metar":"LPCS 090830Z 23006KT 0900 R17/P2000N FG VV002 15/15 Q1013","updated":"2026-02-09T08:55:26Z"}
