{"icao":"LPST","metar":"LPST 201700Z 10012KT 9000 FEW009 BKN014 BKN030 14/12 Q1006","updated":"2026-03-20T17:34:23Z"}
