{"icao":"KJFK","metar":"KJFK 081451Z 33015G20KT 10SM -RA BKN017 OVC080 19/17 A2996 RMK AO2 SLP143 P0001 60012 T01890167 53013","updated":"2025-10-08T15:19:03Z"}
