{"icao":"LPCS","metar":"LPCS 271230Z VRB03KT 9999 FEW008 SCT014 15/13 Q1025","updated":"2026-02-27T12:56:42Z"}
