{"icao":"LPCS","metar":"LPCS 111400Z 21010KT 9999 FEW004 SCT008 BKN014 15/15 Q1026","updated":"2026-01-11T14:17:59Z"}
