{"icao":"LPPT","metar":"LPPT 110600Z 14005KT 120V190 6000 FEW001 BKN003 15/15 Q1014","updated":"2025-11-11T06:28:15Z"}
