{"icao":"LPBJ","metar":"LPBJ 281700Z 31009KT CAVOK 31/13 Q1019","updated":"2026-06-28T18:03:33Z"}
