{"icao":"LPPR","metar":"LPPR 111700Z 34026G36KT 9999 FEW015 13/05 Q1016","updated":"2026-04-11T17:29:48Z"}
