{"icao":"LPFR","metar":"LPFR 231630Z 11009KT CAVOK 17/12 Q1023","updated":"2026-02-23T16:55:54Z"}
