{"icao":"KJFK","metar":"KJFK 290551Z 14004KT 10SM 11/06 A3007 RMK SLP182 T01060056 1011 20106 55003 ","updated":"2026-04-29T06:21:59Z"}
