{"icao":"KORD","metar":"KORD 061651Z 18008KT 10SM FEW150 SCT220 BKN250 13/M04 A3018 RMK AO2 SLP224 T01281039","updated":"2025-11-06T17:18:32Z"}
