{"icao":"LPMT","metar":"LPMT 130400Z VRB03KT CAVOK 14/12 Q1014","updated":"2025-10-13T04:21:09Z"}
