{"icao":"LPCS","metar":"LPCS 051800Z 36012KT CAVOK 19/15 Q1018","updated":"2025-10-05T18:21:55Z"}
