{"icao":"LPBJ","metar":"LPBJ 260400Z 25007KT 9999 BKN003 OVC012 13/12 Q1015","updated":"2026-01-26T04:55:31Z"}
