{"icao":"LPAR","metar":"LPAR 041100Z 05011KT CAVOK 17/10 Q1014","updated":"2026-03-04T11:28:46Z"}
