{"icao":"LPFL","metar":"LPFL 201430Z 34012KT 300V020 9999 SCT023 SCT035 15/07 Q1022","updated":"2026-04-20T14:49:35Z"}
