{"icao":"LPAZ","metar":"LPAZ 030130Z 25019KT 9000 SCT007 BKN011 15/14 Q1013","updated":"2026-02-03T02:02:49Z"}
