{"icao":"KORD","metar":"KORD 221251Z 26008KT 10SM FEW065 FEW100 FEW250 18/14 A2993 RMK AO2 SLP130 T01830139","updated":"2026-04-22T13:24:45Z"}
