{"icao":"LPST","metar":"LPST 181200Z 23012KT 200V260 9999 FEW008 BKN014 BKN040 15/12 Q1021","updated":"2026-02-18T13:01:40Z"}
