{"icao":"LPBJ","metar":"LPBJ 220300Z 09005KT CAVOK 18/09 Q1020","updated":"2026-05-22T03:32:46Z"}
