{"icao":"LPFR","metar":"LPFR 271100Z 10010KT 9999 FEW007 SCT045 21/19 Q1021","updated":"2025-10-27T11:16:00Z"}
