{"icao":"KJFK","metar":"KJFK 241151Z 00000KT 10SM SCT100 BKN160 BKN250 11/07 A2982 RMK SLP099 T01060067 10150 20094 51012 $ ","updated":"2026-04-24T11:55:44Z"}
