{"icao":"LPFL","metar":"LPFL 130900Z 20005KT 150V240 9999 FEW016 13/09 Q1024","updated":"2026-01-13T09:26:48Z"}
