{"icao":"LPMT","metar":"LPMT 092200Z 30008KT 270V330 9999 SCT025 BKN045 10/07 Q1022","updated":"2026-03-09T22:27:13Z"}
