{"icao":"LPPR","metar":"LPPR 131230Z 31015G27KT 280V340 9999 VCSH FEW020CB BKN027 13/09 Q1003","updated":"2026-02-13T12:56:57Z"}
