{"icao":"LPPR","metar":"LPPR 031030Z VRB02KT CAVOK 16/10 Q1015","updated":"2026-03-03T10:37:11Z"}
