{"icao":"LPCS","metar":"LPCS 180700Z 03003KT CAVOK 15/11 Q1016","updated":"2025-10-18T07:15:42Z"}
