{"icao":"KORD","metar":"KORD 120340Z 28015G24KT 10SM BKN017 OVC250 21/19 A2971 RMK AO2 T02110189 $","updated":"2026-06-12T03:50:42Z"}
