{"icao":"KORD","metar":"KORD 190651Z 00000KT 10SM SCT120 BKN180 OVC250 03/M02 A3004 RMK AO2 SLP178 T00281017 $","updated":"2026-03-19T07:03:40Z"}
