{"icao":"LPLA","metar":"LPLA 110400Z 33014KT 9999 FEW025 BKN035 13/07 Q1023","updated":"2025-12-11T04:34:13Z"}
