{"icao":"LPMR","metar":"LPMR 290900Z 04008KT CAVOK 13/01 Q1031","updated":"2026-03-29T09:35:15Z"}
