{"icao":"LPMA","metar":"LPMA 050600Z 01008KT 320V030 9999 SCT016 21/15 Q1024","updated":"2025-10-05T06:23:56Z"}
