{"icao":"LPPS","metar":"LPPS 172100Z 31018KT 9999 SCT012 SCT030 15/13 Q1018","updated":"2026-01-17T21:17:07Z"}
