{"icao":"LPCS","metar":"LPCS 291500Z 28008KT 230V320 9999 FEW020 BKN035 17/09 Q1017","updated":"2025-11-29T15:16:56Z"}
