{"icao":"LPPT","metar":"LPPT 191400Z 34014KT 310V010 9999 FEW044 16/06 Q1016","updated":"2025-11-19T14:18:34Z"}
