{"icao":"KJFK","metar":"KJFK 092051Z 21010KT 10SM FEW020 BKN042 BKN060 OVC250 13/12 A2986 RMK AO2 PK WND 19027/1953 RAB02E12 SLP112 P0000 60005 T01330117 58000 $","updated":"2026-05-09T20:55:23Z"}
