{"icao":"LPFL","metar":"LPFL 192100Z 02007KT 350V050 9999 FEW018 BKN026 16/11 Q1030","updated":"2025-11-19T23:17:27Z"}
