{"icao":"KLAX","metar":"KLAX 220853Z 00000KT 10SM FEW120 14/07 A2997 RMK AO2 SLP147 T01440072 58006 $","updated":"2025-11-22T09:17:37Z"}
