{"icao":"LPMA","metar":"LPMA 211900Z 03008KT 350V050 9999 BKN013 23/19 Q1020","updated":"2025-10-21T19:15:19Z"}
