{"icao":"KORD","metar":"KORD 171851Z 18019G31KT 10SM FEW045 BKN200 BKN250 29/17 A2980 RMK AO2 PK WND 16031/1849 SLP084 T02890167","updated":"2026-05-17T19:06:47Z"}
