{"icao":"LPLA","metar":"LPLA 291900Z 27007KT 200V320 9999 FEW018 18/12 Q1012","updated":"2026-01-29T19:29:22Z"}
