{"icao":"LPAR","metar":"LPAR 131000Z 32013G24KT 280V340 9999 SCT025 14/08 Q1022","updated":"2026-04-13T10:43:52Z"}
