{"icao":"LPPS","metar":"LPPS 171830Z 33003KT 9999 FEW018 16/12 Q1026","updated":"2026-02-17T18:56:36Z"}
