{"icao":"LPPT","metar":"LPPT 221900Z 24017KT 2000 -RADZ BR FEW002 BKN004 15/15 Q1003","updated":"2026-01-22T19:23:48Z"}
