{"icao":"KORD","metar":"KORD 300451Z 31003KT 10SM SCT095 M13/M20 A3034 RMK AO2 SLP289 T11331200","updated":"2026-01-30T05:44:39Z"}
