{"icao":"LPMT","metar":"LPMT 242000Z 29005KT 260V340 9999 FEW008 BKN018 16/15 Q1017","updated":"2025-11-24T20:21:42Z"}
