{"icao":"LPBJ","metar":"LPBJ 051600Z VRB03KT CAVOK 28/15 Q1018","updated":"2025-10-05T16:18:42Z"}
