{"icao":"KORD","metar":"KORD 160551Z 04006KT 10SM OVC042 14/09 A3020 RMK AO2 SLP226 T01440094 10156 20144 401610128 56007 $","updated":"2025-10-16T06:27:19Z"}
