{"icao":"KJFK","metar":"KJFK 251251Z 23008KT 10SM FEW035 BKN150 OVC220 08/05 A3028 RMK AO2 SLP254 T00830050","updated":"2025-11-25T13:33:18Z"}
