{"icao":"KORD","metar":"KORD 200051Z 26008KT 10SM CLR 12/00 A2985 RMK AO2 SLP108 T01170000 $","updated":"2025-10-20T01:25:59Z"}
