{"icao":"KJFK","metar":"KJFK 211809Z 24011KT 10SM SCT026 BKN035 BKN220 11/05 A3001 RMK AO2 T01060050","updated":"2025-11-21T18:25:47Z"}
