{"icao":"LPPD","metar":"LPPD 110200Z 35010KT 320V020 9999 SCT018 13/08 Q1031","updated":"2026-04-11T02:07:32Z"}
