{"icao":"LPPD","metar":"LPPD 230700Z 25004KT 0100 R30/0150N FG VV001 17/17 Q1023","updated":"2026-05-23T07:30:06Z"}
