{"icao":"LPFR","metar":"LPFR 260000Z 25007KT 9999 SCT008 21/19 Q1019","updated":"2026-06-26T00:06:59Z"}
