{"icao":"LPMR","metar":"LPMR 231600Z 33007KT 260V020 9999 FEW012 21/16 Q1022","updated":"2026-05-23T16:07:16Z"}
