{"icao":"LPMA","metar":"LPMA 172200Z VRB02KT 9999 SCT015 22/20 Q1014","updated":"2025-10-17T22:16:10Z"}
