{"icao":"LPPS","metar":"LPPS 292100Z 28013KT 9999 FEW012 18/17 Q1023","updated":"2026-01-29T21:26:04Z"}
