{"icao":"KJFK","metar":"KJFK 111707Z 11013G21KT 10SM BKN024 BKN034 BKN046 OVC130 18/14 A3020 RMK AO2 T01830139","updated":"2025-10-11T17:13:27Z"}
