{"icao":"LPMA","metar":"LPMA 241300Z 35007KT 280V040 9999 FEW015 SCT030 23/13 Q1020","updated":"2025-09-24T13:27:09Z"}
