{"icao":"LPMR","metar":"LPMR 111000Z 36005KT 320V040 CAVOK 27/12 Q1019","updated":"2026-06-11T10:20:21Z"}
