{"icao":"KLAX","metar":"KLAX 120853Z 14007KT 10SM FEW018 SCT024 BKN030 16/12 A2996 RMK AO2 SLP143 60000 T01610122 58009 $","updated":"2026-04-12T09:43:20Z"}
