{"icao":"LPHR","metar":"LPHR 171100Z 23019KT 4000 -DZ BR SCT003 BKN006 19/18 Q1019","updated":"2025-12-17T11:19:19Z"}
