{"icao":"LPPD","metar":"LPPD 182300Z 13007KT 9999 SCT012 BKN030 14/13 Q1027","updated":"2026-02-18T23:28:26Z"}
