{"icao":"LPHR","metar":"LPHR 101600Z 23028KT 5000 -RA BR SCT006 BKN009 20/19 Q1010","updated":"2025-12-10T16:26:55Z"}
