{"icao":"LPLA","metar":"LPLA 271002Z 08011G22KT 020V130 7000 -SHRA FEW005 SCT014 BKN018 16/14 Q1020","updated":"2025-10-27T10:21:22Z"}
