{"icao":"LPPR","metar":"LPPR 210530Z VRB02KT CAVOK 07/05 Q1029","updated":"2026-02-21T05:40:08Z"}
