{"icao":"LPFR","metar":"LPFR 230800Z 02008KT 330V040 CAVOK 22/02 Q1015","updated":"2025-09-23T08:22:48Z"}
