{"icao":"KORD","metar":"KORD 131051Z 21013G20KT 10SM BKN110 OVC200 03/M02 A2973 RMK AO2 SLP074 T00331017 $","updated":"2026-01-13T11:19:44Z"}
