{"icao":"LPFL","metar":"LPFL 070900Z 25004KT 220V280 9999 FEW020 FEW022TCU 22/16 Q1019","updated":"2025-10-07T09:19:16Z"}
