{"icao":"LPBJ","metar":"LPBJ 230600Z 04008KT CAVOK 14/02 Q1016","updated":"2025-09-23T06:26:56Z"}
