{"icao":"LPLA","metar":"LPLA 201900Z 07005KT 040V110 9999 FEW025 20/10 Q1029","updated":"2025-09-20T19:11:23Z"}
