{"icao":"LPPT","metar":"LPPT 290100Z 32013KT 9999 FEW010 17/15 Q1016","updated":"2025-09-29T01:20:09Z"}
