{"icao":"KJFK","metar":"KJFK 021651Z 01006KT 10SM FEW055 BKN250 18/04 A3048 RMK AO2 SLP321 T01780044","updated":"2025-10-02T17:13:01Z"}
