{"icao":"LPFR","metar":"LPFR 200900Z 30004KT 260V340 CAVOK 12/08 Q1019","updated":"2025-11-20T09:19:35Z"}
