{"icao":"LPBJ","metar":"LPBJ 262000Z 14003KT CAVOK 20/15 Q1019","updated":"2025-10-26T20:19:00Z"}
