{"icao":"LPCS","metar":"LPCS 160800Z 03004KT CAVOK 21/10 Q1015","updated":"2025-10-16T08:25:20Z"}
