{"icao":"LPST","metar":"LPST 251400Z 01013KT 340V040 9999 FEW018 15/08 Q1023","updated":"2025-11-25T14:18:51Z"}
