{"icao":"LPMR","metar":"LPMR 120500Z 16008KT 9000 BKN020 BKN028 12/11 Q1020","updated":"2026-01-12T05:28:23Z"}
