{"icao":"KJFK","metar":"KJFK 211851Z 23010KT 10SM FEW027 SCT035 OVC250 11/05 A2999 RMK AO2 SLP155 T01060050","updated":"2025-11-21T19:15:41Z"}
