{"icao":"LPMA","metar":"LPMA 151330Z 17005KT 070V240 9999 FEW015 18/11 Q1025","updated":"2026-01-15T13:38:46Z"}
