{"icao":"LPFL","metar":"LPFL 172100Z 32007KT 280V010 9999 FEW010 17/14 Q1026","updated":"2025-11-18T06:28:08Z"}
