{"icao":"LPFR","metar":"LPFR 251600Z 21005KT 190V250 CAVOK 18/11 Q1017","updated":"2026-03-25T16:14:05Z"}
