{"icao":"KORD","metar":"KORD 161415Z 22012G19KT 1SM R10L/5000V6000FT -SN BR FEW011 OVC016 M03/M04 A2950 RMK AO2 P0001 T10281044 $","updated":"2026-01-16T14:22:12Z"}
