{"icao":"LPMT","metar":"LPMT 242200Z 24007KT 200V290 9999 SCT030 12/08 Q1017","updated":"2026-01-24T22:18:39Z"}
