{"icao":"LPPD","metar":"LPPD 280500Z 34015KT 9999 SCT017 FEW020TCU SCT030 17/14 Q1014","updated":"2025-10-28T05:18:38Z"}
