{"icao":"KJFK","metar":"KJFK 250851Z 16006KT 6SM RA BR OVC005 22/21 A2996 RMK AO2 RAB50 SLP145 P0000 60000 T02220211 56021 $","updated":"2025-09-25T09:19:16Z"}
