{"icao":"LPFL","metar":"LPFL 211230Z 16006KT 110V180 9999 FEW030 16/10 Q1029","updated":"2025-12-21T12:36:59Z"}
