{"icao":"LPFL","metar":"LPFL 282000Z 30005KT 240V360 9999 FEW021 17/11 Q1023","updated":"2025-10-28T20:21:05Z"}
