{"icao":"LPFR","metar":"LPFR 121100Z 10006KT 060V130 9999 FEW002 SCT022 11/11 Q1023","updated":"2026-01-12T11:19:28Z"}
