{"icao":"KJFK","metar":"KJFK 032051Z 32013G28KT 10SM SCT080 16/M06 A2983 RMK PK WND 320029/2028 SLP101 T01561056 58009 ","updated":"2026-05-03T21:40:23Z"}
