{"icao":"LPPT","metar":"LPPT 301030Z 04014KT 010V070 CAVOK 14/01 Q1031","updated":"2026-03-30T11:00:28Z"}
