{"icao":"LPMA","metar":"LPMA 280300Z 35006KT 9999 BKN015 19/11 Q1022","updated":"2025-11-28T03:10:10Z"}
