{"icao":"LPST","metar":"LPST 061300Z 35018G31KT 320V020 9999 BKN025 11/05 Q1019","updated":"2026-03-06T13:54:26Z"}
