{"icao":"LPPS","metar":"LPPS 051130Z 08019KT 4000 RA BR SCT004 BKN010 FEW012CB 15/14 Q1018","updated":"2026-05-05T12:00:21Z"}
