{"icao":"LPMA","metar":"LPMA 170600Z 32005KT 240V010 9999 SCT015 18/13 Q1023","updated":"2025-11-17T06:29:51Z"}
