{"icao":"LPBJ","metar":"LPBJ 032100Z 16016KT 5000 -DZRA BKN006 OVC014 09/09 Q0999","updated":"2026-02-03T21:33:00Z"}
