{"icao":"LPAZ","metar":"LPAZ 240900Z 03011KT 9999 FEW018 19/15 Q1022","updated":"2025-09-24T09:18:52Z"}
