{"icao":"LPPR","metar":"LPPR 251600Z 01004KT 340V050 9999 FEW030 16/13 Q1015","updated":"2025-10-25T16:19:43Z"}
