{"icao":"LPPS","metar":"LPPS 220100Z 07016KT 030V120 9999 FEW014 SCT030 18/10 Q1026","updated":"2025-11-22T01:20:49Z"}
