{"icao":"KJFK","metar":"KJFK 262151Z 03007KT 10SM FEW075 SCT140 SCT250 13/M01 A3035 RMK AO2 SLP277 T01281006","updated":"2025-10-26T22:16:38Z"}
