{"icao":"KORD","metar":"KORD 311851Z 23007KT 10SM FEW039 SCT110 BKN170 OVC250 19/16 A2975 RMK AO2 RAB19E31 SLP072 P0000 T01890156","updated":"2026-03-31T19:02:04Z"}
