{"icao":"KJFK","metar":"KJFK 301251Z 09019G34KT 5SM -RA BR OVC013 14/12 A2986 RMK AO2 PK WND 09034/1249 SLP112 P0001 T01390122","updated":"2025-10-30T13:29:35Z"}
