{"icao":"LPPT","metar":"LPPT 280530Z 36006KT CAVOK 12/04 Q1019","updated":"2026-03-28T05:55:33Z"}
