{"icao":"LPPR","metar":"LPPR 280330Z 12012KT 9000 RA FEW018 BKN040 09/07 Q0991","updated":"2026-01-28T03:43:48Z"}
