{"icao":"LPFR","metar":"LPFR 171130Z 21004KT 180V260 9999 FEW012 BKN014 14/10 Q1028","updated":"2026-02-17T11:38:01Z"}
