{"icao":"LPMR","metar":"LPMR 071900Z 32004KT 6000 FEW030 17/15 Q1023","updated":"2025-10-07T19:13:42Z"}
