{"icao":"LPPT","metar":"LPPT 041930Z 34011KT 9999 SCT028 18/12 Q1018","updated":"2026-06-04T20:03:26Z"}
