{"icao":"LPFL","metar":"LPFL 231100Z 18008KT 140V230 9999 VCSH FEW023TCU 20/15 Q1013","updated":"2025-10-23T11:15:42Z"}
