{"icao":"KORD","metar":"KORD 192051Z 08009KT 10SM BKN250 13/01 A3005 RMK AO2 SLP178 T01280011 56010 $","updated":"2026-03-19T21:34:09Z"}
