{"icao":"KJFK","metar":"KJFK 300651Z 14004KT 10SM SCT042 BKN120 BKN150 BKN190 BKN250 03/M06 A3048 RMK AO2 SLP320 T00281056 $","updated":"2025-11-30T07:16:55Z"}
