{"icao":"LPFL","metar":"LPFL 121700Z 19013G23KT 150V220 9999 FEW020 SCT030 17/10 Q1028","updated":"2025-12-12T17:18:26Z"}
