{"icao":"KJFK","metar":"KJFK 231851Z 33021G34KT 2SM R04R/4500VP6000FT -SN BLSN SCT009 OVC014 M01/M02 A2954 RMK AO2 PK WND 33034/1846 SLP004 P0000 T10061017 $","updated":"2026-02-23T19:18:43Z"}
