{"icao":"LPLA","metar":"LPLA 270800Z 32005KT 9999 BKN030 13/07 Q1035","updated":"2026-02-27T08:38:51Z"}
