{"icao":"LPPD","metar":"LPPD 271230Z 22009KT 200V260 8000 -SHRA SCT005 BKN014 17/16 Q1023","updated":"2025-11-27T12:39:53Z"}
