{"icao":"LPBJ","metar":"LPBJ 130400Z 24015KT 3000 -DZRA OVC005 12/12 Q1004 REDZRA","updated":"2026-02-13T04:51:22Z"}
