{"icao":"LPPR","metar":"LPPR 030900Z 12009KT CAVOK 13/09 Q1023","updated":"2025-11-03T09:22:12Z"}
