{"icao":"LPOV","metar":"LPOV 141900Z 35006KT 7000 NSC 16/15 Q1017","updated":"2025-10-14T19:13:50Z"}
