{"icao":"LPMT","metar":"LPMT 252000Z 34003KT 310V010 CAVOK 23/14 Q1021","updated":"2026-05-25T20:21:33Z"}
