{"icao":"LPMT","metar":"LPMT 100800Z 23013KT 5000 -RADZ BR BKN003 15/15 Q1016","updated":"2026-02-10T08:54:15Z"}
