{"icao":"LPPT","metar":"LPPT 031230Z VRB03KT CAVOK 26/15 Q1023","updated":"2025-10-03T12:35:09Z"}
