{"icao":"LPHR","metar":"LPHR 281100Z 25025KT 8000 SCT012 18/16 Q1005","updated":"2026-01-28T11:21:59Z"}
