{"icao":"LPMA","metar":"LPMA 280530Z 34007KT 290V010 9999 SCT015 FEW018CB 16/09 Q1015","updated":"2026-04-28T05:58:12Z"}
