{"icao":"KORD","metar":"KORD 191551Z 07006KT 10SM FEW020 FEW170 BKN250 12/M08 A2964 RMK AO2 SLP038 T01171078 $","updated":"2026-02-19T16:51:04Z"}
