{"icao":"KORD","metar":"KORD 071951Z 06011KT 10SM SCT080 BKN240 OVC300 26/13 A2994 RMK AO2 SLP134 T02610133 $","updated":"2026-06-07T20:10:11Z"}
