{"icao":"LPOV","metar":"LPOV 200800Z 06002KT 5000 -RA BR FEW028 BKN040 13/13 Q1009","updated":"2026-03-20T08:38:42Z"}
