{"icao":"LPFL","metar":"LPFL 041330Z 20019G34KT 160V240 9999 VCSH FEW010 BKN015 20/16 Q1019","updated":"2025-12-04T13:35:49Z"}
