{"icao":"LPCS","metar":"LPCS 201000Z 36015KT 9999 FEW018 13/07 Q1021","updated":"2025-11-20T10:20:09Z"}
