{"icao":"KORD","metar":"KORD 301351Z 34007KT 10SM SCT030 SCT250 08/05 A2992 RMK AO2 SLP134 T00780050","updated":"2025-10-30T14:19:02Z"}
