{"icao":"LPPS","metar":"LPPS 221400Z 13007KT 110V170 9999 FEW014 BKN030 24/21 Q1020","updated":"2025-10-22T14:20:05Z"}
