{"icao":"LPBJ","metar":"LPBJ 141800Z 30016KT 5000 -DZ PRFG FEW006 OVC015 13/12 Q1016","updated":"2026-03-14T18:36:48Z"}
