{"icao":"LPPT","metar":"LPPT 111530Z 24016KT 210V270 2500 -DZRA BR FEW002 BKN004 15/15 Q1016 WS R20","updated":"2026-02-11T15:59:51Z"}
