{"icao":"LPCS","metar":"LPCS 220900Z 28003KT 9999 FEW020 SCT045 12/10 Q1010","updated":"2026-01-22T09:31:13Z"}
