{"icao":"KORD","metar":"KORD 230651Z 19004KT 10SM BKN050 BKN110 OVC250 21/17 A2986 RMK AO2 SLP107 FRQ LTGIC DSNT NW CB DSNT NW MOV SE T02110172","updated":"2025-09-23T07:17:44Z"}
