{"icao":"KORD","metar":"KORD 260751Z 35005KT 10SM FEW110 M06/M14 A2988 RMK AO2 SLP127 T10611139","updated":"2026-02-26T08:47:44Z"}
