{"icao":"LPPS","metar":"LPPS 191030Z VRB11KT 9999 FEW012 FEW016TCU 20/12 Q1012","updated":"2026-04-19T10:37:37Z"}
