{"icao":"KJFK","metar":"KJFK 151651Z 24007KT 10SM SCT190 BKN250 08/M02 A2980 RMK AO2 SLP091 T00831017","updated":"2025-11-15T17:13:48Z"}
