{"icao":"LPLA","metar":"LPLA 172300Z 36008KT 330V030 8000 -DZ BKN007 BKN014 15/13 Q1018","updated":"2026-04-17T23:39:42Z"}
