{"icao":"KJFK","metar":"KJFK 121451Z 26013G19KT 10SM FEW047 OVC070 06/M01 A2983 RMK AO2 SLP099 T00611011 58014 $","updated":"2025-11-12T15:20:52Z"}
