{"icao":"KJFK","metar":"KJFK 220551Z 20013KT 10SM FEW0050 OVC080 04/M04 A3011 RMK SLP194 T00391039 10039 20028 58034 $ ","updated":"2026-01-22T06:34:07Z"}
