{"icao":"LPMA","metar":"LPMA 070100Z 02007KT 9999 BKN013 21/19 Q1023","updated":"2025-10-07T01:17:43Z"}
