{"icao":"LPHR","metar":"LPHR 081500Z 24024KT 8000 FEW006 BKN009 18/17 Q1010","updated":"2026-02-08T15:25:00Z"}
