{"icao":"LPAZ","metar":"LPAZ 010700Z 16007KT 7000 -DZ SCT003 BKN010 21/20 Q1022","updated":"2025-10-01T07:17:59Z"}
