{"icao":"LPBJ","metar":"LPBJ 061900Z 31014KT CAVOK 26/15 Q1017","updated":"2026-06-06T19:20:13Z"}
