{"icao":"LPBJ","metar":"LPBJ 260800Z 07006KT CAVOK 13/08 Q1015","updated":"2026-03-26T08:54:18Z"}
