{"icao":"LPAZ","metar":"LPAZ 210400Z 08008KT 040V100 9999 FEW020 BKN036 16/10 Q1029","updated":"2025-11-21T04:21:59Z"}
