{"icao":"LPMR","metar":"LPMR 092100Z 34005KT 9999 FEW030 11/07 Q1029","updated":"2026-01-09T21:19:53Z"}
