{"icao":"KLAX","metar":"KLAX 271853Z 24013G22KT 10SM FEW036 SCT050 18/09 A2986 RMK AO2 SLP109 T01830094 $","updated":"2026-05-27T19:23:24Z"}
