{"icao":"LPFR","metar":"LPFR 191330Z 35014KT CAVOK 16/05 Q1019","updated":"2026-01-19T13:43:46Z"}
