{"icao":"KLAX","metar":"KLAX 171553Z 10007KT 10SM FEW015 SCT029 BKN140 BKN180 17/12 A3000 RMK AO2 SLP156 T01720117","updated":"2026-04-17T15:59:45Z"}
