{"icao":"LPAR","metar":"LPAR 101000Z 25009KT 3000 -DZRA BR BKN006 BKN012 16/16 Q1016","updated":"2026-02-10T11:04:11Z"}
