{"icao":"LPMT","metar":"LPMT 031400Z 29004KT 240V320 CAVOK 18/12 Q1021","updated":"2025-11-03T14:18:41Z"}
