{"icao":"LPMR","metar":"LPMR 161500Z 33009KT 9999 SCT022 FEW025CB BKN040 10/07 Q1013","updated":"2026-01-16T15:22:31Z"}
