{"icao":"LPST","metar":"LPST 201500Z 09009KT 9999 FEW011 SCT014 FEW018CB BKN030 15/13 Q1006","updated":"2026-03-20T15:41:04Z"}
