{"icao":"LPAR","metar":"LPAR 111300Z 21014KT 9999 SCT030 21/15 Q1011","updated":"2025-11-11T13:29:54Z"}
