{"icao":"LPMA","metar":"LPMA 170800Z 03012KT 9999 FEW015 21/18 Q1020","updated":"2025-09-17T08:22:56Z"}
