{"icao":"LPBJ","metar":"LPBJ 211900Z 24008KT CAVOK 19/12 Q1007","updated":"2026-04-21T20:01:45Z"}
