{"icao":"LPMA","metar":"LPMA 201300Z 06006KT 020V080 9999 FEW015 26/22 Q1021","updated":"2025-09-20T13:21:08Z"}
