{"icao":"LPBJ","metar":"LPBJ 190100Z 09001KT 050V140 CAVOK 18/12 Q1017","updated":"2025-10-19T01:28:43Z"}
