{"icao":"LPMA","metar":"LPMA 270930Z 36029G40KT 9999 FEW015 17/11 Q1025","updated":"2026-02-27T09:39:46Z"}
