{"icao":"LPOV","metar":"LPOV 210600Z VRB01KT CAVOK 02/02 Q1027","updated":"2025-11-21T06:29:08Z"}
