{"icao":"LPOV","metar":"LPOV 261400Z 31006KT 290V350 CAVOK 15/11 Q1024","updated":"2026-02-26T14:44:48Z"}
