{"icao":"LPAZ","metar":"LPAZ 032030Z 10004KT 9999 FEW024 OVC038 15/08 Q1023","updated":"2026-04-03T20:35:22Z"}
