{"icao":"LPPR","metar":"LPPR 281430Z 32014KT 290V360 9999 FEW025 22/16 Q1023","updated":"2026-06-28T14:46:54Z"}
