{"icao":"LPPS","metar":"LPPS 160900Z 06010KT 020V090 9999 SCT015 SCT030 16/11 Q1021","updated":"2026-04-16T09:18:00Z"}
