{"icao":"LPFR","metar":"LPFR 021700Z 21003KT 150V260 9999 FEW030 24/17 Q1019","updated":"2025-10-02T17:12:58Z"}
