{"icao":"KJFK","metar":"KJFK 070551Z 23007KT 10SM SCT250 18/16 A3022 RMK AO2 SLP232 T01830161 10200 20183 56007 $","updated":"2025-10-07T06:27:01Z"}
