{"icao":"LPPT","metar":"LPPT 170900Z 35007KT CAVOK 12/09 Q1022","updated":"2025-12-17T09:26:42Z"}
