{"icao":"LPLA","metar":"LPLA 151500Z 09006KT 060V120 9999 SCT012 BKN015 22/19 Q1026","updated":"2025-09-15T15:18:57Z"}
