{"icao":"LPPR","metar":"LPPR 041230Z 30008KT 260V330 9999 FEW022 SCT027 15/10 Q1020","updated":"2025-12-04T12:41:47Z"}
