{"icao":"LPAR","metar":"LPAR 141100Z 05014KT CAVOK 14/09 Q1020","updated":"2025-12-14T11:15:48Z"}
