{"icao":"LPBJ","metar":"LPBJ 092300Z 18009KT 9999 FEW030 13/12 Q1012","updated":"2026-05-09T23:45:54Z"}
