{"icao":"LPAZ","metar":"LPAZ 160800Z 13023KT 9999 SCT006 FEW020TCU BKN049 21/20 Q1002","updated":"2025-10-16T08:25:52Z"}
