{"icao":"KORD","metar":"KORD 140151Z 21006KT 10SM FEW250 07/M03 A3004 RMK AO2 SLP179 T00671028","updated":"2026-02-14T01:57:07Z"}
