{"icao":"LPCS","metar":"LPCS 212200Z 01009KT CAVOK 10/04 Q1029","updated":"2025-11-21T22:17:49Z"}
