{"icao":"KLAX","metar":"KLAX 301253Z 00000KT 10SM CLR 14/M01 A3020 RMK AO2 SLP223 T01391011 $","updated":"2026-01-30T13:55:05Z"}
