{"icao":"KJFK","metar":"KJFK 162151Z 19020KT 10SM FEW060 BKN250 21/12 A2983 RMK AO2 PK WND 20027/2116 SLP100 T02060117","updated":"2026-06-16T22:10:01Z"}
