{"icao":"LPPR","metar":"LPPR 170400Z VRB02KT 8000 FEW002 FEW017CB BKN020 13/12 Q1011","updated":"2025-11-17T04:25:06Z"}
