{"icao":"LPST","metar":"LPST 201500Z 26010KT 9999 SCT018 SCT032 13/09 Q1018","updated":"2026-01-20T15:29:17Z"}
