{"icao":"LPPT","metar":"LPPT 262000Z 32008KT CAVOK 16/09 Q1015","updated":"2026-03-26T20:34:27Z"}
