{"icao":"LPAZ","metar":"LPAZ 151230Z 04010KT 360V090 9999 FEW019 BKN040 18/12 Q1028","updated":"2026-03-15T12:51:20Z"}
