{"icao":"KORD","metar":"KORD 111351Z 30009KT 10SM CLR M03/M07 A3020 RMK AO2 SLP235 T10281067","updated":"2026-02-11T14:51:59Z"}
