{"icao":"KORD","metar":"KORD 061851Z 08013KT 10SM BKN047 BKN250 29/20 A2985 RMK AO2 SLP104 T02890200 $","updated":"2026-06-06T19:20:43Z"}
