{"icao":"KJFK","metar":"KJFK 140051Z 30012G23KT 10SM FEW060 08/M03 A2999 RMK AO2 SLP155 T00831028","updated":"2025-11-14T01:24:32Z"}
