{"icao":"KORD","metar":"KORD 221151Z 02010KT 10SM FEW013 FEW033 16/13 A2994 RMK AO2 SLP136 60001 70071 T01560133 10156 20144 53017","updated":"2026-06-22T12:48:54Z"}
