{"icao":"LPMT","metar":"LPMT 141200Z 34004KT 240V030 9999 FEW020 SCT040 15/11 Q1020","updated":"2026-01-14T12:43:14Z"}
