{"icao":"KORD","metar":"KORD 220051Z 21004KT 10SM FEW055 BKN075 BKN200 BKN250 22/15 A2985 RMK AO2 SLP106 T02220150 $","updated":"2025-09-22T01:24:11Z"}
