{"icao":"LPLA","metar":"LPLA 191800Z 35016KT 7000 -DZ SCT004 BKN015 14/13 Q1016","updated":"2026-04-19T18:49:54Z"}
