{"icao":"KORD","metar":"KORD 190951Z 05008KT 10SM OVC014 06/03 A3015 RMK AO2 SLP216 T00560028 $","updated":"2025-11-19T10:21:08Z"}
