{"icao":"LPMR","metar":"LPMR 011800Z 14016G26KT 9999 SCT012 SCT045 12/10 Q1006","updated":"2026-01-01T18:28:46Z"}
