{"icao":"LPMT","metar":"LPMT 091000Z 03013KT 9999 FEW025 15/10 Q1017","updated":"2026-04-09T10:57:15Z"}
