{"icao":"KORD","metar":"KORD 310951Z 13005KT 10SM BKN250 13/05 A3012 RMK AO2 SLP198 T01330050 $","updated":"2026-05-31T10:14:42Z"}
