{"icao":"LPPR","metar":"LPPR 150730Z 28005KT 230V330 9999 SCT012 BKN033 11/10 Q1029","updated":"2026-02-15T07:36:58Z"}
