{"icao":"LPPT","metar":"LPPT 121830Z 31011KT 9999 FEW020 15/11 Q1025","updated":"2026-03-12T18:52:22Z"}
