{"icao":"KORD","metar":"KORD 101751Z 21013G22KT 10SM SCT035 BKN060 BKN075 BKN250 18/07 A3012 RMK AO2 SLP201 60001 T01780072 10183 20106 58024","updated":"2025-10-10T18:25:26Z"}
