{"icao":"LPFR","metar":"LPFR 180700Z 07010G20KT CAVOK 20/16 Q1016","updated":"2025-10-18T07:15:41Z"}
