{"icao":"LPLA","metar":"LPLA 151600Z 24021G34KT 200V270 9999 FEW020 19/10 Q1025","updated":"2026-02-15T16:29:01Z"}
