{"icao":"KJFK","metar":"KJFK 240951Z 29009KT 10SM SCT075 07/M01 A3008 RMK AO2 SLP186 T00671011","updated":"2025-11-24T10:21:58Z"}
