{"icao":"LPMA","metar":"LPMA 101300Z 09003KT 360V130 9999 FEW015 21/14 Q1025","updated":"2026-02-10T13:11:08Z"}
