{"icao":"LPMA","metar":"LPMA 071230Z 24011KT 210V270 9999 SCT015 20/13 Q1021","updated":"2026-02-07T12:45:40Z"}
