{"icao":"KJFK","metar":"KJFK 192351Z 29017G27KT 10SM FEW070 BKN095 BKN120 BKN250 27/07 A2969 RMK AO2 PK WND 31027/2344 SLP054 T02720072 10289 20256 53015 $","updated":"2026-06-20T00:08:50Z"}
