{"icao":"KLAX","metar":"KLAX 201853Z 25008KT 10SM FEW025 SCT180 21/13 A3001 RMK AO2 SLP162 T02060128 $","updated":"2026-04-20T19:08:30Z"}
