{"icao":"LPCS","metar":"LPCS 091400Z 33010KT 280V360 9999 FEW018 15/08 Q1028","updated":"2026-01-09T14:23:16Z"}
