{"icao":"LPHR","metar":"LPHR 020930Z 03007KT 010V070 9999 FEW036 12/04 Q1032","updated":"2026-03-02T09:48:16Z"}
