{"icao":"LPLA","metar":"LPLA 030200Z 26008KT 200V290 9999 FEW018 SCT023 23/19 Q1020","updated":"2025-10-03T02:55:15Z"}
