{"icao":"LPCS","metar":"LPCS 021830Z 25010KT 220V280 9999 FEW014 FEW022TCU 11/08 Q1002","updated":"2026-02-02T18:41:52Z"}
