{"icao":"LPMA","metar":"LPMA 301100Z 12004KT 100V160 9999 SCT015 22/14 Q1018","updated":"2025-10-30T11:15:32Z"}
