{"icao":"LPPR","metar":"LPPR 240330Z 00000KT 8000 FEW030CB 17/16 Q1020","updated":"2026-05-24T03:38:27Z"}
