{"icao":"KLAX","metar":"KLAX 312053Z 23008KT 10SM FEW022 FEW160 21/15 A2997 RMK AO2 SLP147 T02110150 58014 $","updated":"2025-10-31T21:15:23Z"}
