{"icao":"LPFR","metar":"LPFR 300230Z 02005KT CAVOK 13/10 Q1015","updated":"2026-04-30T02:48:32Z"}
