{"icao":"LPPS","metar":"LPPS 281200Z 02013KT 350V050 9999 FEW015 BKN030 23/14 Q1025","updated":"2025-09-28T12:32:42Z"}
