{"icao":"LPLA","metar":"LPLA 131600Z 23007KT 9999 FEW020 19/14 Q1026 WIND RWY15 22010KT PK 23020/13 RH72 SCT090 BLU","updated":"2025-12-13T16:22:15Z"}
