{"icao":"KJFK","metar":"KJFK 180951Z 04004KT 10SM BKN250 00/M02 A3030 RMK SLP259 T00001022 ","updated":"2025-12-18T10:21:56Z"}
