{"icao":"LPPS","metar":"LPPS 101430Z 27013KT 230V300 9999 SCT015 19/10 Q1016","updated":"2026-05-10T14:51:17Z"}
