{"icao":"LPPT","metar":"LPPT 081700Z 20013KT 2000 DZ BR FEW002 BKN004 12/11 Q1013","updated":"2026-02-08T17:25:28Z"}
