{"icao":"LPMA","metar":"LPMA 292300Z 33007KT 260V010 9999 FEW015 20/14 Q1018","updated":"2025-10-29T23:16:52Z"}
