{"icao":"LPLA","metar":"LPLA 230900Z 31027KT 9000 -SHRA BKN030 12/07 Q1022","updated":"2026-01-23T09:28:42Z"}
