{"icao":"LPPR","metar":"LPPR 211130Z 25006KT 210V300 9999 VCFG SCT007 20/17 Q1018","updated":"2026-06-21T11:45:55Z"}
