{"icao":"LPPT","metar":"LPPT 271800Z 34009KT CAVOK 13/07 Q1023","updated":"2025-11-27T18:26:16Z"}
