{"icao":"LPST","metar":"LPST 041200Z 29008KT 1500 -RADZ BR SCT002 BKN011 13/13 Q0998 RERA","updated":"2026-02-04T12:56:47Z"}
