{"icao":"KJFK","metar":"KJFK 190451Z 34012G23KT 10SM -SN SCT014 BKN040 OVC060 00/M02 A2983 RMK AO2 SNE15B51 SLP102 P0000 T00001022 400111017 $","updated":"2026-01-19T05:30:25Z"}
