{"icao":"LPPS","metar":"LPPS 080530Z 04012KT 010V070 9999 FEW015 BKN030 13/09 Q1024","updated":"2026-03-08T05:41:58Z"}
