{"icao":"LPPS","metar":"LPPS 300900Z 27006KT 240V300 9999 FEW015 22/15 Q1018","updated":"2025-10-30T09:20:22Z"}
