{"icao":"KJFK","metar":"KJFK 290851Z 32012KT 10SM FEW250 M11/M17 A3005 RMK SLP175 T11061172 58004 $ ","updated":"2026-01-29T09:41:05Z"}
