{"icao":"LPPR","metar":"LPPR 131330Z 31014G24KT 280V340 9999 -SHRA FEW020CB BKN027 13/09 Q1003","updated":"2026-02-13T14:03:03Z"}
