{"icao":"LPOV","metar":"LPOV 011200Z 31003KT CAVOK 24/14 Q1021","updated":"2025-10-01T12:38:11Z"}
