{"icao":"LPPT","metar":"LPPT 061230Z 27012KT 250V310 9999 FEW030 FEW035TCU 14/09 Q1005","updated":"2026-02-06T12:56:48Z"}
