{"icao":"LPPR","metar":"LPPR 240500Z 10012KT CAVOK 17/04 Q1018","updated":"2025-09-24T05:17:14Z"}
