{"icao":"LPMT","metar":"LPMT 221200Z 23010KT 7000 FEW025 BKN045 14/10 Q1009","updated":"2026-01-22T12:47:07Z"}
