{"icao":"LPFR","metar":"LPFR 312200Z 21008KT 9999 FEW025 21/18 Q1017","updated":"2025-10-31T22:16:33Z"}
