{"icao":"LPPS","metar":"LPPS 201900Z 03010KT 9999 FEW015 18/14 Q1020","updated":"2026-05-20T19:23:01Z"}
