{"icao":"LPPR","metar":"LPPR 210500Z 36004KT CAVOK 11/10 Q1021","updated":"2025-09-21T05:16:23Z"}
