{"icao":"LPPR","metar":"LPPR 291430Z 33013KT CAVOK 26/16 Q1021","updated":"2026-06-29T14:46:34Z"}
