{"icao":"KORD","metar":"KORD 160851Z 32015G24KT 10SM CLR 06/M09 A2981 RMK AO2 SLP095 T00611094 53022 $","updated":"2025-11-16T09:17:40Z"}
