{"icao":"LPPR","metar":"LPPR 060900Z 11013KT CAVOK 21/07 Q1020","updated":"2025-10-06T09:21:00Z"}
