{"icao":"LPLA","metar":"LPLA 121200Z 29006KT 220V300 CAVOK 15/08 Q1034","updated":"2025-12-12T12:40:56Z"}
