{"icao":"LPHR","metar":"LPHR 231300Z 18007KT 160V220 9999 FEW010 23/20 Q1015","updated":"2025-10-23T13:30:39Z"}
