{"icao":"LPAZ","metar":"LPAZ 301700Z 25023KT 9999 FEW006 SCT015 BKN038 16/14 Q1008 RESHRA","updated":"2026-04-30T17:19:12Z"}
