{"icao":"LPPD","metar":"LPPD 170230Z 20009KT 9999 FEW015 22/20 Q1021","updated":"2025-09-17T02:54:28Z"}
