{"icao":"LPOV","metar":"LPOV 171800Z 36004KT 9999 FEW020 SCT040 08/07 Q1009","updated":"2026-01-17T23:18:09Z"}
