{"icao":"KJFK","metar":"KJFK 040951Z 25012KT 10SM SCT250 02/M03 A3002 RMK AO2 SLP164 T00171033","updated":"2025-12-04T10:23:38Z"}
