{"icao":"LPPT","metar":"LPPT 120900Z 15007KT 130V190 9999 FEW003 SCT007 BKN034 12/12 Q1020","updated":"2026-01-12T09:31:02Z"}
