{"icao":"LPPS","metar":"LPPS 232130Z 13005KT 100V160 9999 SCT014 16/13 Q1022","updated":"2026-02-23T21:42:55Z"}
