{"icao":"LPLA","metar":"LPLA 250600Z 23010KT 200V270 9999 FEW020 19/14 Q1016","updated":"2025-09-25T06:27:16Z"}
