{"icao":"LPPT","metar":"LPPT 101600Z 24012KT 220V280 3500 -DZ BR BKN004 16/16 Q1016 REDZ","updated":"2026-02-10T16:08:40Z"}
