{"icao":"LPHR","metar":"LPHR 241400Z 17004KT 130V190 9999 FEW030 22/14 Q1023","updated":"2025-09-24T14:16:08Z"}
