{"icao":"LPBJ","metar":"LPBJ 070200Z 13011KT 9999 FEW020 15/11 Q1012","updated":"2026-04-07T02:13:54Z"}
