{"icao":"LPPR","metar":"LPPR 080300Z 00000KT 8000 OVC033 16/15 Q1022","updated":"2025-10-08T03:30:24Z"}
