{"icao":"LPAZ","metar":"LPAZ 272300Z 11006KT 9999 FEW020 BKN035 16/15 Q1023","updated":"2025-11-27T23:16:50Z"}
