{"icao":"LPMT","metar":"LPMT 252100Z 34010KT CAVOK 14/10 Q1017","updated":"2026-03-25T21:37:55Z"}
