{"icao":"LPPT","metar":"LPPT 290530Z 31010KT CAVOK 18/15 Q1021","updated":"2026-06-29T05:48:41Z"}
