{"icao":"LPOV","metar":"LPOV 171900Z 35014KT 9999 FEW016 15/10 Q1019","updated":"2026-05-17T19:06:44Z"}
