{"icao":"LPHR","metar":"LPHR 211700Z 01009G20KT 310V080 9999 FEW016 16/09 Q1017","updated":"2026-03-21T17:24:02Z"}
