{"icao":"LPBJ","metar":"LPBJ 131900Z 04008KT CAVOK 14/10 Q1019","updated":"2025-12-13T19:14:07Z"}
