{"icao":"LPFR","metar":"LPFR 091230Z 23008KT CAVOK 21/16 Q1019","updated":"2025-10-09T12:37:16Z"}
