{"icao":"KORD","metar":"KORD 060551Z 27005KT 10SM FEW250 06/M04 A3022 RMK AO2 SLP235 T00561039 10117 20056 401610056 51013","updated":"2025-11-06T06:28:01Z"}
