{"icao":"LPLA","metar":"LPLA 160600Z 24017G29KT 200V300 9999 FEW018 16/11 Q1023","updated":"2025-12-16T06:31:58Z"}
