{"icao":"LPFL","metar":"LPFL 041000Z 34010KT 310V010 3000 -RA FEW008 SCT011 BKN028 13/12 Q1023","updated":"2026-04-04T10:32:08Z"}
