{"icao":"LPPT","metar":"LPPT 221300Z 22006KT 160V330 9999 FEW038 20/10 Q1014","updated":"2026-04-22T13:24:27Z"}
