{"icao":"LPST","metar":"LPST 231000Z 14007KT CAVOK 17/10 Q1024","updated":"2026-02-23T10:49:44Z"}
