{"icao":"KLAX","metar":"KLAX 081653Z VRB03KT 8SM FEW009 OVC018 18/14 A2994 RMK AO2 SLP136 T01830139 $","updated":"2025-10-08T17:15:28Z"}
