{"icao":"KJFK","metar":"KJFK 140251Z 29009KT 10SM FEW065 BKN080 08/M02 A3001 RMK AO2 SLP162 T00831022 51009","updated":"2025-11-14T03:11:59Z"}
