{"icao":"LPMA","metar":"LPMA 282000Z 01015KT 330V030 9999 SCT015 15/07 Q1026","updated":"2026-02-28T20:24:28Z"}
