{"icao":"LPST","metar":"LPST 191600Z 32011KT CAVOK 23/15 Q1015","updated":"2026-06-22T00:10:19Z"}
