{"icao":"KLAX","metar":"KLAX 301653Z 00000KT 10SM FEW250 20/01 A3025 RMK AO2 SLP241 T02000006 $","updated":"2026-01-30T17:32:49Z"}
