{"icao":"LPMA","metar":"LPMA 171500Z 09005KT 030V120 9999 SCT013 25/21 Q1011","updated":"2025-10-17T15:18:16Z"}
