{"icao":"KORD","metar":"KORD 071004Z 01007KT 1/2SM R10L/P6000FT SN FZFG VV006 M02/M02 A2998 RMK AO2 P0002 T10171022","updated":"2025-12-07T10:17:37Z"}
