{"icao":"KORD","metar":"KORD 290651Z 10003KT 10SM CLR 18/14 A3020 RMK AO2 SLP222 T01830144 $","updated":"2025-09-29T07:18:35Z"}
