{"icao":"LPLA","metar":"LPLA 182300Z 00000KT 9999 BKN040 18/18 Q1018","updated":"2025-09-18T23:15:53Z"}
