{"icao":"LPPR","metar":"LPPR 260800Z 13005KT CAVOK 15/07 Q1019","updated":"2025-09-26T08:24:12Z"}
