{"icao":"KJFK","metar":"KJFK 182151Z 18016KT 10SM FEW060 FEW250 21/17 A3012 RMK AO2 SLP197 T02110167","updated":"2026-05-18T22:08:56Z"}
