{"icao":"LPMA","metar":"LPMA 270730Z 33005KT 250V010 9999 SCT016 SCT033 19/12 Q1020","updated":"2026-05-27T08:02:09Z"}
