{"icao":"KORD","metar":"KORD 020951Z 10012KT 5SM -RA BR OVC006 03/02 A2993 RMK AO2 RAE0855B18 SLP142 P0005 T00330022","updated":"2026-04-02T10:01:15Z"}
