{"icao":"LPGR","metar":"LPGR 011730Z 09008KT 9999 FEW011 BKN026 22/19 Q1031","updated":"2026-07-01T17:53:38Z"}
