{"icao":"LPMR","metar":"LPMR 022200Z VRB02KT CAVOK 11/10 Q1025","updated":"2025-11-02T22:15:23Z"}
