{"icao":"KORD","metar":"KORD 050951Z 27010G21KT 10SM SCT031 BKN049 04/M02 A3000 RMK AO2 SLP162 T00391017 $","updated":"2026-04-05T10:32:06Z"}
