{"icao":"KLAX","metar":"KLAX 151453Z 26014KT 3SM -RA BR FEW006 OVC018 16/14 A2982 RMK AO2 RAB04 SLP094 P0015 60015 T01560144 53004 $","updated":"2025-11-15T15:17:12Z"}
