{"icao":"LPBJ","metar":"LPBJ 030300Z 28006KT CAVOK 07/06 Q1019","updated":"2025-12-03T03:16:07Z"}
