{"icao":"KJFK","metar":"KJFK 290751Z 00000KT 10SM FEW250 01/M09 A3056 RMK AO2 SLP349 T00061094 $","updated":"2026-03-29T08:38:11Z"}
