{"icao":"KLAX","metar":"KLAX 141053Z 26007KT 10SM OVC016 20/17 A2986 RMK AO2 SLP110 T02000167 $","updated":"2025-09-14T11:11:43Z"}
