{"icao":"LPFR","metar":"LPFR 281600Z 04011KT 9999 VCSH FEW012 FEW018CB BKN028 12/10 Q1010 RESHRA","updated":"2025-12-28T16:23:02Z"}
