{"icao":"LPLA","metar":"LPLA 260400Z VRB01KT 9999 OVC025 14/09 Q1029","updated":"2026-03-26T05:04:34Z"}
