{"icao":"KJFK","metar":"KJFK 011751Z 31028G39KT 10SM FEW065 M03/M17 A2977 RMK AO2 PK WND 29042/1740 SLP079 60001 T10281167 11022 21039 50006 $","updated":"2026-01-01T18:29:04Z"}
