{"icao":"LPFR","metar":"LPFR 120730Z 26007KT 4500 BR SCT003 BKN012 15/14 Q1022","updated":"2026-02-12T07:50:49Z"}
