{"icao":"LPHR","metar":"LPHR 201900Z 04009KT 9999 FEW022 SCT040 17/11 Q1031","updated":"2025-11-20T19:15:22Z"}
