{"icao":"KJFK","metar":"KJFK 100151Z 17008KT 10SM BKN012 BKN250 06/03 A3050 RMK AO2 SLP327 T00560033","updated":"2026-04-10T02:27:58Z"}
