{"icao":"LPMR","metar":"LPMR 111600Z 18013KT 9999 FEW040 20/13 Q1008","updated":"2025-11-11T16:23:36Z"}
