{"icao":"LPHR","metar":"LPHR 091230Z 26008KT 9000 FEW003 SCT005 BKN012 21/20 Q1031","updated":"2026-06-09T12:35:42Z"}
