{"icao":"LPAR","metar":"LPAR 261300Z 05006KT 020V080 CAVOK 15/05 Q1025","updated":"2025-11-26T13:33:37Z"}
