{"icao":"LPAZ","metar":"LPAZ 291900Z 26018KT 0400 R18/0450 FG VV002 17/17 Q1015","updated":"2026-01-29T19:29:22Z"}
