{"icao":"LPMR","metar":"LPMR 021200Z 01006KT 300V050 9999 SCT025 18/11 Q1026","updated":"2025-11-02T12:32:32Z"}
