{"icao":"KLAX","metar":"KLAX 260053Z 15011G18KT 10SM FEW036 FEW048 SCT055 SCT150 BKN250 17/14 A3006 RMK AO2 SLP178 T01720139 $","updated":"2025-12-26T01:38:25Z"}
