{"icao":"LPMT","metar":"LPMT 311100Z 19014KT 160V220 9999 FEW008 BKN015 BKN045 21/17 Q1013","updated":"2025-10-31T11:15:02Z"}
