{"icao":"LPAZ","metar":"LPAZ 140100Z 14005KT 9999 FEW018 19/16 Q1014","updated":"2025-10-14T01:18:34Z"}
