{"icao":"LPCS","metar":"LPCS 271330Z 31008KT 280V350 9999 4800N -RA FEW003 BKN014 15/13 Q1025","updated":"2026-02-27T14:00:49Z"}
