{"icao":"KJFK","metar":"KJFK 061851Z 19012KT 10SM FEW065 SCT110 SCT160 BKN200 BKN250 28/17 A2981 RMK AO2 SLP094 T02780167 $","updated":"2026-06-06T19:20:31Z"}
