{"icao":"KLAX","metar":"KLAX 211653Z 05006KT 10SM FEW280 13/01 A3016 RMK AO2 SLP214 T01280011 $","updated":"2026-02-21T17:24:32Z"}
