{"icao":"LPPS","metar":"LPPS 022200Z 05008KT 010V080 9999 FEW012 15/12 Q1024","updated":"2026-04-02T22:30:20Z"}
