{"icao":"LPFR","metar":"LPFR 191930Z 12011KT 9000 RA FEW015 SCT040 15/14 Q1007","updated":"2026-03-19T19:47:46Z"}
