{"icao":"LPMA","metar":"LPMA 251830Z 01009KT 330V050 9999 FEW016 18/11 Q1018","updated":"2026-04-25T18:51:03Z"}
