{"icao":"KLAX","metar":"KLAX 201153Z 10005KT 10SM CLR 17/07 A2991 RMK AO2 SLP125 T01670067 10233 20161 55005 $","updated":"2026-05-20T12:22:50Z"}
