{"icao":"LPPR","metar":"LPPR 310330Z 16003KT 9000 FEW009 14/13 Q1021","updated":"2026-05-31T03:40:58Z"}
