{"icao":"LPAZ","metar":"LPAZ 202300Z 23014KT 8000 SCT002 BKN004 23/22 Q1018","updated":"2025-10-20T23:15:57Z"}
