{"icao":"LPFR","metar":"LPFR 270400Z 06012KT CAVOK 10/04 Q1010","updated":"2025-12-27T04:31:19Z"}
