{"icao":"LPAZ","metar":"LPAZ 180600Z 23011KT 9999 FEW005 BKN015 23/22 Q1015","updated":"2025-10-18T06:24:15Z"}
