{"icao":"LPPI","metar":"LPPI 011200Z 08014KT 050V110 9999 FEW022 24/16 Q1031","updated":"2026-07-01T12:05:55Z"}
