{"icao":"LPST","metar":"LPST 130900Z 17007KT 6000 -SHRA SCT008 BKN012 12/11 Q1008","updated":"2026-01-13T09:26:46Z"}
