{"icao":"LPPR","metar":"LPPR 131700Z 17015KT 9999 BKN017 FEW020CB 17/15 Q0996","updated":"2025-11-13T17:17:41Z"}
