{"icao":"LPMA","metar":"LPMA 170700Z 35013KT 290V030 9999 -SHRA BKN015 15/10 Q1022","updated":"2026-01-17T07:18:05Z"}
