{"icao":"LPPS","metar":"LPPS 110100Z 06006KT 010V090 9999 SCT015 BKN030 21/13 Q1021","updated":"2025-10-11T01:15:55Z"}
