{"icao":"LPFR","metar":"LPFR 211230Z 01010KT 340V040 CAVOK 17/00 Q1025","updated":"2025-11-21T12:37:05Z"}
