{"icao":"LPMT","metar":"LPMT 060800Z 34018G29KT 310V010 9999 SCT030 11/05 Q1018","updated":"2026-03-06T08:36:18Z"}
