{"icao":"LPFR","metar":"LPFR 281700Z 25011KT CAVOK 17/12 Q1019","updated":"2026-03-28T17:27:28Z"}
