{"icao":"KJFK","metar":"KJFK 081151Z 35016G22KT 10SM FEW050 BKN250 M02/M13 A3021 RMK AO2 PK WND 33027/1134 SLP230 T10171128 10039 21017 52036 $","updated":"2025-12-08T12:40:42Z"}
