{"icao":"LPPT","metar":"LPPT 251600Z 24004KT 210V270 9999 FEW006 SCT014 FEW025CB BKN045 21/19 Q1013","updated":"2025-10-25T16:19:42Z"}
