{"icao":"LPFR","metar":"LPFR 092200Z 32007KT 9999 FEW020 10/08 Q1029","updated":"2026-01-09T22:20:01Z"}
