{"icao":"LPOV","metar":"LPOV 221600Z 34013KT CAVOK 15/09 Q1027","updated":"2026-02-22T16:28:06Z"}
