{"icao":"LPST","metar":"LPST 031000Z 08011KT CAVOK 15/09 Q1012","updated":"2026-03-03T10:37:12Z"}
