{"icao":"LPOV","metar":"LPOV 010900Z 36001KT CAVOK 19/15 Q1021","updated":"2025-10-01T09:19:37Z"}
