{"icao":"LPPR","metar":"LPPR 201700Z 32010KT CAVOK 23/17 Q1016","updated":"2026-06-20T17:24:55Z"}
