{"icao":"LPFR","metar":"LPFR 271930Z 27008KT CAVOK 16/10 Q1014","updated":"2026-03-27T19:40:21Z"}
