{"icao":"LPHR","metar":"LPHR 122100Z 29023G34KT 9999 FEW025 15/08 Q1023","updated":"2026-02-12T21:32:19Z"}
