{"icao":"LPAZ","metar":"LPAZ 081100Z 04018KT 9000 SCT007 BKN011 12/10 Q1026","updated":"2026-03-08T11:19:59Z"}
