{"icao":"LPST","metar":"LPST 061600Z 22007KT 150V280 CAVOK 26/16 Q1020","updated":"2025-10-06T23:15:40Z"}
