{"icao":"LPBJ","metar":"LPBJ 052100Z 30009KT CAVOK 19/05 Q1018","updated":"2026-06-05T21:24:02Z"}
