{"icao":"LPMT","metar":"LPMT 111500Z 10003KT 060V120 9999 FEW026 SCT036 16/11 Q1018","updated":"2025-12-11T15:22:52Z"}
