{"icao":"LPPD","metar":"LPPD 071730Z 33013KT 300V010 9999 FEW030 15/06 Q1032","updated":"2026-04-07T17:59:20Z"}
