{"icao":"LPMT","metar":"LPMT 290500Z 24015KT 8000 BKN006 BKN015 15/15 Q1007","updated":"2026-01-29T05:41:57Z"}
