{"icao":"LPMT","metar":"LPMT 311600Z 04010KT CAVOK 26/09 Q1022","updated":"2026-03-31T16:11:06Z"}
