{"icao":"LPOV","metar":"LPOV 151200Z 34015KT 9999 FEW016 20/17 Q1023","updated":"2025-09-15T12:36:18Z"}
