{"icao":"KORD","metar":"KORD 172051Z 16013G23KT 10SM SCT009 BKN120 BKN250 18/16 A2940 RMK AO2 RAE1956 PRESFR SLP952 P0000 60020 T01780161 58031","updated":"2026-06-17T21:22:48Z"}
