{"icao":"LPBJ","metar":"LPBJ 150800Z 15002KT CAVOK 16/11 Q1017","updated":"2025-10-15T08:25:12Z"}
