{"icao":"LPPR","metar":"LPPR 141330Z 33008KT 300V360 9999 SCT010 BKN040 13/11 Q1020","updated":"2026-01-14T13:39:17Z"}
