{"icao":"LPPT","metar":"LPPT 032200Z 36008KT CAVOK 15/09 Q1014","updated":"2026-03-03T22:27:43Z"}
