{"icao":"LPFR","metar":"LPFR 120800Z 08004KT 9999 FEW001 09/09 Q1023","updated":"2026-01-12T08:30:43Z"}
