{"icao":"LPPT","metar":"LPPT 020300Z 34005KT CAVOK 22/15 Q1016 NOSIG","updated":"2026-07-02T03:26:51Z"}
