{"icao":"LPST","metar":"LPST 281000Z 35004KT 320V020 9999 BKN025 13/09 Q1024","updated":"2025-11-28T10:20:45Z"}
