{"icao":"LPPD","metar":"LPPD 062100Z 16012KT 9999 FEW020 BKN040 14/09 Q1028","updated":"2026-03-06T21:28:20Z"}
