{"icao":"KORD","metar":"KORD 261451Z 12012KT 10SM FEW070 12/02 A3039 RMK AO2 SLP294 T01220017 51012 $","updated":"2025-10-26T15:16:26Z"}
