{"icao":"LPPS","metar":"LPPS 081230Z 27015KT 9999 FEW011 19/16 Q1024","updated":"2026-02-08T12:47:26Z"}
