{"icao":"LPPS","metar":"LPPS 172100Z 35014KT 9999 SCT015 19/14 Q1023","updated":"2025-11-17T21:17:07Z"}
