{"icao":"LPFR","metar":"LPFR 021600Z 19007KT 150V210 9999 FEW025 25/17 Q1019","updated":"2025-10-02T16:21:11Z"}
