{"icao":"LPMT","metar":"LPMT 161500Z 27009KT CAVOK 25/12 Q1013","updated":"2025-10-16T15:19:22Z"}
