{"icao":"KORD","metar":"KORD 211651Z 24015G26KT 10SM BKN040 12/02 A2970 RMK AO2 PK WND 24029/1640 SLP057 T01170022","updated":"2025-10-21T17:17:05Z"}
