{"icao":"LPPR","metar":"LPPR 271400Z 32006KT 290V350 CAVOK 14/09 Q1024","updated":"2025-11-27T14:18:33Z"}
