{"icao":"LPMR","metar":"LPMR 032200Z 15004KT CAVOK 13/12 Q1020","updated":"2025-11-03T22:17:46Z"}
