{"icao":"LPMA","metar":"LPMA 211830Z VRB02KT 9999 FEW013 18/14 Q1019","updated":"2026-01-21T18:41:16Z"}
