{"icao":"LPOV","metar":"LPOV 271800Z 01007KT CAVOK 13/09 Q1024","updated":"2025-11-27T19:14:46Z"}
