{"icao":"KLAX","metar":"KLAX 241253Z 25003KT 5SM BR FEW004 BKN007 OVC010 17/15 A3001 RMK AO2 SLP158 T01670150 $","updated":"2026-06-24T13:21:30Z"}
