{"icao":"LPPT","metar":"LPPT 160430Z 27008KT 6000 -DZRA SCT014 BKN022 13/11 Q1031","updated":"2026-02-16T04:57:40Z"}
