{"icao":"LPPD","metar":"LPPD 272300Z 25026KT 7000 FEW011 BKN014 17/15 Q1006 WS R30","updated":"2026-01-27T23:20:41Z"}
