{"icao":"LPMR","metar":"LPMR 101100Z 15006KT 8000 FEW005 SCT018 17/15 Q1019","updated":"2025-11-10T11:16:14Z"}
