{"icao":"LPMA","metar":"LPMA 021230Z 35023G34KT 310V020 9999 SCT015 FEW018CB 14/08 Q1018","updated":"2026-03-02T12:56:25Z"}
