{"icao":"LPOV","metar":"LPOV 090200Z 20005KT 5000 BR FEW006 SCT018 BKN040 14/14 Q1009","updated":"2026-02-09T02:06:10Z"}
