{"icao":"LPMA","metar":"LPMA 030130Z 33016G26KT 250V020 9999 SCT015 SCT018CB 12/05 Q1019","updated":"2026-03-03T02:03:16Z"}
