{"icao":"LPPR","metar":"LPPR 071600Z 32007KT 9999 SCT040 13/07 Q1027","updated":"2026-01-07T16:29:27Z"}
