{"icao":"LPPD","metar":"LPPD 202200Z 33008KT 300V360 9999 FEW023 BKN040 14/08 Q1029","updated":"2025-12-20T22:16:59Z"}
