{"icao":"LPOV","metar":"LPOV 152100Z 35006KT CAVOK 16/14 Q1022","updated":"2025-09-15T21:15:03Z"}
