{"icao":"LPPR","metar":"LPPR 202100Z 01003KT CAVOK 08/04 Q1025","updated":"2025-11-20T21:17:11Z"}
