{"icao":"KORD","metar":"KORD 151451Z 25007KT 8SM FEW120 FEW250 05/01 A2991 RMK AO2 SLP134 T00500006 58001 $","updated":"2026-02-15T15:25:11Z"}
