{"icao":"KLAX","metar":"KLAX 200053Z 26013KT 10SM FEW030 SCT150 SCT250 15/10 A3002 RMK AO2 SLP166 T01500100 $","updated":"2025-11-20T01:22:27Z"}
