{"icao":"LPPD","metar":"LPPD 282300Z 09020G33KT 9999 SCT006 14/13 Q1010","updated":"2025-12-28T23:18:04Z"}
