{"icao":"LPCS","metar":"LPCS 221300Z 36017KT CAVOK 21/07 Q1019 WS R35","updated":"2025-09-22T13:27:26Z"}
