{"icao":"LPLA","metar":"LPLA 301600Z 25004KT 200V290 9999 SCT016 BKN024 18/14 Q1025","updated":"2025-11-30T16:21:46Z"}
