{"icao":"KJFK","metar":"KJFK 021251Z 27013KT 10SM FEW050 BKN095 M05/M11 A2983 RMK AO2 SNE47 SLP100 P0000 T10501111 $","updated":"2026-01-02T13:31:50Z"}
