{"icao":"LPPR","metar":"LPPR 201100Z 21007KT 180V260 9999 FEW008 BKN030 19/16 Q1014","updated":"2025-10-20T11:15:38Z"}
