{"icao":"LPHR","metar":"LPHR 231900Z 22006KT 190V250 9999 FEW012 21/19 Q1015","updated":"2025-10-23T19:14:18Z"}
