{"icao":"KORD","metar":"KORD 111251Z 01005KT 10SM OVC024 M04/M10 A2997 RMK AO2 SLP159 T10441100","updated":"2025-12-11T13:38:13Z"}
