{"icao":"LPFR","metar":"LPFR 201500Z 34007KT 300V010 CAVOK 18/05 Q1018","updated":"2025-11-20T15:19:57Z"}
