{"icao":"KJFK","metar":"KJFK 082251Z 32018G26KT 10SM CLR M08/M19 A3019 RMK AO2 PK WND 31032/2200 SLP222 T10831194 $","updated":"2026-02-08T23:29:38Z"}
