{"icao":"LPMT","metar":"LPMT 250900Z 04004KT CAVOK 15/10 Q1021","updated":"2026-03-25T09:52:26Z"}
