{"icao":"KORD","metar":"KORD 060924Z 24005KT 8SM SCT011 BKN050 OVC090 M01/M03 A2963 RMK AO2 T10111033 $","updated":"2026-02-06T09:41:45Z"}
