{"icao":"KORD","metar":"KORD 271351Z 18005KT 1/2SM R10L/0800V1000FT FZFG BKN001 M01/M01 A2989 RMK AO2 SLP129 I1000 T10061011","updated":"2026-02-27T14:01:27Z"}
