{"icao":"LPPT","metar":"LPPT 171800Z VRB02KT 9999 3000E RA FEW008 SCT018 FEW022TCU 08/07 Q1009","updated":"2026-01-17T18:26:55Z"}
