{"icao":"LPBJ","metar":"LPBJ 061700Z 32009KT CAVOK 29/13 Q1017","updated":"2026-06-06T17:12:00Z"}
