{"icao":"LPMT","metar":"LPMT 210900Z 20009KT 150V230 3000 -RADZ BR FEW005 BKN007 BKN015 15/15 Q1008","updated":"2026-01-21T09:31:01Z"}
