{"icao":"LPOV","metar":"LPOV 101600Z 19005KT 160V220 8000 VCSH FEW006 BKN014 FEW016TCU BKN040 18/15 Q1017","updated":"2025-11-10T16:24:52Z"}
