{"icao":"LPPT","metar":"LPPT 270500Z 03012KT 360V060 CAVOK 13/01 Q1016","updated":"2026-03-27T05:05:25Z"}
