{"icao":"LPOV","metar":"LPOV 212200Z 21008KT 170V240 2000 -DZRA BR BKN004 BKN020 19/19 Q1014","updated":"2025-10-21T22:15:30Z"}
