{"icao":"LPOV","metar":"LPOV 251500Z 34004KT 300V360 9999 -RA SCT030 16/14 Q1015","updated":"2025-10-25T15:15:34Z"}
