{"icao":"LPAZ","metar":"LPAZ 292100Z 11009KT 9999 FEW020 BKN028 15/10 Q1033","updated":"2026-03-29T21:30:18Z"}
