{"icao":"LPMR","metar":"LPMR 070500Z 18003KT 0800 FG OVC002 15/15 Q1021","updated":"2025-10-07T05:16:39Z"}
