{"icao":"LPFL","metar":"LPFL 111330Z 02009KT 350V050 9999 FEW022 16/11 Q1026","updated":"2026-05-11T13:47:22Z"}
