{"icao":"KJFK","metar":"KJFK 102051Z 19015KT 10SM FEW055 FEW250 18/05 A2997 RMK AO2 SLP148 T01780050 58009","updated":"2026-03-10T21:27:35Z"}
