{"icao":"KJFK","metar":"KJFK 110751Z 27015KT 10SM FEW065 SCT085 04/01 A2944 RMK AO2 SLP968 T00390011","updated":"2025-12-11T08:28:38Z"}
