{"icao":"LPMR","metar":"LPMR 202100Z 32006KT 9999 FEW012 19/18 Q1017","updated":"2026-06-20T21:16:49Z"}
