{"icao":"KLAX","metar":"KLAX 080953Z 00000KT 10SM FEW007 FEW014 16/14 A2991 RMK AO2 SLP126 T01560144 $","updated":"2026-04-08T10:14:46Z"}
