{"icao":"LPMA","metar":"LPMA 211630Z 34011KT 300V010 9999 SCT015 SCT028 17/08 Q1011","updated":"2026-04-21T16:59:47Z"}
