{"icao":"LPPT","metar":"LPPT 061230Z 29009KT 250V350 9999 FEW020 FEW025TCU SCT038 19/11 Q1018","updated":"2025-11-06T12:38:18Z"}
