{"icao":"KORD","metar":"KORD 180451Z 21012G21KT 10SM -TSRA BR SCT070 OVC130 17/15 A2959 RMK AO2 SLP017 P0012 T01670150 $","updated":"2026-04-18T05:05:23Z"}
