{"icao":"KORD","metar":"KORD 310351Z 34011G20KT 10SM SCT075 BKN100 M11/M17 A3043 RMK AO2 SLP320 T11061172","updated":"2026-01-31T04:05:34Z"}
