{"icao":"LPPS","metar":"LPPS 141230Z 02012KT 9999 FEW015 17/09 Q1026","updated":"2026-01-14T12:43:30Z"}
