{"icao":"LPMR","metar":"LPMR 070700Z 18006KT 3000 -RADZ BR BKN007 BKN015 16/15 Q1014","updated":"2025-11-07T07:17:55Z"}
