{"icao":"LPBJ","metar":"LPBJ 232200Z 17007KT CAVOK 13/07 Q1023","updated":"2026-02-23T22:39:02Z"}
