{"icao":"LPLA","metar":"LPLA 040900Z 28014KT 260V320 7000 -SHRA FEW020 FEW022TCU SCT040 17/11 Q1004","updated":"2025-11-04T09:20:30Z"}
