{"icao":"LPPR","metar":"LPPR 071600Z 30008KT 270V330 9999 FEW018 SCT023 18/14 Q1014","updated":"2025-11-07T16:19:20Z"}
