{"icao":"KORD","metar":"KORD 121151Z 26009KT 10SM FEW250 17/12 A2989 RMK AO2 SLP118 70051 T01670122 10189 20161 53016 $","updated":"2026-06-12T12:17:51Z"}
