{"icao":"LPPT","metar":"LPPT 140400Z 20005KT 170V230 9999 FEW025 14/13 Q1001","updated":"2025-11-14T04:21:44Z"}
