{"icao":"KJFK","metar":"KJFK 200151Z 07008KT 10SM FEW023 OVC039 03/M01 A3007 RMK AO2 SLP181 T00281006 $","updated":"2026-02-20T02:00:06Z"}
