{"icao":"KLAX","metar":"KLAX 231053Z 00000KT 10SM FEW250 13/03 A3015 RMK AO2 SLP208 T01330033 $","updated":"2026-02-23T11:39:28Z"}
