{"icao":"LPMA","metar":"LPMA 142100Z 01014KT 330V050 9999 BKN015 16/11 Q1024","updated":"2026-03-14T21:25:29Z"}
