{"icao":"LPAZ","metar":"LPAZ 091830Z 08006KT 040V110 9999 FEW033 13/07 Q1034","updated":"2026-03-09T18:51:42Z"}
