{"icao":"LPAZ","metar":"LPAZ 080800Z VRB19G31KT 3000 -RADZ BR SCT004 BKN008 14/13 Q1023","updated":"2026-03-08T08:29:51Z"}
