{"icao":"LPBJ","metar":"LPBJ 141300Z 06004KT 020V110 8000 VCFG SCT006 SCT020 12/11 Q1020","updated":"2026-01-14T13:39:19Z"}
