{"icao":"LPMA","metar":"LPMA 030730Z 35018KT 290V030 9999 SCT015 FEW018CB 14/06 Q1016","updated":"2026-03-03T07:41:02Z"}
