{"icao":"LPFL","metar":"LPFL 231900Z 19008KT 160V220 9999 SCT015 19/16 Q1025","updated":"2025-11-23T19:14:22Z"}
