{"icao":"LPMR","metar":"LPMR 132000Z 31002KT CAVOK 18/16 Q1023","updated":"2025-09-13T20:16:15Z"}
