{"icao":"LPMR","metar":"LPMR 112100Z 36004KT CAVOK 20/11 Q1019","updated":"2025-10-11T21:13:45Z"}
