{"icao":"KJFK","metar":"KJFK 230651Z 01023G38KT 1/2SM R04R/5000VP6000FT SN BLSN FZFG VV007 M01/M02 A2950 RMK AO2 PK WND 01042/0608 SLP991 SNINCR 1/9 P0001 T10111017 $","updated":"2026-02-23T07:53:37Z"}
