{"icao":"LPPT","metar":"LPPT 131600Z 26010KT 230V290 9999 FEW016 SCT025 14/10 Q1011","updated":"2026-01-13T16:30:20Z"}
