{"icao":"LPPT","metar":"LPPT 201900Z 01009KT CAVOK 11/06 Q1022","updated":"2025-11-20T19:15:01Z"}
