{"icao":"LPMR","metar":"LPMR 241500Z 29012KT 6000 SCT005 OVC007 17/16 Q1014 RERADZ","updated":"2025-11-24T15:21:19Z"}
