{"icao":"KLAX","metar":"KLAX 050253Z 25008KT 10SM CLR 19/14 A2981 RMK AO2 SLP095 T01890144 55003 $","updated":"2025-10-05T03:06:26Z"}
