{"icao":"LPBJ","metar":"LPBJ 182000Z 29006KT CAVOK 20/12 Q1017","updated":"2025-10-18T20:17:38Z"}
