{"icao":"LPPR","metar":"LPPR 062100Z 36012KT CAVOK 11/03 Q1020","updated":"2026-03-06T21:28:02Z"}
