{"icao":"KJFK","metar":"KJFK 211751Z 21011KT 10SM BKN070 BKN090 BKN250 26/11 A2986 RMK SLP110 T02610106 10278 20217 58004 $ ","updated":"2026-06-21T18:18:49Z"}
