{"icao":"LPHR","metar":"LPHR 260000Z 29013KT 9000 -RA SCT005 BKN010 BKN025 15/14 Q1007","updated":"2026-01-26T05:32:19Z"}
