{"icao":"KJFK","metar":"KJFK 191222Z 15024G34KT 3SM +RA BR FEW008 BKN039 OVC048 12/11 A2954 RMK AO2 PK WND 15034/1222 SFC VIS 4 PRESFR P0007 T01220111","updated":"2025-12-19T12:39:17Z"}
