{"icao":"KLAX","metar":"KLAX 011553Z 10004KT 10SM FEW200 FEW250 18/13 A2998 RMK AO2 SLP151 T01780128","updated":"2026-03-01T16:27:01Z"}
