{"icao":"LPLA","metar":"LPLA 262300Z 30026G37KT 8000 -SHRA FEW020 FEW022CB BKN034 10/06 Q1007","updated":"2026-01-26T23:20:56Z"}
