{"icao":"LPPT","metar":"LPPT 141000Z 21019KT 5000 SHRA FEW010 SCT014 FEW018CB BKN042 13/11 Q1004","updated":"2025-11-14T10:20:36Z"}
