{"icao":"LPFL","metar":"LPFL 061830Z 26009G20KT 200V340 9999 FEW017 15/10 Q1006","updated":"2026-02-06T18:49:52Z"}
