{"icao":"LPLA","metar":"LPLA 291000Z 23005KT 210V270 9999 FEW025 SCT035 14/09 Q1013 R6??008 13/13 Q1004 RERA","updated":"2026-01-29T10:35:38Z"}
