{"icao":"LPMA","metar":"LPMA 290600Z 28007KT 210V310 9999 SCT015 21/16 Q1012","updated":"2025-10-29T06:29:12Z"}
