{"icao":"LPSJ","metar":"LPSJ 211130Z 29008KT 230V320 9999 FEW012 BKN031 19/15 Q1018","updated":"2026-06-21T11:45:57Z"}
