{"icao":"KJFK","metar":"KJFK 110651Z 30015G27KT 10SM FEW044 02/M08 A2972 RMK AO2 PK WND 29036/0627 SLP064 T00171083 $","updated":"2025-11-11T07:18:24Z"}
