{"icao":"LPFL","metar":"LPFL 131800Z 21006KT 150V290 9999 FEW017 24/17 Q1023","updated":"2025-09-14T05:15:48Z"}
