{"icao":"LPPS","metar":"LPPS 120730Z 26004KT 9999 FEW014 BKN030 14/11 Q1025","updated":"2026-02-12T07:51:10Z"}
