{"icao":"LPMR","metar":"LPMR 241400Z 30007KT 250V330 CAVOK 22/16 Q1020","updated":"2026-05-24T15:02:09Z"}
