{"icao":"KJFK","metar":"KJFK 130951Z 03019G31KT 6SM -RA BR OVC015 13/12 A2988 RMK AO2 PK WND 05033/0917 SLP118 P0002 T01280117","updated":"2025-10-13T10:21:14Z"}
