{"icao":"LPFR","metar":"LPFR 081400Z 25017KT CAVOK 23/14 Q1019","updated":"2025-10-08T14:17:55Z"}
