{"icao":"LPHR","metar":"LPHR 101730Z 23020KT 7000 SCT004 BKN007 18/17 Q1006","updated":"2026-02-10T18:00:32Z"}
