{"icao":"LPFL","metar":"LPFL 200700Z 09004KT 040V140 9999 SCT030 19/12 Q1028","updated":"2025-09-20T07:15:13Z"}
