{"icao":"LPFL","metar":"LPFL 011800Z 01006KT 340V040 9999 FEW022 16/11 Q1033","updated":"2026-04-01T22:36:02Z"}
