{"icao":"LPMA","metar":"LPMA 271730Z 36014KT 320V040 9999 FEW016 18/10 Q1018","updated":"2026-03-27T17:49:14Z"}
