{"icao":"LPPS","metar":"LPPS 100800Z 01004KT 340V040 9999 SCT012 14/12 Q1031","updated":"2026-01-10T08:25:45Z"}
