{"icao":"LPAZ","metar":"LPAZ 181400Z 28010KT 8000 BKN005 24/23 Q1016","updated":"2025-10-18T14:14:38Z"}
