{"icao":"LPFR","metar":"LPFR 210830Z 11014KT CAVOK 25/21 Q1017","updated":"2026-06-21T08:56:04Z"}
