{"icao":"KORD","metar":"KORD 110951Z 29011KT 10SM SCT032 BKN048 M06/M12 A3011 RMK AO2 SLP205 T10561122","updated":"2026-01-11T10:20:22Z"}
