{"icao":"LPBJ","metar":"LPBJ 110700Z 23013KT 4000 -DZRA BR OVC004 14/14 Q1018","updated":"2026-02-11T07:58:33Z"}
