{"icao":"KORD","metar":"KORD 100405Z 00000KT 10SM BKN019 OVC027 05/02 A3016 RMK AO2 T00500017","updated":"2026-01-10T04:33:20Z"}
