{"icao":"LPPD","metar":"LPPD 081630Z 34017KT 310V010 9999 SCT020 17/12 Q1033 WS R30","updated":"2026-04-08T17:00:34Z"}
