{"icao":"KJFK","metar":"KJFK 260651Z 33003KT 10SM SCT100 04/M02 A2976 RMK AO2 SLP077 T00391017 $","updated":"2026-02-26T07:02:36Z"}
