{"icao":"KJFK","metar":"KJFK 242251Z 02008KT 10SM FEW050 FEW250 04/M04 A3028 RMK AO2 SLP254 T00391039 $","updated":"2025-12-24T23:18:32Z"}
