{"icao":"LPAZ","metar":"LPAZ 120300Z 29020KT 9999 FEW025 FEW030TCU 15/09 Q1003 RESHRA","updated":"2025-11-12T03:10:52Z"}
