{"icao":"LPPS","metar":"LPPS 212100Z 09008KT 6000 SHRA SCT008 FEW018CB 14/13 Q0999","updated":"2026-03-21T21:24:05Z"}
