{"icao":"LPPD","metar":"LPPD 082000Z 04011KT 9999 FEW025 13/06 Q1031","updated":"2026-03-08T20:25:06Z"}
