{"icao":"LPPR","metar":"LPPR 060300Z 26007KT 200V290 9999 -SHRA FEW020 FEW025CB SCT035 15/11 Q1011","updated":"2025-11-06T03:12:50Z"}
