{"icao":"LPLA","metar":"LPLA 061400Z 19010KT 160V240 9999 FEW016 25/19 Q1018","updated":"2025-10-06T14:17:31Z"}
