{"icao":"LPPD","metar":"LPPD 072300Z 25009KT 8000 -RADZ SCT008 BKN010 14/13 Q1022","updated":"2026-03-07T23:20:43Z"}
