{"icao":"LPHR","metar":"LPHR 102230Z 09009KT 050V120 9999 FEW014 SCT030 14/09 Q1032","updated":"2026-04-10T22:35:46Z"}
