{"icao":"KORD","metar":"KORD 201851Z 26013G24KT 10SM BKN150 OVC250 04/M04 A2977 RMK AO2 PK WND 26026/1819 PRESRR SLP086 T00391039","updated":"2025-12-20T19:14:31Z"}
