{"icao":"LPOV","metar":"LPOV 011500Z 35019KT CAVOK 26/15 Q1018","updated":"2026-07-01T15:39:45Z"}
