{"icao":"LPPT","metar":"LPPT 181100Z 09003KT 010V140 CAVOK 26/11 Q1020","updated":"2025-09-18T11:13:43Z"}
