{"icao":"KORD","metar":"KORD 221951Z 01015KT 10SM FEW045 BKN250 22/12 A3003 RMK AO2 SLP168 T02220117","updated":"2026-06-22T20:45:42Z"}
