{"icao":"KLAX","metar":"KLAX 090453Z 27004KT 10SM FEW250 17/12 A3013 RMK AO2 SLP199 T01670122 $","updated":"2026-02-09T04:58:35Z"}
