{"icao":"LPMT","metar":"LPMT 172100Z 24004KT 190V280 9999 OVC026 13/09 Q1025","updated":"2026-02-17T21:34:25Z"}
