{"icao":"KORD","metar":"KORD 060951Z 26005KT 10SM FEW016 BKN041 M03/M06 A2978 RMK AO2 SLP093 T10331061","updated":"2025-12-06T10:18:37Z"}
