{"icao":"LPHR","metar":"LPHR 201230Z 26011KT 6000 FEW004 BKN006 23/22 Q1014","updated":"2025-10-20T12:38:13Z"}
