{"icao":"KJFK","metar":"KJFK 270551Z 01008KT 10SM FEW110 SCT250 01/M06 A2997 RMK AO2 SLP150 4/012 T00061056 10033 20006 51017 $","updated":"2026-02-27T06:52:36Z"}
