{"icao":"LPCS","metar":"LPCS 191700Z 24005KT 200V290 CAVOK 22/11 Q1014","updated":"2026-04-19T17:34:02Z"}
