{"icao":"LPPT","metar":"LPPT 161600Z 26011KT 230V290 9999 VCSH FEW025 FEW030CB 18/12 Q1011","updated":"2025-11-16T16:20:00Z"}
