{"icao":"LPBJ","metar":"LPBJ 021900Z 14014KT 9999 -RA BKN045 14/11 Q1002","updated":"2026-01-02T19:12:58Z"}
