{"icao":"LPHR","metar":"LPHR 191730Z 21015KT 7000 -RA SCT004 BKN007 17/17 Q1019","updated":"2026-02-19T17:49:11Z"}
