{"icao":"LPAZ","metar":"LPAZ 092030Z 36005KT 330V040 9999 FEW013 BKN034 20/17 Q1029","updated":"2026-06-09T20:57:42Z"}
