{"icao":"LPPD","metar":"LPPD 010800Z 29017KT 8000 -SHRA SCT006 BKN012 17/17 Q1024","updated":"2025-12-01T08:29:45Z"}
