{"icao":"KORD","metar":"KORD 040251Z 08004KT 10SM FEW250 20/05 A3017 RMK AO2 SLP214 T02000050 55003","updated":"2026-06-04T03:53:34Z"}
