{"icao":"KORD","metar":"KORD 301251Z 30007KT 10SM FEW049 OVC065 M12/M18 A3033 RMK AO2 SLP285 T11221183","updated":"2026-01-30T12:53:20Z"}
