{"icao":"LPLA","metar":"LPLA 231300Z 36006KT 320V050 9999 FEW018 SCT025 20/15 Q1024","updated":"2026-05-23T13:22:01Z"}
