{"icao":"KJFK","metar":"KJFK 092151Z 19017G23KT 10SM BKN250 20/12 A3010 RMK AO2 SLP191 T02000122 $","updated":"2026-06-09T22:23:20Z"}
