{"icao":"LPPD","metar":"LPPD 111100Z 29025KT 9999 -SHRA FEW025 FEW027TCU SCT035 17/10 Q1005","updated":"2025-11-11T11:16:21Z"}
