{"icao":"LPPD","metar":"LPPD 190930Z 27008KT 9999 -SHRA SCT005 BKN011 15/14 Q1015","updated":"2026-04-19T09:45:40Z"}
