{"icao":"KORD","metar":"KORD 141151Z 29008KT 10SM SCT038 OVC050 04/M02 A2959 RMK AO2 SLP023 T00391022 10056 20039 53002 $","updated":"2026-01-14T12:43:30Z"}
