{"icao":"LPMA","metar":"LPMA 211100Z 18009KT 140V210 9999 FEW013 FEW018CB 17/14 Q0998","updated":"2026-03-21T11:21:26Z"}
