{"icao":"KORD","metar":"KORD 031451Z 22011G20KT 10SM SCT100 SCT200 OVC250 12/02 A2991 RMK AO2 PK WND 21027/1438 SLP130 T01170017 58006 $","updated":"2026-05-03T15:45:34Z"}
