{"icao":"LPMR","metar":"LPMR 032300Z 15003KT CAVOK 13/12 Q1020","updated":"2025-11-03T23:16:04Z"}
