{"icao":"KJFK","metar":"KJFK 190751Z 03006KT 6SM BR OVC025 03/02 A2994 RMK AO2 SLP139 T00280017 $","updated":"2026-02-19T08:41:35Z"}
