{"icao":"KLAX","metar":"KLAX 210253Z 24007KT 10SM CLR 19/17 A3003 RMK AO2 SLP166 T01890167 53011","updated":"2025-10-21T03:04:43Z"}
