{"icao":"KLAX","metar":"KLAX 270853Z 11003KT 10SM FEW250 17/13 A2999 RMK AO2 SLP152 T01670133 58003","updated":"2026-02-27T09:39:48Z"}
