{"icao":"LPPS","metar":"LPPS 021530Z 29020KT 9999 FEW015 17/09 Q1014","updated":"2026-02-02T15:37:09Z"}
