{"icao":"LPOV","metar":"LPOV 261100Z 30007KT 270V330 7000 FEW006 SCT020 13/11 Q1026","updated":"2026-02-26T11:38:41Z"}
