{"icao":"KJFK","metar":"KJFK 170751Z 27023G38KT 10SM SCT030 BKN080 04/M02 A2956 RMK AO2 PK WND 27038/0733 RAE0652 SLP010 P0000 T00391017","updated":"2026-03-17T08:52:40Z"}
