{"icao":"LPCS","metar":"LPCS 101530Z 20018KT 7000 -SHRA SCT018 BKN023 FEW026CB 15/12 Q1010","updated":"2026-05-10T15:52:13Z"}
