{"icao":"LPBJ","metar":"LPBJ 261600Z 24013KT 5000 -DZRA BR SCT008 BKN018 BKN032 15/13 Q1013","updated":"2026-01-26T16:32:51Z"}
