{"icao":"KORD","metar":"KORD 262051Z 27013G36KT 10SM BKN034 OVC045 01/M07 A2986 RMK AO2 PK WND 29043/1954 SNE18 SLP118 P0000 60000 T00111067 53030","updated":"2025-11-26T21:16:48Z"}
