{"icao":"LPBJ","metar":"LPBJ 221900Z 28008KT 9999 BKN030 21/18 Q1020","updated":"2025-10-22T19:13:44Z"}
