{"icao":"LPMA","metar":"LPMA 241430Z 01015KT 330V050 9999 FEW015 22/15 Q1020","updated":"2026-05-24T15:02:24Z"}
