{"icao":"LPST","metar":"LPST 141600Z 26009KT 9999 FEW017 FEW022CB 15/11 Q1003","updated":"2025-11-15T01:21:41Z"}
