{"icao":"LPMR","metar":"LPMR 271600Z 34008KT CAVOK 14/08 Q1024","updated":"2025-11-27T16:23:21Z"}
