{"icao":"LPPD","metar":"LPPD 221930Z 25020KT 9999 FEW007 BKN014 FEW018TCU 14/12 Q1000","updated":"2026-04-22T20:04:00Z"}
