{"icao":"KORD","metar":"KORD 161351Z 13007KT 10SM FEW050 15/09 A3022 RMK AO2 SLP235 T01500094","updated":"2025-10-16T14:18:43Z"}
