{"icao":"LPPS","metar":"LPPS 231400Z 04007KT 350V080 9999 SCT015 SCT030 22/13 Q1021","updated":"2025-09-23T14:17:52Z"}
