{"icao":"LPPT","metar":"LPPT 011230Z 23012KT 1200 R20/2000U DZRA BR FEW001 BKN002 16/16 Q1013","updated":"2026-02-01T12:47:12Z"}
