{"icao":"LPPD","metar":"LPPD 192300Z 26012KT 7000 SCT004 BKN010 22/22 Q1017","updated":"2025-10-19T23:15:47Z"}
