{"icao":"LPAZ","metar":"LPAZ 160830Z 18015KT 9999 FEW020 BKN030 15/10 Q1029","updated":"2026-02-16T08:45:45Z"}
