{"icao":"KLAX","metar":"KLAX 310253Z 36008KT 10SM SCT100 BKN150 OVC250 21/02 A3003 RMK AO2 SLP167 T02060017 51004 $","updated":"2025-12-31T03:26:18Z"}
