{"icao":"KORD","metar":"KORD 030751Z 22011G20KT 8SM OVC008 M06/M07 A2997 RMK AO2 SLP159 T10561072","updated":"2025-12-03T08:27:44Z"}
