{"icao":"KJFK","metar":"KJFK 290751Z 02013KT 10SM OVC055 09/04 A3015 RMK AO2 SLP209 T00940044","updated":"2025-10-29T08:25:40Z"}
