{"icao":"LPAZ","metar":"LPAZ 100130Z 06004KT 030V090 9999 BKN033 11/06 Q1035","updated":"2026-03-10T01:55:04Z"}
