{"icao":"LPMR","metar":"LPMR 202000Z 01007KT CAVOK 10/03 Q1024","updated":"2025-11-20T20:21:09Z"}
