{"icao":"KORD","metar":"KORD 180351Z 19009G19KT 10SM FEW170 SCT250 SCT350 19/11 A2974 RMK AO2 SLP067 T01940106","updated":"2025-10-18T04:20:20Z"}
