{"icao":"LPPT","metar":"LPPT 150700Z 21014KT 9999 -RA FEW012 BKN014 FEW025CB 16/15 Q1006 RERA","updated":"2025-11-15T07:15:31Z"}
