{"icao":"LPBJ","metar":"LPBJ 030100Z 14013KT 9000 -RA BKN018 OVC045 13/12 Q1000","updated":"2026-01-03T01:26:17Z"}
