{"icao":"LPHR","metar":"LPHR 130000Z 36007KT 330V030 9999 FEW015 SCT035 14/10 Q1023","updated":"2026-01-13T04:39:14Z"}
