{"icao":"LPAZ","metar":"LPAZ 051530Z 29027KT 9000 SCT018 FEW030CB SCT048 13/08 Q1006","updated":"2026-02-05T15:39:24Z"}
