{"icao":"LPPD","metar":"LPPD 121100Z 19006KT 160V220 9999 FEW025 14/06 Q1031","updated":"2026-04-12T11:32:51Z"}
