{"icao":"KLAX","metar":"KLAX 061853Z VRB06KT 10SM FEW025 SCT140 BKN180 BKN250 19/11 A3016 RMK AO2 SLP210 T01940111","updated":"2026-02-06T19:36:56Z"}
