{"icao":"LPPR","metar":"LPPR 040400Z 25008KT 200V300 6000 -SHRA BKN015 FEW018CB BKN022 14/12 Q0990","updated":"2026-02-04T04:13:44Z"}
