{"icao":"LPMT","metar":"LPMT 232000Z 36008KT CAVOK 19/09 Q1017","updated":"2025-09-24T11:14:14Z"}
