{"icao":"KORD","metar":"KORD 201051Z 27007KT 10SM FEW090 16/13 A2995 RMK AO2 SLP139 T01610128 $","updated":"2026-06-20T11:16:47Z"}
