{"icao":"LPFR","metar":"LPFR 011800Z 14014KT 9999 SCT010 BKN025 17/15 Q1010","updated":"2026-01-01T18:28:43Z"}
