{"icao":"KORD","metar":"KORD 111551Z 31010KT 10SM CLR 00/M07 A3022 RMK AO2 SLP239 T00001067","updated":"2026-02-11T16:00:07Z"}
