{"icao":"LPPT","metar":"LPPT 221330Z 07004KT 040V100 CAVOK 19/11 Q1027","updated":"2026-02-22T13:42:03Z"}
