{"icao":"LPBJ","metar":"LPBJ 281000Z 31008KT 280V340 CAVOK 25/15 Q1021","updated":"2026-06-28T10:25:48Z"}
