{"icao":"LPMR","metar":"LPMR 311000Z 18011KT 2500 -RADZ BR BKN008 OVC015 18/17 Q1011","updated":"2025-10-31T10:19:22Z"}
