{"icao":"LPMR","metar":"LPMR 151300Z 29010KT CAVOK 23/12 Q1016","updated":"2025-10-15T13:30:45Z"}
