{"icao":"LPPR","metar":"LPPR 301730Z 34014KT CAVOK 23/17 Q1020","updated":"2026-06-30T17:51:29Z"}
