{"icao":"LPPS","metar":"LPPS 151500Z 06015KT 020V100 9999 BKN015 17/11 Q1032","updated":"2026-02-15T15:25:10Z"}
