{"icao":"KLAX","metar":"KLAX 101353Z 09004KT 9SM FEW009 BKN015 BKN160 OVC220 16/13 A2992 RMK AO2 SLP132 T01560133 $","updated":"2026-02-10T14:57:01Z"}
