{"icao":"LPCS","metar":"LPCS 201100Z 23003KT 200V260 9999 FEW020 13/10 Q1020","updated":"2026-01-20T11:22:23Z"}
