{"icao":"LPMR","metar":"LPMR 020100Z 35002KT CAVOK 13/13 Q1023","updated":"2025-11-02T01:27:38Z"}
