{"icao":"LPOV","metar":"LPOV 180500Z 16010KT 9999 SCT012 SCT024 BKN035 11/11 Q1018","updated":"2026-02-18T05:59:44Z"}
