{"icao":"LPST","metar":"LPST 281200Z 16010KT 4000 -RA BR SCT009 BKN012 FEW013TCU 19/18 Q1013","updated":"2025-10-28T12:37:38Z"}
