{"icao":"LPFL","metar":"LPFL 151300Z 20010G22KT 140V290 9000 VCSH FEW005 SCT008 BKN014 21/19 Q1017","updated":"2026-06-15T13:11:13Z"}
