{"icao":"KORD","metar":"KORD 302251Z 20016G30KT 10SM FEW037 SCT300 34/23 A2986 RMK AO2 PK WND 20032/2209 SLP104 T03390233 $","updated":"2026-06-30T23:10:39Z"}
