{"icao":"LPMA","metar":"LPMA 051730Z 14005KT 110V170 9999 FEW014 22/17 Q1022","updated":"2026-06-05T17:52:57Z"}
