{"icao":"LPFR","metar":"LPFR 190800Z 34008KT CAVOK 06/03 Q1019","updated":"2026-01-19T08:31:27Z"}
