{"icao":"LPAZ","metar":"LPAZ 251000Z 06003KT 9999 FEW021 17/15 Q1028","updated":"2025-11-25T10:22:21Z"}
