{"icao":"LPPS","metar":"LPPS 011500Z 35011KT 310V020 9999 SCT015 BKN030 17/08 Q1022","updated":"2026-03-01T15:22:43Z"}
