{"icao":"LPOV","metar":"LPOV 211300Z 34003KT CAVOK 15/10 Q1030","updated":"2026-02-21T13:40:43Z"}
