{"icao":"LPHR","metar":"LPHR 011600Z 33012G24KT 290V030 9999 BKN028 14/08 Q1027","updated":"2026-03-01T16:26:46Z"}
