{"icao":"LPMA","metar":"LPMA 280800Z 33005KT 9999 BKN016 18/11 Q1023","updated":"2025-11-28T08:26:31Z"}
