{"icao":"LPPD","metar":"LPPD 281330Z 24021KT 8000 FEW012 BKN040 17/15 Q1008","updated":"2026-01-28T13:48:08Z"}
