{"icao":"LPST","metar":"LPST 141300Z 30009KT 260V330 9999 FEW020 28/11 Q1016","updated":"2025-10-14T13:28:58Z"}
