{"icao":"KLAX","metar":"KLAX 151653Z 24003KT 4SM HZ FEW009 SCT015 22/17 A2990 RMK AO2 SLP124 SCT V BKN T02220172 $","updated":"2025-09-15T17:14:57Z"}
