{"icao":"LPOV","metar":"LPOV 191000Z 34012KT 310V010 9999 SCT022 SCT045 13/05 Q1027","updated":"2026-02-19T10:41:19Z"}
