{"icao":"KJFK","metar":"KJFK 152151Z 02012KT 10SM FEW043 SCT055 SCT140 SCT250 17/10 A2990 RMK AO2 SLP126 T01720100","updated":"2025-10-15T22:15:40Z"}
