{"icao":"KJFK","metar":"KJFK 130551Z 26008KT 10SM FEW250 01/M05 A3013 RMK AO2 SLP201 T00111050 10033 21006 58006 $","updated":"2026-01-13T06:32:30Z"}
