{"icao":"LPPS","metar":"LPPS 251900Z 02008KT 340V040 9999 FEW014 19/15 Q1023","updated":"2025-11-25T19:16:41Z"}
