{"icao":"LPPR","metar":"LPPR 280330Z 34004KT 310V010 9999 FEW006 SCT011 18/17 Q1021","updated":"2026-06-28T03:39:21Z"}
