{"icao":"LPCS","metar":"LPCS 262030Z 02010KT 9999 FEW008 14/12 Q1024","updated":"2026-02-26T20:35:44Z"}
