{"icao":"KORD","metar":"KORD 031251Z 21004KT 10SM FEW070 19/13 A3021 RMK AO2 SLP225 T01890133","updated":"2025-10-03T13:24:29Z"}
