{"icao":"LPPT","metar":"LPPT 021800Z 13008KT 100V170 5000 SHRA FEW005 SCT012 FEW020CB BKN025 14/13 Q0999","updated":"2026-01-02T18:28:52Z"}
