{"icao":"LPFL","metar":"LPFL 300800Z 20004KT 130V260 9999 FEW008 SCT015 21/19 Q1017","updated":"2025-09-30T08:25:21Z"}
