{"icao":"LPPR","metar":"LPPR 211330Z 24009KT 6000 VCSH SCT022 FEW025CB BKN048 14/11 Q1000","updated":"2026-01-21T13:43:55Z"}
