{"icao":"KORD","metar":"KORD 250551Z 00000KT 9SM FEW250 03/01 A3033 RMK AO2 SLP273 T00330011 10094 20033 401220011 51010 $","updated":"2025-10-25T06:23:55Z"}
