{"icao":"KLAX","metar":"KLAX 170653Z 14003KT 10SM CLR 17/14 A2989 RMK AO2 SLP120 T01720139 $","updated":"2025-10-17T07:18:11Z"}
