{"icao":"LPBJ","metar":"LPBJ 010100Z 25003KT CAVOK 18/12 Q1019","updated":"2025-10-01T01:26:47Z"}
