{"icao":"LPPD","metar":"LPPD 282300Z 19012KT 9999 FEW012 18/16 Q1022","updated":"2026-05-28T23:14:16Z"}
