{"icao":"KJFK","metar":"KJFK 250751Z 15007KT 7SM BKN005 OVC015 22/21 A2997 RMK AO2 RAE28 SLP149 P0000 T02170211 $","updated":"2025-09-25T08:23:22Z"}
