{"icao":"LPOV","metar":"LPOV 242000Z VRB03KT 9999 FEW008 SCT020 BKN035 16/15 Q1015","updated":"2025-10-24T20:20:10Z"}
