{"icao":"LPAZ","metar":"LPAZ 250500Z 06003KT 9999 FEW018 14/13 Q1027","updated":"2025-11-25T05:18:53Z"}
