{"icao":"KLAX","metar":"KLAX 091516Z 25005KT 10SM SCT013 19/14 A2991 RMK AO2 T01890144 $","updated":"2026-06-09T15:53:33Z"}
