{"icao":"KORD","metar":"KORD 281823Z 12007KT 5SM -RA BR OVC006 13/12 A2941 RMK AO2 RAE1752B13 P0002 T01280122 $","updated":"2025-12-28T18:28:20Z"}
