{"icao":"KJFK","metar":"KJFK 140651Z 04018G24KT 10SM OVC012 13/11 A2997 RMK AO2 PK WND 03029/0619 RAE11 SLP150 P0000 T01330111","updated":"2025-10-14T07:18:30Z"}
