{"icao":"LPPR","metar":"LPPR 061100Z 31006KT 270V340 9999 VCSH FEW022 FEW025TCU SCT035 16/11 Q1016","updated":"2025-11-06T11:16:30Z"}
