{"icao":"LPMT","metar":"LPMT 260800Z 06002KT 9999 FEW035 16/15 Q1016","updated":"2025-10-26T08:20:50Z"}
