{"icao":"LPFR","metar":"LPFR 032300Z VRB02KT CAVOK 16/08 Q1021","updated":"2026-04-03T23:32:12Z"}
