{"icao":"LPBJ","metar":"LPBJ 120500Z 10007KT CAVOK 16/11 Q1016","updated":"2025-10-12T05:15:33Z"}
