{"icao":"LPOV","metar":"LPOV 251800Z 35016KT CAVOK 16/12 Q1017","updated":"2026-03-25T19:01:08Z"}
