{"icao":"LPHR","metar":"LPHR 261130Z 27011KT 9999 FEW003 BKN006 17/16 Q1030","updated":"2026-02-26T11:38:44Z"}
