{"icao":"LPBJ","metar":"LPBJ 041400Z 34006KT 310V020 CAVOK 26/11 Q1022","updated":"2025-10-04T14:14:01Z"}
