{"icao":"LPMA","metar":"LPMA 162100Z 21015KT 9999 SCT013 FEW020CB SCT070 23/17 Q1012","updated":"2025-10-16T21:16:03Z"}
