{"icao":"KJFK","metar":"KJFK 130851Z 28012G19KT 10SM BKN085 09/01 A2985 RMK AO2 SLP107 T00890011 53007","updated":"2025-11-13T09:20:29Z"}
