{"icao":"LPFR","metar":"LPFR 091730Z VRB04KT CAVOK 33/09 Q1013","updated":"2026-06-09T18:02:55Z"}
