{"icao":"KLAX","metar":"KLAX 310453Z 00000KT 10SM FEW009 FEW015 BKN250 17/14 A3000 RMK AO2 SLP156 FU FEW009 T01720139","updated":"2026-03-31T05:08:10Z"}
