{"icao":"LPFR","metar":"LPFR 190300Z 00000KT CAVOK 14/09 Q1016","updated":"2025-11-19T03:10:29Z"}
