{"icao":"KJFK","metar":"KJFK 192051Z 26020G26KT 10SM BKN047 M01/M09 A2999 RMK AO2 PK WND 27028/2012 SLP155 VIRGA NW-E T10061089 53015 $","updated":"2026-01-19T21:19:17Z"}
