{"icao":"LPST","metar":"LPST 271600Z VRB02KT 9999 SCT030 23/15 Q1018","updated":"2025-10-27T16:24:00Z"}
