{"icao":"LPAZ","metar":"LPAZ 141500Z 02012KT 350V050 9999 FEW012 BKN022 16/13 Q1030","updated":"2026-03-14T15:27:29Z"}
