{"icao":"LPMT","metar":"LPMT 171300Z 32009KT 280V350 9999 SCT035 21/11 Q1018","updated":"2026-05-17T13:17:32Z"}
