{"icao":"LPBJ","metar":"LPBJ 160700Z 19004KT CAVOK 17/09 Q1016","updated":"2025-10-16T07:17:49Z"}
