{"icao":"LPBJ","metar":"LPBJ 031200Z 30007KT 200V340 CAVOK 29/11 Q1023","updated":"2025-10-03T12:35:11Z"}
