{"icao":"LPLA","metar":"LPLA 090200Z 22017G29KT 9000 -DZ SCT009 BKN015 19/17 Q1010","updated":"2026-02-09T02:06:25Z"}
