{"icao":"KJFK","metar":"KJFK 260551Z 23010KT 10SM BKN100 03/M01 A2974 RMK AO2 SLP071 4/015 T00331011 10044 20011 53006 $","updated":"2026-02-26T05:56:35Z"}
