{"icao":"LPFR","metar":"LPFR 130500Z 22003KT CAVOK 21/15 Q1017"}
