{"icao":"KLAX","metar":"KLAX 052112Z 26009KT 8SM FEW015 SCT024 BKN060 BKN150 17/12 A3005 RMK AO2 T01720117 $","updated":"2026-01-05T21:19:39Z"}
