{"icao":"LPMT","metar":"LPMT 181200Z 36007KT CAVOK 23/15 Q1017","updated":"2025-10-18T12:32:56Z"}
