{"icao":"KLAX","metar":"KLAX 230053Z 00000KT 9SM SCT080 BKN150 19/09 A2992 RMK AO2 SLP131 T01940094","updated":"2025-11-23T01:43:17Z"}
