{"icao":"LPFR","metar":"LPFR 131730Z 29021KT 9999 VCSH FEW018 FEW022TCU 14/09 Q1011","updated":"2026-02-13T17:38:34Z"}
