{"icao":"LPAZ","metar":"LPAZ 132200Z 30008KT 9999 SCT028 14/09 Q1027","updated":"2026-01-13T22:20:54Z"}
