{"icao":"KLAX","metar":"KLAX 221415Z 10006KT 2 1/2SM BCFG BR FEW000 FEW003 SCT220 SCT270 11/11 A3001 RMK AO2 VIS SE-S 1 3/4 FG FEW000 T01110106 $","updated":"2025-12-22T14:20:07Z"}
