{"icao":"LPHR","metar":"LPHR 101000Z 20030KT 6000 -RA SCT007 BKN011 BKN030 18/17 Q1015","updated":"2025-12-10T10:22:37Z"}
