{"icao":"LPAZ","metar":"LPAZ 011300Z 06010KT 020V090 9999 FEW018 BKN022 17/11 Q1029","updated":"2026-04-01T13:19:21Z"}
