{"icao":"LPMT","metar":"LPMT 161700Z 36004KT 330V040 CAVOK 23/11 Q1016","updated":"2026-03-16T17:58:37Z"}
