{"icao":"KJFK","metar":"KJFK 200751Z 29015G29KT 10SM SCT050 M01/M11 A3005 RMK AO2 PK WND 30032/0740 SLP173 T10061111 $","updated":"2025-12-20T08:24:13Z"}
