{"icao":"LPFR","metar":"LPFR 181700Z 25006KT CAVOK 18/11 Q1017","updated":"2025-11-18T17:18:02Z"}
