{"icao":"LPMR","metar":"LPMR 181400Z 32007KT 290V350 9999 FEW025 17/10 Q1019","updated":"2025-11-18T14:18:37Z"}
