{"icao":"LPPS","metar":"LPPS 022000Z 29020G32KT 9000 VCSH SCT014 FEW018CB 16/12 Q0998","updated":"2026-01-02T20:21:24Z"}
