{"icao":"LPPD","metar":"LPPD 201900Z 34013KT 9999 FEW025 13/04 Q1016","updated":"2026-04-20T19:08:15Z"}
