{"icao":"KORD","metar":"KORD 242051Z 10003KT 9SM -SN BKN040 OVC048 M14/M26 A3055 RMK AO2 SNB37 SLP365 P0000 60000 T11441256 56027","updated":"2026-01-24T21:17:23Z"}
