{"icao":"LPST","metar":"LPST 181600Z 31010KT CAVOK 24/16 Q1015","updated":"2026-06-19T06:16:52Z"}
