{"icao":"LPCS","metar":"LPCS 060700Z 30003KT 260V320 9999 FEW016 11/10 Q1017","updated":"2025-11-06T07:17:52Z"}
