{"icao":"LPOV","metar":"LPOV 240600Z VRB02KT 9999 SCT030 15/14 Q1015","updated":"2025-10-24T06:26:06Z"}
