{"icao":"LPPR","metar":"LPPR 311600Z 22006KT 190V250 9999 FEW020 14/10 Q1018","updated":"2026-01-31T16:26:29Z"}
