{"icao":"KJFK","metar":"KJFK 021551Z 33015KT 10SM FEW250 M03/M14 A3002 RMK SLP164 T10331144 PNO $ ","updated":"2026-02-02T16:38:03Z"}
