{"icao":"LPLA","metar":"LPLA 091720Z 22021KT 3000 RADZ BR FEW003 SCT006 BKN015 19/17 Q1007","updated":"2026-02-09T17:53:05Z"}
