{"icao":"LPPD","metar":"LPPD 212100Z 26005KT 9000 -SHRA FEW006 SCT012 BKN030 15/14 Q1016","updated":"2026-05-21T21:27:05Z"}
