{"icao":"KORD","metar":"KORD 171551Z 16007KT 10SM BKN250 22/15 A2989 RMK AO2 SLP119 T02220150 $","updated":"2026-04-17T15:59:45Z"}
