{"icao":"LPMA","metar":"LPMA 011330Z 03012KT 350V060 9999 FEW015 20/11 Q1023","updated":"2025-12-01T13:34:28Z"}
