{"icao":"LPPS","metar":"LPPS 251300Z 34012KT 320V020 9999 FEW015 19/11 Q1018","updated":"2025-12-25T13:31:04Z"}
