{"icao":"KORD","metar":"KORD 170551Z 21009KT 10SM OVC110 11/04 A2996 RMK AO2 SLP145 T01060039 10161 20106 401830017 53007 $","updated":"2026-02-17T05:56:33Z"}
