{"icao":"LPPD","metar":"LPPD 222000Z 02010KT 9999 FEW022 14/09 Q1021","updated":"2026-03-22T20:26:19Z"}
