{"icao":"KLAX","metar":"KLAX 061413Z 00000KT 7SM FEW009 OVC015 17/15 A2983 RMK AO2 T01720150 $","updated":"2025-10-06T14:17:32Z"}
