{"icao":"KLAX","metar":"KLAX 242153Z 25008KT 10SM FEW040 17/11 A2986 RMK AO2 SLP112 T01670106 $","updated":"2026-01-24T22:18:58Z"}
