{"icao":"LPLA","metar":"LPLA 010200Z VRB01KT CAVOK 14/09 Q1027","updated":"2026-03-01T02:10:15Z"}
