{"icao":"KLAX","metar":"KLAX 022253Z 26007KT 7SM FEW008 FEW250 18/14 A3001 RMK AO2 SLP159 T01780144 $","updated":"2025-11-02T23:15:35Z"}
