{"icao":"KORD","metar":"KORD 150851Z 14006KT 8SM BKN040 OVC250 18/17 A2971 RMK AO2 LTG DSNT N AND NW SLP056 OCNL LTGIC DSNT N CB DSNT N MOV E 60000 T01780167 58002","updated":"2026-04-15T09:18:00Z"}
