{"icao":"LPPD","metar":"LPPD 240000Z 22005KT 9999 FEW005 SCT011 22/21 Q1017","updated":"2025-10-24T15:19:08Z"}
