{"icao":"LPFL","metar":"LPFL 082100Z 21015G29KT 170V260 9999 BKN009 19/17 Q1005","updated":"2026-02-08T21:25:33Z"}
