{"icao":"LPMR","metar":"LPMR 092200Z 15008KT 9999 FEW020 FEW022CB SCT035 14/11 Q1009 RETS","updated":"2026-05-09T22:41:22Z"}
