{"icao":"LPFR","metar":"LPFR 200900Z 36003KT 300V030 CAVOK 10/07 Q1020","updated":"2025-12-20T09:18:38Z"}
