{"icao":"LPPR","metar":"LPPR 180900Z 12005KT 090V160 CAVOK 02/01 Q1014","updated":"2026-01-18T09:19:41Z"}
