{"icao":"KLAX","metar":"KLAX 150053Z 24012KT 10SM FEW011 21/17 A2982 RMK AO2 SLP094 T02110172 $","updated":"2025-09-15T01:23:16Z"}
