{"icao":"LPPR","metar":"LPPR 182200Z 31010KT 260V340 9999 -SHRA FEW025 SCT030 12/07 Q1020","updated":"2026-02-18T22:31:15Z"}
