{"icao":"LPMA","metar":"LPMA 102100Z 35010KT 320V020 9999 FEW016 18/10 Q1026","updated":"2025-12-10T21:20:16Z"}
