{"icao":"LPPT","metar":"LPPT 050800Z 34007KT 310V010 9999 FEW025 15/10 Q1018","updated":"2026-05-05T08:07:03Z"}
