{"icao":"LPMA","metar":"LPMA 150900Z 02019G29KT 9999 SCT016 23/17 Q1022","updated":"2025-09-15T09:20:25Z"}
