{"icao":"KJFK","metar":"KJFK 300651Z 31015KT 10SM FEW043 FEW055 FEW250 M10/M18 A3015 RMK SLP210 T11001183 $ ","updated":"2026-01-30T07:39:12Z"}
