{"icao":"LPPT","metar":"LPPT 200930Z 11009G22KT 070V150 9999 VCSH BKN011 14/12 Q1008","updated":"2026-03-20T09:39:11Z"}
