{"icao":"LPAZ","metar":"LPAZ 252030Z VRB01KT 9999 FEW015 BKN021 17/16 Q1019","updated":"2026-04-25T20:37:28Z"}
