{"icao":"LPCS","metar":"LPCS 120830Z 34022G37KT 310V010 9999 FEW018 12/06 Q1019","updated":"2026-04-12T08:46:19Z"}
