{"icao":"KLAX","metar":"KLAX 060553Z 36005KT 10SM CLR 17/M03 A2995 RMK AO2 SLP141 T01721028 10217 20172 51007","updated":"2026-03-06T06:45:59Z"}
