{"icao":"KORD","metar":"KORD 280051Z 06008KT 10SM FEW250 12/04 A3013 RMK AO2 SLP206 T01170039","updated":"2025-10-28T01:20:36Z"}
