{"icao":"LPFR","metar":"LPFR 081600Z 26013G23KT CAVOK 25/13 Q1019","updated":"2025-10-08T16:21:57Z"}
