{"icao":"LPPD","metar":"LPPD 291400Z 23012KT 8000 FEW003 SCT006 BKN012 16/16 Q1009","updated":"2025-12-29T14:20:49Z"}
