{"icao":"LPMA","metar":"LPMA 281900Z 02008KT 330V090 9999 SCT016 22/15 Q1024","updated":"2025-09-28T19:12:09Z"}
