{"icao":"LPBJ","metar":"LPBJ 070900Z 20002KT 150V220 9999 FEW030 BKN045 13/13 Q1025","updated":"2025-12-07T09:17:46Z"}
