{"icao":"LPPT","metar":"LPPT 182000Z 25011KT CAVOK 21/16 Q1016","updated":"2025-10-18T20:17:36Z"}
