{"icao":"LPPR","metar":"LPPR 280900Z 05005KT CAVOK 08/05 Q1028","updated":"2026-02-28T09:24:39Z"}
