{"icao":"LPMT","metar":"LPMT 280500Z 01006KT CAVOK 11/08 Q1018","updated":"2026-03-28T05:55:35Z"}
