{"icao":"KORD","metar":"KORD 120333Z 22012G18KT 10SM SCT016 BKN250 M03/M07 A3032 RMK AO2 T10331067 $","updated":"2026-01-12T03:48:50Z"}
