{"icao":"LPAZ","metar":"LPAZ 061300Z 23020KT 9999 FEW008 BKN011 BKN038 22/20 Q1015","updated":"2025-11-06T13:31:18Z"}
