{"icao":"LPLA","metar":"LPLA 140800Z 00000KT 9999 FEW022 20/17 Q1026","updated":"2025-09-14T08:20:11Z"}
