{"icao":"LPOV","metar":"LPOV 021100Z 21007KT 160V260 8000 FEW003 SCT012 SCT020CB BKN022 09/07 Q0995","updated":"2026-02-02T11:34:16Z"}
