{"icao":"LPFR","metar":"LPFR 041800Z 33007KT 300V360 9999 FEW020 16/11 Q1002","updated":"2026-01-04T18:27:23Z"}
