{"icao":"LPFR","metar":"LPFR 050730Z 23023KT 4000 -RA BR SCT008 BKN015 16/15 Q0998","updated":"2026-02-05T07:51:24Z"}
