{"icao":"LPMT","metar":"LPMT 292000Z 24008KT 9999 FEW025 16/11 Q1011","updated":"2026-04-29T21:02:52Z"}
