{"icao":"KJFK","metar":"KJFK 150551Z 06004KT 9SM SCT250 M01/M03 A3008 RMK AO2 SLP187 4/002 T10111033 10056 21017 58006 $","updated":"2026-02-15T05:55:09Z"}
