{"icao":"LPLA","metar":"LPLA 281400Z 32009KT 280V360 9999 SCT035 16/07 Q1027","updated":"2025-11-28T14:19:01Z"}
