{"icao":"LPPT","metar":"LPPT 221900Z VRB02KT CAVOK 11/05 Q1029","updated":"2025-11-22T19:13:40Z"}
