{"icao":"LPAZ","metar":"LPAZ 081300Z 21014KT 9999 FEW014 SCT023 22/18 Q1022","updated":"2025-11-08T13:22:32Z"}
