{"icao":"LPMT","metar":"LPMT 200900Z 23005KT 190V260 9999 BKN038 19/17 Q1015","updated":"2025-10-20T09:20:56Z"}
