{"icao":"KORD","metar":"KORD 120251Z 09006KT 10SM BKN250 07/M03 A3024 RMK AO2 SLP242 T00671028 53004 $","updated":"2026-05-12T03:31:32Z"}
