{"icao":"LPLA","metar":"LPLA 110800Z 25009KT 210V280 9999 FEW016 16/11 Q1012","updated":"2026-02-11T08:59:35Z"}
