{"icao":"LPPR","metar":"LPPR 240600Z 13007KT 080V160 9999 -SHRA FEW020CB BKN030 07/04 Q1002","updated":"2026-01-24T06:30:11Z"}
