{"icao":"LPFR","metar":"LPFR 110400Z 04008KT 8000 -SHRA FEW012 FEW020TCU BKN035 13/12 Q1020","updated":"2025-12-11T04:33:40Z"}
