{"icao":"LPBJ","metar":"LPBJ 080200Z 29005KT 0100 FG VV002 13/13 Q1019","updated":"2025-11-08T03:00:53Z"}
