{"icao":"LPFR","metar":"LPFR 231500Z 26015KT CAVOK 25/20 Q1018","updated":"2025-10-23T15:19:06Z"}
