{"icao":"KORD","metar":"KORD 110051Z 29005KT 10SM CLR M02/M08 A3020 RMK AO2 SLP235 T10171083","updated":"2025-11-11T01:24:26Z"}
