{"icao":"KJFK","metar":"KJFK 170551Z 23006KT 10SM BKN043 BKN250 00/M02 A3019 RMK AO2 SLP221 4/003 T00001017 10006 21011 58003 $","updated":"2026-02-17T05:56:33Z"}
