{"icao":"LPFL","metar":"LPFL 081700Z VRB01KT 5000 -RA SCT005 BKN007 16/15 Q1028","updated":"2026-01-08T17:25:28Z"}
