{"icao":"LPMR","metar":"LPMR 111000Z 34020G30KT 9999 SCT012 BKN018 13/10 Q1016","updated":"2026-04-11T10:32:39Z"}
