{"icao":"LPPS","metar":"LPPS 101500Z 01013KT 9999 SCT015 BKN030 22/15 Q1022","updated":"2025-10-10T15:18:17Z"}
