{"icao":"LPPS","metar":"LPPS 251700Z 34009KT 300V030 9999 FEW015 23/15 Q1019","updated":"2025-09-25T17:15:12Z"}
