{"icao":"KLAX","metar":"KLAX 211453Z VRB03KT 7SM VCFG FEW000 FEW210 SCT280 17/16 A2994 RMK AO2 SLP136 VIS W-NW 2 FG FEW000 T01720161 53012","updated":"2026-03-21T15:24:43Z"}
