{"icao":"LPPT","metar":"LPPT 132100Z 27005KT CAVOK 11/10 Q1014","updated":"2026-01-13T21:20:05Z"}
