{"icao":"KORD","metar":"KORD 271751Z 30012G21KT 10SM SCT037 00/M10 A3021 RMK AO2 SLP238 T00001100 10006 21022 50000","updated":"2025-11-27T18:26:55Z"}
