{"icao":"LPMA","metar":"LPMA 031730Z 06005KT 010V110 9999 FEW015 20/13 Q1013","updated":"2026-02-03T17:51:46Z"}
