{"icao":"KJFK","metar":"KJFK 270651Z 20005KT 5SM BR BKN042 BKN070 OVC090 11/09 A2967 RMK AO2 RAE0556 SLP046 P0000 T01060094 $","updated":"2026-03-27T07:05:15Z"}
