{"icao":"KORD","metar":"KORD 211451Z 26009KT 10SM FEW021 BKN060 M02/M06 A2989 RMK AO2 SLP130 60001 T10221056 55003 $","updated":"2026-01-21T15:30:36Z"}
