{"icao":"LPPT","metar":"LPPT 221700Z 06005KT 320V090 CAVOK 21/09 Q1026","updated":"2026-02-22T17:23:38Z"}
