{"icao":"LPPR","metar":"LPPR 211100Z 36005KT 330V080 CAVOK 11/05 Q1029","updated":"2025-11-21T11:15:46Z"}
