{"icao":"LPOV","metar":"LPOV 232000Z 29004KT CAVOK 21/19 Q1012","updated":"2026-06-23T23:55:25Z"}
