{"icao":"KORD","metar":"KORD 030151Z 28003KT 10SM SCT022 BKN029 BKN110 OVC250 M04/M09 A3015 RMK AO2 SNE23 SLP220 P0000 T10441094","updated":"2026-02-03T02:02:51Z"}
