{"icao":"LPPR","metar":"LPPR 281100Z 03013KT 350V060 9999 FEW045 23/15 Q1013","updated":"2025-09-28T11:12:55Z"}
