{"icao":"LPAR","metar":"LPAR 221100Z 06008KT CAVOK 11/02 Q1031","updated":"2025-11-22T18:24:32Z"}
