{"icao":"KLAX","metar":"KLAX 021853Z 26009KT 9SM FEW009 FEW019 23/16 A3002 RMK AO2 SLP163 T02330156 $","updated":"2025-10-02T19:13:48Z"}
