{"icao":"KJFK","metar":"KJFK 172051Z 25008KT 10SM FEW040 FEW060 BKN150 BKN250 23/15 A2986 RMK AO2 SLP111 CB DSNT NW VCSH W-NW 60002 T02330150 51008","updated":"2026-04-17T21:14:46Z"}
