{"icao":"LPOV","metar":"LPOV 021400Z 35023KT CAVOK 17/11 Q1022","updated":"2026-04-02T14:54:13Z"}
