{"icao":"LPPI","metar":"LPPI 171500Z 22021KT 9999 FEW012 SCT019 24/18 Q1016","updated":"2026-06-17T15:24:40Z"}
