{"icao":"LPFR","metar":"LPFR 261930Z 31005KT CAVOK 15/12 Q1023","updated":"2026-02-26T19:42:45Z"}
