{"icao":"LPMR","metar":"LPMR 221300Z 04003KT CAVOK 32/14 Q1019","updated":"2026-05-22T13:30:22Z"}
