{"icao":"KJFK","metar":"KJFK 141551Z 34020G25KT 1/4SM R04R/3500V5500FT -SN BR BKN008 OVC013 M02/M03 A2996 RMK AO2 SFC VIS 3/4 SLP143 P0002 T10221028 $","updated":"2025-12-14T16:22:19Z"}
