{"icao":"LPFL","metar":"LPFL 131800Z 15008KT 060V200 9999 FEW017 18/12 Q1022","updated":"2026-01-13T20:23:50Z"}
