{"icao":"LPHR","metar":"LPHR 270600Z 04011KT 9999 SCT030 BKN047 19/12 Q1023","updated":"2025-09-27T06:22:26Z"}
