{"icao":"LPCS","metar":"LPCS 161900Z 36009KT CAVOK 22/07 Q1014","updated":"2025-10-16T19:12:39Z"}
