{"icao":"KJFK","metar":"KJFK 040951Z 00000KT 8SM SCT130 SCT250 11/10 A3012 RMK AO2 SLP198 T01060100","updated":"2026-04-04T10:32:11Z"}
