{"icao":"KJFK","metar":"KJFK 210551Z 22012KT 10SM BKN110 BKN230 03/M01 A3003 RMK AO2 SLP169 T00331006 10033 20006 58016 $","updated":"2025-12-21T06:28:49Z"}
