{"icao":"LPFL","metar":"LPFL 270700Z 03004KT 350V080 9999 FEW023 BKN032 18/10 Q1025","updated":"2025-09-27T07:14:23Z"}
