{"icao":"LPAZ","metar":"LPAZ 131900Z 33011KT 9999 FEW008 SCT024 BKN030 16/13 Q1030","updated":"2026-03-13T19:30:13Z"}
