{"icao":"LPPT","metar":"LPPT 100630Z 22015KT 5000 RA BR SCT003 BKN005 15/15 Q1015","updated":"2026-02-10T07:02:16Z"}
