{"icao":"LPBJ","metar":"LPBJ 071500Z 35004KT 320V030 9999 SCT040 16/07 Q1016","updated":"2026-03-07T15:22:01Z"}
