{"icao":"KORD","metar":"KORD 141451Z 22007KT 10SM CLR 10/02 A2999 RMK AO2 SLP156 T01000017 58003 $","updated":"2025-11-14T15:17:15Z"}
