{"icao":"KLAX","metar":"KLAX 230253Z 27015KT 10SM FEW060 18/12 A3001 RMK AO2 SLP162 T01830122 53002","updated":"2025-10-23T03:02:35Z"}
