{"icao":"LPLA","metar":"LPLA 161100Z 23006KT 210V270 9999 FEW022 BKN030 16/10 Q1021","updated":"2026-03-16T11:45:06Z"}
