{"icao":"LPFL","metar":"LPFL 270930Z 20005KT 9999 FEW017 14/10 Q1035","updated":"2026-02-27T09:39:44Z"}
