{"icao":"KJFK","metar":"KJFK 191051Z 17009KT 10SM FEW040 FEW250 16/14 A3000 RMK AO2 SLP157 T01610139 $","updated":"2025-10-19T11:13:16Z"}
