{"icao":"LPHR","metar":"LPHR 242130Z 26011KT 9999 FEW008 SCT012 16/15 Q1012","updated":"2026-04-24T21:45:40Z"}
