{"icao":"KORD","metar":"KORD 202251Z 02015KT 10SM FEW250 13/01 A3025 RMK AO2 SLP246 T01330011","updated":"2026-05-20T23:12:21Z"}
