{"icao":"LPMR","metar":"LPMR 260800Z 23014KT 200V260 3000 BR BKN006 BKN014 15/14 Q1011","updated":"2026-01-26T09:32:58Z"}
