{"icao":"LPMR","metar":"LPMR 251200Z 16009KT 5000 -SHRA FEW022 SCT025TCU BKN028 22/19 Q1015","updated":"2026-06-25T12:19:07Z"}
