{"icao":"LPPR","metar":"LPPR 101400Z 19006KT 160V220 9999 SCT025 13/08 Q1028","updated":"2026-01-10T14:17:42Z"}
