{"icao":"LPPT","metar":"LPPT 242000Z 33010KT CAVOK 22/03 Q1016","updated":"2025-09-24T20:19:20Z"}
