{"icao":"LPAZ","metar":"LPAZ 221000Z 27024KT 9000 SCT010 BKN023 17/15 Q1017","updated":"2026-01-22T10:26:33Z"}
