{"icao":"LPBJ","metar":"LPBJ 071800Z 29016KT CAVOK 18/05 Q1009","updated":"2026-05-07T18:22:29Z"}
