{"icao":"KLAX","metar":"KLAX 130253Z 26013KT 10SM BKN007 18/16 A2984 RMK AO2 SLP104 T01830161 53005 $","updated":"2026-06-13T03:35:32Z"}
