{"icao":"LPPR","metar":"LPPR 021500Z 24004KT 210V270 9999 BKN048 17/12 Q1026","updated":"2025-11-02T15:15:43Z"}
