{"icao":"KORD","metar":"KORD 112151Z 33013KT 10SM BKN250 05/M07 A3020 RMK AO2 SLP234 T00501067 $","updated":"2026-02-11T22:28:21Z"}
