{"icao":"KORD","metar":"KORD 030751Z 18005KT 10SM CLR 19/11 A3019 RMK AO2 SLP219 T01940111","updated":"2025-10-03T08:22:04Z"}
