{"icao":"LPBJ","metar":"LPBJ 110400Z 10007KT CAVOK 17/11 Q1020","updated":"2025-10-11T04:19:40Z"}
