{"icao":"LPBJ","metar":"LPBJ 171400Z 12005KT 050V190 9999 FEW045 28/10 Q1016","updated":"2026-04-17T14:53:57Z"}
