{"icao":"LPPT","metar":"LPPT 031600Z 33010KT 280V360 9999 FEW018 24/13 Q1022","updated":"2025-10-03T16:20:37Z"}
