{"icao":"KJFK","metar":"KJFK 060851Z 03013KT 5SM BR BKN006 OVC023 03/02 A3025 RMK AO2 SLP243 60006 T00280017 56001","updated":"2026-03-06T09:36:55Z"}
