{"icao":"KORD","metar":"KORD 270751Z 11010KT 10SM FEW030 09/06 A3025 RMK AO2 SLP247 T00890056 $","updated":"2025-10-27T08:26:01Z"}
