{"icao":"LPFR","metar":"LPFR 071300Z 12006KT 090V150 9999 FEW015 18/13 Q1024","updated":"2025-12-07T13:23:54Z"}
