{"icao":"KORD","metar":"KORD 220651Z 23005KT 10SM FEW055 FEW170 OVC200 21/17 A2987 RMK AO2 SLP109 T02060172 $","updated":"2025-09-22T07:18:27Z"}
