{"icao":"LPHR","metar":"LPHR 271830Z 26026G36KT 7000 SCT007 SCT011 BKN016 17/15 Q1003","updated":"2026-01-27T18:37:28Z"}
