{"icao":"LPST","metar":"LPST 121200Z 25008KT 210V280 9999 FEW015 BKN020 15/11 Q1021","updated":"2026-02-12T13:04:48Z"}
