{"icao":"LPFR","metar":"LPFR 110530Z 02007KT CAVOK 10/06 Q1023","updated":"2026-03-11T05:47:18Z"}
