{"icao":"KORD","metar":"KORD 102351Z 03013KT 1 1/2SM BR OVC003 04/03 A2972 RMK AO2 TSB2254E36 PRESFR SLP065 T00390033 10056 20033 58032","updated":"2026-03-11T00:02:43Z"}
