{"icao":"LPST","metar":"LPST 031400Z 32010KT 290V350 9999 FEW012 21/14 Q1023","updated":"2025-10-03T14:16:28Z"}
