{"icao":"KLAX","metar":"KLAX 100653Z 00000KT 10SM BKN085 BKN200 19/16 A2992 RMK AO2 SLP128 T01890161 $","updated":"2025-10-10T07:16:58Z"}
