{"icao":"LPPS","metar":"LPPS 041130Z 14008KT 110V170 9999 FEW003 SCT010 20/18 Q1017","updated":"2026-05-04T11:47:12Z"}
