{"icao":"KJFK","metar":"KJFK 201151Z 28015KT 10SM FEW035 FEW250 M08/M16 A3026 RMK AO2 SLP246 4/001 T10781156 11039 21078 53022 $","updated":"2026-01-20T12:48:18Z"}
