{"icao":"LPBJ","metar":"LPBJ 050600Z 22025G36KT 6000 -RADZ BKN008 OVC015 15/14 Q0994","updated":"2026-02-05T06:57:40Z"}
