{"icao":"KJFK","metar":"KJFK 091051Z 16008KT 7SM BKN090 BKN250 13/12 A2989 RMK AO2 SLP120 T01330122 $","updated":"2025-11-09T11:13:37Z"}
