{"icao":"LPHR","metar":"LPHR 261000Z 20013KT 170V240 9999 FEW012 SCT030 19/13 Q1023","updated":"2025-11-26T10:21:31Z"}
