{"icao":"LPPR","metar":"LPPR 071400Z 31010KT 9999 FEW009 SCT033 18/16 Q1013","updated":"2025-11-07T14:18:21Z"}
