{"icao":"LPCS","metar":"LPCS 122000Z 36008KT CAVOK 22/12 Q1016","updated":"2025-10-12T20:17:51Z"}
