{"icao":"KLAX","metar":"KLAX 260953Z 16003KT 10SM SCT180 BKN250 12/09 A3024 RMK AO2 SLP238 T01220089 $","updated":"2026-01-26T10:25:41Z"}
