{"icao":"LPPS","metar":"LPPS 161800Z 19011KT 9999 FEW011 SCT030 22/19 Q1013","updated":"2025-10-16T18:26:02Z"}
