{"icao":"KORD","metar":"KORD 222251Z 07009KT 10SM SCT250 17/09 A2993 RMK AO2 SLP133 T01720089","updated":"2026-04-22T23:44:09Z"}
