{"icao":"LPFL","metar":"LPFL 132100Z 16009KT 100V220 9999 FEW019 16/10 Q1028","updated":"2026-02-13T23:29:36Z"}
