{"icao":"LPPR","metar":"LPPR 300900Z 31004KT 280V340 2500 -DZ BR SCT002 BKN004 17/17 Q1023","updated":"2026-05-30T09:13:08Z"}
