{"icao":"LPPD","metar":"LPPD 211730Z 27015KT 3500 -DZ BR BKN003 16/16 Q1019","updated":"2026-01-21T17:53:05Z"}
