{"icao":"LPCS","metar":"LPCS 181700Z 18011KT 160V220 9999 FEW014 BKN026 15/13 Q1020","updated":"2025-12-18T17:21:57Z"}
