{"icao":"LPPT","metar":"LPPT 122030Z 34010KT 300V360 9999 FEW030 11/06 Q1022","updated":"2026-04-12T20:34:40Z"}
