{"icao":"LPMR","metar":"LPMR 200900Z 02504KT 8000 SCT008 18/14 Q1023","updated":"2026-05-20T09:29:59Z"}
