{"icao":"LPMA","metar":"LPMA 022300Z 35013G26KT 310V030 9999 SCT015 FEW018CB 13/07 Q1019 RESHRA","updated":"2026-03-02T23:24:19Z"}
