{"icao":"LPCS","metar":"LPCS 070700Z 25007KT 230V310 4000 RA SCT006 BKN012 11/11 Q1023","updated":"2026-01-07T07:23:47Z"}
