{"icao":"KJFK","metar":"KJFK 010651Z 02016G24KT 10SM FEW065 SCT250 17/06 A3008 RMK AO2 SLP187 T01670061 $","updated":"2025-10-01T07:18:00Z"}
