{"icao":"KLAX","metar":"KLAX 280653Z 25005KT 9SM FEW010 15/13 A2999 RMK AO2 SLP154 T01500133 $","updated":"2026-03-28T06:59:00Z"}
