{"icao":"LPOV","metar":"LPOV 260100Z 34006KT CAVOK 09/09 Q1022","updated":"2026-02-26T01:58:37Z"}
