{"icao":"LPMA","metar":"LPMA 232030Z 36022KT 9999 FEW013 19/14 Q1021","updated":"2026-05-23T20:50:20Z"}
