{"icao":"LPMA","metar":"LPMA 241430Z 02018G28KT 350V050 9999 SCT015 19/12 Q1017","updated":"2026-03-24T14:56:48Z"}
