{"icao":"LPFR","metar":"LPFR 142000Z 30011KT CAVOK 13/07 Q1029","updated":"2026-02-14T20:24:49Z"}
