{"icao":"LPFR","metar":"LPFR 290800Z 35003KT CAVOK 09/08 Q1020","updated":"2025-11-29T08:23:18Z"}
