{"icao":"LPMA","metar":"LPMA 121900Z 02006KT 330V060 9999 SCT015 17/11 Q1022","updated":"2026-02-12T19:08:51Z"}
