{"icao":"LPMT","metar":"LPMT 041100Z 34009KT 9999 FEW014 22/15 Q1024","updated":"2025-10-04T11:12:38Z"}
