{"icao":"KORD","metar":"KORD 171051Z 30009G17KT 10SM FEW065 M09/M17 A3005 RMK AO2 SLP187 T10941172 $","updated":"2026-03-17T11:42:41Z"}
