{"icao":"LPLA","metar":"LPLA 281900Z 24019KT 8000 -RA FEW009 SCT012 BKN018 18/16 Q1003","updated":"2026-01-28T19:27:00Z"}
