{"icao":"LPMT","metar":"LPMT 150000Z 20008KT 160V230 9999 FEW024 SCT038 17/14 Q1007","updated":"2025-11-15T01:21:43Z"}
