{"icao":"LPPR","metar":"LPPR 020900Z 12013KT 9999 VCSH FEW035 BKN040 14/09 Q1003","updated":"2026-01-02T09:23:28Z"}
