{"icao":"LPMA","metar":"LPMA 072000Z 22014KT 9999 FEW016 16/09 Q1012","updated":"2026-05-07T20:13:00Z"}
