{"icao":"KJFK","metar":"KJFK 231610Z 14004KT 10SM -RA SCT011 BKN023 OVC050 03/02 A3018 RMK AO2 SNE10 PRESFR P0000 T00330017 $","updated":"2025-12-23T16:26:20Z"}
