{"icao":"KJFK","metar":"KJFK 152251Z 32018G25KT 10SM SCT060 SCT250 23/08 A2974 RMK AO2 PK WND 32026/2231 SLP070 T02330083","updated":"2026-06-15T23:43:45Z"}
