{"icao":"LPBJ","metar":"LPBJ 180200Z 19004KT CAVOK 15/11 Q1017","updated":"2026-04-18T02:14:06Z"}
