{"icao":"LPPD","metar":"LPPD 191500Z 01005KT 300V090 9999 SCT035 15/06 Q1031","updated":"2026-01-19T15:25:29Z"}
