{"icao":"LPOV","metar":"LPOV 130200Z 17015KT 9999 -RA BKN015 OVC030 12/12 Q0999","updated":"2026-02-13T02:08:20Z"}
