{"icao":"KJFK","metar":"KJFK 120751Z 06015G22KT 10SM BKN080 BKN110 BKN250 17/11 A3006 RMK AO2 SLP180 T01720111","updated":"2025-10-12T08:20:25Z"}
