{"icao":"LPAZ","metar":"LPAZ 081500Z 23017KT 1600 R18/1300U BR SCT001 BKN004 17/17 Q1016","updated":"2026-02-08T15:24:59Z"}
