{"icao":"LPCS","metar":"LPCS 310700Z 17010KT 9999 SCT014 BKN030 19/18 Q1012","updated":"2025-10-31T07:16:48Z"}
