{"icao":"LPFL","metar":"LPFL 201100Z 20014G27KT 160V240 9999 FEW007 SCT012 17/13 Q1014","updated":"2026-02-20T11:31:16Z"}
