{"icao":"LPLA","metar":"LPLA 192200Z 08007KT 020V150 9999 FEW025 BKN040 17/14 Q1028","updated":"2025-11-19T22:17:52Z"}
