{"icao":"KORD","metar":"KORD 041651Z 21010KT 10SM CLR 28/16 A3011 RMK AO2 SLP190 T02830156 $","updated":"2025-10-04T17:13:35Z"}
