{"icao":"KORD","metar":"KORD 201251Z 19004KT 3SM BR BKN006 OVC023 06/05 A3010 RMK AO2 DZE42 SLP197 P0000 T00610050","updated":"2025-11-20T13:29:17Z"}
