{"icao":"LPBJ","metar":"LPBJ 060900Z 28013KT 8000 -SHRA BKN025 11/09 Q1005 RESHRA","updated":"2026-02-06T09:41:24Z"}
