{"icao":"KJFK","metar":"KJFK 040151Z 20004KT 10SM FEW130 BKN250 11/09 A3014 RMK AO2 SLP204 T01060094","updated":"2026-04-04T02:03:56Z"}
