{"icao":"LPFR","metar":"LPFR 112200Z 31007KT CAVOK 21/13 Q1016","updated":"2025-10-11T22:14:34Z"}
