{"icao":"LPBJ","metar":"LPBJ 211800Z 04005KT CAVOK 11/01 Q1026","updated":"2025-11-21T18:25:28Z"}
