{"icao":"LPMT","metar":"LPMT 181900Z 18009KT 150V220 9999 FEW015 BKN035 15/12 Q1019","updated":"2025-12-18T19:16:42Z"}
