{"icao":"LPFR","metar":"LPFR 220900Z 07008KT CAVOK 12/M02 Q1029","updated":"2025-11-22T09:17:20Z"}
