{"icao":"LPPS","metar":"LPPS 231100Z 08010KT 050V120 9999 SCT015 20/13 Q1027","updated":"2025-11-23T11:14:24Z"}
