{"icao":"LPCS","metar":"LPCS 051600Z 26012G22KT 230V290 9999 SCT018 FEW025CB BKN035 14/13 Q1010","updated":"2025-11-05T16:24:21Z"}
