{"icao":"KJFK","metar":"KJFK 160451Z 26009KT 10SM -RA SCT065 OVC110 11/07 A2929 RMK AO2 RAB48 SLP917 P0000 T01060067 401220017","updated":"2025-11-16T05:17:41Z"}
