{"icao":"KJFK","metar":"KJFK 030351Z 25008KT 10SM FEW110 SCT250 19/08 A3015 RMK AO2 SLP210 T01940083 $","updated":"2026-06-03T03:57:56Z"}
