{"icao":"LPFR","metar":"LPFR 310600Z 21008KT CAVOK 20/17 Q1015","updated":"2025-10-31T06:27:35Z"}
