{"icao":"LPPS","metar":"LPPS 261800Z 20011KT 9999 FEW006 23/22 Q1015","updated":"2025-10-26T18:23:53Z"}
