{"icao":"LPOV","metar":"LPOV 200900Z 17007KT 140V200 9999 SCT004 BKN030 16/16 Q1014","updated":"2025-10-20T09:20:54Z"}
