{"icao":"LPMA","metar":"LPMA 201830Z 22017KT 9999 BKN015 FEW018CB 16/14 Q0995 RESHRA","updated":"2026-03-20T18:48:49Z"}
