{"icao":"LPHR","metar":"LPHR 101300Z VRB06KT 9000 -RA SCT012 FEW014TCU SCT025 15/09 Q1023","updated":"2026-05-10T13:15:25Z"}
