{"icao":"KORD","metar":"KORD 091323Z 21013G21KT 10SM SCT020 M03/M06 A2976 RMK AO2 T10281061","updated":"2025-12-09T13:35:09Z"}
