{"icao":"LPMT","metar":"LPMT 012100Z 05003KT 350V120 9999 -RA SCT014 SCT035 17/16 Q1021","updated":"2025-11-01T21:13:54Z"}
