{"icao":"KLAX","metar":"KLAX 092053Z 18004KT 10SM FEW100 SCT140 BKN180 OVC250 25/06 A2996 RMK AO2 SLP146 T02500056 58025 $","updated":"2026-02-09T21:37:50Z"}
