{"icao":"KJFK","metar":"KJFK 091551Z 02014KT 10SM FEW045 14/01 A3046 RMK AO2 SLP313 T01440006","updated":"2025-10-09T16:23:42Z"}
