{"icao":"KORD","metar":"KORD 021451Z 34010KT 10SM FEW020 FEW031 FEW250 M08/M14 A2995 RMK AO2 SLP153 T10781139 51021 $","updated":"2026-01-02T15:20:59Z"}
