{"icao":"LPAZ","metar":"LPAZ 111530Z 22003KT 150V270 9999 FEW015 BKN030 14/11 Q1032","updated":"2026-03-11T15:47:14Z"}
