{"icao":"LPOV","metar":"LPOV 250800Z 14002KT 100V170 7000 SCT012 BKN025 13/13 Q1016","updated":"2026-02-25T08:47:29Z"}
