{"icao":"LPOV","metar":"LPOV 291800Z 19005KT 2000 RA BR SCT008 OVC015 13/12 Q1015","updated":"2025-11-30T01:42:22Z"}
