{"icao":"KLAX","metar":"KLAX 271030Z 10004KT 10SM FEW009 SCT250 16/13 A2997 RMK AO2 T01560133","updated":"2026-02-27T10:36:05Z"}
