{"icao":"LPLA","metar":"LPLA 280300Z 20010G21KT 9000 -RA SCT018 16/12 Q1018","updated":"2026-05-28T03:28:43Z"}
