{"icao":"LPCS","metar":"LPCS 211600Z VRB04KT CAVOK 21/06 Q1027","updated":"2026-02-21T16:27:26Z"}
