{"icao":"LPFR","metar":"LPFR 271000Z 06017KT 4000 RA BR FEW012 SCT018CB BKN025 08/07 Q1008","updated":"2025-12-27T10:18:44Z"}
