{"icao":"LPPT","metar":"LPPT 100400Z 21004KT 8000 -DZ FEW004 BKN014 15/15 Q1018","updated":"2025-11-10T04:26:08Z"}
