{"icao":"LPBJ","metar":"LPBJ 080400Z 13001KT 2000 PRFG BKN002 01/01 Q1031","updated":"2026-01-08T04:38:16Z"}
