{"icao":"LPMA","metar":"LPMA 191700Z 02009KT 350V050 9999 SCT016 BKN060 20/13 Q1010","updated":"2026-04-19T17:34:19Z"}
