{"icao":"LPPD","metar":"LPPD 291000Z 15007KT 120V180 9999 VCSH FEW016 SCT025 20/17 Q1026","updated":"2025-09-29T10:19:58Z"}
