{"icao":"LPPR","metar":"LPPR 031800Z 22006KT 190V250 9999 FEW025 SCT048 13/10 Q1021","updated":"2025-12-03T18:29:57Z"}
