{"icao":"LPMT","metar":"LPMT 220900Z 24004KT 170V300 9999 SCT025 16/09 Q1014","updated":"2026-04-22T09:18:55Z"}
