{"icao":"KORD","metar":"KORD 210951Z 28005KT 10SM OVC018 M03/M08 A3000 RMK AO2 SLP166 T10331078 $","updated":"2026-02-21T10:24:31Z"}
