{"icao":"KLAX","metar":"KLAX 200453Z 29014KT 10SM FEW041 12/04 A2987 RMK AO2 PK WND 27031/0412 SLP115 T01170044","updated":"2026-02-20T05:52:30Z"}
