{"icao":"LPMA","metar":"LPMA 040400Z 23009KT 9999 FEW015 21/17 Q1015","updated":"2025-11-04T04:20:50Z"}
