{"icao":"KORD","metar":"KORD 211951Z 19010KT 10SM FEW100 SCT250 21/06 A2975 RMK AO2 SLP075 T02110056","updated":"2026-03-21T20:25:42Z"}
