{"icao":"LPFR","metar":"LPFR 011000Z 07008KT 040V100 9999 FEW025 SCT038 16/11 Q1022","updated":"2026-03-01T10:23:36Z"}
