{"icao":"LPOV","metar":"LPOV 201900Z 36004KT CAVOK 17/12 Q1009","updated":"2026-04-20T19:08:13Z"}
