{"icao":"LPMR","metar":"LPMR 050100Z 03007KT 010V070 9999 FEW030 08/M01 Q1009","updated":"2026-01-05T01:49:10Z"}
