{"icao":"LPAZ","metar":"LPAZ 040800Z 26022KT 9999 FEW011 SCT020 20/16 Q1007","updated":"2025-11-04T08:26:36Z"}
