{"icao":"LPMA","metar":"LPMA 300130Z VRB03KT 9999 SCT015 17/14 Q1023","updated":"2025-11-30T01:42:38Z"}
