{"icao":"KJFK","metar":"KJFK 131951Z 31015G25KT 10SM BKN060 BKN080 11/M01 A2988 RMK AO2 PK WND 31027/1918 SLP117 T01061011","updated":"2025-11-13T20:21:09Z"}
