{"icao":"LPPR","metar":"LPPR 011430Z 33015KT CAVOK 19/07 Q1024","updated":"2026-04-01T15:02:29Z"}
