{"icao":"LPBJ","metar":"LPBJ 020716Z VRB02KT 0200 FG VV002 05/05 Q1013","updated":"2026-03-02T07:49:32Z"}
