{"icao":"LPOV","metar":"LPOV 031400Z 15004KT 8000 -RA FEW004 BKN028 BKN040 11/10 Q1022 RERA","updated":"2025-12-03T14:20:06Z"}
