{"icao":"LPPS","metar":"LPPS 260830Z 02009KT 9999 SCT015 17/11 Q1019","updated":"2026-04-26T08:59:13Z"}
