{"icao":"LPMT","metar":"LPMT 130500Z VRB02KT CAVOK 13/12 Q1014","updated":"2025-10-13T05:17:46Z"}
