{"icao":"LPPR","metar":"LPPR 240800Z 01004KT 320V040 CAVOK 06/04 Q1011","updated":"2025-12-24T08:28:14Z"}
