{"icao":"LPFL","metar":"LPFL 111430Z 21014G24KT 170V260 9999 SCT019 17/11 Q1012","updated":"2026-02-11T14:51:58Z"}
