{"icao":"LPBJ","metar":"LPBJ 140300Z 29006KT 3000 VCFG FEW025 12/11 Q1016","updated":"2026-05-14T03:39:09Z"}
