{"icao":"LPPR","metar":"LPPR 220700Z 11005KT 070V130 CAVOK 04/02 Q1031","updated":"2025-11-22T07:16:19Z"}
