{"icao":"LPMA","metar":"LPMA 140700Z 35009KT 300V040 9999 SCT015 14/05 Q1024","updated":"2026-01-14T07:24:12Z"}
