{"icao":"LPOV","metar":"LPOV 301500Z 29005KT 9999 FEW025 13/09 Q1020","updated":"2025-12-30T15:21:00Z"}
