{"icao":"LPMA","metar":"LPMA 061900Z 02018G28KT 9999 SCT015 15/08 Q1028","updated":"2026-01-06T19:16:37Z"}
