{"icao":"KJFK","metar":"KJFK 151551Z 07009KT 10SM SCT041 SCT250 26/14 A3025 RMK AO2 SLP241 T02610144 $","updated":"2025-09-15T16:21:33Z"}
