{"icao":"LPFR","metar":"LPFR 191830Z 11005KT CAVOK 19/14 Q1014","updated":"2026-04-19T18:49:35Z"}
