{"icao":"LPPS","metar":"LPPS 261830Z 03016KT 9999 SCT015 BKN030 16/11 Q1023","updated":"2026-02-26T18:55:48Z"}
