{"icao":"LPPT","metar":"LPPT 280400Z 13005KT 8000 FEW002 BKN004 18/18 Q1016","updated":"2025-10-28T04:20:54Z"}
