{"icao":"KLAX","metar":"KLAX 021053Z 08004KT 10SM FEW012 17/16 A2997 RMK AO2 SLP147 T01720156 $","updated":"2025-10-02T11:13:53Z"}
