{"icao":"KORD","metar":"KORD 101332Z 32010KT 4SM -DZ BR BKN009 OVC016 01/00 A2939 RMK AO2 RAE26DZB26 P0000 T00110000","updated":"2025-12-10T13:36:37Z"}
