{"icao":"LPST","metar":"LPST 221300Z 18008KT 150V220 9999 FEW024 19/08 Q1014","updated":"2026-04-22T13:24:28Z"}
