{"icao":"LPAR","metar":"LPAR 010900Z 06007KT CAVOK 22/14 Q1021","updated":"2025-10-01T09:19:38Z"}
