{"icao":"LPFL","metar":"LPFL 281230Z 10004KT 040V150 9999 VCSH FEW006 15/12 Q1034","updated":"2026-03-28T12:53:09Z"}
