{"icao":"KORD","metar":"KORD 141151Z 07006KT 5SM BR CLR 19/18 A3002 RMK AO2 SLP163 70027 T01940178 10200 20178 51009 $","updated":"2025-09-14T12:30:49Z"}
