{"icao":"LPAZ","metar":"LPAZ 111300Z 24010KT 4000 BR FEW010 17/16 Q1019","updated":"2026-02-11T13:07:17Z"}
