{"icao":"LPOV","metar":"LPOV 212100Z 35004KT 6000 NSC 09/09 Q1030","updated":"2026-02-21T21:21:27Z"}
