{"icao":"KORD","metar":"KORD 022251Z 19016G32KT 10SM FEW034 BKN065 BKN095 BKN160 BKN250 21/16 A2963 RMK AO2 PK WND 19036/2152 RAE11 SLP034 P0000 T02060161","updated":"2026-04-02T23:34:18Z"}
