{"icao":"LPLA","metar":"LPLA 160700Z 31003KT 280V360 9999 FEW035 12/09 Q1022","updated":"2025-11-16T07:17:09Z"}
