{"icao":"LPPR","metar":"LPPR 031000Z VRB02KT 2500 BR BKN002 OVC004 15/14 Q1024","updated":"2025-10-03T10:17:47Z"}
