{"icao":"LPMA","metar":"LPMA 070730Z 02014KT 340V050 9999 SCT015 19/13 Q1023","updated":"2026-06-07T07:53:41Z"}
