{"icao":"KLAX","metar":"KLAX 111853Z 27011G21KT 10SM FEW034 SCT060 SCT085 20/12 A3003 RMK AO2 SLP167 T02000122 $","updated":"2026-04-11T19:34:04Z"}
