{"icao":"LPMA","metar":"LPMA 150530Z 02014KT 9999 FEW016 15/08 Q1031","updated":"2026-02-15T05:55:09Z"}
