{"icao":"KJFK","metar":"KJFK 091851Z 19010KT 10SM FEW250 17/06 A3001 RMK AO2 SLP162 T01670061 $","updated":"2026-03-09T19:39:36Z"}
