{"icao":"LPPR","metar":"LPPR 151100Z 36014KT 340V040 9999 FEW017 14/07 Q1021","updated":"2026-03-15T11:24:25Z"}
