{"icao":"LPAZ","metar":"LPAZ 230430Z 17014KT 9999 FEW012 BKN019 15/14 Q1019","updated":"2026-02-23T04:56:57Z"}
