{"icao":"KJFK","metar":"KJFK 031851Z 30008KT 10SM BKN140 BKN250 M02/M13 A2998 RMK AO2 SLP151 T10171133 $","updated":"2026-01-03T19:14:37Z"}
