{"icao":"KJFK","metar":"KJFK 270851Z 04011KT 1 1/2SM -SN BR BKN007 BKN012 OVC018 M01/M02 A2988 RMK AO2 TWR VIS 2 SLP118 P0002 60013 T10111022 58002 $","updated":"2025-12-27T09:19:13Z"}
