{"icao":"LPPT","metar":"LPPT 092000Z 32009KT CAVOK 18/14 Q1020","updated":"2025-10-09T20:19:38Z"}
