{"icao":"LPFL","metar":"LPFL 081500Z 32014G27KT 260V360 9999 VCSH FEW015 SCT021 14/07 Q1000","updated":"2025-12-08T15:22:13Z"}
