{"icao":"LPBJ","metar":"LPBJ 271300Z 21012KT 190V250 CAVOK 27/03 Q1018","updated":"2025-09-27T13:19:53Z"}
