{"icao":"KORD","metar":"KORD 291951Z VRB03KT 10SM FEW032 FEW250 M09/M21 A3028 RMK AO2 SLP269 T10891211","updated":"2026-01-29T20:28:32Z"}
