{"icao":"LPPR","metar":"LPPR 071800Z 30006KT 270V340 9999 FEW018 15/11 Q1010","updated":"2026-05-07T18:22:14Z"}
