{"icao":"KORD","metar":"KORD 141151Z 22003KT 10SM BKN250 01/M03 A3003 RMK AO2 SLP174 T00111028 10044 20006 53004 $","updated":"2026-02-14T12:44:40Z"}
