{"icao":"LPOV","metar":"LPOV 101200Z 28008KT 250V310 CAVOK 23/11 Q1022","updated":"2025-10-10T12:36:38Z"}
