{"icao":"LPPT","metar":"LPPT 201300Z 26008KT 220V300 9999 FEW028 BKN035 23/14 Q1015","updated":"2025-10-20T13:28:08Z"}
