{"icao":"LPLA","metar":"LPLA 192300Z 20017G30KT 170V230 9999 FEW007 BKN018 17/15 Q1021","updated":"2026-02-19T23:28:42Z"}
