{"icao":"LPMA","metar":"LPMA 091300Z 01007KT 340V050 9999 SCT015 SCT030 22/14 Q1022","updated":"2025-11-09T13:23:03Z"}
