{"icao":"LPPR","metar":"LPPR 130400Z 04003KT 300V110 CAVOK 17/12 Q1015","updated":"2025-10-13T04:21:07Z"}
