{"icao":"LPPI","metar":"LPPI 011730Z 09015KT 9999 FEW022 25/17 Q1030","updated":"2026-07-01T17:53:38Z"}
