{"icao":"LPPS","metar":"LPPS 130930Z 06013KT 030V090 9999 FEW015 BKN030 16/09 Q1026","updated":"2026-03-13T09:37:03Z"}
