{"icao":"LPHR","metar":"LPHR 081900Z 17006KT 140V210 9999 FEW006 BKN090 23/22 Q1020","updated":"2025-10-08T19:13:54Z"}
