{"icao":"KORD","metar":"KORD 200935Z 21018G31KT 10SM BKN014 OVC019 03/00 A2930 RMK AO2 PK WND 26034/0917 T00330000 $","updated":"2026-02-20T09:39:21Z"}
