{"icao":"LPST","metar":"LPST 041400Z 14021KT CAVOK 19/14 Q1013","updated":"2025-11-04T14:19:02Z"}
