{"icao":"LPFR","metar":"LPFR 300400Z 33006KT CAVOK 16/15 Q1013","updated":"2025-10-30T04:20:44Z"}
