{"icao":"LPFL","metar":"LPFL 111830Z 02003KT 310V090 9999 SCT025 15/10 Q1026","updated":"2026-05-11T18:57:25Z"}
