{"icao":"LPLA","metar":"LPLA 061700Z 26019G30KT 8000 -RA FEW020 SCT030 17/12 Q1004","updated":"2026-02-06T17:40:10Z"}
