{"icao":"LPMA","metar":"LPMA 290730Z 01007KT 9999 SCT015 19/14 Q1025","updated":"2026-05-29T07:53:57Z"}
