{"icao":"LPPR","metar":"LPPR 112100Z 29007KT 250V340 9999 FEW015 BKN025 14/11 Q1014","updated":"2026-02-11T21:32:37Z"}
