{"icao":"LPMA","metar":"LPMA 061600Z 01014KT 340V050 9999 SCT015 17/07 Q1027","updated":"2026-01-06T16:27:40Z"}
