{"icao":"LPPT","metar":"LPPT 020700Z 13010KT 090V170 9000 -RA FEW006 BKN018 FEW020TCU 13/13 Q1002","updated":"2026-01-02T07:23:02Z"}
