{"icao":"LPMR","metar":"LPMR 240700Z 10004KT 8000 -SHRA SCT020 FEW022CB OVC035 06/05 Q1004 RETS","updated":"2026-01-24T08:25:35Z"}
