{"icao":"LPPT","metar":"LPPT 100600Z 16005KT 130V190 9999 FEW015 FEW025TCU 11/10 Q1009 RETS","updated":"2026-05-10T06:10:42Z"}
