{"icao":"LPOV","metar":"LPOV 210100Z 13002KT 100V170 7000 NSC 05/04 Q1029","updated":"2026-02-21T01:54:10Z"}
