{"icao":"LPMT","metar":"LPMT 140400Z 16007KT 9999 FEW015 SCT025 15/13 Q1001","updated":"2025-11-14T04:21:46Z"}
