{"icao":"LPPD","metar":"LPPD 261130Z 13011KT 9999 FEW005 SCT015 18/16 Q1022","updated":"2026-04-26T11:37:53Z"}
