{"icao":"LPPR","metar":"LPPR 250600Z VRB07G17KT CAVOK 17/03 Q1018","updated":"2025-09-25T06:26:56Z"}
