{"icao":"KORD","metar":"KORD 251451Z 36008KT 10SM FEW021 SCT055 SCT250 19/14 A2996 RMK AO2 SLP143 T01890139 51004","updated":"2025-09-25T15:18:46Z"}
