{"icao":"LPPS","metar":"LPPS 161800Z 33016KT 9999 SCT015 16/11 Q1025","updated":"2026-01-16T18:31:14Z"}
