{"icao":"LPPD","metar":"LPPD 140600Z 24011KT 9999 SCT014 BKN030 16/13 Q1025","updated":"2026-01-14T06:32:27Z"}
