{"icao":"LPPT","metar":"LPPT 082300Z 34012KT 300V010 9999 BKN014 18/15 Q1022","updated":"2025-10-08T23:15:28Z"}
