{"icao":"LPMT","metar":"LPMT 110800Z 23011KT 2000 -DZ BR OVC002 15/15 Q1017","updated":"2026-02-11T08:59:34Z"}
