{"icao":"LPMA","metar":"LPMA 302130Z 24016KT 9999 FEW015 SCT070 19/12 Q1017","updated":"2026-04-30T22:02:36Z"}
