{"icao":"KORD","metar":"KORD 161551Z 14007G16KT 10SM FEW055 SCT080 17/07 A3020 RMK AO2 SLP226 T01670067","updated":"2025-10-16T16:23:31Z"}
