{"icao":"LPBJ","metar":"LPBJ 031500Z 05005KT 360V090 CAVOK 25/03 Q1021","updated":"2026-04-03T15:37:37Z"}
