{"icao":"LPPD","metar":"LPPD 051030Z 04012KT 010V070 9999 SCT020 BKN045 15/10 Q1026","updated":"2026-05-05T10:44:48Z"}
