{"icao":"LPPR","metar":"LPPR 162130Z VRB01KT CAVOK 13/08 Q1017","updated":"2026-03-16T21:38:08Z"}
