{"icao":"KLAX","metar":"KLAX 300053Z 11006KT 10SM FEW250 21/M05 A3007 RMK AO2 SLP184 T02061050 $","updated":"2025-12-30T01:39:09Z"}
