{"icao":"LPAZ","metar":"LPAZ 090900Z 18013KT 9999 SCT015 22/20 Q1024","updated":"2025-10-09T09:18:34Z"}
