{"icao":"LPOV","metar":"LPOV 090500Z 33003KT 7000 BKN006 16/15 Q1021","updated":"2025-10-09T05:17:18Z"}
