{"icao":"LPMR","metar":"LPMR 132200Z 18002KT CAVOK 15/13 Q1017","updated":"2025-10-13T23:15:27Z"}
