{"icao":"LPPR","metar":"LPPR 150500Z 12006KT 9999 SCT011 BKN035 12/11 Q1023","updated":"2026-04-15T05:22:31Z"}
