{"icao":"KJFK","metar":"KJFK 111848Z 19012G20KT 10SM FEW009 SCT060 BKN090 BKN130 BKN250 10/08 A2984 RMK AO2","updated":"2026-03-11T18:52:25Z"}
