{"icao":"LPLA","metar":"LPLA 291100Z 26007KT 210V290 9999 FEW025 SCT040 19/10 Q1018","updated":"2025-10-29T11:16:20Z"}
