{"icao":"KORD","metar":"KORD 251251Z 00000KT 1 3/4SM BR OVC005 08/08 A2977 RMK AO2 RAE1155DZB1155E50 SLP083 P0000 T00830078","updated":"2025-11-25T13:33:18Z"}
