{"icao":"KORD","metar":"KORD 131251Z 15006KT 10SM FEW100 SCT130 BKN170 OVC250 14/09 A3005 RMK AO2 SLP174 T01390089 $","updated":"2025-10-13T13:29:15Z"}
