{"icao":"LPBJ","metar":"LPBJ 151700Z 02012KT CAVOK 20/08 Q1016","updated":"2026-03-15T17:26:36Z"}
