{"icao":"LPFL","metar":"LPFL 120730Z 31009G25KT 230V030 9999 SCT021 15/09 Q1012","updated":"2026-02-12T07:51:08Z"}
