{"icao":"LPLA","metar":"LPLA 071900Z 19011KT 160V270 9999 SCT025 BKN040 18/13 Q1007","updated":"2025-12-07T19:14:07Z"}
