{"icao":"KORD","metar":"KORD 082312Z 15014G21KT 4SM -RA BR BKN015 BKN029 OVC050 12/11 A2956 RMK AO2 P0005 T01220111 $","updated":"2026-01-08T23:17:44Z"}
