{"icao":"LPBJ","metar":"LPBJ 291800Z 02012KT CAVOK 18/01 Q1025","updated":"2026-03-29T18:42:25Z"}
