{"icao":"KORD","metar":"KORD 091251Z 21011G21KT 10SM FEW180 FEW250 10/01 A2972 RMK AO2 SLP065 T01000011 $","updated":"2026-03-09T13:00:43Z"}
