{"icao":"KORD","metar":"KORD 201151Z 25005KT 10SM CLR M16/M21 A3033 RMK AO2 SLP288 4/001 T11611206 11156 21161 52006 $","updated":"2026-01-20T12:48:19Z"}
