{"icao":"LPBJ","metar":"LPBJ 090500Z 31002KT CAVOK 08/07 Q1021","updated":"2025-11-09T05:16:50Z"}
