{"icao":"LPLA","metar":"LPLA 201600Z 17018G30KT 8000 FEW018 SCT030 18/13 Q1019","updated":"2026-02-20T16:37:12Z"}
