{"icao":"LPPD","metar":"LPPD 271230Z 25026KT 9000 -SHRA FEW008 SCT012 FEW025TCU BKN030 14/12 Q1010","updated":"2026-01-27T12:48:09Z"}
