{"icao":"LPBJ","metar":"LPBJ 271800Z 02008KT CAVOK 19/07 Q1015","updated":"2026-03-27T18:54:12Z"}
