{"icao":"KLAX","metar":"KLAX 211753Z 26010KT 10SM FEW008 SCT017 BKN023 19/13 A2993 RMK AO2 SLP135 FU FEW008 T01940133 10200 20150 51003","updated":"2026-06-21T18:18:49Z"}
