{"icao":"KJFK","metar":"KJFK 140102Z 21003KT 10SM BKN039 BKN055 OVC095 02/M02 A3005 RMK AO2 SNE02 P0000 T00171022","updated":"2025-12-14T01:43:22Z"}
