{"icao":"LPCS","metar":"LPCS 261730Z 35014KT CAVOK 20/09 Q1014 WS R35","updated":"2026-03-26T18:04:13Z"}
