{"icao":"KLAX","metar":"KLAX 150753Z 00000KT 10SM BKN014 19/17 A2986 RMK AO2 SLP109 T01940172 402390194 $","updated":"2025-09-15T08:23:41Z"}
