{"icao":"KORD","metar":"KORD 021351Z 26007KT 2SM BR BKN004 M08/M09 A3000 RMK AO2 SLP170 VIS W-NW 1 T10831094","updated":"2025-12-02T14:20:58Z"}
