{"icao":"LPOV","metar":"LPOV 131400Z 31006KT 9999 FEW025 23/14 Q1016","updated":"2025-10-13T14:18:36Z"}
