{"icao":"LPMA","metar":"LPMA 181630Z 20006KT 150V230 9999 FEW014 19/13 Q1025","updated":"2026-02-18T17:01:50Z"}
