{"icao":"KJFK","metar":"KJFK 122051Z 03018G31KT 4SM RA BR SCT015 BKN023 OVC028 13/12 A3001 RMK AO2 PK WND 02031/2044 SLP160 P0012 60024 T01330122 56014","updated":"2025-10-12T21:14:34Z"}
