{"icao":"LPCS","metar":"LPCS 221000Z 06006KT 030V100 9999 FEW023 15/11 Q1011","updated":"2026-03-22T10:26:08Z"}
