{"icao":"LPLA","metar":"LPLA 091400Z 13008KT 070V170 9999 SCT037 15/05 Q1036","updated":"2026-03-09T14:48:55Z"}
