{"icao":"KJFK","metar":"KJFK 040851Z 26011KT 10SM SCT250 02/M03 A3003 RMK AO2 SLP169 T00171028 58011","updated":"2025-12-04T09:23:26Z"}
