{"icao":"LPFR","metar":"LPFR 120330Z 04006KT CAVOK 09/08 Q1024","updated":"2026-01-12T03:48:15Z"}
