{"icao":"LPPD","metar":"LPPD 241830Z 19011KT 4000 -RA SCT007 BKN010 16/15 Q1014","updated":"2026-04-24T18:50:13Z"}
