{"icao":"KLAX","metar":"KLAX 171153Z 00000KT 1/16SM R25L/2400V3500FT FG VV002 13/13 A3004 RMK AO2 SLP172 T01330133 10144 20133 58011 $","updated":"2025-12-17T12:42:09Z"}
