{"icao":"KJFK","metar":"KJFK 160451Z 06014KT 2SM -SN BR SCT008 BKN011 OVC023 00/M01 A3008 RMK AO2 SLP185 P0002 T00001006 400441028 $","updated":"2026-02-16T04:58:01Z"}
