{"icao":"LPMT","metar":"LPMT 151400Z 20010KT 150V220 9999 -SHRA OVC035 13/12 Q1016","updated":"2026-01-15T14:23:33Z"}
