{"icao":"LPST","metar":"LPST 091000Z 03006KT 360V060 CAVOK 15/10 Q1017","updated":"2026-04-09T10:57:13Z"}
