{"icao":"LPOV","metar":"LPOV 061300Z 28005KT CAVOK 25/12 Q1019","updated":"2025-10-06T13:27:32Z"}
