{"icao":"LPBJ","metar":"LPBJ 201200Z 30006KT 250V330 CAVOK 24/19 Q1020","updated":"2025-09-20T12:32:31Z"}
