{"icao":"KORD","metar":"KORD 221751Z 28012G21KT 10SM OVC032 10/03 A2986 RMK AO2 PK WND 26026/1740 SLP112 T01000028 10100 20078 51014","updated":"2025-10-22T18:28:02Z"}
