{"icao":"LPMA","metar":"LPMA 201430Z 06009KT 350V110 9999 FEW013 21/15 Q1003","updated":"2026-04-20T14:49:48Z"}
