{"icao":"LPLA","metar":"LPLA 132300Z 27005KT 220V310 9999 FEW016 22/18 Q1026","updated":"2025-09-13T23:14:19Z"}
