{"icao":"LPPS","metar":"LPPS 160500Z 07010KT 030V100 9999 SCT012 SCT030 14/12 Q1018","updated":"2026-03-16T05:13:35Z"}
