{"icao":"KJFK","metar":"KJFK 241851Z 26009KT 10SM SCT050 SCT250 15/03 A3009 RMK AO2 SLP189 T01500028","updated":"2025-10-24T19:14:40Z"}
