{"icao":"LPCS","metar":"LPCS 011730Z 28007KT 9999 FEW016 18/10 Q1018","updated":"2026-05-01T18:03:14Z"}
