{"icao":"LPPT","metar":"LPPT 200900Z 36004KT 310V050 9999 FEW012 21/16 Q1020","updated":"2025-09-20T09:16:01Z"}
