{"icao":"LPBJ","metar":"LPBJ 141500Z 35005KT 290V010 9999 SCT024 14/09 Q1020","updated":"2026-01-14T15:24:44Z"}
