{"icao":"LPPT","metar":"LPPT 281800Z 31012KT 9999 FEW016 19/15 Q1014","updated":"2025-09-28T18:21:20Z"}
