{"icao":"LPLA","metar":"LPLA 050900Z 06004KT 360V110 9999 BKN040 11/02 Q1036","updated":"2026-03-05T09:41:19Z"}
