{"icao":"KLAX","metar":"KLAX 271053Z 00000KT 10SM CLR 11/08 A3003 RMK AO2 SLP166 T01060083 $","updated":"2025-12-27T11:15:54Z"}
