{"icao":"KLAX","metar":"KLAX 290053Z 26008KT 10SM CLR 21/17 A2995 RMK AO2 SLP141 T02060167 $","updated":"2025-10-29T01:25:44Z"}
