{"icao":"LPMR","metar":"LPMR 241100Z 28005KT 250V340 9999 FEW012 22/16 Q1021","updated":"2026-05-24T11:15:05Z"}
