{"icao":"LPOV","metar":"LPOV 060600Z 15006KT 120V180 9999 BKN012 BKN018 15/15 Q1019","updated":"2026-06-06T06:34:06Z"}
