{"icao":"LPFL","metar":"LPFL 291400Z 20015G27KT 170V250 9999 FEW011 SCT015 FEW017TCU 20/16 Q1011","updated":"2025-10-29T14:19:02Z"}
