{"icao":"KLAX","metar":"KLAX 251253Z 00000KT 9SM FEW010 13/10 A3008 RMK AO2 SLP184 T01280100","updated":"2025-11-25T13:33:18Z"}
