{"icao":"LPPT","metar":"LPPT 200300Z 30006KT 9999 FEW010 BKN030 18/16 Q1014","updated":"2025-10-20T03:14:10Z"}
