{"icao":"LPCS","metar":"LPCS 061230Z 27014KT 240V300 9999 SCT018 14/09 Q1006","updated":"2026-02-06T12:56:49Z"}
