{"icao":"LPPR","metar":"LPPR 080900Z 13004KT 100V160 9999 FEW030 SCT049 10/08 Q1012","updated":"2026-02-08T09:28:25Z"}
