{"icao":"LPPT","metar":"LPPT 261500Z 12003KT 060V190 9999 FEW032 12/07 Q1013","updated":"2025-12-26T15:19:30Z"}
