{"icao":"LPMT","metar":"LPMT 191100Z 23008KT 200V270 9999 SCT027 23/17 Q1016","updated":"2025-10-19T11:13:00Z"}
