{"icao":"LPAR","metar":"LPAR 271400Z 07006KT 040V110 CAVOK 16/05 Q1023","updated":"2025-11-27T15:19:06Z"}
