{"icao":"KJFK","metar":"KJFK 030951Z 06004KT 10SM BKN046 OVC060 M01/M05 A3060 RMK AO2 SLP362 T10061050","updated":"2026-03-03T10:37:36Z"}
