{"icao":"LPMT","metar":"LPMT 291400Z 26015KT 2000 -RADZ BR SCT004 BKN007 15/15 Q1009","updated":"2026-01-29T14:49:44Z"}
