{"icao":"LPFR","metar":"LPFR 021000Z 10007KT 8000 -RA SCT016 SCT040 16/15 Q1006","updated":"2026-01-02T10:20:17Z"}
