{"icao":"LPFL","metar":"LPFL 211200Z 16013KT 9999 FEW030 22/14 Q1027","updated":"2025-09-21T12:32:10Z"}
