{"icao":"LPAZ","metar":"LPAZ 021100Z 09009KT 060V120 9999 FEW010 BKN022 20/17 Q1021","updated":"2025-11-02T11:12:58Z"}
