{"icao":"LPCS","metar":"LPCS 281900Z 22009KT 1500 -DZ BR FEW002 BKN003 14/14 Q1005","updated":"2026-01-29T05:41:56Z"}
