{"icao":"LPMA","metar":"LPMA 030600Z 32009G22KT 260V010 9999 -SHRA SCT015 FEW018CB 17/11 Q0995","updated":"2026-01-03T06:29:38Z"}
