{"icao":"KORD","metar":"KORD 011151Z 23008KT 10SM FEW250 27/23 A2995 RMK AO2 SLP137 T02720228 10278 20267 53004","updated":"2026-07-01T12:05:57Z"}
