{"icao":"LPPS","metar":"LPPS 080900Z 02013KT 9999 SCT014 21/17 Q1022","updated":"2025-11-08T09:16:40Z"}
