{"icao":"KORD","metar":"KORD 280334Z 11008KT 1SM R10L/P6000FT -DZ BR OVC003 05/04 A2981 RMK AO2 DZB20 P0000 T00500044 $","updated":"2025-12-28T03:46:48Z"}
