{"icao":"LPBJ","metar":"LPBJ 180500Z 11003KT CAVOK 14/12 Q1016","updated":"2025-10-18T05:15:56Z"}
