{"icao":"LPPR","metar":"LPPR 301700Z 22006KT 200V260 9999 FEW017 18/12 Q1017","updated":"2026-04-30T17:19:09Z"}
