{"icao":"LPHR","metar":"LPHR 081500Z 16012KT 9999 FEW007 BKN078 23/22 Q1021","updated":"2025-10-08T15:19:02Z"}
