{"icao":"LPBJ","metar":"LPBJ 210800Z 35007KT CAVOK 05/02 Q1025","updated":"2025-11-21T08:26:22Z"}
