{"icao":"LPHR","metar":"LPHR 240700Z 25008KT 9999 SCT012 BKN030 18/16 Q1026","updated":"2025-11-24T07:18:49Z"}
