{"icao":"LPGR","metar":"LPGR 280730Z 18003KT 9999 FEW015 BKN038 16/12 Q1028","updated":"2026-06-28T07:49:42Z"}
