{"icao":"KORD","metar":"KORD 172151Z 00000KT 10SM FEW065 BKN120 BKN180 08/M08 A3006 RMK AO2 SLP183 T00781083","updated":"2025-11-17T22:17:36Z"}
