{"icao":"LPOV","metar":"LPOV 240000Z VRB01KT 9999 BKN025 14/13 Q1018","updated":"2025-10-24T01:17:30Z"}
