{"icao":"LPPD","metar":"LPPD 200300Z 26012KT 6000 FEW003 BKN005 22/21 Q1016","updated":"2025-10-20T03:14:14Z"}
