{"icao":"LPPR","metar":"LPPR 300800Z 09006KT 360V140 9999 FEW030 07/04 Q1020","updated":"2025-11-30T08:22:06Z"}
