{"icao":"LPBJ","metar":"LPBJ 061300Z 30008KT 270V340 9999 SCT030 16/09 Q1019","updated":"2025-11-06T13:31:15Z"}
