{"icao":"LPAZ","metar":"LPAZ 190000Z 28007KT 9999 FEW007 20/19 Q1015","updated":"2026-06-19T00:25:15Z"}
