{"icao":"KLAX","metar":"KLAX 070553Z 31005KT 10SM CLR 17/01 A3001 RMK AO2 SLP160 T01670006 10206 20161 51008 $","updated":"2026-03-07T06:39:08Z"}
