{"icao":"LPPR","metar":"LPPR 070630Z 16013KT 9999 FEW020 09/07 Q1004","updated":"2026-02-07T06:40:14Z"}
