{"icao":"LPLA","metar":"LPLA 201700Z 23007KT 200V270 9999 FEW016 SCT025 25/20 Q1013","updated":"2025-10-20T17:16:11Z"}
