{"icao":"LPCS","metar":"LPCS 050630Z 03005KT CAVOK 14/06 Q1020","updated":"2026-04-05T07:04:10Z"}
