{"icao":"KORD","metar":"KORD 302312Z 25014KT 4SM -SN BR SCT015 OVC025 M06/M09 A3003 RMK T10561089 ","updated":"2025-12-30T23:18:25Z"}
