{"icao":"LPBJ","metar":"LPBJ 201900Z 32006KT CAVOK 10/05 Q1021","updated":"2025-11-20T19:15:07Z"}
