{"icao":"LPFL","metar":"LPFL 251600Z 17004KT 140V230 9000 -RA FEW005 BKN008 BKN030 16/15 Q1019","updated":"2026-05-25T16:26:22Z"}
