{"icao":"KJFK","metar":"KJFK 041851Z 31004KT 10SM BKN038 02/M09 A3006 RMK AO2 SLP180 T00171089 $","updated":"2026-01-04T19:14:39Z"}
