{"icao":"LPFL","metar":"LPFL 050930Z 32014G26KT 250V360 9999 VCSH FEW023 FEW025CB 10/03 Q1004","updated":"2026-02-05T09:42:42Z"}
