{"icao":"LPMT","metar":"LPMT 092000Z 35014KT CAVOK 19/08 Q1018","updated":"2026-06-09T20:57:02Z"}
