{"icao":"KORD","metar":"KORD 020651Z 28003KT 10SM FEW050 01/M02 A3010 RMK AO2 SLP196 T00111017 $","updated":"2026-05-02T07:42:07Z"}
