{"icao":"LPPD","metar":"LPPD 070500Z 24003KT 190V270 8000 SCT008 BKN012 17/16 Q1011","updated":"2025-12-07T05:17:20Z"}
