{"icao":"LPCS","metar":"LPCS 020930Z 36011KT 330V030 9999 FEW012 16/10 Q1022","updated":"2026-04-02T10:00:57Z"}
