{"icao":"KJFK","metar":"KJFK 091651Z 33015KT 10SM FEW250 M06/M16 A3028 RMK AO2 SLP254 T10561161 $","updated":"2026-02-09T17:53:21Z"}
