{"icao":"LPPD","metar":"LPPD 011300Z 04013KT 360V070 9999 FEW016 BKN025 16/11 Q1030","updated":"2026-04-01T13:19:20Z"}
