{"icao":"LPFR","metar":"LPFR 040600Z 01003KT 350V060 CAVOK 19/12 Q1020","updated":"2025-10-04T06:23:23Z"}
