{"icao":"LPPS","metar":"LPPS 071300Z 27009KT 230V300 9999 FEW014 22/17 Q1020","updated":"2025-11-07T13:26:52Z"}
