{"icao":"LPFL","metar":"LPFL 261100Z 18024G36KT 150V220 9999 FEW012 SCT015 19/16 Q1019","updated":"2025-11-26T11:16:57Z"}
