{"icao":"LPHR","metar":"LPHR 251600Z 18010KT 150V210 9999 SCT018 SCT030 23/19 Q1011","updated":"2025-09-25T16:21:53Z"}
