{"icao":"KLAX","metar":"KLAX 181153Z 08004KT 10SM FEW011 SCT028 BKN050 11/10 A2990 RMK AO2 SLP124 70055 T01110100 10133 20111 55001 $","updated":"2025-11-18T12:39:07Z"}
