{"icao":"LPOV","metar":"LPOV 081600Z 32006KT 270V360 9999 FEW020 17/12 Q1022","updated":"2025-11-08T16:20:09Z"}
