{"icao":"KORD","metar":"KORD 070851Z 04003KT 3/4SM R10L/4500VP6000FT -SN BR VV008 M02/M02 A2998 RMK AO2 SLP158 P0005 60011 T10171022 53001","updated":"2025-12-07T09:18:02Z"}
