{"icao":"LPPT","metar":"LPPT 110630Z 21011KT 9999 SCT013 FEW020TCU 15/13 Q1012","updated":"2026-05-11T06:45:27Z"}
