{"icao":"LPCS","metar":"LPCS 241030Z 21009KT 180V250 9999 FEW009 SCT016 22/16 Q1015","updated":"2026-06-24T10:47:25Z"}
