{"icao":"LPMA","metar":"LPMA 211000Z 03010KT 360V080 9999 FEW016 25/19 Q1020","updated":"2025-10-21T10:19:13Z"}
