{"icao":"LPLA","metar":"LPLA 271700Z 34012KT 6000 -DZRA BKN009 BKN015 15/14 Q1024 REDZRA","updated":"2025-11-27T17:15:31Z"}
