{"icao":"KORD","metar":"KORD 051251Z 29008G20KT 10SM BKN029 OVC037 03/M03 A3007 RMK AO2 SLP186 T00281028 $","updated":"2026-04-05T12:55:34Z"}
