{"icao":"LPMA","metar":"LPMA 260900Z 01010KT 340V040 9999 BKN015 19/14 Q1024","updated":"2025-11-26T09:22:06Z"}
