{"icao":"LPMA","metar":"LPMA 260430Z 26007KT 9999 SCT015 16/07 Q1023","updated":"2026-01-26T04:55:33Z"}
