{"icao":"KJFK","metar":"KJFK 120851Z 29017G25KT 10SM FEW050 00/M09 A3009 RMK AO2 PK WND 29033/0821 SLP190 T00001094 51025","updated":"2026-01-12T09:31:54Z"}
