{"icao":"LPBJ","metar":"LPBJ 161500Z 17008KT 130V200 9999 FEW035 28/14 Q1013","updated":"2025-10-16T15:19:23Z"}
