{"icao":"KORD","metar":"KORD 191405Z 32015G24KT 4SM -RA BR FEW012 BKN038 OVC055 09/07 A2962 RMK AO2 P0003 T00890072 $","updated":"2025-10-19T14:15:10Z"}
