{"icao":"KLAX","metar":"KLAX 142353Z 25014KT 10SM FEW011 FEW100 21/15 A2996 RMK AO2 SLP143 T02060150 10222 20200 58012 $","updated":"2026-06-15T00:09:18Z"}
