{"icao":"LPFR","metar":"LPFR 240430Z 09007KT 0500 R10/0550N FG VV001 12/12 Q1021","updated":"2026-02-24T04:50:23Z"}
