{"icao":"LPLA","metar":"LPLA 191710Z 31016KT 7000 -DZ SCT007 BKN020 16/14 Q1015","updated":"2026-04-19T17:34:06Z"}
