{"icao":"LPHR","metar":"LPHR 061600Z 30020G30KT 260V340 5000 RA BR SCT012 BKN035 17/15 Q1006","updated":"2025-12-06T16:21:17Z"}
