{"icao":"LPAR","metar":"LPAR 120900Z 17013KT 9999 FEW009 SCT015 BKN030 11/11 Q1020","updated":"2026-01-12T11:19:33Z"}
