{"icao":"LPAZ","metar":"LPAZ 280800Z 26022KT 8000 FEW008 SCT012 BKN045 17/16 Q1009","updated":"2026-01-28T08:30:42Z"}
