{"icao":"LPOV","metar":"LPOV 210400Z 23007KT 180V280 0400 FG VV/// 18/18 Q1011","updated":"2025-10-21T04:21:13Z"}
