{"icao":"KLAX","metar":"KLAX 201253Z 00000KT 10SM CLR 17/15 A2996 RMK AO2 SLP141 T01720150","updated":"2026-03-20T12:57:26Z"}
