{"icao":"LPPS","metar":"LPPS 160200Z 04006KT 010V080 9999 SCT015 BKN030 15/11 Q1022","updated":"2026-04-16T02:33:57Z"}
