{"icao":"LPMR","metar":"LPMR 201100Z 15005KT 8000 SCT022 SCT038 09/08 Q1019","updated":"2026-01-20T11:22:24Z"}
