{"icao":"KLAX","metar":"KLAX 072053Z 24012KT 10SM FEW010 FEW070 SCT180 18/11 A2991 RMK AO2 SLP128 T01780111 56022 $","updated":"2026-01-07T21:18:57Z"}
