{"icao":"LPFR","metar":"LPFR 091300Z 25014KT 1800 R28/1100D -DZ BR OVC002 16/15 Q1016","updated":"2026-02-09T13:06:28Z"}
