{"icao":"LPMT","metar":"LPMT 012000Z 24004KT 200V260 CAVOK 12/09 Q1017","updated":"2026-03-01T20:25:42Z"}
