{"icao":"LPCS","metar":"LPCS 180700Z 01007KT CAVOK 14/10 Q1016","updated":"2026-04-18T07:05:27Z"}
