{"icao":"LPHR","metar":"LPHR 311800Z 34005KT 300V030 9999 SCT014 17/12 Q1003","updated":"2025-12-31T18:28:03Z"}
