{"icao":"LPMT","metar":"LPMT 071400Z 23006KT 200V260 9999 SCT015 SCT024 18/14 Q1022","updated":"2025-12-07T14:16:14Z"}
