{"icao":"LPBJ","metar":"LPBJ 051900Z 31014KT CAVOK 24/03 Q1017","updated":"2026-06-05T19:52:20Z"}
