{"icao":"LPPR","metar":"LPPR 180100Z 00000KT CAVOK 14/11 Q1016","updated":"2025-10-18T01:15:59Z"}
