{"icao":"KORD","metar":"KORD 081459Z 18004KT 10SM OVC028 M07/M12 A3036 RMK AO2 T10671117","updated":"2025-12-08T15:22:27Z"}
