{"icao":"LPLA","metar":"LPLA 072300Z 21011KT 170V250 9999 SCT025 19/15 Q1019","updated":"2025-11-07T23:16:08Z"}
