{"icao":"LPPR","metar":"LPPR 280100Z 12014KT 3000 +RA BR SCT011 BKN018 OVC028 18/17 Q1001","updated":"2025-09-28T01:25:33Z"}
