{"icao":"KJFK","metar":"KJFK 171351Z 01018G23KT 10SM SCT250 12/00 A3001 RMK AO2 SLP162 T01220000","updated":"2025-10-17T14:17:39Z"}
