{"icao":"LPPT","metar":"LPPT 250700Z 21004KT 6000 2000E VCFG FEW002 BKN008 14/13 Q1015","updated":"2026-02-25T07:12:54Z"}
