{"icao":"LPOV","metar":"LPOV 260900Z 03004KT 010V070 CAVOK 07/05 Q1027","updated":"2025-11-26T09:21:47Z"}
