{"icao":"KJFK","metar":"KJFK 071951Z 36014G22KT 10SM FEW060 FEW110 SCT250 18/M02 A2976 RMK AO2 SLP076 T01831017","updated":"2026-05-07T20:13:00Z"}
