{"icao":"LPPT","metar":"LPPT 180700Z 03005KT CAVOK 15/12 Q1016","updated":"2025-10-18T07:15:41Z"}
