{"icao":"LPBJ","metar":"LPBJ 230900Z 21006KT 0500 -DZ FG SCT008 FEW020CB 11/10 Q1012","updated":"2025-12-23T09:24:24Z"}
