{"icao":"KORD","metar":"KORD 061951Z 26009G20KT 10SM BKN075 BKN250 14/M04 A2992 RMK AO2 SLP132 T01391044","updated":"2026-05-06T20:20:57Z"}
