{"icao":"LPAR","metar":"LPAR 100900Z 35012KT 300V020 9000 VCSH BKN020 11/09 Q1021","updated":"2026-03-10T09:41:48Z"}
