{"icao":"LPHR","metar":"LPHR 031430Z 27011KT 9999 FEW010 BKN015 17/15 Q1027","updated":"2026-03-03T14:55:57Z"}
