{"icao":"LPST","metar":"LPST 300900Z VRB01KT CAVOK 19/15 Q1018","updated":"2025-09-30T10:18:25Z"}
