{"icao":"LPMT","metar":"LPMT 022300Z 03002KT CAVOK 18/14 Q1022","updated":"2025-10-02T23:15:26Z"}
