{"icao":"LPFL","metar":"LPFL 191100Z 34019G31KT 5000 -DZRA FEW007 BKN014 14/12 Q1016 RERA","updated":"2026-04-19T11:34:03Z"}
