{"icao":"LPFL","metar":"LPFL 070830Z 28003KT 240V310 9999 FEW022 12/05 Q1031","updated":"2026-04-07T09:00:41Z"}
