{"icao":"KORD","metar":"KORD 081551Z 23025KT 10SM FEW250 09/01 A2988 RMK AO2 PK WND 23031/1506 SLP120 T00890006 $","updated":"2026-03-08T16:26:59Z"}
