{"icao":"LPMA","metar":"LPMA 172030Z 35010KT 310V030 9999 FEW016 17/10 Q1024","updated":"2026-05-17T20:50:16Z"}
