{"icao":"LPPS","metar":"LPPS 151100Z 07010KT 030V100 9999 FEW015 17/11 Q1033","updated":"2026-02-15T11:21:36Z"}
