{"icao":"LPPS","metar":"LPPS 030530Z 29016KT 9999 SCT014 15/11 Q1014","updated":"2026-02-03T05:50:42Z"}
