{"icao":"LPHR","metar":"LPHR 011230Z 34015G25KT 300V030 9999 VCSH SCT012 SCT035 16/12 Q1026","updated":"2026-03-01T12:45:44Z"}
