{"icao":"LPPD","metar":"LPPD 131000Z 01010KT 330V050 9999 SCT018 15/11 Q1028","updated":"2026-05-13T10:25:47Z"}
