{"icao":"LPLA","metar":"LPLA 240700Z 21008KT 190V260 9999 BKN040 14/07 Q1023","updated":"2026-01-24T07:18:51Z"}
