{"icao":"LPPR","metar":"LPPR 170900Z 32003KT 270V350 CAVOK 18/14 Q1022","updated":"2025-09-17T09:18:21Z"}
