{"icao":"KJFK","metar":"KJFK 051851Z 17010KT 10SM FEW150 BKN250 29/10 A2995 RMK AO2 SLP143 T02940100 $","updated":"2026-06-05T19:52:35Z"}
