{"icao":"LPST","metar":"LPST 301400Z 22009KT 190V260 9999 4000SW -SHRA BKN020 BKN035 19/14 Q1014","updated":"2025-10-30T14:18:58Z"}
