{"icao":"LPFR","metar":"LPFR 141000Z 05012KT CAVOK 17/09 Q1017","updated":"2025-12-14T10:18:36Z"}
