{"icao":"LPFR","metar":"LPFR 121000Z 18017KT 9999 SCT020 22/16 Q1009","updated":"2025-11-12T10:20:43Z"}
