{"icao":"LPPS","metar":"LPPS 212100Z 04005KT 010V080 9999 BKN015 15/11 Q1027","updated":"2026-02-21T21:21:46Z"}
