{"icao":"LPFL","metar":"LPFL 091300Z 33005KT 230V020 9999 SCT023 19/12 Q1025","updated":"2025-11-09T13:22:50Z"}
