{"icao":"KJFK","metar":"KJFK 211851Z 31008KT 10SM FEW038 SCT200 BKN250 14/03 A2989 RMK AO2 SLP121 T01390028","updated":"2026-03-21T19:22:54Z"}
