{"icao":"LPMT","metar":"LPMT 201400Z 28006KT 220V330 CAVOK 26/14 Q1010","updated":"2026-04-20T14:49:18Z"}
