{"icao":"LPMR","metar":"LPMR 170500Z 14002KT 4000 BR FEW020 04/04 Q1013","updated":"2026-01-17T05:19:42Z"}
