{"icao":"LPMT","metar":"LPMT 051900Z 33004KT CAVOK 20/15 Q1018","updated":"2025-10-05T19:12:34Z"}
