{"icao":"LPPS","metar":"LPPS 100930Z 03013KT 360V060 9999 SCT015 19/13 Q1022","updated":"2026-06-10T09:56:58Z"}
