{"icao":"LPFL","metar":"LPFL 271830Z VRB13G28KT 5000 -DZRA FEW008 BKN010 18/16 Q1001 REDZ","updated":"2026-01-27T18:37:29Z"}
