{"icao":"LPFR","metar":"LPFR 222200Z 06008G18KT 040V100 CAVOK 24/11 Q1020","updated":"2026-05-22T22:05:56Z"}
