{"icao":"KORD","metar":"KORD 142151Z 10010KT 10SM SCT300 18/M01 A3002 RMK AO2 SLP165 T01831006","updated":"2026-05-14T22:10:24Z"}
