{"icao":"KJFK","metar":"KJFK 201451Z 28015G25KT 10SM FEW040 FEW160 M08/M17 A3032 RMK AO2 SLP267 T10781167 51021 $","updated":"2026-01-20T15:29:20Z"}
