{"icao":"LPLA","metar":"LPLA 160500Z 31004KT 4000 -RA BR FEW006 BKN018 BKN030 20/19 Q1003 RERA","updated":"2025-10-16T05:17:10Z"}
