{"icao":"LPMT","metar":"LPMT 290400Z 09004KT 9999 BKN015 17/17 Q1006","updated":"2025-10-29T04:25:06Z"}
