{"icao":"LPPT","metar":"LPPT 120200Z 34023KT 300V010 9999 FEW020 10/05 Q1017 WS R02","updated":"2026-04-12T02:29:41Z"}
