{"icao":"KLAX","metar":"KLAX 131853Z 00000KT 10SM FEW080 23/00 A3020 RMK AO2 SLP226 T02330000 $","updated":"2026-01-13T19:19:03Z"}
