{"icao":"LPMR","metar":"LPMR 011900Z 29004KT CAVOK 17/12 Q1018","updated":"2026-05-01T20:02:46Z"}
