{"icao":"LPPT","metar":"LPPT 271900Z 31012KT CAVOK 21/15 Q1010","updated":"2026-04-27T19:18:56Z"}
