{"icao":"LPOV","metar":"LPOV 241700Z 29004KT 260V330 9999 SCT015 21/17 Q1020","updated":"2026-05-24T18:04:30Z"}
