{"icao":"KLAX","metar":"KLAX 260653Z 00000KT 10SM BKN180 BKN250 14/12 A3023 RMK AO2 SLP235 T01440122 $","updated":"2026-01-26T07:27:23Z"}
