{"icao":"KLAX","metar":"KLAX 242153Z 27011KT 10SM FEW020 FEW090 SCT250 19/11 A3000 RMK AO2 SLP157 T01940111 $","updated":"2026-05-24T21:56:19Z"}
