{"icao":"KJFK","metar":"KJFK 231051Z 24008KT 9SM -SN OVC025 02/M02 A3035 RMK AO2 RAB08E24 SLP276 P0001 T00171017 $","updated":"2025-12-23T11:18:00Z"}
