{"icao":"LPFR","metar":"LPFR 300830Z 27003KT 230V290 7000 SCT005 BKN012 13/13 Q1016","updated":"2026-01-30T08:37:11Z"}
