{"icao":"LPPS","metar":"LPPS 240330Z 05009KT 9999 SCT012 BKN030 17/14 Q1021","updated":"2026-05-24T03:38:48Z"}
