{"icao":"LPPR","metar":"LPPR 040900Z 29008KT 260V320 9999 FEW028 SCT033 14/08 Q1020","updated":"2025-12-04T09:23:09Z"}
