{"icao":"LPCS","metar":"LPCS 301700Z 28016G28KT 240V300 9999 SCT015 SCT035 15/12 Q1012","updated":"2026-01-30T17:32:14Z"}
