{"icao":"LPPD","metar":"LPPD 090430Z 23005KT 9999 FEW008 BKN035 16/14 Q1031","updated":"2026-01-09T04:38:59Z"}
