{"icao":"KORD","metar":"KORD 040651Z 23003KT 10SM CLR 21/16 A3011 RMK AO2 SLP191 T02110156 $","updated":"2025-10-04T07:14:35Z"}
