{"icao":"LPMA","metar":"LPMA 130330Z 30005KT 260V340 9999 SCT015 BKN030 19/13 Q1019","updated":"2026-06-13T03:35:32Z"}
