{"icao":"LPBJ","metar":"LPBJ 150400Z 28007KT CAVOK 07/06 Q1030","updated":"2026-02-15T04:52:43Z"}
