{"icao":"LPPT","metar":"LPPT 021900Z 30005KT 250V330 9999 -SHRA FEW014 FEW025TCU 11/10 Q1018","updated":"2025-12-02T19:18:02Z"}
