{"icao":"LPAZ","metar":"LPAZ 102100Z 18010KT 9000 -RA FEW007 SCT012 21/20 Q1022","updated":"2025-10-10T21:14:29Z"}
