{"icao":"LPHR","metar":"LPHR 082100Z 31013KT 9000 -SHRA SCT013 FEW015TCU BKN035 12/09 Q1008","updated":"2025-12-08T23:18:40Z"}
