{"icao":"LPBJ","metar":"LPBJ 022100Z 26004KT CAVOK 21/12 Q1021","updated":"2025-10-02T21:14:48Z"}
