{"icao":"LPLA","metar":"LPLA 232200Z 33009KT 9999 FEW013 SCT018 18/15 Q1023","updated":"2026-06-23T22:11:20Z"}
