{"icao":"LPMT","metar":"LPMT 201700Z 23007KT 9999 FEW020 BKN045 14/11 Q1017","updated":"2026-01-20T17:28:13Z"}
