{"icao":"LPHR","metar":"LPHR 221330Z 31021KT 9999 SCT022 SCT040 15/07 Q1020 WS R28","updated":"2026-01-22T13:45:22Z"}
