{"icao":"LPFR","metar":"LPFR 070230Z 31004KT 280V360 CAVOK 14/07 Q1009","updated":"2026-05-07T02:44:49Z"}
