{"icao":"LPFL","metar":"LPFL 121400Z 02010KT 9999 SCT026 17/10 Q1030","updated":"2026-05-12T14:22:10Z"}
