{"icao":"KJFK","metar":"KJFK 111051Z 32018G29KT 10SM FEW027 BKN044 03/M06 A2952 RMK AO2 PK WND 32033/1030 SNB33E37 SLP995 P0000 T00281056 $","updated":"2025-12-11T11:18:07Z"}
