{"icao":"LPPD","metar":"LPPD 110300Z 30014KT 270V330 9999 FEW014 SCT020 18/13 Q1006","updated":"2025-11-11T03:12:31Z"}
