{"icao":"LPPT","metar":"LPPT 210700Z 30005KT 9999 FEW030 09/06 Q1009","updated":"2025-12-21T07:17:54Z"}
