{"icao":"LPOV","metar":"LPOV 020000Z 16003KT 9999 FEW012 08/08 Q1016","updated":"2026-03-02T05:51:33Z"}
