{"icao":"LPCS","metar":"LPCS 160600Z VRB02KT CAVOK 18/11 Q1015","updated":"2025-10-16T06:26:57Z"}
