{"icao":"LPLA","metar":"LPLA 052100Z 29024KT 9999 FEW018 FEW020CB SCT040 11/05 Q1008","updated":"2026-02-05T21:27:27Z"}
