{"icao":"KJFK","metar":"KJFK 212151Z 19020G28KT 10SM SCT032 BKN090 BKN250 02/M03 A3030 RMK PK WND 19028/2148 SLP261 T00221033 $ ","updated":"2026-01-21T22:23:52Z"}
