{"icao":"LPCS","metar":"LPCS 261000Z 23012KT 8000 FEW002 BKN007 15/15 Q1014","updated":"2026-01-26T10:25:05Z"}
