{"icao":"LPHR","metar":"LPHR 030700Z 23011KT 9999 FEW008 BKN013 19/17 Q1014","updated":"2025-11-03T07:18:26Z"}
