{"icao":"KJFK","metar":"KJFK 140451Z 04020G29KT 10SM -RA BKN012 OVC017 13/12 A2997 RMK AO2 PK WND 03029/0445 RAB07E15B49 SLP148 P0000 T01330117 401560128","updated":"2025-10-14T05:17:03Z"}
