{"icao":"LPMR","metar":"LPMR 261800Z 36007KT 9999 FEW020 17/13 Q1019","updated":"2025-10-26T18:23:37Z"}
