{"icao":"KORD","metar":"KORD 271351Z 14006KT 4SM BR OVC008 03/02 A3001 RMK AO2 SLP167 T00330017 $","updated":"2025-12-27T14:17:51Z"}
