{"icao":"KJFK","metar":"KJFK 261230Z 01007KT 8SM SCT010 OVC025 M06/M08 A2980 RMK AO2 SNE29 P0000 T10611078 $","updated":"2026-01-26T12:45:51Z"}
