{"icao":"LPPT","metar":"LPPT 271830Z 24010KT 9999 FEW020 FEW025TCU 09/07 Q1005 WS R20","updated":"2026-01-27T18:37:25Z"}
