{"icao":"LPMT","metar":"LPMT 040200Z 34005KT CAVOK 16/15 Q1023","updated":"2025-10-04T02:49:59Z"}
