{"icao":"KLAX","metar":"KLAX 190053Z 26007KT 10SM FEW050 SCT150 SCT180 23/18 A2981 RMK AO2 SLP093 T02330178","updated":"2025-09-19T01:19:05Z"}
