{"icao":"LPMR","metar":"LPMR 262200Z 35004KT CAVOK 13/08 Q1017","updated":"2026-03-26T22:28:04Z"}
