{"icao":"LPBJ","metar":"LPBJ 140100Z 20003KT 5000 1400S BCFG FEW015 07/07 Q1016","updated":"2026-01-14T01:47:03Z"}
