{"icao":"LPPR","metar":"LPPR 010430Z 11013KT CAVOK 07/02 Q1014","updated":"2026-01-01T04:46:48Z"}
