{"icao":"LPPR","metar":"LPPR 152000Z VRB02KT 0900 R17/0700U FG VV001 15/15 Q1016","updated":"2025-10-15T20:20:12Z"}
