{"icao":"LPHR","metar":"LPHR 121930Z 06009KT 020V090 9999 FEW023 FEW025TCU SCT050 16/09 Q1028","updated":"2026-05-12T19:49:08Z"}
