{"icao":"LPPD","metar":"LPPD 020600Z 33019G30KT 310V010 9999 BKN016 FEW022CB 14/09 Q1003","updated":"2026-01-02T06:31:28Z"}
