{"icao":"KLAX","metar":"KLAX 151853Z 26008G15KT 4SM HZ SCT018 24/18 A2990 RMK AO2 SLP122 T02390178 $","updated":"2025-09-15T19:13:40Z"}
