{"icao":"LPOV","metar":"LPOV 231400Z 20007KT 180V240 CAVOK 24/06 Q1022","updated":"2026-02-23T14:43:47Z"}
