{"icao":"KORD","metar":"KORD 292051Z 03021G28KT 10SM BKN034 BKN043 12/04 A3001 RMK AO2 PK WND 06029/2010 SLP162 T01220044 55006","updated":"2025-10-29T21:16:52Z"}
