{"icao":"LPFR","metar":"LPFR 190700Z 04007KT CAVOK 18/09 Q1015","updated":"2026-04-19T07:17:22Z"}
