{"icao":"LPAZ","metar":"LPAZ 161530Z 29010KT 260V320 9999 FEW030 18/08 Q1029","updated":"2026-05-16T15:57:07Z"}
