{"icao":"LPMA","metar":"LPMA 070800Z 28005KT 270V330 9999 FEW016 18/12 Q1020","updated":"2025-11-07T08:25:23Z"}
