{"icao":"KJFK","metar":"KJFK 141651Z 03004KT 10SM FEW027 BKN075 OVC170 16/10 A2976 RMK AO2 RAE01 SLP076 P0000 T01560100","updated":"2026-05-14T16:59:28Z"}
