{"icao":"LPCS","metar":"LPCS 260900Z 02008KT CAVOK 18/15 Q1018","updated":"2025-10-26T09:16:02Z"}
