{"icao":"LPMR","metar":"LPMR 081100Z 14004KT 2000 BR FEW004 BKN008 BKN018 11/10 Q1032","updated":"2026-01-08T11:19:45Z"}
