{"icao":"LPMA","metar":"LPMA 211830Z 15003KT 080V190 9999 BKN013 FEW018CB 16/13 Q0997","updated":"2026-03-21T18:35:02Z"}
