{"icao":"LPFR","metar":"LPFR 120400Z 03007KT CAVOK 19/14 Q1015","updated":"2025-10-12T04:20:00Z"}
