{"icao":"KORD","metar":"KORD 030951Z 21011G21KT 10SM FEW070 SCT100 BKN160 06/01 A3002 RMK AO2 RAB0853E03 SLP169 P0000 T00610006 $","updated":"2025-11-03T10:22:10Z"}
