{"icao":"LPCS","metar":"LPCS 032030Z 31005KT 9999 FEW013 14/10 Q1015","updated":"2026-05-03T20:41:29Z"}
