{"icao":"LPLA","metar":"LPLA 121600Z 24015KT 210V270 9999 FEW022 17/12 Q1028","updated":"2026-04-12T16:37:23Z"}
