{"icao":"LPBJ","metar":"LPBJ 302200Z 28006KT CAVOK 20/13 Q1019","updated":"2025-09-30T22:15:53Z"}
