{"icao":"KJFK","metar":"KJFK 091951Z 18011KT 10SM BKN013 BKN036 BKN070 OVC190 08/06 A3015 RMK AO2 SLP208 T00780061 $","updated":"2026-01-09T20:23:27Z"}
