{"icao":"KLAX","metar":"KLAX 110153Z 27013KT 10SM SCT013 SCT065 BKN200 BKN240 17/13 A2993 RMK AO2 SLP133 T01720133 $","updated":"2026-04-11T02:07:46Z"}
