{"icao":"LPFR","metar":"LPFR 081000Z 21009KT 180V250 9999 FEW012 FEW022TCU SCT032 15/10 Q1017","updated":"2026-04-08T10:14:29Z"}
