{"icao":"LPBJ","metar":"LPBJ 131700Z VRB04KT 9999 FEW040 28/10 Q1014","updated":"2025-10-13T17:15:19Z"}
