{"icao":"LPMT","metar":"LPMT 170100Z 14002KT CAVOK 15/13 Q1013","updated":"2025-10-17T01:19:42Z"}
