{"icao":"LPPR","metar":"LPPR 071900Z 18013KT 9999 -RA FEW015 BKN040 15/13 Q1021","updated":"2025-12-07T19:14:03Z"}
