{"icao":"LPFR","metar":"LPFR 240730Z 29005KT 270V330 CAVOK 21/17 Q1014","updated":"2026-06-24T07:38:45Z"}
