{"icao":"LPPT","metar":"LPPT 070700Z 21011KT 9999 BKN018 18/15 Q1016","updated":"2025-11-07T07:17:54Z"}
