{"icao":"KORD","metar":"KORD 182212Z 23010KT 2 1/2SM -SN OVC037 M08/M14 A2989 RMK AO2 P0000 T10831144 $","updated":"2026-01-18T22:18:58Z"}
