{"icao":"LPPS","metar":"LPPS 150630Z 06007KT 010V110 9999 FEW015 14/09 Q1031","updated":"2026-02-15T06:50:51Z"}
