{"icao":"LPMA","metar":"LPMA 101500Z 04009KT 010V070 9999 FEW016 18/11 Q1029","updated":"2026-01-10T15:18:39Z"}
