{"icao":"LPHR","metar":"LPHR 091830Z 14010KT 9999 FEW033 15/08 Q1034","updated":"2026-03-09T18:51:54Z"}
