{"icao":"LPOV","metar":"LPOV 240700Z VRB02KT 8000 FEW012 09/09 Q1017","updated":"2026-04-24T08:01:17Z"}
