{"icao":"LPST","metar":"LPST 201600Z 25007KT 220V290 9999 BKN025 21/16 Q1015","updated":"2025-10-21T06:27:20Z"}
