{"icao":"LPMA","metar":"LPMA 060500Z 33006KT 310V010 9999 FEW015 SCT030 22/16 Q1020","updated":"2025-10-06T05:17:32Z"}
