{"icao":"LPPT","metar":"LPPT 130400Z VRB02KT CAVOK 19/11 Q1015","updated":"2025-10-13T04:21:07Z"}
