{"icao":"LPFR","metar":"LPFR 040130Z 32007KT 9999 FEW025 14/11 Q1011","updated":"2026-03-04T01:56:43Z"}
