{"icao":"LPMT","metar":"LPMT 271500Z 01010KT CAVOK 21/07 Q1016","updated":"2026-03-27T15:52:07Z"}
