{"icao":"KJFK","metar":"KJFK 110851Z 12005KT 10SM SCT095 BKN250 09/06 A2997 RMK AO2 SLP150 T00890056 58004","updated":"2026-03-11T09:41:04Z"}
