{"icao":"LPAR","metar":"LPAR 081600Z 28007KT 250V310 9999 SCT020 BKN030 14/11 Q1031","updated":"2026-01-08T16:28:42Z"}
