{"icao":"LPCS","metar":"LPCS 010900Z 09010KT 060V120 9999 -RADZ FEW012 BKN023 09/09 Q1012","updated":"2026-01-01T09:23:50Z"}
