{"icao":"LPSJ","metar":"LPSJ 301200Z 16005KT 120V210 9999 FEW012 22/18 Q1031","updated":"2026-06-30T12:06:49Z"}
