{"icao":"LPST","metar":"LPST 301400Z 26017KT 230V290 9999 FEW010 BKN012 15/13 Q1012","updated":"2026-01-30T14:34:41Z"}
