{"icao":"LPPD","metar":"LPPD 180700Z 33005KT 9999 SCT016 14/12 Q1025","updated":"2026-02-18T07:12:36Z"}
