{"icao":"KORD","metar":"KORD 161651Z 31011KT 10SM FEW250 07/M12 A2994 RMK AO2 SLP139 T00671117 $","updated":"2025-11-16T17:15:15Z"}
