{"icao":"KORD","metar":"KORD 140651Z 32007KT 10SM FEW120 BKN200 00/M08 A3012 RMK AO2 SLP204 T00001078 $","updated":"2026-03-14T07:34:02Z"}
