{"icao":"LPFL","metar":"LPFL 291330Z 20017G30KT 170V230 9999 SCT018 17/11 Q1009 WS ALL RWY","updated":"2026-01-29T13:59:44Z"}
