{"icao":"KORD","metar":"KORD 031551Z 20005KT 10SM OVC016 02/M02 A3013 RMK AO2 SLP210 T00221022","updated":"2026-03-03T16:45:06Z"}
