{"icao":"LPHR","metar":"LPHR 272100Z 04015KT 010V070 9999 FEW014 16/10 Q1026","updated":"2025-11-27T21:16:54Z"}
