{"icao":"LPMT","metar":"LPMT 130600Z 18013KT 4000 TSRA BR FEW009 SCT018CB BKN020 16/16 Q1000 RETSRA","updated":"2025-11-13T06:28:48Z"}
