{"icao":"LPBJ","metar":"LPBJ 201500Z 28012KT 260V320 9999 SCT040 24/13 Q1014","updated":"2025-10-20T15:18:05Z"}
