{"icao":"LPHR","metar":"LPHR 211730Z 25009KT 6000 -DZ FEW007 SCT011 BKN030 16/15 Q1012","updated":"2026-05-21T17:56:40Z"}
