{"icao":"LPAZ","metar":"LPAZ 012000Z 29032G42KT 9999 FEW028 14/07 Q1012","updated":"2026-02-01T20:25:39Z"}
