{"icao":"LPHR","metar":"LPHR 212000Z 27017KT 9999 SCT007 BKN011 BKN020 17/16 Q1019","updated":"2026-01-21T20:29:03Z"}
