{"icao":"LPBJ","metar":"LPBJ 121100Z 11006KT 9999 SCT003 10/09 Q1022","updated":"2026-01-12T11:19:32Z"}
