{"icao":"KORD","metar":"KORD 061712Z 17007KT 2SM -RA BR FEW044 BKN070 OVC090 13/12 A2993 RMK AO2 TSE06 CB DSNT NE-E P0004 T01280122","updated":"2026-03-06T17:33:52Z"}
