{"icao":"LPPS","metar":"LPPS 201100Z 16004KT 110V200 9999 SCT012 SCT030 23/21 Q1019","updated":"2025-10-20T11:16:00Z"}
