{"icao":"KORD","metar":"KORD 171306Z 14006KT 5SM HZ BKN250 14/11 A2991 RMK AO2 T01390111 $","updated":"2026-04-17T13:17:11Z"}
