{"icao":"LPFR","metar":"LPFR 181800Z 09005KT CAVOK 22/17 Q1016","updated":"2025-10-18T18:22:10Z"}
