{"icao":"LPPT","metar":"LPPT 261100Z 05008KT 340V100 CAVOK 20/14 Q1019","updated":"2025-10-26T11:12:56Z"}
