{"icao":"LPST","metar":"LPST 260900Z 36004KT 330V050 4000 BR OVC006 12/10 Q1025","updated":"2026-02-26T09:49:07Z"}
