{"icao":"LPPS","metar":"LPPS 222200Z 08016KT 9999 SCT015 18/10 Q1027","updated":"2025-11-22T22:17:06Z"}
