{"icao":"LPPS","metar":"LPPS 161500Z 17008KT 140V200 9999 SCT010 SCT030 23/20 Q1014","updated":"2025-10-16T15:19:37Z"}
