{"icao":"LPMT","metar":"LPMT 182100Z 16002KT CAVOK 15/12 Q1015","updated":"2026-04-18T21:33:36Z"}
