{"icao":"LPLA","metar":"LPLA 212200Z 21014KT 170V240 9999 FEW020 22/19 Q1013","updated":"2025-10-21T22:15:46Z"}
