{"icao":"KORD","metar":"KORD 101251Z 07003KT 10SM CLR 11/00 A3006 RMK AO2 SLP180 T01110000 $","updated":"2026-05-10T13:15:38Z"}
