{"icao":"KORD","metar":"KORD 111651Z VRB06KT 10SM BKN025 M04/M10 A3002 RMK AO2 SLP175 T10391100","updated":"2025-12-11T17:24:41Z"}
