{"icao":"KORD","metar":"KORD 231851Z 00000KT 10SM FEW200 FEW250 12/M04 A3013 RMK AO2 SLP205 T01221039","updated":"2025-11-23T19:14:36Z"}
