{"icao":"KLAX","metar":"KLAX 181453Z 09005KT 10SM SCT250 BKN300 17/13 A2996 RMK AO2 SLP144 T01670128 53008 $","updated":"2026-04-18T15:36:21Z"}
