{"icao":"LPPT","metar":"LPPT 190930Z 03003KT 350V080 CAVOK 18/14 Q1016","updated":"2026-04-19T09:45:23Z"}
