{"icao":"LPPT","metar":"LPPT 070630Z 32012KT CAVOK 10/07 Q1017","updated":"2026-03-07T06:38:45Z"}
