{"icao":"LPAR","metar":"LPAR 020800Z 31007KT CAVOK 15/11 Q1021","updated":"2026-04-02T08:54:52Z"}
