{"icao":"LPPR","metar":"LPPR 310600Z 19009KT 160V230 9000 -RA SCT005 BKN011 FEW017TCU 16/16 Q1008 RERA","updated":"2025-10-31T06:27:35Z"}
