{"icao":"LPLA","metar":"LPLA 160200Z 23011KT 9999 SCT025 BKN035 15/11 Q1020","updated":"2026-04-16T02:33:44Z"}
