{"icao":"KORD","metar":"KORD 220251Z 26011G21KT 10SM BKN031 BKN042 BKN060 08/03 A2974 RMK AO2 PK WND 27027/0224 SLP073 60001 T00830033 51006","updated":"2025-10-22T03:10:09Z"}
