{"icao":"KJFK","metar":"KJFK 051951Z 18009KT 10SM CLR 24/16 A3027 RMK AO2 SLP251 T02440156","updated":"2025-10-05T20:17:44Z"}
