{"icao":"LPPD","metar":"LPPD 241600Z 04012KT 350V070 9999 FEW020 BKN030 15/08 Q1027","updated":"2026-03-24T16:08:18Z"}
