{"icao":"LPPR","metar":"LPPR 231400Z 25011KT 200V310 9999 -SHRA FEW017 FEW020CB BKN033 10/05 Q0995","updated":"2026-01-23T14:23:49Z"}
