{"icao":"LPFR","metar":"LPFR 200400Z 30004KT 5000 DZRA BR SCT005 BKN014 20/19 Q1014","updated":"2025-10-20T04:23:58Z"}
