{"icao":"LPCS","metar":"LPCS 210700Z 23011KT 2000 RA BR BKN002 14/14 Q1009","updated":"2026-01-21T07:27:19Z"}
