{"icao":"LPLA","metar":"LPLA 111500Z 23011KT 200V270 9999 FEW025 19/12 Q1015","updated":"2026-02-11T15:59:54Z"}
