{"icao":"LPFL","metar":"LPFL 231600Z 34010KT 300V360 9999 SCT030 SCT049 20/13 Q1026","updated":"2025-09-23T16:21:49Z"}
