{"icao":"KLAX","metar":"KLAX 240953Z 00000KT 8SM FEW003 BKN006 20/18 A2992 RMK AO2 SLP129 T02000183 $","updated":"2025-09-24T10:18:29Z"}
