{"icao":"KORD","metar":"KORD 292251Z 08010KT 10SM FEW180 SCT230 OVC300 27/09 A2994 RMK AO2 SLP137 T02670089","updated":"2026-05-29T23:11:05Z"}
