{"icao":"LPLA","metar":"LPLA 012100Z 07006KT 360V110 9999 FEW012 SCT020 16/13 Q1019","updated":"2026-05-01T21:52:05Z"}
