{"icao":"LPMA","metar":"LPMA 020130Z 28004KT 210V320 9999 FEW016 15/08 Q1020","updated":"2026-03-02T02:01:19Z"}
