{"icao":"LPFR","metar":"LPFR 210200Z 08006KT CAVOK 20/09 Q1007","updated":"2026-04-21T02:30:30Z"}
