{"icao":"LPPR","metar":"LPPR 190700Z 15006KT 110V170 CAVOK 14/11 Q1015","updated":"2026-04-19T07:17:22Z"}
