{"icao":"LPFR","metar":"LPFR 200500Z 30007KT CAVOK 08/06 Q1021","updated":"2026-01-20T05:27:21Z"}
