{"icao":"LPMR","metar":"LPMR 020700Z 15004KT 5000 BR FEW025 SCT030 10/10 Q1024","updated":"2025-11-02T07:15:51Z"}
