{"icao":"KORD","metar":"KORD 111551Z 20015G22KT 10SM FEW065 SCT110 OVC140 01/M08 A2991 RMK AO2 SLP135 T00111083","updated":"2025-11-11T16:24:24Z"}
