{"icao":"KLAX","metar":"KLAX 122253Z 27004KT 8SM FEW085 SCT110 BKN140 18/15 A3002 RMK AO2 SLP164 T01830150 $","updated":"2025-11-12T23:18:14Z"}
