{"icao":"LPPR","metar":"LPPR 021700Z 33007KT 300V360 9000 -SHRA FEW013 FEW016CB BKN023 10/08 Q1014 RESHRA","updated":"2025-12-02T17:20:57Z"}
