{"icao":"LPCS","metar":"LPCS 181100Z 06007KT 040V100 CAVOK 18/09 Q1020","updated":"2025-11-18T11:17:14Z"}
