{"icao":"KLAX","metar":"KLAX 110753Z 24017G28KT 10SM R25L/3500VP6000FT +RA FEW014 BKN018 BKN048 OVC150 15/13 A2997 RMK AO2 PK WND 20028/0750 RAB40 SLP148 P0004 T01500133 401830150 $","updated":"2026-02-11T07:58:51Z"}
