{"icao":"LPMA","metar":"LPMA 290630Z 33004KT 300V010 9999 FEW015 17/13 Q1020","updated":"2026-01-29T06:44:31Z"}
