{"icao":"LPOV","metar":"LPOV 091700Z 19004KT 160V220 9999 FEW016 SCT040 16/13 Q1019","updated":"2025-11-09T17:14:09Z"}
