{"icao":"LPPT","metar":"LPPT 070600Z 29004KT 260V350 9999 FEW015 12/09 Q1010","updated":"2026-05-07T06:08:47Z"}
