{"icao":"LPPR","metar":"LPPR 171600Z 33003KT 9999 FEW017 FEW020TCU SCT038 09/07 Q1009","updated":"2026-01-17T16:21:48Z"}
