{"icao":"KJFK","metar":"KJFK 210951Z 00000KT 5SM BR BKN050 BKN060 07/07 A2977 RMK AO2 SLP081 T00670067","updated":"2026-03-21T10:24:56Z"}
