{"icao":"LPMT","metar":"LPMT 051700Z 26010KT CAVOK 20/12 Q1018","updated":"2026-04-05T17:29:12Z"}
