{"icao":"LPPR","metar":"LPPR 022230Z 20003KT 9999 FEW011 BKN015 15/14 Q1015","updated":"2026-05-02T22:39:25Z"}
