{"icao":"LPST","metar":"LPST 100900Z 25016KT 1500 -RADZ BR BKN003 BKN012 15/15 Q1016","updated":"2026-02-10T09:59:35Z"}
