{"icao":"LPAR","metar":"LPAR 261000Z 07005KT 020V120 CAVOK 14/12 Q1025","updated":"2026-02-26T10:43:44Z"}
