{"icao":"LPMT","metar":"LPMT 191700Z 33009KT CAVOK 28/15 Q1013 RMK WIND PK 31017/44 FEW250 BLU","updated":"2026-06-19T17:58:34Z"}
