{"icao":"LPPR","metar":"LPPR 290700Z 14008KT 5000 BR FEW006 BKN035 11/10 Q1018","updated":"2025-11-29T07:16:52Z"}
