{"icao":"KJFK","metar":"KJFK 270251Z 24007KT 10SM FEW035 BKN170 BKN250 24/19 A3004 RMK SLP173 T02390194 $ ","updated":"2026-06-27T02:56:48Z"}
