{"icao":"KJFK","metar":"KJFK 251351Z 21008KT 10SM FEW035 BKN140 BKN220 10/05 A3027 RMK SLP250 T01000050 ","updated":"2025-11-25T14:19:07Z"}
