{"icao":"LPBJ","metar":"LPBJ 151200Z 33006KT 290V020 CAVOK 29/16 Q1021","updated":"2025-09-15T12:36:19Z"}
