{"icao":"KJFK","metar":"KJFK 261751Z 18010KT 10SM FEW120 BKN250 17/06 A2989 RMK AO2 SLP122 T01720056 10183 20078 56023 $","updated":"2026-03-26T18:04:30Z"}
