{"icao":"LPPT","metar":"LPPT 221230Z 07007G20KT 030V110 9999 FEW030 18/13 Q1011","updated":"2026-03-22T12:49:22Z"}
