{"icao":"LPMR","metar":"LPMR 171000Z 13002KT 7000 VCSH SCT020 BKN040 14/13 Q1014","updated":"2025-11-17T10:21:21Z"}
