{"icao":"LPFR","metar":"LPFR 011230Z 12008KT 9999 FEW012 25/18 Q1020","updated":"2025-10-01T12:38:09Z"}
