{"icao":"KJFK","metar":"KJFK 062251Z 18006KT 10SM BKN070 BKN100 BKN250 M01/M07 A2963 RMK AO2 SLP034 T10111072 $","updated":"2026-02-06T23:24:39Z"}
