{"icao":"LPMT","metar":"LPMT 210500Z 12010KT 9999 SCT006 BKN025 14/12 Q1007","updated":"2026-03-21T05:39:34Z"}
