{"icao":"LPFR","metar":"LPFR 200100Z 36003KT CAVOK 10/07 Q1017","updated":"2025-11-20T01:22:24Z"}
