{"icao":"KJFK","metar":"KJFK 160651Z 26005KT 10SM FEW090 SCT170 BKN250 22/14 A2987 RMK AO2 SLP113 T02220144","updated":"2026-04-16T07:44:08Z"}
