{"icao":"KORD","metar":"KORD 261751Z 29010G18KT 10SM FEW040 M15/M24 A3027 RMK AO2 SLP266 4/004 933002 T11501239 11150 21178 58001","updated":"2026-01-26T18:34:21Z"}
