{"icao":"KORD","metar":"KORD 131451Z 23015G22KT 10SM BKN095 BKN140 OVC220 04/M02 A2959 RMK AO2 PK WND 22028/1356 SLP024 T00391017 56037 $","updated":"2026-01-13T15:23:55Z"}
