{"icao":"LPPT","metar":"LPPT 102000Z 21003KT CAVOK 10/08 Q1029","updated":"2026-01-10T20:20:48Z"}
