{"icao":"LPPS","metar":"LPPS 111230Z 01016KT 9999 FEW015 18/12 Q1023","updated":"2026-04-11T12:55:33Z"}
