{"icao":"KORD","metar":"KORD 231351Z 32017G23KT 10SM FEW022 FEW250 M24/M33 A3060 RMK AO2 PK WND 32027/1256 SLP381 T12391333","updated":"2026-01-23T14:24:39Z"}
