{"icao":"LPFR","metar":"LPFR 071700Z 25015KT 7000 FEW012 FEW020CB 15/13 Q1008","updated":"2026-02-07T17:24:13Z"}
