{"icao":"LPMR","metar":"LPMR 161500Z 32011KT 280V350 CAVOK 19/10 Q1021","updated":"2026-04-16T15:24:25Z"}
