{"icao":"LPHR","metar":"LPHR 261430Z 29016KT 9999 FEW005 BKN007 18/16 Q1030","updated":"2026-02-26T14:44:51Z"}
