{"icao":"LPFL","metar":"LPFL 011400Z 33013G26KT 250V020 9999 VCSH FEW018 SCT024 FEW025TCU 12/06 Q1010","updated":"2026-02-01T14:24:42Z"}
