{"icao":"KJFK","metar":"KJFK 050051Z 28011KT 10SM SCT060 M01/M09 A3016 RMK AO2 SLP212 T10061089 $","updated":"2026-01-05T01:49:26Z"}
