{"icao":"KLAX","metar":"KLAX 222253Z 24006KT 10SM BKN090 BKN140 21/07 A2990 RMK AO2 SLP124 T02060072","updated":"2025-11-22T23:17:15Z"}
