{"icao":"LPMA","metar":"LPMA 062100Z 30005KT 260V320 9999 FEW016 19/11 Q1021","updated":"2025-11-06T21:16:19Z"}
