{"icao":"LPHR","metar":"LPHR 051300Z 14011KT 9999 FEW015 BKN035 22/19 Q1023","updated":"2025-10-05T13:20:19Z"}
