{"icao":"KORD","metar":"KORD 190114Z 10004KT 10SM TS BKN035CB OVC150 20/17 A2961 RMK AO2 TSE09B13 OCNL LTGICCG S TS S MOV NE T02000172 $","updated":"2025-10-19T01:28:59Z"}
