{"icao":"LPFR","metar":"LPFR 190830Z 03006KT 010V090 9999 FEW008 13/12 Q1006","updated":"2026-03-19T08:40:10Z"}
