{"icao":"LPAZ","metar":"LPAZ 231000Z 29009KT 9999 FEW026 SCT040 16/11 Q1025","updated":"2025-12-23T10:22:35Z"}
