{"icao":"LPPR","metar":"LPPR 182100Z 14005KT CAVOK 19/12 Q1015","updated":"2025-10-18T21:14:06Z"}
