{"icao":"LPMR","metar":"LPMR 180600Z 15008KT CAVOK 10/08 Q1021","updated":"2025-12-18T09:25:45Z"}
