{"icao":"KLAX","metar":"KLAX 101953Z 00000KT 10SM FEW240 SCT280 19/M05 A3034 RMK AO2 SLP276 T01941050 $","updated":"2026-01-10T20:21:06Z"}
