{"icao":"LPPD","metar":"LPPD 111600Z 04016G27KT 010V070 9999 FEW018 FEW022CB BKN030 16/11 Q1020","updated":"2026-05-11T16:31:56Z"}
