{"icao":"LPCS","metar":"LPCS 052000Z 03002KT CAVOK 19/08 Q1019","updated":"2026-04-05T20:32:01Z"}
