{"icao":"LPPT","metar":"LPPT 071000Z 32008KT 290V360 9999 FEW028 22/15 Q1021","updated":"2026-06-07T10:27:34Z"}
