{"icao":"KJFK","metar":"KJFK 031751Z 31010KT 10SM FEW160 FEW250 04/M06 A3006 RMK AO2 SLP178 T00441056 10044 20000 53003","updated":"2025-12-03T18:30:14Z"}
