{"icao":"LPFL","metar":"LPFL 111500Z 16008KT 130V200 9999 FEW033 15/06 Q1033","updated":"2026-04-11T15:32:30Z"}
