{"icao":"LPFR","metar":"LPFR 210700Z 23010KT 9999 -RA SCT009 SCT015 BKN035 13/12 Q1014","updated":"2026-01-21T07:27:18Z"}
