{"icao":"LPFR","metar":"LPFR 300630Z 30003KT 9999 FEW003 SCT017 12/12 Q1016","updated":"2026-01-30T06:46:22Z"}
