{"icao":"LPPD","metar":"LPPD 290330Z 09015KT 060V120 9999 FEW006 SCT014 BKN030 15/14 Q1009","updated":"2025-12-29T03:47:41Z"}
