{"icao":"LPFL","metar":"LPFL 271600Z 15016KT 3500 -RADZ SCT004 BKN007 15/14 Q1014","updated":"2025-12-27T16:22:32Z"}
