{"icao":"LPBJ","metar":"LPBJ 261900Z 07005KT CAVOK 12/03 Q1024","updated":"2025-11-26T19:14:29Z"}
