{"icao":"LPFR","metar":"LPFR 291000Z 09004KT 050V120 5000 2400W -SHRA FEW005 FEW020CB SCT025 BKN040 18/17 Q1006 RESHRA","updated":"2025-10-29T10:20:21Z"}
