{"icao":"KLAX","metar":"KLAX 281153Z 00000KT 10SM BKN200 BKN250 12/M01 A3022 RMK AO2 SLP233 T01221006 10156 20111 56009","updated":"2026-01-28T12:48:11Z"}
