{"icao":"LPFL","metar":"LPFL 111630Z 16008KT 130V190 9999 FEW012 SCT015 17/13 Q1029","updated":"2026-03-11T16:50:57Z"}
