{"icao":"LPHR","metar":"LPHR 112100Z 35005KT 310V050 9999 SCT030 14/07 Q1032","updated":"2025-12-11T21:20:43Z"}
