{"icao":"LPCS","metar":"LPCS 191700Z 33007KT 9999 FEW011 12/10 Q1020","updated":"2026-01-19T17:22:17Z"}
