{"icao":"KORD","metar":"KORD 161651Z VRB03KT 10SM FEW300 27/12 A3021 RMK AO2 SLP226 T02720117 $","updated":"2025-09-16T17:15:17Z"}
