{"icao":"LPMA","metar":"LPMA 122000Z 35009KT 9999 SCT015 21/15 Q1018","updated":"2025-10-12T20:18:07Z"}
