{"icao":"LPCS","metar":"LPCS 201530Z 36008KT 330V030 CAVOK 17/06 Q1028","updated":"2026-02-20T15:36:01Z"}
