{"icao":"LPCS","metar":"LPCS 021000Z 01007KT 330V030 9999 FEW018 18/12 Q1026","updated":"2025-11-02T10:16:49Z"}
