{"icao":"LPMT","metar":"LPMT 260600Z 34003KT CAVOK 08/06 Q1024","updated":"2025-11-26T06:29:16Z"}
