{"icao":"LPPR","metar":"LPPR 130900Z 09004KT 050V130 9999 FEW028 19/12 Q1022","updated":"2025-09-13T09:15:16Z"}
