{"icao":"KJFK","metar":"KJFK 120551Z 30017G29KT 10SM BKN045 BKN055 01/M09 A3002 RMK AO2 PK WND 32035/0503 SLP165 T00111089 10033 20011 53025","updated":"2026-01-12T06:35:10Z"}
