{"icao":"LPMT","metar":"LPMT 171000Z 27004KT 240V310 9999 FEW016 FEW022CB 12/07 Q1014","updated":"2026-01-17T10:19:31Z"}
