{"icao":"LPCS","metar":"LPCS 041930Z 34021KT 9999 FEW020 17/12 Q1018","updated":"2026-06-04T20:03:27Z"}
