{"icao":"LPPT","metar":"LPPT 241300Z 24009KT 200V270 9999 FEW030 23/16 Q1014","updated":"2026-06-24T13:20:54Z"}
