{"icao":"LPLA","metar":"LPLA 140600Z 22006KT 160V260 9999 SCT013 18/16 Q1021 WIND RWY15 25011KT PK 25019/32 RH85 SCT120 BKN240 BLU","updated":"2025-12-14T06:28:26Z"}
