{"icao":"KLAX","metar":"KLAX 091253Z 09005KT 10SM FEW250 13/07 A3004 RMK AO2 SLP170 T01280072 $","updated":"2026-02-09T13:06:33Z"}
