{"icao":"LPST","metar":"LPST 051100Z 34011KT 300V020 9999 SCT018 SCT030 14/10 Q1018","updated":"2026-03-05T11:32:28Z"}
