{"icao":"LPMR","metar":"LPMR 171400Z 30010KT CAVOK 24/13 Q1014","updated":"2025-10-17T14:17:23Z"}
