{"icao":"LPPR","metar":"LPPR 181930Z 31009KT 280V340 9999 -SHRA FEW012 FEW018CB SCT030 12/08 Q1018","updated":"2026-02-18T19:47:13Z"}
