{"icao":"LPMA","metar":"LPMA 230430Z 35004KT 330V030 9999 FEW015 20/13 Q1018","updated":"2026-06-23T04:59:10Z"}
