{"icao":"KORD","metar":"KORD 211351Z 14006KT 8SM BKN140 BKN250 09/04 A2992 RMK AO2 SLP135 T00940039","updated":"2026-03-21T14:25:49Z"}
