{"icao":"LPMR","metar":"LPMR 151900Z 34020KT 9999 SCT022 15/11 Q1016","updated":"2026-05-15T20:15:46Z"}
