{"icao":"KJFK","metar":"KJFK 281051Z 03008KT 10SM FEW035 FEW250 07/04 A3032 RMK AO2 SLP267 T00670039","updated":"2025-10-28T11:14:53Z"}
