{"icao":"LPAZ","metar":"LPAZ 160200Z 22007KT 9999 FEW028 BKN040 15/10 Q1023","updated":"2026-04-16T02:33:44Z"}
