{"icao":"KORD","metar":"KORD 011751Z VRB05KT 9SM SCT035 SCT250 08/01 A3005 RMK AO2 SLP179 T00830006 10094 20050 50004 $","updated":"2025-11-01T18:22:30Z"}
