{"icao":"KORD","metar":"KORD 122051Z 08005KT 10SM FEW070 BKN090 04/M05 A3023 RMK AO2 SLP243 T00391050 56020 $","updated":"2026-02-12T21:32:35Z"}
