{"icao":"KLAX","metar":"KLAX 261853Z 26010KT 10SM FEW009 FEW035 SCT050 21/13 A2996 RMK AO2 SLP145 T02110133","updated":"2026-06-26T19:44:32Z"}
