{"icao":"KJFK","metar":"KJFK 191751Z 31014G18KT 10SM FEW050 SCT250 29/13 A2996 RMK AO2 SLP145 T02940128 10294 20222 58009 $","updated":"2025-09-19T18:24:10Z"}
