{"icao":"LPMA","metar":"LPMA 250600Z 36015KT 330V030 9999 SCT015 16/09 Q1015","updated":"2025-12-25T06:31:31Z"}
