{"icao":"KJFK","metar":"KJFK 220451Z 31017G26KT 10SM FEW250 M02/M12 A3038 RMK AO2 PK WND 31027/0440 SLP288 T10171122 400891017 $","updated":"2025-12-22T05:23:19Z"}
