{"icao":"LPST","metar":"LPST 241400Z 26008KT 230V300 9999 SCT016 BKN020 22/18 Q1017","updated":"2025-10-24T14:18:32Z"}
