{"icao":"LPFL","metar":"LPFL 271730Z 02006KT 360V060 9999 BKN014 15/12 Q1031","updated":"2026-03-27T17:49:02Z"}
