{"icao":"KORD","metar":"KORD 191151Z 28016G30KT 10SM FEW020 SCT027 M12/M18 A2970 RMK AO2 PK WND 25032/1123 SNE36 SLP067 P0000 60000 70018 T11171178 11083 21117 53033","updated":"2025-12-19T12:39:18Z"}
