{"icao":"LPAZ","metar":"LPAZ 311000Z 23014KT 3000 BR SCT004 BKN018 17/16 Q1019","updated":"2026-01-31T10:23:19Z"}
