{"icao":"LPPT","metar":"LPPT 261900Z 13004KT 090V200 9999 FEW036 10/06 Q1013","updated":"2025-12-26T19:14:50Z"}
