{"icao":"LPMT","metar":"LPMT 151900Z 34009KT 310V010 CAVOK 16/10 Q1022","updated":"2026-04-15T19:15:41Z"}
