{"icao":"LPMT","metar":"LPMT 191400Z 19006KT 160V220 6000 -RA FEW012 SCT025 14/12 Q1006","updated":"2026-03-19T14:44:53Z"}
