{"icao":"KLAX","metar":"KLAX 270505Z 20003KT 10SM BKN012 17/15 A2999 RMK AO2 T01720150 $","updated":"2025-10-27T05:19:10Z"}
