{"icao":"LPCS","metar":"LPCS 082000Z 28008KT 230V310 9999 FEW006 SCT010 BKN020 13/13 Q1031","updated":"2026-01-08T20:23:49Z"}
