{"icao":"LPFL","metar":"LPFL 251230Z 16007KT 130V230 9999 FEW012 21/16 Q1026","updated":"2025-11-25T12:39:48Z"}
