{"icao":"KJFK","metar":"KJFK 021151Z 36005KT 10SM FEW029 SCT042 BKN100 OVC220 03/M03 A3009 RMK AO2 SLP190 T00281033 10028 21006 56014 $","updated":"2025-12-02T12:41:41Z"}
