{"icao":"LPST","metar":"LPST 301600Z 29007KT 260V320 9999 FEW030 23/14 Q1018","updated":"2025-09-30T22:15:52Z"}
