{"icao":"LPMR","metar":"LPMR 070600Z 18009KT 7000 FEW009 BKN020 BKN032 16/15 Q1014","updated":"2025-11-07T06:27:44Z"}
