{"icao":"LPBJ","metar":"LPBJ 011000Z 17007KT 140V200 CAVOK 14/08 Q1022","updated":"2026-03-01T10:23:38Z"}
