{"icao":"KJFK","metar":"KJFK 050151Z 33009KT 10SM BKN210 BKN250 M01/M13 A3020 RMK AO2 SLP225 T10111128 PNO $","updated":"2026-02-05T01:59:13Z"}
