{"icao":"LPLA","metar":"LPLA 062000Z 21012KT 160V230 9000 -SHRA SCT020 13/10 Q1026","updated":"2026-03-06T20:30:42Z"}
