{"icao":"LPHR","metar":"LPHR 081330Z 24021KT 9999 FEW007 19/18 Q1011","updated":"2026-02-08T13:43:03Z"}
