{"icao":"LPCS","metar":"LPCS 111600Z 20012KT 9999 FEW012 BKN022 17/14 Q1014","updated":"2026-05-11T16:31:53Z"}
