{"icao":"LPPR","metar":"LPPR 122100Z 35003KT CAVOK 19/11 Q1017","updated":"2025-10-12T21:14:17Z"}
