{"icao":"LPPT","metar":"LPPT 212200Z 36005KT CAVOK 15/08 Q1028","updated":"2026-02-21T22:22:16Z"}
