{"icao":"LPFL","metar":"LPFL 191600Z 25012G27KT 170V300 9999 FEW004 25/20 Q1012 WS R18","updated":"2025-10-19T16:19:35Z"}
