{"icao":"LPPR","metar":"LPPR 210200Z 10009KT CAVOK 21/10 Q1004","updated":"2026-04-21T02:30:31Z"}
