{"icao":"LPMR","metar":"LPMR 180400Z 17003KT CAVOK 13/11 Q1015","updated":"2025-10-18T04:20:03Z"}
