{"icao":"LPLA","metar":"LPLA 242300Z 15010KT 9999 SCT018 OVC040 14/11 Q1023","updated":"2025-12-24T23:18:28Z"}
