{"icao":"LPMA","metar":"LPMA 140900Z 00000KT 9999 FEW015 19/11 Q1012","updated":"2025-11-14T09:19:46Z"}
