{"icao":"LPLA","metar":"LPLA 071700Z 01011KT 6000 -RADZ BKN006 BKN015 14/13 Q1020","updated":"2026-03-07T17:20:19Z"}
