{"icao":"LPPT","metar":"LPPT 070130Z 32014KT CAVOK 11/08 Q1018","updated":"2026-03-07T01:52:18Z"}
