{"icao":"LPCS","metar":"LPCS 190930Z 04003KT 340V140 9999 FEW026 SCT045 12/07 Q1028","updated":"2026-02-19T09:43:10Z"}
