{"icao":"LPMA","metar":"LPMA 071500Z 35012G23KT 290V020 9999 SCT014 17/05 Q1023","updated":"2026-04-07T15:06:28Z"}
