{"icao":"KLAX","metar":"KLAX 150853Z 10003KT 10SM FEW008 13/12 A3003 RMK AO2 SLP166 T01330117 58004","updated":"2026-04-15T09:17:48Z"}
