{"icao":"LPFR","metar":"LPFR 140530Z 23003KT 9999 BKN020 20/18 Q1016","updated":"2026-06-14T05:46:59Z"}
