{"icao":"KORD","metar":"KORD 311452Z AUTO 26009KT 10SM OVC022 M00/M04 A2988 RMK T10031038 ","updated":"2025-12-31T15:20:20Z"}
