{"icao":"LPPT","metar":"LPPT 052100Z 24007KT 9999 VCTS FEW016 FEW025CB 14/10 Q1014","updated":"2025-11-05T21:17:02Z"}
