{"icao":"LPHR","metar":"LPHR 071100Z 11004KT 070V160 9999 -RA SCT009 SCT070 BKN095 15/13 Q1021","updated":"2026-03-07T11:18:46Z"}
