{"icao":"LPLA","metar":"LPLA 031200Z 21007KT 180V240 9999 FEW025 BKN035 18/12 Q1028","updated":"2025-12-03T12:41:05Z"}
