{"icao":"LPFR","metar":"LPFR 181500Z 10010KT CAVOK 24/15 Q1016","updated":"2025-10-18T15:15:23Z"}
