{"icao":"LPPR","metar":"LPPR 291900Z 36005KT 350V050 CAVOK 19/15 Q1017","updated":"2025-09-29T19:14:00Z"}
