{"icao":"LPLA","metar":"LPLA 082300Z 28017KT 9999 FEW020 SCT045 14/06 Q1008","updated":"2025-12-08T23:18:28Z"}
