{"icao":"LPMA","metar":"LPMA 011000Z 21017KT 9999 FEW011 BKN033 18/14 Q1003","updated":"2026-01-01T10:21:28Z"}
