{"icao":"LPMA","metar":"LPMA 180100Z 34006KT 290V030 9999 SCT015 19/13 Q1023","updated":"2025-11-18T01:24:12Z"}
