{"icao":"LPCS","metar":"LPCS 021630Z 21009KT 170V250 9999 FEW007 SCT016 18/14 Q1016","updated":"2026-05-02T16:43:54Z"}
