{"icao":"LPMR","metar":"LPMR 260300Z 15003KT 7000 3000S BCFG NSC 05/05 Q1025","updated":"2025-11-26T03:13:37Z"}
