{"icao":"LPMR","metar":"LPMR 230000Z 29001KT 230V340 CAVOK 11/08 Q1019","updated":"2025-09-23T01:17:29Z"}
