{"icao":"KORD","metar":"KORD 122051Z 10011KT 10SM SCT220 BKN250 20/09 A2994 RMK AO2 SLP139 T02000094 56016 $","updated":"2025-10-12T21:14:35Z"}
