{"icao":"LPPD","metar":"LPPD 042100Z 26037G51KT 9999 FEW015 BKN030 15/09 Q0995","updated":"2026-02-04T21:31:42Z"}
