{"icao":"LPMA","metar":"LPMA 191930Z 07004KT 030V120 9999 BKN015 22/17 Q1018","updated":"2026-06-19T19:49:06Z"}
