{"icao":"LPAR","metar":"LPAR 191500Z 34010KT 310V020 9999 FEW025 15/08 Q1020","updated":"2026-01-19T16:27:52Z"}
