{"icao":"LPMR","metar":"LPMR 222300Z 32007KT 6000 BKN007 19/19 Q1016","updated":"2026-06-23T00:04:04Z"}
