{"icao":"KJFK","metar":"KJFK 181651Z 35003KT 10SM FEW120 SCT150 BKN250 00/M15 A3043 RMK AO2 SLP303 T00001150","updated":"2026-03-18T16:57:56Z"}
