{"icao":"LPLA","metar":"LPLA 241800Z 05005KT 310V110 9999 OVC025 14/08 Q1029","updated":"2026-03-24T19:01:31Z"}
