{"icao":"KJFK","metar":"KJFK 140551Z 20009KT 10SM BKN065 BKN090 BKN250 21/16 A3005 RMK AO2 SLP174 60000 T02060161 10211 20200 58010 $","updated":"2025-09-14T06:23:18Z"}
