{"icao":"LPPR","metar":"LPPR 200500Z 12008KT CAVOK 07/05 Q1017","updated":"2025-12-20T05:18:32Z"}
