{"icao":"LPCS","metar":"LPCS 231530Z 21006KT 170V230 9999 FEW030 22/12 Q1014","updated":"2026-03-23T15:58:33Z"}
