{"icao":"LPMA","metar":"LPMA 061100Z VRB07KT 9999 FEW016 23/13 Q1022","updated":"2025-11-06T11:16:34Z"}
