{"icao":"LPPD","metar":"LPPD 111330Z 04013KT 010V070 9999 VCSH FEW015 FEW018CB BKN025 15/12 Q1020","updated":"2026-05-11T13:47:21Z"}
