{"icao":"LPFR","metar":"LPFR 011600Z 23003KT 200V270 CAVOK 16/10 Q1019","updated":"2025-12-01T16:26:52Z"}
