{"icao":"LPFL","metar":"LPFL 161430Z 33009G22KT 260V030 9999 FEW012 BKN016 16/10 Q1018 WS ALL RWY","updated":"2026-03-16T14:58:16Z"}
