{"icao":"KORD","metar":"KORD 030451Z 10004KT 10SM OVC180 02/M06 A3022 RMK AO2 SLP240 T00221061 $","updated":"2026-03-03T05:48:17Z"}
