{"icao":"LPPT","metar":"LPPT 010900Z 04004KT 350V090 CAVOK 23/13 Q1021","updated":"2025-10-01T09:19:36Z"}
