{"icao":"KORD","metar":"KORD 200951Z 19012KT 10SM OVC200 M01/M08 A2978 RMK AO2 SLP093 T10111083","updated":"2025-12-20T10:19:08Z"}
