{"icao":"KORD","metar":"KORD 030351Z 21012G18KT 6SM BR OVC009 M06/M08 A2999 RMK AO2 SLP166 T10561078","updated":"2025-12-03T04:28:23Z"}
