{"icao":"LPCS","metar":"LPCS 161200Z 27010KT 230V310 9999 FEW018 19/13 Q1013","updated":"2025-11-16T12:33:45Z"}
