{"icao":"LPPS","metar":"LPPS 291900Z 35008KT 9999 SCT015 18/13 Q1022","updated":"2025-11-29T19:14:28Z"}
