{"icao":"KLAX","metar":"KLAX 171653Z 27007KT 8SM FEW019 SCT030 BKN038 BKN270 18/12 A2981 RMK AO2 SLP093 T01830122","updated":"2026-05-17T17:03:11Z"}
