{"icao":"LPLA","metar":"LPLA 202100Z 36014KT 9000 -SHRA BKN014 BKN018 BKN035 14/12 Q1014","updated":"2026-03-20T21:28:47Z"}
