{"icao":"LPFR","metar":"LPFR 032300Z 01003KT 350V050 9999 FEW025 15/11 Q1012","updated":"2026-03-03T23:25:46Z"}
