{"icao":"LPPS","metar":"LPPS 261230Z 07013KT 040V100 9999 FEW015 20/10 Q1024","updated":"2025-11-26T12:40:50Z"}
