{"icao":"LPPT","metar":"LPPT 291500Z VRB05KT CAVOK 27/14 Q1015","updated":"2025-09-29T15:18:11Z"}
