{"icao":"LPMA","metar":"LPMA 190900Z VRB02KT 9999 SCT015 18/11 Q1020","updated":"2025-11-19T09:21:02Z"}
