{"icao":"KJFK","metar":"KJFK 252051Z 17006KT 10SM BKN060 BKN250 03/M01 A2965 RMK AO2 SLP040 T00281011 $","updated":"2026-02-25T21:33:52Z"}
