{"icao":"LPPR","metar":"LPPR 020700Z 04006KT CAVOK 09/05 Q1022","updated":"2026-04-02T07:10:32Z"}
