{"icao":"LPMT","metar":"LPMT 141800Z 33011KT 9999 FEW036 13/06 Q1028","updated":"2026-02-14T18:33:11Z"}
