{"icao":"LPFL","metar":"LPFL 140900Z 18012KT 150V220 9999 FEW019 16/11 Q1026","updated":"2026-02-14T09:28:49Z"}
