{"icao":"LPBJ","metar":"LPBJ 202000Z 23006KT 9999 FEW020 11/09 Q1018","updated":"2026-01-20T20:10:53Z"}
