{"icao":"LPPD","metar":"LPPD 081100Z 21014KT 9999 FEW008 SCT012 20/18 Q1021","updated":"2025-11-08T11:13:19Z"}
