{"icao":"LPMT","metar":"LPMT 271500Z 34009KT 9999 BKN020 16/13 Q1024","updated":"2026-02-27T15:36:25Z"}
