{"icao":"LPPR","metar":"LPPR 210700Z VRB02KT CAVOK 12/11 Q1009","updated":"2026-03-21T07:31:44Z"}
