{"icao":"LPHR","metar":"LPHR 060830Z 20014KT 9999 FEW040 BKN050 14/07 Q1031","updated":"2026-03-06T08:36:20Z"}
