{"icao":"KLAX","metar":"KLAX 260853Z 15004KT 5SM BR BKN010 15/13 A3000 RMK AO2 SLP159 T01500133 58002 $","updated":"2025-10-26T09:16:35Z"}
