{"icao":"KLAX","metar":"KLAX 252153Z 23012KT 10SM BKN011 BKN080 21/17 A2995 RMK AO2 SLP141 T02110167 $","updated":"2025-09-25T22:14:12Z"}
