{"icao":"KORD","metar":"KORD 081951Z 15013G22KT 10SM SCT031 BKN048 BKN130 BKN160 OVC250 28/21 A2993 RMK AO2 SLP132 T02780211","updated":"2026-06-08T20:12:27Z"}
