{"icao":"LPPR","metar":"LPPR 060100Z 21009KT 1600 DZRA BR BKN002 16/15 Q1019","updated":"2025-12-06T01:22:25Z"}
