{"icao":"LPFR","metar":"LPFR 250230Z 33004KT 300V030 CAVOK 18/12 Q1015","updated":"2025-09-25T02:59:52Z"}
