{"icao":"LPST","metar":"LPST 231600Z 30007KT 270V330 9999 FEW008 25/19 Q1012","updated":"2026-06-23T17:52:05Z"}
