{"icao":"LPMA","metar":"LPMA 110230Z 32003KT 290V020 9999 FEW016 14/10 Q1015","updated":"2026-05-11T02:58:34Z"}
