{"icao":"LPMA","metar":"LPMA 262100Z 01017KT 330V030 9999 SCT016 15/09 Q1017","updated":"2026-03-26T21:30:32Z"}
