{"icao":"LPPR","metar":"LPPR 050000Z 36005KT 330V030 CAVOK 12/09 Q1020","updated":"2026-06-05T00:05:14Z"}
