{"icao":"LPFL","metar":"LPFL 151700Z 26010KT 230V310 9999 VCSH FEW023 FEW025TCU 19/15 Q1001","updated":"2025-10-15T17:16:26Z"}
