{"icao":"LPMR","metar":"LPMR 050200Z 18003KT 6000 SCT006 BKN020 BKN030 12/12 Q1019","updated":"2025-12-05T03:17:34Z"}
