{"icao":"LPST","metar":"LPST 230800Z VRB01KT CAVOK 12/09 Q1019","updated":"2025-09-23T08:22:49Z"}
