{"icao":"LPBJ","metar":"LPBJ 042300Z 22009KT 8000 -RADZ BKN005 OVC012 14/14 Q0999","updated":"2026-02-04T23:26:02Z"}
