{"icao":"KJFK","metar":"KJFK 011451Z 36017G27KT 10SM FEW027 FEW031 FEW060 BKN220 M11/M18 A2988 RMK AO2 PK WND 36035/1403 SNE02 SLP118 P0075 60104 T11111178 51013 $","updated":"2026-02-01T15:23:37Z"}
