{"icao":"LPPD","metar":"LPPD 091100Z 04010KT 360V070 9999 FEW030 13/05 Q1035","updated":"2026-03-09T11:33:34Z"}
