{"icao":"KORD","metar":"KORD 140951Z 35005KT 10SM FEW120 BKN180 M01/M08 A3014 RMK AO2 SLP211 T10111078 $","updated":"2026-03-14T10:26:46Z"}
