{"icao":"LPPT","metar":"LPPT 140230Z 31005KT CAVOK 20/10 Q1016","updated":"2025-10-14T02:59:16Z"}
