{"icao":"LPAR","metar":"LPAR 190900Z 11006KT 9999 FEW015 13/12 Q1006","updated":"2026-03-19T09:41:34Z"}
