{"icao":"LPHR","metar":"LPHR 011900Z VRB04KT 9999 FEW030 SCT040 13/05 Q1029","updated":"2026-03-01T19:21:08Z"}
