{"icao":"KORD","metar":"KORD 270251Z 15003KT 10SM FEW250 23/09 A2998 RMK AO2 SLP146 T02280094 53006 $","updated":"2026-05-27T03:39:54Z"}
