{"icao":"LPAZ","metar":"LPAZ 020730Z 31021KT 9999 FEW028 13/08 Q1014","updated":"2026-02-02T07:48:41Z"}
