{"icao":"KORD","metar":"KORD 012251Z 04005KT 10SM FEW030 BKN055 BKN070 07/00 A3005 RMK AO2 RAE08 SLP180 P0000 T00670000 $","updated":"2026-05-01T23:50:57Z"}
