{"icao":"LPBJ","metar":"LPBJ 051500Z 30014G24KT 260V340 CAVOK 26/04 Q1015","updated":"2026-06-05T15:51:51Z"}
