{"icao":"LPBJ","metar":"LPBJ 021900Z 29010KT 9999 FEW045 19/12 Q1015","updated":"2026-05-02T19:54:54Z"}
