{"icao":"LPMR","metar":"LPMR 180700Z 15003KT CAVOK 07/06 Q1019","updated":"2025-11-18T07:18:15Z"}
