{"icao":"LPMT","metar":"LPMT 310900Z 19012KT 9999 FEW020 BKN045 20/17 Q1013","updated":"2025-10-31T09:19:39Z"}
