{"icao":"LPMT","metar":"LPMT 050100Z 26010KT 6000 -RA FEW002 BKN008 BKN030 16/16 Q1020","updated":"2025-12-05T01:26:46Z"}
