{"icao":"KJFK","metar":"KJFK 091705Z 13012KT 10SM -RA BKN008 OVC100 15/13 A2982 RMK AO2 RAB1657 P0000 T01500133 $","updated":"2025-11-09T17:14:43Z"}
