{"icao":"LPHR","metar":"LPHR 011330Z 29032G47KT 260V320 8000 VCSH SCT020 FEW025TCU SCT040 14/06 Q1009 WS R28","updated":"2026-02-01T13:42:01Z"}
