{"icao":"KORD","metar":"KORD 011951Z 04009KT 10SM FEW060 SCT070 OVC090 07/00 A3004 RMK AO2 SLP176 VCSH T00720000 $","updated":"2026-05-01T20:02:49Z"}
