{"icao":"LPBJ","metar":"LPBJ 090100Z VRB02KT CAVOK 09/07 Q1022","updated":"2025-11-09T01:27:00Z"}
