{"icao":"KJFK","metar":"KJFK 231835Z 36010KT 10SM BKN010 OVC018 05/03 A2989 RMK AO2 T00500033","updated":"2026-03-23T18:53:22Z"}
