{"icao":"KLAX","metar":"KLAX 011253Z 07004KT 10SM FEW009 BKN014 18/16 A3001 RMK AO2 SLP161 T01780161 $","updated":"2025-10-01T13:28:26Z"}
