{"icao":"KORD","metar":"KORD 271551Z 30010G20KT 10SM BKN035 M11/M18 A3006 RMK AO2 SNE39 SLP195 VCSH NE P0000 T11061183","updated":"2026-01-27T16:29:28Z"}
