{"icao":"LPBJ","metar":"LPBJ 182300Z 28006KT 9999 FEW028 SCT045 11/10 Q1023","updated":"2026-02-18T23:28:13Z"}
