{"icao":"LPFR","metar":"LPFR 261000Z 26014KT 8000 SCT008 SCT030 16/15 Q1017","updated":"2026-01-26T10:25:04Z"}
