{"icao":"KJFK","metar":"KJFK 131751Z 04020G32KT 7SM -RA FEW007 BKN012 OVC024 16/14 A2990 RMK AO2 PK WND 05036/1738 SLP124 P0000 60012 T01560139 10156 20133 58002","updated":"2025-10-13T18:25:09Z"}
