{"icao":"KORD","metar":"KORD 231851Z 31013G18KT 10SM FEW024 FEW250 M21/M32 A3069 RMK AO2 SLP412 T12061322","updated":"2026-01-23T19:23:33Z"}
