{"icao":"LPCS","metar":"LPCS 011400Z 10008KT 070V140 6000 -RA FEW004 BKN012 12/12 Q1009 RERA","updated":"2026-01-01T14:18:34Z"}
