{"icao":"KLAX","metar":"KLAX 052253Z 34010G17KT 310V010 10SM CLR 24/M03 A2988 RMK AO2 SLP118 T02391033","updated":"2026-03-05T23:50:11Z"}
