{"icao":"LPMA","metar":"LPMA 051100Z 04013KT 360V130 9999 FEW016 20/12 Q1010","updated":"2026-02-05T11:34:12Z"}
