{"icao":"KORD","metar":"KORD 211151Z 10004KT 10SM BKN130 OVC250 07/03 A2992 RMK AO2 SLP135 T00670028 10078 20050 56007","updated":"2026-03-21T12:46:43Z"}
