{"icao":"LPAZ","metar":"LPAZ 131330Z 31013KT 9999 FEW024 17/11 Q1031","updated":"2026-02-13T14:03:06Z"}
