{"icao":"LPMT","metar":"LPMT 251300Z 24012KT 9999 SCT016 BKN022 15/13 Q1015","updated":"2026-01-25T13:31:12Z"}
