{"icao":"KORD","metar":"KORD 160551Z 32017G26KT 10SM FEW200 09/M08 A2974 RMK AO2 PK WND 32030/0523 SLP072 T00941078 10167 20094 402170094 53019 $","updated":"2025-11-16T06:26:43Z"}
