{"icao":"KLAX","metar":"KLAX 032253Z 24012KT 10SM FEW250 19/13 A2992 RMK AO2 SLP131 T01940128 $","updated":"2026-06-03T23:41:56Z"}
