{"icao":"LPFR","metar":"LPFR 201830Z 29006KT 9999 FEW030 14/08 Q1018","updated":"2026-01-20T18:35:34Z"}
