{"icao":"LPAR","metar":"LPAR 030900Z 04013KT CAVOK 14/10 Q1012","updated":"2026-03-03T09:40:09Z"}
