{"icao":"LPCS","metar":"LPCS 011400Z 19007KT 140V230 9999 FEW024 16/08 Q1020","updated":"2026-03-01T14:22:28Z"}
