{"icao":"LPFR","metar":"LPFR 041900Z 30005KT 9999 FEW012 14/11 Q1022","updated":"2025-12-04T19:17:34Z"}
