{"icao":"LPPS","metar":"LPPS 120430Z 06015KT 030V090 9999 SCT013 15/11 Q1023","updated":"2026-03-12T04:46:07Z"}
