{"icao":"LPLA","metar":"LPLA 260100Z 08013G23KT 040V110 9999 FEW025 18/11 Q1023","updated":"2025-10-26T01:26:13Z"}
