{"icao":"LPMA","metar":"LPMA 190500Z 35009KT 300V030 9999 SCT015 15/08 Q1023","updated":"2026-01-19T05:30:24Z"}
