{"icao":"KORD","metar":"KORD 221851Z 23005KT 10SM FEW037 BKN120 BKN250 26/17 A2985 RMK AO2 SLP105 T02610167","updated":"2025-09-22T19:14:06Z"}
