{"icao":"KORD","metar":"KORD 091151Z 20003KT 10SM BKN100 BKN150 13/07 A3009 RMK AO2 SLP186 VIRGA 60000 T01280067 10183 20128 51027","updated":"2026-04-09T11:56:59Z"}
