{"icao":"LPMA","metar":"LPMA 210100Z 02012KT 330V050 9999 SCT014 23/19 Q1021","updated":"2025-09-21T01:24:53Z"}
