{"icao":"LPMR","metar":"LPMR 290600Z 15002KT CAVOK 04/04 Q1018","updated":"2025-12-29T06:33:20Z"}
