{"icao":"LPOV","metar":"LPOV 201900Z 33009KT CAVOK 17/14 Q1021","updated":"2025-09-20T19:11:22Z"}
