{"icao":"LPAZ","metar":"LPAZ 060500Z 30025KT 8000 VCSH FEW005 BKN015 12/11 Q1013","updated":"2026-04-06T05:22:25Z"}
