{"icao":"KJFK","metar":"KJFK 180827Z 00000KT 1/8SM R04R/2000V2400FT FG BKN002 OVC006 11/11 A3006 RMK AO2 T01110106","updated":"2026-04-18T08:49:57Z"}
