{"icao":"LPPT","metar":"LPPT 251300Z 24014KT 210V270 9999 FEW014 BKN018 15/12 Q1015","updated":"2026-01-25T13:31:08Z"}
