{"icao":"LPPS","metar":"LPPS 100800Z 01010KT 9999 FEW015 17/09 Q1024","updated":"2025-12-10T08:27:36Z"}
