{"icao":"LPCS","metar":"LPCS 131700Z 31008KT 290V360 9999 VCSH FEW005 BKN015 14/11 Q1021","updated":"2026-03-13T17:33:04Z"}
