{"icao":"KJFK","metar":"KJFK 201551Z 07008KT 10SM FEW050 FEW250 22/09 A3027 RMK AO2 SLP248 T02220094 $","updated":"2025-09-20T16:18:42Z"}
