{"icao":"LPMA","metar":"LPMA 171500Z 36013KT 310V030 9999 SCT015 FEW018TCU 20/12 Q1022","updated":"2025-11-17T15:20:41Z"}
