{"icao":"LPOV","metar":"LPOV 020900Z 26015G26KT 9000 -SHRA FEW015 FEW018CB BKN025 BKN045 11/07 Q0994","updated":"2026-02-02T09:47:45Z"}
