{"icao":"LPPR","metar":"LPPR 021700Z 00000KT CAVOK 16/12 Q1026","updated":"2025-11-02T17:14:07Z"}
