{"icao":"LPPS","metar":"LPPS 041800Z 36008KT 330V030 9999 SCT015 22/15 Q1026","updated":"2025-10-04T18:21:44Z"}
