{"icao":"KLAX","metar":"KLAX 240853Z 00000KT 9SM FEW009 17/15 A3000 RMK AO2 SLP157 T01670150 58000","updated":"2025-10-24T09:19:57Z"}
