{"icao":"LPPD","metar":"LPPD 051230Z 28017G30KT 8000 SHRA SCT013 SCT020CB 12/08 Q1004","updated":"2026-02-05T12:59:45Z"}
