{"icao":"LPPS","metar":"LPPS 060900Z 04012G26KT 010V070 9999 VCSH SCT015 15/10 Q1027","updated":"2026-01-06T09:25:21Z"}
