{"icao":"LPMR","metar":"LPMR 040100Z 17005KT 9999 FEW008 BKN035 12/11 Q1021 RERA","updated":"2025-12-04T01:26:30Z"}
