{"icao":"KJFK","metar":"KJFK 101851Z 16010KT 10SM FEW015 FEW250 10/05 A3027 RMK AO2 SLP250 T01000050","updated":"2026-04-10T19:42:35Z"}
