{"icao":"LPMR","metar":"LPMR 260700Z 15004KT 3000 BR NSC 02/01 Q1013","updated":"2025-12-26T07:20:27Z"}
