{"icao":"LPPR","metar":"LPPR 211830Z 31014G28KT 8000 -SHRA SCT020 FEW024CB SCT045 11/07 Q1000 RESHRA","updated":"2026-01-21T18:40:41Z"}
