{"icao":"LPOV","metar":"LPOV 200400Z 15003KT 9999 FEW006 BKN030 16/15 Q1012","updated":"2025-10-20T05:18:34Z"}
