{"icao":"LPFL","metar":"LPFL 281500Z 28010KT 220V330 9999 FEW012 19/11 Q1029","updated":"2026-02-28T15:20:32Z"}
