{"icao":"LPFL","metar":"LPFL 112000Z 32014G30KT 260V350 9999 SCT026 FEW027TCU 14/09 Q1008","updated":"2025-11-11T20:20:03Z"}
