{"icao":"LPPD","metar":"LPPD 221330Z 02016KT 340V050 9999 FEW016 SCT030 16/11 Q1019","updated":"2026-03-22T13:42:27Z"}
