{"icao":"KJFK","metar":"KJFK 121051Z 36006KT 10SM FEW250 05/M02 A3051 RMK AO2 SLP332 T00501022","updated":"2026-04-12T11:32:54Z"}
