{"icao":"LPFR","metar":"LPFR 121000Z 01005KT 320V030 9999 FEW012 FEW020CB SCT022 13/12 Q1013","updated":"2025-12-12T10:21:16Z"}
