{"icao":"LPPR","metar":"LPPR 072300Z 34015G25KT 310V010 9999 -SHRA FEW015CB BKN025 10/08 Q1005 RESHRA","updated":"2026-02-07T23:28:11Z"}
