{"icao":"LPFR","metar":"LPFR 132200Z 31008KT CAVOK 17/11 Q1018","updated":"2026-05-13T22:09:50Z"}
