{"icao":"LPPT","metar":"LPPT 130600Z 19014KT 9999 FEW012 SCT022 14/12 Q1007","updated":"2026-01-13T06:32:12Z"}
