{"icao":"LPFR","metar":"LPFR 090500Z 34004KT 9999 SCT003 SCT018 11/11 Q1030","updated":"2026-01-09T05:23:58Z"}
