{"icao":"LPPR","metar":"LPPR 231630Z 33008KT 300V360 CAVOK 19/10 Q1014","updated":"2026-03-23T17:02:10Z"}
