{"icao":"LPBJ","metar":"LPBJ 062300Z 26003KT CAVOK 03/M00 Q1025","updated":"2026-01-06T23:19:12Z"}
