{"icao":"LPPR","metar":"LPPR 281100Z 27007KT 230V300 9999 VCSH FEW015 FEW018CB SCT025 13/09 Q0998","updated":"2026-01-28T11:21:56Z"}
