{"icao":"LPMA","metar":"LPMA 092000Z 35003KT 310V020 9999 SCT016 20/13 Q1022","updated":"2025-11-09T20:17:53Z"}
