{"icao":"KJFK","metar":"KJFK 130151Z 33016KT 10SM FEW040 BKN180 BKN250 M01/M09 A3006 RMK AO2 SLP180 T10111094 $","updated":"2026-02-13T02:08:23Z"}
