{"icao":"LPLA","metar":"LPLA 270900Z 31004KT 290V350 9999 BKN030 13/07 Q1035","updated":"2026-02-27T09:39:31Z"}
