{"icao":"LPPS","metar":"LPPS 261300Z 01014KT 9999 SCT014 BKN030 16/10 Q1019","updated":"2026-03-26T13:12:54Z"}
