{"icao":"KLAX","metar":"KLAX 280953Z 00000KT 10SM BKN200 BKN250 12/02 A3025 RMK AO2 SLP240 T01170022","updated":"2026-01-28T10:27:07Z"}
