{"icao":"LPPT","metar":"LPPT 121830Z 33015KT 9999 FEW040 13/05 Q1021 WS R02","updated":"2026-04-12T18:47:46Z"}
