{"icao":"LPOV","metar":"LPOV 301100Z 19025KT 7000 SCT012 BKN021 OVC030 14/13 Q1007","updated":"2026-01-30T11:26:53Z"}
