{"icao":"LPPR","metar":"LPPR 151300Z 25005KT 220V300 CAVOK 23/12 Q1017","updated":"2025-10-15T13:30:45Z"}
