{"icao":"LPMA","metar":"LPMA 131000Z 25003KT 200V310 9999 SCT015 FEW018CB 16/10 Q1019","updated":"2026-01-13T10:23:16Z"}
