{"icao":"LPMT","metar":"LPMT 061000Z 25005KT 210V270 9999 FEW025 SCT040 16/12 Q1019","updated":"2025-11-06T10:20:55Z"}
