{"icao":"KJFK","metar":"KJFK 062151Z 07007KT 9SM FEW015 SCT140 BKN250 03/01 A2985 RMK AO2 SLP109 T00330006 $","updated":"2026-01-06T22:20:18Z"}
