{"icao":"LPPT","metar":"LPPT 221100Z 27011KT 240V300 9999 FEW018 SCT020 22/18 Q1019","updated":"2025-10-22T11:16:11Z"}
