{"icao":"LPPD","metar":"LPPD 180830Z 33007KT 300V360 9999 FEW015 SCT035 14/10 Q1025","updated":"2026-02-18T08:42:20Z"}
