{"icao":"KLAX","metar":"KLAX 130053Z 26005KT 10SM FEW060 FEW250 18/M01 A3013 RMK AO2 SLP204 T01781006 $","updated":"2026-01-13T01:28:45Z"}
