{"icao":"LPMR","metar":"LPMR 020500Z 14017G27KT 9999 FEW018 13/10 Q1002","updated":"2026-01-02T05:24:22Z"}
