{"icao":"LPBJ","metar":"LPBJ 270100Z 07005KT CAVOK 18/14 Q1019","updated":"2025-10-27T01:27:59Z"}
