{"icao":"KORD","metar":"KORD 130251Z 23007KT 10SM CLR 23/14 A2993 RMK AO2 SLP131 T02280139 50007 $","updated":"2026-06-13T03:35:33Z"}
