{"icao":"KORD","metar":"KORD 110651Z 03009KT 8SM BKN004 OVC022 06/04 A2965 RMK AO2 SLP044 T00560044 $","updated":"2026-03-11T07:42:23Z"}
