{"icao":"KJFK","metar":"KJFK 210851Z 00000KT 10SM OVC036 05/02 A3011 RMK AO2 SLP196 T00500017 58011 $","updated":"2025-11-21T09:19:47Z"}
