{"icao":"LPFR","metar":"LPFR 250500Z 08007KT CAVOK 21/11 Q1020","updated":"2026-05-25T05:18:13Z"}
