{"icao":"LPPT","metar":"LPPT 021000Z 08005G16KT 350V120 CAVOK 24/12 Q1022","updated":"2025-10-02T10:17:14Z"}
