{"icao":"LPAR","metar":"LPAR 271700Z 35006KT CAVOK 16/06 Q1023","updated":"2025-11-28T06:29:31Z"}
