{"icao":"LPCS","metar":"LPCS 091230Z 33016KT 9999 FEW020 SCT035 12/05 Q1023","updated":"2026-03-09T13:00:24Z"}
