{"icao":"LPLA","metar":"LPLA 270100Z 00000KT 9999 SCT025 10/07 Q1024","updated":"2025-12-27T01:26:57Z"}
