{"icao":"KORD","metar":"KORD 300351Z 00000KT 10SM CLR 21/16 A3018 RMK AO2 SLP217 T02060161","updated":"2025-09-30T04:21:34Z"}
