{"icao":"KJFK","metar":"KJFK 180151Z 22006KT 7SM SCT250 02/01 A3011 RMK AO2 SLP194 T00170006 $","updated":"2026-02-18T02:05:20Z"}
