{"icao":"LPPD","metar":"LPPD 071300Z 19005KT 170V230 9999 FEW025 SCT045 20/12 Q1022","updated":"2025-11-07T13:26:50Z"}
