{"icao":"LPPT","metar":"LPPT 141230Z 34013G24KT 300V010 9999 FEW036 14/05 Q1027","updated":"2026-02-14T12:44:35Z"}
