{"icao":"LPFR","metar":"LPFR 020300Z 03001KT CAVOK 08/06 Q1018","updated":"2025-12-02T03:17:23Z"}
