{"icao":"LPPT","metar":"LPPT 251830Z 31010KT CAVOK 17/12 Q1017","updated":"2026-03-25T19:01:07Z"}
