{"icao":"KJFK","metar":"KJFK 250251Z 36011KT 10SM SCT140 BKN170 OVC250 M08/M22 A3070 RMK AO2 SLP395 T10831222 53008 $","updated":"2026-01-25T03:53:03Z"}
