{"icao":"LPPR","metar":"LPPR 230800Z 16008KT 9999 BKN005 BKN012 11/11 Q1025","updated":"2025-11-23T08:22:29Z"}
