{"icao":"LPPS","metar":"LPPS 290730Z 01010KT 9999 FEW015 18/13 Q1025","updated":"2026-05-29T07:53:57Z"}
