{"icao":"LPCS","metar":"LPCS 091000Z 33010KT 9999 FEW015 14/11 Q1029","updated":"2026-01-09T10:21:32Z"}
