{"icao":"KLAX","metar":"KLAX 262053Z 00000KT 10SM FEW090 SCT160 BKN250 22/M07 A3022 RMK AO2 SLP233 T02221072 58020 $","updated":"2026-01-26T21:23:00Z"}
