{"icao":"LPMR","metar":"LPMR 041900Z 35007KT 5000 BR OVC002 17/17 Q1024","updated":"2025-10-04T19:11:50Z"}
