{"icao":"LPMA","metar":"LPMA 291100Z 02013KT 320V050 9999 SCT015 21/14 Q1025","updated":"2026-05-29T11:27:50Z"}
