{"icao":"LPFL","metar":"LPFL 280900Z VRB05G17KT 5000 -RADZ SCT010 FEW012TCU 18/15 Q1029 RERA","updated":"2026-02-28T09:25:00Z"}
