{"icao":"LPAR","metar":"LPAR 241400Z 26009KT 8000 -RADZ SCT009 BKN020 17/16 Q1017","updated":"2025-11-24T14:19:05Z"}
