{"icao":"KJFK","metar":"KJFK 022251Z 36017KT 10SM SCT009 BKN017 OVC025 04/03 A2961 RMK AO2 PK WND 36026/2216 RAE44 SLP028 P0001 T00440033","updated":"2025-12-02T23:17:44Z"}
