{"icao":"LPPT","metar":"LPPT 292000Z 23008KT 8000 -RADZ FEW008 BKN018 14/13 Q1016","updated":"2025-11-29T20:19:48Z"}
