{"icao":"LPBJ","metar":"LPBJ 181000Z 12003KT 050V170 CAVOK 26/15 Q1021","updated":"2025-09-18T10:18:19Z"}
