{"icao":"KLAX","metar":"KLAX 251853Z 00000KT 4SM HZ OVC012 18/14 A3005 RMK AO2 SLP174 T01780144 $","updated":"2025-10-25T19:13:19Z"}
