{"icao":"LPMA","metar":"LPMA 231900Z 07003KT 010V140 9999 SCT014 17/14 Q1021","updated":"2026-02-23T19:18:31Z"}
