{"icao":"LPFL","metar":"LPFL 041930Z VRB12G25KT 9999 VCSH SCT020 FEW024CB 13/07 Q0995","updated":"2026-02-04T19:37:20Z"}
