{"icao":"KLAX","metar":"KLAX 141613Z 19011G19KT 150V220 2 1/2SM -RA BR SCT006 BKN015 OVC040 17/14 A2983 RMK AO2 RAB11 PRESRR VIS 7 NE-S P0000 T01670144 $","updated":"2025-10-14T16:22:34Z"}
