{"icao":"LPMT","metar":"LPMT 071200Z 22010KT 190V260 9999 -RA SCT015 BKN020 20/16 Q1016","updated":"2025-11-07T12:37:02Z"}
