{"icao":"LPPS","metar":"LPPS 041530Z 25013KT 210V280 9999 FEW014 19/16 Q1011","updated":"2026-02-04T15:41:30Z"}
