{"icao":"LPPR","metar":"LPPR 180700Z 11003KT 060V150 CAVOK 13/11 Q1020","updated":"2025-09-18T07:16:26Z"}
