{"icao":"KLAX","metar":"KLAX 141253Z 08004KT 9SM FEW200 15/13 A2989 RMK AO2 SLP119 T01500133","updated":"2026-03-14T13:44:36Z"}
