{"icao":"LPBJ","metar":"LPBJ 260200Z 28006KT CAVOK 15/05 Q1018","updated":"2025-09-26T02:58:16Z"}
