{"icao":"KJFK","metar":"KJFK 310651Z 16005KT 10SM SCT090 BKN110 09/07 A3006 RMK AO2 SLP177 T00940072","updated":"2026-03-31T07:12:02Z"}
