{"icao":"KORD","metar":"KORD 161551Z 21006KT 10SM BKN250 M03/M09 A2995 RMK AO2 SLP151 T10281089","updated":"2025-12-16T16:28:22Z"}
