{"icao":"LPMA","metar":"LPMA 021000Z 18004KT 130V210 9999 FEW015 23/19 Q1024","updated":"2025-11-02T10:17:12Z"}
