{"icao":"LPST","metar":"LPST 291400Z 29014KT 3000 -RA BR BKN005 BKN010 14/14 Q1010 RERADZ","updated":"2026-01-29T14:49:42Z"}
