{"icao":"LPBJ","metar":"LPBJ 241300Z 20007KT 090V250 CAVOK 30/14 Q1014","updated":"2026-06-24T13:20:59Z"}
