{"icao":"LPPD","metar":"LPPD 111230Z 22004KT 190V260 9999 FEW020 BKN025 14/09 Q1033","updated":"2026-03-11T12:57:33Z"}
