{"icao":"LPOV","metar":"LPOV 301400Z 32013KT CAVOK 16/08 Q1030","updated":"2026-03-30T15:01:53Z"}
