{"icao":"LPMR","metar":"LPMR 080900Z 15003KT 3000 -DZ BR SCT009 BKN016 08/07 Q1031","updated":"2026-01-08T09:27:20Z"}
