{"icao":"LPAR","metar":"LPAR 051400Z 26022G39KT 220V300 8000 BKN025 18/11 Q0996","updated":"2026-02-05T14:08:21Z"}
