{"icao":"LPOV","metar":"LPOV 070600Z 15010KT 9999 -RA SCT030 19/12 Q1008","updated":"2026-04-07T07:14:38Z"}
