{"icao":"LPOV","metar":"LPOV 131700Z 23005KT 4000 -DZ SCT008 BKN028 BKN040 13/11 Q1021","updated":"2026-04-13T17:58:27Z"}
