{"icao":"LPMR","metar":"LPMR 240900Z 01002KT 330V040 8000 FEW020 05/04 Q1011","updated":"2025-12-24T09:23:02Z"}
