{"icao":"LPMT","metar":"LPMT 131600Z 31011KT 280V350 9999 FEW020 SCT030 13/09 Q1009","updated":"2026-02-13T16:43:49Z"}
