{"icao":"LPHR","metar":"LPHR 011400Z 19010KT 4000 -SHRA BR SCT004 BKN007 22/21 Q1020","updated":"2025-10-01T14:17:57Z"}
