{"icao":"LPPS","metar":"LPPS 010500Z 21013KT 9999 FEW015 21/16 Q1015","updated":"2025-11-01T05:16:35Z"}
