{"icao":"LPFR","metar":"LPFR 281500Z 17007KT CAVOK 19/07 Q1021","updated":"2026-02-28T15:20:29Z"}
