{"icao":"LPMA","metar":"LPMA 281230Z 04014KT 9999 BKN016 SCT030 20/13 Q1023","updated":"2025-11-28T12:38:49Z"}
