{"icao":"LPPS","metar":"LPPS 111030Z 28008KT 240V310 9999 FEW015 18/10 Q1017","updated":"2026-05-11T10:37:14Z"}
