{"icao":"KJFK","metar":"KJFK 232051Z 31012G23KT 10SM FEW070 SCT190 BKN250 23/00 A2982 RMK SLP099 T02280000 56022 ","updated":"2026-04-23T21:44:04Z"}
