{"icao":"LPOV","metar":"LPOV 272100Z VRB01KT CAVOK 14/11 Q1019","updated":"2025-10-27T21:15:39Z"}
