{"icao":"LPBJ","metar":"LPBJ 140600Z 19002KT CAVOK 15/11 Q1016","updated":"2025-10-14T06:27:19Z"}
