{"icao":"LPMA","metar":"LPMA 052300Z 01004KT 280V040 9999 FEW015 SCT030 22/16 Q1023","updated":"2025-10-05T23:13:40Z"}
