{"icao":"LPAZ","metar":"LPAZ 240400Z 03009KT 360V070 9999 FEW019 BKN025 13/09 Q1024","updated":"2026-03-24T04:25:06Z"}
