{"icao":"LPPD","metar":"LPPD 281500Z 24024KT 8000 FEW012 SCT040 18/15 Q1007","updated":"2026-01-28T15:30:58Z"}
