{"icao":"LPFL","metar":"LPFL 201730Z 33012G22KT 290V010 9999 SCT019 BKN033 14/07 Q1020","updated":"2026-04-20T17:56:34Z"}
