{"icao":"LPLA","metar":"LPLA 262000Z 21013KT 180V240 9999 FEW022 18/14 Q1021","updated":"2025-11-26T20:20:30Z"}
