{"icao":"LPOV","metar":"LPOV 090700Z 30009KT 9999 FEW020 SCT040 13/10 Q1026","updated":"2026-01-09T07:24:23Z"}
