{"icao":"LPMR","metar":"LPMR 151200Z 31005KT CAVOK 25/14 Q1017","updated":"2025-10-15T12:38:41Z"}
