{"icao":"LPAZ","metar":"LPAZ 090700Z 33009KT 9999 FEW022 16/13 Q1023","updated":"2025-11-09T07:16:24Z"}
