{"icao":"LPCS","metar":"LPCS 142000Z 36007KT CAVOK 22/10 Q1016","updated":"2025-10-15T01:20:18Z"}
