{"icao":"LPMA","metar":"LPMA 170600Z 33004KT 240V010 9999 BKN015 16/11 Q1023","updated":"2026-05-17T06:24:05Z"}
