{"icao":"LPHR","metar":"LPHR 281230Z 26016KT 2000 -RA BR SCT003 BKN005 17/16 Q1031","updated":"2026-02-28T12:42:31Z"}
