{"icao":"LPHR","metar":"LPHR 211230Z 06009KT 360V100 9999 FEW014 BKN025 15/09 Q1018","updated":"2026-03-21T12:46:27Z"}
