{"icao":"LPMT","metar":"LPMT 152300Z 23004KT 190V260 9999 FEW025 SCT040 16/14 Q1010","updated":"2025-11-15T23:16:01Z"}
