{"icao":"KJFK","metar":"KJFK 281551Z 20008KT 10SM SCT200 BKN250 16/03 A3019 RMK SLP223 T01560028 ","updated":"2026-04-28T16:49:47Z"}
