{"icao":"KJFK","metar":"KJFK 100312Z 26005KT 1/4SM R04R/1600V2400FT BR VV003 15/14 A2971 RMK AO2 SFC VIS 3/4 T01500144 $","updated":"2025-11-10T03:17:48Z"}
