{"icao":"LPPT","metar":"LPPT 142200Z VRB02KT CAVOK 20/10 Q1017","updated":"2025-10-14T22:16:27Z"}
