{"icao":"LPPR","metar":"LPPR 261700Z 24005KT 220V280 CAVOK 19/15 Q1019","updated":"2025-09-26T17:14:49Z"}
