{"icao":"LPMA","metar":"LPMA 221730Z 22015KT 9999 SCT015 18/11 Q1012","updated":"2026-04-22T18:03:03Z"}
