{"icao":"LPPT","metar":"LPPT 230800Z 28004KT 230V310 9999 FEW015 FEW025CB SCT035 10/07 Q1004","updated":"2026-01-23T08:28:54Z"}
