{"icao":"KLAX","metar":"KLAX 180110Z 26019KT 3SM RA BR BKN008 OVC013 13/12 A2984 RMK AO2 P0005 T01330122 $","updated":"2025-11-18T01:24:25Z"}
