{"icao":"LPMT","metar":"LPMT 090300Z 12001KT CAVOK 09/09 Q1021","updated":"2025-11-09T03:11:47Z"}
