{"icao":"LPMA","metar":"LPMA 272200Z 02017KT 350V050 9999 BKN014 16/14 Q1028","updated":"2026-02-27T22:21:31Z"}
