{"icao":"KORD","metar":"KORD 191551Z 30013G21KT 10SM -RA FEW016 OVC050 09/07 A2967 RMK AO2 SLP046 P0005 T00890072 $","updated":"2025-10-19T16:19:48Z"}
