{"icao":"LPMR","metar":"LPMR 181800Z 31008KT 280V350 CAVOK 19/12 Q1016","updated":"2026-04-18T18:49:52Z"}
