{"icao":"LPMT","metar":"LPMT 080600Z VRB02KT 9999 BKN025 07/07 Q1031","updated":"2026-01-08T06:33:10Z"}
