{"icao":"LPCS","metar":"LPCS 262200Z 01009KT CAVOK 14/09 Q1025","updated":"2026-02-26T22:32:02Z"}
