{"icao":"KJFK","metar":"KJFK 100651Z 05005KT 10SM CLR 07/02 A3050 RMK AO2 SLP328 T00720017","updated":"2025-10-10T07:16:58Z"}
