{"icao":"LPFR","metar":"LPFR 012030Z VRB01KT CAVOK 16/12 Q1020","updated":"2026-04-01T20:56:10Z"}
