{"icao":"LPPD","metar":"LPPD 150900Z 26007KT 9999 FEW025 BKN045 15/08 Q1023","updated":"2026-04-15T09:17:45Z"}
