{"icao":"KORD","metar":"KORD 101751Z 34014G20KT 10SM FEW035 SCT085 BKN100 01/M11 A3023 RMK AO2 SLP246 60000 T00061106 10011 21039 58008","updated":"2025-11-10T18:27:25Z"}
