{"icao":"KLAX","metar":"KLAX 201553Z 13004KT 9SM FEW060 22/13 A2992 RMK AO2 SLP130 FU FEW060 T02170128","updated":"2026-05-20T16:24:15Z"}
