{"icao":"KORD","metar":"KORD 241151Z 34006KT 10SM FEW011 FEW018 SCT250 16/15 A3001 RMK AO2 SLP160 70009 T01610150 10189 20161 53009","updated":"2025-09-24T12:36:46Z"}
