{"icao":"LPOV","metar":"LPOV 062000Z 35012KT CAVOK 13/05 Q1019","updated":"2026-03-06T20:30:24Z"}
