{"icao":"LPMR","metar":"LPMR 270700Z 14005KT CAVOK 23/12 Q1019","updated":"2026-05-27T08:01:55Z"}
