{"icao":"LPBJ","metar":"LPBJ 042200Z 31008KT CAVOK 19/15 Q1021","updated":"2025-10-04T22:14:26Z"}
