{"icao":"LPCS","metar":"LPCS 041500Z 36019KT 9999 FEW015 23/16 Q1022","updated":"2025-10-04T15:14:23Z"}
