{"icao":"KORD","metar":"KORD 300551Z 01008KT 10SM FEW030 07/04 A2995 RMK AO2 SLP143 T00670039 10139 20067 401390067 57017 $","updated":"2025-10-30T06:27:34Z"}
