{"icao":"LPFL","metar":"LPFL 241430Z 17013KT 8000 -DZ FEW003 SCT005 BKN008 19/18 Q1020","updated":"2026-05-24T15:02:12Z"}
