{"icao":"KLAX","metar":"KLAX 010853Z 07009KT 3SM BR SCT006 OVC009 14/13 A2999 RMK AO2 SLP155 VIS S 2 1/2 60001 T01390133 58008 $","updated":"2026-01-01T09:23:55Z"}
