{"icao":"LPOV","metar":"LPOV 181700Z VRB01KT CAVOK 21/14 Q1016","updated":"2025-10-18T17:13:12Z"}
