{"icao":"KJFK","metar":"KJFK 280951Z 04009KT 10SM FEW250 07/04 A3033 RMK AO2 SLP269 T00670039","updated":"2025-10-28T10:20:47Z"}
