{"icao":"LPAZ","metar":"LPAZ 291400Z 01005KT 310V090 9999 FEW028 18/11 Q1029","updated":"2025-11-29T14:16:15Z"}
