{"icao":"LPBJ","metar":"LPBJ 210800Z 19005KT CAVOK 25/15 Q1017","updated":"2026-06-21T08:56:08Z"}
