{"icao":"LPCS","metar":"LPCS 171800Z 35018KT 9999 FEW008 23/14 Q1016","updated":"2026-06-17T18:13:47Z"}
