{"icao":"LPOV","metar":"LPOV 040500Z 35004KT 9999 BKN006 17/16 Q1024","updated":"2025-10-04T05:15:25Z"}
