{"icao":"KJFK","metar":"KJFK 021451Z 07006G23KT 10SM FEW050 SCT250 17/06 A3050 RMK AO2 SLP327 T01670056 51016","updated":"2025-10-02T15:18:01Z"}
