{"icao":"LPPT","metar":"LPPT 041230Z 10007KT 050V150 9999 FEW018 18/15 Q1016","updated":"2025-11-04T12:40:46Z"}
