{"icao":"LPBJ","metar":"LPBJ 101500Z 24018KT 9999 FEW030 SCT035 19/08 Q1012","updated":"2026-05-10T15:52:15Z"}
