{"icao":"KJFK","metar":"KJFK 281151Z 00000KT 10SM FEW020 BKN049 BKN060 BKN250 22/18 A2999 RMK SLP155 70001 T02220178 10222 20194 53007 $ ","updated":"2026-06-28T12:14:55Z"}
