{"icao":"LPMA","metar":"LPMA 271000Z 12004KT 060V150 9999 FEW015 24/18 Q1022","updated":"2025-09-27T10:16:01Z"}
