{"icao":"LPPD","metar":"LPPD 031230Z 24024KT 5000 BR FEW004 BKN008 17/16 Q1006","updated":"2026-02-03T12:57:29Z"}
