{"icao":"LPMA","metar":"LPMA 171100Z 34009KT 280V010 9999 SCT015 21/12 Q1025","updated":"2025-11-17T11:16:54Z"}
