{"icao":"LPPS","metar":"LPPS 171100Z 19010KT 9000 VCSH SCT003 BKN005 BKN010 22/21 Q1013","updated":"2025-10-17T11:15:00Z"}
