{"icao":"LPLA","metar":"LPLA 062000Z 16005KT 9999 FEW024 BKN047 14/10 Q1034","updated":"2026-01-06T20:22:47Z"}
