{"icao":"LPPR","metar":"LPPR 020800Z 05003KT 010V120 CAVOK 16/13 Q1021","updated":"2025-10-02T08:22:44Z"}
