{"icao":"LPBJ","metar":"LPBJ 281100Z VRB04KT CAVOK 30/10 Q1020","updated":"2026-05-28T11:37:35Z"}
