{"icao":"LPHR","metar":"LPHR 151000Z 34006KT 310V010 9999 FEW030 16/08 Q1016","updated":"2025-11-15T10:17:19Z"}
