{"icao":"LPOV","metar":"LPOV 241700Z 31006KT 8000 -RA FEW006 BKN018 17/16 Q1015","updated":"2025-10-24T17:16:02Z"}
