{"icao":"LPMT","metar":"LPMT 282100Z 35008KT CAVOK 11/07 Q1023","updated":"2026-02-28T21:19:18Z"}
