{"icao":"KORD","metar":"KORD 162051Z 22008KT 10SM SCT060 BKN250 28/14 A2984 RMK AO2 SLP099 T02830144 58012","updated":"2026-05-16T21:47:59Z"}
