{"icao":"LPPR","metar":"LPPR 132030Z 18008KT 5000 -DZRA BR OVC004 12/11 Q1021","updated":"2026-04-13T20:53:53Z"}
