{"icao":"LPPD","metar":"LPPD 202300Z 03017G27KT 360V070 9999 BKN015 14/12 Q1010 WS R30","updated":"2026-03-20T23:27:26Z"}
