{"icao":"KORD","metar":"KORD 312051Z 35012KT 10SM BKN029 BKN034 M04/M10 A3038 RMK AO2 SLP301 60000 T10391100 55003","updated":"2026-01-31T21:19:56Z"}
