{"icao":"LPPS","metar":"LPPS 111900Z 19005KT 9999 SCT014 BKN030 17/13 Q1019","updated":"2025-12-11T22:19:40Z"}
