{"icao":"LPCS","metar":"LPCS 170730Z 02006KT CAVOK 12/10 Q1019","updated":"2026-04-17T07:44:24Z"}
