{"icao":"LPPT","metar":"LPPT 030100Z 31006KT 290V350 CAVOK 17/14 Q1022","updated":"2025-10-03T01:16:28Z"}
