{"icao":"LPAZ","metar":"LPAZ 241530Z 31021KT 9000 FEW020 17/11 Q1016","updated":"2026-02-24T15:57:26Z"}
