{"icao":"LPPR","metar":"LPPR 210330Z 18005KT 150V220 0700 R17/2000D FG VV001 17/16 Q1016","updated":"2026-06-21T04:04:23Z"}
