{"icao":"LPBJ","metar":"LPBJ 120100Z 06005KT CAVOK 18/10 Q1017","updated":"2025-10-12T01:21:49Z"}
