{"icao":"KJFK","metar":"KJFK 192151Z 08009KT 10SM OVC039 03/M01 A3008 RMK AO2 CIG 030 W SLP184 T00281011 $","updated":"2026-02-19T22:30:09Z"}
