{"icao":"LPFL","metar":"LPFL 171530Z 02005KT 350V060 9999 FEW030 15/06 Q1020","updated":"2026-04-17T15:59:42Z"}
