{"icao":"LPMR","metar":"LPMR 040900Z 32009KT 290V350 9999 SCT020 16/10 Q1016","updated":"2026-05-04T09:15:55Z"}
