{"icao":"LPLA","metar":"LPLA 250700Z 09005KT 040V120 9999 OVC025 14/08 Q1030","updated":"2026-03-25T07:15:15Z"}
