{"icao":"KORD","metar":"KORD 230951Z 29005KT 10SM CLR 05/01 A3000 RMK AO2 SLP161 T00500011","updated":"2025-10-23T10:19:43Z"}
