{"icao":"LPBJ","metar":"LPBJ 140723Z 27005KT 5000 VCFG FEW002 OVC015 12/12 Q1024","updated":"2026-04-14T07:43:19Z"}
