{"icao":"LPMA","metar":"LPMA 020830Z 28006KT 230V300 9999 SCT015 15/06 Q1014","updated":"2026-02-02T08:41:01Z"}
