{"icao":"LPCS","metar":"LPCS 041000Z 35022KT 9999 FEW006 19/16 Q1024","updated":"2025-10-04T10:15:43Z"}
