{"icao":"KORD","metar":"KORD 121651Z 24012KT 10SM FEW190 SCT250 02/M06 A3012 RMK AO2 SLP206 T00171061 $","updated":"2026-01-12T17:22:52Z"}
