{"icao":"KORD","metar":"KORD 280551Z 30014KT 10SM FEW250 08/M01 A2985 RMK AO2 SLP110 T00781011 10167 20078 401831022 53031 $","updated":"2026-02-28T06:36:51Z"}
