{"icao":"LPBJ","metar":"LPBJ 101500Z 32006KT 9999 FEW020 SCT030 13/07 Q1028","updated":"2026-01-10T15:18:24Z"}
