{"icao":"LPMT","metar":"LPMT 290700Z 35004KT CAVOK 16/14 Q1016","updated":"2025-09-29T07:18:03Z"}
