{"icao":"LPPR","metar":"LPPR 011400Z 19013KT 1100 0800N R17/0700D -DZ PRFG BKN002 OVC005 14/13 Q1008","updated":"2026-02-01T14:24:37Z"}
