{"icao":"LPPD","metar":"LPPD 151500Z 04014KT 010V070 9999 FEW016 BKN035 16/12 Q1028","updated":"2026-03-15T15:28:03Z"}
