{"icao":"LPPT","metar":"LPPT 031530Z VRB04KT CAVOK 25/05 Q1022","updated":"2026-04-03T15:37:31Z"}
