{"icao":"LPAR","metar":"LPAR 140900Z 06004KT CAVOK 20/12 Q1017","updated":"2025-10-14T09:19:51Z"}
