{"icao":"LPCS","metar":"LPCS 151630Z 35013KT CAVOK 18/10 Q1023","updated":"2026-04-15T17:02:31Z"}
