{"icao":"LPST","metar":"LPST 091500Z 34016KT 300V010 9999 FEW025 19/11 Q1020","updated":"2026-06-09T15:53:15Z"}
