{"icao":"LPPS","metar":"LPPS 281400Z 04011KT 360V080 9999 FEW015 BKN030 19/13 Q1022","updated":"2025-11-28T14:19:14Z"}
