{"icao":"LPLA","metar":"LPLA 022100Z 33020KT 9999 SCT015 BKN020 BKN030 14/12 Q1008","updated":"2026-01-02T21:15:10Z"}
