{"icao":"LPLA","metar":"LPLA 250100Z 36007KT 330V040 9999 SCT018 SCT035 20/16 Q1018","updated":"2025-10-25T01:18:54Z"}
