{"icao":"LPPR","metar":"LPPR 301800Z 00000KT 7000 NSC 09/08 Q1021","updated":"2025-12-30T18:29:32Z"}
