{"icao":"KORD","metar":"KORD 261051Z 01003KT 10SM FEW040 M07/M13 A2986 RMK AO2 SLP120 T10671133","updated":"2026-02-26T11:38:45Z"}
