{"icao":"LPPR","metar":"LPPR 261030Z 31006KT 8000 FEW008 13/10 Q1026","updated":"2026-02-26T10:43:28Z"}
