{"icao":"LPBJ","metar":"LPBJ 021600Z 36007KT CAVOK 20/08 Q1024","updated":"2025-11-02T16:19:40Z"}
