{"icao":"LPCS","metar":"LPCS 191830Z 27006KT 230V300 CAVOK 20/10 Q1015","updated":"2026-04-19T18:49:36Z"}
