{"icao":"LPCS","metar":"LPCS 181700Z 27006KT 240V310 CAVOK 22/14 Q1016","updated":"2025-10-18T17:13:11Z"}
