{"icao":"LPMA","metar":"LPMA 110330Z 31004KT 9999 FEW015 14/10 Q1028","updated":"2026-01-11T03:49:23Z"}
