{"icao":"KLAX","metar":"KLAX 152053Z 05006G18KT 10SM -RA FEW008 SCT026 OVC070 15/13 A2980 RMK AO2 PRESFR SLP089 P0005 60025 T01500133 58023 $","updated":"2025-11-15T21:14:44Z"}
