{"icao":"KLAX","metar":"KLAX 270753Z 25008KT 10SM SCT055 14/11 A2980 RMK AO2 SLP090 T01440106 402000144 $","updated":"2026-05-27T08:02:10Z"}
