{"icao":"LPOV","metar":"LPOV 292300Z VRB02KT 8000 MIFG FEW022 12/12 Q1012","updated":"2025-10-29T23:16:49Z"}
