{"icao":"LPOV","metar":"LPOV 230700Z VRB03KT 0100 FG VV001 09/09 Q1013","updated":"2026-03-23T07:08:15Z"}
