{"icao":"LPOV","metar":"LPOV 240700Z 04008KT CAVOK 08/04 Q1010","updated":"2025-12-24T07:22:29Z"}
