{"icao":"LPMA","metar":"LPMA 121600Z 21021G32KT 190V250 9999 SCT015 19/11 Q1016","updated":"2026-01-12T16:25:43Z"}
