{"icao":"LPCS","metar":"LPCS 031500Z 21004KT 130V260 CAVOK 18/11 Q1021","updated":"2025-11-03T15:19:27Z"}
