{"icao":"KJFK","metar":"KJFK 202151Z 12009KT 10SM FEW045 FEW250 19/12 A3026 RMK AO2 SLP246 T01940117 $","updated":"2025-09-20T22:14:47Z"}
