{"icao":"LPFL","metar":"LPFL 080900Z 22003KT 170V280 9999 FEW013 SCT034 16/13 Q1028","updated":"2026-01-08T09:27:34Z"}
