{"icao":"LPPR","metar":"LPPR 230800Z 03005KT 350V080 9999 FEW011 10/09 Q1009","updated":"2025-12-23T08:28:12Z"}
