{"icao":"LPMR","metar":"LPMR 112100Z 15007KT CAVOK 13/10 Q1017","updated":"2025-12-11T21:20:41Z"}
