{"icao":"LPOV","metar":"LPOV 131400Z 29005KT 260V330 9999 FEW045 FEW055CB 25/17 Q1017","updated":"2026-06-13T14:58:50Z"}
