{"icao":"LPOV","metar":"LPOV 091500Z 28006KT 240V330 9999 VCSH SCT016 FEW018CB BKN040 10/07 Q1020","updated":"2026-03-09T15:57:10Z"}
