{"icao":"LPPR","metar":"LPPR 231800Z 24008KT 210V280 9999 FEW020 BKN035 15/12 Q1021","updated":"2025-11-23T18:24:56Z"}
