{"icao":"LPLA","metar":"LPLA 221100Z 18012KT 9999 FEW010 SCT017 BKN045 18/15 Q1022","updated":"2026-02-22T11:20:03Z"}
