{"icao":"KORD","metar":"KORD 181451Z 18010G19KT 10SM BKN033 OVC060 M03/M07 A3002 RMK AO2 SNE48 SLP174 P0000 60000 T10281067 58001","updated":"2026-03-18T15:01:11Z"}
