{"icao":"LPAZ","metar":"LPAZ 260230Z 10004KT CAVOK 14/13 Q1020","updated":"2026-04-26T02:37:54Z"}
