{"icao":"KJFK","metar":"KJFK 272151Z 02012KT 10SM FEW050 BKN110 BKN250 08/M05 A3009 RMK AO2 SLP190 T00781050","updated":"2026-03-27T22:30:35Z"}
