{"icao":"KLAX","metar":"KLAX 101053Z 09003KT 5SM BR OVC009 16/14 A2990 RMK AO2 SLP124 T01610139","updated":"2026-05-10T11:50:22Z"}
