{"icao":"LPMT","metar":"LPMT 260100Z 21003KT 0200 FG VV003 13/13 Q1014","updated":"2026-01-26T01:50:11Z"}
