{"icao":"LPMA","metar":"LPMA 152030Z 01013KT 330V050 9999 SCT015 16/10 Q1022","updated":"2026-04-15T20:46:05Z"}
