{"icao":"LPST","metar":"LPST 271200Z 32006KT 4000 -RA SCT005 BKN011 13/12 Q1025","updated":"2026-02-27T12:56:42Z"}
