{"icao":"KJFK","metar":"KJFK 260951Z 24006KT 8SM FEW019 BKN025 12/11 A2988 RMK AO2 SLP117 T01170111","updated":"2025-11-26T10:21:43Z"}
