{"icao":"LPCS","metar":"LPCS 071230Z VRB03KT 9999 FEW014 SCT028 23/16 Q1022","updated":"2025-10-07T12:37:11Z"}
