{"icao":"KLAX","metar":"KLAX 241753Z VRB03KT 10SM SCT017 OVC021 18/12 A3004 RMK AO2 SLP172 T01780122 10178 20156 51004 $","updated":"2026-05-24T18:04:47Z"}
