{"icao":"LPFL","metar":"LPFL 151330Z 19008KT 130V290 9999 VCSH FEW020 SCT025 BKN049 16/09 Q1020","updated":"2026-04-15T13:53:13Z"}
