{"icao":"LPLA","metar":"LPLA 281100Z 36007KT 330V040 9999 BKN035 16/07 Q1028","updated":"2025-11-28T11:16:29Z"}
