{"icao":"KLAX","metar":"KLAX 102026Z 14008KT 120V180 10SM FEW021 BKN026 OVC032 18/13 A2995 RMK AO2 T01830133 $","updated":"2026-02-10T20:43:04Z"}
