{"icao":"KJFK","metar":"KJFK 151351Z VRB03KT 10SM SCT075 SCT130 BKN250 01/M03 A3011 RMK AO2 SLP196 T00111033 $","updated":"2026-02-15T14:26:43Z"}
