{"icao":"LPMR","metar":"LPMR 041800Z 35009KT 9999 OVC004 18/17 Q1024","updated":"2025-10-04T18:21:41Z"}
