{"icao":"LPMT","metar":"LPMT 210900Z 36011KT CAVOK 12/04 Q1027","updated":"2025-11-21T09:19:17Z"}
