{"icao":"LPPS","metar":"LPPS 060900Z 32004KT 9999 FEW015 BKN030 17/09 Q1025","updated":"2025-12-06T09:18:17Z"}
