{"icao":"LPMA","metar":"LPMA 060530Z 01016KT 330V030 9999 -RA BKN013 14/12 Q1017","updated":"2026-05-06T05:56:53Z"}
