{"icao":"KLAX","metar":"KLAX 180253Z 25007KT 10SM CLR 21/12 A2990 RMK AO2 SLP123 T02060122 53003","updated":"2025-10-18T03:27:20Z"}
