{"icao":"KJFK","metar":"KJFK 201851Z 18024G32KT 10SM FEW045 FEW160 BKN250 09/02 A2991 RMK AO2 PK WND 18033/1841 SLP129 T00890017","updated":"2026-03-20T19:36:26Z"}
