{"icao":"LPLA","metar":"LPLA 160900Z VRB03KT 9999 FEW045 11/09 Q1023","updated":"2025-11-16T09:17:36Z"}
