{"icao":"KORD","metar":"KORD 130801Z 19014G28KT 10SM SCT024 BKN043 OVC070 04/01 A2960 RMK AO2 PK WND 19028/0752 T00440011 $","updated":"2026-03-13T08:38:07Z"}
