{"icao":"KJFK","metar":"KJFK 230851Z 03003KT 10SM FEW250 01/M03 A3004 RMK AO2 SLP171 T00111033 58002","updated":"2025-11-23T09:17:51Z"}
