{"icao":"LPFL","metar":"LPFL 091500Z 19010KT 150V240 9999 SCT018 FEW020TCU 24/18 Q1016","updated":"2025-10-09T15:29:16Z"}
