{"icao":"KLAX","metar":"KLAX 050453Z 21003KT 10SM SCT240 21/08 A2998 RMK AO2 SLP151 T02060083 $","updated":"2026-04-05T05:11:05Z"}
