{"icao":"LPBJ","metar":"LPBJ 120800Z 24006KT 5000 1800S PRFG BKN025 11/11 Q1021","updated":"2026-02-12T08:44:09Z"}
