{"icao":"KORD","metar":"KORD 041551Z 26021KT 7SM -RA BKN005 OVC011 10/09 A2983 RMK AO2 RAE21B47 SLP103 P0002 T01000094 $","updated":"2026-04-04T16:34:43Z"}
