{"icao":"LPFR","metar":"LPFR 310100Z 05003KT 350V160 CAVOK 17/15 Q1016","updated":"2025-10-31T01:22:30Z"}
