{"icao":"LPPT","metar":"LPPT 091300Z 36009KT 330V040 9999 FEW026 22/15 Q1020","updated":"2025-10-09T13:28:49Z"}
