{"icao":"LPPR","metar":"LPPR 261700Z 33004KT CAVOK 13/09 Q1025","updated":"2025-11-26T17:17:13Z"}
