{"icao":"LPLA","metar":"LPLA 062300Z 32020KT 9999 SCT035 11/05 Q1026","updated":"2026-04-06T23:34:15Z"}
