{"icao":"LPMR","metar":"LPMR 032100Z 19003KT CAVOK 14/12 Q1020","updated":"2025-11-03T21:16:38Z"}
