{"icao":"LPMR","metar":"LPMR 241700Z 32010KT CAVOK 19/12 Q1018","updated":"2026-04-24T18:50:11Z"}
