{"icao":"KLAX","metar":"KLAX 240253Z 25010KT 10SM SCT012 16/13 A2997 RMK AO2 SLP148 T01610133 53007","updated":"2026-05-24T03:38:48Z"}
