{"icao":"LPPR","metar":"LPPR 010830Z VRB02KT 9000 FEW009 SCT013 16/13 Q1019","updated":"2026-05-01T08:59:12Z"}
