{"icao":"LPHR","metar":"LPHR 191530Z 21015KT 9999 SCT006 BKN011 17/16 Q1019","updated":"2026-02-19T15:47:08Z"}
