{"icao":"LPMA","metar":"LPMA 151230Z 02016KT 9999 FEW020 18/09 Q1032","updated":"2026-02-15T12:48:35Z"}
