{"icao":"LPBJ","metar":"LPBJ 102100Z 26010KT 3000 -DZ BR OVC003 15/15 Q1019","updated":"2026-02-10T21:40:29Z"}
