{"icao":"LPST","metar":"LPST 191300Z 35009KT 320V030 9999 FEW015 14/07 Q1021","updated":"2026-01-19T13:43:48Z"}
