{"icao":"LPOV","metar":"LPOV 161900Z 34003KT 4000 BR FEW004 15/14 Q1014","updated":"2025-10-16T19:12:40Z"}
