{"icao":"KLAX","metar":"KLAX 171321Z 07006KT 9SM FEW008 SCT019 BKN040 14/13 A2994 RMK AO2 RAE1259 P0000 T01390128 $","updated":"2025-11-17T13:30:49Z"}
