{"icao":"KORD","metar":"KORD 110351Z 27012G21KT 10SM -SN FEW025 OVC047 M01/M07 A2996 RMK AO2 SNB35 SLP153 P0000 T10111072","updated":"2026-01-11T04:46:42Z"}
