{"icao":"KORD","metar":"KORD 041651Z 36003KT 10SM FEW035 M10/M21 A3040 RMK AO2 SLP306 T11001206","updated":"2025-12-04T17:21:44Z"}
