{"icao":"LPOV","metar":"LPOV 291700Z 21009KT 9999 SCT015 BKN035 17/15 Q1008","updated":"2026-04-29T17:26:55Z"}
