{"icao":"LPMA","metar":"LPMA 250100Z 32005KT 260V360 9999 BKN014 BKN030 21/18 Q1018","updated":"2025-10-25T01:19:07Z"}
