{"icao":"LPAR","metar":"LPAR 141300Z 21013KT 8000 -SHRA FEW015 SCT022 16/14 Q1002","updated":"2025-11-14T13:28:52Z"}
