{"icao":"KJFK","metar":"KJFK 040451Z 28012G21KT 10SM FEW250 12/M01 A2988 RMK AO2 PK WND 27034/0423 SLP118 T01171006 401610083 $","updated":"2025-11-04T05:18:56Z"}
