{"icao":"LPOV","metar":"LPOV 210700Z 00000KT CAVOK 17/16 Q1019","updated":"2026-05-21T07:50:11Z"}
