{"icao":"KLAX","metar":"KLAX 280253Z 23004KT 10SM FEW015 SCT024 SCT035 BKN150 20/17 A2991 RMK AO2 SLP126 T02000167 53010 $","updated":"2025-09-28T03:06:59Z"}
