{"icao":"LPPD","metar":"LPPD 011500Z 36018KT 9999 FEW025 SCT045 17/10 Q1026","updated":"2025-12-01T15:20:26Z"}
