{"icao":"LPCS","metar":"LPCS 301100Z 35023G36KT 9999 FEW016 14/06 Q1019","updated":"2025-11-30T11:14:09Z"}
