{"icao":"LPFL","metar":"LPFL 141330Z 36009KT 330V030 9999 FEW019 BKN032 18/13 Q1033","updated":"2026-03-14T13:44:34Z"}
