{"icao":"KORD","metar":"KORD 011051Z 31006KT 10SM FEW250 M12/M17 A3002 RMK AO2 SLP175 T11171167 $","updated":"2026-01-01T11:17:40Z"}
