{"icao":"LPMT","metar":"LPMT 031700Z 34008KT CAVOK 24/14 Q1021","updated":"2025-10-03T17:14:26Z"}
