{"icao":"LPPR","metar":"LPPR 051330Z 29006KT CAVOK 10/00 Q1016","updated":"2026-01-05T13:39:36Z"}
