{"icao":"LPPR","metar":"LPPR 281600Z 34009KT CAVOK 24/16 Q1014","updated":"2025-09-28T16:18:29Z"}
