{"icao":"LPST","metar":"LPST 061300Z 28011KT 250V310 9999 FEW022 18/10 Q1018","updated":"2025-11-06T13:31:01Z"}
