{"icao":"LPPT","metar":"LPPT 230930Z 34005KT 280V050 CAVOK 24/13 Q1022","updated":"2026-05-23T09:50:39Z"}
