{"icao":"KORD","metar":"KORD 010351Z 27005KT 10SM BKN075 07/03 A2992 RMK AO2 SLP137 T00670033 $","updated":"2025-11-01T04:19:05Z"}
