{"icao":"LPOV","metar":"LPOV 051100Z 03007KT 350V060 9999 FEW015 22/14 Q1022","updated":"2025-10-05T11:12:37Z"}
