{"icao":"LPPT","metar":"LPPT 160700Z 35003KT 310V070 CAVOK 20/09 Q1015","updated":"2025-10-16T07:17:46Z"}
