{"icao":"LPMA","metar":"LPMA 292030Z 01003KT 270V070 9999 SCT015 17/12 Q1013","updated":"2026-04-29T21:03:08Z"}
