{"icao":"LPFL","metar":"LPFL 221600Z 02005KT 330V110 9999 FEW022 18/13 Q1018","updated":"2026-05-22T16:24:21Z"}
