{"icao":"LPMT","metar":"LPMT 061300Z 36010KT 9999 FEW025 12/03 Q1023","updated":"2026-01-06T13:36:31Z"}
