{"icao":"LPLA","metar":"LPLA 071800Z 03004KT 350V090 9999 FEW020 23/18 Q1024","updated":"2025-10-07T18:26:21Z"}
