{"icao":"KORD","metar":"KORD 071621Z 24007KT 3SM BR OVC003 01/00 A2993 RMK AO2 T00060000","updated":"2026-01-07T16:29:45Z"}
