{"icao":"LPBJ","metar":"LPBJ 261400Z 10006KT 040V140 9999 FEW048 27/12 Q1014","updated":"2026-04-26T14:41:13Z"}
