{"icao":"LPPT","metar":"LPPT 032100Z 36006KT CAVOK 15/09 Q1014","updated":"2026-03-03T21:32:21Z"}
