{"icao":"KJFK","metar":"KJFK 011551Z 36015KT 10SM SCT020 BKN044 BKN060 OVC150 01/M03 A3021 RMK AO2 SNE32 SLP228 P0000 T00111033 VISNO W $","updated":"2026-03-01T16:27:00Z"}
