{"icao":"LPOV","metar":"LPOV 031800Z 34010KT CAVOK 15/11 Q1022","updated":"2026-04-03T18:44:40Z"}
