{"icao":"KJFK","metar":"KJFK 161451Z VRB04KT 10SM FEW060 FEW250 21/06 A2989 RMK AO2 SLP120 T02110056 58006","updated":"2026-06-16T15:09:01Z"}
