{"icao":"LPBJ","metar":"LPBJ 011700Z 25009KT 9999 SCT020 SCT042 19/16 Q1019","updated":"2025-11-01T17:13:51Z"}
