{"icao":"KJFK","metar":"KJFK 212251Z 11008KT 10SM FEW050 SCT250 17/09 A3025 RMK AO2 SLP244 T01670089 $","updated":"2025-09-21T23:15:11Z"}
