{"icao":"LPMT","metar":"LPMT 151600Z 24006KT 9999 FEW015 BKN030 15/12 Q1030","updated":"2026-02-15T16:28:57Z"}
