{"icao":"LPPR","metar":"LPPR 151500Z 25004KT 210V280 9999 FEW025 24/14 Q1016","updated":"2025-10-15T15:17:34Z"}
