{"icao":"LPPR","metar":"LPPR 261900Z 01007KT 340V050 CAVOK 11/09 Q1025","updated":"2025-11-26T19:14:26Z"}
