{"icao":"LPPD","metar":"LPPD 212100Z 23008KT 9000 FEW003 BKN007 23/22 Q1017","updated":"2025-10-21T21:16:37Z"}
