{"icao":"KJFK","metar":"KJFK 142151Z 19025G33KT 10SM SCT150 BKN250 26/16 A2972 RMK AO2 PK WND 19035/2123 SLP063 T02560161 $","updated":"2026-06-14T22:09:00Z"}
