{"icao":"LPPD","metar":"LPPD 241600Z 36009KT 320V040 9999 FEW020 SCT030 21/12 Q1021","updated":"2025-09-24T16:22:56Z"}
