{"icao":"KJFK","metar":"KJFK 211551Z 24011KT 10SM FEW250 17/06 A2994 RMK AO2 SLP139 T01670056","updated":"2025-10-21T16:24:06Z"}
