{"icao":"LPFR","metar":"LPFR 062330Z 31011KT CAVOK 16/10 Q1010","updated":"2026-05-06T23:50:29Z"}
