{"icao":"LPMT","metar":"LPMT 231100Z 27011KT 230V300 7000 3000NE -SHRA FEW020 SCT025CB BKN040 10/08 Q1004 RESHRA","updated":"2026-01-23T12:44:02Z"}
