{"icao":"LPPT","metar":"LPPT 241800Z 28006KT 240V310 9999 FEW025 BKN036 12/06 Q1016 WS R02","updated":"2026-01-24T18:28:33Z"}
