{"icao":"LPBJ","metar":"LPBJ 050700Z 23023G33KT 9000 -RA BKN008 OVC015 15/14 Q0994","updated":"2026-02-05T07:51:27Z"}
