{"icao":"LPFL","metar":"LPFL 141500Z 19021G37KT 160V220 9999 FEW020 SCT038 17/13 Q1024","updated":"2026-02-14T15:24:01Z"}
