{"icao":"LPPS","metar":"LPPS 270930Z 01012KT 9999 SCT014 BKN030 15/09 Q1018","updated":"2026-03-27T09:53:36Z"}
