{"icao":"LPPT","metar":"LPPT 121100Z 04009KT 330V080 3000 1000NE RA BR SCT001 BKN004 FEW020TCU 12/12 Q1013 RERA","updated":"2025-12-12T11:18:20Z"}
