{"icao":"LPFL","metar":"LPFL 251900Z 03010KT 350V080 9999 -SHRA BKN018 FEW020TCU 18/13 Q1026","updated":"2025-10-26T07:15:30Z"}
