{"icao":"LPPT","metar":"LPPT 040900Z 13004KT 080V240 9999 FEW010 14/12 Q1017","updated":"2025-11-04T09:20:28Z"}
