{"icao":"LPMT","metar":"LPMT 191700Z 21008KT 170V240 9999 VCSH BKN021 21/18 Q1013","updated":"2025-10-19T17:13:59Z"}
