{"icao":"LPFR","metar":"LPFR 201400Z 24006KT CAVOK 24/18 Q1018","updated":"2025-09-20T14:14:02Z"}
