{"icao":"LPPR","metar":"LPPR 091300Z 18009KT CAVOK 17/10 Q1020","updated":"2025-11-09T13:22:29Z"}
