{"icao":"LPHR","metar":"LPHR 101930Z 08010KT 040V110 9999 VCSH SCT010 SCT025 16/11 Q1030","updated":"2026-04-10T19:42:32Z"}
