{"icao":"LPMT","metar":"LPMT 031500Z 33007KT 300V360 CAVOK 24/10 Q1021","updated":"2026-04-03T16:39:08Z"}
