{"icao":"LPHR","metar":"LPHR 221730Z 30023KT 9999 FEW014 SCT025 BKN060 16/10 Q0999 WS R28","updated":"2026-04-22T18:03:02Z"}
