{"icao":"LPAR","metar":"LPAR 211500Z 28011KT 240V350 7000 BKN015 SCT030 17/12 Q1005","updated":"2026-01-21T15:30:34Z"}
