{"icao":"LPPD","metar":"LPPD 111700Z 36010KT 9999 FEW025 BKN045 14/07 Q1032","updated":"2026-04-11T17:30:06Z"}
