{"icao":"LPPR","metar":"LPPR 221100Z 21011KT 7000 SCT004 BKN038 20/19 Q1016","updated":"2025-10-22T11:16:11Z"}
