{"icao":"KJFK","metar":"KJFK 211251Z 26007KT 9SM BKN039 03/02 A2994 RMK AO2 SLP137 T00280017 $","updated":"2026-02-21T13:40:47Z"}
