{"icao":"LPPT","metar":"LPPT 141230Z 05015KT CAVOK 15/09 Q1018","updated":"2025-12-14T12:36:35Z"}
