{"icao":"LPCS","metar":"LPCS 041600Z 16006KT CAVOK 21/16 Q1014","updated":"2025-11-04T16:22:05Z"}
