{"icao":"LPBJ","metar":"LPBJ 131000Z 33009KT CAVOK 24/07 Q1021","updated":"2025-09-13T10:48:40Z"}
