{"icao":"LPMR","metar":"LPMR 150100Z 16008KT 8000 -SHRA SCT017 FEW022CB SCT030 14/13 Q1005 RESHRA","updated":"2025-11-15T01:21:42Z"}
