{"icao":"LPOV","metar":"LPOV 151000Z 17006KT 140V200 8000 SCT020 OVC045 11/11 Q1029","updated":"2026-02-15T10:25:23Z"}
