{"icao":"LPCS","metar":"LPCS 201530Z 08006KT 040V130 9999 FEW013 FEW018CB SCT020 15/13 Q1006 RESHRA","updated":"2026-03-20T15:41:03Z"}
