{"icao":"LPPR","metar":"LPPR 272300Z 11007KT 060V120 CAVOK 16/09 Q1019","updated":"2025-10-27T23:15:56Z"}
