{"icao":"LPPD","metar":"LPPD 280230Z 16008KT 130V190 9999 SCT006 BKN012 16/16 Q1018","updated":"2026-04-28T02:47:23Z"}
