{"icao":"LPFL","metar":"LPFL 211400Z VRB10G20KT 9999 FEW009 SCT013 19/16 Q1020 WS ALL RWY","updated":"2026-01-21T14:29:50Z"}
