{"icao":"LPMR","metar":"LPMR 082100Z 16002KT CAVOK 11/10 Q1023","updated":"2025-11-08T21:14:03Z"}
