{"icao":"LPMA","metar":"LPMA 131700Z 33004KT 300V020 9999 SCT015 22/10 Q1005","updated":"2025-11-13T17:17:44Z"}
