{"icao":"LPPD","metar":"LPPD 192030Z 20017KT 4000 -SHRA BR SCT003 BKN005 17/16 Q1014","updated":"2026-05-19T20:47:41Z"}
