{"icao":"LPOV","metar":"LPOV 270700Z 34002KT CAVOK 08/06 Q1021","updated":"2025-10-27T07:18:03Z"}
