{"icao":"LPPS","metar":"LPPS 290900Z 33017KT 9999 SCT015 FEW018TCU 22/17 Q1015","updated":"2025-10-29T09:19:35Z"}
