{"icao":"KLAX","metar":"KLAX 301453Z 03007KT 10SM SCT100 BKN120 17/M02 A3009 RMK AO2 SLP187 T01721022 53007 $","updated":"2025-12-30T15:21:32Z"}
