{"icao":"LPPS","metar":"LPPS 151700Z 05012KT 020V080 9999 SCT015 16/11 Q1031","updated":"2026-02-15T17:24:24Z"}
