{"icao":"KJFK","metar":"KJFK 222251Z 33010KT 10SM FEW045 SCT250 09/M01 A2995 RMK AO2 SLP141 T00891006","updated":"2025-11-22T23:17:04Z"}
