{"icao":"LPFR","metar":"LPFR 181300Z 11006KT CAVOK 19/10 Q1017","updated":"2025-11-18T13:30:56Z"}
