{"icao":"LPPR","metar":"LPPR 161000Z 00000KT 6000 NSC 18/15 Q1015","updated":"2025-10-16T10:20:03Z"}
