{"icao":"KJFK","metar":"KJFK 082251Z 15009KT 10SM FEW250 04/M03 A3061 RMK AO2 SLP364 T00391028","updated":"2026-04-08T23:37:03Z"}
