{"icao":"LPMA","metar":"LPMA 201230Z 20007KT 160V230 9999 FEW006 SCT013 24/21 Q1019","updated":"2025-10-20T12:38:25Z"}
