{"icao":"LPBJ","metar":"LPBJ 251800Z 33006KT CAVOK 11/04 Q1021","updated":"2025-11-25T18:29:02Z"}
