{"icao":"LPBJ","metar":"LPBJ 020738Z 26015KT 4000 SHRA FEW020CB BKN025 BKN040 10/08 Q0999 WS ALL RWY","updated":"2026-02-02T07:48:27Z"}
