{"icao":"LPPS","metar":"LPPS 071230Z 27008KT 240V310 9999 SCT014 22/16 Q1021","updated":"2025-11-07T12:37:04Z"}
