{"icao":"LPPS","metar":"LPPS 191800Z 08006KT 9999 FEW015 19/12 Q1017","updated":"2025-11-19T18:28:04Z"}
