{"icao":"KORD","metar":"KORD 041551Z 35004KT 10SM FEW035 BKN250 M03/M13 A3020 RMK AO2 SLP236 T10331128 $","updated":"2026-01-04T16:23:41Z"}
