{"icao":"KJFK","metar":"KJFK 241451Z 35013G20KT 10SM FEW060 FEW250 06/M08 A3043 RMK AO2 SLP303 T00561083 53016","updated":"2026-03-24T14:56:49Z"}
