{"icao":"KLAX","metar":"KLAX 220053Z 27009KT 10SM FEW007 FEW150 SCT250 22/18 A2986 RMK AO2 SLP109 T02170183","updated":"2025-09-22T01:24:10Z"}
