{"icao":"LPPR","metar":"LPPR 072000Z 33013KT CAVOK 16/13 Q1022","updated":"2026-06-07T20:10:05Z"}
