{"icao":"LPMT","metar":"LPMT 032200Z 27015KT 5000 -RADZ BR BKN005 SCT018 15/15 Q0994 RERADZ","updated":"2026-02-03T22:28:27Z"}
