{"icao":"LPMA","metar":"LPMA 010800Z 21028KT 9999 SHRA BKN013 FEW018CB 18/17 Q1003","updated":"2026-01-01T08:28:09Z"}
