{"icao":"KORD","metar":"KORD 021451Z 00000KT 10SM SCT029 BKN040 07/05 A3022 RMK AO2 SLP237 60004 T00720050 51005 $","updated":"2025-11-02T15:16:17Z"}
