{"icao":"LPPT","metar":"LPPT 131230Z 17023G33KT 8000 VCSH SCT008 BKN011 SCT015CB 18/17 Q0998 WS R20","updated":"2025-11-13T12:40:03Z"}
