{"icao":"LPLA","metar":"LPLA 071100Z 21005KT 170V290 9999 FEW023 23/19 Q1023","updated":"2025-10-07T11:15:00Z"}
