{"icao":"LPPS","metar":"LPPS 242300Z 29013KT 9999 SCT010 16/15 Q1018","updated":"2026-02-24T23:30:35Z"}
