{"icao":"KLAX","metar":"KLAX 271453Z 11003KT 4SM HZ FEW009 SCT019 16/14 A3000 RMK AO2 SLP158 T01610139 50005 $","updated":"2025-10-27T15:19:42Z"}
