{"icao":"LPPT","metar":"LPPT 151000Z 23004KT 200V280 9999 VCSH FEW005 SCT012 BKN025 12/11 Q1031 REDZ","updated":"2026-02-15T10:25:19Z"}
