{"icao":"KORD","metar":"KORD 091051Z 00000KT 10SM FEW060 FEW250 M05/M09 A3020 RMK AO2 SLP238 T10501094 $","updated":"2026-02-09T11:43:01Z"}
