{"icao":"KJFK","metar":"KJFK 171451Z 29013G26KT 10SM BKN055 06/M07 A2974 RMK AO2 PK WND 31034/1439 SLP069 T00561072 51017 $","updated":"2025-11-17T15:20:41Z"}
