{"icao":"LPAZ","metar":"LPAZ 051500Z 23007KT 9999 FEW015 24/21 Q1023","updated":"2025-10-05T15:15:12Z"}
