{"icao":"KJFK","metar":"KJFK 151751Z 18006KT 10SM SCT150 BKN210 BKN250 08/M03 A2976 RMK AO2 SLP078 T00831028 10089 20033 58037","updated":"2025-11-15T18:23:40Z"}
