{"icao":"LPPR","metar":"LPPR 061100Z 24009KT 210V290 9999 FEW018CB SCT040 12/08 Q1001","updated":"2026-02-06T11:32:09Z"}
