{"icao":"LPHR","metar":"LPHR 151830Z 31009KT 260V350 9999 SCT018 15/08 Q1030","updated":"2026-01-15T18:35:05Z"}
