{"icao":"KLAX","metar":"KLAX 092053Z 26006KT 10SM CLR 26/05 A3000 RMK AO2 SLP157 T02610050 58029 $","updated":"2025-12-09T21:17:03Z"}
