{"icao":"KORD","metar":"KORD 121351Z 23008KT 10SM BKN190 BKN250 M02/M08 A3015 RMK AO2 SLP218 T10171078 $","updated":"2026-01-12T14:24:31Z"}
