{"icao":"LPCS","metar":"LPCS 231230Z 15007KT 120V180 CAVOK 20/06 Q1024","updated":"2026-02-23T13:01:30Z"}
