{"icao":"LPLA","metar":"LPLA 280700Z 17013G23KT 140V200 9999 FEW015 SCT018 17/13 Q1018","updated":"2026-05-28T07:55:46Z"}
