{"icao":"KJFK","metar":"KJFK 252151Z 20006KT 10SM FEW032 FEW160 BKN250 19/16 A3005 RMK AO2 SLP175 T01940161 $","updated":"2026-05-25T22:07:15Z"}
