{"icao":"LPHR","metar":"LPHR 171100Z 31012KT 280V340 9999 FEW016 BKN027 15/09 Q1032","updated":"2026-01-17T11:16:01Z"}
