{"icao":"KJFK","metar":"KJFK 111251Z 25008KT 9SM FEW075 FEW250 M02/M04 A2976 RMK AO2 SLP077 T10171039 $","updated":"2026-02-11T13:07:19Z"}
