{"icao":"LPLA","metar":"LPLA 020700Z 05004KT 350V130 5000 -DZ SCT006 BKN014 BKN022 13/12 Q1031","updated":"2026-04-02T07:10:49Z"}
