{"icao":"LPCS","metar":"LPCS 151300Z 23007KT 190V270 9999 FEW006 BKN010 17/16 Q1006","updated":"2025-11-15T13:22:59Z"}
