{"icao":"LPPR","metar":"LPPR 131000Z 00000KT CAVOK 15/09 Q1023","updated":"2025-12-13T10:18:20Z"}
