{"icao":"LPHR","metar":"LPHR 211930Z 29012KT 5000 -RA BR SCT007 SCT012 BKN030 12/11 Q1001","updated":"2026-04-21T20:01:47Z"}
