{"icao":"LPPD","metar":"LPPD 011500Z 33016G26KT 9999 SCT020 FEW022TCU 16/09 Q1003","updated":"2026-01-01T15:20:20Z"}
