{"icao":"KORD","metar":"KORD 070551Z 24004KT 10SM CLR 05/M03 A2998 RMK AO2 SLP156 T00501033 10111 20050 401440050 50001","updated":"2026-05-07T06:09:25Z"}
