{"icao":"KORD","metar":"KORD 141051Z 20004KT 10SM FEW050 SCT250 07/M01 A3001 RMK AO2 SLP165 T00721011","updated":"2025-11-14T11:15:51Z"}
