{"icao":"LPOV","metar":"LPOV 210500Z 26005KT 200V320 4000 BR FEW002 BKN004 BKN012 18/18 Q1011","updated":"2025-10-21T06:27:21Z"}
