{"icao":"KLAX","metar":"KLAX 180653Z VRB03KT 10SM FEW060 FEW110 BKN140 OVC200 22/17 A2986 RMK AO2 RAB17E28 SLP107 P0000 T02220172","updated":"2025-09-18T07:16:44Z"}
