{"icao":"LPPT","metar":"LPPT 120100Z 17012KT 9999 FEW013 17/15 Q1006","updated":"2025-11-12T01:23:55Z"}
