{"icao":"LPPT","metar":"LPPT 171500Z 31009KT 280V340 CAVOK 31/15 Q1016","updated":"2026-06-17T15:24:33Z"}
