{"icao":"LPPR","metar":"LPPR 081700Z 23009KT 200V260 9000 -DZRA SCT006 BKN030 13/12 Q1027 REDZ","updated":"2026-01-08T17:25:27Z"}
