{"icao":"LPAZ","metar":"LPAZ 302200Z 20012KT 5000 BR SCT003 BKN040 17/17 Q1021","updated":"2026-01-30T22:24:15Z"}
