{"icao":"KJFK","metar":"KJFK 061651Z 21012KT 10SM SCT075 BKN120 BKN140 BKN240 28/17 A2985 RMK AO2 SLP109 T02830167 $","updated":"2026-06-06T17:12:15Z"}
