{"icao":"LPAZ","metar":"LPAZ 291330Z 26011KT 9999 SCT020 17/11 Q1007","updated":"2026-04-29T13:53:07Z"}
