{"icao":"LPHR","metar":"LPHR 031500Z VRB03KT 9999 VCSH SCT012 BKN025 16/12 Q1014","updated":"2026-01-03T15:18:27Z"}
