{"icao":"LPPR","metar":"LPPR 260930Z VRB02KT CAVOK 13/10 Q1025","updated":"2026-02-26T09:49:06Z"}
