{"icao":"LPPT","metar":"LPPT 210900Z VRB02KT 9999 VCSH FEW025 FEW030TCU 07/06 Q1010","updated":"2025-12-21T09:18:47Z"}
