{"icao":"LPMA","metar":"LPMA 151000Z 22014KT 180V240 9999 -SHRA BKN014 FEW018CB 21/19 Q1013","updated":"2025-11-15T10:17:20Z"}
