{"icao":"LPPT","metar":"LPPT 312300Z 20019KT 9999 FEW008 BKN010 20/18 Q1014","updated":"2025-10-31T23:16:24Z"}
