{"icao":"LPPR","metar":"LPPR 132000Z 08005KT CAVOK 14/09 Q1023","updated":"2025-12-13T20:19:33Z"}
