{"icao":"LPFL","metar":"LPFL 082100Z VRB04KT 9999 FEW019 17/11 Q1022","updated":"2025-11-08T21:14:05Z"}
