{"icao":"LPPR","metar":"LPPR 090900Z 19006KT 8000 3500S -RA FEW020 FEW025TCU BKN038 14/10 Q1004","updated":"2026-05-09T09:17:58Z"}
