{"icao":"KORD","metar":"KORD 162251Z 05011KT 10SM BKN047 18/13 A2985 RMK AO2 SLP107 T01780128 $","updated":"2026-04-16T23:39:14Z"}
