{"icao":"LPPT","metar":"LPPT 161700Z 29005KT 250V330 9999 FEW015 FEW025CB 10/07 Q1013","updated":"2026-01-16T17:23:15Z"}
