{"icao":"KLAX","metar":"KLAX 272053Z 26010KT 5SM HZ FEW019 SCT160 BKN250 21/14 A2995 RMK AO2 SLP139 T02110144 58014","updated":"2026-03-27T21:32:50Z"}
