{"icao":"LPBJ","metar":"LPBJ 282200Z 25015KT 3000 -DZ BR OVC004 15/15 Q1008","updated":"2026-01-28T22:25:45Z"}
