{"icao":"LPPS","metar":"LPPS 010800Z 03013KT 360V060 9999 SCT015 SCT030 21/17 Q1021","updated":"2026-07-01T08:11:23Z"}
