{"icao":"LPFR","metar":"LPFR 230300Z VRB02KT CAVOK 10/01 Q1027","updated":"2025-11-23T03:25:55Z"}
