{"icao":"KORD","metar":"KORD 220551Z 05013KT 8SM -RA BKN008 BKN015 OVC070 15/14 A2988 RMK AO2 SLP117 P0001 60017 T01500139 10156 20144 402170144 50006 $","updated":"2026-06-22T06:28:11Z"}
