{"icao":"LPMA","metar":"LPMA 171400Z 36012KT 330V030 9999 SCT015 FEW018TCU 21/12 Q1023","updated":"2025-11-17T14:19:09Z"}
