{"icao":"LPMR","metar":"LPMR 030000Z 33005KT 0700 FG SCT002 BKN004 15/14 Q1023","updated":"2025-10-03T01:16:30Z"}
