{"icao":"LPFR","metar":"LPFR 080300Z 02005KT CAVOK 06/05 Q1031","updated":"2026-01-08T03:28:40Z"}
