{"icao":"LPBJ","metar":"LPBJ 011900Z 30008KT CAVOK 35/10 Q1016","updated":"2026-07-01T19:51:54Z"}
