{"icao":"LPPR","metar":"LPPR 142000Z 30003KT 260V340 8000 3900N VCFG BKN005 18/17 Q1016","updated":"2026-06-14T20:16:06Z"}
