{"icao":"LPBJ","metar":"LPBJ 031700Z 01010KT CAVOK 25/03 Q1021","updated":"2026-04-03T17:33:24Z"}
