{"icao":"KLAX","metar":"KLAX 192008Z 26010KT 5SM BCFG BR SCT000 SCT009 BKN140 BKN180 18/14 A3001 RMK AO2 VIS SW-NW 1 FG SCT000 T01780144 $","updated":"2025-12-19T20:21:30Z"}
