{"icao":"LPBJ","metar":"LPBJ 312100Z 22005KT 9999 FEW030 12/09 Q1021","updated":"2026-01-31T21:19:53Z"}
