{"icao":"LPPD","metar":"LPPD 290400Z 26018KT 9999 FEW006 SCT014 16/14 Q1011","updated":"2026-01-29T04:08:23Z"}
