{"icao":"LPMA","metar":"LPMA 051330Z 03014KT 010V070 9999 SCT015 20/14 Q1017","updated":"2026-04-05T13:54:35Z"}
