{"icao":"LPOV","metar":"LPOV 071300Z 23008KT 210V280 9999 FEW014 21/16 Q1023","updated":"2025-10-07T13:27:58Z"}
