{"icao":"KJFK","metar":"KJFK 111151Z 29016G24KT 10SM FEW043 FEW095 FEW220 01/M06 A2971 RMK AO2 PK WND 27027/1102 SLP060 VCSH NW-NE 70006 T00061061 10017 20006 55002 $","updated":"2025-11-11T12:38:30Z"}
