{"icao":"LPBJ","metar":"LPBJ 200600Z 11002KT CAVOK 04/03 Q1028","updated":"2026-02-20T06:54:47Z"}
