{"icao":"KORD","metar":"KORD 080951Z 19009KT 10SM SCT250 06/02 A2985 RMK AO2 SLP112 T00560017","updated":"2026-01-08T10:23:28Z"}
