{"icao":"KJFK","metar":"KJFK 061451Z 20006KT 10SM CLR 22/16 A3031 RMK AO2 SLP264 T02220156 50002","updated":"2025-10-06T15:18:02Z"}
