{"icao":"LPOV","metar":"LPOV 272100Z 22013KT 9000 -SHRA FEW020 FEW022CB SCT040 12/07 Q1001","updated":"2026-01-27T23:20:39Z"}
