{"icao":"KORD","metar":"KORD 271951Z 30011G22KT 10SM BKN050 07/M07 A3038 RMK AO2 SLP295 T00671067","updated":"2026-03-27T20:37:25Z"}
