{"icao":"LPAZ","metar":"LPAZ 271230Z 03018KT 9000 FEW010 BKN015 FEW028TCU BKN040 19/17 Q1013","updated":"2025-10-27T12:39:17Z"}
