{"icao":"LPMT","metar":"LPMT 100400Z 35011KT CAVOK 16/11 Q1017","updated":"2026-06-10T05:16:06Z"}
