{"icao":"LPPR","metar":"LPPR 161700Z 32008KT 9999 FEW013 15/12 Q1020","updated":"2026-04-16T17:12:37Z"}
