{"icao":"KLAX","metar":"KLAX 271853Z 25013G21KT 10SM FEW026 SCT033 22/14 A2997 RMK AO2 SLP148 T02220139","updated":"2026-06-27T19:18:28Z"}
