{"icao":"LPPR","metar":"LPPR 040600Z 33007KT 300V360 7000 -SHRA FEW015 SCT024 BKN028 13/11 Q1018","updated":"2025-12-04T06:30:12Z"}
