{"icao":"KLAX","metar":"KLAX 121253Z 10003KT 10SM FEW250 09/01 A3020 RMK AO2 SLP224 T00890006 $","updated":"2026-01-12T13:41:29Z"}
