{"icao":"LPFR","metar":"LPFR 302330Z 30007KT CAVOK 15/09 Q1018","updated":"2026-04-30T23:51:30Z"}
