{"icao":"LPPT","metar":"LPPT 281300Z 34008KT 310V020 9999 FEW029 15/09 Q1023","updated":"2025-11-28T13:29:18Z"}
