{"icao":"LPOV","metar":"LPOV 280800Z 09003KT 060V120 9999 FEW015 SCT045 06/05 Q0995","updated":"2026-01-28T08:30:40Z"}
