{"icao":"LPCS","metar":"LPCS 081900Z 33008KT 250V040 9999 FEW012 SCT026 18/15 Q1022","updated":"2025-10-08T19:13:35Z"}
