{"icao":"KJFK","metar":"KJFK 191133Z 06005KT 10SM OVC030 02/M03 A3003 RMK AO2 T00221028 $","updated":"2026-02-19T11:37:40Z"}
