{"icao":"LPPR","metar":"LPPR 230600Z 30009KT 260V330 9999 BKN013 BKN020 13/12 Q1008","updated":"2025-12-23T06:31:52Z"}
