{"icao":"LPAZ","metar":"LPAZ 031230Z 33016KT 9999 FEW013 SCT032 17/13 Q1010","updated":"2026-01-03T12:37:24Z"}
