{"icao":"LPMT","metar":"LPMT 261600Z 26010KT CAVOK 30/14 Q1019","updated":"2026-05-26T16:41:00Z"}
