{"icao":"KORD","metar":"KORD 201551Z 26009KT 10SM SCT200 BKN250 17/07 A2977 RMK AO2 SLP083 T01670067","updated":"2026-03-20T16:41:42Z"}
