{"icao":"LPFL","metar":"LPFL 151800Z 20009KT 170V230 9999 FEW016 25/19 Q1023","updated":"2025-09-15T19:13:39Z"}
