{"icao":"LPPD","metar":"LPPD 082200Z 24015KT 5000 BR SCT003 BKN007 17/16 Q1014","updated":"2026-02-08T22:25:39Z"}
