{"icao":"LPPT","metar":"LPPT 280400Z 27013G24KT 230V300 6000 -DZ SCT007 BKN010 18/17 Q1012","updated":"2025-09-28T04:20:14Z"}
