{"icao":"KJFK","metar":"KJFK 100151Z 32007KT 10SM SCT120 BKN160 BKN250 M01/M14 A3022 RMK AO2 SLP232 T10111139 $","updated":"2026-02-10T02:23:51Z"}
