{"icao":"KJFK","metar":"KJFK 141551Z 28027G37KT 10SM SCT065 SCT250 10/M07 A2995 RMK AO2 PK WND 29037/1551 SLP142 T01001072","updated":"2026-03-14T16:30:24Z"}
