{"icao":"LPPR","metar":"LPPR 081900Z 16018KT 5000 -RADZ BR BKN008 FEW018CB 10/09 Q1008","updated":"2026-02-08T19:23:27Z"}
