{"icao":"LPPS","metar":"LPPS 071900Z 04008KT 350V080 9999 SCT014 22/19 Q1025","updated":"2025-10-07T19:13:45Z"}
