{"icao":"KJFK","metar":"KJFK 171051Z 36011G20KT 10SM CLR 09/M02 A3000 RMK AO2 SLP159 T00941022","updated":"2025-10-17T11:15:01Z"}
