{"icao":"LPAZ","metar":"LPAZ 010200Z 21018KT 9000 FEW006 17/16 Q1014","updated":"2026-02-01T02:12:39Z"}
