{"icao":"LPBJ","metar":"LPBJ 020800Z 11006KT CAVOK 20/13 Q1021","updated":"2025-10-02T08:22:46Z"}
