{"icao":"LPPD","metar":"LPPD 191600Z 03012KT 340V090 9999 FEW020 SCT035 17/12 Q1022","updated":"2025-11-19T16:25:29Z"}
