{"icao":"LPPR","metar":"LPPR 230600Z 11007KT CAVOK 10/05 Q1024","updated":"2026-02-23T06:06:01Z"}
