{"icao":"LPHR","metar":"LPHR 142200Z 21015KT 9999 FEW016 BKN035 17/13 Q1029","updated":"2026-02-14T22:21:50Z"}
