{"icao":"LPMT","metar":"LPMT 250100Z VRB01KT CAVOK 07/05 Q1009","updated":"2025-12-25T01:38:35Z"}
