{"icao":"LPPT","metar":"LPPT 050400Z 33008KT 9999 FEW010 16/14 Q1021","updated":"2025-10-05T04:19:11Z"}
