{"icao":"LPBJ","metar":"LPBJ 230900Z 25006KT 9999 FEW025 09/06 Q1006","updated":"2026-01-23T09:28:40Z"}
