{"icao":"KLAX","metar":"KLAX 191553Z 07004KT 10SM FEW018 FEW029 SCT160 11/08 A3007 RMK AO2 SLP179 T01110078 $","updated":"2025-11-19T16:25:44Z"}
