{"icao":"LPMT","metar":"LPMT 242000Z 23005KT 170V260 9000 FEW020 14/12 Q1015","updated":"2026-02-24T20:33:50Z"}
