{"icao":"LPPT","metar":"LPPT 221800Z 04003KT 320V090 CAVOK 20/09 Q1026","updated":"2026-02-22T18:33:42Z"}
