{"icao":"LPMA","metar":"LPMA 151900Z 01012KT 9999 -RA BKN012 16/14 Q1019","updated":"2026-03-15T19:26:56Z"}
