{"icao":"LPST","metar":"LPST 191500Z 33010KT 9999 SCT018 13/08 Q1021","updated":"2026-01-19T16:27:51Z"}
