{"icao":"KJFK","metar":"KJFK 210351Z 06004KT 10SM BKN250 16/11 A3030 RMK AO2 SLP261 T01560111 $","updated":"2025-09-21T04:20:34Z"}
