{"icao":"LPPT","metar":"LPPT 120700Z 16008KT 8000 -DZ FEW000 BKN006 12/11 Q1020","updated":"2026-01-12T07:26:10Z"}
