{"icao":"KORD","metar":"KORD 230651Z 29015G29KT 10SM BKN230 M16/M25 A3035 RMK AO2 PK WND 29029/0644 SLP290 T11611250 $","updated":"2026-01-23T07:24:42Z"}
