{"icao":"LPBJ","metar":"LPBJ 191100Z 12009KT 100V160 CAVOK 24/09 Q1016","updated":"2026-04-19T11:33:48Z"}
