{"icao":"KORD","metar":"KORD 310751Z 32011G18KT 10SM FEW030 BKN080 BKN120 M11/M17 A3040 RMK AO2 SLP309 T11111167","updated":"2026-01-31T08:29:25Z"}
