{"icao":"LPPR","metar":"LPPR 221900Z 35011KT CAVOK 16/09 Q1019","updated":"2025-09-22T19:14:04Z"}
