{"icao":"KLAX","metar":"KLAX 260253Z 12008KT 10SM OVC060 17/14 A3009 RMK AO2 SLP188 T01720144 53010 $","updated":"2025-12-26T03:23:47Z"}
