{"icao":"LPMA","metar":"LPMA 080300Z 02013G23KT 350V060 9999 BKN015 22/17 Q1025","updated":"2025-10-08T03:30:28Z"}
