{"icao":"LPPS","metar":"LPPS 031030Z 07016KT 9999 FEW014 16/11 Q1023","updated":"2026-04-03T10:41:59Z"}
