{"icao":"LPAR","metar":"LPAR 061100Z 35019G37KT 9999 BKN025 SCT030 12/05 Q1019","updated":"2026-03-06T11:27:34Z"}
