{"icao":"LPOV","metar":"LPOV 221600Z 31007KT 270V010 9999 FEW028 17/11 Q1014","updated":"2026-04-22T16:57:38Z"}
