{"icao":"KLAX","metar":"KLAX 080753Z 07003KT 10SM CLR 14/13 A3015 RMK AO2 SLP207 T01390128 402110106 $","updated":"2025-12-08T08:29:55Z"}
