{"icao":"KLAX","metar":"KLAX 262253Z 26012KT 10SM FEW250 20/14 A2988 RMK AO2 SLP119 T02000144","updated":"2026-03-26T23:31:36Z"}
