{"icao":"LPMA","metar":"LPMA 242230Z 03015KT 9999 SCT015 18/15 Q1020","updated":"2026-05-24T22:57:15Z"}
