{"icao":"KJFK","metar":"KJFK 212251Z 33014KT 10SM FEW065 SCT200 BKN250 02/M11 A3022 RMK AO2 PK WND 32037/2233 SLP232 T00171111 $","updated":"2025-12-21T23:17:50Z"}
