{"icao":"LPOV","metar":"LPOV 041000Z 35011KT 9999 FEW020 16/12 Q1016","updated":"2026-05-04T11:46:55Z"}
