{"icao":"LPFR","metar":"LPFR 270600Z 01005KT CAVOK 11/02 Q1022","updated":"2025-11-27T06:30:14Z"}
