{"icao":"KLAX","metar":"KLAX 061353Z 00000KT 10SM CLR 13/M02 A2999 RMK AO2 SLP153 T01281017","updated":"2026-03-06T14:36:53Z"}
