{"icao":"LPBJ","metar":"LPBJ 250900Z 28003KT 8000 BCFG NSC 05/05 Q1009","updated":"2025-12-25T09:21:56Z"}
