{"icao":"KJFK","metar":"KJFK 051151Z 25006KT 10SM FEW095 BKN140 09/02 A3013 RMK AO2 SLP203 T00940022 10094 20056 58008 $","updated":"2025-11-05T12:38:33Z"}
