{"icao":"LPPT","metar":"LPPT 151600Z 25012KT 220V280 9999 SCT028 FEW030TCU 18/13 Q1007","updated":"2025-11-15T16:19:51Z"}
