{"icao":"LPOV","metar":"LPOV 031300Z 32005KT 260V360 5000 1000N PRFG FEW001 BKN006 16/14 Q1024","updated":"2025-10-03T13:24:24Z"}
