{"icao":"LPPR","metar":"LPPR 010800Z 10003KT 060V150 CAVOK 19/12 Q1021","updated":"2025-10-01T08:23:37Z"}
