{"icao":"LPPT","metar":"LPPT 211630Z 27009KT 230V310 9000 VCSH FEW010 BKN018 14/11 Q1005 WS R20","updated":"2026-01-21T16:42:45Z"}
