{"icao":"LPMR","metar":"LPMR 101500Z 18015G25KT 150V210 8000 -SHRA SCT020 BKN035 16/13 Q1009","updated":"2026-05-10T15:52:15Z"}
