{"icao":"LPCS","metar":"LPCS 201830Z 09008KT 050V130 9999 -RA FEW005 SCT012 BKN030 14/13 Q1006","updated":"2026-03-20T18:48:32Z"}
