{"icao":"LPFR","metar":"LPFR 011300Z 16008KT 9999 FEW012 26/18 Q1020","updated":"2025-10-01T13:27:52Z"}
