{"icao":"KORD","metar":"KORD 301922Z 34008KT 1/2SM R10L/1800V2200FT SN FZFG VV009 M09/M11 A3035 RMK AO2 P0001 T10891106","updated":"2026-01-30T19:30:43Z"}
