{"icao":"LPHR","metar":"LPHR 080800Z 29011KT 9999 SCT006 SCT011 18/17 Q1017","updated":"2025-11-08T08:21:42Z"}
