{"icao":"LPLA","metar":"LPLA 301500Z 13007KT 100V240 9999 FEW014 SCT022 17/13 Q1017","updated":"2026-01-30T15:33:01Z"}
