{"icao":"LPMR","metar":"LPMR 310900Z 16007KT 3000 -RA FEW008 SCT025 OVC030 17/17 Q1011","updated":"2025-10-31T09:19:39Z"}
