{"icao":"LPAR","metar":"LPAR 021300Z 29006KT 240V320 9999 FEW020 15/11 Q1018","updated":"2025-12-02T13:35:42Z"}
