{"icao":"LPFL","metar":"LPFL 141700Z 33010KT 230V010 9999 SCT018 17/11 Q1023","updated":"2025-12-14T17:15:50Z"}
