{"icao":"LPMA","metar":"LPMA 100930Z 36021G33KT 330V030 9999 FEW015 20/12 Q1021","updated":"2026-06-10T09:56:58Z"}
