{"icao":"LPBJ","metar":"LPBJ 090927Z 26008KT 1500 -DZ BR OVC005 14/14 Q1015","updated":"2026-02-09T10:01:59Z"}
