{"icao":"LPMA","metar":"LPMA 131800Z 35008KT 290V070 9999 SCT015 FEW018CB 15/09 Q1020","updated":"2026-01-13T18:29:57Z"}
