{"icao":"LPMR","metar":"LPMR 081600Z 33012KT 300V360 9999 SCT012 SCT018 18/15 Q1022","updated":"2025-10-08T16:22:01Z"}
