{"icao":"LPBJ","metar":"LPBJ 200000Z 30006KT CAVOK 21/12 Q1015","updated":"2026-06-20T00:08:35Z"}
