{"icao":"LPAZ","metar":"LPAZ 300800Z 17008KT 9999 FEW015 21/18 Q1022","updated":"2025-09-30T08:25:08Z"}
