{"icao":"LPOV","metar":"LPOV 280700Z VRB02KT CAVOK 07/05 Q1023","updated":"2026-03-28T07:49:02Z"}
