{"icao":"KORD","metar":"KORD 040151Z 15005KT 10SM CLR 25/16 A3011 RMK AO2 SLP193 T02500156 $","updated":"2025-10-04T02:50:02Z"}
