{"icao":"KLAX","metar":"KLAX 141822Z 07008KT 8SM -RA SCT025 SCT035 OVC043 16/14 A3001 RMK AO2 RAB09 P0094 T01610139 $","updated":"2025-11-14T18:26:37Z"}
