{"icao":"LPOV","metar":"LPOV 120500Z 00000KT CAVOK 12/11 Q1017","updated":"2025-10-12T05:15:32Z"}
