{"icao":"KORD","metar":"KORD 231651Z 28005KT 10SM SCT250 08/02 A3006 RMK AO2 SLP184 T00780017","updated":"2025-12-23T17:19:49Z"}
