{"icao":"KLAX","metar":"KLAX 280553Z 00000KT 10SM SCT220 22/12 A2989 RMK AO2 SLP120 T02170117 10283 20200 51005","updated":"2026-02-28T06:36:51Z"}
