{"icao":"KLAX","metar":"KLAX 061753Z 25006KT 10SM FEW019 FEW030 20/11 A3008 RMK AO2 SLP185 T02000111 10200 20128 53001","updated":"2026-05-06T18:15:27Z"}
