{"icao":"LPLA","metar":"LPLA 110400Z 28016KT 250V310 9999 FEW030 16/10 Q1004","updated":"2025-11-11T04:23:25Z"}
