{"icao":"KORD","metar":"KORD 241251Z 33008KT 10SM FEW170 BKN250 M23/M31 A3071 RMK AO2 SLP422 T12331306","updated":"2026-01-24T13:29:44Z"}
