{"icao":"LPOV","metar":"LPOV 061900Z 35018KT CAVOK 17/14 Q1020","updated":"2026-06-06T19:20:10Z"}
