{"icao":"KLAX","metar":"KLAX 171653Z 09008KT 10SM SCT050 BKN060 BKN075 12/09 A3008 RMK AO2 SLP184 T01220094","updated":"2026-02-17T16:56:04Z"}
