{"icao":"LPPR","metar":"LPPR 041930Z 19014KT 9999 FEW006 SCT046 14/12 Q0993","updated":"2026-02-04T19:37:17Z"}
