{"icao":"KJFK","metar":"KJFK 280251Z 29016G29KT 10SM FEW075 FEW250 M08/M16 A3005 RMK AO2 PK WND 29031/0234 SLP176 T10781156 53016 $","updated":"2026-01-28T03:44:08Z"}
