{"icao":"KORD","metar":"KORD 260451Z 11005KT 10SM BKN070 OVC085 11/03 A3034 RMK AO2 SLP274 T01060033 $","updated":"2025-10-26T05:17:21Z"}
