{"icao":"LPAR","metar":"LPAR 150900Z 19003KT 140V220 9999 FEW012 BKN035 11/10 Q1019","updated":"2026-01-15T09:27:10Z"}
