{"icao":"LPLA","metar":"LPLA 201100Z 23016KT 9999 FEW009 SCT015 25/21 Q1015","updated":"2025-10-20T11:15:56Z"}
