{"icao":"LPPT","metar":"LPPT 042230Z 29003KT 9999 FEW015 13/09 Q1019","updated":"2026-05-04T23:01:18Z"}
