{"icao":"LPMA","metar":"LPMA 042100Z 36010KT 320V030 9999 -SHRA BKN015 FEW018TCU 17/12 Q1012","updated":"2026-01-04T21:18:00Z"}
