{"icao":"LPOV","metar":"LPOV 160800Z 24007KT 9999 BKN014 OVC030 14/13 Q1028","updated":"2026-02-16T08:45:28Z"}
