{"icao":"LPCS","metar":"LPCS 201600Z 24007KT 170V270 CAVOK 24/07 Q1010","updated":"2026-04-20T16:07:26Z"}
