{"icao":"LPFL","metar":"LPFL 031930Z 21015G31KT 150V280 9999 -RA BKN015 17/13 Q0997","updated":"2026-02-03T19:43:39Z"}
