{"icao":"KLAX","metar":"KLAX 250453Z 23007KT 10SM FEW013 SCT280 16/13 A2990 RMK AO2 SLP123 T01560128 $","updated":"2026-04-25T05:10:58Z"}
