{"icao":"LPLA","metar":"LPLA 071500Z 17013KT 140V200 9999 FEW030 SCT045 18/11 Q1031","updated":"2026-01-07T15:24:15Z"}
