{"icao":"KLAX","metar":"KLAX 170053Z 26008KT 10SM SCT300 19/08 A2995 RMK AO2 SLP140 T01890083","updated":"2026-01-17T01:28:33Z"}
