{"icao":"KORD","metar":"KORD 311052Z 31011G14KT 10SM OVC015 M02/M04 A2990 RMK T10221044 ","updated":"2025-12-31T11:18:08Z"}
