{"icao":"LPMT","metar":"LPMT 011000Z 22006KT 190V250 1500 -DZ BR BKN006 SCT020 15/15 Q1014","updated":"2026-02-01T10:23:52Z"}
