{"icao":"LPPS","metar":"LPPS 192300Z 05005KT 350V080 9999 FEW015 23/19 Q1020","updated":"2025-09-19T23:14:59Z"}
