{"icao":"LPPT","metar":"LPPT 120600Z 17020KT 9999 FEW014 SCT030 18/16 Q1004","updated":"2025-11-12T06:28:28Z"}
