{"icao":"KJFK","metar":"KJFK 270651Z 30019G29KT 10SM FEW046 M08/M17 A3004 RMK AO2 PK WND 31033/0636 SLP172 T10831167 $","updated":"2026-01-27T07:26:30Z"}
