{"icao":"LPMR","metar":"LPMR 091500Z 33017KT CAVOK 19/13 Q1014","updated":"2026-04-09T15:21:11Z"}
