{"icao":"LPPS","metar":"LPPS 230930Z 07003KT 020V100 9999 FEW014 16/12 Q1023","updated":"2026-02-23T09:54:23Z"}
