{"icao":"LPLA","metar":"LPLA 121500Z 24010KT 190V290 9999 FEW025 19/12 Q1029","updated":"2026-03-12T15:57:50Z"}
