{"icao":"LPAZ","metar":"LPAZ 022300Z 32024KT 9999 SCT010 BKN018 15/13 Q1006","updated":"2026-01-02T23:18:03Z"}
