{"icao":"LPMT","metar":"LPMT 052200Z 26007KT 220V290 9999 FEW018 FEW022CB 15/09 Q1015","updated":"2025-11-05T22:17:23Z"}
