{"icao":"LPMR","metar":"LPMR 221000Z 26009KT 220V290 5000 BR BKN006 BKN013 21/19 Q1018","updated":"2025-10-22T10:20:05Z"}
