{"icao":"KJFK","metar":"KJFK 210451Z 27014KT 10SM CLR 13/05 A2993 RMK AO2 SLP134 T01280050 402000128","updated":"2025-10-21T05:17:37Z"}
