{"icao":"KJFK","metar":"KJFK 141251Z 28006KT 10SM FEW200 SCT250 22/13 A3001 RMK AO2 SLP162 T02220133","updated":"2026-04-14T13:23:21Z"}
