{"icao":"KORD","metar":"KORD 181907Z 19021G36KT 3SM -RA BR OVC010 11/09 A2927 RMK AO2 PK WND 16037/1852 P0002 T01060089","updated":"2025-12-18T19:16:44Z"}
