{"icao":"LPBJ","metar":"LPBJ 140500Z 12005KT 8000 FEW020 FEW050CB 17/16 Q1016","updated":"2026-06-14T05:47:03Z"}
