{"icao":"KLAX","metar":"KLAX 010853Z 28004KT 10SM FEW010 19/17 A3001 RMK AO2 SLP158 T01890172 56002 $","updated":"2025-10-01T09:19:40Z"}
