{"icao":"LPHR","metar":"LPHR 260630Z 27031KT 9999 SCT011 BKN022 15/12 Q1003","updated":"2026-01-26T06:35:47Z"}
