{"icao":"LPAR","metar":"LPAR 161600Z 05007KT 030V090 CAVOK 23/10 Q1017","updated":"2026-03-16T16:11:03Z"}
