{"icao":"LPFR","metar":"LPFR 011800Z 10005KT CAVOK 16/10 Q1017","updated":"2026-03-01T18:31:28Z"}
