{"icao":"KLAX","metar":"KLAX 150853Z 10005KT 6SM BR BKN009 15/13 A2997 RMK AO2 SLP146 T01500133 50001 $","updated":"2026-03-15T09:33:06Z"}
