{"icao":"LPFL","metar":"LPFL 271900Z VRB16G33KT 1100 DZRA FEW008 BKN010 19/16 Q1001","updated":"2026-01-27T19:25:10Z"}
