{"icao":"LPCS","metar":"LPCS 011330Z 23008KT 0100 R17/0275N FG VV002 15/15 Q1012","updated":"2026-02-01T13:41:41Z"}
