{"icao":"LPPD","metar":"LPPD 262100Z 04013KT 020V080 9999 -SHRA SCT018 FEW020TCU BKN030 18/14 Q1019","updated":"2025-10-26T21:15:09Z"}
