{"icao":"LPBJ","metar":"LPBJ 021700Z 36006KT CAVOK 19/09 Q1024","updated":"2025-11-02T17:14:22Z"}
