{"icao":"LPPS","metar":"LPPS 171400Z 33016KT 9999 SCT015 17/11 Q1021","updated":"2026-01-17T14:17:53Z"}
