{"icao":"LPMA","metar":"LPMA 161230Z 04005KT 340V150 9999 BKN014 18/13 Q1032","updated":"2026-02-16T13:00:45Z"}
