{"icao":"LPAZ","metar":"LPAZ 101630Z 36007KT 310V060 9999 FEW030 15/07 Q1033","updated":"2026-03-10T17:00:45Z"}
