{"icao":"LPPD","metar":"LPPD 281700Z 26012KT 3000 -SHRA BR BKN003 BKN007 16/15 Q1029","updated":"2026-02-28T17:19:31Z"}
