{"icao":"LPPR","metar":"LPPR 071700Z 31006KT 270V330 9999 FEW018 17/14 Q1015","updated":"2025-11-07T17:16:19Z"}
