{"icao":"KORD","metar":"KORD 240251Z 03010KT 10SM BKN014 OVC250 19/16 A2999 RMK AO2 SLP154 T01940161 53012","updated":"2025-09-24T02:57:59Z"}
