{"icao":"KLAX","metar":"KLAX 201453Z 01003KT 10SM FEW090 FEW120 SCT160 BKN200 06/02 A3002 RMK AO2 SLP164 T00610022 51017","updated":"2026-02-20T15:36:26Z"}
