{"icao":"LPHR","metar":"LPHR 311600Z 31011KT 280V360 9999 FEW018 18/14 Q1001","updated":"2025-12-31T16:24:49Z"}
