{"icao":"LPCS","metar":"LPCS 231600Z 34012KT 9999 FEW009 SCT017 14/12 Q1010","updated":"2025-12-23T16:26:03Z"}
