{"icao":"LPAZ","metar":"LPAZ 051630Z 22014KT 9999 FEW030 BKN034 18/11 Q1018","updated":"2026-04-05T16:35:29Z"}
