{"icao":"KJFK","metar":"KJFK 270051Z 27008KT 6SM -RA BR FEW019 SCT050 OVC065 13/13 A2972 RMK AO2 RAB24 SLP063 P0000 T01330128","updated":"2025-11-27T01:23:29Z"}
