{"icao":"LPLA","metar":"LPLA 270700Z 33016KT 6000 -DZRA SCT004 BKN006 15/14 Q1021","updated":"2025-11-27T07:19:44Z"}
