{"icao":"LPMA","metar":"LPMA 062030Z 01012KT 330V030 9999 SCT015 20/16 Q1021","updated":"2026-06-06T21:02:53Z"}
