{"icao":"LPHR","metar":"LPHR 310900Z 27013KT 9999 SCT007 BKN011 17/16 Q1015","updated":"2026-01-31T09:26:30Z"}
