{"icao":"LPBJ","metar":"LPBJ 032200Z 27007KT CAVOK 19/09 Q1023","updated":"2025-10-03T22:15:14Z"}
