{"icao":"LPMT","metar":"LPMT 150500Z 33005KT CAVOK 12/11 Q1023","updated":"2026-04-15T05:22:33Z"}
