{"icao":"LPHR","metar":"LPHR 232030Z 28036KT 8000 -SHRA SCT013 SCT030 15/12 Q1005","updated":"2026-02-23T20:42:53Z"}
