{"icao":"LPAZ","metar":"LPAZ 202300Z 07009KT 040V100 9999 FEW020 BKN049 16/10 Q1030","updated":"2025-11-20T23:17:28Z"}
