{"icao":"LPPS","metar":"LPPS 051530Z 02022KT 9999 SCT015 17/08 Q1025","updated":"2026-03-05T15:49:22Z"}
