{"icao":"LPPT","metar":"LPPT 090100Z 33016KT 9999 BKN013 17/15 Q1021","updated":"2025-10-09T01:18:25Z"}
