{"icao":"LPPT","metar":"LPPT 121500Z 04010KT 8000 -RA FEW004 SCT008 BKN014 12/12 Q1012","updated":"2025-12-12T15:21:13Z"}
