{"icao":"LPOV","metar":"LPOV 021300Z 21009KT 3000 SHRA SCT012 SCT020CB BKN040 10/08 Q0995 RETSRA","updated":"2026-02-02T14:03:34Z"}
