{"icao":"LPHR","metar":"LPHR 221100Z 11005KT 080V140 9999 FEW017 SCT030 18/12 Q1031","updated":"2025-11-22T11:13:20Z"}
