{"icao":"LPMR","metar":"LPMR 240800Z 26001KT 5000 BR FEW005 03/02 Q1010","updated":"2025-12-24T08:28:16Z"}
