{"icao":"KORD","metar":"KORD 292151Z 03018KT 10SM SCT037 BKN049 12/05 A3000 RMK AO2 PK WND 04032/2056 SLP162 T01220050","updated":"2025-10-29T22:18:03Z"}
