{"icao":"KLAX","metar":"KLAX 181253Z 03004KT 10SM FEW250 14/M01 A3009 RMK AO2 SLP188 T01391011 $","updated":"2026-01-18T13:27:41Z"}
