{"icao":"LPBJ","metar":"LPBJ 191900Z 27005KT 240V300 CAVOK 24/12 Q1014","updated":"2026-04-19T19:40:07Z"}
