{"icao":"LPFR","metar":"LPFR 140500Z 34009KT CAVOK 12/09 Q1022","updated":"2026-04-14T05:21:53Z"}
