{"icao":"LPMT","metar":"LPMT 070400Z 21006KT 180V250 9999 FEW022 BKN030 18/14 Q1016","updated":"2025-11-07T04:20:50Z"}
