{"icao":"KORD","metar":"KORD 101651Z 34008KT 10SM SCT075 SCT250 16/M04 A3010 RMK AO2 SLP193 T01561039 $","updated":"2026-05-10T16:54:50Z"}
