{"icao":"KORD","metar":"KORD 030251Z 14005KT 10SM CLR 21/13 A3019 RMK AO2 SLP221 T02110133 50003","updated":"2025-10-03T03:27:40Z"}
