{"icao":"LPBJ","metar":"LPBJ 231200Z 12006KT 090V170 CAVOK 20/09 Q1025","updated":"2026-02-23T13:01:31Z"}
