{"icao":"KJFK","metar":"KJFK 211651Z 24009KT 10SM OVC021 09/04 A3004 RMK AO2 SLP173 T00890044","updated":"2025-11-21T17:16:27Z"}
