{"icao":"LPHR","metar":"LPHR 081130Z 30012KT 9999 FEW033 BKN038 17/09 Q1036","updated":"2026-04-08T11:53:56Z"}
