{"icao":"LPLA","metar":"LPLA 301200Z 30006KT 260V330 9999 FEW025 18/15 Q1008","updated":"2025-10-30T12:38:02Z"}
