{"icao":"KLAX","metar":"KLAX 262053Z 24011G20KT 10SM FEW025 BKN041 BKN140 20/11 A2984 RMK AO2 SLP105 T02000106 58014 $","updated":"2026-05-26T21:44:03Z"}
