{"icao":"LPPR","metar":"LPPR 061600Z 29004KT CAVOK 26/12 Q1019","updated":"2025-10-06T16:21:23Z"}
