{"icao":"LPMT","metar":"LPMT 222100Z 23003KT 190V250 9999 FEW014 SCT026 12/11 Q1015","updated":"2025-12-22T21:17:12Z"}
