{"icao":"LPOV","metar":"LPOV 121800Z 33006KT 300V010 CAVOK 28/11 Q1018","updated":"2026-06-12T19:03:11Z"}
