{"icao":"KJFK","metar":"KJFK 181051Z 35005KT 10SM SCT090 SCT250 09/02 A3002 RMK AO2 SLP167 T00890022","updated":"2025-10-18T11:13:27Z"}
