{"icao":"KLAX","metar":"KLAX 190453Z 23003KT 10SM FEW090 SCT150 22/18 A2986 RMK AO2 SLP108 T02170183","updated":"2025-09-19T05:16:14Z"}
