{"icao":"LPPD","metar":"LPPD 111300Z 29023KT 9999 VCSH FEW025 FEW027CB 17/10 Q1004","updated":"2025-11-11T13:29:54Z"}
