{"icao":"LPFR","metar":"LPFR 131900Z 26003KT CAVOK 21/19 Q1015","updated":"2025-10-13T19:13:10Z"}
