{"icao":"LPAZ","metar":"LPAZ 101300Z 21017KT 0200 R18/0125N -DZ FG VV001 17/17 Q1015","updated":"2026-02-10T13:11:05Z"}
