{"icao":"KORD","metar":"KORD 250651Z 35008KT 1 3/4SM -SN OVC019 M15/M18 A3033 RMK AO2 SLP287 P0002 T11501178 $","updated":"2026-01-25T07:20:26Z"}
