{"icao":"LPPD","metar":"LPPD 181900Z 26010KT 4000 BR SCT002 BKN004 22/22 Q1016","updated":"2025-10-18T19:12:50Z"}
