{"icao":"LPMR","metar":"LPMR 122300Z 34001KT CAVOK 23/13 Q1018","updated":"2026-06-13T03:35:17Z"}
