{"icao":"KORD","metar":"KORD 190351Z 21006KT 10SM FEW210 BKN250 10/M10 A2963 RMK AO2 SLP033 T01001100 $","updated":"2026-02-19T04:50:55Z"}
