{"icao":"LPPR","metar":"LPPR 261430Z 32009KT 270V350 9999 FEW005 15/12 Q1025","updated":"2026-02-26T14:44:48Z"}
