{"icao":"KJFK","metar":"KJFK 011151Z 33003KT 10SM FEW080 SCT110 SCT250 17/09 A2995 RMK AO2 SLP142 60000 T01720094 10172 20144 53011 $","updated":"2026-06-01T12:35:37Z"}
