{"icao":"KJFK","metar":"KJFK 141951Z 31011KT 10SM FEW055 BKN070 BKN250 11/M03 A2999 RMK AO2 SLP155 T01061028","updated":"2025-11-14T20:20:31Z"}
