{"icao":"LPFL","metar":"LPFL 231800Z 29006KT 230V020 9999 FEW030 14/05 Q1026","updated":"2026-01-23T18:31:46Z"}
