{"icao":"LPAZ","metar":"LPAZ 141900Z 30007KT 9999 FEW018 24/19 Q1026","updated":"2025-09-14T19:11:45Z"}
