{"icao":"LPPT","metar":"LPPT 051200Z 36007KT 320V090 9999 FEW025 22/13 Q1020","updated":"2025-10-05T12:31:56Z"}
