{"icao":"LPFL","metar":"LPFL 030830Z 21015G34KT 160V290 6000 -RA SCT007 BKN010 18/16 Q1000 RERA","updated":"2026-02-03T08:35:01Z"}
