{"icao":"LPPS","metar":"LPPS 081700Z 05009KT 020V080 9999 FEW015 SCT030 23/17 Q1025","updated":"2025-10-08T17:15:27Z"}
