{"icao":"LPPS","metar":"LPPS 220900Z 31012KT 8000 SCT006 SCT030 17/16 Q1018","updated":"2026-01-22T09:31:16Z"}
