{"icao":"LPPD","metar":"LPPD 231800Z 22006KT 200V260 9999 FEW010 FEW020TCU SCT025 23/21 Q1016","updated":"2025-10-23T18:26:27Z"}
