{"icao":"LPOV","metar":"LPOV 220800Z VRB01KT 6000 NSC 04/04 Q1029","updated":"2026-02-22T08:30:14Z"}
