{"icao":"LPAZ","metar":"LPAZ 301700Z 31009KT 9999 FEW009 BKN021 18/14 Q1026","updated":"2025-11-30T17:15:29Z"}
