{"icao":"LPPD","metar":"LPPD 091930Z 21019KT 3000 -DZ BR SCT003 BKN006 17/16 Q1012","updated":"2026-02-09T20:03:26Z"}
