{"icao":"KORD","metar":"KORD 311352Z COR 26010KT 10SM OVC023 M01/M04 A2989 RMK T10091041 ","updated":"2025-12-31T14:19:25Z"}
