{"icao":"KORD","metar":"KORD 302051Z 23011KT 10SM -SN FEW019 SCT027 BKN045 BKN140 OVC250 M06/M11 A3007 RMK AO2 SNB25 SLP194 P0000 60000 T10611106 56025","updated":"2025-12-30T21:19:11Z"}
