{"icao":"KLAX","metar":"KLAX 211053Z 00000KT 9SM FEW004 17/16 A3003 RMK AO2 SLP167 T01670156","updated":"2025-10-21T11:15:15Z"}
