{"icao":"LPFR","metar":"LPFR 150100Z 27002KT CAVOK 19/16 Q1016","updated":"2025-10-15T01:20:18Z"}
