{"icao":"KORD","metar":"KORD 231055Z 32014G21KT 9SM -SN BKN024 M20/M26 A3048 RMK AO2 SNB54 VIS NE 2 P0000 T12001261 $","updated":"2026-01-23T11:19:51Z"}
