{"icao":"KORD","metar":"KORD 130751Z 00000KT 10SM FEW080 M03/M05 A3023 RMK AO2 SLP244 I1001 T10331050 $","updated":"2026-02-13T08:41:03Z"}
