{"icao":"LPST","metar":"LPST 111000Z 17016KT 9999 SCT012 BKN016 18/15 Q1013","updated":"2025-11-11T10:20:30Z"}
