{"icao":"LPLA","metar":"LPLA 101515Z 21030G49KT 3000 +RA BR SCT008 BKN010 BKN015 18/17 Q1011","updated":"2025-12-10T15:23:38Z"}
