{"icao":"KLAX","metar":"KLAX 121853Z 00000KT 10SM FEW160 SCT250 20/M01 A3021 RMK AO2 SLP229 T02001006 $","updated":"2026-01-12T19:19:47Z"}
