{"icao":"KORD","metar":"KORD 121751Z 26012G27KT 10SM FEW250 11/M04 A2992 RMK AO2 PK WND 28027/1749 SLP135 T01111044 10111 20039 50003","updated":"2025-11-12T18:26:29Z"}
