{"icao":"LPFR","metar":"LPFR 102130Z 27013KT CAVOK 16/15 Q1013","updated":"2026-04-10T21:35:45Z"}
