{"icao":"LPOV","metar":"LPOV 051900Z 23014KT 200V260 9999 FEW020CB BKN022 14/11 Q0995","updated":"2026-02-05T19:35:49Z"}
