{"icao":"KJFK","metar":"KJFK 242151Z 35005KT 10SM FEW170 BKN250 09/M03 A3024 RMK AO2 SLP241 T00891033","updated":"2025-11-24T22:17:59Z"}
