{"icao":"KORD","metar":"KORD 012251Z 05011KT 10SM FEW250 BKN300 22/15 A3018 RMK AO2 SLP217 T02220150","updated":"2025-10-01T23:15:37Z"}
