{"icao":"KORD","metar":"KORD 152251Z 30014G22KT 10SM FEW060 FEW250 18/04 A2956 RMK AO2 PK WND 32027/2155 SLP009 T01830044 $","updated":"2025-11-15T23:16:04Z"}
