{"icao":"LPOV","metar":"LPOV 300800Z 16010KT 120V180 9999 FEW015 SCT040 17/13 Q1016","updated":"2026-04-30T08:27:41Z"}
