{"icao":"LPLA","metar":"LPLA 240100Z 24011KT 9999 FEW016 17/14 Q1027","updated":"2025-11-24T01:39:01Z"}
