{"icao":"LPAZ","metar":"LPAZ 241930Z 31024KT 9000 FEW020 15/10 Q1019","updated":"2026-02-24T19:51:48Z"}
