{"icao":"LPBJ","metar":"LPBJ 302200Z 32004KT CAVOK 13/04 Q1027","updated":"2026-03-30T22:34:14Z"}
