{"icao":"LPMA","metar":"LPMA 010500Z 21032G42KT 9000 SHRA BKN013 FEW018CB 18/16 Q1004","updated":"2026-01-01T05:26:08Z"}
