{"icao":"KLAX","metar":"KLAX 121453Z 08004KT 10SM FEW140 FEW180 10/01 A3021 RMK AO2 SLP228 T01000006 53003 $","updated":"2026-01-12T15:24:37Z"}
