{"icao":"LPPR","metar":"LPPR 210400Z 00000KT CAVOK 13/12 Q1009","updated":"2026-03-21T04:04:42Z"}
