{"icao":"LPCS","metar":"LPCS 111100Z 22008KT 1100 R17/1600U -DZRA BR SCT001 BKN002 14/14 Q1028","updated":"2026-01-11T11:16:41Z"}
