{"icao":"LPOV","metar":"LPOV 271900Z 34008KT CAVOK 23/17 Q1018","updated":"2026-05-27T19:23:04Z"}
