{"icao":"LPLA","metar":"LPLA 120100Z 25017G29KT 9999 FEW025 16/10 Q1011","updated":"2026-01-12T01:45:38Z"}
