{"icao":"LPST","metar":"LPST 281000Z 31004KT 260V350 8000 FEW006 SCT015 17/14 Q1010","updated":"2026-04-28T11:04:07Z"}
