{"icao":"LPAR","metar":"LPAR 101400Z 17005KT 140V210 9999 FEW030 23/15 Q1013","updated":"2026-04-10T14:46:34Z"}
