{"icao":"LPFR","metar":"LPFR 082100Z 21014KT 5000 -DZ BR BKN003 BKN005 15/14 Q1014","updated":"2026-02-08T21:25:29Z"}
