{"icao":"KJFK","metar":"KJFK 050951Z 18009KT 10SM FEW100 SCT250 11/10 A2985 RMK SLP108 T01110100 ","updated":"2026-05-05T10:45:03Z"}
