{"icao":"LPHR","metar":"LPHR 251800Z 06022KT 6000 -SHRA SCT013 FEW015TCU SCT035 17/15 Q1021","updated":"2025-10-25T18:22:50Z"}
