{"icao":"LPPT","metar":"LPPT 242200Z 18009KT 9000 BKN008 14/13 Q1015","updated":"2026-02-24T22:32:28Z"}
