{"icao":"LPPD","metar":"LPPD 220330Z 25017KT 9999 FEW005 BKN009 16/15 Q1017","updated":"2026-01-22T03:46:41Z"}
