{"icao":"KJFK","metar":"KJFK 150751Z 01008KT 10SM BKN110 03/M08 A3039 RMK AO2 SLP292 T00281078","updated":"2026-03-15T08:35:09Z"}
