{"icao":"LPBJ","metar":"LPBJ 302000Z 22004KT 9999 FEW045 17/13 Q1015","updated":"2025-10-30T20:20:08Z"}
