{"icao":"LPPR","metar":"LPPR 190100Z 19007KT CAVOK 19/13 Q1015","updated":"2025-10-19T01:28:41Z"}
