{"icao":"LPMT","metar":"LPMT 161500Z 34012KT 310V010 9999 FEW025 21/09 Q1017","updated":"2026-05-16T15:57:05Z"}
