{"icao":"LPHR","metar":"LPHR 041500Z 06007KT 030V090 9999 FEW011 SCT025 16/11 Q1023","updated":"2026-01-04T15:18:06Z"}
