{"icao":"KJFK","metar":"KJFK 302151Z 05008KT 10SM FEW200 BKN250 25/12 A3002 RMK AO2 SLP166 T02500117 $","updated":"2025-09-30T22:15:55Z"}
