{"icao":"LPST","metar":"LPST 261000Z VRB02KT CAVOK 14/11 Q1025","updated":"2026-02-26T10:43:29Z"}
