{"icao":"KORD","metar":"KORD 170851Z 18003KT 10SM FEW100 BKN250 07/03 A2993 RMK AO2 SLP137 T00720028 58008 $","updated":"2026-02-17T09:46:55Z"}
