{"icao":"LPPD","metar":"LPPD 202300Z 04005KT 360V090 9999 FEW025 SCT040 15/11 Q1031","updated":"2025-11-20T23:17:27Z"}
