{"icao":"LPPS","metar":"LPPS 091300Z 27015KT 240V300 9999 SCT015 FEW018TCU 19/12 Q1013","updated":"2026-05-09T13:14:56Z"}
