{"icao":"KJFK","metar":"KJFK 221851Z 26018G31KT 10SM FEW050 SCT250 08/M07 A2998 RMK PK WND 27033/1814 SLP152 T00831067 $ ","updated":"2026-01-22T19:23:53Z"}
