{"icao":"LPHR","metar":"LPHR 280800Z 27011KT 9000 -SHRA SCT005 BKN007 17/16 Q1031","updated":"2026-02-28T08:27:45Z"}
