{"icao":"LPPD","metar":"LPPD 042000Z 02005KT 350V050 9999 FEW018 BKN040 14/09 Q1024","updated":"2026-01-04T20:21:20Z"}
