{"icao":"LPMR","metar":"LPMR 031700Z 27006KT 240V300 9999 FEW020 BKN040 13/09 Q1022","updated":"2025-12-03T17:21:13Z"}
