{"icao":"LPPD","metar":"LPPD 212300Z 21008KT 9000 BKN005 BKN014 22/22 Q1016","updated":"2025-10-21T23:17:02Z"}
