{"icao":"LPPR","metar":"LPPR 271400Z 29004KT CAVOK 22/09 Q1021","updated":"2025-10-27T14:19:03Z"}
