{"icao":"KJFK","metar":"KJFK 061951Z 20007KT 10SM FEW043 SCT090 BKN150 BKN250 M01/M09 A2966 RMK AO2 SLP044 T10061089 $","updated":"2026-02-06T20:32:50Z"}
