{"icao":"LPOV","metar":"LPOV 201900Z 34005KT 8000 MIFG SCT045 15/14 Q1008","updated":"2026-03-21T05:39:33Z"}
