{"icao":"LPPT","metar":"LPPT 202230Z 07005KT CAVOK 20/13 Q1007","updated":"2026-04-20T22:41:11Z"}
