{"icao":"LPPI","metar":"LPPI 162130Z 23014KT 9999 FEW005 SCT020 22/18 Q1016","updated":"2026-06-16T22:10:00Z"}
