{"icao":"KORD","metar":"KORD 181051Z 18014KT 9SM OVC006 07/06 A2958 RMK AO2 RAB08E40 SLP020 P0001 T00670056","updated":"2025-12-18T11:18:34Z"}
