{"icao":"LPBJ","metar":"LPBJ 200500Z 31004KT CAVOK 06/05 Q1018","updated":"2025-11-20T05:18:38Z"}
