{"icao":"KORD","metar":"KORD 302251Z 07009KT 10SM -RA BKN036 OVC050 07/03 A2996 RMK AO2 SLP150 P0002 T00670028","updated":"2026-04-30T23:51:34Z"}
