{"icao":"LPST","metar":"LPST 301600Z 27016KT 9999 BKN012 15/12 Q1012","updated":"2026-02-01T20:25:22Z"}
