{"icao":"KJFK","metar":"KJFK 270351Z 01006KT 10SM CLR 09/01 A3039 RMK AO2 SLP289 T00890011","updated":"2025-10-27T04:28:15Z"}
