{"icao":"LPPS","metar":"LPPS 271600Z 02010KT 9999 SCT015 19/12 Q1021","updated":"2025-11-27T16:23:37Z"}
