{"icao":"LPPR","metar":"LPPR 230330Z 29016G34KT 260V320 9999 3700N -SHRA SCT017 FEW025CB BKN045 08/06 Q1000 RESHRA","updated":"2026-01-23T03:40:56Z"}
