{"icao":"LPCS","metar":"LPCS 251800Z 20011KT 170V230 9999 SCT004 BKN008 21/19 Q1017","updated":"2026-06-25T18:07:55Z"}
