{"icao":"LPMT","metar":"LPMT 011100Z 03006KT 330V080 CAVOK 28/18 Q1018","updated":"2026-07-01T12:05:39Z"}
