{"icao":"KORD","metar":"KORD 101623Z 34018G25KT 2SM -SN SCT014 BKN019 OVC026 M01/M03 A2957 RMK AO2 PK WND 34026/1553 P0000 T10061033","updated":"2025-12-10T16:27:10Z"}
