{"icao":"LPST","metar":"LPST 111300Z 19018KT 9999 SCT018 19/14 Q1011","updated":"2025-11-11T13:29:52Z"}
