{"icao":"LPAZ","metar":"LPAZ 301200Z 05011KT 010V090 9999 FEW022 SCT026 23/15 Q1031","updated":"2026-06-30T12:06:49Z"}
