{"icao":"LPBJ","metar":"LPBJ 161900Z 05005KT CAVOK 18/06 Q1017","updated":"2026-03-16T19:15:32Z"}
