{"icao":"KORD","metar":"KORD 311239Z 31011KT 10SM BKN014 OVC060 M10/M14 A3037 RMK AO2 VCSH E T11001139","updated":"2026-01-31T12:44:39Z"}
