{"icao":"LPFR","metar":"LPFR 221600Z 07006KT 360V110 CAVOK 18/M02 Q1026","updated":"2025-11-22T16:20:48Z"}
