{"icao":"KJFK","metar":"KJFK 270551Z 30026G33KT 10SM FEW045 M08/M17 A3001 RMK AO2 PK WND 30039/0533 SLP160 4/008 T10831167 11056 21083 51023 $","updated":"2026-01-27T06:34:18Z"}
