{"icao":"LPFR","metar":"LPFR 061230Z 24005KT 9999 0450W BCFG FEW001 16/16 Q1025","updated":"2025-12-06T12:35:47Z"}
