{"icao":"LPAR","metar":"LPAR 141600Z 26010KT 230V300 9999 VCSH FEW015 17/12 Q1003","updated":"2025-11-14T17:16:43Z"}
