{"icao":"KJFK","metar":"KJFK 141051Z 01014G21KT 10SM BKN013 BKN027 BKN220 12/10 A3000 RMK AO2 SLP158 T01220100","updated":"2025-10-14T11:15:12Z"}
