{"icao":"KJFK","metar":"KJFK 050451Z 09011G22KT 2 1/2SM -DZ BR OVC005 06/05 A3017 RMK AO2 SLP215 P0000 T00560050 402110050","updated":"2026-04-05T05:11:05Z"}
