{"icao":"LPPS","metar":"LPPS 091530Z 34014KT 280V030 8000 SCT006 BKN014 14/14 Q1027","updated":"2026-03-09T15:57:13Z"}
