{"icao":"LPCS","metar":"LPCS 281600Z 33021G31KT 9999 FEW007 BKN013 19/16 Q1015","updated":"2025-09-28T16:18:30Z"}
