{"icao":"LPMR","metar":"LPMR 021200Z 03008KT CAVOK 34/12 Q1018","updated":"2026-07-02T12:56:12Z"}
