{"icao":"LPOV","metar":"LPOV 130900Z 17006KT 140V200 9999 SCT020 BKN030 13/10 Q1024","updated":"2026-03-13T09:36:59Z"}
