{"icao":"LPHR","metar":"LPHR 031800Z 27015KT 7000 FEW002 BKN004 19/18 Q1028","updated":"2026-06-03T18:21:30Z"}
