{"icao":"KLAX","metar":"KLAX 050153Z 00000KT 9SM FEW250 22/04 A3005 RMK AO2 SLP176 T02220039 $","updated":"2026-02-05T01:59:13Z"}
