{"icao":"LPLA","metar":"LPLA 130622Z 30010KT 7000 -RA FEW012 BKN018 16/14 Q1029","updated":"2026-03-13T06:52:05Z"}
