{"icao":"LPFL","metar":"LPFL 211500Z VRB10G24KT 9999 FEW008 SCT015 19/15 Q1019 WS ALL RWY","updated":"2026-01-21T15:30:36Z"}
