{"icao":"LPBJ","metar":"LPBJ 231200Z 28009KT 9999 FEW022 BKN030 24/17 Q1021","updated":"2025-10-23T12:38:54Z"}
