{"icao":"LPMT","metar":"LPMT 251700Z 27005KT 9999 SCT012 SCT025 FEW028CB 21/18 Q1013","updated":"2025-10-25T17:13:48Z"}
