{"icao":"LPMA","metar":"LPMA 271400Z 03008KT 360V070 9999 SCT014 19/12 Q1016","updated":"2026-01-27T14:28:24Z"}
