{"icao":"LPAZ","metar":"LPAZ 241300Z 31012KT 9999 FEW013 22/17 Q1021","updated":"2026-06-24T13:21:13Z"}
