{"icao":"LPLA","metar":"LPLA 040100Z 23014G27KT 200V260 9999 FEW014 SCT025 20/16 Q1006","updated":"2025-11-04T01:23:26Z"}
