{"icao":"LPOV","metar":"LPOV 180800Z 17013KT 3000 -RADZ BR BKN007 BKN012 11/11 Q1017","updated":"2026-02-18T08:42:19Z"}
