{"icao":"LPFR","metar":"LPFR 080900Z 35007KT 290V020 9999 FEW015 17/13 Q1022","updated":"2025-11-08T09:16:37Z"}
