{"icao":"LPPT","metar":"LPPT 161500Z 32012KT 290V350 CAVOK 28/16 Q1016","updated":"2026-06-16T15:08:19Z"}
