{"icao":"LPPT","metar":"LPPT 171230Z 34009KT 310V010 9999 VCSH FEW016 SCT020 FEW025CB 16/13 Q1015","updated":"2025-11-17T12:38:51Z"}
