{"icao":"LPHR","metar":"LPHR 302100Z 28015KT 9999 FEW017 SCT035 18/12 Q1008","updated":"2025-10-31T04:22:15Z"}
