{"icao":"LPLA","metar":"LPLA 141300Z 29014KT 9000 -RA FEW012 BKN016 18/17 Q1021","updated":"2025-12-14T13:26:04Z"}
