{"icao":"KJFK","metar":"KJFK 041851Z 32018G29KT 10SM FEW070 FEW250 16/M04 A3003 RMK AO2 PK WND 30033/1802 SLP170 T01561039 $","updated":"2025-11-04T19:14:55Z"}
