{"icao":"LPPR","metar":"LPPR 190830Z 01005KT 340V060 9999 FEW025 SCT032 10/06 Q1026","updated":"2026-02-19T08:41:30Z"}
