{"icao":"LPMT","metar":"LPMT 161100Z 34012KT 9999 VCSH SCT025 SCT035 12/09 Q1012","updated":"2025-12-16T15:23:01Z"}
