{"icao":"LPMR","metar":"LPMR 032300Z 30006KT 8000 FEW008 BKN015 OVC035 17/17 Q1020","updated":"2026-06-03T23:41:41Z"}
