{"icao":"LPPS","metar":"LPPS 270700Z 32016G29KT 8000 -SHRA BKN014 14/10 Q1014","updated":"2025-12-27T07:17:52Z"}
