{"icao":"LPLA","metar":"LPLA 291800Z 23012G23KT 190V280 9000 -RA FEW005 SCT015 19/17 Q1020","updated":"2026-05-29T18:30:43Z"}
