{"icao":"LPPR","metar":"LPPR 172200Z VRB01KT CAVOK 15/12 Q1016","updated":"2025-10-17T22:15:53Z"}
