{"icao":"LPLA","metar":"LPLA 121300Z 28023KT 7000 3000W -SHRA FEW018 SCT020CB BKN040 17/11 Q1016","updated":"2026-02-12T13:04:51Z"}
