{"icao":"LPOV","metar":"LPOV 071700Z 18020G30KT 1200 -RA BR BKN008 OVC012 12/12 Q0992 RERA","updated":"2026-02-07T17:24:15Z"}
