{"icao":"LPMA","metar":"LPMA 040130Z 29004KT 240V350 9999 SCT015 17/11 Q1005","updated":"2026-01-04T01:49:20Z"}
