{"icao":"KLAX","metar":"KLAX 211653Z 00000KT 1 3/4SM BR FEW003 OVC005 13/13 A3012 RMK AO2 SLP197 VIS SW-W 1 1/4 T01330128 $","updated":"2025-12-21T17:16:07Z"}
