{"icao":"KORD","metar":"KORD 250917Z 03007KT 5SM BR OVC007 04/03 A3008 RMK AO2 T00440028","updated":"2025-12-25T09:22:26Z"}
