{"icao":"LPOV","metar":"LPOV 230800Z 33006KT CAVOK 17/15 Q1020","updated":"2025-10-23T08:24:59Z"}
