{"icao":"LPMA","metar":"LPMA 011100Z 21023KT 9999 FEW010 FEW015CB BKN033 18/15 Q1003","updated":"2026-01-01T11:17:38Z"}
