{"icao":"LPCS","metar":"LPCS 081900Z 16013KT 9999 FEW015 16/12 Q1006","updated":"2026-05-08T19:15:02Z"}
