{"icao":"KJFK","metar":"KJFK 121951Z 13015KT 10SM SCT170 SCT250 10/M01 A3045 RMK AO2 SLP311 T01001006 $","updated":"2026-04-12T20:34:58Z"}
