{"icao":"KLAX","metar":"KLAX 191824Z 14008KT 1 1/4SM R25L/4500VP6000FT RA BR SCT009 BKN013 OVC020 11/09 A2997 RMK AO2 VIS 1/2V2 1/2 P0010 T01060094","updated":"2026-02-19T18:49:33Z"}
