{"icao":"LPST","metar":"LPST 051500Z 36018G28KT 9999 FEW030 09/00 Q1014","updated":"2026-01-05T15:22:36Z"}
