{"icao":"LPPR","metar":"LPPR 291300Z 18012KT 8000 -RA SCT007 SCT020 13/12 Q1016 RERA","updated":"2025-11-29T13:25:13Z"}
