{"icao":"LPPS","metar":"LPPS 181000Z VRB05KT 9999 FEW014 SCT030 23/19 Q1016","updated":"2025-10-18T10:16:34Z"}
