{"icao":"LPCS","metar":"LPCS 180730Z 15014KT 8000 -SHRA FEW008 SCT012 BKN016 FEW020CB 14/13 Q1002","updated":"2026-03-18T07:51:22Z"}
