{"icao":"KLAX","metar":"KLAX 131953Z 24011G22KT 10SM SCT038 SCT260 20/11 A3010 RMK AO2 SLP190 T02000111","updated":"2026-05-13T20:44:09Z"}
