{"icao":"LPCS","metar":"LPCS 242030Z 27003KT 240V310 9999 FEW006 BKN022 20/19 Q1017","updated":"2025-10-24T23:15:56Z"}
