{"icao":"KJFK","metar":"KJFK 071651Z 20017KT 10SM FEW050 BKN250 14/00 A2999 RMK AO2 PRESFR SLP155 T01390000 $","updated":"2025-11-07T17:16:23Z"}
