{"icao":"LPMR","metar":"LPMR 080100Z 16002KT 2000 0900S BR PRFG SCT003 13/13 Q1023","updated":"2025-10-08T01:17:43Z"}
