{"icao":"LPAZ","metar":"LPAZ 191200Z 20016KT 9999 BKN005 BKN028 19/17 Q1019","updated":"2026-05-19T12:08:40Z"}
