{"icao":"LPMR","metar":"LPMR 252200Z VRB04KT 9999 FEW035 14/13 Q1016","updated":"2025-10-25T22:15:05Z"}
