{"icao":"LPMA","metar":"LPMA 070300Z 29003KT 9999 FEW015 15/11 Q1022","updated":"2025-12-07T03:26:06Z"}
