{"icao":"LPMT","metar":"LPMT 280800Z 01013KT CAVOK 11/06 Q1025","updated":"2026-02-28T08:27:43Z"}
