{"icao":"KJFK","metar":"KJFK 112151Z 03005KT 10SM FEW065 SCT210 BKN250 16/M02 A3005 RMK AO2 SLP175 T01561017 $","updated":"2026-05-11T22:06:48Z"}
