{"icao":"LPPR","metar":"LPPR 211400Z 25005KT 220V300 CAVOK 15/08 Q1029","updated":"2026-02-21T14:24:53Z"}
