{"icao":"LPFR","metar":"LPFR 162130Z 32010KT CAVOK 18/09 Q1017","updated":"2026-05-16T21:47:21Z"}
