{"icao":"LPAZ","metar":"LPAZ 160500Z 03003KT 6000 FEW005 SCT009 BKN029 13/12 Q1022","updated":"2026-03-16T05:13:31Z"}
