{"icao":"LPMA","metar":"LPMA 181700Z VRB02KT 9000 3000NE -RADZ FEW008 BKN013 22/20 Q1016","updated":"2025-10-18T17:13:27Z"}
