{"icao":"LPHR","metar":"LPHR 112100Z 26020KT 9999 SCT017 SCT033 16/11 Q1014","updated":"2026-01-12T04:49:22Z"}
