{"icao":"LPFR","metar":"LPFR 030930Z 24007KT 210V270 9999 FEW020 18/12 Q1016","updated":"2026-05-03T10:02:32Z"}
