{"icao":"KJFK","metar":"KJFK 051551Z 03005KT 10SM FEW250 M04/M11 A3012 RMK AO2 SLP199 T10391111 PNO $","updated":"2026-02-05T16:45:39Z"}
