{"icao":"LPBJ","metar":"LPBJ 210700Z 36007KT CAVOK 04/02 Q1024","updated":"2025-11-21T07:18:30Z"}
