{"icao":"LPLA","metar":"LPLA 020100Z 18003KT 110V270 9999 FEW018 22/18 Q1020","updated":"2025-10-02T01:16:59Z"}
