{"icao":"LPBJ","metar":"LPBJ 230400Z 22008KT 7000 -RA FEW006 BKN025 10/09 Q1014","updated":"2025-12-23T04:36:24Z"}
