{"icao":"LPHR","metar":"LPHR 091430Z 31013G23KT 270V010 9999 FEW014 SCT030 15/09 Q1019","updated":"2026-05-09T14:49:27Z"}
