{"icao":"LPOV","metar":"LPOV 021200Z 30004KT 9999 FEW022 17/12 Q1026","updated":"2025-11-02T12:32:31Z"}
