{"icao":"LPCS","metar":"LPCS 131000Z 27004KT 230V320 9999 -RA SCT014 FEW020TCU BKN024 12/12 Q1009 RESHRA","updated":"2026-01-13T10:22:51Z"}
