{"icao":"KORD","metar":"KORD 190451Z 27005KT 10SM CLR 06/M04 A3006 RMK AO2 SLP183 T00561044 $","updated":"2026-04-19T05:28:01Z"}
