{"icao":"KORD","metar":"KORD 201451Z 21015G26KT 10SM FEW110 BKN150 OVC250 03/M05 A2971 RMK AO2 PK WND 23031/1428 SLP068 T00281050 53001","updated":"2025-12-20T15:18:02Z"}
