{"icao":"LPPD","metar":"LPPD 192300Z 01016KT 330V030 3000 -SHRA FEW007 BKN010 14/12 Q1016","updated":"2026-04-19T23:34:37Z"}
