{"icao":"LPPT","metar":"LPPT 022200Z 32005KT CAVOK 14/09 Q1025","updated":"2025-11-02T22:15:20Z"}
