{"icao":"LPFL","metar":"LPFL 111800Z 33023G37KT 290V360 9999 FEW028TCU 15/08 Q1008","updated":"2025-11-11T18:26:35Z"}
