{"icao":"LPPS","metar":"LPPS 151500Z 31011KT 9999 SCT015 FEW018TCU 21/17 Q1014","updated":"2025-11-15T15:17:11Z"}
