{"icao":"LPPS","metar":"LPPS 062200Z 06006KT 360V100 9999 SCT012 SCT030 20/18 Q1024","updated":"2025-10-06T22:16:03Z"}
