{"icao":"LPMR","metar":"LPMR 200000Z 36003KT 9999 FEW007 SCT014 18/18 Q1016","updated":"2026-06-20T00:08:34Z"}
