{"icao":"LPPR","metar":"LPPR 131030Z 31017G31KT 9999 BKN024 FEW026CB 13/09 Q1001","updated":"2026-02-13T10:38:00Z"}
