{"icao":"KORD","metar":"KORD 030351Z 09004KT 10SM OVC250 02/M05 A3025 RMK AO2 SLP250 T00171050 $","updated":"2026-03-03T04:44:38Z"}
