{"icao":"LPCS","metar":"LPCS 261230Z 23013KT 9000 FEW004 BKN010 15/15 Q1013","updated":"2026-01-26T12:45:47Z"}
