{"icao":"KLAX","metar":"KLAX 251453Z 00000KT 10SM FEW280 SCT330 09/06 A3012 RMK AO2 SLP199 T00940061 53017 $","updated":"2026-01-25T15:19:25Z"}
