{"icao":"LPOV","metar":"LPOV 131100Z 32018KT 8000 -SHRA SCT018 FEW022CB 13/10 Q1003","updated":"2026-02-13T11:30:04Z"}
