{"icao":"LPFR","metar":"LPFR 140630Z 32014G24KT 280V340 CAVOK 11/04 Q1021","updated":"2026-02-14T06:42:36Z"}
