{"icao":"LPAZ","metar":"LPAZ 301800Z 30009KT 9999 FEW015 BKN021 18/15 Q1027","updated":"2025-11-30T18:25:34Z"}
