{"icao":"LPAZ","metar":"LPAZ 180500Z 16007KT 9999 SCT005 SCT015 16/16 Q1017","updated":"2026-04-18T05:05:09Z"}
