{"icao":"LPFL","metar":"LPFL 140900Z 28005KT 210V340 9999 FEW030 14/07 Q1008","updated":"2025-11-14T09:19:45Z"}
