{"icao":"LPAZ","metar":"LPAZ 311000Z 26006KT 0200 R18/0125N FG VV002 19/19 Q1028","updated":"2026-05-31T10:14:24Z"}
