{"icao":"KORD","metar":"KORD 240951Z 27003KT 10SM CLR 02/M01 A3023 RMK AO2 SLP242 T00221011","updated":"2025-10-24T10:20:24Z"}
