{"icao":"KLAX","metar":"KLAX 040653Z 03003KT 10SM FEW250 14/11 A3014 RMK AO2 SLP201 T01390106","updated":"2025-12-04T07:19:58Z"}
