{"icao":"LPFR","metar":"LPFR 311430Z 26011KT CAVOK 29/15 Q1017","updated":"2026-05-31T14:42:51Z"}
