{"icao":"LPMA","metar":"LPMA 180600Z 06006KT 9999 SCT015 22/13 Q1018","updated":"2025-09-18T06:26:32Z"}
