{"icao":"LPBJ","metar":"LPBJ 131500Z 35008KT 310V020 9999 FEW040 28/11 Q1014","updated":"2025-10-13T15:18:21Z"}
