{"icao":"LPFR","metar":"LPFR 241730Z 09011KT CAVOK 26/13 Q1019","updated":"2026-05-24T18:04:29Z"}
