{"icao":"LPPD","metar":"LPPD 232200Z 33006KT 310V010 9999 FEW022 13/08 Q1027","updated":"2026-01-23T22:17:44Z"}
