{"icao":"LPPT","metar":"LPPT 220230Z 35005KT CAVOK 08/02 Q1030","updated":"2025-11-22T03:02:48Z"}
