{"icao":"KLAX","metar":"KLAX 231853Z 25006KT 10SM SCT027 21/13 A3007 RMK AO2 SLP181 T02060133","updated":"2025-10-23T19:14:31Z"}
