{"icao":"LPAZ","metar":"LPAZ 211630Z 27015KT 8000 SCT002 BKN005 17/16 Q1021","updated":"2026-01-21T16:43:05Z"}
