{"icao":"LPPI","metar":"LPPI 261930Z 25014KT 9999 FEW015 21/15 Q1024","updated":"2026-06-27T02:56:35Z"}
