{"icao":"KORD","metar":"KORD 131751Z 21007KT 10SM SCT250 11/M02 A3018 RMK AO2 SLP223 T01061022 10106 20017 58003","updated":"2025-11-13T18:26:57Z"}
