{"icao":"KJFK","metar":"KJFK 282151Z 24013KT 10SM FEW040 BKN150 BKN250 M06/M16 A3004 RMK AO2 SLP172 T10611161 $","updated":"2026-01-28T22:26:05Z"}
