{"icao":"LPAZ","metar":"LPAZ 260100Z 09005KT CAVOK 14/13 Q1027","updated":"2025-11-26T01:24:30Z"}
