{"icao":"KORD","metar":"KORD 080951Z 33006KT 10SM FEW070 11/07 A3028 RMK AO2 SLP255 T01110067 $","updated":"2025-10-08T10:18:29Z"}
