{"icao":"LPPT","metar":"LPPT 230700Z VRB02KT CAVOK 12/09 Q1012","updated":"2026-03-23T07:08:13Z"}
