{"icao":"KORD","metar":"KORD 060851Z 22004KT 10SM FEW037 FEW048 SCT085 06/04 A3011 RMK AO2 SLP198 60003 T00560044 56016 $","updated":"2026-04-06T09:07:22Z"}
