{"icao":"LPPD","metar":"LPPD 110500Z 28020KT 9999 FEW018 18/13 Q1005","updated":"2025-11-11T05:19:05Z"}
