{"icao":"LPAR","metar":"LPAR 191100Z 13005KT 080V170 CAVOK 26/15 Q1015","updated":"2026-06-19T11:20:45Z"}
