{"icao":"KJFK","metar":"KJFK 302251Z 11009KT 9SM BKN008 BKN035 OVC070 17/16 A2948 RMK AO2 SLP983 T01670156","updated":"2025-10-30T23:16:52Z"}
