{"icao":"LPMT","metar":"LPMT 230500Z VRB02KT CAVOK 05/05 Q1027","updated":"2025-11-23T05:17:16Z"}
