{"icao":"LPMT","metar":"LPMT 280100Z 23015KT 8000 -RA FEW012 SCT020 FEW022TCU BKN028 13/11 Q1001","updated":"2026-01-28T01:43:59Z"}
