{"icao":"LPBJ","metar":"LPBJ 191000Z 32007KT 9999 FEW040 11/08 Q1028","updated":"2026-02-19T10:41:20Z"}
