{"icao":"LPMA","metar":"LPMA 151700Z 18003KT 130V230 9999 FEW015 BKN025 17/11 Q1024","updated":"2026-01-15T17:31:21Z"}
