{"icao":"LPPR","metar":"LPPR 270730Z 11006KT CAVOK 25/16 Q1019","updated":"2026-05-27T08:01:53Z"}
