{"icao":"LPOV","metar":"LPOV 172100Z 21008KT 190V250 9999 SCT006 SCT014 BKN035 12/11 Q1023","updated":"2026-02-17T21:34:24Z"}
