{"icao":"LPMA","metar":"LPMA 172000Z 33006KT 260V020 9999 SCT015 16/11 Q1019","updated":"2026-01-17T20:21:06Z"}
