{"icao":"LPBJ","metar":"LPBJ 180812Z VRB02KT 3000 0600S BCFG FEW003 06/06 Q1023","updated":"2025-12-18T08:28:08Z"}
