{"icao":"LPFR","metar":"LPFR 191600Z 15006KT 9999 FEW013 23/19 Q1015","updated":"2025-10-19T16:19:31Z"}
