{"icao":"KLAX","metar":"KLAX 260453Z 26012KT 10SM FEW008 OVC011 17/14 A2991 RMK AO2 SLP128 T01720144","updated":"2026-06-26T05:07:02Z"}
