{"icao":"KJFK","metar":"KJFK 040451Z 25009KT 10SM FEW250 02/M04 A3007 RMK AO2 SLP183 T00221039 400501006","updated":"2025-12-04T05:19:04Z"}
