{"icao":"LPCS","metar":"LPCS 272000Z 23011KT 9999 FEW005 SCT014 18/18 Q1014","updated":"2025-09-27T22:14:32Z"}
