{"icao":"LPMT","metar":"LPMT 311700Z 21009KT 180V240 8000 -RA SCT012 BKN015 OVC030 20/19 Q1012","updated":"2025-10-31T17:16:52Z"}
