{"icao":"LPPR","metar":"LPPR 270230Z 12007KT 8000 FEW002 14/13 Q1017","updated":"2025-09-27T02:52:36Z"}
