{"icao":"LPMA","metar":"LPMA 261630Z 01014KT 320V040 9999 BKN016 16/10 Q1016","updated":"2026-03-26T16:59:40Z"}
