{"icao":"LPPR","metar":"LPPR 070500Z VRB02KT CAVOK 15/12 Q1021","updated":"2025-10-07T05:16:38Z"}
