{"icao":"LPLA","metar":"LPLA 260900Z 03003KT 340V080 9999 BKN024 14/09 Q1030","updated":"2026-03-26T10:00:40Z"}
