{"icao":"LPOV","metar":"LPOV 041700Z 16010KT 130V190 CAVOK 21/13 Q1010","updated":"2025-11-04T17:13:36Z"}
