{"icao":"KJFK","metar":"KJFK 190219Z 13011KT 3/4SM R04R/5500V6000 BR OVC002 09/08 A2996 RMK SFC VIS 2 T00890083 ","updated":"2026-04-19T02:34:39Z"}
