{"icao":"LPAZ","metar":"LPAZ 220130Z 27005KT 230V300 9999 OVC030 14/09 Q1026","updated":"2025-12-22T01:42:45Z"}
