{"icao":"LPFL","metar":"LPFL 281500Z 34008KT 310V020 9999 SCT020 19/12 Q1023","updated":"2025-10-28T15:20:17Z"}
