{"icao":"LPBJ","metar":"LPBJ 092300Z 27012KT 3000 -DZ BR OVC003 15/14 Q1017","updated":"2026-02-09T23:35:02Z"}
