{"icao":"LPFR","metar":"LPFR 130900Z 08004KT 050V120 CAVOK 23/16 Q1015","updated":"2025-10-13T09:21:03Z"}
