{"icao":"LPPS","metar":"LPPS 230330Z 30016KT 7000 RA SCT010 BKN030 16/15 Q1016","updated":"2026-01-23T03:40:59Z"}
