{"icao":"LPMR","metar":"LPMR 030900Z 12007KT 090V150 9999 -RA FEW020 SCT035 13/11 Q0999","updated":"2026-01-03T09:19:01Z"}
