{"icao":"LPPS","metar":"LPPS 011600Z 03012KT 360V070 9999 FEW015 24/16 Q1021","updated":"2025-10-01T16:22:08Z"}
