{"icao":"KORD","metar":"KORD 030651Z 10006KT 10SM BKN180 03/M07 A3021 RMK AO2 SLP235 T00281072 $","updated":"2026-03-03T07:41:14Z"}
