{"icao":"LPPR","metar":"LPPR 052300Z 18008KT 9999 BKN024 16/11 Q1019","updated":"2026-06-05T23:07:03Z"}
