{"icao":"LPOV","metar":"LPOV 031100Z VRB02KT CAVOK 17/13 Q1022","updated":"2025-11-03T11:15:30Z"}
