{"icao":"LPFR","metar":"LPFR 210800Z 22011KT 3000 -RADZ BR SCT004 SCT010 BKN020 13/12 Q1014","updated":"2026-01-21T08:30:16Z"}
