{"icao":"LPAZ","metar":"LPAZ 232030Z 18006KT 2400 BR BKN001 OVC003 18/18 Q1025","updated":"2026-05-23T20:50:18Z"}
