{"icao":"LPAR","metar":"LPAR 211200Z 21011KT 180V240 8000 SCT030 23/13 Q1004","updated":"2026-04-21T13:23:53Z"}
