{"icao":"LPMR","metar":"LPMR 041500Z 15010KT 9999 FEW025 20/14 Q1013","updated":"2025-11-04T15:20:23Z"}
