{"icao":"KORD","metar":"KORD 230551Z 20005KT 10SM FEW055 SCT110 SCT250 22/17 A2986 RMK AO2 LTG DSNT NW SLP106 T02170167 10256 20217 402780189 50009","updated":"2025-09-23T06:27:13Z"}
