{"icao":"LPBJ","metar":"LPBJ 280119Z 24013KT 8000 -RA SCT010 18/17 Q1016","updated":"2025-09-28T01:25:35Z"}
