{"icao":"KORD","metar":"KORD 062251Z 06010KT 10SM FEW060 FEW110 SCT250 27/15 A2986 RMK AO2 SLP107 T02670150 $","updated":"2026-06-06T23:06:24Z"}
