{"icao":"KORD","metar":"KORD 180959Z 20007KT 10SM TS BKN055CB BKN090 OVC150 19/14 A2967 RMK AO2 TSB58 FRQ LTGICCC W-N TS W-N MOV NE T01890144 $","updated":"2025-10-18T10:16:35Z"}
