{"icao":"LPPD","metar":"LPPD 201830Z 03019G31KT 350V060 9999 SCT013 FEW022TCU 15/10 Q1008","updated":"2026-03-20T18:48:35Z"}
