{"icao":"LPOV","metar":"LPOV 201600Z 16009KT 4500 -SHRA FEW012 SCT016 BKN020 12/12 Q1015","updated":"2026-01-20T16:34:30Z"}
