{"icao":"KLAX","metar":"KLAX 160453Z 25006KT 10SM FEW013 16/14 A2995 RMK AO2 SLP140 T01610139","updated":"2026-05-16T05:53:14Z"}
