{"icao":"LPCS","metar":"LPCS 291800Z 25006KT 220V280 9000 -RADZ FEW010 BKN022 15/11 Q1016","updated":"2025-11-29T18:25:26Z"}
