{"icao":"LPBJ","metar":"LPBJ 201100Z 30005KT 250V360 9999 FEW008 22/19 Q1020","updated":"2025-09-20T11:12:38Z"}
