{"icao":"LPHR","metar":"LPHR 161000Z 26006KT 9999 FEW014 BKN035 16/12 Q1021","updated":"2026-03-16T10:05:40Z"}
