{"icao":"KLAX","metar":"KLAX 121053Z VRB04KT 10SM FEW002 14/12 A3000 RMK AO2 SLP157 T01440117 $","updated":"2025-12-12T11:18:26Z"}
