{"icao":"LPPR","metar":"LPPR 052000Z 36004KT 330V030 CAVOK 16/07 Q1019","updated":"2026-04-05T20:32:01Z"}
