{"icao":"LPFR","metar":"LPFR 221300Z 10015KT CAVOK 29/10 Q1019","updated":"2026-05-22T13:30:21Z"}
