{"icao":"KJFK","metar":"KJFK 241651Z 26009KT 10SM SCT042 14/03 A3011 RMK AO2 SLP195 T01390028","updated":"2025-10-24T17:16:35Z"}
