{"icao":"LPCS","metar":"LPCS 050930Z 10005KT 060V130 CAVOK 21/09 Q1021","updated":"2026-04-05T09:37:22Z"}
