{"icao":"LPMT","metar":"LPMT 022000Z 34007KT 300V010 CAVOK 15/08 Q1021","updated":"2026-04-02T20:33:42Z"}
