{"icao":"LPMT","metar":"LPMT 310100Z 19010KT 160V230 9999 SCT020 19/17 Q1013","updated":"2025-10-31T01:22:31Z"}
