{"icao":"LPHR","metar":"LPHR 301500Z 27012KT 6000 SCT002 BKN004 19/18 Q1024","updated":"2026-05-30T15:04:58Z"}
