{"icao":"KORD","metar":"KORD 241251Z 18005KT 10SM BKN250 04/01 A3011 RMK AO2 SLP200 T00390011","updated":"2025-11-24T13:32:40Z"}
