{"icao":"LPMR","metar":"LPMR 022100Z 01006KT 330V040 5000 BR BKN006 17/15 Q1023","updated":"2025-10-02T21:14:36Z"}
