{"icao":"KJFK","metar":"KJFK 041351Z 03011KT 10SM FEW120 SCT170 BKN250 20/13 A3019 RMK AO2 SLP223 T02000128","updated":"2026-04-04T14:32:43Z"}
