{"icao":"KLAX","metar":"KLAX 242053Z 26008KT 10SM FEW010 FEW230 SCT270 19/13 A3011 RMK AO2 SLP196 T01890133 56023","updated":"2025-11-24T21:18:05Z"}
