{"icao":"KJFK","metar":"KJFK 242251Z 04008KT 8SM -DZ BKN008 OVC016 14/13 A3022 RMK AO2 DZE13B48RAB13E48 SLP231 P0005 T01440133 $","updated":"2026-05-24T22:57:16Z"}
