{"icao":"KJFK","metar":"KJFK 111051Z 26011KT 9SM -RA SCT010 BKN070 OVC090 06/04 A2983 RMK AO2 SLP100 P0000 T00560044","updated":"2026-01-11T11:16:59Z"}
