{"icao":"LPBJ","metar":"LPBJ 302000Z 31005KT 270V340 CAVOK 25/12 Q1019","updated":"2025-09-30T20:18:49Z"}
