{"icao":"KLAX","metar":"KLAX 110653Z 26005KT 10SM FEW015 FEW250 14/11 A3019 RMK AO2 SLP221 T01440106 $","updated":"2026-03-11T07:42:12Z"}
