{"icao":"LPLA","metar":"LPLA 210200Z 24006KT 210V280 9999 FEW015 BKN023 24/20 Q1012","updated":"2025-10-21T03:04:29Z"}
