{"icao":"LPPT","metar":"LPPT 280500Z 01003KT CAVOK 08/07 Q1023","updated":"2025-11-28T05:19:15Z"}
