{"icao":"LPMT","metar":"LPMT 191200Z 23009KT 200V260 9999 SCT030 24/17 Q1015","updated":"2025-10-19T12:33:00Z"}
