{"icao":"LPBJ","metar":"LPBJ 160700Z 33006KT CAVOK 12/10 Q1017","updated":"2026-05-16T08:02:24Z"}
