{"icao":"LPPR","metar":"LPPR 281000Z 05013KT 020V080 CAVOK 21/15 Q1012","updated":"2025-09-28T10:15:51Z"}
