{"icao":"LPFL","metar":"LPFL 281100Z 22012G25KT 160V290 9999 -RA FEW010 SCT014 18/15 Q1001 RERA","updated":"2026-01-28T11:21:59Z"}
