{"icao":"KJFK","metar":"KJFK 011351Z 33017G23KT 10SM FEW038 FEW060 SCT250 04/M06 A3030 RMK AO2 PK WND 35026/1339 SLP260 T00441056 $","updated":"2025-12-01T14:20:59Z"}
