{"icao":"LPFR","metar":"LPFR 180500Z 07007KT CAVOK 19/16 Q1015","updated":"2025-10-18T05:15:53Z"}
