{"icao":"LPMA","metar":"LPMA 121800Z 23017G27KT 9999 SCT014 20/14 Q1002","updated":"2025-11-12T18:26:28Z"}
