{"icao":"LPHR","metar":"LPHR 211230Z 28004KT 250V310 9999 FEW016 BKN030 15/09 Q1029","updated":"2025-12-21T12:36:59Z"}
