{"icao":"LPMA","metar":"LPMA 082230Z 35013KT 300V030 9999 BKN015 FEW016TCU 15/10 Q1019","updated":"2026-04-08T22:37:21Z"}
