{"icao":"KJFK","metar":"KJFK 290451Z 05003KT 10SM CLR 01/M10 A3056 RMK AO2 SLP347 T00111100 400720000 $","updated":"2026-03-29T05:09:56Z"}
