{"icao":"LPMR","metar":"LPMR 021300Z 33010KT CAVOK 18/08 Q1022","updated":"2026-04-02T13:10:59Z"}
