{"icao":"LPAR","metar":"LPAR 211200Z 03013KT 360V060 CAVOK 15/03 Q1027","updated":"2025-11-21T12:37:08Z"}
