{"icao":"LPPT","metar":"LPPT 010430Z 32006KT CAVOK 10/08 Q1022","updated":"2026-03-01T04:52:04Z"}
