{"icao":"LPPS","metar":"LPPS 231300Z 02013KT 350V050 9999 SCT012 BKN030 19/16 Q1023","updated":"2026-05-23T13:22:02Z"}
