{"icao":"LPPD","metar":"LPPD 041500Z 29024KT 9999 VCSH FEW025 FEW027TCU BKN030 18/12 Q1005","updated":"2025-11-04T15:20:37Z"}
