{"icao":"KJFK","metar":"KJFK 280951Z 33005KT 10SM FEW250 M05/M08 A3023 RMK AO2 SLP234 T10501078 $","updated":"2025-12-28T10:19:27Z"}
