{"icao":"LPOV","metar":"LPOV 041900Z 18011KT 150V210 CAVOK 22/12 Q1010","updated":"2025-11-04T19:14:53Z"}
