{"icao":"KORD","metar":"KORD 181051Z 23009G16KT 3SM TSRA BKN055CB BKN090 OVC150 18/16 A2971 RMK AO2 RAB39 TSB0958 SLP057 FRQ LTGICCG OHD TS OHD MOV NE P0007 T01830156 $","updated":"2025-10-18T11:13:28Z"}
