{"icao":"KJFK","metar":"KJFK 081951Z 27009G17KT 10SM SCT050 19/05 A2977 RMK AO2 SLP081 T01890050 $","updated":"2025-11-08T20:18:01Z"}
