{"icao":"KLAX","metar":"KLAX 090353Z 00000KT 10SM CLR 19/08 A3009 RMK AO2 SLP187 T01890083 $","updated":"2025-12-09T04:28:10Z"}
