{"icao":"KJFK","metar":"KJFK 311151Z 30005KT 10SM BKN250 14/04 A3008 RMK AO2 SLP184 T01440044 10144 20089 58002 $","updated":"2026-05-31T12:10:50Z"}
