{"icao":"KJFK","metar":"KJFK 061451Z 04006KT 10SM FEW110 BKN180 BKN250 M03/M09 A2975 RMK AO2 SLP075 T10331094 58017 $","updated":"2026-02-06T15:38:38Z"}
