{"icao":"KORD","metar":"KORD 170151Z 29011G23KT 10SM FEW034 BKN042 M06/M12 A2988 RMK AO2 PK WND 30034/0058 SLP128 T10561122 $","updated":"2026-03-17T02:01:50Z"}
