{"icao":"LPPR","metar":"LPPR 300900Z 30004KT 270V020 9000 NSC 24/18 Q1021","updated":"2026-06-30T09:31:51Z"}
