{"icao":"LPFL","metar":"LPFL 201330Z 17014KT 150V220 9999 FEW025 20/09 Q1012","updated":"2026-02-20T14:00:40Z"}
