{"icao":"LPPT","metar":"LPPT 050500Z 34013KT 9999 FEW011 15/13 Q1021","updated":"2025-10-05T05:15:28Z"}
