{"icao":"LPMT","metar":"LPMT 182100Z 34009KT CAVOK 21/14 Q1014 RMK FEW220 BLU","updated":"2026-06-18T22:06:33Z"}
