{"icao":"LPFR","metar":"LPFR 110430Z 25011KT 3800 -DZ BR OVC002 15/15 Q1020","updated":"2026-02-11T05:01:32Z"}
