{"icao":"LPMR","metar":"LPMR 151300Z 33010KT 290V360 9000 FEW009 BKN012 20/16 Q1018","updated":"2026-06-15T13:10:55Z"}
