{"icao":"LPOV","metar":"LPOV 130800Z 36001KT CAVOK 14/12 Q1016","updated":"2025-10-13T08:25:53Z"}
