{"icao":"LPSJ","metar":"LPSJ 111000Z 15004KT 110V200 9999 FEW012 BKN020 19/17 Q1026","updated":"2026-06-11T10:20:35Z"}
