{"icao":"KJFK","metar":"KJFK 012051Z 35010KT 10SM FEW065 BKN250 05/M10 A3030 RMK AO2 SLP260 T00501100 53001 $","updated":"2025-12-01T21:16:06Z"}
