{"icao":"KORD","metar":"KORD 210651Z 29008KT 10SM OVC024 M03/M08 A2997 RMK AO2 SLP155 T10331078 $","updated":"2026-02-21T07:30:51Z"}
