{"icao":"KORD","metar":"KORD 301611Z 34011KT 5SM -SN OVC032 M10/M14 A3037 RMK AO2 P0000 T11001139","updated":"2026-01-30T16:37:49Z"}
