{"icao":"LPFR","metar":"LPFR 111700Z 30015KT CAVOK 22/14 Q1010","updated":"2026-04-11T17:29:48Z"}
