{"icao":"LPPT","metar":"LPPT 121300Z 21008KT 7000 -RA FEW006 14/14 Q1006 RERA","updated":"2025-11-12T13:32:02Z"}
