{"icao":"KLAX","metar":"KLAX 011053Z 05004KT 8SM FEW250 17/13 A2993 RMK AO2 SLP131 T01670128","updated":"2026-03-01T11:20:13Z"}
