{"icao":"LPMA","metar":"LPMA 101000Z 36007KT 330V030 9999 FEW016 SCT070 18/09 Q1026","updated":"2025-12-10T10:22:50Z"}
