{"icao":"LPMA","metar":"LPMA 140900Z 36007KT 300V040 9999 FEW015 18/11 Q1020","updated":"2026-05-14T09:33:08Z"}
