{"icao":"KORD","metar":"KORD 061251Z 21008KT 10SM FEW055 21/15 A3008 RMK AO2 SLP181 T02060150 $","updated":"2025-10-06T13:27:35Z"}
