{"icao":"KLAX","metar":"KLAX 211603Z 05012KT 10SM FEW008 BKN015 BKN027 13/12 A2991 RMK AO2 T01330117 $","updated":"2025-11-21T16:24:09Z"}
