{"icao":"KORD","metar":"KORD 151951Z 21011KT 10SM FEW190 OVC250 M07/M14 A3006 RMK AO2 SLP192 T10721144","updated":"2025-12-15T20:23:05Z"}
