{"icao":"KLAX","metar":"KLAX 070053Z 25008KT 10SM FEW024 FEW110 SCT230 SCT270 18/11 A3009 RMK AO2 SLP188 TCU DSNT NE T01780111 $","updated":"2026-02-07T01:54:55Z"}
