{"icao":"LPPT","metar":"LPPT 282330Z 30005KT 9999 BKN011 15/13 Q1009","updated":"2026-04-28T23:57:51Z"}
