{"icao":"LPPS","metar":"LPPS 060700Z 01016KT 350V050 9999 SCT015 SCT030 15/07 Q1026","updated":"2026-01-06T07:24:47Z"}
