{"icao":"LPCS","metar":"LPCS 241300Z 21005KT 160V270 CAVOK 25/16 Q1020","updated":"2026-05-24T13:22:53Z"}
