{"icao":"KORD","metar":"KORD 161251Z 21007KT 3SM BR BKN003 OVC220 04/04 A2993 RMK AO2 SLP138 VIS SW-N 2 T00440039","updated":"2026-02-16T13:00:57Z"}
