{"icao":"LPMA","metar":"LPMA 241000Z 36010KT 320V030 9999 FEW015 17/07 Q1026","updated":"2026-01-24T10:20:44Z"}
