{"icao":"LPST","metar":"LPST 260900Z 18006KT 150V210 9999 BKN015 SCT040 20/19 Q1019","updated":"2026-06-26T09:22:32Z"}
