{"icao":"KORD","metar":"KORD 291251Z 13008KT 1 1/4SM -SN BR FEW007 OVC016 M04/M06 A3033 RMK AO2 SLP281 P0003 T10391056 $","updated":"2025-11-29T13:25:16Z"}
