{"icao":"LPMT","metar":"LPMT 210400Z 32011KT 270V360 9999 FEW025 11/07 Q1009","updated":"2025-12-21T04:36:07Z"}
