{"icao":"LPAR","metar":"LPAR 251200Z 07006KT 030V110 CAVOK 27/05 Q1017","updated":"2025-09-25T12:37:03Z"}
