{"icao":"LPFR","metar":"LPFR 041500Z 13014KT 9999 SCT012 22/19 Q1017","updated":"2025-11-04T15:20:19Z"}
