{"icao":"KLAX","metar":"KLAX 092153Z 26009KT 6SM HZ FEW003 19/15 A3002 RMK AO2 SLP164 VIS SW-W 2 T01940150 $","updated":"2025-11-09T22:15:58Z"}
