{"icao":"LPBJ","metar":"LPBJ 101000Z 05003KT 010V080 9000 4000N PRFG SCT014 BKN022 14/12 Q1021","updated":"2025-11-10T10:21:44Z"}
