{"icao":"LPMA","metar":"LPMA 201300Z 03011KT 360V070 9999 SCT015 22/14 Q1021","updated":"2025-11-20T13:29:16Z"}
