{"icao":"LPBJ","metar":"LPBJ 271700Z 01006KT CAVOK 15/02 Q1022","updated":"2025-11-27T17:15:29Z"}
