{"icao":"LPMA","metar":"LPMA 181600Z 21004KT 170V240 9999 SCT016 BKN030 20/12 Q1022","updated":"2025-12-18T16:28:46Z"}
