{"icao":"KJFK","metar":"KJFK 241251Z 09014G22KT 3SM -RA BR OVC009 12/11 A3037 RMK AO2 SLP284 P0001 T01220111 $","updated":"2026-05-24T13:23:26Z"}
