{"icao":"KORD","metar":"KORD 202151Z 22009KT 10SM BKN250 M07/M18 A3025 RMK AO2 SLP258 T10671178 $","updated":"2026-01-20T22:21:45Z"}
