{"icao":"KLAX","metar":"KLAX 111853Z 24012KT 10SM CLR 22/15 A2981 RMK AO2 SLP095 T02170150 $","updated":"2025-10-11T19:12:42Z"}
