{"icao":"LPFL","metar":"LPFL 231500Z VRB05KT 9999 SCT026 SCT038 15/06 Q1026","updated":"2026-01-23T15:24:34Z"}
