{"icao":"LPOV","metar":"LPOV 221900Z 20010KT 170V240 9999 BKN006 20/19 Q1016","updated":"2025-10-22T19:13:43Z"}
