{"icao":"LPPD","metar":"LPPD 300900Z 08008KT 040V100 9999 FEW018 SCT030 14/09 Q1033","updated":"2026-03-30T09:10:22Z"}
