{"icao":"KORD","metar":"KORD 140751Z 17005KT 10SM CLR 07/M02 A3004 RMK AO2 SLP173 T00721017","updated":"2025-11-14T08:24:53Z"}
