{"icao":"LPPT","metar":"LPPT 211700Z 27008KT 250V310 9000 -DZRA SCT010 BKN028 21/19 Q1015","updated":"2025-10-21T17:16:30Z"}
