{"icao":"LPFR","metar":"LPFR 032000Z 20013KT 7000 -DZRA SCT005 BKN028 13/12 Q1003","updated":"2026-02-03T20:34:26Z"}
