{"icao":"LPOV","metar":"LPOV 041100Z 31006KT 250V020 9999 BKN020 20/16 Q1025","updated":"2025-10-04T11:12:37Z"}
