{"icao":"LPPT","metar":"LPPT 151330Z 21017KT 8000 -RA SCT012 BKN016 13/11 Q1016","updated":"2026-01-15T13:38:29Z"}
