{"icao":"KORD","metar":"KORD 031751Z 20008KT 10SM FEW060 FEW075 31/15 A3017 RMK AO2 SLP212 T03060150 10306 20178 58012 $","updated":"2025-10-03T18:24:22Z"}
