{"icao":"KJFK","metar":"KJFK 151151Z 04009KT 6SM BR FEW011 FEW110 BKN250 19/18 A3020 RMK AO2 SLP228 T01940178 10194 20172 53018 $","updated":"2025-09-15T12:36:21Z"}
