{"icao":"LPOV","metar":"LPOV 031500Z 23005KT 210V270 9999 FEW014 FEW020CB 12/07 Q0999","updated":"2026-02-03T15:48:58Z"}
