{"icao":"LPLA","metar":"LPLA 092200Z 17014KT 9999 SCT012 BKN018 OVC045 21/20 Q1021","updated":"2025-10-09T22:15:38Z"}
