{"icao":"LPPT","metar":"LPPT 060300Z 23004KT 9999 BKN042 15/15 Q1023","updated":"2025-12-06T03:08:22Z"}
