{"icao":"LPBJ","metar":"LPBJ 201900Z 32009KT CAVOK 24/13 Q1018","updated":"2025-09-20T19:11:22Z"}
