{"icao":"LPFL","metar":"LPFL 190900Z 15007KT 9999 VCFG FEW001 BKN012 23/21 Q1014","updated":"2025-10-19T09:16:17Z"}
