{"icao":"LPLA","metar":"LPLA 160600Z 33004KT 9999 FE0W35 11/09 Q1022","updated":"2025-11-16T06:26:30Z"}
