{"icao":"LPOV","metar":"LPOV 092100Z 15005KT 6000 BKN005 BKN012 14/14 Q1018","updated":"2025-12-10T05:20:14Z"}
