{"icao":"LPMT","metar":"LPMT 110700Z 23011KT 2000 -DZ BR OVC002 15/15 Q1016 RERADZ","updated":"2026-02-11T07:58:32Z"}
