{"icao":"LPFR","metar":"LPFR 032300Z 24023KT 6000 -RA BKN004 BKN008 16/15 Q0999","updated":"2026-02-03T23:26:42Z"}
