{"icao":"LPFR","metar":"LPFR 010900Z 06010KT 040V100 9999 FEW008 SCT012 BKN040 13/12 Q1014","updated":"2026-01-01T09:23:50Z"}
