{"icao":"LPHR","metar":"LPHR 262000Z 05017KT 8000 -SHRA SCT015 FEW018TCU BKN035 18/13 Q1022","updated":"2025-10-26T20:19:19Z"}
