{"icao":"LPFR","metar":"LPFR 221500Z 09010KT CAVOK 20/03 Q1026","updated":"2026-02-22T15:23:30Z"}
