{"icao":"LPLA","metar":"LPLA 131400Z 04005KT 340V090 9999 SCT025 24/17 Q1025","updated":"2025-09-13T14:12:55Z"}
