{"icao":"LPFL","metar":"LPFL 131230Z 19006KT 150V280 9999 FEW020 FEW024CB SCT035 19/14 Q1014","updated":"2025-10-13T12:37:22Z"}
