{"icao":"LPMA","metar":"LPMA 250100Z 32004KT 270V360 9999 FEW015 20/14 Q1021","updated":"2025-09-25T01:18:53Z"}
