{"icao":"KJFK","metar":"KJFK 110651Z 19008KT 10SM BKN110 BKN160 OVC250 10/06 A3008 RMK AO2 SLP187 T01000061","updated":"2026-04-11T07:13:08Z"}
