{"icao":"LPPS","metar":"LPPS 221700Z 33011KT 9999 FEW015 18/10 Q1023","updated":"2025-12-22T17:17:51Z"}
