{"icao":"LPPT","metar":"LPPT 032200Z 23002KT CAVOK 13/11 Q1021","updated":"2025-11-03T22:17:43Z"}
