{"icao":"KORD","metar":"KORD 291751Z VRB06KT 10SM BKN300 27/09 A3002 RMK AO2 SLP163 T02670089 10267 20128 58022","updated":"2026-05-29T18:30:44Z"}
