{"icao":"LPPT","metar":"LPPT 200600Z 33007KT CAVOK 11/08 Q1019","updated":"2025-11-20T06:27:25Z"}
