{"icao":"LPAZ","metar":"LPAZ 192100Z 03014KT 7000 -SHRA FEW005 SCT008 FEW020TCU BKN034 11/10 Q0997 RESHRA","updated":"2026-03-19T21:33:55Z"}
