{"icao":"LPMA","metar":"LPMA 101430Z 04010KT 360V080 9999 SCT016 19/09 Q1016","updated":"2026-05-10T14:51:17Z"}
