{"icao":"LPMT","metar":"LPMT 111400Z 34017KT 310V010 9999 SCT022 17/10 Q1015","updated":"2026-04-11T14:35:58Z"}
