{"icao":"LPPR","metar":"LPPR 051100Z 22014G24KT 190V250 8000 VCSH FEW018CB BKN020 BKN040 14/11 Q0988","updated":"2026-02-05T11:33:51Z"}
