{"icao":"LPPS","metar":"LPPS 010100Z 03011KT 010V080 9999 SCT015 SCT030 21/16 Q1021","updated":"2025-10-01T01:27:02Z"}
