{"icao":"LPMA","metar":"LPMA 101630Z 36013G23KT 270V040 9999 SCT015 17/08 Q1027","updated":"2026-03-10T17:00:46Z"}
