{"icao":"KORD","metar":"KORD 130751Z 13005KT 10SM FEW180 BKN250 13/09 A2997 RMK AO2 SLP148 T01330089 $","updated":"2025-10-13T08:26:24Z"}
