{"icao":"LPCS","metar":"LPCS 270800Z 04005KT 010V070 CAVOK 18/14 Q1014","updated":"2026-04-27T08:22:20Z"}
