{"icao":"LPPD","metar":"LPPD 061030Z 26025KT 9000 -SHRA SCT014 BKN035 14/10 Q1014","updated":"2026-02-06T10:37:39Z"}
