{"icao":"KORD","metar":"KORD 151251Z 07006KT 10SM CLR 20/16 A3018 RMK AO2 SLP215 T02000156 $","updated":"2025-09-15T13:26:26Z"}
