{"icao":"KORD","metar":"KORD 171851Z 13006KT 10SM BKN130 OVC250 12/04 A2985 RMK AO2 SLP109 T01220044 $","updated":"2026-02-17T19:47:32Z"}
