{"icao":"LPLA","metar":"LPLA 110600Z 22003KT 160V290 9999 FEW015 SCT025 BKN035 14/12 Q1032","updated":"2026-03-11T06:52:31Z"}
