{"icao":"LPPR","metar":"LPPR 150900Z 12006KT 100V160 CAVOK 20/13 Q1017","updated":"2025-10-15T09:19:22Z"}
