{"icao":"LPMA","metar":"LPMA 242200Z 02010KT 340V050 9999 FEW015 18/12 Q1025","updated":"2025-11-24T22:17:59Z"}
