{"icao":"LPFL","metar":"LPFL 232000Z 19008KT 160V270 9999 SCT016 19/15 Q1025","updated":"2025-11-23T20:20:06Z"}
