{"icao":"LPFR","metar":"LPFR 060500Z 07013KT CAVOK 17/06 Q1017","updated":"2026-04-06T05:22:23Z"}
