{"icao":"LPBJ","metar":"LPBJ 242300Z 30010KT 9999 SCT007 BKN017 15/15 Q1018","updated":"2025-11-24T23:17:11Z"}
