{"icao":"LPLA","metar":"LPLA 100800Z 18029G45KT 7000 -RA FEW018 BKN030 16/13 Q1015","updated":"2025-12-10T08:27:23Z"}
