{"icao":"LPPR","metar":"LPPR 160400Z 08002KT 0800 R17/0700 PRFG BKN001 14/14 Q1015","updated":"2025-10-16T04:20:34Z"}
