{"icao":"KORD","metar":"KORD 022051Z 17007KT 10SM FEW070 BKN300 28/12 A3018 RMK AO2 SLP218 T02830122 56014","updated":"2025-10-02T21:15:09Z"}
