{"icao":"LPPR","metar":"LPPR 081230Z 20010KT 9999 SCT033 BKN040 13/08 Q1013","updated":"2026-02-08T12:47:21Z"}
