{"icao":"KORD","metar":"KORD 221851Z 25021G30KT 10SM FEW039 M05/M14 A3015 RMK AO2 PK WND 26036/1815 SLP220 T10501144 $","updated":"2026-01-22T19:23:54Z"}
