{"icao":"LPAZ","metar":"LPAZ 070130Z 27022KT 8000 FEW008 FEW025TCU 15/14 Q1012 RESHRA","updated":"2026-02-07T01:54:39Z"}
