{"icao":"LPLA","metar":"LPLA 022100Z 24003KT 200V280 9999 BKN030 18/13 Q1019","updated":"2025-11-02T21:14:30Z"}
