{"icao":"LPMR","metar":"LPMR 180200Z VRB01KT 0600 FG SCT001 BKN003 02/02 Q1010","updated":"2026-01-18T03:44:39Z"}
