{"icao":"LPMA","metar":"LPMA 160400Z 33004KT 9999 SCT015 20/17 Q1015","updated":"2025-10-16T04:20:51Z"}
