{"icao":"KORD","metar":"KORD 130651Z 21010KT 10SM SCT200 OVC250 02/M02 A2990 RMK AO2 SLP130 T00171022 $","updated":"2026-01-13T07:24:10Z"}
