{"icao":"KJFK","metar":"KJFK 120315Z 28017G23KT 10SM -SN FEW041 BKN050 OVC065 M01/M08 A2984 RMK AO2 SNB14 P0000 T10111083 $","updated":"2025-12-12T03:22:32Z"}
