{"icao":"LPAZ","metar":"LPAZ 182200Z 36008KT 9999 FEW032 SCT040 13/06 Q1029","updated":"2025-12-18T22:18:51Z"}
