{"icao":"LPPR","metar":"LPPR 162100Z 26004KT 220V310 3000 -DZ BR BKN002 14/13 Q1028","updated":"2026-02-16T21:27:42Z"}
