{"icao":"LPCS","metar":"LPCS 241400Z 22007KT 190V250 CAVOK 26/06 Q1016","updated":"2025-09-24T14:15:48Z"}
