{"icao":"KJFK","metar":"KJFK 212051Z 17011KT 10SM FEW060 SCT130 SCT250 08/M06 A3028 RMK SLP252 FU PLUME NW DRFTG N T00831056 56019 ","updated":"2026-04-21T21:44:30Z"}
