{"icao":"KJFK","metar":"KJFK 090351Z 29011KT 10SM BKN250 16/02 A2994 RMK AO2 SLP137 T01560017 $","updated":"2026-03-09T04:50:06Z"}
