{"icao":"LPPR","metar":"LPPR 190500Z 13003KT 100V160 9000 NSC 17/15 Q1018","updated":"2025-09-19T05:16:12Z"}
