{"icao":"LPMA","metar":"LPMA 062300Z 02010KT 340V070 9999 SCT015 20/16 Q1023","updated":"2026-06-06T23:05:54Z"}
