{"icao":"LPCS","metar":"LPCS 111300Z 23013KT 1500 -DZ BR VV002 15/15 Q1017","updated":"2026-02-11T13:07:15Z"}
