{"icao":"LPLA","metar":"LPLA 022100Z 12005KT 9999 FEW018 OVC023 14/10 Q1029","updated":"2026-04-02T21:36:18Z"}
