{"icao":"KJFK","metar":"KJFK 172151Z 30017G28KT 10SM BKN070 BKN250 04/M13 A2995 RMK AO2 PK WND 27029/2128 SLP142 T00391128","updated":"2026-03-17T22:32:01Z"}
