{"icao":"LPBJ","metar":"LPBJ 090900Z VRB01KT CAVOK 11/09 Q1023","updated":"2025-11-09T09:16:18Z"}
