{"icao":"LPFR","metar":"LPFR 120430Z 27008KT 6000 BKN002 15/14 Q1021","updated":"2026-02-12T04:56:33Z"}
