{"icao":"LPFR","metar":"LPFR 131530Z 20007KT 170V230 9999 FEW040 18/13 Q1019","updated":"2026-03-13T15:40:50Z"}
