{"icao":"LPPD","metar":"LPPD 162000Z 30006KT 280V340 9999 FEW020 SCT035 15/10 Q1033","updated":"2026-01-16T20:20:47Z"}
