{"icao":"LPMT","metar":"LPMT 141700Z 30009KT 7000 SCT009 BKN013 BKN018 15/13 Q1016","updated":"2026-03-14T17:25:30Z"}
