{"icao":"LPFR","metar":"LPFR 120930Z 27007KT 7000 SCT004 SCT014 15/15 Q1023","updated":"2026-02-12T09:48:40Z"}
