{"icao":"LPHR","metar":"LPHR 041030Z 26031G43KT 3000 +SHRA SCT010 FEW020CB BKN030 14/13 Q0995","updated":"2026-02-04T10:36:51Z"}
