{"icao":"LPHR","metar":"LPHR 121100Z 31022G33KT 9999 FEW020 SCT038 15/08 Q1016","updated":"2026-01-12T11:19:47Z"}
