{"icao":"LPBJ","metar":"LPBJ 241900Z 12004KT 100V160 CAVOK 16/10 Q1016","updated":"2026-02-24T19:51:47Z"}
