{"icao":"LPPT","metar":"LPPT 130600Z VRB02KT CAVOK 17/12 Q1015","updated":"2025-10-13T06:28:26Z"}
