{"icao":"KORD","metar":"KORD 262151Z 08013KT 10SM FEW250 13/04 A3030 RMK AO2 SLP263 T01330044 $","updated":"2025-10-26T22:16:38Z"}
