{"icao":"LPPT","metar":"LPPT 051000Z 35016KT 9999 FEW030 08/M02 Q1014","updated":"2026-01-05T10:23:37Z"}
