{"icao":"LPPT","metar":"LPPT 011100Z 07008KT 9999 -RA BKN008 08/08 Q1013","updated":"2026-01-01T11:17:18Z"}
