{"icao":"LPMT","metar":"LPMT 311100Z 28007KT 250V310 9999 FEW025 15/08 Q1020","updated":"2026-01-31T11:19:46Z"}
