{"icao":"LPPS","metar":"LPPS 091600Z 36017KT 7000 SCT006 BKN030 17/17 Q1019","updated":"2025-12-09T16:26:50Z"}
