{"icao":"LPPR","metar":"LPPR 101300Z 17005KT 150V220 9999 SCT012 BKN039 12/08 Q1029","updated":"2026-01-10T13:28:05Z"}
