{"icao":"LPFR","metar":"LPFR 161700Z 31022KT 280V340 9999 FEW030 SCT042 15/06 Q1010","updated":"2025-12-16T17:22:18Z"}
