{"icao":"KORD","metar":"KORD 141351Z 33005KT 10SM FEW300 14/02 A3014 RMK AO2 SLP208 T01390022 $","updated":"2026-05-14T14:08:06Z"}
