{"icao":"LPMA","metar":"LPMA 110500Z 35004KT 310V020 9999 SCT015 BKN030 21/14 Q1020","updated":"2025-10-11T05:16:01Z"}
