{"icao":"LPCR","metar":"LPCR 121530Z 23012G23KT 200V260 9999 -RA SCT007 BKN016 19/18 Q1017","updated":"2026-06-12T23:15:09Z"}
