{"icao":"LPSJ","metar":"LPSJ 171130Z 28011KT 240V310 9999 FEW010 22/19 Q1016","updated":"2026-06-17T11:45:51Z"}
