{"icao":"LPMA","metar":"LPMA 101930Z 01013KT 330V030 9999 BKN015 15/09 Q1027","updated":"2026-03-10T19:37:19Z"}
