{"icao":"KORD","metar":"KORD 170951Z 33005KT 10SM CLR 17/15 A3010 RMK AO2 SLP189 T01670150 $","updated":"2025-09-17T10:18:39Z"}
