{"icao":"KJFK","metar":"KJFK 071051Z 31025G33KT 9SM -SN FEW018 BKN045 OVC095 M03/M12 A2955 RMK AO2 PK WND 33034/1024 SLP006 P0000 T10331122 $","updated":"2026-02-07T11:20:31Z"}
