{"icao":"LPFR","metar":"LPFR 030700Z 17014KT 9000 -SHRA SCT016 BKN025 16/14 Q0998","updated":"2026-01-03T07:17:55Z"}
