{"icao":"LPMT","metar":"LPMT 021100Z 24009KT 200V260 9999 FEW020 BKN030 19/13 Q1017","updated":"2026-05-02T11:43:06Z"}
