{"icao":"KLAX","metar":"KLAX 112253Z 26010KT 10SM FEW050 BKN250 17/11 A3011 RMK AO2 SLP195 T01670106","updated":"2026-02-11T23:31:17Z"}
