{"icao":"KLAX","metar":"KLAX 090653Z 00000KT 10SM FEW010 SCT250 18/15 A2993 RMK AO2 SLP132 T01780150 $","updated":"2026-04-09T07:20:40Z"}
