{"icao":"LPAZ","metar":"LPAZ 311100Z 23016KT 5000 BR SCT006 BKN012 17/17 Q1019","updated":"2026-01-31T11:20:01Z"}
