{"icao":"LPBJ","metar":"LPBJ 021400Z 36010KT 340V040 CAVOK 20/08 Q1024","updated":"2025-11-02T14:14:41Z"}
