{"icao":"KJFK","metar":"KJFK 120751Z 31018G25KT 10SM OVC065 01/M08 A2988 RMK AO2 PK WND 30033/0716 SLP117 T00111078 $","updated":"2026-02-12T08:44:29Z"}
