{"icao":"LPMA","metar":"LPMA 260500Z 31004KT 9999 SCT015 20/17 Q1020","updated":"2026-06-26T05:07:02Z"}
