{"icao":"LPGR","metar":"LPGR 271630Z 02011KT 9999 FEW015 BKN030 21/15 Q1026","updated":"2026-06-27T23:00:12Z"}
