{"icao":"LPPR","metar":"LPPR 231500Z 32005KT 9000 -RA BKN025 BKN035 16/12 Q1020","updated":"2025-10-23T15:19:07Z"}
