{"icao":"LPOV","metar":"LPOV 130600Z 12007KT 8000 -TSRA FEW016 SCT022CB BKN035 15/14 Q1000","updated":"2025-11-13T06:28:46Z"}
