{"icao":"KORD","metar":"KORD 220451Z 27012G26KT 10SM BKN034 OVC060 09/02 A2973 RMK AO2 PK WND 26026/0447 SLP069 T00890022","updated":"2025-10-22T05:18:00Z"}
