{"icao":"KORD","metar":"KORD 192023Z 08008KT 10SM BKN023 BKN250 12/01 A2956 RMK AO2 T01170011 $","updated":"2026-02-19T20:31:12Z"}
