{"icao":"LPOV","metar":"LPOV 061100Z 25004KT CAVOK 25/11 Q1020","updated":"2025-10-06T11:14:45Z"}
