{"icao":"LPMA","metar":"LPMA 021300Z 17006KT 110V220 9999 SCT015 SCT030 21/14 Q1020","updated":"2026-05-02T13:08:08Z"}
