{"icao":"LPPD","metar":"LPPD 131100Z 07004KT 020V120 9999 FEW020 BKN035 21/16 Q1017","updated":"2025-10-13T11:15:26Z"}
