{"icao":"LPBJ","metar":"LPBJ 052100Z 27006KT 9999 SCT030 14/11 Q1015","updated":"2025-11-05T21:17:19Z"}
