{"icao":"LPAR","metar":"LPAR 240900Z 05011KT CAVOK 15/05 Q1020","updated":"2026-03-24T09:54:35Z"}
