{"icao":"LPFL","metar":"LPFL 301630Z VRB06KT 9999 VCFG FEW005 BKN016 22/19 Q1021","updated":"2026-05-30T17:02:18Z"}
