{"icao":"KJFK","metar":"KJFK 151351Z 30010KT 10SM SCT055 BKN110 16/07 A2986 RMK AO2 SLP113 T01610067","updated":"2026-05-15T14:03:58Z"}
