{"icao":"LPHR","metar":"LPHR 121630Z 25011KT 9999 SCT014 BKN020 17/14 Q1030","updated":"2026-03-12T17:02:40Z"}
