{"icao":"LPCS","metar":"LPCS 161230Z 30006KT 260V320 9999 FEW014 12/10 Q1014","updated":"2026-01-16T12:42:09Z"}
