{"icao":"LPPD","metar":"LPPD 271830Z 05013KT 010V080 9999 FEW022 BKN030 15/10 Q1029","updated":"2026-03-27T18:54:13Z"}
