{"icao":"LPMR","metar":"LPMR 260900Z VRB04KT 3000 BR BKN002 13/13 Q1019","updated":"2025-10-26T09:16:04Z"}
