{"icao":"KJFK","metar":"KJFK 090451Z 33019KT 10SM CLR M11/M19 A3025 RMK AO2 PK WND 32026/0418 SLP243 T11111194 410781161 $","updated":"2026-02-09T04:58:35Z"}
