{"icao":"KJFK","metar":"KJFK 201651Z 30015G24KT 10SM SCT065 SCT120 SCT250 27/09 A2976 RMK AO2 PK WND 29029/1556 SLP077 T02720094 $","updated":"2026-06-20T17:25:12Z"}
