{"icao":"LPMR","metar":"LPMR 131400Z 03009KT 360V060 CAVOK 16/11 Q1021","updated":"2025-12-13T14:16:49Z"}
