{"icao":"KJFK","metar":"KJFK 060051Z 21007KT 10SM OVC036 02/M02 A3007 RMK AO2 SLP181 T00221017 $","updated":"2026-01-06T01:40:50Z"}
