{"icao":"KORD","metar":"KORD 231251Z 24007KT 10SM BKN250 03/00 A3000 RMK AO2 SLP162 T00280000 $","updated":"2025-12-23T13:35:09Z"}
