{"icao":"LPMA","metar":"LPMA 011900Z 01010KT 9999 SCT015 22/16 Q1021","updated":"2025-10-01T19:14:15Z"}
