{"icao":"LPMR","metar":"LPMR 111700Z 34029G41KT 9999 SCT025 14/06 Q1016","updated":"2026-04-11T22:30:44Z"}
