{"icao":"LPOV","metar":"LPOV 240400Z 35002KT 330V030 9999 -RA BKN025 15/13 Q1016","updated":"2025-10-24T04:21:04Z"}
