{"icao":"LPPR","metar":"LPPR 100700Z 14007KT 110V170 9999 SCT007 BKN012 14/13 Q1017","updated":"2025-11-10T07:18:16Z"}
