{"icao":"KORD","metar":"KORD 242051Z 20017G28KT 10SM SCT120 OVC250 02/M09 A2953 RMK AO2 PK WND 18028/2048 SLP007 VIRGA T00171094 56045","updated":"2026-02-24T21:33:50Z"}
