{"icao":"LPPT","metar":"LPPT 031830Z 31009KT CAVOK 22/08 Q1022","updated":"2026-04-03T18:44:38Z"}
