{"icao":"LPPD","metar":"LPPD 210630Z 01016KT 340V050 9999 SCT017 BKN040 14/11 Q1011","updated":"2026-03-21T06:40:58Z"}
