{"icao":"LPLA","metar":"LPLA 190900Z 34028G39KT 9000 -SHRA SCT012 BKN018 FEW025CB 13/11 Q1006","updated":"2026-03-19T09:41:35Z"}
