{"icao":"LPPT","metar":"LPPT 011800Z 12008KT 100V190 9999 BKN006 13/13 Q1007","updated":"2026-01-01T18:28:42Z"}
