{"icao":"LPMA","metar":"LPMA 102230Z 36003KT 270V050 9999 SCT013 18/15 Q1025","updated":"2026-02-10T22:38:14Z"}
