{"icao":"LPPS","metar":"LPPS 090500Z 35006KT 330V030 9999 SCT014 BKN030 14/11 Q1033","updated":"2026-01-09T05:24:20Z"}
