{"icao":"LPPD","metar":"LPPD 232030Z 02009KT 350V050 9999 FEW020 13/09 Q1024","updated":"2026-03-23T20:36:30Z"}
