{"icao":"LPMT","metar":"LPMT 040100Z 19004KT 160V220 9999 SCT036 13/11 Q1023","updated":"2025-12-04T01:26:30Z"}
