{"icao":"LPHR","metar":"LPHR 262100Z 02005KT 330V050 9999 FEW015 BKN025 15/09 Q1030","updated":"2026-03-26T21:30:18Z"}
