{"icao":"LPMT","metar":"LPMT 040400Z 34006KT CAVOK 16/15 Q1022","updated":"2025-10-04T04:19:39Z"}
