{"icao":"KJFK","metar":"KJFK 221951Z 27019G29KT 10SM SCT070 17/01 A2974 RMK AO2 PK WND 28030/1901 SLP070 T01720011","updated":"2025-10-22T20:21:47Z"}
