{"icao":"LPMR","metar":"LPMR 260700Z 23011KT 190V260 3000 -RADZ BR BKN005 BKN014 14/14 Q1011","updated":"2026-01-26T07:26:49Z"}
