{"icao":"LPST","metar":"LPST 121200Z 19013KT 9999 BKN026 14/09 Q1019","updated":"2026-01-12T12:44:36Z"}
