{"icao":"LPCS","metar":"LPCS 092130Z 01010KT CAVOK 18/14 Q1020","updated":"2025-10-09T22:15:36Z"}
