{"icao":"KORD","metar":"KORD 250512Z 35005KT 2 1/2SM -SN OVC023 M15/M18 A3036 RMK AO2 P0001 T11501178","updated":"2026-01-25T05:27:25Z"}
