{"icao":"LPPR","metar":"LPPR 081630Z 26004KT 230V300 9000 VCSH FEW015 SCT048 15/11 Q1019","updated":"2026-04-08T17:00:31Z"}
