{"icao":"LPPT","metar":"LPPT 231700Z 25006KT 210V290 9999 FEW018 SCT022 BKN030 14/12 Q1025","updated":"2025-11-23T17:14:43Z"}
