{"icao":"LPMT","metar":"LPMT 070300Z 34005KT 310V010 CAVOK 16/13 Q1019","updated":"2026-06-07T03:45:49Z"}
