{"icao":"LPOV","metar":"LPOV 052300Z 35021KT 9999 FEW020 10/05 Q1019","updated":"2026-03-05T23:50:07Z"}
