{"icao":"LPFL","metar":"LPFL 172100Z 33009KT 270V040 9999 SCT020 16/10 Q1018","updated":"2025-12-18T01:25:26Z"}
