{"icao":"LPFL","metar":"LPFL 191500Z 01010KT 340V040 9999 VCSH FEW022 BKN027 21/13 Q1026","updated":"2025-09-19T15:17:27Z"}
