{"icao":"LPMA","metar":"LPMA 110200Z 32004KT 280V340 9999 SCT015 17/12 Q1025","updated":"2026-02-11T02:11:56Z"}
