{"icao":"LPLA","metar":"LPLA 172008Z 33020KT 6000 -SHRA BKN020 FEW025TCU 08/04 Q1016","updated":"2026-03-17T20:37:30Z"}
