{"icao":"LPPD","metar":"LPPD 141500Z 24011KT 9000 BKN006 BKN012 18/17 Q1021","updated":"2025-12-14T15:17:23Z"}
