{"icao":"LPPD","metar":"LPPD 311600Z 24007KT 0300 R30/0375 FG VV001 19/18 Q1026","updated":"2026-05-31T16:06:18Z"}
