{"icao":"KJFK","metar":"KJFK 301751Z 31014G24KT 10SM FEW050 FEW250 M09/M20 A3015 RMK AO2 SLP210 4/007 933012 T10941200 11094 21128 58019 $","updated":"2026-01-30T18:40:21Z"}
