{"icao":"LPMA","metar":"LPMA 012100Z 28003KT 210V020 9999 SCT013 FEW018TCU 16/13 Q1002","updated":"2026-01-01T21:18:39Z"}
