{"icao":"LPFR","metar":"LPFR 011100Z 07008KT 040V120 9999 FEW012 SCT020 BKN040 16/13 Q1014","updated":"2026-01-01T11:17:18Z"}
