{"icao":"LPFL","metar":"LPFL 041400Z 33017G30KT 290V010 9999 SCT021 16/06 Q1009","updated":"2025-11-04T14:19:18Z"}
