{"icao":"LPCS","metar":"LPCS 100830Z 36011KT 8000 RA FEW011 SCT015 BKN023 10/08 Q1022","updated":"2026-03-10T08:40:13Z"}
