{"icao":"LPMR","metar":"LPMR 171300Z 29008KT 250V320 CAVOK 25/13 Q1014","updated":"2025-10-17T13:26:42Z"}
