{"icao":"LPMT","metar":"LPMT 241500Z 25008KT 220V280 9999 FEW020 17/12 Q1015","updated":"2026-02-24T15:57:11Z"}
