{"icao":"LPFL","metar":"LPFL 191300Z 22010G20KT 170V290 9999 FEW003 25/21 Q1014","updated":"2025-10-19T13:21:42Z"}
