{"icao":"KORD","metar":"KORD 040424Z 08011KT 10SM -RA BKN023 BKN048 OVC110 05/03 A3001 RMK AO2 FRQ LTGIC DSNT SE-S CB DSNT SE-S MOV NE P0000 T00500028","updated":"2026-04-04T04:49:03Z"}
