{"icao":"KORD","metar":"KORD 221151Z 28010G22KT 10SM OVC026 08/02 A2976 RMK AO2 SLP079 70002 T00780022 10083 20078 51007","updated":"2025-10-22T12:39:16Z"}
