{"icao":"KORD","metar":"KORD 221851Z 21009KT 10SM BKN100 08/00 A3003 RMK AO2 SLP174 T00780000","updated":"2025-11-22T19:13:59Z"}
