{"icao":"LPBJ","metar":"LPBJ 060100Z 24007KT 0500 FG VV002 14/14 Q1024","updated":"2025-12-06T01:22:27Z"}
