{"icao":"LPMR","metar":"LPMR 082000Z 24005KT 210V270 9999 SCT008 BKN025 12/12 Q1029","updated":"2026-01-08T20:23:51Z"}
