{"icao":"LPCS","metar":"LPCS 051230Z 16006KT 130V190 CAVOK 24/11 Q1021","updated":"2026-04-05T12:55:14Z"}
