{"icao":"LPPR","metar":"LPPR 290600Z 09005KT CAVOK 07/05 Q1018","updated":"2025-12-29T06:33:17Z"}
