{"icao":"KJFK","metar":"KJFK 240251Z 21009KT 10SM FEW048 BKN065 BKN250 22/19 A3000 RMK AO2 SLP158 T02220194 53008 $","updated":"2025-09-24T02:57:47Z"}
