{"icao":"LPOV","metar":"LPOV 040800Z 19005KT 160V220 9999 SCT030 17/10 Q1014","updated":"2025-11-04T08:26:19Z"}
