{"icao":"KORD","metar":"KORD 191251Z 16003KT 9SM FEW060 FEW110 SCT250 03/M01 A3005 RMK AO2 SLP183 T00281011 $","updated":"2026-03-19T13:02:30Z"}
