{"icao":"LPAZ","metar":"LPAZ 210900Z 29019KT 2600 BR SCT003 BKN010 16/16 Q1022","updated":"2026-01-21T09:31:03Z"}
