{"icao":"LPPR","metar":"LPPR 120700Z 11009KT CAVOK 19/09 Q1018","updated":"2025-10-12T07:15:22Z"}
