{"icao":"LPFR","metar":"LPFR 132030Z 28011KT CAVOK 18/13 Q1017","updated":"2026-05-13T20:44:05Z"}
