{"icao":"LPPR","metar":"LPPR 041000Z 00000KT 9999 BKN014 19/16 Q1025","updated":"2025-10-04T10:15:43Z"}
