{"icao":"LPBJ","metar":"LPBJ 301100Z 33016KT 9999 SCT035 12/06 Q1017","updated":"2025-11-30T11:14:12Z"}
