{"icao":"LPBJ","metar":"LPBJ 131700Z 15011KT 9999 SCT010 BKN014 15/15 Q1000 RERA","updated":"2025-11-13T17:17:42Z"}
