{"icao":"KORD","metar":"KORD 261051Z 09004KT 10SM FEW070 08/02 A3035 RMK AO2 SLP278 T00830022 $","updated":"2025-10-26T11:13:31Z"}
