{"icao":"KJFK","metar":"KJFK 150651Z 06004KT 8SM SCT250 M01/M03 A3006 RMK AO2 SLP179 T10061028 $","updated":"2026-02-15T07:37:03Z"}
