{"icao":"LPPT","metar":"LPPT 300130Z 24006KT 9000 FEW018 SCT035 12/11 Q1014","updated":"2026-01-30T01:56:27Z"}
