{"icao":"LPPT","metar":"LPPT 132200Z 32013KT 290V350 9999 FEW025 FEW030CB 10/07 Q1015 WS R02","updated":"2026-02-13T22:31:46Z"}
