{"icao":"KJFK","metar":"KJFK 040151Z 24012KT 10SM FEW250 17/12 A3025 RMK AO2 SLP244 T01720117","updated":"2025-10-04T02:50:01Z"}
