{"icao":"KJFK","metar":"KJFK 242151Z 36012KT 10SM FEW050 FEW250 06/M05 A3025 RMK AO2 SLP241 T00561050 $","updated":"2025-12-24T22:18:47Z"}
