{"icao":"KORD","metar":"KORD 242151Z 00000KT 5SM -SN BKN048 OVC060 M15/M24 A3053 RMK AO2 SLP357 P0000 T11501239","updated":"2026-01-24T22:19:09Z"}
