{"icao":"LPMA","metar":"LPMA 271900Z 15004KT 090V220 9999 FEW016 20/15 Q1021","updated":"2026-05-27T19:23:22Z"}
