{"icao":"LPMR","metar":"LPMR 181000Z 34003KT 310V030 CAVOK 17/13 Q1018","updated":"2026-04-18T10:38:55Z"}
