{"icao":"LPLA","metar":"LPLA 242100Z 33026KT 9999 FEW025 SCT030 14/06 Q1021","updated":"2026-02-24T21:33:34Z"}
