{"icao":"LPMR","metar":"LPMR 041500Z 29008KT 260V320 9999 FEW018 16/10 Q1021","updated":"2025-12-04T15:22:19Z"}
