{"icao":"LPPT","metar":"LPPT 190700Z 27004KT 240V320 9999 FEW022 08/07 Q1020","updated":"2026-01-19T07:27:47Z"}
