{"icao":"LPAZ","metar":"LPAZ 180300Z 33008KT 8000 -SHRA SCT004 BKN012 18/18 Q1025","updated":"2025-11-18T03:11:25Z"}
