{"icao":"LPPT","metar":"LPPT 050700Z 01005KT 320V060 9999 FEW012 15/12 Q1021","updated":"2025-10-05T07:14:27Z"}
