{"icao":"LPFL","metar":"LPFL 101600Z 32020G33KT 260V360 9999 VCSH BKN018 14/10 Q1010","updated":"2025-12-10T16:26:55Z"}
