{"icao":"LPMT","metar":"LPMT 271800Z 33009KT CAVOK 19/10 Q1015","updated":"2026-03-27T20:37:09Z"}
