{"icao":"KLAX","metar":"KLAX 142253Z 24010KT 10SM SCT029 SCT180 BKN250 18/11 A3006 RMK AO2 SLP179 T01780111 $","updated":"2026-02-14T23:23:19Z"}
