{"icao":"LPAZ","metar":"LPAZ 021700Z 21006KT 180V240 9999 FEW008 24/21 Q1021","updated":"2025-10-02T17:13:00Z"}
