{"icao":"LPAZ","metar":"LPAZ 080900Z 04023KT 2000 -RADZ BR BKN004 12/11 Q1024","updated":"2026-03-08T09:27:59Z"}
