{"icao":"LPLA","metar":"LPLA 081900Z 29006KT 170V320 9999 FEW024 17/12 Q1022","updated":"2025-11-08T19:13:20Z"}
