{"icao":"LPFR","metar":"LPFR 081200Z 34008KT 310V020 9999 FEW025 20/10 Q1022","updated":"2025-11-08T12:33:06Z"}
