{"icao":"LPLA","metar":"LPLA 012300Z 07005KT 010V110 9999 FEW012 SCT020 16/13 Q1020","updated":"2026-05-01T23:50:56Z"}
