{"icao":"KLAX","metar":"KLAX 132253Z 25012G21KT 10SM FEW250 19/10 A3005 RMK AO2 SLP174 T01940100","updated":"2026-05-13T23:56:39Z"}
