{"icao":"KJFK","metar":"KJFK 131851Z 17013KT 10SM FEW040 FEW250 23/14 A3010 RMK AO2 SLP191 T02330144 $","updated":"2025-09-13T19:11:38Z"}
