{"icao":"LPOV","metar":"LPOV 221200Z 29007KT 250V320 9999 SCT016 22/19 Q1017","updated":"2026-06-22T12:48:36Z"}
