{"icao":"LPMT","metar":"LPMT 311800Z 20009KT 8000 SCT015 BKN020 BKN035 20/18 Q1013","updated":"2025-10-31T18:26:38Z"}
