{"icao":"LPMA","metar":"LPMA 070900Z 36010KT 300V030 9999 BKN016 13/07 Q1025","updated":"2026-03-07T09:27:24Z"}
