{"icao":"LPMR","metar":"LPMR 181000Z 14009KT CAVOK 23/13 Q1017","updated":"2025-10-18T10:16:33Z"}
