{"icao":"LPOV","metar":"LPOV 071600Z 34017KT CAVOK 19/15 Q1021","updated":"2026-06-07T16:13:32Z"}
