{"icao":"LPOV","metar":"LPOV 282000Z 17010KT 4000 -RA BR BKN020 12/12 Q1002","updated":"2026-01-28T21:27:45Z"}
