{"icao":"LPFR","metar":"LPFR 071630Z 29009KT 9999 SCT012 BKN048 13/10 Q1016","updated":"2026-04-07T16:56:59Z"}
