{"icao":"KJFK","metar":"KJFK 031051Z 28005KT 10SM FEW040 SCT250 13/08 A3041 RMK AO2 SLP297 T01330083","updated":"2025-10-03T11:14:12Z"}
