{"icao":"LPMA","metar":"LPMA 251530Z 05006KT 010V080 9999 SCT015 23/19 Q1020","updated":"2026-06-25T15:38:33Z"}
