{"icao":"KORD","metar":"KORD 101838Z 03014KT 10SM OVC010 06/02 A2988 RMK AO2 T00560022","updated":"2026-03-10T18:44:40Z"}
