{"icao":"LPAZ","metar":"LPAZ 140630Z 23005KT 9999 FEW016 13/10 Q1032","updated":"2026-02-14T06:42:39Z"}
