{"icao":"LPOV","metar":"LPOV 301600Z 34021KT CAVOK 21/17 Q1021","updated":"2026-06-30T17:51:31Z"}
