{"icao":"KLAX","metar":"KLAX 151953Z VRB04KT 10SM FEW300 27/02 A3001 RMK AO2 SLP161 T02720022 $","updated":"2026-01-15T20:24:24Z"}
