{"icao":"LPMT","metar":"LPMT 091100Z 18015KT 4000 -RA FEW012 BKN016 17/16 Q1016","updated":"2025-12-09T11:18:16Z"}
