{"icao":"LPMT","metar":"LPMT 192100Z 36008KT 9999 BKN040 13/07 Q1018","updated":"2025-11-19T21:14:18Z"}
