{"icao":"LPBJ","metar":"LPBJ 211400Z 15010KT 070V180 CAVOK 36/16 Q1016","updated":"2026-06-21T14:07:36Z"}
