{"icao":"LPPD","metar":"LPPD 232300Z 03008KT 360V060 9999 FEW020 13/08 Q1025","updated":"2026-03-23T23:31:20Z"}
