{"icao":"LPPS","metar":"LPPS 272100Z 31017KT 9999 FEW015 16/06 Q1016","updated":"2025-12-27T21:17:10Z"}
