{"icao":"LPFL","metar":"LPFL 231800Z 18015KT 9999 SCT011 BKN049 18/16 Q1021","updated":"2025-12-23T18:29:22Z"}
