{"icao":"LPPR","metar":"LPPR 041330Z 22011KT 180V260 9000 BKN008 14/13 Q0993","updated":"2026-02-04T14:03:47Z"}
