{"icao":"LPFL","metar":"LPFL 090930Z 13003KT 090V170 9999 VCSH FEW003 SCT030 21/19 Q1031","updated":"2026-06-09T09:40:26Z"}
