{"icao":"KJFK","metar":"KJFK 071251Z 23009KT 10SM FEW047 FEW170 BKN240 20/16 A3020 RMK AO2 SLP225 T02000161","updated":"2025-10-07T13:28:15Z"}
