{"icao":"LPOV","metar":"LPOV 010600Z 12002KT 9999 FEW015 11/11 Q1018","updated":"2026-05-01T06:15:33Z"}
