{"icao":"LPPT","metar":"LPPT 131300Z 18021KT 8000 -SHRA FEW010 SCT012 FEW015CB BKN016 18/16 Q0998 WS R20","updated":"2025-11-13T13:31:37Z"}
