{"icao":"LPST","metar":"LPST 071200Z 23010KT 3000 -RADZ BKN008 OVC011 19/16 Q1016","updated":"2025-11-07T12:37:01Z"}
