{"icao":"LPMA","metar":"LPMA 070230Z 02007KT 9999 -DZ BKN013 20/18 Q1023","updated":"2025-10-07T02:56:13Z"}
