{"icao":"LPST","metar":"LPST 160900Z VRB01KT CAVOK 19/12 Q1016","updated":"2025-10-16T09:19:45Z"}
