{"icao":"LPAZ","metar":"LPAZ 051100Z 06008KT 030V090 9999 BKN044 15/06 Q1029","updated":"2026-01-05T11:18:21Z"}
