{"icao":"LPFL","metar":"LPFL 081300Z 33009KT 300V360 9999 FEW018 BKN034 19/12 Q1037","updated":"2026-04-08T13:18:10Z"}
