{"icao":"LPFR","metar":"LPFR 260100Z 04003KT 310V110 CAVOK 13/05 Q1023","updated":"2025-11-26T01:24:26Z"}
