{"icao":"LPPR","metar":"LPPR 181300Z 30004KT 250V350 CAVOK 11/05 Q1015","updated":"2026-01-18T13:27:37Z"}
