{"icao":"LPLA","metar":"LPLA 132000Z 00000KT 9999 FEW030 18/13 Q1015","updated":"2025-10-13T20:19:22Z"}
