{"icao":"LPMA","metar":"LPMA 260400Z 36018G29KT 320V040 9999 BKN015 15/10 Q1022","updated":"2026-02-26T04:22:53Z"}
