{"icao":"KJFK","metar":"KJFK 040751Z 20003KT 8SM FEW080 BKN120 BKN250 09/09 A3011 RMK AO2 SLP195 T00940089","updated":"2026-04-04T08:39:21Z"}
