{"icao":"LPPT","metar":"LPPT 071230Z 25008KT 220V320 9999 FEW027 BKN030 23/15 Q1022","updated":"2025-10-07T12:37:10Z"}
