{"icao":"LPPD","metar":"LPPD 040900Z 02015KT 9999 -SHRA FEW007 SCT016 14/12 Q1018","updated":"2026-01-04T09:18:33Z"}
