{"icao":"LPFR","metar":"LPFR 211330Z 24019KT 4000 -RADZ BR SCT005 BKN012 16/15 Q1009","updated":"2026-01-21T13:43:55Z"}
