{"icao":"LPST","metar":"LPST 170800Z VRB01KT CAVOK 13/10 Q1014","updated":"2025-10-17T08:24:27Z"}
