{"icao":"LPST","metar":"LPST 010800Z VRB01KT CAVOK 16/14 Q1021","updated":"2025-10-01T08:23:38Z"}
