{"icao":"LPMT","metar":"LPMT 060900Z 03006KT CAVOK 18/13 Q1020","updated":"2025-10-06T09:21:02Z"}
