{"icao":"LPLA","metar":"LPLA 282000Z 06003KT 010V100 9999 FEW012 SCT020 BKN030 14/10 Q1035","updated":"2026-03-28T20:29:19Z"}
