{"icao":"LPFR","metar":"LPFR 280330Z 22016KT 9000 -RA FEW018 BKN040 14/12 Q1004 RERA","updated":"2026-01-28T03:43:47Z"}
