{"icao":"LPMR","metar":"LPMR 312300Z 22017G30KT 6000 RA SCT008 OVC015 19/18 Q1012","updated":"2025-11-01T06:24:27Z"}
