{"icao":"LPPR","metar":"LPPR 301230Z 35009KT CAVOK 13/06 Q1021","updated":"2025-11-30T12:35:21Z"}
