{"icao":"KLAX","metar":"KLAX 060653Z 22004KT 10SM CLR 17/12 A3019 RMK AO2 SLP221 T01670117 $","updated":"2025-11-06T07:18:26Z"}
