{"icao":"LPOV","metar":"LPOV 230600Z 33002KT CAVOK 17/16 Q1017","updated":"2025-10-23T06:27:16Z"}
