{"icao":"LPFL","metar":"LPFL 080900Z 21012G25KT 170V280 9999 FEW011 BKN014 19/15 Q1006","updated":"2026-02-08T09:28:28Z"}
