{"icao":"KORD","metar":"KORD 170651Z 33013G19KT 10SM SCT055 SCT080 M08/M18 A2996 RMK AO2 SLP157 T10831183 $","updated":"2026-03-17T07:12:56Z"}
