{"icao":"KORD","metar":"KORD 260951Z 30009KT 10SM FEW033 FEW045 OVC080 M17/M24 A3020 RMK AO2 SLP243 T11721239 $","updated":"2026-01-26T10:25:42Z"}
