{"icao":"KLAX","metar":"KLAX 101853Z 26010KT 10SM FEW025 23/16 A2984 RMK AO2 SLP104 T02280161","updated":"2026-06-10T19:38:57Z"}
