{"icao":"LPMR","metar":"LPMR 251000Z 03007KT 350V080 CAVOK 12/06 Q1024","updated":"2025-11-25T10:22:19Z"}
