{"icao":"KJFK","metar":"KJFK 080451Z 15006KT 1/4SM R04R/P6000FT FG OVC002 06/06 A2988 RMK AO2 DZE50 SLP116 P0000 T00610061 400670028","updated":"2026-03-08T05:41:58Z"}
