{"icao":"LPMA","metar":"LPMA 121530Z 01007KT 300V070 9999 SCT016 19/11 Q1022","updated":"2026-02-12T15:52:12Z"}
