{"icao":"LPPR","metar":"LPPR 031530Z 23003KT 170V280 9999 FEW023 SCT032 BKN040 12/06 Q0998","updated":"2026-02-03T15:48:56Z"}
