{"icao":"LPBJ","metar":"LPBJ 310100Z 10003KT 070V130 9999 4000S BCFG NSC 05/05 Q1020","updated":"2025-12-31T01:39:22Z"}
