{"icao":"LPCS","metar":"LPCS 131800Z 35012KT CAVOK 23/11 Q1016","updated":"2025-10-13T18:24:52Z"}
