{"icao":"KLAX","metar":"KLAX 070453Z 28007KT 10SM SCT012 SCT140 SCT260 16/13 A3015 RMK AO2 SLP209 T01560133 $","updated":"2026-02-07T05:41:14Z"}
