{"icao":"LPOV","metar":"LPOV 111000Z 20014KT 0900 -DZ FG OVC002 15/15 Q1012","updated":"2026-02-11T11:43:14Z"}
