{"icao":"LPFL","metar":"LPFL 181100Z VRB06G16KT 9999 VCSH FEW006 SCT014 24/21 Q1012","updated":"2025-10-18T11:13:26Z"}
