{"icao":"KLAX","metar":"KLAX 071853Z 26006KT 7SM CLR 21/14 A2996 RMK AO2 SLP142 T02060139 $","updated":"2025-11-07T19:15:43Z"}
