{"icao":"KLAX","metar":"KLAX 170653Z 08006KT 10SM FEW015 FEW024 BKN045 BKN150 14/13 A2999 RMK AO2 SLP154 T01440128 $","updated":"2025-11-17T07:18:55Z"}
