{"icao":"LPBJ","metar":"LPBJ 041500Z 30013KT 9999 FEW040 BKN045 19/07 Q1016","updated":"2026-05-04T16:02:09Z"}
