{"icao":"LPMT","metar":"LPMT 120800Z 17018G29KT 9999 FEW015 19/15 Q1004","updated":"2025-11-12T08:26:22Z"}
