{"icao":"LPMA","metar":"LPMA 150900Z 35010KT 330V030 9999 VCSH BKN015 SCT030 16/12 Q1021","updated":"2026-03-15T09:32:54Z"}
