{"icao":"KORD","metar":"KORD 181651Z 24014G23KT 10SM FEW020 FEW150 BKN250 M12/M18 A3001 RMK AO2 SLP174 T11171183 $","updated":"2026-01-18T17:17:24Z"}
