{"icao":"LPLA","metar":"LPLA 271500Z 34014KT 9999 FEW020 SCT032 20/14 Q1025","updated":"2026-06-27T15:13:45Z"}
