{"icao":"LPPT","metar":"LPPT 172100Z 34008KT CAVOK 14/13 Q1017","updated":"2025-11-17T21:17:02Z"}
