{"icao":"LPBJ","metar":"LPBJ 130300Z 15015KT 9000 SCT012 FEW015CB 18/16 Q1005 RETS","updated":"2025-11-13T03:13:38Z"}
