{"icao":"LPMR","metar":"LPMR 221700Z 28007KT 210V310 9999 FEW045 18/09 Q1013","updated":"2026-04-22T18:03:00Z"}
