{"icao":"LPFR","metar":"LPFR 222100Z 24018KT 9000 BKN005 BKN012 15/14 Q1007","updated":"2026-01-22T21:21:24Z"}
