{"icao":"LPFL","metar":"LPFL 091100Z 13004KT 090V170 9999 FEW020 BKN038 13/05 Q1036","updated":"2026-03-09T11:33:35Z"}
