{"icao":"KORD","metar":"KORD 151851Z 24007KT 10SM FEW027 FEW250 M06/M14 A2989 RMK AO2 SLP134 T10611139 $","updated":"2026-01-15T19:23:36Z"}
