{"icao":"LPLA","metar":"LPLA 271600Z 07003KT 010V130 9999 FEW010 SCT016 14/13 Q1030","updated":"2026-03-27T16:53:35Z"}
