{"icao":"KJFK","metar":"KJFK 040051Z 23013KT 10SM FEW038 SCT060 BKN075 BKN150 13/08 A2987 RMK AO2 SLP113 T01280083 $","updated":"2025-11-04T01:23:29Z"}
