{"icao":"LPFR","metar":"LPFR 250900Z 30005KT 260V330 9999 FEW012 21/17 Q1016","updated":"2025-10-25T09:16:03Z"}
