{"icao":"LPHR","metar":"LPHR 281700Z 06029G40KT 8000 RA FEW008 SCT011 BKN030 14/13 Q1005","updated":"2025-12-28T17:16:42Z"}
