{"icao":"LPFL","metar":"LPFL 291030Z 21009G21KT 150V280 9999 FEW025 15/08 Q1010 WS R18","updated":"2026-01-29T10:35:40Z"}
