{"icao":"LPBJ","metar":"LPBJ 220500Z 21004KT 9000 BKN004 18/18 Q1018","updated":"2025-10-22T05:17:59Z"}
