{"icao":"LPLA","metar":"LPLA 191900Z 36010KT 330V030 9999 SCT025 16/12 Q1027","updated":"2025-11-19T19:15:16Z"}
