{"icao":"KJFK","metar":"KJFK 232151Z 18012KT 10SM SCT048 BKN150 BKN250 23/20 A2997 RMK AO2 SLP148 T02280200 $","updated":"2025-09-23T22:15:48Z"}
