{"icao":"LPMR","metar":"LPMR 092000Z 13003KT CAVOK 16/14 Q1014","updated":"2026-04-09T20:49:56Z"}
