{"icao":"LPLA","metar":"LPLA 310800Z 28009KT 230V310 9999 FEW008 SCT018 BKN030 18/16 Q1014","updated":"2026-01-31T08:29:08Z"}
