{"icao":"KORD","metar":"KORD 200951Z 15007KT 10SM FEW070 BKN100 OVC250 19/17 A3003 RMK AO2 LTG DSNT S RAE38 SLP166 P0006 T01940172","updated":"2025-09-20T10:16:32Z"}
