{"icao":"LPOV","metar":"LPOV 231000Z 16007KT 130V190 4000 -DZ BR BKN008 BKN012 12/11 Q1026","updated":"2025-11-23T10:17:39Z"}
