{"icao":"LPCS","metar":"LPCS 051130Z 34012KT 300V010 9999 FEW020 18/07 Q1018","updated":"2026-05-05T12:00:04Z"}
