{"icao":"LPFR","metar":"LPFR 081430Z 26017KT CAVOK 25/16 Q1018","updated":"2026-06-08T14:46:46Z"}
