{"icao":"LPFR","metar":"LPFR 232200Z 36005KT 310V020 CAVOK 13/09 Q1025","updated":"2025-11-23T22:17:00Z"}
