{"icao":"KJFK","metar":"KJFK 061051Z 35004KT 10SM SCT017 BKN031 OVC055 01/M02 A2993 RMK AO2 SLP136 T00061017 $","updated":"2025-12-06T11:14:36Z"}
