{"icao":"LPOV","metar":"LPOV 272300Z 15017G28KT 110V190 3500 RA BKN009 BKN013 19/18 Q1003","updated":"2025-09-27T23:14:43Z"}
