{"icao":"KJFK","metar":"KJFK 071951Z 21006KT 1/2SM R04R/P6000FT BR OVC004 06/04 A3007 RMK AO2 SFC VIS 1 3/4 SLP183 T00560044","updated":"2026-03-07T20:24:17Z"}
