{"icao":"KJFK","metar":"KJFK 271551Z 24009KT 10SM -RA FEW060 BKN100 BKN230 23/19 A2988 RMK AO2 RAB44 SLP118 P0000 T02280189","updated":"2026-05-27T16:35:47Z"}
