{"icao":"LPFR","metar":"LPFR 152100Z 32010KT CAVOK 26/15 Q1018","updated":"2025-09-15T21:15:02Z"}
