{"icao":"LPCS","metar":"LPCS 091230Z 18018G28KT 1300 R17/P2000N +RA BR SCT001 BKN002 17/17 Q1015","updated":"2025-12-09T12:41:15Z"}
