{"icao":"KJFK","metar":"KJFK 011016Z 36018G25KT 10SM BKN025 M11/M17 A2989 RMK AO2 T11111172 $","updated":"2026-02-01T10:24:25Z"}
