{"icao":"LPBJ","metar":"LPBJ 200600Z 28005KT 0300 FG VV002 05/05 Q1020","updated":"2026-01-20T06:34:32Z"}
