{"icao":"LPST","metar":"LPST 250900Z VRB02KT CAVOK 20/16 Q1022","updated":"2026-05-25T10:02:03Z"}
