{"icao":"LPPD","metar":"LPPD 311400Z 23015KT 4000 BR SCT003 BKN006 17/16 Q1017","updated":"2026-01-31T14:22:36Z"}
