{"icao":"KLAX","metar":"KLAX 300453Z 06003KT 10SM CLR 19/01 A3019 RMK AO2 SLP220 T01890011 $","updated":"2026-01-30T05:44:39Z"}
