{"icao":"LPLA","metar":"LPLA 220811Z 30004KT 3000 RA FEW015 SCT018CB BKN022 21/20 Q1013","updated":"2025-10-22T08:26:35Z"}
