{"icao":"LPMT","metar":"LPMT 220800Z 27006KT 9999 FEW025 12/09 Q1010","updated":"2026-01-22T08:30:42Z"}
