{"icao":"KORD","metar":"KORD 272251Z 16010KT 8SM OVC009 06/03 A2988 RMK AO2 SLP124 T00560033 $","updated":"2025-12-27T23:18:13Z"}
