{"icao":"LPPT","metar":"LPPT 290730Z 31008KT 280V340 9999 FEW012 18/14 Q1021","updated":"2026-05-29T07:53:39Z"}
