{"icao":"LPMT","metar":"LPMT 040200Z 31005KT 280V350 9999 FEW025 14/10 Q1015","updated":"2026-05-04T02:44:44Z"}
