{"icao":"KLAX","metar":"KLAX 192253Z 27007KT 10SM FEW250 19/12 A2997 RMK AO2 SLP150 T01890122 $","updated":"2026-01-19T23:19:36Z"}
