{"icao":"LPCS","metar":"LPCS 251300Z 23007KT 210V270 CAVOK 27/03 Q1017","updated":"2025-09-25T13:28:00Z"}
