{"icao":"LPMA","metar":"LPMA 021530Z 14005KT 090V200 9999 SCT015 18/08 Q1014","updated":"2026-02-02T15:37:08Z"}
