{"icao":"LPFR","metar":"LPFR 101930Z 35004KT 9999 FEW020 13/05 Q1021","updated":"2026-03-10T19:36:57Z"}
