{"icao":"LPMR","metar":"LPMR 092100Z 31004KT 6000 NSC 14/13 Q1014","updated":"2026-04-09T21:43:25Z"}
