{"icao":"LPBJ","metar":"LPBJ 300500Z 20006KT 5000 VCFG SCT003 09/09 Q1014","updated":"2026-01-30T05:44:25Z"}
