{"icao":"KLAX","metar":"KLAX 290753Z 25006KT 10SM CLR 19/16 A2999 RMK AO2 SLP152 T01940161 402390194 $","updated":"2025-09-29T08:25:55Z"}
