{"icao":"LPBJ","metar":"LPBJ 151200Z 18004KT 150V220 CAVOK 13/10 Q1013","updated":"2025-12-15T12:43:43Z"}
