{"icao":"LPPD","metar":"LPPD 282300Z 23018KT 8000 SCT006 BKN010 17/16 Q1009","updated":"2026-01-28T23:24:55Z"}
