{"icao":"LPAZ","metar":"LPAZ 231630Z 21020KT 8000 DZ FEW005 BKN011 17/15 Q1012","updated":"2026-02-23T16:56:15Z"}
