{"icao":"LPAZ","metar":"LPAZ 191530Z 17009KT 9999 FEW008 SCT030 19/16 Q1024","updated":"2026-02-19T15:47:06Z"}
