{"icao":"LPPD","metar":"LPPD 251500Z 22016KT 9000 FEW007 SCT011 18/15 Q1015","updated":"2026-01-25T15:19:23Z"}
