{"icao":"KJFK","metar":"KJFK 031151Z 29005KT 10SM FEW040 SCT250 14/08 A3042 RMK AO2 SLP299 T01440083 10144 20106 53001","updated":"2025-10-03T12:35:14Z"}
