{"icao":"LPCS","metar":"LPCS 220800Z 05003KT 010V090 CAVOK 07/01 Q1030","updated":"2025-11-22T08:22:20Z"}
