{"icao":"LPAR","metar":"LPAR 291600Z 29011KT 250V310 9999 FEW009 BKN015 17/14 Q1010","updated":"2026-01-29T16:42:01Z"}
