{"icao":"LPPT","metar":"LPPT 161000Z 24007KT 9999 VCSH FEW020 FEW025TCU 10/09 Q1015 RESHRA","updated":"2026-01-16T10:22:21Z"}
