{"icao":"LPAR","metar":"LPAR 181500Z VRB04KT 9999 FEW025 20/09 Q1018","updated":"2025-11-18T15:20:55Z"}
