{"icao":"LPPT","metar":"LPPT 211630Z 22012KT 190V260 9999 SCT015 18/15 Q1005","updated":"2026-04-21T16:59:29Z"}
