{"icao":"LPMA","metar":"LPMA 020800Z 29003KT 200V010 9999 FEW015 14/10 Q0998","updated":"2026-01-02T08:28:19Z"}
