{"icao":"LPCS","metar":"LPCS 071130Z 29007KT 210V340 9999 FEW018 17/05 Q1012","updated":"2026-05-07T11:45:35Z"}
