{"icao":"LPPT","metar":"LPPT 131830Z 30006KT 280V340 9999 FEW030 FEW035TCU 19/12 Q1018","updated":"2026-05-13T18:55:38Z"}
