{"icao":"LPHR","metar":"LPHR 190700Z 29012KT 4000 -DZ BR SCT001 BKN003 22/22 Q1015","updated":"2025-10-19T07:15:10Z"}
