{"icao":"LPMA","metar":"LPMA 202130Z VRB01KT 9999 SCT013 18/15 Q1005","updated":"2026-04-20T21:44:49Z"}
