{"icao":"KJFK","metar":"KJFK 270451Z 02005KT 10SM CLR 08/02 A3039 RMK AO2 SLP290 T00780017 401560072","updated":"2025-10-27T05:19:09Z"}
