{"icao":"LPPR","metar":"LPPR 162100Z 00000KT 5000 BR FEW004 14/14 Q1015","updated":"2025-10-16T21:15:29Z"}
