{"icao":"KJFK","metar":"KJFK 250551Z 00000KT 10SM SCT160 BKN250 01/M05 A3028 RMK AO2 SLP252 T00111050 10033 20000 58007 $","updated":"2025-12-25T06:31:32Z"}
