{"icao":"LPHR","metar":"LPHR 200600Z 26010KT 7000 FEW002 BKN004 22/22 Q1014","updated":"2025-10-20T06:28:25Z"}
