{"icao":"LPBJ","metar":"LPBJ 291500Z 28005KT 250V310 9999 FEW016 OVC038 14/08 Q1017","updated":"2025-11-29T15:16:58Z"}
