{"icao":"LPCS","metar":"LPCS 010730Z 25008KT 230V290 0300 R17/0700N FG OVC002 15/15 Q1014","updated":"2026-02-01T07:35:59Z"}
