{"icao":"LPFR","metar":"LPFR 162000Z 32007KT 280V340 9999 -RA SCT010 FEW020CB 15/13 Q1014","updated":"2025-11-16T20:19:08Z"}
