{"icao":"LPLA","metar":"LPLA 101700Z 23017G29KT 9999 FEW016 SCT022 20/15 Q1009","updated":"2025-11-10T17:16:53Z"}
