{"icao":"KLAX","metar":"KLAX 241653Z 00000KT 10SM FEW018 FEW180 SCT250 BKN280 19/06 A3008 RMK AO2 SLP185 T01890061","updated":"2026-02-24T17:08:36Z"}
