{"icao":"KORD","metar":"KORD 071301Z 22009G17KT 10SM BKN012 BKN075 BKN120 OVC150 16/14 A2968 RMK AO2 T01560139","updated":"2026-03-07T13:37:50Z"}
