{"icao":"LPPS","metar":"LPPS 012300Z 05008KT 010V080 8000 -SHRA FEW006 BKN012 21/18 Q1022","updated":"2025-10-01T23:15:37Z"}
