{"icao":"LPMR","metar":"LPMR 170500Z 36002KT 6000 SCT008 11/10 Q1019","updated":"2026-04-17T05:26:32Z"}
