{"icao":"LPPS","metar":"LPPS 131500Z 34017KT 9999 SCT015 17/11 Q1018","updated":"2026-01-13T15:23:54Z"}
