{"icao":"KJFK","metar":"KJFK 230551Z 27011KT 10SM CLR 12/03 A2985 RMK AO2 SLP108 T01170033 10150 20117 53004","updated":"2025-10-23T06:27:36Z"}
