{"icao":"LPLA","metar":"LPLA 260400Z 30012KT 9000 -RA FEW014 SCT020 BKN035 13/12 Q1004","updated":"2026-01-26T04:55:32Z"}
