{"icao":"LPMA","metar":"LPMA 082200Z 36008KT 330V050 9999 BKN015 SCT030 15/04 Q1028","updated":"2026-03-08T22:21:52Z"}
