{"icao":"KORD","metar":"KORD 061351Z 00000KT 10SM FEW210 BKN250 10/M03 A2993 RMK AO2 SLP138 T01001033","updated":"2026-05-06T14:07:28Z"}
