{"icao":"LPFR","metar":"LPFR 052230Z 32011KT CAVOK 15/10 Q1015","updated":"2026-05-05T23:03:52Z"}
