{"icao":"LPOV","metar":"LPOV 270900Z 16005KT 4000 -RADZ BR FEW008 SCT015 11/11 Q1024","updated":"2026-02-27T09:39:13Z"}
