{"icao":"KORD","metar":"KORD 051631Z 20010KT 9SM OVC026 M05/M09 A2998 RMK AO2 SNE31 P0000 T10501089","updated":"2026-02-05T16:45:39Z"}
