{"icao":"LPPR","metar":"LPPR 201000Z 14009KT 9999 FEW016 BKN028 08/07 Q1018","updated":"2026-01-20T10:26:10Z"}
