{"icao":"LPBJ","metar":"LPBJ 280600Z 25014KT 9999 -RA SCT010 17/16 Q1014","updated":"2025-09-28T06:24:23Z"}
