{"icao":"LPPR","metar":"LPPR 070500Z 16006KT 140V200 5000 -DZ BR FEW004 BKN007 07/06 Q1021","updated":"2026-01-07T05:24:07Z"}
