{"icao":"KJFK","metar":"KJFK 251410Z 21008KT 7SM -SN BKN007 BKN013 OVC047 M01/M01 A2974 RMK AO2 BKN007 V SCT P0000 T10061006 $","updated":"2026-02-25T14:47:03Z"}
