{"icao":"LPFR","metar":"LPFR 060530Z 30017KT CAVOK 10/04 Q1016","updated":"2026-03-06T05:43:27Z"}
