{"icao":"LPLA","metar":"LPLA 041400Z 13010KT 110V170 9999 VCSH FEW014 FEW020TCU BKN047 25/20 Q1027","updated":"2025-10-04T14:14:02Z"}
