{"icao":"LPHR","metar":"LPHR 131700Z 24009KT 9999 FEW025 21/13 Q1014","updated":"2025-10-13T17:15:21Z"}
