{"icao":"KJFK","metar":"KJFK 011403Z 36027G35KT 9SM SCT027 BKN031 BKN060 BKN190 M12/M18 A2988 RMK AO2 PK WND 36035/1403 SNE02 P0007 T11171178 $","updated":"2026-02-01T14:24:55Z"}
