{"icao":"LPLA","metar":"LPLA 231500Z 28015KT 250V310 9999 SCT022 BKN040 17/10 Q1006","updated":"2026-04-23T15:51:22Z"}
