{"icao":"KORD","metar":"KORD 031551Z 23017G35KT 10SM BKN075 BKN200 OVC250 11/03 A2992 RMK AO2 PK WND 24036/1539 SLP133 T01110028 $","updated":"2026-05-03T16:49:33Z"}
