{"icao":"KLAX","metar":"KLAX 190853Z 07004KT 10SM FEW280 17/15 A3000 RMK AO2 SLP156 T01720150 55000 $","updated":"2025-10-19T09:16:32Z"}
