{"icao":"LPPS","metar":"LPPS 301630Z 01016KT 9999 FEW015 20/14 Q1025","updated":"2026-05-30T17:02:19Z"}
