{"icao":"LPOV","metar":"LPOV 012100Z 14002KT CAVOK 08/08 Q1017","updated":"2026-03-01T21:21:13Z"}
