{"icao":"LPPT","metar":"LPPT 202100Z 32014KT CAVOK 22/15 Q1015","updated":"2026-06-20T21:16:45Z"}
