{"icao":"LPPD","metar":"LPPD 241430Z 03014G26KT 340V070 9999 FEW020 SCT030 16/08 Q1027","updated":"2026-03-24T14:56:34Z"}
