{"icao":"LPOV","metar":"LPOV 220900Z 18003KT CAVOK 03/02 Q1031","updated":"2025-11-22T09:17:22Z"}
