{"icao":"LPPR","metar":"LPPR 151000Z 34009KT 9999 FEW012 SCT025 21/18 Q1024","updated":"2025-09-15T10:18:29Z"}
