{"icao":"KLAX","metar":"KLAX 121702Z 00000KT 2 1/2SM BR SCT005 SCT012 BKN140 OVC180 17/15 A3009 RMK AO2 VIS 1V3 T01670150 $","updated":"2025-11-12T17:17:55Z"}
