{"icao":"LPOV","metar":"LPOV 181200Z 30008KT 230V340 9999 FEW025 17/10 Q1021","updated":"2026-05-18T12:28:09Z"}
