{"icao":"LPMA","metar":"LPMA 031530Z 05005KT 020V080 9999 FEW015 20/11 Q1013","updated":"2026-02-03T15:49:16Z"}
