{"icao":"LPPR","metar":"LPPR 110530Z 10003KT 060V130 9999 BKN014 09/09 Q1025","updated":"2026-03-11T05:47:18Z"}
