{"icao":"KJFK","metar":"KJFK 310151Z 17007KT 10SM BKN085 BKN110 BKN250 10/07 A3011 RMK AO2 SLP195 T01000067","updated":"2026-03-31T02:13:12Z"}
