{"icao":"LPMR","metar":"LPMR 081000Z VRB02KT 1800 -DZ BR BKN009 BKN016 09/08 Q1032","updated":"2026-01-08T10:23:13Z"}
