{"icao":"LPPT","metar":"LPPT 112200Z 27009KT 210V310 9999 FEW007 BKN013 15/14 Q1019","updated":"2026-02-11T22:28:15Z"}
