{"icao":"KJFK","metar":"KJFK 080851Z 35009KT 10SM FEW085 SCT110 SCT250 09/04 A2988 RMK AO2 SLP117 60000 T00890039 51021","updated":"2026-05-08T09:18:42Z"}
