{"icao":"LPCS","metar":"LPCS 011100Z 10005KT 070V130 CAVOK 15/06 Q1022","updated":"2026-03-01T11:19:38Z"}
