{"icao":"LPOV","metar":"LPOV 090900Z 12003KT 070V150 9000 -RA SCT036 BKN045 13/13 Q1004 RERA RMK RH99 BKN080 BLU","updated":"2026-05-09T09:17:58Z"}
