{"icao":"LPPR","metar":"LPPR 011100Z 21004KT 120V260 CAVOK 25/14 Q1022","updated":"2025-10-01T11:15:43Z"}
