{"icao":"LPPD","metar":"LPPD 200500Z 25010KT 6000 FEW003 BKN005 22/22 Q1016","updated":"2025-10-20T05:18:49Z"}
