{"icao":"LPPD","metar":"LPPD 211500Z 03011KT 350V070 9999 FEW016 BKN030 17/12 Q1031","updated":"2025-11-21T15:17:14Z"}
