{"icao":"LPOV","metar":"LPOV 291200Z 02007KT CAVOK 26/12 Q1017","updated":"2025-09-29T12:37:43Z"}
