{"icao":"LPPD","metar":"LPPD 041330Z 04012KT 360V070 9999 FEW025 BKN035 17/09 Q1024","updated":"2026-05-04T13:57:09Z"}
