{"icao":"KJFK","metar":"KJFK 160451Z 00000KT 10SM FEW250 13/09 A3006 RMK AO2 SLP177 T01280094 402000100","updated":"2026-05-16T05:53:14Z"}
