{"icao":"LPBJ","metar":"LPBJ 070500Z 21005KT 9999 SCT042 13/10 Q1018","updated":"2025-11-07T05:17:58Z"}
