{"icao":"LPAZ","metar":"LPAZ 081330Z 03021KT 9999 FEW015 BKN023 13/09 Q1027","updated":"2026-03-08T13:38:46Z"}
