{"icao":"KJFK","metar":"KJFK 291451Z 04011KT 10SM SCT034 BKN043 BKN250 11/06 A3016 RMK AO2 SLP213 SCT V BKN T01110056 50007","updated":"2025-10-29T15:20:36Z"}
