{"icao":"LPAZ","metar":"LPAZ 030800Z 18011KT 8000 SCT002 BKN004 21/20 Q1014 RERA","updated":"2025-11-03T08:26:08Z"}
