{"icao":"LPHR","metar":"LPHR 121900Z 32013G25KT 290V350 9999 -SHRA SCT025 FEW030CB 15/08 Q1005","updated":"2025-11-12T19:15:32Z"}
