{"icao":"LPBJ","metar":"LPBJ 071200Z 21005KT 100V260 9999 FEW032 26/15 Q1022","updated":"2025-10-07T12:37:12Z"}
