{"icao":"LPPR","metar":"LPPR 230400Z 16008KT 6000 -RADZ FEW003 BKN006 BKN012 11/10 Q1026 RERA","updated":"2025-11-23T04:31:24Z"}
