{"icao":"LPAZ","metar":"LPAZ 221100Z 09007KT 050V110 9999 FEW020 18/14 Q1032","updated":"2025-11-22T11:13:20Z"}
