{"icao":"LPAZ","metar":"LPAZ 271230Z 03009KT 350V080 9999 FEW029 17/09 Q1035","updated":"2026-02-27T12:56:59Z"}
