{"icao":"LPMR","metar":"LPMR 131500Z 03008KT CAVOK 17/11 Q1021","updated":"2025-12-13T15:17:16Z"}
