{"icao":"LPPD","metar":"LPPD 141400Z 29011KT 9999 FEW027 BKN045 17/09 Q1007","updated":"2025-11-14T14:18:09Z"}
