{"icao":"LPFL","metar":"LPFL 171400Z 20019G32KT 170V240 9999 FEW011 SCT016 25/21 Q1007","updated":"2025-10-17T14:17:37Z"}
