{"icao":"LPLA","metar":"LPLA 312200Z 07003KT 020V120 9999 BKN025 14/09 Q1031","updated":"2026-03-31T22:33:09Z"}
