{"icao":"LPMA","metar":"LPMA 131100Z 03006KT 350V070 9999 FEW015 24/16 Q1018","updated":"2025-10-13T11:15:30Z"}
