{"icao":"LPLA","metar":"LPLA 081400Z 32012KT 290V060 9999 FEW018 SCT025 23/16 Q1033","updated":"2026-06-08T14:46:50Z"}
