{"icao":"LPPT","metar":"LPPT 160900Z 33009KT 290V350 9999 FEW018 21/15 Q1017","updated":"2026-06-16T09:30:27Z"}
