{"icao":"LPFR","metar":"LPFR 131100Z 18022KT 9999 -RA FEW018CB SCT040 21/16 Q1005","updated":"2025-11-13T11:16:51Z"}
