{"icao":"LPLA","metar":"LPLA 181700Z 13009KT 110V170 9999 FEW004 SCT008 16/15 Q1013","updated":"2026-04-18T17:35:14Z"}
