{"icao":"KJFK","metar":"KJFK 131651Z 22016KT 10SM SCT045 BKN055 BKN250 04/M03 A3009 RMK AO2 SLP188 T00441033","updated":"2025-12-13T17:16:44Z"}
