{"icao":"LPAR","metar":"LPAR 081000Z 33009KT 9999 SCT015 BKN040 20/13 Q1023","updated":"2025-10-08T11:14:32Z"}
