{"icao":"LPCS","metar":"LPCS 121730Z 20008KT 9000 -RA FEW003 SCT005 BKN014 15/13 Q1016","updated":"2026-02-12T17:57:09Z"}
