{"icao":"LPPS","metar":"LPPS 162000Z 07010KT 9999 SCT015 SCT030 22/17 Q1021","updated":"2025-09-16T20:19:16Z"}
