{"icao":"LPFL","metar":"LPFL 201200Z 13006KT 080V160 9999 SCT035 21/11 Q1030","updated":"2025-09-20T12:32:32Z"}
