{"icao":"KLAX","metar":"KLAX 190653Z 01005KT 10SM SCT220 18/14 A2995 RMK AO2 SLP137 T01780139 $","updated":"2026-04-19T07:17:41Z"}
