{"icao":"KORD","metar":"KORD 131451Z 20015G21KT 10SM FEW250 26/14 A2990 RMK AO2 SLP121 T02560139 57016 $","updated":"2026-06-13T14:59:23Z"}
