{"icao":"LPLA","metar":"LPLA 201100Z 07007KT 020V110 9999 FEW028 SCT040 18/11 Q1031","updated":"2025-11-20T11:16:57Z"}
