{"icao":"KORD","metar":"KORD 150851Z 06009KT 10SM OVC044 14/11 A3025 RMK AO2 RAE48 SLP243 P0004 60007 T01390106 56002 $","updated":"2025-10-15T09:19:56Z"}
