{"icao":"LPBJ","metar":"LPBJ 030300Z 14010KT 9999 FEW018 BKN045 13/12 Q0999","updated":"2026-01-03T03:20:57Z"}
