{"icao":"LPPS","metar":"LPPS 311000Z 35006KT 9999 FEW014 18/16 Q1025","updated":"2026-01-31T10:23:21Z"}
