{"icao":"LPMA","metar":"LPMA 121800Z 22012KT 170V250 9999 -DZ BKN015 17/13 Q1016","updated":"2026-01-12T18:31:47Z"}
