{"icao":"KJFK","metar":"KJFK 110651Z 34010KT 1/2SM R04R/P6000FT BR BKN004 OVC009 05/04 A2975 RMK AO2 SFC VIS 1 1/2 SLP074 T00500044","updated":"2026-01-11T07:19:43Z"}
