{"icao":"LPPR","metar":"LPPR 141400Z 29006KT CAVOK 21/14 Q1017","updated":"2025-10-14T14:18:29Z"}
