{"icao":"KLAX","metar":"KLAX 181453Z 10004KT 10SM FEW009 19/14 A2999 RMK AO2 SLP153 T01940144 53008 $","updated":"2026-03-18T15:01:11Z"}
