{"icao":"KJFK","metar":"KJFK 242051Z 30016G23KT 10SM FEW050 BKN190 BKN250 M01/M12 A2989 RMK AO2 SLP120 T10061117 56004 $","updated":"2026-02-24T21:33:49Z"}
