{"icao":"LPST","metar":"LPST 161300Z 13007KT 090V170 CAVOK 21/08 Q1019","updated":"2026-03-16T13:09:15Z"}
