{"icao":"LPOV","metar":"LPOV 311000Z 16010KT 7000 -RA FEW008 BKN014 18/17 Q1010 RERA","updated":"2025-10-31T10:19:21Z"}
