{"icao":"LPOV","metar":"LPOV 241300Z 29006KT 240V340 9999 SCT008 BKN018 20/17 Q1021","updated":"2026-05-24T13:22:54Z"}
