{"icao":"LPPT","metar":"LPPT 040130Z 04009KT 9999 SCT008 12/12 Q0999","updated":"2026-01-04T01:49:03Z"}
