{"icao":"LPBJ","metar":"LPBJ 271300Z 08011KT 9999 FEW018CB BKN030 08/06 Q1007","updated":"2025-12-27T13:27:08Z"}
