{"icao":"LPLA","metar":"LPLA 282300Z 16011KT 7000 -RA FEW006 BKN020 BKN035 15/14 Q1010 RERA","updated":"2026-04-28T23:58:11Z"}
