{"icao":"KJFK","metar":"KJFK 140351Z 18008KT 10SM BKN065 BKN100 BKN250 21/17 A3007 RMK AO2 RAB03E14 SLP181 P0000 T02060167 $","updated":"2025-09-14T04:19:44Z"}
