{"icao":"LPMR","metar":"LPMR 281400Z 09007KT 020V140 9999 FEW028 16/07 Q1013","updated":"2025-12-28T14:17:58Z"}
