{"icao":"KJFK","metar":"KJFK 161651Z 03012KT 10SM FEW025 BKN060 01/M04 A3014 RMK AO2 SLP207 T00111039 $","updated":"2026-02-16T17:36:57Z"}
