{"icao":"KLAX","metar":"KLAX 180953Z 11004KT 10SM CLR 17/11 A2994 RMK AO2 SLP137 T01670111","updated":"2025-10-18T10:16:35Z"}
