{"icao":"LPFL","metar":"LPFL 212100Z 16006KT 9999 FEW023 BKN035 17/10 Q1032","updated":"2025-11-22T04:20:49Z"}
