{"icao":"LPPS","metar":"LPPS 150200Z 06008KT 030V100 9999 FEW015 14/09 Q1033","updated":"2026-02-15T02:07:48Z"}
