{"icao":"KLAX","metar":"KLAX 250127Z VRB04KT 10SM FEW008 BKN026 BKN037 16/14 A2993 RMK AO2 T01610144 $","updated":"2025-12-25T01:38:51Z"}
