{"icao":"LPST","metar":"LPST 151100Z 34016KT 320V020 9999 BKN022 16/10 Q1016","updated":"2026-05-15T11:54:54Z"}
