{"icao":"LPPD","metar":"LPPD 160900Z 24009KT 220V300 9999 FEW025 16/10 Q1021","updated":"2026-04-16T09:17:40Z"}
