{"icao":"LPMT","metar":"LPMT 081900Z 22004KT 4000 -RADZ BKN008 OVC015 13/13 Q1031","updated":"2026-01-08T19:19:00Z"}
