{"icao":"LPLA","metar":"LPLA 282100Z 32012KT 9999 BKN035 15/08 Q1029","updated":"2025-11-28T21:16:08Z"}
