{"icao":"LPPT","metar":"LPPT 292200Z 23006KT 9999 BKN026 13/12 Q1015","updated":"2026-01-29T22:26:25Z"}
