{"icao":"LPPS","metar":"LPPS 201630Z 30009KT 270V330 9999 FEW015 17/09 Q1024","updated":"2026-01-20T16:34:47Z"}
