{"icao":"KLAX","metar":"KLAX 110253Z 26006KT 8SM SCT008 16/14 A2995 RMK AO2 SLP140 T01610139 53007","updated":"2026-05-11T02:58:34Z"}
