{"icao":"LPFR","metar":"LPFR 220600Z 04012KT CAVOK 11/M02 Q1028","updated":"2025-11-22T06:25:24Z"}
