{"icao":"LPFR","metar":"LPFR 171900Z 27006KT CAVOK 24/19 Q1018","updated":"2025-09-17T19:13:42Z"}
