{"icao":"LPPD","metar":"LPPD 281500Z 34013KT 310V040 9999 FEW018 BKN035 19/12 Q1018","updated":"2025-10-28T15:20:15Z"}
