{"icao":"LPPT","metar":"LPPT 230500Z 25007KT 8000 -SHRA FEW012 FEW020TCU BKN042 13/12 Q1012","updated":"2025-12-23T05:22:44Z"}
