{"icao":"KORD","metar":"KORD 111951Z 21018G31KT 10SM BKN120 BKN250 06/M06 A2973 RMK AO2 PK WND 23032/1941 SLP072 T00561061","updated":"2025-11-11T20:20:04Z"}
