{"icao":"LPLA","metar":"LPLA 310600Z 28008KT 240V300 9999 FEW022 BKN035 16/12 Q1007","updated":"2025-10-31T06:27:38Z"}
