{"icao":"LPPR","metar":"LPPR 190800Z 19016KT 9999 BKN005 19/18 Q1013","updated":"2025-10-19T08:20:23Z"}
