{"icao":"LPPR","metar":"LPPR 271400Z 29008KT 240V320 9999 FEW020CB BKN025 11/07 Q0998","updated":"2026-01-27T14:28:19Z"}
