{"icao":"LPBJ","metar":"LPBJ 042200Z 32011KT CAVOK 17/09 Q1017","updated":"2026-06-04T22:19:33Z"}
