{"icao":"KORD","metar":"KORD 080251Z 26004KT 10SM CLR 13/08 A3020 RMK AO2 SLP226 T01280083 51016 $","updated":"2025-10-08T03:30:29Z"}
