{"icao":"LPCS","metar":"LPCS 271030Z 01004KT 310V080 9999 FEW011 SCT017 15/11 Q1025","updated":"2026-02-27T10:36:01Z"}
