{"icao":"KORD","metar":"KORD 242151Z 19005KT 10SM OVC110 09/06 A2997 RMK AO2 SLP152 VIRGA OHD T00940056","updated":"2025-11-24T22:18:00Z"}
