{"icao":"LPBJ","metar":"LPBJ 161300Z 28005KT 230V010 CAVOK 23/12 Q1020","updated":"2026-04-16T13:27:40Z"}
