{"icao":"LPCS","metar":"LPCS 101600Z 26013KT 0300 -DZ FG VV002 15/15 Q1016","updated":"2026-02-10T16:08:42Z"}
