{"icao":"LPCR","metar":"LPCR 241700Z 32009KT 280V360 9999 SCT023 21/14 Q1023","updated":"2026-06-25T00:10:44Z"}
