{"icao":"KLAX","metar":"KLAX 261853Z 13006KT 10SM FEW009 SCT019 OVC029 22/17 A2990 RMK AO2 SLP121 T02220167 $","updated":"2025-09-26T19:13:26Z"}
