{"icao":"LPMR","metar":"LPMR 091300Z 32012KT 280V350 9999 FEW020 SCT030 14/09 Q1028","updated":"2026-01-09T13:36:41Z"}
