{"icao":"LPMR","metar":"LPMR 211100Z 29007KT 230V330 9999 FEW007 24/18 Q1018","updated":"2026-06-21T11:45:56Z"}
