{"icao":"LPHR","metar":"LPHR 071900Z 23016KT 9999 -RA FEW012 SCT030 BKN047 17/14 Q1006","updated":"2025-12-07T19:14:19Z"}
