{"icao":"KLAX","metar":"KLAX 282253Z 25009KT 10SM FEW220 FEW290 26/10 A2988 RMK AO2 SLP117 T02560100","updated":"2026-02-28T23:20:47Z"}
