{"icao":"LPCS","metar":"LPCS 031800Z 01011KT 9999 FEW006 19/14 Q1022","updated":"2025-10-03T18:24:17Z"}
