{"icao":"LPCS","metar":"LPCS 081430Z 33019KT 9999 FEW017 22/14 Q1022","updated":"2026-06-08T14:46:46Z"}
