{"icao":"LPPR","metar":"LPPR 240400Z 11004KT 070V150 9999 SCT024 BKN034 OVC040 14/12 Q1016","updated":"2025-10-24T04:21:03Z"}
