{"icao":"KLAX","metar":"KLAX 220453Z 26009KT 10SM BKN008 BKN150 19/18 A2987 RMK AO2 SLP114 T01940178","updated":"2025-09-22T05:17:47Z"}
