{"icao":"KORD","metar":"KORD 220551Z 20006KT 10SM OVC085 00/M08 A3039 RMK AO2 SLP298 T00001083 10000 21022 400061089 58008","updated":"2025-12-22T06:33:47Z"}
