{"icao":"LPMT","metar":"LPMT 041800Z 34009KT 9999 FEW020 22/16 Q1021","updated":"2025-10-04T18:21:41Z"}
