{"icao":"LPPD","metar":"LPPD 301630Z 23008KT 8000 -RA SCT007 BKN012 16/15 Q1020","updated":"2026-01-30T16:37:47Z"}
