{"icao":"LPST","metar":"LPST 221100Z 26011KT 9000 SCT009 BKN015 22/19 Q1019","updated":"2025-10-22T11:16:12Z"}
