{"icao":"LPFR","metar":"LPFR 310200Z VRB02KT CAVOK 11/05 Q1025","updated":"2026-03-31T02:12:54Z"}
