{"icao":"LPHR","metar":"LPHR 161100Z 14009KT 4000 -RADZ SCT011 BKN015 17/16 Q1023","updated":"2025-11-16T11:13:24Z"}
