{"icao":"LPPR","metar":"LPPR 221000Z 21003KT 8000 FEW020 SCT030 12/07 Q1006","updated":"2026-01-22T10:26:16Z"}
