{"icao":"LPLA","metar":"LPLA 231800Z 01005KT 330V090 9999 FEW025 14/08 Q1025","updated":"2026-03-23T18:53:07Z"}
