{"icao":"LPPR","metar":"LPPR 241600Z 30005KT 9999 FEW035 13/09 Q1010","updated":"2025-12-24T16:24:02Z"}
