{"icao":"LPPS","metar":"LPPS 120300Z 28007KT 9999 FEW015 16/13 Q1019","updated":"2026-05-12T03:31:31Z"}
