{"icao":"LPPT","metar":"LPPT 281100Z 29010G21KT 260V330 9999 VCSH FEW018 14/11 Q1004","updated":"2026-01-28T11:21:55Z"}
