{"icao":"LPPR","metar":"LPPR 111500Z 32010KT CAVOK 25/11 Q1019","updated":"2025-10-11T15:14:43Z"}
