{"icao":"LPST","metar":"LPST 040900Z 01008KT 330V040 9999 SCT020 FEW022TCU 16/11 Q1017","updated":"2026-05-04T09:15:54Z"}
