{"icao":"KJFK","metar":"KJFK 210551Z 27013KT 10SM CLR 12/04 A2993 RMK AO2 SLP134 T01220044 10156 20122 53003","updated":"2025-10-21T06:27:52Z"}
