{"icao":"KORD","metar":"KORD 051533Z 22010KT 3SM -SN SCT024 OVC032 M06/M09 A3004 RMK AO2 P0000 T10561094","updated":"2026-02-05T15:39:41Z"}
