{"icao":"KORD","metar":"KORD 151851Z 07008KT 10SM OVC013 15/12 A3022 RMK AO2 SLP233 T01500122","updated":"2025-10-15T19:14:13Z"}
