{"icao":"LPHR","metar":"LPHR 080700Z 16011KT 6000 SCT006 BKN011 22/21 Q1022","updated":"2025-10-08T07:17:06Z"}
