{"icao":"LPMR","metar":"LPMR 251600Z 35011KT 9999 FEW020 14/06 Q1023","updated":"2025-11-25T16:26:15Z"}
