{"icao":"KORD","metar":"KORD 022251Z 04010KT 10SM FEW300 22/02 A3031 RMK AO2 SLP264 T02220017 $","updated":"2026-06-02T23:44:06Z"}
