{"icao":"LPMA","metar":"LPMA 180400Z 03005KT 340V060 9999 SCT015 21/15 Q1018","updated":"2025-09-18T04:21:03Z"}
