{"icao":"LPPR","metar":"LPPR 101630Z 33012KT 300V360 CAVOK 22/12 Q1019","updated":"2026-06-10T16:56:22Z"}
