{"icao":"LPPS","metar":"LPPS 020900Z 07011KT 040V100 9999 SCT015 SCT030 22/18 Q1021","updated":"2025-10-02T09:17:56Z"}
