{"icao":"LPLA","metar":"LPLA 120700Z 25006KT 200V300 9000 -RA FEW012 BKN020 15/12 Q1013","updated":"2026-02-12T07:51:07Z"}
