{"icao":"LPST","metar":"LPST 221500Z 35017KT CAVOK 19/08 Q1019","updated":"2025-09-22T15:18:53Z"}
