{"icao":"LPBJ","metar":"LPBJ 070300Z 23001KT 150V290 CAVOK 17/16 Q1021","updated":"2025-10-07T03:30:59Z"}
