{"icao":"LPFL","metar":"LPFL 050830Z 29012G27KT 230V350 5000 SHRA BKN020 FEW022TCU 10/06 Q1003","updated":"2026-02-05T08:41:08Z"}
