{"icao":"KJFK","metar":"KJFK 280251Z 36009KT 10SM BKN050 BKN250 09/03 A3037 RMK AO2 SLP283 T00890028 53006","updated":"2025-10-28T03:06:14Z"}
