{"icao":"LPPT","metar":"LPPT 020530Z 15004KT 110V200 9999 FEW006 15/13 Q1017","updated":"2026-05-02T05:35:27Z"}
