{"icao":"KORD","metar":"KORD 301517Z 32007KT 2 1/2SM -SN OVC033 M11/M14 A3035 RMK AO2 P0000 T11111144","updated":"2026-01-30T15:33:02Z"}
