{"icao":"LPLA","metar":"LPLA 052000Z 12007KT 9999 BKN030 BKN040 14/08 Q1031","updated":"2026-01-05T20:24:25Z"}
