{"icao":"LPMA","metar":"LPMA 281830Z VRB02KT 9999 FEW014 19/14 Q1018","updated":"2026-01-28T18:35:51Z"}
