{"icao":"LPMR","metar":"LPMR 280900Z 13002KT 8000 3500S SCT030 07/06 Q1024","updated":"2025-11-28T09:19:47Z"}
