{"icao":"LPPS","metar":"LPPS 181730Z 26018KT 9999 SCT014 FEW018CB SCT030 13/07 Q0997","updated":"2026-03-18T18:02:07Z"}
