{"icao":"KJFK","metar":"KJFK 281451Z 00000KT 10SM FEW022 SCT250 06/03 A3014 RMK AO2 SLP207 T00610028 53000 $","updated":"2026-02-28T15:20:33Z"}
