{"icao":"KORD","metar":"KORD 170651Z 27018G29KT 10SM OVC050 M06/M13 A2972 RMK AO2 PK WND 27029/0647 SLP073 T10611133 $","updated":"2026-01-17T07:18:06Z"}
