{"icao":"LPPR","metar":"LPPR 311700Z 01003KT 330V070 CAVOK 11/07 Q1017","updated":"2025-12-31T17:17:25Z"}
