{"icao":"LPMA","metar":"LPMA 061000Z 34006KT 300V010 9999 BKN023 19/09 Q1025","updated":"2025-12-06T10:18:36Z"}
