{"icao":"LPAR","metar":"LPAR 241800Z 24006KT 210V270 9999 VCSH FEW009 SCT015 BKN022 22/18 Q1016","updated":"2025-10-24T22:16:44Z"}
