{"icao":"LPAZ","metar":"LPAZ 251630Z 22005KT 190V270 9999 BKN003 17/16 Q1017","updated":"2026-04-25T16:39:28Z"}
