{"icao":"KLAX","metar":"KLAX 041253Z 00000KT 10SM CLR 14/02 A3014 RMK AO2 SLP203 T01440022 $","updated":"2026-02-04T12:56:50Z"}
