{"icao":"LPPD","metar":"LPPD 161330Z 32012KT 290V350 9999 FEW025 16/08 Q1033","updated":"2026-01-16T13:36:54Z"}
