{"icao":"LPAR","metar":"LPAR 221400Z 27008KT 230V300 9999 BKN022 BKN028 25/18 Q1018","updated":"2025-10-22T14:19:49Z"}
