{"icao":"LPPD","metar":"LPPD 071800Z 29018G29KT 270V340 9999 FEW025 FEW027CB 15/08 Q1008","updated":"2026-05-07T18:22:31Z"}
