{"icao":"KORD","metar":"KORD 031151Z 36004KT 10SM BKN090 OVC130 M06/M14 A3003 RMK AO2 SLP179 T10611144 11061 21067 55000 $","updated":"2026-01-03T12:37:38Z"}
