{"icao":"LPOV","metar":"LPOV 300700Z 01008KT CAVOK 07/05 Q1019","updated":"2025-11-30T07:16:23Z"}
