{"icao":"LPHR","metar":"LPHR 221700Z 19015KT 9999 FEW011 SCT030 18/16 Q1018","updated":"2026-02-22T17:24:00Z"}
