{"icao":"LPAZ","metar":"LPAZ 291500Z 16011KT 130V190 9999 FEW027 24/16 Q1025","updated":"2025-09-29T15:18:16Z"}
