{"icao":"KJFK","metar":"KJFK 150451Z 18010KT 10SM FEW085 SCT100 BKN250 19/13 A2991 RMK AO2 SLP128 T01890128 402670128","updated":"2026-04-15T05:22:47Z"}
