{"icao":"KLAX","metar":"KLAX 311053Z 07003KT 10SM CLR 17/00 A3015 RMK AO2 SLP207 T01720000 $","updated":"2026-01-31T11:20:18Z"}
