{"icao":"LPFR","metar":"LPFR 220500Z 06012KT CAVOK 11/M01 Q1027","updated":"2025-11-22T05:16:57Z"}
