{"icao":"LPCS","metar":"LPCS 171500Z 22007KT 190V250 CAVOK 25/13 Q1014","updated":"2025-10-17T15:17:55Z"}
