{"icao":"LPFR","metar":"LPFR 231000Z 25003KT 160V330 CAVOK 15/06 Q1028","updated":"2025-11-23T10:17:37Z"}
