{"icao":"LPOV","metar":"LPOV 210700Z 00000KT CAVOK 03/03 Q1029","updated":"2026-02-21T07:30:48Z"}
