{"icao":"LPCS","metar":"LPCS 031230Z 03007KT 350V090 9999 FEW015 25/15 Q1023","updated":"2025-10-03T12:35:10Z"}
