{"icao":"LPCS","metar":"LPCS 080700Z 13006KT 9000 SCT003 BKN007 15/15 Q1020","updated":"2025-12-08T07:22:34Z"}
