{"icao":"LPMT","metar":"LPMT 081000Z 13005KT 100V190 9999 FEW015 SCT025 16/14 Q1021","updated":"2025-12-08T10:22:08Z"}
