{"icao":"KJFK","metar":"KJFK 272051Z 18005KT 10SM FEW020 BKN055 BKN075 OVC130 22/18 A3002 RMK RAE42 SLP165 P0000 60001 T02220183 56004 ","updated":"2026-06-27T21:01:45Z"}
