{"icao":"KJFK","metar":"KJFK 022151Z 33010G18KT 10SM BKN070 BKN210 BKN250 16/M02 A2982 RMK SLP099 T01561017 ","updated":"2026-05-02T22:39:30Z"}
