{"icao":"LPFL","metar":"LPFL 010900Z 17004KT 150V250 9999 VCSH FEW006 BKN014 FEW015TCU 23/20 Q1018","updated":"2025-10-01T09:19:39Z"}
