{"icao":"LPHR","metar":"LPHR 301500Z 24015KT 9999 SCT013 BKN030 18/13 Q1026","updated":"2025-11-30T15:16:52Z"}
