{"icao":"KORD","metar":"KORD 102151Z 17011KT 9SM RA FEW015 FEW040 SCT085 BKN130 OVC250 22/21 A2976 RMK AO2 PK WND 25039/2052 TSE45 SLP074 OCNL LTGICCG DSNT NE-SE CB DSNT NE-SE MOV E P0048 T02170206 $","updated":"2026-06-10T22:07:13Z"}
