{"icao":"KLAX","metar":"KLAX 141253Z 00000KT 3SM BR OVC006 14/13 A3005 RMK AO2 SLP174 T01440128 $","updated":"2025-12-14T13:26:17Z"}
