{"icao":"LPHR","metar":"LPHR 261800Z 07012G22KT 010V110 9999 -SHRA SCT008 BKN022 20/16 Q1017","updated":"2025-09-26T18:22:54Z"}
