{"icao":"LPMR","metar":"LPMR 031800Z 35009KT 6000 OVC008 16/15 Q1024","updated":"2025-10-03T18:24:18Z"}
