{"icao":"KLAX","metar":"KLAX 230153Z 27013KT 10SM FEW250 16/09 A3017 RMK AO2 SLP216 T01560094 $","updated":"2026-02-23T02:04:19Z"}
