{"icao":"KORD","metar":"KORD 301408Z 27013KT 2 1/2SM -SN BR SCT015 OVC025 M02/M04 A2997 RMK AO2 DRSN P0000 T10221044 $","updated":"2025-11-30T14:16:34Z"}
