{"icao":"LPFR","metar":"LPFR 040830Z 25025KT 5000 BR SCT010 BKN020 16/15 Q1001","updated":"2026-02-04T08:39:30Z"}
