{"icao":"LPPS","metar":"LPPS 251630Z 01012KT 340V040 9999 FEW015 18/11 Q1018","updated":"2026-04-25T16:39:30Z"}
