{"icao":"LPPT","metar":"LPPT 011300Z 08007KT 030V140 9999 -RA OVC005 10/09 Q1010","updated":"2026-01-01T13:32:04Z"}
