{"icao":"LPMA","metar":"LPMA 292200Z 36007KT 310V030 9999 FEW016 18/13 Q1023","updated":"2025-11-29T22:17:22Z"}
