{"icao":"LPLA","metar":"LPLA 120300Z 25023G33KT 220V280 9999 FEW025 FEW026CB 17/11 Q1009","updated":"2026-01-12T03:48:20Z"}
