{"icao":"LPPD","metar":"LPPD 052000Z 28022KT 9999 -SHRA SCT020 FEW025CB 12/07 Q1009","updated":"2026-02-05T20:32:20Z"}
