{"icao":"LPMA","metar":"LPMA 040900Z 32008KT 260V020 9999 BKN015 FEW016CB 17/12 Q1008","updated":"2026-01-04T09:18:35Z"}
