{"icao":"LPPT","metar":"LPPT 020500Z 32006KT CAVOK 20/12 Q1020","updated":"2025-10-02T05:16:21Z"}
