{"icao":"LPFL","metar":"LPFL 201100Z 11004KT 050V160 9999 SCT035 20/11 Q1030","updated":"2025-09-20T11:12:40Z"}
