{"icao":"LPMT","metar":"LPMT 010300Z 36004KT CAVOK 14/13 Q1018","updated":"2025-10-01T03:09:47Z"}
