{"icao":"LPFR","metar":"LPFR 170730Z 04005KT 020V100 CAVOK 21/08 Q1017","updated":"2026-04-17T07:44:23Z"}
