{"icao":"KJFK","metar":"KJFK 130951Z 32008KT 10SM FEW180 SCT250 M06/M11 A3012 RMK AO2 SLP199 T10561111 $","updated":"2026-02-13T10:38:36Z"}
