{"icao":"LPLA","metar":"LPLA 180715Z 30016KT 9999 SCT007 BKN014 16/16 Q1025","updated":"2025-11-18T07:18:30Z"}
