{"icao":"KORD","metar":"KORD 121851Z 25007KT 10SM SCT022 BKN180 BKN250 M01/M07 A3007 RMK AO2 SLP190 T10111067","updated":"2025-12-12T19:17:03Z"}
