{"icao":"KORD","metar":"KORD 271851Z 29014G25KT 10SM SCT034 M11/M20 A3012 RMK AO2 PK WND 29026/1809 SNE02 SLP215 P0000 T11111200","updated":"2026-01-27T19:25:11Z"}
