{"icao":"KLAX","metar":"KLAX 151053Z VRB04KT 6SM BR OVC008 15/13 A2995 RMK AO2 SLP140 T01500133 $","updated":"2026-03-15T11:24:42Z"}
