{"icao":"LPPR","metar":"LPPR 161230Z 28004KT 230V330 8000 NSC 21/15 Q1015","updated":"2025-10-16T12:38:38Z"}
