{"icao":"LPMA","metar":"LPMA 162000Z VRB07KT 9999 BKN015 16/10 Q1026","updated":"2026-01-16T20:21:04Z"}
