{"icao":"KORD","metar":"KORD 092151Z 24007KT 10SM BKN045 BKN070 BKN250 30/22 A2984 RMK AO2 SLP098 T03000217","updated":"2026-06-09T22:23:20Z"}
