{"icao":"KORD","metar":"KORD 251311Z 35008KT 1SM R10L/P6000FT -SN BR VV015 M13/M16 A3018 RMK AO2 P0001 T11331156 $","updated":"2026-01-25T13:31:45Z"}
