{"icao":"LPST","metar":"LPST 050900Z 36007KT 9999 FEW030 06/M01 Q1013","updated":"2026-01-05T09:30:31Z"}
