{"icao":"KJFK","metar":"KJFK 061351Z 32012KT 10SM FEW050 FEW250 08/M04 A3005 RMK AO2 PK WND 33029/1300 SLP175 T00831044","updated":"2026-04-06T14:45:03Z"}
