{"icao":"LPMT","metar":"LPMT 080200Z 27007KT 9999 SCT020 10/08 Q1012","updated":"2026-02-08T02:27:59Z"}
