{"icao":"KJFK","metar":"KJFK 022251Z 14005KT 10SM FEW050 BKN250 15/07 A3046 RMK AO2 SLP314 T01500067","updated":"2025-10-02T23:15:57Z"}
