{"icao":"KLAX","metar":"KLAX 100853Z 00000KT 10SM CLR 11/01 A3040 RMK AO2 SLP291 T01060011 51003 $","updated":"2026-01-10T09:19:27Z"}
