{"icao":"KORD","metar":"KORD 191951Z 31011G22KT 10SM FEW020 SCT047 BKN090 BKN250 09/M02 A3012 RMK AO2 SLP202 RAE1854 P0000 T00891017 $","updated":"2026-04-19T20:36:13Z"}
