{"icao":"KORD","metar":"KORD 291651Z 20014G19KT 10SM BKN100 BKN250 14/M04 A3016 RMK AO2 SLP215 T01441039 $","updated":"2026-03-29T17:28:39Z"}
