{"icao":"LPPD","metar":"LPPD 071700Z 24007KT 220V280 9999 FEW018 24/20 Q1024","updated":"2025-10-07T17:15:22Z"}
