{"icao":"KORD","metar":"KORD 121451Z 28011G22KT 10SM FEW250 07/M02 A2991 RMK AO2 SLP133 T00671022 51030","updated":"2025-11-12T15:20:52Z"}
