{"icao":"LPPR","metar":"LPPR 130930Z 31016G29KT 9999 VCSH BKN020 FEW022CB 11/08 Q1000 RESHRA","updated":"2026-02-13T09:42:04Z"}
