{"icao":"LPPT","metar":"LPPT 072000Z 29013G23KT 250V320 9999 FEW025 FEW030TCU 12/08 Q1008 WS R20","updated":"2026-02-07T20:25:04Z"}
