{"icao":"LPPR","metar":"LPPR 150730Z 12004KT 060V150 2500 -DZ BR BKN005 BKN009 12/12 Q1024","updated":"2026-04-15T07:43:06Z"}
