{"icao":"LPPD","metar":"LPPD 062200Z 19007KT 9999 SCT003 BKN010 22/22 Q1020","updated":"2025-10-06T22:15:46Z"}
