{"icao":"KJFK","metar":"KJFK 251617Z 24009KT 10SM BKN010 OVC027 17/16 A3010 RMK AO2 T01720156 $","updated":"2026-05-25T16:26:36Z"}
