{"icao":"LPPD","metar":"LPPD 011500Z 04010KT 360V080 9999 FEW025 BKN045 19/08 Q1020","updated":"2025-11-01T15:15:05Z"}
