{"icao":"KORD","metar":"KORD 250251Z 18006KT 9SM FEW025 FEW040 BKN070 OVC130 08/07 A2992 RMK AO2 RAE24 SLP134 P0000 60000 T00830067 58016","updated":"2025-11-25T03:13:54Z"}
