{"icao":"KORD","metar":"KORD 040951Z 33003KT 10SM BKN021 M08/M12 A3033 RMK AO2 SLP282 T10781117","updated":"2026-02-04T10:37:04Z"}
