{"icao":"LPMR","metar":"LPMR 070700Z 33004KT 2500 BR FEW007 15/15 Q1020","updated":"2026-06-07T07:53:22Z"}
