{"icao":"KORD","metar":"KORD 221151Z 00000KT 10SM FEW025 01/M02 A3006 RMK AO2 SLP186 T00111022 10028 20006 53015","updated":"2025-11-22T12:33:40Z"}
