{"icao":"LPAR","metar":"LPAR 110900Z 16007KT 0800 FG BKN007 15/15 Q1014","updated":"2025-11-11T09:20:23Z"}
