{"icao":"LPMA","metar":"LPMA 281230Z 02012G25KT 320V050 9999 BKN015 16/08 Q1028","updated":"2026-02-28T12:42:32Z"}
