{"icao":"LPBJ","metar":"LPBJ 130935Z 28023KT 8000 -TSRA FEW020CB BKN022 12/08 Q1007","updated":"2026-02-13T09:42:08Z"}
