{"icao":"LPMT","metar":"LPMT 122000Z 33010KT 300V360 9999 FEW045 13/06 Q1021","updated":"2026-04-12T20:34:43Z"}
