{"icao":"LPAZ","metar":"LPAZ 270100Z 01009KT 9999 FEW022 BKN030 13/07 Q1023","updated":"2025-12-27T01:26:57Z"}
