{"icao":"LPST","metar":"LPST 311300Z 20014KT 2000 -RA BR BKN009 BKN012 19/18 Q1012","updated":"2025-10-31T13:28:27Z"}
