{"icao":"LPMA","metar":"LPMA 281400Z 02009KT 330V060 9999 SCT016 23/15 Q1024","updated":"2025-09-28T14:14:15Z"}
