{"icao":"KJFK","metar":"KJFK 300351Z 29024G34KT 10SM SCT055 BKN100 00/M11 A2953 RMK AO2 PK WND 27043/0329 SLP000 T00001111 $","updated":"2025-12-30T04:38:12Z"}
