{"icao":"LPAR","metar":"LPAR 041500Z 25009KT 220V280 4000 -RADZ BR SCT007 BKN013 OVC025 16/15 Q0996","updated":"2026-02-04T15:41:12Z"}
