{"icao":"LPHR","metar":"LPHR 031230Z 27011KT 9000 -RA SCT012 BKN020 18/15 Q1028","updated":"2025-12-03T12:41:06Z"}
