{"icao":"LPMA","metar":"LPMA 292300Z 34007KT 290V020 9999 FEW016 18/13 Q1023","updated":"2025-11-29T23:17:13Z"}
