{"icao":"KORD","metar":"KORD 131851Z 21011G17KT 10SM FEW022 SCT032 BKN170 BKN250 23/17 A2990 RMK AO2 SLP122 T02330172","updated":"2026-04-13T19:23:21Z"}
