{"icao":"LPMR","metar":"LPMR 212000Z 29009KT 7000 SCT018 FEW022TCU 11/08 Q1005 RESHRA","updated":"2026-01-21T20:28:48Z"}
