{"icao":"LPPS","metar":"LPPS 211000Z 05009KT 010V070 9999 FEW015 SCT030 16/11 Q1027","updated":"2026-02-21T10:24:30Z"}
