{"icao":"KORD","metar":"KORD 281605Z 15004KT 1SM R10L/2600VP6000FT -RA BR FEW001 BKN026 OVC070 12/12 A2955 RMK AO2 LTG DSNT SW P0003 T01220122 $","updated":"2025-12-28T16:23:20Z"}
