{"icao":"LPMA","metar":"LPMA 161300Z 05008KT 360V070 9999 BKN015 17/12 Q1017","updated":"2026-03-16T13:09:20Z"}
