{"icao":"LPAZ","metar":"LPAZ 231430Z 18008KT 4500 BR FEW001 BKN005 20/19 Q1025","updated":"2026-05-23T14:59:36Z"}
