{"icao":"LPMA","metar":"LPMA 241100Z 34008KT 250V040 9999 FEW015 18/07 Q1027","updated":"2026-01-24T11:17:12Z"}
