{"icao":"LPLA","metar":"LPLA 270300Z 26005KT 230V300 9999 FEW018 15/09 Q1014","updated":"2026-05-27T03:39:38Z"}
