{"icao":"KORD","metar":"KORD 200551Z 26005KT 10SM FEW100 M16/M22 A3031 RMK AO2 SLP281 4/001 T11611217 11150 21161 410781183 50005 $","updated":"2026-01-20T06:34:48Z"}
