{"icao":"KLAX","metar":"KLAX 090453Z 34009G15KT 10SM CLR 13/M04 A3012 RMK AO2 SLP198 T01281039 $","updated":"2026-01-09T05:24:20Z"}
