{"icao":"LPPD","metar":"LPPD 181900Z 35004KT 300V050 9999 FEW007 SCT014 17/15 Q1023","updated":"2025-11-18T19:15:39Z"}
