{"icao":"LPPD","metar":"LPPD 080700Z 33007KT 290V020 9999 VCSH FEW016 BKN030 14/10 Q1033","updated":"2026-04-08T07:17:50Z"}
