{"icao":"LPCS","metar":"LPCS 201330Z 27011KT 240V300 9999 SCT022 BKN035 14/11 Q1019","updated":"2026-01-20T13:45:40Z"}
