{"icao":"LPPD","metar":"LPPD 261430Z 13006KT 100V160 9999 SCT013 18/16 Q1021","updated":"2026-04-26T14:41:14Z"}
