{"icao":"LPST","metar":"LPST 220800Z 26006KT 230V290 4000 BR SCT004 BKN010 20/19 Q1017","updated":"2025-10-22T08:26:31Z"}
