{"icao":"KLAX","metar":"KLAX 250253Z 27010KT 9SM OVC007 18/16 A2997 RMK AO2 SLP149 T01780156 53008","updated":"2025-10-25T03:01:07Z"}
