{"icao":"LPBJ","metar":"LPBJ 031600Z 15005KT 120V190 CAVOK 23/07 Q1021","updated":"2025-11-03T16:21:02Z"}
