{"icao":"LPPD","metar":"LPPD 181100Z VRB03KT 9999 SCT014 18/16 Q1026","updated":"2025-11-18T11:17:31Z"}
