{"icao":"KORD","metar":"KORD 130112Z 25011KT 10SM BKN025 BKN033 OVC047 M03/M07 A3005 RMK AO2 T10331072","updated":"2025-12-13T01:24:25Z"}
