{"icao":"KORD","metar":"KORD 180451Z 12007KT 10SM BKN110 OVC250 06/M01 A3006 RMK AO2 SLP184 T00611006","updated":"2025-11-18T05:18:55Z"}
