{"icao":"LPPS","metar":"LPPS 301230Z 29010KT 250V310 9999 FEW010 20/17 Q1019","updated":"2025-12-30T12:41:45Z"}
