{"icao":"KJFK","metar":"KJFK 240951Z 34020G27KT 10SM FEW250 M12/M23 A3055 RMK AO2 PK WND 32031/0857 SLP344 T11221228 $","updated":"2026-01-24T10:20:45Z"}
