{"icao":"LPPD","metar":"LPPD 181100Z 11006KT 070V130 9999 FEW008 16/14 Q1017","updated":"2026-04-18T11:33:21Z"}
