{"icao":"LPMA","metar":"LPMA 230800Z 32009KT 270V360 9999 SCT015 17/11 Q1017","updated":"2026-01-23T08:29:30Z"}
