{"icao":"LPAZ","metar":"LPAZ 301500Z 16013KT 9000 -DZ FEW003 BKN005 18/18 Q1012","updated":"2025-12-30T15:21:16Z"}
