{"icao":"LPLA","metar":"LPLA 010700Z 26015G27KT 9000 -RA FEW018 SCT040 17/13 Q1004","updated":"2026-02-01T07:36:16Z"}
