{"icao":"KORD","metar":"KORD 251056Z 03015KT 10SM OVC005 08/06 A2995 RMK AO2 T00780056","updated":"2026-04-25T11:36:56Z"}
