{"icao":"LPLA","metar":"LPLA 061100Z 20020G47KT 170V240 9999 FEW007 BKN014 BKN025 20/17 Q1010","updated":"2025-12-06T11:14:32Z"}
