{"icao":"LPGR","metar":"LPGR 201530Z 28012KT 250V310 9999 FEW013 21/16 Q1010","updated":"2026-06-20T15:49:13Z"}
