{"icao":"LPMA","metar":"LPMA 090500Z 02010KT 340V040 9999 BKN015 22/16 Q1024","updated":"2025-10-09T05:17:36Z"}
