{"icao":"LPBJ","metar":"LPBJ 201100Z 04005KT 360V080 CAVOK 12/06 Q1030","updated":"2026-02-20T11:31:11Z"}
