{"icao":"KLAX","metar":"KLAX 081053Z 07003KT 5SM BR CLR 16/15 A2988 RMK AO2 SLP114 T01610150 $","updated":"2025-11-08T11:13:21Z"}
