{"icao":"LPHR","metar":"LPHR 191830Z 01025G42KT 340V040 9999 SCT012 FEW014TCU SCT025 15/10 Q1007","updated":"2026-03-19T18:57:17Z"}
