{"icao":"KJFK","metar":"KJFK 051851Z 19017G27KT 10SM FEW180 BKN250 17/09 A2979 RMK AO2 PK WND 18027/1807 SLP088 T01670089 $","updated":"2025-11-05T19:14:38Z"}
