{"icao":"LPBJ","metar":"LPBJ 141100Z 31007KT 250V030 9999 SCT018 19/10 Q1015","updated":"2026-05-14T11:51:05Z"}
