{"icao":"LPLA","metar":"LPLA 261716Z 28025G49KT 260V320 4500 SHRAGS SCT018 SCT020CB BKN030 11/05 Q1004 WS ALL RWY","updated":"2026-01-26T17:28:25Z"}
