{"icao":"LPFR","metar":"LPFR 131000Z 35012KT CAVOK 30/10 Q1018","updated":"2025-09-13T10:15:30Z"}
