{"icao":"LPHR","metar":"LPHR 201000Z 09005KT 050V130 9999 FEW025 18/13 Q1030","updated":"2025-11-20T10:20:45Z"}
