{"icao":"LPBJ","metar":"LPBJ 191200Z 21008KT 170V260 9999 FEW048 25/14 Q1016","updated":"2025-10-19T12:33:00Z"}
