{"icao":"KLAX","metar":"KLAX 111453Z 00000KT 10SM FEW007 17/16 A2979 RMK AO2 SLP086 T01720156 53009 $","updated":"2025-10-11T15:15:01Z"}
