{"icao":"LPOV","metar":"LPOV 031100Z 30003KT 8000 BKN009 SCT018 16/14 Q1024","updated":"2025-10-03T11:13:55Z"}
