{"icao":"LPMA","metar":"LPMA 081600Z 03012KT 360V060 9999 SCT014 23/16 Q1021","updated":"2025-11-08T16:20:11Z"}
