{"icao":"LPBJ","metar":"LPBJ 190500Z 29008KT 0500 FG VV002 07/07 Q1017","updated":"2025-11-19T05:18:50Z"}
