{"icao":"LPFR","metar":"LPFR 071330Z 22020KT 8000 VCSH SCT015 FEW020CB SCT035 13/11 Q1008 RERA","updated":"2026-02-07T13:42:31Z"}
