{"icao":"LPAR","metar":"LPAR 271500Z 28011G22KT 240V320 9999 SCT020 13/08 Q1003","updated":"2026-01-27T15:29:38Z"}
