{"icao":"LPBJ","metar":"LPBJ 021500Z 25005KT 160V320 CAVOK 31/12 Q1019","updated":"2025-10-02T15:17:45Z"}
