{"icao":"LPBJ","metar":"LPBJ 251800Z 15012KT CAVOK 32/08 Q1021","updated":"2026-05-25T18:24:12Z"}
