{"icao":"LPBJ","metar":"LPBJ 202100Z 13009KT CAVOK 21/06 Q1008","updated":"2026-04-20T21:44:32Z"}
