{"icao":"KLAX","metar":"KLAX 131553Z 11006KT 6SM HZ SCT055 BKN075 18/14 A3006 RMK AO2 SLP178 T01780144 $","updated":"2025-11-13T16:22:44Z"}
