{"icao":"LPST","metar":"LPST 201100Z VRB01KT 9999 FEW020 12/09 Q1020","updated":"2026-01-20T11:22:23Z"}
