{"icao":"KLAX","metar":"KLAX 142253Z 24013G23KT 10SM FEW015 FEW070 20/12 A3005 RMK AO2 SLP175 T02000122","updated":"2026-04-14T23:47:51Z"}
