{"icao":"KJFK","metar":"KJFK 251817Z 12007KT 3SM -RA BR BKN014 BKN021 OVC060 06/04 A3007 RMK P0005 T00610044 ","updated":"2026-04-25T18:51:03Z"}
