{"icao":"KORD","metar":"KORD 031533Z 26007KT 10SM BKN015 BKN250 09/05 A3006 RMK AO2 T00890050","updated":"2026-04-03T15:38:07Z"}
