{"icao":"LPPR","metar":"LPPR 022000Z 35004KT CAVOK 14/10 Q1021","updated":"2026-04-02T20:33:38Z"}
