{"icao":"KORD","metar":"KORD 131751Z 22011KT 10SM OVC025 22/17 A2991 RMK AO2 SLP126 60000 T02220172 10222 20178 56007","updated":"2026-04-13T17:58:29Z"}
