{"icao":"KORD","metar":"KORD 142151Z 30014G24KT 10SM FEW047 BKN060 21/09 A2990 RMK AO2 SLP122 T02060089 $","updated":"2026-06-14T22:09:03Z"}
