{"icao":"LPPS","metar":"LPPS 032030Z 17004KT 140V200 9999 SCT010 18/16 Q1016","updated":"2026-05-03T20:41:51Z"}
