{"icao":"LPOV","metar":"LPOV 030100Z VRB01KT CAVOK 08/08 Q1025","updated":"2025-11-03T01:26:12Z"}
