{"icao":"LPFL","metar":"LPFL 161300Z 35006KT 300V020 9999 FEW025 19/11 Q1029","updated":"2026-05-16T13:19:20Z"}
