{"icao":"LPPS","metar":"LPPS 262100Z 23006KT 9999 FEW015 17/13 Q1016","updated":"2026-01-26T21:23:00Z"}
