{"icao":"LPHR","metar":"LPHR 191430Z 21015KT 9999 SCT007 SCT012 BKN040 17/16 Q1019","updated":"2026-02-19T14:48:28Z"}
