{"icao":"KORD","metar":"KORD 211651Z 24018G25KT 10SM FEW060 FEW100 SCT200 SCT250 21/08 A2989 RMK AO2 PK WND 23028/1606 SLP119 CB DSNT N MOV SE T02060083 $","updated":"2026-04-21T16:59:49Z"}
