{"icao":"LPOV","metar":"LPOV 121100Z 06008KT CAVOK 27/13 Q1017","updated":"2025-10-12T11:12:42Z"}
