{"icao":"KJFK","metar":"KJFK 130251Z 04020G30KT 6SM RA BR BKN013 OVC020 14/13 A2997 RMK AO2 PK WND 02032/0236 SLP147 P0010 60019 T01440128 58007","updated":"2025-10-13T03:08:38Z"}
