{"icao":"LPFR","metar":"LPFR 151130Z 30010KT 260V340 9999 FEW025 21/08 Q1013","updated":"2026-05-15T11:54:53Z"}
