{"icao":"LPHR","metar":"LPHR 101500Z 22023G33KT 5000 -RA BR FEW005 BKN008 19/18 Q1011 RERA","updated":"2025-12-10T15:23:39Z"}
