{"icao":"LPCS","metar":"LPCS 111800Z 01007KT CAVOK 23/13 Q1017","updated":"2025-10-11T18:20:36Z"}
