{"icao":"KORD","metar":"KORD 101210Z 33015KT 10SM BKN055 M04/M07 A3021 RMK AO2 SNE09 P0000 T10391067 $","updated":"2025-11-10T12:38:39Z"}
