{"icao":"KORD","metar":"KORD 100351Z 19010KT 10SM CLR 17/13 A2975 RMK AO2 SLP074 T01670133 $","updated":"2026-03-10T04:09:36Z"}
