{"icao":"LPFL","metar":"LPFL 140800Z 29004KT 240V350 9999 FEW025 14/07 Q1008","updated":"2025-11-14T08:24:50Z"}
