{"icao":"LPPR","metar":"LPPR 010300Z 00000KT CAVOK 16/12 Q1019","updated":"2025-10-01T03:09:46Z"}
