{"icao":"LPBJ","metar":"LPBJ 111400Z 15007KT 110V170 9999 FEW020 SCT025 BKN030 15/11 Q1020","updated":"2025-12-11T14:20:56Z"}
