{"icao":"LPMA","metar":"LPMA 251500Z 03007KT 360V080 9999 FEW016 18/09 Q1025","updated":"2026-01-25T15:19:25Z"}
