{"icao":"LPAR","metar":"LPAR 301600Z 32012KT 280V360 CAVOK 31/17 Q1019","updated":"2026-06-30T19:54:17Z"}
