{"icao":"LPCS","metar":"LPCS 271230Z 01008KT 340V040 CAVOK 20/03 Q1017","updated":"2026-03-27T13:03:57Z"}
