{"icao":"LPSJ","metar":"LPSJ 171800Z 25014KT 9999 FEW008 BKN023 22/20 Q1016","updated":"2026-06-17T23:31:13Z"}
