{"icao":"LPFL","metar":"LPFL 191800Z 02007KT 350V060 9999 FEW030 20/11 Q1027","updated":"2025-09-19T18:24:09Z"}
