{"icao":"LPBJ","metar":"LPBJ 310300Z 06002KT 3000 1000S BCFG NSC 03/03 Q1019","updated":"2025-12-31T03:25:48Z"}
