{"icao":"LPPT","metar":"LPPT 242000Z 31008KT 8000 -RADZ FEW006 BKN010 16/15 Q1017","updated":"2025-11-24T20:21:39Z"}
