{"icao":"LPBJ","metar":"LPBJ 201830Z 07007KT 5000 2100S -RADZ BR SCT003 BKN015 FEW025CB 13/13 Q1007","updated":"2026-03-20T18:48:34Z"}
