{"icao":"LPPD","metar":"LPPD 310530Z 23016KT 6000 BKN005 BKN011 16/16 Q1017","updated":"2026-01-31T05:37:33Z"}
