{"icao":"KORD","metar":"KORD 170351Z 27012G19KT 10SM FEW055 BKN095 OVC140 M02/M08 A2968 RMK AO2 PK WND 26026/0254 SLP057 T10221083 $","updated":"2026-01-17T04:31:44Z"}
