{"icao":"LPLA","metar":"LPLA 180800Z 31015KT 6000 -DZ SCT007 BKN014 15/14 Q1028","updated":"2026-01-18T08:25:28Z"}
