{"icao":"LPPT","metar":"LPPT 011000Z 06009KT 9999 SCT009 BKN034 08/07 Q1013","updated":"2026-01-01T10:21:26Z"}
