{"icao":"KJFK","metar":"KJFK 181651Z 06005KT 1 1/2SM BR OVC005 02/02 A2984 RMK AO2 SFC VIS 5 SLP105 CIG 004V006 T00220022 $","updated":"2026-02-18T17:01:51Z"}
