{"icao":"LPPR","metar":"LPPR 261400Z 36008KT 330V030 CAVOK 15/08 Q1026","updated":"2025-11-26T14:19:24Z"}
