{"icao":"LPFL","metar":"LPFL 241900Z 18009KT 9999 FEW025 21/14 Q1019","updated":"2025-09-24T19:14:35Z"}
