{"icao":"KLAX","metar":"KLAX 100653Z 00000KT 10SM CLR 17/08 A3002 RMK AO2 SLP163 T01720078 $","updated":"2025-12-10T07:21:29Z"}
