{"icao":"LPPT","metar":"LPPT 041930Z 25016G32KT 220V280 5000 DZRA BKN008 15/15 Q0997 WS R20","updated":"2026-02-04T19:37:16Z"}
