{"icao":"LPMA","metar":"LPMA 101500Z 04005KT 350V100 9999 BKN016 22/15 Q1019","updated":"2025-11-10T15:20:53Z"}
