{"icao":"LPAZ","metar":"LPAZ 021530Z 08014KT 050V110 9999 FEW022 19/12 Q1018","updated":"2026-05-02T15:43:38Z"}
