{"icao":"LPMR","metar":"LPMR 271300Z 11011KT CAVOK 12/03 Q1010","updated":"2025-12-27T13:27:07Z"}
