{"icao":"LPPS","metar":"LPPS 101500Z 26006KT 240V300 9999 SCT015 BKN030 21/15 Q1020","updated":"2025-11-10T15:20:53Z"}
