{"icao":"LPPS","metar":"LPPS 111100Z 01004KT 330V030 9999 SCT012 17/14 Q1028","updated":"2026-01-11T11:16:58Z"}
