{"icao":"LPBJ","metar":"LPBJ 060805Z 21010KT 4000 SHRA FEW020CB BKN028 11/10 Q1004","updated":"2026-02-06T08:39:41Z"}
