{"icao":"LPMT","metar":"LPMT 142300Z 14002KT CAVOK 15/13 Q1016","updated":"2025-10-14T23:15:52Z"}
