{"icao":"LPFR","metar":"LPFR 030830Z 27011KT CAVOK 20/10 Q1019","updated":"2026-06-03T08:58:14Z"}
