{"icao":"LPOV","metar":"LPOV 181900Z 33005KT 9999 FEW018 17/14 Q1015","updated":"2026-04-19T02:34:19Z"}
