{"icao":"LPAR","metar":"LPAR 130900Z 18016KT 7000 -RA FEW015 BKN022 16/15 Q1001","updated":"2025-11-13T09:20:26Z"}
