{"icao":"LPBJ","metar":"LPBJ 250300Z 06003KT CAVOK 14/03 Q1016","updated":"2025-09-25T03:37:24Z"}
