{"icao":"LPFR","metar":"LPFR 231600Z 09011KT CAVOK 28/13 Q1019","updated":"2026-05-23T16:07:14Z"}
