{"icao":"LPPS","metar":"LPPS 100800Z 02005KT 9999 FEW015 BKN030 20/15 Q1022","updated":"2025-11-10T08:27:11Z"}
