{"icao":"LPFL","metar":"LPFL 241400Z 04004KT 360V090 9999 FEW016CB 22/17 Q1018","updated":"2025-10-24T14:18:51Z"}
