{"icao":"KORD","metar":"KORD 210851Z 00000KT 10SM FEW065 BKN250 17/12 A2993 RMK AO2 SLP131 T01670122 56001 $","updated":"2026-06-21T08:56:26Z"}
