{"icao":"LPAZ","metar":"LPAZ 071000Z 27014KT 7000 FEW010 16/14 Q1016","updated":"2026-02-07T10:23:59Z"}
