{"icao":"LPFL","metar":"LPFL 171530Z 19010KT 160V220 9999 FEW008 SCT016 20/17 Q1022 WS R18","updated":"2026-05-17T15:58:02Z"}
