{"icao":"LPMA","metar":"LPMA 192000Z 24008KT 9999 FEW013 SCT070 23/21 Q1020","updated":"2025-09-19T20:18:37Z"}
