{"icao":"KJFK","metar":"KJFK 061351Z 02007KT 10SM FEW140 SCT180 BKN250 M04/M11 A2978 RMK AO2 SLP085 T10441106 PNO $","updated":"2026-02-06T14:03:17Z"}
