{"icao":"LPFR","metar":"LPFR 030330Z VRB05KT CAVOK 17/10 Q1018","updated":"2026-06-03T03:57:39Z"}
