{"icao":"LPFR","metar":"LPFR 050100Z VRB02KT CAVOK 22/15 Q1019","updated":"2025-10-05T01:24:51Z"}
