{"icao":"LPFL","metar":"LPFL 211730Z 15004KT 110V200 9999 SCT006 16/14 Q1010","updated":"2026-05-21T17:56:40Z"}
