{"icao":"LPCS","metar":"LPCS 121700Z 22010KT 190V250 9999 FEW014 18/13 Q1019","updated":"2026-05-12T17:09:07Z"}
