{"icao":"KJFK","metar":"KJFK 151251Z 08007KT 10SM SCT110 BKN170 BKN250 03/M06 A3050 RMK AO2 SLP326 T00281056","updated":"2026-03-15T13:46:37Z"}
