{"icao":"LPPS","metar":"LPPS 020700Z 06008KT 020V100 9999 SCT014 21/17 Q1021","updated":"2025-10-02T07:16:34Z"}
