{"icao":"LPPR","metar":"LPPR 221700Z 35007KT CAVOK 15/09 Q1027","updated":"2026-02-22T17:23:40Z"}
