{"icao":"LPFL","metar":"LPFL 141330Z 23008G20KT 160V310 3000 +DZ BR FEW007 BKN010 18/15 Q1019","updated":"2026-01-14T13:39:22Z"}
