{"icao":"LPMA","metar":"LPMA 272300Z 32006KT 250V360 9999 FEW016 16/06 Q1017","updated":"2025-12-27T23:18:00Z"}
