{"icao":"LPMR","metar":"LPMR 032100Z 30005KT 3000 1200S -DZ BR SCT003 BKN006 18/18 Q1020","updated":"2026-06-03T21:47:17Z"}
