{"icao":"KJFK","metar":"KJFK 242051Z 33010KT 10SM FEW170 SCT250 10/M03 A3024 RMK AO2 SLP241 T01001028 53015","updated":"2025-11-24T21:18:04Z"}
