{"icao":"LPBJ","metar":"LPBJ 162100Z 22009KT 9999 -SHRA FEW026 SCT036 13/12 Q1013","updated":"2025-11-16T21:15:34Z"}
