{"icao":"LPFR","metar":"LPFR 201100Z 25006KT 9999 FEW040 12/08 Q1022","updated":"2026-01-20T11:22:22Z"}
