{"icao":"LPPR","metar":"LPPR 261230Z 29004KT 200V340 9999 FEW003 19/15 Q1017","updated":"2026-04-26T13:04:00Z"}
