{"icao":"LPPD","metar":"LPPD 101130Z 35012KT 310V020 8000 -SHRA SCT015 FEW018TCU SCT030 15/12 Q1019","updated":"2026-05-10T11:50:20Z"}
