{"icao":"KLAX","metar":"KLAX 082053Z 26008KT 5SM HZ FEW004 21/16 A2993 RMK AO2 SLP133 T02110161 58008","updated":"2025-11-08T21:14:06Z"}
