{"icao":"KJFK","metar":"KJFK 170651Z 33011KT 10SM CLR 09/M02 A2997 RMK AO2 SLP147 T00891017","updated":"2025-10-17T07:18:11Z"}
