{"icao":"LPPR","metar":"LPPR 301500Z 01008KT CAVOK 15/07 Q1020","updated":"2025-11-30T15:16:50Z"}
