{"icao":"LPLA","metar":"LPLA 011600Z 02007KT 330V130 9999 FEW018 SCT022 18/14 Q1017","updated":"2026-05-01T16:58:42Z"}
