{"icao":"LPAZ","metar":"LPAZ 041730Z 26025G37KT 4000 -SHRA BR SCT007 FEW021TCU BKN030 15/14 Q0996","updated":"2026-02-04T17:43:41Z"}
