{"icao":"LPPR","metar":"LPPR 171500Z 27004KT 240V300 9999 FEW012 SCT019 FEW022TCU BKN042 10/06 Q1009","updated":"2026-01-17T15:18:19Z"}
