{"icao":"LPMA","metar":"LPMA 130600Z 25012G22KT 210V270 9999 BKN015 FEW018CB 17/11 Q0998","updated":"2025-11-13T06:29:06Z"}
