{"icao":"LPAR","metar":"LPAR 161200Z 35003KT 9999 VCSH FEW015 FEW020CB SCT030 11/09 Q1015 RESHRA","updated":"2026-01-16T12:42:10Z"}
