{"icao":"LPPT","metar":"LPPT 201700Z 23008KT 210V270 9999 -SHRA SCT020 14/11 Q1017","updated":"2026-01-20T17:28:11Z"}
