{"icao":"LPCS","metar":"LPCS 081800Z 34008KT 300V010 9999 SCT012 SCT026 18/15 Q1022","updated":"2025-10-08T18:26:32Z"}
