{"icao":"LPPR","metar":"LPPR 161430Z 27006KT 170V320 7000 SCT004 BKN007 14/13 Q1028","updated":"2026-02-16T14:39:34Z"}
