{"icao":"KJFK","metar":"KJFK 201351Z 25014KT 10SM FEW035 SCT250 M01/M08 A3024 RMK AO2 SLP240 T10061083 $","updated":"2025-12-20T14:17:07Z"}
