{"icao":"LPMA","metar":"LPMA 191230Z 02013G23KT 330V060 9999 FEW015 17/10 Q1027","updated":"2026-01-19T12:47:16Z"}
