{"icao":"LPOV","metar":"LPOV 140600Z 33010KT 4000 -SHRA SCT015 BKN026 12/10 Q1017","updated":"2026-03-14T06:43:52Z"}
