{"icao":"LPMT","metar":"LPMT 011100Z 02004KT 340V050 9999 FEW007 SCT032 18/16 Q1018","updated":"2025-11-01T11:13:11Z"}
