{"icao":"LPLA","metar":"LPLA 272000Z 17012KT 9999 FEW008 17/14 Q1017","updated":"2026-04-27T21:00:19Z"}
