{"icao":"LPHR","metar":"LPHR 081900Z 30006KT 270V330 9999 VCSH FEW017 SCT035 19/14 Q1022","updated":"2025-11-08T19:13:21Z"}
