{"icao":"LPPD","metar":"LPPD 271530Z 25008KT 220V280 9999 FEW025 16/09 Q1035","updated":"2026-02-27T15:36:26Z"}
