{"icao":"KJFK","metar":"KJFK 190551Z 26006KT 10SM FEW250 20/16 A2994 RMK AO2 SLP139 T02000161 10211 20189 52001 $","updated":"2025-09-19T06:26:22Z"}
