{"icao":"KJFK","metar":"KJFK 070651Z 00000KT 10SM OVC010 03/01 A3038 RMK AO2 SLP288 T00280011","updated":"2026-03-07T07:27:29Z"}
