{"icao":"LPPS","metar":"LPPS 241600Z 02010KT 9999 FEW015 19/13 Q1024","updated":"2025-11-24T16:22:01Z"}
