{"icao":"LPMA","metar":"LPMA 022100Z 34005KT 310V030 9999 FEW014 FEW016CB 15/11 Q0998","updated":"2026-01-02T21:15:13Z"}
