{"icao":"LPLA","metar":"LPLA 202300Z 33023KT 9999 BKN030 OVC040 14/09 Q1029","updated":"2025-12-20T23:17:05Z"}
