{"icao":"LPMA","metar":"LPMA 231130Z 03016KT 9999 SCT013 FEW018CB 18/15 Q1012","updated":"2026-03-23T11:41:57Z"}
