{"icao":"LPHR","metar":"LPHR 071600Z 07011KT 020V100 7000 VCSH FEW007 SCT011 BKN080 16/13 Q1020","updated":"2026-03-07T16:26:28Z"}
