{"icao":"LPAZ","metar":"LPAZ 070230Z 20012KT 9999 SCT005 BKN010 23/22 Q1021","updated":"2025-10-07T02:56:12Z"}
