{"icao":"LPOV","metar":"LPOV 181200Z 25007KT 210V290 CAVOK 24/15 Q1016","updated":"2025-10-18T12:32:55Z"}
