{"icao":"LPMR","metar":"LPMR 072100Z 02003KT 5000 BR FEW004 15/15 Q1023","updated":"2025-10-07T21:14:46Z"}
