{"icao":"LPFR","metar":"LPFR 090400Z VRB02KT CAVOK 13/10 Q1020","updated":"2025-11-09T04:20:39Z"}
