{"icao":"LPST","metar":"LPST 221000Z 26009KT 230V290 9000 SCT008 BKN014 21/19 Q1019","updated":"2025-10-22T10:20:05Z"}
