{"icao":"LPCS","metar":"LPCS 111800Z 35013KT CAVOK 30/12 Q1018","updated":"2026-06-11T18:10:17Z"}
