{"icao":"KORD","metar":"KORD 230451Z 25009G16KT 10SM FEW250 07/02 A2999 RMK AO2 SLP159 T00670022","updated":"2025-11-23T05:17:46Z"}
