{"icao":"LPPR","metar":"LPPR 010900Z 11006KT 050V130 CAVOK 11/05 Q1022","updated":"2026-03-01T09:28:35Z"}
