{"icao":"LPFR","metar":"LPFR 071100Z 33004KT 290V360 9999 FEW045 14/08 Q1018","updated":"2026-03-07T11:18:43Z"}
