{"icao":"LPFR","metar":"LPFR 210900Z 07005KT 010V120 9999 FEW025 19/13 Q1005","updated":"2026-04-21T09:24:20Z"}
