{"icao":"KJFK","metar":"KJFK 071551Z 31012G21KT 10SM SCT050 SCT075 BKN100 29/14 A2980 RMK AO2 PK WND 32028/1528 SLP092 T02890144 $","updated":"2026-06-07T16:13:48Z"}
