{"icao":"KLAX","metar":"KLAX 290853Z 26008KT 10SM CLR 19/17 A2998 RMK AO2 SLP150 T01940167 58003 $","updated":"2025-09-29T09:20:55Z"}
