{"icao":"LPMA","metar":"LPMA 082000Z 35007KT 330V030 9999 BKN013 16/12 Q1033","updated":"2026-01-08T20:24:06Z"}
