{"icao":"LPHR","metar":"LPHR 121000Z 29004KT 230V320 9999 SCT014 BKN030 20/18 Q1018","updated":"2025-10-12T10:16:37Z"}
