{"icao":"KORD","metar":"KORD 300451Z 18006KT 10SM CLR 12/00 A3000 RMK AO2 SLP158 T01170000 $","updated":"2026-03-30T05:23:06Z"}
