{"icao":"LPFR","metar":"LPFR 122100Z 17010KT 9999 FEW025 BKN040 15/11 Q1017","updated":"2026-01-12T21:19:40Z"}
