{"icao":"KJFK","metar":"KJFK 211551Z 24009KT 10SM FEW017 BKN025 OVC037 09/05 A3006 RMK AO2 SLP180 T00890050","updated":"2025-11-21T16:24:08Z"}
