{"icao":"LPPD","metar":"LPPD 041400Z 26007KT 220V290 9999 FEW025 BKN040 16/08 Q1023","updated":"2026-04-04T14:32:25Z"}
