{"icao":"KORD","metar":"KORD 200351Z 18009KT 10SM BKN120 BKN250 M06/M12 A2995 RMK AO2 SLP155 T10561117","updated":"2025-12-20T04:25:23Z"}
