{"icao":"LPOV","metar":"LPOV 271900Z 15018G30KT 120V180 8000 -SHRA BKN015 20/17 Q1008","updated":"2025-09-27T19:12:29Z"}
