{"icao":"LPLA","metar":"LPLA 221500Z 19016G27KT 9000 -RA FEW015 SCT022 21/17 Q1021","updated":"2025-09-22T15:18:56Z"}
