{"icao":"LPBJ","metar":"LPBJ 170700Z 17001KT 0600 FG NSC 03/03 Q1013","updated":"2026-01-17T07:18:03Z"}
