{"icao":"LPFR","metar":"LPFR 031930Z 21011KT 7000 -RA SCT007 BKN010 13/12 Q1003","updated":"2026-02-03T19:43:36Z"}
