{"icao":"LPFL","metar":"LPFL 061100Z 18015G25KT 150V220 9999 FEW022 16/12 Q1031","updated":"2026-01-06T11:18:10Z"}
