{"icao":"LPFL","metar":"LPFL 071000Z 25012G22KT 180V350 9999 FEW020 17/10 Q1008","updated":"2025-12-07T10:17:24Z"}
