{"icao":"LPPR","metar":"LPPR 240800Z 10012G25KT 080V170 CAVOK 17/04 Q1020","updated":"2025-09-24T08:23:25Z"}
