{"icao":"KJFK","metar":"KJFK 031851Z 25010KT 10SM FEW043 FEW060 SCT250 00/M09 A3015 RMK AO2 SLP210 T00001094 PNO $","updated":"2026-02-03T19:43:40Z"}
