{"icao":"KLAX","metar":"KLAX 052153Z 24009KT 8SM FEW010 SCT024 SCT060 BKN150 BKN200 17/11 A3004 RMK AO2 SLP174 T01720111 $","updated":"2026-01-05T22:19:56Z"}
