{"icao":"LPAZ","metar":"LPAZ 021000Z 07010KT 9999 FEW010 SCT016 BKN024 20/17 Q1021","updated":"2025-11-02T10:17:07Z"}
