{"icao":"KLAX","metar":"KLAX 281353Z 11005KT 10SM SCT200 18/12 A2988 RMK AO2 SLP116 T01780117","updated":"2026-02-28T14:20:49Z"}
