{"icao":"KJFK","metar":"KJFK 010551Z 06008KT 10SM BKN095 BKN110 BKN250 17/10 A2994 RMK AO2 SLP137 T01670100 10239 20167 50011 $","updated":"2026-06-01T06:01:21Z"}
