{"icao":"KORD","metar":"KORD 081951Z 21011G29KT 10SM FEW110 FEW250 16/02 A2977 RMK AO2 PK WND 20031/1919 SLP083 T01560022 $","updated":"2026-03-08T20:25:09Z"}
