{"icao":"LPGR","metar":"LPGR 151700Z 22019KT 9999 FEW013 BKN035 22/18 Q1018","updated":"2026-06-16T03:58:08Z"}
