{"icao":"LPPT","metar":"LPPT 211230Z 27008KT 230V300 9999 FEW025 FEW030CB 11/05 Q1009","updated":"2025-12-21T12:36:54Z"}
