{"icao":"KJFK","metar":"KJFK 120051Z 09012G19KT 10SM FEW029 BKN100 BKN250 17/12 A3016 RMK AO2 SLP213 T01720122","updated":"2025-10-12T01:21:52Z"}
