{"icao":"LPCS","metar":"LPCS 041100Z 25015KT 6000 -RADZ FEW002 BKN005 15/15 Q0997","updated":"2026-02-04T11:31:53Z"}
