{"icao":"LPLA","metar":"LPLA 052200Z 18012KT 9999 FEW014 SCT023 22/19 Q1020","updated":"2025-10-05T22:15:06Z"}
