{"icao":"LPBJ","metar":"LPBJ 262100Z 29012KT CAVOK 20/16 Q1018","updated":"2026-06-26T21:17:06Z"}
