{"icao":"KJFK","metar":"KJFK 101851Z 18007KT 10SM FEW022 BKN100 BKN250 24/19 A2987 RMK AO2 SLP116 T02390189 $","updated":"2026-06-10T19:38:42Z"}
