{"icao":"LPPT","metar":"LPPT 031830Z 33010KT 290V350 9999 FEW028 17/10 Q1014","updated":"2026-05-03T18:57:45Z"}
