{"icao":"LPPS","metar":"LPPS 040530Z 33003KT 290V360 9999 FEW012 13/11 Q1020","updated":"2026-04-04T05:55:53Z"}
