{"icao":"LPMR","metar":"LPMR 310700Z 34002KT CAVOK 11/05 Q1027","updated":"2026-03-31T07:11:46Z"}
