{"icao":"LPCS","metar":"LPCS 061900Z 21005KT 170V230 9999 FEW008 BKN035 15/15 Q1024","updated":"2025-12-07T01:42:22Z"}
