{"icao":"LPLA","metar":"LPLA 222300Z 14011KT 100V190 9999 FEW012 BKN018 16/14 Q1019","updated":"2026-02-22T23:25:05Z"}
