{"icao":"KJFK","metar":"KJFK 212251Z 00000KT 10SM -RA FEW017 SCT065 BKN095 OVC130 16/12 A3022 RMK AO2 SLP234 P0000 T01610122","updated":"2026-05-21T23:02:22Z"}
