{"icao":"LPOV","metar":"LPOV 211700Z 28014KT 4000 SHRA BR FEW008 FEW018CB SCT030 BKN040 14/10 Q1001","updated":"2026-01-21T17:53:03Z"}
