{"icao":"LPST","metar":"LPST 220700Z 35010KT CAVOK 12/08 Q1021","updated":"2025-09-22T07:18:24Z"}
