{"icao":"LPAZ","metar":"LPAZ 141500Z 26018KT 9999 BKN008 19/17 Q1022","updated":"2025-12-14T15:17:23Z"}
