{"icao":"LPAZ","metar":"LPAZ 121700Z 03013KT 350V070 9999 SCT026 18/10 Q1025","updated":"2026-05-12T17:09:10Z"}
