{"icao":"LPCS","metar":"LPCS 030800Z 27004KT 190V320 9999 FEW014 16/13 Q1015","updated":"2026-05-03T08:06:50Z"}
