{"icao":"LPHR","metar":"LPHR 092200Z 24019KT 9000 FEW007 BKN012 18/17 Q1007","updated":"2026-02-09T22:34:25Z"}
