{"icao":"LPMA","metar":"LPMA 211400Z 35007KT 300V070 9999 SCT015 SCT030 25/21 Q1020","updated":"2025-10-21T14:17:21Z"}
