{"icao":"LPPR","metar":"LPPR 041730Z 21011KT 6000 BKN005 14/13 Q0993","updated":"2026-02-04T17:43:24Z"}
