{"icao":"KJFK","metar":"KJFK 251151Z 07004KT 10SM FEW110 BKN250 22/14 A3007 RMK SLP182 T02170144 10217 20172 53008 ","updated":"2026-06-25T12:19:39Z"}
