{"icao":"LPMA","metar":"LPMA 201000Z 33007KT 270V010 9999 FEW015 16/07 Q1026","updated":"2026-01-20T10:26:44Z"}
