{"icao":"LPPT","metar":"LPPT 230430Z 33006KT CAVOK 13/09 Q1012","updated":"2026-03-23T05:01:40Z"}
