{"icao":"LPMA","metar":"LPMA 101530Z 01011KT 300V050 9999 SCT015 17/06 Q1027","updated":"2026-03-10T15:58:15Z"}
