{"icao":"LPOV","metar":"LPOV 011610Z 18012KT 0800 DZRA FG OVC002 15/15 Q1006","updated":"2026-02-01T21:21:44Z"}
