{"icao":"LPPR","metar":"LPPR 080530Z 36005KT 310V050 CAVOK 13/12 Q1023","updated":"2026-06-08T05:48:27Z"}
