{"icao":"KJFK","metar":"KJFK 070451Z 33005KT 10SM SCT200 SCT250 06/M04 A3017 RMK AO2 SLP217 T00611044 401390056 $","updated":"2025-11-07T05:18:01Z"}
