{"icao":"LPPD","metar":"LPPD 192200Z 03007KT 340V070 9999 FEW025 19/10 Q1026","updated":"2025-09-19T22:16:00Z"}
