{"icao":"LPMA","metar":"LPMA 110600Z 29003KT 9999 FEW015 13/10 Q1027","updated":"2026-01-11T06:30:17Z"}
