{"icao":"LPPS","metar":"LPPS 241000Z 33016KT 9999 FEW015 16/09 Q1026","updated":"2026-01-24T10:20:45Z"}
