{"icao":"LPST","metar":"LPST 151600Z 34006KT CAVOK 24/08 Q1016","updated":"2025-10-15T22:15:07Z"}
