{"icao":"LPMA","metar":"LPMA 280530Z 02015KT 9999 SCT015 16/10 Q1020","updated":"2026-03-28T05:55:50Z"}
