{"icao":"LPMT","metar":"LPMT 112100Z 09003KT 050V110 CAVOK 18/16 Q1017","updated":"2025-10-11T21:13:45Z"}
