{"icao":"LPMA","metar":"LPMA 191100Z 02009G19KT 330V070 9999 FEW015 16/08 Q1026","updated":"2026-01-19T11:20:45Z"}
