{"icao":"LPOV","metar":"LPOV 241400Z 28008KT 8000 FEW006 BKN012 16/16 Q1013","updated":"2025-11-24T14:19:03Z"}
