{"icao":"KJFK","metar":"KJFK 092251Z 09005KT 5SM RA BR FEW007 SCT024 BKN070 BKN250 13/12 A2985 RMK AO2 RAB10 SLP107 P0010 T01330117 $","updated":"2026-05-09T23:46:10Z"}
