{"icao":"KJFK","metar":"KJFK 252251Z 04014KT 1 1/2SM PL BR SCT012 BKN021 OVC044 M07/M09 A2993 RMK AO2 PK WND 03027/2158 SFC VIS 2 PRESFR SLP133 P0005 T10721089 $","updated":"2026-01-25T23:18:58Z"}
