{"icao":"LPMA","metar":"LPMA 030300Z 36009KT 9999 SCT015 21/17 Q1022","updated":"2025-10-03T03:27:40Z"}
