{"icao":"LPPT","metar":"LPPT 162000Z 30004KT 260V340 9999 -SHRA FEW020 FEW025TCU 09/07 Q1015","updated":"2026-01-16T20:20:28Z"}
