{"icao":"LPMA","metar":"LPMA 291330Z 21018KT 9999 FEW016 SCT030 19/11 Q1018","updated":"2025-12-29T13:36:29Z"}
