{"icao":"KORD","metar":"KORD 092251Z 30014G26KT 10SM FEW043 BKN055 BKN110 M01/M09 A3017 RMK AO2 PK WND 29028/2241 SLP223 T10111094 $","updated":"2025-11-09T23:16:23Z"}
