{"icao":"LPMT","metar":"LPMT 241300Z 23009KT 9999 BKN025 23/19 Q1017","updated":"2025-10-24T13:29:09Z"}
