{"icao":"LPCS","metar":"LPCS 131500Z 31007KT 290V350 9999 FEW028 28/12 Q1015","updated":"2025-10-13T15:18:18Z"}
