{"icao":"LPHR","metar":"LPHR 161700Z 14009KT 9999 SCT005 BKN010 BKN025 18/18 Q1022","updated":"2025-11-16T17:14:59Z"}
