{"icao":"LPPR","metar":"LPPR 012100Z 11012KT 9999 SCT048 12/07 Q1007","updated":"2026-01-01T21:18:23Z"}
