{"icao":"LPLA","metar":"LPLA 260700Z VRB05KT 5000 -DZ BR BKN003 BKN005 14/14 Q1025","updated":"2025-12-26T07:20:28Z"}
