{"icao":"KJFK","metar":"KJFK 292251Z 27023G31KT 10SM FEW055 FEW080 SCT100 06/M08 A2937 RMK AO2 PK WND 26044/2152 SLP946 T00611078 $","updated":"2025-12-29T23:18:37Z"}
