{"icao":"LPCS","metar":"LPCS 191400Z 20007KT 9999 FEW010 BKN022 21/18 Q1015","updated":"2025-10-19T14:14:38Z"}
