{"icao":"LPBJ","metar":"LPBJ 082130Z 21013KT 4000 RA SCT030 FEW035CB BKN045 13/12 Q1009","updated":"2026-05-08T22:03:20Z"}
