{"icao":"LPBJ","metar":"LPBJ 060900Z 35006KT 310V030 9999 FEW030 19/12 Q1019","updated":"2026-06-06T09:24:01Z"}
