{"icao":"LPMA","metar":"LPMA 301300Z 01020KT 9999 SCT015 19/11 Q1025","updated":"2026-03-30T13:16:52Z"}
