{"icao":"KLAX","metar":"KLAX 280253Z 25004KT 10SM SCT110 SCT220 20/13 A2988 RMK AO2 SLP117 T02000128 55000","updated":"2026-02-28T03:53:31Z"}
