{"icao":"LPFR","metar":"LPFR 151500Z 28017KT 9000 FEW010 SCT015 FEW018CB 18/17 Q1008 RERA","updated":"2025-11-15T15:16:35Z"}
