{"icao":"LPMT","metar":"LPMT 211700Z 01011KT CAVOK 14/02 Q1026","updated":"2025-11-21T17:16:11Z"}
