{"icao":"KJFK","metar":"KJFK 260951Z 01007KT 8SM OVC012 M05/M07 A2978 RMK AO2 CIG 008 W SLP084 T10501067 $","updated":"2026-01-26T10:25:40Z"}
