{"icao":"KORD","metar":"KORD 111051Z 27004KT 10SM CLR M03/M06 A3016 RMK AO2 SLP220 T10281061 $","updated":"2026-02-11T11:43:47Z"}
