{"icao":"LPFR","metar":"LPFR 141800Z 30012KT 9999 FEW045 14/06 Q1027","updated":"2026-02-14T18:33:10Z"}
