{"icao":"LPPT","metar":"LPPT 022100Z 31012KT CAVOK 19/14 Q1021","updated":"2025-10-02T21:14:31Z"}
