{"icao":"KJFK","metar":"KJFK 161051Z 26008KT 10SM BKN070 BKN110 12/09 A2921 RMK AO2 RAB22E38 SLP891 P0000 T01170089 $","updated":"2025-11-16T11:13:25Z"}
