{"icao":"LPPR","metar":"LPPR 160600Z 25007KT 210V310 9999 BKN010 14/12 Q1027","updated":"2026-02-16T06:07:55Z"}
