{"icao":"LPMA","metar":"LPMA 170230Z 22011KT 9999 SCT013 FEW015TCU 22/20 Q1011","updated":"2025-10-17T03:00:42Z"}
