{"icao":"LPPS","metar":"LPPS 090900Z 36004KT 320V070 9999 2000N -DZ FEW006 BKN010 14/13 Q1034","updated":"2026-01-09T09:27:09Z"}
