{"icao":"LPPS","metar":"LPPS 190130Z 05005KT 350V090 9999 SCT014 SCT030 16/14 Q1027","updated":"2026-02-19T02:04:17Z"}
