{"icao":"LPCS","metar":"LPCS 031700Z 23003KT CAVOK 17/12 Q1021","updated":"2025-11-03T17:16:35Z"}
