{"icao":"KJFK","metar":"KJFK 200451Z 21010KT 10SM SCT200 BKN250 22/17 A2999 RMK AO2 SLP156 T02220172 402670161 $","updated":"2026-05-20T05:03:19Z"}
