{"icao":"KORD","metar":"KORD 211251Z 09004KT 9SM BKN130 BKN250 07/03 A2993 RMK AO2 SLP137 T00720028","updated":"2026-03-21T13:41:07Z"}
