{"icao":"KLAX","metar":"KLAX 130953Z 18004KT 10SM BKN014 19/17 A2990 RMK AO2 SLP124 T01940167 $","updated":"2025-09-13T10:15:33Z"}
