{"icao":"LPMA","metar":"LPMA 241230Z 04005KT 350V140 9999 FEW014 SCT033 24/18 Q1020","updated":"2025-10-24T12:38:47Z"}
