{"icao":"LPMT","metar":"LPMT 211600Z 27010KT 250V310 9999 FEW018 SCT030 15/12 Q1005","updated":"2026-01-21T16:42:50Z"}
