{"icao":"KJFK","metar":"KJFK 140451Z 27010KT 10SM BKN180 BKN250 M01/M09 A3016 RMK AO2 SLP211 T10111089 400281061 $","updated":"2026-02-14T05:43:03Z"}
