{"icao":"LPPR","metar":"LPPR 191000Z 18019KT 4500 RA SCT005 BKN025 19/17 Q1013","updated":"2025-10-19T10:16:37Z"}
