{"icao":"LPPD","metar":"LPPD 282130Z 16011KT 9999 -RA FEW006 SCT012 BKN040 16/15 Q1013","updated":"2026-04-28T21:56:57Z"}
