{"icao":"LPPR","metar":"LPPR 080500Z 12007KT 9999 FEW025TCU 13/11 Q1008","updated":"2026-05-08T05:29:05Z"}
