{"icao":"LPCS","metar":"LPCS 081900Z 02004KT 360V060 CAVOK 14/12 Q1023","updated":"2025-11-08T19:13:03Z"}
