{"icao":"LPMR","metar":"LPMR 121000Z 13010KT 090V150 CAVOK 24/12 Q1018","updated":"2025-10-12T10:16:35Z"}
