{"icao":"LPPD","metar":"LPPD 190700Z 35015G29KT 320V040 6000 -SHRA SCT007 BKN011 15/13 Q1022","updated":"2025-11-19T07:18:37Z"}
