{"icao":"LPAR","metar":"LPAR 091400Z 33011KT 300V360 9999 SCT025 16/08 Q1028","updated":"2026-01-09T14:23:19Z"}
