{"icao":"LPPT","metar":"LPPT 130600Z 19018KT 6000 -TSRA BKN008 FEW016CB 16/15 Q1001 RESHRA","updated":"2025-11-13T06:28:44Z"}
