{"icao":"LPPR","metar":"LPPR 070500Z 18017KT 3000 -RA BR BKN004 FEW010TCU 15/14 Q1012 RERA","updated":"2025-11-07T05:17:57Z"}
