{"icao":"LPPS","metar":"LPPS 062300Z 02010KT 9999 SCT013 19/15 Q1023","updated":"2026-06-06T23:06:04Z"}
