{"icao":"LPST","metar":"LPST 081400Z 33014KT 9999 SCT015 SCT040 20/13 Q1022","updated":"2025-10-08T14:17:56Z"}
