{"icao":"LPBJ","metar":"LPBJ 170100Z 21008KT 9999 FEW023 SCT035 12/11 Q1013","updated":"2025-11-17T01:24:56Z"}
