{"icao":"LPLA","metar":"LPLA 160700Z 32003KT 280V340 3000 RADZ BR SCT004 BKN007 BKN018 19/19 Q1004","updated":"2025-10-16T07:17:50Z"}
