{"icao":"LPPT","metar":"LPPT 242130Z 33003KT 310V030 CAVOK 20/15 Q1020","updated":"2026-05-24T21:55:09Z"}
