{"icao":"LPAZ","metar":"LPAZ 171400Z 19013KT 9999 -RA FEW015 BKN025 19/16 Q1025","updated":"2025-11-17T14:18:48Z"}
