{"icao":"LPFR","metar":"LPFR 041700Z 26009KT CAVOK 23/17 Q1019","updated":"2025-10-04T17:12:56Z"}
