{"icao":"LPOV","metar":"LPOV 190600Z 11002KT 4000 BR NSC 03/03 Q1019","updated":"2026-01-19T06:36:47Z"}
