{"icao":"LPMA","metar":"LPMA 201230Z 04013KT 9999 BKN025 18/10 Q1028","updated":"2026-02-20T12:56:35Z"}
