{"icao":"LPCS","metar":"LPCS 170700Z VRB02KT 9999 FEW011 15/09 Q1014","updated":"2025-10-17T07:17:38Z"}
