{"icao":"LPCS","metar":"LPCS 161500Z 32007KT 300V360 9999 FEW010 12/10 Q1013","updated":"2026-01-16T15:22:30Z"}
