{"icao":"LPMT","metar":"LPMT 132100Z 02008KT 9999 FEW040 13/11 Q1020","updated":"2025-12-13T21:16:16Z"}
