{"icao":"LPLA","metar":"LPLA 052100Z 17003KT 110V250 9999 FEW030 BKN040 13/08 Q1031","updated":"2026-01-05T21:19:38Z"}
