{"icao":"LPPT","metar":"LPPT 151000Z 11004KT 060V140 CAVOK 21/13 Q1017","updated":"2025-10-15T10:19:43Z"}
