{"icao":"LPHR","metar":"LPHR 250900Z 25023KT 9999 SCT014 BKN050 18/16 Q1015","updated":"2026-01-25T09:20:20Z"}
