{"icao":"LPFL","metar":"LPFL 041100Z 35010KT 4500 -RA SCT004 OVC007 13/12 Q1023","updated":"2026-04-04T11:28:21Z"}
