{"icao":"LPAR","metar":"LPAR 190900Z 35003KT 320V030 9999 BKN040 12/08 Q1027","updated":"2026-02-19T09:43:12Z"}
