{"icao":"LPPT","metar":"LPPT 202300Z 23009KT 9999 FEW015 FEW030TCU 11/10 Q1011","updated":"2025-12-20T23:17:03Z"}
