{"icao":"LPHR","metar":"LPHR 310800Z 28014KT 6000 -RA SCT003 BKN005 17/17 Q1014","updated":"2026-01-31T08:29:09Z"}
