{"icao":"LPOV","metar":"LPOV 270300Z 17003KT 8000 FEW002 11/10 Q1017","updated":"2025-09-27T03:25:59Z"}
