{"icao":"LPFL","metar":"LPFL 051700Z 18015KT 150V210 9999 VCSH BKN017 FEW018TCU 19/16 Q1009","updated":"2025-11-05T17:17:43Z"}
