{"icao":"LPHR","metar":"LPHR 251230Z 29011KT 9999 FEW014 BKN020 17/12 Q1029","updated":"2026-02-25T13:02:11Z"}
