{"icao":"LPBJ","metar":"LPBJ 091500Z 33010KT 280V360 CAVOK 30/06 Q1016","updated":"2026-06-09T15:53:17Z"}
