{"icao":"KORD","metar":"KORD 290251Z 07006KT 10SM CLR 20/15 A3019 RMK AO2 SLP218 T02000150 51009 $","updated":"2025-09-29T03:03:10Z"}
