{"icao":"LPFR","metar":"LPFR 072100Z 01006KT 9999 FEW020 10/07 Q1030","updated":"2026-01-07T21:18:40Z"}
