{"icao":"LPPT","metar":"LPPT 021000Z 05004G14KT 330V130 9999 FEW020 17/12 Q1026","updated":"2025-11-02T10:16:47Z"}
