{"icao":"LPFR","metar":"LPFR 081900Z 01004KT CAVOK 18/10 Q1021","updated":"2025-11-08T19:13:02Z"}
