{"icao":"LPMT","metar":"LPMT 221900Z 25008KT 210V270 CAVOK 16/10 Q1012","updated":"2026-04-22T20:03:59Z"}
