{"icao":"KLAX","metar":"KLAX 200653Z 23008KT 9SM BKN007 20/18 A2994 RMK AO2 SLP135 T02000183","updated":"2025-09-20T07:15:13Z"}
