{"icao":"LPCS","metar":"LPCS 260800Z 05006KT CAVOK 10/08 Q1025","updated":"2025-11-26T08:26:18Z"}
