{"icao":"LPCS","metar":"LPCS 300930Z 23010KT 8000 -DZ FEW004 SCT008 BKN012 14/14 Q1013","updated":"2026-01-30T09:36:57Z"}
