{"icao":"LPMA","metar":"LPMA 031300Z 10007KT 050V130 9999 FEW015TCU 20/12 Q1000","updated":"2026-01-03T13:27:48Z"}
