{"icao":"LPFR","metar":"LPFR 271230Z 05010KT 020V080 CAVOK 18/M01 Q1022","updated":"2025-11-27T12:39:36Z"}
