{"icao":"KJFK","metar":"KJFK 102251Z 26011KT 10SM SCT055 OVC080 07/01 A2946 RMK AO2 RAE23 SLP977 P0000 T00670011","updated":"2025-12-10T23:17:00Z"}
