{"icao":"LPOV","metar":"LPOV 102000Z 21009KT 180V240 8000 BKN004 BKN010 15/15 Q1014","updated":"2026-02-10T20:42:43Z"}
