{"icao":"LPOV","metar":"LPOV 270500Z 16002KT 9999 FEW004 10/09 Q1017","updated":"2025-09-27T05:16:01Z"}
