{"icao":"KORD","metar":"KORD 080851Z 36004KT 7SM FEW110 05/03 A2985 RMK AO2 SLP111 T00500033 58003","updated":"2026-05-08T09:18:53Z"}
