{"icao":"LPST","metar":"LPST 051500Z 27018KT 9999 SCT015 FEW018CB 18/11 Q1009","updated":"2025-11-05T15:18:50Z"}
