{"icao":"LPOV","metar":"LPOV 232000Z 32003KT 280V360 CAVOK 15/10 Q1019","updated":"2025-09-24T02:57:44Z"}
