{"icao":"LPFR","metar":"LPFR 010500Z 10004KT 070V130 CAVOK 19/17 Q1018","updated":"2025-10-01T05:17:26Z"}
