{"icao":"LPAZ","metar":"LPAZ 021800Z 21005KT 180V240 9999 FEW008 23/21 Q1022","updated":"2025-10-02T18:24:43Z"}
