{"icao":"LPLA","metar":"LPLA 201200Z 18020KT 9999 FEW015 SCT020 17/14 Q1021","updated":"2026-02-20T12:56:20Z"}
