{"icao":"KORD","metar":"KORD 140551Z 26008KT 10SM OVC046 06/00 A2958 RMK AO2 SLP019 T00560000 10067 20056 401110011 53002 $","updated":"2026-01-14T06:32:44Z"}
