{"icao":"LPMT","metar":"LPMT 070900Z 36010KT CAVOK 13/08 Q1018","updated":"2026-03-07T09:27:08Z"}
