{"icao":"LPPR","metar":"LPPR 050730Z 23013KT 190V270 9999 SCT017 BKN047 14/12 Q0985","updated":"2026-02-05T07:51:24Z"}
