{"icao":"LPAZ","metar":"LPAZ 071700Z 24011KT 8000 FEW005 SCT013 17/15 Q1016","updated":"2026-02-07T17:24:17Z"}
