{"icao":"LPOV","metar":"LPOV 051100Z 29004KT 240V320 9999 VCSH FEW015 FEW025TCU 15/11 Q1017","updated":"2026-05-05T12:00:04Z"}
