{"icao":"LPMA","metar":"LPMA 022300Z 34008KT 310V010 9999 FEW014 16/11 Q0998","updated":"2026-01-02T23:18:04Z"}
