{"icao":"LPAZ","metar":"LPAZ 111230Z 02007KT 340V070 9999 FEW018 BKN032 15/10 Q1033","updated":"2026-03-11T12:57:34Z"}
