{"icao":"LPLA","metar":"LPLA 041100Z 13009KT 9999 FEW008 BKN047 24/22 Q1027","updated":"2025-10-04T11:12:39Z"}
