{"icao":"LPHR","metar":"LPHR 301000Z 28010KT 240V310 9999 VCSH FEW006 SCT014 BKN025 18/15 Q1029","updated":"2025-11-30T10:18:19Z"}
