{"icao":"LPHR","metar":"LPHR 061330Z 28027G42KT 210V320 6000 -RA SCT008 BKN012 FEW015CB BKN030 14/14 Q1008 RERA","updated":"2026-02-06T14:03:16Z"}
