{"icao":"LPLA","metar":"LPLA 040822Z VRB03KT 7000 -RA FEW014 BKN022 BKN035 17/14 Q1023","updated":"2026-03-04T08:37:33Z"}
