{"icao":"LPCS","metar":"LPCS 141330Z 26009KT 220V290 9999 FEW010 23/16 Q1017","updated":"2026-06-14T14:03:58Z"}
