{"icao":"KJFK","metar":"KJFK 091703Z 16011KT 10SM BKN015 BKN190 BKN250 09/06 A3022 RMK AO2 T00890056 $","updated":"2026-01-09T17:22:11Z"}
