{"icao":"LPMA","metar":"LPMA 072100Z 34003KT 250V010 9999 SCT015 21/16 Q1021","updated":"2025-11-07T21:13:54Z"}
