{"icao":"KORD","metar":"KORD 210807Z 15008KT 10SM OVC035 M05/M09 A3003 RMK AO2 SNE03 P0000 T10501094 $","updated":"2026-01-21T08:30:38Z"}
