{"icao":"LPPR","metar":"LPPR 080500Z 05004KT 340V060 5000 BR FEW003 SCT030 15/14 Q1022","updated":"2025-10-08T05:17:19Z"}
