{"icao":"LPPD","metar":"LPPD 200300Z 05009G20KT 020V080 9999 FEW018 SCT030 16/13 Q1026","updated":"2025-11-20T03:08:27Z"}
