{"icao":"KLAX","metar":"KLAX 181513Z 13003KT 1/2SM R25L/0600V4500FT FG BKN001 BKN120 BKN160 12/12 A2998 RMK AO2 VIS 1/8V3/4 T01220122 $","updated":"2025-12-18T15:21:29Z"}
