{"icao":"LPMR","metar":"LPMR 300000Z 16003KT 8000 SCT003 14/14 Q1018","updated":"2025-09-30T01:19:34Z"}
