{"icao":"KJFK","metar":"KJFK 071951Z 31023G33KT 10SM SCT075 BKN250 12/M08 A3021 RMK AO2 PK WND 35038/1930 SLP228 T01171078","updated":"2026-04-07T20:45:54Z"}
