{"icao":"LPOV","metar":"LPOV 032100Z 34004KT CAVOK 12/11 Q1023","updated":"2026-04-04T04:48:31Z"}
