{"icao":"LPMT","metar":"LPMT 141300Z 33008KT 290V010 9999 SCT034 20/10 Q1014","updated":"2026-05-14T14:07:49Z"}
