{"icao":"KLAX","metar":"KLAX 230453Z 00000KT 10SM CLR 15/11 A3018 RMK AO2 SLP217 T01500106 $","updated":"2026-02-23T04:57:14Z"}
