{"icao":"LPLA","metar":"LPLA 120300Z 36005KT 320V060 9999 FEW024 SCT035 14/09 Q1025","updated":"2026-05-12T03:31:30Z"}
