{"icao":"LPPS","metar":"LPPS 100100Z 02010KT 9999 FEW015 BKN030 21/17 Q1024","updated":"2025-10-10T01:18:26Z"}
