{"icao":"LPFL","metar":"LPFL 221400Z 17019G32KT 140V210 9999 BKN009 18/15 Q1014","updated":"2026-02-22T14:24:37Z"}
