{"icao":"LPMA","metar":"LPMA 042000Z 03006KT 320V070 9999 FEW013 19/07 Q1018","updated":"2026-04-04T20:30:18Z"}
