{"icao":"LPAZ","metar":"LPAZ 151330Z 36012KT 330V040 9999 BKN040 17/08 Q1031","updated":"2026-05-15T14:03:57Z"}
