{"icao":"LPFL","metar":"LPFL 211630Z 11005KT 040V150 9999 FEW025 21/14 Q1022","updated":"2026-06-21T16:44:26Z"}
