{"icao":"LPHR","metar":"LPHR 141000Z 23013KT 9999 FEW030 BKN038 16/11 Q1030","updated":"2026-02-14T10:25:34Z"}
