{"icao":"LPCS","metar":"LPCS 231900Z 35004KT 280V050 9999 FEW020 SCT040 12/09 Q1011","updated":"2025-12-23T22:18:33Z"}
