{"icao":"LPPR","metar":"LPPR 231000Z 30010KT 260V330 9000 -SHRA FEW020 FEW025CB BKN030 08/05 Q0998 RESHRA","updated":"2026-01-23T10:23:43Z"}
