{"icao":"LPBJ","metar":"LPBJ 120600Z 12007KT 9999 FEW025 14/13 Q1008","updated":"2025-11-12T06:28:30Z"}
