{"icao":"LPPT","metar":"LPPT 222300Z 31003KT 260V010 CAVOK 16/09 Q1026","updated":"2026-02-22T23:24:47Z"}
