{"icao":"LPMR","metar":"LPMR 140300Z 23002KT CAVOK 07/07 Q1021","updated":"2025-12-14T03:27:44Z"}
