{"icao":"KJFK","metar":"KJFK 310451Z 29020G36KT 10SM SCT055 M03/M15 A2981 RMK AO2 PK WND 30036/0444 SLP095 T10281150 400171028 $","updated":"2025-12-31T05:23:50Z"}
