{"icao":"LPMA","metar":"LPMA 202200Z 29004KT 230V350 9999 SCT016 16/10 Q1023","updated":"2025-12-20T22:17:12Z"}
