{"icao":"KORD","metar":"KORD 020951Z 01005KT 10SM FEW300 11/07 A3023 RMK AO2 SLP237 T01060072 $","updated":"2026-06-02T10:20:57Z"}
