{"icao":"LPHR","metar":"LPHR 292000Z 24008KT 200V280 9999 FEW003 BKN006 22/22 Q1022","updated":"2025-09-30T01:19:51Z"}
