{"icao":"LPAZ","metar":"LPAZ 230230Z 21011KT 9999 FEW022 BKN046 22/17 Q1022","updated":"2025-09-23T02:56:33Z"}
