{"icao":"LPMR","metar":"LPMR 072200Z 26001KT 9999 SCT025 14/10 Q1011","updated":"2026-05-07T23:01:02Z"}
