{"icao":"LPCS","metar":"LPCS 100600Z 02004KT CAVOK 17/12 Q1019","updated":"2025-10-10T06:27:00Z"}
