{"icao":"LPBJ","metar":"LPBJ 222000Z 05003KT CAVOK 09/M00 Q1028","updated":"2025-11-22T20:19:07Z"}
