{"icao":"KJFK","metar":"KJFK 120951Z 26011KT 10SM OVC100 04/M06 A2989 RMK AO2 SLP120 T00441061 $","updated":"2025-11-12T10:20:48Z"}
