{"icao":"LPMT","metar":"LPMT 301000Z 23007KT 180V250 9999 FEW022 19/15 Q1014","updated":"2025-10-30T10:19:43Z"}
