{"icao":"KJFK","metar":"KJFK 111451Z 31019G31KT 10SM FEW050 SCT190 BKN250 01/M13 A2971 RMK AO2 PK WND 30037/1414 SLP062 T00111133 51045 $","updated":"2025-12-11T15:23:08Z"}
