{"icao":"LPMA","metar":"LPMA 282200Z 02017G27KT 9999 BKN015 16/11 Q1025","updated":"2026-03-28T22:28:11Z"}
