{"icao":"LPMT","metar":"LPMT 040800Z 02012KT CAVOK 13/09 Q1013","updated":"2026-03-04T08:37:32Z"}
