{"icao":"LPFR","metar":"LPFR 301700Z 27010KT 9999 FEW025 22/18 Q1017","updated":"2025-09-30T17:15:32Z"}
