{"icao":"LPBJ","metar":"LPBJ 091400Z VRB02KT CAVOK 19/08 Q1020","updated":"2025-11-09T14:14:27Z"}
