{"icao":"LPLA","metar":"LPLA 031200Z 24011KT 210V270 9999 FEW018 26/20 Q1022","updated":"2025-10-03T12:35:12Z"}
