{"icao":"LPMT","metar":"LPMT 200700Z VRB02KT CAVOK 07/06 Q1030","updated":"2026-02-20T07:47:26Z"}
