{"icao":"LPBJ","metar":"LPBJ 140300Z 18008KT CAVOK 12/11 Q1004","updated":"2025-11-14T03:11:57Z"}
