{"icao":"LPPR","metar":"LPPR 231700Z 25007KT 220V300 9999 VCSH FEW012 BKN020 14/12 Q1021","updated":"2025-11-23T17:14:44Z"}
