{"icao":"LPOV","metar":"LPOV 121000Z 08004KT CAVOK 24/13 Q1018","updated":"2025-10-12T10:16:34Z"}
