{"icao":"KLAX","metar":"KLAX 221509Z 11007KT 3/4SM R25L/1400V2200FT BCFG BR BKN000 BKN220 BKN270 11/11 A3001 RMK AO2 VIS SE-SW 1/2 FG BKN000 T01060106 $","updated":"2025-12-22T15:21:01Z"}
