{"icao":"LPHR","metar":"LPHR 090930Z 26005KT 230V290 3000 BR SCT001 BKN003 19/19 Q1031","updated":"2026-06-09T09:40:26Z"}
