{"icao":"LPHR","metar":"LPHR 050530Z 02005KT 350V050 9999 FEW018 SCT040 14/08 Q1027","updated":"2026-05-05T05:41:49Z"}
