{"icao":"KORD","metar":"KORD 301651Z 24010KT 10SM SCT032 BKN300 32/24 A2994 RMK AO2 SLP131 T03170239","updated":"2026-06-30T17:52:05Z"}
