{"icao":"LPLA","metar":"LPLA 100700Z 17021G32KT 9000 -RA BKN030 16/12 Q1017","updated":"2025-12-10T07:21:28Z"}
