{"icao":"KLAX","metar":"KLAX 310053Z 01006KT 10SM FEW100 BKN150 BKN250 22/04 A3003 RMK AO2 SLP169 T02170039 $","updated":"2025-12-31T01:39:38Z"}
