{"icao":"KJFK","metar":"KJFK 070651Z 22008KT 10SM FEW250 18/17 A3020 RMK AO2 SLP227 T01830167 $","updated":"2025-10-07T07:17:16Z"}
