{"icao":"LPAR","metar":"LPAR 141300Z 31004KT 270V330 9999 SCT022 BKN035 19/11 Q1024","updated":"2026-04-14T13:23:05Z"}
