{"icao":"LPAZ","metar":"LPAZ 051500Z 27007KT 220V300 9999 FEW035 SCT049 17/12 Q1018","updated":"2025-11-05T15:19:07Z"}
