{"icao":"LPOV","metar":"LPOV 300600Z 10002KT CAVOK 02/02 Q1021","updated":"2025-12-30T06:31:53Z"}
