{"icao":"LPCS","metar":"LPCS 270800Z 16007KT 9999 SCT003 BKN018 16/16 Q1018","updated":"2025-09-27T08:19:58Z"}
