{"icao":"KORD","metar":"KORD 051151Z 30005KT 10SM -RA BKN050 BKN070 OVC250 09/01 A2977 RMK AO2 RAB27 SLP082 P0001 60001 70020 T00940011 10161 20089 53034","updated":"2026-05-05T12:00:21Z"}
