{"icao":"LPFR","metar":"LPFR 011900Z 13015KT 9999 SCT010 SCT020 17/15 Q1010","updated":"2026-01-01T19:16:22Z"}
