{"icao":"LPOV","metar":"LPOV 122100Z 36001KT CAVOK 16/07 Q1016","updated":"2025-10-12T21:14:18Z"}
