{"icao":"KJFK","metar":"KJFK 251451Z 12007KT 10SM FEW180 BKN250 26/10 A3010 RMK SLP194 T02610100 53012 ","updated":"2026-06-25T15:38:33Z"}
