{"icao":"LPAR","metar":"LPAR 150900Z 06004KT 030V090 CAVOK 18/13 Q1017","updated":"2025-10-15T09:19:26Z"}
