{"icao":"LPPD","metar":"LPPD 122000Z 30007KT 260V010 9999 FEW025 14/07 Q1018","updated":"2026-01-12T20:23:58Z"}
