{"icao":"LPMR","metar":"LPMR 101600Z 18012KT 150V210 7000 -SHRA SCT018 FEW020TCU BKN032 15/14 Q1009","updated":"2026-05-10T16:54:18Z"}
