{"icao":"KORD","metar":"KORD 271351Z 30011G21KT 10SM OVC032 M02/M10 A3020 RMK AO2 PK WND 32029/1300 SLP233 T10221100","updated":"2025-11-27T14:19:09Z"}
