{"icao":"LPCS","metar":"LPCS 290800Z 09003KT 040V130 9999 FEW004 SCT012 17/17 Q1006","updated":"2025-10-29T08:25:23Z"}
