{"icao":"LPPS","metar":"LPPS 122130Z 33007KT 300V360 9999 SCT015 BKN030 20/15 Q1020","updated":"2026-06-12T21:42:34Z"}
