{"icao":"KORD","metar":"KORD 040351Z 35010KT 10SM BKN023 M06/M11 A3031 RMK AO2 SLP275 T10611111","updated":"2026-02-04T04:13:49Z"}
