{"icao":"LPBJ","metar":"LPBJ 181000Z 24006KT 190V280 9999 FEW015 BKN035 13/09 Q1023","updated":"2026-02-18T10:42:30Z"}
