{"icao":"LPLA","metar":"LPLA 160400Z 17011KT 9999 SCT012 BKN018 BKN035 15/13 Q1027","updated":"2026-02-16T04:57:58Z"}
