{"icao":"KJFK","metar":"KJFK 240951Z 19004KT 10SM FEW019 SCT038 BKN110 20/19 A3000 RMK AO2 SLP160 T02000194 $","updated":"2025-09-24T10:18:29Z"}
