{"icao":"LPBJ","metar":"LPBJ 160500Z 30007KT CAVOK 09/07 Q1021","updated":"2026-04-16T05:29:29Z"}
