{"icao":"LPLA","metar":"LPLA 060600Z 21017KT 5000 RA BKN014 BKN020 21/19 Q1009","updated":"2025-11-06T06:27:59Z"}
