{"icao":"LPPS","metar":"LPPS 061230Z VRB02KT 9999 FEW014 22/14 Q1022","updated":"2025-11-06T12:38:22Z"}
