{"icao":"LPAZ","metar":"LPAZ 042200Z 27038G51KT 9999 FEW014 FEW025TCU SCT033 15/10 Q0998","updated":"2026-02-04T22:26:33Z"}
