{"icao":"LPPR","metar":"LPPR 221800Z 34004KT CAVOK 14/09 Q1027","updated":"2026-02-22T18:33:43Z"}
