{"icao":"LPFL","metar":"LPFL 240900Z 17006KT 140V210 9999 VCSH FEW008 BKN013 19/17 Q1024","updated":"2025-11-24T09:23:04Z"}
