{"icao":"LPPS","metar":"LPPS 281800Z 01013KT 9999 SCT015 BKN030 22/15 Q1024","updated":"2025-09-28T18:21:39Z"}
