{"icao":"LPBJ","metar":"LPBJ 080600Z VRB01KT 0500 FG SCT002 SCT020 01/00 Q1031","updated":"2026-01-08T06:33:10Z"}
