{"icao":"LPBJ","metar":"LPBJ 241700Z 02003KT 350V050 9999 FEW025 SCT032 11/05 Q1008","updated":"2025-12-24T17:16:14Z"}
