{"icao":"LPST","metar":"LPST 161200Z 28005KT 230V320 CAVOK 26/13 Q1015","updated":"2025-10-16T12:38:39Z"}
