{"icao":"KJFK","metar":"KJFK 240251Z 27008KT 10SM FEW055 FEW090 07/02 A3001 RMK AO2 SLP162 T00720017 51012","updated":"2025-11-24T03:23:09Z"}
