{"icao":"LPMR","metar":"LPMR 032100Z 06003KT 030V090 9999 -RA FEW020 BKN045 13/12 Q1000","updated":"2026-01-03T22:18:15Z"}
