{"icao":"LPPT","metar":"LPPT 081500Z 21012KT 9999 FEW018 SCT028 BKN032 13/09 Q1014 WS R20","updated":"2026-02-08T15:24:41Z"}
