{"icao":"KLAX","metar":"KLAX 031853Z 26011KT 8SM FEW009 SCT021 SCT027 22/15 A3001 RMK AO2 SLP159 T02170150 $","updated":"2025-10-03T19:13:58Z"}
