{"icao":"KORD","metar":"KORD 200351Z 36003KT 10SM FEW080 BKN110 OVC250 23/18 A3003 RMK AO2 SLP162 T02280178","updated":"2025-09-20T04:19:46Z"}
