{"icao":"LPPT","metar":"LPPT 301900Z 34012KT CAVOK 12/06 Q1019","updated":"2025-11-30T19:14:20Z"}
