{"icao":"KLAX","metar":"KLAX 101253Z 10006KT 10SM FEW008 SCT016 OVC200 16/13 A2990 RMK AO2 SLP121 T01560133 $","updated":"2026-02-10T13:11:21Z"}
