{"icao":"LPMT","metar":"LPMT 290900Z 24017KT 5000 -RA BR BKN006 BKN015 16/16 Q1009","updated":"2026-01-29T09:40:47Z"}
