{"icao":"LPOV","metar":"LPOV 220900Z 14004KT 9999 SCT025 09/09 Q1007","updated":"2026-01-22T09:31:13Z"}
