{"icao":"LPLA","metar":"LPLA 082000Z 22024G36KT 5000 RADZ SCT007 BKN014 18/17 Q1009","updated":"2026-02-08T20:26:29Z"}
