{"icao":"LPPR","metar":"LPPR 040500Z 33002KT 9999 FEW007 BKN012 16/16 Q1024","updated":"2025-10-04T05:15:24Z"}
