{"icao":"LPAZ","metar":"LPAZ 201900Z 34022KT 9999 -SHRA SCT017 BKN028 14/11 Q1028","updated":"2025-12-20T19:14:17Z"}
