{"icao":"LPPT","metar":"LPPT 120700Z VRB03KT 9000 -RA SCT001 BKN005 FEW022TCU 12/12 Q1012","updated":"2025-12-12T07:22:06Z"}
