{"icao":"LPMT","metar":"LPMT 071000Z 23009KT 200V270 9999 SCT020 SCT032 20/16 Q1016","updated":"2025-11-07T10:20:02Z"}
