{"icao":"LPMT","metar":"LPMT 030700Z 12013KT 9999 SCT008 BKN018 14/14 Q0997","updated":"2026-01-03T07:17:58Z"}
