{"icao":"LPMT","metar":"LPMT 191100Z 05004KT 360V100 9999 FEW030 BKN048 13/06 Q1028","updated":"2026-02-19T11:37:08Z"}
