{"icao":"LPBJ","metar":"LPBJ 200400Z 30002KT 270V010 CAVOK 05/04 Q1028","updated":"2026-02-20T04:21:13Z"}
