{"icao":"LPFL","metar":"LPFL 211130Z 35009KT 290V020 9999 FEW023 20/14 Q1019","updated":"2026-06-21T11:45:58Z"}
