{"icao":"LPPT","metar":"LPPT 011400Z 23011KT 1800 -RADZ BR FEW002 BKN004 15/15 Q1011 REDZ","updated":"2026-02-01T14:24:36Z"}
