{"icao":"LPOV","metar":"LPOV 161300Z 29007KT 260V320 CAVOK 20/09 Q1020","updated":"2026-03-16T13:09:15Z"}
