{"icao":"KJFK","metar":"KJFK 120551Z 30014G26KT 10SM SCT049 OVC060 01/M07 A2986 RMK AO2 PK WND 29031/0508 SLP110 4/003 T00111072 10033 20011 50005 $","updated":"2026-02-12T06:04:57Z"}
