{"icao":"LPPR","metar":"LPPR 211100Z 21009KT 170V230 9999 BKN003 BKN010 19/19 Q1012","updated":"2025-10-21T11:14:57Z"}
