{"icao":"LPBJ","metar":"LPBJ 230700Z 10006KT CAVOK 08/07 Q1024","updated":"2026-02-23T07:53:34Z"}
