{"icao":"KLAX","metar":"KLAX 070953Z 34005KT 10SM CLR 16/M04 A3001 RMK AO2 SLP161 T01561044 $","updated":"2026-03-07T10:22:49Z"}
