{"icao":"LPFL","metar":"LPFL 100700Z VRB04KT 9999 SCT015 BKN033 17/13 Q1030","updated":"2026-04-10T07:26:06Z"}
