{"icao":"LPMR","metar":"LPMR 121100Z 29005KT 250V330 9999 SCT025 FEW026CB 18/12 Q1018","updated":"2026-05-12T11:54:07Z"}
