{"icao":"LPPR","metar":"LPPR 290530Z 23008KT 200V260 3100 RADZ BR SCT004 BKN006 FEW015CB 15/14 Q1002","updated":"2026-01-29T05:41:56Z"}
