{"icao":"LPPD","metar":"LPPD 141030Z 27019KT 2000 -DZRA BR SCT003 BKN006 14/13 Q1019 RERA","updated":"2026-04-14T11:01:15Z"}
