{"icao":"LPMR","metar":"LPMR 211800Z 33010KT 290V360 9999 BKN008 21/19 Q1019","updated":"2026-06-21T18:18:44Z"}
