{"icao":"LPFL","metar":"LPFL 211800Z 12005KT 050V150 CAVOK 21/15 Q1022","updated":"2026-06-21T18:18:48Z"}
