{"icao":"LPPT","metar":"LPPT 162230Z 33008KT 310V010 9999 SCT028 13/09 Q1019","updated":"2026-05-16T22:42:14Z"}
