{"icao":"LPPT","metar":"LPPT 250700Z 26013KT 220V280 9999 -RA FEW008 BKN012 14/12 Q1015","updated":"2026-01-25T07:20:21Z"}
