{"icao":"LPPR","metar":"LPPR 251500Z 28006KT 230V320 9999 SCT036 BKN044 14/09 Q1012","updated":"2026-01-25T15:19:21Z"}
