{"icao":"KJFK","metar":"KJFK 271051Z 02012KT 1 1/2SM -SN BR FEW010 BKN017 OVC025 M02/M03 A2994 RMK AO2 TWR VIS 2 1/2 SLP138 P0000 T10171028 $","updated":"2025-12-27T11:15:53Z"}
