{"icao":"LPHR","metar":"LPHR 230000Z VRB02KT 9999 SCT012 BKN025 17/13 Q1029","updated":"2025-11-23T01:43:04Z"}
