{"icao":"LPPS","metar":"LPPS 080500Z 34018KT 9999 SCT014 13/07 Q1022","updated":"2026-04-08T05:09:56Z"}
