{"icao":"LPMA","metar":"LPMA 241700Z 32003KT 270V020 9999 SCT014 BKN030 22/18 Q1018","updated":"2025-10-24T17:16:33Z"}
