{"icao":"KJFK","metar":"KJFK 241251Z 32023G34KT 10SM FEW046 FEW065 FEW250 06/M04 A3002 RMK AO2 PK WND 31035/1233 SLP166 T00561039 $","updated":"2025-12-24T13:31:19Z"}
