{"icao":"KJFK","metar":"KJFK 241051Z 08015G21KT 10SM -RA OVC009 12/11 A3037 RMK AO2 SLP285 P0004 T01170106 $","updated":"2026-05-24T11:15:07Z"}
