{"icao":"LPAR","metar":"LPAR 071600Z 33011KT 9999 FEW040 25/15 Q1021","updated":"2025-10-07T19:13:43Z"}
