{"icao":"LPFR","metar":"LPFR 110930Z 25010KT 1500 -DZ BR OVC002 15/15 Q1021","updated":"2026-02-11T10:01:31Z"}
