{"icao":"LPPS","metar":"LPPS 240400Z 06015KT 030V090 9999 BKN011 16/13 Q1015","updated":"2026-03-24T04:25:20Z"}
