{"icao":"LPBJ","metar":"LPBJ 251200Z 18011KT 160V220 9999 BKN030 26/15 Q1017","updated":"2026-06-25T12:19:20Z"}
