{"icao":"LPCS","metar":"LPCS 202030Z 06003KT 360V100 CAVOK 11/07 Q1023","updated":"2025-11-21T05:18:36Z"}
