{"icao":"LPPT","metar":"LPPT 301000Z 34013KT 310V010 9999 FEW025 13/06 Q1019","updated":"2025-11-30T10:18:13Z"}
