{"icao":"KJFK","metar":"KJFK 111051Z 29019G27KT 10SM BKN050 01/M07 A2969 RMK AO2 PK WND 29027/1049 SLP053 T00061072 $","updated":"2025-11-11T11:16:24Z"}
