{"icao":"LPFL","metar":"LPFL 271630Z 18010KT 150V250 9999 FEW027 18/09 Q1016","updated":"2026-05-27T16:35:45Z"}
