{"icao":"LPBJ","metar":"LPBJ 070100Z 28005KT CAVOK 02/00 Q1025","updated":"2026-01-07T01:40:23Z"}
