{"icao":"KJFK","metar":"KJFK 270551Z 22006KT 10SM -RA SCT070 BKN090 BKN120 BKN250 23/20 A3004 RMK RAB0453E05B49 SLP171 P0000 60000 T02280200 10244 20228 58002 $ ","updated":"2026-06-27T06:30:04Z"}
