{"icao":"LPPS","metar":"LPPS 191230Z VRB04KT 9999 SCT015 SCT030 20/11 Q1019","updated":"2025-11-19T12:39:40Z"}
