{"icao":"LPFL","metar":"LPFL 101300Z 23007KT 170V320 9999 FEW023 22/14 Q1021","updated":"2025-10-10T13:26:39Z"}
