{"icao":"LPMT","metar":"LPMT 030200Z 30003KT CAVOK 14/13 Q1021","updated":"2025-10-03T02:55:14Z"}
