{"icao":"KORD","metar":"KORD 020651Z 08004KT 10SM FEW250 M03/M08 A3046 RMK AO2 SLP324 T10281083 $","updated":"2026-03-02T06:56:15Z"}
