{"icao":"KJFK","metar":"KJFK 080551Z 21009KT 10SM FEW045 BKN085 OVC110 14/11 A2967 RMK AO2 SLP048 T01390106 10144 20139 56018","updated":"2025-11-08T06:25:33Z"}
