{"icao":"KORD","metar":"KORD 301251Z 34008KT 10SM FEW028 FEW250 06/04 A2991 RMK AO2 SLP131 T00610039","updated":"2025-10-30T13:29:35Z"}
