{"icao":"KJFK","metar":"KJFK 260651Z 34006KT 10SM BKN085 BKN250 10/03 A3036 RMK AO2 SLP279 T01000028","updated":"2025-10-26T07:15:42Z"}
