{"icao":"LPBJ","metar":"LPBJ 020100Z 18014KT 9999 SCT025 12/11 Q1003","updated":"2026-02-02T02:04:11Z"}
