{"icao":"KLAX","metar":"KLAX 130153Z 25007KT 10SM FEW250 21/11 A3001 RMK AO2 SLP161 T02110106 $","updated":"2026-03-13T01:59:37Z"}
