{"icao":"LPMA","metar":"LPMA 141100Z 24009KT 200V290 9999 FEW015 23/12 Q1012","updated":"2025-11-14T11:15:49Z"}
