{"icao":"LPFR","metar":"LPFR 141500Z 08008KT CAVOK 19/10 Q1014","updated":"2025-12-14T15:17:19Z"}
