{"icao":"LPMA","metar":"LPMA 191800Z 22003KT 180V260 9999 FEW006 BKN013 23/20 Q1018","updated":"2025-10-19T18:22:43Z"}
