{"icao":"LPLA","metar":"LPLA 151500Z 20014G25KT 9999 SCT030 22/15 Q1005","updated":"2025-10-15T15:17:52Z"}
