{"icao":"KLAX","metar":"KLAX 210853Z 26004KT 5SM BR FEW006 BKN008 14/13 A3009 RMK AO2 SLP187 T01440133 50011 $","updated":"2026-01-21T09:31:04Z"}
