{"icao":"LPMA","metar":"LPMA 111600Z 05006KT 350V100 9999 SCT013 18/12 Q1025","updated":"2026-01-11T16:23:27Z"}
