{"icao":"LPHR","metar":"LPHR 211000Z 05011KT 020V080 9999 FEW012 BKN022 14/09 Q1017","updated":"2026-03-21T10:24:56Z"}
