{"icao":"KORD","metar":"KORD 281551Z 09006KT 10SM FEW030 24/15 A3018 RMK AO2 SLP214 T02390150 $","updated":"2025-09-28T16:18:48Z"}
