{"icao":"KJFK","metar":"KJFK 151751Z 34012KT 10SM FEW045 FEW110 BKN160 BKN250 19/11 A2991 RMK AO2 SLP127 T01940111 10194 20144 58020","updated":"2025-10-15T18:26:54Z"}
