{"icao":"LPBJ","metar":"LPBJ 131400Z 06011KT CAVOK 17/10 Q1018","updated":"2025-12-13T14:16:50Z"}
