{"icao":"LPMA","metar":"LPMA 121300Z 36011G24KT 290V070 9999 BKN015 18/06 Q1021","updated":"2025-12-12T13:33:46Z"}
