{"icao":"KORD","metar":"KORD 101851Z 34007KT 10SM OVC021 09/05 A3028 RMK AO2 SLP255 T00940050","updated":"2026-04-10T19:42:47Z"}
