{"icao":"LPCS","metar":"LPCS 011330Z 21008KT 180V240 9999 FEW020 20/10 Q1019","updated":"2026-05-01T13:42:30Z"}
