{"icao":"LPLA","metar":"LPLA 092000Z 18010KT 9999 FEW015 SCT020 BKN040 21/19 Q1021","updated":"2025-10-09T20:19:41Z"}
