{"icao":"KORD","metar":"KORD 111251Z 03017G21KT 10SM FEW095 09/02 A3020 RMK AO2 SLP229 T00890017","updated":"2026-05-11T13:47:24Z"}
