{"icao":"LPMA","metar":"LPMA 100800Z 35012KT 9999 FEW016 17/08 Q1024","updated":"2025-12-10T08:27:36Z"}
