{"icao":"LPMA","metar":"LPMA 241130Z 11004KT 070V210 9999 FEW015 18/13 Q1018","updated":"2026-02-24T11:39:22Z"}
