{"icao":"LPPT","metar":"LPPT 131400Z 09004KT 030V150 CAVOK 28/10 Q1015","updated":"2025-10-13T14:18:33Z"}
