{"icao":"LPMR","metar":"LPMR 130600Z 19022G33KT 3500 TSRA FEW009 BKN014 SCT020CB BKN024 16/15 Q1000 RERA","updated":"2025-11-13T06:28:47Z"}
