{"icao":"LPBJ","metar":"LPBJ 011100Z 23014KT 6000 RA SCT022 BKN025 19/15 Q1019","updated":"2025-11-01T11:13:11Z"}
