{"icao":"KJFK","metar":"KJFK 101651Z 10005KT 10SM BKN120 OVC250 07/M01 A3018 RMK AO2 SLP219 T00671006 $","updated":"2026-01-10T17:17:03Z"}
