{"icao":"LPBJ","metar":"LPBJ 160300Z 30008KT CAVOK 16/15 Q1015","updated":"2026-06-16T03:58:05Z"}
