{"icao":"LPMA","metar":"LPMA 152000Z 01014KT 9999 FEW016 16/11 Q1031","updated":"2026-02-15T20:25:07Z"}
