{"icao":"LPLA","metar":"LPLA 090600Z 24003KT 210V280 9999 SCT035 16/13 Q1023","updated":"2025-11-09T06:25:31Z"}
