{"icao":"LPFL","metar":"LPFL 181400Z 33009KT 280V020 9999 SCT028 15/08 Q1028","updated":"2025-12-18T14:21:09Z"}
