{"icao":"LPCS","metar":"LPCS 262100Z 02009KT CAVOK 14/12 Q1025","updated":"2026-02-26T21:30:58Z"}
