{"icao":"LPMT","metar":"LPMT 051400Z 36013KT 330V030 9999 FEW035 11/M01 Q1013","updated":"2026-01-05T14:23:19Z"}
