{"icao":"KORD","metar":"KORD 301951Z 22016G25KT 10SM FEW055 BKN300 26/11 A2979 RMK AO2 PK WND 19026/1905 SLP087 T02560111","updated":"2026-03-30T19:58:21Z"}
