{"icao":"LPFR","metar":"LPFR 051030Z 25022KT 7000 FEW015 17/15 Q1001","updated":"2026-02-05T10:38:46Z"}
