{"icao":"LPBJ","metar":"LPBJ 241500Z VRB02KT CAVOK 28/M01 Q1015","updated":"2025-09-24T15:18:22Z"}
