{"icao":"LPBJ","metar":"LPBJ 220400Z 11005KT CAVOK 10/07 Q1027","updated":"2026-02-22T04:47:19Z"}
