{"icao":"KJFK","metar":"KJFK 171251Z 36006KT 10SM FEW050 SCT110 SCT250 22/14 A2984 RMK AO2 SLP103 T02220144","updated":"2026-04-17T13:17:10Z"}
