{"icao":"LPAR","metar":"LPAR 251200Z 08006KT 020V110 CAVOK 20/11 Q1020","updated":"2026-03-25T13:07:33Z"}
