{"icao":"LPMR","metar":"LPMR 040800Z 15015KT CAVOK 16/10 Q1016","updated":"2025-11-04T08:26:21Z"}
