{"icao":"KJFK","metar":"KJFK 050851Z 00000KT 10SM SCT250 16/14 A3002 RMK AO2 SLP164 T01560139 50000 $","updated":"2026-06-05T09:44:23Z"}
