{"icao":"LPPT","metar":"LPPT 171600Z 24006KT 210V280 CAVOK 26/13 Q1014","updated":"2025-10-17T16:21:29Z"}
