{"icao":"KJFK","metar":"KJFK 231051Z 26011KT 10SM FEW046 SCT210 11/03 A2990 RMK AO2 SLP124 T01060033","updated":"2025-10-23T11:15:43Z"}
