{"icao":"KLAX","metar":"KLAX 031453Z 06003KT 10SM FEW016 FEW160 SCT250 16/13 A3000 RMK AO2 SLP156 T01560128 53018 $","updated":"2026-04-03T15:38:06Z"}
