{"icao":"KJFK","metar":"KJFK 112051Z 28022G30KT 10SM SCT065 02/M13 A2972 RMK AO2 PK WND 26034/2006 SLP062 VIRGA NW-N T00171128 53013 $","updated":"2025-12-11T21:20:43Z"}
