{"icao":"LPPR","metar":"LPPR 161300Z 29004KT 230V340 6000 NSC 22/16 Q1015","updated":"2025-10-16T13:29:37Z"}
