{"icao":"LPOV","metar":"LPOV 042000Z 34007KT 9000 BKN007 13/12 Q1015","updated":"2026-03-04T20:30:11Z"}
