{"icao":"KLAX","metar":"KLAX 070753Z 30004KT 10SM BKN012 18/16 A2985 RMK AO2 SLP107 T01780156 402220161 $","updated":"2025-10-07T08:23:51Z"}
