{"icao":"KLAX","metar":"KLAX 100813Z 00000KT 1/2SM R25L/1000V1600FT FG SCT002 15/15 A3011 RMK AO2 VIS 1/4V1 T01500150 $","updated":"2025-11-10T08:27:11Z"}
