{"icao":"KJFK","metar":"KJFK 300451Z 30012G18KT 10SM FEW055 FEW250 M08/M17 A3015 RMK PK WND 33028/0406 SLP209 T10831172 410561111 $ ","updated":"2026-01-30T05:44:28Z"}
