{"icao":"LPFR","metar":"LPFR 292200Z 26014KT 9000 SCT004 BKN016 16/15 Q1016","updated":"2026-01-29T22:26:25Z"}
