{"icao":"LPLA","metar":"LPLA 191730Z 18016KT 3000 -RADZ BR SCT007 SCT010 BKN020 17/16 Q1020","updated":"2026-02-19T17:49:10Z"}
