{"icao":"KORD","metar":"KORD 202151Z 26015G27KT 10SM OVC019 M01/M06 A2974 RMK AO2 PK WND 25035/2114 SLP077 T10061056","updated":"2026-02-20T22:24:24Z"}
