{"icao":"LPPT","metar":"LPPT 021200Z 08007KT 030V110 9999 FEW025 SCT035 18/12 Q1026","updated":"2025-11-02T12:32:28Z"}
