{"icao":"KORD","metar":"KORD 141451Z 31010KT 10SM FEW020 M18/M24 A3057 RMK AO2 SLP370 T11781244 51024","updated":"2025-12-14T15:17:53Z"}
