{"icao":"LPPT","metar":"LPPT 012200Z 33008KT CAVOK 21/11 Q1020","updated":"2025-10-01T22:15:49Z"}
