{"icao":"LPPR","metar":"LPPR 191730Z 32009KT 280V340 CAVOK 21/17 Q1015","updated":"2026-06-19T17:56:15Z"}
