{"icao":"LPOV","metar":"LPOV 180900Z 00000KT CAVOK 17/13 Q1017","updated":"2026-04-18T09:46:53Z"}
