{"icao":"LPLA","metar":"LPLA 080800Z 32016KT 9999 FEW020 BKN030 15/11 Q1034","updated":"2026-04-08T08:59:33Z"}
