{"icao":"LPFL","metar":"LPFL 211330Z VRB09G20KT 9999 FEW010 SCT014 19/15 Q1020 WS ALL RWY","updated":"2026-01-21T13:43:59Z"}
