{"icao":"LPFR","metar":"LPFR 251130Z 09009KT CAVOK 19/11 Q1019","updated":"2026-03-25T11:40:14Z"}
