{"icao":"LPPS","metar":"LPPS 202200Z 08010KT 040V100 9999 FEW015 BKN030 15/10 Q1027","updated":"2026-02-20T22:24:24Z"}
