{"icao":"LPPR","metar":"LPPR 102300Z 19011KT 6000 -SHRA SCT012 BKN015 BKN040 15/14 Q1015","updated":"2025-11-10T23:17:12Z"}
