{"icao":"KLAX","metar":"KLAX 282253Z 27011KT 10SM FEW008 SCT250 BKN300 19/14 A2994 RMK AO2 SLP139 T01890139","updated":"2026-03-28T23:29:59Z"}
