{"icao":"LPST","metar":"LPST 140800Z 00000KT CAVOK 13/10 Q1017","updated":"2025-10-14T08:22:03Z"}
