{"icao":"LPCS","metar":"LPCS 281800Z 34021KT 9999 FEW011 18/16 Q1015","updated":"2025-09-28T18:21:21Z"}
