{"icao":"LPPS","metar":"LPPS 211000Z 07013KT 040V100 9999 FEW008 SCT012 BKN030 21/19 Q1022","updated":"2025-09-21T10:16:23Z"}
