{"icao":"LPAZ","metar":"LPAZ 141800Z 29007KT 9999 FEW018 24/19 Q1026","updated":"2025-09-14T18:21:17Z"}
