{"icao":"KORD","metar":"KORD 231451Z 13003KT 5SM -RA BR FEW012 SCT045 BKN100 BKN140 20/18 A2995 RMK AO2 RAB21 SLP137 P0008 60008 T02000183 50012","updated":"2025-09-23T15:18:08Z"}
