{"icao":"KORD","metar":"KORD 231251Z 34012KT 10SM FEW030 M01/M07 A3033 RMK AO2 SLP277 T10061072","updated":"2026-03-23T13:05:03Z"}
