{"icao":"KLAX","metar":"KLAX 161016Z 07005KT 3/4SM R25L/0600VP6000FT BR SCT001 BKN002 12/12 A3007 RMK AO2 VIS 1/2V1 1/4 VIS SE 1/4 T01220117","updated":"2025-12-16T10:24:10Z"}
