{"icao":"KLAX","metar":"KLAX 041953Z 14005KT 10SM SCT013 BKN018 OVC034 16/14 A3003 RMK AO2 SLP169 T01610139","updated":"2026-01-04T20:21:21Z"}
