{"icao":"LPPT","metar":"LPPT 191830Z 36007KT CAVOK 11/05 Q1028","updated":"2026-02-19T18:49:28Z"}
