{"icao":"LPAR","metar":"LPAR 181000Z 23009KT 210V270 9999 BKN020 BKN040 14/12 Q1021","updated":"2026-02-18T10:42:30Z"}
