{"icao":"KJFK","metar":"KJFK 170551Z 23010KT 10SM BKN250 M02/M08 A3014 RMK AO2 SLP207 4/002 T10221078 11011 21028 58012 $","updated":"2025-12-17T06:31:02Z"}
