{"icao":"KLAX","metar":"KLAX 171453Z 12004KT 10SM FEW009 15/09 A2993 RMK AO2 SLP133 FU FEW009 T01500089 53007 $","updated":"2025-10-17T15:18:17Z"}
