{"icao":"LPFL","metar":"LPFL 311230Z VRB14G26KT 9999 FEW011 SCT018 18/14 Q1012","updated":"2026-01-31T12:44:36Z"}
