{"icao":"LPPR","metar":"LPPR 130400Z 11003KT 9999 BKN013 BKN017 10/09 Q1023","updated":"2026-03-13T04:18:48Z"}
