{"icao":"LPLA","metar":"LPLA 241500Z 05006KT 9999 FEW030 21/13 Q1022","updated":"2025-09-24T15:18:36Z"}
