{"icao":"LPPS","metar":"LPPS 071800Z 28009KT 250V310 9999 SCT012 BKN030 22/18 Q1020","updated":"2025-11-07T18:25:58Z"}
