{"icao":"LPAZ","metar":"LPAZ 121130Z 25019KT 7000 FEW004 SCT016 BKN021 16/15 Q1018","updated":"2026-02-12T11:38:32Z"}
