{"icao":"LPMA","metar":"LPMA 132100Z 30009KT 260V010 9999 SCT015 18/10 Q1008","updated":"2025-11-13T21:17:16Z"}
