{"icao":"LPFL","metar":"LPFL 141600Z 18020KT 140V230 9999 FEW020 SCT038 17/13 Q1023","updated":"2026-02-14T16:28:15Z"}
