{"icao":"LPPT","metar":"LPPT 142300Z 32005KT 280V350 9999 FEW024 11/08 Q1030","updated":"2026-02-14T23:22:41Z"}
