{"icao":"LPMA","metar":"LPMA 260800Z 33006KT 290V010 9999 SCT015 16/10 Q1019","updated":"2025-12-26T08:26:48Z"}
