{"icao":"KJFK","metar":"KJFK 030151Z 35013KT 10SM BKN085 BKN180 BKN250 13/M04 A2986 RMK SLP112 T01331039 ","updated":"2026-05-03T02:47:52Z"}
