{"icao":"KJFK","metar":"KJFK 071351Z 26011KT 10SM FEW040 FEW070 SCT100 SCT200 26/18 A2982 RMK AO2 SLP097 T02560178 $","updated":"2026-06-07T14:50:51Z"}
