{"icao":"LPST","metar":"LPST 041500Z 31009KT 9999 FEW030 15/09 Q1022","updated":"2025-12-04T15:22:18Z"}
