{"icao":"LPLA","metar":"LPLA 091900Z 19021G31KT 5000 -RADZ SCT008 BKN015 BKN030 17/15 Q1023","updated":"2026-01-09T19:18:50Z"}
