{"icao":"LPPD","metar":"LPPD 181430Z 14009KT 9999 FEW022 17/12 Q1026","updated":"2026-02-18T14:41:51Z"}
