{"icao":"LPPR","metar":"LPPR 200130Z 02012KT 9999 -RA FEW018 14/12 Q1005","updated":"2026-03-20T02:00:36Z"}
