{"icao":"KORD","metar":"KORD 161911Z 24013G21KT 10SM OVC016 02/M01 A2950 RMK AO2 T00171011 $","updated":"2026-01-16T19:19:55Z"}
