{"icao":"LPPR","metar":"LPPR 141230Z 12009G19KT 090V150 CAVOK 17/09 Q1020","updated":"2025-12-14T12:36:36Z"}
