{"icao":"KORD","metar":"KORD 131451Z 14003KT 10SM SCT110 BKN170 OVC250 16/09 A3007 RMK AO2 SLP182 T01610089 51012 $","updated":"2025-10-13T15:18:51Z"}
