{"icao":"LPHR","metar":"LPHR 211500Z 07003KT 010V110 8000 -SHRA SCT012 BKN030 16/13 Q1032","updated":"2025-11-21T15:17:15Z"}
