{"icao":"KJFK","metar":"KJFK 311351Z 26021G29KT 10SM FEW035 BKN043 12/06 A2939 RMK AO2 PK WND 26031/1321 SLP950 T01220061","updated":"2025-10-31T14:18:41Z"}
