{"icao":"LPAR","metar":"LPAR 181300Z 17003KT 130V210 9999 SCT015 14/13 Q1021","updated":"2025-12-18T13:35:18Z"}
