{"icao":"LPMT","metar":"LPMT 241400Z 23010KT 9999 FEW018 17/12 Q1016","updated":"2026-02-24T14:48:20Z"}
