{"icao":"LPAZ","metar":"LPAZ 192100Z 04015G25KT 9999 FEW014 SCT022 16/13 Q1023","updated":"2025-11-19T21:14:33Z"}
