{"icao":"LPLA","metar":"LPLA 251300Z 22021G34KT 190V250 9999 SCT013 BKN024 18/15 Q1014","updated":"2026-01-25T13:31:28Z"}
