{"icao":"LPLA","metar":"LPLA 301300Z 23011KT 190V280 9999 FEW010 SCT018 23/18 Q1024","updated":"2026-05-30T13:26:17Z"}
