{"icao":"LPPR","metar":"LPPR 070400Z 19015KT 4500 -RA BR FEW014 SCT035 BKN045 15/13 Q1021","updated":"2025-12-07T04:31:28Z"}
