{"icao":"LPAR","metar":"LPAR 251500Z 06006KT 030V090 9999 FEW020 SCT030 19/13 Q1016","updated":"2026-02-25T16:01:10Z"}
