{"icao":"LPCS","metar":"LPCS 291500Z 01012KT CAVOK 26/14 Q1020","updated":"2026-05-29T15:24:52Z"}
