{"icao":"KLAX","metar":"KLAX 070653Z 12003KT 10SM FEW008 FEW010 16/15 A3001 RMK AO2 SLP160 T01610150 $","updated":"2025-11-07T07:17:58Z"}
