{"icao":"LPCS","metar":"LPCS 071400Z 36008KT 330V030 9999 FEW018 SCT030 23/16 Q1022","updated":"2025-10-07T14:18:14Z"}
