{"icao":"LPPR","metar":"LPPR 280800Z 36003KT 320V030 CAVOK 04/03 Q1027","updated":"2026-02-28T08:27:42Z"}
