{"icao":"LPBJ","metar":"LPBJ 102200Z 06005KT CAVOK 21/10 Q1020","updated":"2025-10-10T22:15:22Z"}
