{"icao":"LPMR","metar":"LPMR 151200Z 34013KT 310V010 9999 FEW030 23/16 Q1022","updated":"2025-09-15T12:36:19Z"}
