{"icao":"LPPT","metar":"LPPT 282200Z 32013KT 9999 FEW045 18/15 Q1016","updated":"2025-09-28T22:15:03Z"}
