{"icao":"LPBJ","metar":"LPBJ 301300Z 23006KT 9999 FEW018 BKN045 20/13 Q1015","updated":"2025-10-30T13:29:33Z"}
