{"icao":"LPFL","metar":"LPFL 201700Z 34011KT 280V010 9999 SCT020 SCT040 19/14 Q1012","updated":"2026-06-20T17:25:00Z"}
