{"icao":"LPPT","metar":"LPPT 092130Z 26010KT 230V290 9999 FEW002 BKN005 15/15 Q1016","updated":"2026-02-09T21:37:45Z"}
