{"icao":"LPBJ","metar":"LPBJ 182200Z 25002KT CAVOK 11/09 Q1018","updated":"2025-11-18T22:18:16Z"}
