{"icao":"KJFK","metar":"KJFK 241451Z 31008KT 10SM FEW042 FEW250 12/03 A3012 RMK AO2 SLP199 T01220033 51008","updated":"2025-10-24T15:19:21Z"}
