{"icao":"LPMT","metar":"LPMT 211500Z 36006KT 330V030 9999 SCT026 BKN045 19/14 Q1008","updated":"2026-03-21T15:24:27Z"}
