{"icao":"LPLA","metar":"LPLA 042100Z 29028G38KT 9999 SCT025 BKN035 13/09 Q0993","updated":"2026-02-04T21:31:43Z"}
