{"icao":"LPPS","metar":"LPPS 231700Z 31021KT 9999 FEW015 17/11 Q1019","updated":"2026-01-23T17:25:10Z"}
