{"icao":"KORD","metar":"KORD 101509Z 33014G20KT 10SM BKN042 M02/M08 A3026 RMK AO2 SNE07 VIS NE-SE 5 P0000 T10221078","updated":"2025-11-10T15:20:54Z"}
