{"icao":"LPPD","metar":"LPPD 110200Z 22021KT 5000 BR SCT004 BKN006 17/16 Q1012","updated":"2026-02-11T02:11:54Z"}
