{"icao":"LPFL","metar":"LPFL 171000Z VRB02KT 9999 BKN028 14/09 Q1032","updated":"2026-01-17T10:19:47Z"}
