{"icao":"LPLA","metar":"LPLA 210500Z 18019G29KT 6000 -RA SCT012 BKN015 17/15 Q1019","updated":"2026-02-21T05:40:28Z"}
