{"icao":"LPMA","metar":"LPMA 051800Z 02019G30KT 350V050 9999 BKN015 FEW018CB 16/07 Q1021","updated":"2026-01-05T18:31:39Z"}
