{"icao":"LPOV","metar":"LPOV 291700Z 17011KT 9999 SCT008 OVC015 13/12 Q1014","updated":"2025-11-29T17:15:38Z"}
