{"icao":"KORD","metar":"KORD 210451Z 19008KT 10SM BKN039 OVC050 M04/M13 A3013 RMK AO2 SLP216 T10441128 $","updated":"2026-01-21T05:27:19Z"}
