{"icao":"LPHR","metar":"LPHR 050900Z 30006KT 260V320 9999 FEW025 SCT050 16/10 Q1016","updated":"2025-11-05T09:20:52Z"}
