{"icao":"LPPR","metar":"LPPR 192000Z 36005KT CAVOK 11/08 Q1019","updated":"2025-11-19T20:18:18Z"}
