{"icao":"LPLA","metar":"LPLA 211300Z 35014KT 330V030 9999 FEW020 BKN023 14/09 Q1017","updated":"2026-03-21T13:41:04Z"}
