{"icao":"LPPT","metar":"LPPT 262200Z 30006KT CAVOK 18/08 Q1019","updated":"2025-09-26T22:15:30Z"}
