{"icao":"KJFK","metar":"KJFK 312051Z 01008KT 10SM FEW037 BKN180 BKN250 M06/M14 A3010 RMK AO2 SLP192 T10561144 58010 $","updated":"2026-01-31T21:19:56Z"}
