{"icao":"LPMA","metar":"LPMA 222000Z 01006KT CAVOK 16/11 Q1024","updated":"2026-02-22T20:26:01Z"}
