{"icao":"LPFL","metar":"LPFL 261600Z VRB08KT 9999 FEW015 BKN019 09/04 Q1004","updated":"2026-01-26T16:33:07Z"}
