{"icao":"LPMR","metar":"LPMR 162000Z 15003KT 110V180 7000 SCT008 SCT012 FEW020CB 13/13 Q1010 RESHRA","updated":"2025-11-16T20:19:10Z"}
