{"icao":"KJFK","metar":"KJFK 250651Z 13003KT 10SM BKN200 BKN250 01/M05 A3025 RMK AO2 SLP244 T00061050 $","updated":"2025-12-25T07:21:04Z"}
