{"icao":"LPLA","metar":"LPLA 171500Z 31021KT 9999 FEW022 BKN028 16/11 Q1029","updated":"2026-01-17T15:18:24Z"}
