{"icao":"KLAX","metar":"KLAX 101653Z 00000KT 8SM SCT014 19/13 A2993 RMK AO2 SLP135 T01890133","updated":"2026-05-10T17:51:09Z"}
