{"icao":"LPPR","metar":"LPPR 180330Z VRB01KT 8000 FEW003 03/02 Q1011","updated":"2026-01-18T03:44:37Z"}
