{"icao":"LPPD","metar":"LPPD 051200Z 11011KT 9999 FEW016 BKN025 22/18 Q1025","updated":"2025-10-05T12:32:01Z"}
