{"icao":"KJFK","metar":"KJFK 240451Z 24011KT 7SM FEW021 SCT038 BKN050 02/01 A2995 RMK AO2 SLP140 T00220011 400440017 $","updated":"2025-12-24T05:23:15Z"}
