{"icao":"LPFL","metar":"LPFL 071130Z 33017G27KT 290V350 9999 SCT022 17/08 Q1016","updated":"2026-05-07T11:45:39Z"}
