{"icao":"LPPR","metar":"LPPR 312300Z 11011KT CAVOK 09/03 Q1017","updated":"2025-12-31T23:18:43Z"}
