{"icao":"KJFK","metar":"KJFK 121851Z 02018G27KT 8SM RA FEW018 OVC033 13/12 A3003 RMK AO2 PK WND 03029/1806 SLP168 P0007 T01330117","updated":"2025-10-12T19:12:59Z"}
