{"icao":"LPCS","metar":"LPCS 021600Z 27009KT 240V300 9999 FEW022 FEW025TCU 15/08 Q1017","updated":"2025-12-02T16:27:04Z"}
