{"icao":"LPHR","metar":"LPHR 080800Z 23027KT 8000 -RA SCT009 BKN013 20/18 Q0991","updated":"2025-12-08T08:29:40Z"}
