{"icao":"LPOV","metar":"LPOV 200800Z 14004KT 100V160 5000 BR BKN008 17/17 Q1020","updated":"2025-09-20T08:20:13Z"}
