{"icao":"LPLA","metar":"LPLA 280300Z 27024G35KT 9999 FEW015 SCT023 20/15 Q1002","updated":"2026-01-28T03:44:05Z"}
