{"icao":"KORD","metar":"KORD 180741Z 18008KT 6SM -SN BR SCT014 BKN039 OVC070 M05/M07 A3008 RMK AO2 P0001 T10501072 $","updated":"2026-03-18T07:51:44Z"}
