{"icao":"LPFR","metar":"LPFR 131100Z 13006KT 100V160 9999 FEW020 24/15 Q1016","updated":"2025-10-13T11:15:09Z"}
