{"icao":"LPST","metar":"LPST 050900Z 32010KT 9999 SCT014 BKN020 12/10 Q1017","updated":"2026-03-05T09:41:16Z"}
