{"icao":"LPBJ","metar":"LPBJ 051000Z 27011KT 8000 -DZ BKN005 OVC015 16/15 Q1023","updated":"2025-12-05T10:20:39Z"}
