{"icao":"LPFR","metar":"LPFR 190300Z 07005KT CAVOK 20/17 Q1016","updated":"2025-10-19T03:14:30Z"}
