{"icao":"KJFK","metar":"KJFK 300451Z 08005KT 10SM SCT120 SCT150 BKN190 BKN250 01/M06 A3050 RMK AO2 SLP329 T00111056 400610006 $","updated":"2025-11-30T05:18:14Z"}
