{"icao":"LPPT","metar":"LPPT 250600Z 32004KT 9999 FEW028 11/08 Q1021","updated":"2025-11-25T06:29:50Z"}
