{"icao":"KJFK","metar":"KJFK 141251Z 36011KT 8SM -DZ BKN010 OVC018 12/11 A3005 RMK AO2 DZB15 SLP174 CIG 008V012 P0000 T01220106","updated":"2025-10-14T13:29:18Z"}
