{"icao":"LPAZ","metar":"LPAZ 201830Z 29019KT 9999 FEW006 SCT010 BKN028 17/15 Q1024","updated":"2026-01-20T18:35:37Z"}
