{"icao":"LPFR","metar":"LPFR 101230Z 03011KT 9999 BKN035 14/05 Q1020","updated":"2026-03-10T12:58:00Z"}
