{"icao":"LPMT","metar":"LPMT 132100Z 30011KT 300V360 9999 FEW025 FEW028CB 11/07 Q1014","updated":"2026-02-13T21:33:46Z"}
