{"icao":"LPPT","metar":"LPPT 301900Z 28012G22KT 220V310 9999 FEW015 BKN034 14/10 Q1013 WS R20","updated":"2026-01-30T19:30:38Z"}
