{"icao":"LPPD","metar":"LPPD 230700Z 30023G36KT 9999 FEW020 13/07 Q1020","updated":"2026-01-23T07:24:27Z"}
