{"icao":"LPPR","metar":"LPPR 210230Z 24006KT 200V290 0900 R17/1600U -DZRA FG VV001 19/19 Q1010","updated":"2025-10-21T03:04:26Z"}
