{"icao":"KJFK","metar":"KJFK 201951Z 04011KT 1 1/2SM -RA BR BKN005 OVC013 03/03 A2963 RMK AO2 SFC VIS 2 SLP032 P0005 T00330028 $","updated":"2026-02-20T20:30:16Z"}
