{"icao":"LPFR","metar":"LPFR 151000Z 30009KT CAVOK 13/09 Q1032","updated":"2026-02-15T10:25:20Z"}
