{"icao":"LPHR","metar":"LPHR 140630Z 24013KT 9999 SCT025 OVC038 16/11 Q1029","updated":"2026-02-14T06:42:39Z"}
