{"icao":"LPAZ","metar":"LPAZ 201900Z 05009KT 020V080 9999 FEW034 21/11 Q1027","updated":"2025-09-20T19:11:23Z"}
