{"icao":"KORD","metar":"KORD 101357Z 34014G23KT 10SM -SN FEW045 BKN060 BKN080 M03/M07 A3025 RMK AO2 SNB56 P0000 T10331067","updated":"2025-11-10T14:18:49Z"}
