{"icao":"LPPD","metar":"LPPD 030200Z 09005KT 050V130 9999 FEW018 BKN025 13/09 Q1028","updated":"2026-04-03T02:10:55Z"}
