{"icao":"KJFK","metar":"KJFK 131151Z 26014KT 10SM FEW037 BKN070 09/01 A2987 RMK AO2 SLP114 T00890011 10094 20078 53008","updated":"2025-11-13T12:40:21Z"}
