{"icao":"LPPD","metar":"LPPD 291100Z 07007KT 030V110 9999 SCT016 BKN030 15/10 Q1035","updated":"2026-03-29T11:27:50Z"}
