{"icao":"LPFL","metar":"LPFL 171630Z 21010G20KT 140V270 9999 VCSH FEW023 BKN030 17/11 Q1020","updated":"2026-02-17T16:55:49Z"}
