{"icao":"LPAZ","metar":"LPAZ 290600Z 33011KT 9999 FEW028 BKN037 17/10 Q1020","updated":"2025-10-29T06:29:09Z"}
