{"icao":"LPMR","metar":"LPMR 161800Z 10012KT 050V120 9999 SCT025 BKN040 09/07 Q1013","updated":"2026-01-16T18:30:43Z"}
