{"icao":"LPLA","metar":"LPLA 151100Z 32019KT 9999 FEW025 BKN037 14/06 Q1027","updated":"2026-01-15T11:19:35Z"}
