{"icao":"LPLA","metar":"LPLA 172100Z 21018G29KT 9999 FEW014 BKN018 23/20 Q1014","updated":"2025-09-17T21:14:41Z"}
