{"icao":"KORD","metar":"KORD 191551Z 29012G24KT 10SM FEW075 SCT100 BKN250 09/M05 A3010 RMK AO2 PK WND 28027/1537 SLP196 T00891050 $","updated":"2026-04-19T16:38:38Z"}
