{"icao":"LPOV","metar":"LPOV 310700Z 32006KT 9999 FEW030 SCT035 12/08 Q1016","updated":"2026-01-31T07:27:05Z"}
