{"icao":"LPHR","metar":"LPHR 282000Z 18003KT 150V210 9999 FEW033 20/14 Q1028","updated":"2026-06-29T00:07:29Z"}
