{"icao":"LPPR","metar":"LPPR 170400Z 34004KT CAVOK 05/04 Q1021","updated":"2025-12-17T04:31:52Z"}
