{"icao":"LPMR","metar":"LPMR 241000Z 03004KT 360V070 9999 SCT018 18/12 Q1018","updated":"2026-04-24T10:19:39Z"}
