{"icao":"KLAX","metar":"KLAX 190953Z 08005KT 10SM FEW012 17/15 A3003 RMK AO2 SLP165 T01720150 $","updated":"2026-03-19T10:39:06Z"}
