{"icao":"KJFK","metar":"KJFK 121251Z 08010KT 10SM FEW250 09/M03 A3054 RMK AO2 SLP341 T00941028 $","updated":"2026-04-12T12:59:17Z"}
