{"icao":"LPAZ","metar":"LPAZ 161700Z 29005KT 250V320 9999 FEW030 18/11 Q1024","updated":"2025-11-16T17:14:58Z"}
