{"icao":"KJFK","metar":"KJFK 272051Z 18006KT 10SM FEW045 SCT140 BKN180 BKN250 23/16 A2996 RMK AO2 SLP146 T02280161 56008 $","updated":"2025-09-27T21:14:06Z"}
