{"icao":"KORD","metar":"KORD 311451Z 33011KT 9SM -SN OVC016 M08/M12 A3039 RMK AO2 SLP304 P0000 60000 T10831122 53006","updated":"2026-01-31T15:22:24Z"}
