{"icao":"KJFK","metar":"KJFK 171651Z 02013KT 10SM BKN023 BKN033 OVC047 21/16 A3008 RMK AO2 RAE43 SLP186 P0000 T02060156 $","updated":"2025-09-17T17:15:33Z"}
