{"icao":"KLAX","metar":"KLAX 280653Z 00000KT 10SM SCT220 22/12 A2990 RMK AO2 SLP122 T02170122","updated":"2026-02-28T07:25:36Z"}
