{"icao":"KJFK","metar":"KJFK 160651Z 27012KT 10SM BKN085 BKN250 M04/M08 A3022 RMK AO2 SLP233 T10441083 $","updated":"2025-12-16T07:22:13Z"}
