{"icao":"LPHR","metar":"LPHR 271800Z 05022G32KT 9999 -SHRA SCT015 17/14 Q1018 WS ALL RWY","updated":"2025-10-27T18:27:15Z"}
