{"icao":"LPPT","metar":"LPPT 302030Z 31012KT 290V350 9999 FEW010 17/14 Q1021","updated":"2026-05-30T20:54:26Z"}
