{"icao":"LPPD","metar":"LPPD 210900Z 22013KT 8000 FEW004 BKN006 23/22 Q1015","updated":"2025-10-21T09:19:53Z"}
