{"icao":"LPHR","metar":"LPHR 021100Z 34003KT 310V030 9999 FEW020 BKN035 16/08 Q1032","updated":"2025-12-02T11:18:26Z"}
