{"icao":"LPLA","metar":"LPLA 070700Z 28009KT 240V310 9999 FEW022 SCT030 20/16 Q1026","updated":"2026-06-07T07:53:37Z"}
