{"icao":"LPCS","metar":"LPCS 120930Z 20009KT 170V230 9999 FEW016 FEW022TCU 18/15 Q1018","updated":"2026-05-12T09:36:43Z"}
