{"icao":"LPMR","metar":"LPMR 241400Z 02006KT 340V060 CAVOK 13/05 Q1009","updated":"2025-12-24T14:18:52Z"}
