{"icao":"KLAX","metar":"KLAX 021953Z 23008KT 10SM FEW014 FEW100 23/16 A3001 RMK AO2 SLP159 T02280161 $","updated":"2025-10-02T20:19:13Z"}
