{"icao":"LPPR","metar":"LPPR 152130Z 34003KT 300V030 9999 BKN006 14/13 Q1024","updated":"2026-04-15T21:51:05Z"}
