{"icao":"LPMA","metar":"LPMA 081000Z 01013KT 330V040 9999 SCT015 SCT030 23/18 Q1026","updated":"2025-10-08T10:18:28Z"}
