{"icao":"LPPT","metar":"LPPT 161800Z 27008KT 230V320 9999 FEW020 FEW025CB 16/12 Q1012","updated":"2025-11-16T18:24:07Z"}
