{"icao":"LPPT","metar":"LPPT 171400Z VRB04KT CAVOK 27/12 Q1014","updated":"2025-10-17T14:17:20Z"}
