{"icao":"KJFK","metar":"KJFK 110651Z 22005KT 10SM -RA BKN036 OVC055 01/M01 A2971 RMK AO2 RAB35 SLP059 P0001 T00111011 $","updated":"2026-02-11T06:59:43Z"}
