{"icao":"LPMR","metar":"LPMR 251800Z 33010KT CAVOK 16/11 Q1018","updated":"2026-03-25T19:01:08Z"}
