{"icao":"LPMR","metar":"LPMR 012300Z 12001KT CAVOK 11/10 Q1022","updated":"2026-04-01T23:34:39Z"}
