{"icao":"LPBJ","metar":"LPBJ 030500Z 27003KT 240V300 9999 FEW018CB BKN025 07/06 Q1003","updated":"2026-02-03T05:50:23Z"}
