{"icao":"LPPT","metar":"LPPT 231700Z 28007KT 250V310 9999 FEW028 18/11 Q1013","updated":"2026-04-23T17:18:08Z"}
