{"icao":"LPLA","metar":"LPLA 042213Z 28024G37KT 9000 -SHRA SCT025 BKN035 13/09 Q0994","updated":"2026-02-04T22:26:33Z"}
