{"icao":"LPLA","metar":"LPLA 291100Z 09016KT 4000 -DZ BR SCT002 BKN005 15/14 Q1012","updated":"2025-12-29T11:17:46Z"}
