{"icao":"LPPD","metar":"LPPD 110000Z 03007KT 360V060 9999 SCT014 BKN030 19/17 Q1028","updated":"2026-06-11T00:13:49Z"}
