{"icao":"LPFR","metar":"LPFR 290930Z 25018KT 4000 -DZ BR SCT005 BKN010 16/15 Q1014","updated":"2026-01-29T09:40:44Z"}
