{"icao":"LPPT","metar":"LPPT 230500Z 32004KT CAVOK 09/07 Q1027","updated":"2025-11-23T05:17:11Z"}
