{"icao":"KLAX","metar":"KLAX 212053Z 26011KT 10SM SCT010 20/14 A2989 RMK AO2 SLP119 T02000144 58005 $","updated":"2026-05-21T21:27:20Z"}
