{"icao":"LPAZ","metar":"LPAZ 032300Z 25021KT 4500 -RA BR FEW003 BKN009 17/16 Q1005","updated":"2026-02-03T23:26:45Z"}
