{"icao":"KJFK","metar":"KJFK 100851Z 23012KT 10SM FEW045 FEW100 BKN250 01/M03 A2986 RMK AO2 SLP112 T00061033 58015","updated":"2025-12-10T09:23:51Z"}
