{"icao":"LPAZ","metar":"LPAZ 050100Z 31022KT 9999 FEW030 17/10 Q1016","updated":"2025-11-05T01:24:17Z"}
