{"icao":"LPMR","metar":"LPMR 270600Z 15001KT 8000 NSC 04/03 Q1024","updated":"2025-11-27T06:30:16Z"}
