{"icao":"LPOV","metar":"LPOV 220100Z 01007KT CAVOK 12/09 Q1023","updated":"2025-09-22T01:23:54Z"}
