{"icao":"KLAX","metar":"KLAX 252053Z 26010KT 9SM FEW007 OVC010 21/17 A2997 RMK AO2 SLP146 T02110167 58017 $","updated":"2025-09-25T21:15:06Z"}
