{"icao":"LPCS","metar":"LPCS 090700Z 16013KT 9000 -RADZ FEW008 BKN018 FEW024CB 17/16 Q1016","updated":"2025-12-09T07:20:44Z"}
