{"icao":"LPBJ","metar":"LPBJ 271000Z 30006KT 9000 VCFG FEW005 13/10 Q1025","updated":"2026-02-27T10:36:03Z"}
