{"icao":"KORD","metar":"KORD 141251Z 30010KT 10SM CLR M19/M25 A3052 RMK AO2 SLP354 T11891250","updated":"2025-12-14T13:26:17Z"}
