{"icao":"LPGR","metar":"LPGR 161730Z 22021KT 9999 FEW014 24/19 Q1016","updated":"2026-06-17T00:14:36Z"}
