{"icao":"LPAZ","metar":"LPAZ 170930Z 31023G33KT 9999 -SHRA SCT020 BKN046 12/06 Q1014","updated":"2026-03-17T09:54:31Z"}
