{"icao":"LPAZ","metar":"LPAZ 171900Z 25008KT 9999 FEW017 BKN022 22/19 Q1015","updated":"2025-10-17T19:13:59Z"}
