{"icao":"KORD","metar":"KORD 250851Z 23007KT 5SM BR FEW070 BKN250 17/17 A2989 RMK AO2 SLP118 T01720167 55004 $","updated":"2026-06-25T09:19:07Z"}
