{"icao":"LPLA","metar":"LPLA 271000Z 08006KT 040V110 9999 BKN045 19/11 Q1026","updated":"2025-09-27T10:15:58Z"}
