{"icao":"LPPR","metar":"LPPR 231930Z 35003KT CAVOK 17/08 Q1016","updated":"2026-03-23T19:47:38Z"}
