{"icao":"LPMT","metar":"LPMT 102000Z 27005KT 240V310 9999 FEW025 17/14 Q1012","updated":"2026-04-10T20:34:47Z"}
