{"icao":"LPPR","metar":"LPPR 281100Z 09004KT 060V160 9999 FEW033 BKN040 12/08 Q1025","updated":"2025-11-28T11:16:26Z"}
