{"icao":"LPLA","metar":"LPLA 010900Z 28030G42KT 250V310 8000 -RA SCT020 14/11 Q1004","updated":"2026-02-01T09:29:18Z"}
