{"icao":"LPPS","metar":"LPPS 131230Z 29019G33KT 9999 -RA SCT014 FEW016CB SCT030 16/12 Q1004","updated":"2025-11-13T12:40:21Z"}
