{"icao":"KORD","metar":"KORD 110651Z 31008KT 10SM FEW250 M01/M04 A3011 RMK AO2 SLP200 T10061044 $","updated":"2026-02-11T06:59:44Z"}
