{"icao":"LPMA","metar":"LPMA 260100Z 35007KT 9999 SCT015 18/15 Q1024","updated":"2025-11-26T01:24:43Z"}
