{"icao":"KLAX","metar":"KLAX 091253Z 00000KT 9SM FEW008 SCT011 BKN250 16/14 A2992 RMK AO2 SLP130 T01610144 $","updated":"2026-04-09T13:47:44Z"}
