{"icao":"KJFK","metar":"KJFK 131851Z 25009KT 10SM FEW035 BKN130 BKN250 06/M03 A3002 RMK AO2 SLP167 T00561028","updated":"2025-12-13T19:14:24Z"}
