{"icao":"LPHR","metar":"LPHR 291400Z 23007KT 7000 SCT002 BKN004 22/22 Q1023","updated":"2025-09-29T14:18:15Z"}
