{"icao":"LPCS","metar":"LPCS 161100Z 27007KT 240V310 9999 FEW016 FEW025TCU 18/13 Q1013","updated":"2025-11-16T11:13:21Z"}
