{"icao":"LPPD","metar":"LPPD 011830Z 27009KT 230V340 9999 FEW018 18/16 Q1028","updated":"2026-06-01T18:36:37Z"}
