{"icao":"LPCS","metar":"LPCS 141130Z 24008KT 220V280 9999 FEW010 25/16 Q1017","updated":"2026-06-14T11:55:58Z"}
