{"icao":"LPMR","metar":"LPMR 270400Z 15003KT 5000 BR NSC 04/04 Q1024","updated":"2025-11-27T04:22:53Z"}
