{"icao":"LPFR","metar":"LPFR 201730Z 26005KT CAVOK 15/09 Q1026","updated":"2026-02-20T17:36:10Z"}
