{"icao":"LPFR","metar":"LPFR 282130Z 26011KT 9999 BKN022 17/15 Q1010","updated":"2026-04-28T21:56:19Z"}
