{"icao":"LPPR","metar":"LPPR 030830Z 36004KT 290V050 9999 FEW030 19/13 Q1023","updated":"2026-06-03T08:58:15Z"}
