{"icao":"KORD","metar":"KORD 031501Z 22009KT 9SM BKN022 OVC085 M03/M06 A2997 RMK AO2 T10331061","updated":"2025-12-03T15:21:32Z"}
