{"icao":"LPST","metar":"LPST 241200Z 26012KT 3500 -RADZ BKN011 BKN028 16/15 Q1020","updated":"2025-11-24T12:39:37Z"}
