{"icao":"LPMT","metar":"LPMT 151900Z 25003KT CAVOK 21/14 Q1015","updated":"2025-10-15T19:13:57Z"}
