{"icao":"LPBJ","metar":"LPBJ 241200Z 15013KT 120V180 CAVOK 20/09 Q1019","updated":"2026-02-24T13:03:03Z"}
