{"icao":"LPLA","metar":"LPLA 230100Z 24005KT 220V280 9999 FEW017 BKN040 17/13 Q1024","updated":"2025-12-23T01:38:31Z"}
