{"icao":"LPPT","metar":"LPPT 220900Z 36016KT CAVOK 16/06 Q1021","updated":"2025-09-22T09:21:20Z"}
