{"icao":"KORD","metar":"KORD 020751Z 14005KT 10SM CLR 17/06 A3023 RMK AO2 SLP232 T01720061","updated":"2025-10-02T08:23:03Z"}
