{"icao":"KJFK","metar":"KJFK 192251Z 28027G41KT 10SM -RA BKN035 BKN047 BKN090 06/M02 A2954 RMK AO2 PK WND 28043/2228 RAE2154B14 PRESRR SLP003 P0000 T00611017","updated":"2025-12-19T23:18:39Z"}
