{"icao":"LPPT","metar":"LPPT 302200Z 33011KT CAVOK 15/06 Q1028","updated":"2026-03-30T22:34:08Z"}
