{"icao":"KORD","metar":"KORD 221051Z 27014G25KT 10SM OVC028 08/02 A2975 RMK AO2 PK WND 26026/1010 SLP076 T00830022","updated":"2025-10-22T11:16:28Z"}
