{"icao":"LPFL","metar":"LPFL 311800Z 21012G29KT 170V260 9999 FEW012 18/12 Q1010","updated":"2026-01-31T18:30:36Z"}
