{"icao":"LPCS","metar":"LPCS 232200Z 01015KT CAVOK 18/07 Q1018","updated":"2025-09-23T22:15:46Z"}
