{"icao":"KLAX","metar":"KLAX 212053Z 25012KT 5SM HZ FEW006 SCT210 SCT240 BKN280 18/13 A3005 RMK AO2 SLP173 T01780133 58023 $","updated":"2025-12-21T21:17:08Z"}
