{"icao":"KORD","metar":"KORD 190551Z 03009KT 10SM OVC007 06/04 A3011 RMK AO2 SLP200 T00560039 10061 20056 400670044 51012","updated":"2025-11-19T06:28:42Z"}
