{"icao":"LPPD","metar":"LPPD 292000Z 16007KT 9999 FEW018 BKN030 21/18 Q1024","updated":"2025-09-29T20:17:44Z"}
