{"icao":"KJFK","metar":"KJFK 041051Z 21005KT 10SM FEW250 18/10 A3016 RMK AO2 SLP214 T01780100 $","updated":"2026-06-04T11:52:00Z"}
