{"icao":"LPAZ","metar":"LPAZ 190300Z 26011KT 0900 R18/P2000 PRFG VV002 23/22 Q1018","updated":"2025-10-19T03:14:34Z"}
