{"icao":"KORD","metar":"KORD 031151Z 25012G21KT 10SM SCT100 BKN150 BKN250 06/01 A3004 RMK AO2 SLP175 60000 70004 T00610006 10072 20061 55002 $","updated":"2025-11-03T12:38:54Z"}
