{"icao":"LPCS","metar":"LPCS 021030Z 28016G30KT 250V310 9999 FEW022 FEW030CB SCT040 11/07 Q1000","updated":"2026-02-02T10:42:27Z"}
