{"icao":"LPOV","metar":"LPOV 230800Z 24010KT 210V270 9999 FEW005 SCT013 SCT014CB 09/07 Q1000","updated":"2026-01-23T08:28:58Z"}
