{"icao":"LPMR","metar":"LPMR 081100Z 13007KT 080V170 9999 SCT020 15/07 Q1018","updated":"2026-04-08T11:53:53Z"}
