{"icao":"LPMT","metar":"LPMT 311000Z 27005KT 9999 FEW035 14/09 Q1020","updated":"2026-01-31T10:23:18Z"}
