{"icao":"KLAX","metar":"KLAX 251853Z VRB03KT 10SM FEW220 FEW250 OVC300 17/04 A3018 RMK AO2 SLP221 T01720039 $","updated":"2026-01-25T19:16:18Z"}
