{"icao":"LPPD","metar":"LPPD 132000Z VRB02KT 9999 FEW015 SCT045 20/17 Q1015","updated":"2025-10-13T20:19:21Z"}
