{"icao":"LPAR","metar":"LPAR 141100Z 06006KT 020V120 CAVOK 24/12 Q1017","updated":"2025-10-14T11:14:57Z"}
