{"icao":"KJFK","metar":"KJFK 250251Z 13003KT 10SM BKN210 BKN250 06/M01 A3030 RMK AO2 SLP259 T00611011 53003","updated":"2025-11-25T03:13:53Z"}
