{"icao":"LPPT","metar":"LPPT 231000Z 15003G14KT 080V180 9999 FEW012 13/09 Q1028","updated":"2025-11-23T10:17:37Z"}
