{"icao":"KJFK","metar":"KJFK 191751Z 33017KT 10SM -RA BKN027 OVC041 09/05 A2989 RMK PK WND 33032/1658 RAB48 SLP120 P0000 60000 T00940050 10122 20094 53026 ","updated":"2026-04-19T18:49:57Z"}
