{"icao":"LPPR","metar":"LPPR 210300Z 17004KT CAVOK 16/12 Q1020","updated":"2026-05-21T03:34:08Z"}
