{"icao":"KORD","metar":"KORD 160651Z 36004KT 9SM CLR 18/17 A3018 RMK AO2 SLP215 T01830167 $","updated":"2025-09-16T07:17:22Z"}
