{"icao":"LPLA","metar":"LPLA 091418Z 22028G47KT 3500 DZ BR FEW002 BKN006 BKN012 19/17 Q1006","updated":"2026-02-09T14:51:12Z"}
