{"icao":"LPPD","metar":"LPPD 050800Z 03006KT 340V070 9999 SCT020 15/10 Q1025","updated":"2026-05-05T08:07:08Z"}
