{"icao":"LPFR","metar":"LPFR 300500Z 04003KT 9999 FEW015 SCT030 13/12 Q1015","updated":"2025-11-30T05:17:56Z"}
