{"icao":"LPAZ","metar":"LPAZ 171130Z 23011KT 4000 -RA BR SCT003 BKN011 22/21 Q1020","updated":"2026-06-17T11:45:51Z"}
