{"icao":"LPST","metar":"LPST 201200Z 35017KT 9999 SCT028 14/06 Q1021","updated":"2025-11-20T12:38:11Z"}
