{"icao":"LPMT","metar":"LPMT 031800Z 31008KT 9999 FEW035 19/10 Q1013","updated":"2026-05-03T18:57:47Z"}
