{"icao":"LPHR","metar":"LPHR 211930Z 25008KT 1500 -RA BR SCT002 BKN004 16/15 Q1012","updated":"2026-05-21T19:56:16Z"}
