{"icao":"LPMT","metar":"LPMT 250900Z 21006KT 170V270 9999 FEW005 SCT008 BKN020 21/20 Q1014","updated":"2025-10-25T09:16:05Z"}
