{"icao":"KLAX","metar":"KLAX 020453Z 23013KT 10SM BKN180 BKN250 18/13 A2998 RMK AO2 SLP149 T01830128","updated":"2026-03-02T05:51:36Z"}
