{"icao":"LPPS","metar":"LPPS 091930Z 28013KT 9999 FEW015 17/11 Q1014","updated":"2026-05-09T19:59:21Z"}
