{"icao":"LPCS","metar":"LPCS 202100Z 23005KT 9999 SCT003 BKN008 19/19 Q1015","updated":"2025-10-20T21:16:21Z"}
