{"icao":"LPMR","metar":"LPMR 051200Z 02014KT CAVOK 08/M04 Q1016","updated":"2026-01-05T12:43:45Z"}
