{"icao":"KJFK","metar":"KJFK 042151Z 29018G29KT 10SM SCT055 SCT090 SCT250 04/M07 A3008 RMK AO2 PK WND 29029/2144 SLP185 T00391072","updated":"2025-12-04T22:16:27Z"}
