{"icao":"KORD","metar":"KORD 111851Z 29008KT 10SM BKN028 01/M07 A3033 RMK AO2 SLP278 T00061067 $","updated":"2026-01-11T19:14:56Z"}
