{"icao":"LPAZ","metar":"LPAZ 031600Z 33016KT 9999 FEW010 BKN015 16/14 Q1010","updated":"2026-01-03T16:23:36Z"}
