{"icao":"LPCS","metar":"LPCS 131200Z 35014KT 320V030 CAVOK 25/14 Q1022","updated":"2025-09-13T12:31:17Z"}
