{"icao":"LPFR","metar":"LPFR 060600Z 02005KT 9999 FEW008 12/12 Q1024","updated":"2025-12-06T06:26:27Z"}
