{"icao":"KJFK","metar":"KJFK 070251Z 24010KT 10SM FEW028 SCT250 19/17 A3024 RMK AO2 SLP240 T01940172 51003 $","updated":"2025-10-07T03:31:18Z"}
