{"icao":"KLAX","metar":"KLAX 200353Z 27020KT 10SM SCT041 12/04 A2987 RMK AO2 PK WND 26032/0315 SLP115 T01170039","updated":"2026-02-20T04:21:45Z"}
