{"icao":"LPFL","metar":"LPFL 241800Z 17012KT 9999 FEW025 22/14 Q1019","updated":"2025-09-24T18:23:52Z"}
