{"icao":"LPPT","metar":"LPPT 271900Z 36011G21KT 330V030 9999 FEW018 12/07 Q1025","updated":"2026-02-27T19:32:02Z"}
