{"icao":"LPPD","metar":"LPPD 211630Z 28018KT 1200 R30/P2000 -DZ BR OVC002 16/16 Q1020","updated":"2026-01-21T16:43:04Z"}
