{"icao":"LPPD","metar":"LPPD 301930Z 11013KT 9999 FEW018 14/11 Q1032","updated":"2026-03-30T19:58:04Z"}
