{"icao":"KORD","metar":"KORD 271851Z 03009KT 10SM SCT160 BKN300 27/13 A3000 RMK AO2 SLP157 T02670133","updated":"2026-05-27T19:23:35Z"}
