{"icao":"LPCS","metar":"LPCS 281400Z 06010KT 010V100 9999 FEW022 14/08 Q1012","updated":"2025-12-28T14:17:57Z"}
