{"icao":"LPPS","metar":"LPPS 111230Z 03016KT 9999 SCT014 BKN030 15/12 Q1026","updated":"2026-03-11T12:57:35Z"}
