{"icao":"LPLA","metar":"LPLA 080908Z 22011G21KT 180V240 5000 -RA BR FEW011 BKN016 BKN025 21/18 Q1017","updated":"2025-11-08T09:16:40Z"}
