{"icao":"LPMT","metar":"LPMT 312100Z 36007KT CAVOK 20/13 Q1019","updated":"2026-05-31T22:05:11Z"}
