{"icao":"LPFR","metar":"LPFR 291500Z 18004KT 150V210 9999 FEW020 15/10 Q1018","updated":"2025-12-29T15:21:18Z"}
