{"icao":"LPLA","metar":"LPLA 051500Z 11006KT 020V150 9999 BKN040 13/03 Q1037","updated":"2026-03-05T15:49:21Z"}
