{"icao":"LPPD","metar":"LPPD 221600Z 23006KT 0600 R30/1400D FG VV000 17/17 Q1020","updated":"2026-05-22T16:24:07Z"}
