{"icao":"LPPS","metar":"LPPS 210800Z 35013KT 4000 -DZ BR SCT004 BKN030 22/21 Q1019","updated":"2025-10-21T08:25:51Z"}
