{"icao":"LPMR","metar":"LPMR 270500Z VRB01KT 0700 FG BKN003 OVC005 13/13 Q1015","updated":"2026-04-27T05:52:31Z"}
