{"icao":"KORD","metar":"KORD 151651Z 26009KT 9SM CLR 11/04 A2990 RMK AO2 SLP129 T01110044","updated":"2026-02-15T17:24:25Z"}
