{"icao":"LPMA","metar":"LPMA 052100Z 35008KT 9999 FEW015 SCT030 22/16 Q1022","updated":"2025-10-05T21:14:11Z"}
