{"icao":"LPST","metar":"LPST 051400Z 26020G31KT 9999 FEW020 BKN025 15/11 Q0997","updated":"2026-02-05T14:08:20Z"}
