{"icao":"LPBJ","metar":"LPBJ 080500Z 13010KT 0400 FG VV002 07/07 Q1016","updated":"2026-04-08T05:09:42Z"}
