{"icao":"LPAZ","metar":"LPAZ 311430Z 26006KT 230V300 9999 FEW004 SCT006 21/19 Q1027","updated":"2026-05-31T14:42:55Z"}
