{"icao":"LPMT","metar":"LPMT 260500Z 07003KT CAVOK 14/12 Q1015","updated":"2026-04-26T05:38:05Z"}
