{"icao":"LPLA","metar":"LPLA 280900Z 25007KT 9999 FEW012 SCT020 BKN030 16/14 Q1030","updated":"2026-02-28T09:24:58Z"}
