{"icao":"LPFR","metar":"LPFR 222300Z 04006KT 020V090 CAVOK 11/03 Q1028","updated":"2025-11-22T23:16:42Z"}
