{"icao":"KJFK","metar":"KJFK 152251Z 02009KT 10SM FEW045 SCT130 SCT250 16/09 A2992 RMK AO2 SLP131 T01610089","updated":"2025-10-15T23:15:51Z"}
