{"icao":"LPLA","metar":"LPLA 071500Z 21009KT 170V230 9000 -RA FEW008 SCT015 15/13 Q1012","updated":"2026-02-07T15:23:30Z"}
