{"icao":"KORD","metar":"KORD 200651Z 28005KT 10SM OVC100 22/18 A3002 RMK AO2 LTG DSNT S AND SW SLP161 T02170183","updated":"2025-09-20T07:15:14Z"}
