{"icao":"LPPT","metar":"LPPT 021900Z 32011KT CAVOK 23/13 Q1021","updated":"2025-10-02T19:13:44Z"}
