{"icao":"LPFL","metar":"LPFL 221730Z 32014G28KT 290V360 9999 SCT028 15/05 Q1001 WS R36","updated":"2026-04-22T18:03:03Z"}
