{"icao":"LPPS","metar":"LPPS 250830Z 05014KT 020V080 9999 SCT014 16/13 Q1020","updated":"2026-03-25T08:50:45Z"}
