{"icao":"LPOV","metar":"LPOV 271800Z 15014KT 9999 BKN015 19/17 Q1009","updated":"2025-09-27T18:21:51Z"}
