{"icao":"LPBJ","metar":"LPBJ 092300Z 26007KT CAVOK 15/11 Q1014","updated":"2026-04-09T23:36:19Z"}
