{"icao":"KORD","metar":"KORD 072251Z 25007KT 10SM FEW060 FEW090 SCT250 15/05 A2958 RMK AO2 SLP016 T01500050 $","updated":"2025-11-07T23:16:25Z"}
