{"icao":"KORD","metar":"KORD 032151Z 06016KT 10SM SCT026 OVC041 08/03 A3010 RMK AO2 SLP194 T00780028","updated":"2026-04-03T22:33:16Z"}
