{"icao":"LPFL","metar":"LPFL 111700Z 20014KT 150V240 9999 SCT017 17/12 Q1011","updated":"2026-02-11T17:13:42Z"}
