{"icao":"LPFL","metar":"LPFL 101100Z 17011KT 8000 -DZ FEW005 SCT013 BKN030 15/14 Q1032","updated":"2026-03-10T11:32:07Z"}
