{"icao":"KORD","metar":"KORD 111451Z 14007KT 10SM FEW100 SCT250 10/M01 A3045 RMK AO2 SLP314 T01001006 53008 $","updated":"2026-04-11T15:32:45Z"}
