{"icao":"KORD","metar":"KORD 100051Z 11005KT 10SM CLR 13/07 A3033 RMK AO2 SLP274 T01280067","updated":"2025-10-10T01:18:27Z"}
