{"icao":"LPMA","metar":"LPMA 210500Z 02013KT 9999 SCT014 23/19 Q1020","updated":"2025-09-21T05:16:26Z"}
