{"icao":"LPBJ","metar":"LPBJ 211700Z 28016KT 9999 FEW010 SCT015 14/12 Q1005","updated":"2026-01-21T17:53:04Z"}
