{"icao":"LPPT","metar":"LPPT 042200Z 21005KT 4500 -DZRA BR SCT005 BKN012 12/12 Q1021","updated":"2025-12-04T22:16:23Z"}
