{"icao":"LPLA","metar":"LPLA 231900Z 05003KT 020V100 9999 FEW020 BKN025 BKN035 19/14 Q1023","updated":"2026-05-23T19:23:18Z"}
