{"icao":"KJFK","metar":"KJFK 151351Z 33010KT 10SM FEW035 BKN210 BKN250 16/12 A2998 RMK AO2 SLP153 T01610117 $","updated":"2025-10-15T14:19:06Z"}
