{"icao":"LPMT","metar":"LPMT 250200Z 18006KT 9999 FEW012 SCT020 20/17 Q1014","updated":"2026-06-25T05:03:33Z"}
