{"icao":"LPHR","metar":"LPHR 271030Z 05006KT 9999 FEW020 BKN080 16/10 Q1036","updated":"2026-02-27T10:36:04Z"}
