{"icao":"KORD","metar":"KORD 160951Z 30010G18KT 10SM CLR 06/M09 A2982 RMK AO2 SLP099 T00561094 $","updated":"2025-11-16T10:17:36Z"}
