{"icao":"LPFL","metar":"LPFL 192000Z 02007KT 350V050 9999 FEW032 19/10 Q1028","updated":"2025-09-19T23:14:58Z"}
