{"icao":"LPOV","metar":"LPOV 100800Z 15007KT 9999 FEW006 BKN016 14/13 Q1018","updated":"2025-11-10T08:27:08Z"}
