{"icao":"LPFR","metar":"LPFR 141900Z 30013KT 9999 FEW048 13/06 Q1028","updated":"2026-02-14T19:22:25Z"}
