{"icao":"LPPT","metar":"LPPT 071730Z 32013KT 290V350 CAVOK 23/12 Q1020","updated":"2026-06-07T18:02:18Z"}
