{"icao":"LPPR","metar":"LPPR 161800Z 32004KT 240V330 9999 FEW004 17/14 Q1014","updated":"2025-10-16T18:25:45Z"}
