{"icao":"LPBJ","metar":"LPBJ 041800Z 25021KT 3500 -RADZ BR BKN007 OVC014 15/14 Q1000","updated":"2026-02-04T18:49:11Z"}
