{"icao":"LPST","metar":"LPST 051300Z 35021G31KT 9999 FEW030 09/M01 Q1014","updated":"2026-01-05T13:39:37Z"}
