{"icao":"LPPT","metar":"LPPT 292000Z 28006KT 250V330 9999 FEW016 14/12 Q1014","updated":"2026-01-29T20:28:28Z"}
