{"icao":"KJFK","metar":"KJFK 231051Z 23006KT 10SM BKN035 OVC250 19/18 A3003 RMK AO2 SLP167 T01940178 $","updated":"2025-09-23T11:14:09Z"}
