{"icao":"KORD","metar":"KORD 232151Z 21013G21KT 10SM SCT065 BKN300 27/11 A2973 RMK AO2 PK WND 21028/2058 SLP064 T02670111","updated":"2026-04-23T22:42:09Z"}
