{"icao":"LPHR","metar":"LPHR 261500Z 06019G30KT 9999 FEW017 FEW020TCU SCT035 20/12 Q1023","updated":"2025-10-26T15:16:11Z"}
