{"icao":"LPHR","metar":"LPHR 281500Z 25027KT 9000 BKN012 18/16 Q1004","updated":"2026-01-28T15:30:59Z"}
