{"icao":"KORD","metar":"KORD 101951Z 21009KT 10SM BKN028 OVC032 19/08 A3008 RMK AO2 SLP185 T01890083","updated":"2025-10-10T20:18:54Z"}
