{"icao":"LPFL","metar":"LPFL 191900Z 15006KT 110V200 9999 FEW020 15/12 Q1029","updated":"2026-01-19T19:18:29Z"}
