{"icao":"LPMR","metar":"LPMR 261900Z 34005KT CAVOK 16/08 Q1015","updated":"2026-03-26T19:53:48Z"}
