{"icao":"KLAX","metar":"KLAX 081453Z 15005KT 6SM BR FEW009 FEW016 16/14 A2994 RMK AO2 SLP138 T01610139 53015 $","updated":"2026-04-08T15:08:35Z"}
