{"icao":"KJFK","metar":"KJFK 250651Z 03012KT 10SM BKN110 BKN150 OVC250 M11/M22 A3066 RMK AO2 SLP380 T11061217 $","updated":"2026-01-25T07:20:25Z"}
