{"icao":"LPHR","metar":"LPHR 051830Z 30017KT 9000 VCSH SCT018 FEW022CB SCT040 11/07 Q1009","updated":"2026-02-05T18:45:29Z"}
