{"icao":"LPMA","metar":"LPMA 121430Z 21016KT 180V250 9999 SCT016 19/12 Q1022","updated":"2026-02-12T14:45:40Z"}
