{"icao":"LPST","metar":"LPST 271200Z VRB04KT CAVOK 16/04 Q1025","updated":"2025-11-27T12:39:37Z"}
