{"icao":"LPMT","metar":"LPMT 142000Z VRB02KT CAVOK 19/15 Q1016","updated":"2025-10-14T20:19:14Z"}
