{"icao":"LPBJ","metar":"LPBJ 070900Z 20007KT 9999 FEW034 BKN040 15/12 Q1018","updated":"2025-11-07T09:19:05Z"}
