{"icao":"LPBJ","metar":"LPBJ 100600Z 30007KT 6000 VCFG FEW002 SCT025 06/06 Q1019","updated":"2026-03-10T06:47:53Z"}
