{"icao":"KORD","metar":"KORD 261551Z 25010G19KT 10SM CLR 23/11 A2994 RMK AO2 SLP135 T02330111","updated":"2025-09-26T16:22:13Z"}
