{"icao":"KJFK","metar":"KJFK 081251Z 32009KT 10SM FEW048 FEW110 13/02 A2991 RMK AO2 SLP129 T01280017","updated":"2026-05-08T13:44:39Z"}
