{"icao":"LPMA","metar":"LPMA 061800Z 34005KT 310V010 9999 SCT015 21/12 Q1020","updated":"2025-11-06T18:27:58Z"}
