{"icao":"LPPR","metar":"LPPR 312300Z 16011KT 7000 -RA BKN028 BKN036 12/10 Q1016","updated":"2026-01-31T23:20:48Z"}
