{"icao":"KJFK","metar":"KJFK 101551Z 00000KT 10SM BKN095 BKN250 M02/M12 A3016 RMK AO2 SLP213 T10171117 $","updated":"2026-02-10T16:09:17Z"}
