{"icao":"LPFR","metar":"LPFR 020800Z 04006G17KT 020V090 CAVOK 23/16 Q1020","updated":"2025-10-02T08:22:43Z"}
