{"icao":"LPHR","metar":"LPHR 031800Z 25014KT 9999 VCSH SCT007 BKN011 BKN070 18/17 Q1026","updated":"2025-12-03T18:30:02Z"}
