{"icao":"LPMT","metar":"LPMT 122100Z 36004KT 330V060 9999 FEW025 12/10 Q1025","updated":"2026-03-12T21:31:08Z"}
