{"icao":"LPFL","metar":"LPFL 291100Z 31003KT 230V020 9999 VCSH FEW010 BKN030 18/15 Q1030","updated":"2025-11-29T11:14:32Z"}
