{"icao":"KJFK","metar":"KJFK 040851Z 27007KT 10SM CLR 15/11 A3020 RMK AO2 SLP227 T01500111 56011","updated":"2025-10-04T09:16:01Z"}
