{"icao":"LPFR","metar":"LPFR 102130Z 24013KT 5000 -DZ BKN002 15/15 Q1021","updated":"2026-02-10T21:40:27Z"}
