{"icao":"LPPR","metar":"LPPR 152300Z VRB02KT 3500 BCFG BR SCT001 15/15 Q1017","updated":"2025-10-15T23:15:30Z"}
