{"icao":"LPST","metar":"LPST 221300Z 27008KT 9000 -DZ SCT008 BKN015 22/19 Q1019","updated":"2025-10-22T13:31:46Z"}
