{"icao":"LPMT","metar":"LPMT 141600Z 26005KT 230V290 9999 SCT030 20/13 Q1022","updated":"2026-04-14T17:05:07Z"}
