{"icao":"LPMA","metar":"LPMA 281330Z 09005KT 030V120 9999 FEW014 21/15 Q1018","updated":"2026-01-28T13:48:25Z"}
