{"icao":"LPAZ","metar":"LPAZ 111330Z 05013KT 010V080 9999 SCT013 17/13 Q1018","updated":"2026-05-11T13:47:21Z"}
