{"icao":"LPPR","metar":"LPPR 161500Z 27007KT 230V340 8000 -SHRA SCT013 SCT017CB BKN033 15/14 Q1006","updated":"2025-11-16T15:16:24Z"}
