{"icao":"LPFR","metar":"LPFR 251230Z 35014KT CAVOK 18/03 Q1021","updated":"2025-11-25T12:39:43Z"}
