{"icao":"LPPS","metar":"LPPS 021000Z 02016KT 6000 BKN010 17/15 Q1024","updated":"2025-12-02T10:22:04Z"}
