{"icao":"LPLA","metar":"LPLA 142000Z 21016KT 180V250 9999 FEW022 16/09 Q1028","updated":"2026-02-14T20:25:26Z"}
