{"icao":"LPMR","metar":"LPMR 011700Z 31008KT CAVOK 21/14 Q1020","updated":"2025-10-01T19:13:45Z"}
