{"icao":"LPCS","metar":"LPCS 241600Z 06005KT 030V110 9999 FEW033 13/07 Q1009","updated":"2025-12-24T16:24:02Z"}
