{"icao":"LPBJ","metar":"LPBJ 161400Z 21005KT 150V260 CAVOK 35/11 Q1020","updated":"2025-09-16T14:18:08Z"}
