{"icao":"LPPT","metar":"LPPT 111000Z 14007KT 110V180 9999 FEW002 SCT008 16/16 Q1013","updated":"2025-11-11T10:20:29Z"}
