{"icao":"LPFR","metar":"LPFR 282000Z 29004KT CAVOK 16/13 Q1020","updated":"2026-03-28T20:29:01Z"}
