{"icao":"LPMA","metar":"LPMA 141300Z 01018G29KT 340V040 9999 SCT016 20/13 Q1019","updated":"2025-12-14T13:26:16Z"}
