{"icao":"LPLA","metar":"LPLA 060600Z 10002KT 9999 SCT028 BKN044 13/07 Q1032","updated":"2026-01-06T06:33:12Z"}
