{"icao":"KJFK","metar":"KJFK 121651Z 24017KT 10SM FEW180 FEW250 03/M07 A3018 RMK AO2 SLP221 T00331067 $","updated":"2026-01-12T17:22:52Z"}
