{"icao":"KORD","metar":"KORD 310259Z 25007KT 2 1/2SM -SN BR BKN015 BKN025 OVC034 M05/M07 A2998 RMK T10501067 ","updated":"2025-12-31T03:26:18Z"}
