{"icao":"KJFK","metar":"KJFK 121351Z 31024G32KT 10SM SCT042 SCT095 SCT200 M01/M09 A2998 RMK AO2 PK WND 31032/1351 SLP150 T10061089 $","updated":"2026-02-12T14:45:40Z"}
