{"icao":"LPMR","metar":"LPMR 180400Z 14004KT 5000 BR FEW002 08/07 Q1018","updated":"2025-11-18T04:22:26Z"}
