{"icao":"LPMA","metar":"LPMA 131430Z 17005KT 120V220 9999 FEW015 SCT030 22/16 Q1021","updated":"2026-06-13T14:59:21Z"}
