{"icao":"KORD","metar":"KORD 291851Z 13008KT 1/2SM R10L/2600V3000FT SN FZFG VV008 M03/M04 A3017 RMK AO2 SLP225 SNINCR 1/4 P0007 T10281039 $","updated":"2025-11-29T19:14:29Z"}
