{"icao":"LPAZ","metar":"LPAZ 140900Z 29017KT 9999 FEW030 BKN038 17/11 Q1009","updated":"2025-11-14T09:19:45Z"}
