{"icao":"LPLA","metar":"LPLA 261500Z 07012KT 020V120 9999 FEW023 SCT025 19/11 Q1023","updated":"2025-10-26T15:16:10Z"}
