{"icao":"LPBJ","metar":"LPBJ 030500Z 13016KT 9999 FEW018 BKN045 12/12 Q0999","updated":"2026-01-03T05:20:32Z"}
