{"icao":"LPHR","metar":"LPHR 032100Z 25014KT 9999 FEW008 BKN012 20/19 Q1008","updated":"2025-11-03T23:16:06Z"}
