{"icao":"LPPR","metar":"LPPR 122100Z 18008KT 6000 RA FEW006 SCT011 FEW018CB BKN040 12/11 Q1009 RERA","updated":"2026-02-12T21:32:00Z"}
