{"icao":"LPSJ","metar":"LPSJ 291430Z 22006KT 180V250 9999 FEW030 23/16 Q1030","updated":"2026-06-29T14:46:52Z"}
