{"icao":"KJFK","metar":"KJFK 021151Z 28013KT 10SM -SN FEW065 OVC100 M06/M11 A2983 RMK AO2 SLP101 P0000 60000 70001 T10561106 11050 21061 55004 $","updated":"2026-01-02T12:39:50Z"}
