{"icao":"LPCS","metar":"LPCS 301800Z 09003KT 060V120 9999 FEW025 12/09 Q1020","updated":"2025-12-30T18:29:33Z"}
