{"icao":"LPAZ","metar":"LPAZ 031000Z 33016KT 9999 SCT011 16/13 Q1008","updated":"2026-01-03T10:19:32Z"}
