{"icao":"LPFL","metar":"LPFL 171700Z 20014G32KT 160V240 9999 FEW008 SCT015 25/21 Q1006","updated":"2025-10-17T17:15:13Z"}
