{"icao":"LPLA","metar":"LPLA 100600Z 21007KT 180V240 9999 FEW015 SCT040 16/13 Q1019","updated":"2025-11-10T06:30:44Z"}
