{"icao":"KORD","metar":"KORD 051351Z 23006KT 10SM FEW050 SCT080 SCT160 BKN250 10/02 A2981 RMK AO2 RAE03 SLP092 P0000 T01000017","updated":"2026-05-05T14:18:40Z"}
