{"icao":"LPBJ","metar":"LPBJ 300700Z VRB02KT 0200 FG VV002 15/14 Q1014","updated":"2025-10-30T07:17:43Z"}
