{"icao":"LPPT","metar":"LPPT 150600Z 34009KT 9999 FEW008 18/16 Q1021","updated":"2025-09-15T06:28:11Z"}
