{"icao":"LPMT","metar":"LPMT 291300Z 23013KT 200V260 9999 BKN035 20/11 Q1009","updated":"2026-04-29T13:53:06Z"}
