{"icao":"KLAX","metar":"KLAX 171853Z VRB03KT 10SM FEW018 FEW032 21/09 A3000 RMK AO2 SLP159 T02110094","updated":"2026-04-17T18:58:50Z"}
