{"icao":"LPBJ","metar":"LPBJ 072200Z 14005KT 9999 FEW035 08/07 Q1016","updated":"2026-04-07T22:36:31Z"}
