{"icao":"LPPR","metar":"LPPR 030300Z 00000KT CAVOK 11/10 Q1024","updated":"2025-11-03T03:15:50Z"}
