{"icao":"LPOV","metar":"LPOV 202000Z 01005KT CAVOK 10/07 Q1030","updated":"2026-02-20T20:29:57Z"}
