{"icao":"LPBJ","metar":"LPBJ 051900Z 24014KT 7000 -SHRA SCT020CB BKN025 13/11 Q1002 RESHRA","updated":"2026-02-05T19:35:49Z"}
