{"icao":"LPPS","metar":"LPPS 011700Z 16006KT 120V200 9999 SCT014 SCT030 18/13 Q1015","updated":"2026-02-01T17:24:03Z"}
