{"icao":"LPAZ","metar":"LPAZ 141600Z 25015KT 9999 FEW024 BKN031 17/13 Q1024","updated":"2026-01-14T16:28:54Z"}
