{"icao":"LPHR","metar":"LPHR 080700Z 22012KT 9999 FEW008 SCT012 BKN030 18/16 Q1029","updated":"2026-01-08T07:23:27Z"}
