{"icao":"LPBJ","metar":"LPBJ 042000Z 28008KT CAVOK 16/08 Q1016","updated":"2026-05-04T20:13:10Z"}
