{"icao":"LPPR","metar":"LPPR 171300Z 30009KT 270V330 CAVOK 16/11 Q1019","updated":"2026-04-17T13:16:52Z"}
