{"icao":"LPPR","metar":"LPPR 102230Z 16010KT 9000 3500N -SHRA SCT014 SCT016CB BKN027 14/12 Q1010","updated":"2026-05-10T22:44:44Z"}
