{"icao":"KJFK","metar":"KJFK 231819Z 15003KT 10SM -RA BKN019 BKN034 OVC050 04/03 A3009 RMK AO2 P0001 T00440028 $","updated":"2025-12-23T18:29:22Z"}
