{"icao":"KORD","metar":"KORD 031251Z 25009KT 10SM BKN075 BKN110 BKN250 06/01 A3007 RMK AO2 SLP187 T00610011 $","updated":"2025-11-03T13:30:00Z"}
