{"icao":"LPAZ","metar":"LPAZ 240600Z 05007KT 9999 SCT008 14/13 Q1022","updated":"2025-12-24T06:32:04Z"}
