{"icao":"LPFL","metar":"LPFL 041730Z 25022G34KT 210V280 9999 FEW010 21/16 Q1022","updated":"2026-06-04T17:45:58Z"}
