{"icao":"LPFL","metar":"LPFL 201100Z 34017KT 310V010 9999 VCSH FEW024 BKN030 14/07 Q1034","updated":"2025-12-20T11:15:06Z"}
