{"icao":"KLAX","metar":"KLAX 252130Z 29014G23KT 8SM BKN010 20/15 A2996 RMK AO2 T02000150","updated":"2026-03-25T21:38:11Z"}
