{"icao":"LPPR","metar":"LPPR 050430Z 02008KT 9999 SCT042 06/01 Q1012","updated":"2026-01-05T04:55:54Z"}
