{"icao":"LPPT","metar":"LPPT 121600Z VRB02KT 9999 FEW045 27/11 Q1015","updated":"2025-10-12T16:18:53Z"}
