{"icao":"LPST","metar":"LPST 031600Z 31011KT 9999 FEW010 19/14 Q1023","updated":"2025-10-05T07:14:28Z"}
