{"icao":"KORD","metar":"KORD 060820Z 26005KT 8SM BKN016 BKN060 M02/M06 A2978 RMK AO2 T10221056","updated":"2025-12-06T08:23:27Z"}
