{"icao":"LPOV","metar":"LPOV 161100Z 14005KT 110V170 9999 FEW008 SCT018 FEW020CB 11/10 Q1013","updated":"2026-01-16T11:18:41Z"}
