{"icao":"LPOV","metar":"LPOV 271000Z VRB01KT CAVOK 18/10 Q1022","updated":"2025-10-27T10:21:05Z"}
