{"icao":"LPPS","metar":"LPPS 160500Z 05007KT 350V100 9999 SCT015 BKN030 15/11 Q1021","updated":"2026-04-16T05:29:44Z"}
