{"icao":"LPPD","metar":"LPPD 251200Z 35015KT 9999 SCT018 20/15 Q1023","updated":"2026-06-25T12:19:22Z"}
