{"icao":"KJFK","metar":"KJFK 310751Z 26016G22KT 10SM FEW022 SCT070 12/09 A2929 RMK AO2 PK WND 25027/0717 SLP919 T01170089","updated":"2025-10-31T08:23:36Z"}
