{"icao":"LPFL","metar":"LPFL 221100Z 35005KT 300V020 9999 4900N VCSH FEW007 SCT012 BKN017 FEW018TCU 19/18 Q1009","updated":"2025-10-22T11:16:16Z"}
