{"icao":"KORD","metar":"KORD 120851Z 25010KT 10SM SCT250 03/01 A2977 RMK AO2 SLP084 T00330006 53006","updated":"2025-11-12T09:20:15Z"}
