{"icao":"KLAX","metar":"KLAX 151653Z 00000KT 9SM FEW014 SCT100 SCT170 OVC240 14/11 A3004 RMK AO2 SLP172 T01440111 $","updated":"2026-02-15T17:24:25Z"}
