{"icao":"LPST","metar":"LPST 071300Z 31007KT 260V360 9999 FEW020 22/15 Q1023","updated":"2025-10-07T14:18:14Z"}
