{"icao":"LPOV","metar":"LPOV 220800Z VRB02KT CAVOK M00/M01 Q1031","updated":"2025-11-22T08:22:21Z"}
