{"icao":"KLAX","metar":"KLAX 041053Z 26013KT 10SM FEW015 BKN055 BKN150 15/09 A2996 RMK AO2 SLP142 T01500094","updated":"2026-05-04T11:47:13Z"}
