{"icao":"LPPT","metar":"LPPT 051030Z 34010KT 310V020 9999 SCT018 BKN021 14/10 Q1018","updated":"2026-03-05T10:37:33Z"}
