{"icao":"LPMA","metar":"LPMA 130500Z 33005KT 270V050 9999 SCT015 16/07 Q1015","updated":"2026-01-13T05:24:44Z"}
