{"icao":"LPLA","metar":"LPLA 101530Z 31022KT 8000 -SHRA SCT015 BKN022 BKN035 18/15 Q1028","updated":"2026-04-10T15:52:05Z"}
