{"icao":"LPMT","metar":"LPMT 281700Z 36008KT CAVOK 22/11 Q1020","updated":"2026-03-28T17:27:29Z"}
