{"icao":"KORD","metar":"KORD 121251Z 36004KT 10SM FEW065 BKN170 M04/M09 A3028 RMK AO2 SLP261 T10391089","updated":"2026-02-12T13:04:53Z"}
