{"icao":"LPLA","metar":"LPLA 250300Z VRB02KT 9999 OVC045 17/13 Q1026","updated":"2025-11-25T03:13:39Z"}
