{"icao":"LPHR","metar":"LPHR 111400Z 24007KT 9999 FEW016 23/17 Q1021","updated":"2025-10-11T14:13:34Z"}
