{"icao":"LPOV","metar":"LPOV 220600Z 20006KT 160V230 5000 BR 0VC003 17/17 Q1017","updated":"2026-06-22T06:27:37Z"}
