{"icao":"KORD","metar":"KORD 291851Z 35005KT 10SM FEW032 FEW250 M09/M21 A3029 RMK AO2 SLP271 T10891206","updated":"2026-01-29T19:29:24Z"}
