{"icao":"LPMA","metar":"LPMA 170900Z 02014KT 350V050 9999 SCT016 18/12 Q1018","updated":"2026-04-17T09:16:38Z"}
