{"icao":"LPPT","metar":"LPPT 210300Z 34002KT CAVOK 16/12 Q1020","updated":"2026-05-21T03:34:07Z"}
