{"icao":"LPPD","metar":"LPPD 211800Z 18009KT 9999 FEW014 BKN048 16/14 Q1024","updated":"2026-02-21T18:33:30Z"}
