{"icao":"KJFK","metar":"KJFK 101651Z 17007KT 10SM FEW045 FEW170 BKN250 24/18 A2990 RMK AO2 SLP125 T02390178 $","updated":"2026-06-10T16:56:55Z"}
