{"icao":"LPBJ","metar":"LPBJ 040400Z 28014KT 3000 -RADZ BKN006 OVC014 14/13 Q0998 RERADZ","updated":"2026-02-04T04:13:46Z"}
