{"icao":"KJFK","metar":"KJFK 011230Z 35018G30KT 10SM -SN BKN027 M12/M17 A2984 RMK AO2 PK WND 36032/1217 SNB30 P0000 T11171167 $","updated":"2026-02-01T12:47:33Z"}
