{"icao":"LPAZ","metar":"LPAZ 020100Z 11005KT 9999 FEW015 20/19 Q1022","updated":"2025-10-02T01:16:59Z"}
