{"icao":"LPMA","metar":"LPMA 200900Z 32007KT 280V020 9999 FEW015 15/07 Q1026","updated":"2026-01-20T09:31:36Z"}
