{"icao":"LPHR","metar":"LPHR 121500Z 24010KT 9999 FEW018 SCT033 16/09 Q1032","updated":"2025-12-12T15:21:17Z"}
