{"icao":"LPMR","metar":"LPMR 222000Z 24007KT 210V270 9999 BKN007 SCT015 BKN025 21/20 Q1018","updated":"2025-10-22T20:21:32Z"}
