{"icao":"LPST","metar":"LPST 221000Z 35003KT 290V050 CAVOK 25/14 Q1020","updated":"2026-05-22T10:48:50Z"}
