{"icao":"LPBJ","metar":"LPBJ 020600Z 13013KT 9999 FEW023 SCT030 13/09 Q1005","updated":"2026-01-02T06:31:27Z"}
