{"icao":"LPOV","metar":"LPOV 081200Z 01002KT 320V040 9999 FEW018 17/12 Q1023","updated":"2025-11-08T12:33:07Z"}
