{"icao":"KJFK","metar":"KJFK 192051Z 17006KT 10SM SCT060 SCT250 04/M04 A3021 RMK AO2 SLP229 T00391044 58023","updated":"2026-03-19T21:34:09Z"}
