{"icao":"LPPT","metar":"LPPT 141330Z 34015KT 310V010 9999 FEW036 14/05 Q1027","updated":"2026-02-14T13:42:46Z"}
