{"icao":"LPCS","metar":"LPCS 080900Z 04003KT 9999 FEW017 SCT027 15/13 Q1022","updated":"2025-11-08T09:16:38Z"}
