{"icao":"LPAZ","metar":"LPAZ 230700Z 04009KT 360V060 9999 BKN030 14/08 Q1021","updated":"2026-03-23T07:08:18Z"}
