{"icao":"LPOV","metar":"LPOV 011700Z 30004KT 260V340 CAVOK 15/10 Q1018","updated":"2026-03-01T17:20:44Z"}
