{"icao":"LPFL","metar":"LPFL 291730Z VRB11G25KT 9999 FEW017 17/11 Q1009 WS ALL RWY","updated":"2026-01-29T17:36:02Z"}
