{"icao":"LPBJ","metar":"LPBJ 200100Z 36005KT CAVOK 07/04 Q1029","updated":"2026-02-20T01:59:35Z"}
