{"icao":"KORD","metar":"KORD 131151Z 21006KT 10SM SCT150 SCT250 19/14 A2995 RMK AO2 SLP138 T01940144 10200 20183 51007 $","updated":"2026-06-13T12:23:33Z"}
