{"icao":"LPMR","metar":"LPMR 220100Z 25003KT 9999 BKN030 13/12 Q1011","updated":"2026-04-22T02:28:47Z"}
