{"icao":"KORD","metar":"KORD 050651Z 20010KT 10SM CLR 22/13 A3007 RMK AO2 SLP177 T02220128 $","updated":"2025-10-05T07:14:31Z"}
