{"icao":"LPFR","metar":"LPFR 111530Z 21005KT 150V250 9999 FEW025 16/09 Q1024","updated":"2026-03-11T15:47:09Z"}
