{"icao":"LPFL","metar":"LPFL 021000Z 35015KT 9999 FEW027 14/09 Q1013","updated":"2026-01-02T10:20:22Z"}
