{"icao":"LPHR","metar":"LPHR 091700Z 19005KT 150V220 9999 FEW011 23/21 Q1019","updated":"2025-10-09T17:16:04Z"}
