{"icao":"LPBJ","metar":"LPBJ 042200Z 24015KT 8000 -DZRA BKN007 OVC012 14/14 Q1000","updated":"2026-02-04T22:26:32Z"}
