{"icao":"LPBJ","metar":"LPBJ 301000Z 33014KT 9999 SCT030 10/05 Q1017","updated":"2025-11-30T10:18:16Z"}
