{"icao":"LPFR","metar":"LPFR 032030Z 29007KT CAVOK 18/09 Q1021","updated":"2026-04-03T20:35:05Z"}
