{"icao":"LPMA","metar":"LPMA 080800Z 01012KT 340V040 9999 SCT013 SCT030 14/08 Q1025","updated":"2026-03-08T08:29:52Z"}
