{"icao":"LPOV","metar":"LPOV 181400Z 15014KT 120V180 9999 SCT028 SCT045 20/09 Q1003","updated":"2026-03-18T15:01:09Z"}
