{"icao":"KJFK","metar":"KJFK 030951Z 26009KT 10SM FEW250 M06/M11 A3015 RMK AO2 SLP210 T10611111 PNO $","updated":"2026-02-03T10:38:27Z"}
