{"icao":"LPFR","metar":"LPFR 052100Z VRB02KT CAVOK 21/18 Q1017","updated":"2025-10-05T21:13:50Z"}
