{"icao":"LPPD","metar":"LPPD 272230Z 01009KT 9999 FEW016 18/15 Q1026","updated":"2026-06-27T23:00:11Z"}
