{"icao":"LPOV","metar":"LPOV 221100Z 13005KT 4000 -RA BR FEW012 SCT030 BKN040 09/09 Q1007 RERA","updated":"2026-01-22T11:21:51Z"}
