{"icao":"LPMT","metar":"LPMT 141700Z 33008KT 9999 FEW038 14/08 Q1027","updated":"2026-02-14T17:24:44Z"}
