{"icao":"LPCS","metar":"LPCS 152030Z 33007KT 290V350 9999 -RA FEW008 12/10 Q1006","updated":"2025-12-16T06:31:40Z"}
