{"icao":"LPMR","metar":"LPMR 301100Z 12007KT 080V170 CAVOK 25/14 Q1019","updated":"2025-09-30T11:14:59Z"}
