{"icao":"LPFR","metar":"LPFR 040800Z 31007KT 9999 FEW030 11/10 Q1024","updated":"2025-12-04T08:27:44Z"}
