{"icao":"KJFK","metar":"KJFK 220451Z 03010KT 10SM FEW039 SCT049 OVC060 05/M01 A3012 RMK AO2 SLP198 T00501011 400890011 $","updated":"2026-02-22T05:50:54Z"}
