{"icao":"LPCS","metar":"LPCS 201130Z 15006KT 110V180 CAVOK 24/12 Q1011","updated":"2026-04-20T12:02:44Z"}
