{"icao":"LPFL","metar":"LPFL 171000Z 30003KT 230V020 9999 FEW007 SCT011 19/17 Q1022","updated":"2025-11-17T10:21:23Z"}
