{"icao":"LPPT","metar":"LPPT 091530Z 23016G28KT 8000 -TSRA FEW012 SCT018CB 13/11 Q1006 RESHRA","updated":"2026-05-09T15:50:56Z"}
