{"icao":"LPPR","metar":"LPPR 010600Z VRB02KT 9000 4200N BCFG NSC 12/11 Q1018","updated":"2026-05-01T06:15:33Z"}
