{"icao":"LPMT","metar":"LPMT 262200Z 31005KT 9999 FEW025 21/16 Q1018","updated":"2026-06-26T23:04:45Z"}
