{"icao":"LPFR","metar":"LPFR 100400Z 32005KT CAVOK 08/07 Q1029","updated":"2026-01-10T04:32:34Z"}
