{"icao":"LPBJ","metar":"LPBJ 311900Z 31011KT CAVOK 30/13 Q1017","updated":"2026-05-31T19:37:30Z"}
