{"icao":"LPBJ","metar":"LPBJ 212000Z 29007KT CAVOK 28/15 Q1017","updated":"2026-06-21T20:23:39Z"}
