{"icao":"LPHR","metar":"LPHR 031530Z 26024KT 2000 -RA BR SCT002 BKN005 17/17 Q1001 RERA","updated":"2026-02-03T15:49:14Z"}
