{"icao":"KJFK","metar":"KJFK 252351Z 18015KT 10SM FEW065 FEW100 SCT250 22/18 A3004 RMK SLP172 T02220178 10272 20222 55003 ","updated":"2026-06-26T00:07:21Z"}
