{"icao":"LPFL","metar":"LPFL 010900Z 33018G30KT 300V360 9999 VCSH BKN019 BKN040 15/11 Q1026","updated":"2026-03-01T09:28:57Z"}
