{"icao":"KORD","metar":"KORD 141751Z 10009KT 10SM CLR 27/18 A3004 RMK AO2 SLP169 T02670178 10267 20194 51002 $","updated":"2025-09-14T18:21:21Z"}
