{"icao":"LPMA","metar":"LPMA 302300Z 02024G37KT 9999 FEW014 SCT030 21/15 Q1022","updated":"2026-06-30T23:10:38Z"}
