{"icao":"LPPS","metar":"LPPS 272000Z 03013KT 350V060 9999 SCT010 15/13 Q1027","updated":"2026-02-27T20:26:53Z"}
