{"icao":"LPPT","metar":"LPPT 120500Z 36004KT CAVOK 19/10 Q1016","updated":"2025-10-12T05:15:30Z"}
