{"icao":"LPPR","metar":"LPPR 011000Z 12007KT CAVOK 09/04 Q1021","updated":"2025-12-01T10:22:38Z"}
