{"icao":"KLAX","metar":"KLAX 130253Z 00000KT 10SM BKN160 18/15 A3003 RMK AO2 SLP169 T01780150 51006 $","updated":"2025-11-13T03:13:56Z"}
