{"icao":"LPFR","metar":"LPFR 141600Z 23006KT 9999 VCSH FEW020 FEW022TCU 15/10 Q1020","updated":"2026-01-14T16:28:51Z"}
