{"icao":"LPBJ","metar":"LPBJ 012200Z 28006KT CAVOK 21/12 Q1020","updated":"2025-10-01T22:15:55Z"}
