{"icao":"KJFK","metar":"KJFK 062051Z 21006KT 10SM FEW043 SCT090 SCT150 BKN250 M02/M08 A2965 RMK AO2 SLP039 T10171078 56015 $","updated":"2026-02-06T21:28:55Z"}
