{"icao":"LPLA","metar":"LPLA 310700Z 29004KT 270V330 9999 FEW025 13/11 Q1003","updated":"2025-12-31T07:22:43Z"}
