{"icao":"KLAX","metar":"KLAX 172253Z 24014KT 10SM FEW043 FEW050 SCT070 16/06 A3004 RMK AO2 SLP173 T01560056","updated":"2026-02-17T23:27:10Z"}
