{"icao":"KLAX","metar":"KLAX 021453Z 05007KT 2SM BR OVC005 16/14 A3005 RMK AO2 SLP174 VIS S-W 1 1/4 T01560139 51003 $","updated":"2025-11-02T15:16:17Z"}
