{"icao":"KORD","metar":"KORD 061751Z 00000KT 10SM OVC029 M01/M06 A2994 RMK AO2 SLP146 4/004 933006 T10061061 11006 21033 50006","updated":"2025-12-06T18:24:57Z"}
