{"icao":"LPOV","metar":"LPOV 251700Z 34013KT 9999 FEW025 14/09 Q1024","updated":"2025-11-25T17:18:36Z"}
