{"icao":"LPPR","metar":"LPPR 081600Z 28003KT 240V320 9999 FEW025 17/11 Q1022","updated":"2025-11-08T16:20:08Z"}
