{"icao":"LPPS","metar":"LPPS 141000Z 02010KT 9999 FEW015 16/10 Q1025","updated":"2026-01-14T10:24:20Z"}
