{"icao":"KORD","metar":"KORD 262051Z 26013G23KT 10SM FEW025 M13/M21 A3022 RMK AO2 SLP249 T11331211 56018","updated":"2026-01-26T21:23:01Z"}
