{"icao":"LPMA","metar":"LPMA 030400Z 34009KT 310V010 9999 -SHRA BKN015 15/12 Q1026","updated":"2025-12-03T04:28:10Z"}
