{"icao":"LPBJ","metar":"LPBJ 130900Z 32009KT 0100 FG VV002 08/08 Q1024","updated":"2026-03-13T09:37:00Z"}
