{"icao":"KJFK","metar":"KJFK 261751Z 21012KT 10SM FEW043 SCT160 SCT250 26/17 A2981 RMK AO2 SLP095 T02610172 10267 20206 58008 $","updated":"2025-09-26T18:22:55Z"}
