{"icao":"LPCS","metar":"LPCS 211900Z 02004KT CAVOK 16/09 Q1028","updated":"2026-02-21T21:21:26Z"}
