{"icao":"LPPR","metar":"LPPR 221500Z 25006KT 210V320 9999 FEW020 17/11 Q1014","updated":"2026-04-22T15:11:29Z"}
