{"icao":"KLAX","metar":"KLAX 230753Z 27006KT 10SM FEW012 17/14 A3003 RMK AO2 SLP168 T01670144 402110156","updated":"2025-10-23T08:25:31Z"}
