{"icao":"LPLA","metar":"LPLA 061700Z 32029KT 9999 SCT025 13/03 Q1020","updated":"2026-04-06T17:42:40Z"}
