{"icao":"KLAX","metar":"KLAX 042053Z 25012KT 10SM FEW030 22/14 A2988 RMK AO2 SLP115 T02220139 58022 $","updated":"2025-10-04T21:13:45Z"}
