{"icao":"LPOV","metar":"LPOV 251700Z 34007KT CAVOK 23/15 Q1022","updated":"2026-05-25T18:24:10Z"}
