{"icao":"LPPD","metar":"LPPD 120700Z 32004KT 9999 FEW025 17/14 Q1018","updated":"2025-10-12T07:15:38Z"}
