{"icao":"LPBJ","metar":"LPBJ 091500Z 09006KT 040V140 9999 SCT048 20/12 Q1013","updated":"2026-04-09T15:21:11Z"}
