{"icao":"LPMR","metar":"LPMR 240100Z 25011G21KT 9999 FEW020 FEW022CB BKN032 10/03 Q1002","updated":"2026-01-24T01:38:42Z"}
