{"icao":"LPPT","metar":"LPPT 050930Z 23021KT 9000 VCSH FEW018 FEW020CB BKN028 15/12 Q0994 WS R20","updated":"2026-02-05T09:42:25Z"}
