{"icao":"KLAX","metar":"KLAX 212310Z 26012KT 1SM R25L/P6000FT HZ BKN004 19/16 A2991 RMK AO2 VIS SE-S AND W 1/2 T01890156","updated":"2026-03-21T23:23:32Z"}
