{"icao":"LPPD","metar":"LPPD 290800Z 32011KT 290V360 9999 -SHRA SCT018 BKN035 15/12 Q1020","updated":"2025-10-29T08:25:26Z"}
