{"icao":"LPLA","metar":"LPLA 181800Z 34014KT 9000 -DZ BKN006 BKN012 17/16 Q1025","updated":"2025-11-18T18:28:00Z"}
