{"icao":"LPHR","metar":"LPHR 201900Z 25013KT 6000 FEW004 SCT006 BKN012 22/21 Q1013","updated":"2025-10-20T19:15:13Z"}
