{"icao":"LPPR","metar":"LPPR 261730Z 28004KT 9999 3500W BCFG FEW001 13/11 Q1024","updated":"2026-02-26T17:56:28Z"}
