{"icao":"LPFL","metar":"LPFL 061700Z 31009KT 260V360 9999 FEW020 17/11 Q1007","updated":"2025-12-06T17:15:17Z"}
