{"icao":"LPPR","metar":"LPPR 120400Z 11009KT CAVOK 19/09 Q1017","updated":"2025-10-12T04:20:00Z"}
