{"icao":"LPMA","metar":"LPMA 251100Z 04003KT 350V080 9999 FEW015 18/08 Q1027","updated":"2026-01-25T11:16:58Z"}
