{"icao":"KORD","metar":"KORD 131351Z 17003KT 9SM CLR M02/M05 A3019 RMK AO2 SLP231 T10171050","updated":"2026-02-13T14:03:08Z"}
