{"icao":"LPFL","metar":"LPFL 222100Z VRB12G25KT 9999 -SHRA BKN026 12/07 Q1022","updated":"2026-01-23T01:41:31Z"}
