{"icao":"LPPD","metar":"LPPD 281100Z 25026KT 3500 -DZ BR SCT004 BKN007 16/16 Q1008","updated":"2026-01-28T11:21:58Z"}
