{"icao":"LPHR","metar":"LPHR 260530Z 14005KT 7000 -DZ SCT001 BKN003 14/13 Q1019","updated":"2026-04-26T05:38:21Z"}
