{"icao":"LPFR","metar":"LPFR 261930Z 27007KT CAVOK 19/15 Q1014","updated":"2026-04-26T19:44:47Z"}
