{"icao":"LPPD","metar":"LPPD 200230Z 01024G34KT 8000 -RADZ FEW008 BKN011 12/10 Q1015","updated":"2026-04-20T02:34:57Z"}
