{"icao":"LPPT","metar":"LPPT 311800Z 21016KT 8000 3500W -RADZ FEW006 BKN011 20/18 Q1013 WS R20","updated":"2025-10-31T18:26:32Z"}
