{"icao":"KJFK","metar":"KJFK 240651Z 31012KT 10SM SCT120 BKN250 M01/M08 A2979 RMK AO2 SLP088 T10111078 $","updated":"2026-02-24T07:07:32Z"}
