{"icao":"LPAZ","metar":"LPAZ 061500Z 23015KT 2000 -SHRA BR FEW002 BKN005 BKN011 21/20 Q1014","updated":"2025-11-06T15:20:19Z"}
