{"icao":"KJFK","metar":"KJFK 190051Z 21008KT 10SM FEW250 21/19 A2993 RMK AO2 SLP135 T02110194 $","updated":"2025-09-19T01:19:05Z"}
