{"icao":"KJFK","metar":"KJFK 141151Z 22006KT 10SM BKN038 BKN075 BKN250 M02/M06 A3013 RMK AO2 SLP204 60000 T10221061 11011 21044 51002 $","updated":"2026-02-14T12:44:40Z"}
