{"icao":"LPMT","metar":"LPMT 222300Z 35003KT CAVOK 13/12 Q1012","updated":"2026-03-22T23:26:25Z"}
