{"icao":"LPLA","metar":"LPLA 191100Z 18016KT 9999 SCT022 SCT035 16/12 Q1021","updated":"2026-02-19T11:37:24Z"}
