{"icao":"LPPR","metar":"LPPR 291730Z 24007KT 200V270 7000 FEW018 BKN027 14/12 Q1008","updated":"2026-01-29T17:36:00Z"}
