{"icao":"LPOV","metar":"LPOV 260600Z 19015KT 8000 -RADZ BKN003 14/14 Q1008","updated":"2026-01-26T06:35:30Z"}
