{"icao":"LPAZ","metar":"LPAZ 251300Z 03015G26KT 2000 +RA FEW006 BKN012 BKN022 19/17 Q1016","updated":"2025-10-25T13:21:38Z"}
