{"icao":"KORD","metar":"KORD 240551Z 33009KT 10SM SCT250 M22/M32 A3074 RMK AO2 SLP431 4/001 T12221317 11222 21228 411501239 50000","updated":"2026-01-24T06:30:15Z"}
