{"icao":"LPBJ","metar":"LPBJ 060400Z 29006KT CAVOK 01/M01 Q1018","updated":"2026-01-06T04:38:41Z"}
