{"icao":"LPPS","metar":"LPPS 241430Z 05016KT 010V080 9999 SCT013 SCT030 18/13 Q1017","updated":"2026-03-24T14:56:48Z"}
