{"icao":"KLAX","metar":"KLAX 140453Z 14008KT 10SM BKN037 BKN050 BKN060 18/12 A2981 RMK AO2 SLP093 T01780122 $","updated":"2025-10-14T05:17:03Z"}
