{"icao":"LPPS","metar":"LPPS 100100Z 35004KT 9999 SCT015 18/12 Q1022","updated":"2025-11-10T01:27:37Z"}
