{"icao":"LPBJ","metar":"LPBJ 200500Z 08005KT CAVOK 12/11 Q1013","updated":"2026-04-20T05:39:38Z"}
