{"icao":"LPPT","metar":"LPPT 151100Z 28008KT 240V310 9999 VCSH FEW008 SCT015 13/11 Q1032","updated":"2026-02-15T11:21:17Z"}
