{"icao":"LPPR","metar":"LPPR 171400Z 35010KT 330V030 9999 SCT030 17/12 Q1015","updated":"2025-11-17T14:18:46Z"}
