{"icao":"LPPT","metar":"LPPT 252100Z 24003KT 9999 FEW002 SCT010 11/11 Q1014","updated":"2026-01-25T21:18:05Z"}
