{"icao":"LPPT","metar":"LPPT 272300Z 23013KT 8000 SHRA FEW012 FEW020CB BKN030 12/10 Q1004","updated":"2026-01-27T23:20:38Z"}
