{"icao":"LPOV","metar":"LPOV 020100Z VRB01KT 7000 NSC 13/13 Q1020","updated":"2025-10-02T11:13:37Z"}
