{"icao":"LPBJ","metar":"LPBJ 150700Z 16004KT CAVOK 15/10 Q1017","updated":"2025-10-15T07:18:29Z"}
