{"icao":"KORD","metar":"KORD 101851Z 31012G21KT 10SM FEW035 SCT090 BKN120 01/M10 A3021 RMK AO2 SLP238 VIRGA T00111100","updated":"2025-11-10T19:15:36Z"}
