{"icao":"LPLA","metar":"LPLA 180800Z 29003KT 9999 -RA FEW008 SCT020 BKN030 20/19 Q1015 RESHRA","updated":"2025-09-18T08:22:07Z"}
