{"icao":"LPPD","metar":"LPPD 271300Z 21006KT 9000 -RA FEW006 SCT018 BKN030 17/16 Q1023","updated":"2025-11-27T13:30:41Z"}
