{"icao":"KJFK","metar":"KJFK 061351Z VRB04KT 10SM CLR 21/16 A3032 RMK AO2 SLP267 T02060161","updated":"2025-10-06T14:17:32Z"}
