{"icao":"LPBJ","metar":"LPBJ 261500Z 35004KT 310V030 9999 FEW030 12/01 Q1013","updated":"2025-12-26T15:19:31Z"}
