{"icao":"LPOV","metar":"LPOV 301400Z 22009KT 190V250 9999 SCT030 OVC045 18/12 Q1017","updated":"2026-04-30T15:08:35Z"}
