{"icao":"LPMT","metar":"LPMT 091600Z 31005KT 270V350 CAVOK 24/15 Q1018","updated":"2025-10-09T16:23:08Z"}
