{"icao":"LPCS","metar":"LPCS 021800Z 28009KT 250V310 9000 -SHRA SCT010 FEW018CB BKN028 14/10 Q1017","updated":"2025-12-02T18:30:35Z"}
