{"icao":"KJFK","metar":"KJFK 061151Z 24006KT 10SM FEW010 18/17 A3031 RMK AO2 SLP262 T01780167 10183 20161 53009","updated":"2025-10-06T12:37:52Z"}
