{"icao":"KLAX","metar":"KLAX 080953Z 11003KT 10SM CLR 17/M07 A2994 RMK AO2 SLP134 T01671072 $","updated":"2026-03-08T10:24:39Z"}
