{"icao":"LPMA","metar":"LPMA 072100Z 02013KT 340V060 9999 BKN015 14/05 Q1025","updated":"2026-03-07T21:20:36Z"}
