{"icao":"LPAZ","metar":"LPAZ 171300Z 20013KT 9999 -RA SCT015 BKN019 18/16 Q1026","updated":"2025-11-17T13:30:48Z"}
