{"icao":"KJFK","metar":"KJFK 061651Z 31020G26KT 10SM BKN060 12/M02 A3005 RMK AO2 PK WND 31032/1635 SLP176 T01171022 $","updated":"2025-11-06T17:18:31Z"}
