{"icao":"LPAZ","metar":"LPAZ 301700Z 19011KT 9999 SCT003 SCT008 BKN013 22/21 Q1022","updated":"2025-09-30T17:15:52Z"}
