{"icao":"KLAX","metar":"KLAX 310353Z 34004KT 10SM FEW280 22/02 A3014 RMK AO2 SLP207 T02220022 $","updated":"2026-01-31T04:05:34Z"}
