{"icao":"LPPR","metar":"LPPR 211330Z 27005KT 240V320 CAVOK 16/08 Q1030","updated":"2026-02-21T13:40:42Z"}
