{"icao":"LPHR","metar":"LPHR 271230Z 05013G23KT 020V080 9999 VCSH FEW007 SCT015 17/12 Q1024","updated":"2025-11-27T12:39:55Z"}
