{"icao":"KLAX","metar":"KLAX 140253Z 22007KT 10SM BKN012 20/17 A2988 RMK AO2 SLP115 T02000172 53000 $","updated":"2025-09-14T03:01:05Z"}
