{"icao":"LPCS","metar":"LPCS 250700Z 09004KT 9999 FEW045 10/09 Q1022","updated":"2025-11-25T07:18:42Z"}
