{"icao":"LPMT","metar":"LPMT 040100Z 11003KT 070V140 CAVOK 14/12 Q1019","updated":"2025-11-04T01:23:11Z"}
