{"icao":"LPPT","metar":"LPPT 021400Z 31010KT 280V340 9999 FEW042 27/15 Q1020","updated":"2025-10-02T14:17:12Z"}
