{"icao":"KLAX","metar":"KLAX 221508Z 26005KT 8SM FEW004 BKN009 BKN140 BKN180 19/18 A2988 RMK AO2 BKN009 V SCT T01940178 $","updated":"2025-09-22T15:19:09Z"}
