{"icao":"LPFR","metar":"LPFR 082200Z 23015KT 9000 -DZ BKN003 BKN005 15/15 Q1014","updated":"2026-02-08T22:25:37Z"}
