{"icao":"LPPT","metar":"LPPT 012100Z 22004KT 210V280 9999 FEW028 10/08 Q1018","updated":"2025-12-01T21:15:47Z"}
