{"icao":"LPPR","metar":"LPPR 311900Z 09003KT 060V140 CAVOK 09/07 Q1017","updated":"2025-12-31T19:15:32Z"}
