{"icao":"LPMA","metar":"LPMA 091130Z 11004KT 090V160 9999 FEW015 20/16 Q1024","updated":"2026-02-09T11:42:59Z"}
