{"icao":"LPMR","metar":"LPMR 271300Z 32009KT 280V350 9999 FEW008 FEW028TCU 22/15 Q1013","updated":"2026-04-27T13:50:06Z"}
