{"icao":"LPPR","metar":"LPPR 221000Z 23005KT 8000 3000W BCFG FEW002 15/12 Q1012","updated":"2026-03-22T10:26:08Z"}
