{"icao":"LPLA","metar":"LPLA 031600Z 32007KT 290V350 9999 FEW015 SCT022 BKN030 19/14 Q1026","updated":"2025-12-03T16:27:36Z"}
