{"icao":"LPCS","metar":"LPCS 051330Z 13006KT 090V160 CAVOK 25/10 Q1020","updated":"2026-04-05T13:54:15Z"}
