{"icao":"LPLA","metar":"LPLA 021000Z 33034KT 8000 -SHRA FEW017 BKN025 14/09 Q1006","updated":"2026-01-02T10:20:21Z"}
