{"icao":"LPFR","metar":"LPFR 022100Z 12009KT 9000 SCT008 BKN018 15/14 Q1008","updated":"2026-03-02T21:31:51Z"}
