{"icao":"LPAR","metar":"LPAR 161100Z 04007KT CAVOK 17/10 Q1021","updated":"2026-03-16T11:45:05Z"}
