{"icao":"LPOV","metar":"LPOV 221800Z VRB02KT 9999 BKN035 10/07 Q1029","updated":"2025-11-22T18:24:31Z"}
