{"icao":"LPBJ","metar":"LPBJ 201300Z 31009KT 270V340 9999 FEW040 15/06 Q1019","updated":"2025-11-20T13:29:02Z"}
