{"icao":"LPCS","metar":"LPCS 030600Z 02007KT CAVOK 15/14 Q1021","updated":"2025-10-03T06:25:47Z"}
