{"icao":"LPPS","metar":"LPPS 121300Z 02006KT 330V050 9999 FEW015 24/14 Q1018","updated":"2025-10-12T13:20:52Z"}
