{"icao":"LPBJ","metar":"LPBJ 221000Z 25008KT 220V280 9999 VCFG SCT010 BKN015 22/19 Q1020","updated":"2025-10-22T10:20:07Z"}
