{"icao":"LPPT","metar":"LPPT 222200Z 33015KT CAVOK 16/09 Q1018","updated":"2025-09-22T22:16:05Z"}
