{"icao":"LPPT","metar":"LPPT 171500Z 28006KT 240V320 9999 FEW015 FEW025TCU 11/06 Q1010","updated":"2026-01-17T15:18:18Z"}
