{"icao":"LPPD","metar":"LPPD 010700Z 03005KT 360V080 9999 FEW022 BKN045 16/06 Q1018","updated":"2025-11-01T07:15:40Z"}
