{"icao":"LPFL","metar":"LPFL 021130Z 11003KT 030V200 9999 OVC027 15/10 Q1033","updated":"2026-04-02T11:43:08Z"}
