{"icao":"LPMA","metar":"LPMA 172100Z 31005KT 260V020 9999 FEW015 18/13 Q1024","updated":"2025-11-17T21:17:06Z"}
