{"icao":"LPFR","metar":"LPFR 051100Z 33015KT CAVOK 12/01 Q1011","updated":"2026-01-05T11:18:18Z"}
