{"icao":"KJFK","metar":"KJFK 211051Z 25007KT 10SM FEW120 SCT170 SCT250 21/13 A2986 RMK AO2 SLP112 T02060133 $","updated":"2026-06-21T11:45:58Z"}
