{"icao":"KORD","metar":"KORD 290851Z 21006KT 10SM SCT110 SCT220 BKN250 05/M02 A3026 RMK AO2 SLP250 T00501017 58012","updated":"2026-03-29T09:35:17Z"}
