{"icao":"KLAX","metar":"KLAX 121603Z 00000KT 5SM BR FEW003 SCT006 17/14 A2978 RMK AO2 VIS W 2 1/2 T01670144 $","updated":"2025-10-12T16:19:11Z"}
