{"icao":"LPBJ","metar":"LPBJ 300500Z 32010KT 7000 VCFG SCT003 SCT020 11/10 Q1015","updated":"2025-11-30T05:17:58Z"}
