{"icao":"LPMT","metar":"LPMT 261700Z 32004KT 290V010 CAVOK 20/13 Q1022","updated":"2026-02-26T17:56:29Z"}
