{"icao":"LPLA","metar":"LPLA 012020Z 28020KT 9999 TS SCT024 FEW026CB 10/06 Q1010","updated":"2026-02-01T20:25:40Z"}
