{"icao":"KLAX","metar":"KLAX 040153Z 25011KT 10SM FEW035 SCT050 19/14 A2991 RMK AO2 SLP127 T01940144 $","updated":"2025-10-04T02:50:02Z"}
