{"icao":"LPMA","metar":"LPMA 081230Z 04017KT 9999 SCT015 24/17 Q1026","updated":"2025-10-08T12:37:30Z"}
