{"icao":"LPPR","metar":"LPPR 011900Z 10012KT 9999 FEW045 11/06 Q1007","updated":"2026-01-01T19:16:23Z"}
