{"icao":"LPFR","metar":"LPFR 040900Z 01011KT 360V070 9999 FEW012 FEW018TCU BKN020 14/12 Q0997","updated":"2026-01-04T09:18:30Z"}
