{"icao":"LPHR","metar":"LPHR 211100Z 23004KT 9999 FEW005 SCT008 BKN035 17/16 Q1021","updated":"2026-02-21T11:20:55Z"}
