{"icao":"LPMA","metar":"LPMA 131700Z 36030G49KT 330V030 9999 -SHRA SCT015 FEW018TCU 16/11 Q1015","updated":"2025-12-13T17:16:43Z"}
