{"icao":"KJFK","metar":"KJFK 130651Z 33016KT 10SM BKN180 BKN250 M04/M11 A3009 RMK AO2 SLP189 T10391106 $","updated":"2026-02-13T07:08:44Z"}
