{"icao":"LPPR","metar":"LPPR 081500Z 32010KT 290V350 CAVOK 19/15 Q1021","updated":"2025-10-08T15:18:59Z"}
