{"icao":"LPMR","metar":"LPMR 170300Z 18003KT 4000 BR BKN003 12/11 Q1021","updated":"2025-09-17T03:26:51Z"}
