{"icao":"LPPR","metar":"LPPR 262300Z 19029G42KT 2000 -RADZ BR BKN005 14/13 Q0995 WS R17","updated":"2026-01-26T23:20:39Z"}
