{"icao":"LPHR","metar":"LPHR 121430Z 28022KT 9999 FEW020 17/09 Q1018","updated":"2026-02-12T14:45:39Z"}
