{"icao":"KJFK","metar":"KJFK 121751Z 24018KT 10SM FEW070 FEW180 SCT250 04/M06 A3015 RMK AO2 SLP210 T00391061 10044 20000 58022 $","updated":"2026-01-12T18:31:47Z"}
