{"icao":"KORD","metar":"KORD 291407Z 20011G18KT 10SM BKN016 28/24 A2992 RMK AO2 T02830244 $","updated":"2026-06-29T14:46:59Z"}
