{"icao":"LPBJ","metar":"LPBJ 261000Z 28003KT 7000 VCFG FEW003 05/04 Q1015","updated":"2025-12-26T10:20:23Z"}
