{"icao":"LPMA","metar":"LPMA 071030Z 33008KT 230V040 9999 FEW014 16/05 Q1023","updated":"2026-04-07T10:53:53Z"}
