{"icao":"LPMA","metar":"LPMA 292100Z 36010KT 330V040 9999 FEW015 20/15 Q1018","updated":"2025-10-29T21:16:51Z"}
