{"icao":"LPFL","metar":"LPFL 091400Z 19006KT 140V290 9999 FEW032 16/05 Q1019","updated":"2025-12-09T14:20:47Z"}
