{"icao":"LPMR","metar":"LPMR 161800Z 31002KT 5000 BR FEW008 17/15 Q1014","updated":"2025-10-16T18:25:46Z"}
