{"icao":"LPPR","metar":"LPPR 032100Z 33005KT 300V360 9999 SCT008 17/15 Q1024","updated":"2025-10-03T21:14:07Z"}
