{"icao":"KJFK","metar":"KJFK 231051Z 00000KT 10SM SCT100 SCT250 02/M04 A3006 RMK AO2 SLP178 T00221039","updated":"2025-11-23T11:14:36Z"}
