{"icao":"LPAZ","metar":"LPAZ 201600Z 24014KT 9000 BKN004 24/23 Q1017","updated":"2025-10-20T16:22:25Z"}
