{"icao":"KORD","metar":"KORD 171651Z 15007KT 10SM FEW070 BKN250 11/04 A2989 RMK AO2 SLP124 T01060044 $","updated":"2026-02-17T16:56:05Z"}
