{"icao":"LPMA","metar":"LPMA 180800Z 26003KT 210V360 9999 FEW015 21/18 Q1015","updated":"2025-10-18T08:21:04Z"}
