{"icao":"LPHR","metar":"LPHR 281900Z 28015KT 9999 SCT007 BKN011 17/15 Q1028","updated":"2026-02-28T19:19:42Z"}
