{"icao":"LPCS","metar":"LPCS 031730Z 17008KT 6000 RA FEW004 SCT009 BKN045 11/11 Q1000","updated":"2026-02-03T17:51:43Z"}
