{"icao":"LPCS","metar":"LPCS 171400Z 27003KT 220V310 9999 FEW016 11/08 Q1011","updated":"2026-01-17T14:17:50Z"}
