{"icao":"LPHR","metar":"LPHR 152300Z 34004KT 9999 FEW018 14/10 Q1020","updated":"2025-11-15T23:16:03Z"}
