{"icao":"LPPT","metar":"LPPT 100500Z 35002KT 8000 FEW003 BKN006 15/15 Q1018","updated":"2025-11-10T05:18:55Z"}
