{"icao":"LPLA","metar":"LPLA 091500Z 19015G27KT 160V220 9999 FEW008 SCT015 BKN024 17/14 Q1026","updated":"2026-01-09T15:22:37Z"}
