{"icao":"LPMT","metar":"LPMT 181200Z 32006KT 290V350 CAVOK 23/13 Q1016","updated":"2026-04-18T14:03:27Z"}
