{"icao":"LPOV","metar":"LPOV 031200Z 27006KT 220V330 5000 1500N BR SCT009 17/14 Q1024","updated":"2025-10-03T12:35:10Z"}
