{"icao":"LPPS","metar":"LPPS 150900Z 03009KT 350V070 9000 -DZ SCT011 BKN030 14/12 Q1025","updated":"2026-04-15T09:17:48Z"}
