{"icao":"KORD","metar":"KORD 210251Z 27014G26KT 10SM CLR 00/M12 A3003 RMK AO2 PK WND 28035/0220 PRESRR SLP177 T00001117 53045","updated":"2025-12-21T03:28:15Z"}
