{"icao":"LPFL","metar":"LPFL 171600Z 34011KT 9999 FEW009 20/16 Q1024","updated":"2025-11-17T16:25:45Z"}
