{"icao":"LPAZ","metar":"LPAZ 230830Z 18016KT 9999 FEW018 BKN044 16/13 Q1017","updated":"2026-02-23T08:50:05Z"}
