{"icao":"LPMT","metar":"LPMT 142200Z 20009KT 160V230 9999 FEW028CB BKN040 17/13 Q1006","updated":"2025-11-14T22:17:23Z"}
