{"icao":"KJFK","metar":"KJFK 272251Z 13006KT 10SM FEW250 02/M02 A3015 RMK AO2 SLP211 T00171017","updated":"2026-02-27T23:23:16Z"}
