{"icao":"LPHR","metar":"LPHR 031400Z 24014KT 8000 -RADZ SCT008 BKN012 18/16 Q1027","updated":"2025-12-03T14:20:25Z"}
