{"icao":"LPPR","metar":"LPPR 150630Z 24003KT 170V300 9999 FEW007 BKN030 11/10 Q1028","updated":"2026-02-15T06:50:47Z"}
