{"icao":"LPST","metar":"LPST 290800Z 26020KT 2000 -RADZ BR BKN003 BKN012 15/15 Q1009","updated":"2026-01-29T08:37:26Z"}
