{"icao":"LPPD","metar":"LPPD 192300Z 02019G32KT 360V060 9999 -SHRA BKN015 FEW020CB 12/09 Q1001","updated":"2026-03-19T23:28:20Z"}
