{"icao":"LPBJ","metar":"LPBJ 152000Z 24004KT CAVOK 22/11 Q1016","updated":"2025-10-15T20:20:14Z"}
