{"icao":"KORD","metar":"KORD 260351Z 13008KT 10SM BKN022 OVC040 06/M02 A2995 RMK AO2 SLP147 T00561017 $","updated":"2025-12-26T04:33:48Z"}
