{"icao":"LPFR","metar":"LPFR 030400Z 34002KT CAVOK 19/14 Q1020","updated":"2025-10-03T04:20:12Z"}
