{"icao":"LPPD","metar":"LPPD 112300Z 23008KT 8000 FEW006 15/15 Q1019","updated":"2026-02-11T23:30:59Z"}
