{"icao":"LPMR","metar":"LPMR 231000Z 02004KT 350V070 9999 SCT020 19/15 Q1021","updated":"2025-10-23T10:19:28Z"}
