{"icao":"KJFK","metar":"KJFK 081609Z 20006KT 2SM R04R/4500VP6000FT BR SCT002 BKN007 BKN130 BKN250 11/10 A2981 RMK AO2 T01060100","updated":"2026-03-08T16:26:58Z"}
