{"icao":"LPPT","metar":"LPPT 290830Z 25017KT 4500 -RADZ BR SCT004 BKN007 16/16 Q1009","updated":"2026-01-29T08:37:23Z"}
