{"icao":"KLAX","metar":"KLAX 120253Z 26010KT 10SM OVC007 17/15 A3004 RMK AO2 SLP173 T01670150 53007 $","updated":"2025-11-12T03:10:54Z"}
