{"icao":"KORD","metar":"KORD 050651Z 20009KT 10SM FEW100 FEW250 01/M05 A2984 RMK AO2 SLP111 T00111050 $","updated":"2026-01-05T07:27:34Z"}
