{"icao":"KJFK","metar":"KJFK 211451Z 11008G17KT 10SM FEW035 BKN250 20/10 A3034 RMK AO2 SLP274 T02000100 50002 $","updated":"2025-09-21T15:15:04Z"}
