{"icao":"LPMA","metar":"LPMA 120100Z 22026G36KT 9000 SHRA BKN015 FEW018CB 20/17 Q1005","updated":"2025-11-12T01:24:17Z"}
