{"icao":"LPHR","metar":"LPHR 221900Z 29017KT 9999 FEW020 14/05 Q1020","updated":"2026-01-22T19:23:52Z"}
