{"icao":"LPOV","metar":"LPOV 192300Z 07003KT 020V110 9000 -RA FEW016 BKN028 14/13 Q1009","updated":"2026-03-19T23:28:17Z"}
