{"icao":"KLAX","metar":"KLAX 092153Z 26013KT 10SM FEW025 22/15 A2988 RMK AO2 SLP117 T02220150","updated":"2026-06-09T22:23:20Z"}
