{"icao":"LPPS","metar":"LPPS 091030Z 02023KT 9999 SCT014 17/12 Q1019","updated":"2026-04-09T10:57:34Z"}
