{"icao":"KORD","metar":"KORD 030451Z 17006KT 10SM CLR 21/13 A3020 RMK AO2 SLP222 T02110128","updated":"2025-10-03T05:16:55Z"}
