{"icao":"LPPR","metar":"LPPR 151500Z 19004KT 150V250 2600 -RADZ BR SCT004 BKN015 FEW017TCU 11/11 Q1012 RERA","updated":"2026-01-15T15:24:10Z"}
