{"icao":"LPPT","metar":"LPPT 281100Z 03006KT 310V110 9999 FEW024 15/10 Q1024","updated":"2025-11-28T11:16:25Z"}
