{"icao":"KORD","metar":"KORD 221051Z 31012G19KT 10SM -SN SCT027 OVC040 M05/M11 A3017 RMK AO2 SLP226 P0000 T10501111 $","updated":"2026-02-22T11:20:23Z"}
