{"icao":"LPMA","metar":"LPMA 152100Z 25004KT 210V270 9999 SCT015 22/17 Q1016","updated":"2025-10-15T21:15:45Z"}
