{"icao":"LPCS","metar":"LPCS 161900Z 31009G20KT 280V340 9999 FEW012 FEW025TCU 10/09 Q1015","updated":"2026-01-17T04:31:09Z"}
