{"icao":"LPPS","metar":"LPPS 311600Z 22015KT 9999 FEW015 24/14 Q1014","updated":"2025-10-31T16:22:39Z"}
