{"icao":"LPPR","metar":"LPPR 022300Z 20007KT 180V250 9999 -SHRA FEW020 FEW025CB BKN040 10/07 Q0998","updated":"2026-02-02T23:27:05Z"}
