{"icao":"LPPT","metar":"LPPT 141500Z 32015KT 9999 FEW034 14/06 Q1027","updated":"2026-02-14T15:23:57Z"}
