{"icao":"LPMA","metar":"LPMA 312030Z 36013KT 310V020 9999 FEW015 20/15 Q1022","updated":"2026-05-31T20:58:30Z"}
