{"icao":"KJFK","metar":"KJFK 101051Z 34008KT 10SM BKN200 BKN250 08/03 A3018 RMK AO2 SLP218 T00780028 $","updated":"2026-01-10T11:16:14Z"}
