{"icao":"LPMR","metar":"LPMR 251400Z 28009KT 240V310 9999 FEW013 BKN018 BKN045 14/11 Q1014","updated":"2026-01-25T14:18:01Z"}
