{"icao":"KLAX","metar":"KLAX 091853Z 10006KT 10SM FEW030 FEW180 SCT250 21/11 A2993 RMK AO2 SLP133 T02060111 $","updated":"2026-03-09T19:39:36Z"}
