{"icao":"KJFK","metar":"KJFK 260351Z 20010KT 10SM FEW080 SCT100 02/M01 A2971 RMK AO2 SLP061 T00221006 $","updated":"2026-02-26T04:22:54Z"}
