{"icao":"KJFK","metar":"KJFK 231451Z 28010KT 10SM BKN200 BKN250 01/M13 A3020 RMK AO2 SLP224 T00111128 50009 $","updated":"2026-01-23T15:24:48Z"}
