{"icao":"KORD","metar":"KORD 071551Z 22017G27KT 10SM BKN021 BKN034 BKN120 OVC200 17/13 A2966 RMK AO2 PK WND 21033/1457 SLP040 T01670133","updated":"2026-03-07T16:26:41Z"}
