{"icao":"KJFK","metar":"KJFK 091951Z 15010G19KT 10SM FEW020 BKN250 08/02 A3055 RMK AO2 SLP345 T00830017","updated":"2026-04-09T20:50:12Z"}
