{"icao":"LPAZ","metar":"LPAZ 071300Z 28006KT 240V300 9999 FEW011 24/20 Q1024","updated":"2025-10-07T13:28:01Z"}
