{"icao":"LPMR","metar":"LPMR 271000Z 15008KT 120V180 CAVOK 18/10 Q1021","updated":"2025-10-27T10:21:06Z"}
