{"icao":"LPCS","metar":"LPCS 081500Z 32011KT 290V350 9999 SCT016 SCT030 19/14 Q1021","updated":"2025-10-08T15:18:59Z"}
