{"icao":"LPHR","metar":"LPHR 142000Z 20006KT 170V250 9999 FEW020 17/13 Q1031","updated":"2026-03-14T20:27:11Z"}
