{"icao":"LPFR","metar":"LPFR 110400Z 02007KT CAVOK 19/15 Q1019","updated":"2025-10-11T04:19:39Z"}
