{"icao":"LPOV","metar":"LPOV 171700Z 33004KT CAVOK 18/08 Q1005","updated":"2026-03-17T17:56:46Z"}
