{"icao":"LPBJ","metar":"LPBJ 112000Z 15007KT CAVOK 15/06 Q1010","updated":"2025-11-11T20:20:01Z"}
