{"icao":"LPFR","metar":"LPFR 070500Z 05002KT CAVOK 13/11 Q1018","updated":"2025-11-07T05:17:57Z"}
