{"icao":"LPHR","metar":"LPHR 272100Z 31005KT 270V330 9999 SCT018 SCT040 15/12 Q1034","updated":"2026-02-28T05:32:09Z"}
