{"icao":"LPBJ","metar":"LPBJ 151100Z 14003KT 090V210 CAVOK 25/12 Q1018","updated":"2025-10-15T11:15:08Z"}
