{"icao":"LPHR","metar":"LPHR 161200Z 13007KT 9999 FEW006 SCT011 BKN015 16/16 Q1023","updated":"2025-11-16T12:34:05Z"}
