{"icao":"LPBJ","metar":"LPBJ 100500Z 29003KT CAVOK 14/13 Q1019","updated":"2025-10-10T05:17:20Z"}
