{"icao":"KLAX","metar":"KLAX 071053Z 00000KT 10SM FEW011 15/13 A2999 RMK AO2 SLP155 T01500133 $","updated":"2026-04-07T11:53:00Z"}
