{"icao":"LPCS","metar":"LPCS 191230Z 15012KT 120V180 9999 -RA FEW016 SCT045 15/10 Q1006","updated":"2026-03-19T13:02:27Z"}
