{"icao":"KORD","metar":"KORD 070651Z 35013KT 10SM CLR M08/M18 A3028 RMK AO2 SLP261 T10831178 $","updated":"2026-02-07T07:31:02Z"}
