{"icao":"LPAZ","metar":"LPAZ 280800Z 07006KT 9999 FEW022 SCT037 17/13 Q1028","updated":"2025-09-28T08:19:45Z"}
