{"icao":"KJFK","metar":"KJFK 270851Z 00000KT 10SM SCT090 BKN110 BKN150 BKN250 22/19 A3003 RMK SLP170 60000 T02220194 55001 $ ","updated":"2026-06-27T09:27:07Z"}
