{"icao":"LPHR","metar":"LPHR 301230Z 27017KT 9999 FEW014 SCT030 19/14 Q1008","updated":"2025-10-30T12:38:02Z"}
