{"icao":"LPFL","metar":"LPFL 160800Z 29005KT 250V350 9999 FEW019 BKN035 14/08 Q1035","updated":"2026-01-16T08:28:44Z"}
