{"icao":"LPBJ","metar":"LPBJ 072200Z 31006KT 9000 OVC008 15/15 Q1019","updated":"2025-11-07T22:16:58Z"}
