{"icao":"LPMT","metar":"LPMT 291900Z 34011KT CAVOK 25/16 Q1019","updated":"2026-06-29T19:54:57Z"}
