{"icao":"LPMR","metar":"LPMR 191900Z 31004KT 7000 FEW012 SCT045 09/08 Q1021","updated":"2026-01-19T19:18:12Z"}
