{"icao":"LPOV","metar":"LPOV 161200Z 31005KT 280V340 9000 FEW004 18/15 Q1015","updated":"2025-10-16T12:38:39Z"}
