{"icao":"KLAX","metar":"KLAX 311553Z 21009KT 10SM SCT021 BKN030 OVC180 19/14 A3000 RMK AO2 SLP156 T01890144","updated":"2026-03-31T16:11:07Z"}
