{"icao":"LPBJ","metar":"LPBJ 262100Z 17011KT CAVOK 26/10 Q1021","updated":"2026-05-26T21:43:33Z"}
