{"icao":"LPMA","metar":"LPMA 111900Z 02018KT 6000 -RADZ BKN013 15/13 Q1023","updated":"2026-04-11T19:33:51Z"}
