{"icao":"LPAZ","metar":"LPAZ 271930Z 04013KT 9999 FEW016 BKN022 14/10 Q1028","updated":"2026-03-27T19:40:22Z"}
