{"icao":"LPMR","metar":"LPMR 121000Z 17020G32KT 9999 FEW008 SCT020 19/14 Q1003","updated":"2025-11-12T11:16:33Z"}
