{"icao":"KORD","metar":"KORD 270251Z 32004KT 10SM OVC013 04/02 A2993 RMK AO2 SLP139 T00440017 51019 $","updated":"2025-12-27T03:22:05Z"}
