{"icao":"KORD","metar":"KORD 130751Z 22009KT 10SM BKN190 OVC250 02/M02 A2987 RMK AO2 SLP121 T00221022 $","updated":"2026-01-13T08:29:37Z"}
