{"icao":"KORD","metar":"KORD 111833Z 33011KT 10SM BKN012 BKN024 OVC055 01/M01 A2982 RMK AO2 SNE32 P0002 T00111006","updated":"2026-03-11T18:52:37Z"}
