{"icao":"LPPR","metar":"LPPR 140800Z 17019KT 9999 -RA FEW018TCU BKN040 14/12 Q0999","updated":"2025-11-14T08:24:32Z"}
