{"icao":"LPOV","metar":"LPOV 171800Z VRB02KT CAVOK 17/09 Q1006","updated":"2026-03-17T19:06:20Z"}
