{"icao":"KORD","metar":"KORD 080651Z 14007KT 10SM BKN120 OVC250 03/M06 A3032 RMK AO2 SLP272 T00281061 $","updated":"2026-04-08T07:18:08Z"}
