{"icao":"LPMT","metar":"LPMT 051200Z 34008KT 310V030 CAVOK 23/09 Q1018","updated":"2026-06-05T12:35:31Z"}
