{"icao":"LPFR","metar":"LPFR 261730Z 14003KT 110V170 CAVOK 18/12 Q1022","updated":"2026-02-26T17:56:27Z"}
