{"icao":"KLAX","metar":"KLAX 180553Z 23005KT 10SM CLR 19/14 A2993 RMK AO2 SLP132 T01940144 10228 20194 51011","updated":"2025-10-18T06:24:20Z"}
