{"icao":"KLAX","metar":"KLAX 192053Z 24009KT 10SM FEW230 SCT300 23/16 A3000 RMK AO2 SLP158 T02280161 56018 $","updated":"2025-10-19T21:14:51Z"}
