{"icao":"KJFK","metar":"KJFK 201451Z 03005KT 10SM BKN190 BKN250 06/M02 A3029 RMK AO2 SLP257 T00561022 53010 $","updated":"2025-11-20T15:20:13Z"}
