{"icao":"LPPD","metar":"LPPD 051300Z 21006KT 150V250 9999 VCSH FEW025 SCT040 17/12 Q1018","updated":"2025-11-05T13:31:09Z"}
