{"icao":"LPMA","metar":"LPMA 280800Z 35006KT 320V040 9999 VCSH SCT013 20/17 Q1025","updated":"2025-09-28T08:19:58Z"}
