{"icao":"LPMT","metar":"LPMT 060100Z 36011KT 340V040 9999 FEW028 09/05 Q1018","updated":"2026-01-06T01:40:48Z"}
