{"icao":"KORD","metar":"KORD 220851Z 31009G16KT 10SM -SN FEW025 SCT032 OVC039 M04/M09 A3015 RMK AO2 SNE35B43 SLP220 P0000 60000 T10441094 58002 $","updated":"2026-02-22T09:29:06Z"}
