{"icao":"LPLA","metar":"LPLA 061000Z 21005KT 170V270 9999 FEW012 SCT018 21/18 Q1011","updated":"2025-11-06T10:21:10Z"}
