{"icao":"LPCS","metar":"LPCS 270800Z 05004KT CAVOK 10/04 Q1024","updated":"2025-11-27T08:26:58Z"}
