{"icao":"LPBJ","metar":"LPBJ 010100Z 10007KT 0200 FG VV001 06/06 Q1016","updated":"2026-01-01T01:48:52Z"}
