{"icao":"LPMT","metar":"LPMT 262100Z 01006KT CAVOK 11/08 Q1025","updated":"2025-11-26T21:16:32Z"}
