{"icao":"KORD","metar":"KORD 280151Z 28012G17KT 10SM FEW012 SCT060 OVC150 17/15 A2958 RMK AO2 RAE37 TSE43 PRESRR SLP014 OCNL LTGIC DSNT E CB DSNT E MOV E P0007 T01670150 $","updated":"2026-04-28T02:47:25Z"}
