{"icao":"LPFR","metar":"LPFR 040630Z 25023KT 6000 -DZRA FEW003 BKN006 16/15 Q1000","updated":"2026-02-04T06:51:01Z"}
