{"icao":"LPPS","metar":"LPPS 272300Z 02010KT 9999 SCT014 SCT030 15/12 Q1021","updated":"2026-03-27T23:31:14Z"}
