{"icao":"KJFK","metar":"KJFK 100351Z 05007KT 10SM CLR 09/00 A3051 RMK AO2 SLP331 T00890000","updated":"2025-10-10T04:21:29Z"}
