{"icao":"LPMT","metar":"LPMT 061000Z 02010KT 9999 FEW020 09/04 Q1023","updated":"2026-01-06T10:22:18Z"}
