{"icao":"LPAZ","metar":"LPAZ 201930Z 03024G35KT 2600 -SHRA BR FEW009 SCT014 BKN049 14/12 Q1006","updated":"2026-03-20T19:36:11Z"}
