{"icao":"LPAZ","metar":"LPAZ 011500Z 29037KT 9000 FEW026 SCT048 15/08 Q1009","updated":"2026-02-01T15:23:36Z"}
