{"icao":"LPPD","metar":"LPPD 131700Z 08006KT 040V110 9999 FEW018 21/16 Q1014","updated":"2025-10-13T17:15:19Z"}
