{"icao":"LPPT","metar":"LPPT 110500Z 13004KT 0700 R20/0600D PRFG FEW000 BKN002 14/14 Q1014","updated":"2025-11-11T05:18:47Z"}
