{"icao":"LPMA","metar":"LPMA 242030Z 36009KT 300V030 9999 SCT016 17/11 Q1020","updated":"2026-04-24T20:45:59Z"}
