{"icao":"KORD","metar":"KORD 230051Z 23011KT 10SM FEW080 SCT250 08/02 A2997 RMK AO2 SLP152 T00830022","updated":"2025-11-23T01:43:17Z"}
