{"icao":"LPBJ","metar":"LPBJ 101400Z 06005KT 010V140 CAVOK 28/12 Q1019","updated":"2025-10-10T14:17:18Z"}
