{"icao":"LPBJ","metar":"LPBJ 302000Z 29011KT CAVOK 16/09 Q1018","updated":"2026-04-30T20:58:47Z"}
