{"icao":"KLAX","metar":"KLAX 291953Z 32003KT 10SM CLR 25/M02 A3018 RMK AO2 SLP218 T02501017","updated":"2026-01-29T20:28:32Z"}
