{"icao":"LPPS","metar":"LPPS 101700Z 02011KT 9999 FEW015 SCT030 22/14 Q1021","updated":"2025-10-10T17:15:59Z"}
