{"icao":"LPOV","metar":"LPOV 100800Z VRB01KT CAVOK 17/11 Q1022","updated":"2025-10-10T08:23:02Z"}
