{"icao":"KLAX","metar":"KLAX 060153Z 25006KT 10SM FEW020 FEW060 SCT075 17/09 A2996 RMK AO2 SLP144 T01720094","updated":"2026-05-06T02:43:19Z"}
