{"icao":"LPMA","metar":"LPMA 151500Z 03009KT 350V050 9999 SCT013 BKN028 19/13 Q1020","updated":"2026-03-15T15:28:17Z"}
