{"icao":"LPAZ","metar":"LPAZ 312000Z 23013KT 7000 FEW004 BKN007 17/17 Q1018","updated":"2026-01-31T20:24:04Z"}
