{"icao":"LPPS","metar":"LPPS 022300Z 05006KT 350V100 9999 FEW012 15/12 Q1024","updated":"2026-04-02T23:34:17Z"}
