{"icao":"LPPR","metar":"LPPR 232200Z 12004KT 030V150 9999 SCT030 BKN040 14/12 Q1019","updated":"2025-10-23T22:16:10Z"}
