{"icao":"LPFL","metar":"LPFL 141600Z VRB06KT 9999 FEW025 SCT040 20/11 Q1001","updated":"2025-10-14T16:22:31Z"}
