{"icao":"LPPR","metar":"LPPR 311300Z 17013KT 9999 -RADZ BKN006 BKN034 18/17 Q1008 RERA","updated":"2025-10-31T13:28:27Z"}
