{"icao":"LPMA","metar":"LPMA 120830Z 29004KT 250V330 9999 SCT015 BKN030 16/10 Q1026","updated":"2026-02-12T08:44:28Z"}
