{"icao":"LPBJ","metar":"LPBJ 012008Z 29007KT 6000 RA SCT005 BKN014TCU BKN035 17/16 Q1022","updated":"2025-11-01T20:17:14Z"}
