{"icao":"LPPR","metar":"LPPR 300500Z 10005KT 070V130 CAVOK 17/11 Q1017","updated":"2025-09-30T05:17:30Z"}
