{"icao":"LPST","metar":"LPST 221400Z 35019KT CAVOK 20/08 Q1019","updated":"2025-09-22T14:18:33Z"}
