{"icao":"LPLA","metar":"LPLA 201800Z 09007KT 050V120 9999 FEW025 20/11 Q1029","updated":"2025-09-20T18:21:39Z"}
