{"icao":"LPAR","metar":"LPAR 301600Z VRB01KT 8000 FEW018 11/11 Q1020","updated":"2025-12-30T16:26:00Z"}
