{"icao":"LPAZ","metar":"LPAZ 211400Z 08006KT 030V110 9999 VCSH SCT015 BKN023 18/13 Q1031","updated":"2025-11-21T14:17:57Z"}
