{"icao":"LPPS","metar":"LPPS 271000Z 03005KT 360V070 9999 FEW015 18/11 Q1023","updated":"2025-11-27T10:21:38Z"}
