{"icao":"KJFK","metar":"KJFK 141951Z 19020G32KT 10SM SCT060 BKN200 BKN250 27/17 A2978 RMK AO2 PK WND 19032/1946 SLP084 T02720172 $","updated":"2026-06-14T20:16:23Z"}
