{"icao":"LPHR","metar":"LPHR 181430Z 15006KT 9999 FEW028 17/11 Q1025","updated":"2026-02-18T14:41:52Z"}
