{"icao":"LPBJ","metar":"LPBJ 110800Z 22014KT 5000 -DZ BR OVC004 14/14 Q1018","updated":"2026-02-11T08:59:34Z"}
