{"icao":"KORD","metar":"KORD 260251Z 10005KT 10SM BKN065 BKN080 OVC110 11/06 A3034 RMK AO2 SLP277 T01110056 50001 $","updated":"2025-10-26T03:08:58Z"}
