{"icao":"LPPD","metar":"LPPD 140400Z 15004KT 070V190 9999 FEW018 19/16 Q1012","updated":"2025-10-14T04:21:10Z"}
