{"icao":"LPMA","metar":"LPMA 171800Z 35006KT 300V050 9999 SCT015 19/11 Q1023","updated":"2025-11-17T18:27:36Z"}
