{"icao":"KJFK","metar":"KJFK 151351Z 04006KT 10SM FEW024 SCT250 23/18 A3023 RMK AO2 SLP237 T02330178 $","updated":"2025-09-15T14:18:17Z"}
