{"icao":"KORD","metar":"KORD 180651Z 00000KT 10SM FEW250 18/16 A3004 RMK AO2 SLP167 T01830156 $","updated":"2025-09-18T07:16:44Z"}
