{"icao":"LPPT","metar":"LPPT 271530Z 06010G24KT CAVOK 21/06 Q1016","updated":"2026-03-27T15:52:04Z"}
