{"icao":"LPAZ","metar":"LPAZ 151200Z 31014KT 9999 SCT037 18/08 Q1017","updated":"2025-11-15T12:34:15Z"}
