{"icao":"LPOV","metar":"LPOV 220800Z 09003KT 9999 FEW004 SCT030 08/08 Q1007","updated":"2026-01-22T08:30:41Z"}
