{"icao":"KLAX","metar":"KLAX 221453Z 00000KT 2 1/2SM BR OVC008 16/14 A2991 RMK AO2 SLP128 VIS SW-W 1 3/4 T01610144 52013","updated":"2026-03-22T15:24:56Z"}
