{"icao":"LPPT","metar":"LPPT 051530Z 32011KT CAVOK 21/08 Q1017","updated":"2026-06-05T15:51:48Z"}
