{"icao":"LPCS","metar":"LPCS 011500Z 31009KT 280V350 CAVOK 28/13 Q1020","updated":"2025-10-01T15:17:28Z"}
