{"icao":"LPPD","metar":"LPPD 301300Z 18010KT 9999 SCT008 SCT012 22/21 Q1022","updated":"2025-09-30T13:27:58Z"}
