{"icao":"LPBJ","metar":"LPBJ 220500Z 28008KT 9999 FEW040 09/07 Q1009","updated":"2026-01-22T05:27:21Z"}
