{"icao":"KORD","metar":"KORD 161951Z 21014G20KT 10SM FEW250 04/M03 A2978 RMK AO2 SLP093 T00391033","updated":"2025-12-16T20:23:25Z"}
