{"icao":"LPMA","metar":"LPMA 080600Z 01007KT 340V050 9999 BKN014 20/16 Q1021","updated":"2025-11-08T06:25:32Z"}
