{"icao":"LPMT","metar":"LPMT 230200Z VRB01KT CAVOK 10/10 Q1012","updated":"2026-03-23T02:07:52Z"}
