{"icao":"KLAX","metar":"KLAX 042253Z 27010KT 7SM CLR 18/13 A3007 RMK AO2 SLP181 T01830133 $","updated":"2025-11-04T23:17:26Z"}
