{"icao":"LPPS","metar":"LPPS 070400Z 02003KT 9999 BKN012 20/19 Q1023","updated":"2025-10-07T04:21:48Z"}
