{"icao":"LPMT","metar":"LPMT 021700Z 25004KT 230V290 9999 FEW022 FEW028TCU 13/09 Q1017","updated":"2025-12-02T17:21:00Z"}
