{"icao":"LPPS","metar":"LPPS 090500Z 06005KT 030V090 9999 SCT015 21/17 Q1024","updated":"2025-10-09T05:17:37Z"}
