{"icao":"LPPR","metar":"LPPR 171630Z 32011KT CAVOK 15/11 Q1019","updated":"2026-04-17T17:01:42Z"}
