{"icao":"LPST","metar":"LPST 231400Z 28010KT 230V320 CAVOK 24/06 Q1018","updated":"2025-09-23T14:17:35Z"}
