{"icao":"LPPR","metar":"LPPR 171100Z 25005KT 200V300 CAVOK 19/15 Q1022","updated":"2025-09-17T11:13:50Z"}
