{"icao":"LPPD","metar":"LPPD 080900Z 34013KT 300V010 9999 SCT015 14/11 Q1011","updated":"2026-05-08T09:18:40Z"}
