{"icao":"KORD","metar":"KORD 190651Z 27013G26KT 10SM -SN SCT024 BKN029 M09/M14 A2954 RMK AO2 PK WND 26031/0605 SLP010 P0000 T10891144","updated":"2025-12-19T07:20:39Z"}
