{"icao":"KJFK","metar":"KJFK 050851Z 25009KT 10SM BKN250 07/02 A3016 RMK AO2 SLP212 T00720017 58005 $","updated":"2025-11-05T09:20:55Z"}
