{"icao":"LPBJ","metar":"LPBJ 261700Z 04013KT CAVOK 22/07 Q1012","updated":"2026-03-26T18:04:14Z"}
