{"icao":"LPPT","metar":"LPPT 211730Z 32005KT 270V020 CAVOK 29/15 Q1019","updated":"2026-05-21T17:56:38Z"}
