{"icao":"LPPT","metar":"LPPT 100300Z 22005KT 6000 -DZ FEW005 BKN016 16/15 Q1019","updated":"2025-11-10T03:17:44Z"}
