{"icao":"LPMA","metar":"LPMA 212000Z 23005KT 9999 FEW015 23/19 Q1021","updated":"2026-06-21T20:23:56Z"}
