{"icao":"LPPR","metar":"LPPR 270930Z 14007KT 3500 R17/1100N -RADZ BR BKN004 BKN010 11/11 Q1024","updated":"2026-02-27T09:39:11Z"}
