{"icao":"LPMA","metar":"LPMA 192100Z 35004KT 320V030 9999 FEW015 15/09 Q1027","updated":"2026-01-19T21:19:04Z"}
