{"icao":"LPMR","metar":"LPMR 290400Z 31002KT CAVOK 13/02 Q1016","updated":"2025-09-29T04:21:43Z"}
