{"icao":"KLAX","metar":"KLAX 262253Z 27016KT 10SM FEW033 SCT044 19/12 A2981 RMK AO2 SLP094 T01890117 $","updated":"2026-05-26T23:09:04Z"}
