{"icao":"KORD","metar":"KORD 181751Z 24017G29KT 10SM CLR 15/02 A2951 RMK AO2 PK WND 25035/1721 SLP993 T01500022 10150 20117 53010","updated":"2026-02-18T18:53:29Z"}
