{"icao":"LPBJ","metar":"LPBJ 030300Z 29006KT CAVOK 16/12 Q1021","updated":"2025-10-03T03:27:38Z"}
