{"icao":"KORD","metar":"KORD 081051Z 00000KT 6SM BR SCT120 05/03 A2985 RMK AO2 SLP109 T00500033","updated":"2026-05-08T11:12:47Z"}
