{"icao":"LPPR","metar":"LPPR 041400Z 04005KT CAVOK 15/06 Q1004","updated":"2026-01-04T14:17:26Z"}
