{"icao":"LPHR","metar":"LPHR 210700Z 26015KT 7000 SCT005 BKN008 22/21 Q1012","updated":"2025-10-21T07:18:32Z"}
