{"icao":"LPPT","metar":"LPPT 301700Z 25008KT 220V280 9999 SCT045 19/09 Q1017","updated":"2026-04-30T17:19:08Z"}
