{"icao":"LPCS","metar":"LPCS 222030Z 01013KT CAVOK 23/15 Q1015","updated":"2026-06-22T20:45:38Z"}
