{"icao":"LPCS","metar":"LPCS 271500Z 26011KT 240V300 9999 FEW015 24/15 Q1020","updated":"2026-06-27T15:13:42Z"}
