{"icao":"LPHR","metar":"LPHR 211100Z 24013KT 9000 -RA SCT012 BKN030 BKN070 15/12 Q1013","updated":"2026-05-21T11:21:44Z"}
