{"icao":"KORD","metar":"KORD 191951Z 06010KT 10SM BKN250 13/02 A3005 RMK AO2 SLP181 T01330017 $","updated":"2026-03-19T20:36:20Z"}
