{"icao":"LPPT","metar":"LPPT 231400Z 31006KT 280V350 9000 -SHRA SCT012 FEW020CB BKN032 14/13 Q1010 RESHRA WS R02","updated":"2025-12-23T14:19:57Z"}
