{"icao":"KLAX","metar":"KLAX 261725Z 26009KT 10SM FEW009 SCT026 21/14 A2996 RMK AO2 SCT V BKN T02060139","updated":"2026-06-26T17:45:46Z"}
