{"icao":"LPFR","metar":"LPFR 030300Z 01002KT CAVOK 20/15 Q1020","updated":"2025-10-03T03:27:36Z"}
