{"icao":"LPMT","metar":"LPMT 122100Z 33010KT 300V360 9999 FEW045 12/07 Q1022","updated":"2026-04-12T23:33:28Z"}
