{"icao":"LPPS","metar":"LPPS 201030Z 20010KT 160V230 9999 FEW010 19/16 Q1004","updated":"2026-04-20T10:47:00Z"}
