{"icao":"LPFL","metar":"LPFL 261530Z 34018G30KT 300V010 9999 FEW016 18/11 Q1030","updated":"2026-02-26T15:52:30Z"}
