{"icao":"KORD","metar":"KORD 191951Z 25012G23KT 10SM BKN036 BKN050 BKN250 26/17 A2993 RMK AO2 PK WND 24029/1911 SLP129 T02560172","updated":"2026-05-19T20:47:59Z"}
