{"icao":"LPPD","metar":"LPPD 202200Z 05007KT 010V070 9999 FEW025 BKN045 16/10 Q1031","updated":"2025-11-20T22:17:15Z"}
