{"icao":"LPMA","metar":"LPMA 071230Z 19007KT 9999 FEW016 23/15 Q1021","updated":"2025-11-07T12:37:04Z"}
