{"icao":"KJFK","metar":"KJFK 261251Z 04014KT 10SM FEW014 FEW018 OVC036 06/04 A3010 RMK DZB14E50 SLP194 P0000 T00610039 $ ","updated":"2026-04-26T13:04:35Z"}
