{"icao":"LPPT","metar":"LPPT 072230Z 13006KT 090V160 9999 FEW004 FEW020CB SCT026 10/10 Q1014","updated":"2026-04-07T22:36:29Z"}
