{"icao":"LPHR","metar":"LPHR 091700Z 28012KT 250V310 9999 FEW023 20/14 Q1024","updated":"2025-11-09T17:14:28Z"}
