{"icao":"LPFR","metar":"LPFR 022200Z 16019G30KT 9000 -RA SCT018 BKN040 16/12 Q1001","updated":"2026-01-02T22:18:54Z"}
