{"icao":"LPFL","metar":"LPFL 151700Z 17017KT 150V220 9999 FEW017 SCT029 18/14 Q1022","updated":"2026-02-15T17:24:23Z"}
