{"icao":"LPFL","metar":"LPFL 240830Z 32023G40KT 290V350 9999 FEW020 14/07 Q1013","updated":"2026-02-24T08:46:20Z"}
