{"icao":"LPMR","metar":"LPMR 050100Z 35010KT 9999 OVC007 16/15 Q1023","updated":"2025-10-05T01:24:51Z"}
