{"icao":"LPST","metar":"LPST 281600Z 02007KT 1500 RA BR SCT007 BKN015 FEW017TCU 16/15 Q1010","updated":"2025-10-28T16:24:24Z"}
