{"icao":"LPMR","metar":"LPMR 231700Z 32012KT 280V350 2500 -TSRA BR SCT020 SCT022CB OVC035 07/04 Q0999","updated":"2026-01-23T17:24:40Z"}
