{"icao":"LPPS","metar":"LPPS 140400Z 01011KT 350V050 9999 SCT015 BKN030 15/08 Q1029","updated":"2026-02-14T04:11:50Z"}
