{"icao":"KJFK","metar":"KJFK 230651Z 29012G18KT 10SM BKN250 03/M16 A3011 RMK AO2 SLP195 T00281156 $","updated":"2026-01-23T07:24:42Z"}
