{"icao":"LPOV","metar":"LPOV 041000Z 01003KT CAVOK 16/10 Q1015","updated":"2026-03-04T10:35:08Z"}
