{"icao":"LPCS","metar":"LPCS 091730Z 28008KT 240V310 4000 BR SCT002 BKN003 15/15 Q1014","updated":"2026-02-09T17:52:44Z"}
