{"icao":"LPFL","metar":"LPFL 230730Z 33007G19KT 280V020 9999 VCSH FEW014 BKN025 13/09 Q1003","updated":"2026-04-23T07:49:54Z"}
