{"icao":"LPBJ","metar":"LPBJ 011400Z VRB03KT CAVOK 30/12 Q1019","updated":"2025-10-01T14:17:56Z"}
