{"icao":"LPPD","metar":"LPPD 221300Z 09007KT 050V120 9999 FEW018 BKN030 18/14 Q1032","updated":"2025-11-22T13:22:19Z"}
