{"icao":"LPPR","metar":"LPPR 110800Z 10007KT 060V130 CAVOK 20/09 Q1022","updated":"2025-10-11T08:20:05Z"}
