{"icao":"LPPR","metar":"LPPR 171400Z 21004KT 150V270 9999 SCT012 BKN045 11/08 Q1010","updated":"2026-01-17T14:17:50Z"}
