{"icao":"LPHR","metar":"LPHR 191100Z 04011KT 300V080 9999 FEW016 18/12 Q1027","updated":"2025-11-19T11:16:28Z"}
