{"icao":"LPMR","metar":"LPMR 220700Z 20003KT CAVOK 20/14 Q1019","updated":"2026-05-22T07:42:50Z"}
