{"icao":"LPPR","metar":"LPPR 300900Z 15007KT 9999 SCT025 BKN030 15/12 Q1012","updated":"2025-10-30T09:19:48Z"}
