{"icao":"LPPT","metar":"LPPT 262200Z 30009KT CAVOK 15/10 Q1024","updated":"2026-02-26T22:32:01Z"}
