{"icao":"LPPT","metar":"LPPT 011230Z 33013KT 280V350 9999 FEW022 25/15 Q1019","updated":"2026-06-01T12:35:03Z"}
