{"icao":"LPHR","metar":"LPHR 281500Z 21006KT 150V290 9999 FEW025 17/08 Q1027","updated":"2025-11-28T15:19:09Z"}
