{"icao":"LPHR","metar":"LPHR 312100Z 02007KT 350V060 9999 FEW014 15/10 Q1003","updated":"2025-12-31T23:19:02Z"}
