{"icao":"LPMT","metar":"LPMT 311000Z 19014KT 160V220 9999 FEW008 SCT015 BKN045 21/17 Q1013","updated":"2025-10-31T10:19:22Z"}
