{"icao":"KORD","metar":"KORD 261951Z 25011G20KT 10SM CLR M14/M22 A3023 RMK AO2 SLP253 T11391222","updated":"2026-01-26T20:27:10Z"}
