{"icao":"LPPS","metar":"LPPS 241230Z 07008KT 030V110 9999 FEW015 20/13 Q1026","updated":"2025-11-24T12:39:53Z"}
