{"icao":"LPMT","metar":"LPMT 222300Z 30012G22KT 9999 SCT012 BKN018 14/10 Q1004","updated":"2026-01-22T23:19:47Z"}
