{"icao":"LPFL","metar":"LPFL 131000Z 02005KT 350V070 9999 FEW015 BKN034 15/12 Q1032","updated":"2026-05-13T10:25:48Z"}
