{"icao":"LPHR","metar":"LPHR 260700Z 07011KT 020V100 9999 FEW016 SCT035 18/11 Q1024","updated":"2025-10-26T07:15:30Z"}
