{"icao":"KLAX","metar":"KLAX 061353Z 10003KT 10SM FEW012 13/11 A3013 RMK AO2 SLP202 T01330106 $","updated":"2025-11-06T14:19:02Z"}
