{"icao":"KORD","metar":"KORD 100251Z 17003KT 10SM CLR 13/07 A3033 RMK AO2 SLP270 T01280072 55005","updated":"2025-10-10T02:59:35Z"}
