{"icao":"KLAX","metar":"KLAX 142253Z 11010KT 4SM -RA BR FEW011 OVC022 18/16 A2993 RMK AO2 RAB50 SLP133 VIS SW-W 2 1/2 P0000 T01830161 $","updated":"2025-11-14T23:16:58Z"}
