{"icao":"LPAZ","metar":"LPAZ 110230Z 36007KT 9999 FEW005 BKN045 19/18 Q1021","updated":"2025-10-11T02:52:18Z"}
