{"icao":"LPPR","metar":"LPPR 010400Z 18011KT 9999 -RA FEW008 BKN030 15/15 Q1012","updated":"2025-11-01T04:19:00Z"}
