{"icao":"KORD","metar":"KORD 081551Z 15011KT 10SM FEW012 FEW070 M04/M09 A3034 RMK AO2 SLP285 T10391089 $","updated":"2026-02-08T16:29:43Z"}
