{"icao":"LPAZ","metar":"LPAZ 312200Z 22015KT 6000 FEW002 BKN007 17/17 Q1018","updated":"2026-01-31T22:21:16Z"}
