{"icao":"KJFK","metar":"KJFK 040551Z 26007KT 10SM BKN050 BKN250 M02/M08 A3018 RMK AO2 SLP218 4/005 6//// T10221078 10006 21039 58001 PNO $","updated":"2026-02-04T06:51:05Z"}
