{"icao":"LPPR","metar":"LPPR 030600Z 00000KT 4200 2000W BR BCFG SCT001 OVC004 14/14 Q1022","updated":"2025-10-03T06:25:47Z"}
