{"icao":"LPMT","metar":"LPMT 270500Z 02013KT CAVOK 12/04 Q1015","updated":"2026-03-27T05:05:26Z"}
