{"icao":"KLAX","metar":"KLAX 020953Z 24005KT 7SM OVC007 15/13 A2993 RMK AO2 SLP132 T01500133","updated":"2026-05-02T10:50:31Z"}
