{"icao":"KJFK","metar":"KJFK 182051Z 03009KT 3SM -SN SCT009 BKN023 OVC032 01/00 A2987 RMK AO2 SFC VIS 7 SLP113 P0000 60001 T00110000 56033 $","updated":"2026-01-18T21:18:08Z"}
