{"icao":"LPPT","metar":"LPPT 181700Z 24009KT 220V290 CAVOK 25/13 Q1015","updated":"2025-10-18T17:13:10Z"}
