{"icao":"LPPD","metar":"LPPD 231900Z 13004KT 100V200 9999 FEW005 SCT018 BKN045 19/17 Q1024","updated":"2026-05-23T19:23:18Z"}
