{"icao":"KLAX","metar":"KLAX 251653Z 02003KT 10SM FEW270 BKN330 13/04 A3016 RMK AO2 SLP213 T01330039 $","updated":"2026-01-25T17:17:21Z"}
