{"icao":"LPHR","metar":"LPHR 232000Z 30009KT 9999 FEW027 14/08 Q1027","updated":"2026-01-23T20:24:55Z"}
