{"icao":"LPST","metar":"LPST 291600Z 28006KT 9999 FEW012 14/08 Q1019","updated":"2025-12-29T16:24:44Z"}
