{"icao":"KORD","metar":"KORD 091651Z 13006KT 10SM FEW040 16/04 A3048 RMK AO2 SLP320 T01610044","updated":"2025-10-09T17:16:05Z"}
