{"icao":"LPPR","metar":"LPPR 221000Z 11007KT 080V140 CAVOK 08/02 Q1031","updated":"2025-11-22T10:17:43Z"}
