{"icao":"KLAX","metar":"KLAX 291317Z 05003KT 1/4SM R25L/1000VP6000FT FG SCT001 12/12 A3000 RMK AO2 T01220117 $","updated":"2025-11-29T13:25:16Z"}
