{"icao":"KORD","metar":"KORD 201451Z 28011G18KT 10SM FEW045 FEW250 21/11 A2996 RMK AO2 SLP143 T02060106 51002 $","updated":"2026-06-20T15:49:26Z"}
