{"icao":"LPPT","metar":"LPPT 131230Z 27012KT 240V300 9999 FEW014 FEW025TCU 11/09 Q1008 RESHRA","updated":"2026-02-13T12:56:56Z"}
