{"icao":"LPOV","metar":"LPOV 161300Z 24003KT 190V280 8000 -SHRA FEW007 SCT012 FEW018CB BKN022 09/08 Q1012 RESHRA","updated":"2026-01-16T13:36:51Z"}
