{"icao":"LPPS","metar":"LPPS 260700Z 22006KT 190V250 9999 FEW015 SCT030 17/10 Q1022","updated":"2026-01-26T07:27:22Z"}
