{"icao":"LPLA","metar":"LPLA 091300Z 16012KT 130V190 9999 FEW010 SCT016 BKN024 17/15 Q1028","updated":"2026-01-09T13:36:41Z"}
