{"icao":"LPPT","metar":"LPPT 062300Z 07004KT 010V100 CAVOK 19/15 Q1021","updated":"2025-10-06T23:15:39Z"}
