{"icao":"LPOV","metar":"LPOV 061200Z 01006KT 340V060 CAVOK 10/01 Q1026","updated":"2026-01-06T12:42:10Z"}
