{"icao":"LPBJ","metar":"LPBJ 010300Z 09006KT 6000 2100N VCFG BKN030 06/06 Q1015","updated":"2026-01-01T03:49:08Z"}
