{"icao":"LPBJ","metar":"LPBJ 111500Z 25018KT 9999 OVC008 16/14 Q1018","updated":"2026-02-11T15:59:53Z"}
