{"icao":"KJFK","metar":"KJFK 021451Z 27014G20KT 10SM FEW055 BKN075 BKN110 M04/M11 A2983 RMK AO2 SLP102 60000 T10391111 53001 $","updated":"2026-01-02T15:20:58Z"}
