{"icao":"LPAZ","metar":"LPAZ 141400Z 04013KT 010V070 9999 FEW021 BKN049 17/11 Q1029","updated":"2026-05-14T14:07:51Z"}
