{"icao":"KJFK","metar":"KJFK 260551Z 32007KT 10SM BKN085 BKN180 BKN240 11/02 A3036 RMK AO2 SLP280 T01060022 10133 20100 56002","updated":"2025-10-26T06:25:19Z"}
