{"icao":"KJFK","metar":"KJFK 180551Z 03006KT 6SM BR SCT008 BKN013 OVC022 18/18 A3000 RMK AO2 DZE17RAB17E32 SLP157 P0001 60003 T01830178 10200 20183 57007 $","updated":"2025-09-18T06:26:34Z"}
