{"icao":"LPBJ","metar":"LPBJ 020700Z 12001KT 9999 FEW040 12/11 Q1024","updated":"2025-11-02T07:15:52Z"}
