{"icao":"LPBJ","metar":"LPBJ 142100Z 18011KT 9999 FEW035 13/11 Q1009","updated":"2025-11-14T21:16:38Z"}
