{"icao":"KORD","metar":"KORD 052251Z 26008G18KT 10SM FEW035 FEW250 11/M06 A3016 RMK AO2 SLP215 T01111056 $","updated":"2026-04-05T23:32:40Z"}
