{"icao":"LPPR","metar":"LPPR 081130Z 36004KT 340V070 9000 -SHRA FEW020 SCT025 BKN035 13/10 Q1019","updated":"2026-04-08T11:53:52Z"}
