{"icao":"KORD","metar":"KORD 010551Z 26005KT 10SM SCT250 M08/M09 A3045 RMK AO2 SLP321 4/007 I1001 I6001 T10781094 11028 21078 400061078 51009 $","updated":"2025-12-01T06:31:35Z"}
