{"icao":"KJFK","metar":"KJFK 220251Z 04005KT 10SM SCT250 14/09 A3023 RMK AO2 SLP237 T01390094 56002 $","updated":"2025-09-22T03:05:59Z"}
