{"icao":"KLAX","metar":"KLAX 041653Z 09005KT 2 1/2SM BR OVC008 16/13 A3013 RMK AO2 SLP203 T01560133 $","updated":"2025-11-04T17:13:39Z"}
