{"icao":"LPST","metar":"LPST 270800Z 36003KT 330V060 CAVOK 16/10 Q1020","updated":"2025-10-27T09:21:57Z"}
