{"icao":"LPPR","metar":"LPPR 051800Z 26004KT 220V330 6000 SHRA FEW008 SCT020CB BKN030 13/12 Q1006","updated":"2025-11-05T18:26:44Z"}
