{"icao":"LPHR","metar":"LPHR 191200Z 19011KT 4000 -DZ BR SCT003 BKN005 17/16 Q1012","updated":"2026-05-19T12:08:42Z"}
