{"icao":"LPOV","metar":"LPOV 020800Z 25016KT 9000 -SHRA FEW007 FEW018CB SCT025 BKN045 11/08 Q0993","updated":"2026-02-02T08:40:58Z"}
