{"icao":"LPPT","metar":"LPPT 190900Z 33011KT 9999 SCT008 SCT010 BKN015 11/11 Q1020","updated":"2025-12-19T09:23:01Z"}
