{"icao":"LPCS","metar":"LPCS 222200Z 01011KT CAVOK 22/15 Q1015","updated":"2026-06-23T04:58:36Z"}
