{"icao":"KJFK","metar":"KJFK 280851Z 26017G24KT 10SM FEW160 01/M06 A2989 RMK AO2 PK WND 26026/0812 SLP122 T00111061 58003","updated":"2025-11-28T09:20:04Z"}
