{"icao":"LPCS","metar":"LPCS 131700Z 34010KT CAVOK 26/11 Q1015","updated":"2025-10-13T17:15:17Z"}
