{"icao":"LPLA","metar":"LPLA 212200Z 20006KT 160V220 9000 -RA SCT014 BKN025 17/15 Q1023","updated":"2026-02-21T22:22:20Z"}
