{"icao":"LPFR","metar":"LPFR 041430Z 25014KT CAVOK 26/16 Q1014","updated":"2026-06-04T14:56:39Z"}
