{"icao":"LPCS","metar":"LPCS 211900Z 34006KT 270V360 9999 FEW016 FEW020TCU SCT030 07/06 Q1010","updated":"2025-12-22T01:42:29Z"}
