{"icao":"LPAR","metar":"LPAR 231600Z 29011KT 9999 BKN028 BKN045 24/17 Q1019","updated":"2025-10-24T01:17:33Z"}
