{"icao":"KORD","metar":"KORD 282151Z 14006KT 6SM BR BKN004 OVC023 13/13 A2931 RMK AO2 RAE10 SLP924 P0001 T01280128 $","updated":"2025-12-28T22:18:53Z"}
