{"icao":"KLAX","metar":"KLAX 180418Z 02004KT 10SM FEW027 BKN046 BKN070 13/11 A2988 RMK AO2 RAE10 P0001 T01330111 $","updated":"2025-11-18T04:22:59Z"}
