{"icao":"LPMT","metar":"LPMT 191800Z 25009KT CAVOK 18/14 Q1014","updated":"2026-04-19T18:49:39Z"}
