{"icao":"LPBJ","metar":"LPBJ 301000Z 07008KT 030V110 CAVOK 13/M01 Q1030","updated":"2026-03-30T11:00:32Z"}
