{"icao":"LPCS","metar":"LPCS 181230Z 19012KT 9999 FEW016 16/13 Q1021","updated":"2025-12-18T12:42:39Z"}
