{"icao":"LPAR","metar":"LPAR 141200Z 06006KT 020V150 CAVOK 24/12 Q1017","updated":"2025-10-14T12:38:51Z"}
