{"icao":"LPHR","metar":"LPHR 191100Z 02032G47KT 9000 VCSH SCT013 SCT030 15/10 Q1008","updated":"2026-03-19T11:34:20Z"}
