{"icao":"LPAZ","metar":"LPAZ 250600Z 25016KT 9000 -RA FEW008 BKN010 17/15 Q1020","updated":"2026-01-25T06:30:12Z"}
