{"icao":"LPMR","metar":"LPMR 232200Z 32006KT 290V360 9999 OVC008 17/16 Q1022","updated":"2026-05-23T22:51:37Z"}
