{"icao":"LPPR","metar":"LPPR 191600Z 20013KT 3000 -RADZ BR BKN001 18/18 Q1011","updated":"2025-10-19T16:19:31Z"}
