{"icao":"KJFK","metar":"KJFK 020351Z 26009KT 10SM FEW065 SCT140 M06/M14 A2990 RMK AO2 SLP125 T10561144 $","updated":"2026-01-02T04:39:56Z"}
