{"icao":"KORD","metar":"KORD 092051Z 18006KT 10SM OVC250 03/M07 A3002 RMK AO2 SLP174 T00281072 56019","updated":"2026-02-09T21:37:51Z"}
