{"icao":"LPAZ","metar":"LPAZ 201030Z 01019KT 9999 SCT025 BKN049 13/07 Q1016","updated":"2026-04-20T10:46:46Z"}
