{"icao":"LPMA","metar":"LPMA 221400Z 03018KT 9999 SCT015 20/11 Q1025","updated":"2025-11-22T14:15:37Z"}
