{"icao":"LPFR","metar":"LPFR 031000Z 07004KT 020V100 CAVOK 20/09 Q1023","updated":"2025-11-03T10:21:35Z"}
