{"icao":"KORD","metar":"KORD 141451Z 18008KT 10SM FEW050 SCT200 BKN250 19/15 A2982 RMK AO2 SLP096 60001 T01890150 58003","updated":"2026-04-14T15:11:53Z"}
