{"icao":"LPPR","metar":"LPPR 052000Z 24011KT 210V280 9999 FEW018 FEW020CB BKN032 13/10 Q0995","updated":"2026-02-05T20:32:02Z"}
