{"icao":"LPMR","metar":"LPMR 150900Z 18013KT 5000 -RA FEW012 FEW018CB BKN024 15/13 Q1004","updated":"2025-11-15T09:16:48Z"}
