{"icao":"LPFR","metar":"LPFR 180430Z 32007KT 9999 FEW015 BKN022 12/09 Q1022","updated":"2026-02-18T04:51:52Z"}
