{"icao":"KORD","metar":"KORD 091557Z 33017G24KT 10SM BKN024 BKN048 OVC065 00/M04 A3006 RMK AO2 T00001039 $","updated":"2025-11-09T16:20:05Z"}
