{"icao":"LPFL","metar":"LPFL 210800Z 17010KT 140V200 9999 FEW025 21/14 Q1027","updated":"2025-09-21T08:19:44Z"}
