{"icao":"LPOV","metar":"LPOV 171500Z 35014KT CAVOK 18/11 Q1019","updated":"2026-04-17T15:59:24Z"}
