{"icao":"LPMR","metar":"LPMR 192200Z VRB01KT 8000 NSC 13/12 Q1016","updated":"2026-04-19T22:33:55Z"}
