{"icao":"LPOV","metar":"LPOV 251400Z 32006KT CAVOK 24/08 Q1018","updated":"2025-09-25T14:18:00Z"}
