{"icao":"LPBJ","metar":"LPBJ 240900Z 21006KT 9000 SCT014 BKN016 19/18 Q1019","updated":"2025-10-24T09:19:41Z"}
