{"icao":"LPAZ","metar":"LPAZ 051400Z 18010KT 150V210 9999 SCT015 FEW030TCU 24/20 Q1024","updated":"2025-10-05T14:13:57Z"}
