{"icao":"LPPR","metar":"LPPR 162200Z 00000KT 9999 SCT005 FEW017CB BKN040 14/13 Q1009","updated":"2025-11-16T22:16:38Z"}
