{"icao":"LPMT","metar":"LPMT 150900Z 35009KT 9999 FEW025 14/09 Q1019","updated":"2026-03-15T09:32:37Z"}
