{"icao":"KORD","metar":"KORD 240451Z 18010G18KT 10SM SCT090 BKN250 22/12 A2971 RMK AO2 LTG DSNT E SLP055 T02170117","updated":"2026-04-24T05:34:08Z"}
