{"icao":"LPPT","metar":"LPPT 251600Z 24010KT 210V280 CAVOK 29/10 Q1021","updated":"2026-05-25T16:26:01Z"}
