{"icao":"LPAZ","metar":"LPAZ 182200Z 20010KT 9999 BKN012 23/21 Q1017","updated":"2025-09-18T22:13:57Z"}
