{"icao":"LPMT","metar":"LPMT 082300Z 17013KT 9999 SCT025 15/11 Q1005","updated":"2026-05-08T23:54:46Z"}
