{"icao":"KJFK","metar":"KJFK 021451Z 07012KT 10SM OVC013 07/04 A3045 RMK AO2 DZE32 SLP310 P0000 60000 T00670039 51018","updated":"2026-04-02T14:54:44Z"}
