{"icao":"LPBJ","metar":"LPBJ 031100Z 25006KT 190V290 9999 FEW032 SCT045 19/09 Q1015","updated":"2026-05-03T11:40:44Z"}
