{"icao":"LPLA","metar":"LPLA 141300Z 08008KT 050V110 9999 FEW025 21/14 Q1022","updated":"2026-06-14T14:04:02Z"}
