{"icao":"KJFK","metar":"KJFK 091351Z 17003KT 8SM FEW150 SCT200 BKN250 06/05 A3031 RMK AO2 SLP262 T00610050 $","updated":"2026-01-09T14:23:33Z"}
