{"icao":"KORD","metar":"KORD 011451Z 07014G20KT 10SM BKN030 M03/M11 A3048 RMK AO2 SLP330 T10281111 53028 $","updated":"2026-03-01T15:22:44Z"}
