{"icao":"LPPD","metar":"LPPD 231230Z 36018KT 9999 FEW006 BKN035 22/17 Q1022","updated":"2025-09-23T12:35:58Z"}
