{"icao":"LPLA","metar":"LPLA 091600Z 17018KT 9999 -RA FEW010 SCT015 17/15 Q1024","updated":"2026-01-09T16:26:39Z"}
