{"icao":"KORD","metar":"KORD 111851Z 21012G25KT 10SM FEW100 BKN130 BKN250 04/M07 A2975 RMK AO2 PK WND 20027/1823 SLP083 T00391067","updated":"2025-11-11T19:15:18Z"}
