{"icao":"LPMA","metar":"LPMA 302130Z 35015KT 310V030 9999 FEW015 18/12 Q1025","updated":"2026-05-30T22:01:42Z"}
