{"icao":"LPCS","metar":"LPCS 061100Z 26009KT 230V300 9999 FEW016 13/12 Q1005","updated":"2026-02-06T11:32:09Z"}
