{"icao":"KORD","metar":"KORD 010951Z 31003KT 10SM FEW025 M11/M14 A3033 RMK AO2 SLP282 I1000 T11111139","updated":"2026-02-01T10:24:26Z"}
