{"icao":"LPFR","metar":"LPFR 131400Z 08014KT CAVOK 19/10 Q1016","updated":"2025-12-13T14:16:47Z"}
