{"icao":"LPBJ","metar":"LPBJ 201500Z 02008KT CAVOK 17/05 Q1027","updated":"2026-02-20T15:36:03Z"}
