{"icao":"LPPT","metar":"LPPT 010800Z 05004KT 020V090 CAVOK 20/13 Q1021","updated":"2025-10-01T08:23:36Z"}
