{"icao":"KORD","metar":"KORD 011051Z 03011KT 10SM SCT031 M04/M11 A3038 RMK AO2 SLP298 T10391106 $","updated":"2026-03-01T11:20:14Z"}
