{"icao":"LPGR","metar":"LPGR 231200Z 34007KT 300V010 9999 FEW014 SCT025 21/17 Q1025","updated":"2026-06-23T12:05:10Z"}
