{"icao":"KLAX","metar":"KLAX 070653Z VRB03KT 10SM FEW075 BKN180 BKN230 15/10 A2999 RMK AO2 SLP155 T01500100 $","updated":"2026-01-07T07:24:05Z"}
