{"icao":"KLAX","metar":"KLAX 190853Z 03005KT 10SM FEW015 FEW070 SCT250 11/08 A3001 RMK AO2 SLP162 T01110083 51009","updated":"2025-11-19T09:21:04Z"}
