{"icao":"LPBJ","metar":"LPBJ 281800Z 03012KT CAVOK 20/04 Q1021","updated":"2026-03-28T18:38:58Z"}
