{"icao":"LPAR","metar":"LPAR 101100Z 25013KT 220V280 7000 SCT009 BKN015 BKN022 17/17 Q1016","updated":"2026-02-10T13:10:52Z"}
