{"icao":"LPPS","metar":"LPPS 222300Z 35006KT 9999 SCT015 17/10 Q1024","updated":"2025-12-22T23:18:22Z"}
