{"icao":"LPCS","metar":"LPCS 201900Z 34005KT 280V040 CAVOK 24/13 Q1020","updated":"2026-05-20T19:22:56Z"}
