{"icao":"LPPS","metar":"LPPS 041700Z 36008KT 320V030 9999 SCT015 23/15 Q1026","updated":"2025-10-04T17:13:34Z"}
