{"icao":"LPMR","metar":"LPMR 181500Z 03009KT 360V070 9999 FEW016 11/03 Q1014","updated":"2026-01-18T15:18:00Z"}
