{"icao":"LPCS","metar":"LPCS 270800Z 05008KT CAVOK 17/11 Q1020","updated":"2025-10-27T08:25:28Z"}
