{"icao":"LPCS","metar":"LPCS 131230Z 18020KT 3000 SHRA BR SCT005 BKN012 FEW020CB 19/18 Q0998","updated":"2025-11-13T12:40:04Z"}
