{"icao":"LPMA","metar":"LPMA 281100Z 22020KT 190V250 9999 SCT015 FEW016TCU 23/17 Q1013","updated":"2025-10-28T11:14:53Z"}
