{"icao":"LPFR","metar":"LPFR 131300Z 16007KT CAVOK 32/14 Q1018","updated":"2025-09-13T13:18:40Z"}
