{"icao":"KJFK","metar":"KJFK 250651Z 22003KT 10SM BKN190 BKN250 06/02 A3029 RMK AO2 SLP256 T00560017","updated":"2025-11-25T07:18:59Z"}
