{"icao":"KLAX","metar":"KLAX 120253Z 09005KT 10SM CLR 18/02 A3018 RMK AO2 SLP219 T01780017 53008 $","updated":"2026-01-12T03:48:37Z"}
