{"icao":"LPMA","metar":"LPMA 071600Z 01017KT 340V050 9999 FEW018 21/14 Q1024","updated":"2026-06-07T16:13:48Z"}
