{"icao":"LPFL","metar":"LPFL 271700Z 02008KT 340V070 9999 FEW025 BKN038 16/07 Q1026","updated":"2025-11-27T17:15:32Z"}
