{"icao":"KORD","metar":"KORD 031151Z 00000KT 10SM FEW070 18/13 A3020 RMK AO2 SLP222 T01780128 10206 20178 53003","updated":"2025-10-03T12:35:14Z"}
