{"icao":"LPOV","metar":"LPOV 291300Z 17008KT 130V200 9999 FEW008 SCT020 BKN030 14/12 Q1016","updated":"2025-11-29T13:25:14Z"}
