{"icao":"LPFL","metar":"LPFL 061500Z 27013G27KT 210V330 7000 -DZ FEW004 SCT010 21/18 Q1022 REDZ","updated":"2026-06-06T15:13:35Z"}
