{"icao":"LPPR","metar":"LPPR 010700Z 10006KT CAVOK 06/03 Q1022","updated":"2026-03-01T07:31:35Z"}
