{"icao":"LPOV","metar":"LPOV 042100Z 33004KT 9000 BKN007 13/12 Q1016","updated":"2026-03-04T21:32:56Z"}
