{"icao":"LPAR","metar":"LPAR 211400Z 01013KT CAVOK 16/01 Q1026","updated":"2025-11-21T14:17:56Z"}
