{"icao":"LPBJ","metar":"LPBJ 230400Z 18006KT CAVOK 18/11 Q1020","updated":"2026-05-23T04:39:10Z"}
