{"icao":"KORD","metar":"KORD 310251Z 02007KT 10SM SCT200 BKN250 14/06 A3013 RMK AO2 SLP200 T01390061 53012 $","updated":"2026-05-31T03:41:49Z"}
