{"icao":"KJFK","metar":"KJFK 141351Z 24010KT 10SM FEW049 SCT095 BKN250 M01/M06 A3012 RMK AO2 SLP200 T10061056 $","updated":"2026-02-14T14:26:04Z"}
