{"icao":"LPPD","metar":"LPPD 211100Z 22012KT 8000 FEW004 BKN008 23/22 Q1016","updated":"2025-10-21T11:15:00Z"}
