{"icao":"LPFR","metar":"LPFR 232200Z 26011KT CAVOK 22/19 Q1014","updated":"2026-06-23T22:11:01Z"}
