{"icao":"KORD","metar":"KORD 160851Z 15007KT 10SM BKN090 BKN150 OVC250 16/14 A2971 RMK AO2 SLP057 T01560139 58016 $","updated":"2026-04-16T09:18:12Z"}
