{"icao":"LPFL","metar":"LPFL 211700Z 18013KT 9999 FEW022 22/15 Q1025","updated":"2025-09-21T17:13:50Z"}
