{"icao":"LPMA","metar":"LPMA 291230Z VRB07KT 9999 FEW016 21/11 Q1023","updated":"2025-11-29T12:35:37Z"}
