{"icao":"LPFR","metar":"LPFR 301830Z 19003KT 150V230 CAVOK 16/06 Q1025","updated":"2026-03-30T18:58:43Z"}
