{"icao":"LPHR","metar":"LPHR 071400Z 21015G25KT 9999 FEW016 BKN035 17/13 Q1031","updated":"2026-01-07T14:22:51Z"}
