{"icao":"LPMA","metar":"LPMA 112100Z 33008KT 8000 -RA SCT015 BKN060 17/13 Q1020","updated":"2025-12-11T21:20:43Z"}
