{"icao":"LPMR","metar":"LPMR 011100Z 30008KT 270V340 CAVOK 25/16 Q1020","updated":"2026-07-01T12:05:38Z"}
