{"icao":"LPOV","metar":"LPOV 152200Z 09003KT 4500 -SHRA BR FEW003 SCT020 08/08 Q1015","updated":"2026-01-16T03:38:21Z"}
