{"icao":"LPHR","metar":"LPHR 210900Z 22006KT 7000 SCT003 BKN006 BKN030 17/16 Q1020","updated":"2026-02-21T09:28:27Z"}
