{"icao":"LPPR","metar":"LPPR 131500Z 17008KT 3000 +RA BR SCT006 BKN018 FEW020CB 16/15 Q0996","updated":"2025-11-13T15:21:13Z"}
