{"icao":"LPAZ","metar":"LPAZ 240930Z 28022KT 8000 FEW021 SCT028 15/11 Q1014","updated":"2026-02-24T09:51:56Z"}
