{"icao":"LPPS","metar":"LPPS 290300Z 01009KT 9999 SCT014 18/15 Q1024","updated":"2026-05-29T03:28:53Z"}
