{"icao":"LPCS","metar":"LPCS 090700Z 02004KT CAVOK 10/09 Q1021","updated":"2025-11-09T07:16:06Z"}
