{"icao":"LPBJ","metar":"LPBJ 211520Z 28018KT 8000 -DZRA BKN005 BKN012 15/14 Q1005 REDZRA","updated":"2026-01-21T15:30:34Z"}
