{"icao":"LPFR","metar":"LPFR 290100Z 19007KT 9999 FEW008 21/19 Q1009","updated":"2025-10-29T01:25:26Z"}
