{"icao":"LPOV","metar":"LPOV 251100Z 36009KT CAVOK 13/07 Q1024","updated":"2025-11-25T11:16:42Z"}
