{"icao":"LPCS","metar":"LPCS 051530Z 33014KT 270V360 9999 FEW028 20/09 Q1018","updated":"2026-06-05T15:51:49Z"}
