{"icao":"LPBJ","metar":"LPBJ 291300Z 09003KT 040V200 9999 FEW020 14/08 Q1019","updated":"2025-12-29T13:36:12Z"}
