{"icao":"LPBJ","metar":"LPBJ 131100Z 06004KT 010V110 9999 FEW040 25/13 Q1016","updated":"2025-10-13T11:15:13Z"}
