{"icao":"KLAX","metar":"KLAX 111509Z 12004KT 1/4SM R25L/1200V1600FT FG VV002 14/14 A3009 RMK AO2 T01440139 $","updated":"2025-11-11T15:19:38Z"}
