{"icao":"LPFR","metar":"LPFR 110500Z 03004KT 9999 FEW015 14/13 Q1015","updated":"2025-11-11T05:18:48Z"}
