{"icao":"KJFK","metar":"KJFK 201851Z 24011KT 10SM SCT110 BKN250 02/M07 A3019 RMK AO2 SLP224 T00221067 $","updated":"2025-12-20T19:14:30Z"}
