{"icao":"KJFK","metar":"KJFK 032251Z 20006KT 10SM FEW038 BKN140 12/08 A2991 RMK AO2 SLP127 T01220083 $","updated":"2025-11-03T23:16:07Z"}
