{"icao":"LPMR","metar":"LPMR 211500Z 28013KT 230V310 7000 SCT007 OVC028 15/10 Q1004","updated":"2026-01-21T15:30:34Z"}
