{"icao":"LPMR","metar":"LPMR 230100Z 29008KT 7000 SCT020 BKN030 10/08 Q1004","updated":"2026-01-23T01:41:15Z"}
