{"icao":"LPMA","metar":"LPMA 101530Z 36017KT 320V030 9999 SCT015 18/13 Q1018","updated":"2026-04-10T15:52:18Z"}
