{"icao":"LPBJ","metar":"LPBJ 150600Z 09001KT CAVOK 15/10 Q1016","updated":"2025-10-15T06:27:02Z"}
