{"icao":"KORD","metar":"KORD 020651Z 13006KT 10SM BKN250 17/08 A3022 RMK AO2 SLP231 T01720078","updated":"2025-10-02T07:16:35Z"}
