{"icao":"LPMR","metar":"LPMR 260400Z 15004KT 3000 BR NSC 02/02 Q0004","updated":"2025-12-26T04:33:17Z"}
