{"icao":"KORD","metar":"KORD 211051Z 17006KT 7SM FEW065 SCT085 BKN120 20/19 A2996 RMK AO2 RAB19E32 SLP142 P0001 T02000189 $","updated":"2025-09-21T11:12:55Z"}
