{"icao":"LPFL","metar":"LPFL 021000Z 15007KT 120V190 9999 FEW008 BKN014 24/20 Q1018","updated":"2025-10-02T10:17:31Z"}
