{"icao":"LPHR","metar":"LPHR 051230Z 14008KT 110V170 9999 FEW022 BKN040 13/04 Q1037","updated":"2026-03-05T12:58:04Z"}
