{"icao":"KJFK","metar":"KJFK 201251Z 24020G28KT 10SM BKN018 BKN025 BKN055 BKN250 15/11 A2976 RMK AO2 PK WND 24028/1247 SLP079 T01500111 $","updated":"2025-10-20T13:28:26Z"}
