{"icao":"LPLA","metar":"LPLA 231100Z 21010KT 170V240 9999 FEW016 SCT025 23/18 Q1016","updated":"2025-10-23T11:15:42Z"}
