{"icao":"LPHR","metar":"LPHR 041500Z 30026G37KT 9999 SCT030 18/07 Q1007 WS ALL RWY","updated":"2025-11-04T15:20:40Z"}
