{"icao":"LPPI","metar":"LPPI 261500Z 30005KT 250V350 9999 FEW020 20/13 Q1025","updated":"2026-06-26T15:22:20Z"}
