{"icao":"LPCS","metar":"LPCS 011300Z 19006KT 150V230 CAVOK 16/05 Q1020","updated":"2025-12-01T13:34:12Z"}
