{"icao":"LPMT","metar":"LPMT 141700Z 02006KT CAVOK 15/11 Q1016","updated":"2025-12-14T17:15:47Z"}
