{"icao":"LPAR","metar":"LPAR 251400Z 05006KT 9999 SCT013 BKN024 21/18 Q1013","updated":"2025-10-26T10:16:57Z"}
