{"icao":"LPPR","metar":"LPPR 271900Z 16022KT 5000 -RA BR FEW009 BKN013 OVC019 19/17 Q1008","updated":"2025-09-27T19:12:28Z"}
