{"icao":"LPHR","metar":"LPHR 212130Z 32016KT 5000 -RA BR SCT007 SCT012 BKN030 11/09 Q1001","updated":"2026-04-21T21:44:16Z"}
