{"icao":"LPHR","metar":"LPHR 072000Z 24019KT 9000 -RA SCT007 BKN013 FEW015TCU 17/16 Q1010","updated":"2026-02-07T20:25:08Z"}
