{"icao":"LPAZ","metar":"LPAZ 182200Z 14006KT 9999 FEW016 14/12 Q1027","updated":"2026-02-18T22:31:33Z"}
