{"icao":"LPMT","metar":"LPMT 060700Z 03007KT CAVOK 14/13 Q1018","updated":"2025-10-06T07:17:55Z"}
