{"icao":"LPPS","metar":"LPPS 151900Z 04008KT 360V070 9999 FEW015 BKN030 15/11 Q1023","updated":"2026-04-15T19:15:56Z"}
