{"icao":"LPST","metar":"LPST 251700Z 35011KT CAVOK 13/06 Q1023","updated":"2025-11-26T05:18:13Z"}
