{"icao":"LPMA","metar":"LPMA 250900Z 35008KT 9999 FEW015 19/12 Q1025","updated":"2025-11-25T09:22:41Z"}
