{"icao":"LPPD","metar":"LPPD 261000Z 27038G48KT 5000 BKN014 21/18 Q1007","updated":"2025-09-26T10:18:22Z"}
