{"icao":"KLAX","metar":"KLAX 301853Z 01004KT 10SM FEW250 26/00 A3023 RMK AO2 SLP236 T02560000 $","updated":"2026-01-30T19:30:43Z"}
