{"icao":"LPFR","metar":"LPFR 262200Z 30004KT CAVOK 14/10 Q1024","updated":"2026-02-26T22:32:02Z"}
