{"icao":"LPAZ","metar":"LPAZ 151800Z 31012KT 9999 FEW032 SCT037 17/09 Q1018","updated":"2025-11-15T18:23:37Z"}
