{"icao":"KORD","metar":"KORD 222151Z 07010KT 10SM FEW035 18/09 A2993 RMK AO2 SLP135 T01830094","updated":"2026-04-22T22:45:51Z"}
