{"icao":"LPMR","metar":"LPMR 161400Z 32013KT 290V350 9000 FEW012 21/15 Q1018","updated":"2026-06-16T15:08:23Z"}
