{"icao":"LPMA","metar":"LPMA 232300Z 36008KT 320V040 9999 SCT015 21/13 Q1021","updated":"2025-09-23T23:15:02Z"}
