{"icao":"LPPS","metar":"LPPS 062330Z 01006KT 9999 FEW015 14/09 Q1017","updated":"2026-05-06T23:50:48Z"}
