{"icao":"LPFR","metar":"LPFR 191800Z 09007KT CAVOK 26/20 Q1018","updated":"2025-09-19T18:24:07Z"}
