{"icao":"LPAR","metar":"LPAR 141300Z 36004KT 320V030 8000 VCSH BKN025 FEW028TCU SCT035 14/11 Q1020","updated":"2026-01-14T13:39:20Z"}
