{"icao":"LPPD","metar":"LPPD 141630Z 03010KT 360V060 9999 FEW022 SCT040 17/10 Q1030","updated":"2026-05-14T16:59:27Z"}
