{"icao":"KORD","metar":"KORD 242211Z 13008KT 10SM BKN060 BKN130 BKN250 21/17 A2996 RMK AO2 T02060167 $","updated":"2026-06-24T22:15:22Z"}
