{"icao":"LPAR","metar":"LPAR 181100Z 06006KT 030V110 CAVOK 17/10 Q1020","updated":"2025-11-18T12:39:04Z"}
