{"icao":"LPPD","metar":"LPPD 141230Z 19016G27KT 160V220 9999 -SHRA SCT018 FEW022CB 19/16 Q1009","updated":"2025-10-14T12:39:03Z"}
