{"icao":"LPPS","metar":"LPPS 122000Z 02023G34KT 9999 FEW014 FEW018CB 14/09 Q1020","updated":"2025-12-12T20:21:36Z"}
