{"icao":"LPMA","metar":"LPMA 020900Z 09003KT 030V120 9999 FEW015 20/12 Q1019","updated":"2026-05-02T09:05:00Z"}
