{"icao":"KJFK","metar":"KJFK 112051Z 33016G23KT 10SM CLR 17/M04 A3023 RMK AO2 SLP237 T01721039 55003","updated":"2026-04-11T21:31:19Z"}
