{"icao":"LPFL","metar":"LPFL 201730Z 20017G27KT 170V240 9999 4900E -SHRA BKN009 FEW012TCU 18/15 Q1011","updated":"2026-02-20T17:36:14Z"}
