{"icao":"KORD","metar":"KORD 052251Z 09006KT 10SM BKN190 OVC250 04/M01 A2981 RMK AO2 SLP100 T00391006","updated":"2026-01-05T23:19:12Z"}
