{"icao":"LPLA","metar":"LPLA 072100Z 21008KT 170V260 9999 SCT025 18/13 Q1020","updated":"2025-11-07T21:13:39Z"}
