{"icao":"LPMR","metar":"LPMR 100600Z 17003KT 0900 -SHRA FG SCT003 SCT014 FEW016TCU 10/10 Q1019","updated":"2025-12-10T06:31:10Z"}
