{"icao":"LPPS","metar":"LPPS 200830Z 16011KT 130V190 9999 SCT014 FEW018TCU 14/12 Q0994","updated":"2026-03-20T08:38:59Z"}
