{"icao":"LPMT","metar":"LPMT 040900Z 14007KT 110V170 9999 FEW015 15/13 Q1017","updated":"2025-11-04T09:20:29Z"}
