{"icao":"LPFL","metar":"LPFL 061230Z 18021G38KT 9999 FEW020 SCT045 16/11 Q1026","updated":"2026-03-06T12:53:32Z"}
