{"icao":"KJFK","metar":"KJFK 210951Z 28006KT 10SM CLR M07/M18 A3056 RMK SLP348 T1072118378 ","updated":"2026-01-21T10:27:49Z"}
