{"icao":"LPFL","metar":"LPFL 301930Z 14008KT 030V180 9999 VCFG FEW004 SCT015 22/18 Q1021","updated":"2026-05-30T22:01:40Z"}
