{"icao":"LPPR","metar":"LPPR 181230Z 28003KT 210V340 CAVOK 11/06 Q1015","updated":"2026-01-18T12:37:44Z"}
