{"icao":"LPLA","metar":"LPLA 181400Z 31014KT 9999 FEW016 SCT022 25/21 Q1014","updated":"2025-10-18T14:14:39Z"}
