{"icao":"LPMT","metar":"LPMT 190800Z 22003KT 180V270 9999 BKN020 16/14 Q1023","updated":"2026-05-19T08:33:54Z"}
