{"icao":"LPST","metar":"LPST 171000Z 36007KT 330V030 9999 FEW012 12/09 Q1022","updated":"2025-12-17T10:22:27Z"}
