{"icao":"LPCS","metar":"LPCS 101730Z 23007KT CAVOK 19/15 Q1012","updated":"2026-04-10T17:46:09Z"}
