{"icao":"KORD","metar":"KORD 110751Z 31007KT 10SM CLR M02/M05 A3011 RMK AO2 SLP203 T10171050 $","updated":"2026-02-11T07:59:03Z"}
