{"icao":"KLAX","metar":"KLAX 191253Z 05004KT 10SM FEW016 FEW028 BKN110 BKN160 09/04 A3001 RMK AO2 SLP160 T00940039","updated":"2026-02-19T13:02:53Z"}
