{"icao":"LPAZ","metar":"LPAZ 140800Z 25011KT 220V280 9999 BKN024 16/12 Q1026","updated":"2026-01-14T08:29:22Z"}
