{"icao":"KORD","metar":"KORD 241651Z 33003KT 10SM FEW035 FEW250 09/M02 A3033 RMK AO2 SLP274 T00941017 $","updated":"2025-10-24T17:16:35Z"}
