{"icao":"LPMA","metar":"LPMA 100300Z 31005KT 290V350 9999 SCT016 19/14 Q1021","updated":"2025-11-10T03:17:48Z"}
