{"icao":"LPMA","metar":"LPMA 131700Z 04005KT 340V130 9999 SCT016 22/16 Q1016","updated":"2025-10-13T17:15:33Z"}
