{"icao":"LPMT","metar":"LPMT 180600Z VRB02KT CAVOK 14/12 Q1016","updated":"2025-10-18T06:24:01Z"}
