{"icao":"KORD","metar":"KORD 281751Z VRB06G17KT 10SM CLR 05/M10 A3057 RMK AO2 SLP359 T00501100 10050 21039 58024","updated":"2026-03-28T18:39:18Z"}
