{"icao":"KJFK","metar":"KJFK 190951Z 17004KT 10SM FEW250 12/11 A3000 RMK AO2 SLP159 T01220111 $","updated":"2025-10-19T10:16:42Z"}
