{"icao":"KJFK","metar":"KJFK 011651Z 35011KT 10SM FEW020 BKN050 BKN080 02/M03 A3022 RMK AO2 SLP233 T00171033 VISNO W $","updated":"2026-03-01T17:20:48Z"}
