{"icao":"LPLA","metar":"LPLA 272000Z 27028G45KT 9000 -RA SCT014 BKN020 18/15 Q1001","updated":"2026-01-27T20:21:51Z"}
