{"icao":"LPMR","metar":"LPMR 120600Z 17005KT CAVOK 16/10 Q1017","updated":"2025-10-12T06:23:30Z"}
