{"icao":"KORD","metar":"KORD 051851Z 18018G26KT 10SM SCT300 28/09 A3005 RMK AO2 PK WND 17027/1817 SLP170 T02780094 $","updated":"2025-10-05T19:12:37Z"}
