{"icao":"LPAZ","metar":"LPAZ 261800Z 28037KT 9000 -SHRA FEW020 SCT030 14/09 Q1007","updated":"2026-01-26T18:34:19Z"}
