{"icao":"LPMR","metar":"LPMR 291400Z 14002KT 110V200 9999 FEW020 16/06 Q1018","updated":"2025-12-29T14:20:35Z"}
