{"icao":"KJFK","metar":"KJFK 041351Z 29019G26KT 10SM FEW043 FEW250 12/01 A3008 RMK AO2 PK WND 29028/1315 SLP186 T01170006 $","updated":"2025-11-04T14:19:20Z"}
