{"icao":"KJFK","metar":"KJFK 041351Z 24010KT 10SM FEW080 FEW250 16/06 A2994 RMK SLP140 T01610056 ","updated":"2026-05-04T13:57:26Z"}
