{"icao":"LPMT","metar":"LPMT 231500Z 27012KT CAVOK 27/18 Q1011","updated":"2026-06-23T15:46:10Z"}
