{"icao":"LPMT","metar":"LPMT 312300Z 20011KT 9999 FEW015 SCT020 BKN030 20/18 Q1014","updated":"2025-10-31T23:16:27Z"}
