{"icao":"KJFK","metar":"KJFK 081751Z 36015G23KT 10SM FEW050 BKN180 BKN220 M02/M21 A3027 RMK AO2 PK WND 02028/1710 SLP249 T10221211 11006 21022 55001 $","updated":"2025-12-08T18:30:04Z"}
