{"icao":"LPHR","metar":"LPHR 220730Z 30005KT 6000 VCSH SCT003 BKN005 16/16 Q1015","updated":"2026-05-22T07:43:06Z"}
