{"icao":"LPMT","metar":"LPMT 071100Z 23018G28KT 8000 SCT015 FEW018CB BKN022 BKN030 15/12 Q1002 RETSRA","updated":"2026-02-07T11:20:28Z"}
