{"icao":"KJFK","metar":"KJFK 011321Z 36013KT 10SM -RAPL BKN060 BKN150 BKN250 03/M06 A3015 RMK AO2 RAB20PLB20 P0000 T00281056 VISNO W $","updated":"2026-03-01T13:37:34Z"}
