{"icao":"LPAR","metar":"LPAR 291100Z 14006KT 110V180 CAVOK 26/15 Q1021","updated":"2026-05-29T11:27:33Z"}
