{"icao":"LPPT","metar":"LPPT 131830Z 30006KT 260V360 9999 BKN014 14/11 Q1021","updated":"2026-03-13T18:40:34Z"}
