{"icao":"LPMT","metar":"LPMT 271300Z 34005KT 300V020 9999 BKN018 16/12 Q1025","updated":"2026-02-27T14:01:05Z"}
