{"icao":"LPPR","metar":"LPPR 231730Z 04009KT 010V070 CAVOK 29/15 Q1020","updated":"2026-05-23T17:59:23Z"}
