{"icao":"LPBJ","metar":"LPBJ 181700Z 16004KT CAVOK 27/10 Q1016","updated":"2025-10-18T17:13:13Z"}
