{"icao":"LPCS","metar":"LPCS 061030Z 27008KT 230V300 9999 VCSH FEW014 FEW020TCU SCT030 11/10 Q1005","updated":"2026-02-06T10:37:37Z"}
