{"icao":"LPMT","metar":"LPMT 282200Z 24019G32KT 6000 -RA BKN006 BKN020 16/16 Q1006","updated":"2026-01-28T22:25:33Z"}
