{"icao":"LPPD","metar":"LPPD 220800Z 19009KT 9999 FEW005 SCT008 BKN020 22/21 Q1015","updated":"2025-10-22T08:26:34Z"}
