{"icao":"KORD","metar":"KORD 041551Z 35004KT 10SM FEW030 M12/M20 A3040 RMK AO2 SLP309 T11171200","updated":"2025-12-04T16:27:53Z"}
