{"icao":"LPFR","metar":"LPFR 110130Z 35003KT 310V030 CAVOK 10/07 Q1023","updated":"2026-03-11T01:57:27Z"}
