{"icao":"KJFK","metar":"KJFK 281751Z 04018G25KT 10SM FEW030 BKN040 OVC250 11/04 A3027 RMK AO2 SLP248 T01110044 10117 20072 58022","updated":"2025-10-28T18:28:18Z"}
