{"icao":"LPLA","metar":"LPLA 040300Z 29010KT 9999 FEW015 SCT025 BKN040 18/15 Q1004","updated":"2025-11-04T03:09:00Z"}
