{"icao":"LPBJ","metar":"LPBJ 041700Z 32008KT CAVOK 29/10 Q1020","updated":"2025-10-04T17:13:00Z"}
