{"icao":"KORD","metar":"KORD 040451Z 31006KT 10SM OVC039 M04/M13 A3009 RMK AO2 SLP198 T10391128 $","updated":"2026-01-04T05:24:45Z"}
