{"icao":"LPMR","metar":"LPMR 160000Z 13003KT 3000 BR BKN003 15/14 Q1016","updated":"2025-10-16T01:19:47Z"}
