{"icao":"LPPT","metar":"LPPT 190430Z 23003KT 210V270 9999 BKN017 15/13 Q1021","updated":"2026-05-19T04:58:47Z"}
