{"icao":"LPLA","metar":"LPLA 111100Z 25008KT 210V290 9999 FEW025 18/10 Q1015","updated":"2026-02-11T11:43:31Z"}
