{"icao":"LPHR","metar":"LPHR 272200Z 04014KT 010V070 9999 FEW014 16/09 Q1026","updated":"2025-11-27T22:17:18Z"}
