{"icao":"KORD","metar":"KORD 121351Z 15009KT 10SM FEW110 SCT160 BKN250 12/M01 A3008 RMK AO2 SLP189 T01221011","updated":"2026-05-12T14:22:27Z"}
