{"icao":"KLAX","metar":"KLAX 152053Z 27008KT 10SM SCT280 19/13 A2999 RMK AO2 SLP155 T01940133 58010 $","updated":"2026-03-15T21:26:41Z"}
