{"icao":"KORD","metar":"KORD 030651Z 18006KT 10SM CLR 20/12 A3020 RMK AO2 SLP222 T02000117","updated":"2025-10-03T07:16:50Z"}
