{"icao":"LPLA","metar":"LPLA 041200Z 34010KT 320V020 9999 FEW020 BKN030 15/09 Q1023","updated":"2026-01-04T12:38:13Z"}
