{"icao":"LPAZ","metar":"LPAZ 251230Z 34017KT 9999 FEW028 16/09 Q1028","updated":"2026-02-25T13:02:11Z"}
