{"icao":"LPAZ","metar":"LPAZ 251900Z 14002KT 9999 FEW016 17/14 Q1027","updated":"2025-11-25T19:16:37Z"}
