{"icao":"LPOV","metar":"LPOV 031400Z 34010KT CAVOK 19/08 Q1023","updated":"2026-04-03T15:37:34Z"}
