{"icao":"LPPS","metar":"LPPS 171300Z 02003KT 310V120 9999 SCT010 BKN025 23/21 Q1012","updated":"2025-10-17T13:26:57Z"}
