{"icao":"LPPT","metar":"LPPT 220600Z 24007KT 9000 -RA FEW006 SCT008 BKN012 20/20 Q1016 RERA","updated":"2025-10-22T06:28:01Z"}
