{"icao":"LPFR","metar":"LPFR 201100Z 12008KT CAVOK 27/18 Q1019","updated":"2025-09-20T11:12:36Z"}
