{"icao":"LPPD","metar":"LPPD 100800Z 24013KT 9999 SCT018 BKN030 18/13 Q1020","updated":"2025-11-10T08:27:09Z"}
