{"icao":"KORD","metar":"KORD 110251Z 28005KT 10SM CLR M02/M08 A3018 RMK AO2 SLP230 T10221078 56007","updated":"2025-11-11T03:12:33Z"}
