{"icao":"KJFK","metar":"KJFK 161851Z 32020G29KT 10SM SCT075 BKN090 BKN200 12/M06 A2932 RMK AO2 PK WND 30042/1804 SLP927 VIRGA ALQDS T01171056 $","updated":"2025-11-16T19:13:57Z"}
