{"icao":"LPPS","metar":"LPPS 211330Z 06011KT 030V100 9999 SCT015 17/11 Q1027","updated":"2026-02-21T13:40:47Z"}
