{"icao":"LPMR","metar":"LPMR 171100Z 14003KT 9999 SCT020 SCT032 10/08 Q1013","updated":"2026-01-17T11:15:59Z"}
