{"icao":"LPFR","metar":"LPFR 251230Z 28009KT CAVOK 15/06 Q1009","updated":"2025-12-25T12:39:19Z"}
