{"icao":"LPCS","metar":"LPCS 221000Z 36021KT CAVOK 18/07 Q1020 WS R35","updated":"2025-09-22T10:19:57Z"}
