{"icao":"KLAX","metar":"KLAX 080553Z 23004KT 10SM CLR 16/14 A3016 RMK AO2 SLP211 T01610139 10178 20156 53007 $","updated":"2025-12-08T06:33:16Z"}
