{"icao":"LPFL","metar":"LPFL 081100Z 18010KT 130V200 1000 +TSRA BKN006 BKN012CB 20/19 Q1017","updated":"2025-10-08T11:14:46Z"}
