{"icao":"LPFL","metar":"LPFL 041130Z VRB07G17KT 9999 FEW003 23/16 Q1025","updated":"2026-06-04T11:51:47Z"}
