{"icao":"KORD","metar":"KORD 060051Z 21011KT 10SM BKN035 OVC042 M03/M10 A2979 RMK AO2 SLP097 T10281100","updated":"2025-12-06T01:22:43Z"}
