{"icao":"LPMA","metar":"LPMA 120800Z 33016G31KT 270V020 9999 BKN015 15/08 Q1021","updated":"2025-12-12T08:28:25Z"}
