{"icao":"KLAX","metar":"KLAX 100453Z 00000KT 10SM CLR 18/09 A3001 RMK AO2 SLP158 T01780094 $","updated":"2025-12-10T05:20:47Z"}
