{"icao":"LPFR","metar":"LPFR 031230Z 30012KT 9999 VCSH FEW012 FEW015CB SCT020 BKN030 12/10 Q1007","updated":"2026-02-03T12:57:26Z"}
