{"icao":"LPBJ","metar":"LPBJ 180800Z 18004KT 9999 FEW015 OVC025 10/08 Q1022","updated":"2026-02-18T08:42:19Z"}
