{"icao":"LPFL","metar":"LPFL 312000Z 20017G28KT 180V240 9999 FEW013 18/14 Q1009","updated":"2026-01-31T20:24:05Z"}
