{"icao":"LPLA","metar":"LPLA 160600Z 32021KT 9999 FEW025 SCT040 13/08 Q1031","updated":"2026-01-16T06:32:47Z"}
