{"icao":"LPPD","metar":"LPPD 101900Z 06003KT 030V090 9999 VCSH FEW006 FEW016TCU SCT025 20/19 Q1021","updated":"2025-10-10T19:13:45Z"}
