{"icao":"LPMA","metar":"LPMA 102130Z 01003KT 340V100 9999 SCT013 18/15 Q1025","updated":"2026-02-10T21:40:31Z"}
