{"icao":"LPOV","metar":"LPOV 101300Z 29003KT CAVOK 26/09 Q1013","updated":"2026-04-10T13:07:13Z"}
