{"icao":"LPPR","metar":"LPPR 192200Z 03004KT CAVOK 10/08 Q1020","updated":"2025-11-19T22:17:34Z"}
