{"icao":"LPMA","metar":"LPMA 122200Z 28003KT 250V310 9999 BKN015 16/11 Q1023","updated":"2026-02-12T22:31:44Z"}
