{"icao":"LPBJ","metar":"LPBJ 192000Z 29005KT CAVOK 21/11 Q1015","updated":"2026-04-19T20:36:11Z"}
