{"icao":"KLAX","metar":"KLAX 250953Z 07004KT 10SM CLR 11/08 A3007 RMK AO2 SLP180 T01060083 $","updated":"2026-01-25T10:20:53Z"}
