{"icao":"KORD","metar":"KORD 140451Z 32011KT 10SM SCT120 SCT250 01/M08 A3007 RMK AO2 SLP189 T00061083 $","updated":"2026-03-14T05:43:40Z"}
