{"icao":"LPMT","metar":"LPMT 081200Z 01005KT 300V060 9999 SCT030 16/09 Q1022","updated":"2026-03-08T12:46:03Z"}
