{"icao":"LPLA","metar":"LPLA 081800Z 36008KT 270V080 9999 SCT030 BKN045 13/05 Q1031","updated":"2026-03-08T18:32:39Z"}
