{"icao":"LPPR","metar":"LPPR 171230Z 24006KT 200V290 9999 SCT008 SCT015 BKN040 15/12 Q1027","updated":"2026-02-17T13:00:55Z"}
