{"icao":"LPMR","metar":"LPMR 012200Z 14015G25KT 9999 BKN012 BKN020 13/11 Q1006","updated":"2026-01-01T22:18:47Z"}
