{"icao":"LPMT","metar":"LPMT 142200Z 35009KT 330V030 9999 SCT025 15/10 Q1014","updated":"2026-05-14T22:09:52Z"}
