{"icao":"KORD","metar":"KORD 021351Z 07006KT 10SM FEW300 19/08 A3032 RMK AO2 SLP266 T01940083","updated":"2026-06-02T14:51:39Z"}
