{"icao":"LPAR","metar":"LPAR 171500Z 19006KT CAVOK 27/13 Q1013","updated":"2025-10-17T15:17:59Z"}
