{"icao":"LPMA","metar":"LPMA 262100Z 34010KT 280V020 9999 SCT015 22/16 Q1020","updated":"2026-06-26T21:17:08Z"}
