{"icao":"KORD","metar":"KORD 031651Z 02005KT 10SM FEW100 M05/M12 A3023 RMK AO2 SLP247 T10501122","updated":"2026-02-03T17:51:47Z"}
