{"icao":"LPMT","metar":"LPMT 261100Z 01006KT 320V050 CAVOK 23/15 Q1016","updated":"2026-04-26T11:37:52Z"}
