{"icao":"KORD","metar":"KORD 050751Z 21005KT 10SM SCT250 M09/M12 A3022 RMK AO2 SLP244 T10891117","updated":"2026-02-05T08:41:10Z"}
