{"icao":"KORD","metar":"KORD 171251Z 19008G16KT 10SM FEW070 BKN090 BKN130 BKN250 16/07 A3000 RMK AO2 SLP157 T01560072","updated":"2025-10-17T13:26:58Z"}
