{"icao":"LPPD","metar":"LPPD 210700Z 28016KT 9999 FEW004 BKN006 16/15 Q1021","updated":"2026-01-21T07:27:22Z"}
