{"icao":"LPLA","metar":"LPLA 101000Z 19020G41KT 8000 -RA FEW013 SCT030 17/14 Q1015","updated":"2025-12-10T10:22:36Z"}
