{"icao":"LPBJ","metar":"LPBJ 190600Z 12003KT CAVOK 18/14 Q1016","updated":"2025-10-19T06:25:09Z"}
