{"icao":"LPMT","metar":"LPMT 130400Z 16015KT 140V200 3000 TSRA BR FEW009 SCT018CB BKN020 19/16 Q1001","updated":"2025-11-13T04:23:56Z"}
