{"icao":"KJFK","metar":"KJFK 121151Z 29016G25KT 10SM FEW060 M03/M13 A3002 RMK AO2 PK WND 29028/1132 SLP166 T10331133 11017 21039 53029 $","updated":"2025-12-12T12:41:10Z"}
