{"icao":"LPHR","metar":"LPHR 251130Z 29010KT 9999 FEW016 BKN025 16/12 Q1029","updated":"2026-02-25T11:39:20Z"}
