{"icao":"KLAX","metar":"KLAX 061853Z 08003KT 10SM CLR 19/04 A3006 RMK AO2 SLP179 T01890039 $","updated":"2025-12-06T19:14:16Z"}
