{"icao":"KLAX","metar":"KLAX 111453Z 03003KT 10SM FEW017 SCT031 SCT055 17/13 A3001 RMK AO2 SLP160 T01670128 53013 $","updated":"2026-04-11T15:32:33Z"}
