{"icao":"LPMA","metar":"LPMA 031800Z 33009KT 250V360 9999 SCT015 19/10 Q1001","updated":"2026-01-03T18:27:25Z"}
