{"icao":"KLAX","metar":"KLAX 021253Z 04003KT 10SM FEW008 BKN050 BKN200 13/11 A3005 RMK AO2 SLP175 T01330111 $","updated":"2026-01-02T13:31:51Z"}
