{"icao":"LPFR","metar":"LPFR 060230Z 01007KT CAVOK 21/04 Q1016","updated":"2026-06-06T02:58:24Z"}
