{"icao":"LPPT","metar":"LPPT 031000Z 30005KT 270V330 9999 FEW025 13/07 Q1024","updated":"2025-12-03T10:22:01Z"}
