{"icao":"LPMR","metar":"LPMR 112100Z 18007KT 6000 OVC006 13/13 Q1024","updated":"2026-01-11T21:17:35Z"}
