{"icao":"KLAX","metar":"KLAX 220053Z 23004KT 10SM FEW014 SCT040 BKN120 18/11 A2995 RMK AO2 SLP140 T01780106 $","updated":"2025-11-22T01:21:02Z"}
