{"icao":"LPPS","metar":"LPPS 062200Z 03012KT 350V060 9999 FEW015 BKN030 14/07 Q1027","updated":"2026-03-06T22:27:52Z"}
