{"icao":"LPAZ","metar":"LPAZ 140000Z 28010KT 9999 SCT004 BKN007 20/19 Q1023","updated":"2026-06-14T00:06:24Z"}
