{"icao":"LPCS","metar":"LPCS 121600Z 36010KT CAVOK 31/16 Q1017","updated":"2026-06-12T16:15:30Z"}
