{"icao":"LPBJ","metar":"LPBJ 130500Z 15016KT 9999 SCT022 BKN035 18/16 Q1004","updated":"2025-11-13T05:18:51Z"}
