{"icao":"KORD","metar":"KORD 100951Z 35005KT 10SM CLR 05/M01 A2999 RMK AO2 SLP154 T00501011","updated":"2026-05-10T10:13:40Z"}
