{"icao":"LPFR","metar":"LPFR 190600Z 01003KT CAVOK 11/09 Q1016","updated":"2025-11-19T06:28:08Z"}
