{"icao":"KLAX","metar":"KLAX 112253Z 26011KT 10SM CLR 22/13 A2976 RMK AO2 SLP076 T02170128 $","updated":"2025-10-11T23:16:02Z"}
