{"icao":"KLAX","metar":"KLAX 221053Z 06003KT 10SM SCT250 11/03 A3018 RMK AO2 SLP218 T01110033 $","updated":"2026-02-22T11:20:23Z"}
