{"icao":"LPBJ","metar":"LPBJ 251300Z 04005KT 320V100 9999 FEW030 28/00 Q1017","updated":"2025-09-25T13:28:03Z"}
