{"icao":"LPPR","metar":"LPPR 161730Z 26004KT 200V330 6000 FEW004 BKN006 14/13 Q1028","updated":"2026-02-16T17:36:21Z"}
