{"icao":"LPPR","metar":"LPPR 221500Z 17014KT 3000 -RA BR BKN006 BKN012 10/10 Q1000 RERA","updated":"2026-01-22T15:29:39Z"}
