{"icao":"LPBJ","metar":"LPBJ 091600Z 31006KT 290V350 CAVOK 18/06 Q1020","updated":"2025-11-09T16:19:46Z"}
