{"icao":"LPST","metar":"LPST 270800Z 09005KT 030V150 CAVOK 14/M00 Q1017","updated":"2026-03-27T08:51:26Z"}
