{"icao":"LPPT","metar":"LPPT 040430Z VRB02KT CAVOK 13/06 Q1021","updated":"2026-04-04T04:48:28Z"}
