{"icao":"LPFL","metar":"LPFL 141600Z 35010KT 320V020 9999 FEW021 BKN032 18/13 Q1032","updated":"2026-03-14T16:30:23Z"}
