{"icao":"LPPD","metar":"LPPD 061800Z 08007KT 040V100 9999 FEW025 BKN045 15/06 Q1033","updated":"2026-01-06T18:30:18Z"}
