{"icao":"LPPT","metar":"LPPT 291730Z 27008KT 230V300 9999 FEW012 SCT018 15/13 Q1012","updated":"2026-01-29T17:35:59Z"}
