{"icao":"KLAX","metar":"KLAX 190753Z 08006KT 10SM CLR 21/14 A3004 RMK AO2 SLP168 T02060139 402780172 $","updated":"2026-03-19T08:40:13Z"}
