{"icao":"LPPD","metar":"LPPD 281400Z 11023G36KT 2000 R30/1200D -RA BR FEW007 BKN012 FEW025TCU 13/11 Q1011 RERA","updated":"2025-12-28T14:17:58Z"}
