{"icao":"LPLA","metar":"LPLA 011600Z 31027G40KT 9000 -SHRA FEW025 BKN043 11/06 Q1007 RE TSRA","updated":"2026-02-01T16:28:24Z"}
