{"icao":"LPCS","metar":"LPCS 160930Z 26005KT 230V300 9999 FEW012 BKN036 13/12 Q1032","updated":"2026-02-16T09:52:45Z"}
