{"icao":"LPHR","metar":"LPHR 081300Z 30009KT 270V330 9999 FEW030 BKN040 17/10 Q1036","updated":"2026-04-08T13:18:09Z"}
