{"icao":"KORD","metar":"KORD 161851Z 30009G20KT 10SM FEW250 09/M11 A2991 RMK AO2 SLP129 T00891106 $","updated":"2025-11-16T19:13:58Z"}
