{"icao":"KORD","metar":"KORD 040051Z 29006KT 10SM OVC048 M04/M12 A3005 RMK AO2 SLP186 T10391122 $","updated":"2026-01-04T01:49:21Z"}
