{"icao":"LPBJ","metar":"LPBJ 040600Z 05009KT CAVOK 11/08 Q1011","updated":"2026-03-04T06:44:46Z"}
