{"icao":"LPPR","metar":"LPPR 070600Z 19015KT 3500 -RA BR BKN003 FEW012CB 15/15 Q1011 RERA","updated":"2025-11-07T06:27:43Z"}
