{"icao":"LPPR","metar":"LPPR 011630Z 32010KT CAVOK 17/10 Q1023","updated":"2026-04-01T16:53:18Z"}
