{"icao":"LPBJ","metar":"LPBJ 072300Z 15003KT 9000 3000N BCFG FEW003 04/04 Q1031","updated":"2026-01-07T23:19:22Z"}
