{"icao":"LPMR","metar":"LPMR 100300Z 15002KT 6000 FEW020 07/07 Q1029","updated":"2026-01-10T03:22:31Z"}
