{"icao":"KJFK","metar":"KJFK 221651Z 01007KT 10SM FEW015 SCT022 OVC055 09/07 A2986 RMK AO2 SLP112 T00940067","updated":"2025-11-22T17:15:08Z"}
