{"icao":"LPMA","metar":"LPMA 212000Z 35005KT 320V020 9999 -SHRA BKN012 FEW018CB 15/13 Q0998","updated":"2026-03-21T20:25:29Z"}
