{"icao":"LPMT","metar":"LPMT 110400Z 33006KT CAVOK 14/12 Q1012","updated":"2026-04-11T04:53:24Z"}
