{"icao":"LPAR","metar":"LPAR 290900Z 26014G24KT 230V300 8000 BKN013 BKN025 17/16 Q1008","updated":"2026-01-29T09:40:48Z"}
