{"icao":"LPOV","metar":"LPOV 260700Z VRB02KT CAVOK 05/05 Q1026","updated":"2025-11-26T07:18:13Z"}
