{"icao":"LPLA","metar":"LPLA 161400Z 19017G29KT 9999 SCT009 BKN015 17/14 Q1024","updated":"2026-02-16T14:39:37Z"}
