{"icao":"LPPS","metar":"LPPS 031000Z 07010KT 9999 SCT015 22/18 Q1025","updated":"2025-10-03T10:17:51Z"}
