{"icao":"LPAZ","metar":"LPAZ 082000Z 05014KT 9999 FEW022 SCT030 13/08 Q1029","updated":"2026-03-08T20:25:07Z"}
