{"icao":"LPPR","metar":"LPPR 112100Z 18014KT 7000 -DZRA BKN006 BKN012 13/13 Q1022","updated":"2026-01-11T21:17:32Z"}
