{"icao":"KJFK","metar":"KJFK 280751Z 33006KT 10SM FEW040 SCT250 M04/M08 A3023 RMK AO2 SLP237 T10441078 $","updated":"2025-12-28T08:25:50Z"}
