{"icao":"KORD","metar":"KORD 311351Z 29007KT 10SM FEW065 FEW250 06/02 A2986 RMK AO2 SLP115 T00610022 $","updated":"2025-10-31T14:18:42Z"}
