{"icao":"LPMR","metar":"LPMR 161900Z 28004KT 4000 BR NSC 15/14 Q1015","updated":"2025-10-16T19:12:40Z"}
