{"icao":"KORD","metar":"KORD 300651Z 29009KT 10SM BKN018 M10/M14 A3020 RMK AO2 SLP239 T11001144","updated":"2025-12-30T07:21:59Z"}
