{"icao":"LPMT","metar":"LPMT 091400Z 03006KT 350V060 9999 FEW025 24/15 Q1019","updated":"2025-10-09T14:17:36Z"}
