{"icao":"KORD","metar":"KORD 190451Z 24006KT 5SM -RA BR FEW015 BKN037 OVC055 16/14 A2956 RMK AO2 SLP007 P0008 T01610144 $","updated":"2025-10-19T05:17:39Z"}
