{"icao":"LPPR","metar":"LPPR 221500Z 29005KT 270V340 7000 3000W BCFG FEW002 14/12 Q1011","updated":"2026-03-22T15:24:53Z"}
