{"icao":"LPPT","metar":"LPPT 211800Z 26008KT 220V310 9999 FEW008 SCT014 17/14 Q1006","updated":"2026-04-21T18:06:39Z"}
