{"icao":"LPAZ","metar":"LPAZ 092130Z 04009KT 010V070 9999 FEW010 BKN015 15/12 Q1032","updated":"2026-04-09T21:43:40Z"}
