{"icao":"LPMA","metar":"LPMA 080800Z 36007KT 320V030 9999 SCT015 15/10 Q1034","updated":"2026-01-08T08:29:28Z"}
