{"icao":"LPPS","metar":"LPPS 090600Z 06008KT 030V100 9999 SCT015 BKN030 21/17 Q1024","updated":"2025-10-09T06:27:36Z"}
