{"icao":"LPMR","metar":"LPMR 221400Z 28008KT 250V310 9999 FEW045 19/09 Q1014","updated":"2026-04-22T15:11:32Z"}
