{"icao":"LPBJ","metar":"LPBJ 022100Z 31013KT 4000 1500N DZRA FEW008 FEW025TCU OVC035 10/09 Q1019 RESHRA","updated":"2025-12-02T21:18:32Z"}
