{"icao":"LPCS","metar":"LPCS 131830Z 32022G37KT 9999 FEW012 FEW018CB SCT024 11/10 Q1011 RESHRA","updated":"2026-02-13T18:46:58Z"}
