{"icao":"LPPD","metar":"LPPD 280300Z 21010KT 9999 FEW018 16/12 Q1021","updated":"2026-05-28T03:28:41Z"}
