{"icao":"LPFL","metar":"LPFL 011100Z 19007KT 140V230 9999 FEW006 SCT015 25/21 Q1018","updated":"2025-10-01T11:15:46Z"}
