{"icao":"LPPS","metar":"LPPS 122000Z 28011KT 9999 FEW014 FEW016CB 20/16 Q1003","updated":"2025-11-12T20:21:11Z"}
