{"icao":"LPLA","metar":"LPLA 142100Z 21013G24KT 160V260 9999 FEW022 16/09 Q1029","updated":"2026-02-14T21:22:49Z"}
