{"icao":"LPMT","metar":"LPMT 240900Z 24003KT 9999 -RA SCT008 BKN015 BKN025 21/21 Q1018","updated":"2025-10-24T09:19:41Z"}
