{"icao":"KORD","metar":"KORD 102151Z 30006KT 10SM SCT029 BKN041 BKN055 12/04 A3029 RMK AO2 SLP261 T01170044","updated":"2026-04-10T22:36:02Z"}
