{"icao":"KLAX","metar":"KLAX 281153Z 00000KT 10SM OVC021 17/14 A2990 RMK AO2 SLP123 T01720139 10178 20172 56006","updated":"2026-06-28T12:14:55Z"}
