{"icao":"LPMA","metar":"LPMA 181800Z 05009KT CAVOK 24/20 Q1018","updated":"2025-09-18T18:25:45Z"}
