{"icao":"KORD","metar":"KORD 282051Z 29010KT 10SM FEW035 M01/M11 A3036 RMK AO2 SLP289 T10061111 53000 $","updated":"2025-11-28T21:16:24Z"}
