{"icao":"KLAX","metar":"KLAX 271553Z VRB05KT 10SM SCT025 OVC032 21/15 A2991 RMK AO2 SLP127 T02060150 $","updated":"2025-09-27T16:19:16Z"}
