{"icao":"LPFL","metar":"LPFL 180800Z 31008KT 270V350 9999 SCT017 SCT035 20/15 Q1015","updated":"2025-09-18T08:22:07Z"}
