{"icao":"KJFK","metar":"KJFK 210451Z 05004KT 10SM BKN250 15/11 A3031 RMK AO2 SLP262 T01500111 402330144 $","updated":"2025-09-21T05:16:26Z"}
