{"icao":"KLAX","metar":"KLAX 150644Z 12007KT 3SM BR SCT005 14/13 A2997 RMK AO2 VIS W 2 T01440133 $","updated":"2026-03-15T06:55:34Z"}
