{"icao":"KORD","metar":"KORD 141326Z 01020G36KT 1/2SM R10L/2200V4000FT SN FZFG BKN004 OVC029 M01/M02 A2965 RMK AO2 PK WND 02037/1314 P0000 T10111022 $","updated":"2026-01-14T13:39:35Z"}
