{"icao":"LPPT","metar":"LPPT 082000Z 35013KT 310V010 9999 BKN014 19/15 Q1021","updated":"2026-06-08T20:12:09Z"}
