{"icao":"KJFK","metar":"KJFK 291351Z 15008KT 10SM FEW100 FEW160 SCT250 06/M04 A3062 RMK AO2 SLP367 T00561039 $","updated":"2026-03-29T14:33:02Z"}
