{"icao":"KJFK","metar":"KJFK 280551Z 03009KT 10SM FEW250 08/03 A3035 RMK AO2 SLP276 T00780028 10100 20078 56007","updated":"2025-10-28T06:28:29Z"}
