{"icao":"KJFK","metar":"KJFK 241551Z 34010KT 10SM FEW050 BKN200 BKN250 M11/M23 A3067 RMK AO2 SLP386 T11061233 $","updated":"2026-01-24T16:23:44Z"}
