{"icao":"LPMR","metar":"LPMR 052100Z 27008KT 240V300 9999 SCT024 BKN032 15/10 Q1012","updated":"2025-11-05T21:17:06Z"}
