{"icao":"KLAX","metar":"KLAX 100853Z 25005KT 10SM BKN008 BKN012 16/13 A2996 RMK AO2 SLP143 T01560133 50001 $","updated":"2026-04-10T09:07:42Z"}
