{"icao":"LPMA","metar":"LPMA 240600Z 01009KT 9999 FEW016 18/14 Q1025","updated":"2025-11-24T06:29:53Z"}
