{"icao":"LPPT","metar":"LPPT 161430Z 07006KT 030V190 CAVOK 21/10 Q1019","updated":"2026-03-16T14:58:11Z"}
