{"icao":"LPBJ","metar":"LPBJ 041800Z 36004KT CAVOK 13/09 Q1003","updated":"2026-01-04T18:27:26Z"}
