{"icao":"KJFK","metar":"KJFK 241151Z 22003KT 8SM FEW008 FEW032 BKN090 BKN250 22/20 A3003 RMK AO2 SLP168 60004 70004 T02170200 10222 20200 51010 $","updated":"2025-09-24T12:36:45Z"}
