{"icao":"KLAX","metar":"KLAX 281253Z 09003KT 10SM SCT200 BKN250 13/M01 A3023 RMK AO2 SLP234 T01281006","updated":"2026-01-28T13:48:27Z"}
