{"icao":"LPAZ","metar":"LPAZ 132200Z 30022KT 9999 FEW016 SCT025 16/11 Q1008","updated":"2025-11-13T22:18:02Z"}
