{"icao":"LPLA","metar":"LPLA 271100Z 09005KT 360V160 9999 4000S -SHRA FEW005 BKN020 BKN035 16/15 Q1020 RESHRA","updated":"2025-10-27T11:16:19Z"}
