{"icao":"LPFL","metar":"LPFL 251930Z 34005KT 300V010 6000 -RA FEW007 SCT009 15/14 Q1017","updated":"2026-05-25T22:07:02Z"}
