{"icao":"LPAZ","metar":"LPAZ 012200Z 29029G39KT 9999 FEW028 13/07 Q1013","updated":"2026-02-01T22:22:52Z"}
