{"icao":"LPMA","metar":"LPMA 032000Z 03010KT 9999 SCT015 22/18 Q1025","updated":"2025-10-03T20:18:32Z"}
