{"icao":"LPCS","metar":"LPCS 181100Z 14007KT CAVOK 25/14 Q1017","updated":"2025-10-18T11:13:10Z"}
