{"icao":"LPMT","metar":"LPMT 100900Z 23011KT 2000 -RADZ BR BKN003 15/15 Q1016","updated":"2026-02-10T09:59:36Z"}
