{"icao":"LPOV","metar":"LPOV 261100Z 36010KT CAVOK 13/07 Q1027","updated":"2025-11-26T11:16:41Z"}
