{"icao":"LPCS","metar":"LPCS 052000Z 35012KT 9999 FEW022 14/09 Q1017","updated":"2026-05-05T20:06:10Z"}
