{"icao":"LPBJ","metar":"LPBJ 300200Z 06008KT CAVOK 11/M02 Q1028","updated":"2026-03-30T02:25:17Z"}
