{"icao":"KJFK","metar":"KJFK 312151Z 03008KT 10SM FEW035 SCT170 BKN250 M06/M14 A3010 RMK AO2 SLP193 T10561144 $","updated":"2026-01-31T22:21:32Z"}
