{"icao":"LPAZ","metar":"LPAZ 011330Z 28018KT 9000 BKN003 16/15 Q1024","updated":"2026-03-01T13:37:32Z"}
