{"icao":"LPPT","metar":"LPPT 152200Z 33008KT CAVOK 12/09 Q1020","updated":"2026-03-15T22:26:40Z"}
