{"icao":"LPAZ","metar":"LPAZ 041100Z 03010KT 9999 FEW016 BKN022 15/11 Q1020","updated":"2026-01-04T11:15:55Z"}
