{"icao":"KORD","metar":"KORD 090651Z 20018G32KT 10SM SCT055 BKN075 OVC090 16/06 A3000 RMK AO2 PK WND 20032/0650 WSHFT 0600 RAB29E42 SLP158 P0000 T01610056","updated":"2026-04-09T07:20:40Z"}
