{"icao":"LPMT","metar":"LPMT 122200Z 21016KT 4000 -RADZ BR BKN004 OVC010 15/15 Q1009","updated":"2026-02-12T22:31:14Z"}
