{"icao":"LPPD","metar":"LPPD 111530Z 23011KT 8000 FEW009 17/15 Q1018","updated":"2026-02-11T15:59:54Z"}
