{"icao":"LPLA","metar":"LPLA 042000Z 36005KT 320V050 9999 FEW025 SCT030 BKN040 14/08 Q1025","updated":"2026-01-04T20:21:20Z"}
