{"icao":"LPFR","metar":"LPFR 101600Z 23005KT 9999 FEW025 SCT035 19/13 Q1019","updated":"2025-11-10T16:24:50Z"}
