{"icao":"KJFK","metar":"KJFK 181751Z 28014G22KT 10SM FEW050 FEW080 BKN180 BKN230 08/M06 A3013 RMK AO2 PK WND 28026/1710 SLP203 T00831056 10083 20033 58014 $","updated":"2025-11-18T18:28:13Z"}
