{"icao":"KLAX","metar":"KLAX 090453Z 12006KT 5SM BR OVC008 18/16 A3001 RMK AO2 SLP160 VIS W 2 T01780156","updated":"2025-11-09T05:16:53Z"}
