{"icao":"LPMT","metar":"LPMT 301400Z 36012KT CAVOK 16/06 Q1017","updated":"2025-11-30T19:14:22Z"}
