{"icao":"LPMT","metar":"LPMT 290300Z 34004KT CAVOK 17/14 Q1019","updated":"2026-05-29T03:28:52Z"}
