{"icao":"KLAX","metar":"KLAX 010253Z 06010KT 10SM BKN026 OVC031 14/13 A2999 RMK AO2 SLP153 60000 T01440133 51006 $","updated":"2026-01-01T03:49:24Z"}
