{"icao":"LPBJ","metar":"LPBJ 030400Z 32003KT CAVOK 10/06 Q1020","updated":"2026-04-03T05:03:30Z"}
