{"icao":"LPBJ","metar":"LPBJ 231400Z 30010KT 280V350 9999 FEW030 BKN040 25/17 Q1019","updated":"2025-10-23T14:18:43Z"}
