{"icao":"LPLA","metar":"LPLA 220900Z VRB02KT 6000 -RA FEW008 SCT020 BKN035 14/13 Q1032","updated":"2025-11-22T09:17:24Z"}
