{"icao":"KLAX","metar":"KLAX 281253Z 09003KT 10SM CLR 08/06 A3015 RMK AO2 SLP207 T00830061 $","updated":"2025-12-28T13:28:45Z"}
