{"icao":"KJFK","metar":"KJFK 141851Z 31025G33KT 10SM FEW070 SCT250 11/M08 A3001 RMK AO2 PK WND 26037/1839 SLP161 T01111078","updated":"2026-03-14T19:25:58Z"}
