{"icao":"KLAX","metar":"KLAX 122053Z 27008KT 10SM FEW065 27/11 A3010 RMK AO2 SLP191 T02670106 58028 $","updated":"2026-03-12T21:31:12Z"}
