{"icao":"KJFK","metar":"KJFK 302151Z 22007KT 10SM -RA FEW038 SCT055 BKN070 14/10 A2975 RMK RAB46 SLP074 P0000 T01390100 ","updated":"2026-04-30T22:02:36Z"}
