{"icao":"LPLA","metar":"LPLA 260600Z 24011KT 210V270 9999 -RA SCT014 SCT020 BKN035 15/11 Q1003","updated":"2026-01-26T06:35:46Z"}
