{"icao":"LPBJ","metar":"LPBJ 112100Z 07003KT 9999 OVC015 10/09 Q1026","updated":"2026-01-11T21:17:36Z"}
