{"icao":"LPFR","metar":"LPFR 290730Z 24016KT 5000 -DZRA BR BKN004 BKN012 16/15 Q1012","updated":"2026-01-29T07:38:29Z"}
