{"icao":"LPAR","metar":"LPAR 101500Z VRB04KT 9999 FEW030 29/12 Q1019","updated":"2025-10-10T15:17:57Z"}
