{"icao":"LPCS","metar":"LPCS 021630Z 22005KT 190V250 9999 FEW008 SCT014 BKN025 14/12 Q1007","updated":"2026-03-02T16:43:21Z"}
