{"icao":"LPPT","metar":"LPPT 211800Z 30014KT CAVOK 25/16 Q1017","updated":"2026-06-21T18:18:42Z"}
