{"icao":"LPBJ","metar":"LPBJ 221500Z 22009KT 4000 -RA FEW020 BKN035 12/10 Q1008","updated":"2026-01-22T15:29:40Z"}
