{"icao":"LPMR","metar":"LPMR 071000Z 21012KT 170V240 8000 2500S -DZ SCT009 BKN014 FEW016TCU 18/16 Q1014","updated":"2025-11-07T10:20:02Z"}
