{"icao":"LPPT","metar":"LPPT 021030Z 22010KT 3000 -RA BR FEW006 SCT010 BKN026 16/15 Q1018","updated":"2026-05-02T10:50:14Z"}
