{"icao":"LPBJ","metar":"LPBJ 020500Z VRB01KT 9999 FEW025 07/06 Q1014","updated":"2026-03-02T05:51:34Z"}
