{"icao":"LPPT","metar":"LPPT 192030Z 30008KT CAVOK 19/10 Q1015","updated":"2026-04-19T20:36:10Z"}
