{"icao":"LPAZ","metar":"LPAZ 201230Z 27017KT 9000 FEW008 BKN016 16/15 Q1027","updated":"2026-01-20T12:48:02Z"}
