{"icao":"LPAZ","metar":"LPAZ 181730Z 16014KT 9999 SCT006 SCT033 18/15 Q1016","updated":"2026-04-18T17:35:14Z"}
