{"icao":"KJFK","metar":"KJFK 220251Z 12003KT 10SM FEW028 FEW085 BKN180 BKN250 14/12 A3029 RMK AO2 SLP255 60000 T01440122 51013","updated":"2026-05-22T03:32:48Z"}
