{"icao":"LPMR","metar":"LPMR 101800Z 32009KT CAVOK 18/13 Q1012","updated":"2026-04-10T18:51:03Z"}
