{"icao":"LPBJ","metar":"LPBJ 071703Z 24011KT 4000 -RA FEW028CB BKN030 19/15 Q1016","updated":"2025-11-07T17:16:20Z"}
