{"icao":"LPST","metar":"LPST 261300Z 23016KT 200V260 9999 BKN008 BKN016 FEW025TCU 16/13 Q1013","updated":"2026-01-26T13:42:57Z"}
