{"icao":"LPPR","metar":"LPPR 242230Z 36003KT 320V040 9999 SCT006 14/13 Q1020","updated":"2026-04-24T22:37:03Z"}
