{"icao":"LPMR","metar":"LPMR 192300Z 28006KT 1500 -DZ BR SCT003 OVC005 18/18 Q1014","updated":"2025-10-19T23:15:33Z"}
