{"icao":"LPBJ","metar":"LPBJ 151508Z 21009KT 4000 -RA BKN022 14/12 Q1010","updated":"2025-12-15T15:23:26Z"}
