{"icao":"LPPT","metar":"LPPT 010700Z 20013KT 160V230 3000 RADZ BR SCT004 BKN007 FEW015CB 18/18 Q1014","updated":"2025-11-01T07:15:34Z"}
