{"icao":"LPAZ","metar":"LPAZ 281500Z 02015KT 350V050 9999 FEW007 BKN011 17/15 Q1024","updated":"2025-11-28T15:19:08Z"}
