{"icao":"LPPS","metar":"LPPS 202130Z 28016KT 9999 FEW010 17/15 Q1005","updated":"2026-04-20T21:44:49Z"}
