{"icao":"LPMA","metar":"LPMA 132300Z 29005KT 260V320 9999 BKN015 17/12 Q1010","updated":"2025-11-13T23:18:00Z"}
