{"icao":"LPST","metar":"LPST 171500Z 29008KT 9999 FEW030 26/13 Q1014","updated":"2025-10-17T15:17:56Z"}
