{"icao":"KJFK","metar":"KJFK 210251Z 32009KT 10SM FEW110 BKN180 BKN250 22/18 A3002 RMK AO2 SLP166 60012 T02220183 53008","updated":"2026-05-21T03:34:26Z"}
