{"icao":"LPAZ","metar":"LPAZ 040130Z 23004KT 200V260 9999 FEW032 OVC038 15/09 Q1024","updated":"2026-04-04T02:03:52Z"}
