{"icao":"LPPT","metar":"LPPT 171500Z 34009KT 310V010 3000 +SHRA FEW014 BKN022 FEW025CB 15/13 Q1014","updated":"2025-11-17T15:20:37Z"}
