{"icao":"KORD","metar":"KORD 092003Z 32006KT 10SM SCT020 06/01 A3005 RMK AO2 T00610011","updated":"2026-01-09T20:23:27Z"}
