{"icao":"LPPD","metar":"LPPD 181230Z 33011KT 9999 FEW020 15/08 Q1026","updated":"2025-12-18T12:42:42Z"}
