{"icao":"LPFR","metar":"LPFR 251400Z 12006KT 080V150 CAVOK 25/16 Q1017","updated":"2025-09-25T14:17:58Z"}
