{"icao":"KORD","metar":"KORD 090551Z 02005KT 10SM FEW035 11/06 A3042 RMK AO2 SLP303 T01110056 10139 20111 401780089 58001 $","updated":"2025-10-09T06:27:36Z"}
