{"icao":"LPPR","metar":"LPPR 042200Z 18017KT 9999 BKN007 BKN013 13/12 Q0993","updated":"2026-02-04T22:26:31Z"}
