{"icao":"KORD","metar":"KORD 060351Z 22008KT 10SM OVC021 M02/M05 A2979 RMK AO2 SLP096 T10171050 $","updated":"2026-02-06T04:20:47Z"}
