{"icao":"LPPR","metar":"LPPR 012200Z 16002KT 9000 FEW022 SCT030 13/13 Q1022","updated":"2025-11-01T22:15:07Z"}
