{"icao":"KORD","metar":"KORD 010951Z 31006KT 10SM FEW250 M11/M17 A3005 RMK AO2 SLP187 T11111167","updated":"2026-01-01T10:21:28Z"}
