{"icao":"LPPT","metar":"LPPT 140500Z 28003KT 240V300 9999 FEW008 BKN010 14/13 Q1022","updated":"2026-04-14T05:21:53Z"}
