{"icao":"LPFR","metar":"LPFR 151600Z 24007KT CAVOK 25/18 Q1018","updated":"2025-09-15T16:21:30Z"}
