{"icao":"LPHR","metar":"LPHR 141700Z 26015KT 9999 FEW006 SCT011 BKN040 17/16 Q1020","updated":"2026-01-14T17:25:45Z"}
