{"icao":"LPPD","metar":"LPPD 262030Z 01004KT 330V090 9999 FEW020 16/12 Q1032 WS R30","updated":"2026-02-26T20:36:02Z"}
