{"icao":"LPAZ","metar":"LPAZ 071500Z 25010KT 9000 FEW006 SCT030 17/15 Q1016","updated":"2026-02-07T15:23:30Z"}
