{"icao":"LPPS","metar":"LPPS 301630Z 06013KT 020V090 9999 FEW015 18/11 Q1024","updated":"2026-03-30T16:54:25Z"}
