{"icao":"LPHR","metar":"LPHR 131600Z 26011KT 230V290 9999 FEW018 21/16 Q1021","updated":"2026-06-13T16:22:04Z"}
