{"icao":"LPMA","metar":"LPMA 302200Z 01009KT 320V040 9999 FEW015 21/14 Q1022","updated":"2025-09-30T22:15:55Z"}
