{"icao":"LPFL","metar":"LPFL 141500Z 34009KT 300V360 9999 FEW022 BKN032 18/13 Q1033","updated":"2026-03-14T15:27:31Z"}
