{"icao":"KJFK","metar":"KJFK 020051Z 36004KT 10SM FEW070 BKN250 11/M01 A3008 RMK AO2 SLP185 T01111006 $","updated":"2025-11-02T01:27:41Z"}
