{"icao":"LPMA","metar":"LPMA 251600Z 35008KT 290V020 9999 FEW016 19/10 Q1018","updated":"2025-12-25T16:24:18Z"}
