{"icao":"KORD","metar":"KORD 112051Z 25011G17KT 10SM BKN028 BKN250 01/M06 A3035 RMK AO2 SLP285 T00061061 51007 $","updated":"2026-01-11T21:18:05Z"}
