{"icao":"LPPD","metar":"LPPD 251830Z 04007KT 010V080 9999 FEW018 BKN030 15/10 Q1029","updated":"2026-03-25T19:01:09Z"}
