{"icao":"KLAX","metar":"KLAX 142253Z 24012KT 10SM FEW020 23/17 A2983 RMK AO2 SLP098 T02280172 $","updated":"2025-09-14T23:14:30Z"}
