{"icao":"LPFR","metar":"LPFR 011230Z 24010KT 9999 FEW012 BKN018 16/14 Q1016","updated":"2026-02-01T12:47:12Z"}
