{"icao":"KLAX","metar":"KLAX 151253Z 00000KT 10SM FEW008 SCT250 13/12 A3001 RMK AO2 SLP161 T01330117","updated":"2026-04-15T13:53:16Z"}
