{"icao":"KORD","metar":"KORD 290351Z 17003KT 10SM BKN130 BKN160 OVC250 M03/M09 A3036 RMK AO2 SLP289 T10281094 $","updated":"2025-11-29T04:22:01Z"}
