{"icao":"LPMA","metar":"LPMA 272100Z 01014KT 320V030 9999 BKN014 16/13 Q1027","updated":"2026-02-27T21:27:59Z"}
