{"icao":"LPFR","metar":"LPFR 272200Z 30004KT 220V030 CAVOK 16/11 Q1022","updated":"2026-02-27T22:21:26Z"}
