{"icao":"LPAZ","metar":"LPAZ 131300Z 23003KT 160V300 9999 FEW015 22/18 Q1017","updated":"2025-10-13T13:28:59Z"}
