{"icao":"LPGR","metar":"LPGR 111000Z 06004KT 020V090 7000 BKN004 19/19 Q1026","updated":"2026-06-11T10:20:38Z"}
