{"icao":"LPPD","metar":"LPPD 201800Z 05012KT 9999 FEW025 BKN040 17/11 Q1029","updated":"2025-11-20T18:27:59Z"}
