{"icao":"LPMT","metar":"LPMT 130300Z 17015KT 6000 -RA SCT016 BKN030 14/13 Q1008","updated":"2026-01-13T03:26:47Z"}
