{"icao":"LPLA","metar":"LPLA 221100Z 18011KT 9999 -RA FEW023 22/16 Q1023","updated":"2025-09-22T11:15:21Z"}
