{"icao":"KORD","metar":"KORD 250351Z 35009KT 10SM FEW018 FEW035 FEW045 16/14 A2999 RMK AO2 SLP152 T01610144","updated":"2025-09-25T04:20:43Z"}
