{"icao":"LPAZ","metar":"LPAZ 052200Z 28028KT 9999 FEW024 SCT035 13/07 Q1011","updated":"2026-02-05T22:25:12Z"}
