{"icao":"LPAZ","metar":"LPAZ 232230Z 24014KT 7000 FEW019 SCT040 17/15 Q1012","updated":"2026-02-23T22:39:03Z"}
