{"icao":"LPMR","metar":"LPMR 091000Z 36004KT CAVOK 16/09 Q1018","updated":"2026-04-09T10:57:15Z"}
