{"icao":"LPMR","metar":"LPMR 011500Z 32015KT CAVOK 29/16 Q1018","updated":"2026-07-01T15:39:47Z"}
