{"icao":"LPFR","metar":"LPFR 141800Z 27003KT 9999 FEW022 14/11 Q1020","updated":"2026-01-14T18:31:49Z"}
