{"icao":"LPAZ","metar":"LPAZ 071230Z 30006KT 9999 FEW017 19/16 Q1013","updated":"2025-12-07T12:34:54Z"}
