{"icao":"KORD","metar":"KORD 011051Z 02021G27KT 10SM BKN014 OVC130 02/M01 A3014 RMK AO2 PK WND 03029/1030 SLP211 T00221011 $","updated":"2026-04-01T10:54:39Z"}
