{"icao":"LPPD","metar":"LPPD 171300Z 35009KT 310V020 9999 VCSH SCT016 FEW025CB 12/06 Q1015","updated":"2026-03-17T13:09:34Z"}
