{"icao":"LPLA","metar":"LPLA 111800Z 36006KT 320V060 9999 SCT022 SCT035 15/10 Q1023","updated":"2026-05-11T18:57:23Z"}
