{"icao":"KJFK","metar":"KJFK 271051Z 00000KT 10SM BKN100 OVC130 23/20 A3003 RMK RAE03 SLP168 P0000 T02280200 $ ","updated":"2026-06-27T11:25:39Z"}
