{"icao":"LPPT","metar":"LPPT 202100Z 22007KT 9999 FEW012 SCT036 12/11 Q1016","updated":"2026-01-20T21:19:38Z"}
