{"icao":"LPBJ","metar":"LPBJ 200800Z 10004KT CAVOK 14/11 Q1013","updated":"2026-04-20T08:04:48Z"}
