{"icao":"KORD","metar":"KORD 150651Z 21010G17KT 10SM BKN250 16/12 A2969 RMK AO2 SLP051 T01610122 $","updated":"2025-11-15T07:15:36Z"}
