{"icao":"LPAZ","metar":"LPAZ 011330Z 27031G42KT 9000 FEW022 16/11 Q1009","updated":"2026-02-01T13:41:59Z"}
