{"icao":"LPMA","metar":"LPMA 300200Z 34023G33KT 300V010 9999 FEW015 16/10 Q1025","updated":"2026-03-30T02:25:31Z"}
