{"icao":"LPOV","metar":"LPOV 271200Z 30006KT 250V340 CAVOK 28/13 Q1019","updated":"2026-05-27T12:19:01Z"}
