{"icao":"LPCS","metar":"LPCS 251000Z 26013KT 9999 FEW006 SCT012 FEW018TCU BKN040 14/14 Q1017","updated":"2026-01-25T10:20:37Z"}
