{"icao":"KORD","metar":"KORD 132151Z 27016G38KT 10SM SCT055 08/M06 A2978 RMK AO2 PK WND 28042/2054 SLP088 T00781061 $","updated":"2026-03-13T22:27:21Z"}
