{"icao":"LPFR","metar":"LPFR 081500Z 02007KT 340V050 CAVOK 22/08 Q1020","updated":"2025-11-08T15:15:45Z"}
