{"icao":"LPOV","metar":"LPOV 041700Z 28006KT 250V310 9999 FEW020 SCT028 15/09 Q1019","updated":"2025-12-04T17:21:27Z"}
