{"icao":"LPFR","metar":"LPFR 112100Z 32019KT CAVOK 16/08 Q1013","updated":"2026-04-11T21:30:57Z"}
