{"icao":"KORD","metar":"KORD 260651Z 30012G17KT 10SM FEW032 BKN049 M15/M24 A3019 RMK AO2 SLP236 T11501239 $","updated":"2026-01-26T07:27:24Z"}
