{"icao":"LPMA","metar":"LPMA 241500Z 02011KT 350V060 9999 SCT015 19/13 Q1018","updated":"2026-04-24T15:06:39Z"}
