{"icao":"KORD","metar":"KORD 200751Z 26006KT 10SM CLR 07/01 A2995 RMK AO2 SLP144 T00670011 $","updated":"2025-10-20T08:25:04Z"}
