{"icao":"LPAZ","metar":"LPAZ 300830Z 28007KT 8000 FEW004 16/15 Q1020","updated":"2026-01-30T08:37:30Z"}
