{"icao":"LPAZ","metar":"LPAZ 020700Z 04004KT 010V070 9999 FEW012 BKN020 13/10 Q1029","updated":"2026-04-02T07:10:49Z"}
