{"icao":"KJFK","metar":"KJFK 050151Z 19013KT 10SM FEW250 13/10 A2987 RMK SLP115 T01330100 ","updated":"2026-05-05T02:37:59Z"}
