{"icao":"KJFK","metar":"KJFK 181651Z 15008KT 10SM FEW250 08/04 A3031 RMK AO2 SLP264 T00780039","updated":"2025-12-18T17:22:18Z"}
