{"icao":"KLAX","metar":"KLAX 132053Z 25007KT 2 1/2SM HZ FEW004 SCT007 BKN280 16/13 A3000 RMK AO2 SLP160 VIS SW-W 1 3/4 T01610128 58021 $","updated":"2025-12-13T21:16:32Z"}
