{"icao":"KJFK","metar":"KJFK 202051Z 29016G27KT 10SM SCT080 SCT250 29/06 A2975 RMK AO2 PK WND 32027/2024 SLP074 T02890061 55001 $","updated":"2026-06-20T21:17:08Z"}
