{"icao":"LPBJ","metar":"LPBJ 181300Z 17009KT 120V210 CAVOK 28/09 Q1016","updated":"2026-04-18T14:03:27Z"}
