{"icao":"LPPS","metar":"LPPS 072330Z 33016KT 9999 SCT015 14/07 Q1024","updated":"2026-04-07T23:35:28Z"}
