{"icao":"LPOV","metar":"LPOV 071300Z 21018KT 8000 SCT011 BKN016 OVC028 14/12 Q0995","updated":"2026-02-07T13:42:32Z"}
