{"icao":"LPBJ","metar":"LPBJ 021300Z VRB03KT 9999 FEW045 30/13 Q1020","updated":"2025-10-02T13:25:14Z"}
