{"icao":"KJFK","metar":"KJFK 282151Z 03007KT 10SM FEW030 BKN050 BKN250 11/04 A3022 RMK AO2 SLP232 T01110039","updated":"2025-10-28T22:17:37Z"}
