{"icao":"LPCS","metar":"LPCS 232030Z 01011KT CAVOK 16/10 Q1016","updated":"2026-03-23T20:36:29Z"}
