{"icao":"LPFL","metar":"LPFL 221700Z 17014KT 130V200 9999 FEW017 19/14 Q1019","updated":"2025-12-22T17:17:50Z"}
