{"icao":"LPBJ","metar":"LPBJ 182100Z 36002KT 310V040 CAVOK 19/12 Q1017","updated":"2025-10-18T21:14:07Z"}
