{"icao":"KORD","metar":"KORD 152051Z 29015G23KT 10SM FEW060 FEW160 FEW250 21/08 A2951 RMK AO2 PK WND 27026/1957 SLP989 T02110078 53004 $","updated":"2025-11-15T21:14:44Z"}
