{"icao":"LPHR","metar":"LPHR 191400Z 05010KT 010V100 9999 FEW020 18/10 Q1026","updated":"2025-11-19T14:18:51Z"}
