{"icao":"LPPD","metar":"LPPD 100230Z 35015KT 9999 SCT018 FEW020CB BKN030 14/10 Q1018","updated":"2026-05-10T02:49:44Z"}
