{"icao":"LPPT","metar":"LPPT 222000Z 31003KT 260V030 9999 FEW012 SCT018 12/11 Q1015","updated":"2025-12-22T20:21:06Z"}
