{"icao":"LPPT","metar":"LPPT 132030Z 33020G35KT 6000 -SHRA SCT018 FEW025CB 09/06 Q1014 WS R02","updated":"2026-02-13T20:36:37Z"}
