{"icao":"LPFL","metar":"LPFL 260900Z 18023KT 9999 FEW010 SCT015 18/16 Q1019","updated":"2025-11-26T09:21:51Z"}
