{"icao":"LPAZ","metar":"LPAZ 011000Z 18005KT 5000 -SHRA FEW003 SCT006 BKN015 21/20 Q1023","updated":"2025-10-01T10:18:46Z"}
