{"icao":"LPPT","metar":"LPPT 160100Z 31003KT CAVOK 20/09 Q1016","updated":"2025-10-16T01:19:45Z"}
