{"icao":"LPLA","metar":"LPLA 291300Z 23012KT 200V260 9999 FEW030 17/10 Q1013","updated":"2026-01-29T13:59:42Z"}
