{"icao":"LPPR","metar":"LPPR 281000Z 36007KT 330V030 9999 SCT020 24/17 Q1023","updated":"2026-06-28T10:25:46Z"}
