{"icao":"LPOV","metar":"LPOV 171200Z 27006KT 230V290 CAVOK 21/10 Q1009","updated":"2026-03-17T14:54:43Z"}
