{"icao":"KORD","metar":"KORD 260051Z 11006KT 10SM BKN080 OVC100 11/04 A3034 RMK AO2 SLP280 T01060044 $","updated":"2025-10-26T01:26:27Z"}
