{"icao":"LPMR","metar":"LPMR 261500Z 22016G27KT 190V250 8000 BKN009 OVC022 16/13 Q1009","updated":"2026-01-26T15:27:49Z"}
