{"icao":"LPPS","metar":"LPPS 181830Z 36013KT 9999 SCT015 18/14 Q1024","updated":"2026-05-18T18:50:19Z"}
