{"icao":"LPBJ","metar":"LPBJ 031200Z 17008KT 130V200 CAVOK 21/08 Q1023","updated":"2025-11-03T12:38:52Z"}
