{"icao":"LPFR","metar":"LPFR 181330Z 10012KT CAVOK 22/12 Q1016","updated":"2026-04-18T14:03:24Z"}
