{"icao":"LPAR","metar":"LPAR 230900Z 25004KT 9999 FEW018 FEW022CB 09/07 Q1004","updated":"2026-01-23T09:28:41Z"}
