{"icao":"LPPD","metar":"LPPD 302200Z 20013G23KT 170V240 9000 SCT005 BKN008 16/16 Q1019","updated":"2026-01-30T22:24:14Z"}
