{"icao":"LPMA","metar":"LPMA 160100Z 02019KT 9999 SCT016 22/18 Q1022","updated":"2025-09-16T01:16:56Z"}
