{"icao":"KLAX","metar":"KLAX 301053Z 00000KT 1/16SM R25L/1800V3500FT FG VV001 14/13 A2994 RMK AO2 SLP136 T01390133 $","updated":"2026-03-30T11:00:48Z"}
