{"icao":"LPFR","metar":"LPFR 251230Z 11011KT 9999 FEW020 18/14 Q1016","updated":"2026-02-25T13:02:08Z"}
