{"icao":"LPPR","metar":"LPPR 200500Z 01001KT CAVOK 14/14 Q1016","updated":"2026-06-20T05:11:56Z"}
