{"icao":"LPFL","metar":"LPFL 241100Z 16005KT 0300 FG VV/// 18/17 Q1021","updated":"2026-05-24T11:15:06Z"}
