{"icao":"KJFK","metar":"KJFK 051551Z 14005KT 10SM BKN075 BKN100 OVC250 01/M07 A3024 RMK AO2 SLP239 T00061067 $","updated":"2026-01-05T16:26:38Z"}
