{"icao":"KJFK","metar":"KJFK 230651Z 06007KT 10SM FEW100 BKN170 BKN230 13/03 A3039 RMK AO2 SLP292 T01330033","updated":"2026-05-23T07:30:21Z"}
