{"icao":"LPMR","metar":"LPMR 210700Z 19010KT 2000 RA BR BKN008 OVC022 13/12 Q1006","updated":"2026-01-21T07:27:20Z"}
