{"icao":"LPOV","metar":"LPOV 311500Z 35016KT CAVOK 21/15 Q1021","updated":"2026-05-31T16:06:16Z"}
