{"icao":"LPPT","metar":"LPPT 310700Z 19015KT 5000 -RADZ FEW008 BKN015 18/17 Q1012","updated":"2025-10-31T07:16:47Z"}
