{"icao":"LPPS","metar":"LPPS 292100Z 34009KT 9999 FEW015 SCT030 21/14 Q1018","updated":"2025-10-29T21:16:51Z"}
