{"icao":"LPMR","metar":"LPMR 222200Z 28005KT 8000 SCT009 19/18 Q1016","updated":"2026-06-22T22:45:55Z"}
