{"icao":"LPMR","metar":"LPMR 040600Z 13014G24KT CAVOK 15/10 Q1015 RMK WIND RWY18 14009KT PK 13024/55 RH71 BKN130 BLU","updated":"2025-11-04T06:28:13Z"}
