{"icao":"LPFR","metar":"LPFR 171400Z 25010KT 9999 FEW018 FEW020CB 13/06 Q1012","updated":"2026-01-17T14:17:50Z"}
