{"icao":"LPPT","metar":"LPPT 260700Z 31008KT CAVOK 18/02 Q1018","updated":"2025-09-26T07:17:00Z"}
