{"icao":"LPAZ","metar":"LPAZ 150330Z 26022KT 9000 -RA SCT008 BKN010 17/16 Q1022","updated":"2026-01-15T03:39:48Z"}
