{"icao":"KORD","metar":"KORD 131551Z 26023G39KT 10SM OVC033 03/M04 A2953 RMK AO2 PK WND 23047/1510 SLP005 T00331039 $","updated":"2026-03-13T16:38:36Z"}
