{"icao":"LPMR","metar":"LPMR 271600Z 12005KT 070V160 9999 FEW045 24/11 Q1019","updated":"2025-10-27T16:24:01Z"}
