{"icao":"LPPI","metar":"LPPI 141330Z 23014KT 190V260 9999 FEW025 23/15 Q1021","updated":"2026-06-14T14:04:14Z"}
