{"icao":"KJFK","metar":"KJFK 071451Z 18006KT 1 1/4SM -DZ BR OVC004 04/03 A3025 RMK AO2 TWR VIS 1 1/2 SLP242 P0000 60000 T00390033 58009","updated":"2026-03-07T15:22:03Z"}
