{"icao":"KJFK","metar":"KJFK 090651Z 09003KT 10SM SCT250 01/01 A3031 RMK AO2 SLP263 T00110006 $","updated":"2026-01-09T07:24:58Z"}
