{"icao":"LPFL","metar":"LPFL 071000Z 18004KT 140V240 9999 FEW021 FEW023TCU 23/18 Q1020","updated":"2025-10-07T10:18:47Z"}
