{"icao":"KLAX","metar":"KLAX 300353Z 31004KT 10SM CLR 19/01 A3016 RMK AO2 SLP211 T01940011 $","updated":"2026-01-30T04:10:19Z"}
