{"icao":"LPPT","metar":"LPPT 071230Z 22015KT 7000 -RADZ SCT006 BKN010 19/18 Q1015","updated":"2025-11-07T12:37:00Z"}
