{"icao":"LPHR","metar":"LPHR 292300Z 28020KT 9000 -SHRA FEW008 SCT011 17/15 Q1015","updated":"2026-01-29T23:25:13Z"}
