{"icao":"LPMT","metar":"LPMT 180900Z 21007KT 170V240 9999 FEW026 BKN046 14/11 Q1021","updated":"2026-02-18T09:45:47Z"}
