{"icao":"LPAZ","metar":"LPAZ 252300Z 05020KT 020V080 9999 FEW015 BKN020 19/14 Q1018","updated":"2025-10-25T23:15:21Z"}
