{"icao":"LPST","metar":"LPST 310800Z 19004KT 3500 -RA SCT006 OVC014 18/17 Q1012","updated":"2025-10-31T08:23:34Z"}
