{"icao":"LPFR","metar":"LPFR 070130Z 32010KT CAVOK 06/02 Q1025","updated":"2026-01-07T01:40:21Z"}
