{"icao":"LPPD","metar":"LPPD 251230Z 17004KT 130V220 9999 FEW015 19/17 Q1028","updated":"2025-11-25T12:39:46Z"}
