{"icao":"LPAR","metar":"LPAR 161600Z 28009KT 9999 BKN035 17/11 Q1030","updated":"2026-02-16T16:41:14Z"}
