{"icao":"LPFR","metar":"LPFR 261900Z 08010KT 050V110 CAVOK 24/14 Q1020","updated":"2026-05-26T19:20:23Z"}
