{"icao":"LPFR","metar":"LPFR 150130Z 04006KT CAVOK 13/09 Q1014","updated":"2025-12-15T01:41:09Z"}
