{"icao":"LPBJ","metar":"LPBJ 151500Z 21011KT 9999 FEW022 BKN032 13/09 Q1017","updated":"2026-01-15T15:24:12Z"}
