{"icao":"KLAX","metar":"KLAX 201553Z 00000KT 10SM SCT016 BKN140 17/12 A3001 RMK AO2 SLP161 T01670122","updated":"2026-04-20T16:07:43Z"}
