{"icao":"LPHR","metar":"LPHR 102000Z 29025G38KT 6000 SHRA SCT007 BKN011 16/15 Q1008","updated":"2025-11-10T20:21:54Z"}
