{"icao":"LPPT","metar":"LPPT 101830Z 28008KT 260V330 CAVOK 21/11 Q1012","updated":"2026-04-10T18:51:00Z"}
