{"icao":"LPHR","metar":"LPHR 051800Z 21014KT 9999 FEW017 SCT033 BKN070 20/15 Q1014","updated":"2025-11-05T18:26:48Z"}
