{"icao":"LPHR","metar":"LPHR 201930Z 20017KT 6000 -RA SCT012 BKN027 BKN070 17/15 Q1018","updated":"2026-02-20T19:35:57Z"}
