{"icao":"KLAX","metar":"KLAX 270853Z 30006KT 10SM FEW018 FEW095 14/08 A3001 RMK AO2 SLP163 T01390083 56002 $","updated":"2025-12-27T09:19:13Z"}
