{"icao":"KORD","metar":"KORD 200451Z 08004KT 10SM FEW085 04/M03 A3025 RMK AO2 SLP247 T00441033 $","updated":"2026-04-20T05:39:54Z"}
