{"icao":"LPMA","metar":"LPMA 251200Z 17005KT 120V220 9999 BKN014 SCT030 23/18 Q1021","updated":"2026-06-25T12:19:38Z"}
