{"icao":"LPMA","metar":"LPMA 122000Z 23009KT 200V260 9999 SCT014 FEW016TCU 19/14 Q1003","updated":"2025-11-12T20:21:10Z"}
