{"icao":"LPFR","metar":"LPFR 291900Z 25014KT 7000 SCT006 BKN012 16/15 Q1015","updated":"2026-01-29T19:29:19Z"}
