{"icao":"LPBJ","metar":"LPBJ 282100Z 29005KT CAVOK 09/07 Q1022","updated":"2025-11-28T21:15:54Z"}
