{"icao":"LPFR","metar":"LPFR 181300Z 10014KT CAVOK 25/15 Q1017","updated":"2025-10-18T13:21:24Z"}
