{"icao":"LPLA","metar":"LPLA 312200Z 06004KT 020V090 9999 FEW008 21/18 Q1025","updated":"2026-05-31T22:05:13Z"}
