{"icao":"LPCS","metar":"LPCS 062100Z 35006KT 310V020 9999 FEW020 SCT035 BKN045 10/05 Q1025","updated":"2026-01-06T21:19:47Z"}
