{"icao":"LPLA","metar":"LPLA 111400Z 23010KT 210V270 9999 FEW015 SCT018 17/13 Q1032 RM K WIND RWY15 21011KT RH72 BLU","updated":"2026-03-11T14:07:25Z"}
