{"icao":"LPHR","metar":"LPHR 121700Z VRB07KT 9999 FEW030 22/13 Q1017","updated":"2025-10-12T17:13:20Z"}
