{"icao":"LPMR","metar":"LPMR 121300Z 16014KT 9999 FEW015 SCT035 13/10 Q1017","updated":"2026-01-12T13:41:13Z"}
