{"icao":"LPMA","metar":"LPMA 282100Z 01010KT 330V040 9999 SCT016 21/15 Q1024","updated":"2025-09-28T21:14:08Z"}
