{"icao":"LPPT","metar":"LPPT 180230Z 27003KT CAVOK 18/11 Q1015","updated":"2025-10-18T02:53:36Z"}
