{"icao":"LPBJ","metar":"LPBJ 120200Z 31016KT CAVOK 08/04 Q1015","updated":"2026-04-12T02:29:46Z"}
