{"icao":"LPPS","metar":"LPPS 152000Z 32009KT 9999 SCT015 19/14 Q1017","updated":"2025-11-15T20:18:19Z"}
