{"icao":"LPMR","metar":"LPMR 130500Z 35001KT 9999 FEW009 SCT012 10/10 Q1021","updated":"2026-04-13T05:40:20Z"}
