{"icao":"LPPR","metar":"LPPR 071100Z 13017KT 5000 RA BR BKN023 FEW025CB OVC030 09/07 Q0995","updated":"2026-02-07T11:20:27Z"}
