{"icao":"LPMA","metar":"LPMA 231430Z VRB05KT 9999 FEW014 18/13 Q1022","updated":"2026-02-23T14:43:51Z"}
