{"icao":"LPBJ","metar":"LPBJ 230600Z 20007KT 8000 BKN030 10/09 Q1012","updated":"2025-12-23T06:31:56Z"}
