{"icao":"LPMT","metar":"LPMT 301200Z 22007KT 180V260 9999 FEW030 22/14 Q1014","updated":"2025-10-30T12:38:01Z"}
