{"icao":"LPMA","metar":"LPMA 200230Z 23003KT 200V270 9999 FEW015 24/12 Q1019","updated":"2025-09-20T02:52:51Z"}
