{"icao":"KORD","metar":"KORD 072051Z 00000KT 10SM FEW030 FEW090 BKN130 BKN250 M04/M22 A3038 RMK AO2 SLP299 VIRGA SW T10441217 56019 $","updated":"2026-02-07T21:25:56Z"}
