{"icao":"LPPD","metar":"LPPD 092000Z 01003KT 320V040 9999 FEW018 BKN040 18/14 Q1024","updated":"2025-11-09T20:17:52Z"}
