{"icao":"KJFK","metar":"KJFK 082151Z 32018G24KT 10SM CLR M08/M19 A3016 RMK AO2 PK WND 31030/2132 SLP214 T10781194 $","updated":"2026-02-08T22:25:41Z"}
