{"icao":"KORD","metar":"KORD 081227Z 03007KT 10SM SCT013 OVC026 07/04 A2982 RMK AO2 T00720039 $","updated":"2025-11-08T12:33:22Z"}
