{"icao":"LPAZ","metar":"LPAZ 292200Z 26013KT 3000 BR BKN002 OVC008 16/16 Q1016","updated":"2026-01-29T22:26:44Z"}
