{"icao":"LPPR","metar":"LPPR 162000Z 36003KT 330V060 8000 FEW004 14/14 Q1015","updated":"2025-10-16T20:19:25Z"}
