{"icao":"KORD","metar":"KORD 041251Z 35006KT 10SM BKN031 M05/M12 A3018 RMK AO2 SLP230 T10501117 $","updated":"2026-01-04T13:28:50Z"}
