{"icao":"LPOV","metar":"LPOV 162100Z 34006KT CAVOK 15/13 Q1021","updated":"2025-09-16T21:15:09Z"}
