{"icao":"LPPD","metar":"LPPD 310400Z 26014KT 9999 FEW020 19/14 Q1008","updated":"2025-10-31T04:22:14Z"}
