{"icao":"LPOV","metar":"LPOV 090900Z 34016KT 9999 FEW015 17/13 Q1021","updated":"2026-06-09T09:40:08Z"}
