{"icao":"LPPT","metar":"LPPT 060800Z 32008KT 280V350 9999 4000NW -SHRA FEW015 FEW025CB BKN038 13/11 Q1018","updated":"2025-11-06T08:25:33Z"}
