{"icao":"LPHR","metar":"LPHR 170800Z 18009KT 9999 SCT013 BKN050 21/19 Q1011","updated":"2025-10-17T08:24:45Z"}
