{"icao":"LPOV","metar":"LPOV 150200Z 36009KT CAVOK 11/09 Q1018","updated":"2026-03-15T02:13:03Z"}
