{"icao":"LPMR","metar":"LPMR 191900Z 32011KT CAVOK 20/16 Q1015","updated":"2026-06-19T19:48:47Z"}
