{"icao":"LPHR","metar":"LPHR 210730Z 27009KT 9000 VCSH SCT012 BKN030 16/14 Q1012","updated":"2026-05-21T07:50:29Z"}
