{"icao":"LPPR","metar":"LPPR 081400Z 31008KT CAVOK 20/15 Q1021","updated":"2025-10-08T14:17:55Z"}
