{"icao":"LPAZ","metar":"LPAZ 242030Z 04010KT 020V080 9999 FEW020 BKN026 14/08 Q1028","updated":"2026-03-24T20:40:10Z"}
