{"icao":"LPST","metar":"LPST 141600Z 31006KT 9999 FEW025 26/10 Q1016","updated":"2025-10-15T01:20:18Z"}
