{"icao":"KJFK","metar":"KJFK 181651Z 14015KT 10SM SCT025 BKN250 16/11 A3008 RMK SLP185 T01560106 ","updated":"2026-04-18T17:35:15Z"}
