{"icao":"LPPS","metar":"LPPS 232000Z 03005KT 9999 FEW014 BKN030 23/19 Q1021","updated":"2025-10-23T20:19:19Z"}
