{"icao":"LPMA","metar":"LPMA 040630Z 36015KT 320V040 9999 BKN015 FEW018CB 16/12 Q1018","updated":"2026-03-04T06:44:49Z"}
