{"icao":"LPFR","metar":"LPFR 110600Z 03006KT CAVOK 20/16 Q1019","updated":"2025-10-11T06:23:18Z"}
