{"icao":"LPFR","metar":"LPFR 301030Z 18006KT 160V220 9999 FEW020 SCT045 19/12 Q1017","updated":"2026-04-30T10:53:59Z"}
