{"icao":"LPFL","metar":"LPFL 151500Z 19014G24KT 150V240 9999 FEW025TCU 21/14 Q1000","updated":"2025-10-15T15:17:53Z"}
