{"icao":"LPCS","metar":"LPCS 071000Z 21004KT 150V250 9999 FEW014 SCT028 22/15 Q1023","updated":"2025-10-07T10:18:27Z"}
