{"icao":"LPPT","metar":"LPPT 140600Z 25004KT 9999 FEW020 10/10 Q1017","updated":"2026-01-14T06:32:22Z"}
