{"icao":"KLAX","metar":"KLAX 030053Z 11009KT 9SM FEW007 OVC017 18/17 A3003 RMK AO2 SLP168 T01780167","updated":"2026-01-03T01:26:33Z"}
