{"icao":"KJFK","metar":"KJFK 230051Z 25010KT 10SM BKN095 BKN170 14/03 A2982 RMK AO2 SLP098 T01440033","updated":"2025-10-23T01:21:11Z"}
