{"icao":"LPMR","metar":"LPMR 031800Z 08004KT 9999 SCT020 SCT035 14/12 Q0999","updated":"2026-01-03T18:27:10Z"}
