{"icao":"LPLA","metar":"LPLA 011900Z 10007KT 070V130 9999 SCT016 BKN020 21/18 Q1031","updated":"2026-07-01T19:51:55Z"}
