{"icao":"LPPT","metar":"LPPT 142330Z 32006KT 290V350 9999 FEW008 13/11 Q1024","updated":"2026-04-14T23:40:28Z"}
