{"icao":"LPLA","metar":"LPLA 111300Z 01004KT 350V050 9999 FEW020 BKN025 21/16 Q1021","updated":"2025-10-11T13:20:29Z"}
