{"icao":"LPOV","metar":"LPOV 120400Z 00000KT CAVOK 12/11 Q1017","updated":"2025-10-12T04:20:01Z"}
