{"icao":"LPBJ","metar":"LPBJ 021000Z 20006KT 160V250 9999 FEW025 20/11 Q1018","updated":"2026-05-02T10:50:16Z"}
