{"icao":"LPBJ","metar":"LPBJ 141300Z 31009KT 280V350 9999 SCT030 19/11 Q1023","updated":"2026-04-14T13:23:05Z"}
