{"icao":"LPAR","metar":"LPAR 141200Z 05013KT 020V080 CAVOK 15/09 Q1019","updated":"2025-12-14T12:36:38Z"}
