{"icao":"LPPR","metar":"LPPR 191900Z 33006KT 7000 -RADZ BKN002 BKN010 17/17 Q1012","updated":"2025-10-19T19:12:55Z"}
