{"icao":"LPST","metar":"LPST 191700Z 36005KT 320V050 9999 FEW004 SCT018 11/09 Q1021","updated":"2026-01-19T17:22:17Z"}
