{"icao":"LPFL","metar":"LPFL 161400Z 19021G31KT 160V220 9999 FEW011 BKN014 19/16 Q1019","updated":"2025-12-16T14:22:51Z"}
