{"icao":"LPPT","metar":"LPPT 202200Z 23009KT 9999 BKN006 20/18 Q1015","updated":"2025-10-20T22:16:01Z"}
