{"icao":"LPFR","metar":"LPFR 200800Z 10007KT CAVOK 19/12 Q1012","updated":"2026-04-20T08:04:47Z"}
