{"icao":"KORD","metar":"KORD 180851Z 19016G26KT 10SM OVC024 07/03 A2963 RMK AO2 PK WND 17027/0840 SLP035 T00720028 56046","updated":"2025-12-18T09:26:05Z"}
