{"icao":"LPFR","metar":"LPFR 062000Z 30005KT 9999 FEW030 09/01 Q1024","updated":"2026-01-06T20:22:29Z"}
