{"icao":"KORD","metar":"KORD 010051Z 03008KT 10SM BKN300 21/17 A3015 RMK AO2 SLP207 T02060167","updated":"2025-10-01T01:27:03Z"}
