{"icao":"KJFK","metar":"KJFK 090651Z 36009KT 10SM FEW200 BKN250 M06/M18 A3028 RMK AO2 SLP252 T10611183 $","updated":"2025-12-09T07:21:01Z"}
