{"icao":"KLAX","metar":"KLAX 240653Z 26009KT 10SM BKN022 14/11 A2991 RMK AO2 SLP126 T01440111 $","updated":"2026-01-24T07:18:53Z"}
