{"icao":"LPPD","metar":"LPPD 290900Z 17008G18KT 120V190 9999 FEW016 BKN025 21/17 Q1026","updated":"2025-09-29T09:20:38Z"}
