{"icao":"KORD","metar":"KORD 061551Z 21008G15KT 10SM FEW055 SCT250 26/16 A3009 RMK AO2 SLP184 T02560161 $","updated":"2025-10-06T16:21:28Z"}
