{"icao":"KLAX","metar":"KLAX 271953Z 00000KT 10SM FEW180 FEW250 22/M05 A3024 RMK AO2 SLP239 T02171050 $","updated":"2026-01-27T20:22:06Z"}
