{"icao":"LPLA","metar":"LPLA 180500Z VRB01KT 9999 SCT018 20/19 Q1014","updated":"2025-09-18T05:16:07Z"}
