{"icao":"LPPD","metar":"LPPD 272200Z 05004KT 020V080 9999 FEW020 BKN040 18/12 Q1028","updated":"2025-09-27T22:14:34Z"}
