{"icao":"LPMR","metar":"LPMR 061200Z 02010KT 9999 FEW020 09/M00 Q1025","updated":"2026-01-06T12:42:11Z"}
