{"icao":"KORD","metar":"KORD 061206Z 17004KT 7SM SCT019 SCT070 OVC095 03/02 A2953 RMK AO2 T00330017","updated":"2026-01-06T12:42:42Z"}
