{"icao":"LPPD","metar":"LPPD 151000Z 22014KT 9999 FEW016 21/17 Q1008","updated":"2025-10-15T10:20:00Z"}
