{"icao":"KJFK","metar":"KJFK 221551Z 36008KT 8SM FEW015 SCT046 OVC050 09/07 A2989 RMK AO2 SLP120 T00890067","updated":"2025-11-22T16:21:06Z"}
