{"icao":"LPPI","metar":"LPPI 011530Z 10014KT 070V130 9999 FEW024 SCT032 25/16 Q1030","updated":"2026-07-01T15:40:17Z"}
