{"icao":"LPHR","metar":"LPHR 181700Z 10012KT 040V120 9999 FEW010 SCT020 19/16 Q1025","updated":"2025-11-18T17:18:07Z"}
