{"icao":"LPBJ","metar":"LPBJ 121300Z 06004KT 340V110 9999 SCT035 26/11 Q1016","updated":"2025-10-12T13:20:37Z"}
