{"icao":"KORD","metar":"KORD 141451Z 08009KT 10SM FEW030 SCT100 BKN140 OVC250 01/M07 A3019 RMK AO2 SLP229 T00111067 50008 $","updated":"2026-03-14T15:27:35Z"}
