{"icao":"KORD","metar":"KORD 170851Z 13003KT 1/2SM R10L/P6000FT FG BKN002 09/09 A2991 RMK AO2 SLP129 T00940089 58009 $","updated":"2026-04-17T09:16:40Z"}
