{"icao":"LPPT","metar":"LPPT 131600Z 30010KT 270V340 9999 FEW032 BKN042 15/08 Q1022","updated":"2026-04-13T16:10:49Z"}
