{"icao":"LPHR","metar":"LPHR 310800Z 34007KT 290V020 9999 FEW017 SCT035 17/11 Q1009","updated":"2025-10-31T08:23:35Z"}
