{"icao":"LPMR","metar":"LPMR 150500Z VRB01KT 1200 BR BKN002 12/11 Q1016","updated":"2025-10-15T05:17:18Z"}
