{"icao":"LPBJ","metar":"LPBJ 011400Z 21013KT 3500 -DZRA BR BKN006 BKN012 15/15 Q1013","updated":"2026-02-01T14:24:39Z"}
