{"icao":"LPAZ","metar":"LPAZ 302030Z 17003KT 1400 R18/1700N -DZ BR OVC002 19/18 Q1027","updated":"2026-05-30T20:54:32Z"}
