{"icao":"LPMA","metar":"LPMA 231030Z 04006KT 360V080 9999 FEW015 17/13 Q1023","updated":"2026-02-23T10:49:47Z"}
