{"icao":"LPPS","metar":"LPPS 030730Z 30018KT 9999 FEW014 16/09 Q1015","updated":"2026-02-03T07:41:23Z"}
