{"icao":"LPPR","metar":"LPPR 281000Z 12010KT 9999 SCT035 BKN044 19/09 Q1014","updated":"2025-10-28T10:20:26Z"}
