{"icao":"LPFR","metar":"LPFR 292200Z 31003KT 280V340 9999 FEW024 SCT040 14/11 Q1017","updated":"2025-11-29T22:17:05Z"}
