{"icao":"LPPD","metar":"LPPD 181230Z 04006KT 350V080 9999 FEW025 BKN035 16/12 Q1027","updated":"2026-02-18T13:01:42Z"}
