{"icao":"LPAZ","metar":"LPAZ 121930Z 02010KT 9999 FEW026 16/09 Q1025","updated":"2026-05-12T19:49:08Z"}
