{"icao":"KLAX","metar":"KLAX 261253Z 09005KT 8SM FEW006 SCT010 OVC017 19/17 A2990 RMK AO2 DZE22 SLP122 P0000 T01890172 $","updated":"2025-09-26T13:25:59Z"}
