{"icao":"LPMT","metar":"LPMT 301100Z 24011KT 9999 SCT009 SCT015 16/15 Q1012","updated":"2026-01-30T11:26:53Z"}
