{"icao":"LPMR","metar":"LPMR 260400Z 22011KT 200V260 7000 BKN006 BKN014 13/13 Q1012","updated":"2026-01-26T04:55:30Z"}
