{"icao":"LPLA","metar":"LPLA 181300Z 28015KT 260V320 9999 SCT022 26/21 Q1014","updated":"2025-10-18T13:21:28Z"}
