{"icao":"LPPS","metar":"LPPS 141030Z 07008KT 010V110 9999 FEW015 BKN030 15/10 Q1025","updated":"2026-04-14T11:01:29Z"}
