{"icao":"LPMT","metar":"LPMT 091200Z 35011KT CAVOK 24/12 Q1019","updated":"2026-06-09T12:35:26Z"}
