{"icao":"LPOV","metar":"LPOV 010400Z VRB01KT CAVOK 11/11 Q1019","updated":"2025-10-01T04:20:37Z"}
