{"icao":"LPCS","metar":"LPCS 121800Z 01005KT 350V050 9999 FEW045 24/13 Q1016","updated":"2025-10-12T18:21:45Z"}
