{"icao":"KORD","metar":"KORD 051451Z 28008KT 10SM SCT170 BKN240 13/08 A2987 RMK AO2 SLP114 T01280078 53021","updated":"2025-11-05T15:19:25Z"}
