{"icao":"KORD","metar":"KORD 240851Z 34005KT 10SM FEW016 SCT065 SCT250 17/16 A2998 RMK AO2 SLP150 T01720156 55002","updated":"2025-09-24T09:18:54Z"}
