{"icao":"LPFR","metar":"LPFR 182200Z 33007KT CAVOK 08/04 Q1016","updated":"2026-01-18T22:18:20Z"}
