{"icao":"LPCS","metar":"LPCS 241430Z 22007KT 180V280 CAVOK 26/14 Q1020","updated":"2026-05-24T15:02:08Z"}
