{"icao":"LPFR","metar":"LPFR 051700Z 09012KT CAVOK 23/04 Q1019","updated":"2026-04-05T17:29:09Z"}
