{"icao":"LPMT","metar":"LPMT 151600Z 01013KT 9999 FEW035 18/10 Q1017","updated":"2026-03-15T16:31:25Z"}
