{"icao":"LPPR","metar":"LPPR 091600Z 18008KT 7000 FEW005 BKN026 16/14 Q1015","updated":"2025-12-09T16:26:34Z"}
