{"icao":"KLAX","metar":"KLAX 020953Z 26009KT 10SM FEW012 BKN045 BKN250 16/13 A2998 RMK AO2 SLP151 T01560128 $","updated":"2026-04-02T10:01:15Z"}
