{"icao":"LPCS","metar":"LPCS 071100Z VRB04KT 9999 FEW014 BKN028 22/15 Q1023","updated":"2025-10-07T11:14:41Z"}
