{"icao":"KJFK","metar":"KJFK 122310Z 31026G41KT 10SM TS SCT055CB BKN090 BKN180 BKN250 33/21 A2974 RMK AO2 PK WND 33041/2310 TSB10 PRESRR FRQ LTGICCCCG NW-N TS NW-N MOV SE T03280206 $","updated":"2026-06-12T23:15:25Z"}
