{"icao":"LPPR","metar":"LPPR 022200Z VRB01KT 5000 BR VCFG SCT004 15/15 Q1023","updated":"2025-10-02T22:15:37Z"}
