{"icao":"LPFL","metar":"LPFL 201030Z 18013KT 140V220 9999 -DZ SCT007 SCT012 16/14 Q1013","updated":"2026-02-20T10:36:16Z"}
