{"icao":"LPMA","metar":"LPMA 281600Z 03007KT 350V060 9999 SCT016 SCT030 20/13 Q1022","updated":"2025-11-28T16:23:38Z"}
