{"icao":"LPAZ","metar":"LPAZ 300700Z 16008KT 9999 FEW022 BKN047 21/18 Q1022","updated":"2025-09-30T07:17:44Z"}
