{"icao":"KORD","metar":"KORD 011351Z 00000KT 9SM FEW250 M12/M14 A3029 RMK AO2 SLP270 T11221144","updated":"2026-02-01T14:24:56Z"}
