{"icao":"LPAR","metar":"LPAR 081400Z 23006KT 210V270 9999 FEW020 BKN030 13/11 Q1031","updated":"2026-01-08T14:23:59Z"}
