{"icao":"LPAZ","metar":"LPAZ 241630Z 20008KT 9999 SCT003 BKN018 20/18 Q1024","updated":"2026-05-24T16:59:06Z"}
