{"icao":"LPFR","metar":"LPFR 301900Z 35011KT 9999 FEW025 14/06 Q1016","updated":"2025-11-30T19:14:20Z"}
