{"icao":"LPMT","metar":"LPMT 010600Z 10004KT CAVOK 06/06 Q1022","updated":"2026-03-01T06:43:28Z"}
