{"icao":"LPBJ","metar":"LPBJ 041400Z 15016KT 9999 FEW035 22/14 Q1016","updated":"2025-11-04T14:19:03Z"}
