{"icao":"LPPS","metar":"LPPS 261100Z 06012KT 040V100 9999 FEW015 20/11 Q1024","updated":"2025-11-26T11:16:58Z"}
