{"icao":"KORD","metar":"KORD 232051Z 28008KT 10SM BKN250 11/01 A3011 RMK AO2 SLP198 T01110011 53019","updated":"2025-12-23T21:18:30Z"}
