{"icao":"LPPR","metar":"LPPR 230430Z 26011G21KT 230V300 9999 VCSH FEW019 FEW025CB SCT030 10/05 Q1000","updated":"2026-01-23T04:41:19Z"}
