{"icao":"LPPD","metar":"LPPD 271300Z 11004KT 060V130 9999 FEW025 BKN040 15/10 Q1021","updated":"2025-12-27T13:27:08Z"}
