{"icao":"LPBJ","metar":"LPBJ 221300Z 22005KT 180V300 9999 BKN042 20/10 Q1014","updated":"2026-04-22T13:24:30Z"}
