{"icao":"LPMA","metar":"LPMA 300500Z 36019G30KT 9999 FEW015 15/09 Q1024","updated":"2026-03-30T05:23:05Z"}
