{"icao":"LPPT","metar":"LPPT 182100Z 30006KT 9999 FEW016 12/09 Q1022","updated":"2026-02-18T21:33:35Z"}
