{"icao":"LPPR","metar":"LPPR 161830Z 33014G24KT 300V360 9999 FEW025 15/09 Q1018","updated":"2026-05-16T19:01:46Z"}
