{"icao":"LPBJ","metar":"LPBJ 141600Z 23006KT 190V280 9999 FEW048 30/09 Q1015","updated":"2025-10-14T16:22:16Z"}
