{"icao":"LPOV","metar":"LPOV 071600Z 31007KT 280V350 9999 SCT014 18/16 Q1014","updated":"2025-11-07T16:19:20Z"}
