{"icao":"LPHR","metar":"LPHR 091330Z 18006KT 140V300 9999 FEW010 BKN018 18/14 Q1035","updated":"2026-04-09T13:47:30Z"}
