{"icao":"LPFL","metar":"LPFL 241530Z 34013G25KT 300V030 9999 FEW023 15/09 Q1020","updated":"2026-02-24T15:57:40Z"}
