{"icao":"LPCS","metar":"LPCS 121000Z 06008KT CAVOK 23/13 Q1017","updated":"2025-10-12T10:16:34Z"}
