{"icao":"LPBJ","metar":"LPBJ 130400Z 29006KT CAVOK 16/12 Q1015","updated":"2025-10-13T04:21:10Z"}
