{"icao":"LPOV","metar":"LPOV 140800Z 26003KT 200V300 8000 FEW007 BKN014 BKN022 12/11 Q1017","updated":"2026-03-14T08:33:55Z"}
