{"icao":"LPBJ","metar":"LPBJ 201000Z 16006KT 130V190 CAVOK 24/11 Q1013","updated":"2026-04-20T10:46:45Z"}
