{"icao":"KJFK","metar":"KJFK 070751Z 00000KT 9SM OVC008 03/01 A3036 RMK AO2 SLP282 T00280011","updated":"2026-03-07T08:29:55Z"}
