{"icao":"LPHR","metar":"LPHR 140600Z 16015KT 9999 SCT013 FEW015TCU BKN030 19/16 Q1008","updated":"2025-10-14T06:27:34Z"}
