{"icao":"LPMA","metar":"LPMA 251600Z 04006KT 010V070 9999 FEW016 18/09 Q1025","updated":"2026-01-25T16:24:36Z"}
