{"icao":"KLAX","metar":"KLAX 271853Z 12004KT 10SM FEW019 SCT036 14/10 A3008 RMK AO2 SLP186 T01390100 $","updated":"2025-12-27T19:14:38Z"}
