{"icao":"LPPT","metar":"LPPT 052300Z 04003KT 340V100 CAVOK 17/07 Q1019","updated":"2026-04-05T23:32:17Z"}
