{"icao":"LPPR","metar":"LPPR 041600Z 28007KT 230V310 9999 FEW025 BKN030 15/10 Q1019","updated":"2025-12-04T16:27:36Z"}
