{"icao":"LPAZ","metar":"LPAZ 100900Z 15008KT 9999 FEW014 21/19 Q1023","updated":"2025-10-10T09:19:18Z"}
