{"icao":"LPFR","metar":"LPFR 010130Z 07009KT CAVOK 12/08 Q1015","updated":"2026-01-01T01:48:49Z"}
