{"icao":"LPFL","metar":"LPFL 131400Z 17008G20KT 120V270 9999 FEW019 FEW025CB SCT036 21/15 Q1013","updated":"2025-10-13T14:18:54Z"}
