{"icao":"KLAX","metar":"KLAX 071853Z 26008KT 10SM FEW045 FEW060 SCT100 SCT180 17/11 A2996 RMK AO2 SLP143 T01720111 $","updated":"2026-01-07T19:19:22Z"}
