{"icao":"LPAZ","metar":"LPAZ 151900Z 33016KT 9999 FEW028 BKN046 14/06 Q1028","updated":"2026-01-15T19:23:18Z"}
