{"icao":"LPCS","metar":"LPCS 051700Z 22008KT CAVOK 23/05 Q1019","updated":"2026-04-05T17:29:10Z"}
