{"icao":"LPPD","metar":"LPPD 271100Z 02010KT 360V060 9999 FEW020 15/08 Q1035","updated":"2026-02-27T11:31:09Z"}
