{"icao":"LPLA","metar":"LPLA 211900Z 29014KT 4000 -RA BR SCT009 BKN018 BKN035 12/11 Q1001","updated":"2026-04-21T20:01:46Z"}
