{"icao":"LPPR","metar":"LPPR 292000Z 24006KT 8000 FEW033 BKN046 14/10 Q1010","updated":"2026-01-29T20:28:28Z"}
