{"icao":"LPMT","metar":"LPMT 201900Z 34006KT CAVOK 13/10 Q1028","updated":"2026-02-20T19:35:42Z"}
