{"icao":"KLAX","metar":"KLAX 090753Z 35004KT 10SM CLR 18/14 A2990 RMK AO2 SLP124 T01780139 402170167 $","updated":"2025-10-09T08:23:37Z"}
