{"icao":"LPPT","metar":"LPPT 131500Z VRB03KT CAVOK 28/10 Q1015","updated":"2025-10-13T15:18:16Z"}
