{"icao":"LPPR","metar":"LPPR 121800Z 35008KT CAVOK 21/12 Q1016","updated":"2025-10-12T18:21:44Z"}
