{"icao":"LPLA","metar":"LPLA 031900Z 24017KT 9000 -RA FEW016 BKN030 18/13 Q0999","updated":"2026-02-03T19:43:38Z"}
