{"icao":"LPPR","metar":"LPPR 130400Z 05003KT 020V090 CAVOK 11/08 Q1021","updated":"2025-12-13T04:24:57Z"}
