{"icao":"LPLA","metar":"LPLA 030900Z VRB02KT CAVOK 10/07 Q1028","updated":"2026-03-03T09:40:10Z"}
