{"icao":"LPPT","metar":"LPPT 240730Z 20007KT 170V260 9999 BKN014 20/17 Q1014","updated":"2026-06-24T07:38:44Z"}
