{"icao":"KJFK","metar":"KJFK 301451Z 18018G26KT 10SM SCT030 BKN038 OVC060 09/03 A3030 RMK AO2 PK WND 21026/1447 SLP259 T00890028 58020 $","updated":"2025-11-30T15:16:52Z"}
