{"icao":"LPPD","metar":"LPPD 230300Z 21006KT 6000 SHRA SCT007 BKN014 20/19 Q1021","updated":"2025-09-23T03:31:01Z"}
