{"icao":"LPHR","metar":"LPHR 071700Z 24014KT 9999 -RA SCT011 SCT085 17/16 Q1011","updated":"2026-02-07T17:24:18Z"}
