{"icao":"LPLA","metar":"LPLA 252100Z 23003KT 200V260 9999 FEW018 OVC025 14/11 Q1031","updated":"2026-03-25T21:37:57Z"}
