{"icao":"LPCS","metar":"LPCS 281000Z 02010KT 9999 FEW025 14/09 Q1024","updated":"2025-11-28T10:20:45Z"}
