{"icao":"LPPT","metar":"LPPT 032130Z 30003KT 250V330 9999 FEW020 13/10 Q1016","updated":"2026-05-03T21:39:47Z"}
