{"icao":"LPMA","metar":"LPMA 280100Z VRB02KT 9999 SCT015 FEW018TCU 22/18 Q1014","updated":"2025-10-28T01:20:23Z"}
