{"icao":"LPBJ","metar":"LPBJ 231000Z VRB02KT CAVOK 11/05 Q1028","updated":"2025-11-23T10:17:40Z"}
