{"icao":"LPCS","metar":"LPCS 291800Z 35015KT 9999 FEW030 21/13 Q1016","updated":"2025-09-29T18:26:17Z"}
