{"icao":"LPLA","metar":"LPLA 201600Z 09009KT 060V130 9999 FEW025 BKN035 18/11 Q1030","updated":"2025-11-20T16:25:03Z"}
