{"icao":"LPFR","metar":"LPFR 191930Z 26008KT CAVOK 25/19 Q1013","updated":"2026-06-19T19:48:44Z"}
