{"icao":"LPMT","metar":"LPMT 152000Z 35004KT CAVOK 20/11 Q1015","updated":"2025-10-15T20:20:14Z"}
