{"icao":"LPOV","metar":"LPOV 261100Z 31005KT 270V360 9999 FEW006 FEW020TCU 19/16 Q1018","updated":"2026-04-26T11:37:51Z"}
