{"icao":"LPFL","metar":"LPFL 121230Z 17010KT 140V210 9999 BKN030 16/08 Q1032","updated":"2025-12-12T12:40:57Z"}
