{"icao":"LPOV","metar":"LPOV 260700Z 20014KT 4000 RADZ BR BKN002 14/14 Q1008","updated":"2026-01-26T07:26:48Z"}
