{"icao":"LPFR","metar":"LPFR 041030Z 24024KT 4500 -DZRA BR SCT005 BKN010 16/15 Q1002","updated":"2026-02-04T10:36:47Z"}
