{"icao":"LPCS","metar":"LPCS 151000Z 13003KT 080V160 CAVOK 25/12 Q1017","updated":"2025-10-15T10:19:44Z"}
