{"icao":"LPST","metar":"LPST 211200Z 28017KT 3000 -DZ BR BKN005 15/14 Q1007","updated":"2026-01-21T12:47:49Z"}
