{"icao":"LPPS","metar":"LPPS 022100Z 13007KT 9999 FEW014 21/18 Q1024","updated":"2025-11-02T21:14:44Z"}
