{"icao":"LPHR","metar":"LPHR 202000Z 32008KT 250V360 9999 FEW018 SCT035 14/08 Q1030","updated":"2025-12-20T20:19:33Z"}
