{"icao":"LPLA","metar":"LPLA 060600Z 290154G24KT 8000 -SHRA BKN022 BKN040 11/07 Q1011 R MK WIND RWY15 28013KT PK 28028/41 RH76 WHT","updated":"2026-02-06T06:53:33Z"}
