{"icao":"LPCS","metar":"LPCS 191800Z 21007KT 1200 R17/P2000N -RADZ BR FEW001 OVC003 19/19 Q1014","updated":"2025-10-19T18:22:41Z"}
