{"icao":"LPPR","metar":"LPPR 271930Z 32003KT CAVOK 13/11 Q1019","updated":"2026-03-27T19:40:21Z"}
