{"icao":"LPPT","metar":"LPPT 211730Z 25007KT 230V300 7000 BKN020 14/11 Q1006","updated":"2026-01-21T17:53:02Z"}
