{"icao":"LPPD","metar":"LPPD 262200Z 33008KT 280V020 9999 FEW018 16/12 Q1032 WS R30","updated":"2026-02-26T22:32:05Z"}
