{"icao":"KORD","metar":"KORD 062051Z 05011KT 10SM FEW060TCU FEW100 BKN250 28/19 A2986 RMK AO2 SLP104 TCU S-SW T02780194 56002 $","updated":"2026-06-06T21:02:54Z"}
