{"icao":"LPBJ","metar":"LPBJ 251600Z VRB05KT CAVOK 22/09 Q1017","updated":"2026-03-25T16:14:06Z"}
