{"icao":"LPMR","metar":"LPMR 130400Z 17010KT 6000 -TSRA SCT014 SCT022CB BKN024 17/16 Q1001 RERA","updated":"2025-11-13T04:23:56Z"}
