{"icao":"LPPS","metar":"LPPS 310300Z 22007KT 9999 FEW015 21/16 Q1015","updated":"2025-10-31T03:09:27Z"}
