{"icao":"LPMR","metar":"LPMR 100400Z 18003KT 1200 BR SCT004 11/10 Q1019","updated":"2025-12-10T04:31:55Z"}
