{"icao":"KJFK","metar":"KJFK 190451Z 16004KT 10SM SCT130 SCT250 M01/M07 A3038 RMK AO2 SLP285 T10061067 400171039","updated":"2026-03-19T04:53:37Z"}
