{"icao":"LPMR","metar":"LPMR 271800Z 34004KT CAVOK 12/08 Q1024","updated":"2025-11-27T18:26:20Z"}
