{"icao":"LPMT","metar":"LPMT 301100Z 34008KT CAVOK 27/18 Q1020","updated":"2026-06-30T12:06:48Z"}
