{"icao":"KORD","metar":"KORD 120351Z 26010KT 10SM SCT040 04/M02 A2975 RMK AO2 SLP079 T00391022","updated":"2025-11-12T04:22:28Z"}
