{"icao":"KLAX","metar":"KLAX 051853Z 00000KT 10SM FEW013 24/13 A2982 RMK AO2 SLP096 T02390133 $","updated":"2025-10-05T19:12:37Z"}
