{"icao":"KORD","metar":"KORD 092251Z 29007KT 10SM BKN075 OVC250 20/04 A3011 RMK AO2 SLP196 T02000044","updated":"2026-04-09T23:36:35Z"}
