{"icao":"KJFK","metar":"KJFK 221251Z 17014KT 10SM FEW007 BKN014 OVC040 07/06 A2990 RMK AO2 SLP124 T00720056 $","updated":"2026-03-22T13:42:43Z"}
