{"icao":"LPOV","metar":"LPOV 201600Z 33011KT CAVOK 22/11 Q1021","updated":"2026-05-20T16:23:58Z"}
