{"icao":"LPCS","metar":"LPCS 270800Z 07009KT 040V100 CAVOK 06/02 Q1009","updated":"2025-12-27T08:25:09Z"}
