{"icao":"KJFK","metar":"KJFK 290851Z 03013KT 10SM FEW041 OVC050 09/04 A3014 RMK AO2 SLP207 T00940044 58002","updated":"2025-10-29T09:19:36Z"}
