{"icao":"KLAX","metar":"KLAX 132053Z 24010KT 10SM SCT029 23/17 A2990 RMK AO2 SLP123 T02330167 58013 $","updated":"2025-09-13T21:13:54Z"}
