{"icao":"LPPT","metar":"LPPT 220400Z 33010KT CAVOK 13/07 Q1020","updated":"2025-09-22T04:20:45Z"}
