{"icao":"LPMR","metar":"LPMR 042200Z 32005KT 9999 SCT020 14/09 Q1018","updated":"2026-05-04T23:01:22Z"}
