{"icao":"LPCS","metar":"LPCS 141230Z 28010KT 250V310 8000 -DZ FEW004 SCT010 BKN014 14/11 Q1019","updated":"2026-03-14T12:49:28Z"}
