{"icao":"LPBJ","metar":"LPBJ 291500Z 05010KT 020V090 CAVOK 27/14 Q1014","updated":"2025-09-29T15:18:14Z"}
