{"icao":"LPPD","metar":"LPPD 021530Z 10008KT 050V130 9999 FEW018 BKN030 16/11 Q1030","updated":"2026-04-02T15:59:47Z"}
