{"icao":"LPMA","metar":"LPMA 231400Z 33015KT 260V020 9999 FEW015 19/07 Q1018","updated":"2026-01-23T14:24:26Z"}
