{"icao":"LPAZ","metar":"LPAZ 091430Z 30025KT 9999 FEW030TCU 15/09 Q1015","updated":"2026-05-09T14:49:15Z"}
