{"icao":"KORD","metar":"KORD 261818Z 08008KT 10SM SCT016 BKN250 13/07 A3007 RMK AO2 T01280072 $","updated":"2026-04-26T18:52:55Z"}
