{"icao":"KORD","metar":"KORD 011551Z 28004KT 10SM FEW030 SCT080 OVC130 M11/M17 A3007 RMK AO2 SLP195 T11061167 $","updated":"2026-01-01T16:25:41Z"}
