{"icao":"KLAX","metar":"KLAX 272253Z 27008KT 10SM SCT250 21/11 A3000 RMK AO2 SLP159 T02110106 $","updated":"2025-11-27T23:17:03Z"}
