{"icao":"LPBJ","metar":"LPBJ 150900Z 15009KT 7000 -RA FEW015 SCT025 15/14 Q1008","updated":"2025-11-15T09:16:49Z"}
