{"icao":"LPFR","metar":"LPFR 011530Z 26013KT CAVOK 20/13 Q1018","updated":"2026-05-01T15:56:12Z"}
