{"icao":"LPAZ","metar":"LPAZ 121230Z 30016KT 9999 FEW025 FEW030CB 15/08 Q1002","updated":"2025-11-12T12:39:30Z"}
