{"icao":"LPPS","metar":"LPPS 072230Z 33018KT 9999 FEW015 14/06 Q1024","updated":"2026-04-07T22:36:34Z"}
