{"icao":"LPOV","metar":"LPOV 131200Z 33007KT 270V030 9999 FEW030 22/12 Q1023","updated":"2025-09-13T12:31:18Z"}
