{"icao":"LPHR","metar":"LPHR 121400Z 32014G27KT 280V030 9999 FEW019 FEW022CB 16/07 Q1004 WS R28","updated":"2025-11-12T14:19:20Z"}
