{"icao":"LPFR","metar":"LPFR 290500Z 21009KT 9999 -RA FEW008 SCT018 FEW020CB 19/18 Q1006 RESHRA","updated":"2025-10-29T05:18:23Z"}
