{"icao":"LPPD","metar":"LPPD 010200Z 21018KT 6000 BKN005 BKN011 16/16 Q1012","updated":"2026-02-01T02:12:37Z"}
