{"icao":"LPPR","metar":"LPPR 131300Z 16015KT 9999 VCSH FEW025 FEW028CB BKN040 18/14 Q0998","updated":"2025-11-13T13:31:37Z"}
