{"icao":"LPFL","metar":"LPFL 080800Z 25003KT 220V340 9999 FEW014 SCT038 15/12 Q1027","updated":"2026-01-08T08:29:27Z"}
