{"icao":"LPAZ","metar":"LPAZ 021300Z 21006KT 180V250 9999 FEW009 23/21 Q1022","updated":"2025-10-02T13:25:16Z"}
