{"icao":"LPMT","metar":"LPMT 250900Z 02005KT 340V040 CAVOK 22/17 Q1021","updated":"2026-05-25T10:02:04Z"}
