{"icao":"LPBJ","metar":"LPBJ 112100Z 05005KT CAVOK 21/10 Q1018","updated":"2025-10-11T21:13:46Z"}
