{"icao":"LPMR","metar":"LPMR 160700Z 33004KT 0600 FG OVC001 13/13 Q1015","updated":"2025-10-16T08:25:22Z"}
