{"icao":"LPFR","metar":"LPFR 291230Z 23007KT 200V320 9999 SCT014 21/19 Q1006","updated":"2025-10-29T12:39:11Z"}
