{"icao":"LPPR","metar":"LPPR 071600Z 32016KT CAVOK 19/13 Q1021","updated":"2026-06-07T16:13:31Z"}
