{"icao":"LPLA","metar":"LPLA 090400Z 18017G30KT 140V210 7000 -RA SCT009 BKN018 21/20 Q1020 RERA","updated":"2025-10-09T04:21:28Z"}
