{"icao":"KORD","metar":"KORD 202251Z 26006KT 10SM -RA FEW021 FEW027 SCT044 BKN130 OVC250 20/17 A3002 RMK AO2 LTG DSNT N SLP163 P0000 T02000172","updated":"2025-09-20T23:15:04Z"}
