{"icao":"LPFR","metar":"LPFR 282100Z 24003KT CAVOK 20/18 Q1019","updated":"2026-05-28T21:06:54Z"}
