{"icao":"LPOV","metar":"LPOV 140901Z 16014KT 5000 -RA BR SCT006 BKN016 FEW022CB 13/12 Q1001","updated":"2025-11-14T09:19:43Z"}
