{"icao":"LPPT","metar":"LPPT 241400Z 30010KT 260V320 9000 -SHRA FEW014 FEW020TCU BKN030 11/08 Q1013","updated":"2026-01-24T14:18:33Z"}
