{"icao":"LPMT","metar":"LPMT 291000Z 03006KT CAVOK 09/09 Q1020","updated":"2025-12-29T10:21:55Z"}
