{"icao":"LPHR","metar":"LPHR 191930Z 01026G47KT 300V060 9999 VCSH FEW015 SCT075 14/07 Q1016","updated":"2026-04-19T19:40:21Z"}
