{"icao":"LPPS","metar":"LPPS 041800Z 35018KT 9999 SCT014 16/14 Q1010","updated":"2026-01-04T18:27:42Z"}
