{"icao":"LPBJ","metar":"LPBJ 112100Z 03003KT CAVOK 14/07 Q1026","updated":"2026-03-11T21:31:56Z"}
