{"icao":"LPCS","metar":"LPCS 211230Z 08005KT 030V150 CAVOK 19/07 Q1029","updated":"2026-02-21T12:44:02Z"}
