{"icao":"LPOV","metar":"LPOV 090700Z 16018KT 3000 RA BR FEW007 SCT012 BKN025 14/13 Q1012","updated":"2025-12-09T07:20:45Z"}
