{"icao":"KLAX","metar":"KLAX 111353Z 09003KT 10SM CLR 10/M03 A3023 RMK AO2 SLP234 T01001028 $","updated":"2026-01-11T14:18:16Z"}
