{"icao":"LPOV","metar":"LPOV 170900Z VRB02KT 9000 FEW006 14/12 Q1020","updated":"2026-04-17T11:51:18Z"}
