{"icao":"LPAZ","metar":"LPAZ 281300Z 02015KT 9000 -SHRA FEW005 BKN010 17/16 Q1025","updated":"2025-11-28T13:29:20Z"}
