{"icao":"LPBJ","metar":"LPBJ 171900Z VRB02KT 9999 FEW032 12/11 Q1016","updated":"2025-11-17T19:14:38Z"}
