{"icao":"LPPD","metar":"LPPD 071300Z 32010KT 300V360 9999 FEW022 SCT035 13/09 Q1032","updated":"2026-04-07T13:16:38Z"}
