{"icao":"KJFK","metar":"KJFK 011451Z 30021G30KT 10SM FEW047 FEW100 M03/M13 A2975 RMK AO2 PK WND 32039/1416 SLP073 60000 T10331128 53042 $","updated":"2026-01-01T15:20:24Z"}
