{"icao":"LPFL","metar":"LPFL 171300Z 02007KT 350V060 9999 SCT033 15/07 Q1021","updated":"2026-04-17T13:17:08Z"}
