{"icao":"KLAX","metar":"KLAX 090353Z 25011KT 10SM CLR 18/14 A2990 RMK AO2 SLP122 T01830139 $","updated":"2025-10-09T04:21:45Z"}
