{"icao":"KORD","metar":"KORD 071351Z 21013G25KT 10SM SCT013 SCT090 BKN150 OVC200 16/14 A2968 RMK AO2 PK WND 23027/1333 SLP050 T01560139","updated":"2026-03-07T14:23:17Z"}
