{"icao":"KJFK","metar":"KJFK 171551Z 05010KT 10SM -RA SCT022 BKN031 OVC075 20/16 A3010 RMK AO2 SLP192 P0000 T02000156 $","updated":"2025-09-17T16:22:02Z"}
