{"icao":"LPMT","metar":"LPMT 291600Z 33003KT 220V360 9999 FEW018 21/18 Q1008","updated":"2025-10-29T16:24:36Z"}
