{"icao":"LPOV","metar":"LPOV 160900Z 31003KT 270V010 0500 FG SCT001 BKN003 15/15 Q1016","updated":"2025-10-16T09:19:45Z"}
