{"icao":"LPCS","metar":"LPCS 181030Z VRB04KT CAVOK 21/13 Q1017","updated":"2026-04-18T10:38:54Z"}
