{"icao":"LPAR","metar":"LPAR 041700Z 05005KT 020V080 9999 SCT025 18/11 Q1013","updated":"2026-03-05T05:46:41Z"}
