{"icao":"LPST","metar":"LPST 231000Z 32007KT 290V360 9999 FEW018 16/11 Q1014","updated":"2026-04-23T11:06:20Z"}
