{"icao":"KORD","metar":"KORD 211719Z 29009KT 6SM -SN FEW015 OVC020 M02/M07 A3011 RMK AO2 SNB19 P0000 T10221067 $","updated":"2026-02-21T17:24:33Z"}
