{"icao":"LPAZ","metar":"LPAZ 191400Z 27020KT 3300 BR FEW001 BKN002 BKN010 23/22 Q1017","updated":"2025-10-19T14:14:54Z"}
