{"icao":"LPLA","metar":"LPLA 092300Z 26002KT 9999 FEW030 16/12 Q1024","updated":"2025-11-09T23:16:06Z"}
