{"icao":"LPAZ","metar":"LPAZ 241830Z 04010KT 9999 FEW023 BKN028 15/10 Q1027","updated":"2026-03-24T19:01:31Z"}
