{"icao":"LPAZ","metar":"LPAZ 191230Z 01008KT 340V050 9999 FEW026 SCT036 16/09 Q1032","updated":"2026-01-19T12:47:14Z"}
