{"icao":"KJFK","metar":"KJFK 251551Z 21009KT 10SM FEW037 BKN140 OVC200 11/06 A3025 RMK AO2 SLP242 T01110056","updated":"2025-11-25T16:26:46Z"}
