{"icao":"KLAX","metar":"KLAX 162253Z 23008KT 10SM FEW025 OVC075 17/12 A2996 RMK AO2 SLP144 T01720122 $","updated":"2025-11-16T23:16:09Z"}
