{"icao":"LPAZ","metar":"LPAZ 010430Z 21023KT 8000 FEW004 BKN010 17/16 Q1012","updated":"2026-02-01T04:59:45Z"}
