{"icao":"LPAZ","metar":"LPAZ 251700Z 22004KT 160V270 9999 SCT021 19/15 Q1027","updated":"2025-11-25T17:18:52Z"}
