{"icao":"LPMA","metar":"LPMA 021330Z 01012KT 6000 -DZ FEW013 BKN016 17/15 Q1024","updated":"2025-12-02T13:35:56Z"}
