{"icao":"LPFR","metar":"LPFR 040700Z 05003KT 320V080 CAVOK 17/12 Q1021","updated":"2025-10-04T07:14:32Z"}
