{"icao":"LPOV","metar":"LPOV 180800Z VRB02KT 6000 BKN002 BKN004 16/16 Q1017","updated":"2026-06-18T08:45:05Z"}
