{"icao":"KJFK","metar":"KJFK 140351Z 29009KT 10SM BKN080 BKN090 BKN110 08/M02 A3001 RMK AO2 SLP162 T00831022","updated":"2025-11-14T04:21:49Z"}
