{"icao":"LPPT","metar":"LPPT 011300Z 07006KT 330V100 CAVOK 28/11 Q1020","updated":"2025-10-01T13:27:51Z"}
