{"icao":"KJFK","metar":"KJFK 010751Z 29019G31KT 10SM FEW060 11/M02 A2974 RMK AO2 PK WND 26032/0655 SLP072 T01111022 $","updated":"2025-11-01T08:21:47Z"}
