{"icao":"LPFL","metar":"LPFL 061500Z 36004KT 320V020 9999 FEW017 22/18 Q1016","updated":"2025-10-06T15:18:01Z"}
