{"icao":"LPMR","metar":"LPMR 140600Z VRB02KT CAVOK 07/06 Q1018","updated":"2025-12-14T06:28:23Z"}
