{"icao":"LPFL","metar":"LPFL 170600Z 24006KT 190V280 9999 FEW009 FEW012TCU SCT030 22/18 Q1013","updated":"2026-06-17T06:09:20Z"}
