{"icao":"KJFK","metar":"KJFK 201351Z 28007KT 10SM SCT060 BKN100 09/M01 A3015 RMK SLP208 VIRGA SW T00941006 ","updated":"2026-04-20T14:49:49Z"}
