{"icao":"LPLA","metar":"LPLA 242300Z 33019KT 9999 FEW025 BKN040 14/07 Q1023","updated":"2026-02-24T23:30:31Z"}
