{"icao":"LPMR","metar":"LPMR 290800Z 10001KT 060V160 9999 1200S BCFG FEW005 13/13 Q1017","updated":"2025-09-29T08:25:52Z"}
