{"icao":"LPPR","metar":"LPPR 171100Z 03006KT 310V050 9999 SCT008 14/13 Q1015","updated":"2025-11-17T11:16:35Z"}
