{"icao":"LPBJ","metar":"LPBJ 262300Z 07004KT CAVOK 18/15 Q1019","updated":"2025-10-26T23:16:08Z"}
