{"icao":"LPPR","metar":"LPPR 050700Z 16017G27KT 9999 -RA FEW016 FEW020CB BKN025 18/15 Q1003 RESHRA","updated":"2025-11-05T07:18:08Z"}
