{"icao":"LPFL","metar":"LPFL 261800Z 32010KT 280V360 5000 -RA FEW008 BKN012 16/14 Q1019","updated":"2025-11-26T18:23:42Z"}
