{"icao":"KORD","metar":"KORD 210451Z 29015G27KT 10SM CLR M01/M11 A3010 RMK AO2 PK WND 30029/0415 SLP200 T10061111","updated":"2025-12-21T05:19:45Z"}
