{"icao":"LPPS","metar":"LPPS 171030Z 13006KT 100V180 9999 FEW014 BKN030 16/12 Q1028","updated":"2026-02-17T10:43:24Z"}
