{"icao":"LPPD","metar":"LPPD 281530Z 20014KT 9999 FEW016 18/15 Q1021","updated":"2026-05-28T15:50:17Z"}
