{"icao":"LPPS","metar":"LPPS 121630Z 06014KT 040V100 9999 SCT015 17/11 Q1023","updated":"2026-03-12T17:02:53Z"}
