{"icao":"LPPD","metar":"LPPD 081900Z 33014KT 300V360 9999 FEW018 16/09 Q1014","updated":"2026-05-08T19:15:04Z"}
