{"icao":"KORD","metar":"KORD 191051Z 28005KT 10SM FEW060 FEW100 15/12 A2992 RMK AO2 SLP130 T01500117 $","updated":"2026-06-19T11:20:47Z"}
