{"icao":"KORD","metar":"KORD 260651Z 16004KT 10SM BKN075 10/03 A3034 RMK AO2 SLP275 T01000028 $","updated":"2025-10-26T07:15:43Z"}
