{"icao":"LPPT","metar":"LPPT 201500Z 25009KT 220V280 9999 FEW020 BKN030 22/15 Q1014","updated":"2025-10-20T15:18:02Z"}
