{"icao":"LPPR","metar":"LPPR 121630Z 31007KT 9999 FEW020 14/10 Q1026","updated":"2026-03-12T17:02:35Z"}
