{"icao":"LPLA","metar":"LPLA 200900Z 08005KT 010V120 9999 FEW024 SCT030 17/12 Q1030","updated":"2025-11-20T09:19:53Z"}
