{"icao":"LPPT","metar":"LPPT 251100Z 08005KT 360V110 9999 BKN013 09/06 Q1011","updated":"2025-12-25T11:17:12Z"}
