{"icao":"LPMA","metar":"LPMA 062130Z 34006KT 300V020 9999 SCT015 16/08 Q1018","updated":"2026-05-06T21:55:49Z"}
