{"icao":"LPPS","metar":"LPPS 130700Z 26017KT 9999 FEW014 FEW016CB 17/12 Q0999","updated":"2025-11-13T07:18:12Z"}
