{"icao":"LPHR","metar":"LPHR 121000Z 35005KT 9999 FEW017 12/08 Q1034","updated":"2025-12-12T10:21:20Z"}
