{"icao":"KLAX","metar":"KLAX 080053Z 25010KT 10SM FEW015 19/15 A2985 RMK AO2 SLP107 T01890150 $","updated":"2025-10-08T01:18:30Z"}
