{"icao":"KORD","metar":"KORD 201351Z 18005KT 10SM CLR 08/03 A2999 RMK AO2 SLP158 T00830028","updated":"2025-10-20T14:17:57Z"}
