{"icao":"LPLA","metar":"LPLA 030400Z 22012KT 190V250 9999 FEW015 SCT024 23/20 Q1020","updated":"2025-10-03T04:20:15Z"}
