{"icao":"LPMR","metar":"LPMR 200400Z 17003KT 0100 FG VV002 03/03 Q1021","updated":"2026-01-20T04:43:06Z"}
