{"icao":"LPMR","metar":"LPMR 102200Z 16003KT 9999 SCT020 15/15 Q1017","updated":"2025-11-10T22:18:17Z"}
