{"icao":"LPMA","metar":"LPMA 111230Z 02016G28KT 340V050 9999 BKN016 16/10 Q1026","updated":"2026-03-11T12:57:35Z"}
