{"icao":"KJFK","metar":"KJFK 120951Z 31016G25KT 10SM FEW050 00/M09 A3012 RMK AO2 PK WND 30031/0911 SLP199 T00001094","updated":"2026-01-12T10:24:25Z"}
