{"icao":"LPFL","metar":"LPFL 151830Z 18016KT 150V220 9999 FEW016 17/14 Q1022","updated":"2026-02-15T18:35:28Z"}
