{"icao":"LPOV","metar":"LPOV 180900Z 17012KT 1200 RADZ BR FEW003 BKN006 12/12 Q1017","updated":"2026-02-18T09:45:46Z"}
