{"icao":"LPPT","metar":"LPPT 110700Z 14005KT 6000 SCT002 BKN004 14/14 Q1014","updated":"2025-11-11T07:18:20Z"}
