{"icao":"KJFK","metar":"KJFK 090451Z 13004KT 10SM SCT080 11/08 A2992 RMK AO2 SLP132 T01110078 401890089","updated":"2026-05-09T05:47:17Z"}
