{"icao":"LPPS","metar":"LPPS 190930Z 07009KT 040V100 9999 FEW015 16/11 Q1028","updated":"2026-02-19T09:43:14Z"}
