{"icao":"LPPS","metar":"LPPS 032300Z 06006KT 020V110 9999 SCT012 14/11 Q1022","updated":"2026-04-03T23:32:18Z"}
