{"icao":"LPPR","metar":"LPPR 201700Z 20005KT 170V240 6000 -RA FEW011 BKN026 OVC036 12/11 Q1014 RERA","updated":"2026-01-20T17:28:12Z"}
