{"icao":"LPSJ","metar":"LPSJ 121830Z 13007KT 090V170 9999 FEW014 SCT025 22/17 Q1020","updated":"2026-06-12T19:03:32Z"}
