{"icao":"LPPT","metar":"LPPT 211600Z 28011KT 250V320 9999 FEW010 BKN012 21/19 Q1015","updated":"2025-10-21T16:23:48Z"}
