{"icao":"KLAX","metar":"KLAX 050853Z 10004KT 10SM CLR 17/08 A3000 RMK AO2 SLP154 T01670083 50001 $","updated":"2026-04-05T09:37:39Z"}
