{"icao":"LPMT","metar":"LPMT 201100Z 03011KT CAVOK 13/07 Q1031","updated":"2026-02-20T11:30:59Z"}
