{"icao":"KJFK","metar":"KJFK 021851Z 36014KT 3SM RA BR BKN005 OVC012 05/04 A2974 RMK AO2 SFC VIS 4 SLP069 P0018 T00500044 $","updated":"2025-12-02T19:18:21Z"}
