{"icao":"KORD","metar":"KORD 191851Z 09004KT 10SM OVC019 07/03 A3019 RMK AO2 SLP227 T00720028","updated":"2025-11-19T19:15:30Z"}
