{"icao":"KLAX","metar":"KLAX 071653Z 29006KT 8SM OVC016 19/14 A2990 RMK AO2 SLP123 T01890144 $","updated":"2025-10-07T17:15:24Z"}
