{"icao":"LPMR","metar":"LPMR 211200Z 25009KT 210V280 9999 FEW007 OVC025 15/13 Q1005 REDZRA","updated":"2026-01-21T12:47:51Z"}
