{"icao":"LPPR","metar":"LPPR 142200Z 33003KT 270V360 5000 BR NSC 13/13 Q1017","updated":"2025-10-14T22:16:27Z"}
