{"icao":"KJFK","metar":"KJFK 030751Z 31009KT 10SM FEW050 M04/M15 A2992 RMK AO2 SLP131 T10391150 $","updated":"2026-01-03T08:25:59Z"}
