{"icao":"KLAX","metar":"KLAX 181328Z 10006KT 1/4SM R25L/1000FT FG BKN000 12/12 A2995 RMK AO2 VIS 1/8V3/4 FG BKN000 T01170117 $","updated":"2025-12-18T13:35:36Z"}
