{"icao":"LPMA","metar":"LPMA 211500Z 24005KT 190V320 9999 SCT015 SCT030 26/21 Q1020","updated":"2025-10-21T15:19:23Z"}
