{"icao":"LPAZ","metar":"LPAZ 152300Z 09005KT CAVOK 19/17 Q1026","updated":"2025-09-15T23:14:36Z"}
