{"icao":"LPMR","metar":"LPMR 170100Z 18002KT 6000 SCT004 12/11 Q1022","updated":"2025-09-17T01:16:44Z"}
