{"icao":"LPCS","metar":"LPCS 111700Z 25013KT 220V280 1100 R17/P2000N BR OVC002 15/15 Q1017","updated":"2026-02-11T17:13:24Z"}
