{"icao":"KORD","metar":"KORD 060151Z 11004KT 7SM OVC006 07/06 A3002 RMK AO2 SLP169 T00720056","updated":"2026-03-06T02:00:41Z"}
