{"icao":"LPPS","metar":"LPPS 180600Z VRB02KT 9999 FEW014 21/15 Q1019","updated":"2025-09-18T06:26:33Z"}
