{"icao":"LPAR","metar":"LPAR 211400Z 29013G24KT 240V340 7000 BKN015 15/13 Q1005","updated":"2026-01-21T14:29:45Z"}
