{"icao":"KORD","metar":"KORD 221951Z 28016G29KT 10SM SCT044 M04/M15 A3015 RMK AO2 PK WND 24034/1913 SLP219 T10441150 $","updated":"2026-01-22T20:26:55Z"}
