{"icao":"KLAX","metar":"KLAX 080253Z 33009G17KT 10SM CLR 17/03 A2993 RMK AO2 SLP134 T01670033 53009 $","updated":"2026-01-08T03:29:14Z"}
