{"icao":"LPAZ","metar":"LPAZ 211730Z 27014KT 8000 SCT001 BKN004 17/16 Q1021","updated":"2026-01-21T17:53:05Z"}
