{"icao":"LPFR","metar":"LPFR 122100Z 32016KT CAVOK 14/03 Q1019","updated":"2026-04-12T21:33:20Z"}
