{"icao":"LPFR","metar":"LPFR 300300Z 03002KT CAVOK 18/15 Q1015","updated":"2025-09-30T03:32:20Z"}
