{"icao":"LPPT","metar":"LPPT 182030Z 30008KT 9999 FEW045 13/10 Q1022","updated":"2026-02-18T20:37:24Z"}
