{"icao":"KJFK","metar":"KJFK 141751Z 17006KT 10SM FEW045 SCT070 BKN250 24/17 A3004 RMK AO2 SLP173 T02440167 10261 20200 58001 $","updated":"2025-09-14T18:21:20Z"}
