{"icao":"KLAX","metar":"KLAX 130653Z 26004KT 10SM FEW070 FEW150 17/15 A3005 RMK AO2 SLP174 T01720150 $","updated":"2025-11-13T07:18:13Z"}
