{"icao":"LPPD","metar":"LPPD 080430Z 25014KT 8000 -SHRA FEW005 SCT014 BKN030 15/14 Q1032","updated":"2026-01-08T04:38:16Z"}
