{"icao":"LPLA","metar":"LPLA 052100Z 22015G25KT 9999 FEW030 19/14 Q1013","updated":"2025-11-05T21:17:23Z"}
