{"icao":"LPOV","metar":"LPOV 161700Z VRB01KT 9999 FEW004 FEW018CB SCT045 09/09 Q1013","updated":"2026-01-16T17:23:18Z"}
