{"icao":"LPHR","metar":"LPHR 161400Z 12008KT 9000 -RADZ SCT006 BKN011 BKN025 18/16 Q1022","updated":"2025-11-16T14:15:17Z"}
