{"icao":"KORD","metar":"KORD 291510Z 14010KT 3/4SM R10L/3500V4500FT -SN BR VV012 M03/M05 A3030 RMK AO2 P0001 T10331050 $","updated":"2025-11-29T15:17:13Z"}
