{"icao":"LPBJ","metar":"LPBJ 191300Z 33009KT 300V360 9999 FEW025 13/05 Q1019","updated":"2026-01-19T13:44:02Z"}
