{"icao":"LPMR","metar":"LPMR 211100Z 29007KT CAVOK 26/16 Q1021","updated":"2026-05-21T11:21:41Z"}
