{"icao":"LPLA","metar":"LPLA 241125Z 18016G27KT 8000 -RA FEW008 BKN016 16/14 Q1011","updated":"2026-04-24T11:55:31Z"}
