{"icao":"KJFK","metar":"KJFK 180851Z 28009KT 10SM CLR 03/M06 A3007 RMK AO2 SLP182 T00331061 51019 $","updated":"2025-11-18T09:20:50Z"}
