{"icao":"KORD","metar":"KORD 021751Z 22010G17KT 10SM SCT037 SCT250 11/01 A3017 RMK AO2 SLP219 60004 T01110011 10111 20056 58017 $","updated":"2025-11-02T18:21:52Z"}
