{"icao":"LPPT","metar":"LPPT 210600Z 22007KT 190V260 9999 -RA FEW030 09/07 Q1009","updated":"2025-12-21T06:28:31Z"}
