{"icao":"LPFL","metar":"LPFL 162000Z 17017KT 150V210 6000 -RADZ BKN004 FEW012CB 19/18 Q1018","updated":"2025-11-16T20:19:12Z"}
