{"icao":"KJFK","metar":"KJFK 102151Z 18010KT 10SM FEW055 SCT070 BKN170 BKN220 01/M06 A2998 RMK AO2 SLP151 T00061061 $","updated":"2026-02-10T22:38:15Z"}
