{"icao":"LPMT","metar":"LPMT 302200Z 29003KT 9999 FEW046 15/11 Q1019","updated":"2026-04-30T23:51:32Z"}
