{"icao":"LPFL","metar":"LPFL 281830Z 21013G23KT 170V250 9999 VCSH SCT010 FEW012CB 20/16 Q1008 WS R18","updated":"2026-05-28T18:34:51Z"}
