{"icao":"LPBJ","metar":"LPBJ 201600Z 03008KT 360V060 CAVOK 17/06 Q1027","updated":"2026-02-20T16:37:11Z"}
