{"icao":"LPMR","metar":"LPMR 091000Z 35005KT 310V010 4000 BR BKN010 BKN013 17/14 Q1021","updated":"2025-10-09T10:19:04Z"}
