{"icao":"LPFL","metar":"LPFL 041200Z 17011KT 140V200 9999 FEW011 24/21 Q1026","updated":"2025-10-04T12:31:51Z"}
