{"icao":"LPOV","metar":"LPOV 301600Z 33004KT 9999 FEW025 13/09 Q1021","updated":"2025-12-30T16:26:00Z"}
