{"icao":"LPPT","metar":"LPPT 152300Z 24007KT 9999 FEW012 BKN036 13/11 Q1032","updated":"2026-02-15T23:25:02Z"}
