{"icao":"KORD","metar":"KORD 201151Z 19010G23KT 10SM BKN180 OVC250 00/M07 A2971 RMK AO2 SLP068 T00001067 10000 21050 56038","updated":"2025-12-20T12:36:40Z"}
