{"icao":"LPAZ","metar":"LPAZ 190500Z 36014KT 8000 -SHRA FEW002 BKN006 BKN010 17/16 Q1021","updated":"2025-11-19T05:18:52Z"}
