{"icao":"LPHR","metar":"LPHR 011230Z 36005KT 300V050 9999 FEW015 SCT035 17/09 Q1029","updated":"2025-12-01T12:40:31Z"}
