{"icao":"LPPR","metar":"LPPR 250430Z 26007KT 210V300 7000 FEW015 FEW018CB BKN022 13/11 Q1010","updated":"2026-01-25T04:51:10Z"}
