{"icao":"LPFL","metar":"LPFL 291000Z 18009KT 130V250 8000 -SHRA FEW012 BKN015 18/15 Q1015","updated":"2025-10-29T10:20:38Z"}
