{"icao":"KLAX","metar":"KLAX 210953Z 04003KT 10SM CLR 08/03 A3012 RMK AO2 SLP198 T00780033 $","updated":"2026-02-21T10:24:31Z"}
