{"icao":"LPAZ","metar":"LPAZ 041400Z 23012KT 9999 FEW028 BKN044 19/13 Q1025","updated":"2025-12-04T14:20:24Z"}
