{"icao":"LPFL","metar":"LPFL 021430Z 24015G26KT 200V290 9999 FEW007 SCT014 23/19 Q1027","updated":"2026-06-02T14:51:23Z"}
