{"icao":"LPBJ","metar":"LPBJ 211700Z 30006KT 9999 SCT035 08/05 Q1008","updated":"2025-12-21T17:15:50Z"}
