{"icao":"KLAX","metar":"KLAX 230853Z 36004KT 10SM FEW250 15/12 A3001 RMK AO2 SLP161 T01500117 58008 $","updated":"2026-04-23T09:26:20Z"}
