{"icao":"KJFK","metar":"KJFK 282051Z 33016G22KT 10SM BKN085 07/M14 A3042 RMK AO2 PK WND 33031/2014 SLP300 T00721139 55006","updated":"2026-03-28T21:28:37Z"}
