{"icao":"LPPS","metar":"LPPS 071800Z 21011KT 9999 SCT015 17/10 Q1012","updated":"2026-05-07T18:22:48Z"}
