{"icao":"LPFR","metar":"LPFR 011000Z 09004KT 040V150 CAVOK 25/17 Q1021","updated":"2025-10-01T10:18:29Z"}
