{"icao":"LPOV","metar":"LPOV 120800Z 14003KT 4000 BR FEW002 SCT022 10/10 Q1018","updated":"2026-02-12T08:43:55Z"}
