{"icao":"LPFL","metar":"LPFL 181230Z 32007KT 230V010 9999 VCSH SCT028 BKN040 15/05 Q1029","updated":"2025-12-18T12:42:43Z"}
