{"icao":"LPMT","metar":"LPMT 271100Z 25018KT 4000 -SHRA FEW009 SCT020 12/10 Q1002","updated":"2026-01-27T11:21:49Z"}
