{"icao":"LPLA","metar":"LPLA 240400Z 36009KT 9999 SCT022 BKN033 19/12 Q1023","updated":"2025-09-24T04:20:36Z"}
