{"icao":"LPMA","metar":"LPMA 151400Z 10004KT 040V190 9999 FEW013 SCT025 20/12 Q1019","updated":"2025-12-15T14:24:14Z"}
