{"icao":"LPPD","metar":"LPPD 210900Z 27022KT 6000 -SHRA SCT016 BKN030 13/10 Q1009","updated":"2026-04-21T09:24:22Z"}
