{"icao":"KLAX","metar":"KLAX 080853Z 00000KT 10SM FEW007 FEW015 16/14 A2992 RMK AO2 SLP129 T01610144 58004 $","updated":"2026-04-08T08:59:46Z"}
