{"icao":"KLAX","metar":"KLAX 250316Z 22007KT 9SM BKN008 20/18 A2995 RMK AO2 T02000183 $","updated":"2025-09-25T03:37:27Z"}
