{"icao":"KORD","metar":"KORD 141908Z 35017G28KT 8SM -SN FEW022 BKN045 OVC070 M07/M13 A2987 RMK AO2 PK WND 35034/1856 P0000 T10721128 $","updated":"2026-01-14T19:19:02Z"}
