{"icao":"LPMT","metar":"LPMT 180400Z 22003KT 190V250 9999 OVC033 13/09 Q1021","updated":"2026-02-18T04:51:57Z"}
