{"icao":"KLAX","metar":"KLAX 181553Z 08006KT 10SM FEW016 FEW028 SCT060 BKN250 11/09 A2993 RMK AO2 SLP135 T01060089 $","updated":"2025-11-18T16:25:51Z"}
