{"icao":"KLAX","metar":"KLAX 130053Z 26007KT 8SM BKN150 BKN200 18/16 A3002 RMK AO2 SLP166 T01780156 $","updated":"2025-11-13T01:25:04Z"}
