{"icao":"KJFK","metar":"KJFK 121951Z 26013G22KT 10SM FEW055 SCT070 BKN140 09/M02 A2973 RMK AO2 SLP067 T00941022 $","updated":"2025-11-12T20:21:11Z"}
