{"icao":"LPOV","metar":"LPOV 041000Z 25007KT 160V280 9999 -RA NSC 17/12 Q1015","updated":"2025-11-04T10:21:13Z"}
