{"icao":"LPLA","metar":"LPLA 250800Z VRB03KT 9999 SCT040 15/14 Q1027","updated":"2025-11-25T08:27:01Z"}
