{"icao":"LPOV","metar":"LPOV 311000Z 31008KT 9000 4000N PRFG FEW001 BKN004 18/15 Q1022","updated":"2026-05-31T10:14:08Z"}
