{"icao":"LPPR","metar":"LPPR 120200Z 27003KT 230V310 9999 FEW015 BKN030 13/09 Q1017","updated":"2026-02-12T02:05:37Z"}
