{"icao":"LPST","metar":"LPST 061700Z 25009KT 9999 FEW025 FEW027CB 11/07 Q1006","updated":"2026-02-09T02:06:09Z"}
