{"icao":"LPPR","metar":"LPPR 020500Z 00000KT CAVOK 14/13 Q1020","updated":"2025-10-02T05:16:22Z"}
