{"icao":"LPFL","metar":"LPFL 160900Z 18011KT 9000 -RA SCT006 BKN009 18/17 Q1019","updated":"2025-11-16T09:17:37Z"}
