{"icao":"KORD","metar":"KORD 260451Z 30012G17KT 10SM FEW031 OVC046 M14/M21 A3017 RMK AO2 SNE50 SLP231 P0000 T11391211 $","updated":"2026-01-26T05:32:21Z"}
