{"icao":"LPHR","metar":"LPHR 201700Z 24014KT 6000 FEW004 BKN006 23/22 Q1013","updated":"2025-10-20T17:16:13Z"}
