{"icao":"LPOV","metar":"LPOV 152000Z VRB02KT 7000 -RA FEW008 SCT028 BKN040 10/10 Q1005","updated":"2025-12-15T20:22:31Z"}
