{"icao":"LPMA","metar":"LPMA 281000Z VRB03KT 9999 FEW014 19/14 Q1017","updated":"2026-01-28T10:27:06Z"}
