{"icao":"LPOV","metar":"LPOV 101100Z 27008KT 240V300 CAVOK 22/11 Q1022","updated":"2025-10-10T11:15:18Z"}
