{"icao":"KORD","metar":"KORD 091351Z 30018G30KT 10SM BKN015 BKN026 BKN065 05/02 A2968 RMK AO2 PK WND 29038/1340 RAE15 PRESRR SLP054 P0000 T00500022","updated":"2026-01-09T14:23:34Z"}
