{"icao":"LPFR","metar":"LPFR 311700Z 22008KT 9999 FEW020 22/17 Q1016","updated":"2025-10-31T17:16:51Z"}
