{"icao":"LPPD","metar":"LPPD 311000Z 32005KT 290V350 9999 FEW018 SCT035 18/12 Q1009","updated":"2025-10-31T10:19:35Z"}
