{"icao":"LPLA","metar":"LPLA 012200Z 34025KT 9999 BKN025 BKN040 12/05 Q1029","updated":"2026-03-01T22:22:26Z"}
