{"icao":"KLAX","metar":"KLAX 292253Z 25012KT 10SM FEW150 FEW250 19/11 A2997 RMK AO2 SLP148 T01940111","updated":"2026-04-29T22:55:51Z"}
