{"icao":"LPHR","metar":"LPHR 241300Z 17004KT 130V220 9999 FEW018TCU 22/19 Q1018","updated":"2025-10-24T20:20:40Z"}
