{"icao":"LPAZ","metar":"LPAZ 101030Z 04006KT 360V080 9999 BKN032 13/06 Q1035","updated":"2026-03-10T10:37:54Z"}
