{"icao":"LPMR","metar":"LPMR 101800Z 19011KT 150V220 9999 FEW014 SCT030 15/15 Q1009 RMK WIND PK 22020/29 RH96 BLU","updated":"2026-05-10T19:01:31Z"}
