{"icao":"LPMT","metar":"LPMT 020700Z 03007KT CAVOK 24/16 Q1016","updated":"2026-07-02T07:29:55Z"}
