{"icao":"LPMA","metar":"LPMA 292200Z 32004KT 280V340 9999 FEW015 18/14 Q1023","updated":"2026-01-29T22:26:59Z"}
