{"icao":"LPPD","metar":"LPPD 050700Z 09006KT 060V120 9999 FEW016 20/17 Q1025","updated":"2025-10-05T07:14:29Z"}
