{"icao":"KORD","metar":"KORD 180251Z 18011G17KT 10SM FEW170 SCT250 BKN300 20/11 A2975 RMK AO2 SLP072 T02000106 56005","updated":"2025-10-18T02:53:54Z"}
