{"icao":"LPPT","metar":"LPPT 262200Z 21023G34KT 9000 -RA BKN015 14/13 Q1007 WS R20","updated":"2026-01-26T22:20:38Z"}
