{"icao":"LPFL","metar":"LPFL 121530Z 25010KT 200V280 9999 SCT012 18/14 Q1028","updated":"2026-03-12T15:57:50Z"}
