{"icao":"LPPS","metar":"LPPS 071030Z 34018KT 9999 FEW015 16/07 Q1023","updated":"2026-04-07T10:53:53Z"}
