{"icao":"LPMR","metar":"LPMR 081800Z 16012KT 9999 FEW020 17/12 Q1017","updated":"2025-12-08T18:29:29Z"}
