{"icao":"KLAX","metar":"KLAX 280453Z 33005KT 10SM CLR 13/05 A3010 RMK AO2 SLP193 T01330050 $","updated":"2025-12-28T05:23:23Z"}
