{"icao":"LPAZ","metar":"LPAZ 262000Z 05016G26KT 020V080 9999 -SHRA SCT013 BKN020 FEW025TCU 18/16 Q1017","updated":"2025-10-26T20:19:03Z"}
