{"icao":"LPOV","metar":"LPOV 111400Z 17017G29KT 9999 FEW045 20/12 Q1009","updated":"2025-11-11T14:19:24Z"}
