{"icao":"LPOV","metar":"LPOV 261400Z 34009KT CAVOK 16/08 Q1025","updated":"2025-11-26T14:19:25Z"}
