{"icao":"LPMT","metar":"LPMT 170200Z 04003KT CAVOK 10/09 Q1019","updated":"2026-04-17T02:29:31Z"}
