{"icao":"LPPR","metar":"LPPR 012300Z 01002KT CAVOK 15/14 Q1021","updated":"2025-10-01T23:15:33Z"}
