{"icao":"LPMT","metar":"LPMT 250900Z 26011KT 230V290 5000 SHRA BKN015 14/14 Q1015","updated":"2026-01-25T09:20:18Z"}
