{"icao":"LPFL","metar":"LPFL 041130Z 07006KT 360V160 9999 SCT025 17/09 Q1027","updated":"2026-05-04T11:47:11Z"}
