{"icao":"KJFK","metar":"KJFK 251051Z 21008KT 10SM BKN200 07/04 A3027 RMK AO2 SLP249 T00720039","updated":"2025-11-25T11:16:58Z"}
