{"icao":"LPAZ","metar":"LPAZ 222000Z 03013KT 9999 FEW021 BKN030 15/10 Q1019","updated":"2026-03-22T20:26:20Z"}
