{"icao":"LPBJ","metar":"LPBJ 251600Z 30008KT 270V330 9999 VCSH SCT045 26/13 Q1013","updated":"2026-04-25T16:39:27Z"}
