{"icao":"LPAR","metar":"LPAR 101400Z 26013G23KT 240V300 7000 BKN015 BKN022 17/16 Q1015","updated":"2026-02-10T14:56:59Z"}
