{"icao":"LPMA","metar":"LPMA 080900Z 23004KT 170V290 9999 -SHRA SCT015 FEW018TCU 16/12 Q1008","updated":"2026-05-08T09:18:41Z"}
