{"icao":"KORD","metar":"KORD 200105Z 00000KT 5SM -DZ BR OVC013 06/04 A3019 RMK AO2 P0000 T00610039","updated":"2025-11-20T01:22:27Z"}
