{"icao":"LPPT","metar":"LPPT 110900Z VRB03KT 1800 -DZRA BR FEW001 BKN003 11/11 Q1027","updated":"2026-01-11T09:19:36Z"}
