{"icao":"LPAZ","metar":"LPAZ 112000Z 26017KT 9999 SCT018 SCT045 16/12 Q1017","updated":"2026-01-11T20:21:46Z"}
