{"icao":"LPMT","metar":"LPMT 270700Z 03013KT 9999 SCT040 16/10 Q1019","updated":"2025-10-27T07:18:04Z"}
