{"icao":"LPMT","metar":"LPMT 232100Z 20004KT CAVOK 13/12 Q1021","updated":"2026-02-23T21:42:53Z"}
