{"icao":"LPMA","metar":"LPMA 300400Z 36009KT 320V040 9999 SCT016 21/14 Q1020","updated":"2025-09-30T04:21:32Z"}
