{"icao":"KJFK","metar":"KJFK 192051Z 05006KT 10SM FEW025 BKN049 08/02 A3018 RMK AO2 SLP219 T00780017 53006 $","updated":"2025-11-19T21:14:37Z"}
