{"icao":"KJFK","metar":"KJFK 060651Z 04012KT 10SM -RA BKN012 OVC030 03/02 A3025 RMK AO2 SLP242 P0006 T00280017","updated":"2026-03-06T07:37:41Z"}
