{"icao":"KORD","metar":"KORD 310416Z 24008KT 3SM -SN BR SCT017 BKN025 OVC040 M05/M06 A2995 RMK T10501061 ","updated":"2025-12-31T04:37:17Z"}
