{"icao":"KLAX","metar":"KLAX 291853Z 26006KT 10SM FEW019 OVC025 19/13 A2993 RMK AO2 SLP135 T01890133 $","updated":"2026-06-29T19:54:59Z"}
