{"icao":"LPAR","metar":"LPAR 261000Z 07004KT 040V120 CAVOK 12/08 Q1026","updated":"2025-11-26T10:21:29Z"}
