{"icao":"LPPS","metar":"LPPS 282000Z 03013KT 360V070 9999 SCT014 BKN030 14/10 Q1026","updated":"2026-02-28T20:24:29Z"}
