{"icao":"LPPT","metar":"LPPT 222100Z 33015KT CAVOK 16/10 Q1018","updated":"2025-09-22T21:14:45Z"}
