{"icao":"KORD","metar":"KORD 192051Z 23005KT 10SM FEW085 FEW100 SCT140 BKN170 OVC250 29/15 A2999 RMK AO2 SLP148 T02940150 56010","updated":"2025-09-19T21:14:39Z"}
