{"icao":"LPOV","metar":"LPOV 101700Z 34013KT CAVOK 18/14 Q1012","updated":"2026-04-10T17:46:09Z"}
