{"icao":"LPFR","metar":"LPFR 161800Z 27007KT CAVOK 25/19 Q1018","updated":"2025-09-16T18:25:17Z"}
