{"icao":"LPFR","metar":"LPFR 051730Z 25017KT 7000 FEW020 SCT030 16/13 Q1003","updated":"2026-02-05T17:45:27Z"}
