{"icao":"LPPD","metar":"LPPD 190800Z 01006KT 9999 FEW018 12/08 Q1030","updated":"2026-01-19T08:31:31Z"}
