{"icao":"LPCS","metar":"LPCS 011330Z 22004KT 160V260 CAVOK 17/09 Q1020","updated":"2026-03-01T13:37:29Z"}
