{"icao":"LPAZ","metar":"LPAZ 100100Z 10006KT CAVOK 12/07 Q1024","updated":"2025-12-10T01:28:06Z"}
