{"icao":"LPFL","metar":"LPFL 011900Z 32012G34KT 240V030 9999 -SHRA SCT018 SCT022TCU 11/05 Q1012","updated":"2026-02-01T19:23:28Z"}
