{"icao":"KJFK","metar":"KJFK 271451Z 01011KT 2SM -SN BR OVC019 M03/M06 A3011 RMK AO2 SFC VIS 2 1/2 VIS 1 3/4 W SNB12 SLP196 P0000 60000 T10331056 51045 $","updated":"2025-12-27T15:18:22Z"}
