{"icao":"LPOV","metar":"LPOV 191200Z 20010KT 3000 -DZRA BR SCT008 BKN012 BKN020 17/17 Q1023","updated":"2026-05-19T12:08:24Z"}
