{"icao":"LPCS","metar":"LPCS 142000Z 35020KT 9999 FEW015 15/09 Q1013","updated":"2026-05-14T20:39:48Z"}
