{"icao":"LPFL","metar":"LPFL 211300Z VRB14G31KT 8000 -DZRA FEW010 SCT017 BKN049 15/11 Q1007","updated":"2026-04-21T13:24:09Z"}
