{"icao":"LPPD","metar":"LPPD 230800Z VRB01KT 9999 FEW018 BKN035 15/14 Q1028","updated":"2025-11-23T08:22:46Z"}
