{"icao":"LPCS","metar":"LPCS 121830Z 35020KT 9999 FEW020 SCT028 13/05 Q1021","updated":"2026-04-12T18:47:47Z"}
