{"icao":"LPPR","metar":"LPPR 291500Z 24005KT 210V300 9999 FEW025 14/08 Q1019","updated":"2025-12-29T15:21:18Z"}
