{"icao":"LPAZ","metar":"LPAZ 270630Z 02007KT 9999 FEW013 13/11 Q1033","updated":"2026-02-27T06:52:22Z"}
