{"icao":"LPMT","metar":"LPMT 201500Z 35012KT 320V020 9999 FEW040 15/06 Q1020","updated":"2025-11-20T15:19:59Z"}
