{"icao":"LPMR","metar":"LPMR 240300Z 29003KT 8000 OVC006 16/16 Q1020","updated":"2026-05-24T03:38:29Z"}
