{"icao":"LPMA","metar":"LPMA 122300Z 35010KT 300V010 9999 FEW015 17/12 Q1016","updated":"2026-01-12T23:16:04Z"}
