{"icao":"LPMA","metar":"LPMA 241700Z VRB06KT 9999 FEW015 SCT030 23/13 Q1019","updated":"2025-09-24T17:15:56Z"}
