{"icao":"LPPT","metar":"LPPT 220430Z 29005KT 260V320 9999 FEW020 11/08 Q1009","updated":"2026-01-22T04:46:53Z"}
