{"icao":"KJFK","metar":"KJFK 080151Z 34024G39KT 10SM FEW050 BKN065 BKN090 BKN250 M14/M23 A3000 RMK AO2 PK WND 34043/0119 SLP159 T11391233 $","updated":"2026-02-08T02:28:36Z"}
