{"icao":"KJFK","metar":"KJFK 301151Z 22006KT 10SM SCT250 24/18 A3013 RMK SLP202 T02440183 10244 20206 50003 $ ","updated":"2026-06-30T12:06:50Z"}
