{"icao":"LPLA","metar":"LPLA 311900Z 21005KT 130V280 9999 FEW014 SCT030 18/15 Q1014","updated":"2026-01-31T19:19:32Z"}
