{"icao":"LPCS","metar":"LPCS 091100Z 35016KT 9999 FEW008 SCT016 19/15 Q1021","updated":"2025-10-09T11:14:54Z"}
