{"icao":"KORD","metar":"KORD 300310Z 15011KT 3/4SM R10L/P6000FT -SN BR VV010 M02/M03 A2982 RMK AO2 P0000 T10171028 $","updated":"2025-11-30T03:25:51Z"}
