{"icao":"LPPD","metar":"LPPD 210300Z 05005KT 010V100 9999 FEW020 19/14 Q1028","updated":"2025-09-21T03:05:48Z"}
