{"icao":"KLAX","metar":"KLAX 240753Z 08008KT 9SM -RA OVC070 16/13 A2993 RMK AO2 RAB19 SLP135 P0002 T01560128 401780150 $","updated":"2025-12-24T08:28:31Z"}
