{"icao":"LPBJ","metar":"LPBJ 300800Z 07005KT CAVOK 19/14 Q1018","updated":"2025-09-30T08:25:05Z"}
