{"icao":"LPLA","metar":"LPLA 140700Z 21004KT 160V240 9999 FEW014 SCT025 15/13 Q1023","updated":"2026-01-14T07:24:09Z"}
