{"icao":"KORD","metar":"KORD 140751Z 30010G20KT 10SM FEW025 M18/M23 A3038 RMK AO2 SLP306 T11781233","updated":"2025-12-14T08:24:26Z"}
