{"icao":"LPMR","metar":"LPMR 110500Z 21004KT 180V240 8000 SCT040 10/10 Q1021","updated":"2025-12-11T05:21:20Z"}
