{"icao":"LPBJ","metar":"LPBJ 150700Z VRB02KT 6000 VCFG NSC 06/05 Q1030","updated":"2026-02-15T07:37:00Z"}
