{"icao":"KORD","metar":"KORD 230351Z 28018G33KT 10SM FEW035 M12/M23 A3028 RMK AO2 PK WND 27033/0347 SLP266 T11171233 $","updated":"2026-01-23T04:41:23Z"}
