{"icao":"LPHR","metar":"LPHR 161700Z 26010KT 5000 -RA BR SCT004 BKN007 BKN012 16/15 Q1017","updated":"2026-04-16T17:12:42Z"}
