{"icao":"LPPT","metar":"LPPT 082200Z 34013KT 310V010 9999 BKN012 18/15 Q1022","updated":"2026-06-08T22:24:51Z"}
