{"icao":"KJFK","metar":"KJFK 020451Z 00000KT 10SM FEW250 11/09 A3019 RMK AO2 SLP224 T01110089 402220106 $","updated":"2026-06-02T05:47:10Z"}
