{"icao":"LPBJ","metar":"LPBJ 070500Z 16016KT CAVOK 15/11 Q1011","updated":"2026-04-07T05:08:05Z"}
