{"icao":"LPFL","metar":"LPFL 191000Z 18005KT 140V220 9999 FEW027 15/10 Q1027","updated":"2025-12-19T10:21:59Z"}
