{"icao":"LPFR","metar":"LPFR 141330Z 33019KT CAVOK 16/02 Q1026","updated":"2026-02-14T13:42:46Z"}
