{"icao":"KORD","metar":"KORD 251751Z 06012KT 10SM FEW017 OVC230 06/01 A3014 RMK AO2 SLP211 T00560006 10056 20039 58013 $","updated":"2025-12-25T18:28:14Z"}
