{"icao":"LPFR","metar":"LPFR 092200Z 30008KT 9999 FEW030 11/05 Q1022","updated":"2026-03-09T22:27:08Z"}
