{"icao":"LPFR","metar":"LPFR 042200Z 23018KT 8000 FEW006 BKN016 16/15 Q1003","updated":"2026-02-04T22:26:30Z"}
