{"icao":"KLAX","metar":"KLAX 200553Z 25006KT 9SM FEW008 21/18 A2993 RMK AO2 SLP132 T02060183 10233 20206 51009","updated":"2025-09-20T06:23:53Z"}
