{"icao":"LPHR","metar":"LPHR 231230Z 30019KT 9999 FEW018 15/07 Q1026","updated":"2026-01-23T12:44:17Z"}
