{"icao":"LPMA","metar":"LPMA 132000Z 01023G39KT 340V050 9999 BKN015 FEW016TCU 17/13 Q1016","updated":"2025-12-13T20:19:50Z"}
