{"icao":"LPPT","metar":"LPPT 080100Z 33009KT CAVOK 17/13 Q1023","updated":"2025-10-08T01:17:38Z"}
