{"icao":"LPMA","metar":"LPMA 050330Z 02013KT 9999 -SHRA BKN015 FEW018CB 15/13 Q1014","updated":"2026-01-05T03:54:34Z"}
