{"icao":"LPPT","metar":"LPPT 030130Z 28007KT 220V320 9000 -SHRA FEW018 FEW020CB BKN035 08/07 Q1002 RESHRA","updated":"2026-02-03T02:02:47Z"}
