{"icao":"KLAX","metar":"KLAX 030353Z 23011KT 10SM BKN010 17/14 A2999 RMK AO2 SLP153 T01670139 $","updated":"2026-06-03T03:57:56Z"}
