{"icao":"KJFK","metar":"KJFK 051751Z 18015G23KT 10SM FEW060 FEW250 18/12 A2985 RMK SLP106 T01780117 10189 20150 58014 ","updated":"2026-05-05T18:09:35Z"}
