{"icao":"LPMA","metar":"LPMA 060800Z 01005KT 330V040 9999 FEW009 SCT015 BKN030 22/16 Q1021","updated":"2025-10-06T08:24:19Z"}
