{"icao":"KLAX","metar":"KLAX 042253Z 20010KT 10SM SCT038 BKN042 OVC100 16/13 A2999 RMK AO2 SLP154 T01610128","updated":"2026-01-04T23:19:00Z"}
