{"icao":"LPMA","metar":"LPMA 230700Z 01010KT 9999 SCT015 18/11 Q1025","updated":"2025-11-23T07:17:05Z"}
