{"icao":"LPHR","metar":"LPHR 102100Z 32013G25KT 280V360 9999 FEW020 SCT035 15/10 Q1019","updated":"2025-12-10T22:19:18Z"}
