{"icao":"KORD","metar":"KORD 121851Z 28013G24KT 10SM FEW250 12/M04 A2991 RMK AO2 PK WND 26026/1822 SLP131 T01221039","updated":"2025-11-12T19:15:33Z"}
