{"icao":"KORD","metar":"KORD 012351Z 03007KT 10SM SCT210 BKN250 20/04 A3012 RMK AO2 SLP197 T02000039 10228 20183 51007","updated":"2026-06-02T00:12:19Z"}
