{"icao":"LPPD","metar":"LPPD 141900Z 19015KT 9999 SCT016 FEW020CB 21/17 Q1006","updated":"2025-10-14T19:13:52Z"}
