{"icao":"LPMT","metar":"LPMT 071200Z 27007KT 240V300 9999 SCT033 24/16 Q1022","updated":"2025-10-07T12:37:12Z"}
