{"icao":"LPPS","metar":"LPPS 250900Z 01007KT 340V040 9999 FEW015 22/14 Q1020","updated":"2025-09-25T09:19:15Z"}
