{"icao":"LPPR","metar":"LPPR 271530Z 32008KT 290V360 9999 FEW020 23/15 Q1012","updated":"2026-04-27T15:46:43Z"}
