{"icao":"KLAX","metar":"KLAX 051053Z 00000KT 10SM FEW220 16/M01 A3003 RMK AO2 SLP167 T01611006 $","updated":"2026-02-05T11:34:25Z"}
