{"icao":"LPPT","metar":"LPPT 100500Z 01006KT CAVOK 18/12 Q1019","updated":"2025-10-10T05:17:15Z"}
