{"icao":"LPMA","metar":"LPMA 241830Z 01013KT 330V030 9999 SCT014 17/12 Q1017","updated":"2026-03-24T19:01:44Z"}
