{"icao":"LPPT","metar":"LPPT 240700Z 24004KT 210V300 9999 FEW014 FEW025TCU SCT030 07/06 Q1004","updated":"2026-01-24T07:18:49Z"}
