{"icao":"LPMA","metar":"LPMA 040500Z 02010KT 9999 FEW015 21/17 Q1025","updated":"2025-10-04T05:15:43Z"}
