{"icao":"LPHR","metar":"LPHR 300700Z 18012KT 4000 -DZ BR SCT002 BKN004 22/22 Q1018","updated":"2025-09-30T07:17:45Z"}
