{"icao":"KORD","metar":"KORD 110251Z 29004KT 10SM SCT042 BKN050 14/12 A3010 RMK AO2 SLP191 T01390117 52005","updated":"2025-10-11T03:25:10Z"}
