{"icao":"LPPD","metar":"LPPD 081500Z 35016KT 320V020 9999 FEW025 SCT040 19/12 Q1033","updated":"2026-04-08T15:08:21Z"}
