{"icao":"LPCS","metar":"LPCS 250800Z 19009KT 0600 R17/0700N -DZ FG VV002 19/19 Q1014","updated":"2025-10-25T08:20:14Z"}
