{"icao":"LPOV","metar":"LPOV 230000Z 35007KT CAVOK 14/07 Q1019","updated":"2025-09-23T01:17:29Z"}
