{"icao":"LPBJ","metar":"LPBJ 301900Z 20003KT 9999 FEW045 18/13 Q1015","updated":"2025-10-30T19:14:31Z"}
