{"icao":"KJFK","metar":"KJFK 120851Z 29016G25KT 10SM SCT060 M03/M13 A2994 RMK AO2 PK WND 30029/0810 SLP137 T10281133 51014 $","updated":"2025-12-12T09:23:35Z"}
