{"icao":"LPPT","metar":"LPPT 260900Z 36007KT CAVOK 12/05 Q1026","updated":"2025-11-26T09:21:46Z"}
