{"icao":"LPAR","metar":"LPAR 221600Z 26008KT 220V310 9999 FEW022 BKN028 24/18 Q1018","updated":"2025-10-23T03:02:19Z"}
