{"icao":"LPPR","metar":"LPPR 111330Z 18013KT 9999 FEW035 14/10 Q1018","updated":"2025-12-11T13:37:56Z"}
