{"icao":"LPPS","metar":"LPPS 051800Z 04012G22KT 360V070 9999 SCT015 SCT030 15/09 Q1022","updated":"2026-01-05T18:31:40Z"}
