{"icao":"LPPR","metar":"LPPR 021630Z 23010KT 200V260 9999 SCT012 FEW025CB 18/14 Q1014","updated":"2026-05-02T16:43:54Z"}
