{"icao":"KJFK","metar":"KJFK 170551Z 30015G29KT 10SM BKN060 BKN080 04/M06 A2956 RMK AO2 PK WND 29030/0540 SLP009 T00441056 10067 20044 53007 $","updated":"2025-11-17T06:29:52Z"}
