{"icao":"KJFK","metar":"KJFK 162151Z 06005KT 10SM FEW038 SCT250 03/M06 A3016 RMK AO2 SLP211 T00331056 $","updated":"2026-02-16T22:27:34Z"}
