{"icao":"LPMT","metar":"LPMT 151900Z 33005KT CAVOK 14/10 Q1019","updated":"2026-03-15T19:26:40Z"}
