{"icao":"KJFK","metar":"KJFK 091051Z 01012KT 10SM SCT029 SCT250 12/06 A3037 RMK AO2 SLP285 T01170061","updated":"2025-10-09T11:14:58Z"}
