{"icao":"LPMR","metar":"LPMR 200500Z 09003KT 2000 BR DU SCT001 OVC003 11/11 Q1013","updated":"2026-04-20T05:39:38Z"}
