{"icao":"LPMT","metar":"LPMT 231600Z 23005KT 200V260 9999 FEW030 BKN035 16/11 Q1024","updated":"2025-11-23T16:21:08Z"}
