{"icao":"LPPS","metar":"LPPS 120900Z 34026G38KT 8000 SCT010 FEW018CB BKN030 14/11 Q1021 RERA","updated":"2025-12-12T09:23:35Z"}
