{"icao":"LPPR","metar":"LPPR 230900Z 17010KT 9999 BKN005 BKN014 12/11 Q1025","updated":"2025-11-23T09:17:30Z"}
