{"icao":"KJFK","metar":"KJFK 140551Z 24008KT 10SM BKN140 BKN180 BKN250 M02/M08 A3014 RMK AO2 SLP206 4/003 T10221083 10006 21028 58001 $","updated":"2026-02-14T06:42:40Z"}
