{"icao":"KJFK","metar":"KJFK 202251Z 31014G23KT 10SM SCT080 SCT100 BKN250 28/08 A2976 RMK AO2 PK WND 32027/2203 SLP077 T02780083 $","updated":"2026-06-20T23:07:06Z"}
