{"icao":"LPPT","metar":"LPPT 051300Z 08006KT 040V140 9999 FEW025 23/14 Q1020","updated":"2025-10-05T13:19:57Z"}
