{"icao":"KLAX","metar":"KLAX 201853Z 25005KT 10SM CLR 28/14 A2996 RMK AO2 SLP144 T02780144","updated":"2026-03-20T19:36:27Z"}
