{"icao":"KORD","metar":"KORD 100951Z 26014G21KT 10SM OVC018 04/01 A2925 RMK AO2 PK WND 26027/0912 SLP910 T00390011","updated":"2025-12-10T10:22:52Z"}
