{"icao":"LPCS","metar":"LPCS 141000Z 22012KT 170V260 7000 -SHRA SCT010 SCT020CB BKN025 14/13 Q1003","updated":"2025-11-14T10:20:38Z"}
