{"icao":"LPMA","metar":"LPMA 161000Z 36012KT 320V050 9999 SCT015 18/13 Q1024","updated":"2026-05-16T10:13:12Z"}
