{"icao":"LPFR","metar":"LPFR 041330Z 24025KT 6000 FEW006 BKN015 16/15 Q1002","updated":"2026-02-04T14:03:46Z"}
