{"icao":"LPMT","metar":"LPMT 012000Z 21014KT 170V240 5000 -RADZ BR SCT007 BKN020 14/14 Q1006","updated":"2026-02-01T20:25:25Z"}
