{"icao":"LPMA","metar":"LPMA 202200Z 31005KT 250V360 9999 SCT015 15/08 Q1024","updated":"2026-01-20T22:21:44Z"}
