{"icao":"KORD","metar":"KORD 122151Z 23009KT 10SM FEW250 05/M03 A3005 RMK AO2 SLP184 T00501028 $","updated":"2026-01-12T22:17:50Z"}
