{"icao":"LPFL","metar":"LPFL 221700Z 36006KT 9999 FEW011 SCT045 19/17 Q1007","updated":"2025-10-22T17:17:16Z"}
