{"icao":"KJFK","metar":"KJFK 191751Z 27013G22KT 10SM FEW060 FEW140 BKN250 27/12 A2967 RMK AO2 SLP047 T02670117 10267 20222 58014 $","updated":"2026-06-19T18:00:00Z"}
