{"icao":"LPHR","metar":"LPHR 081500Z 05016G27KT 010V100 9999 FEW018 14/05 Q1030","updated":"2026-03-08T15:22:39Z"}
