{"icao":"KLAX","metar":"KLAX 301453Z 10003KT 10SM CLR 18/12 A2995 RMK AO2 SLP138 T01830122 53007 $","updated":"2025-10-30T15:20:03Z"}
