{"icao":"LPAR","metar":"LPAR 011400Z 08006KT 030V120 9999 FEW027 30/11 Q1019","updated":"2025-10-01T14:17:56Z"}
