{"icao":"LPBJ","metar":"LPBJ 160500Z 25003KT 210V270 CAVOK 15/14 Q1020","updated":"2025-09-16T05:16:19Z"}
