{"icao":"LPFL","metar":"LPFL 160830Z 18018G31KT 150V220 9999 FEW015 BKN045 17/14 Q1018","updated":"2026-02-16T08:45:59Z"}
