{"icao":"KLAX","metar":"KLAX 120453Z VRB05KT 10SM CLR 17/M02 A3019 RMK AO2 SLP223 T01721017 $","updated":"2026-01-12T05:28:38Z"}
