{"icao":"KORD","metar":"KORD 131451Z 15014G22KT 8SM FEW007 FEW080 BKN180 OVC250 18/17 A3003 RMK AO2 WSHFT 1338 RAE03 TSE12 SLP166 CB DSNT SE-S MOV SE P0000 60027 T01830172 50003 $","updated":"2025-09-13T15:14:15Z"}
