{"icao":"LPPD","metar":"LPPD 020430Z 29019G30KT 9999 FEW025 13/07 Q1013","updated":"2026-02-02T04:56:08Z"}
