{"icao":"LPLA","metar":"LPLA 252300Z 11004KT 070V140 9999 OVC025 14/10 Q1031","updated":"2026-03-25T23:33:42Z"}
