{"icao":"LPFR","metar":"LPFR 121700Z 17015KT 9000 SCT015 SCT025 21/18 Q1008","updated":"2025-11-12T17:17:51Z"}
