{"icao":"KORD","metar":"KORD 020051Z VRB03KT 10SM OVC047 M08/M15 A2991 RMK AO2 SLP140 T10781150 $","updated":"2026-01-02T01:41:32Z"}
