{"icao":"LPPD","metar":"LPPD 240600Z 02008KT 350V050 9999 FEW010 SCT035 14/12 Q1023","updated":"2025-12-24T06:32:03Z"}
