{"icao":"LPFL","metar":"LPFL 131730Z 20022G42KT 170V250 9999 BKN010 19/15 Q1011","updated":"2026-04-13T17:58:29Z"}
