{"icao":"KJFK","metar":"KJFK 100251Z 22016G25KT 10SM FEW045 FEW110 BKN250 02/M03 A2997 RMK AO2 PK WND 22026/0233 SLP148 T00171033 58025","updated":"2025-12-10T03:21:29Z"}
