{"icao":"KLAX","metar":"KLAX 262253Z 25010KT 5SM HZ FEW010 18/14 A3000 RMK AO2 SLP157 T01830139 $","updated":"2025-10-26T23:16:23Z"}
