{"icao":"LPMA","metar":"LPMA 091130Z 04008KT 360V080 9999 SCT015 19/12 Q1012","updated":"2026-05-09T11:50:46Z"}
