{"icao":"LPPD","metar":"LPPD 252200Z 32003KT 290V350 9999 FEW025 13/10 Q1029","updated":"2026-02-25T22:32:28Z"}
