{"icao":"LPPI","metar":"LPPI 270600Z VRB05KT 7000 -DZ SCT004 BKN008 19/18 Q1023","updated":"2026-06-27T06:30:03Z"}
