{"icao":"KLAX","metar":"KLAX 040553Z 23004KT 8SM FEW010 SCT250 16/14 A3006 RMK AO2 SLP179 T01610144 10178 20156 53010 $","updated":"2025-11-04T06:28:46Z"}
