{"icao":"LPPS","metar":"LPPS 232000Z 02010KT 350V050 9999 FEW015 21/13 Q1021","updated":"2025-09-23T20:18:58Z"}
