{"icao":"LPHR","metar":"LPHR 081500Z 29012KT 9000 VCSH SCT014 BKN035 18/15 Q1020 RESHRA","updated":"2025-11-08T15:16:07Z"}
