{"icao":"LPPS","metar":"LPPS 081100Z 07012KT 030V110 9999 FEW015 BKN030 23/16 Q1027","updated":"2025-10-08T11:14:48Z"}
