{"icao":"LPCS","metar":"LPCS 271630Z 36018G28KT 9999 FEW015 15/10 Q1024","updated":"2026-02-27T16:39:03Z"}
