{"icao":"LPFL","metar":"LPFL 241300Z 27015G28KT 220V030 9999 FEW009 FEW012TCU 19/13 Q1016","updated":"2026-01-24T13:29:43Z"}
