{"icao":"KJFK","metar":"KJFK 201051Z 26008G19KT 10SM FEW250 M01/M09 A3012 RMK AO2 SLP198 T10111089 $","updated":"2025-12-20T11:15:19Z"}
