{"icao":"LPMR","metar":"LPMR 061400Z 29008KT 240V320 9999 FEW025 18/09 Q1017","updated":"2025-11-06T14:18:59Z"}
