{"icao":"LPPS","metar":"LPPS 271100Z 19015KT 9999 FEW006 SCT012 BKN030 23/22 Q1017","updated":"2025-10-27T11:16:34Z"}
