{"icao":"LPPR","metar":"LPPR 041700Z 17012KT 9999 FEW040 20/13 Q1010","updated":"2025-11-04T17:13:36Z"}
