{"icao":"LPCS","metar":"LPCS 021300Z 15017KT 9999 FEW010 BKN022 16/14 Q1000","updated":"2026-01-02T13:31:34Z"}
