{"icao":"KLAX","metar":"KLAX 311253Z 10007KT 5SM BR SCT007 OVC010 17/15 A2996 RMK AO2 SLP143 T01720150 $","updated":"2025-10-31T13:28:30Z"}
