{"icao":"KORD","metar":"KORD 142051Z 34016G28KT 10SM SCT023 BKN034 BKN050 M07/M15 A2990 RMK AO2 PK WND 33032/2037 SNE31 SLP133 P0000 60000 T10671150 51021 $","updated":"2026-01-14T21:20:52Z"}
