{"icao":"KORD","metar":"KORD 170651Z 02003KT 10SM CLR 18/15 A3012 RMK AO2 SLP195 T01780150 $","updated":"2025-09-17T07:16:29Z"}
