{"icao":"LPFL","metar":"LPFL 031930Z 12006KT 050V220 9999 BKN021 16/11 Q1024","updated":"2026-05-03T19:55:43Z"}
