{"icao":"LPMA","metar":"LPMA 080300Z 35006KT 320V020 9999 SCT015 16/09 Q1034","updated":"2026-01-08T03:29:02Z"}
