{"icao":"LPPS","metar":"LPPS 262300Z 03007KT 010V070 9999 SCT015 BKN030 18/11 Q1023","updated":"2025-11-26T23:17:41Z"}
