{"icao":"LPFL","metar":"LPFL 021330Z VRB06KT 9999 SCT019 14/08 Q1015","updated":"2026-02-02T14:03:36Z"}
