{"icao":"LPFR","metar":"LPFR 161530Z 25010KT 9999 SCT032 16/12 Q1030","updated":"2026-02-16T15:39:06Z"}
