{"icao":"LPMR","metar":"LPMR 150700Z VRB02KT 1400 BR FEW002 11/10 Q1016","updated":"2025-10-15T07:18:29Z"}
