{"icao":"KORD","metar":"KORD 172251Z 10005KT 10SM FEW300 26/13 A3003 RMK AO2 SLP164 T02610133 $","updated":"2025-09-17T23:15:53Z"}
