{"icao":"LPPR","metar":"LPPR 180330Z 16003KT 110V210 9000 BKN002 16/15 Q1017","updated":"2026-06-18T03:50:23Z"}
