{"icao":"LPLA","metar":"LPLA 060528Z 28013KT 6000 -SHRA BKN020 BKN040 12/08 Q1012","updated":"2026-02-06T05:52:15Z"}
