{"icao":"KJFK","metar":"KJFK 060051Z 19012KT 10SM CLR 22/16 A3027 RMK AO2 SLP249 T02170161","updated":"2025-10-06T01:19:08Z"}
