{"icao":"LPFR","metar":"LPFR 161500Z 25015KT 9999 FEW010 FEW015TCU 20/15 Q1013","updated":"2025-11-16T15:16:23Z"}
