{"icao":"KJFK","metar":"KJFK 172151Z 01006KT 10SM FEW140 FEW250 16/00 A2994 RMK AO2 SLP138 T01610000","updated":"2025-10-17T22:16:10Z"}
