{"icao":"LPPS","metar":"LPPS 090600Z 34003KT 9999 SCT015 18/13 Q1022","updated":"2025-11-09T06:25:47Z"}
