{"icao":"LPBJ","metar":"LPBJ 250600Z 26012KT 8000 -RA FEW006 SCT035 11/11 Q1015","updated":"2026-01-25T06:30:11Z"}
