{"icao":"KLAX","metar":"KLAX 141453Z 10004KT 10SM FEW065 12/08 A3014 RMK AO2 SLP206 T01220078 53004 $","updated":"2026-01-14T15:24:59Z"}
