{"icao":"LPAR","metar":"LPAR 271500Z 05008KT CAVOK 22/05 Q1016","updated":"2026-03-27T15:52:07Z"}
