{"icao":"KJFK","metar":"KJFK 300451Z 22007KT 10SM FEW095 SCT250 22/17 A3013 RMK SLP203 T02170167 402890183 ","updated":"2026-06-30T05:01:50Z"}
