{"icao":"LPMA","metar":"LPMA 102230Z VRB02KT 9999 FEW016 15/10 Q1016","updated":"2026-05-10T22:45:06Z"}
