{"icao":"LPLA","metar":"LPLA 100200Z 35014KT 9999 FEW018 SCT023 14/10 Q1021","updated":"2026-05-10T02:49:56Z"}
