{"icao":"LPMT","metar":"LPMT 112000Z 19008KT 150V220 9999 FEW025 18/14 Q1009","updated":"2025-11-11T20:20:01Z"}
