{"icao":"LPLA","metar":"LPLA 110216Z 36010KT 330V030 4500 SHRA SCT012 BKN015 FEW018TCU BKN040 15/12 Q1021","updated":"2026-05-11T02:58:33Z"}
