{"icao":"LPPR","metar":"LPPR 281900Z 19006KT 150V210 9999 FEW015 SCT032 BKN042 19/14 Q1009","updated":"2025-10-28T19:14:33Z"}
