{"icao":"LPPR","metar":"LPPR 301230Z 18016KT 9999 FEW025 BKN040 18/14 Q1012","updated":"2025-10-30T12:37:59Z"}
