{"icao":"KJFK","metar":"KJFK 052151Z 19024G34KT 10SM FEW060 FEW220 BKN250 17/11 A2979 RMK PK WND 19035/2109 SLP088 T01720106 ","updated":"2026-05-05T21:59:49Z"}
