{"icao":"KORD","metar":"KORD 201751Z 20007KT 160V240 10SM FEW055 SCT250 11/M07 A3032 RMK AO2 SLP270 T01061067 10106 20028 58010 $","updated":"2026-04-20T17:56:49Z"}
