{"icao":"KLAX","metar":"KLAX 072053Z 26010KT 10SM CLR 21/14 A2989 RMK AO2 SLP122 T02060144 58025 $","updated":"2025-11-07T21:13:56Z"}
