{"icao":"LPMA","metar":"LPMA 091500Z 01010KT 320V050 9999 SCT016 24/17 Q1023","updated":"2025-10-09T15:29:17Z"}
