{"icao":"LPPS","metar":"LPPS 232230Z 30010KT 9000 SCT008 BKN030 17/15 Q1017","updated":"2026-04-23T22:42:09Z"}
