{"icao":"KORD","metar":"KORD 212151Z 32008KT 10SM OVC024 M02/M08 A3012 RMK AO2 SLP207 T10221083 $","updated":"2026-02-21T22:22:22Z"}
