{"icao":"LPPT","metar":"LPPT 140530Z 25004KT CAVOK 20/14 Q1016","updated":"2026-06-14T05:46:59Z"}
