{"icao":"LPBJ","metar":"LPBJ 030900Z 21008KT 9999 FEW018CB 08/07 Q1004","updated":"2026-02-03T09:39:24Z"}
