{"icao":"LPPT","metar":"LPPT 272230Z 30009KT 280V340 9999 FEW010 19/17 Q1021","updated":"2026-06-27T23:00:07Z"}
