{"icao":"LPPR","metar":"LPPR 070300Z 20004KT CAVOK 17/12 Q1020","updated":"2025-10-07T03:30:43Z"}
