{"icao":"LPPD","metar":"LPPD 211230Z 34006KT 310V030 9999 FEW018 BKN030 15/10 Q1028","updated":"2025-12-21T12:36:58Z"}
