{"icao":"KORD","metar":"KORD 010951Z 03013KT 10SM FEW028 M04/M10 A3035 RMK AO2 SLP288 T10391100 $","updated":"2026-03-01T10:23:41Z"}
