{"icao":"LPMA","metar":"LPMA 141400Z 36012G22KT 290V040 9999 SCT016 18/08 Q1031","updated":"2026-02-14T14:26:03Z"}
