{"icao":"LPMA","metar":"LPMA 171530Z 03011KT 360V060 9999 FEW016 19/11 Q1024","updated":"2026-05-17T15:58:04Z"}
