{"icao":"LPPR","metar":"LPPR 212300Z 16005KT 090V230 9999 FEW014 BKN040 07/06 Q1008","updated":"2025-12-21T23:17:28Z"}
