{"icao":"LPOV","metar":"LPOV 282200Z 18005KT 150V210 9999 -RA FEW012 SCT045 16/16 Q1009","updated":"2025-10-28T22:17:17Z"}
