{"icao":"LPMA","metar":"LPMA 150900Z 29004KT 270V340 9999 SCT015 15/08 Q1025","updated":"2026-01-15T09:27:24Z"}
