{"icao":"LPAZ","metar":"LPAZ 271800Z 20007KT 9999 FEW028 BKN049 19/14 Q1022","updated":"2025-11-27T18:26:37Z"}
