{"icao":"KJFK","metar":"KJFK 162051Z 19021KT 10SM FEW250 19/11 A2996 RMK AO2 PK WND 18031/2022 SLP144 T01890106 58029","updated":"2026-05-16T21:47:58Z"}
