{"icao":"LPFR","metar":"LPFR 281100Z 01006KT 330V050 CAVOK 17/05 Q1023","updated":"2026-02-28T11:17:43Z"}
