{"icao":"LPMT","metar":"LPMT 021100Z 27005KT 240V310 9999 FEW030 15/10 Q1019","updated":"2025-12-02T11:18:11Z"}
