{"icao":"LPMT","metar":"LPMT 292100Z 34007KT CAVOK 22/15 Q1020","updated":"2026-06-29T22:55:19Z"}
