{"icao":"KJFK","metar":"KJFK 161751Z 23010KT 10SM FEW250 M02/M09 A3020 RMK AO2 SLP225 4/002 933003 T10171094 11017 21044 58020 $","updated":"2025-12-16T18:30:48Z"}
