{"icao":"LPPD","metar":"LPPD 301500Z 23008KT 7000 SCT007 BKN012 16/15 Q1020","updated":"2026-01-30T15:33:00Z"}
