{"icao":"KLAX","metar":"KLAX 241653Z 24004KT 10SM FEW023 BKN044 BKN095 14/11 A2990 RMK AO2 SLP125 T01440111 $","updated":"2026-01-24T17:17:08Z"}
