{"icao":"LPAZ","metar":"LPAZ 282000Z 03011KT 9999 FEW014 BKN018 16/13 Q1027","updated":"2025-11-28T20:21:13Z"}
