{"icao":"LPMR","metar":"LPMR 060900Z 06003KT 020V120 9999 FEW020 03/00 Q1024","updated":"2026-01-06T09:25:06Z"}
