{"icao":"LPAZ","metar":"LPAZ 211800Z 27030G42KT 9999 FEW017 SCT022 BKN036 15/11 Q1006","updated":"2026-04-21T18:06:43Z"}
