{"icao":"LPLA","metar":"LPLA 300500Z 12014KT 8000 -DZ BKN005 BKN013 15/14 Q1013","updated":"2025-12-30T05:22:47Z"}
