{"icao":"KORD","metar":"KORD 011251Z 00000KT 10SM FEW035 BKN170 OVC250 M07/M09 A3040 RMK AO2 SLP306 T10671089 $","updated":"2025-12-01T13:34:29Z"}
