{"icao":"LPBJ","metar":"LPBJ 112300Z 14008KT CAVOK 14/12 Q1009","updated":"2025-11-11T23:16:33Z"}
