{"icao":"LPLA","metar":"LPLA 021000Z 17006KT 130V200 9999 FEW014 SCT025 24/21 Q1020","updated":"2025-10-02T10:17:19Z"}
