{"icao":"KJFK","metar":"KJFK 190451Z 20005KT 10SM FEW250 19/15 A3013 RMK AO2 SLP203 T01890150 402670167","updated":"2026-05-19T04:58:52Z"}
