{"icao":"LPAR","metar":"LPAR 241000Z 16006KT 130V200 9999 SCT020 24/17 Q1014","updated":"2026-06-24T10:47:30Z"}
