{"icao":"LPLA","metar":"LPLA 121900Z 34019G31KT 9999 FEW022CB BKN025 14/08 Q1003 RM K WIND RWY15 33026KT PK 35040/08 RH76 CB NE BLU","updated":"2025-11-12T19:15:31Z"}
