{"icao":"LPFL","metar":"LPFL 221700Z VRB12G24KT 9999 VCSH BKN026 13/07 Q1020","updated":"2026-01-22T17:27:37Z"}
