{"icao":"LPAR","metar":"LPAR 251200Z 01011KT 9999 FEW035 16/06 Q1023","updated":"2025-11-25T12:39:45Z"}
