{"icao":"LPFR","metar":"LPFR 081230Z 24008KT 9999 FEW030 14/10 Q1019","updated":"2026-02-08T12:47:21Z"}
