{"icao":"LPMA","metar":"LPMA 291400Z 35012KT 310V030 9999 BKN015 23/17 Q1015","updated":"2025-10-29T14:19:03Z"}
