{"icao":"LPPR","metar":"LPPR 122200Z 01003KT CAVOK 18/12 Q1017","updated":"2025-10-12T22:15:29Z"}
