{"icao":"LPBJ","metar":"LPBJ 291700Z 28013KT 8000 -DZ BKN007 BKN030 16/15 Q1012 RERADZ","updated":"2026-01-29T17:36:01Z"}
