{"icao":"LPAR","metar":"LPAR 101100Z VRB02KT 4000 BR BKN005 SCT012 16/15 Q1020","updated":"2025-11-10T11:16:27Z"}
