{"icao":"KJFK","metar":"KJFK 091351Z 32013KT 10SM CLR M11/M19 A3030 RMK AO2 SLP260 T11061189 $","updated":"2026-02-09T14:51:28Z"}
