{"icao":"LPOV","metar":"LPOV 120600Z 24003KT 9999 FEW002 SCT020 BKN035 12/12 Q1018","updated":"2026-02-12T07:50:51Z"}
