{"icao":"LPMR","metar":"LPMR 212100Z 30013G27KT 260V330 8000 SCT018 12/09 Q1005","updated":"2026-01-21T21:27:07Z"}
