{"icao":"LPPT","metar":"LPPT 112100Z 34020G32KT 310V010 9999 FEW026 11/06 Q1017 WS R02","updated":"2026-04-11T21:30:57Z"}
