{"icao":"KORD","metar":"KORD 041251Z 33007KT 10SM FEW030 FEW250 M14/M19 A3037 RMK AO2 SLP296 T11391194","updated":"2025-12-04T13:35:51Z"}
