{"icao":"LPFR","metar":"LPFR 111400Z 11012KT 9999 FEW025 26/15 Q1016","updated":"2025-10-11T14:13:30Z"}
