{"icao":"LPBJ","metar":"LPBJ 241400Z 15012KT CAVOK 21/10 Q1017","updated":"2026-02-24T14:48:20Z"}
