{"icao":"LPMR","metar":"LPMR 232300Z 31011KT 280V340 9999 SCT020 FEW022CB BKN032 09/04 Q1002","updated":"2026-01-23T23:20:23Z"}
