{"icao":"LPCS","metar":"LPCS 191500Z 33009KT 9999 FEW018 SCT024 14/09 Q1021","updated":"2026-01-19T15:25:13Z"}
