{"icao":"LPMA","metar":"LPMA 121500Z 22020KT 9999 SCT015 19/11 Q1017","updated":"2026-01-12T15:24:25Z"}
