{"icao":"LPPR","metar":"LPPR 301400Z 29007KT 260V320 CAVOK 24/13 Q1019","updated":"2025-09-30T14:18:19Z"}
