{"icao":"KORD","metar":"KORD 280551Z 30011G18KT 10SM CLR M04/M09 A3026 RMK AO2 SLP257 T10391094 11011 21039 400111039 53006","updated":"2025-11-28T06:30:01Z"}
