{"icao":"LPPT","metar":"LPPT 241030Z 13008KT 090V170 9999 SCT022 24/17 Q1014","updated":"2026-06-24T10:47:23Z"}
