{"icao":"LPLA","metar":"LPLA 081100Z 31017KT 9999 FEW022 OVC040 17/12 Q1035","updated":"2026-04-08T11:53:56Z"}
