{"icao":"LPMA","metar":"LPMA 240500Z 31005KT 260V340 9999 SCT015 17/12 Q1015","updated":"2025-12-24T05:23:03Z"}
