{"icao":"LPLA","metar":"LPLA 101600Z 24021G31KT 9999 FEW016 BKN022 20/15 Q1010","updated":"2025-11-10T16:25:10Z"}
