{"icao":"LPMT","metar":"LPMT 202200Z 36005KT CAVOK 10/08 Q1029","updated":"2026-02-20T22:24:21Z"}
