{"icao":"LPMR","metar":"LPMR 241500Z 02006KT CAVOK 13/06 Q1009","updated":"2025-12-24T15:20:11Z"}
