{"icao":"LPFL","metar":"LPFL 061000Z 19018G34KT 160V220 9999 FEW024 15/09 Q1026","updated":"2026-03-06T10:33:32Z"}
