{"icao":"LPMT","metar":"LPMT 252300Z 33003KT CAVOK 09/05 Q1013","updated":"2025-12-25T23:18:31Z"}
