{"icao":"LPPD","metar":"LPPD 140700Z 15009KT 130V190 9999 FEW018 21/15 Q1010","updated":"2025-10-14T07:18:16Z"}
