{"icao":"KJFK","metar":"KJFK 221451Z 32010KT 10SM FEW048 FEW250 01/M09 A3053 RMK AO2 SLP336 T00061094 51014 $","updated":"2025-12-22T15:21:00Z"}
