{"icao":"KJFK","metar":"KJFK 220751Z 32011KT 10SM CLR M02/M11 A3043 RMK AO2 PK WND 32026/0722 SLP304 T10171111 $","updated":"2025-12-22T08:29:06Z"}
