{"icao":"LPMT","metar":"LPMT 130000Z 16003KT 110V190 9999 FEW026 15/14 Q1020","updated":"2026-05-13T00:08:54Z"}
