{"icao":"LPLA","metar":"LPLA 181700Z 08003KT 340V140 9999 SCT012 SCT035 20/18 Q1016","updated":"2025-09-18T17:15:42Z"}
