{"icao":"KLAX","metar":"KLAX 071353Z 26007KT 8SM OVC012 17/14 A2985 RMK AO2 SLP107 T01720144 $","updated":"2025-10-07T14:18:18Z"}
