{"icao":"KJFK","metar":"KJFK 270451Z 19009KT 9SM -RA SCT070 BKN095 OVC110 10/08 A2967 RMK AO2 SLP046 P0001 T01000083 401830056 $","updated":"2026-03-27T05:05:28Z"}
