{"icao":"LPAZ","metar":"LPAZ 271100Z 04011KT 360V070 9999 SCT024 BKN040 22/14 Q1025","updated":"2025-09-27T11:12:38Z"}
