{"icao":"LPPR","metar":"LPPR 240730Z 12005KT 090V150 8000 FEW015 14/12 Q1017","updated":"2026-04-24T08:01:15Z"}
