{"icao":"KLAX","metar":"KLAX 102053Z 25010KT 10SM FEW014 SCT030 BKN060 19/11 A3011 RMK AO2 SLP195 T01890106 50002 $","updated":"2026-03-10T21:27:35Z"}
