{"icao":"LPHR","metar":"LPHR 290730Z 28019KT 9999 SCT025 15/09 Q1011","updated":"2026-01-29T07:38:33Z"}
