{"icao":"LPAZ","metar":"LPAZ 021500Z 11009KT 080V150 9999 FEW006 SCT014 BKN018 22/19 Q1019","updated":"2025-11-02T15:16:01Z"}
