{"icao":"LPAZ","metar":"LPAZ 171500Z 19008KT 6000 -RA FEW013 BKN020 18/17 Q1025","updated":"2025-11-17T15:20:40Z"}
