{"icao":"LPMT","metar":"LPMT 281400Z 25010KT 9999 FEW020 16/12 Q1004","updated":"2026-01-28T14:28:33Z"}
