{"icao":"KJFK","metar":"KJFK 191751Z 11013KT 10SM OVC034 04/M03 A3008 RMK AO2 SLP185 T00441033 10044 20022 58008 $","updated":"2026-02-19T18:49:33Z"}
