{"icao":"LPAR","metar":"LPAR 261600Z 07004KT 020V140 CAVOK 22/12 Q1022","updated":"2026-02-26T16:57:03Z"}
