{"icao":"LPOV","metar":"LPOV 202100Z VRB01KT CAVOK 08/06 Q1030","updated":"2026-02-20T21:23:01Z"}
