{"icao":"LPPT","metar":"LPPT 281830Z 33013KT CAVOK 18/09 Q1022","updated":"2026-03-28T18:38:41Z"}
