{"icao":"LPAR","metar":"LPAR 011200Z 06005KT 030V130 9999 FEW025 28/13 Q1020","updated":"2025-10-01T12:38:26Z"}
