{"icao":"LPAZ","metar":"LPAZ 191930Z 26016KT 7000 SCT002 BKN045 21/21 Q1011","updated":"2026-06-19T19:49:02Z"}
