{"icao":"LPFR","metar":"LPFR 051100Z 18007KT 150V210 CAVOK 24/18 Q1019","updated":"2025-10-05T11:12:36Z"}
