{"icao":"LPPT","metar":"LPPT 202030Z 07009KT CAVOK 21/11 Q1007","updated":"2026-04-20T20:43:27Z"}
