{"icao":"LPOV","metar":"LPOV 170400Z 15006KT 0100 FG OVC001 13/12 Q1021","updated":"2025-09-17T04:20:45Z"}
