{"icao":"KLAX","metar":"KLAX 180253Z 24008KT 10SM SCT280 16/14 A2995 RMK AO2 WSHFT 0146 SLP141 T01610144 55004 $","updated":"2025-12-18T03:19:55Z"}
