{"icao":"LPMA","metar":"LPMA 061530Z 01017G27KT 350V050 9999 SCT016 16/05 Q1027","updated":"2026-03-06T15:35:55Z"}
