{"icao":"KJFK","metar":"KJFK 111358Z 35007KT 3SM -RA BR OVC019 15/13 A3025 RMK AO2 SFC VIS 4 P0001 T01500133","updated":"2025-10-11T14:13:46Z"}
