{"icao":"LPPT","metar":"LPPT 232000Z 25003KT 220V290 9999 FEW008 SCT018 BKN042 20/18 Q1019","updated":"2025-10-23T20:19:01Z"}
