{"icao":"LPMT","metar":"LPMT 162300Z 33004KT 9999 SCT030 09/07 Q1015","updated":"2026-01-16T23:18:49Z"}
