{"icao":"LPAR","metar":"LPAR 111700Z 06006KT 030V090 9999 FEW035 20/09 Q1025","updated":"2026-03-11T17:48:00Z"}
