{"icao":"LPHR","metar":"LPHR 160730Z 17017KT 9999 FEW013 BKN045 16/14 Q1024","updated":"2026-02-16T07:53:28Z"}
