{"icao":"LPOV","metar":"LPOV 081800Z 16014KT 9999 SCT025 17/13 Q1016","updated":"2025-12-08T20:21:45Z"}
