{"icao":"LPMR","metar":"LPMR 041200Z 04006KT 010V070 CAVOK 15/08 Q1003","updated":"2026-01-04T13:28:34Z"}
