{"icao":"LPHR","metar":"LPHR 161100Z 24019KT 9999 SCT014 SCT035 18/13 Q1026","updated":"2025-12-16T11:18:26Z"}
