{"icao":"LPMR","metar":"LPMR 220500Z 16004KT CAVOK 02/01 Q1030","updated":"2025-11-22T05:17:00Z"}
