{"icao":"LPBJ","metar":"LPBJ 102300Z 19010KT CAVOK 13/11 Q1014","updated":"2026-05-10T23:51:06Z"}
