{"icao":"KJFK","metar":"KJFK 221609Z 14014G20KT 10SM FEW085 SCT170 BKN250 18/07 A3038 RMK AO2 WSHFT 1553 T01780072","updated":"2026-05-22T16:24:22Z"}
