{"icao":"LPPT","metar":"LPPT 151130Z 32007KT 280V010 9999 FEW018 BKN025 17/12 Q1025","updated":"2026-04-15T11:57:53Z"}
