{"icao":"LPPS","metar":"LPPS 022200Z 06009KT 030V090 9999 FEW015 21/17 Q1023","updated":"2025-10-02T22:16:12Z"}
