{"icao":"LPFL","metar":"LPFL 141800Z 17016G27KT 140V210 9999 FEW019 17/13 Q1023","updated":"2026-02-14T18:33:13Z"}
