{"icao":"KLAX","metar":"KLAX 061353Z 11006KT 10SM FEW010 FEW110 BKN150 BKN220 16/14 A3012 RMK AO2 SLP196 T01560139 $","updated":"2026-02-06T14:03:18Z"}
