{"icao":"LPPR","metar":"LPPR 211300Z 22009KT 9999 BKN002 OVC004 19/18 Q1012","updated":"2025-10-21T13:32:25Z"}
