{"icao":"LPOV","metar":"LPOV 311200Z 15011KT 3000 RA FEW008 BKN014 18/17 Q1009","updated":"2025-10-31T12:37:49Z"}
