{"icao":"LPFR","metar":"LPFR 020230Z 06006KT CAVOK 21/16 Q1019","updated":"2025-10-02T02:55:53Z"}
