{"icao":"LPPD","metar":"LPPD 262030Z 05009KT 9999 FEW018 BKN025 14/09 Q1029","updated":"2026-03-26T20:34:45Z"}
