{"icao":"LPHR","metar":"LPHR 080900Z 30010KT 9999 SCT011 SCT030 18/15 Q1018","updated":"2025-11-08T09:16:40Z"}
