{"icao":"LPPR","metar":"LPPR 142000Z 16014KT 9999 VCSH FEW020 BKN025 FEW028CB BKN040 14/12 Q1002","updated":"2025-11-14T20:20:28Z"}
