{"icao":"LPMA","metar":"LPMA 180600Z 36020G35KT 320V040 9999 BKN015 FEW018TCU 16/13 Q1014","updated":"2026-01-18T06:29:41Z"}
