{"icao":"LPFR","metar":"LPFR 191430Z 35011KT 320V020 9999 FEW030 17/05 Q1026","updated":"2026-02-19T14:48:11Z"}
