{"icao":"LPPS","metar":"LPPS 151000Z 06011KT 010V080 9999 FEW015 16/10 Q1032","updated":"2026-02-15T10:25:56Z"}
