{"icao":"KORD","metar":"KORD 302251Z 03012KT 10SM BKN300 24/14 A3014 RMK AO2 SLP203 T02390139","updated":"2025-09-30T23:16:22Z"}
