{"icao":"LPPD","metar":"LPPD 281000Z 06011KT 020V080 9999 FEW016 BKN030 14/11 Q1033","updated":"2026-03-28T10:30:40Z"}
