{"icao":"LPLA","metar":"LPLA 041600Z 24019G29KT 9999 FEW018 SCT045 16/12 Q0991","updated":"2026-02-04T16:45:25Z"}
