{"icao":"KLAX","metar":"KLAX 240053Z 27012KT 10SM FEW014 19/14 A2999 RMK AO2 SLP155 T01890144","updated":"2025-10-24T01:18:02Z"}
