{"icao":"LPPS","metar":"LPPS 211500Z 07019G31KT 9999 SCT014 BKN030 17/13 Q1024","updated":"2025-11-21T15:17:28Z"}
