{"icao":"LPLA","metar":"LPLA 092000Z 17004KT 9999 FEW035 12/06 Q1035","updated":"2026-03-09T20:33:25Z"}
