{"icao":"LPPR","metar":"LPPR 081000Z 17010KT 3000 -DZRA BR BKN004 BKN007 10/10 Q1030","updated":"2026-01-08T10:23:11Z"}
