{"icao":"LPPS","metar":"LPPS 121800Z 34009KT 9999 FEW015 22/15 Q1018","updated":"2025-10-12T18:22:05Z"}
