{"icao":"KORD","metar":"KORD 041951Z 20008KT 10SM SCT120 BKN200 16/M06 A3010 RMK AO2 SLP193 T01611056 $","updated":"2025-11-04T20:21:08Z"}
