{"icao":"LPLA","metar":"LPLA 261900Z 29019G30KT 9999 SCT018 FEW020TCU SCT030 10/05 Q1004","updated":"2026-01-26T19:22:31Z"}
