{"icao":"LPMA","metar":"LPMA 222200Z 36007KT 9999 FEW015 15/11 Q1025","updated":"2026-02-22T22:22:56Z"}
