{"icao":"LPCS","metar":"LPCS 231730Z 27006KT 240V300 9999 FEW015 26/17 Q1012","updated":"2026-06-23T17:52:05Z"}
