{"icao":"LPCS","metar":"LPCS 161900Z 02008KT CAVOK 19/09 Q1017","updated":"2026-03-16T19:15:31Z"}
