{"icao":"LPPT","metar":"LPPT 092200Z 31008KT CAVOK 18/14 Q1020","updated":"2025-10-09T22:15:36Z"}
