{"icao":"LPMA","metar":"LPMA 070430Z 36014G24KT 9999 BKN016 13/06 Q1025","updated":"2026-03-07T05:04:18Z"}
