{"icao":"KORD","metar":"KORD 151451Z 09007KT 10SM CLR 24/15 A3019 RMK AO2 SLP219 T02390150 51009 $","updated":"2025-09-15T15:19:00Z"}
