{"icao":"KORD","metar":"KORD 231151Z 27005KT 10SM SCT230 03/01 A3008 RMK AO2 SLP189 T00330011 10056 20033 53013","updated":"2025-11-23T12:33:05Z"}
