{"icao":"LPPT","metar":"LPPT 070700Z 18007KT 140V200 9999 FEW005 BKN008 14/14 Q1023","updated":"2025-12-07T07:17:13Z"}
