{"icao":"KLAX","metar":"KLAX 220653Z 09003KT 10SM SCT250 12/08 A3021 RMK AO2 SLP227 T01220083 $","updated":"2026-02-22T07:34:43Z"}
