{"icao":"LPBJ","metar":"LPBJ 291300Z 22009KT 180V260 9999 SCT030 19/10 Q1009","updated":"2026-04-29T13:53:06Z"}
