{"icao":"KJFK","metar":"KJFK 061051Z 36007KT 10SM BKN180 BKN250 M06/M11 A2983 RMK AO2 SLP099 T10561111 PNO $","updated":"2026-02-06T11:32:45Z"}
