{"icao":"LPPR","metar":"LPPR 150800Z VRB02KT 9999 FEW004 18/16 Q1023","updated":"2025-09-15T08:23:39Z"}
