{"icao":"LPAZ","metar":"LPAZ 311300Z 11009KT 060V130 9999 FEW020 18/11 Q1029","updated":"2026-03-31T13:16:00Z"}
