{"icao":"LPPR","metar":"LPPR 280900Z 17008KT 9000 -RA BKN017 BKN025 08/06 Q0996","updated":"2026-01-28T09:32:42Z"}
