{"icao":"LPAZ","metar":"LPAZ 062200Z 08004KT 9999 BKN040 13/07 Q1035","updated":"2026-01-06T22:20:02Z"}
