{"icao":"LPPR","metar":"LPPR 180200Z 00000KT CAVOK 09/09 Q1018","updated":"2026-04-18T02:12:45Z"}
