{"icao":"KJFK","metar":"KJFK 080751Z 33024G33KT 10SM SCT250 M15/M24 A3010 RMK AO2 PK WND 32033/0748 SLP192 T11501239 $","updated":"2026-02-08T08:31:55Z"}
