{"icao":"KJFK","metar":"KJFK 181651Z 23007KT 10SM FEW037 25/17 A2996 RMK AO2 SLP146 T02500172 $","updated":"2025-09-18T17:15:45Z"}
