{"icao":"LPPT","metar":"LPPT 012330Z 27005KT 210V310 CAVOK 15/13 Q1019","updated":"2026-05-01T23:50:53Z"}
