{"icao":"KJFK","metar":"KJFK 030451Z 05003KT 10SM BKN070 BKN250 M03/M07 A3066 RMK AO2 SLP382 T10281067 410061061","updated":"2026-03-03T05:48:05Z"}
