{"icao":"KJFK","metar":"KJFK 221651Z 27018G28KT 10SM FEW050 FEW170 BKN250 08/M05 A3001 RMK PK WND 27028/1642 SLP163 T00781050 $ ","updated":"2026-01-22T17:27:52Z"}
