{"icao":"LPPT","metar":"LPPT 272300Z 00000KT CAVOK 19/13 Q1019","updated":"2026-05-27T23:15:37Z"}
