{"icao":"LPAZ","metar":"LPAZ 210830Z 30007KT 9999 FEW016 BKN042 19/16 Q1018","updated":"2026-06-21T08:56:21Z"}
