{"icao":"LPPR","metar":"LPPR 231500Z 29009KT 260V330 9999 FEW017 BKN027 10/05 Q0995","updated":"2026-01-23T15:24:13Z"}
