{"icao":"KORD","metar":"KORD 241851Z 31003KT 10SM FEW009 SCT075 SCT120 BKN170 OVC250 M16/M27 A3059 RMK AO2 SLP379 FU FEW009 T11561272","updated":"2026-01-24T19:15:55Z"}
