{"icao":"LPBJ","metar":"LPBJ 262300Z 27006KT CAVOK 17/02 Q1020","updated":"2025-09-26T23:15:44Z"}
