{"icao":"KLAX","metar":"KLAX 271653Z 03006KT 10SM FEW160 SCT180 BKN250 25/11 A2999 RMK AO2 SLP155 T02500106","updated":"2026-02-27T17:34:02Z"}
