{"icao":"KLAX","metar":"KLAX 070053Z 26008KT 10SM SCT010 17/14 A3003 RMK AO2 SLP168 T01720144 $","updated":"2025-11-07T01:24:09Z"}
