{"icao":"LPMT","metar":"LPMT 041200Z 35009KT 320V020 9999 FEW020 23/16 Q1024","updated":"2025-10-04T12:31:36Z"}
