{"icao":"LPPS","metar":"LPPS 271700Z 01012KT 330V050 9999 FEW015 23/17 Q1023","updated":"2026-06-27T17:08:01Z"}
