{"icao":"LPLA","metar":"LPLA 160900Z 17012KT 9999 FEW008 SCT017 14/13 Q1025","updated":"2026-02-16T09:52:48Z"}
