{"icao":"LPOV","metar":"LPOV 170600Z 16001KT 9999 FEW035 10/10 Q1017","updated":"2026-05-17T06:23:44Z"}
