{"icao":"LPOV","metar":"LPOV 240800Z 22011KT 190V250 7000 -RADZ SCT006 BKN014 16/15 Q1015","updated":"2025-11-24T08:27:15Z"}
