{"icao":"LPST","metar":"LPST 231200Z 30009KT 270V330 9999 BKN018 15/12 Q1011","updated":"2025-12-23T13:34:51Z"}
