{"icao":"LPAZ","metar":"LPAZ 292100Z 28016KT 0800 R18/1000N FG VV002 17/16 Q1016","updated":"2026-01-29T21:25:50Z"}
