{"icao":"LPFL","metar":"LPFL 131500Z 21008G19KT 150V280 9999 SCT016 25/18 Q1024","updated":"2025-09-13T15:14:12Z"}
