{"icao":"LPFR","metar":"LPFR 011300Z 13008KT CAVOK 21/07 Q1021","updated":"2026-04-01T13:19:17Z"}
