{"icao":"LPCS","metar":"LPCS 221230Z 33012KT 290V350 9999 SCT024 13/08 Q1014","updated":"2025-12-22T12:40:22Z"}
