{"icao":"LPCS","metar":"LPCS 241430Z 18013KT 9999 FEW007 SCT013 BKN016 15/11 Q1016","updated":"2026-02-24T14:48:19Z"}
