{"icao":"LPOV","metar":"LPOV 052200Z VRB01KT CAVOK 13/13 Q1019","updated":"2025-10-05T22:15:04Z"}
