{"icao":"KJFK","metar":"KJFK 280351Z 01010KT 10SM FEW048 SCT250 08/03 A3036 RMK AO2 SLP279 T00830033","updated":"2025-10-28T04:21:30Z"}
