{"icao":"KJFK","metar":"KJFK 240551Z 25011KT 8SM FEW014 SCT038 BKN045 03/01 A2993 RMK AO2 SLP135 T00280011 10039 20022 58015 $","updated":"2025-12-24T06:32:21Z"}
