{"icao":"LPMR","metar":"LPMR 151100Z 34017KT 300V360 9999 FEW022 SCT030 17/10 Q1016","updated":"2026-05-15T11:54:55Z"}
