{"icao":"LPPT","metar":"LPPT 121700Z 17014KT 140V210 9999 FEW020 BKN034 14/10 Q1015","updated":"2026-01-12T17:22:34Z"}
