{"icao":"LPMT","metar":"LPMT 300800Z 34011KT 9999 FEW035 12/06 Q1018","updated":"2025-11-30T08:22:09Z"}
