{"icao":"LPHR","metar":"LPHR 271530Z 06013KT 020V090 9999 FEW018 17/10 Q1030","updated":"2026-03-27T15:52:09Z"}
