{"icao":"LPHR","metar":"LPHR 311700Z 03011KT 350V070 9999 SCT020 18/12 Q1012","updated":"2025-10-31T17:16:53Z"}
