{"icao":"LPMT","metar":"LPMT 111000Z 03008KT CAVOK 13/09 Q1027","updated":"2026-03-11T10:37:35Z"}
