{"icao":"LPPR","metar":"LPPR 070700Z 11005KT 070V140 CAVOK 16/12 Q1021","updated":"2025-10-07T07:17:12Z"}
