{"icao":"KJFK","metar":"KJFK 101851Z 10005KT 8SM -RA OVC090 05/03 A3011 RMK AO2 SLP194 P0005 T00500028 $","updated":"2026-01-10T19:14:41Z"}
