{"icao":"KLAX","metar":"KLAX 041353Z 09003KT 8SM FEW008 OVC010 14/12 A3001 RMK AO2 SLP161 T01390122","updated":"2026-03-04T14:40:49Z"}
