{"icao":"LPPR","metar":"LPPR 272200Z 01012KT 350V050 9999 -SHRAGS FEW009 SCT020 FEW025CB 08/06 Q1000 RESHRA","updated":"2026-01-27T22:21:37Z"}
