{"icao":"LPFR","metar":"LPFR 021000Z 13006KT 090V150 CAVOK 24/18 Q1021","updated":"2025-10-02T10:17:14Z"}
