{"icao":"KLAX","metar":"KLAX 172253Z 26014KT 10SM CLR 23/12 A2988 RMK AO2 SLP118 T02280122","updated":"2025-10-17T23:15:35Z"}
