{"icao":"LPPR","metar":"LPPR 152000Z 34011KT CAVOK 14/10 Q1016","updated":"2026-05-15T20:15:44Z"}
