{"icao":"KJFK","metar":"KJFK 201551Z 27013KT 10SM FEW060 FEW120 FEW250 32/17 A2995 RMK AO2 SLP142 T03220172","updated":"2026-05-20T16:24:14Z"}
