{"icao":"LPFR","metar":"LPFR 110930Z 31004KT 250V050 9999 FEW016 18/13 Q1012","updated":"2026-04-11T09:38:39Z"}
