{"icao":"LPPT","metar":"LPPT 090930Z 34014KT 310V010 9999 FEW016 18/13 Q1021","updated":"2026-06-09T09:40:06Z"}
