{"icao":"LPPR","metar":"LPPR 291030Z 22008KT 190V250 9000 -RA FEW004 BKN040 13/12 Q1004","updated":"2026-01-29T10:35:19Z"}
