{"icao":"LPPD","metar":"LPPD 190830Z 36037G55KT 9999 SCT010 FEW018CB SCT025 14/11 Q0996","updated":"2026-03-19T08:40:12Z"}
