{"icao":"LPBJ","metar":"LPBJ 130300Z VRB02KT CAVOK 20/08 Q1019","updated":"2026-06-13T03:35:17Z"}
