{"icao":"LPFL","metar":"LPFL 101430Z 19024G41KT 140V230 9000 -SHRA FEW008 SCT013 19/15 Q1003","updated":"2026-02-10T14:57:00Z"}
