{"icao":"KORD","metar":"KORD 181751Z 22010G18KT 10SM SCT024 SCT150 BKN250 M10/M17 A2995 RMK AO2 SLP156 T11001167 11100 21144 58027 $","updated":"2026-01-18T18:26:52Z"}
