{"icao":"LPLA","metar":"LPLA 071800Z 24010KT 160V290 8000 -RA FEW008 BKN015 17/14 Q1011","updated":"2026-02-07T18:34:10Z"}
