{"icao":"LPBJ","metar":"LPBJ 302300Z 29006KT CAVOK 19/14 Q1020","updated":"2026-05-30T23:08:33Z"}
