{"icao":"LPHR","metar":"LPHR 301900Z 22010KT 190V250 1500 RA BR SCT002 BKN004 BKN010 17/16 Q1015","updated":"2026-01-30T19:30:41Z"}
