{"icao":"LPLA","metar":"LPLA 052300Z 20012KT 180V240 7000 -SHRA SCT015 BKN020 SCT022TCU 19/17 Q1015 RESHRA","updated":"2025-12-05T23:17:37Z"}
