{"icao":"KLAX","metar":"KLAX 041653Z VRB05KT 10SM SCT024 20/13 A2995 RMK AO2 SLP139 T02000133 $","updated":"2025-10-04T17:13:35Z"}
