{"icao":"LPPR","metar":"LPPR 211400Z 35010KT CAVOK 13/04 Q1028","updated":"2025-11-21T14:17:53Z"}
