{"icao":"LPMR","metar":"LPMR 181500Z 30008KT 270V330 9999 FEW032 24/13 Q1016","updated":"2025-10-18T15:15:27Z"}
