{"icao":"LPBJ","metar":"LPBJ 311800Z 09003KT CAVOK 12/07 Q1017","updated":"2025-12-31T18:28:01Z"}
