{"icao":"LPFR","metar":"LPFR 081230Z VRB04KT CAVOK 25/11 Q1020","updated":"2025-10-08T12:37:26Z"}
