{"icao":"LPST","metar":"LPST 291700Z 29015KT 7000 SCT006 BKN012 14/13 Q1012","updated":"2026-01-30T05:44:24Z"}
