{"icao":"LPCS","metar":"LPCS 081500Z 25010KT 230V290 9999 FEW006 SCT016 13/13 Q1031","updated":"2026-01-08T15:24:34Z"}
