{"icao":"LPAR","metar":"LPAR 301100Z 07003KT 040V120 0100 FG VV/// 07/06 Q1023","updated":"2025-12-30T11:18:34Z"}
