{"icao":"LPFR","metar":"LPFR 082230Z 03007KT CAVOK 13/07 Q1018","updated":"2026-04-08T22:37:15Z"}
