{"icao":"LPPT","metar":"LPPT 181100Z 07007G20KT 360V130 CAVOK 21/13 Q1017","updated":"2026-04-18T11:33:04Z"}
