{"icao":"KORD","metar":"KORD 241851Z 34005KT 10SM FEW040 FEW250 12/M01 A3028 RMK AO2 SLP258 T01171006 $","updated":"2025-10-24T19:14:41Z"}
