{"icao":"KORD","metar":"KORD 241551Z 31006KT 10SM BKN090 BKN170 OVC250 M20/M28 A3068 RMK AO2 SLP411 T12001283","updated":"2026-01-24T16:23:45Z"}
