{"icao":"LPPT","metar":"LPPT 231900Z 30008KT 270V350 9999 FEW016 FEW025TCU 07/05 Q1002","updated":"2026-01-23T19:23:28Z"}
