{"icao":"LPMA","metar":"LPMA 231130Z 05004KT 360V140 9999 SCT015 17/13 Q1024","updated":"2026-02-23T11:39:15Z"}
