{"icao":"LPMA","metar":"LPMA 070530Z 25009KT 230V300 9999 SCT015 18/09 Q1019","updated":"2026-02-07T05:41:12Z"}
