{"icao":"LPAR","metar":"LPAR 221000Z 15003KT 110V180 9999 FEW025 FEW027CB 10/08 Q1014","updated":"2025-12-22T10:21:28Z"}
