{"icao":"LPPT","metar":"LPPT 231500Z 28006KT 240V310 9999 FEW022 BKN030 16/10 Q1025","updated":"2025-11-23T15:16:33Z"}
