{"icao":"KLAX","metar":"KLAX 200653Z 28014G26KT 10SM FEW010 11/02 A2991 RMK AO2 PK WND 29027/0638 SLP128 T01110017","updated":"2026-02-20T07:47:43Z"}
