{"icao":"LPPT","metar":"LPPT 212300Z 25007KT 230V290 9999 FEW018 SCT046 14/11 Q1010","updated":"2026-04-21T23:33:21Z"}
