{"icao":"LPBJ","metar":"LPBJ 260100Z 10004KT CAVOK 11/10 Q1020","updated":"2026-02-26T01:58:38Z"}
