{"icao":"LPPT","metar":"LPPT 212230Z 27006KT 230V310 9999 FEW020 BKN048 14/11 Q1010","updated":"2026-04-21T22:36:54Z"}
