{"icao":"LPFR","metar":"LPFR 281500Z 25015KT 7000 SCT018 16/14 Q1007","updated":"2026-01-28T15:30:55Z"}
