{"icao":"LPMT","metar":"LPMT 061500Z 26011KT CAVOK 24/17 Q1019","updated":"2025-10-06T15:18:00Z"}
