{"icao":"LPHR","metar":"LPHR 041900Z 08005KT 050V120 9999 FEW006 BKN050 23/21 Q1026","updated":"2025-10-04T19:11:52Z"}
