{"icao":"KORD","metar":"KORD 250051Z 03009KT 10SM SCT017 BKN030 BKN045 18/15 A3001 RMK AO2 SLP161 T01830150","updated":"2025-09-25T01:18:54Z"}
