{"icao":"LPFR","metar":"LPFR 241000Z 21004KT 170V250 CAVOK 23/18 Q1019","updated":"2025-10-24T10:20:05Z"}
