{"icao":"LPHR","metar":"LPHR 161230Z 23015KT 9999 SCT014 SCT035 18/14 Q1026","updated":"2025-12-16T12:41:59Z"}
