{"icao":"LPPR","metar":"LPPR 041300Z 07006KT 040V120 CAVOK 15/07 Q1004","updated":"2026-01-04T13:28:32Z"}
