{"icao":"LPBJ","metar":"LPBJ 301100Z 20006KT 170V230 9999 FEW014 SCT018 19/13 Q1016","updated":"2025-10-30T11:15:30Z"}
