{"icao":"LPAR","metar":"LPAR 161400Z 33003KT 9999 SCT018 FEW022CB SCT030 10/08 Q1014","updated":"2026-01-16T14:22:10Z"}
