{"icao":"KORD","metar":"KORD 280251Z 03010KT 10SM BKN055 OVC250 19/14 A2996 RMK AO2 SLP143 T01940144 53006 $","updated":"2026-06-28T03:39:40Z"}
