{"icao":"KORD","metar":"KORD 251351Z 20009KT 10SM FEW250 22/12 A3014 RMK AO2 SLP203 T02220122 $","updated":"2026-05-25T13:58:14Z"}
