{"icao":"LPMA","metar":"LPMA 060630Z 29006KT 230V330 9999 FEW015 15/06 Q1015","updated":"2026-02-06T06:53:48Z"}
