{"icao":"LPOV","metar":"LPOV 241500Z 30006KT 9999 FEW007 BKN013 17/16 Q1013","updated":"2025-11-24T15:21:19Z"}
