{"icao":"LPFL","metar":"LPFL 061130Z 34018G31KT 310V010 9999 FEW024 11/03 Q1022","updated":"2026-04-06T11:47:27Z"}
