{"icao":"LPLA","metar":"LPLA 220300Z 24013G25KT 9999 SCT020 SCT025 BKN037 18/14 Q1014 R MK WIND RWY15 25015G28KT PK 26036/39 RH78 BLU","updated":"2026-01-22T03:46:43Z"}
