{"icao":"LPLA","metar":"LPLA 260100Z VRB02KT 1500 -DZ BR BKN002 BKN005 13/13 Q1025","updated":"2025-12-26T01:38:11Z"}
