{"icao":"LPPR","metar":"LPPR 272030Z VRB02KT CAVOK 13/11 Q1019","updated":"2026-03-27T20:37:07Z"}
