{"icao":"LPOV","metar":"LPOV 280700Z 34009KT 9999 BKN003 19/18 Q1019","updated":"2026-05-28T07:55:43Z"}
