{"icao":"LPST","metar":"LPST 270800Z 26012KT 9999 -RA SCT010 FEW015TCU 12/09 Q1000","updated":"2026-01-27T08:31:57Z"}
