{"icao":"LPFL","metar":"LPFL 061830Z 28014G28KT 190V330 9999 FEW007 22/18 Q1022","updated":"2026-06-06T21:02:41Z"}
