{"icao":"LPLA","metar":"LPLA 221500Z 11004KT 7000 -SHRA FEW005 BKN018 15/14 Q1030","updated":"2025-11-22T15:16:32Z"}
