{"icao":"LPAZ","metar":"LPAZ 240300Z 28008KT 260V320 9999 BKN031 18/12 Q1028","updated":"2025-11-24T03:22:51Z"}
