{"icao":"KORD","metar":"KORD 100851Z 21011KT 10SM BKN250 03/M02 A2978 RMK AO2 SLP089 T00331022 56028","updated":"2026-02-10T08:54:18Z"}
