{"icao":"LPAZ","metar":"LPAZ 310800Z 23014KT 8000 FEW007 SCT012 BKN046 17/16 Q1019","updated":"2026-01-31T08:29:07Z"}
