{"icao":"LPPS","metar":"LPPS 151000Z 29014KT 9999 SCT015 18/13 Q1020","updated":"2025-12-15T10:24:28Z"}
