{"icao":"LPPD","metar":"LPPD 130800Z 31006KT 9999 FEW020 12/07 Q1023","updated":"2026-01-13T08:29:23Z"}
