{"icao":"LPCS","metar":"LPCS 051530Z 34027G37KT 310V010 7000 -DZRA FEW004 SCT012 12/10 Q1017","updated":"2026-03-05T15:49:18Z"}
