{"icao":"KLAX","metar":"KLAX 191310Z 09003KT 10SM FEW007 FEW220 12/04 A3000 RMK AO2 T01220044","updated":"2026-01-19T13:44:23Z"}
