{"icao":"LPPD","metar":"LPPD 270400Z 35003KT 310V050 9999 FEW022 BKN035 11/07 Q1022","updated":"2025-12-27T04:31:23Z"}
