{"icao":"LPOV","metar":"LPOV 131500Z 29008KT 260V330 9999 FEW040 21/15 Q1022","updated":"2025-09-13T15:13:56Z"}
