{"icao":"LPHR","metar":"LPHR 112200Z 21005KT 170V240 9999 FEW020 13/08 Q1033","updated":"2026-04-11T22:31:01Z"}
