{"icao":"LPBJ","metar":"LPBJ 111100Z 24017KT 9999 OVC007 15/14 Q1020","updated":"2026-02-11T11:43:16Z"}
