{"icao":"LPFR","metar":"LPFR 260500Z 36010KT CAVOK 11/05 Q1022","updated":"2025-11-26T05:18:11Z"}
