{"icao":"LPAZ","metar":"LPAZ 230430Z 32009KT 9999 FEW005 BKN012 20/19 Q1024","updated":"2026-06-23T04:58:54Z"}
