{"icao":"KORD","metar":"KORD 310951Z 21009KT 10SM SCT080 BKN150 OVC250 19/13 A2978 RMK AO2 SLP078 T01940133 $","updated":"2026-03-31T10:10:35Z"}
