{"icao":"LPMA","metar":"LPMA 191030Z 02007G18KT 340V070 9999 -SHRA BKN014 FEW016TCU 20/12 Q1013","updated":"2026-04-19T10:37:37Z"}
