{"icao":"LPMA","metar":"LPMA 200800Z 04006KT 010V070 9999 FEW011 18/15 Q1004","updated":"2026-04-20T08:04:49Z"}
