{"icao":"LPPT","metar":"LPPT 221330Z 21013KT 5000 -RA BR FEW008 SCT040 12/11 Q1007","updated":"2026-01-22T13:45:19Z"}
