{"icao":"LPBJ","metar":"LPBJ 141100Z 25012KT 1500 -TSRAGS BKN018CB SCT030 11/09 Q1008 RETSRA","updated":"2025-11-14T11:15:34Z"}
