{"icao":"KORD","metar":"KORD 171951Z VRB05KT 10SM BKN070 08/M07 A3007 RMK AO2 SLP187 T00831072","updated":"2025-11-17T20:21:39Z"}
