{"icao":"LPMR","metar":"LPMR 041900Z 31005KT CAVOK 18/10 Q1022","updated":"2026-04-04T19:30:07Z"}
