{"icao":"LPMA","metar":"LPMA 041500Z 02009KT 300V080 8000 -SHRA BKN015 FEW018CB 18/13 Q1009","updated":"2026-01-04T15:18:19Z"}
