{"icao":"KLAX","metar":"KLAX 081253Z 07006KT 8SM FEW008 OVC012 16/13 A3000 RMK AO2 SLP158 T01610133","updated":"2026-05-08T13:44:39Z"}
