{"icao":"KORD","metar":"KORD 091951Z 25014G18KT 10SM SCT085 BKN250 21/03 A3012 RMK AO2 SLP198 T02060028","updated":"2026-04-09T20:50:13Z"}
