{"icao":"LPFL","metar":"LPFL 231500Z 34009KT 310V010 9999 FEW030 21/13 Q1027","updated":"2025-09-23T15:18:07Z"}
