{"icao":"KORD","metar":"KORD 181551Z 23011G18KT 10SM BKN025 BKN150 BKN250 21/16 A2969 RMK AO2 SLP051 T02110161 $","updated":"2025-10-18T16:19:44Z"}
