{"icao":"KLAX","metar":"KLAX 090853Z 00000KT 3SM BR CLR 16/15 A3003 RMK AO2 SLP165 T01610150 53002","updated":"2025-11-09T09:16:21Z"}
