{"icao":"LPMT","metar":"LPMT 051300Z 02005KT 330V080 9999 FEW022 23/13 Q1019","updated":"2025-10-05T13:20:02Z"}
