{"icao":"LPFR","metar":"LPFR 292000Z 25013KT 7000 -DZ SCT005 BKN010 16/15 Q1015","updated":"2026-01-29T20:28:28Z"}
