{"icao":"KORD","metar":"KORD 261551Z 09008KT 9SM OVC008 09/07 A3010 RMK AO2 SLP194 T00940072","updated":"2026-04-26T16:41:09Z"}
