{"icao":"LPPR","metar":"LPPR 011330Z 27006KT 210V320 9999 FEW030 19/11 Q1019","updated":"2026-05-01T13:42:29Z"}
