{"icao":"LPPR","metar":"LPPR 130330Z 17005KT CAVOK 19/14 Q1017","updated":"2026-06-13T03:35:15Z"}
