{"icao":"LPBJ","metar":"LPBJ 132000Z 29008KT CAVOK 12/08 Q1022","updated":"2026-04-13T20:54:17Z"}
