{"icao":"LPPS","metar":"LPPS 020230Z 08008KT 9000 -SHRA SCT012 BKN030 20/18 Q1021","updated":"2025-10-02T02:55:57Z"}
