{"icao":"LPPR","metar":"LPPR 020700Z 12005KT 080V160 9999 FEW032 12/11 Q1024","updated":"2025-11-02T07:15:50Z"}
