{"icao":"LPMA","metar":"LPMA 121900Z VRB02KT 9999 SCT014 FEW016TCU 18/14 Q1003","updated":"2025-11-12T19:15:32Z"}
