{"icao":"LPMR","metar":"LPMR 231100Z 08003KT 360V170 9999 FEW030 21/14 Q1021","updated":"2025-10-23T11:15:41Z"}
