{"icao":"LPCS","metar":"LPCS 140800Z 06010KT 030V090 CAVOK 13/08 Q1019","updated":"2025-12-14T08:24:09Z"}
