{"icao":"LPPD","metar":"LPPD 191600Z 28016KT 7000 BKN004 22/21 Q1016","updated":"2025-10-19T16:19:34Z"}
