{"icao":"LPHR","metar":"LPHR 041100Z 14003KT 100V190 9999 FEW006 23/22 Q1027","updated":"2025-10-04T11:12:40Z"}
