{"icao":"LPCS","metar":"LPCS 291830Z 28005KT 220V320 9999 FEW004 BKN012 14/14 Q1013","updated":"2026-01-29T18:43:03Z"}
