{"icao":"LPPT","metar":"LPPT 131330Z 27007KT 240V310 9999 FEW014 FEW020TCU 15/12 Q1009","updated":"2026-01-13T13:39:52Z"}
