{"icao":"KLAX","metar":"KLAX 021905Z 26009KT 3SM HZ SCT007 OVC010 18/14 A3008 RMK AO2 VIS S-W 2 T01780144 $","updated":"2025-11-02T19:12:33Z"}
