{"icao":"KJFK","metar":"KJFK 250551Z 23011KT 10SM BKN250 03/M02 A3037 RMK AO2 SLP283 T00331022 10039 20033 58001 $","updated":"2026-03-25T06:00:40Z"}
