{"icao":"KORD","metar":"KORD 142051Z 28003KT 9SM SCT230 BKN250 11/M01 A2997 RMK AO2 SLP152 T01061011 55012 $","updated":"2026-02-14T21:22:51Z"}
