{"icao":"KJFK","metar":"KJFK 181751Z 23006KT 10SM BKN160 BKN250 01/M14 A3043 RMK AO2 SLP304 T00111144 10011 21028 53008","updated":"2026-03-18T18:02:18Z"}
