{"icao":"LPPT","metar":"LPPT 160700Z 35018G38KT 9000 SHRA FEW010 BKN014 FEW018CB 10/08 Q1009","updated":"2025-12-16T07:21:38Z"}
