{"icao":"LPPS","metar":"LPPS 271100Z 02011KT 350V060 9999 FEW015 23/17 Q1023","updated":"2026-06-27T11:25:38Z"}
