{"icao":"LPFL","metar":"LPFL 131430Z 20017G39KT 150V250 9999 -SHRA FEW007 BKN010 18/15 Q1013","updated":"2026-04-13T14:47:08Z"}
