{"icao":"KJFK","metar":"KJFK 162051Z 35021G29KT 10SM CLR 16/M07 A2988 RMK AO2 PK WND 35033/2001 SLP118 T01561067 55004","updated":"2025-10-16T21:16:04Z"}
