{"icao":"KORD","metar":"KORD 241751Z 03009G19KT 10SM SCT029 BKN250 22/14 A3003 RMK AO2 SLP165 T02220139 10222 20161 58002","updated":"2025-09-24T18:23:53Z"}
