{"icao":"LPPR","metar":"LPPR 231900Z 22009KT 190V260 9999 FEW017 SCT045 15/12 Q1021","updated":"2025-11-23T19:14:03Z"}
