{"icao":"LPOV","metar":"LPOV 031300Z 25003KT 190V280 CAVOK 18/13 Q1022","updated":"2025-11-03T13:29:31Z"}
