{"icao":"LPHR","metar":"LPHR 041100Z 19009KT 140V240 9999 SCT007 14/11 Q1027","updated":"2026-03-04T11:28:59Z"}
