{"icao":"LPFL","metar":"LPFL 121730Z VRB12G26KT 9999 SCT023 14/08 Q1020","updated":"2026-02-12T17:57:12Z"}
