{"icao":"LPFR","metar":"LPFR 102230Z 24010KT 4000 -DZ BKN003 15/15 Q1021","updated":"2026-02-10T22:37:39Z"}
