{"icao":"LPLA","metar":"LPLA 271100Z 36007KT 330V040 9999 FEW015 BKN025 15/10 Q1031","updated":"2026-03-27T11:40:32Z"}
