{"icao":"KORD","metar":"KORD 182151Z 22011G22KT 10SM FEW035 FEW130 OVC250 25/18 A2985 RMK AO2 PK WND 22028/2140 SLP103 T02500178","updated":"2026-05-18T22:09:01Z"}
