{"icao":"LPMR","metar":"LPMR 210400Z 31008G27KT 9999 SCT016 FEW018CB BKN025 09/06 Q1008","updated":"2025-12-21T04:36:07Z"}
