{"icao":"LPPT","metar":"LPPT 081600Z 20013KT 3000 -RADZ BR FEW006 SCT018 BKN030 11/10 Q1013 WS R20","updated":"2026-02-08T16:29:23Z"}
