{"icao":"LPPT","metar":"LPPT 271530Z 31006KT 270V350 9999 FEW045 FEW048TCU 27/16 Q1011","updated":"2026-04-27T15:46:42Z"}
