{"icao":"LPFL","metar":"LPFL 250830Z 17005KT 140V200 9999 BKN034 14/08 Q1030","updated":"2026-03-25T08:50:32Z"}
