{"icao":"KJFK","metar":"KJFK 100751Z 24015KT 10SM FEW048 SCT112 BKN250 01/M03 A2990 RMK AO2 SLP123 T00111033","updated":"2025-12-10T08:27:37Z"}
