{"icao":"LPAZ","metar":"LPAZ 082200Z 16009KT 9999 FEW008 SCT029 23/21 Q1025","updated":"2025-10-08T22:16:05Z"}
