{"icao":"LPST","metar":"LPST 220800Z 30003KT 250V340 9999 FEW020 SCT025 10/08 Q1009","updated":"2026-01-22T08:30:41Z"}
