{"icao":"LPMA","metar":"LPMA 060100Z 32004KT 290V360 9999 FEW020 BKN030 18/09 Q1025","updated":"2025-12-06T01:22:42Z"}
