{"icao":"LPAZ","metar":"LPAZ 182100Z 28008KT 250V320 4000 -DZ BR SCT002 BKN010 23/23 Q1018","updated":"2025-10-18T21:14:07Z"}
