{"icao":"KLAX","metar":"KLAX 261953Z 27013KT 5SM HZ FEW014 SCT150 BKN250 21/14 A2993 RMK AO2 SLP135 T02060144","updated":"2026-03-26T20:34:50Z"}
