{"icao":"LPST","metar":"LPST 271700Z 34007KT CAVOK 14/07 Q1023","updated":"2025-11-27T21:16:36Z"}
