{"icao":"KJFK","metar":"KJFK 301051Z 10003KT 10SM BKN040 BKN150 BKN250 02/M04 A3037 RMK AO2 SLP285 T00171039 $","updated":"2025-11-30T11:14:30Z"}
