{"icao":"LPFL","metar":"LPFL 081900Z 19008G18KT 140V240 9999 FEW018TCU 22/16 Q1015","updated":"2025-10-08T19:13:55Z"}
