{"icao":"LPOV","metar":"LPOV 100800Z 02004KT 360V060 9999 SCT015 BKN022 10/10 Q1021","updated":"2025-12-10T08:27:20Z"}
