{"icao":"KJFK","metar":"KJFK 251951Z 17012KT 10SM FEW070 FEW1100 SCT250 27/15 A3006 RMK SLP180 T02670150 ","updated":"2026-06-25T21:01:47Z"}
