{"icao":"LPPD","metar":"LPPD 140600Z 15006KT 9999 SCT018 19/16 Q1011","updated":"2025-10-14T06:27:32Z"}
