{"icao":"LPPR","metar":"LPPR 121100Z 04005KT 330V110 9999 BKN015 BKN020 13/10 Q1028","updated":"2026-03-12T11:30:23Z"}
