{"icao":"LPPR","metar":"LPPR 141800Z VRB02KT CAVOK 12/11 Q1017","updated":"2025-12-14T18:26:34Z"}
