{"icao":"LPFR","metar":"LPFR 151000Z 20016KT 3000 RA FEW010 SCT016 FEW018CB 19/17 Q1011","updated":"2025-11-15T10:17:16Z"}
