{"icao":"LPAR","metar":"LPAR 091200Z 34009KT 310V010 9999 SCT025 15/09 Q1029","updated":"2026-01-09T12:42:07Z"}
