{"icao":"LPPT","metar":"LPPT 210330Z 33010KT CAVOK 21/15 Q1016","updated":"2026-06-21T04:04:22Z"}
