{"icao":"LPPR","metar":"LPPR 021100Z 11003KT 030V180 9999 FEW036 17/12 Q1026","updated":"2025-11-02T11:12:55Z"}
