{"icao":"LPFR","metar":"LPFR 281630Z 25016KT 4500 -RA BR SCT012 BKN030 15/14 Q1008","updated":"2026-01-28T16:35:35Z"}
