{"icao":"LPOV","metar":"LPOV 081200Z 30007KT 270V330 9999 BKN016 13/11 Q1022","updated":"2026-03-08T12:46:02Z"}
