{"icao":"KJFK","metar":"KJFK 232051Z 26018G25KT 10SM FEW050 BKN210 BKN250 02/M13 A3011 RMK PK WND 24029/1957 SLP196 T00221133 55003 $ ","updated":"2026-01-23T21:19:58Z"}
