{"icao":"KLAX","metar":"KLAX 131553Z 00000KT 10SM CLR 13/00 A3020 RMK AO2 SLP224 T01330000 $","updated":"2026-01-13T16:30:43Z"}
