{"icao":"LPBJ","metar":"LPBJ 240300Z VRB02KT CAVOK 19/16 Q1020","updated":"2026-05-24T03:38:30Z"}
