{"icao":"LPMT","metar":"LPMT 040800Z 35007KT 310V010 9999 BKN032 19/12 Q1019","updated":"2026-06-04T08:19:28Z"}
