{"icao":"KJFK","metar":"KJFK 160651Z 35006KT 10SM SCT180 10/02 A2997 RMK AO2 SLP147 T01000022","updated":"2025-10-16T07:17:52Z"}
