{"icao":"LPLA","metar":"LPLA 011000Z 05005KT 340V100 9999 FEW022 16/10 Q1016","updated":"2026-05-01T10:39:55Z"}
