{"icao":"KORD","metar":"KORD 190340Z 23009KT 5SM -SN SCT029 OVC038 M08/M12 A2983 RMK AO2 P0000 T10781122 $","updated":"2026-01-19T03:49:31Z"}
