{"icao":"LPPT","metar":"LPPT 122000Z 19009KT 8000 -DZRA FEW006 SCT008 BKN022 14/13 Q1013","updated":"2026-02-12T20:33:34Z"}
