{"icao":"LPOV","metar":"LPOV 021300Z 16005KT 130V210 9000 -SHRA SCT018 FEW022CB SCT040 13/11 Q1016 RESHRA","updated":"2025-12-02T13:35:40Z"}
