{"icao":"LPPT","metar":"LPPT 291400Z 31007KT 280V340 9999 VCSH FEW012 FEW025CB BKN028 20/17 Q1008 RESHRA","updated":"2025-10-29T14:18:46Z"}
