{"icao":"KJFK","metar":"KJFK 101051Z 36003KT 10SM SCT140 BKN250 M06/M13 A3017 RMK AO2 SLP216 T10561133 $","updated":"2026-02-10T11:04:14Z"}
