{"icao":"KLAX","metar":"KLAX 121053Z 15006KT 10SM FEW018 BKN030 BKN065 16/12 A2993 RMK AO2 SLP133 T01610117 $","updated":"2026-04-12T11:33:05Z"}
