{"icao":"LPAZ","metar":"LPAZ 260330Z 22027KT 9000 SCT014 BKN040 18/15 Q1010","updated":"2026-01-26T03:56:08Z"}
