{"icao":"LPOV","metar":"LPOV 050700Z 35003KT 5000 BR SCT006 BKN012 14/13 Q1022","updated":"2025-10-05T07:14:28Z"}
