{"icao":"LPAR","metar":"LPAR 180900Z 07004KT 010V100 CAVOK 12/10 Q1020","updated":"2025-11-18T09:20:32Z"}
