{"icao":"LPPT","metar":"LPPT 081900Z 18016KT 9999 FEW015 BKN024 16/14 Q1019","updated":"2025-12-08T19:16:13Z"}
