{"icao":"LPMR","metar":"LPMR 300300Z 14003KT 7000 FEW007 BKN035 13/12 Q1012","updated":"2025-10-30T04:20:45Z"}
