{"icao":"LPHR","metar":"LPHR 181600Z 25006KT 200V290 9999 FEW010 SCT020 20/16 Q1025","updated":"2025-11-18T16:25:50Z"}
