{"icao":"LPPT","metar":"LPPT 271700Z VRB04G16KT 9999 FEW035 24/15 Q1018","updated":"2025-10-27T17:15:41Z"}
