{"icao":"KJFK","metar":"KJFK 031651Z 33010KT 10SM FEW037 FEW250 04/M05 A3006 RMK AO2 SLP180 T00391050","updated":"2025-12-03T17:21:28Z"}
