{"icao":"LPMT","metar":"LPMT 112100Z 15006KT CAVOK 14/12 Q1018","updated":"2025-12-11T21:20:42Z"}
