{"icao":"KORD","metar":"KORD 181651Z 28015G22KT 10SM SCT029 SCT250 08/M01 A2987 RMK AO2 SLP116 T00781006 $","updated":"2026-04-18T17:35:16Z"}
