{"icao":"LPCS","metar":"LPCS 091000Z VRB02KT CAVOK 14/12 Q1023","updated":"2025-11-09T10:16:45Z"}
