{"icao":"LPMR","metar":"LPMR 030600Z 16004KT CAVOK 07/07 Q1023","updated":"2025-11-03T06:29:06Z"}
