{"icao":"LPFR","metar":"LPFR 240330Z 07009KT CAVOK 21/11 Q1018","updated":"2026-05-24T03:38:26Z"}
