{"icao":"KLAX","metar":"KLAX 200453Z 21004KT 10SM FEW250 18/15 A3002 RMK AO2 SLP163 T01830150","updated":"2025-10-20T05:19:06Z"}
