{"icao":"LPPT","metar":"LPPT 222200Z 29013G27KT 240V330 8000 -SHRA FEW006 BKN012 14/13 Q1004 RERA","updated":"2026-01-22T22:21:20Z"}
