{"icao":"LPPD","metar":"LPPD 111000Z 29022KT 9999 FEW025 17/09 Q1005","updated":"2025-11-11T10:20:32Z"}
