{"icao":"LPFR","metar":"LPFR 090700Z 30003KT 260V340 CAVOK 15/13 Q1019","updated":"2025-10-09T07:17:08Z"}
