{"icao":"KLAX","metar":"KLAX 150453Z VRB03KT 6SM BR VCFG FEW004 16/14 A2994 RMK AO2 SLP137 T01560139 $","updated":"2026-03-15T05:04:26Z"}
