{"icao":"LPFL","metar":"LPFL 290830Z VRB10G20KT 9999 FEW025 14/06 Q1009","updated":"2026-01-29T08:37:57Z"}
