{"icao":"LPMA","metar":"LPMA 261500Z 03012KT 9999 BKN016 20/11 Q1022","updated":"2025-11-26T15:18:13Z"}
