{"icao":"LPFL","metar":"LPFL 191730Z 36029G40KT 9999 SCT016 BKN025 14/09 Q1016","updated":"2026-03-19T17:53:11Z"}
