{"icao":"LPPD","metar":"LPPD 151900Z 32005KT 270V360 9999 FEW025 15/09 Q1028","updated":"2025-12-15T19:18:39Z"}
