{"icao":"LPAZ","metar":"LPAZ 011100Z 29014KT 2500 -RA BR SCT003 BKN009 18/17 Q1026","updated":"2025-12-01T11:17:20Z"}
