{"icao":"LPLA","metar":"LPLA 130100Z 32026KT 9999 SCT025 15/10 Q1003","updated":"2025-11-13T01:24:48Z"}
