{"icao":"LPPS","metar":"LPPS 151400Z 18009KT 150V210 9999 SCT014 23/19 Q1016","updated":"2025-10-15T14:19:06Z"}
