{"icao":"KORD","metar":"KORD 120351Z 27005KT 10SM CLR 01/M03 A3013 RMK AO2 SLP210 T00111033","updated":"2026-03-12T04:46:09Z"}
