{"icao":"LPPS","metar":"LPPS 251300Z 31011KT 290V350 9999 FEW015 SCT030 21/15 Q1024","updated":"2025-11-25T13:33:07Z"}
