{"icao":"LPMA","metar":"LPMA 291000Z 03021KT 9999 SCT015 17/11 Q1026","updated":"2026-03-29T10:31:54Z"}
