{"icao":"LPBJ","metar":"LPBJ 051000Z 25022G32KT 9999 VCSH BKN020 16/12 Q0998 WS ALL RWY","updated":"2026-02-05T10:38:48Z"}
