{"icao":"LPPT","metar":"LPPT 280600Z 35004KT CAVOK 10/08 Q1023","updated":"2025-11-28T06:29:26Z"}
