{"icao":"LPPT","metar":"LPPT 150900Z 09003KT CAVOK 20/13 Q1017","updated":"2025-10-15T09:19:21Z"}
