{"icao":"LPBJ","metar":"LPBJ 031100Z 07012KT 9999 FEW030 16/08 Q1011","updated":"2026-03-03T11:31:14Z"}
