{"icao":"LPMA","metar":"LPMA 302300Z 36009KT 330V030 9999 FEW015 22/14 Q1022","updated":"2025-09-30T23:16:09Z"}
