{"icao":"LPBJ","metar":"LPBJ 231400Z 14007KT 110V180 CAVOK 22/06 Q1023","updated":"2026-02-23T14:43:49Z"}
