{"icao":"LPMT","metar":"LPMT 250900Z 34006KT 9999 FEW035 13/08 Q1023","updated":"2025-11-25T09:22:24Z"}
