{"icao":"LPCS","metar":"LPCS 070800Z 22009KT 200V260 9999 FEW009 SCT020 BKN030 18/16 Q1016","updated":"2025-11-07T08:24:50Z"}
