{"icao":"LPCS","metar":"LPCS 171000Z 31004KT 9999 FEW018 FEW025TCU 10/09 Q1014","updated":"2026-01-17T10:19:28Z"}
