{"icao":"KJFK","metar":"KJFK 100651Z 32007KT 10SM -RA FEW075 BKN090 OVC100 14/14 A2969 RMK AO2 SLP054 P0013 T01440139 $","updated":"2025-11-10T07:18:20Z"}
