{"icao":"KORD","metar":"KORD 050051Z 18005KT 10SM CLR 26/13 A3004 RMK AO2 SLP167 T02610128 $","updated":"2025-10-05T01:24:54Z"}
