{"icao":"LPPR","metar":"LPPR 020700Z 14003KT 100V170 CAVOK 15/13 Q1021","updated":"2025-10-02T07:16:14Z"}
