{"icao":"LPFL","metar":"LPFL 120830Z 29009G20KT 220V020 9999 FEW022 14/07 Q1013","updated":"2026-02-12T08:44:15Z"}
