{"icao":"LPPD","metar":"LPPD 061500Z 29006KT 240V330 0200 R30/0275 FG VV001 18/18 Q1025","updated":"2026-06-06T15:13:33Z"}
