{"icao":"LPFR","metar":"LPFR 142200Z 29005KT CAVOK 20/17 Q1016","updated":"2025-10-14T22:16:27Z"}
