{"icao":"LPMA","metar":"LPMA 131230Z 36025G41KT 330V030 9999 SCT015 FEW018CB 17/10 Q1018","updated":"2025-12-13T12:36:37Z"}
