{"icao":"LPMT","metar":"LPMT 041300Z 28005KT 170V340 9999 SCT040 19/06 Q1017","updated":"2026-05-04T13:56:56Z"}
