{"icao":"LPPS","metar":"LPPS 082200Z 04006KT 9999 SCT015 20/15 Q1023","updated":"2025-11-08T22:15:12Z"}
