{"icao":"KORD","metar":"KORD 080751Z 36011KT 10SM OVC018 09/05 A2977 RMK AO2 SLP081 T00890050 $","updated":"2025-11-08T08:21:58Z"}
