{"icao":"LPCS","metar":"LPCS 140900Z 19015KT 160V220 9999 VCSH FEW012 SCT020CB 16/13 Q1003","updated":"2025-11-14T09:19:43Z"}
