{"icao":"LPLA","metar":"LPLA 130400Z 31023KT 9000 -SHRA SCT023 14/11 Q1004","updated":"2025-11-13T04:23:58Z"}
