{"icao":"KORD","metar":"KORD 110716Z 30014G23KT 10SM FEW027 SCT034 OVC046 M05/M12 A3004 RMK AO2 SNE16 P0000 T10501117","updated":"2026-01-11T07:19:43Z"}
