{"icao":"LPPR","metar":"LPPR 061500Z 28005KT 230V320 CAVOK 26/11 Q1019","updated":"2025-10-06T15:17:58Z"}
