{"icao":"LPOV","metar":"LPOV 010600Z 11002KT CAVOK 04/04 Q1023","updated":"2026-03-01T06:43:26Z"}
