{"icao":"KJFK","metar":"KJFK 100151Z 17003KT 10SM FEW250 07/06 A3002 RMK AO2 SLP163 T00720061 $","updated":"2026-03-10T01:55:20Z"}
