{"icao":"LPFR","metar":"LPFR 281700Z 07008KT 4000 SHRA SCT012 FEW018CB SCT028 11/10 Q1011","updated":"2025-12-28T17:16:37Z"}
