{"icao":"KORD","metar":"KORD 220951Z 26010KT 10SM CLR M09/M18 A3009 RMK AO2 SLP201 T10941178 $","updated":"2026-01-22T10:26:49Z"}
