{"icao":"KLAX","metar":"KLAX 070653Z 30004KT 10SM BKN012 18/16 A2986 RMK AO2 SLP109 T01830156 $","updated":"2025-10-07T07:17:16Z"}
