{"icao":"LPPD","metar":"LPPD 132000Z 23004KT 210V270 9999 FEW018 SCT045 22/19 Q1026","updated":"2025-09-13T20:16:16Z"}
