{"icao":"LPFR","metar":"LPFR 021330Z 13019KT 9000 FEW012 SCT016 17/14 Q1010","updated":"2026-03-02T14:00:33Z"}
