{"icao":"LPFR","metar":"LPFR 232130Z 09006KT CAVOK 24/12 Q1020","updated":"2026-05-23T21:53:23Z"}
