{"icao":"KJFK","metar":"KJFK 231851Z 34009KT 10SM BKN010 OVC018 05/03 A2990 RMK AO2 SLP125 T00500028","updated":"2026-03-23T19:47:56Z"}
