{"icao":"KJFK","metar":"KJFK 050851Z 35007KT 10SM BKN250 M06/M12 A3013 RMK AO2 SLP203 6//// T10611122 56014 PNO $","updated":"2026-02-05T09:42:44Z"}
