{"icao":"KORD","metar":"KORD 101651Z 36009KT 10SM BKN015 OVC023 09/06 A3025 RMK AO2 SLP245 T00890056","updated":"2026-04-10T17:46:14Z"}
