{"icao":"LPPR","metar":"LPPR 212200Z 00000KT 9000 NSC 13/12 Q1011","updated":"2026-03-21T22:22:52Z"}
