{"icao":"KORD","metar":"KORD 191851Z 28015G24KT 10SM FEW022 M16/M23 A3022 RMK AO2 PK WND 27027/1756 SLP247 T11611233 $","updated":"2026-01-19T19:18:44Z"}
