{"icao":"LPBJ","metar":"LPBJ 011400Z 12010KT 9999 OVC006 13/12 Q1011","updated":"2026-01-01T14:18:37Z"}
