{"icao":"KJFK","metar":"KJFK 281551Z 11005KT 10SM BKN032 BKN085 BKN250 27/18 A2999 RMK SLP153 T02670183 $ ","updated":"2026-06-28T16:08:35Z"}
