{"icao":"LPAR","metar":"LPAR 281700Z 24016KT 4000 SHRA SCT005 BKN020 FEW025CB 17/16 Q1010","updated":"2025-10-28T21:16:35Z"}
