{"icao":"LPFR","metar":"LPFR 140330Z VRB02KT CAVOK 20/16 Q1014","updated":"2025-10-14T03:36:23Z"}
