{"icao":"KJFK","metar":"KJFK 130051Z 25011KT 10SM SCT250 03/M05 A3014 RMK AO2 SLP207 T00281050 $","updated":"2026-01-13T01:28:44Z"}
