{"icao":"KORD","metar":"KORD 070051Z 26007KT 3SM -DZ BR OVC006 04/03 A2970 RMK AO2 DZB36 SLP062 P0000 T00440033","updated":"2026-01-07T01:40:40Z"}
