{"icao":"LPMT","metar":"LPMT 262300Z 10007KT CAVOK 06/05 Q1013","updated":"2025-12-26T23:18:46Z"}
