{"icao":"LPFL","metar":"LPFL 160900Z 14008KT 110V200 9999 VCSH FEW005 BKN012 FEW015CB 21/20 Q1014","updated":"2026-06-16T09:30:48Z"}
