{"icao":"KLAX","metar":"KLAX 162053Z 24010KT 6SM -RA BR FEW009 SCT012 OVC043 12/10 A2979 RMK AO2 SLP086 P0011 60070 T01220100 53002 $","updated":"2026-02-16T21:28:18Z"}
