{"icao":"KJFK","metar":"KJFK 211151Z 23007KT 9SM FEW050 BKN250 02/01 A2989 RMK AO2 SLP121 70044 T00170006 10028 20011 53030 $","updated":"2026-02-21T12:44:20Z"}
