{"icao":"LPBJ","metar":"LPBJ 311000Z 18013KT 9999 FEW015 BKN045 19/15 Q1016","updated":"2025-10-31T10:19:22Z"}
