{"icao":"LPOV","metar":"LPOV 030800Z 05005KT 010V080 9999 SCT030 13/06 Q1014","updated":"2026-03-03T08:39:08Z"}
