{"icao":"KORD","metar":"KORD 250714Z 33009KT 10SM SCT023 BKN043 17/14 A2995 RMK AO2 T01670139","updated":"2025-09-25T07:17:45Z"}
