{"icao":"LPMR","metar":"LPMR 281400Z 15011KT 9999 -RA FEW015 SCT025 BKN040 18/16 Q1010","updated":"2025-10-28T14:18:45Z"}
