{"icao":"LPHR","metar":"LPHR 121930Z 23012KT 9999 FEW005 SCT011 BKN030 16/16 Q1027","updated":"2026-04-12T19:38:11Z"}
