{"icao":"LPMT","metar":"LPMT 210500Z 23008KT 8000 -DZ BKN006 BKN035 20/20 Q1013","updated":"2025-10-21T05:17:36Z"}
