{"icao":"LPAZ","metar":"LPAZ 182200Z 29005KT 4500 BR SCT002 BKN010 BKN026 23/22 Q1018","updated":"2025-10-18T22:15:29Z"}
