{"icao":"LPPD","metar":"LPPD 021400Z 34007KT 310V010 9999 FEW025 SCT045 17/09 Q1030","updated":"2025-12-02T14:20:44Z"}
