{"icao":"LPPR","metar":"LPPR 120200Z 35010KT CAVOK 07/00 Q1019","updated":"2026-04-12T02:29:42Z"}
