{"icao":"LPPR","metar":"LPPR 261300Z 04007KT 340V090 9999 FEW025 19/10 Q1021","updated":"2025-10-26T13:22:13Z"}
