{"icao":"LPFR","metar":"LPFR 301930Z 29007KT CAVOK 15/06 Q1026","updated":"2026-03-30T19:57:59Z"}
