{"icao":"LPMA","metar":"LPMA 011400Z 03011KT 340V060 9999 FEW015 21/11 Q1023","updated":"2025-12-01T14:20:58Z"}
