{"icao":"LPMA","metar":"LPMA 051000Z 03012KT 9999 FEW015 SCT030 22/13 Q1025","updated":"2025-10-05T10:16:26Z"}
