{"icao":"LPMR","metar":"LPMR 022300Z VRB01KT CAVOK 10/10 Q1023","updated":"2026-04-02T23:34:01Z"}
