{"icao":"LPAZ","metar":"LPAZ 090430Z 22018KT 4000 BR FEW002 BKN004 17/17 Q1015","updated":"2026-02-09T04:58:33Z"}
