{"icao":"LPFL","metar":"LPFL 031100Z VRB06G16KT 9999 VCSH SCT014 21/15 Q1011","updated":"2025-11-03T11:15:33Z"}
