{"icao":"LPBJ","metar":"LPBJ 121500Z 17007KT 130V190 9999 FEW020 BKN032 14/10 Q1018","updated":"2026-01-12T15:24:22Z"}
