{"icao":"KJFK","metar":"KJFK 231451Z 35010KT 10SM -RA BKN015 BKN024 OVC041 21/19 A2987 RMK RAB45 SLP116 P0000 60001 T02060189 53010 ","updated":"2026-06-23T15:46:28Z"}
