{"icao":"LPPS","metar":"LPPS 211700Z 11016KT 9999 SCT012 FEW018TCU 16/14 Q0998","updated":"2026-03-21T17:24:14Z"}
