{"icao":"KORD","metar":"KORD 031351Z 10005KT 10SM OVC017 01/M02 A3014 RMK AO2 SLP213 T00111022","updated":"2026-03-03T13:59:24Z"}
