{"icao":"LPLA","metar":"LPLA 291700Z 30013KT 7000 -SHRA FEW009 BKN015 BKN025 18/16 Q1028","updated":"2025-11-29T17:15:41Z"}
