{"icao":"LPMT","metar":"LPMT 031800Z 34009KT 310V020 CAVOK 23/16 Q1020","updated":"2026-06-03T18:21:29Z"}
