{"icao":"LPFR","metar":"LPFR 181600Z 25013KT CAVOK 20/11 Q1019","updated":"2026-05-18T16:20:49Z"}
