{"icao":"LPFR","metar":"LPFR 261800Z 02004KT CAVOK 16/07 Q1023","updated":"2025-11-26T18:23:37Z"}
