{"icao":"LPPT","metar":"LPPT 230500Z 34005KT 310V020 CAVOK 15/07 Q1017","updated":"2025-09-23T05:16:40Z"}
