{"icao":"LPMA","metar":"LPMA 210900Z 06005KT 010V100 9999 FEW015 SCT030 24/20 Q1020","updated":"2025-10-21T09:19:57Z"}
