{"icao":"LPMA","metar":"LPMA 220800Z 02013KT 350V050 9999 SCT016 SCT033 18/11 Q1025","updated":"2025-11-22T08:22:26Z"}
