{"icao":"LPFL","metar":"LPFL 111200Z 16009KT 9999 FEW020 21/16 Q1021","updated":"2025-10-11T12:31:58Z"}
