{"icao":"LPPT","metar":"LPPT 262030Z 31008KT CAVOK 15/12 Q1024","updated":"2026-02-26T20:35:42Z"}
