{"icao":"LPMT","metar":"LPMT 210700Z 07003KT CAVOK 06/06 Q1029","updated":"2026-02-21T07:30:49Z"}
