{"icao":"LPMT","metar":"LPMT 232200Z 33008KT CAVOK 18/14 Q1021","updated":"2026-05-23T22:51:37Z"}
