{"icao":"LPPD","metar":"LPPD 271600Z 24027G37KT 7000 -SHRA BKN015 FEW020TCU BKN040 16/13 Q1006","updated":"2026-01-27T16:29:09Z"}
