{"icao":"LPCS","metar":"LPCS 201100Z 11009KT 080V140 9999 FEW014 15/12 Q1008","updated":"2026-03-20T11:30:30Z"}
