{"icao":"LPPT","metar":"LPPT 041330Z 30009KT 270V340 9999 FEW045 SCT048 19/07 Q1017","updated":"2026-05-04T13:56:51Z"}
