{"icao":"LPFL","metar":"LPFL 221500Z 18017G32KT 150V210 9999 FEW008 BKN011 17/15 Q1013","updated":"2026-02-22T15:23:34Z"}
