{"icao":"KLAX","metar":"KLAX 300153Z 25013KT 10SM FEW019 FEW030 SCT050 17/13 A3000 RMK AO2 SLP158 T01720128 $","updated":"2026-05-30T02:55:18Z"}
