{"icao":"KLAX","metar":"KLAX 041353Z 07005KT 10SM SCT016 SCT021 16/13 A2993 RMK AO2 SLP133 T01610133 $","updated":"2025-10-04T14:14:03Z"}
