{"icao":"LPPT","metar":"LPPT 201730Z 26005KT CAVOK 24/06 Q1009","updated":"2026-04-20T17:56:14Z"}
