{"icao":"LPOV","metar":"LPOV 251300Z 34011KT 9999 FEW020 15/08 Q1023","updated":"2025-11-25T13:33:03Z"}
