{"icao":"LPPD","metar":"LPPD 142330Z 03006KT 360V070 9999 FEW020 BKN040 14/10 Q1032","updated":"2026-05-14T23:56:52Z"}
