{"icao":"LPPD","metar":"LPPD 101030Z 21011KT 0100 R30/0175 FG VV000 16/16 Q1014","updated":"2026-02-10T11:04:12Z"}
