{"icao":"LPOV","metar":"LPOV 221500Z 16013KT 130V190 2500 -RADZ BR SCT005 BKN014 BKN030 11/11 Q1001 RERADZ","updated":"2026-01-22T15:29:39Z"}
