{"icao":"KLAX","metar":"KLAX 080853Z VRB03KT 10SM CLR 17/09 A3015 RMK AO2 SLP208 T01720094 58000 $","updated":"2026-02-08T09:28:29Z"}
