{"icao":"LPPT","metar":"LPPT 300230Z 32008KT CAVOK 18/13 Q1016","updated":"2025-09-30T02:56:51Z"}
