{"icao":"LPPR","metar":"LPPR 182300Z 19007KT CAVOK 19/12 Q1015","updated":"2025-10-18T23:15:31Z"}
