{"icao":"LPPD","metar":"LPPD 181030Z 11006KT 070V130 9999 -RA FEW007 15/14 Q1016","updated":"2026-04-18T10:38:56Z"}
