{"icao":"LPAR","metar":"LPAR 251100Z 32006KT 290V350 9999 VCSH FEW011 BKN020 20/18 Q1014","updated":"2025-10-25T11:12:59Z"}
