{"icao":"LPPR","metar":"LPPR 032200Z 15014KT 6000 -RADZ BKN009 BKN012 FEW018TCU 09/07 Q0990 RERA","updated":"2026-02-03T22:28:25Z"}
