{"icao":"KLAX","metar":"KLAX 281953Z 26009KT 10SM SCT032 BKN037 22/13 A2993 RMK AO2 SLP133 T02170128","updated":"2026-06-28T20:12:15Z"}
