{"icao":"LPMA","metar":"LPMA 082030Z 32005KT 9999 SCT015 17/11 Q1008","updated":"2026-05-08T20:58:34Z"}
