{"icao":"KORD","metar":"KORD 091551Z 20005KT 10SM BKN250 M03/M09 A3015 RMK AO2 SLP218 T10281094","updated":"2026-02-09T15:54:42Z"}
