{"icao":"LPHR","metar":"LPHR 091130Z 34014G25KT 260V030 9999 FEW018 15/07 Q1020","updated":"2026-05-09T11:50:45Z"}
