{"icao":"LPPD","metar":"LPPD 190400Z 36014KT 330V030 9999 FEW007 BKN011 17/15 Q1022","updated":"2025-11-19T04:22:29Z"}
