{"icao":"LPMA","metar":"LPMA 222330Z 35009KT 290V020 9999 FEW015 21/16 Q1020","updated":"2026-06-23T00:04:06Z"}
