{"icao":"LPMA","metar":"LPMA 121030Z 05003KT 360V130 9999 SCT015 BKN030 17/10 Q1026","updated":"2026-02-12T10:43:50Z"}
