{"icao":"KORD","metar":"KORD 250151Z 23011G19KT 10SM OVC040 03/M07 A2950 RMK AO2 SLP996 T00331072","updated":"2026-02-25T02:03:33Z"}
