{"icao":"LPAZ","metar":"LPAZ 310400Z 22015KT 7000 FEW005 BKN041 17/16 Q1019","updated":"2026-01-31T04:05:16Z"}
