{"icao":"LPMA","metar":"LPMA 280430Z 01014KT 310V040 9999 SCT015 16/10 Q1020","updated":"2026-03-28T04:51:22Z"}
