{"icao":"KJFK","metar":"KJFK 260351Z 36016KT 4SM -SN BR BKN015 OVC025 M04/M06 A2979 RMK AO2 PLE25SNB25 SLP086 P0001 T10441061 $","updated":"2026-01-26T03:56:24Z"}
