{"icao":"LPFL","metar":"LPFL 301000Z 17010KT 9999 VCSH FEW006 FEW012CB SCT035 16/15 Q1006 RERA","updated":"2025-12-30T10:22:09Z"}
