{"icao":"LPPR","metar":"LPPR 072200Z 00000KT 9999 FEW015 BKN034 16/16 Q1023","updated":"2025-10-07T22:16:01Z"}
