{"icao":"LPPD","metar":"LPPD 160830Z 00000KT 9999 SCT014 BKN035 14/12 Q1021","updated":"2026-03-16T08:55:09Z"}
