{"icao":"LPST","metar":"LPST 281700Z 25012KT 9999 FEW012 14/12 Q1006","updated":"2026-01-28T18:35:48Z"}
