{"icao":"LPMT","metar":"LPMT 171800Z 34008KT CAVOK 24/14 Q1016","updated":"2026-04-17T18:58:19Z"}
