{"icao":"KLAX","metar":"KLAX 200853Z 07003KT 10SM FEW250 14/11 A3004 RMK AO2 SLP170 T01440106 58003 $","updated":"2026-01-20T09:31:37Z"}
