{"icao":"KORD","metar":"KORD 230951Z 22007KT 10SM FEW031 BKN250 04/M01 A2996 RMK AO2 SLP148 T00391011 $","updated":"2025-12-23T10:23:04Z"}
