{"icao":"KORD","metar":"KORD 231951Z 19017G26KT 10SM SCT060 OVC300 27/11 A2979 RMK AO2 PK WND 18026/1947 SLP085 T02670111","updated":"2026-04-23T20:51:42Z"}
