{"icao":"LPPD","metar":"LPPD 281830Z 25024KT 6000 FEW011 BKN040 17/15 Q1008","updated":"2026-01-28T18:35:50Z"}
