{"icao":"LPOV","metar":"LPOV 010700Z 17007KT 3000 -RADZ BR BKN002 OVC004 13/13 Q1012","updated":"2026-02-01T07:36:00Z"}
