{"icao":"KORD","metar":"KORD 300251Z 09004KT 10SM CLR 22/16 A3018 RMK AO2 SLP217 T02220161 52005","updated":"2025-09-30T02:57:12Z"}
