{"icao":"KORD","metar":"KORD 242051Z 03013KT 10SM SCT026 BKN036 BKN250 21/14 A2999 RMK AO2 SLP152 T02110144 56013","updated":"2025-09-24T21:15:06Z"}
