{"icao":"KORD","metar":"KORD 201651Z 29011G22KT 10SM SCT046 SCT250 23/10 A2995 RMK AO2 SLP139 T02280100 $","updated":"2026-06-20T17:25:13Z"}
