{"icao":"LPLA","metar":"LPLA 290800Z 21004KT 190V250 9999 FEW022 BKN040 16/10 Q1019","updated":"2025-10-29T08:25:26Z"}
