{"icao":"LPPT","metar":"LPPT 032300Z 26020G32KT 230V290 9000 4000S -RA SCT006 BKN010 16/15 Q0994 RERA","updated":"2026-02-03T23:26:41Z"}
