{"icao":"LPMR","metar":"LPMR 111200Z 17005KT 5000 BR SCT007 OVC020 13/12 Q1026","updated":"2026-01-11T12:39:02Z"}
