{"icao":"KJFK","metar":"KJFK 231951Z 08009KT 10SM -RA FEW045 BKN060 OVC120 12/08 A3047 RMK AO2 SLP319 P0001 T01170083","updated":"2026-05-23T20:50:22Z"}
