{"icao":"LPPR","metar":"LPPR 040100Z 16010KT CAVOK 16/12 Q1018","updated":"2025-11-04T01:23:09Z"}
