{"icao":"LPCS","metar":"LPCS 191230Z 23005KT 200V280 9999 FEW010 22/12 Q1016","updated":"2026-04-19T12:59:25Z"}
