{"icao":"LPLA","metar":"LPLA 181500Z 31009KT 9999 FEW017 SCT024 25/21 Q1014","updated":"2025-10-18T15:15:42Z"}
