{"icao":"LPOV","metar":"LPOV 111500Z 17007KT 130V190 9999 FEW020 15/11 Q1017","updated":"2025-12-11T15:22:52Z"}
