{"icao":"LPCS","metar":"LPCS 222230Z 30017G28KT 9999 FEW003 SCT008 14/12 Q1004","updated":"2026-01-23T06:33:54Z"}
