{"icao":"LPBJ","metar":"LPBJ 161600Z 32009KT 260V020 CAVOK 23/05 Q1015","updated":"2026-05-16T17:01:47Z"}
