{"icao":"LPFR","metar":"LPFR 211900Z 35005KT CAVOK 14/02 Q1026","updated":"2025-11-21T19:15:36Z"}
