{"icao":"KORD","metar":"KORD 031851Z 29012G20KT 10SM FEW250 15/M03 A3014 RMK AO2 SLP207 T01501033 $","updated":"2025-11-03T19:15:14Z"}
