{"icao":"LPPT","metar":"LPPT 180330Z 31003KT 270V340 9999 FEW020 11/09 Q1019","updated":"2026-05-18T03:51:53Z"}
