{"icao":"LPFL","metar":"LPFL 091930Z 34016KT 9999 VCSH BKN016 FEW017TCU 14/11 Q1024","updated":"2026-05-09T21:41:27Z"}
