{"icao":"KORD","metar":"KORD 142051Z 07008KT 10SM CLR 27/18 A3004 RMK AO2 SLP167 T02720178 56002 $","updated":"2025-09-14T21:14:23Z"}
