{"icao":"KORD","metar":"KORD 231010Z 32007G18KT 10SM -SN BKN029 BKN039 M07/M11 A3040 RMK AO2 P0000 T10721111 $","updated":"2026-02-23T10:49:48Z"}
