{"icao":"LPCS","metar":"LPCS 281200Z 33020G30KT 7000 -DZ SCT006 BKN014 18/16 Q1014","updated":"2025-09-28T12:32:22Z"}
