{"icao":"KJFK","metar":"KJFK 250651Z 23011KT 10SM BKN250 03/M02 A3036 RMK AO2 SLP282 T00331022 $","updated":"2026-03-25T07:15:19Z"}
