{"icao":"LPPD","metar":"LPPD 211500Z 25013KT 2500 -RA BR SCT006 SCT012 FEW020TCU 15/14 Q1015","updated":"2026-05-21T15:21:18Z"}
