{"icao":"LPAZ","metar":"LPAZ 181100Z 33016KT 9999 FEW022 16/10 Q1025","updated":"2025-12-18T11:18:20Z"}
