{"icao":"LPPT","metar":"LPPT 041500Z 02004KT 310V070 CAVOK 26/06 Q1021","updated":"2026-04-04T15:30:30Z"}
