{"icao":"LPAR","metar":"LPAR 291600Z VRB05KT 9999 FEW038 28/14 Q1014","updated":"2025-09-29T21:14:56Z"}
