{"icao":"LPCS","metar":"LPCS 061900Z 26010KT 230V300 9999 FEW018 FEW025TCU SCT040 11/06 Q1008","updated":"2026-02-06T19:36:35Z"}
