{"icao":"LPAR","metar":"LPAR 261200Z 24014KT 8000 -DZRA SCT009 BKN016 BKN030 17/14 Q1013","updated":"2026-01-26T12:45:48Z"}
