{"icao":"LPMR","metar":"LPMR 291100Z 33006KT 220V010 8000 -SHRA FEW014 SCT020TCU BKN030 19/17 Q1008","updated":"2025-10-29T11:16:05Z"}
