{"icao":"LPAZ","metar":"LPAZ 051500Z 22014KT 9999 FEW035 18/10 Q1019","updated":"2026-04-05T15:31:38Z"}
