{"icao":"LPCS","metar":"LPCS 301300Z 21007KT 180V240 9999 FEW030 26/16 Q1018","updated":"2025-09-30T13:27:42Z"}
