{"icao":"LPPR","metar":"LPPR 190130Z 33009KT 9999 VCSH FEW025TCU SCT030 11/06 Q1022","updated":"2026-02-19T02:03:42Z"}
