{"icao":"KJFK","metar":"KJFK 131151Z 03017G25KT 5SM -RA BR OVC011 13/12 A2989 RMK AO2 PK WND 04029/1101 SLP120 CIG 009V013 P0001 60025 70153 T01330122 10139 20128 51004","updated":"2025-10-13T12:37:24Z"}
