{"icao":"LPPD","metar":"LPPD 200400Z 26012KT 6000 FEW003 BKN005 22/22 Q1016","updated":"2025-10-20T04:24:01Z"}
