{"icao":"LPBJ","metar":"LPBJ 210400Z 18010KT 9999 -RA BKN015 OVC045 10/10 Q1014","updated":"2026-01-21T04:42:38Z"}
