{"icao":"KJFK","metar":"KJFK 201951Z 27017G24KT 10SM FEW050 M06/M17 A3032 RMK AO2 PK WND 27026/1904 SLP268 T10611172 $","updated":"2026-01-20T20:11:11Z"}
