{"icao":"KJFK","metar":"KJFK 110551Z 00000KT 10SM SCT250 10/04 A2999 RMK AO2 SLP154 T01000044 10111 20089 58006","updated":"2026-03-11T06:52:47Z"}
