{"icao":"KLAX","metar":"KLAX 062153Z 25007KT 10SM CLR 19/07 A3002 RMK AO2 SLP166 T01890072 $","updated":"2025-12-06T22:17:08Z"}
