{"icao":"KORD","metar":"KORD 110551Z 25005KT 10SM FEW250 M04/M08 A3014 RMK AO2 SLP214 T10391083 11006 21039 400221039 56015","updated":"2025-11-11T06:28:53Z"}
