{"icao":"LPLA","metar":"LPLA 040200Z 07007KT 020V120 9999 FEW023 SCT030 15/08 Q1025","updated":"2026-05-04T02:45:00Z"}
