{"icao":"KORD","metar":"KORD 282351Z 18005KT 10SM FEW080 SCT120 BKN200 OVC250 27/22 A2982 RMK AO2 PK WND 17033/2254 SLP093 T02670217 10272 20250 55050 $","updated":"2026-06-29T00:07:31Z"}
