{"icao":"LPPT","metar":"LPPT 241600Z 23013KT 210V270 9999 FEW020 25/14 Q1013","updated":"2026-06-24T16:19:59Z"}
