{"icao":"LPOV","metar":"LPOV 241300Z 30009KT 280V350 9999 FEW020 18/14 Q1018","updated":"2026-04-24T15:06:36Z"}
