{"icao":"LPPD","metar":"LPPD 180930Z 36023G34KT 9999 VCSH FEW020 FEW025CB BKN035 09/03 Q1012 WS R30","updated":"2026-03-18T09:53:29Z"}
