{"icao":"KJFK","metar":"KJFK 162251Z 05011KT 10SM FEW045 SCT080 SCT210 BKN250 21/10 A3018 RMK AO2 SLP220 T02060100 $","updated":"2025-09-16T23:12:58Z"}
