{"icao":"LPHR","metar":"LPHR 160900Z 24019KT 9999 SCT014 BKN030 17/12 Q1025","updated":"2025-12-16T09:25:13Z"}
