{"icao":"LPOV","metar":"LPOV 271600Z 34010KT CAVOK 15/09 Q1024","updated":"2025-11-27T16:23:20Z"}
