{"icao":"LPPD","metar":"LPPD 030530Z 25019KT 5000 BR SCT003 BKN005 16/15 Q1008","updated":"2026-02-03T05:50:25Z"}
