{"icao":"LPAZ","metar":"LPAZ 280700Z 26026KT 7000 FEW006 SCT010 BKN040 17/16 Q1009","updated":"2026-01-28T07:24:53Z"}
