{"icao":"LPCS","metar":"LPCS 051700Z 26011KT 230V300 9999 SCT015 FEW025TCU 16/12 Q1010","updated":"2025-11-05T17:17:26Z"}
