{"icao":"KORD","metar":"KORD 051951Z 20005KT 10SM BKN250 06/00 A2980 RMK AO2 SLP095 T00610000","updated":"2026-01-05T20:24:41Z"}
