{"icao":"KJFK","metar":"KJFK 301951Z 19011KT 10SM SCT090 SCT120 BKN250 16/06 A3008 RMK AO2 SLP186 T01610061","updated":"2026-03-30T19:58:20Z"}
