{"icao":"LPMA","metar":"LPMA 202130Z 35006KT 320V020 9999 SCT016 SCT033 18/14 Q1021","updated":"2026-05-20T21:51:36Z"}
