{"icao":"KJFK","metar":"KJFK 190351Z 10003KT 10SM BKN060 BKN250 06/M03 A3017 RMK AO2 SLP217 T00561028 $","updated":"2025-11-19T04:22:34Z"}
