{"icao":"LPFR","metar":"LPFR 140400Z VRB02KT CAVOK 19/16 Q1014","updated":"2025-10-14T04:21:07Z"}
