{"icao":"LPPS","metar":"LPPS 231800Z 01006KT 9999 FEW015 BKN030 23/20 Q1021","updated":"2025-10-23T18:26:41Z"}
