{"icao":"KJFK","metar":"KJFK 270751Z 02006KT 10SM SCT250 M01/M06 A3001 RMK AO2 SLP161 T10111061 $","updated":"2026-02-27T08:38:55Z"}
