{"icao":"LPBJ","metar":"LPBJ 141600Z 34003KT 290V040 9999 SCT025 15/08 Q1020","updated":"2026-01-14T16:28:53Z"}
