{"icao":"LPLA","metar":"LPLA 031500Z 12006KT 070V170 9999 FEW025 20/13 Q1026 WS ALL RWY","updated":"2026-03-03T15:46:51Z"}
