{"icao":"LPAZ","metar":"LPAZ 300500Z 34009KT 9999 FEW010 BKN020 17/15 Q1028","updated":"2025-11-30T05:18:00Z"}
