{"icao":"KLAX","metar":"KLAX 230253Z VRB04KT 10SM SCT060 BKN120 19/06 A2993 RMK AO2 SLP135 T01940056 51009","updated":"2025-11-23T03:26:37Z"}
