{"icao":"LPMT","metar":"LPMT 011100Z 30005KT 230V360 9999 SCT027 20/10 Q1019","updated":"2026-05-01T11:58:13Z"}
