{"icao":"LPHR","metar":"LPHR 231730Z 14008KT 9999 FEW015 22/18 Q1022","updated":"2026-06-23T17:52:07Z"}
