{"icao":"KJFK","metar":"KJFK 011551Z 31024G31KT 10SM FEW050 M03/M15 A2977 RMK AO2 PK WND 33039/1519 SLP082 T10331150 $","updated":"2026-01-01T16:25:41Z"}
