{"icao":"LPFR","metar":"LPFR 161500Z 12010KT 9999 FEW014 24/18 Q1013","updated":"2025-10-16T15:19:20Z"}
