{"icao":"LPMA","metar":"LPMA 151830Z 02011KT 340V040 9999 -RA BKN012 16/14 Q1019","updated":"2026-03-15T18:37:31Z"}
