{"icao":"KORD","metar":"KORD 212051Z 25012G20KT 10SM -RA SCT035 BKN070 OVC095 10/03 A2970 RMK AO2 PK WND 24032/2025 RAB27 SLP057 P0000 60000 T01000033 53001","updated":"2025-10-21T21:16:58Z"}
