{"icao":"KORD","metar":"KORD 131151Z 22009KT 10SM FEW013 BKN022 OVC035 18/16 A2988 RMK AO2 SLP114 60001 70014 T01830161 10183 20167 51014","updated":"2026-04-13T12:01:49Z"}
