{"icao":"LPBJ","metar":"LPBJ 252200Z 22006KT CAVOK 17/15 Q1016","updated":"2026-04-25T22:35:32Z"}
