{"icao":"LPPD","metar":"LPPD 021930Z 03008KT 350V070 9999 FEW018 BKN030 15/09 Q1029","updated":"2026-04-02T19:50:23Z"}
