{"icao":"LPMA","metar":"LPMA 070700Z 28007KT 230V330 9999 BKN015 17/11 Q1018","updated":"2026-02-07T07:30:48Z"}
