{"icao":"LPBJ","metar":"LPBJ 100800Z 05002KT 7000 2100S VCFG FEW022 BKN028 09/08 Q1020","updated":"2025-11-10T08:27:08Z"}
