{"icao":"LPPT","metar":"LPPT 181530Z 22007KT 180V260 CAVOK 27/09 Q1015","updated":"2026-04-18T15:36:02Z"}
