{"icao":"LPPT","metar":"LPPT 192030Z 10007KT CAVOK 13/12 Q1006","updated":"2026-03-19T20:36:01Z"}
