{"icao":"KORD","metar":"KORD 070151Z 04017G24KT 10SM SCT017 BKN065 03/M01 A3028 RMK AO2 WSHFT 0055 PRESRR SLP260 T00331006 $","updated":"2026-04-07T02:14:24Z"}
