{"icao":"LPPS","metar":"LPPS 010330Z 02010KT 9999 FEW015 BKN030 17/11 Q1022","updated":"2025-12-01T03:50:03Z"}
