{"icao":"LPFL","metar":"LPFL 191900Z VRB09KT 9999 4900S -DZ FEW005 SCT008 24/21 Q1013 WS R18","updated":"2025-10-19T19:13:14Z"}
