{"icao":"KLAX","metar":"KLAX 060053Z 26011KT 10SM SCT250 17/11 A3016 RMK AO2 SLP211 T01720111 $","updated":"2025-11-06T01:24:12Z"}
