{"icao":"LPPR","metar":"LPPR 210900Z 36007KT CAVOK 16/11 Q1023","updated":"2025-09-21T09:15:25Z"}
