{"icao":"LPPT","metar":"LPPT 280430Z 35015KT CAVOK 10/06 Q1025","updated":"2026-02-28T04:54:05Z"}
