{"icao":"LPMA","metar":"LPMA 252000Z 01008KT 340V050 9999 SCT013 BKN030 19/16 Q1020","updated":"2026-05-25T20:21:47Z"}
