{"icao":"LPLA","metar":"LPLA 281300Z 13030G40KT 7000 -RA SCT018 BKN030 13/10 Q1013","updated":"2025-12-28T13:28:28Z"}
