{"icao":"KJFK","metar":"KJFK 251151Z 21009KT 10SM FEW035 BKN160 BKN220 08/04 A3027 RMK AO2 SLP251 T00780044 10078 20044 55002","updated":"2025-11-25T12:40:00Z"}
