{"icao":"LPBJ","metar":"LPBJ 010500Z 17010KT CAVOK 16/15 Q1016","updated":"2025-11-01T05:16:34Z"}
