{"icao":"KJFK","metar":"KJFK 112051Z 09017G27KT 10SM FEW014 BKN019 BKN080 18/14 A3015 RMK AO2 PK WND 10027/2042 SLP208 60000 T01830139 58010","updated":"2025-10-11T21:14:03Z"}
