{"icao":"LPPT","metar":"LPPT 151400Z 23013KT 200V260 9999 FEW015 17/14 Q1006","updated":"2025-11-15T14:15:25Z"}
