{"icao":"LPPS","metar":"LPPS 101300Z 13008KT 080V160 9999 FEW015 SCT030 22/16 Q1021","updated":"2025-11-10T13:30:37Z"}
