{"icao":"KORD","metar":"KORD 200505Z 17006KT 4SM BR BKN017 OVC032 06/04 A3016 RMK AO2 T00610039","updated":"2025-11-20T05:18:53Z"}
