{"icao":"KJFK","metar":"KJFK 222251Z 10004KT 10SM FEW017 SCT080 SCT100 10/06 A3000 RMK SLP157 T01000056 ","updated":"2026-04-22T23:43:57Z"}
