{"icao":"LPMT","metar":"LPMT 201500Z 35008KT 320V020 CAVOK 33/15 Q1013","updated":"2026-06-20T15:49:10Z"}
