{"icao":"LPMR","metar":"LPMR 140700Z 16003KT 3500 BR SCT015 BKN026 09/09 Q1017","updated":"2026-01-14T07:23:54Z"}
