{"icao":"LPMR","metar":"LPMR 282000Z 14007KT 4000 RA FEW015 FEW025CB SCT045 16/15 Q1010","updated":"2025-10-28T20:21:02Z"}
