{"icao":"LPOV","metar":"LPOV 270500Z 13002KT 8000 PRFG SCT012 BKN018 10/10 Q1024","updated":"2026-02-27T05:51:26Z"}
