{"icao":"LPPS","metar":"LPPS 142200Z 04009KT 010V070 9999 FEW014 BKN030 15/12 Q1024","updated":"2026-03-14T22:25:06Z"}
