{"icao":"LPHR","metar":"LPHR 271230Z 04014KT 010V070 7000 -SHRA SCT012 FEW016TCU BKN030 18/14 Q1020","updated":"2025-10-27T12:39:18Z"}
