{"icao":"LPMA","metar":"LPMA 050100Z 23007KT 200V260 9999 SCT014 SCT070 21/17 Q1014","updated":"2025-11-05T01:24:19Z"}
