{"icao":"KLAX","metar":"KLAX 290653Z 09006KT 10SM CLR 19/17 A3003 RMK AO2 SLP165 T01890167 $","updated":"2025-10-29T07:18:02Z"}
