{"icao":"KLAX","metar":"KLAX 260653Z 00000KT 10SM FEW010 SCT250 16/14 A3007 RMK AO2 SLP182 T01560144","updated":"2026-02-26T07:02:37Z"}
