{"icao":"LPPD","metar":"LPPD 040630Z 34004KT 9999 FEW018 BKN035 14/07 Q1022","updated":"2026-04-04T07:00:50Z"}
