{"icao":"LPBJ","metar":"LPBJ 100600Z 23008KT 5000 -DZ BR OVC003 14/14 Q1017","updated":"2026-02-10T07:02:33Z"}
