{"icao":"KJFK","metar":"KJFK 200051Z 23015KT 10SM FEW044 FEW065 M01/M07 A3003 RMK AO2 SLP169 T10061067 $","updated":"2026-01-20T01:41:44Z"}
