{"icao":"LPOV","metar":"LPOV 210900Z 05002KT 010V080 CAVOK 13/13 Q1009","updated":"2026-03-21T10:24:54Z"}
