{"icao":"LPHR","metar":"LPHR 170900Z 24018KT 7000 VCSH SCT003 BKN006 19/18 Q1019","updated":"2025-12-17T09:26:48Z"}
