{"icao":"LPBJ","metar":"LPBJ 091000Z 34007KT 9999 FEW004 SCT008 BKN022 12/11 Q1029","updated":"2026-01-09T10:21:36Z"}
