{"icao":"LPPT","metar":"LPPT 042200Z 23018KT 6000 -RADZ BKN005 15/14 Q0997 WS R20","updated":"2026-02-04T22:26:30Z"}
