{"icao":"KORD","metar":"KORD 270451Z 01004KT 10SM CLR 18/17 A2989 RMK AO2 SLP119 T01780167 $","updated":"2025-09-27T05:16:36Z"}
