{"icao":"LPMR","metar":"LPMR 112300Z 17002KT CAVOK 16/11 Q1018","updated":"2025-10-11T23:15:31Z"}
