{"icao":"LPOV","metar":"LPOV 151700Z 34012KT 9999 SCT004 OVC010 18/16 Q1017","updated":"2026-06-15T18:23:27Z"}
