{"icao":"LPMA","metar":"LPMA 191500Z 20008KT 170V230 9999 FEW015 25/18 Q1018","updated":"2026-06-19T15:12:31Z"}
