{"icao":"LPMR","metar":"LPMR 211900Z 29009KT 7000 FEW007 SCT020 13/08 Q1004 RESHRA","updated":"2026-01-21T19:25:25Z"}
