{"icao":"LPHR","metar":"LPHR 092000Z 05006KT 320V120 9999 FEW014 SCT030 15/10 Q1020","updated":"2026-05-09T20:55:22Z"}
