{"icao":"LPPR","metar":"LPPR 261600Z 32006KT CAVOK 15/10 Q1025","updated":"2025-11-26T16:24:39Z"}
