{"icao":"LPFR","metar":"LPFR 261600Z 12009KT CAVOK 17/06 Q1022","updated":"2025-11-26T16:24:39Z"}
