{"icao":"LPPR","metar":"LPPR 040330Z 33004KT 9999 FEW018 BKN035 16/14 Q1018","updated":"2026-06-04T03:53:00Z"}
