{"icao":"LPMR","metar":"LPMR 270400Z 15005KT 0900 FG BKN002 12/11 Q1017","updated":"2025-09-27T04:20:10Z"}
