{"icao":"LPPT","metar":"LPPT 022000Z 31013KT CAVOK 21/13 Q1021","updated":"2025-10-02T20:18:36Z"}
