{"icao":"LPBJ","metar":"LPBJ 142000Z 30012KT CAVOK 17/08 Q1012","updated":"2026-05-14T20:39:52Z"}
