{"icao":"LPOV","metar":"LPOV 032200Z 03002KT 340V060 2000 0900S PRFG NSC 11/11 Q1015","updated":"2026-03-03T22:27:44Z"}
