{"icao":"LPMT","metar":"LPMT 111700Z 26009KT CAVOK 23/15 Q1016","updated":"2025-10-11T17:12:57Z"}
