{"icao":"LPPR","metar":"LPPR 010800Z 21007KT 1800 -DZ BR BKN002 OVC005 14/13 Q1012","updated":"2026-02-01T08:30:56Z"}
