{"icao":"LPMT","metar":"LPMT 251500Z 28005KT 240V320 9999 FEW030 25/14 Q1014","updated":"2026-04-25T15:38:04Z"}
