{"icao":"LPPR","metar":"LPPR 041100Z 09009KT CAVOK 14/07 Q1005","updated":"2026-01-04T11:15:51Z"}
