{"icao":"LPFR","metar":"LPFR 080230Z VRB01KT CAVOK 19/15 Q1020","updated":"2025-10-08T02:56:14Z"}
