{"icao":"LPCS","metar":"LPCS 241600Z 31016KT 280V340 9999 FEW020 13/06 Q1014","updated":"2026-01-24T16:23:11Z"}
