{"icao":"LPST","metar":"LPST 291700Z 33009KT 300V360 CAVOK 22/12 Q1016","updated":"2025-09-29T22:14:49Z"}
