{"icao":"LPPD","metar":"LPPD 122100Z 31013G23KT 270V350 9999 FEW022 SCT035 14/08 Q1020","updated":"2026-01-12T21:19:44Z"}
