{"icao":"LPPT","metar":"LPPT 140300Z 03013KT CAVOK 13/08 Q1019","updated":"2025-12-14T03:27:42Z"}
