{"icao":"KORD","metar":"KORD 220651Z 02007KT 10SM BKN065 OVC250 12/07 A3017 RMK AO2 SLP217 T01170072 $","updated":"2026-05-22T07:43:10Z"}
