{"icao":"LPPD","metar":"LPPD 192200Z 25009KT 5000 BR SCT002 BKN005 22/22 Q1017","updated":"2025-10-19T22:16:01Z"}
