{"icao":"LPPT","metar":"LPPT 230130Z 35003KT CAVOK 12/08 Q1025","updated":"2026-02-23T02:04:14Z"}
