{"icao":"LPFR","metar":"LPFR 022100Z 03006KT CAVOK 18/09 Q1024","updated":"2025-11-02T21:14:25Z"}
