{"icao":"LPHR","metar":"LPHR 130900Z 01006KT 9999 FEW014 BKN030 12/09 Q1024","updated":"2026-01-13T09:26:48Z"}
