{"icao":"LPPD","metar":"LPPD 060900Z 19003KT 150V240 9999 FEW007 SCT012 BKN025 18/15 Q1025","updated":"2026-06-06T09:24:18Z"}
