{"icao":"LPFR","metar":"LPFR 010300Z 21006KT 9999 FEW030 20/17 Q1016","updated":"2025-11-01T03:10:11Z"}
