{"icao":"KJFK","metar":"KJFK 020651Z 02012KT 10SM FEW250 M03/M13 A3054 RMK AO2 SLP342 T10331133 VISNO W $","updated":"2026-03-02T06:56:15Z"}
