{"icao":"KORD","metar":"KORD 131751Z 27022G46KT 10SM BKN049 07/M05 A2961 RMK AO2 PK WND 27048/1719 SLP030 T00671050 10083 20033 51037 $","updated":"2026-03-13T18:41:10Z"}
