{"icao":"KJFK","metar":"KJFK 081451Z 21005KT 1/8SM R04R/1200FT FG VV002 07/07 A2981 RMK AO2 SLP096 T00720072 50003","updated":"2026-03-08T15:22:42Z"}
