{"icao":"LPFL","metar":"LPFL 100900Z VRB06KT 9999 FEW012 SCT016 BKN033 17/13 Q1030","updated":"2026-04-10T09:07:29Z"}
