{"icao":"LPAZ","metar":"LPAZ 261900Z 05016G27KT 9999 SCT015 BKN022 FEW025TCU 18/15 Q1017","updated":"2025-10-26T19:13:42Z"}
