{"icao":"LPMA","metar":"LPMA 301100Z 01011KT 300V050 9999 FEW015 21/13 Q1025","updated":"2026-05-30T11:18:51Z"}
