{"icao":"LPBJ","metar":"LPBJ 181900Z 30012KT CAVOK 32/10 Q1013","updated":"2026-06-18T19:26:56Z"}
