{"icao":"LPMR","metar":"LPMR 230300Z 15005KT 7000 -RA SCT022 BKN030 10/09 Q1012","updated":"2025-12-23T03:25:15Z"}
