{"icao":"LPPS","metar":"LPPS 101100Z 07007KT 040V100 9999 FEW015 17/11 Q1032","updated":"2026-01-10T11:16:14Z"}
