{"icao":"KJFK","metar":"KJFK 081951Z 35015G24KT 10SM FEW042 SCT060 SCT130 SCT250 21/10 A3002 RMK AO2 SLP166 T02060100","updated":"2025-10-08T20:19:43Z"}
