{"icao":"LPFL","metar":"LPFL 181930Z 14003KT 030V200 9999 FEW019 19/15 Q1013","updated":"2026-06-19T00:25:18Z"}
