{"icao":"LPPT","metar":"LPPT 100600Z 26003KT 230V310 9999 FEW003 SCT008 15/15 Q1018","updated":"2025-11-10T06:30:23Z"}
