{"icao":"LPFR","metar":"LPFR 041900Z 34006KT 290V360 9999 FEW020 16/11 Q1003","updated":"2026-01-04T19:14:37Z"}
