{"icao":"LPMR","metar":"LPMR 191500Z 29008KT CAVOK 26/14 Q1019","updated":"2025-09-19T16:20:27Z"}
