{"icao":"KLAX","metar":"KLAX 121653Z 27013KT 10SM FEW017 FEW042 BKN065 17/12 A2999 RMK AO2 SLP154 T01720122 $","updated":"2026-04-12T17:33:19Z"}
