{"icao":"LPPT","metar":"LPPT 290900Z 06004KT 330V110 9999 FEW005 08/08 Q1019","updated":"2025-12-29T09:28:46Z"}
