{"icao":"KLAX","metar":"KLAX 231653Z 27006KT 8SM FEW009 OVC017 19/15 A3007 RMK AO2 SLP180 T01890150 $","updated":"2026-06-23T17:52:08Z"}
