{"icao":"LPMA","metar":"LPMA 202230Z 35004KT 310V010 9999 FEW013 18/14 Q1005","updated":"2026-04-20T22:41:29Z"}
