{"icao":"LPPD","metar":"LPPD 250700Z 03010KT 360V070 9999 FEW016 FEW020CB 18/16 Q1016","updated":"2025-10-25T07:16:15Z"}
