{"icao":"LPMT","metar":"LPMT 021400Z 35016KT 9999 FEW030 24/13 Q1021","updated":"2026-06-02T14:51:07Z"}
