{"icao":"KORD","metar":"KORD 271251Z 19005KT 1SM R10L/5000VP6000FT BR BKN002 BKN250 M01/M02 A2988 RMK AO2 SLP125 I1000 T10111022","updated":"2026-02-27T12:57:15Z"}
