{"icao":"LPAZ","metar":"LPAZ 031800Z 20006KT 170V240 9999 FEW015 24/21 Q1024","updated":"2025-10-03T18:24:20Z"}
