{"icao":"LPAZ","metar":"LPAZ 241300Z 26007KT 9999 FEW017 BKN028 18/15 Q1028","updated":"2025-11-24T13:32:26Z"}
