{"icao":"KLAX","metar":"KLAX 302253Z 27008KT 10SM FEW280 SCT330 24/06 A3014 RMK AO2 SLP206 T02390056 $","updated":"2026-01-30T23:24:02Z"}
