{"icao":"KORD","metar":"KORD 261010Z 15009KT 4SM -DZ BR OVC007 04/03 A2970 RMK AO2 RAB06E10 P0000 T00440028 $","updated":"2025-12-26T10:20:52Z"}
