{"icao":"KORD","metar":"KORD 090251Z 15013KT 5SM -RA BR FEW015 BKN055 OVC085 14/13 A2939 RMK AO2 SLP953 6//// T01390128 58041 PNO $","updated":"2026-01-09T03:38:44Z"}
