{"icao":"LPMT","metar":"LPMT 180500Z VRB02KT CAVOK 10/10 Q1018","updated":"2025-11-18T05:18:22Z"}
