{"icao":"LPPR","metar":"LPPR 041630Z 21012KT 180V240 7000 BKN005 BKN012 14/13 Q0993","updated":"2026-02-04T16:45:23Z"}
