{"icao":"LPLA","metar":"LPLA 312300Z 22014KT 170V250 9999 FEW007 SCT014 18/15 Q1011","updated":"2026-01-31T23:21:07Z"}
