{"icao":"LPFR","metar":"LPFR 172100Z 26004KT CAVOK 22/19 Q1020","updated":"2025-09-17T21:14:39Z"}
