{"icao":"LPPD","metar":"LPPD 101800Z 22004KT 180V260 9999 VCSH FEW012 FEW016CB BKN045 20/19 Q1021","updated":"2025-10-10T18:25:12Z"}
