{"icao":"LPMT","metar":"LPMT 301500Z 01003KT 340V040 0300 FG VV002 09/09 Q1020","updated":"2025-12-30T15:21:02Z"}
