{"icao":"LPMA","metar":"LPMA 020100Z 03008KT 340V060 9999 -SHRA BKN015 19/17 Q1022","updated":"2025-10-02T01:17:02Z"}
