{"icao":"LPPS","metar":"LPPS 131830Z 34017KT 9999 FEW015 16/10 Q1027","updated":"2026-02-13T18:47:16Z"}
