{"icao":"LPST","metar":"LPST 041700Z 17017KT CAVOK 20/15 Q1013","updated":"2025-11-05T07:18:09Z"}
