{"icao":"LPPR","metar":"LPPR 110930Z 21013KT 1500 -DZ BR BKN002 BKN004 15/14 Q1011","updated":"2026-02-11T10:01:32Z"}
