{"icao":"LPAZ","metar":"LPAZ 221900Z 18006KT 150V210 9999 FEW022 22/15 Q1023","updated":"2025-09-22T19:14:05Z"}
