{"icao":"LPPR","metar":"LPPR 081100Z 18014KT 3000 DZRA BR BKN004 11/10 Q1030","updated":"2026-01-08T11:19:44Z"}
