{"icao":"LPPD","metar":"LPPD 131300Z 31006KT 280V340 8000 SHRA SCT016 FEW018TCU BKN030 19/16 Q1017","updated":"2025-10-13T13:28:58Z"}
