{"icao":"LPBJ","metar":"LPBJ 260400Z 34003KT 280V040 CAVOK 10/10 Q1014","updated":"2026-03-26T05:04:32Z"}
