{"icao":"KJFK","metar":"KJFK 291751Z 25005KT 1 1/2SM R04R/4000VP6000FT BR SCT003 BKN013 OVC095 08/08 A2932 RMK AO2 SFC VIS 3 RAE50 SLP927 P0001 60004 T00780078 10078 20056 56041 $","updated":"2025-12-29T18:29:29Z"}
