{"icao":"LPMA","metar":"LPMA 211900Z 36014KT 9999 SCT015 18/11 Q1025","updated":"2025-11-21T19:15:40Z"}
