{"icao":"LPMR","metar":"LPMR 220800Z 17003KT CAVOK 02/01 Q1031","updated":"2025-11-22T08:22:22Z"}
