{"icao":"LPMT","metar":"LPMT 051900Z 34013KT 300V020 9999 SCT018 SCT030 11/07 Q1018","updated":"2026-03-05T19:50:40Z"}
