{"icao":"LPPT","metar":"LPPT 191530Z 09007KT 040V180 9000 -RA FEW008 13/12 Q1005","updated":"2026-03-19T15:53:26Z"}
