{"icao":"LPBJ","metar":"LPBJ 142300Z VRB01KT 5000 1500N BCFG SCT021 09/09 Q1022","updated":"2026-01-14T23:17:07Z"}
