{"icao":"KLAX","metar":"KLAX 192053Z 25012KT 10SM FEW012 FEW047 SCT090 24/18 A2990 RMK AO2 SLP124 T02440178 58009","updated":"2025-09-19T21:14:39Z"}
