{"icao":"LPPR","metar":"LPPR 222300Z 00000KT CAVOK 07/07 Q1027","updated":"2026-02-22T23:24:48Z"}
