{"icao":"KLAX","metar":"KLAX 190353Z 25006KT 10SM CLR 19/17 A2998 RMK AO2 SLP151 T01940167 $","updated":"2025-10-19T04:21:32Z"}
