{"icao":"KJFK","metar":"KJFK 210251Z 27013KT 10SM CLR M07/M17 A3051 RMK SLP332 T10671172 53023 ","updated":"2026-01-21T03:43:01Z"}
