{"icao":"LPCS","metar":"LPCS 062100Z 03009KT CAVOK 19/16 Q1020","updated":"2025-10-06T21:14:53Z"}
