{"icao":"LPMA","metar":"LPMA 191800Z 17003KT 130V200 9999 BKN015 19/13 Q1017","updated":"2025-11-19T18:28:04Z"}
