{"icao":"LPMT","metar":"LPMT 111300Z 23016KT 5000 BR OVC004 15/15 Q1017","updated":"2026-02-11T13:07:16Z"}
