{"icao":"LPFL","metar":"LPFL 221800Z 18016G26KT 140V200 9999 FEW008 BKN011 17/15 Q1011","updated":"2026-02-22T18:33:46Z"}
