{"icao":"LPPT","metar":"LPPT 020600Z 33003KT CAVOK 13/12 Q1024","updated":"2025-11-02T06:25:53Z"}
