{"icao":"LPPD","metar":"LPPD 031700Z 26011KT 9999 FEW010 BKN016 19/16 Q1011","updated":"2025-11-03T17:16:52Z"}
