{"icao":"KORD","metar":"KORD 091400Z 33015G22KT 7SM OVC044 00/M04 A3002 RMK AO2 SNE1352 P0000 T00001039 $","updated":"2025-11-09T14:14:48Z"}
