{"icao":"LPMA","metar":"LPMA 051230Z 04009KT 360V080 9999 FEW016 23/14 Q1018","updated":"2025-11-05T12:38:32Z"}
