{"icao":"KORD","metar":"KORD 310914Z 32012KT 6SM -SN FEW024 BKN036 OVC080 M11/M14 A3039 RMK AO2 P0000 T11111144","updated":"2026-01-31T09:26:31Z"}
