{"icao":"LPFL","metar":"LPFL 110830Z 25011G21KT 210V310 9999 FEW020 15/09 Q1010","updated":"2026-02-11T08:59:36Z"}
