{"icao":"LPPR","metar":"LPPR 272200Z 35004KT CAVOK 08/07 Q1025","updated":"2025-11-27T22:17:14Z"}
