{"icao":"LPPD","metar":"LPPD 111400Z 18006KT 130V210 9999 FEW018 21/17 Q1025","updated":"2026-06-11T14:33:58Z"}
