{"icao":"LPMA","metar":"LPMA 142300Z 34009KT 300V360 9999 SCT015 15/07 Q1026","updated":"2026-01-14T23:17:08Z"}
