{"icao":"KORD","metar":"KORD 110212Z 18009G17KT 6SM -TSRA BKN002 OVC042CB 14/12 A2969 RMK AO2 WSHFT 0152 GRE09 FRQ LTGICCCCG OHD TS OHD MOV NE P0030 T01390122 $","updated":"2026-03-11T02:20:36Z"}
