{"icao":"KJFK","metar":"KJFK 110851Z 28014G23KT 10SM FEW023 SCT044 04/00 A2945 RMK AO2 SLP972 T00390000 51019","updated":"2025-12-11T09:25:14Z"}
