{"icao":"KJFK","metar":"KJFK 281751Z 15009KT 10SM FEW035 FEW055 BKN090 BKN250 27/18 A2999 RMK SLP157 T02670178 10272 20222 53001 $ ","updated":"2026-06-28T18:03:36Z"}
