{"icao":"KLAX","metar":"KLAX 171953Z 20007KT 10SM FEW035 22/11 A2999 RMK AO2 SLP153 T02220111","updated":"2026-04-17T20:09:12Z"}
