{"icao":"LPMR","metar":"LPMR 090700Z 34003KT 1400 BR OVC004 15/15 Q1020","updated":"2025-10-09T08:23:34Z"}
