{"icao":"KLAX","metar":"KLAX 011153Z 07003KT 10SM CLR 16/02 A3004 RMK AO2 SLP170 T01610017 10206 20156 58001 $","updated":"2026-02-01T12:47:34Z"}
