{"icao":"KJFK","metar":"KJFK 151951Z 09007KT 10SM FEW070 BKN095 OVC200 03/M03 A3009 RMK AO2 SLP188 T00331033 $","updated":"2026-02-15T20:25:08Z"}
