{"icao":"LPPS","metar":"LPPS 130100Z 26013KT 9999 -SHRA VCTS SCT014 FEW016CB BKN030 19/14 Q1001","updated":"2025-11-13T01:25:03Z"}
