{"icao":"KJFK","metar":"KJFK 160651Z 25010KT 10SM -RA FEW060 BKN090 OVC110 10/08 A2922 RMK AO2 SLP895 P0002 T01000083 $","updated":"2025-11-16T07:17:25Z"}
