{"icao":"LPMA","metar":"LPMA 201600Z 03017KT 010V070 9999 -SHRA BKN015 19/15 Q1020","updated":"2025-11-20T16:25:17Z"}
