{"icao":"KJFK","metar":"KJFK 080851Z 26006KT 10SM -RA BKN022 OVC075 14/11 A2966 RMK AO2 RAB31 SLP043 P0000 60000 T01390111 58005","updated":"2025-11-08T09:16:40Z"}
