{"icao":"KJFK","metar":"KJFK 181051Z 02005KT 10SM FEW004 SCT250 11/11 A3006 RMK AO2 SLP177 T01110106","updated":"2026-04-18T11:33:26Z"}
