{"icao":"KLAX","metar":"KLAX 111053Z 00000KT 10SM FEW012 FEW024 SCT050 16/13 A2996 RMK AO2 SLP143 T01560133 $","updated":"2026-04-11T11:29:24Z"}
