{"icao":"KORD","metar":"KORD 020451Z 29006KT 10SM OVC039 M07/M12 A2989 RMK AO2 SLP133 T10671117 $","updated":"2026-01-02T05:24:38Z"}
