{"icao":"LPPR","metar":"LPPR 030600Z 10007KT CAVOK 11/09 Q1023","updated":"2025-11-03T06:29:03Z"}
