{"icao":"LPFR","metar":"LPFR 250830Z 06004KT 360V110 CAVOK 16/09 Q1020","updated":"2026-03-25T08:50:28Z"}
