{"icao":"LPMR","metar":"LPMR 302000Z 34010KT 9999 OVC013 18/15 Q1023","updated":"2026-05-30T20:54:30Z"}
