{"icao":"LPHR","metar":"LPHR 091300Z 30006KT 250V330 9999 FEW008 SCT015 22/21 Q1020","updated":"2025-10-09T13:29:07Z"}
