{"icao":"LPPS","metar":"LPPS 121230Z 03013KT 360V060 9999 SCT015 BKN030 16/08 Q1028","updated":"2026-04-12T12:59:16Z"}
