{"icao":"LPMA","metar":"LPMA 261800Z 23011KT 200V270 9999 BKN016 18/13 Q1017","updated":"2026-01-26T18:34:20Z"}
