{"icao":"LPPR","metar":"LPPR 272100Z 00000KT CAVOK 13/11 Q1019","updated":"2026-03-27T21:32:32Z"}
