{"icao":"LPPD","metar":"LPPD 281230Z 24021KT 5000 BR SCT006 SCT012 17/16 Q1008","updated":"2026-01-28T12:48:09Z"}
