{"icao":"LPOV","metar":"LPOV 301300Z 27011KT 250V310 9999 FEW014 15/12 Q1006 RETSRA","updated":"2026-01-30T13:55:01Z"}
