{"icao":"LPST","metar":"LPST 221500Z 22011KT 3000 -RA BR SCT008 BKN012 13/11 Q1005","updated":"2026-01-22T15:29:39Z"}
