{"icao":"LPFL","metar":"LPFL 041900Z 18011KT 9999 FEW010 23/20 Q1025","updated":"2025-10-04T19:11:52Z"}
