{"icao":"LPBJ","metar":"LPBJ 250200Z 10001KT 050V170 CAVOK 15/05 Q1016","updated":"2025-09-25T02:59:54Z"}
