{"icao":"LPPD","metar":"LPPD 132100Z 18005KT 9999 FEW015 SCT020 20/17 Q1014","updated":"2025-10-13T21:15:16Z"}
