{"icao":"LPMR","metar":"LPMR 011100Z VRB01KT CAVOK 26/12 Q1021","updated":"2025-10-01T11:15:44Z"}
