{"icao":"LPAZ","metar":"LPAZ 030100Z 31003KT 240V020 9999 BKN040 16/08 Q1030","updated":"2025-12-03T01:26:00Z"}
