{"icao":"LPBJ","metar":"LPBJ 251000Z 31005KT 8000 VCFG NSC 07/06 Q1010","updated":"2025-12-25T10:20:34Z"}
