{"icao":"LPHR","metar":"LPHR 281900Z 31004KT 280V350 9999 FEW025 BKN035 18/11 Q1022","updated":"2025-10-28T19:15:07Z"}
