{"icao":"LPPS","metar":"LPPS 221630Z 18010KT 150V210 9999 FEW015 18/12 Q1012","updated":"2026-04-22T16:57:43Z"}
