{"icao":"LPMT","metar":"LPMT 141600Z 35013KT 9999 FEW035 21/09 Q1012","updated":"2026-05-14T16:59:26Z"}
