{"icao":"LPPT","metar":"LPPT 020800Z 05004KT 010V070 CAVOK 20/13 Q1021","updated":"2025-10-02T08:22:43Z"}
