{"icao":"LPPR","metar":"LPPR 141500Z 34005KT 300V360 CAVOK 21/15 Q1017","updated":"2025-10-14T15:20:05Z"}
