{"icao":"LPMA","metar":"LPMA 182200Z 02009KT 350V060 9999 FEW014 17/12 Q1027","updated":"2026-02-18T22:31:47Z"}
