{"icao":"LPMA","metar":"LPMA 120300Z 22018KT 9999 SCT015 FEW018CB 21/16 Q1004","updated":"2025-11-12T03:10:54Z"}
