{"icao":"KORD","metar":"KORD 171451Z VRB05KT 10SM FEW030 M08/M16 A3014 RMK AO2 SLP219 T10831161 51024","updated":"2026-03-17T14:55:00Z"}
