{"icao":"KLAX","metar":"KLAX 261453Z 04003KT 10SM CLR 16/03 A3008 RMK AO2 SLP184 T01560033 53008","updated":"2025-11-26T15:18:26Z"}
