{"icao":"LPFR","metar":"LPFR 042100Z 32008KT CAVOK 23/15 Q1020","updated":"2025-10-04T21:13:41Z"}
