{"icao":"KLAX","metar":"KLAX 102131Z 12010KT 10SM SCT022 SCT044 OVC120 18/12 A2995 RMK AO2 T01780122 $","updated":"2026-02-10T21:40:31Z"}
