{"icao":"LPOV","metar":"LPOV 032000Z 22003KT 180V250 1500 -RADZ BR SCT002 BKN006 18/18 Q1020","updated":"2026-06-03T21:47:16Z"}
