{"icao":"LPST","metar":"LPST 010900Z VRB01KT CAVOK 20/13 Q1021","updated":"2025-10-01T09:19:37Z"}
