{"icao":"KORD","metar":"KORD 280851Z 26006KT 10SM CLR M17/M21 A3023 RMK AO2 SLP252 T11671211 56009","updated":"2026-01-28T09:32:47Z"}
