{"icao":"LPFR","metar":"LPFR 171530Z 25016KT 9999 FEW040 21/13 Q1016","updated":"2026-05-17T15:57:29Z"}
