{"icao":"KORD","metar":"KORD 031351Z 22012KT 8SM FEW012 OVC100 M04/M07 A2996 RMK AO2 SLP155 T10391067","updated":"2025-12-03T14:20:40Z"}
