{"icao":"KORD","metar":"KORD 261951Z 21008KT 10SM FEW028 BKN040 OVC070 03/M08 A2986 RMK AO2 SLP120 T00331083","updated":"2026-02-26T20:36:21Z"}
