{"icao":"LPMR","metar":"LPMR 170400Z 21005KT 4000 -RA BR FEW016 SCT040 13/12 Q1011","updated":"2025-11-17T04:25:09Z"}
