{"icao":"KORD","metar":"KORD 101851Z 32008G17KT 280V360 10SM SCT090 SCT250 17/M04 A3009 RMK AO2 SLP190 T01721044 $","updated":"2026-05-10T19:01:34Z"}
