{"icao":"LPLA","metar":"LPLA 090700Z 06003KT 360V140 9999 BKN038 12/05 Q1034","updated":"2026-03-09T07:05:01Z"}
