{"icao":"LPFR","metar":"LPFR 130430Z 24028KT 8000 -RADZ BKN006 BKN012 15/14 Q1006 RERA","updated":"2026-02-13T04:51:18Z"}
