{"icao":"LPMT","metar":"LPMT 180400Z VRB02KT CAVOK 14/12 Q1015","updated":"2025-10-18T04:20:03Z"}
