{"icao":"KORD","metar":"KORD 150251Z 03012KT 10SM FEW017 BKN065 BKN080 OVC130 16/10 A3029 RMK AO2 SLP257 T01560100 58003 $","updated":"2025-10-15T03:03:45Z"}
