{"icao":"LPOV","metar":"LPOV 201800Z 33002KT 270V050 9000 4000N FEW045 18/14 Q1008","updated":"2026-03-20T18:48:33Z"}
