{"icao":"LPPR","metar":"LPPR 150700Z 03003KT 010V070 9999 FEW003 15/14 Q1023","updated":"2025-09-15T07:17:43Z"}
