{"icao":"LPHR","metar":"LPHR 121400Z 31020G31KT 6000 VCSH SCT017 SCT030 14/10 Q1018","updated":"2026-01-12T14:24:18Z"}
