{"icao":"LPMA","metar":"LPMA 022200Z 35016G33KT 290V040 9999 -SHRA SCT015 FEW018CB 13/06 Q1019","updated":"2026-03-02T22:25:16Z"}
