{"icao":"LPMA","metar":"LPMA 131630Z 01015KT 340V040 9999 BKN015 17/10 Q1024","updated":"2026-03-13T16:38:35Z"}
