{"icao":"LPMA","metar":"LPMA 030900Z 04010KT 9999 BKN015 SCT030 22/18 Q1024","updated":"2025-10-03T09:17:39Z"}
