{"icao":"LPFR","metar":"LPFR 142100Z 29006KT CAVOK 21/18 Q1016","updated":"2025-10-14T21:15:01Z"}
