{"icao":"LPPT","metar":"LPPT 140400Z 34010KT 9999 BKN010 20/18 Q1022","updated":"2025-09-14T04:19:41Z"}
