{"icao":"LPLA","metar":"LPLA 200400Z VRB02KT 9999 SCT040 19/10 Q1028","updated":"2025-09-20T04:19:45Z"}
