{"icao":"LPFL","metar":"LPFL 171130Z 34026G40KT 300V360 9999 -SHRA BKN020 FEW023CB 10/04 Q1021","updated":"2026-03-17T11:42:26Z"}
