{"icao":"LPPD","metar":"LPPD 161900Z 32010KT 290V350 9999 FEW020 BKN035 15/09 Q1033","updated":"2026-01-16T19:19:21Z"}
