{"icao":"KLAX","metar":"KLAX 252253Z 27014KT 7SM OVC008 18/14 A2995 RMK AO2 SLP142 T01780144 $","updated":"2026-03-25T23:33:56Z"}
