{"icao":"LPMA","metar":"LPMA 280600Z 01006KT 350V050 9999 BKN013 21/17 Q1024","updated":"2025-09-28T06:24:26Z"}
