{"icao":"LPFL","metar":"LPFL 231300Z 16013KT 9999 FEW011 SCT022 BKN035 19/16 Q1023","updated":"2026-05-23T13:22:02Z"}
