{"icao":"KORD","metar":"KORD 291351Z 30006KT 10SM FEW025 FEW150 SCT250 M17/M22 A3031 RMK AO2 SLP279 T11721222","updated":"2026-01-29T14:50:02Z"}
