{"icao":"LPLA","metar":"LPLA 030100Z 32020KT 9999 SCT014 BKN020 BKN030 14/12 Q1009","updated":"2026-01-03T01:26:19Z"}
