{"icao":"KORD","metar":"KORD 100915Z 34018G25KT 1 1/2SM R10L/4500VP6000FT -SN BLSN BR BKN014 OVC032 M04/M06 A3015 RMK AO2 PK WND 34029/0857 P0001 T10391056 $","updated":"2025-11-10T09:23:00Z"}
