{"icao":"LPPR","metar":"LPPR 012200Z 34008KT 9000 -RADZ FEW007 SCT020 OVC030 11/10 Q1015","updated":"2025-12-01T22:16:53Z"}
