{"icao":"LPMR","metar":"LPMR 170300Z 06001KT 2500 BR SCT003 12/12 Q1014","updated":"2025-10-17T06:26:27Z"}
