{"icao":"KJFK","metar":"KJFK 282251Z 14007KT 10SM SCT090 BKN150 BKN250 13/08 A3009 RMK SLP188 T01280078 ","updated":"2026-04-28T22:57:20Z"}
