{"icao":"LPOV","metar":"LPOV 010500Z VRB01KT CAVOK 11/11 Q1020","updated":"2025-10-01T05:17:27Z"}
