{"icao":"LPPI","metar":"LPPI 242000Z 36006KT 320V050 9999 FEW012 BKN028 19/13 Q1022","updated":"2026-06-24T22:15:21Z"}
