{"icao":"LPST","metar":"LPST 021100Z 31006KT 260V350 CAVOK 18/11 Q1022","updated":"2026-04-02T11:43:04Z"}
