{"icao":"LPMA","metar":"LPMA 180200Z 01010KT 340V040 9999 BKN015 16/12 Q1018","updated":"2026-04-18T02:16:18Z"}
