{"icao":"LPMR","metar":"LPMR 051100Z 29008KT 260V330 9999 VCSH SCT020 BKN032 16/09 Q1018","updated":"2026-05-05T12:00:05Z"}
