{"icao":"KORD","metar":"KORD 040451Z 01004KT 6SM BR BKN008 BKN150 01/M01 A3020 RMK AO2 SLP235 T00111006","updated":"2026-03-04T05:42:48Z"}
