{"icao":"KORD","metar":"KORD 091751Z 26015G23KT 10SM OVC015 01/M03 A2971 RMK AO2 SLP068 4/007 933009 T00111028 10011 21033 56011","updated":"2025-12-09T18:25:56Z"}
