{"icao":"LPHR","metar":"LPHR 071900Z 03016G29KT 360V070 9999 SCT011 SCT040 BKN070 15/10 Q1021","updated":"2026-03-07T19:20:33Z"}
