{"icao":"LPMT","metar":"LPMT 111800Z 25014KT 2500 -DZRA BR OVC004 15/15 Q1016","updated":"2026-02-11T19:01:27Z"}
