{"icao":"LPPS","metar":"LPPS 291500Z 34007KT 310V060 9999 FEW015 20/13 Q1021","updated":"2025-11-29T15:17:13Z"}
