{"icao":"LPBJ","metar":"LPBJ 172300Z 33002KT 300V360 CAVOK 11/09 Q1017","updated":"2025-11-17T23:17:04Z"}
