{"icao":"LPPR","metar":"LPPR 192300Z 23005KT 210V270 9999 -RA FEW018 14/12 Q1009","updated":"2026-03-19T23:28:16Z"}
