{"icao":"LPPS","metar":"LPPS 300900Z 06016G28KT 020V090 9999 FEW014 17/12 Q1025","updated":"2026-03-30T09:10:37Z"}
