{"icao":"LPPD","metar":"LPPD 131230Z 28007KT 250V340 9999 FEW025 15/08 Q1026","updated":"2026-01-13T12:44:15Z"}
