{"icao":"KJFK","metar":"KJFK 040451Z 28007KT 10SM BKN049 BKN250 M02/M09 A3018 RMK AO2 SLP220 T10171094 400061067 PNO $","updated":"2026-02-04T05:48:00Z"}
