{"icao":"KLAX","metar":"KLAX 220153Z 26012KT 10SM FEW017 FEW050 SCT250 17/12 A3005 RMK AO2 SLP174 T01720117 $","updated":"2026-04-22T02:29:03Z"}
