{"icao":"KORD","metar":"KORD 060751Z 00000KT 1 1/2SM -DZ BR OVC004 06/06 A3004 RMK AO2 SLP175 P0000 T00610056","updated":"2026-03-06T08:36:21Z"}
