{"icao":"LPBJ","metar":"LPBJ 161100Z 26010KT 9999 SCT018 SCT030 18/13 Q1014","updated":"2025-11-16T11:13:22Z"}
