{"icao":"LPHR","metar":"LPHR 011530Z 09010KT 060V120 9999 FEW020 20/11 Q1016","updated":"2026-05-01T15:56:15Z"}
