{"icao":"LPAZ","metar":"LPAZ 210200Z 30017KT 9999 SCT021 BKN028 12/08 Q1014","updated":"2026-04-21T02:30:49Z"}
