{"icao":"LPLA","metar":"LPLA 092000Z 19021G36KT 6000 -RADZ SCT008 BKN015 BKN030 17/15 Q1023","updated":"2026-01-09T20:23:13Z"}
