{"icao":"LPMT","metar":"LPMT 020400Z 13020KT 7000 RA FEW015 BKN022 14/13 Q1002","updated":"2026-01-02T04:39:41Z"}
