{"icao":"LPLA","metar":"LPLA 231300Z 31029KT 9999 SCT025 14/06 Q1024","updated":"2026-01-23T13:41:33Z"}
