{"icao":"KORD","metar":"KORD 181351Z 21007KT 9SM FEW036 SCT095 BKN150 OVC250 18/16 A2970 RMK AO2 LTG DSNT NE SLP056 T01780161 $","updated":"2025-10-18T14:14:58Z"}
