{"icao":"KORD","metar":"KORD 010851Z 26004KT 10SM BKN250 M07/M09 A3043 RMK AO2 SLP316 I3001 T10721089 58004 $","updated":"2025-12-01T09:27:07Z"}
