{"icao":"LPBJ","metar":"LPBJ 101100Z 24015KT 1500 -DZ BR OVC004 15/15 Q1018","updated":"2026-02-10T13:10:51Z"}
