{"icao":"LPBJ","metar":"LPBJ 261500Z 06004KT 020V100 9999 SCT025 BKN040 22/15 Q1018","updated":"2025-10-26T15:15:55Z"}
