{"icao":"LPBJ","metar":"LPBJ 130100Z 27004KT CAVOK 17/13 Q1016","updated":"2025-10-13T01:23:32Z"}
