{"icao":"LPMT","metar":"LPMT 151800Z 27010KT 3000 -RADZ BR BKN005 OVC020 13/13 Q1014 RERADZ","updated":"2026-01-15T18:34:49Z"}
