{"icao":"LPPS","metar":"LPPS 071500Z 36011KT 9999 FEW014 24/19 Q1024","updated":"2025-10-07T15:19:10Z"}
