{"icao":"LPBJ","metar":"LPBJ 261900Z 22010KT 9999 SCT016 BKN038 13/12 Q1012","updated":"2026-01-26T19:22:17Z"}
