{"icao":"LPFL","metar":"LPFL 020700Z VRB02KT 9999 FEW010 SCT016 22/19 Q1017","updated":"2025-10-02T07:16:32Z"}
