{"icao":"LPOV","metar":"LPOV 132300Z 35021KT 9999 SCT024 11/06 Q1013","updated":"2026-02-13T23:29:17Z"}
