{"icao":"LPPT","metar":"LPPT 201430Z 23010KT CAVOK 25/09 Q1010","updated":"2026-04-20T14:49:13Z"}
