{"icao":"LPBJ","metar":"LPBJ 091537Z 26015KT 4000 1800N -RADZ BR OVC004 16/15 Q1014","updated":"2026-02-09T15:54:39Z"}
