{"icao":"KJFK","metar":"KJFK 241551Z 25007KT 10SM SCT042 SCT250 13/03 A3013 RMK AO2 SLP201 T01330033","updated":"2025-10-24T16:22:36Z"}
