{"icao":"LPOV","metar":"LPOV 110500Z VRB01KT CAVOK 12/10 Q1021","updated":"2025-10-11T05:15:27Z"}
