{"icao":"KLAX","metar":"KLAX 241253Z 27008KT 10SM FEW018 OVC024 14/11 A2988 RMK AO2 SLP117 T01440106 $","updated":"2026-01-24T13:29:44Z"}
