{"icao":"LPCS","metar":"LPCS 042000Z 35017KT 9999 FEW020 17/11 Q1019","updated":"2026-06-04T22:19:32Z"}
