{"icao":"LPMR","metar":"LPMR 232300Z 20005KT 9999 FEW009 BKN035 13/12 Q1022","updated":"2025-11-23T23:16:35Z"}
