{"icao":"KORD","metar":"KORD 010851Z 09005KT 10SM OVC250 19/14 A3018 RMK AO2 SLP215 T01890139 51007","updated":"2025-10-01T09:19:40Z"}
