{"icao":"LPLA","metar":"LPLA 081300Z 30013KT 9999 FEW022 20/15 Q1020","updated":"2025-11-08T13:22:32Z"}
