{"icao":"LPMR","metar":"LPMR 161500Z 32005KT 290V360 8000 FEW008 20/15 Q1014","updated":"2025-10-16T15:19:22Z"}
