{"icao":"KJFK","metar":"KJFK 261551Z 36007KT 10SM FEW035 FEW070 SCT090 SCT250 14/02 A3042 RMK AO2 SLP299 T01390022","updated":"2025-10-26T16:20:26Z"}
