{"icao":"LPLA","metar":"LPLA 082200Z 24019G29KT 7000 -RADZ SCT007 BKN014 19/17 Q1010","updated":"2026-02-08T22:25:40Z"}
