{"icao":"KORD","metar":"KORD 211051Z 22008KT 10SM CLR 09/06 A2974 RMK AO2 SLP070 T00890061 $","updated":"2025-10-21T11:15:15Z"}
