{"icao":"LPMR","metar":"LPMR 111000Z 12011KT 090V150 CAVOK 24/11 Q1021","updated":"2025-10-11T10:16:18Z"}
