{"icao":"LPPT","metar":"LPPT 260700Z 23013KT 8000 SCT003 BKN005 15/15 Q1013","updated":"2026-01-26T07:26:44Z"}
