{"icao":"LPOV","metar":"LPOV 222200Z 17003KT 130V210 9999 BKN025 10/07 Q1029","updated":"2025-11-23T04:31:26Z"}
