{"icao":"LPOV","metar":"LPOV 201600Z 34014KT CAVOK 14/06 Q1029","updated":"2026-02-20T16:37:10Z"}
