{"icao":"LPPD","metar":"LPPD 171000Z 33009KT 280V020 9999 FEW022 BKN030 14/09 Q1030","updated":"2026-01-17T10:19:44Z"}
