{"icao":"KJFK","metar":"KJFK 010651Z 36018G26KT 10SM FEW180 BKN250 M11/M17 A2994 RMK AO2 PK WND 36030/0619 SLP139 T11061167 $","updated":"2026-02-01T07:36:19Z"}
