{"icao":"KLAX","metar":"KLAX 212013Z 24012KT 4SM BCFG FEW000 BKN004 BKN240 OVC300 21/16 A2995 RMK AO2 VIS SW-NW 3/4 FG FEW000 T02060161","updated":"2026-03-21T20:25:41Z"}
