{"icao":"KORD","metar":"KORD 160151Z 13005KT 10SM CLR 06/M02 A2993 RMK AO2 SLP139 T00611017","updated":"2026-02-16T02:04:03Z"}
