{"icao":"LPHR","metar":"LPHR 200900Z 26014KT 6000 FEW003 BKN006 22/22 Q1014","updated":"2025-10-20T09:21:11Z"}
