{"icao":"LPOV","metar":"LPOV 060800Z 21012KT 4000 -DZRA BR BKN002 BKN004 16/16 Q1020","updated":"2025-12-06T08:22:55Z"}
