{"icao":"LPMA","metar":"LPMA 111500Z 01009KT 350V050 9999 SCT015 SCT030 23/15 Q1019","updated":"2025-10-11T15:15:00Z"}
