{"icao":"KJFK","metar":"KJFK 220351Z 31014KT 10SM FEW250 M02/M12 A3037 RMK AO2 PK WND 32030/0252 SLP285 T10171122 $","updated":"2025-12-22T04:39:12Z"}
