{"icao":"LPMT","metar":"LPMT 200900Z 18002KT CAVOK 09/09 Q1020","updated":"2026-01-20T09:31:34Z"}
