{"icao":"LPFL","metar":"LPFL 072030Z 18020G38KT 150V230 9999 SCT015 18/15 Q1026","updated":"2026-01-08T04:38:17Z"}
