{"icao":"LPPS","metar":"LPPS 131000Z 04009KT 340V080 9999 FEW015 BKN030 24/17 Q1023","updated":"2025-09-13T10:15:32Z"}
