{"icao":"LPPR","metar":"LPPR 192330Z VRB02KT 0500 R17/0600D FG VV001 11/11 Q1016","updated":"2026-04-19T23:34:34Z"}
