{"icao":"KLAX","metar":"KLAX 031253Z 08003KT 6SM BR FEW002 SCT008 OVC014 19/18 A2997 RMK AO2 SLP147 T01890178 $","updated":"2025-10-03T13:24:28Z"}
