{"icao":"KORD","metar":"KORD 140951Z 04004KT 6SM BR CLR 19/18 A3001 RMK AO2 SLP157 T01890178 $","updated":"2025-09-14T10:15:20Z"}
