{"icao":"LPPR","metar":"LPPR 310800Z 30004KT 260V330 9999 -SHRA FEW030 BKN045 12/07 Q1017","updated":"2026-01-31T08:28:48Z"}
