{"icao":"KLAX","metar":"KLAX 171453Z 07003KT 8SM FEW032 SCT048 BKN060 09/09 A3003 RMK AO2 SLP167 60000 T00940089 53025 $","updated":"2026-02-17T15:51:45Z"}
