{"icao":"LPLA","metar":"LPLA 011900Z 34023G33KT 9000 -SHRA SCT025 BKN040 12/08 Q1027 RM K WIND RWY15 34031KT PK 35035/45 RH77 BLU","updated":"2026-03-01T19:21:07Z"}
