{"icao":"LPPT","metar":"LPPT 141600Z 27009KT 230V310 2500 DZ BR FEW004 BKN007 14/13 Q1016","updated":"2026-03-14T16:30:18Z"}
