{"icao":"LPPR","metar":"LPPR 241900Z 25004KT 190V300 9999 FEW038 11/07 Q1012","updated":"2026-01-24T19:15:51Z"}
