{"icao":"LPPD","metar":"LPPD 200100Z 27013KT 6000 FEW003 BKN005 22/21 Q1017","updated":"2025-10-20T01:25:44Z"}
