{"icao":"LPPS","metar":"LPPS 081230Z 21017KT 9999 FEW015 21/14 Q1018","updated":"2025-12-08T12:40:42Z"}
