{"icao":"LPFR","metar":"LPFR 201700Z 10017KT 8000 -SHRA FEW009 SCT015 BKN040 15/14 Q1006","updated":"2026-03-20T17:34:22Z"}
