{"icao":"LPAZ","metar":"LPAZ 240500Z 36011KT 9999 FEW013 SCT020 BKN045 19/16 Q1021","updated":"2025-09-24T05:17:18Z"}
