{"icao":"LPAR","metar":"LPAR 111000Z 17013KT 6000 2000W BCFG SCT008 SCT030 17/16 Q1013","updated":"2025-11-11T10:20:31Z"}
