{"icao":"LPPD","metar":"LPPD 230000Z 19002KT 0150 R30/M0050 FG VV001 17/17 Q1023","updated":"2026-05-23T00:05:21Z"}
