{"icao":"KJFK","metar":"KJFK 130051Z 25015KT 10SM FEW055 SCT080 BKN100 10/01 A2978 RMK AO2 SLP083 T01000011","updated":"2025-11-13T01:25:03Z"}
