{"icao":"LPPS","metar":"LPPS 081900Z 06005KT 020V100 9999 SCT014 BKN030 16/11 Q1033","updated":"2026-01-08T19:19:18Z"}
