{"icao":"LPAZ","metar":"LPAZ 241300Z 04012KT 9999 FEW019 BKN030 16/10 Q1026","updated":"2026-03-24T13:09:40Z"}
