{"icao":"LPHR","metar":"LPHR 211600Z 24015KT 8000 FEW007 SCT011 23/22 Q1012","updated":"2025-10-21T16:23:53Z"}
