{"icao":"LPMR","metar":"LPMR 151400Z 21008KT 180V250 9999 SCT012 SCT030 17/14 Q1005","updated":"2025-11-15T14:15:28Z"}
