{"icao":"LPLA","metar":"LPLA 231500Z 21008KT 170V240 9999 FEW023 25/18 Q1015","updated":"2025-10-23T15:19:10Z"}
