{"icao":"LPPR","metar":"LPPR 030900Z 09007KT 060V120 9999 SCT044 15/09 Q1001","updated":"2026-01-03T09:18:58Z"}
