{"icao":"LPPS","metar":"LPPS 150730Z 07008KT 050V110 9999 SCT015 14/09 Q1032","updated":"2026-02-15T07:37:03Z"}
