{"icao":"LPCS","metar":"LPCS 221300Z 21009KT 180V240 9999 FEW030 17/09 Q1015","updated":"2026-04-22T13:24:28Z"}
