{"icao":"LPPT","metar":"LPPT 180330Z 34006KT CAVOK 04/04 Q1009","updated":"2026-01-18T03:44:36Z"}
