{"icao":"LPMT","metar":"LPMT 261700Z 33011KT CAVOK 26/16 Q1013","updated":"2026-04-26T18:52:40Z"}
