{"icao":"KLAX","metar":"KLAX 120853Z 00000KT 10SM CLR 15/13 A3020 RMK AO2 SLP226 T01500128 58003 $","updated":"2026-03-12T09:41:32Z"}
