{"icao":"LPPT","metar":"LPPT 201100Z 33007KT 270V030 CAVOK 28/16 Q1016","updated":"2026-06-20T11:16:44Z"}
