{"icao":"LPAZ","metar":"LPAZ 220500Z 25008KT 220V290 9999 BKN025 14/09 Q1025","updated":"2025-12-22T05:23:05Z"}
