{"icao":"LPPS","metar":"LPPS 151830Z 09009KT 060V120 9999 FEW015 16/12 Q1031","updated":"2026-02-15T18:35:30Z"}
