{"icao":"LPPD","metar":"LPPD 181630Z 13010KT 9999 FEW016 16/12 Q1025","updated":"2026-02-18T17:01:49Z"}
