{"icao":"LPMA","metar":"LPMA 291100Z 05004KT 010V070 9999 FEW014 20/14 Q1023","updated":"2026-01-29T11:30:19Z"}
