{"icao":"KORD","metar":"KORD 301751Z 26012KT 10SM BKN055 OVC250 M08/M16 A3014 RMK AO2 SLP220 T10781156 11072 21122 58021","updated":"2025-12-30T18:29:50Z"}
