{"icao":"LPFL","metar":"LPFL 081900Z VRB02KT 9999 FEW022 18/11 Q1021","updated":"2025-11-08T19:13:21Z"}
