{"icao":"LPPT","metar":"LPPT 270530Z 34006KT 290V010 9999 FEW008 11/10 Q1024","updated":"2026-02-27T05:51:23Z"}
