{"icao":"LPAZ","metar":"LPAZ 301600Z 17013KT 9999 FEW006 SCT008 BKN013 23/20 Q1022","updated":"2025-09-30T16:22:24Z"}
