{"icao":"KORD","metar":"KORD 261851Z 02008KT 10SM -RA FEW010 FEW040 OVC120 17/15 A3008 RMK AO2 RAB1759 SLP186 P0002 T01720150","updated":"2026-06-26T19:44:32Z"}
