{"icao":"LPLA","metar":"LPLA 110500Z 33016KT 9999 FEW025 BKN035 13/08 Q1023","updated":"2025-12-11T05:21:22Z"}
