{"icao":"KJFK","metar":"KJFK 031651Z 31012KT 10SM FEW050 SCT210 BKN250 M02/M14 A2999 RMK AO2 SLP155 T10221139 $","updated":"2026-01-03T17:16:49Z"}
