{"icao":"LPPD","metar":"LPPD 212200Z 11005KT 070V140 9999 FEW011 BKN045 16/15 Q1025","updated":"2026-02-21T22:22:19Z"}
