{"icao":"LPPT","metar":"LPPT 092130Z 29005KT CAVOK 18/13 Q1014","updated":"2026-04-09T21:43:21Z"}
