{"icao":"LPFL","metar":"LPFL 311000Z 33012KT 290V010 9999 FEW025 16/08 Q1011","updated":"2025-10-31T10:19:41Z"}
