{"icao":"LPPT","metar":"LPPT 162130Z 08006KT CAVOK 17/07 Q1017","updated":"2026-03-16T21:38:07Z"}
