{"icao":"LPMA","metar":"LPMA 120800Z 02010KT 9999 FEW015 20/15 Q1019","updated":"2026-06-12T08:23:56Z"}
