{"icao":"LPHR","metar":"LPHR 081900Z 31010KT 9999 FEW016 SCT050 17/14 Q1035","updated":"2026-04-08T19:14:12Z"}
