{"icao":"LPPR","metar":"LPPR 130300Z 00000KT CAVOK 17/13 Q1015","updated":"2025-10-13T03:08:21Z"}
