{"icao":"KORD","metar":"KORD 010551Z 06005KT 10SM OVC300 20/16 A3016 RMK AO2 SLP208 T02000156 10211 20194 402780172 52001","updated":"2025-10-01T06:27:03Z"}
