{"icao":"KJFK","metar":"KJFK 030651Z 31012KT 10SM FEW050 M03/M15 A2991 RMK AO2 SLP127 T10331150 $","updated":"2026-01-03T07:18:16Z"}
