{"icao":"KORD","metar":"KORD 111751Z 10010KT 10SM FEW100 SCT160 BKN250 12/M01 A3038 RMK AO2 SLP291 T01171011 10117 20028 58023 $","updated":"2026-04-11T18:42:14Z"}
