{"icao":"KJFK","metar":"KJFK 060951Z 02012KT 7SM BKN007 OVC016 03/02 A3028 RMK AO2 SLP252 T00280017","updated":"2026-03-06T10:33:35Z"}
