{"icao":"LPLA","metar":"LPLA 180800Z 31017KT 5000 -DZ BR FEW004 BKN007 BKN012 16/16 Q1025","updated":"2025-11-18T08:25:36Z"}
