{"icao":"LPFR","metar":"LPFR 310700Z 06011G24KT 040V100 9999 BKN032 12/08 Q1018","updated":"2025-12-31T07:22:39Z"}
