{"icao":"LPPD","metar":"LPPD 232130Z 14006G16KT 070V180 2000 BR SCT001 BKN002 18/17 Q1024","updated":"2026-05-23T21:55:06Z"}
