{"icao":"LPCS","metar":"LPCS 241630Z 32010KT 300V360 9999 FEW020 20/12 Q1017","updated":"2026-04-24T16:54:23Z"}
