{"icao":"LPMA","metar":"LPMA 171730Z 06004KT 360V140 9999 SCT014 17/12 Q1025","updated":"2026-02-17T17:55:05Z"}
