{"icao":"LPPT","metar":"LPPT 072100Z 28009KT 250V310 9999 FEW020 FEW025CB 12/07 Q1009","updated":"2026-02-07T21:25:22Z"}
