{"icao":"LPMA","metar":"LPMA 142100Z 01008KT 340V040 9999 FEW016 15/08 Q1031","updated":"2026-02-14T21:22:50Z"}
