{"icao":"KJFK","metar":"KJFK 122051Z 15014G21KT 10SM FEW190 SCT250 09/02 A3044 RMK AO2 SLP306 T00940017 56026 $","updated":"2026-04-12T21:33:38Z"}
