{"icao":"LPMA","metar":"LPMA 221230Z 02010KT 350V060 9999 BKN015 22/14 Q1022","updated":"2025-09-22T12:36:49Z"}
