{"icao":"LPHR","metar":"LPHR 161100Z 27008KT 9999 FEW018 22/17 Q1006","updated":"2025-10-16T11:15:18Z"}
