{"icao":"LPMT","metar":"LPMT 050600Z 26008KT 7000 -RA FEW004 SCT008 BKN030 16/16 Q1020","updated":"2025-12-05T06:30:29Z"}
