{"icao":"LPPT","metar":"LPPT 130430Z 27019G31KT 240V310 9999 FEW015 SCT022 13/10 Q1002","updated":"2026-02-13T04:51:18Z"}
