{"icao":"LPFL","metar":"LPFL 011500Z 32019G31KT 270V010 9999 SCT019 FEW024TCU 13/04 Q1010","updated":"2026-02-01T15:23:36Z"}
