{"icao":"LPPS","metar":"LPPS 221100Z 07014KT 040V100 9999 FEW014 BKN030 22/13 Q1022","updated":"2025-09-22T11:15:34Z"}
