{"icao":"LPPR","metar":"LPPR 261230Z VRB02KT CAVOK 16/12 Q1025","updated":"2026-02-26T13:03:18Z"}
