{"icao":"LPCS","metar":"LPCS 251130Z 01011KT 9999 FEW012 21/13 Q1016","updated":"2026-04-25T11:36:52Z"}
