{"icao":"KLAX","metar":"KLAX 040653Z 00000KT 10SM CLR 16/12 A3016 RMK AO2 SLP211 T01560122 $","updated":"2026-02-04T07:43:06Z"}
