{"icao":"LPAZ","metar":"LPAZ 291230Z 36008KT 320V030 9999 SCT028 16/11 Q1030","updated":"2025-11-29T12:35:24Z"}
