{"icao":"LPAZ","metar":"LPAZ 091530Z 22022KT 1200 R18/1200N BR BKN001 18/17 Q1014","updated":"2026-02-09T15:54:40Z"}
