{"icao":"LPAZ","metar":"LPAZ 130800Z 32027G39KT 9999 -SHRA SCT025 16/11 Q1004","updated":"2025-11-13T08:25:35Z"}
