{"icao":"LPPR","metar":"LPPR 192000Z 13008KT CAVOK 24/10 Q1018","updated":"2025-09-19T20:18:35Z"}
