{"icao":"KLAX","metar":"KLAX 130753Z 00000KT 10SM FEW070 FEW150 17/14 A3004 RMK AO2 SLP171 T01670144 402000150 $","updated":"2025-11-13T08:25:52Z"}
