{"icao":"KORD","metar":"KORD 130051Z 22009KT 10SM CLR 02/M02 A3003 RMK AO2 SLP177 T00221017 $","updated":"2026-01-13T01:28:45Z"}
