{"icao":"LPOV","metar":"LPOV 191100Z 34009KT 9999 SCT022 13/07 Q1028","updated":"2026-02-19T11:37:06Z"}
