{"icao":"LPFR","metar":"LPFR 060230Z 35012KT CAVOK 15/08 Q1013","updated":"2026-05-06T02:42:43Z"}
