{"icao":"LPLA","metar":"LPLA 280800Z 25014G24KT 220V290 9999 SCT023 BKN035 19/15 Q1004","updated":"2026-01-28T08:30:42Z"}
