{"icao":"LPFR","metar":"LPFR 302130Z 30008KT CAVOK 27/15 Q1018","updated":"2026-05-30T22:01:05Z"}
