{"icao":"LPPS","metar":"LPPS 201230Z 08012KT 030V110 9999 FEW015 BKN030 17/10 Q1028","updated":"2026-02-20T12:56:35Z"}
