{"icao":"KORD","metar":"KORD 291451Z 06019G25KT 10SM FEW028 FEW250 11/03 A3005 RMK AO2 PK WND 07027/1413 SLP178 T01110033 53008","updated":"2025-10-29T15:20:36Z"}
