{"icao":"LPHR","metar":"LPHR 060630Z 27020KT 8000 -SHRA SCT014 BKN030 14/10 Q1012","updated":"2026-02-06T06:53:34Z"}
