{"icao":"LPPD","metar":"LPPD 011600Z 32020G34KT 290V350 9999 SCT020 FEW022TCU 16/08 Q1002","updated":"2026-01-01T16:25:26Z"}
