{"icao":"LPMT","metar":"LPMT 190900Z 36005KT CAVOK 16/13 Q1016","updated":"2026-04-19T09:45:27Z"}
