{"icao":"KLAX","metar":"KLAX 102053Z 25012KT 10SM FEW047 FEW080 SCT160 BKN250 22/15 A2984 RMK AO2 SLP101 T02220150 58013 $","updated":"2025-10-10T21:14:43Z"}
