{"icao":"LPOV","metar":"LPOV 021700Z 34010KT 9000 SCT008 18/16 Q1021","updated":"2025-10-02T17:12:58Z"}
