{"icao":"LPMR","metar":"LPMR 150500Z 18011KT 9999 SCT018 FEW020CB BKN025 15/13 Q1004","updated":"2025-11-15T05:17:16Z"}
