{"icao":"KLAX","metar":"KLAX 311853Z 02008KT 10SM CLR 26/02 A3015 RMK AO2 SLP208 T02560017 $","updated":"2026-01-31T19:19:46Z"}
