{"icao":"LPPR","metar":"LPPR 200130Z 00000KT CAVOK 06/05 Q1030","updated":"2026-02-20T01:59:32Z"}
