{"icao":"LPAZ","metar":"LPAZ 181200Z 26011KT 9000 BKN005 24/22 Q1017","updated":"2025-10-18T12:32:56Z"}
