{"icao":"LPPS","metar":"LPPS 211700Z 06018G28KT 020V080 9999 SCT014 BKN030 18/11 Q1025","updated":"2025-11-21T17:16:26Z"}
