{"icao":"KLAX","metar":"KLAX 131453Z 09003KT 10SM SCT190 SCT250 18/04 A2997 RMK AO2 SLP147 T01830044 51004 $","updated":"2026-03-13T15:41:24Z"}
