{"icao":"LPMT","metar":"LPMT 240700Z 20004KT 160V240 9999 BKN014 13/11 Q1019","updated":"2026-02-24T07:07:00Z"}
