{"icao":"LPBJ","metar":"LPBJ 171000Z 31012KT 290V350 9999 SCT026 17/10 Q1018","updated":"2026-05-17T11:04:30Z"}
