{"icao":"LPMA","metar":"LPMA 181830Z 01011KT 330V040 9999 VCSH SCT013 17/14 Q1024","updated":"2026-05-18T18:50:18Z"}
