{"icao":"KORD","metar":"KORD 101751Z 33012G24KT 10SM OVC021 M01/M04 A2962 RMK AO2 PK WND 34028/1735 SNE30 SLP038 4/002 933004 P0000 60003 I6001 T10061044 10028 21011 51052","updated":"2025-12-10T18:28:53Z"}
