{"icao":"LPFL","metar":"LPFL 042100Z 29005KT 230V010 9999 SCT028 15/06 Q1015","updated":"2025-11-04T21:17:10Z"}
