{"icao":"LPST","metar":"LPST 100800Z 08008KT CAVOK 18/12 Q1013","updated":"2026-04-10T09:07:25Z"}
