{"icao":"LPFR","metar":"LPFR 041500Z 36010KT 9999 FEW014 SCT035 19/12 Q0999","updated":"2026-01-04T15:18:01Z"}
