{"icao":"LPST","metar":"LPST 051000Z 33010KT 9999 SCT025 14/09 Q1018","updated":"2026-05-05T10:44:45Z"}
