{"icao":"KLAX","metar":"KLAX 102253Z 11016G21KT 10SM FEW021 OVC150 17/12 A2992 RMK AO2 SLP131 T01720122 $","updated":"2026-02-10T23:36:54Z"}
