{"icao":"LPPS","metar":"LPPS 061800Z 01004KT 330V050 9999 FEW015 20/13 Q1020","updated":"2025-11-06T18:27:58Z"}
