{"icao":"LPMR","metar":"LPMR 060800Z 22007KT 200V260 9999 SCT025 BKN040 16/14 Q1023","updated":"2025-12-06T08:22:56Z"}
