{"icao":"LPPR","metar":"LPPR 100500Z 09008KT CAVOK 19/09 Q1021","updated":"2025-10-10T05:17:16Z"}
