{"icao":"LPOV","metar":"LPOV 051600Z 34015KT CAVOK 19/13 Q1020","updated":"2025-10-05T16:18:41Z"}
