{"icao":"LPOV","metar":"LPOV 280400Z 14013KT 6000 -RA SCT009 FEW015CB BKN016 19/18 Q1001","updated":"2025-09-28T04:20:18Z"}
