{"icao":"LPPR","metar":"LPPR 161500Z 31012KT CAVOK 20/15 Q1018","updated":"2026-06-16T15:08:20Z"}
