{"icao":"LPBJ","metar":"LPBJ 251812Z 25009KT 8000 -DZRA OVC005 13/13 Q1015","updated":"2026-01-25T18:28:38Z"}
