{"icao":"LPOV","metar":"LPOV 251200Z 01009KT 340V040 CAVOK 14/07 Q1024","updated":"2025-11-25T12:39:44Z"}
