{"icao":"LPFR","metar":"LPFR 020500Z 03006KT CAVOK 20/16 Q1019","updated":"2025-10-02T05:16:22Z"}
