{"icao":"LPFR","metar":"LPFR 102030Z 24012KT 3500 -DZRA BR BKN003 15/15 Q1021","updated":"2026-02-10T20:42:41Z"}
