{"icao":"LPFR","metar":"LPFR 161000Z 23006KT 200V260 9999 FEW020 19/11 Q1016","updated":"2026-05-16T10:13:07Z"}
