{"icao":"LPAZ","metar":"LPAZ 030100Z 33023KT 9999 FEW013 BKN030 15/12 Q1006","updated":"2026-01-03T01:26:19Z"}
