{"icao":"LPLA","metar":"LPLA 250200Z 17004KT 9999 FEW030 15/13 Q1018","updated":"2025-09-25T02:59:55Z"}
