{"icao":"KJFK","metar":"KJFK 282051Z 27023G34KT 10SM SCT060 05/M08 A2998 RMK AO2 PK WND 27035/2027 SLP153 VIRGA NW T00501083 53017 $","updated":"2025-11-28T21:16:11Z"}
