{"icao":"LPHR","metar":"LPHR 230900Z 25010KT 220V280 9999 FEW020 BKN035 19/12 Q1027","updated":"2025-11-23T09:17:48Z"}
