{"icao":"LPMR","metar":"LPMR 151400Z 30006KT 210V340 9999 FEW025 18/10 Q1024","updated":"2026-04-15T15:04:03Z"}
