{"icao":"KORD","metar":"KORD 101551Z 33013G17KT 10SM FEW015 BKN055 BKN070 M02/M08 A3026 RMK AO2 SNE07 SLP256 P0000 T10171083","updated":"2025-11-10T16:25:27Z"}
