{"icao":"LPFL","metar":"LPFL 200900Z 21009G21KT 160V270 9999 FEW005 BKN009 23/19 Q1011","updated":"2025-10-20T09:21:11Z"}
