{"icao":"KJFK","metar":"KJFK 090051Z 00000KT 10SM FEW070 BKN230 14/04 A2988 RMK AO2 SLP118 T01440044 $","updated":"2025-11-09T01:27:17Z"}
