{"icao":"LPMT","metar":"LPMT 060500Z 36010KT CAVOK 08/04 Q1020","updated":"2026-01-06T05:23:31Z"}
