{"icao":"KLAX","metar":"KLAX 281453Z 00000KT 10SM FEW140 SCT200 BKN250 13/M01 A3024 RMK AO2 SLP237 T01281011 53004","updated":"2026-01-28T15:31:00Z"}
