{"icao":"KORD","metar":"KORD 140651Z 31014G20KT 10SM FEW025 M17/M23 A3036 RMK AO2 SLP297 T11721233","updated":"2025-12-14T07:17:59Z"}
