{"icao":"KJFK","metar":"KJFK 161351Z 03011KT 10SM FEW012 OVC028 M01/M03 A3015 RMK AO2 SLP208 T10111028 $","updated":"2026-02-16T14:39:38Z"}
