{"icao":"LPCS","metar":"LPCS 061700Z 26007KT 240V300 CAVOK 23/17 Q1019","updated":"2025-10-06T17:15:51Z"}
