{"icao":"KJFK","metar":"KJFK 151751Z 29018G27KT 10SM BKN055 BKN250 25/09 A2971 RMK AO2 PK WND 29027/1749 SLP062 T02500094 10250 20211 50003","updated":"2026-06-15T18:23:29Z"}
