{"icao":"LPHR","metar":"LPHR 121900Z 30020KT 9999 FEW025 15/09 Q1021","updated":"2026-02-12T19:08:38Z"}
