{"icao":"LPPT","metar":"LPPT 092000Z VRB02KT 9999 FEW018 10/08 Q1029","updated":"2026-01-09T20:23:09Z"}
