{"icao":"LPOV","metar":"LPOV 052200Z 35021G36KT 9999 FEW020 10/05 Q1019","updated":"2026-03-05T22:29:53Z"}
