{"icao":"LPMR","metar":"LPMR 121100Z 33016KT 9999 FEW020 14/06 Q1021","updated":"2026-04-12T11:32:50Z"}
