{"icao":"LPCS","metar":"LPCS 270830Z 01010KT 9999 FEW011 13/09 Q1025","updated":"2026-02-27T08:38:33Z"}
