{"icao":"LPPS","metar":"LPPS 211900Z 03008KT 340V060 9999 SCT014 SCT030 17/12 Q1025","updated":"2025-11-21T19:15:41Z"}
