{"icao":"KORD","metar":"KORD 190151Z 31005KT 10SM BKN190 OVC250 04/M02 A3004 RMK AO2 SLP181 T00391017 $","updated":"2026-03-19T02:07:03Z"}
