{"icao":"LPPS","metar":"LPPS 240900Z 05009KT 010V080 9999 SCT014 BKN030 18/14 Q1022","updated":"2026-05-24T09:23:24Z"}
