{"icao":"KORD","metar":"KORD 222051Z 34013G21KT 10SM -SN OVC035 M03/M12 A3028 RMK AO2 SNB1956 SLP264 P0000 60000 T10281122 53007 $","updated":"2026-02-22T21:23:09Z"}
