{"icao":"LPMA","metar":"LPMA 231000Z 03010KT 9999 BKN015 SCT030 23/19 Q1022","updated":"2025-10-23T10:19:31Z"}
