{"icao":"LPOV","metar":"LPOV 031900Z 17001KT CAVOK 14/12 Q1020","updated":"2025-11-03T19:14:41Z"}
