{"icao":"LPPT","metar":"LPPT 202300Z 33008KT CAVOK 10/07 Q1029","updated":"2026-02-20T23:27:27Z"}
