{"icao":"LPMR","metar":"LPMR 190600Z 11001KT 060V140 8000 FEW020 08/08 Q1017","updated":"2025-11-19T06:28:11Z"}
