{"icao":"LPCS","metar":"LPCS 052130Z 35021KT 9999 FEW017 SCT028 10/05 Q1020 RESHRA","updated":"2026-03-06T06:45:55Z"}
