{"icao":"LPAZ","metar":"LPAZ 311730Z 27005KT 230V310 9999 BKN004 21/20 Q1027","updated":"2026-05-31T17:59:57Z"}
