{"icao":"LPCS","metar":"LPCS 131800Z 25009KT CAVOK 24/17 Q1017","updated":"2026-06-13T18:05:46Z"}
