{"icao":"LPMA","metar":"LPMA 121100Z 20007KT 160V240 9999 BKN013 20/16 Q1005","updated":"2025-11-12T11:16:36Z"}
