{"icao":"LPST","metar":"LPST 250900Z 12003KT 8000 SCT006 BKN014 14/13 Q1016","updated":"2026-02-25T09:53:13Z"}
