{"icao":"KORD","metar":"KORD 240651Z 14003KT 10SM SCT250 02/M02 A3014 RMK AO2 SLP210 T00221022","updated":"2025-11-24T07:19:03Z"}
