{"icao":"LPPT","metar":"LPPT 012000Z 21018KT 3000 RA BR BKN004 14/14 Q1006","updated":"2026-02-01T20:25:19Z"}
