{"icao":"LPPT","metar":"LPPT 111600Z 22013KT 9999 FEW020 SCT022 19/13 Q1014","updated":"2026-05-11T16:31:52Z"}
