{"icao":"KORD","metar":"KORD 070951Z 35011KT 10SM CLR M11/M18 A3034 RMK AO2 SLP283 T11061183 $","updated":"2026-02-07T10:24:01Z"}
