{"icao":"KJFK","metar":"KJFK 271251Z 04003KT 10SM FEW250 M02/M06 A3014 RMK AO2 SLP204 T10171056 $","updated":"2026-02-27T12:57:03Z"}
