{"icao":"LPPD","metar":"LPPD 170400Z 31010KT 280V340 9999 FEW020 BKN030 14/10 Q1032","updated":"2026-01-17T04:31:26Z"}
