{"icao":"LPAR","metar":"LPAR 261500Z 05006KT CAVOK 17/06 Q1024","updated":"2025-11-26T15:17:56Z"}
