{"icao":"KLAX","metar":"KLAX 072053Z 26009KT 10SM FEW280 20/09 A3011 RMK AO2 SLP197 T02000089 58016 $","updated":"2025-12-07T21:15:27Z"}
