{"icao":"KORD","metar":"KORD 111751Z 05007G20KT 10SM BKN033 BKN300 18/09 A3015 RMK AO2 SLP208 T01830089 10189 20089 58009","updated":"2025-10-11T18:20:39Z"}
