{"icao":"LPFR","metar":"LPFR 031630Z 08007KT 9999 FEW018 19/09 Q1009","updated":"2026-03-03T16:45:01Z"}
