{"icao":"LPOV","metar":"LPOV 172300Z 18006KT 3000 -RA BR FEW006 BKN014 11/11 Q1023","updated":"2026-02-17T23:27:07Z"}
