{"icao":"LPOV","metar":"LPOV 181000Z 31003KT CAVOK 18/14 Q1017","updated":"2026-04-18T10:38:54Z"}
