{"icao":"LPMA","metar":"LPMA 272200Z 23010KT 180V330 9999 SCT013 FEW016TCU 23/19 Q1015","updated":"2025-10-27T22:16:21Z"}
