{"icao":"LPLA","metar":"LPLA 080430Z 22029G51KT 6000 RA SCT005 BKN012 BKN020 20/17 Q0994 RERADZ","updated":"2025-12-08T04:32:42Z"}
