{"icao":"KLAX","metar":"KLAX 251053Z 00000KT 8SM CLR 13/11 A3009 RMK AO2 SLP187 T01330111","updated":"2025-11-25T11:16:58Z"}
