{"icao":"LPAR","metar":"LPAR 081500Z 34011KT 320V020 9999 BKN035 21/12 Q1021","updated":"2025-10-08T15:19:00Z"}
