{"icao":"LPST","metar":"LPST 101300Z 35014KT 330V030 9999 BKN018 14/09 Q1021","updated":"2026-03-10T14:03:13Z"}
