{"icao":"KORD","metar":"KORD 201851Z 22007G16KT 10SM FEW060 FEW250 11/M06 A3029 RMK AO2 SLP261 T01111061 $","updated":"2026-04-20T19:08:30Z"}
