{"icao":"LPAZ","metar":"LPAZ 041330Z 05011KT 010V090 9999 SCT024 BKN040 17/11 Q1023","updated":"2026-05-04T13:57:11Z"}
