{"icao":"LPBJ","metar":"LPBJ 030100Z 28007KT CAVOK 08/07 Q1019","updated":"2025-12-03T01:25:58Z"}
