{"icao":"LPPR","metar":"LPPR 201200Z 36010KT 320V020 8000 -SHRA FEW015 BKN030 18/15 Q1021","updated":"2025-09-20T12:32:30Z"}
