{"icao":"KLAX","metar":"KLAX 151653Z VRB04KT 8SM FEW010 SCT300 18/13 A3001 RMK AO2 SLP163 T01780128 $","updated":"2026-03-15T17:26:52Z"}
