{"icao":"LPPD","metar":"LPPD 171500Z 20006KT 180V240 9000 SCT005 BKN008 18/17 Q1024","updated":"2025-11-17T15:20:40Z"}
