{"icao":"LPLA","metar":"LPLA 271700Z 08007KT 040V120 9999 FEW030 BKN040 20/11 Q1027","updated":"2025-09-27T17:13:14Z"}
