{"icao":"LPPD","metar":"LPPD 032000Z 02009KT 340V060 9999 FEW008 SCT015 FEW018TCU 14/13 Q1013","updated":"2026-01-03T20:20:55Z"}
