{"icao":"KJFK","metar":"KJFK 231351Z 25011G19KT 10SM FEW050 SCT120 SCT210 13/03 A2994 RMK AO2 SLP138 T01330033","updated":"2025-10-23T14:18:58Z"}
