{"icao":"LPLA","metar":"LPLA 252100Z 17013KT 9999 SCT015 BKN025 BKN030 22/18 Q1010","updated":"2025-09-25T21:15:05Z"}
