{"icao":"KLAX","metar":"KLAX 190853Z 08004KT 10SM FEW220 14/07 A3004 RMK AO2 SLP170 T01390072 51004","updated":"2026-01-19T09:32:57Z"}
