{"icao":"LPMT","metar":"LPMT 050800Z 25016G35KT 210V300 3000 +SHRA BR SCT015 FEW025CB BKN030 15/13 Q0993","updated":"2026-02-05T08:41:07Z"}
