{"icao":"LPMA","metar":"LPMA 120600Z 35004KT 320V020 9999 FEW015 20/16 Q1017","updated":"2025-10-12T06:23:33Z"}
