{"icao":"LPHR","metar":"LPHR 041830Z VRB06G17KT 9999 FEW020 SCT035 14/06 Q1032 WS R28","updated":"2026-03-04T18:50:20Z"}
