{"icao":"LPBJ","metar":"LPBJ 290700Z 13002KT 9999 FEW020 SCT045 17/16 Q1007","updated":"2025-10-29T07:17:47Z"}
