{"icao":"LPMT","metar":"LPMT 010500Z 34007KT 300V020 9999 FEW025 17/15 Q1018","updated":"2026-06-01T06:01:03Z"}
