{"icao":"KORD","metar":"KORD 200951Z 25006KT 10SM CLR M16/M21 A3032 RMK AO2 SLP284 T11611206 $","updated":"2026-01-20T10:26:46Z"}
