{"icao":"LPMR","metar":"LPMR 311700Z 33012KT CAVOK 21/10 Q1023","updated":"2026-03-31T17:55:38Z"}
