{"icao":"LPOV","metar":"LPOV 200700Z VRB02KT 9999 -RADZ SCT006 BKN028 16/15 Q1013","updated":"2025-10-20T07:18:36Z"}
