{"icao":"LPHR","metar":"LPHR 302100Z 25018KT 2000 RA BR SCT002 BKN004 BKN010 17/17 Q1015","updated":"2026-01-30T21:27:01Z"}
