{"icao":"KLAX","metar":"KLAX 101653Z 00000KT 10SM BCFG FEW002 21/12 A3014 RMK AO2 SLP203 VIS SE-S 2 1/2 T02060117 $","updated":"2025-11-10T17:16:54Z"}
