{"icao":"LPMA","metar":"LPMA 092230Z 01003KT 310V100 9999 FEW015 16/11 Q1015","updated":"2026-05-09T22:41:52Z"}
