{"icao":"LPPT","metar":"LPPT 240930Z 18009KT 140V200 9999 FEW008 SCT010 14/11 Q1019","updated":"2026-02-24T09:51:38Z"}
