{"icao":"LPCS","metar":"LPCS 010800Z VRB02KT CAVOK 21/13 Q1020","updated":"2025-10-01T08:23:38Z"}
