{"icao":"LPBJ","metar":"LPBJ 111300Z 32015KT CAVOK 20/11 Q1012","updated":"2026-04-11T13:55:56Z"}
