{"icao":"LPFL","metar":"LPFL 201000Z VRB16G31KT 9000 -RADZ FEW009 SCT012 18/14 Q1023","updated":"2026-01-20T10:26:42Z"}
