{"icao":"LPPR","metar":"LPPR 282000Z 17008KT 9999 -RA FEW015 BKN040 18/15 Q1009","updated":"2025-10-28T20:21:00Z"}
