{"icao":"LPPD","metar":"LPPD 072100Z 23011KT 9000 FEW006 SCT012 BKN035 16/15 Q1014","updated":"2026-02-07T21:25:39Z"}
