{"icao":"LPFR","metar":"LPFR 041630Z 12009KT 9999 FEW015 15/10 Q1013","updated":"2026-03-04T16:41:57Z"}
