{"icao":"LPFR","metar":"LPFR 271700Z 25008KT CAVOK 21/14 Q1010","updated":"2026-04-27T17:20:26Z"}
