{"icao":"KORD","metar":"KORD 220151Z 21010KT 10SM BKN250 22/07 A2963 RMK AO2 SLP033 T02220072","updated":"2026-03-22T02:06:59Z"}
