{"icao":"KLAX","metar":"KLAX 221953Z 23007KT 10SM SCT016 BKN140 17/12 A3000 RMK AO2 SLP157 T01670122 $","updated":"2026-01-22T20:26:43Z"}
