{"icao":"LPBJ","metar":"LPBJ 010700Z 11006KT CAVOK 06/05 Q1021","updated":"2026-03-01T07:31:37Z"}
