{"icao":"LPHR","metar":"LPHR 021700Z VRB02KT 9999 SCT013 BKN022 16/11 Q1030","updated":"2026-04-02T17:04:53Z"}
