{"icao":"LPFR","metar":"LPFR 201600Z 34009KT CAVOK 18/04 Q1018","updated":"2025-11-20T16:24:44Z"}
