{"icao":"KORD","metar":"KORD 020851Z 00000KT 10SM CLR 01/M02 A3009 RMK AO2 SLP195 T00061017 55005 $","updated":"2026-05-02T09:05:02Z"}
