{"icao":"LPHR","metar":"LPHR 211500Z 23014KT 190V260 6000 -RA SCT011 SCT030 BKN070 15/13 Q1012","updated":"2026-05-21T15:21:20Z"}
