{"icao":"KORD","metar":"KORD 270706Z 00000KT 8SM OVC009 03/01 A2996 RMK AO2 T00330011 $","updated":"2025-12-27T07:17:53Z"}
