{"icao":"KJFK","metar":"KJFK 090651Z 18005KT 10SM FEW250 02/M01 A3060 RMK AO2 SLP362 T00221006","updated":"2026-04-09T07:20:40Z"}
