{"icao":"LPPT","metar":"LPPT 011100Z 06006G19KT 360V120 CAVOK 25/13 Q1021","updated":"2025-10-01T11:15:42Z"}
