{"icao":"LPLA","metar":"LPLA 241600Z 01007KT 330V060 9999 OVC025 14/08 Q1029","updated":"2026-03-24T16:08:19Z"}
