{"icao":"LPLA","metar":"LPLA 151300Z 23022G32KT 9999 FEW020 19/11 Q1027","updated":"2026-02-15T13:43:33Z"}
