{"icao":"LPPT","metar":"LPPT 232000Z 29010KT 240V320 9999 FEW030 08/05 Q1003","updated":"2026-01-23T20:24:34Z"}
