{"icao":"LPLA","metar":"LPLA 140700Z 23008KT 190V260 9999 BKN030 15/09 Q1030","updated":"2026-02-14T07:32:55Z"}
