{"icao":"LPAZ","metar":"LPAZ 200700Z 06010KT 020V090 9999 FEW028 BKN046 17/12 Q1025","updated":"2025-11-20T07:18:07Z"}
