{"icao":"LPFR","metar":"LPFR 220300Z 31005KT 9999 FEW006 19/18 Q1018","updated":"2025-10-22T03:09:34Z"}
