{"icao":"LPHR","metar":"LPHR 181230Z 32010KT 280V010 9999 FEW007 SCT012 18/15 Q1030","updated":"2026-01-18T12:37:46Z"}
