{"icao":"LPAZ","metar":"LPAZ 252300Z 04004KT 360V070 9999 FEW016 BKN020 15/12 Q1025","updated":"2025-12-25T23:18:46Z"}
