{"icao":"LPFR","metar":"LPFR 031230Z 13006KT CAVOK 21/12 Q1022","updated":"2025-11-03T12:38:50Z"}
