{"icao":"KLAX","metar":"KLAX 281853Z VRB04KT 10SM FEW240 SCT280 26/12 A2994 RMK AO2 SLP135 T02610117","updated":"2026-02-28T19:19:44Z"}
