{"icao":"KJFK","metar":"KJFK 261851Z 31011KT 10SM SCT015 BKN022 OVC033 M04/M08 A2974 RMK AO2 SNE38 SLP069 P0000 T10441083 $","updated":"2026-01-26T19:22:35Z"}
