{"icao":"KORD","metar":"KORD 311751Z 23012G19KT 10SM FEW036 SCT090 BKN150 OVC250 18/15 A2977 RMK AO2 RAE35 SLP078 P0000 60010 T01830150 10200 20167 51008","updated":"2026-03-31T17:55:54Z"}
