{"icao":"LPFR","metar":"LPFR 141000Z 27011KT 9999 SCT025 15/11 Q1019","updated":"2026-03-14T10:26:40Z"}
