{"icao":"LPCS","metar":"LPCS 231600Z 23006KT 200V270 9999 SCT014 BKN037 22/19 Q1020","updated":"2025-10-23T16:22:43Z"}
