{"icao":"LPMR","metar":"LPMR 191200Z 28006KT 250V310 9999 FEW007 23/13 Q1016","updated":"2026-04-19T12:59:27Z"}
