{"icao":"LPPT","metar":"LPPT 072000Z 32013KT CAVOK 11/07 Q1019","updated":"2026-03-07T20:24:13Z"}
