{"icao":"LPMA","metar":"LPMA 171700Z 04004KT 360V160 9999 FEW011 BKN013 23/20 Q1011","updated":"2025-10-17T17:15:25Z"}
