{"icao":"LPLA","metar":"LPLA 210800Z 19017G27KT 160V220 5000 -RADZ BR SCT008 BKN012 17/15 Q1020","updated":"2026-02-21T08:29:34Z"}
