{"icao":"LPMR","metar":"LPMR 090100Z 33007KT 300V360 9999 OVC007 17/15 Q1021","updated":"2025-10-09T01:18:27Z"}
