{"icao":"LPMT","metar":"LPMT 261900Z 34005KT CAVOK 17/14 Q1023","updated":"2026-02-26T19:42:47Z"}
