{"icao":"KJFK","metar":"KJFK 120451Z 31018G30KT 10SM OVC045 02/M07 A2986 RMK AO2 PK WND 31033/0412 SLP110 T00171072 400501028 $","updated":"2026-02-12T04:56:38Z"}
