{"icao":"LPCS","metar":"LPCS 151200Z 22004KT 170V240 9999 FEW004 SCT016 16/16 Q1006","updated":"2025-11-15T12:33:57Z"}
