{"icao":"KORD","metar":"KORD 081851Z 13012G16KT 10SM FEW012 SCT070 M01/M09 A3030 RMK AO2 SLP269 T10111094 $","updated":"2026-02-08T19:24:00Z"}
