{"icao":"LPOV","metar":"LPOV 101100Z 15007KT 120V180 8000 FEW004 BKN009 BKN020 15/14 Q1018","updated":"2025-11-10T11:16:12Z"}
