{"icao":"LPPD","metar":"LPPD 310600Z 30009KT 9999 FEW018 BKN030 19/14 Q1007","updated":"2025-10-31T06:27:37Z"}
