{"icao":"LPMR","metar":"LPMR 272300Z 15006KT 9999 SCT015 BKN045 09/08 Q1002","updated":"2026-01-27T23:20:40Z"}
