{"icao":"LPFR","metar":"LPFR 080600Z 03005KT CAVOK 05/04 Q1032","updated":"2026-01-08T06:33:06Z"}
