{"icao":"LPLA","metar":"LPLA 071500Z 20012KT 170V230 9999 FEW025 SCT040 18/12 Q1009","updated":"2025-12-07T15:16:15Z"}
