{"icao":"LPMT","metar":"LPMT 052000Z 34009KT 310V010 CAVOK 15/09 Q1016","updated":"2026-05-05T20:06:12Z"}
