{"icao":"LPMT","metar":"LPMT 230400Z 34005KT CAVOK 20/13 Q1019","updated":"2026-05-23T04:39:10Z"}
