{"icao":"KORD","metar":"KORD 101551Z 21008KT 10SM -RA BKN070 BKN140 BKN250 15/06 A3018 RMK AO2 RAB51 SLP220 VCSH P0000 T01500056","updated":"2025-10-10T16:21:50Z"}
