{"icao":"LPMA","metar":"LPMA 190700Z 32005KT 250V010 9999 SCT015 17/13 Q1019","updated":"2025-11-19T07:18:39Z"}
