{"icao":"LPPR","metar":"LPPR 282300Z 14003KT 100V170 8000 OVC043 12/11 Q1021","updated":"2025-11-28T23:16:42Z"}
