{"icao":"LPHR","metar":"LPHR 240130Z 28026G38KT 9999 SCT016 BKN035 16/10 Q1008","updated":"2026-02-24T02:00:33Z"}
