{"icao":"LPMA","metar":"LPMA 190800Z 32007KT 280V350 9999 SCT015 18/12 Q1024","updated":"2026-05-19T08:33:56Z"}
