{"icao":"LPPS","metar":"LPPS 041400Z 01010KT 320V070 9999 FEW014 19/14 Q1019","updated":"2026-04-04T14:32:43Z"}
