{"icao":"LPMA","metar":"LPMA 031900Z 04010KT 9999 SCT015 22/19 Q1024","updated":"2025-10-03T19:13:57Z"}
