{"icao":"KORD","metar":"KORD 061251Z 31008KT 10SM FEW016 FEW045 06/02 A3019 RMK AO2 SLP227 T00560017","updated":"2026-04-06T13:07:14Z"}
