{"icao":"LPFR","metar":"LPFR 240900Z VRB02KT CAVOK 22/17 Q1019","updated":"2025-10-24T09:19:39Z"}
