{"icao":"LPPR","metar":"LPPR 291000Z 35007KT 330V030 CAVOK 13/03 Q1032","updated":"2026-03-29T10:31:34Z"}
