{"icao":"LPPR","metar":"LPPR 261100Z 22007KT 190V260 9999 FEW007 20/13 Q1019","updated":"2025-09-26T11:14:07Z"}
