{"icao":"KORD","metar":"KORD 011351Z 29006KT 10SM FEW030 BKN100 BKN150 M12/M17 A3004 RMK AO2 SLP182 T11171167 $","updated":"2026-01-01T14:19:08Z"}
