{"icao":"KJFK","metar":"KJFK 060051Z 22014KT 10SM FEW060 BKN190 BKN250 15/08 A2961 RMK AO2 SLP025 T01500078","updated":"2025-11-06T01:24:12Z"}
