{"icao":"LPPT","metar":"LPPT 072200Z 32012G22KT 280V340 9999 FEW015 11/08 Q1020","updated":"2026-03-07T22:21:37Z"}
