{"icao":"LPAR","metar":"LPAR 211100Z 20013KT 8000 SCT030 22/14 Q1004","updated":"2026-04-21T11:05:00Z"}
