{"icao":"LPAZ","metar":"LPAZ 251900Z 20011KT 9999 SCT022 22/17 Q1014","updated":"2025-09-25T19:14:41Z"}
