{"icao":"LPPT","metar":"LPPT 192130Z 30010KT CAVOK 17/10 Q1015","updated":"2026-04-19T21:34:29Z"}
