{"icao":"LPCS","metar":"LPCS 180900Z 09006KT 060V120 CAVOK 21/13 Q1017","updated":"2025-10-18T09:16:38Z"}
