{"icao":"LPMR","metar":"LPMR 051300Z 21013KT 180V240 9999 SCT022 FEW024CB BKN032 19/14 Q1006","updated":"2025-11-05T13:30:54Z"}
