{"icao":"LPPR","metar":"LPPR 152000Z 23008KT 200V260 9999 BKN044 13/11 Q1028","updated":"2026-02-15T20:25:02Z"}
