{"icao":"LPPR","metar":"LPPR 101600Z 23005KT 190V280 9999 -SHRA SCT013 FEW025CB BKN040 15/14 Q1016","updated":"2025-11-10T16:24:50Z"}
