{"icao":"LPAR","metar":"LPAR 161600Z 34012KT 310V020 CAVOK 30/15 Q1015","updated":"2026-06-17T00:14:33Z"}
