{"icao":"LPPT","metar":"LPPT 191230Z 09006KT 010V140 9999 FEW030 23/12 Q1016","updated":"2026-04-19T12:59:23Z"}
