{"icao":"LPHR","metar":"LPHR 030900Z 25013KT 9999 FEW008 BKN011 19/18 Q1013","updated":"2025-11-03T09:22:15Z"}
