{"icao":"LPMA","metar":"LPMA 101800Z 36005KT 290V030 9999 FEW016 17/11 Q1029","updated":"2026-01-10T18:27:47Z"}
