{"icao":"KORD","metar":"KORD 270851Z 10007KT 10SM FEW027 08/06 A3025 RMK AO2 SLP247 T00830056 56004 $","updated":"2025-10-27T09:22:14Z"}
