{"icao":"LPAZ","metar":"LPAZ 281900Z 22008KT 6000 FEW004 BKN006 15/15 Q1030","updated":"2026-02-28T19:19:30Z"}
