{"icao":"LPLA","metar":"LPLA 182000Z 35023G35KT 9000 -SHRA BKN025 SCT028CB 10/02 Q1010","updated":"2026-03-18T20:34:08Z"}
