{"icao":"LPHR","metar":"LPHR 160900Z 23008KT 8000 SCT002 BKN004 20/19 Q1018","updated":"2026-06-16T09:30:48Z"}
