{"icao":"LPPR","metar":"LPPR 020300Z 12005KT 6000 FEW026TCU SCT040 12/11 Q1023","updated":"2025-11-02T03:14:01Z"}
