{"icao":"LPHR","metar":"LPHR 262100Z 06011KT 9999 SCT015 FEW018TCU BKN030 17/13 Q1023","updated":"2025-10-27T05:19:07Z"}
