{"icao":"LPFL","metar":"LPFL 141000Z 34006KT 290V010 9999 FEW016 BKN028 16/12 Q1033","updated":"2026-03-14T10:26:44Z"}
