{"icao":"KORD","metar":"KORD 232051Z 29011G18KT 10SM SCT055 12/M02 A3010 RMK AO2 SLP194 T01171017 55002","updated":"2025-10-23T21:15:42Z"}
