{"icao":"LPAZ","metar":"LPAZ 111630Z 04011KT 360V090 9999 FEW026 BKN042 15/08 Q1031","updated":"2026-04-11T16:35:45Z"}
