{"icao":"LPFR","metar":"LPFR 112300Z 25019KT 4000 -DZ BR OVC003 15/15 Q1021","updated":"2026-02-11T23:30:41Z"}
