{"icao":"LPPS","metar":"LPPS 301030Z 15008KT 120V190 9999 FEW015 19/12 Q1016","updated":"2026-04-30T10:54:16Z"}
