{"icao":"LPPD","metar":"LPPD 251000Z 03018G28KT 360V060 8000 -RA SCT012 FEW020CB SCT040 18/16 Q1017","updated":"2025-10-25T10:16:48Z"}
