{"icao":"LPMA","metar":"LPMA 261300Z 13004KT 090V170 9999 SCT015 19/11 Q1018","updated":"2025-12-26T13:31:42Z"}
