{"icao":"LPMT","metar":"LPMT 142300Z 35011KT 310V020 9999 SCT025 15/09 Q1014","updated":"2026-05-14T23:56:51Z"}
