{"icao":"LPMA","metar":"LPMA 201200Z 04010KT 360V080 9999 FEW015 20/15 Q1021","updated":"2026-05-20T12:22:50Z"}
