{"icao":"KJFK","metar":"KJFK 022251Z 01009KT 10SM FEW080 SCT220 BKN250 24/02 A3012 RMK AO2 SLP199 T02390022 $","updated":"2026-06-02T23:44:05Z"}
