{"icao":"LPMR","metar":"LPMR 250800Z 28009G19KT 9999 4000S VCSH FEW010 BKN018 FEW020CB BKN035 13/11 Q1013","updated":"2026-01-25T08:26:18Z"}
