{"icao":"LPLA","metar":"LPLA 211800Z 12006KT 080V150 9999 BKN035 16/09 Q1032","updated":"2025-11-21T18:25:31Z"}
