{"icao":"KORD","metar":"KORD 220351Z 20009G17KT 10SM SCT250 BKN300 22/07 A2961 RMK AO2 SLP024 T02170067","updated":"2026-03-22T04:50:42Z"}
