{"icao":"LPCS","metar":"LPCS 221900Z 24014G26KT 200V270 3500 -DZ BR SCT002 BKN005 15/15 Q1003","updated":"2026-01-22T19:23:49Z"}
