{"icao":"LPBJ","metar":"LPBJ 211000Z 19013KT 9999 -RA BKN008 SCT015 12/11 Q1010","updated":"2026-01-21T10:27:32Z"}
