{"icao":"LPFL","metar":"LPFL 021700Z 13008KT 060V200 9999 FEW022 20/14 Q1017","updated":"2025-11-02T17:14:28Z"}
