{"icao":"KJFK","metar":"KJFK 110351Z 17003KT 10SM FEW250 10/04 A3001 RMK AO2 SLP161 T01000044","updated":"2026-03-11T04:09:34Z"}
