{"icao":"LPPS","metar":"LPPS 020900Z 16005KT 120V190 9999 FEW013 23/19 Q1024","updated":"2025-11-02T09:16:15Z"}
