{"icao":"KORD","metar":"KORD 242258Z 12006KT 10SM BKN023 OVC060 07/M01 A3009 RMK AO2 T00721011 $","updated":"2025-12-24T23:18:33Z"}
