{"icao":"LPCS","metar":"LPCS 040900Z 11008KT 080V140 9999 FEW015 16/13 Q1017","updated":"2025-11-04T09:20:28Z"}
