{"icao":"KLAX","metar":"KLAX 211353Z 13007KT 10SM SCT009 SCT016 17/14 A2991 RMK AO2 SLP127 T01670139","updated":"2026-06-21T14:07:51Z"}
