{"icao":"LPFR","metar":"LPFR 030900Z 17004KT CAVOK 25/16 Q1021","updated":"2025-10-03T09:17:17Z"}
