{"icao":"KORD","metar":"KORD 232251Z 30006KT 10SM BKN060 11/M02 A3011 RMK AO2 SLP201 T01061017","updated":"2025-10-23T23:16:05Z"}
