{"icao":"LPPR","metar":"LPPR 142200Z 14005KT 9000 FEW025 BKN040 09/09 Q1021","updated":"2026-01-14T22:20:45Z"}
