{"icao":"LPPD","metar":"LPPD 271730Z 05012KT 010V070 9999 FEW022 BKN030 15/10 Q1029","updated":"2026-03-27T17:49:01Z"}
