{"icao":"LPPS","metar":"LPPS 042230Z 15006KT 9999 -RA SCT004 BKN008 18/17 Q1018","updated":"2026-05-04T23:01:54Z"}
