{"icao":"LPMR","metar":"LPMR 151600Z 17012KT 8000 BKN009 BKN025 12/11 Q1006","updated":"2025-12-15T16:29:16Z"}
