{"icao":"LPAZ","metar":"LPAZ 110500Z 36004KT 9999 FEW010 20/19 Q1021","updated":"2025-10-11T05:15:43Z"}
