{"icao":"LPHR","metar":"LPHR 300600Z 15009KT 9000 SCT002 SCT004 BKN012 22/21 Q1018","updated":"2025-09-30T06:27:21Z"}
