{"icao":"LPOV","metar":"LPOV 062300Z 36007KT CAVOK 10/04 Q1019","updated":"2026-03-06T23:26:08Z"}
