{"icao":"LPPT","metar":"LPPT 181900Z 07005KT 020V090 9999 FEW045TCU 27/11 Q1019","updated":"2025-09-18T19:14:17Z"}
