{"icao":"LPBJ","metar":"LPBJ 270827Z 29007KT 4500 VCFG FEW007 10/10 Q1024","updated":"2026-02-27T08:38:36Z"}
