{"icao":"KORD","metar":"KORD 180651Z 21007KT 5SM RA BR BKN075 OVC090 17/15 A2958 RMK AO2 PK WND 23029/0608 PRESFR SLP013 P0008 T01670150 $","updated":"2026-04-18T07:05:29Z"}
