{"icao":"LPMA","metar":"LPMA 301000Z 33004KT 240V030 9999 SCT015 19/13 Q1023","updated":"2025-11-30T10:18:36Z"}
