{"icao":"LPPS","metar":"LPPS 201300Z 11004KT 040V180 9999 FEW012 25/20 Q1021","updated":"2025-09-20T13:21:08Z"}
