{"icao":"LPOV","metar":"LPOV 220700Z VRB01KT CAVOK 09/07 Q1022","updated":"2025-09-22T07:18:24Z"}
