{"icao":"LPMA","metar":"LPMA 220700Z 35011KT 320V020 9999 -SHRA BKN015 19/16 Q1021","updated":"2025-09-22T07:18:26Z"}
