{"icao":"KJFK","metar":"KJFK 270351Z 31019G31KT 10SM FEW050 FEW250 M08/M17 A2996 RMK AO2 PK WND 33034/0300 SLP145 T10781172 $","updated":"2026-01-27T04:45:31Z"}
