{"icao":"LPMR","metar":"LPMR 251500Z 35015KT CAVOK 15/05 Q1023","updated":"2025-11-25T15:21:17Z"}
