{"icao":"LPPD","metar":"LPPD 152100Z 33012KT 300V360 9999 -SHRA SCT020 BKN030 14/09 Q1030","updated":"2026-01-15T21:20:20Z"}
