{"icao":"LPST","metar":"LPST 111500Z 18019KT 9999 BKN012 BKN025 19/16 Q1010","updated":"2025-11-11T15:19:34Z"}
