{"icao":"LPHR","metar":"LPHR 192000Z 01027G43KT 330V040 9999 VCSH FEW018 BKN075 14/07 Q1017","updated":"2026-04-19T20:36:12Z"}
