{"icao":"LPBJ","metar":"LPBJ 211306Z 22013KT 2200 DZRA BR BKN004 BKN010 14/14 Q1007","updated":"2026-01-21T13:43:57Z"}
