{"icao":"LPPD","metar":"LPPD 170800Z 32008KT 250V350 9999 FEW020 BKN030 14/09 Q1031","updated":"2026-01-17T08:25:24Z"}
