{"icao":"KJFK","metar":"KJFK 231314Z 18007KT 9SM -RA BKN008 OVC029 02/01 A3030 RMK AO2 SNE14 P0000 T00170011 $","updated":"2025-12-23T13:35:08Z"}
