{"icao":"LPLA","metar":"LPLA 082300Z 16017KT 9999 SCT007 BKN013 23/21 Q1022","updated":"2025-10-08T23:15:32Z"}
