{"icao":"LPPR","metar":"LPPR 111230Z 30006KT 270V330 9999 FEW012 BKN020 14/12 Q1028","updated":"2026-03-11T12:57:31Z"}
