{"icao":"KORD","metar":"KORD 121015Z 35004KT 10SM BKN025 M07/M10 A3005 RMK AO2 T10671100","updated":"2025-12-12T10:21:33Z"}
