{"icao":"LPMR","metar":"LPMR 081800Z 33009KT 9999 SCT009 BKN018 17/15 Q1022","updated":"2025-10-08T18:26:35Z"}
