{"icao":"LPPR","metar":"LPPR 210830Z 23003KT 190V260 9999 FEW005 19/18 Q1017","updated":"2026-06-21T08:56:04Z"}
