{"icao":"LPPR","metar":"LPPR 191500Z 19016KT 2000 -RADZ BR FEW001 BKN002 18/17 Q1011","updated":"2025-10-19T15:15:29Z"}
