{"icao":"LPFL","metar":"LPFL 161600Z 33012G22KT 280V020 9999 FEW014 BKN017 15/08 Q1018 WS ALL RWY","updated":"2026-03-16T16:11:04Z"}
