{"icao":"LPPD","metar":"LPPD 161900Z 34005KT 310V010 9999 FEW020 21/16 Q1008","updated":"2025-10-16T19:12:42Z"}
