{"icao":"LPST","metar":"LPST 201300Z 35016KT 330V030 9999 FEW028 14/06 Q1021","updated":"2025-11-20T13:29:00Z"}
