{"icao":"LPFR","metar":"LPFR 230600Z 05005KT CAVOK 09/02 Q1027","updated":"2025-11-23T06:26:37Z"}
