{"icao":"LPFR","metar":"LPFR 300530Z 29002KT 9999 FEW028 12/12 Q1016","updated":"2026-01-30T05:44:23Z"}
