{"icao":"KORD","metar":"KORD 291228Z 27021G32KT 3/4SM R10L/6000VP6000FT -SN BLSN VV013 M09/M12 A2976 RMK AO2 PK WND 26033/1205 VIS 1/2V1 1/4 P0000 T10941117 $","updated":"2025-12-29T12:42:34Z"}
