{"icao":"LPPT","metar":"LPPT 301200Z 23008KT 180V290 9999 FEW025 19/09 Q1017","updated":"2026-04-30T12:13:55Z"}
