{"icao":"LPLA","metar":"LPLA 162210Z 36004KT 300V040 4000 DZRA SCT003 BKN008 BKN012 15/14 Q1019","updated":"2026-04-16T22:38:22Z"}
