{"icao":"LPPR","metar":"LPPR 241500Z 32011KT 280V350 9999 FEW015 FEW018CB BKN030 12/06 Q1010","updated":"2026-01-24T15:19:05Z"}
