{"icao":"LPBJ","metar":"LPBJ 131100Z 33011KT 300V360 CAVOK 26/05 Q1021","updated":"2025-09-13T11:12:06Z"}
