{"icao":"KJFK","metar":"KJFK 010051Z 23013KT 10SM FEW050 FEW120 SCT160 SCT250 M01/M09 A2978 RMK AO2 SLP085 T10111089 $","updated":"2026-01-01T01:49:07Z"}
