{"icao":"LPMR","metar":"LPMR 131400Z 26008KT 230V290 9999 FEW020 FEW022TCU 15/10 Q1009","updated":"2026-01-13T14:24:19Z"}
