{"icao":"LPMA","metar":"LPMA 220700Z 35006KT 330V030 9999 BKN015 23/19 Q1020","updated":"2025-10-22T07:17:37Z"}
