{"icao":"LPMT","metar":"LPMT 261300Z 32006KT 290V010 9999 FEW040 22/16 Q1018","updated":"2025-10-26T13:22:15Z"}
