{"icao":"LPPR","metar":"LPPR 300900Z 05006KT 030V100 CAVOK 12/01 Q1033","updated":"2026-03-30T09:10:19Z"}
