{"icao":"LPMT","metar":"LPMT 020700Z 03004KT CAVOK 12/12 Q1024","updated":"2025-11-02T07:15:52Z"}
