{"icao":"LPFL","metar":"LPFL 231900Z 16007KT 9000 1100S SHRA BKN019TCU 20/17 Q1012","updated":"2025-10-24T07:17:44Z"}
