{"icao":"LPBJ","metar":"LPBJ 040400Z 30008KT CAVOK 12/11 Q1022","updated":"2025-10-04T04:19:39Z"}
