{"icao":"LPPR","metar":"LPPR 121400Z 27006KT 200V340 9999 SCT014 FEW020CB 19/13 Q1019","updated":"2026-05-12T14:21:53Z"}
