{"icao":"LPLA","metar":"LPLA 032100Z 18003KT 140V210 9999 FEW016 BKN027 16/13 Q1026","updated":"2026-03-03T21:32:23Z"}
