{"icao":"LPPD","metar":"LPPD 220100Z 22011KT 8000 FEW004 BKN006 22/22 Q1016","updated":"2025-10-22T01:23:26Z"}
