{"icao":"LPMA","metar":"LPMA 302030Z 35010KT 260V040 9999 FEW015 19/13 Q1025","updated":"2026-05-30T20:54:49Z"}
