{"icao":"LPCS","metar":"LPCS 031930Z 36009KT CAVOK 19/05 Q1022","updated":"2026-04-03T19:37:27Z"}
