{"icao":"LPMT","metar":"LPMT 122000Z 13012KT 9999 FEW007 SCT025 15/15 Q1005","updated":"2025-11-12T20:20:53Z"}
