{"icao":"LPAZ","metar":"LPAZ 222030Z 01009KT 340V040 9999 SCT014 21/17 Q1026","updated":"2026-06-22T20:45:40Z"}
