{"icao":"LPPD","metar":"LPPD 031400Z 25021KT 7000 FEW004 SCT008 BKN010 17/16 Q1006","updated":"2026-02-03T14:06:24Z"}
