{"icao":"KORD","metar":"KORD 211351Z 22011G20KT 10SM SCT095 BKN120 09/05 A2971 RMK AO2 SLP060 VIRGA T00940050","updated":"2025-10-21T14:17:34Z"}
