{"icao":"LPCS","metar":"LPCS 281400Z 25013KT 220V280 9999 FEW018 15/12 Q1005","updated":"2026-01-28T14:28:31Z"}
