{"icao":"LPFR","metar":"LPFR 171030Z 31012KT 280V360 9999 FEW040 20/09 Q1018","updated":"2026-05-17T11:04:28Z"}
