{"icao":"LPPT","metar":"LPPT 231700Z 25007KT 220V280 9999 FEW016 BKN036 22/19 Q1019","updated":"2025-10-23T17:15:46Z"}
