{"icao":"LPFR","metar":"LPFR 031830Z 23009KT 9000 -RA FEW012 BKN035 13/10 Q1004","updated":"2026-02-03T18:54:59Z"}
