{"icao":"KJFK","metar":"KJFK 240051Z 33027G36KT 10SM FEW250 M03/M15 A3025 RMK PK WND 32036/0014 SLP244 T10331150 $ ","updated":"2026-01-24T01:39:01Z"}
