{"icao":"LPPS","metar":"LPPS 211600Z 34017KT 9999 SCT014 18/12 Q1019","updated":"2025-12-21T16:22:20Z"}
