{"icao":"LPST","metar":"LPST 070800Z 28010KT 3000 -RADZ BR SCT002 BKN012 12/12 Q1012","updated":"2026-04-07T09:00:37Z"}
