{"icao":"LPBJ","metar":"LPBJ 172200Z 25005KT CAVOK 18/11 Q1017","updated":"2026-04-17T22:47:23Z"}
