{"icao":"KLAX","metar":"KLAX 231253Z VRB03KT 10SM OVC023 17/12 A2991 RMK AO2 SLP128 T01670122","updated":"2026-05-23T13:22:02Z"}
