{"icao":"LPHR","metar":"LPHR 071030Z 32008KT 290V360 9999 BKN035 14/07 Q1032","updated":"2026-04-07T10:53:51Z"}
