{"icao":"LPBJ","metar":"LPBJ 191900Z 27006KT CAVOK 21/13 Q1015","updated":"2025-10-19T19:12:59Z"}
