{"icao":"LPMT","metar":"LPMT 251500Z 26007KT 9999 SCT012 BKN025 22/18 Q1013","updated":"2025-10-25T15:15:34Z"}
