{"icao":"LPPD","metar":"LPPD 241700Z 31013KT 9999 FEW023 SCT030 15/09 Q1017","updated":"2026-02-24T17:08:34Z"}
