{"icao":"LPMT","metar":"LPMT 101100Z 36010KT 320V030 9999 FEW018 BKN025 14/10 Q1021","updated":"2026-03-10T11:31:50Z"}
