{"icao":"LPBJ","metar":"LPBJ 141100Z VRB03KT CAVOK 27/13 Q1018","updated":"2025-10-14T11:14:57Z"}
