{"icao":"LPAZ","metar":"LPAZ 230800Z 05007KT 010V080 9999 FEW025 BKN034 14/08 Q1021","updated":"2026-03-23T14:53:13Z"}
