{"icao":"LPPR","metar":"LPPR 230600Z 15006KT 6000 -RADZ FEW003 SCT006 BKN012 11/10 Q1026","updated":"2025-11-23T06:26:37Z"}
