{"icao":"LPPT","metar":"LPPT 180100Z VRB02KT CAVOK 10/09 Q1023","updated":"2025-12-18T01:25:21Z"}
