{"icao":"LPAZ","metar":"LPAZ 031030Z 25021KT 6000 FEW003 BKN007 17/16 Q1010","updated":"2026-02-03T10:38:25Z"}
