{"icao":"LPHR","metar":"LPHR 061730Z 25028G43KT 9000 FEW008 SCT012 FEW015CB BKN025 17/14 Q1005","updated":"2026-02-06T17:40:11Z"}
