{"icao":"LPPR","metar":"LPPR 111400Z 31008KT 270V350 9999 FEW012 BKN020 16/13 Q1026","updated":"2026-03-11T14:07:23Z"}
