{"icao":"LPPR","metar":"LPPR 180800Z 11006KT 080V150 CAVOK 17/13 Q1020","updated":"2025-09-18T08:22:05Z"}
