{"icao":"LPMT","metar":"LPMT 090900Z 34008KT 310V010 9999 SCT008 SCT012 BKN025 12/10 Q1023","updated":"2026-03-09T09:50:32Z"}
