{"icao":"LPPD","metar":"LPPD 011930Z 05006KT 340V120 9999 FEW015 BKN023 21/17 Q1030","updated":"2026-07-01T19:51:55Z"}
