{"icao":"LPCS","metar":"LPCS 271000Z 26009KT 230V290 9999 FEW010 12/10 Q1002","updated":"2026-01-27T10:26:49Z"}
