{"icao":"LPFR","metar":"LPFR 030800Z 00000KT CAVOK 17/09 Q1023","updated":"2025-11-03T08:26:04Z"}
