{"icao":"KORD","metar":"KORD 092051Z 28015G30KT 10SM SCT090 BKN130 23/02 A2963 RMK AO2 PK WND 28036/1959 SLP031 T02280017 58004","updated":"2026-05-09T20:55:24Z"}
