{"icao":"LPFR","metar":"LPFR 071500Z 22018KT 5000 -SHRA FEW012 FEW018CB BKN020 14/12 Q1008","updated":"2026-02-07T15:23:27Z"}
