{"icao":"KJFK","metar":"KJFK 161851Z 17012KT 10SM FEW060 BKN250 26/14 A2983 RMK AO2 SLP100 T02560144","updated":"2026-04-16T19:10:59Z"}
