{"icao":"LPLA","metar":"LPLA 222100Z 01008KT 330V040 9999 BKN030 14/07 Q1023","updated":"2026-03-22T21:24:53Z"}
