{"icao":"LPPS","metar":"LPPS 240600Z 03004KT 010V070 9999 FEW015 16/13 Q1025","updated":"2025-11-24T06:29:53Z"}
