{"icao":"LPOV","metar":"LPOV 131800Z 34023KT 8000 -SHRA SCT022 FEW026CB 12/09 Q1006 RESHRA","updated":"2026-02-13T18:46:59Z"}
