{"icao":"LPMR","metar":"LPMR 141500Z 33015KT CAVOK 23/16 Q1023","updated":"2025-09-14T15:14:28Z"}
