{"icao":"LPAR","metar":"LPAR 301100Z 31010KT 270V340 CAVOK 27/18 Q1020","updated":"2026-06-30T12:06:48Z"}
