{"icao":"LPOV","metar":"LPOV 131200Z 15016KT 110V190 9999 SCT022 BKN035 17/14 Q1000","updated":"2025-11-13T12:40:05Z"}
