{"icao":"KORD","metar":"KORD 051151Z 19005KT 10SM CLR 18/13 A3011 RMK AO2 SLP191 T01830128 10228 20183 51011 $","updated":"2025-10-05T12:32:16Z"}
