{"icao":"LPPD","metar":"LPPD 280600Z 36020KT 6000 -SHRA SCT011 15/13 Q1023","updated":"2025-11-28T06:29:43Z"}
