{"icao":"LPMA","metar":"LPMA 260130Z 31005KT 260V010 9999 BKN015 15/12 Q1020","updated":"2025-12-26T01:38:24Z"}
