{"icao":"KJFK","metar":"KJFK 081151Z 21008KT 1/8SM R04R/1000V1200FT FG VV002 07/07 A2981 RMK AO2 SFC VIS 1/4 SLP093 T00670067 10083 20056 53007","updated":"2026-03-08T12:46:17Z"}
