{"icao":"LPCS","metar":"LPCS 171100Z 35014KT 320V030 9999 VCSH FEW010 FEW015CB SCT020 16/14 Q1015","updated":"2025-11-17T11:16:36Z"}
