{"icao":"LPAZ","metar":"LPAZ 262300Z 02005KT 330V060 7000 FEW002 BKN005 15/14 Q1032","updated":"2026-02-26T23:28:25Z"}
