{"icao":"KLAX","metar":"KLAX 250653Z 07003KT 9SM CLR 14/13 A3011 RMK AO2 SLP193 T01440128","updated":"2025-11-25T07:18:59Z"}
