{"icao":"LPPS","metar":"LPPS 160500Z 00000KT 9999 FEW015 20/18 Q1015","updated":"2025-10-16T05:17:23Z"}
