{"icao":"LPMA","metar":"LPMA 010830Z 05005KT 020V080 9999 FEW012 18/15 Q1018","updated":"2026-05-01T08:59:17Z"}
