{"icao":"LPMR","metar":"LPMR 120100Z 15003KT CAVOK 15/11 Q1018","updated":"2025-10-12T01:21:49Z"}
