{"icao":"LPHR","metar":"LPHR 170000Z 33007KT 280V360 9999 FEW016 BKN030 14/09 Q1035","updated":"2026-01-17T04:31:29Z"}
