{"icao":"LPHR","metar":"LPHR 181300Z 07006KT 020V090 9999 FEW008 SCT012 18/16 Q1030","updated":"2026-01-18T13:27:39Z"}
