{"icao":"LPHR","metar":"LPHR 080700Z 09005KT 040V130 9999 SCT012 SCT035 12/05 Q1026","updated":"2026-03-08T07:29:52Z"}
