{"icao":"LPFR","metar":"LPFR 120800Z 03006KT CAVOK 22/16 Q1015","updated":"2025-10-12T08:20:08Z"}
