{"icao":"KJFK","metar":"KJFK 290151Z 34012KT 10SM CLR 03/M13 A3051 RMK AO2 SLP332 T00331128 $","updated":"2026-03-29T02:23:16Z"}
