{"icao":"LPOV","metar":"LPOV 130800Z 15010KT 120V180 9999 -RA BKN025 BKN035 15/14 Q1000 RETSRA","updated":"2025-11-13T08:25:18Z"}
