{"icao":"KORD","metar":"KORD 082251Z 07011KT 10SM -RA BKN025 OVC033 06/02 A2984 RMK AO2 SLP107 P0000 T00610022 $","updated":"2025-11-08T23:15:52Z"}
