{"icao":"LPBJ","metar":"LPBJ 171000Z 06004KT 030V100 CAVOK 22/15 Q1016","updated":"2025-10-17T10:19:03Z"}
