{"icao":"LPHR","metar":"LPHR 190830Z 29009KT 9999 FEW014 15/12 Q1015","updated":"2026-04-19T08:53:10Z"}
