{"icao":"KLAX","metar":"KLAX 200253Z 24006KT 10SM FEW085 21/17 A2990 RMK AO2 SLP123 T02110167 53006","updated":"2025-09-20T03:25:58Z"}
