{"icao":"LPFR","metar":"LPFR 171900Z 07004G15KT 020V100 CAVOK 23/16 Q1014","updated":"2025-10-17T19:13:55Z"}
