{"icao":"LPPD","metar":"LPPD 011500Z 21006KT 150V240 9999 FEW014 23/21 Q1021","updated":"2025-10-01T15:17:45Z"}
