{"icao":"KJFK","metar":"KJFK 061751Z 18019G26KT 8SM -RA FEW033 BKN100 OVC180 13/12 A2978 RMK AO2 PK WND 19027/1657 SLP085 P0001 60001 T01330117 10156 20133 58017","updated":"2026-05-06T18:15:27Z"}
