{"icao":"KJFK","metar":"KJFK 120451Z 26023G29KT 10SM BKN055 04/M04 A2993 RMK AO2 PK WND 25034/0439 SLP134 T00441044 400560006 $","updated":"2025-11-12T05:19:08Z"}
