{"icao":"LPPR","metar":"LPPR 251900Z 36004KT 340V040 CAVOK 18/07 Q1018","updated":"2025-09-25T19:14:22Z"}
