{"icao":"LPMR","metar":"LPMR 232100Z 21005KT 9999 SCT009 SCT020 BKN025 13/12 Q1023","updated":"2025-11-23T21:15:55Z"}
