{"icao":"LPMA","metar":"LPMA 191100Z 22024G36KT 190V250 9999 -SHRA BKN013 FEW018CB 13/09 Q0995","updated":"2026-03-19T11:34:20Z"}
