{"icao":"KORD","metar":"KORD 161137Z 30015G22KT 1 1/2SM -SN BLSN BKN016 BKN021 OVC034 M04/M07 A2941 RMK AO2 PK WND 33034/1109 P0000 T10391067 $","updated":"2026-03-16T11:45:19Z"}
