{"icao":"KORD","metar":"KORD 131851Z 25014G21KT 10SM BKN250 08/01 A2953 RMK AO2 SLP005 T00830011 $","updated":"2026-01-13T19:19:04Z"}
