{"icao":"LPPS","metar":"LPPS 090930Z 02015KT 350V060 9999 SCT014 BKN030 20/15 Q1024","updated":"2026-06-09T09:40:28Z"}
