{"icao":"LPMA","metar":"LPMA 181900Z 36006KT 330V040 9999 FEW015 19/13 Q1021","updated":"2025-11-18T19:15:53Z"}
