{"icao":"LPCS","metar":"LPCS 032130Z 32006KT 300V360 9999 FEW012 14/10 Q1016","updated":"2026-05-03T22:39:19Z"}
