{"icao":"LPFL","metar":"LPFL 071800Z 19017G27KT 160V220 9999 SCT015 18/15 Q1025","updated":"2026-01-07T18:31:32Z"}
