{"icao":"KLAX","metar":"KLAX 220253Z 24011KT 10SM FEW010 BKN150 18/14 A2998 RMK AO2 SLP153 T01780144 53007","updated":"2025-10-22T03:10:08Z"}
