{"icao":"LPOV","metar":"LPOV 181300Z 14013KT 090V180 9999 SCT028 21/11 Q1004","updated":"2026-03-18T13:09:08Z"}
