{"icao":"LPMR","metar":"LPMR 071600Z 33018KT CAVOK 21/12 Q1021","updated":"2026-06-07T16:13:32Z"}
