{"icao":"KJFK","metar":"KJFK 141451Z 21009KT 10SM FEW250 23/13 A3000 RMK AO2 SLP160 T02280133 58002","updated":"2026-04-14T15:11:53Z"}
