{"icao":"LPPR","metar":"LPPR 201230Z 21011KT 8000 -RADZ FEW005 BKN009 BKN025 17/16 Q1014","updated":"2025-10-20T12:38:09Z"}
