{"icao":"LPPD","metar":"LPPD 281400Z 23005KT 3000 RADZ BR SCT003 BKN005 14/14 Q1032","updated":"2026-02-28T14:20:43Z"}
