{"icao":"LPMT","metar":"LPMT 230300Z 18002KT CAVOK 06/05 Q1028","updated":"2025-11-23T03:25:59Z"}
