{"icao":"LPPT","metar":"LPPT 141600Z 19007KT 140V280 CAVOK 28/09 Q1015","updated":"2025-10-14T16:22:11Z"}
