{"icao":"LPPT","metar":"LPPT 262100Z 32006KT CAVOK 12/07 Q1025","updated":"2025-11-26T21:16:29Z"}
