{"icao":"LPFR","metar":"LPFR 291700Z 01019KT CAVOK 21/M03 Q1023","updated":"2026-03-29T17:28:21Z"}
