{"icao":"LPFL","metar":"LPFL 182030Z 18018G28KT 150V220 9999 FEW017 16/13 Q1021","updated":"2026-02-18T20:37:47Z"}
