{"icao":"LPST","metar":"LPST 031600Z 05010KT 020V080 CAVOK 19/09 Q1011","updated":"2026-03-03T16:45:02Z"}
