{"icao":"KJFK","metar":"KJFK 191951Z 26017KT 10SM BKN043 BKN055 M01/M07 A2995 RMK AO2 PK WND 25027/1911 SLP141 VIRGA NW-N T10061072 $","updated":"2026-01-19T20:22:42Z"}
