{"icao":"KORD","metar":"KORD 091451Z 16009KT 10SM FEW040 13/04 A3049 RMK AO2 SLP326 T01330044 50005","updated":"2025-10-09T15:29:17Z"}
