{"icao":"LPFR","metar":"LPFR 080700Z 33006KT CAVOK 13/12 Q1020","updated":"2025-11-08T07:15:53Z"}
