{"icao":"LPPR","metar":"LPPR 031700Z 22006KT 180V260 9999 -SHRA SCT025 BKN048 13/09 Q1020","updated":"2025-12-03T17:21:11Z"}
