{"icao":"LPPT","metar":"LPPT 072300Z 32012KT CAVOK 11/08 Q1020","updated":"2026-03-07T23:20:40Z"}
