{"icao":"LPFL","metar":"LPFL 212000Z 19003KT 110V280 9999 FEW023 BKN035 17/09 Q1031","updated":"2025-11-21T20:21:27Z"}
