{"icao":"LPPD","metar":"LPPD 250130Z 25016KT 6000 FEW004 BKN008 16/15 Q1020","updated":"2026-01-25T01:50:46Z"}
