{"icao":"KLAX","metar":"KLAX 101638Z VRB03KT 7SM SCT014 18/13 A2993 RMK AO2 T01830133","updated":"2026-05-10T16:54:50Z"}
