{"icao":"LPPS","metar":"LPPS 241300Z 34014KT 9999 FEW015 17/09 Q1027","updated":"2026-01-24T13:29:44Z"}
