{"icao":"LPBJ","metar":"LPBJ 301000Z 13004KT 090V150 0300 FG NSC 07/07 Q1022","updated":"2025-12-30T10:22:06Z"}
