{"icao":"LPMA","metar":"LPMA 281000Z 22013KT 190V250 9999 SCT015 FEW016TCU 24/18 Q1013","updated":"2025-10-28T10:20:46Z"}
