{"icao":"KLAX","metar":"KLAX 171153Z 09005KT 9SM BKN007 BKN025 14/13 A2996 RMK AO2 SLP144 60003 70016 T01390128 10150 20139 55005 $","updated":"2025-11-17T12:38:56Z"}
