{"icao":"KJFK","metar":"KJFK 091951Z 02009G15KT 10SM FEW060 15/M02 A3043 RMK AO2 SLP304 T01501022","updated":"2025-10-09T20:19:42Z"}
