{"icao":"KJFK","metar":"KJFK 222051Z 05016KT 1 1/2SM -SN BR SCT000 BKN009 OVC025 00/M01 A2992 RMK AO2 PK WND 06026/2040 SLP130 SN SCT000 P0001 60002 T00001011 58033 $","updated":"2026-02-22T21:22:57Z"}
