{"icao":"LPFR","metar":"LPFR 291900Z VRB02KT 9999 FEW030 20/17 Q1015","updated":"2025-09-29T19:14:00Z"}
