{"icao":"LPMA","metar":"LPMA 181430Z 19007KT 9999 FEW014 19/12 Q1025","updated":"2026-02-18T14:41:52Z"}
