{"icao":"KJFK","metar":"KJFK 231451Z 21005KT 10SM SCT250 16/09 A2996 RMK SLP145 T01610089 58007 ","updated":"2026-04-23T15:51:36Z"}
