{"icao":"LPMA","metar":"LPMA 070200Z 35018KT 9999 FEW014 15/10 Q1017","updated":"2026-04-07T02:14:11Z"}
