{"icao":"LPMT","metar":"LPMT 221200Z 23004KT 160V270 9999 FEW020 BKN035 13/09 Q1014","updated":"2025-12-22T12:40:22Z"}
