{"icao":"LPMT","metar":"LPMT 311500Z 36012KT 330V030 CAVOK 29/11 Q1018","updated":"2026-05-31T16:06:17Z"}
