{"icao":"LPMR","metar":"LPMR 130700Z 16004KT CAVOK 13/11 Q1015","updated":"2025-10-13T07:18:22Z"}
