{"icao":"LPCS","metar":"LPCS 260700Z 04005KT CAVOK 10/08 Q1025","updated":"2025-11-26T07:18:12Z"}
