{"icao":"LPMA","metar":"LPMA 071400Z 20013KT 140V240 9999 FEW015 21/13 Q1020","updated":"2026-02-07T14:24:33Z"}
