{"icao":"LPFL","metar":"LPFL 102030Z 20015G26KT 150V240 9999 SCT014 18/14 Q1001","updated":"2026-02-10T20:43:01Z"}
