{"icao":"KJFK","metar":"KJFK 150451Z 19009KT 10SM BKN042 OVC050 06/03 A2942 RMK AO2 SLP962 T00610033 400780039 $","updated":"2026-01-15T05:25:01Z"}
