{"icao":"KJFK","metar":"KJFK 231751Z 26022G31KT 10SM SCT200 BKN240 02/M13 A3012 RMK AO2 PK WND 26033/1729 SLP199 T00221133 10028 20000 58025 $","updated":"2026-01-23T18:31:46Z"}
