{"icao":"LPCS","metar":"LPCS 311000Z 07004KT 030V110 9999 FEW014 11/10 Q1019","updated":"2025-12-31T10:20:53Z"}
