{"icao":"LPAZ","metar":"LPAZ 070830Z 33018KT 9999 SCT035 13/05 Q1029","updated":"2026-04-07T09:00:40Z"}
