{"icao":"LPMT","metar":"LPMT 292200Z 32006KT 9999 FEW015 18/15 Q1013","updated":"2025-10-29T22:17:30Z"}
