{"icao":"KORD","metar":"KORD 141351Z 10005KT 9SM CLR 22/18 A3004 RMK AO2 SLP167 T02170178 $","updated":"2025-09-14T14:13:37Z"}
