{"icao":"LPPR","metar":"LPPR 021030Z 21008KT 190V250 9999 VCSH FEW015 FEW018CB BKN030 10/07 Q0993","updated":"2026-02-02T10:42:26Z"}
