{"icao":"KJFK","metar":"KJFK 210251Z 00000KT 10SM FEW050 SCT250 02/00 A3018 RMK AO2 SLP218 T00170000 58004 $","updated":"2025-11-21T03:09:33Z"}
