{"icao":"LPMA","metar":"LPMA 010200Z 01012KT 330V030 9999 FEW015 17/04 Q1023","updated":"2026-04-01T02:30:20Z"}
