{"icao":"KJFK","metar":"KJFK 191028Z 09004KT 6SM -DZ BR OVC004 09/09 A2977 RMK DZB28 P0000 T00940089 ","updated":"2026-04-19T10:37:37Z"}
