{"icao":"LPPR","metar":"LPPR 241300Z 24006KT 210V300 CAVOK 22/08 Q1021","updated":"2026-03-24T13:09:22Z"}
