{"icao":"LPPS","metar":"LPPS 210100Z 07011KT 030V100 9999 SCT014 23/19 Q1021","updated":"2025-09-21T01:25:04Z"}
