{"icao":"LPFL","metar":"LPFL 061900Z VRB09G22KT 9999 SCT024 18/10 Q1015","updated":"2025-11-06T19:15:03Z"}
