{"icao":"LPHR","metar":"LPHR 221700Z 04012KT 360V070 9999 FEW016 17/10 Q1021","updated":"2026-03-22T17:24:06Z"}
