{"icao":"LPPT","metar":"LPPT 090400Z 31014G25KT 280V350 9999 SCT010 17/15 Q1019","updated":"2025-10-09T04:21:07Z"}
