{"icao":"LPLA","metar":"LPLA 092200Z 18008KT 9999 FEW023 SCT035 14/07 Q1023","updated":"2025-12-09T22:19:13Z"}
