{"icao":"LPFR","metar":"LPFR 221700Z 10007KT CAVOK 20/04 Q1025","updated":"2026-02-22T17:23:39Z"}
