{"icao":"LPFR","metar":"LPFR 081700Z 23008KT 2200 -RA BR SCT005 BKN012 13/12 Q1017","updated":"2026-02-08T17:25:29Z"}
