{"icao":"LPPD","metar":"LPPD 210630Z 28019KT 9999 FEW004 BKN006 16/15 Q1021","updated":"2026-01-21T06:35:00Z"}
