{"icao":"KORD","metar":"KORD 181751Z 27014G26KT 10SM SCT034 SCT250 09/M01 A2989 RMK AO2 PK WND 26027/1741 SLP121 T00891011 10089 20067 51023 $","updated":"2026-04-18T18:50:10Z"}
