{"icao":"KLAX","metar":"KLAX 171353Z 04003KT 10SM FEW280 13/M01 A3004 RMK AO2 SLP171 T01331006","updated":"2026-01-17T14:17:54Z"}
