{"icao":"LPMT","metar":"LPMT 211000Z 26007KT 240V310 9999 FEW030 SCT045 10/06 Q1010","updated":"2025-12-21T10:18:50Z"}
