{"icao":"KJFK","metar":"KJFK 010751Z 22008KT 10SM BKN055 BKN250 24/17 A3002 RMK SLP166 T02390172 ","updated":"2026-07-01T08:11:23Z"}
