{"icao":"LPCS","metar":"LPCS 091100Z 33009KT 290V360 9999 FEW016 15/11 Q1030","updated":"2026-01-09T11:18:11Z"}
