{"icao":"LPBJ","metar":"LPBJ 131500Z 24012KT 9000 -SHRA FEW007 FEW020TCU SCT022 14/10 Q1011","updated":"2026-01-13T15:23:53Z"}
