{"icao":"LPAR","metar":"LPAR 061300Z 01013KT 340V040 9999 FEW025 12/01 Q1024","updated":"2026-01-06T13:36:32Z"}
