{"icao":"LPMA","metar":"LPMA 032300Z 35021G36KT 300V020 9999 BKN015 FEW018CB 15/09 Q1017","updated":"2026-03-03T23:25:51Z"}
