{"icao":"LPMA","metar":"LPMA 121200Z 04008KT 9999 SCT015 24/17 Q1019","updated":"2025-10-12T12:32:37Z"}
