{"icao":"KORD","metar":"KORD 021351Z 32008KT 10SM FEW020 FEW031 FEW250 M08/M14 A2994 RMK AO2 SLP148 T10781139 $","updated":"2026-01-02T14:19:31Z"}
