{"icao":"LPBJ","metar":"LPBJ 041700Z 15017G28KT 9999 FEW035 21/14 Q1015","updated":"2025-11-04T17:13:37Z"}
