{"icao":"LPFR","metar":"LPFR 152000Z 29006KT CAVOK 24/16 Q1018","updated":"2025-09-15T20:18:39Z"}
