{"icao":"LPFR","metar":"LPFR 131430Z 11013KT CAVOK 24/18 Q1017","updated":"2026-06-13T14:58:48Z"}
