{"icao":"KLAX","metar":"KLAX 032053Z 26009KT 10SM FEW100 SCT180 BKN250 19/12 A3003 RMK AO2 SLP168 T01890117 58010","updated":"2026-03-03T21:32:25Z"}
