{"icao":"LPCS","metar":"LPCS 111430Z 24011KT 4500 BR OVC003 15/15 Q1017","updated":"2026-02-11T14:51:56Z"}
