{"icao":"KORD","metar":"KORD 052151Z 29010G21KT 10SM FEW250 12/M06 A3015 RMK AO2 SLP213 T01171056 $","updated":"2026-04-05T22:29:37Z"}
