{"icao":"LPPT","metar":"LPPT 260430Z 25011KT 7000 -DZ FEW004 BKN006 14/14 Q1014","updated":"2026-01-26T04:55:29Z"}
