{"icao":"KORD","metar":"KORD 181309Z 11014KT 10SM -RA BKN010 OVC018 04/03 A2999 RMK AO2 P0000 T00440028","updated":"2025-11-18T13:31:34Z"}
