{"icao":"LPPS","metar":"LPPS 231100Z 02010KT 9999 FEW014 SCT030 21/15 Q1022","updated":"2025-09-23T11:14:09Z"}
