{"icao":"LPMR","metar":"LPMR 262300Z 32002KT CAVOK 15/15 Q1017","updated":"2026-04-26T23:37:14Z"}
