{"icao":"LPCS","metar":"LPCS 191300Z 20009KT 170V230 9999 FEW016 BKN028 21/18 Q1015","updated":"2025-10-19T13:21:26Z"}
