{"icao":"KORD","metar":"KORD 282151Z 06008KT 10SM FEW070 25/12 A3016 RMK AO2 SLP210 T02500117 $","updated":"2025-09-28T22:15:08Z"}
