{"icao":"LPMT","metar":"LPMT 090900Z 33005KT 280V010 9999 BKN015 19/15 Q1020","updated":"2025-10-09T09:18:32Z"}
