{"icao":"LPPS","metar":"LPPS 071700Z 02012KT 340V040 9999 FEW015 SCT030 15/07 Q1024","updated":"2026-03-07T17:20:35Z"}
