{"icao":"KJFK","metar":"KJFK 241951Z 15012KT 10SM FEW160 BKN250 14/06 A2982 RMK SLP097 T01390056 $ ","updated":"2026-04-24T20:45:59Z"}
