{"icao":"KORD","metar":"KORD 041551Z 08009KT 8SM BKN070 OVC250 06/01 A3018 RMK AO2 SLP227 T00610006","updated":"2026-03-04T16:42:35Z"}
