{"icao":"KLAX","metar":"KLAX 150853Z 08005KT 8SM OVC009 17/16 A2991 RMK AO2 RAE18 SLP127 P0000 60005 T01720161 56013 $","updated":"2025-11-15T09:17:07Z"}
