{"icao":"KJFK","metar":"KJFK 041051Z 26007KT 10SM FEW250 14/12 A3021 RMK AO2 SLP231 T01440117","updated":"2025-10-04T11:12:40Z"}
