{"icao":"LPPT","metar":"LPPT 111500Z 21012KT 9999 VCSH SCT008 BKN016 14/13 Q1025","updated":"2026-01-11T15:18:35Z"}
