{"icao":"KORD","metar":"KORD 201951Z 20008KT 7SM OVC016 08/06 A3002 RMK AO2 SLP169 T00830056","updated":"2025-11-20T20:21:26Z"}
