{"icao":"KJFK","metar":"KJFK 281551Z 22009KT 10SM FEW020 FEW085 SCT200 SCT250 23/18 A3008 RMK AO2 SLP185 T02330178","updated":"2025-09-28T16:18:47Z"}
