{"icao":"LPMR","metar":"LPMR 240700Z 04002KT CAVOK 11/05 Q1019","updated":"2026-03-24T07:15:37Z"}
