{"icao":"LPPD","metar":"LPPD 090930Z 22018KT 0400 R30/0750 FG VV001 17/16 Q1013","updated":"2026-02-09T10:02:01Z"}
