{"icao":"LPPT","metar":"LPPT 261930Z 31009KT CAVOK 21/13 Q1014","updated":"2026-04-26T19:44:47Z"}
