{"icao":"LPMT","metar":"LPMT 021500Z 27017KT 9999 FEW030 FEW035CB SCT040 14/07 Q1000","updated":"2026-02-02T15:36:38Z"}
