{"icao":"LPPD","metar":"LPPD 170500Z 24016KT 9999 FEW014 BKN030 18/16 Q1024","updated":"2025-12-17T05:21:46Z"}
