{"icao":"LPAZ","metar":"LPAZ 011800Z 29032G43KT 9999 FEW026 14/09 Q1011","updated":"2026-02-01T18:33:38Z"}
