{"icao":"KLAX","metar":"KLAX 202053Z 25007KT 10SM FEW001 FEW140 SCT160 BKN250 18/14 A3006 RMK AO2 SLP177 T01830139 58017 $","updated":"2026-01-20T21:20:00Z"}
