{"icao":"KORD","metar":"KORD 281751Z 10010KT 10SM OVC032 27/20 A2993 RMK AO2 SLP130 T02670200 10272 20200 53003 $","updated":"2026-06-28T18:03:36Z"}
