{"icao":"KJFK","metar":"KJFK 031251Z 00000KT 3/4SM R04R/4500V5500FT BR OVC003 07/07 A3033 RMK AO2 SFC VIS 1 SLP270 T00670067","updated":"2026-04-03T13:01:18Z"}
