{"icao":"LPLA","metar":"LPLA 220400Z 23014KT 9999 FEW018 23/19 Q1013","updated":"2025-10-22T04:21:10Z"}
