{"icao":"LPFL","metar":"LPFL 021200Z 17011G21KT 140V220 9999 SCT030 19/12 Q1020","updated":"2025-11-02T12:32:50Z"}
