{"icao":"LPPD","metar":"LPPD 222000Z 18007KT 9999 FEW020 SCT035 21/15 Q1022","updated":"2025-09-22T20:19:11Z"}
