{"icao":"LPMA","metar":"LPMA 022000Z 34006KT 300V360 9999 SCT014 FEW016CB 16/12 Q0998","updated":"2026-01-02T20:21:24Z"}
