{"icao":"KORD","metar":"KORD 270351Z 21005KT 10SM CLR 02/M03 A2987 RMK AO2 SLP121 T00221033","updated":"2026-02-27T04:19:01Z"}
