{"icao":"KLAX","metar":"KLAX 132053Z 27010KT 10SM FEW100 SCT140 BKN180 BKN250 25/10 A2995 RMK AO2 SLP141 T02500100 58013","updated":"2026-03-13T21:32:12Z"}
