{"icao":"LPPR","metar":"LPPR 120730Z 24004KT 7000 FEW020 11/09 Q1018","updated":"2026-02-12T07:50:49Z"}
