{"icao":"LPPS","metar":"LPPS 280500Z 06005KT 020V080 9999 SCT015 SCT030 18/11 Q1022","updated":"2025-11-28T05:19:33Z"}
