{"icao":"KJFK","metar":"KJFK 050951Z 25009KT 10SM FEW170 BKN250 09/02 A3016 RMK AO2 SLP213 T00890017 $","updated":"2025-11-05T10:20:47Z"}
