{"icao":"LPBJ","metar":"LPBJ 192000Z 34003KT CAVOK 10/05 Q1028","updated":"2026-02-19T20:30:51Z"}
