{"icao":"KLAX","metar":"KLAX 250653Z 22006KT 10SM FEW012 FEW220 SCT280 16/11 A2989 RMK AO2 SLP118 T01560111 $","updated":"2026-04-25T07:13:43Z"}
