{"icao":"KLAX","metar":"KLAX 210653Z 13003KT 10SM CLR 18/16 A2993 RMK AO2 SLP131 T01830161","updated":"2026-03-21T07:32:02Z"}
