{"icao":"LPMR","metar":"LPMR 221500Z 35018KT CAVOK 19/09 Q1019","updated":"2025-09-22T15:18:54Z"}
