{"icao":"LPFL","metar":"LPFL 251800Z 02003KT 310V110 7000 -RA FEW005 BKN008 16/15 Q1018","updated":"2026-05-25T18:24:28Z"}
