{"icao":"KLAX","metar":"KLAX 210053Z 26008KT 9SM SCT005 BKN200 BKN250 14/13 A3005 RMK AO2 SLP176 T01440128 $","updated":"2026-01-21T01:44:28Z"}
