{"icao":"LPPR","metar":"LPPR 221800Z 34013KT CAVOK 18/10 Q1019","updated":"2025-09-22T18:24:11Z"}
