{"icao":"LPPD","metar":"LPPD 122300Z 32010KT 270V350 9999 FEW025 14/08 Q1024","updated":"2026-02-12T23:27:58Z"}
