{"icao":"LPPI","metar":"LPPI 131000Z 27006KT 240V300 9999 FEW014 SCT018 BKN025 20/17 Q1020","updated":"2026-06-13T10:26:59Z"}
