{"icao":"LPMR","metar":"LPMR 270700Z 16005KT CAVOK 12/07 Q1020","updated":"2025-10-27T07:18:03Z"}
