{"icao":"KJFK","metar":"KJFK 250051Z 02007KT 10SM FEW050 FEW250 02/M06 A3030 RMK AO2 SLP260 T00221056 $","updated":"2025-12-25T01:38:51Z"}
