{"icao":"LPPT","metar":"LPPT 270300Z 36003KT CAVOK 08/06 Q1025","updated":"2025-11-27T03:10:00Z"}
