{"icao":"LPMR","metar":"LPMR 290100Z 19001KT 6000 FEW025 BKN035 10/09 Q1021","updated":"2025-11-29T01:22:22Z"}
