{"icao":"KJFK","metar":"KJFK 120451Z 06013KT 10SM FEW050 BKN090 BKN250 17/10 A3012 RMK AO2 SLP198 T01670100 401940144","updated":"2025-10-12T05:15:48Z"}
