{"icao":"LPFR","metar":"LPFR 242100Z 05006KT 8000 FEW010 14/13 Q1017","updated":"2026-02-24T21:33:15Z"}
