{"icao":"LPPT","metar":"LPPT 061800Z 31011KT 280V340 9999 FEW030 18/09 Q1011","updated":"2026-05-06T18:14:50Z"}
