{"icao":"LPPD","metar":"LPPD 031800Z 20005KT 170V230 9999 FEW016 24/21 Q1024","updated":"2025-10-03T18:24:19Z"}
