{"icao":"LPMT","metar":"LPMT 022100Z 34008KT CAVOK 14/09 Q1021","updated":"2026-04-02T21:36:16Z"}
