{"icao":"LPHR","metar":"LPHR 311500Z 01008KT 310V070 9999 FEW020 SCT035 19/11 Q1011","updated":"2025-10-31T15:18:00Z"}
