{"icao":"LPLA","metar":"LPLA 192100Z 19017G28KT 9999 -RA FEW007 BKN018 17/16 Q1021","updated":"2026-02-19T21:30:33Z"}
