{"icao":"LPAZ","metar":"LPAZ 200930Z 03027G40KT 8000 FEW018 FEW022TCU BKN025 13/11 Q1002","updated":"2026-03-20T09:39:15Z"}
