{"icao":"KORD","metar":"KORD 081451Z 22017G26KT 10SM FEW012 FEW250 06/00 A2988 RMK AO2 PK WND 22026/1449 SLP122 T00610000 58007","updated":"2026-03-08T15:22:54Z"}
