{"icao":"KLAX","metar":"KLAX 141653Z VRB03KT 5SM HZ FEW013 OVC016 21/17 A2991 RMK AO2 SLP126 T02060167 $","updated":"2025-09-14T17:12:43Z"}
