{"icao":"KLAX","metar":"KLAX 170453Z 24008KT 10SM SCT100 21/18 A2991 RMK AO2 SLP127 T02110183","updated":"2025-09-17T05:16:27Z"}
