{"icao":"KJFK","metar":"KJFK 201051Z 24011KT 10SM SCT070 SCT160 SCT250 14/13 A2972 RMK AO2 SLP065 T01440128 $","updated":"2025-10-20T11:16:00Z"}
