{"icao":"KLAX","metar":"KLAX 030953Z 07006KT 10SM FEW011 14/12 A2999 RMK AO2 SLP154 T01390122","updated":"2026-03-03T10:37:48Z"}
