{"icao":"KLAX","metar":"KLAX 102353Z 25009KT 10SM CLR 22/16 A2979 RMK AO2 SLP086 T02220161 10239 20222 58014","updated":"2026-06-11T00:14:50Z"}
