{"icao":"LPPT","metar":"LPPT 130500Z 33006KT CAVOK 17/13 Q1020"}
