{"icao":"LPOV","metar":"LPOV 031700Z 26003KT 9999 FEW008 FEW021TCU 10/09 Q0998 RESHRA","updated":"2026-02-03T17:51:43Z"}
