{"icao":"LPMT","metar":"LPMT 111100Z 33006KT 290V010 CAVOK 24/15 Q1020","updated":"2025-10-11T11:12:51Z"}
