{"icao":"LPBJ","metar":"LPBJ 092300Z 29003KT CAVOK 10/08 Q1020","updated":"2025-11-09T23:16:02Z"}
