{"icao":"LPFL","metar":"LPFL 041100Z 20017G32KT 160V260 9999 VCSH FEW010 SCT014 19/15 Q1020","updated":"2025-12-04T11:18:06Z"}
