{"icao":"KJFK","metar":"KJFK 161251Z 29018G27KT 10SM FEW055 M05/M15 A2983 RMK AO2 PK WND 29033/1156 SLP099 T10501150 $","updated":"2026-01-16T13:37:08Z"}
