{"icao":"LPMR","metar":"LPMR 110900Z 15007KT 3500 -DZ BR SCT008 OVC020 10/10 Q1026","updated":"2026-01-11T10:19:51Z"}
