{"icao":"LPPD","metar":"LPPD 162000Z 34003KT 9999 FEW020 16/12 Q1025","updated":"2025-11-16T20:19:11Z"}
