{"icao":"LPOV","metar":"LPOV 101900Z 36005KT CAVOK 18/13 Q1020","updated":"2025-10-10T19:13:43Z"}
