{"icao":"LPST","metar":"LPST 211600Z 29008KT CAVOK 24/14 Q1021","updated":"2026-05-21T19:55:58Z"}
