{"icao":"KLAX","metar":"KLAX 171853Z 13007KT 10SM SCT022 BKN029 OVC055 18/13 A2993 RMK AO2 SLP133 T01780128 $","updated":"2025-11-17T19:14:58Z"}
