{"icao":"KORD","metar":"KORD 170751Z 32008KT 10SM FEW250 02/M08 A3000 RMK AO2 SLP165 T00221083 $","updated":"2025-11-17T08:27:17Z"}
