{"icao":"KORD","metar":"KORD 150351Z 22010KT 10SM SCT160 BKN210 M16/M21 A3053 RMK AO2 SLP357 T11561211","updated":"2025-12-15T04:39:39Z"}
