{"icao":"LPPD","metar":"LPPD 030900Z 35012KT 320V020 9999 FEW012 BKN020 15/12 Q1008 RESHRA","updated":"2026-01-03T09:19:15Z"}
