{"icao":"LPFR","metar":"LPFR 090200Z 02006KT CAVOK 13/06 Q1017","updated":"2026-04-09T02:08:27Z"}
