{"icao":"LPMA","metar":"LPMA 261900Z 15003KT 110V190 9999 FEW014 BKN033 20/15 Q1019","updated":"2026-05-26T19:20:41Z"}
