{"icao":"LPMA","metar":"LPMA 020800Z 25006KT 220V280 9999 FEW015 21/17 Q1022","updated":"2025-11-02T08:20:22Z"}
