{"icao":"LPLA","metar":"LPLA 142300Z 30012KT 5000 -RADZ BKN007 BKN015 BKN030 14/13 Q1022 RERADZ","updated":"2026-01-14T23:17:07Z"}
