{"icao":"LPMA","metar":"LPMA 101830Z 02012G24KT 340V070 9999 SCT015 15/08 Q1027","updated":"2026-03-10T18:44:39Z"}
