{"icao":"LPLA","metar":"LPLA 230200Z 27012KT 230V310 9000 -RA FEW025 SCT035 13/08 Q1000","updated":"2026-04-23T02:32:02Z"}
