{"icao":"LPOV","metar":"LPOV 052300Z VRB01KT CAVOK 12/12 Q1019","updated":"2025-10-05T23:13:37Z"}
