{"icao":"LPMA","metar":"LPMA 030530Z 35018G29KT 320V020 9999 SCT015 FEW018CB 13/06 Q1016","updated":"2026-03-03T05:48:05Z"}
