{"icao":"KJFK","metar":"KJFK 141951Z 35016KT 10SM OVC019 17/12 A3001 RMK AO2 SLP161 T01670117","updated":"2025-10-14T20:19:32Z"}
