{"icao":"KJFK","metar":"KJFK 261151Z 02006KT 10SM BKN090 BKN250 09/04 A3040 RMK AO2 SLP295 T00940044 10106 20083 53015","updated":"2025-10-26T12:33:46Z"}
