{"icao":"LPPS","metar":"LPPS 250500Z 28010KT 9999 FEW015 16/09 Q1025","updated":"2026-01-25T05:27:24Z"}
