{"icao":"LPHR","metar":"LPHR 100700Z 18022KT 7000 -RA SCT013 BKN030 BKN070 17/16 Q1017","updated":"2025-12-10T07:21:29Z"}
