{"icao":"LPFL","metar":"LPFL 231900Z 23004KT 180V280 9999 FEW025 SCT034 14/06 Q1026","updated":"2026-01-23T19:23:31Z"}
