{"icao":"LPMT","metar":"LPMT 182200Z 35004KT 9999 FEW020 08/05 Q1018","updated":"2026-01-18T22:18:25Z"}
