{"icao":"LPFR","metar":"LPFR 160500Z 02005KT CAVOK 20/16 Q1015","updated":"2025-10-16T05:17:06Z"}
