{"icao":"LPFR","metar":"LPFR 162300Z 33003KT 300V010 9999 FEW025 12/10 Q1030","updated":"2026-02-16T23:27:45Z"}
