{"icao":"LPPR","metar":"LPPR 041100Z 27004KT 200V310 CAVOK 22/13 Q1022","updated":"2026-04-04T11:28:01Z"}
