{"icao":"KLAX","metar":"KLAX 172053Z 15008KT 9SM -RA SCT028 BKN046 OVC060 17/13 A2987 RMK AO2 RAB39 SLP116 P0000 60000 T01720128 56026 $","updated":"2025-11-17T21:17:07Z"}
