{"icao":"LPMA","metar":"LPMA 050430Z 03013KT 330V100 9999 -SHRA BKN015 FEW018CB 15/12 Q1015","updated":"2026-01-05T04:55:58Z"}
