{"icao":"LPCS","metar":"LPCS 141000Z 11004KT 040V140 CAVOK 26/11 Q1017","updated":"2025-10-14T10:18:57Z"}
