{"icao":"LPBJ","metar":"LPBJ 101700Z 31009KT 9999 FEW020 FEW025CB 24/15 Q1011","updated":"2026-04-10T17:46:10Z"}
