{"icao":"LPPR","metar":"LPPR 170230Z 00000KT 9999 FEW020 10/09 Q1017","updated":"2026-05-17T02:56:06Z"}
