{"icao":"KORD","metar":"KORD 230551Z 30009KT 10SM BKN043 07/01 A2997 RMK AO2 SLP152 T00720011 10089 20072 401000072 51004","updated":"2025-10-23T06:27:48Z"}
