{"icao":"LPMA","metar":"LPMA 272330Z 34012KT 290V020 9999 SCT015 16/10 Q1017","updated":"2026-04-27T23:58:01Z"}
