{"icao":"KORD","metar":"KORD 050951Z 19010KT 10SM BKN035 BKN250 M11/M14 A3003 RMK AO2 SLP183 T11111139","updated":"2025-12-05T10:21:09Z"}
