{"icao":"LPPD","metar":"LPPD 092130Z 22021KT 6000 SCT004 BKN009 17/16 Q1012","updated":"2026-02-09T21:37:49Z"}
