{"icao":"LPBJ","metar":"LPBJ 161700Z 32006KT 290V350 CAVOK 25/11 Q1018","updated":"2026-04-16T17:12:40Z"}
