{"icao":"LPBJ","metar":"LPBJ 230800Z 11007KT CAVOK 23/18 Q1014","updated":"2026-06-23T08:33:07Z"}
