{"icao":"KLAX","metar":"KLAX 111112Z 23006KT 9SM FEW008 BKN030 OVC040 15/13 A2998 RMK AO2 T01500128 $","updated":"2026-02-11T11:43:46Z"}
