{"icao":"LPPT","metar":"LPPT 092200Z 34023KT CAVOK 16/11 Q1019 WS R02","updated":"2026-06-09T22:23:02Z"}
