{"icao":"KLAX","metar":"KLAX 142211Z 09012KT 8SM FEW010 BKN024 OVC031 18/16 A2993 RMK AO2 VCSH SW-NW T01780161 $","updated":"2025-11-14T22:17:25Z"}
