{"icao":"LPLA","metar":"LPLA 121900Z 24008KT 200V270 9999 FEW023 BKN030 17/12 Q1030","updated":"2026-03-12T19:41:14Z"}
