{"icao":"LPPS","metar":"LPPS 030700Z 06009KT 9999 SCT015 SCT030 21/18 Q1022","updated":"2025-10-03T07:16:49Z"}
