{"icao":"LPPR","metar":"LPPR 280100Z VRB01KT CAVOK 07/06 Q1024","updated":"2025-11-28T01:22:15Z"}
