{"icao":"LPST","metar":"LPST 170900Z VRB02KT CAVOK 17/14 Q1022","updated":"2025-09-18T04:21:01Z"}
