{"icao":"KORD","metar":"KORD 150551Z 34016G22KT 10SM OVC034 M08/M16 A3000 RMK AO2 SLP169 T10831156 11067 21083 400561083 55000 $","updated":"2026-01-15T06:32:15Z"}
