{"icao":"LPFL","metar":"LPFL 011000Z 33019G33KT 300V360 9999 BKN021 14/09 Q1027","updated":"2026-03-01T10:23:39Z"}
