{"icao":"LPFR","metar":"LPFR 122130Z 08009KT CAVOK 24/13 Q1018","updated":"2026-06-12T21:41:57Z"}
