{"icao":"LPAR","metar":"LPAR 241700Z 23005KT 9999 FEW037 22/13 Q1019","updated":"2026-03-25T04:52:23Z"}
