{"icao":"LPPT","metar":"LPPT 231800Z 22004KT 9999 BKN034 14/12 Q1024","updated":"2025-11-23T18:24:55Z"}
