{"icao":"LPHR","metar":"LPHR 161000Z 29007KT 9999 FEW018 21/17 Q1005","updated":"2025-10-16T10:20:23Z"}
