{"icao":"LPAR","metar":"LPAR 211100Z 02013KT 340V060 CAVOK 14/02 Q1028","updated":"2025-11-21T11:15:48Z"}
