{"icao":"LPMA","metar":"LPMA 271230Z 35014KT 310V020 9999 SCT015 19/07 Q1016","updated":"2025-12-27T12:37:39Z"}
