{"icao":"LPAZ","metar":"LPAZ 190800Z 24012KT 3000 BR FEW001 BKN002 23/22 Q1017","updated":"2025-10-19T08:20:41Z"}
