{"icao":"LPOV","metar":"LPOV 221200Z 22004KT CAVOK 14/05 Q1031","updated":"2025-11-22T12:33:24Z"}
