{"icao":"LPMT","metar":"LPMT 131400Z 30010KT 260V330 9999 BKN040 17/07 Q1022","updated":"2026-04-13T14:46:52Z"}
