{"icao":"LPPT","metar":"LPPT 211700Z 04008KT 010V070 CAVOK 19/10 Q1027","updated":"2026-02-21T17:23:54Z"}
