{"icao":"LPOV","metar":"LPOV 270600Z 18002KT 9000 3000S PRFG FEW007 SCT015 BKN025 10/10 Q1024","updated":"2026-02-27T06:52:20Z"}
