{"icao":"LPBJ","metar":"LPBJ 121400Z 17006KT 120V200 9999 SCT016 BKN032 13/10 Q1019","updated":"2026-01-12T14:24:16Z"}
