{"icao":"LPMR","metar":"LPMR 210600Z 19010KT 4000 -RA BR SCT008 BKN022 12/12 Q1007","updated":"2026-01-21T06:34:46Z"}
