{"icao":"KJFK","metar":"KJFK 301451Z 20011KT 10SM FEW090 BKN250 27/18 A3012 RMK SLP199 T02670183 58003 $ ","updated":"2026-06-30T15:25:19Z"}
