{"icao":"LPCS","metar":"LPCS 011800Z 14002KT 9999 FEW024 12/09 Q1019","updated":"2025-12-01T18:31:37Z"}
