{"icao":"KLAX","metar":"KLAX 180953Z 06006KT 10SM CLR 16/11 A2995 RMK AO2 SLP139 T01610111","updated":"2026-04-18T10:39:11Z"}
