{"icao":"KJFK","metar":"KJFK 202251Z 02008KT 1 1/2SM -DZ BR BKN005 OVC015 02/02 A2962 RMK AO2 SFC VIS 4 SLP031 P0001 T00220017 $","updated":"2026-02-20T23:27:32Z"}
