{"icao":"LPAZ","metar":"LPAZ 071100Z 15006KT 9999 BKN036 15/08 Q1035","updated":"2026-01-07T11:19:14Z"}
