{"icao":"LPPR","metar":"LPPR 021030Z 17016KT 9999 FEW020 SCT040 14/10 Q1010","updated":"2026-03-02T10:41:39Z"}
