{"icao":"LPPT","metar":"LPPT 171530Z 23005KT 9999 FEW022 BKN026 15/10 Q1025","updated":"2026-02-17T15:51:24Z"}
