{"icao":"LPAR","metar":"LPAR 271500Z 36014G24KT 330V040 9999 BKN020 16/12 Q1024","updated":"2026-02-27T15:36:25Z"}
