{"icao":"LPPR","metar":"LPPR 300500Z 35010KT CAVOK 08/05 Q1018","updated":"2025-11-30T05:17:56Z"}
