{"icao":"KJFK","metar":"KJFK 071851Z 32028G38KT 10SM FEW040 BKN060 BKN090 BKN230 M11/M21 A2972 RMK AO2 PK WND 32042/1752 SLP064 T11061211 $","updated":"2026-02-07T19:23:18Z"}
