{"icao":"LPAZ","metar":"LPAZ 031230Z 17009KT 140V200 9999 SCT013 24/21 Q1024","updated":"2025-10-03T12:35:12Z"}
