{"icao":"LPAZ","metar":"LPAZ 051930Z 31013KT 9999 SCT010 20/16 Q1025","updated":"2026-06-05T19:52:21Z"}
