{"icao":"LPMR","metar":"LPMR 241700Z 30009KT CAVOK 18/07 Q1020","updated":"2026-03-24T17:54:32Z"}
