{"icao":"LPPR","metar":"LPPR 060700Z 11011KT CAVOK 19/06 Q1019","updated":"2025-10-06T07:17:53Z"}
