{"icao":"LPPR","metar":"LPPR 201100Z 29008KT 260V320 9999 FEW020 22/17 Q1016","updated":"2026-06-20T11:16:44Z"}
