{"icao":"LPHR","metar":"LPHR 161230Z 19017KT 9999 FEW010 BKN013 BKN025 17/15 Q1025","updated":"2026-02-16T13:00:44Z"}
