{"icao":"LPPD","metar":"LPPD 070430Z VRB02KT 9999 FEW025 SCT040 13/08 Q1034","updated":"2026-01-07T04:39:19Z"}
