{"icao":"LPPR","metar":"LPPR 050930Z 32006KT 290V350 9999 FEW013 SCT025 BKN030 13/10 Q1017","updated":"2026-03-05T09:41:16Z"}
