{"icao":"LPPR","metar":"LPPR 150530Z 24005KT 190V300 4000 -SHRA BR FEW003 BKN008 11/11 Q1028","updated":"2026-02-15T05:55:05Z"}
