{"icao":"LPMT","metar":"LPMT 101400Z 01007KT 9999 SCT030 17/11 Q1020","updated":"2025-12-10T14:21:02Z"}
