{"icao":"KJFK","metar":"KJFK 230051Z 24012KT 10SM BKN250 05/M06 A3007 RMK SLP181 T00501056 $ ","updated":"2026-01-23T01:41:45Z"}
