{"icao":"LPPR","metar":"LPPR 091700Z 36008KT CAVOK 24/18 Q1014","updated":"2026-04-09T17:06:01Z"}
