{"icao":"LPAZ","metar":"LPAZ 311900Z 23013KT 5000 BR FEW005 BKN007 17/17 Q1018","updated":"2026-01-31T19:19:32Z"}
