{"icao":"LPMR","metar":"LPMR 171100Z 34003KT 300V060 9999 SCT018 FEW022CB BKN045 16/13 Q1014","updated":"2025-11-17T11:16:37Z"}
