{"icao":"LPBJ","metar":"LPBJ 051400Z 35014KT CAVOK 09/M02 Q1011","updated":"2026-01-05T14:23:19Z"}
