{"icao":"LPOV","metar":"LPOV 261000Z 01003KT CAVOK 11/07 Q1027","updated":"2025-11-26T10:21:27Z"}
