{"icao":"KJFK","metar":"KJFK 040851Z 15014KT 10SM CLR 10/01 A2995 RMK SLP141 T91999922 53006 ","updated":"2026-05-04T09:15:58Z"}
