{"icao":"LPCS","metar":"LPCS 241900Z 16009KT 8000 FEW008 BKN018 14/12 Q1015","updated":"2026-02-24T20:33:49Z"}
