{"icao":"LPPD","metar":"LPPD 010900Z 25031G42KT 6000 -SHRA FEW008 BKN013 15/12 Q1007","updated":"2026-02-01T09:29:18Z"}
