{"icao":"LPMR","metar":"LPMR 272200Z 33001KT 8000 NSC 15/15 Q1012","updated":"2026-04-27T22:50:46Z"}
