{"icao":"LPFR","metar":"LPFR 281900Z 24008KT 3000 -DZRA BR BKN003 BKN010 14/14 Q1010","updated":"2026-01-28T19:26:57Z"}
