{"icao":"KORD","metar":"KORD 011651Z 20007KT 10SM SCT250 M05/M13 A3025 RMK AO2 SLP255 T10501133","updated":"2026-02-01T17:24:05Z"}
