{"icao":"LPPR","metar":"LPPR 211900Z 22008KT 190V250 7000 BKN003 BKN010 19/18 Q1013","updated":"2025-10-21T19:15:03Z"}
