{"icao":"LPLA","metar":"LPLA 090100Z 29024G36KT 9000 -SHRA FEW020 BKN035 12/08 Q1010","updated":"2025-12-09T01:26:25Z"}
