{"icao":"LPPR","metar":"LPPR 071900Z 30004KT 260V330 9999 FEW025 16/13 Q1016","updated":"2025-11-07T19:15:06Z"}
