{"icao":"LPOV","metar":"LPOV 052200Z 24014KT 9999 FEW020CB 13/09 Q0998","updated":"2026-02-05T22:25:10Z"}
