{"icao":"LPPT","metar":"LPPT 021100Z 10005G21KT 040V150 CAVOK 25/12 Q1021","updated":"2025-10-02T11:13:35Z"}
