{"icao":"KJFK","metar":"KJFK 220851Z 18006KT 10SM FEW037 FEW050 OVC100 14/13 A2972 RMK AO2 RAE24 SLP064 P0001 60008 T01440133 55022","updated":"2025-10-22T09:21:06Z"}
