{"icao":"LPOV","metar":"LPOV 291100Z 17006KT 8000 FEW014 SCT035 13/13 Q1005","updated":"2026-01-29T11:29:46Z"}
