{"icao":"LPHR","metar":"LPHR 252000Z 24027KT 4000 -RA BR SCT007 BKN010 18/16 Q1008","updated":"2026-01-25T20:22:36Z"}
