{"icao":"LPBJ","metar":"LPBJ 271500Z 09006KT 060V120 9999 FEW040 28/06 Q1011","updated":"2026-04-27T15:46:47Z"}
