{"icao":"LPPR","metar":"LPPR 212000Z 35009KT CAVOK 15/10 Q1022","updated":"2025-09-21T20:17:41Z"}
