{"icao":"LPMT","metar":"LPMT 121100Z 25009KT 210V270 9999 FEW020TCU BKN030 20/12 Q1019","updated":"2026-05-12T11:54:09Z"}
