{"icao":"KLAX","metar":"KLAX 262153Z 25007KT 10SM FEW180 FEW250 26/07 A3002 RMK AO2 SLP165 T02610072 $","updated":"2025-11-26T22:18:22Z"}
