{"icao":"LPPR","metar":"LPPR 070400Z 18017KT 3000 -RA BR BKN004 OVC011 14/14 Q1012","updated":"2025-11-07T04:20:49Z"}
