{"icao":"LPPS","metar":"LPPS 121800Z 22011KT 190V250 9999 FEW014 20/15 Q1003","updated":"2025-11-12T18:26:28Z"}
