{"icao":"LPMR","metar":"LPMR 200900Z VRB01KT 9999 FEW020 08/05 Q1021","updated":"2025-11-20T10:20:11Z"}
