{"icao":"LPBJ","metar":"LPBJ 171100Z 31007KT 290V360 9999 FEW008 15/11 Q1015","updated":"2025-11-17T11:16:38Z"}
