{"icao":"LPAZ","metar":"LPAZ 211700Z 06010KT 030V100 9999 VCSH SCT030 22/15 Q1026","updated":"2025-09-21T17:13:49Z"}
