{"icao":"KLAX","metar":"KLAX 251453Z 14005KT 3SM BR OVC004 18/17 A3000 RMK AO2 SLP156 VIS S-W 2 T01830172 53007","updated":"2025-09-25T15:18:46Z"}
