{"icao":"KJFK","metar":"KJFK 111451Z 32017G24KT 10SM FEW045 FEW250 14/01 A3025 RMK AO2 SLP243 T01390006 51021","updated":"2026-04-11T15:32:33Z"}
