{"icao":"LPLA","metar":"LPLA 121700Z 36008KT 330V040 9999 SCT023 SCT045 16/10 Q1027","updated":"2026-05-12T17:09:10Z"}
