{"icao":"LPFL","metar":"LPFL 301630Z 18015G26KT 160V220 2000 +RA SCT007 BKN017 FEW020CB 16/15 Q1011","updated":"2026-01-30T16:37:48Z"}
