{"icao":"LPLA","metar":"LPLA 210100Z 10004KT 070V130 9999 FEW022 SCT040 16/10 Q1032","updated":"2025-11-21T01:23:09Z"}
