{"icao":"LPPR","metar":"LPPR 170530Z 11009KT 080V140 CAVOK 14/06 Q1013","updated":"2026-03-17T05:57:44Z"}
