{"icao":"KJFK","metar":"KJFK 212251Z 20016G25KT 10SM FEW032 BKN075 BKN090 BKN250 03/M02 A3027 RMK PK WND 20029/2212 SLP251 T00281022 $ ","updated":"2026-01-21T23:24:33Z"}
