{"icao":"LPMA","metar":"LPMA 192030Z 35009KT 260V040 9999 SCT016 BKN060 20/14 Q1008","updated":"2026-04-19T20:36:13Z"}
