{"icao":"KJFK","metar":"KJFK 141751Z 17005KT 10SM FEW075 BKN100 BKN230 07/02 A2962 RMK AO2 SLP029 T00720022 10078 20050 58031 $","updated":"2026-01-14T18:32:07Z"}
