{"icao":"LPBJ","metar":"LPBJ 171100Z VRB02KT CAVOK 26/10 Q1018","updated":"2026-04-17T11:51:19Z"}
