{"icao":"LPPR","metar":"LPPR 051500Z 20015KT 9000 -SHRA FEW016 FEW024CB BKN030 15/13 Q1004 RERA","updated":"2025-11-05T15:18:49Z"}
