{"icao":"LPFL","metar":"LPFL 201800Z 22012G25KT 160V280 9999 FEW010 23/18 Q1009","updated":"2025-10-21T01:21:53Z"}
