{"icao":"LPFL","metar":"LPFL 031500Z VRB05KT 9999 VCSH FEW010 SCT015 FEW016TCU 20/15 Q1025","updated":"2025-12-03T15:21:19Z"}
