{"icao":"LPMA","metar":"LPMA 021030Z 21003KT 170V250 9999 FEW015 18/07 Q1015","updated":"2026-02-02T10:43:01Z"}
