{"icao":"KLAX","metar":"KLAX 301353Z VRB04KT 10SM CLR 13/M01 A3021 RMK AO2 SLP227 T01331006 $","updated":"2026-01-30T14:34:44Z"}
