{"icao":"LPAR","metar":"LPAR 171300Z 10005KT 040V170 CAVOK 25/12 Q1018","updated":"2026-04-17T13:16:55Z"}
