{"icao":"LPPT","metar":"LPPT 090930Z 32007KT 260V010 9999 FEW010 12/09 Q1023","updated":"2026-03-09T09:50:29Z"}
