{"icao":"LPPS","metar":"LPPS 241400Z 36008KT 330V050 9999 FEW015 BKN030 23/13 Q1020","updated":"2025-09-24T14:16:22Z"}
