{"icao":"KJFK","metar":"KJFK 240951Z 09003KT 10SM BKN075 BKN110 BKN250 10/06 A2980 RMK SLP090 T01000061 ","updated":"2026-04-24T10:20:10Z"}
