{"icao":"LPMT","metar":"LPMT 110900Z 05005KT CAVOK 11/10 Q1026","updated":"2026-03-11T09:40:50Z"}
