{"icao":"LPCS","metar":"LPCS 010700Z 09008KT 050V120 9999 SCT028 10/08 Q1012","updated":"2026-01-01T07:21:23Z"}
