{"icao":"LPAZ","metar":"LPAZ 212000Z 18010KT 9999 FEW022 BKN048 16/14 Q1026","updated":"2026-02-21T20:23:41Z"}
