{"icao":"LPFR","metar":"LPFR 200900Z 11009KT CAVOK 25/14 Q1020","updated":"2026-05-20T09:29:57Z"}
