{"icao":"LPAZ","metar":"LPAZ 262130Z 28015KT 6000 -DZ BKN003 BKN010 15/14 Q1017","updated":"2026-05-26T21:43:47Z"}
