{"icao":"LPLA","metar":"LPLA 210900Z 18007KT 150V260 9999 SCT023 24/18 Q1013","updated":"2025-10-21T09:19:55Z"}
