{"icao":"KORD","metar":"KORD 102151Z 30013G20KT 10SM BKN190 BKN250 06/M02 A2992 RMK AO2 SLP136 T00611017","updated":"2026-02-10T22:38:16Z"}
