{"icao":"LPMT","metar":"LPMT 051600Z 25021G39KT 5000 SHRA FEW015 FEW022CB BKN028 15/12 Q1010","updated":"2025-11-05T16:24:22Z"}
