{"icao":"KORD","metar":"KORD 282251Z 26004KT 10SM FEW035 FEW250 M02/M11 A3036 RMK AO2 SLP290 T10171106 $","updated":"2025-11-28T23:17:16Z"}
