{"icao":"KLAX","metar":"KLAX 031453Z 07004KT 7SM FEW019 SCT031 BKN120 12/09 A2999 RMK AO2 SLP155 T01170089 53014 $","updated":"2025-12-03T15:21:32Z"}
