{"icao":"LPPS","metar":"LPPS 201100Z 17006KT 100V210 9999 SCT015 24/17 Q1019","updated":"2026-06-20T11:16:47Z"}
