{"icao":"LPHR","metar":"LPHR 290600Z VRB02KT 6000 RADZ FEW002 BKN005 21/21 Q1023","updated":"2025-09-29T06:28:33Z"}
