{"icao":"LPMR","metar":"LPMR 271400Z 18017KT 9999 SCT032 22/15 Q1013","updated":"2025-09-27T14:14:17Z"}
