{"icao":"LPMR","metar":"LPMR 210500Z 19002KT CAVOK 03/02 Q1026","updated":"2025-11-21T05:18:37Z"}
