{"icao":"KORD","metar":"KORD 160451Z 00000KT 10SM FEW250 04/M02 A2994 RMK AO2 SLP142 T00441017","updated":"2026-02-16T04:58:02Z"}
