{"icao":"LPCS","metar":"LPCS 210600Z 25008KT 9999 SCT004 BKN011 20/20 Q1014","updated":"2025-10-21T06:27:19Z"}
