{"icao":"KLAX","metar":"KLAX 061153Z 00000KT 10SM CLR 13/M02 A2995 RMK AO2 SLP141 T01281022 10178 20122 55000","updated":"2026-03-06T12:53:34Z"}
