{"icao":"KJFK","metar":"KJFK 301051Z 31014G19KT 10SM M12/M21 A3016 RMK PK WND 32026/1019 SLP212 T11221206 $ ","updated":"2026-01-30T11:26:56Z"}
