{"icao":"LPLA","metar":"LPLA 121400Z 31025KT 9999 FEW022 SCT024 15/09 Q1016","updated":"2026-01-12T14:24:17Z"}
