{"icao":"LPPI","metar":"LPPI 111400Z 09006KT 040V130 9999 FEW015 BKN020 20/17 Q1025","updated":"2026-06-11T14:34:14Z"}
