{"icao":"LPHR","metar":"LPHR 210000Z 28012KT 9999 SCT008 BKN012 BKN025 17/15 Q1023","updated":"2026-01-21T05:27:18Z"}
