{"icao":"LPLA","metar":"LPLA 162300Z 01003KT 8000 -DZRA FEW003 BKN008 BKN012 15/14 Q1019 REDZRA","updated":"2026-04-16T23:39:01Z"}
