{"icao":"KORD","metar":"KORD 051851Z 33018G27KT 10SM FEW055 16/02 A3002 RMK AO2 PK WND 34027/1848 SLP164 T01560022","updated":"2025-11-05T19:14:39Z"}
