{"icao":"KJFK","metar":"KJFK 301951Z 05010KT 10SM FEW220 BKN250 27/09 A3004 RMK AO2 SLP170 T02670089 $","updated":"2025-09-30T20:18:51Z"}
