{"icao":"LPBJ","metar":"LPBJ 201700Z 01007KT CAVOK 18/07 Q1027","updated":"2026-02-20T17:36:12Z"}
