{"icao":"LPPD","metar":"LPPD 281900Z 01008KT 350V050 9999 FEW016 15/10 Q1027","updated":"2025-11-28T19:14:11Z"}
