{"icao":"LPOV","metar":"LPOV 261600Z 34010KT CAVOK 15/10 Q1025","updated":"2025-11-26T16:24:40Z"}
