{"icao":"KORD","metar":"KORD 240951Z 17005KT 10SM SCT250 02/M01 A3012 RMK AO2 SLP205 T00221006","updated":"2025-11-24T10:21:59Z"}
