{"icao":"LPFL","metar":"LPFL 241000Z 17014KT 9000 -RA FEW008 BKN012 17/15 Q1004","updated":"2026-04-24T10:19:56Z"}
