{"icao":"LPPR","metar":"LPPR 082130Z 35003KT 7000 NSC 13/12 Q1021","updated":"2026-04-08T21:39:30Z"}
