{"icao":"LPFL","metar":"LPFL 251000Z 02009KT 350V050 9999 FEW024 19/12 Q1024","updated":"2025-10-25T10:16:49Z"}
