{"icao":"LPCS","metar":"LPCS 041900Z 24017G28KT 8000 SCT006 BKN010 16/16 Q0998","updated":"2026-02-04T23:26:01Z"}
