{"icao":"LPPS","metar":"LPPS 042100Z 02005KT 9999 FEW015 21/16 Q1026","updated":"2025-10-04T21:13:44Z"}
