{"icao":"LPPT","metar":"LPPT 302100Z 34008KT CAVOK 11/05 Q1021","updated":"2025-11-30T21:16:11Z"}
