{"icao":"LPFR","metar":"LPFR 030830Z 06011KT CAVOK 20/03 Q1021","updated":"2026-04-03T08:52:35Z"}
