{"icao":"LPBJ","metar":"LPBJ 061400Z 31009KT 280V340 9999 FEW030 SCT042 18/08 Q1018","updated":"2025-11-06T14:18:59Z"}
