{"icao":"KORD","metar":"KORD 181551Z 24010G21KT 10SM FEW018 FEW150 BKN250 M13/M19 A3004 RMK AO2 SLP185 T11281189 $","updated":"2026-01-18T16:23:23Z"}
