{"icao":"KORD","metar":"KORD 301451Z 29012KT 2 1/2SM -SN BR OVC018 M02/M04 A3001 RMK AO2 SLP171 DRSN P0000 60000 T10221039 53035 $","updated":"2025-11-30T15:16:52Z"}
