{"icao":"LPPS","metar":"LPPS 271300Z 31017G29KT 9999 SCT015 FEW018TCU 15/10 Q1015","updated":"2025-12-27T13:27:11Z"}
