{"icao":"LPPS","metar":"LPPS 061230Z 03013KT 350V070 9999 FEW015 BKN030 15/06 Q1029","updated":"2026-03-06T12:53:33Z"}
