{"icao":"LPAZ","metar":"LPAZ 290930Z 09011KT 050V120 9999 FEW018 BKN026 15/10 Q1033","updated":"2026-03-29T09:35:16Z"}
