{"icao":"LPFR","metar":"LPFR 072100Z 34006KT 310V020 9999 SCT045 13/11 Q1018","updated":"2026-03-07T21:19:44Z"}
