{"icao":"LPPD","metar":"LPPD 222100Z 29018KT 270V330 9999 FEW025 14/07 Q1019","updated":"2026-01-22T21:21:26Z"}
