{"icao":"LPFR","metar":"LPFR 141400Z 21007KT 9999 -SHRA FEW015 FEW018CB SCT030 17/14 Q1007","updated":"2025-11-14T14:18:06Z"}
