{"icao":"LPMA","metar":"LPMA 180700Z 36012G28KT 260V060 9999 BKN015 FEW018TCU 16/12 Q1015","updated":"2026-01-18T07:19:01Z"}
