{"icao":"LPMR","metar":"LPMR 142100Z 15002KT CAVOK 12/10 Q1017","updated":"2025-12-14T21:16:48Z"}
