{"icao":"LPCS","metar":"LPCS 040900Z 33010KT 290V360 9999 -SHRA FEW015 FEW020TCU SCT025 16/10 Q1017","updated":"2026-05-04T09:15:54Z"}
