{"icao":"LPPD","metar":"LPPD 310700Z 26011KT 230V290 9999 FEW010 BKN030 18/16 Q1008","updated":"2025-10-31T07:17:04Z"}
