{"icao":"LPPS","metar":"LPPS 122100Z 01026G42KT 9999 FEW014 FEW018CB 15/08 Q1021","updated":"2025-12-12T21:17:45Z"}
