{"icao":"LPCS","metar":"LPCS 202130Z 01010KT CAVOK 20/11 Q1021","updated":"2026-05-20T21:51:20Z"}
