{"icao":"LPBJ","metar":"LPBJ 282100Z 25005KT CAVOK 23/10 Q1019","updated":"2026-05-28T21:06:59Z"}
