{"icao":"LPPR","metar":"LPPR 271230Z 03004KT 320V090 CAVOK 14/08 Q1025","updated":"2025-11-27T12:39:36Z"}
