{"icao":"LPCR","metar":"LPCR 151300Z 25010KT 7000 FEW003 OVC005 20/19 Q1016","updated":"2026-06-15T13:11:12Z"}
