{"icao":"LPFL","metar":"LPFL 271230Z 02014KT 350V050 9999 SCT020 SCT045 18/13 Q1024","updated":"2025-10-27T12:39:18Z"}
