{"icao":"LPFR","metar":"LPFR 261430Z 23008KT 190V260 9999 FEW025 21/16 Q1015","updated":"2026-04-26T14:41:11Z"}
