{"icao":"LPAR","metar":"LPAR 301100Z 23011KT 9999 SCT020 21/13 Q1014","updated":"2025-10-30T11:15:30Z"}
