{"icao":"LPMT","metar":"LPMT 131500Z 17016G26KT 7000 SCT015 BKN020 BKN030 18/15 Q0996","updated":"2025-11-13T15:21:15Z"}
