{"icao":"LPPR","metar":"LPPR 212200Z 04006KT 350V060 CAVOK 06/03 Q1031","updated":"2025-11-21T22:17:48Z"}
