{"icao":"LPBJ","metar":"LPBJ 191300Z 16007KT 130V190 CAVOK 26/08 Q1015","updated":"2026-04-19T14:02:29Z"}
