{"icao":"LPFR","metar":"LPFR 211730Z 08008KT CAVOK 26/10 Q1019","updated":"2026-05-21T17:56:38Z"}
