{"icao":"LPOV","metar":"LPOV 200300Z 23004KT 190V280 3000 BR BKN008 BKN015 17/17 Q1019","updated":"2025-09-20T03:25:55Z"}
