{"icao":"LPMT","metar":"LPMT 082300Z 25009KT 7000 -RADZ SCT002 BKN005 BKN012 14/14 Q1011","updated":"2026-02-08T23:29:20Z"}
