{"icao":"KORD","metar":"KORD 270051Z 09007KT 10SM FEW250 12/05 A3030 RMK AO2 SLP262 T01170050 $","updated":"2025-10-27T01:28:32Z"}
