{"icao":"LPBJ","metar":"LPBJ 010600Z 11004KT CAVOK 06/05 Q1021","updated":"2026-03-01T06:43:28Z"}
