{"icao":"LPMA","metar":"LPMA 171500Z 01011KT 330V030 9999 BKN015 19/13 Q1024","updated":"2025-12-17T15:22:16Z"}
