{"icao":"LPFL","metar":"LPFL 291330Z 26006KT 190V320 9999 FEW016 FEW020TCU SCT036 15/09 Q1005","updated":"2026-04-29T13:53:08Z"}
