{"icao":"LPAZ","metar":"LPAZ 161630Z 16013KT 9999 FEW016 BKN033 17/14 Q1026","updated":"2026-02-16T16:41:15Z"}
