{"icao":"LPHR","metar":"LPHR 031630Z 26027KT 7000 -RA SCT004 BKN008 17/16 Q1001","updated":"2026-02-03T16:52:10Z"}
