{"icao":"KLAX","metar":"KLAX 270453Z 03004KT 10SM CLR 16/M03 A3024 RMK AO2 SLP239 T01611033 $","updated":"2026-01-27T05:26:02Z"}
