{"icao":"LPCS","metar":"LPCS 150700Z 21015KT 9999 -RA SCT016 FEW022TCU 17/14 Q1006","updated":"2025-11-15T07:15:32Z"}
