{"icao":"LPHR","metar":"LPHR 271100Z 06014KT 9999 FEW030 BKN047 21/12 Q1025","updated":"2025-09-27T11:12:39Z"}
