{"icao":"KJFK","metar":"KJFK 200951Z 08007G17KT 10SM FEW021 BKN065 BKN250 03/01 A2996 RMK AO2 PRESRR SLP146 T00280006 $","updated":"2026-02-20T10:36:26Z"}
