{"icao":"LPCS","metar":"LPCS 221600Z 21003KT 180V250 CAVOK 15/03 Q1028","updated":"2025-11-22T16:20:49Z"}
