{"icao":"LPPR","metar":"LPPR 131700Z 32005KT 290V350 CAVOK 21/12 Q1016","updated":"2025-10-13T17:15:17Z"}
