{"icao":"LPAZ","metar":"LPAZ 231400Z 16012KT 130V190 9999 FEW010 FEW020CB BKN040 21/19 Q1017","updated":"2025-10-23T14:18:44Z"}
