{"icao":"LPBJ","metar":"LPBJ 222100Z 12002KT 090V150 CAVOK 08/01 Q1028","updated":"2025-11-22T21:15:30Z"}
