{"icao":"LPST","metar":"LPST 180900Z 16019KT 8000 -SHRA BKN008 BKN012 FEW015CB 14/13 Q1003 RESHRA","updated":"2026-03-18T09:53:25Z"}
