{"icao":"KJFK","metar":"KJFK 222151Z 13007KT 10SM SCT150 BKN250 11/08 A2967 RMK AO2 SLP048 T01060078 $","updated":"2026-03-22T22:24:08Z"}
