{"icao":"KORD","metar":"KORD 190751Z 18010KT 10SM FEW100 OVC250 19/16 A2987 RMK AO2 SLP111 T01940161","updated":"2026-05-19T08:33:57Z"}
