{"icao":"LPMR","metar":"LPMR 250700Z 20007KT 7000 -TSRA FEW012 SCT022CB BKN028 19/18 Q1012","updated":"2025-10-25T07:16:01Z"}
