{"icao":"LPPD","metar":"LPPD 031830Z 24021KT 5000 BR FEW006 BKN012 17/16 Q1004","updated":"2026-02-03T18:55:17Z"}
