{"icao":"KJFK","metar":"KJFK 032151Z 33018G25KT 10SM FEW080 16/M06 A2984 RMK PK WND 310031/2057 SLP105 T01561061 ","updated":"2026-05-03T22:39:37Z"}
