{"icao":"LPLA","metar":"LPLA 222300Z 21011KT 9999 FEW018 22/19 Q1013","updated":"2025-10-22T23:14:53Z"}
