{"icao":"KJFK","metar":"KJFK 132051Z 17018G29KT 10SM FEW050 BKN110 OVC250 04/M03 A2994 RMK AO2 PK WND 17029/2019 SLP138 T00391033 56041","updated":"2026-03-13T21:32:12Z"}
