{"icao":"LPMA","metar":"LPMA 061800Z 36011KT 320V020 9999 SCT015 SCT030 17/10 Q1017","updated":"2026-05-06T18:15:25Z"}
