{"icao":"LPPR","metar":"LPPR 141230Z 22005KT 170V320 2400 DZRA BR BKN003 BKN008 12/12 Q1015","updated":"2026-03-14T12:49:27Z"}
