{"icao":"KORD","metar":"KORD 071951Z 22014G28KT 10SM SCT049 BKN065 BKN250 15/03 A2984 RMK AO2 PK WND 23030/1926 SLP105 T01500028","updated":"2026-05-07T20:13:00Z"}
