{"icao":"LPMT","metar":"LPMT 202100Z 22009KT 9999 BKN007 BKN020 20/18 Q1015","updated":"2025-10-20T21:16:23Z"}
