{"icao":"LPPT","metar":"LPPT 022300Z 32007KT CAVOK 14/09 Q1025","updated":"2025-11-02T23:15:31Z"}
