{"icao":"KORD","metar":"KORD 041951Z 26015G26KT 10SM BKN018 BKN110 BKN250 09/04 A2986 RMK AO2 PK WND 27027/1938 SLP115 T00890044 $","updated":"2026-04-04T20:30:19Z"}
