{"icao":"LPMR","metar":"LPMR 240600Z 24008KT 210V270 6000 OVC005 20/19 Q1016","updated":"2025-10-24T07:17:41Z"}
