{"icao":"LPCS","metar":"LPCS 171430Z 02007KT 340V070 CAVOK 25/13 Q1017","updated":"2026-04-17T14:53:56Z"}
