{"icao":"LPPS","metar":"LPPS 160730Z 03010KT 360V080 9999 FEW014 BKN030 16/12 Q1023","updated":"2026-05-16T08:02:39Z"}
