{"icao":"KORD","metar":"KORD 261451Z 04008KT 10SM -RA FEW050 BKN120 OVC190 18/13 A3009 RMK AO2 RAB43 SLP189 P0000 60000 T01780128 51008","updated":"2026-06-26T15:22:33Z"}
