{"icao":"KORD","metar":"KORD 301451Z 25010KT 10SM FEW015 FEW075 BKN250 M11/M16 A3021 RMK AO2 SLP242 T11111161 58005","updated":"2025-12-30T15:21:33Z"}
