{"icao":"LPMA","metar":"LPMA 220330Z 30005KT 250V330 9999 SCT013 17/14 Q1018","updated":"2026-01-22T03:46:46Z"}
