{"icao":"LPPT","metar":"LPPT 242000Z 22009KT 9999 FEW016 SCT018 14/12 Q1015","updated":"2026-02-24T20:33:48Z"}
