{"icao":"LPPD","metar":"LPPD 100500Z 21011KT 4000 SHRA BKN005 BKN010 FEW012TCU 20/19 Q1022","updated":"2025-10-10T05:17:33Z"}
