{"icao":"KLAX","metar":"KLAX 110053Z 28007KT 10SM CLR 19/09 A2999 RMK AO2 SLP154 T01940094 $","updated":"2025-12-11T01:38:32Z"}
