{"icao":"KLAX","metar":"KLAX 140653Z 10008G19KT 10SM FEW011 FEW038 BKN110 OVC150 18/17 A3002 RMK AO2 SLP165 T01830167","updated":"2025-11-14T07:18:07Z"}
