{"icao":"LPCS","metar":"LPCS 311400Z 18013KT 4000 -RADZ BR SCT004 BKN012 FEW016TCU 19/19 Q1012","updated":"2025-10-31T14:18:06Z"}
