{"icao":"KORD","metar":"KORD 271151Z 00000KT 10SM FEW230 SCT300 19/13 A2998 RMK AO2 SLP147 T01940128 10194 20156 53003","updated":"2026-05-27T12:19:19Z"}
