{"icao":"LPHR","metar":"LPHR 011600Z 33005KT 300V050 9999 FEW020 BKN040 16/09 Q1029","updated":"2025-12-01T16:27:13Z"}
