{"icao":"KJFK","metar":"KJFK 270451Z 01008KT 10SM SCT120 BKN250 02/M05 A2996 RMK AO2 SLP146 T00171050 400671011 $","updated":"2026-02-27T05:52:00Z"}
