{"icao":"KORD","metar":"KORD 042151Z 00000KT 10SM BKN027 M03/M10 A3034 RMK AO2 SLP284 T10281100","updated":"2026-02-04T22:26:35Z"}
