{"icao":"LPCS","metar":"LPCS 191900Z 34012KT 9999 FEW016 11/06 Q1020","updated":"2025-12-20T05:18:33Z"}
