{"icao":"KJFK","metar":"KJFK 071951Z 32025G38KT 10SM FEW032 SCT045 BKN060 BKN250 M11/M22 A2976 RMK AO2 PK WND 33051/1900 SLP077 T11061217 $","updated":"2026-02-07T20:25:09Z"}
