{"icao":"LPOV","metar":"LPOV 221500Z 20011KT 160V230 9000 FEW006 BKN014 20/19 Q1015","updated":"2025-10-22T15:18:23Z"}
