{"icao":"LPCS","metar":"LPCS 232100Z 01016KT CAVOK 18/07 Q1018","updated":"2025-09-23T21:14:58Z"}
