{"icao":"LPCS","metar":"LPCS 221900Z 36019KT CAVOK 16/09 Q1018","updated":"2025-09-22T19:14:04Z"}
