{"icao":"LPCS","metar":"LPCS 110830Z 36029KT 9999 FEW013 15/11 Q1013","updated":"2026-04-11T08:41:21Z"}
