{"icao":"LPFL","metar":"LPFL 211930Z 11005KT 080V150 CAVOK 21/15 Q1023","updated":"2026-06-22T00:10:51Z"}
