{"icao":"LPFR","metar":"LPFR 132300Z 24003KT CAVOK 20/17 Q1015","updated":"2025-10-13T23:15:26Z"}
