{"icao":"LPPD","metar":"LPPD 280430Z 25024KT 5000 BR SCT003 BKN006 16/15 Q1006","updated":"2026-01-28T04:42:34Z"}
