{"icao":"KJFK","metar":"KJFK 220351Z 01005KT 10SM BKN040 OVC060 06/M02 A3012 RMK AO2 SLP198 T00561017 $","updated":"2026-02-22T04:47:22Z"}
