{"icao":"LPMA","metar":"LPMA 111900Z 31003KT 260V360 9999 SCT015 17/12 Q1020","updated":"2025-12-11T19:19:10Z"}
