{"icao":"LPMA","metar":"LPMA 300400Z 34005KT 9999 FEW015 17/14 Q1022","updated":"2026-01-30T04:10:18Z"}
