{"icao":"LPHR","metar":"LPHR 031630Z 07020KT 040V130 9999 SCT020 19/11 Q1022","updated":"2026-05-03T16:49:30Z"}
