{"icao":"LPMA","metar":"LPMA 161230Z 34008G19KT 280V060 9999 FEW015 18/09 Q1026","updated":"2026-01-16T12:42:12Z"}
