{"icao":"LPAR","metar":"LPAR 201100Z 05003KT 330V120 CAVOK 22/11 Q1012","updated":"2026-04-20T12:02:59Z"}
