{"icao":"LPST","metar":"LPST 281500Z 09006KT 030V130 2000 -RA BR SCT007 BKN012 FEW015CB 16/15 Q1011 RETS RESHRA","updated":"2025-10-28T15:20:13Z"}
