{"icao":"LPPR","metar":"LPPR 121930Z 31005KT 280V340 9999 FEW014 FEW020CB 16/13 Q1019","updated":"2026-05-12T19:49:06Z"}
