{"icao":"KJFK","metar":"KJFK 201551Z 27017G24KT 10SM FEW047 M07/M17 A3033 RMK AO2 SLP271 T10721172 $","updated":"2026-01-20T16:34:47Z"}
