{"icao":"LPFR","metar":"LPFR 210730Z 08011KT 070V130 9999 FEW025 20/11 Q1005","updated":"2026-04-21T07:47:50Z"}
