{"icao":"LPPD","metar":"LPPD 122000Z 33003KT 300V010 9999 FEW025 14/09 Q1033","updated":"2025-12-12T20:21:22Z"}
