{"icao":"KJFK","metar":"KJFK 211751Z 28012G21KT 10SM SCT180 BKN250 08/M06 A3003 RMK AO2 SLP167 T00781056 10089 20017 53002 $","updated":"2025-12-21T18:26:37Z"}
