{"icao":"KORD","metar":"KORD 211151Z 22009KT 10SM FEW110 08/06 A2972 RMK AO2 SLP066 70001 T00780061 10111 20078 58005","updated":"2025-10-21T12:39:16Z"}
