{"icao":"LPFR","metar":"LPFR 140130Z 02006KT CAVOK 10/09 Q1016","updated":"2026-01-14T01:46:59Z"}
