{"icao":"LPMT","metar":"LPMT 232200Z 19004KT CAVOK 13/12 Q1022","updated":"2026-02-23T22:39:02Z"}
