{"icao":"LPAZ","metar":"LPAZ 220900Z 27025KT 9000 SCT009 BKN023 17/15 Q1017","updated":"2026-01-22T09:31:15Z"}
