{"icao":"LPMR","metar":"LPMR 260400Z 14002KT 3500 BR SCT005 14/14 Q1021","updated":"2026-05-26T05:02:04Z"}
