{"icao":"KORD","metar":"KORD 302251Z 22018G27KT 10SM FEW060 BKN300 27/12 A2972 RMK AO2 PK WND 24029/2234 SLP061 T02670117","updated":"2026-03-30T23:33:48Z"}
