{"icao":"LPMA","metar":"LPMA 050200Z 35013KT 320V020 9999 FEW015 SCT070 20/M03 Q1017","updated":"2026-04-05T02:25:37Z"}
