{"icao":"KORD","metar":"KORD 122351Z 20008G17KT 10SM FEW085 BKN100 BKN250 19/11 A2979 RMK AO2 SLP089 60003 T01890111 10222 20117 58015 $","updated":"2026-05-13T00:08:57Z"}
