{"icao":"KJFK","metar":"KJFK 150951Z 04005KT 10SM SCT110 BKN250 18/17 A3016 RMK AO2 SLP213 T01780167 $","updated":"2025-09-15T10:18:32Z"}
