{"icao":"LPPD","metar":"LPPD 041830Z 25024KT 8000 FEW013 SCT030 16/12 Q0994","updated":"2026-02-04T18:49:11Z"}
