{"icao":"LPPS","metar":"LPPS 281700Z 04014KT 360V080 9999 SCT015 SCT030 15/10 Q1026","updated":"2026-02-28T17:19:48Z"}
