{"icao":"LPPR","metar":"LPPR 112030Z 29010G20KT 250V320 9999 SCT015 BKN025 15/11 Q1014","updated":"2026-02-11T20:37:12Z"}
