{"icao":"LPPR","metar":"LPPR 182100Z VRB02G12KT CAVOK 07/06 Q1017","updated":"2026-01-18T21:17:32Z"}
