{"icao":"LPAZ","metar":"LPAZ 061800Z 29015KT 9000 FEW011 21/19 Q1015","updated":"2025-11-06T18:27:57Z"}
