{"icao":"KORD","metar":"KORD 101851Z 30014G24KT 10SM BKN021 BKN032 BKN070 02/M02 A2991 RMK AO2 PK WND 28026/1839 SNE32 SLP132 P0000 T00221017","updated":"2026-01-10T19:14:57Z"}
