{"icao":"KJFK","metar":"KJFK 292151Z 12004KT 10SM BKN230 23/11 A3018 RMK AO2 SLP220 T02280111 $","updated":"2025-09-29T22:14:52Z"}
