{"icao":"LPAZ","metar":"LPAZ 181200Z 25010KT 4500 -RA BR FEW003 SCT006 20/19 Q1017","updated":"2026-06-18T12:24:06Z"}
