{"icao":"KORD","metar":"KORD 241251Z 19008KT 10SM BKN120 BKN250 00/M08 A3037 RMK AO2 SLP290 T00001083","updated":"2026-03-24T13:09:56Z"}
