{"icao":"LPBJ","metar":"LPBJ 110200Z 23011KT 4000 -RADZ BR OVC003 15/15 Q1019 RERADZ","updated":"2026-02-11T02:11:54Z"}
