{"icao":"LPOV","metar":"LPOV 231500Z 26007KT 230V290 8000 -DZ BKN008 SCT012 BKN016 15/14 Q1022","updated":"2025-11-23T15:16:35Z"}
