{"icao":"LPPR","metar":"LPPR 031530Z 08007KT 030V110 9999 FEW030 21/08 Q1014","updated":"2026-03-03T15:46:31Z"}
