{"icao":"LPAZ","metar":"LPAZ 111000Z 21004KT 180V240 9999 SCT010 BKN036 20/17 Q1026","updated":"2026-06-11T10:20:36Z"}
