{"icao":"KORD","metar":"KORD 190651Z 24005KT 10SM CLR 04/M03 A3007 RMK AO2 SLP185 T00391033 $","updated":"2026-04-19T07:17:41Z"}
