{"icao":"KORD","metar":"KORD 120151Z 30009KT 10SM FEW031 02/M03 A3011 RMK AO2 SLP201 T00171028","updated":"2026-03-12T02:01:08Z"}
