{"icao":"KJFK","metar":"KJFK 200951Z 28014KT 10SM FEW250 M07/M16 A3021 RMK AO2 SLP228 T10671156 $","updated":"2026-01-20T10:26:45Z"}
