{"icao":"LPPR","metar":"LPPR 131100Z 15021KT 9999 FEW025 SCT037 17/13 Q1000","updated":"2025-11-13T11:16:51Z"}
