{"icao":"LPPT","metar":"LPPT 020600Z 15010KT 6000 RA SCT004 BKN008 13/13 Q1002","updated":"2026-01-02T06:31:23Z"}
