{"icao":"LPPS","metar":"LPPS 232300Z 30016KT 9000 -RADZ SCT012 BKN030 16/15 Q1018","updated":"2025-12-23T23:18:12Z"}
