{"icao":"LPPD","metar":"LPPD 240900Z 21005G15KT 180V320 9999 FEW006 SCT010 17/16 Q1024","updated":"2026-05-24T09:23:10Z"}
