{"icao":"KORD","metar":"KORD 281851Z 21011G18KT 170V240 10SM FEW180 SCT250 06/M09 A3052 RMK AO2 SLP342 T00611089","updated":"2026-03-28T19:28:56Z"}
