{"icao":"KJFK","metar":"KJFK 032051Z 04006KT 2 1/2SM -RA BR BKN006 OVC011 02/02 A3037 RMK AO2 SFC VIS 4 SLP285 P0007 60015 T00220017 56033","updated":"2026-03-03T21:32:25Z"}
