{"icao":"LPMT","metar":"LPMT 020800Z 15015KT 5000 RA BR FEW009 SCT015 BKN020 14/14 Q1002","updated":"2026-01-02T08:28:04Z"}
