{"icao":"LPMA","metar":"LPMA 072200Z 36007KT 9999 FEW015 15/08 Q1034","updated":"2026-01-07T22:19:53Z"}
