{"icao":"LPOV","metar":"LPOV 210600Z 03002KT 9999 MIFG NSC 10/09 Q1021","updated":"2025-09-21T06:24:27Z"}
