{"icao":"LPPR","metar":"LPPR 050530Z 22014KT 7000 -RA BKN011 BKN015 14/13 Q0984","updated":"2026-02-05T05:54:16Z"}
