{"icao":"KJFK","metar":"KJFK 301651Z 01018G34KT 10SM BKN043 BKN250 15/04 A2992 RMK AO2 PK WND 36038/1637 SLP131 T01500039 $","updated":"2026-05-30T17:02:19Z"}
