{"icao":"KLAX","metar":"KLAX 301853Z 02006KT 10SM SCT080 BKN100 OVC120 18/06 A3013 RMK AO2 RAE20 SLP201 P0000 T01780056 $","updated":"2025-12-30T19:16:39Z"}
