{"icao":"KORD","metar":"KORD 081451Z 02008KT 10SM FEW013 BKN032 BKN045 07/04 A2987 RMK AO2 DZE24 SLP116 P0000 60000 T00670044 51022 $","updated":"2025-11-08T15:16:23Z"}
