{"icao":"LPPD","metar":"LPPD 020500Z 34020G31KT 9999 BKN016 FEW022CB 14/10 Q1002","updated":"2026-01-02T05:24:23Z"}
