{"icao":"LPMR","metar":"LPMR 072300Z 33004KT 9999 FEW026 14/13 Q1018","updated":"2025-11-07T23:15:51Z"}
