{"icao":"LPOV","metar":"LPOV 121900Z 15010KT 130V190 9999 FEW016 SCT030 16/13 Q1004","updated":"2025-11-12T19:15:29Z"}
