{"icao":"LPPT","metar":"LPPT 141800Z 32013KT CAVOK 24/16 Q1021","updated":"2025-09-14T18:20:59Z"}
