{"icao":"LPFR","metar":"LPFR 090500Z VRB01KT CAVOK 12/09 Q1020","updated":"2025-11-09T05:16:49Z"}
