{"icao":"LPAR","metar":"LPAR 191700Z 33008KT 300V360 9999 FEW025 13/09 Q1020","updated":"2026-01-20T08:30:22Z"}
