{"icao":"LPMA","metar":"LPMA 070700Z 01012G23KT 340V040 9999 BKN016 14/05 Q1024","updated":"2026-03-07T07:27:29Z"}
