{"icao":"LPFL","metar":"LPFL 120900Z 33018G34KT 300V360 9999 SCT025 SCT040 14/06 Q1016","updated":"2026-01-12T09:31:52Z"}
