{"icao":"LPPT","metar":"LPPT 241400Z 06008KT 030V090 CAVOK 27/02 Q1016","updated":"2025-09-24T14:15:46Z"}
