{"icao":"LPFR","metar":"LPFR 030700Z 02005KT CAVOK 19/13 Q1020","updated":"2025-10-03T07:16:46Z"}
