{"icao":"LPMA","metar":"LPMA 092000Z 03012KT 9999 SCT016 22/16 Q1024","updated":"2025-10-09T20:19:41Z"}
