{"icao":"LPOV","metar":"LPOV 281100Z 02014KT 340V060 9999 FEW045 22/16 Q1012","updated":"2025-09-28T11:12:56Z"}
