{"icao":"KJFK","metar":"KJFK 142251Z 32021G33KT 8SM BKN055 M04/M12 A3002 RMK AO2 PK WND 32033/2248 SLP166 DRSN T10441117 $","updated":"2025-12-14T23:17:28Z"}
