{"icao":"LPMT","metar":"LPMT 270700Z 09006KT CAVOK 21/12 Q1018","updated":"2026-05-27T08:01:55Z"}
