{"icao":"LPMR","metar":"LPMR 100800Z 09002KT 050V130 CAVOK 17/11 Q1021","updated":"2025-10-10T08:23:03Z"}
