{"icao":"LPHR","metar":"LPHR 070030Z 28024KT 9999 VCSH SCT015 BKN028 16/13 Q1010","updated":"2026-02-07T04:07:28Z"}
