{"icao":"KJFK","metar":"KJFK 150851Z 04004KT 10SM BKN140 BKN250 M01/M03 A3005 RMK AO2 SLP174 T10111033 56012 $","updated":"2026-02-15T09:29:56Z"}
