{"icao":"KLAX","metar":"KLAX 140109Z 20006KT 10SM BKN024 BKN029 BKN042 19/13 A2975 RMK AO2 T01890128 $","updated":"2025-10-14T01:18:50Z"}
