{"icao":"LPPT","metar":"LPPT 061130Z 08005KT 010V140 9999 FEW040 20/10 Q1016","updated":"2026-04-06T11:47:21Z"}
