{"icao":"LPPT","metar":"LPPT 050130Z 22016KT 3000 RADZ BKN003 14/14 Q0994","updated":"2026-02-05T01:59:09Z"}
