{"icao":"LPFL","metar":"LPFL 120830Z 22004KT 150V270 9999 -DZ FEW007 SCT012 BKN030 17/13 Q1028","updated":"2026-04-12T08:46:37Z"}
