{"icao":"LPMT","metar":"LPMT 071400Z 01007KT 330V040 9999 FEW025 SCT040 15/11 Q1025","updated":"2026-01-07T14:22:37Z"}
