{"icao":"LPOV","metar":"LPOV 080800Z 17003KT CAVOK 08/07 Q1021","updated":"2025-11-08T08:21:23Z"}
