{"icao":"LPPR","metar":"LPPR 040330Z 06004KT CAVOK 14/09 Q1002","updated":"2026-01-04T03:49:50Z"}
