{"icao":"LPMT","metar":"LPMT 281800Z 23004KT 150V280 8000 -RA FEW008 SCT020 FEW022CB BKN028 17/17 Q1010 RETSRA","updated":"2025-10-28T18:28:02Z"}
