{"icao":"LPPR","metar":"LPPR 040130Z 00000KT CAVOK 09/08 Q1022","updated":"2026-04-04T02:03:34Z"}
