{"icao":"LPCS","metar":"LPCS 212000Z 31007KT 280V340 9999 FEW012 BKN025 15/11 Q1008","updated":"2026-04-22T05:24:22Z"}
