{"icao":"KJFK","metar":"KJFK 190851Z 17018G26KT 10SM -RA SCT038 BKN055 BKN080 12/11 A2979 RMK AO2 PK WND 17031/0803 SLP088 P0003 60004 T01220106 58047","updated":"2025-12-19T09:23:35Z"}
