{"icao":"LPST","metar":"LPST 101600Z 26016KT 0500 -DZ FG BKN002 BKN010 15/15 Q1016","updated":"2026-02-10T16:08:43Z"}
