{"icao":"LPOV","metar":"LPOV 151400Z 35018KT CAVOK 16/11 Q1020","updated":"2026-03-15T14:28:30Z"}
