{"icao":"LPMA","metar":"LPMA 220200Z 28006KT 9999 SCT015 14/08 Q1013","updated":"2026-04-22T02:29:02Z"}
