{"icao":"LPPD","metar":"LPPD 212200Z 01005KT 9999 FEW020 18/13 Q1027","updated":"2025-09-21T22:15:08Z"}
