{"icao":"LPPT","metar":"LPPT 081900Z 16006KT 130V190 3500 -RADZ BR SCT002 BKN003 12/12 Q1012","updated":"2026-02-08T19:23:26Z"}
