{"icao":"LPMT","metar":"LPMT 292200Z 33006KT 310V010 CAVOK 18/14 Q1021","updated":"2026-05-29T23:10:30Z"}
