{"icao":"LPOV","metar":"LPOV 141800Z 35002KT 8000 FEW018 SCT040 11/10 Q1020","updated":"2026-01-14T22:20:46Z"}
