{"icao":"LPPR","metar":"LPPR 091100Z 31006KT 270V350 9999 FEW018 BKN042 10/06 Q1021","updated":"2026-03-09T11:33:32Z"}
