{"icao":"KJFK","metar":"KJFK 100751Z 03005KT 1/8SM R04R/6000VP6000FT BR OVC002 11/11 A2987 RMK AO2 SFC VIS 1 1/4 SLP115 T01110111 $","updated":"2026-05-10T08:52:23Z"}
