{"icao":"LPFR","metar":"LPFR 201000Z 28005KT CAVOK 14/07 Q1020","updated":"2025-11-20T10:20:08Z"}
