{"icao":"KORD","metar":"KORD 131551Z 32005KT 10SM FEW120 BKN250 08/M02 A3020 RMK AO2 SLP231 T00831022","updated":"2025-11-13T16:22:45Z"}
