{"icao":"LPPS","metar":"LPPS 031500Z 07011KT 040V110 9999 FEW015 24/18 Q1024","updated":"2025-10-03T15:17:06Z"}
