{"icao":"LPPT","metar":"LPPT 180500Z 33005KT CAVOK 12/09 Q1018","updated":"2025-11-18T05:18:16Z"}
