{"icao":"LPPD","metar":"LPPD 220200Z 01009KT 340V040 9000 -RA FEW016 BKN030 12/10 Q0998 WS R30","updated":"2026-04-22T02:28:49Z"}
