{"icao":"LPLA","metar":"LPLA 011000Z 08007KT 040V120 9999 FEW012 OVC020 14/10 Q1032","updated":"2026-04-01T10:54:25Z"}
