{"icao":"LPFR","metar":"LPFR 251800Z 35005KT 320V020 CAVOK 15/03 Q1021","updated":"2025-11-25T18:29:00Z"}
