{"icao":"LPFL","metar":"LPFL 301900Z 22013G25KT 170V300 9000 VCSH FEW008 BKN016 19/16 Q1009","updated":"2026-01-30T19:30:41Z"}
