{"icao":"KORD","metar":"KORD 271803Z 29015G26KT 10SM BKN035 M11/M20 A3011 RMK AO2 PK WND 30026/1800 SNE02 P0000 T11061200","updated":"2026-01-27T18:37:30Z"}
