{"icao":"KJFK","metar":"KJFK 191851Z 22014KT 10SM SCT060 SCT190 BKN250 26/13 A2966 RMK AO2 SLP043 T02610128 $","updated":"2026-06-19T19:49:07Z"}
