{"icao":"LPBJ","metar":"LPBJ 200300Z 35003KT CAVOK 08/07 Q1018","updated":"2025-11-20T03:08:27Z"}
