{"icao":"LPBJ","metar":"LPBJ 021800Z 30010KT CAVOK 27/12 Q1020","updated":"2025-10-02T18:24:43Z"}
