{"icao":"LPMT","metar":"LPMT 211400Z 28005KT 240V340 CAVOK 33/14 Q1016","updated":"2026-06-21T14:07:35Z"}
