{"icao":"LPPT","metar":"LPPT 220400Z 23008KT 9999 SCT003 SCT010 BKN012 20/19 Q1016","updated":"2025-10-22T04:21:05Z"}
