{"icao":"KJFK","metar":"KJFK 220251Z 21013KT 10SM OVC075 03/M05 A3021 RMK SLP228 T00331050 58019 $ ","updated":"2026-01-22T03:46:58Z"}
