{"icao":"KLAX","metar":"KLAX 232053Z 26010KT 3SM HZ FEW010 SCT014 SCT100 20/15 A2993 RMK AO2 SLP135 T02000150 58006","updated":"2026-03-23T21:35:36Z"}
