{"icao":"LPLA","metar":"LPLA 082000Z VRB02KT 9999 FEW024 17/11 Q1022","updated":"2025-11-08T20:17:45Z"}
