{"icao":"LPHR","metar":"LPHR 211100Z 27018KT 7000 VCSH SCT002 BKN005 17/17 Q1022","updated":"2026-01-21T11:22:55Z"}
