{"icao":"KLAX","metar":"KLAX 251553Z 31003KT 6SM HZ OVC011 17/14 A3001 RMK AO2 SLP160 T01720139","updated":"2026-03-25T16:14:07Z"}
