{"icao":"LPHR","metar":"LPHR 311700Z 26011KT 9999 SCT005 BKN007 18/17 Q1013","updated":"2026-01-31T17:22:22Z"}
