{"icao":"LPMR","metar":"LPMR 291400Z 34012KT 300V360 CAVOK 24/13 Q1016","updated":"2025-09-29T14:17:58Z"}
