{"icao":"KJFK","metar":"KJFK 131851Z 35008KT 10SM CLR 02/M09 A3014 RMK AO2 SLP204 T00171094 $","updated":"2026-02-13T19:40:46Z"}
