{"icao":"KJFK","metar":"KJFK 212251Z 19016KT 10SM FEW150 SCT250 17/12 A2982 RMK AO2 SLP097 T01720117","updated":"2025-10-21T23:17:16Z"}
