{"icao":"LPPT","metar":"LPPT 212200Z 34014G28KT CAVOK 15/10 Q1021","updated":"2025-09-21T22:15:05Z"}
