{"icao":"KORD","metar":"KORD 031451Z 22004KT 10SM CLR 24/15 A3021 RMK AO2 SLP226 T02390150 50004","updated":"2025-10-03T15:17:07Z"}
