{"icao":"LPBJ","metar":"LPBJ 262100Z 22008KT CAVOK 19/15 Q1015","updated":"2026-04-26T21:36:38Z"}
