{"icao":"LPPR","metar":"LPPR 230900Z 09008KT 060V140 CAVOK 19/07 Q1021","updated":"2025-09-23T09:18:56Z"}
