{"icao":"LPBJ","metar":"LPBJ 301300Z 04013KT 020V080 CAVOK 16/M01 Q1029","updated":"2026-03-30T13:16:35Z"}
