{"icao":"KORD","metar":"KORD 252351Z 31006G15KT 10SM SCT055 BKN250 26/13 A2994 RMK AO2 SLP134 T02560133 10261 20239 53001","updated":"2026-06-26T00:07:22Z"}
