{"icao":"LPMA","metar":"LPMA 130530Z 36008KT 9999 SCT015 SCT030 15/07 Q1026","updated":"2026-04-13T05:40:39Z"}
