{"icao":"LPMT","metar":"LPMT 300700Z 35011KT 310V020 9999 FEW025 12/07 Q1017","updated":"2025-11-30T07:16:25Z"}
