{"icao":"LPBJ","metar":"LPBJ 031100Z 29005KT 260V010 CAVOK 28/11 Q1023","updated":"2025-10-03T11:13:57Z"}
