{"icao":"LPMT","metar":"LPMT 062300Z 19005KT 160V220 9999 FEW025 16/12 Q1018","updated":"2025-11-06T23:16:43Z"}
