{"icao":"LPMA","metar":"LPMA 170700Z 21005KT 7000 -RA SCT005 BKN013 21/21 Q1011","updated":"2025-10-17T07:18:10Z"}
