{"icao":"LPMT","metar":"LPMT 251000Z 36005KT 340V050 CAVOK 20/09 Q1018","updated":"2025-09-25T10:18:31Z"}
