{"icao":"KJFK","metar":"KJFK 111751Z 23016KT 10SM SCT047 SCT100 BKN190 BKN250 33/23 A2974 RMK AO2 SLP072 T03280228 10328 20244 58015 $","updated":"2026-06-11T18:10:19Z"}
