{"icao":"LPSJ","metar":"LPSJ 211400Z 28008KT 230V310 9999 FEW018 BKN036 20/15 Q1020","updated":"2026-06-21T14:07:37Z"}
