{"icao":"LPBJ","metar":"LPBJ 300908Z 18005KT 1200 0500S BCFG BKN002 15/15 Q1016","updated":"2025-10-30T09:19:50Z"}
