{"icao":"KORD","metar":"KORD 261351Z 29009KT 10SM FEW040 FEW080 M18/M24 A3025 RMK AO2 SLP261 T11781239","updated":"2026-01-26T14:27:49Z"}
