{"icao":"LPBJ","metar":"LPBJ 261600Z 10004KT 060V140 9999 FEW030 23/15 Q1018","updated":"2025-10-26T16:20:11Z"}
