{"icao":"LPAZ","metar":"LPAZ 192200Z 28011KT 9000 BKN003 23/22 Q1018","updated":"2025-10-19T22:16:01Z"}
