{"icao":"LPLA","metar":"LPLA 032100Z 26014G26KT 9999 FEW014 SCT020 17/14 Q0999","updated":"2026-02-03T21:33:01Z"}
