{"icao":"KLAX","metar":"KLAX 180759Z 26006KT 10SM BKN012 OVC021 17/14 A2994 RMK AO2 T01720144 $","updated":"2026-06-18T08:45:22Z"}
