{"icao":"LPLA","metar":"LPLA 131000Z 22008KT 190V260 9999 FEW020 SCT035 17/13 Q1029","updated":"2025-12-13T10:18:24Z"}
