{"icao":"LPCS","metar":"LPCS 131700Z 33014KT 9999 FEW016 22/15 Q1022","updated":"2025-09-13T17:12:20Z"}
