{"icao":"LPAZ","metar":"LPAZ 202000Z 24013KT 9000 SCT003 SCT008 BKN018 23/22 Q1017","updated":"2025-10-20T20:20:59Z"}
