{"icao":"LPFL","metar":"LPFL 071430Z VRB09G20KT 9999 FEW011 22/17 Q1028","updated":"2026-06-07T14:50:49Z"}
