{"icao":"LPMR","metar":"LPMR 202300Z 19008KT 8000 -RA FEW010 SCT017 BKN033 10/09 Q1008 RESHRA","updated":"2025-12-20T23:17:04Z"}
