{"icao":"LPPS","metar":"LPPS 030830Z 07004KT 350V110 9999 FEW012 16/11 Q1023","updated":"2026-04-03T08:52:38Z"}
