{"icao":"LPCS","metar":"LPCS 121330Z 34021KT 300V010 9999 FEW016 16/07 Q1020","updated":"2026-04-12T14:01:40Z"}
