{"icao":"LPLA","metar":"LPLA 100500Z 18017KT 8000 -RA SCT035 16/11 Q1020","updated":"2025-12-10T05:20:31Z"}
