{"icao":"LPPS","metar":"LPPS 261230Z 24006KT 210V270 9999 FEW015 SCT030 19/10 Q1021","updated":"2026-01-26T12:45:51Z"}
