{"icao":"LPMT","metar":"LPMT 260700Z 07004KT 050V120 CAVOK 15/13 Q1016","updated":"2026-04-26T07:27:05Z"}
