{"icao":"LPPD","metar":"LPPD 192300Z 03015KT 360V060 9999 FEW018 SCT030 17/13 Q1026","updated":"2025-11-19T23:17:24Z"}
