{"icao":"LPPT","metar":"LPPT 241300Z 12006G20KT 070V180 9999 SCT030 22/13 Q1017","updated":"2026-04-24T13:22:53Z"}
