{"icao":"LPMT","metar":"LPMT 301000Z 33003KT 280V360 9999 SCT020 BKN046 18/12 Q1017","updated":"2026-04-30T10:54:02Z"}
