{"icao":"KORD","metar":"KORD 180551Z 19009KT 10SM FEW150 SCT250 19/12 A2972 RMK AO2 SLP061 T01890117 10217 20189 402330139 56011","updated":"2025-10-18T06:24:32Z"}
