{"icao":"KORD","metar":"KORD 030951Z 00000KT 10SM FEW070 18/12 A3019 RMK AO2 SLP219 T01830117","updated":"2025-10-03T10:17:52Z"}
