{"icao":"LPBJ","metar":"LPBJ 141300Z 01011KT 330V030 CAVOK 31/13 Q1021","updated":"2025-09-14T13:18:05Z"}
