{"icao":"LPOV","metar":"LPOV 210800Z 34003KT CAVOK 02/02 Q1028","updated":"2025-11-21T08:26:21Z"}
