{"icao":"KJFK","metar":"KJFK 022151Z 20007KT 10SM FEW130 SCT250 M02/M12 A3065 RMK AO2 SLP377 T10171117","updated":"2026-03-02T22:25:28Z"}
