{"icao":"LPOV","metar":"LPOV 211000Z 01006KT CAVOK 10/05 Q1029","updated":"2025-11-21T10:19:40Z"}
