{"icao":"KORD","metar":"KORD 181127Z 17010G19KT 10SM BKN014 OVC045 M04/M07 A3002 RMK AO2 SNE25 P0000 T10441072 $","updated":"2026-03-18T11:44:16Z"}
