{"icao":"LPBJ","metar":"LPBJ 271700Z 01012KT CAVOK 20/06 Q1015","updated":"2026-03-27T17:49:00Z"}
