{"icao":"LPOV","metar":"LPOV 091000Z 32005KT 280V350 7000 2000N FEW001 17/15 Q1021","updated":"2025-10-09T10:19:03Z"}
