{"icao":"KJFK","metar":"KJFK 131951Z 17018G27KT 10SM FEW050 BKN120 OVC250 04/M04 A2997 RMK AO2 PK WND 18030/1925 SLP150 T00391039","updated":"2026-03-13T20:33:18Z"}
