{"icao":"KORD","metar":"KORD 221151Z 25015G23KT 10SM FEW250 M09/M16 A3013 RMK AO2 SLP214 4/001 70004 T10941161 11028 21094 53019 $","updated":"2026-01-22T12:47:24Z"}
