{"icao":"LPMR","metar":"LPMR 170700Z VRB02KT 0800 FG SCT003 11/11 Q1012","updated":"2025-11-17T07:18:52Z"}
