{"icao":"LPPR","metar":"LPPR 250800Z 12009KT 080V140 CAVOK 19/03 Q1018","updated":"2025-09-25T08:23:18Z"}
