{"icao":"LPBJ","metar":"LPBJ 030800Z 08004KT CAVOK 11/08 Q1023","updated":"2025-11-03T08:26:06Z"}
