{"icao":"LPFR","metar":"LPFR 132330Z 31006KT CAVOK 16/12 Q1017","updated":"2026-05-13T23:56:35Z"}
