{"icao":"LPMT","metar":"LPMT 150900Z 35015KT 9999 BKN030 16/08 Q1015","updated":"2026-05-15T09:46:46Z"}
