{"icao":"LPCS","metar":"LPCS 311600Z 10006KT 050V140 9999 FEW020 14/09 Q1017","updated":"2025-12-31T16:24:46Z"}
