{"icao":"LPBJ","metar":"LPBJ 221600Z 35009KT 300V020 CAVOK 25/01 Q1015","updated":"2025-09-22T16:22:30Z"}
