{"icao":"LPPD","metar":"LPPD 131030Z 23006KT 200V260 9999 FEW025 23/18 Q1026","updated":"2025-09-13T10:48:40Z"}
