{"icao":"LPCS","metar":"LPCS 221930Z 27004KT CAVOK 15/09 Q1013","updated":"2026-04-22T20:03:58Z"}
