{"icao":"LPOV","metar":"LPOV 010800Z 21008KT 1200 -DZ BR OVC002 14/14 Q1012","updated":"2026-02-01T08:30:56Z"}
