{"icao":"LPPR","metar":"LPPR 121100Z 10010KT CAVOK 25/11 Q1018","updated":"2025-10-12T11:12:40Z"}
