{"icao":"LPHR","metar":"LPHR 172030Z 27010KT 9999 FEW003 BKN005 17/16 Q1023","updated":"2026-05-18T00:04:12Z"}
