{"icao":"KJFK","metar":"KJFK 070851Z 22006KT 10SM FEW180 SCT250 18/17 A3019 RMK AO2 SLP222 T01830172 56010 $","updated":"2025-10-07T09:19:18Z"}
