{"icao":"KORD","metar":"KORD 162251Z 18008KT 10SM FEW060 BKN250 27/17 A2982 RMK AO2 SLP094 T02720167","updated":"2026-05-16T23:51:40Z"}
