{"icao":"KLAX","metar":"KLAX 132053Z 13013KT 10SM FEW028 BKN036 BKN050 22/11 A2974 RMK AO2 SLP068 T02220111 58013 $","updated":"2025-10-13T21:15:30Z"}
