{"icao":"LPPR","metar":"LPPR 191330Z 34003KT 290V020 8000 -RA FEW008 SCT027 BKN030 10/08 Q1021","updated":"2026-01-19T13:43:47Z"}
