{"icao":"LPAZ","metar":"LPAZ 102300Z 25025G35KT 9999 SCT015 SCT024 BKN030 18/16 Q1011","updated":"2025-11-10T23:17:14Z"}
