{"icao":"LPFL","metar":"LPFL 101100Z 19026G46KT 150V230 7000 BKN011 FEW012TCU 21/18 Q1005","updated":"2025-12-10T11:17:27Z"}
