{"icao":"KLAX","metar":"KLAX 051853Z 12003KT 10SM CLR 19/M02 A3010 RMK AO2 SLP192 T01941022 $","updated":"2025-12-05T19:15:37Z"}
