{"icao":"KJFK","metar":"KJFK 130151Z 17011KT 10SM FEW120 SCT170 SCT250 08/06 A3037 RMK AO2 SLP285 T00780056 $","updated":"2026-04-13T02:34:47Z"}
