{"icao":"LPAZ","metar":"LPAZ 211500Z 09010KT 060V120 9999 FEW016 BKN048 18/12 Q1030","updated":"2025-11-21T15:17:14Z"}
