{"icao":"KJFK","metar":"KJFK 082051Z 00000KT 10SM FEW060 BKN150 BKN250 14/09 A2979 RMK AO2 SLP089 T01440089 53006","updated":"2026-03-08T21:21:58Z"}
