{"icao":"LPMA","metar":"LPMA 231700Z 33012G23KT 270V020 9999 VCSH SCT015 18/07 Q1019","updated":"2026-01-23T17:24:59Z"}
