{"icao":"LPMR","metar":"LPMR 212300Z 31011KT 280V340 9999 SCT018 SCT035 12/07 Q1006","updated":"2026-01-21T23:23:57Z"}
