{"icao":"KORD","metar":"KORD 051251Z 21009KT 10SM SCT250 00/M04 A2978 RMK AO2 SLP092 T00001044","updated":"2026-01-05T13:40:10Z"}
