{"icao":"KJFK","metar":"KJFK 292051Z 32010KT 10SM FEW055 FEW250 05/M09 A3047 RMK AO2 SLP317 T00501089 53013 $","updated":"2025-11-29T21:16:06Z"}
