{"icao":"LPPT","metar":"LPPT 160730Z 33015KT 300V360 9999 FEW020 14/09 Q1018","updated":"2026-05-16T08:02:20Z"}
