{"icao":"LPMT","metar":"LPMT 220700Z 22003KT 170V250 9999 FEW025 14/10 Q1013","updated":"2026-04-22T07:44:36Z"}
