{"icao":"LPCS","metar":"LPCS 011200Z 21007KT 9999 FEW015 SCT023 19/17 Q1018","updated":"2025-11-01T12:33:05Z"}
