{"icao":"LPPD","metar":"LPPD 221830Z 03013KT 360V070 9999 FEW020 15/10 Q1019","updated":"2026-03-22T18:35:45Z"}
