{"icao":"LPOV","metar":"LPOV 211800Z 35006KT 310V010 9000 SCT003 19/18 Q1019","updated":"2026-06-21T18:18:44Z"}
