{"icao":"LPPS","metar":"LPPS 051030Z 08018KT 9000 RA SCT004 BKN010 FEW012CB 16/15 Q1017","updated":"2026-05-05T10:45:02Z"}
