{"icao":"LPMR","metar":"LPMR 102000Z 36003KT 330V050 CAVOK 11/10 Q1023","updated":"2025-12-10T20:23:09Z"}
