{"icao":"LPFR","metar":"LPFR 281330Z 16006KT 120V180 CAVOK 18/08 Q1022","updated":"2026-02-28T13:35:05Z"}
