{"icao":"LPHR","metar":"LPHR 112000Z 14003KT 110V170 9999 FEW020 15/08 Q1032","updated":"2026-04-11T20:31:54Z"}
