{"icao":"KORD","metar":"KORD 252251Z 09006KT 10SM FEW060 22/14 A2989 RMK AO2 SLP119 T02170144","updated":"2025-09-25T23:15:44Z"}
