{"icao":"KORD","metar":"KORD 110651Z 07003KT 10SM CLR 03/01 A3038 RMK AO2 SLP290 T00330006 $","updated":"2026-04-11T07:13:09Z"}
