{"icao":"LPCS","metar":"LPCS 281800Z 33007KT 300V010 9999 FEW002 19/14 Q1007","updated":"2026-04-28T18:15:47Z"}
