{"icao":"LPMA","metar":"LPMA 021430Z 02020G30KT 350V050 9999 FEW012 23/16 Q1025","updated":"2026-06-02T14:51:36Z"}
