{"icao":"LPPT","metar":"LPPT 191630Z 34012KT 9999 FEW038 14/06 Q1028","updated":"2026-02-19T16:51:00Z"}
