{"icao":"LPBJ","metar":"LPBJ 191418Z 21014KT 4000 -SHRA SCT023 FEW025CB BKN040 14/13 Q1007","updated":"2026-03-19T14:44:53Z"}
