{"icao":"LPST","metar":"LPST 131200Z 18023KT 5000 -SHRA BR BKN006 SCT015 FEW022CB 18/16 Q0998","updated":"2025-11-13T12:40:04Z"}
