{"icao":"LPST","metar":"LPST 281700Z 16005KT 130V200 9999 -RA FEW009 BKN020 16/16 Q1010 RERA","updated":"2025-10-28T17:17:29Z"}
