{"icao":"LPOV","metar":"LPOV 071000Z 15003KT 9999 SCT003 BKN018 08/08 Q1025","updated":"2026-01-07T10:23:09Z"}
