{"icao":"LPHR","metar":"LPHR 031230Z 25027G37KT 8000 -SHRA SCT010 BKN014 18/17 Q1003","updated":"2026-02-03T12:57:30Z"}
