{"icao":"LPFL","metar":"LPFL 211600Z 16007KT 9999 FEW025 BKN036 18/09 Q1031","updated":"2025-11-21T16:23:54Z"}
