{"icao":"LPFL","metar":"LPFL 121800Z 33010KT 280V010 9999 VCSH FEW023 14/09 Q1022","updated":"2026-01-13T01:28:28Z"}
