{"icao":"LPFR","metar":"LPFR 112300Z 30004KT CAVOK 11/08 Q1026","updated":"2026-03-11T23:24:22Z"}
