{"icao":"LPPT","metar":"LPPT 291500Z 30008KT 270V330 9999 VCSH FEW014 FEW025TCU 20/17 Q1008","updated":"2025-10-29T15:20:18Z"}
