{"icao":"LPPR","metar":"LPPR 281700Z 11008KT 060V120 9999 SCT040 BKN045 19/14 Q1009","updated":"2025-10-28T17:17:28Z"}
