{"icao":"LPPR","metar":"LPPR 021300Z 32012KT CAVOK 18/11 Q1022","updated":"2026-04-02T13:10:57Z"}
