{"icao":"LPAZ","metar":"LPAZ 251530Z 25005KT 8000 BKN002 18/17 Q1018","updated":"2026-04-25T15:38:05Z"}
