{"icao":"LPLA","metar":"LPLA 141900Z 24007KT 190V310 9999 BKN025 BKN035 18/13 Q1020","updated":"2026-01-14T19:18:46Z"}
