{"icao":"LPBJ","metar":"LPBJ 111600Z 24012KT 9999 FEW020 SCT026 20/10 Q1014","updated":"2026-05-11T16:31:55Z"}
