{"icao":"LPPS","metar":"LPPS 192100Z 18024G41KT 9999 SCT014 FEW018TCU 14/10 Q0994","updated":"2026-03-19T21:34:09Z"}
