{"icao":"LPMR","metar":"LPMR 230800Z 21003KT 180V250 5000 BR SCT005 BKN009 20/19 Q1014","updated":"2026-06-23T08:33:06Z"}
