{"icao":"LPBJ","metar":"LPBJ 050300Z 29007KT 5000 BCFG FEW003 BKN028 08/08 Q1007","updated":"2026-01-05T03:54:20Z"}
