{"icao":"LPMA","metar":"LPMA 262330Z 35010G20KT 280V030 9999 SCT015 17/11 Q1019","updated":"2026-04-26T23:37:45Z"}
