{"icao":"LPMA","metar":"LPMA 050900Z 35009KT 310V030 9999 SCT016 22/16 Q1017","updated":"2025-11-05T09:20:54Z"}
