{"icao":"KLAX","metar":"KLAX 140353Z 18003KT 10SM CLR 16/10 A3004 RMK AO2 SLP171 T01560100","updated":"2026-02-14T04:11:50Z"}
