{"icao":"LPMA","metar":"LPMA 190900Z 01007G17KT 300V060 9999 FEW015 15/09 Q1025","updated":"2026-01-19T09:32:57Z"}
