{"icao":"KORD","metar":"KORD 262051Z 06012G17KT 10SM FEW200 BKN250 14/08 A3001 RMK AO2 SLP162 T01440078 58024 $","updated":"2026-04-26T21:36:52Z"}
