{"icao":"LPAZ","metar":"LPAZ 261530Z 11010KT 080V140 9999 FEW017 20/16 Q1021","updated":"2026-04-26T15:40:06Z"}
