{"icao":"LPMR","metar":"LPMR 221200Z 25011KT 220V280 6000 SCT011 BKN017 22/19 Q1018","updated":"2025-10-22T12:39:00Z"}
