{"icao":"LPMR","metar":"LPMR 042200Z 34008KT 9999 FEW022 15/11 Q1020","updated":"2026-06-04T22:19:33Z"}
