{"icao":"LPPD","metar":"LPPD 111300Z 25012KT 7000 FEW007 17/15 Q1018","updated":"2026-02-11T13:07:17Z"}
