{"icao":"LPHR","metar":"LPHR 171000Z 31013KT 270V330 9999 FEW016 BKN027 15/09 Q1032","updated":"2026-01-17T10:19:47Z"}
