{"icao":"LPLA","metar":"LPLA 062000Z 29030G41KT 9999 FEW018 SCT030 16/13 Q1004 WS R33","updated":"2026-02-06T20:32:48Z"}
