{"icao":"KJFK","metar":"KJFK 151551Z 21004KT 10SM SCT130 BKN250 08/M02 A2984 RMK AO2 SLP105 T00781022","updated":"2025-11-15T16:19:56Z"}
