{"icao":"KORD","metar":"KORD 212251Z 21004KT 10SM FEW040 SCT090 BKN150 BKN250 27/18 A2985 RMK AO2 LTG DSNT ALQDS SLP104 CB DSNT NW-NE T02670178 $","updated":"2025-09-21T23:15:13Z"}
