{"icao":"LPPT","metar":"LPPT 291430Z 26014KT 8000 -DZ FEW007 SCT010 BKN040 15/15 Q1010","updated":"2026-01-29T14:49:40Z"}
