{"icao":"KORD","metar":"KORD 030251Z 29004KT 10SM BKN160 OVC250 M07/M14 A3001 RMK AO2 SLP172 T10721139 53008 $","updated":"2026-01-03T03:21:13Z"}
