{"icao":"LPHR","metar":"LPHR 070700Z 22015KT 190V250 9999 -RA SCT015 BKN035 16/14 Q1021","updated":"2026-03-07T07:27:28Z"}
