{"icao":"LPMA","metar":"LPMA 160900Z 21006KT 9999 FEW015 23/16 Q1015","updated":"2025-10-16T09:20:01Z"}
