{"icao":"LPFR","metar":"LPFR 301730Z 13005KT CAVOK 17/02 Q1025","updated":"2026-03-30T17:53:04Z"}
