{"icao":"LPLA","metar":"LPLA 280800Z 36006KT 330V030 9999 OVC035 15/07 Q1027","updated":"2025-11-28T08:26:01Z"}
