{"icao":"LPAZ","metar":"LPAZ 231530Z 34012KT 7000 -DZ SCT003 BKN017 24/19 Q1022","updated":"2026-06-23T15:46:26Z"}
