{"icao":"LPBJ","metar":"LPBJ 311600Z 21010KT 9999 BKN045 22/13 Q1015","updated":"2025-10-31T16:22:37Z"}
