{"icao":"LPOV","metar":"LPOV 131500Z 31020G32KT 280V340 4000 SHRA BKN022 SCT026CB 12/09 Q1004","updated":"2026-02-13T15:40:24Z"}
