{"icao":"LPPS","metar":"LPPS 142100Z 36006KT 320V020 9999 SCT015 SCT030 15/08 Q1026","updated":"2026-01-14T21:20:51Z"}
