{"icao":"LPCS","metar":"LPCS 190930Z 13007KT 090V150 9999 FEW012 13/11 Q1005","updated":"2026-03-19T09:41:31Z"}
