{"icao":"LPLA","metar":"LPLA 171900Z 31016KT 9999 SCT015 18/17 Q1023","updated":"2025-11-17T19:14:41Z"}
