{"icao":"LPLA","metar":"LPLA 210600Z 35013KT 9000 -SHRA BKN014 BKN020 13/11 Q1015","updated":"2026-03-21T06:40:58Z"}
