{"icao":"LPPD","metar":"LPPD 312000Z 26009KT 2000 -DZ BR SCT001 BKN002 16/16 Q1016","updated":"2026-01-31T20:24:04Z"}
