{"icao":"LPHR","metar":"LPHR 271900Z 04012KT 010V080 9999 FEW015 SCT033 16/11 Q1024","updated":"2025-11-27T19:14:49Z"}
