{"icao":"KORD","metar":"KORD 140051Z 03004KT 10SM BKN045 OVC090 18/12 A3014 RMK AO2 SLP206 T01830117 $","updated":"2025-10-14T01:18:50Z"}
