{"icao":"KJFK","metar":"KJFK 160553Z 06012KT 2SM -SN BR BKN008 OVC014 M01/M01 A3007 RMK AO2 P0000 T10061011 $","updated":"2026-02-16T06:08:31Z"}
