{"icao":"LPPS","metar":"LPPS 131800Z 28018KT 9999 FEW015 FEW018CB 20/10 Q1006","updated":"2025-11-13T18:26:56Z"}
