{"icao":"LPOV","metar":"LPOV 071800Z 29003KT 9999 SCT030 18/17 Q1022","updated":"2025-10-07T18:26:04Z"}
