{"icao":"LPAR","metar":"LPAR 031300Z 34010KT 310V020 CAVOK 27/14 Q1021","updated":"2026-06-03T13:20:44Z"}
