{"icao":"LPMT","metar":"LPMT 272200Z 35004KT CAVOK 12/08 Q1024","updated":"2025-11-27T22:17:15Z"}
