{"icao":"LPPD","metar":"LPPD 230600Z 19006KT 9000 BKN008 BKN011 22/21 Q1016","updated":"2025-10-23T06:27:30Z"}
