{"icao":"LPPT","metar":"LPPT 190630Z 14008KT 100V170 7000 -RA FEW004 BKN016 12/12 Q1004 RERA","updated":"2026-03-19T07:03:20Z"}
