{"icao":"KORD","metar":"KORD 160851Z 22005KT 10SM BKN220 04/M02 A2993 RMK AO2 SLP136 T00391017 58001","updated":"2026-02-16T09:52:50Z"}
