{"icao":"KORD","metar":"KORD 280451Z 25005KT 10SM CLR M14/M21 A3027 RMK AO2 SLP265 T11441211","updated":"2026-01-28T05:27:36Z"}
