{"icao":"LPPT","metar":"LPPT 271700Z 30009KT 260V350 CAVOK 25/13 Q1020","updated":"2026-06-27T17:07:57Z"}
