{"icao":"KJFK","metar":"KJFK 160451Z 19003KT 10SM FEW065 SCT170 BKN250 18/13 A2989 RMK AO2 SLP121 T01780128 402610156","updated":"2026-04-16T05:29:44Z"}
