{"icao":"LPBJ","metar":"LPBJ 151200Z 30010KT 9999 OVC020 12/08 Q1032","updated":"2026-02-15T12:48:17Z"}
