{"icao":"KORD","metar":"KORD 271151Z 23005KT 10SM CLR 17/12 A2992 RMK AO2 SLP129 T01720122 10189 20172 53008 $","updated":"2025-09-27T12:31:50Z"}
