{"icao":"KJFK","metar":"KJFK 051551Z 21005KT 10SM CLR 25/17 A3031 RMK AO2 SLP265 T02500167","updated":"2025-10-05T16:18:45Z"}
