{"icao":"LPFR","metar":"LPFR 030100Z 30004KT CAVOK 16/11 Q1023","updated":"2025-11-03T01:26:10Z"}
