{"icao":"LPPS","metar":"LPPS 142000Z 07010KT 9999 SCT015 15/09 Q1032","updated":"2026-02-14T20:25:30Z"}
