{"icao":"LPFR","metar":"LPFR 131230Z 16008KT 9999 FEW020 24/17 Q1015","updated":"2025-10-13T12:37:02Z"}
