{"icao":"LPOV","metar":"LPOV 230800Z 16006KT 4000 -RA BR BKN004 BKN012 11/10 Q1026","updated":"2025-11-23T08:22:31Z"}
