{"icao":"LPPI","metar":"LPPI 261200Z 30005KT 260V340 9999 FEW025 19/12 Q1026","updated":"2026-06-26T12:09:35Z"}
