{"icao":"LPCS","metar":"LPCS 251600Z 25006KT 220V280 9999 4500NW FEW002 SCT006 BKN010 14/14 Q1015","updated":"2026-01-25T16:24:17Z"}
