{"icao":"KJFK","metar":"KJFK 191620Z 25017KT 10SM FEW005 SCT010 BKN042 BKN170 12/11 A2933 RMK AO2 PK WND 20045/1556 RAE16 VCSH NE-S AND NW P0006 T01220106","updated":"2025-12-19T16:25:36Z"}
