{"icao":"LPPS","metar":"LPPS 142100Z 06007KT 030V090 9999 FEW015 14/09 Q1032","updated":"2026-02-14T21:22:50Z"}
