{"icao":"LPOV","metar":"LPOV 061600Z 33005KT CAVOK 27/13 Q1019","updated":"2025-10-06T16:21:24Z"}
