{"icao":"LPMT","metar":"LPMT 171500Z 27005KT 240V310 CAVOK 32/17 Q1015","updated":"2026-06-17T15:24:36Z"}
