{"icao":"LPAZ","metar":"LPAZ 252100Z 10004KT CAVOK 13/12 Q1027","updated":"2025-11-25T21:17:32Z"}
