{"icao":"LPPD","metar":"LPPD 271900Z 25028KT 3500 -SHRA BR BKN014 BKN030 16/14 Q1005 WS R30","updated":"2026-01-27T19:25:09Z"}
