{"icao":"KORD","metar":"KORD 281409Z 00000KT 1SM R10L/5000VP6000FT RA BR FEW003 BKN041 OVC060 08/08 A2964 RMK AO2 P0005 T00830083 $","updated":"2025-12-28T14:18:00Z"}
