{"icao":"LPPR","metar":"LPPR 141400Z 31010KT 4800 -DZ BR OVC002 13/13 Q1014","updated":"2026-03-14T14:26:56Z"}
