{"icao":"LPOV","metar":"LPOV 240600Z 17005KT 6000 OVC004 16/16 Q1020","updated":"2026-05-24T06:57:50Z"}
