{"icao":"LPPS","metar":"LPPS 310400Z 31006KT 9999 SCT010 15/14 Q1024","updated":"2026-01-31T04:05:32Z"}
