{"icao":"LPHR","metar":"LPHR 030000Z 32011KT 9000 VCSH SCT014 SCT030 14/10 Q1011","updated":"2026-01-03T06:29:26Z"}
