{"icao":"LPMA","metar":"LPMA 210400Z 22011KT 170V240 9999 -SHRA BKN015 FEW018CB 15/13 Q0997 RESHRA","updated":"2026-03-21T04:05:03Z"}
