{"icao":"KJFK","metar":"KJFK 252251Z 19017G24KT 10SM FEW008 SCT035 BKN090 BKN130 BKN250 23/21 A2973 RMK AO2 PK WND 18027/2224 SLP068 T02280206 $","updated":"2025-09-25T23:15:44Z"}
