{"icao":"LPPT","metar":"LPPT 160200Z 35003KT CAVOK 12/09 Q1020","updated":"2026-03-16T02:22:18Z"}
