{"icao":"LPOV","metar":"LPOV 271600Z 27014KT 240V310 9999 SCT022 SCT040 12/05 Q1000","updated":"2026-01-27T16:28:54Z"}
