{"icao":"LPPD","metar":"LPPD 241300Z 17011KT 9999 FEW011 SCT020 16/14 Q1015","updated":"2026-04-24T13:22:57Z"}
