{"icao":"LPAZ","metar":"LPAZ 091230Z 06009KT 030V100 9999 SCT036 15/06 Q1034","updated":"2026-03-09T13:00:28Z"}
