{"icao":"LPOV","metar":"LPOV 030700Z 27003KT 230V300 8000 BKN008 BKN020 15/14 Q1023","updated":"2025-10-03T08:22:00Z"}
