{"icao":"KLAX","metar":"KLAX 190953Z 07003KT 9SM FEW002 12/12 A2999 RMK AO2 SLP153 T01220117 $","updated":"2025-12-19T10:22:13Z"}
