{"icao":"LPMT","metar":"LPMT 210700Z 05004KT CAVOK 18/15 Q1020","updated":"2026-05-21T07:50:13Z"}
