{"icao":"LPLA","metar":"LPLA 071100Z 27004KT 250V320 9999 FEW022 SCT040 15/10 Q1014","updated":"2026-02-07T11:20:30Z"}
