{"icao":"LPBJ","metar":"LPBJ 140900Z 30014KT 9000 FEW006 BKN008 12/10 Q1019","updated":"2026-03-14T09:31:53Z"}
