{"icao":"LPPS","metar":"LPPS 300400Z 02011KT 350V050 9999 SCT015 SCT030 20/13 Q1020","updated":"2025-09-30T04:21:33Z"}
