{"icao":"LPAZ","metar":"LPAZ 181700Z 27010KT 8000 SCT004 BKN025 24/22 Q1017","updated":"2025-10-18T17:13:14Z"}
