{"icao":"KLAX","metar":"KLAX 110853Z 00000KT 10SM CLR 17/15 A2980 RMK AO2 SLP088 T01720150 58003 $","updated":"2025-10-11T09:15:55Z"}
