{"icao":"KJFK","metar":"KJFK 050951Z 09006KT 3/4SM R04R/3000V3500FT -DZ BR VV002 08/08 A2994 RMK AO2 SLP137 P0000 T00780078","updated":"2026-04-05T10:32:06Z"}
