{"icao":"LPMA","metar":"LPMA 290700Z 01009KT 340V050 9999 SCT015 SCT030 22/12 Q1022","updated":"2025-09-29T07:18:33Z"}
