{"icao":"LPPS","metar":"LPPS 282100Z 05004KT 020V080 9999 FEW015 17/12 Q1024","updated":"2025-11-28T21:16:11Z"}
