{"icao":"KLAX","metar":"KLAX 281553Z 29006KT 5SM BR FEW004 BKN007 BKN220 16/14 A3002 RMK AO2 SLP165 T01560139 $","updated":"2026-03-28T16:33:02Z"}
