{"icao":"LPBJ","metar":"LPBJ 302000Z 03001KT CAVOK 15/04 Q1026","updated":"2026-03-30T20:54:07Z"}
