{"icao":"LPFR","metar":"LPFR 231100Z 22005KT CAVOK 16/06 Q1027","updated":"2025-11-23T11:14:02Z"}
