{"icao":"LPOV","metar":"LPOV 140800Z 18002KT 9999 MIFG NSC 06/06 Q1021","updated":"2025-12-14T08:24:10Z"}
