{"icao":"LPCS","metar":"LPCS 211500Z 28010KT 250V310 9999 FEW004 SCT008 BKN016 21/20 Q1015","updated":"2025-10-21T15:19:07Z"}
