{"icao":"KJFK","metar":"KJFK 270651Z 02005KT 10SM SCT250 19/17 A2992 RMK AO2 SLP132 T01940167 $","updated":"2025-09-27T07:14:38Z"}
