{"icao":"KLAX","metar":"KLAX 252159Z 25010KT 6SM HZ OVC009 19/14 A2996 RMK AO2 T01890144","updated":"2026-03-25T22:34:44Z"}
