{"icao":"LPFR","metar":"LPFR 200500Z 33004KT 9999 BKN025 20/19 Q1014","updated":"2025-10-20T05:18:32Z"}
