{"icao":"LPPD","metar":"LPPD 201030Z 02029G46KT 350V050 9999 SCT020 FEW025TCU 14/10 Q1005 WS R30","updated":"2026-03-20T10:36:35Z"}
