{"icao":"LPPD","metar":"LPPD 220800Z 03004KT 9999 FEW018 SCT035 15/11 Q1032","updated":"2025-11-22T08:22:23Z"}
