{"icao":"LPCS","metar":"LPCS 290800Z 00000KT 9999 FEW014 BKN032 12/11 Q1020","updated":"2025-11-29T08:23:19Z"}
