{"icao":"LPMT","metar":"LPMT 190900Z 34003KT 310V010 9999 SCT048 12/08 Q1027","updated":"2026-02-19T09:43:11Z"}
