{"icao":"LPPT","metar":"LPPT 171930Z 32009KT CAVOK 20/10 Q1016","updated":"2026-04-17T19:59:49Z"}
