{"icao":"LPPD","metar":"LPPD 231630Z 20022KT 5000 BR SCT005 BKN010 17/16 Q1010","updated":"2026-02-23T16:56:13Z"}
