{"icao":"LPAZ","metar":"LPAZ 100800Z 16007KT 9000 FEW008 SCT020 20/18 Q1023","updated":"2025-10-10T08:23:05Z"}
