{"icao":"LPHR","metar":"LPHR 161400Z 31010KT 290V360 9999 FEW017 BKN033 16/09 Q1035","updated":"2026-01-16T14:22:10Z"}
