{"icao":"LPFL","metar":"LPFL 061730Z 32010KT 250V020 9999 FEW014 SCT017 FEW020TCU 15/10 Q1005","updated":"2026-02-06T17:40:12Z"}
