{"icao":"LPLA","metar":"LPLA 102100Z 29023KT 5000 RA BR FEW014 BKN018 16/14 Q1007","updated":"2025-11-10T21:16:46Z"}
