{"icao":"KLAX","metar":"KLAX 302053Z 23013KT 10SM FEW010 FEW180 20/12 A2988 RMK AO2 SLP117 T02000122 56009","updated":"2026-04-30T20:58:49Z"}
