{"icao":"LPMR","metar":"LPMR 261900Z 20018G29KT 180V250 9999 FEW014 SCT028 16/11 Q1006","updated":"2026-01-26T19:22:16Z"}
