{"icao":"LPBJ","metar":"LPBJ 241500Z 03004KT 340V120 9999 FEW030 23/09 Q1016","updated":"2026-04-24T15:06:37Z"}
