{"icao":"LPFR","metar":"LPFR 220800Z 06011KT CAVOK 13/05 Q1027","updated":"2026-02-22T08:30:12Z"}
