{"icao":"LPPS","metar":"LPPS 160200Z 06010KT 010V080 9999 SCT012 SCT030 14/13 Q1018","updated":"2026-03-16T02:22:53Z"}
