{"icao":"KORD","metar":"KORD 091951Z 27012G28KT 10SM BKN100 BKN130 24/02 A2964 RMK AO2 PK WND 24033/1910 SLP035 T02390017","updated":"2026-05-09T19:59:21Z"}
