{"icao":"LPCS","metar":"LPCS 230600Z 01010KT CAVOK 15/07 Q1017","updated":"2025-09-23T06:26:53Z"}
