{"icao":"LPPR","metar":"LPPR 140400Z 16014KT 9999 -SHRA SCT018CB BKN040 14/12 Q0999","updated":"2025-11-14T04:21:45Z"}
