{"icao":"LPMR","metar":"LPMR 251500Z 33014KT CAVOK 20/13 Q1016","updated":"2026-04-25T15:38:04Z"}
