{"icao":"LPAZ","metar":"LPAZ 122000Z 32023KT 9999 FEW028 15/09 Q1018","updated":"2026-01-12T20:23:59Z"}
