{"icao":"LPFR","metar":"LPFR 071000Z VRB02KT 9999 FEW015 BKN050 17/13 Q1025","updated":"2025-12-07T10:17:19Z"}
