{"icao":"LPBJ","metar":"LPBJ 170800Z 07004KT CAVOK 16/15 Q1015","updated":"2025-10-17T08:24:29Z"}
