{"icao":"LPPT","metar":"LPPT 130300Z 03010KT 010V070 9999 FEW004 BKN045 12/11 Q1017","updated":"2025-12-13T03:14:45Z"}
