{"icao":"LPPD","metar":"LPPD 291700Z 35011KT 9999 SCT018 BKN035 18/13 Q1028","updated":"2025-11-29T17:15:40Z"}
