{"icao":"KJFK","metar":"KJFK 161651Z 26019G27KT 10SM FEW060 SCT160 BKN250 M01/M14 A2991 RMK AO2 PK WND 29030/1635 SLP129 T10111139 $","updated":"2026-01-16T17:23:54Z"}
