{"icao":"LPMA","metar":"LPMA 101030Z 21003KT 170V240 9999 FEW015 19/14 Q1025","updated":"2026-02-10T11:04:14Z"}
