{"icao":"LPFL","metar":"LPFL 311430Z 17012KT 9999 FEW023 18/12 Q1030","updated":"2026-03-31T15:00:23Z"}
