{"icao":"LPMT","metar":"LPMT 291000Z 25017KT 5000 BR SCT005 BKN007 16/16 Q1009","updated":"2026-01-29T10:35:23Z"}
