{"icao":"LPBJ","metar":"LPBJ 140900Z 09004KT 060V120 CAVOK 21/12 Q1017","updated":"2025-10-14T09:19:51Z"}
