{"icao":"LPMR","metar":"LPMR 281200Z 01008KT 330V030 9999 SCT025 15/08 Q1024","updated":"2025-11-28T12:38:31Z"}
