{"icao":"KLAX","metar":"KLAX 012253Z 24012KT 10SM FEW029 SCT060 19/13 A2990 RMK AO2 SLP123 T01940133","updated":"2026-05-01T23:50:57Z"}
