{"icao":"LPPS","metar":"LPPS 190600Z 02016KT 9999 SCT012 SCT030 16/14 Q1023","updated":"2025-12-19T06:30:32Z"}
