{"icao":"KORD","metar":"KORD 272051Z 06010KT 10SM FEW025 FEW070 BKN250 24/17 A2996 RMK AO2 SLP141 T02390167 56012 $","updated":"2026-06-27T21:01:58Z"}
