{"icao":"LPMT","metar":"LPMT 161600Z 27007KT 230V290 CAVOK 25/12 Q1013","updated":"2025-10-16T16:23:11Z"}
