{"icao":"KORD","metar":"KORD 311951Z 26009KT 10SM FEW034 BKN085 11/02 A2986 RMK AO2 SLP112 T01060022 $","updated":"2025-10-31T20:20:06Z"}
