{"icao":"LPFR","metar":"LPFR 212000Z 34008KT CAVOK 12/02 Q1027","updated":"2025-11-21T20:21:07Z"}
