{"icao":"LPFL","metar":"LPFL 041730Z 30018G34KT 240V360 9000 -SHRA FEW017 SCT020 FEW022TCU 13/08 Q0992","updated":"2026-02-04T17:43:43Z"}
