{"icao":"LPPD","metar":"LPPD 051100Z 20011KT 150V220 9999 FEW020 16/08 Q1020","updated":"2026-04-05T11:28:25Z"}
