{"icao":"LPPD","metar":"LPPD 311000Z 04009KT 010V070 9999 FEW020 15/10 Q1031","updated":"2026-03-31T10:10:17Z"}
