{"icao":"LPAR","metar":"LPAR 291200Z 26012KT 7000 -RADZ BKN007 BKN012 17/16 Q1009 RERADZ","updated":"2026-01-29T12:55:09Z"}
