{"icao":"LPFR","metar":"LPFR 152100Z 06004KT CAVOK 22/17 Q1015","updated":"2025-10-15T21:15:43Z"}
