{"icao":"LPPD","metar":"LPPD 111230Z 29009KT 270V330 9999 FEW015 BKN040 15/12 Q1019","updated":"2026-01-11T12:39:03Z"}
