{"icao":"LPPT","metar":"LPPT 010530Z 33013G25KT 9999 FEW008 SCT011 17/15 Q1018 WS R02","updated":"2026-06-01T06:00:58Z"}
