{"icao":"LPOV","metar":"LPOV 301400Z 06003KT 340V070 CAVOK 14/06 Q1020","updated":"2025-11-30T20:19:51Z"}
