{"icao":"LPFR","metar":"LPFR 210800Z 12011KT 9000 FEW008 SCT018 15/14 Q1008","updated":"2026-03-21T08:31:33Z"}
