{"icao":"LPAZ","metar":"LPAZ 140400Z 18003KT 130V240 9999 SCT016 11/10 Q1032","updated":"2026-02-14T04:11:49Z"}
