{"icao":"LPOV","metar":"LPOV 221800Z 24007KT CAVOK 13/11 Q1027","updated":"2026-02-22T19:23:11Z"}
