{"icao":"LPLA","metar":"LPLA 020000Z 15004KT CAVOK 16/15 Q1030","updated":"2026-06-02T00:12:06Z"}
