{"icao":"LPBJ","metar":"LPBJ 031900Z 10009KT 9999 -RA BKN008 OVC040 13/12 Q0998","updated":"2026-01-03T19:14:22Z"}
