{"icao":"LPLA","metar":"LPLA 081200Z 14017KT 7000 -RA SCT005 BKN016 FEW020TCU 21/21 Q1024","updated":"2025-10-08T12:37:29Z"}
