{"icao":"KORD","metar":"KORD 291651Z 30013G29KT 6SM -SN OVC025 M05/M09 A2994 RMK AO2 PK WND 27029/1609 SLP147 P0000 T10501094","updated":"2025-12-29T17:17:35Z"}
