{"icao":"KORD","metar":"KORD 171910Z 26017G24KT 10SM -SN FEW027 BKN036 M09/M17 A2997 RMK AO2 PK WND 23027/1856 SNB09 P0000 T10941167 $","updated":"2026-01-17T19:14:14Z"}
