{"icao":"LPPT","metar":"LPPT 241300Z 24011KT 220V280 9999 -RA SCT012 SCT020 17/16 Q1018","updated":"2025-11-24T13:32:22Z"}
