{"icao":"LPMA","metar":"LPMA 112100Z 01017KT 9999 BKN013 15/12 Q1025","updated":"2026-03-11T21:32:13Z"}
