{"icao":"LPAR","metar":"LPAR 291700Z 33007KT 290V360 9999 FEW018 21/15 Q1009","updated":"2025-10-29T20:20:46Z"}
