{"icao":"LPMR","metar":"LPMR 221400Z 33005KT 280V030 CAVOK 15/02 Q1029","updated":"2025-11-22T14:15:22Z"}
