{"icao":"LPPR","metar":"LPPR 171500Z 31008KT 270V340 CAVOK 21/15 Q1017","updated":"2026-06-17T15:24:34Z"}
