{"icao":"LPOV","metar":"LPOV 041900Z 27002KT 1000 -DZ BR BKN005 BKN018 18/17 Q1023","updated":"2025-10-04T19:11:49Z"}
