{"icao":"LPMR","metar":"LPMR 241700Z 27004KT 210V310 CAVOK 21/15 Q1020","updated":"2026-05-24T18:04:31Z"}
