{"icao":"LPPT","metar":"LPPT 280330Z 35014KT 9999 FEW025 10/06 Q1025","updated":"2026-02-28T03:53:25Z"}
