{"icao":"KJFK","metar":"KJFK 020251Z 06006KT 10SM BKN250 00/M07 A3031 RMK AO2 SLP262 T00001072 58006 $","updated":"2025-12-02T03:17:41Z"}
