{"icao":"KORD","metar":"KORD 041651Z 22008KT 10SM FEW110 BKN250 14/M04 A3023 RMK AO2 SLP239 T01391039","updated":"2025-11-04T17:13:39Z"}
