{"icao":"LPOV","metar":"LPOV 241500Z 23012KT 9999 SCT018 16/12 Q1015","updated":"2026-02-24T15:57:09Z"}
