{"icao":"LPFR","metar":"LPFR 081400Z 35009KT 320V030 CAVOK 22/08 Q1020","updated":"2025-11-08T14:15:15Z"}
