{"icao":"LPMT","metar":"LPMT 191400Z 24008KT 200V270 9999 FEW029 BKN035 23/17 Q1015","updated":"2025-10-19T14:14:40Z"}
