{"icao":"LPBJ","metar":"LPBJ 241100Z 03003KT 310V070 9999 FEW018 20/11 Q1018","updated":"2026-04-24T11:55:29Z"}
