{"icao":"LPHR","metar":"LPHR 151500Z 22014KT 9999 FEW020 21/16 Q1005","updated":"2025-10-15T15:17:53Z"}
