{"icao":"KORD","metar":"KORD 150751Z 13005KT 10SM CLR 19/13 A3012 RMK AO2 SLP196 T01940133 $","updated":"2025-09-15T08:23:41Z"}
