{"icao":"LPMR","metar":"LPMR 090500Z 16004KT 8000 NSC 07/07 Q1021 RMK WIND RWY36 16002KT RH96 FEW220 BLU","updated":"2025-11-09T06:25:15Z"}
