{"icao":"KORD","metar":"KORD 221951Z 29016G25KT 10SM OVC031 09/02 A2987 RMK AO2 PK WND 27026/1856 SLP117 T00940022","updated":"2025-10-22T20:21:48Z"}
