{"icao":"LPPS","metar":"LPPS 231100Z 14006KT 110V190 CAVOK 19/13 Q1014","updated":"2026-04-23T11:06:36Z"}
