{"icao":"LPPT","metar":"LPPT 051000Z 24015KT 9999 FEW008 BKN014 FEW025TCU 18/17 Q1008 WS R20","updated":"2025-11-05T10:20:27Z"}
