{"icao":"LPMA","metar":"LPMA 101500Z 01008KT 320V080 9999 FEW016 19/11 Q1025","updated":"2025-12-10T15:23:41Z"}
