{"icao":"LPHR","metar":"LPHR 181100Z 12003KT 070V150 9000 VCSH SCT010 18/14 Q1027","updated":"2025-11-18T11:17:34Z"}
