{"icao":"LPPD","metar":"LPPD 210200Z 30009KT 9999 FEW020 SCT040 12/07 Q1013","updated":"2026-04-21T02:30:48Z"}
