{"icao":"KJFK","metar":"KJFK 160851Z 04006KT 10SM SCT055 BKN170 BKN250 18/16 A3022 RMK AO2 SLP233 T01780156 56007 $","updated":"2025-09-16T09:19:07Z"}
