{"icao":"LPLA","metar":"LPLA 120600Z 33009KT 280V340 9999 FEW025 11/07 Q1032","updated":"2025-12-12T06:31:16Z"}
