{"icao":"LPHR","metar":"LPHR 181600Z 27008KT 220V300 9999 FEW010 18/15 Q1029","updated":"2026-01-18T16:23:21Z"}
