{"icao":"LPHR","metar":"LPHR 221100Z 19013KT 160V220 9999 FEW010 BKN065 18/16 Q1021","updated":"2026-02-22T11:20:04Z"}
