{"icao":"LPMA","metar":"LPMA 291500Z 02015G25KT 330V060 9999 SCT015 SCT030 24/13 Q1021","updated":"2025-09-29T15:18:49Z"}
