{"icao":"LPOV","metar":"LPOV 171400Z 35016KT CAVOK 17/12 Q1019","updated":"2026-04-17T14:53:56Z"}
