{"icao":"LPPR","metar":"LPPR 102230Z 30006KT 260V320 8000 OVC007 13/12 Q1015","updated":"2026-04-10T22:35:41Z"}
