{"icao":"LPOV","metar":"LPOV 170400Z 22005KT 9999 OVC006 13/13 Q1027","updated":"2026-02-17T04:50:24Z"}
