{"icao":"LPMT","metar":"LPMT 100400Z VRB02KT 9999 BKN026 16/15 Q1018","updated":"2025-11-10T04:26:10Z"}
