{"icao":"KJFK","metar":"KJFK 121651Z 28021G25KT 10SM FEW065 FEW250 00/M14 A3004 RMK AO2 SLP173 T00001139","updated":"2025-12-12T17:18:29Z"}
