{"icao":"LPMR","metar":"LPMR 182100Z 33007KT 9999 FEW009 17/17 Q1016 RMK RH97 BLU","updated":"2026-06-18T22:06:20Z"}
