{"icao":"LPPR","metar":"LPPR 191230Z 33010KT 9999 FEW025 SCT030 12/06 Q1028","updated":"2026-02-19T13:02:49Z"}
