{"icao":"LPFL","metar":"LPFL 151800Z 19006KT 150V220 9999 FEW025 17/11 Q1017","updated":"2025-11-15T18:23:38Z"}
