{"icao":"LPAZ","metar":"LPAZ 121000Z 29033G43KT 9000 VCSH SCT019 FEW025TCU BKN041 17/10 Q1013","updated":"2026-01-12T10:24:21Z"}
