{"icao":"LPAR","metar":"LPAR 221100Z 26009KT 220V310 9999 SCT018 25/18 Q1018","updated":"2025-10-22T11:16:14Z"}
