{"icao":"LPOV","metar":"LPOV 041600Z 19011KT 6000 -RA SCT008 BKN012 14/14 Q0993","updated":"2026-02-04T16:45:24Z"}
