{"icao":"LPFL","metar":"LPFL 241100Z 08003KT 020V130 9999 FEW015CB 21/17 Q1018","updated":"2025-10-24T11:15:59Z"}
