{"icao":"KJFK","metar":"KJFK 281151Z 26015G25KT 10SM FEW055 SCT110 SCT160 01/M06 A2991 RMK AO2 SLP127 T00111061 10022 20006 53005","updated":"2025-11-28T12:38:50Z"}
