{"icao":"LPFL","metar":"LPFL 191230Z 18007KT 140V220 9999 FEW030 15/08 Q1032","updated":"2026-01-19T12:47:15Z"}
