{"icao":"LPPR","metar":"LPPR 301830Z 31017G27KT 270V340 9999 BKN035 BKN046 12/06 Q1007","updated":"2026-01-30T18:40:05Z"}
