{"icao":"LPBJ","metar":"LPBJ 211300Z 34016KT CAVOK 23/05 Q1019","updated":"2025-09-21T13:20:32Z"}
