{"icao":"LPAZ","metar":"LPAZ 121930Z 31011KT 9999 FEW020 15/10 Q1030","updated":"2026-03-12T19:41:14Z"}
