{"icao":"LPMA","metar":"LPMA 091630Z 35009KT 310V020 9999 SCT015 17/09 Q1027","updated":"2026-03-09T16:59:52Z"}
