{"icao":"KJFK","metar":"KJFK 222213Z 05016G24KT 1/2SM R04R/3500V5000FT -SN FZFG VV007 M01/M01 A2989 RMK AO2 P0003 T10061006 $","updated":"2026-02-22T22:22:56Z"}
