{"icao":"KJFK","metar":"KJFK 151151Z 26009KT 10SM FEW110 FEW180 BKN250 21/15 A2994 RMK AO2 SLP140 T02060150 10206 20156 53014","updated":"2026-04-15T11:58:11Z"}
