{"icao":"LPPR","metar":"LPPR 011500Z 30006KT 270V330 CAVOK 23/13 Q1021","updated":"2025-10-01T15:17:28Z"}
