{"icao":"KJFK","metar":"KJFK 231651Z 21010G17KT 10SM FEW060 BKN250 19/08 A2991 RMK SLP128 T01890083 ","updated":"2026-04-23T17:18:32Z"}
