{"icao":"LPOV","metar":"LPOV 260500Z 34005KT CAVOK 11/10 Q1016","updated":"2025-10-26T05:16:49Z"}
