{"icao":"LPPS","metar":"LPPS 220600Z 25008KT 3000 -DZ BR SCT005 BKN010 21/19 Q1020","updated":"2026-06-22T06:28:09Z"}
