{"icao":"LPPD","metar":"LPPD 072200Z 22013KT 9000 -RA FEW006 SCT010 BKN030 14/13 Q1022","updated":"2026-03-07T22:21:40Z"}
