{"icao":"KJFK","metar":"KJFK 101751Z 30014KT 6SM -RA BR FEW011 OVC018 12/09 A2957 RMK AO2 LTG DSNT NW RAB45 SLP014 P0000 60001 T01170094 10139 20117 56029","updated":"2025-11-10T18:27:24Z"}
