{"icao":"LPMR","metar":"LPMR 301700Z 34009KT 9999 FEW028 23/12 Q1019","updated":"2025-09-30T17:15:36Z"}
