{"icao":"KORD","metar":"KORD 142051Z 02012KT 10SM SCT026 BKN220 19/13 A3030 RMK AO2 SLP260 T01890128 56002 $","updated":"2025-10-14T21:15:35Z"}
