{"icao":"LPMT","metar":"LPMT 082000Z 18008KT 160V220 5000 DZRA BR BKN006 BKN012 14/14 Q1011","updated":"2026-02-08T20:26:27Z"}
