{"icao":"LPPT","metar":"LPPT 180330Z 33010KT CAVOK 16/14 Q1016","updated":"2026-06-18T03:50:18Z"}
