{"icao":"KJFK","metar":"KJFK 270251Z 32025G35KT 10SM SCT046 M07/M17 A2994 RMK AO2 PK WND 32035/0249 SLP137 T10721167 51026 $","updated":"2026-01-27T03:47:01Z"}
