{"icao":"KORD","metar":"KORD 210351Z 24003KT 10SM FEW060 BKN250 19/12 A2994 RMK AO2 SLP133 T01940117 $","updated":"2026-06-21T04:04:41Z"}
