{"icao":"LPPR","metar":"LPPR 242100Z 04007KT 350V060 CAVOK 18/09 Q1018","updated":"2025-09-24T21:15:02Z"}
