{"icao":"KLAX","metar":"KLAX 112053Z 24011KT 10SM FEW010 23/13 A2977 RMK AO2 SLP081 T02280133 58012 $","updated":"2025-10-11T21:14:04Z"}
