{"icao":"LPLA","metar":"LPLA 261600Z 21013KT 180V240 9000 -SHRA SCT007 BKN015 18/14 Q1014","updated":"2026-05-26T16:41:02Z"}
