{"icao":"LPPS","metar":"LPPS 011300Z 05008KT 310V090 9999 FEW014 19/14 Q1024","updated":"2026-04-01T13:19:37Z"}
