{"icao":"LPOV","metar":"LPOV 211200Z 21008KT 160V260 9999 SCT005 BKN030 20/19 Q1013","updated":"2025-10-21T12:38:43Z"}
