{"icao":"LPHR","metar":"LPHR 292100Z 03004KT 010V070 9999 FEW015 16/15 Q1029","updated":"2025-11-29T21:15:52Z"}
