{"icao":"LPFR","metar":"LPFR 281700Z 18007KT CAVOK 17/11 Q1020","updated":"2026-02-28T17:19:12Z"}
