{"icao":"KJFK","metar":"KJFK 092051Z 02012KT 10SM FEW060 14/M03 A3044 RMK AO2 SLP307 T01441033 53001","updated":"2025-10-09T21:15:42Z"}
