{"icao":"KLAX","metar":"KLAX 121653Z 00000KT 7SM FEW008 BKN014 OVC018 16/12 A3001 RMK AO2 SLP163 T01610122","updated":"2026-05-12T17:09:12Z"}
