{"icao":"KORD","metar":"KORD 151151Z 21014G27KT 10SM BKN210 OVC250 16/13 A2955 RMK AO2 PK WND 20029/1131 SLP007 T01610128 10167 20156 56030 $","updated":"2025-11-15T12:34:33Z"}
