{"icao":"LPPT","metar":"LPPT 141700Z 29010KT 260V320 5000 -DZ BR FEW004 BKN007 14/14 Q1016 REDZ","updated":"2026-03-14T17:25:27Z"}
