{"icao":"LPPD","metar":"LPPD 191930Z 35008KT 320V020 9999 FEW016 BKN030 17/11 Q1015","updated":"2026-04-19T19:40:08Z"}
