{"icao":"KORD","metar":"KORD 311051Z 29007KT 10SM FEW065 FEW250 05/02 A2983 RMK AO2 SLP103 T00500017 $","updated":"2025-10-31T11:15:35Z"}
