{"icao":"LPPT","metar":"LPPT 092230Z 22005KT CAVOK 17/13 Q1014","updated":"2026-04-09T22:39:11Z"}
