{"icao":"LPFR","metar":"LPFR 202030Z 12007KT CAVOK 20/13 Q1008","updated":"2026-04-20T20:43:28Z"}
