{"icao":"KLAX","metar":"KLAX 111553Z 10003KT 9SM FEW250 15/11 A3025 RMK AO2 SLP243 T01500106 $","updated":"2026-03-11T16:50:58Z"}
