{"icao":"LPPS","metar":"LPPS 050700Z 03006KT 9999 FEW015 BKN030 21/14 Q1024","updated":"2025-10-05T07:14:31Z"}
