{"icao":"LPCS","metar":"LPCS 292030Z 03006KT CAVOK 09/09 Q1020","updated":"2025-12-30T03:26:17Z"}
