{"icao":"KLAX","metar":"KLAX 091253Z 30003KT 1/4SM R25L/1800V4500FT FG VV002 16/15 A3003 RMK AO2 SLP169 T01560150","updated":"2025-11-09T13:23:05Z"}
