{"icao":"KJFK","metar":"KJFK 310851Z 18006KT 10SM BKN075 OVC095 09/07 A3003 RMK AO2 RAE0755 SLP168 P0000 60000 T00940072 58014","updated":"2026-03-31T09:02:06Z"}
