{"icao":"LPAZ","metar":"LPAZ 141830Z 03009KT 350V050 9999 FEW026 17/10 Q1029","updated":"2026-05-14T18:59:15Z"}
