{"icao":"LPCS","metar":"LPCS 131300Z 07010KT 040V110 CAVOK 17/11 Q1019","updated":"2025-12-13T13:25:53Z"}
