{"icao":"LPBJ","metar":"LPBJ 310700Z 09004KT 0400 FG NSC 03/03 Q1019","updated":"2025-12-31T07:22:41Z"}
