{"icao":"LPOV","metar":"LPOV 042300Z 17013KT 9999 -RADZ BKN007 BKN010 13/13 Q0992","updated":"2026-02-04T23:26:01Z"}
