{"icao":"LPFL","metar":"LPFL 041100Z 25011G25KT 170V310 9999 SCT019 16/09 Q0991","updated":"2026-02-04T11:31:56Z"}
