{"icao":"LPPT","metar":"LPPT 112100Z 33011KT CAVOK 26/11 Q1017","updated":"2026-06-11T21:17:50Z"}
