{"icao":"LPPD","metar":"LPPD 211300Z 27029KT 9000 -SHRA SCT016 BKN030 15/10 Q1006","updated":"2026-04-21T13:23:54Z"}
