{"icao":"LPLA","metar":"LPLA 011400Z 35007KT 320V020 9999 SCT020 BKN025 17/12 Q1017","updated":"2026-05-01T14:53:47Z"}
