{"icao":"LPLA","metar":"LPLA 260400Z 07010G21KT 330V130 9999 FEW022 SCT030 19/11 Q1023","updated":"2025-10-26T04:20:10Z"}
