{"icao":"LPCS","metar":"LPCS 181730Z 03007KT CAVOK 23/14 Q1015","updated":"2026-04-18T17:35:13Z"}
