{"icao":"KJFK","metar":"KJFK 241751Z VRB04KT 10SM FEW250 07/M10 A3038 RMK AO2 SLP287 T00721100 10072 20011 58016","updated":"2026-03-24T17:54:51Z"}
