{"icao":"LPMR","metar":"LPMR 091900Z 091900Z 32005KT 9999 FEW030 12/08 Q1028","updated":"2026-01-09T19:18:48Z"}
