{"icao":"LPMA","metar":"LPMA 100900Z 01008KT 310V060 9999 SCT015 SCT030 22/15 Q1023","updated":"2025-10-10T09:19:19Z"}
