{"icao":"LPPT","metar":"LPPT 311600Z 04009KT 330V080 CAVOK 25/10 Q1023","updated":"2026-03-31T16:11:04Z"}
