{"icao":"LPBJ","metar":"LPBJ 242200Z 26010KT CAVOK 19/16 Q1015","updated":"2026-06-24T22:15:19Z"}
