{"icao":"KORD","metar":"KORD 281251Z 00000KT 1/4SM R10L/3000VP6000FT RA FG VV003 08/08 A2965 RMK AO2 SLP043 P0008 T00830083 $","updated":"2025-12-28T13:28:57Z"}
