{"icao":"LPHR","metar":"LPHR 201400Z 27025KT 9999 FEW006 SCT012 BKN022 18/16 Q1024","updated":"2026-01-20T14:29:46Z"}
