{"icao":"LPMT","metar":"LPMT 092100Z 27004KT CAVOK 17/13 Q1014","updated":"2026-04-09T21:43:26Z"}
