{"icao":"LPCS","metar":"LPCS 151900Z 25006KT 220V280 9999 FEW022 17/13 Q1009","updated":"2025-11-15T19:12:24Z"}
