{"icao":"KJFK","metar":"KJFK 232251Z 21005KT 10SM FEW070 SCT140 BKN190 BKN250 14/07 A2984 RMK SLP104 T01440072 ","updated":"2026-04-23T23:43:26Z"}
