{"icao":"KLAX","metar":"KLAX 301253Z 00000KT 1/8SM R25L/2000V4000FT FG VV001 14/14 A2993 RMK AO2 SLP134 VIS N 1/4 T01390139 $","updated":"2026-03-30T13:17:04Z"}
