{"icao":"LPPD","metar":"LPPD 281300Z 11010KT 9999 FEW025 23/14 Q1029","updated":"2025-09-28T13:20:38Z"}
