{"icao":"LPBJ","metar":"LPBJ 112300Z 28015KT 4000 BR OVC004 15/15 Q1020","updated":"2026-02-11T23:30:57Z"}
