{"icao":"LPFL","metar":"LPFL 260900Z 03010KT 360V060 9999 SCT020 18/12 Q1028","updated":"2025-10-26T09:16:21Z"}
