{"icao":"LPPD","metar":"LPPD 300100Z 15007KT 0800 R30/1300U -RADZ FG VV001 20/20 Q1023","updated":"2025-09-30T01:19:48Z"}
