{"icao":"LPST","metar":"LPST 081100Z 25005KT 9999 FEW012 SCT016 12/10 Q1033","updated":"2026-01-08T12:42:51Z"}
