{"icao":"LPHR","metar":"LPHR 140900Z 24018KT 6000 -SHRA SCT003 BKN006 18/18 Q1021","updated":"2025-12-14T09:18:57Z"}
