{"icao":"LPBJ","metar":"LPBJ 171900Z 28014KT 9999 FEW040 18/09 Q1017","updated":"2026-05-17T19:06:45Z"}
