{"icao":"KLAX","metar":"KLAX 220453Z 25009KT 6SM BR FEW010 BKN160 OVC250 15/13 A3006 RMK AO2 SLP177 T01500128 $","updated":"2026-01-22T05:27:24Z"}
