{"icao":"KJFK","metar":"KJFK 102351Z 19010KT 10SM SCT060 SCT170 BKN250 21/18 A2981 RMK AO2 SLP093 T02060183 10250 20206 55009 $","updated":"2026-06-11T00:14:48Z"}
