{"icao":"KJFK","metar":"KJFK 030951Z 30016G24KT 10SM FEW050 M04/M14 A2993 RMK AO2 SLP134 T10391144 $","updated":"2026-01-03T10:19:46Z"}
