{"icao":"LPPT","metar":"LPPT 242100Z 33010KT CAVOK 21/03 Q1017","updated":"2025-09-24T21:15:02Z"}
