{"icao":"LPCS","metar":"LPCS 141330Z 28010KT 240V320 4000 -DZ BR FEW002 BKN006 13/12 Q1018","updated":"2026-03-14T13:44:18Z"}
