{"icao":"LPBJ","metar":"LPBJ 141100Z VRB02KT 0300 FG NSC 09/09 Q1021","updated":"2026-01-14T11:20:15Z"}
