{"icao":"LPFR","metar":"LPFR 031700Z 13010KT 8000 FEW012 FEW018TCU SCT035 16/14 Q0996","updated":"2026-01-03T17:16:16Z"}
