{"icao":"LPPD","metar":"LPPD 122030Z 24009KT 220V280 9999 FEW018 BKN028 15/10 Q1028","updated":"2026-04-12T20:34:44Z"}
