{"icao":"KJFK","metar":"KJFK 270551Z 32006KT 10SM FEW250 08/04 A3019 RMK SLP223 T00780044 10089 20067 5","updated":"2026-04-27T05:52:34Z"}
