{"icao":"KORD","metar":"KORD 170051Z 26006KT 10SM CLR 05/M09 A2994 RMK AO2 SLP144 T00501089 $","updated":"2025-11-17T01:24:59Z"}
