{"icao":"LPFR","metar":"LPFR 212200Z 02007KT CAVOK 15/04 Q1027","updated":"2026-02-21T22:22:16Z"}
