{"icao":"LPFL","metar":"LPFL 050900Z 18006KT 120V240 9999 FEW019 SCT038 17/09 Q1014","updated":"2025-11-05T09:20:53Z"}
