{"icao":"LPAZ","metar":"LPAZ 101600Z 21018KT 1700 BR SCT004 BKN010 18/17 Q1013","updated":"2026-02-10T16:09:00Z"}
