{"icao":"LPOV","metar":"LPOV 010600Z VRB01KT CAVOK 12/11 Q1020","updated":"2025-10-01T06:27:01Z"}
