{"icao":"LPPT","metar":"LPPT 201600Z 25008KT 220V290 CAVOK 25/03 Q1009","updated":"2026-04-20T16:07:25Z"}
