{"icao":"LPHR","metar":"LPHR 271600Z 12019KT 9000 -RA SCT010 BKN025 13/12 Q1018","updated":"2025-12-27T16:22:32Z"}
