{"icao":"KJFK","metar":"KJFK 191351Z 04007KT 8SM -RA FEW012 FEW030 OVC048 04/03 A3019 RMK AO2 SLP223 P0007 T00390028 $","updated":"2025-11-19T14:18:53Z"}
