{"icao":"LPMA","metar":"LPMA 200400Z VRB02KT 9999 FEW015 22/12 Q1018","updated":"2025-09-20T04:19:45Z"}
