{"icao":"KJFK","metar":"KJFK 040351Z 15003KT 10SM FEW140 BKN250 11/09 A3012 RMK AO2 SLP199 T01110094","updated":"2026-04-04T04:48:51Z"}
