{"icao":"LPCS","metar":"LPCS 222000Z 26016KT 230V300 7000 VCSH SCT002 BKN005 15/15 Q1004","updated":"2026-01-22T20:26:21Z"}
