{"icao":"LPBJ","metar":"LPBJ 151300Z 34004KT 240V040 CAVOK 21/11 Q1023","updated":"2026-04-15T13:52:57Z"}
