{"icao":"LPPR","metar":"LPPR 022100Z 10004KT CAVOK 13/12 Q1026","updated":"2025-11-02T21:14:25Z"}
