{"icao":"LPMT","metar":"LPMT 022200Z VRB02KT CAVOK 13/11 Q1025","updated":"2025-11-02T22:15:23Z"}
