{"icao":"KORD","metar":"KORD 040051Z 15003KT 10SM CLR 26/14 A3011 RMK AO2 SLP192 T02610144 $","updated":"2025-10-04T01:15:07Z"}
