{"icao":"LPPR","metar":"LPPR 110600Z 17012KT 6000 -DZRA BKN005 BKN012 11/11 Q1024","updated":"2026-01-11T06:30:13Z"}
