{"icao":"KJFK","metar":"KJFK 271851Z 14012KT 10SM FEW050 FEW250 17/03 A3025 RMK SLP242 T01670028 ","updated":"2026-04-27T19:19:15Z"}
