{"icao":"LPMR","metar":"LPMR 191100Z 29006KT 260V340 9999 FEW007 21/14 Q1016","updated":"2026-04-19T11:33:46Z"}
