{"icao":"LPPD","metar":"LPPD 102030Z 22019KT 2000 BR BKN002 BKN004 17/16 Q1012","updated":"2026-02-10T20:42:47Z"}
