{"icao":"LPPT","metar":"LPPT 051600Z 35014KT 320V020 9999 FEW033 09/01 Q1014","updated":"2026-01-05T16:26:21Z"}
