{"icao":"LPFL","metar":"LPFL 231600Z 20009KT 150V230 9999 FEW010 SCT015 20/15 Q1024","updated":"2025-11-23T16:21:11Z"}
