{"icao":"LPPR","metar":"LPPR 252300Z 13003KT 080V190 CAVOK 15/07 Q1018","updated":"2025-09-25T23:15:40Z"}
