{"icao":"LPPT","metar":"LPPT 011930Z 32012KT CAVOK 27/16 Q1017 NOSIG","updated":"2026-07-01T19:51:52Z"}
