{"icao":"KLAX","metar":"KLAX 020253Z 26010KT 10SM FEW010 19/17 A2999 RMK AO2 SLP153 T01940167 53004 $","updated":"2025-10-02T03:29:17Z"}
