{"icao":"LPMR","metar":"LPMR 101800Z 34006KT CAVOK 21/10 Q1020","updated":"2025-10-10T18:25:10Z"}
