{"icao":"LPOV","metar":"LPOV 031400Z 27006KT 210V330 CAVOK 17/13 Q1022","updated":"2025-11-03T14:18:40Z"}
