{"icao":"LPAZ","metar":"LPAZ 020530Z 01018KT 9999 FEW030 SCT049 12/05 Q1027","updated":"2026-03-02T05:51:35Z"}
