{"icao":"LPFL","metar":"LPFL 251400Z 27006KT 210V360 4000 RA SCT010 BKN014 FEW020CB 17/14 Q1007 RERA","updated":"2026-01-25T14:18:03Z"}
