{"icao":"LPPT","metar":"LPPT 210700Z 00000KT CAVOK 06/05 Q1029","updated":"2026-02-21T07:30:46Z"}
