{"icao":"LPPS","metar":"LPPS 161430Z 01014KT 9999 FEW015 BKN030 19/12 Q1024","updated":"2026-05-16T14:55:22Z"}
