{"icao":"KJFK","metar":"KJFK 220951Z 04003KT 5SM -RA BR BKN029 OVC035 09/07 A2986 RMK AO2 RAB18 SLP111 P0000 T00890072","updated":"2025-11-22T10:18:04Z"}
