{"icao":"KLAX","metar":"KLAX 070053Z 25013KT 10SM FEW015 19/15 A2981 RMK AO2 SLP093 T01940150 $","updated":"2025-10-07T01:17:44Z"}
