{"icao":"KORD","metar":"KORD 130551Z 26007KT 10SM SCT300 06/M02 A3007 RMK AO2 SLP186 T00561022 10100 20056 401280033 52016 $","updated":"2025-11-13T06:29:19Z"}
