{"icao":"LPLA","metar":"LPLA 241800Z 21020G32KT 180V240 6000 -RADZ BKN006 BKN014 17/16 Q1010","updated":"2026-04-24T18:50:14Z"}
