{"icao":"LPOV","metar":"LPOV 221700Z 16015KT 0800 DZRA FG FEW002 SCT004 BKN006 11/11 Q0998 RERADZ","updated":"2026-01-22T17:27:18Z"}
