{"icao":"LPPR","metar":"LPPR 210800Z 36004KT 330V040 CAVOK 15/11 Q1022","updated":"2025-09-21T08:19:40Z"}
