{"icao":"LPCS","metar":"LPCS 291230Z 25017KT 2500 -RADZ BR FEW001 BKN002 16/16 Q1010","updated":"2026-01-29T12:55:08Z"}
