{"icao":"LPMA","metar":"LPMA 292200Z 33008KT 290V010 9999 FEW015 20/14 Q1018","updated":"2025-10-29T22:18:00Z"}
