{"icao":"KLAX","metar":"KLAX 280253Z 25004KT 10SM CLR 18/15 A2993 RMK AO2 SLP134 T01780150 53006 $","updated":"2025-10-28T03:06:26Z"}
