{"icao":"LPFL","metar":"LPFL 131930Z 25011KT 220V300 7000 -RA BKN012 17/14 Q1011 RERA","updated":"2026-04-14T02:28:39Z"}
