{"icao":"LPLA","metar":"LPLA 172000Z 22011KT 190V260 9999 FEW007 BKN014 23/21 Q1011","updated":"2025-10-17T20:19:46Z"}
