{"icao":"LPBJ","metar":"LPBJ 280336Z 21020KT 4000 RA BR SCT014 BKN022 10/10 Q0998","updated":"2026-01-28T03:43:51Z"}
