{"icao":"KORD","metar":"KORD 250151Z 10007KT 10SM SCT180 SCT250 05/M04 A3022 RMK AO2 SLP238 T00501044","updated":"2026-03-25T02:05:56Z"}
