{"icao":"KLAX","metar":"KLAX 081453Z 33006KT 7SM FEW009 OVC014 17/14 A2991 RMK AO2 SLP128 T01720144 51012 $","updated":"2025-10-08T15:19:03Z"}
