{"icao":"LPPR","metar":"LPPR 310400Z 19013G23KT 160V220 3000 +RA BKN011 FEW017TCU 16/16 Q1009","updated":"2025-10-31T04:22:12Z"}
