{"icao":"LPPT","metar":"LPPT 231300Z 28004KT 230V330 9999 FEW020 SCT026 BKN030 23/18 Q1020","updated":"2025-10-23T13:30:33Z"}
