{"icao":"LPPT","metar":"LPPT 111600Z 03007KT 360V080 CAVOK 28/09 Q1017","updated":"2025-10-11T16:18:25Z"}
