{"icao":"KORD","metar":"KORD 041751Z 24014G26KT 10SM FEW075 SCT250 24/04 A2953 RMK AO2 PK WND 20026/1741 SLP996 T02440044 10244 20117 58022","updated":"2026-05-04T18:13:35Z"}
