{"icao":"LPPD","metar":"LPPD 221900Z 19011KT 160V230 9999 FEW020 BKN030 21/16 Q1022","updated":"2025-09-22T19:14:05Z"}
