{"icao":"KORD","metar":"KORD 171451Z 25010G22KT 10SM SCT023 M11/M17 A2993 RMK AO2 PK WND 26028/1414 SLP144 T11111167 51028 $","updated":"2026-01-17T15:18:38Z"}
