{"icao":"LPAZ","metar":"LPAZ 280330Z 26026KT 8000 BKN008 17/16 Q1008","updated":"2026-01-28T03:44:04Z"}
