{"icao":"LPBJ","metar":"LPBJ 101900Z 05006KT CAVOK 24/10 Q1019","updated":"2025-10-10T19:13:44Z"}
