{"icao":"KORD","metar":"KORD 271451Z 20008KT 6SM BR FEW003 SCT090 BKN250 03/01 A2990 RMK AO2 SLP129 I3000 T00330011 51005","updated":"2026-02-27T15:36:28Z"}
