{"icao":"LPBJ","metar":"LPBJ 162000Z 31013KT CAVOK 18/08 Q1016","updated":"2026-05-16T20:43:19Z"}
