{"icao":"LPHR","metar":"LPHR 090830Z 23020KT 4000 -DZ BR SCT002 BKN005 18/17 Q1008","updated":"2026-02-09T08:55:46Z"}
