{"icao":"KJFK","metar":"KJFK 301751Z 19010KT 10SM FEW085 SCT120 BKN250 17/06 A3013 RMK AO2 SLP203 T01670061 10183 20072 58022 $","updated":"2026-03-30T17:53:26Z"}
