{"icao":"KLAX","metar":"KLAX 312153Z 13004G15KT 10SM FEW026 FEW040 OVC150 21/14 A2995 RMK AO2 SLP142 T02060139 $","updated":"2026-03-31T22:33:23Z"}
