{"icao":"LPFL","metar":"LPFL 121300Z 29010G22KT 230V010 9999 FEW028 16/06 Q1018","updated":"2026-02-12T13:04:51Z"}
