{"icao":"KORD","metar":"KORD 032051Z 21020G34KT 10SM BKN070 BKN110 BKN250 19/02 A2974 RMK AO2 PK WND 19038/2018 SLP069 T01890017 56037 $","updated":"2026-05-03T21:40:24Z"}
