{"icao":"LPPT","metar":"LPPT 092300Z 31008KT 290V350 CAVOK 19/13 Q1020","updated":"2025-10-09T23:15:26Z"}
