{"icao":"KLAX","metar":"KLAX 150700Z 10009KT 8SM -RA SCT005 BKN050 OVC085 17/17 A2993 RMK AO2 P0001 T01720167 $","updated":"2025-11-15T07:15:36Z"}
