{"icao":"LPFR","metar":"LPFR 020230Z VRB02KT CAVOK 16/11 Q1017","updated":"2026-05-02T02:36:11Z"}
