{"icao":"KJFK","metar":"KJFK 130751Z 25008KT 10SM FEW250 01/M03 A3012 RMK AO2 SLP200 T00061028 $","updated":"2026-01-13T08:29:37Z"}
