{"icao":"LPHR","metar":"LPHR 191200Z 27008KT 240V300 6000 VCSH SCT003 BKN005 22/22 Q1017","updated":"2025-10-19T12:33:15Z"}
