{"icao":"LPPS","metar":"LPPS 022300Z 15006KT 9999 FEW014 21/18 Q1024","updated":"2025-11-02T23:15:35Z"}
