{"icao":"KLAX","metar":"KLAX 061653Z 09004KT 10SM CLR 14/03 A3007 RMK AO2 SLP182 T01440033 $","updated":"2025-12-06T17:15:29Z"}
