{"icao":"KLAX","metar":"KLAX 311053Z 08005KT 10SM SCT110 BKN200 18/04 A3005 RMK AO2 SLP175 T01780039 $","updated":"2025-12-31T11:18:08Z"}
