{"icao":"LPFL","metar":"LPFL 261200Z 06004KT 360V140 9999 FEW019 21/15 Q1025","updated":"2026-06-26T12:09:35Z"}
