{"icao":"LPAR","metar":"LPAR 191300Z 01006KT 290V070 9999 FEW025 15/07 Q1020","updated":"2026-01-19T13:44:03Z"}
