{"icao":"LPPT","metar":"LPPT 271530Z 36012KT 9999 FEW014 BKN017 15/12 Q1024","updated":"2026-02-27T15:36:23Z"}
