{"icao":"LPAR","metar":"LPAR 161500Z 31008KT 280V340 9999 FEW025 BKN035 17/11 Q1030","updated":"2026-02-16T15:39:09Z"}
