{"icao":"LPMA","metar":"LPMA 111100Z 02017G30KT 340V060 9999 -SHRA BKN015 15/11 Q1026","updated":"2026-03-11T11:32:28Z"}
