{"icao":"LPMT","metar":"LPMT 011600Z 35005KT 310V030 CAVOK 24/07 Q1021","updated":"2026-04-01T16:53:20Z"}
