{"icao":"LPBJ","metar":"LPBJ 260300Z 27003KT CAVOK 05/04 Q1023","updated":"2025-11-26T03:13:38Z"}
