{"icao":"LPPD","metar":"LPPD 020300Z 22004KT 9999 FEW004 BKN008 22/21 Q1022","updated":"2025-10-02T03:29:14Z"}
