{"icao":"KORD","metar":"KORD 111351Z 35011KT 10SM OVC010 03/01 A2968 RMK AO2 RAE1259 SLP055 P0000 T00280011","updated":"2026-03-11T14:07:27Z"}
