{"icao":"LPPR","metar":"LPPR 260700Z 13005KT 090V170 CAVOK 12/06 Q1018","updated":"2025-09-26T07:17:01Z"}
