{"icao":"LPMA","metar":"LPMA 261600Z 22011KT 190V260 9999 SCT016 18/12 Q1017","updated":"2026-01-26T16:33:08Z"}
