{"icao":"LPFR","metar":"LPFR 150600Z 03006KT CAVOK 11/09 Q1013","updated":"2025-12-15T06:33:43Z"}
