{"icao":"LPFL","metar":"LPFL 081700Z 17017G30KT 140V210 9999 FEW018 24/19 Q1015","updated":"2025-10-08T17:15:26Z"}
