{"icao":"LPMT","metar":"LPMT 020500Z 21007KT 7000 -RADZ SCT008 BKN026 12/11 Q0996","updated":"2026-02-02T06:02:47Z"}
