{"icao":"KLAX","metar":"KLAX 071230Z 00000KT 10SM FEW009 FEW045 BKN070 BKN250 12/09 A2996 RMK AO2 T01170089 $","updated":"2026-01-07T12:43:00Z"}
