{"icao":"KLAX","metar":"KLAX 240809Z 08006KT 3SM BR OVC005 16/14 A3014 RMK AO2 VIS 2 1/2V4 T01560144","updated":"2025-11-24T08:27:51Z"}
