{"icao":"LPAZ","metar":"LPAZ 131000Z 23010KT 9999 FEW015 SCT040 22/19 Q1023","updated":"2026-06-13T10:26:46Z"}
