{"icao":"LPPD","metar":"LPPD 131000Z 26004KT 220V300 9999 FEW025 22/18 Q1026","updated":"2025-09-13T10:15:31Z"}
