{"icao":"LPPR","metar":"LPPR 150200Z 11003KT 060V140 8000 FEW003 12/11 Q1023","updated":"2026-04-15T02:27:01Z"}
