{"icao":"LPCS","metar":"LPCS 311700Z 22006KT 9999 -RA FEW020 BKN034 14/12 Q1020","updated":"2026-01-31T17:22:02Z"}
