{"icao":"LPPR","metar":"LPPR 150900Z 17006KT 9000 SCT007 BKN020 14/13 Q1024","updated":"2026-04-15T09:17:42Z"}
