{"icao":"LPMA","metar":"LPMA 291800Z 35010KT 310V020 9999 FEW015 21/16 Q1016","updated":"2025-10-29T18:27:50Z"}
