{"icao":"LPMA","metar":"LPMA 141600Z 36011KT 320V040 9999 SCT016 19/12 Q1018","updated":"2025-12-14T16:22:18Z"}
