{"icao":"LPCS","metar":"LPCS 150900Z 02016G26KT 350V050 9999 FEW016 13/08 Q1019","updated":"2026-03-15T09:32:34Z"}
