{"icao":"LPHR","metar":"LPHR 060600Z 30003KT 270V330 1500 -DZ BR FEW002 BKN003 18/17 Q1024","updated":"2026-06-06T06:34:09Z"}
