{"icao":"LPPT","metar":"LPPT 040300Z 32009KT 290V360 9999 SCT007 16/15 Q1023","updated":"2025-10-04T03:22:46Z"}
