{"icao":"LPMA","metar":"LPMA 260130Z 01017G31KT 330V040 9999 SCT015 16/09 Q1022","updated":"2026-02-26T01:58:40Z"}
