{"icao":"KJFK","metar":"KJFK 190126Z 34014G23KT 1/2SM R04R/P6000FT -SN BR SCT007 OVC014 00/00 A2985 RMK AO2 SFC VIS 1 3/4 CIG 007 W P0001 T00000000 $","updated":"2026-01-19T01:46:44Z"}
