{"icao":"LPMA","metar":"LPMA 302000Z 01012KT 9999 SCT015 22/15 Q1021","updated":"2025-09-30T20:18:51Z"}
