{"icao":"LPBJ","metar":"LPBJ 021900Z 34007KT CAVOK 16/09 Q1025","updated":"2025-11-02T19:12:30Z"}
