{"icao":"LPMT","metar":"LPMT 211400Z 29013G24KT 270V330 9999 SCT018 SCT030 15/13 Q1006","updated":"2026-01-21T14:29:33Z"}
