{"icao":"LPMT","metar":"LPMT 240300Z 34002KT CAVOK 15/13 Q1019","updated":"2026-05-24T03:38:30Z"}
