{"icao":"LPPS","metar":"LPPS 271500Z 28019KT 9999 SCT015 18/13 Q1016","updated":"2026-01-27T15:29:53Z"}
