{"icao":"LPFL","metar":"LPFL 201300Z 22016G28KT 150V310 9999 FEW012 24/19 Q1010","updated":"2025-10-20T13:28:13Z"}
