{"icao":"KJFK","metar":"KJFK 120251Z 28020G31KT 10SM FEW050 02/M08 A2995 RMK AO2 PK WND 29032/0200 SLP140 T00221078 53024","updated":"2026-01-12T03:48:37Z"}
