{"icao":"LPCS","metar":"LPCS 220600Z 03003KT 320V120 CAVOK 20/15 Q1017","updated":"2026-06-22T06:27:36Z"}
