{"icao":"LPMA","metar":"LPMA 021100Z 23016KT 9999 -DZ SCT015 16/11 Q0999","updated":"2026-01-02T11:17:42Z"}
