{"icao":"LPPR","metar":"LPPR 031000Z 12007KT CAVOK 15/10 Q1023","updated":"2025-11-03T10:21:36Z"}
