{"icao":"LPMA","metar":"LPMA 211800Z 35007G17KT 280V050 9999 -SHRA BKN015 16/12 Q1019","updated":"2025-12-21T18:26:37Z"}
