{"icao":"LPBJ","metar":"LPBJ 151600Z 33008KT 290V020 CAVOK 23/11 Q1021","updated":"2026-04-15T17:02:34Z"}
