{"icao":"KLAX","metar":"KLAX 161453Z 33003KT 3SM BR SCT003 19/18 A2994 RMK AO2 SLP136 T01940178 51016","updated":"2025-09-16T15:19:07Z"}
