{"icao":"LPHR","metar":"LPHR 141500Z 29009KT 260V330 9999 FEW020 BKN080 18/11 Q1022","updated":"2025-12-14T15:17:35Z"}
