{"icao":"LPBJ","metar":"LPBJ 090200Z 27009KT 6000 -RADZ OVC004 14/14 Q1012","updated":"2026-02-09T02:06:11Z"}
