{"icao":"LPPT","metar":"LPPT 291400Z 07007KT 360V110 9999 FEW047 27/14 Q1015","updated":"2025-09-29T14:17:54Z"}
