{"icao":"LPMR","metar":"LPMR 210700Z 24004KT 2500 BR OVC004 19/19 Q1013","updated":"2025-10-21T07:18:29Z"}
