{"icao":"LPPD","metar":"LPPD 280630Z 06007KT 020V100 9999 FEW016 BKN020 13/09 Q1031","updated":"2026-03-28T06:58:43Z"}
