{"icao":"KJFK","metar":"KJFK 171951Z 29022G36KT 10SM SCT055 07/M08 A2979 RMK AO2 PK WND 31039/1924 SLP086 T00671078 $","updated":"2025-11-17T20:21:39Z"}
