{"icao":"LPMT","metar":"LPMT 151600Z 01005KT 320V040 9999 FEW030 21/10 Q1022","updated":"2026-04-15T17:02:34Z"}
