{"icao":"LPPD","metar":"LPPD 150000Z 28007KT 9999 FEW018 19/16 Q1023","updated":"2026-06-15T00:08:07Z"}
