{"icao":"KLAX","metar":"KLAX 251653Z VRB05KT 10SM SCT023 BKN030 17/09 A2992 RMK AO2 SLP129 T01670094","updated":"2026-04-25T17:35:49Z"}
