{"icao":"LPSJ","metar":"LPSJ 261800Z 25007KT 190V320 9999 FEW018 21/16 Q1024","updated":"2026-06-26T19:44:30Z"}
