{"icao":"LPHR","metar":"LPHR 192100Z 22014KT 6000 -RA SCT004 BKN006 17/17 Q1020","updated":"2026-02-20T01:59:50Z"}
