{"icao":"LPHR","metar":"LPHR 171000Z 18012KT 9999 SCT013 BKN025 21/19 Q1011","updated":"2025-10-17T10:19:05Z"}
