{"icao":"LPLA","metar":"LPLA 260300Z 29013KT 9999 FEW014 SCT020 BKN035 14/12 Q1005","updated":"2026-01-26T03:56:09Z"}
