{"icao":"LPOV","metar":"LPOV 271600Z 33006KT 290V010 CAVOK 28/12 Q1018","updated":"2026-05-27T16:35:27Z"}
