{"icao":"LPBJ","metar":"LPBJ 151400Z 31006KT 240V020 CAVOK 33/15 Q1019","updated":"2025-09-15T14:18:16Z"}
