{"icao":"LPPT","metar":"LPPT 252200Z 31008KT CAVOK 20/02 Q1018","updated":"2025-09-25T22:14:08Z"}
