{"icao":"LPPT","metar":"LPPT 050130Z 31012KT 9999 FEW008 12/10 Q1015","updated":"2026-03-05T01:59:48Z"}
