{"icao":"LPPR","metar":"LPPR 281700Z 22009KT 8000 VCSH FEW015 FEW020TCU SCT025 13/10 Q1002","updated":"2026-01-28T17:30:40Z"}
