{"icao":"LPPT","metar":"LPPT 251800Z 34016KT CAVOK 12/06 Q1023","updated":"2025-11-25T18:29:00Z"}
