{"icao":"LPST","metar":"LPST 041000Z 33009KT 300V360 9999 SCT025 16/08 Q1017","updated":"2026-05-04T11:46:54Z"}
