{"icao":"LPCS","metar":"LPCS 191100Z 16006KT CAVOK 25/15 Q1019","updated":"2025-09-19T11:14:12Z"}
