{"icao":"LPOV","metar":"LPOV 251800Z 35008KT 9999 FEW025 13/10 Q1024","updated":"2025-11-25T19:16:22Z"}
