{"icao":"LPFL","metar":"LPFL 081500Z 34018KT 310V010 9999 FEW024 SCT035 17/11 Q1020","updated":"2026-05-08T15:20:37Z"}
