{"icao":"KJFK","metar":"KJFK 152051Z 12011KT 10SM FEW075 BKN180 OVC220 02/M03 A3009 RMK AO2 SLP189 T00221028 53002 $","updated":"2026-02-15T21:23:38Z"}
