{"icao":"LPMR","metar":"LPMR 102200Z 17002KT CAVOK 16/11 Q1021","updated":"2025-10-10T22:15:21Z"}
