{"icao":"LPMA","metar":"LPMA 152330Z 02003KT 310V070 9999 FEW015 21/16 Q1021","updated":"2026-06-15T23:43:44Z"}
