{"icao":"KLAX","metar":"KLAX 262253Z 24013KT 10SM FEW012 FEW180 SCT220 21/14 A2994 RMK AO2 SLP136 T02110139","updated":"2026-06-26T23:06:09Z"}
