{"icao":"LPHR","metar":"LPHR 241830Z 31015KT 280V350 9999 FEW020 SCT040 15/05 Q1021","updated":"2026-02-24T19:00:28Z"}
