{"icao":"LPMT","metar":"LPMT 222000Z 25008KT CAVOK 15/10 Q1013","updated":"2026-04-22T22:45:35Z"}
