{"icao":"LPBJ","metar":"LPBJ 021400Z 23006KT 190V300 9999 BKN040 22/10 Q1016","updated":"2026-05-02T14:44:40Z"}
