{"icao":"KJFK","metar":"KJFK 140251Z 18007KT 10SM BKN065 BKN090 BKN250 21/16 A3008 RMK AO2 SLP184 T02060161 51007 $","updated":"2025-09-14T03:01:05Z"}
