{"icao":"LPPT","metar":"LPPT 262330Z 32010KT CAVOK 19/13 Q1015","updated":"2026-04-26T23:37:09Z"}
