{"icao":"LPPT","metar":"LPPT 261630Z VRB04KT CAVOK 34/09 Q1019","updated":"2026-05-26T16:40:57Z"}
