{"icao":"KORD","metar":"KORD 291108Z 17005KT 1 3/4SM -SN BR FEW011 OVC018 M04/M06 A3037 RMK AO2 P0001 T10391056 $","updated":"2025-11-29T11:14:45Z"}
