{"icao":"KJFK","metar":"KJFK 122251Z 25016KT 10SM FEW070 SCT250 03/M04 A3013 RMK AO2 SLP203 T00331039 $","updated":"2026-01-12T23:16:04Z"}
