{"icao":"LPPS","metar":"LPPS 201100Z 30005KT 260V330 9999 FEW015 16/07 Q1027","updated":"2026-01-20T11:22:26Z"}
