{"icao":"KORD","metar":"KORD 261651Z 20005KT 10SM FEW050 OVC080 01/M08 A2990 RMK AO2 SLP134 T00061078","updated":"2026-02-26T16:57:51Z"}
