{"icao":"LPPS","metar":"LPPS 030700Z 12011KT 9999 FEW012 21/18 Q1021","updated":"2025-11-03T07:18:28Z"}
