{"icao":"KJFK","metar":"KJFK 240251Z 28013KT 10SM SCT065 12/03 A3003 RMK AO2 SLP167 T01220033 51010","updated":"2025-10-24T03:36:15Z"}
