{"icao":"LPMA","metar":"LPMA 121330Z 02018G29KT 330V040 9999 SCT015 BKN030 16/06 Q1027","updated":"2026-04-12T14:02:00Z"}
