{"icao":"LPAR","metar":"LPAR 161600Z 31010KT 9999 FEW045 27/10 Q1013","updated":"2025-10-16T16:23:12Z"}
