{"icao":"LPMT","metar":"LPMT 140400Z 11002KT CAVOK 13/12 Q1015","updated":"2025-10-14T04:21:09Z"}
