{"icao":"LPFL","metar":"LPFL 071900Z 18016G29KT 140V230 9999 SCT018 SCT039 20/15 Q1014","updated":"2025-11-07T19:15:28Z"}
