{"icao":"LPMA","metar":"LPMA 092030Z 35015KT 300V020 9999 SCT015 15/09 Q1019","updated":"2026-04-09T20:50:11Z"}
