{"icao":"LPFR","metar":"LPFR 232230Z 05005KT CAVOK 13/11 Q1023","updated":"2026-02-23T22:39:00Z"}
