{"icao":"LPMA","metar":"LPMA 270230Z VRB02KT 9999 FEW015 20/16 Q1020","updated":"2026-06-27T02:56:36Z"}
