{"icao":"LPHR","metar":"LPHR 231730Z 25029KT 9000 SCT013 SCT030 17/12 Q1004","updated":"2026-02-23T18:00:22Z"}
