{"icao":"LPCS","metar":"LPCS 261330Z 23013KT 8000 -DZ FEW004 BKN010 15/15 Q1013","updated":"2026-01-26T13:42:56Z"}
