{"icao":"LPMT","metar":"LPMT 161400Z 01008KT 340V040 CAVOK 29/17 Q1016","updated":"2026-06-16T15:08:23Z"}
