{"icao":"LPAZ","metar":"LPAZ 101430Z 21016KT 0900 R18/0900 FG VV002 17/17 Q1014","updated":"2026-02-10T14:56:59Z"}
