{"icao":"LPLA","metar":"LPLA 122300Z 19009KT 160V220 9999 SCT020 21/17 Q1021","updated":"2026-06-12T23:15:09Z"}
