{"icao":"LPFR","metar":"LPFR 131700Z 18023KT 8000 -RA FEW008 SCT015 BKN020 19/16 Q1001","updated":"2025-11-13T17:17:41Z"}
