{"icao":"KLAX","metar":"KLAX 080853Z 09007KT 6SM BR BKN008 17/16 A2989 RMK AO2 SLP120 T01720156 58005 $","updated":"2025-11-08T09:16:40Z"}
