{"icao":"LPPR","metar":"LPPR 262100Z 18030G42KT 5000 -RADZ BR BKN007 OVC014 14/13 Q0998","updated":"2026-01-26T21:22:56Z"}
