{"icao":"KLAX","metar":"KLAX 102053Z 25009KT 10SM FEW240 SCT280 19/00 A3031 RMK AO2 SLP263 T01940000 58035 $","updated":"2026-01-10T21:17:30Z"}
