{"icao":"LPBJ","metar":"LPBJ 111900Z 03004KT CAVOK 16/09 Q1025","updated":"2026-03-11T19:40:10Z"}
