{"icao":"LPPT","metar":"LPPT 301300Z 32012KT 290V350 9999 FEW020 25/14 Q1021","updated":"2026-05-30T13:25:58Z"}
