{"icao":"KJFK","metar":"KJFK 130451Z 19005KT 10SM FEW140 SCT170 SCT250 08/06 A3032 RMK AO2 SLP266 T00780056 401110050 $","updated":"2026-04-13T05:40:40Z"}
