{"icao":"LPOV","metar":"LPOV 070700Z 13005KT 8000 -RA NSC 07/07 Q1022","updated":"2026-01-07T07:23:48Z"}
