{"icao":"LPPR","metar":"LPPR 051730Z 25007KT 190V320 CAVOK 17/11 Q1018","updated":"2026-06-05T17:52:35Z"}
