{"icao":"LPPD","metar":"LPPD 270300Z 36013KT 330V030 9999 FEW016 18/15 Q1021","updated":"2025-09-27T03:26:01Z"}
