{"icao":"LPST","metar":"LPST 021600Z 28015KT 9999 FEW020 11/07 Q1000","updated":"2026-02-02T16:38:00Z"}
