{"icao":"KLAX","metar":"KLAX 150653Z 35009G17KT 4SM RA BR FEW012 SCT025 OVC040 14/12 A2999 RMK AO2 SLP155 P0009 T01390122 $","updated":"2025-10-15T07:18:44Z"}
