{"icao":"LPBJ","metar":"LPBJ 151000Z 19006KT 2100 1100S BCFG SCT002 OVC005 09/09 Q1021","updated":"2026-01-15T10:23:23Z"}
