{"icao":"LPFR","metar":"LPFR 240700Z 07007KT 2000 BR OVC002 12/12 Q1021","updated":"2026-02-24T07:06:56Z"}
