{"icao":"LPLA","metar":"LPLA 070300Z 17003KT 130V270 9999 FEW023 20/18 Q1020","updated":"2025-10-07T03:31:02Z"}
