{"icao":"LPPS","metar":"LPPS 140600Z 27019KT 9999 SCT014 FEW018CB 20/13 Q1010","updated":"2025-11-14T06:28:42Z"}
