{"icao":"KORD","metar":"KORD 291851Z 23013G23KT 10SM BKN080 BKN200 BKN250 17/M06 A3011 RMK AO2 SLP196 T01671061 $","updated":"2026-03-29T19:36:53Z"}
