{"icao":"LPPD","metar":"LPPD 042300Z 03005KT 350V070 9999 FEW020 13/08 Q1025","updated":"2026-01-04T23:18:45Z"}
