{"icao":"LPLA","metar":"LPLA 101900Z 33014KT 9000 -RA FEW007 SCT012 BKN030 15/13 Q1029","updated":"2026-04-10T19:42:31Z"}
