{"icao":"LPPD","metar":"LPPD 191230Z 28013KT 9999 FEW020 17/13 Q1015","updated":"2026-04-19T12:59:41Z"}
