{"icao":"LPPT","metar":"LPPT 121900Z 04013KT 9999 -RA SCT004 BKN008 11/11 Q1014 RERA","updated":"2025-12-12T19:16:28Z"}
