{"icao":"LPOV","metar":"LPOV 072300Z 03002KT 4000 BR NSC 05/05 Q1031","updated":"2026-01-08T01:41:02Z"}
