{"icao":"LPPT","metar":"LPPT 161500Z 34011KT 300V020 CAVOK 22/13 Q1019","updated":"2026-04-16T15:24:22Z"}
