{"icao":"LPBJ","metar":"LPBJ 251700Z 31006KT CAVOK 12/06 Q1010","updated":"2025-12-25T17:16:58Z"}
