{"icao":"LPBJ","metar":"LPBJ 281600Z 27014KT 8000 -SHRA SCT025 SCT045 14/11 Q1007","updated":"2026-01-28T16:35:37Z"}
