{"icao":"LPHR","metar":"LPHR 271800Z 04016G27KT 9999 VCSH FEW016 16/12 Q1023","updated":"2025-11-27T18:26:39Z"}
