{"icao":"KORD","metar":"KORD 181951Z 26019G28KT 10SM BKN046 BKN250 09/M02 A2991 RMK AO2 PK WND 27033/1932 SLP128 T00941017 $","updated":"2026-04-18T20:35:43Z"}
