{"icao":"LPMR","metar":"LPMR 182300Z 15002KT 8000 SCT020 10/09 Q1018","updated":"2025-11-18T23:16:51Z"}
