{"icao":"KLAX","metar":"KLAX 020653Z 00000KT 5SM BR OVC009 16/14 A3006 RMK AO2 SLP178 T01610144 $","updated":"2025-11-02T07:15:53Z"}
