{"icao":"LPAZ","metar":"LPAZ 132030Z 03008KT 360V070 9999 SCT022 15/10 Q1027","updated":"2026-05-13T20:44:08Z"}
