{"icao":"LPFL","metar":"LPFL 081500Z 17020KT 150V210 9999 FEW006 SCT016 24/21 Q1016","updated":"2025-10-08T15:19:02Z"}
