{"icao":"KORD","metar":"KORD 251151Z 00000KT 10SM FEW040 SCT130 SCT250 03/01 A3035 RMK AO2 SLP284 T00330006 10039 20022 50011 $","updated":"2025-10-25T12:33:12Z"}
