{"icao":"LPMR","metar":"LPMR 180900Z 14005KT CAVOK 21/12 Q1017","updated":"2025-10-18T09:16:39Z"}
