{"icao":"LPPT","metar":"LPPT 081900Z 32006KT CAVOK 15/11 Q1023","updated":"2025-11-08T19:13:02Z"}
