{"icao":"LPOV","metar":"LPOV 210800Z 24003KT 210V290 0500 FG OVC002 18/18 Q1017","updated":"2026-06-21T08:56:06Z"}
