{"icao":"KLAX","metar":"KLAX 151453Z 11004KT 8SM FEW011 FEW100 SCT180 SCT240 BKN280 12/10 A3002 RMK AO2 SLP164 T01170100 55000 $","updated":"2026-02-15T15:25:11Z"}
