{"icao":"LPPD","metar":"LPPD 171230Z 26017KT 9999 SCT005 BKN011 15/14 Q1021","updated":"2026-02-17T13:00:57Z"}
