{"icao":"KJFK","metar":"KJFK 181751Z 16010KT 10SM SCT250 26/17 A3016 RMK AO2 SLP212 T02610167 10267 20217 58010","updated":"2026-05-18T18:50:20Z"}
