{"icao":"KLAX","metar":"KLAX 031653Z 10006KT 10SM SCT004 BKN042 OVC070 16/14 A3006 RMK AO2 SLP177 T01560144 $","updated":"2026-01-03T17:16:50Z"}
