{"icao":"LPLA","metar":"LPLA 011500Z 33016KT 9999 BKN035 17/07 Q1028","updated":"2025-12-01T15:20:27Z"}
