{"icao":"LPCS","metar":"LPCS 121830Z 01018KT CAVOK 27/14 Q1016","updated":"2026-06-12T19:03:09Z"}
