{"icao":"LPFL","metar":"LPFL 141000Z VRB10G21KT 9999 FEW011 SCT016 18/14 Q1020","updated":"2026-01-14T10:24:18Z"}
