{"icao":"LPLA","metar":"LPLA 042109Z 32030KT 6000 -SHRA FEW016 SCT024 15/10 Q1011","updated":"2025-11-04T21:17:09Z"}
