{"icao":"LPLA","metar":"LPLA 071700Z 24012KT 8000 -RA FEW008 BKN015 17/14 Q1011","updated":"2026-02-07T17:24:17Z"}
