{"icao":"LPMA","metar":"LPMA 222300Z 02011KT 350V050 9999 SCT015 19/11 Q1027","updated":"2025-11-22T23:17:03Z"}
