{"icao":"LPPS","metar":"LPPS 131900Z 02025KT 9999 SCT014 FEW016CB SCT030 17/13 Q1017","updated":"2025-12-13T19:14:24Z"}
