{"icao":"LPMA","metar":"LPMA 141800Z 02011KT 340V040 9999 FEW018 17/08 Q1031","updated":"2026-02-14T18:33:14Z"}
