{"icao":"LPAR","metar":"LPAR 061500Z 33007KT 300V360 9999 SCT025 BKN035 18/11 Q1017","updated":"2025-11-06T15:20:19Z"}
