{"icao":"LPBJ","metar":"LPBJ 220100Z 04002KT CAVOK 05/M00 Q1029","updated":"2025-11-22T01:20:32Z"}
