{"icao":"LPMT","metar":"LPMT 211100Z 26004KT 230V310 CAVOK 28/17 Q1017","updated":"2026-06-21T11:45:56Z"}
