{"icao":"LPMT","metar":"LPMT 021400Z 25006KT CAVOK 27/16 Q1020","updated":"2025-10-02T14:17:14Z"}
