{"icao":"LPPD","metar":"LPPD 250100Z VRB02KT 9999 FEW020 15/12 Q1020","updated":"2025-09-25T01:18:39Z"}
