{"icao":"LPHR","metar":"LPHR 272300Z 03013KT 360V060 9999 FEW014 15/08 Q1026","updated":"2025-11-27T23:16:50Z"}
