{"icao":"LPFR","metar":"LPFR 180600Z 08008KT CAVOK 20/16 Q1015","updated":"2025-10-18T06:23:57Z"}
