{"icao":"LPST","metar":"LPST 271000Z 26010KT 240V300 9999 SCT015 11/09 Q1002","updated":"2026-01-27T10:26:49Z"}
