{"icao":"LPPS","metar":"LPPS 100830Z 27012KT 9999 FEW015 17/09 Q1016","updated":"2026-05-10T08:52:22Z"}
