{"icao":"LPPS","metar":"LPPS 061130Z 29014KT 9999 BKN014 18/11 Q1016","updated":"2026-04-06T11:47:39Z"}
