{"icao":"KJFK","metar":"KJFK 312051Z 19014KT 10SM FEW060 BKN120 BKN230 14/09 A2992 RMK AO2 SLP132 T01440089 56026","updated":"2026-03-31T21:38:02Z"}
