{"icao":"LPHR","metar":"LPHR 151900Z 28013KT 9999 SCT030 16/09 Q1028","updated":"2025-12-15T19:18:40Z"}
