{"icao":"LPPR","metar":"LPPR 160700Z 16009KT 9999 FEW030 BKN043 09/08 Q1012","updated":"2026-01-16T07:23:43Z"}
