{"icao":"LPMR","metar":"LPMR 090300Z 33007KT 300V360 9999 FEW005 OVC007 16/15 Q1020","updated":"2025-10-09T03:35:14Z"}
