{"icao":"LPAZ","metar":"LPAZ 281230Z 25020KT 7000 FEW010 BKN030 18/16 Q1011","updated":"2026-01-28T12:48:09Z"}
