{"icao":"LPMR","metar":"LPMR 240400Z 25008KT 220V280 8000 -SHRA FEW020 FEW022CB BKN032 07/04 Q1003","updated":"2026-01-24T04:34:05Z"}
