{"icao":"LPSJ","metar":"LPSJ 151300Z 27007KT 210V340 9999 FEW015 24/16 Q1020","updated":"2026-06-15T13:11:10Z"}
