{"icao":"LPLA","metar":"LPLA 290500Z 12008KT 9999 FEW015 BKN030 14/11 Q1034","updated":"2026-03-29T05:09:41Z"}
