{"icao":"KLAX","metar":"KLAX 021506Z 05005KT 8SM SCT009 BKN016 19/16 A3003 RMK AO2 T01890161 $","updated":"2025-10-02T15:18:01Z"}
