{"icao":"LPPR","metar":"LPPR 150200Z 35005KT CAVOK 09/07 Q1018","updated":"2026-03-15T02:13:02Z"}
