{"icao":"KORD","metar":"KORD 040551Z 25007KT 10SM SCT250 07/M04 A3024 RMK AO2 SLP242 T00721044 10128 20072 401610061 52007 $","updated":"2025-11-04T06:28:46Z"}
