{"icao":"LPCS","metar":"LPCS 130900Z 05010KT CAVOK 14/10 Q1020","updated":"2025-12-13T09:18:05Z"}
