{"icao":"LPAZ","metar":"LPAZ 191100Z 24014KT 6000 FEW001 SCT002 BKN012 23/23 Q1018","updated":"2025-10-19T11:13:02Z"}
