{"icao":"KORD","metar":"KORD 141251Z 34006KT 10SM BKN017 14/12 A3030 RMK AO2 SLP259 T01390117 $","updated":"2025-10-14T13:29:18Z"}
