{"icao":"LPLA","metar":"LPLA 151900Z 23013G30KT 110V280 9999 FEW015 17/10 Q1026","updated":"2026-02-15T19:24:01Z"}
