{"icao":"LPMR","metar":"LPMR 250900Z 05007KT 010V100 6000 -RA SCT005 BKN015 16/16 Q1015 RERA","updated":"2025-10-25T09:16:05Z"}
