{"icao":"LPMT","metar":"LPMT 050400Z 22020G32KT 180V240 5000 -RADZ BR BKN008 BKN013 16/15 Q0991","updated":"2026-02-05T04:20:34Z"}
