{"icao":"LPMA","metar":"LPMA 301500Z 09005KT 020V130 9999 SCT016 SCT033 23/16 Q1016","updated":"2025-10-30T15:20:03Z"}
