{"icao":"LPPD","metar":"LPPD 221230Z 36010KT 320V030 9999 FEW020 SCT030 20/16 Q1026","updated":"2026-06-22T12:48:38Z"}
