{"icao":"LPBJ","metar":"LPBJ 162100Z 23003KT CAVOK 19/14 Q1015","updated":"2025-10-16T21:15:32Z"}
