{"icao":"LPHR","metar":"LPHR 251900Z 14013KT 9999 SCT016 BKN030 22/20 Q1009","updated":"2025-09-25T19:14:43Z"}
