{"icao":"LPCS","metar":"LPCS 161830Z 35015KT 310V010 9999 SCT016 15/10 Q1018","updated":"2026-05-16T19:01:47Z"}
