{"icao":"KORD","metar":"KORD 151951Z 22011KT 10SM FEW015 BKN090 OVC200 20/16 A2981 RMK AO2 SLP091 T02000161","updated":"2026-04-15T20:46:06Z"}
