{"icao":"KORD","metar":"KORD 222251Z 27014G25KT 10SM FEW047 FEW250 M07/M18 A3019 RMK AO2 PK WND 28030/2228 SLP235 T10721183 $","updated":"2026-01-22T23:19:50Z"}
