{"icao":"LPHR","metar":"LPHR 290000Z 35007KT 9999 FEW017 14/09 Q1029","updated":"2025-11-29T06:27:09Z"}
