{"icao":"LPMA","metar":"LPMA 281130Z VRB06KT 9999 FEW015 22/16 Q1024","updated":"2026-05-28T11:37:50Z"}
