{"icao":"LPST","metar":"LPST 301400Z 32009KT 290V350 9999 FEW015 25/19 Q1021","updated":"2026-06-30T15:25:16Z"}
