{"icao":"KORD","metar":"KORD 192151Z 10004KT 10SM OVC020 07/03 A3018 RMK AO2 SLP224 T00670028","updated":"2025-11-19T22:18:12Z"}
