{"icao":"LPMT","metar":"LPMT 031400Z 04014KT 360V060 9999 FEW030 20/11 Q1011","updated":"2026-03-03T14:55:43Z"}
