{"icao":"KJFK","metar":"KJFK 241251Z 33013KT 10SM FEW250 03/M07 A3039 RMK AO2 SLP289 T00281072","updated":"2026-03-24T13:09:55Z"}
