{"icao":"LPPS","metar":"LPPS 201930Z 20009KT 160V240 9999 SCT012 FEW018CB 16/15 Q0996 RESHRA","updated":"2026-03-20T19:36:26Z"}
