{"icao":"LPHR","metar":"LPHR 101130Z 01010KT 330V070 9000 -SHRA SCT012 FEW014TCU SCT030 15/10 Q1023","updated":"2026-05-10T11:50:21Z"}
