{"icao":"LPMA","metar":"LPMA 181030Z 01011KT 340V050 9999 BKN013 FEW018CB 14/07 Q1000","updated":"2026-03-18T10:51:45Z"}
