{"icao":"LPBJ","metar":"LPBJ 061900Z 31011KT 9999 OVC048 11/06 Q1016","updated":"2026-03-06T19:32:53Z"}
