{"icao":"LPOV","metar":"LPOV 251500Z 32007KT 290V350 CAVOK 24/08 Q1017","updated":"2025-09-25T15:18:42Z"}
