{"icao":"LPBJ","metar":"LPBJ 251800Z 28011KT 9999 FEW030 27/03 Q1016","updated":"2025-09-25T18:26:15Z"}
