{"icao":"LPHR","metar":"LPHR 141900Z 23013KT 190V250 9999 VCSH FEW015 FEW025TCU SCT097 20/16 Q1002","updated":"2025-10-14T19:13:53Z"}
