{"icao":"KORD","metar":"KORD 021551Z 21009KT 10SM FEW020 SCT049 SCT250 09/05 A3021 RMK AO2 RAB1457E34 SLP232 P0000 T00940050 $","updated":"2025-11-02T16:19:43Z"}
