{"icao":"LPMT","metar":"LPMT 091500Z 22010G21KT 170V270 9999 SCT025 FEW028CB BKN030 17/14 Q1005 RETS","updated":"2026-05-09T15:50:58Z"}
