{"icao":"LPMT","metar":"LPMT 271000Z 02010KT CAVOK 15/04 Q1018","updated":"2026-03-27T10:47:54Z"}
