{"icao":"KORD","metar":"KORD 301837Z 35009KT 1SM R10L/4000VP6000FT -SN BKN016 OVC025 M08/M11 A3036 RMK AO2 P0001 T10831111","updated":"2026-01-30T18:40:22Z"}
