{"icao":"LPFR","metar":"LPFR 290530Z 33004KT 270V350 CAVOK 21/16 Q1019","updated":"2026-06-29T05:48:42Z"}
