{"icao":"LPST","metar":"LPST 061200Z 18010KT CAVOK 26/14 Q1020","updated":"2025-10-06T12:37:32Z"}
