{"icao":"LPPR","metar":"LPPR 041800Z 18010KT 9999 FEW040 21/11 Q1010","updated":"2025-11-04T18:27:04Z"}
