{"icao":"LPMA","metar":"LPMA 050300Z 01009KT 330V040 9999 SCT016 21/16 Q1024","updated":"2025-10-05T03:06:24Z"}
