{"icao":"LPAZ","metar":"LPAZ 300930Z 23007KT 8000 FEW004 SCT042 16/15 Q1020","updated":"2026-01-30T09:36:59Z"}
