{"icao":"KORD","metar":"KORD 100651Z 16007KT 10SM FEW250 11/04 A3028 RMK AO2 SLP253 T01110039","updated":"2025-10-10T07:16:58Z"}
