{"icao":"KJFK","metar":"KJFK 231451Z 19006KT 7SM -RASN BKN008 OVC015 02/01 A3027 RMK AO2 SNB01 SLP250 P0005 60009 T00170011 58023 $","updated":"2025-12-23T15:21:04Z"}
