{"icao":"LPHR","metar":"LPHR 202000Z 20019KT 6000 -RA SCT012 BKN027 BKN070 17/15 Q1018","updated":"2026-02-20T20:30:13Z"}
