{"icao":"LPBJ","metar":"LPBJ 032000Z 08010KT 9999 -RA BKN008 OVC040 12/12 Q0998","updated":"2026-01-03T20:20:54Z"}
