{"icao":"LPFR","metar":"LPFR 132200Z 24022KT 8000 -SHRA FEW018CB SCT020 BKN030 17/14 Q1004","updated":"2025-11-13T22:18:00Z"}
