{"icao":"LPHR","metar":"LPHR 070600Z 01008KT 320V110 9999 FEW015 SCT030 14/08 Q1014","updated":"2026-05-07T06:09:09Z"}
