{"icao":"KLAX","metar":"KLAX 011053Z 09007KT 3SM RA BR FEW007 OVC009 14/13 A3000 RMK AO2 SLP156 VIS S 2 1/2 P0011 T01390133 $","updated":"2026-01-01T11:17:40Z"}
