{"icao":"LPFL","metar":"LPFL 160730Z 18019G32KT 150V210 9999 BKN011 17/14 Q1018","updated":"2026-02-16T07:53:28Z"}
