{"icao":"LPHR","metar":"LPHR 052200Z 29022G35KT 9999 SCT016 FEW018TCU 12/05 Q1011","updated":"2026-02-05T22:25:12Z"}
