{"icao":"LPOV","metar":"LPOV 211500Z 21009KT 180V240 2500 1000N -DZRA BR BKN004 BKN020 19/19 Q1012","updated":"2025-10-21T15:19:07Z"}
