{"icao":"LPHR","metar":"LPHR 291330Z 23006KT 210V270 9999 FEW024 15/08 Q1005","updated":"2026-04-29T13:53:08Z"}
