{"icao":"LPOV","metar":"LPOV 111900Z 33005KT CAVOK 20/13 Q1018","updated":"2025-10-11T19:12:11Z"}
