{"icao":"LPAZ","metar":"LPAZ 041630Z 26028G38KT 4000 -SHRA BR SCT007 FEW021TCU BKN030 15/14 Q0996","updated":"2026-02-04T16:45:25Z"}
