{"icao":"LPPT","metar":"LPPT 191400Z 32011KT 280V350 9999 FEW030 14/07 Q1020","updated":"2026-01-19T14:26:14Z"}
