{"icao":"LPLA","metar":"LPLA 102037Z 36012KT 6000 -SHRA FEW013 BKN017 14/12 Q1020","updated":"2026-05-10T20:43:54Z"}
