{"icao":"LPPT","metar":"LPPT 071400Z 24019KT 220V280 9999 VCSH FEW024 SCT028 FEW030CB 14/11 Q1002 RESHRA WS R20","updated":"2026-02-07T14:24:30Z"}
