{"icao":"KORD","metar":"KORD 051351Z 22008KT 10SM BKN250 00/M04 A2978 RMK AO2 SLP093 T00001039","updated":"2026-01-05T14:23:35Z"}
