{"icao":"KJFK","metar":"KJFK 240551Z 32013KT 10SM SCT110 BKN250 M01/M09 A2978 RMK AO2 SLP084 4/019 T10111089 10017 21017 51013 $","updated":"2026-02-24T05:58:05Z"}
