{"icao":"KJFK","metar":"KJFK 231851Z 25017KT 10SM FEW170 BKN230 02/M13 A3011 RMK AO2 PK WND 28028/1756 SLP196 T00221128 $","updated":"2026-01-23T19:23:32Z"}
