{"icao":"LPLA","metar":"LPLA 311000Z 22008KT 160V290 9999 FEW010 22/18 Q1025","updated":"2026-05-31T10:14:24Z"}
