{"icao":"LPPR","metar":"LPPR 271700Z 16020KT 9999 VCSH BKN015 FEW020TCU BKN023 19/17 Q1010","updated":"2025-09-27T17:13:11Z"}
