{"icao":"LPST","metar":"LPST 301400Z 32008KT 9999 FEW030 25/14 Q1018","updated":"2025-09-30T14:18:20Z"}
