{"icao":"KORD","metar":"KORD 171851Z VRB03KT 10SM FEW250 05/M01 A2999 RMK AO2 SLP158 T00501011","updated":"2025-12-17T19:19:00Z"}
