{"icao":"LPAZ","metar":"LPAZ 211300Z 05008KT 010V090 9999 FEW009 BKN016 17/13 Q1031","updated":"2025-11-21T13:27:28Z"}
