{"icao":"LPST","metar":"LPST 051400Z 26019KT 9999 FEW015 FEW018CB 19/11 Q1009","updated":"2025-11-05T14:19:01Z"}
