{"icao":"LPPT","metar":"LPPT 151100Z 35012KT 330V030 9999 FEW025 15/10 Q1019 WS R02","updated":"2026-03-15T11:24:24Z"}
