{"icao":"LPPS","metar":"LPPS 282100Z 05011KT 9999 FEW014 SCT030 15/08 Q1026","updated":"2026-02-28T21:19:21Z"}
