{"icao":"LPAR","metar":"LPAR 041100Z 34003KT 300V050 9999 FEW020 18/14 Q1018","updated":"2025-11-04T11:16:45Z"}
