{"icao":"KJFK","metar":"KJFK 280451Z 10004KT 10SM FEW250 00/M01 A3015 RMK AO2 SLP210 T00001011 400331039","updated":"2026-02-28T05:32:12Z"}
