{"icao":"LPMT","metar":"LPMT 251800Z 33007KT CAVOK 20/13 Q1017","updated":"2026-03-25T19:01:08Z"}
