{"icao":"LPMA","metar":"LPMA 171300Z 01010KT 320V050 9999 BKN015 19/10 Q1025","updated":"2026-05-17T13:18:02Z"}
