{"icao":"KJFK","metar":"KJFK 010451Z 04010KT 10SM FEW055 BKN250 19/12 A3008 RMK AO2 SLP185 T01890117 402720178 $","updated":"2025-10-01T05:17:30Z"}
