{"icao":"LPOV","metar":"LPOV 231300Z 29009KT 230V330 CAVOK 22/10 Q1020","updated":"2025-09-23T13:27:01Z"}
