{"icao":"KORD","metar":"KORD 010051Z 28004KT 10SM FEW036 M04/M07 A3039 RMK AO2 SLP300 T10391072 $","updated":"2025-12-01T01:49:43Z"}
