{"icao":"LPMR","metar":"LPMR 221300Z 25010KT 220V280 7000 SCT011 SCT014 BKN030 22/19 Q1018","updated":"2025-10-22T13:31:48Z"}
