{"icao":"LPPS","metar":"LPPS 121100Z 06017KT 040V100 9999 FEW015 17/10 Q1025","updated":"2026-03-12T11:30:28Z"}
