{"icao":"KORD","metar":"KORD 172151Z 11008KT 10SM FEW170 OVC250 12/05 A2977 RMK AO2 SLP083 T01220050 $","updated":"2026-02-17T22:29:53Z"}
