{"icao":"LPFR","metar":"LPFR 192100Z 05003KT 340V150 CAVOK 11/08 Q1021","updated":"2026-01-19T21:18:41Z"}
