{"icao":"LPHR","metar":"LPHR 191600Z 26011KT 0050 FG VV001 22/22 Q1015","updated":"2025-10-19T16:19:35Z"}
