{"icao":"LPPS","metar":"LPPS 212200Z 07015KT 030V090 9999 SCT014 18/10 Q1026","updated":"2025-11-21T22:18:06Z"}
