{"icao":"LPMA","metar":"LPMA 272030Z 34012G22KT 300V020 9999 SCT015 17/11 Q1017","updated":"2026-04-27T21:00:20Z"}
