{"icao":"LPLA","metar":"LPLA 151500Z 31021KT 9999 SCT025 15/09 Q1027","updated":"2026-01-15T15:24:14Z"}
