{"icao":"LPPR","metar":"LPPR 151300Z 32007KT 280V340 9999 SCT006 OVC009 18/16 Q1018","updated":"2026-06-15T13:10:52Z"}
