{"icao":"KLAX","metar":"KLAX 071453Z 23005KT 8SM OVC013 18/15 A2987 RMK AO2 SLP114 T01780150 53012 $","updated":"2025-10-07T15:19:11Z"}
