{"icao":"LPCS","metar":"LPCS 252100Z 29003KT 270V330 0500 FG SCT001 BKN008 13/13 Q1014","updated":"2026-01-25T21:18:07Z"}
