{"icao":"KJFK","metar":"KJFK 141551Z 35014KT 10SM -RA FEW011 OVC016 14/12 A3003 RMK AO2 RAE25B41 SLP170 P0000 T01440117","updated":"2025-10-14T16:22:34Z"}
