{"icao":"KLAX","metar":"KLAX 061653Z 06007KT 10SM FEW010 FEW034 SCT100 BKN160 14/10 A3010 RMK AO2 SLP190 T01390100 $","updated":"2026-01-06T17:22:29Z"}
