{"icao":"KORD","metar":"KORD 022051Z 24013G19KT 10SM FEW047 BKN220 BKN250 11/M02 A3013 RMK AO2 SLP206 T01111017 56012 $","updated":"2025-11-02T21:14:45Z"}
