{"icao":"LPMT","metar":"LPMT 291900Z 34010KT CAVOK 16/07 Q1027","updated":"2026-03-29T20:31:30Z"}
