{"icao":"KORD","metar":"KORD 130551Z 22008KT 10SM FEW200 BKN250 01/M02 A2994 RMK AO2 SLP146 T00111022 10033 20011 400611028 58026 $","updated":"2026-01-13T06:32:30Z"}
