{"icao":"LPFL","metar":"LPFL 151600Z 16008KT 9999 FEW023 17/11 Q1016","updated":"2025-11-15T16:19:56Z"}
