{"icao":"KLAX","metar":"KLAX 020153Z 26015KT 10SM SCT012 SCT250 17/13 A2989 RMK AO2 SLP120 T01670133","updated":"2026-05-02T02:36:15Z"}
