{"icao":"LPHR","metar":"LPHR 091230Z 17015KT 9999 SCT013 BKN025 18/16 Q1027","updated":"2026-01-09T12:42:09Z"}
