{"icao":"LPOV","metar":"LPOV 100800Z 01003KT CAVOK 18/13 Q1013","updated":"2026-04-10T09:07:26Z"}
