{"icao":"LPMR","metar":"LPMR 302300Z 08002KT CAVOK 06/05 Q1021","updated":"2025-11-30T23:17:04Z"}
