{"icao":"LPBJ","metar":"LPBJ 311700Z 08003KT CAVOK 13/08 Q1017","updated":"2025-12-31T17:17:29Z"}
