{"icao":"LPPR","metar":"LPPR 061000Z 23009KT 190V260 2000 BR BKN002 BKN004 16/16 Q1021","updated":"2025-12-06T10:18:19Z"}
