{"icao":"LPFR","metar":"LPFR 211000Z 21018KT 8000 FEW006 BKN010 15/13 Q1012","updated":"2026-01-21T10:27:28Z"}
