{"icao":"LPMA","metar":"LPMA 162030Z 03013KT 9999 SCT016 17/11 Q1019","updated":"2026-04-16T20:46:50Z"}
