{"icao":"LPPR","metar":"LPPR 130500Z 15019G29KT 9999 -RA FEW020 BKN040 12/10 Q1004","updated":"2026-01-13T05:24:23Z"}
