{"icao":"LPMA","metar":"LPMA 090900Z 22019KT 7000 SHRA BKN013 FEW016CB 19/18 Q1017","updated":"2025-12-09T09:23:05Z"}
