{"icao":"LPMA","metar":"LPMA 211700Z VRB04G17KT 9999 -SHRA BKN015 17/11 Q1019","updated":"2025-12-21T17:16:06Z"}
