{"icao":"LPFR","metar":"LPFR 242200Z 25012KT CAVOK 21/18 Q1015","updated":"2026-06-24T22:15:18Z"}
