{"icao":"LPPT","metar":"LPPT 171230Z 29007KT 260V330 9999 FEW015 FEW024CB SCT030 12/06 Q1012","updated":"2026-01-17T12:37:20Z"}
