{"icao":"KJFK","metar":"KJFK 181751Z 24009KT 10SM FEW042 26/17 A2995 RMK AO2 SLP140 60000 T02560167 10261 20194 58015 $","updated":"2025-09-18T18:25:46Z"}
