{"icao":"LPBJ","metar":"LPBJ 211000Z 09008KT CAVOK 13/07 Q1030","updated":"2026-02-21T10:24:28Z"}
