{"icao":"KORD","metar":"KORD 211751Z 00000KT 9SM FEW020 OVC150 08/03 A3001 RMK AO2 SLP164 T00780028 10083 20056 58015","updated":"2025-11-21T18:25:48Z"}
