{"icao":"LPMR","metar":"LPMR 250700Z 36004KT 9999 FEW018 SCT033 10/06 Q1022","updated":"2025-11-25T07:18:44Z"}
