{"icao":"LPFL","metar":"LPFL 151600Z VRB08KT 9999 FEW025 17/08 Q1026","updated":"2025-12-15T16:29:20Z"}
