{"icao":"LPAZ","metar":"LPAZ 192200Z 05014KT 9999 SCT011 16/14 Q1023","updated":"2025-11-19T22:17:52Z"}
