{"icao":"LPLA","metar":"LPLA 310700Z 30016KT 9999 SCT020 BKN035 16/13 Q1008","updated":"2025-10-31T07:17:05Z"}
