{"icao":"LPAZ","metar":"LPAZ 011230Z 31011KT 9999 FEW009 BKN012 20/17 Q1029","updated":"2026-06-01T12:35:22Z"}
