{"icao":"LPPT","metar":"LPPT 281730Z 33016KT 300V360 9999 FEW036 25/16 Q1021","updated":"2026-06-28T18:03:31Z"}
