{"icao":"LPAZ","metar":"LPAZ 040130Z 36013KT 9999 FEW015 15/12 Q1014","updated":"2026-01-04T01:49:07Z"}
