{"icao":"LPCS","metar":"LPCS 031000Z 08004KT 040V120 CAVOK 15/12 Q1023","updated":"2025-11-03T10:21:36Z"}
