{"icao":"LPFL","metar":"LPFL 251700Z 17009KT 150V220 9999 FEW015 20/15 Q1024","updated":"2025-11-25T17:18:54Z"}
