{"icao":"LPLA","metar":"LPLA 202000Z 18017KT 150V220 7000 FEW015 17/13 Q1020","updated":"2026-02-20T20:30:12Z"}
