{"icao":"LPHR","metar":"LPHR 131330Z 10007KT 050V170 9999 FEW025 18/11 Q1031","updated":"2026-03-13T14:00:21Z"}
