{"icao":"LPPS","metar":"LPPS 050900Z 03015G29KT 360V070 9999 SCT014 15/10 Q1018","updated":"2026-01-05T09:30:50Z"}
