{"icao":"LPPR","metar":"LPPR 301230Z 10005KT 360V170 CAVOK 27/12 Q1019","updated":"2025-09-30T12:38:22Z"}
