{"icao":"KLAX","metar":"KLAX 231820Z 00000KT 3SM HZ FEW011 SCT015 19/14 A2995 RMK AO2 VIS SW-N 2 1/2 T01940144","updated":"2026-03-23T18:53:23Z"}
