{"icao":"KJFK","metar":"KJFK 141851Z 36017KT 10SM BKN017 16/12 A3000 RMK AO2 SLP158 T01610117","updated":"2025-10-14T19:14:06Z"}
