{"icao":"KORD","metar":"KORD 120551Z 24013G20KT 10SM FEW050 03/M01 A2975 RMK AO2 SLP078 T00331011 10050 20028 400611039 51003","updated":"2025-11-12T06:28:33Z"}
