{"icao":"LPHR","metar":"LPHR 281900Z 10006KT 040V140 9999 FEW015 BKN025 15/12 Q1034","updated":"2026-03-28T19:28:41Z"}
