{"icao":"LPPD","metar":"LPPD 271900Z 02004KT 340V060 9999 -RA SCT007 BKN030 16/15 Q1022","updated":"2025-11-27T19:14:48Z"}
