{"icao":"LPMT","metar":"LPMT 051100Z 25021G31KT 9999 FEW020 16/12 Q0996","updated":"2026-02-05T11:33:54Z"}
