{"icao":"KLAX","metar":"KLAX 281753Z 26013KT 10SM BKN027 OVC033 19/13 A2994 RMK AO2 SLP138 T01940133 10200 20172 51006","updated":"2026-06-28T18:03:36Z"}
