{"icao":"KLAX","metar":"KLAX 031453Z 26005KT 7SM FEW004 BKN010 OVC018 19/17 A2999 RMK AO2 SLP153 BKN V SCT T01940172 51009 $","updated":"2025-10-03T15:17:06Z"}
