{"icao":"LPAZ","metar":"LPAZ 090230Z 16012KT 9999 SCT012 22/20 Q1024","updated":"2025-10-09T02:58:24Z"}
