{"icao":"LPFL","metar":"LPFL 170930Z 34023G40KT 300V360 9999 VCSH SCT019 FEW022CB 09/03 Q1020","updated":"2026-03-17T09:54:32Z"}
