{"icao":"KORD","metar":"KORD 251551Z 35012KT 1SM R10L/2000VP6000FT -SN BR VV012 M11/M13 A3009 RMK AO2 SLP203 P0001 T11111133 $","updated":"2026-01-25T16:24:38Z"}
