{"icao":"LPPR","metar":"LPPR 161730Z 32005KT 290V350 CAVOK 18/09 Q1018","updated":"2026-03-16T17:58:36Z"}
