{"icao":"LPMR","metar":"LPMR 211500Z 34007KT 310V010 CAVOK 26/12 Q1021","updated":"2026-05-21T15:21:03Z"}
