{"icao":"KJFK","metar":"KJFK 312251Z 24014KT 10SM FEW036 FEW060 FEW150 SCT250 M02/M09 A2981 RMK AO2 SLP092 T10171094 $","updated":"2025-12-31T23:19:17Z"}
