{"icao":"LPMA","metar":"LPMA 220500Z 28003KT 240V300 9999 SCT013 16/13 Q1018","updated":"2026-01-22T05:27:23Z"}
