{"icao":"KLAX","metar":"KLAX 241053Z 00000KT 6SM BR OVC006 15/14 A3014 RMK AO2 SLP204 T01500139","updated":"2025-11-24T11:16:49Z"}
