{"icao":"LPPR","metar":"LPPR 251800Z 25003KT 210V310 6000 SCT030 12/10 Q1012","updated":"2026-01-25T18:28:34Z"}
