{"icao":"KJFK","metar":"KJFK 161951Z 27015G23KT 10SM FEW085 SCT110 SCT130 BKN250 01/M13 A2996 RMK AO2 SLP146 T00061128 $","updated":"2026-01-16T20:21:05Z"}
