{"icao":"LPBJ","metar":"LPBJ 050200Z 29007KT CAVOK 09/07 Q1017","updated":"2026-05-05T02:37:45Z"}
