{"icao":"LPFR","metar":"LPFR 170100Z 29008KT 9999 FEW030 08/07 Q1015","updated":"2026-01-17T01:28:11Z"}
