{"icao":"KLAX","metar":"KLAX 251253Z 08005KT 10SM CLR 09/07 A3009 RMK AO2 SLP186 T00890067 $","updated":"2026-01-25T13:31:44Z"}
