{"icao":"LPAZ","metar":"LPAZ 050500Z 32016KT 9999 FEW030 16/09 Q1016","updated":"2025-11-05T05:19:06Z"}
