{"icao":"LPLA","metar":"LPLA 031200Z 26021G34KT 7000 -SHRA FEW013 BKN020 19/16 Q1002","updated":"2026-02-03T12:57:29Z"}
