{"icao":"LPHR","metar":"LPHR 111900Z 17003KT 150V210 9999 FEW020 15/08 Q1032","updated":"2026-04-11T19:33:49Z"}
