{"icao":"LPCS","metar":"LPCS 171000Z 16006KT CAVOK 24/11 Q1015","updated":"2025-10-17T10:19:01Z"}
