{"icao":"LPPI","metar":"LPPI 231930Z 34003KT 260V030 9999 FEW014 SCT040 21/16 Q1023","updated":"2026-06-23T20:03:20Z"}
