{"icao":"LPST","metar":"LPST 080900Z 13001KT 9999 BKN016 10/08 Q1032","updated":"2026-01-08T09:27:19Z"}
