{"icao":"LPOV","metar":"LPOV 202000Z 35008KT CAVOK 17/13 Q1021","updated":"2026-05-21T03:34:09Z"}
