{"icao":"KORD","metar":"KORD 220551Z 27016G24KT 10SM BKN038 OVC060 08/02 A2973 RMK AO2 PK WND 27026/0501 SLP068 60001 T00830022 10089 20083 401280078 58004","updated":"2025-10-22T06:28:18Z"}
