{"icao":"LPCS","metar":"LPCS 110630Z 21010KT 9999 FEW007 SCT015 15/13 Q1012","updated":"2026-05-11T06:45:29Z"}
