{"icao":"LPBJ","metar":"LPBJ 101112Z 36009KT 330V030 9999 BKN023 FEW025TCU 11/06 Q1020","updated":"2026-03-10T11:32:02Z"}
