{"icao":"KLAX","metar":"KLAX 240053Z 25011KT 10SM FEW007 FEW100 SCT150 21/18 A2984 RMK AO2 SLP102 T02110178 $","updated":"2025-09-24T01:18:09Z"}
