{"icao":"KJFK","metar":"KJFK 202251Z 27017KT 10SM FEW050 M07/M18 A3042 RMK AO2 PK WND 27027/2201 SLP302 T10671178 $","updated":"2026-01-20T23:20:59Z"}
