{"icao":"KLAX","metar":"KLAX 312253Z 26010KT 10SM CLR 28/04 A3004 RMK AO2 SLP170 T02780044 $","updated":"2026-01-31T23:21:24Z"}
