{"icao":"LPMR","metar":"LPMR 211500Z 36011KT CAVOK 15/03 Q1027","updated":"2025-11-21T15:17:12Z"}
