{"icao":"KLAX","metar":"KLAX 121853Z 26015KT 10SM FEW027 SCT046 BKN065 19/09 A3001 RMK AO2 SLP161 T01890094 $","updated":"2026-04-12T19:38:24Z"}
