{"icao":"LPPT","metar":"LPPT 302200Z 33009KT CAVOK 11/05 Q1021","updated":"2025-11-30T22:17:13Z"}
