{"icao":"LPPR","metar":"LPPR 020100Z VRB02KT 9999 FEW030 12/12 Q1023","updated":"2025-11-02T01:27:37Z"}
