{"icao":"KORD","metar":"KORD 171451Z 19005KT 10SM FEW023 FEW060 BKN250 23/18 A2989 RMK AO2 SLP117 T02330183 58002","updated":"2026-05-17T14:55:05Z"}
