{"icao":"LPPS","metar":"LPPS 041200Z 01011KT 9999 FEW015 24/16 Q1027","updated":"2025-10-04T12:31:52Z"}
