{"icao":"LPMR","metar":"LPMR 041100Z 06006KT 030V090 CAVOK 13/09 Q1004","updated":"2026-01-04T11:15:53Z"}
