{"icao":"LPMR","metar":"LPMR 230900Z 24008KT 210V280 9999 SCT025 BKN035 11/06 Q1002","updated":"2026-01-23T09:28:40Z"}
