{"icao":"KLAX","metar":"KLAX 211953Z 25006KT 9SM FEW005 SCT090 BKN140 24/15 A2999 RMK AO2 SLP155 T02390150","updated":"2025-10-21T20:21:10Z"}
