{"icao":"LPOV","metar":"LPOV 120700Z 15015G25KT 120V180 9999 BKN030 17/12 Q1001","updated":"2025-11-12T07:18:17Z"}
