{"icao":"LPLA","metar":"LPLA 090500Z 19010KT 170V230 9999 FEW012 SCT016 17/14 Q1029","updated":"2026-01-09T05:24:16Z"}
