{"icao":"LPMA","metar":"LPMA 041600Z 03010KT 340V070 9999 FEW015 24/16 Q1026","updated":"2025-10-04T16:18:48Z"}
