{"icao":"LPPR","metar":"LPPR 082300Z 23012KT 5000 RADZ FEW001 BKN002 14/13 Q1025","updated":"2026-01-08T23:17:26Z"}
