{"icao":"KJFK","metar":"KJFK 202151Z 19003KT 10SM FEW160 FEW250 06/M02 A3020 RMK AO2 SLP225 T00561017 $","updated":"2025-11-20T22:17:31Z"}
