{"icao":"LPOV","metar":"LPOV 051000Z 01006KT 340V060 9999 FEW005 20/15 Q1022","updated":"2025-10-05T10:16:10Z"}
