{"icao":"LPBJ","metar":"LPBJ 242205Z 25007KT 8000 -DZ SCT005 BKN008 19/19 Q1018","updated":"2025-10-24T22:16:44Z"}
