{"icao":"LPOV","metar":"LPOV 120600Z 15017G27KT 120V180 9999 FEW048 17/12 Q1002","updated":"2025-11-12T06:28:30Z"}
