{"icao":"LPOV","metar":"LPOV 150700Z VRB02KT 7000 MIFG NSC 10/10 Q1016","updated":"2025-10-15T07:18:28Z"}
