{"icao":"LPBJ","metar":"LPBJ 232300Z 26005KT CAVOK 22/16 Q1020","updated":"2026-05-23T23:55:51Z"}
