{"icao":"LPPT","metar":"LPPT 232130Z 30006KT 280V340 9999 FEW018 14/12 Q1015","updated":"2026-04-23T21:43:29Z"}
