{"icao":"LPBJ","metar":"LPBJ 091600Z 31006KT 250V350 CAVOK 25/13 Q1018","updated":"2025-10-09T16:23:08Z"}
