{"icao":"LPMT","metar":"LPMT 191000Z 13007KT 100V160 9999 VCSH SCT008 SCT030 15/14 Q1005","updated":"2026-03-19T10:38:35Z"}
