{"icao":"LPMR","metar":"LPMR 311500Z 21014KT 7000 -RA SCT008 BKN018 OVC028 20/17 Q1011","updated":"2025-10-31T15:17:46Z"}
