{"icao":"LPFL","metar":"LPFL 241100Z 25020G33KT 190V310 9999 VCSH SCT008 FEW012TCU 17/15 Q1015","updated":"2026-01-24T11:17:11Z"}
