{"icao":"LPST","metar":"LPST 291500Z 33011KT 9999 SCT012 FEW015TCU 19/17 Q1008","updated":"2025-10-29T15:20:19Z"}
