{"icao":"KLAX","metar":"KLAX 311853Z 04006KT 10SM OVC095 18/08 A3005 RMK AO2 RAB31E33 SLP172 P0000 T01830078 $","updated":"2025-12-31T19:15:50Z"}
