{"icao":"LPPR","metar":"LPPR 231030Z 12010KT CAVOK 16/08 Q1024","updated":"2026-02-23T10:49:43Z"}
