{"icao":"LPCS","metar":"LPCS 270700Z 25007KT 9999 FEW010 SCT049 12/12 Q1000","updated":"2026-01-27T07:26:26Z"}
