{"icao":"KJFK","metar":"KJFK 070551Z 26012KT 6SM -SN SCT018 BKN037 OVC050 M03/M06 A2958 RMK AO2 SLP016 4/004 P0000 60000 T10281056 11011 21033 58013 $","updated":"2026-02-07T06:40:36Z"}
