{"icao":"KORD","metar":"KORD 041451Z 21007KT 10SM FEW130 BKN250 09/M02 A3026 RMK AO2 SLP250 T00941022 58002","updated":"2025-11-04T15:20:56Z"}
