{"icao":"LPST","metar":"LPST 261300Z 05006KT 010V080 CAVOK 16/05 Q1025","updated":"2025-11-26T13:33:34Z"}
