{"icao":"LPMA","metar":"LPMA 200430Z 35010KT 9999 FEW015 15/09 Q1026","updated":"2026-01-20T04:43:09Z"}
