{"icao":"LPBJ","metar":"LPBJ 192300Z 31005KT CAVOK 17/14 Q1023","updated":"2026-05-20T00:03:47Z"}
