{"icao":"LPPD","metar":"LPPD 291800Z 20013KT 9999 FEW006 SCT015 18/17 Q1023","updated":"2026-05-29T18:30:43Z"}
