{"icao":"KORD","metar":"KORD 011851Z 08011KT 10SM BKN250 24/13 A3019 RMK AO2 SLP219 T02440133","updated":"2025-10-01T19:14:18Z"}
