{"icao":"LPPD","metar":"LPPD 270400Z 03020G31KT 360V060 9999 FEW015 SCT030 18/14 Q1016","updated":"2025-10-27T04:28:02Z"}
