{"icao":"KJFK","metar":"KJFK 240651Z 35010KT 10SM FEW070 SCT250 19/14 A2988 RMK SLP117 T01890144 ","updated":"2026-06-24T07:39:20Z"}
