{"icao":"LPPR","metar":"LPPR 171400Z 29005KT 270V330 CAVOK 21/13 Q1015","updated":"2025-10-17T14:17:21Z"}
