{"icao":"KORD","metar":"KORD 271451Z 28005KT 10SM FEW250 23/13 A2995 RMK AO2 SLP137 T02330133 53007 $","updated":"2025-09-27T15:14:35Z"}
