{"icao":"KJFK","metar":"KJFK 262251Z 31019G30KT 10SM FEW033 BKN043 M04/M12 A2984 RMK AO2 PK WND 32032/2233 SLP105 T10441122 $","updated":"2026-01-26T23:20:59Z"}
