{"icao":"LPFL","metar":"LPFL 010800Z VRB03KT 9999 FEW030 BKN040 16/07 Q1021","updated":"2025-11-01T08:21:33Z"}
