{"icao":"LPST","metar":"LPST 121600Z 22008KT 170V250 9999 SCT020 FEW022CB 18/12 Q1018","updated":"2026-05-12T21:18:10Z"}
