{"icao":"KLAX","metar":"KLAX 251453Z 27007KT 3SM BR OVC008 17/14 A3003 RMK AO2 SLP167 T01670144 53012 $","updated":"2025-10-25T15:15:49Z"}
