{"icao":"KJFK","metar":"KJFK 232008Z 35016G20KT 10SM BKN017 OVC050 05/02 A2993 RMK AO2 T00500017","updated":"2026-03-23T20:36:32Z"}
