{"icao":"LPOV","metar":"LPOV 271200Z 16014KT 120V190 CAVOK 21/09 Q1014","updated":"2025-09-27T12:31:46Z"}
