{"icao":"LPCS","metar":"LPCS 161700Z 36013KT 9999 FEW020 19/11 Q1019","updated":"2026-04-16T17:12:38Z"}
