{"icao":"LPMA","metar":"LPMA 250200Z 34008KT 300V010 9999 SCT015 17/10 Q1019","updated":"2026-04-25T02:22:48Z"}
