{"icao":"LPMA","metar":"LPMA 160130Z 32006KT 290V360 9999 FEW015 18/11 Q1018","updated":"2025-11-16T01:37:07Z"}
