{"icao":"KJFK","metar":"KJFK 132251Z 19017KT 10SM SCT160 BKN200 BKN250 06/M01 A2988 RMK AO2 PK WND 19026/2222 SLP117 T00561011 $","updated":"2026-01-13T23:18:59Z"}
