{"icao":"KJFK","metar":"KJFK 071851Z 19024G34KT 10SM FEW050 FEW170 BKN250 15/04 A2990 RMK AO2 PK WND 18034/1847 SLP125 T01500044 $","updated":"2025-11-07T19:15:42Z"}
