{"icao":"KORD","metar":"KORD 012051Z 05007KT 10SM FEW027 SCT047 BKN060 07/01 A3005 RMK AO2 RAB17E46 SLP178 P0000 60000 T00670006 51010 $","updated":"2026-05-01T21:52:09Z"}
