{"icao":"LPHR","metar":"LPHR 030800Z 05014KT 9999 FEW017 15/10 Q1021","updated":"2026-05-03T08:06:52Z"}
