{"icao":"LPPS","metar":"LPPS 031030Z 33024G34KT 9999 SCT015 FEW018CB 14/08 Q1016","updated":"2026-03-03T10:37:35Z"}
