{"icao":"LPMR","metar":"LPMR 031700Z 28004KT CAVOK 17/13 Q1021","updated":"2025-11-03T17:16:37Z"}
