{"icao":"LPBJ","metar":"LPBJ 281500Z 15017KT 9999 FEW020 SCT028 22/17 Q1012","updated":"2025-10-28T15:20:14Z"}
