{"icao":"LPPR","metar":"LPPR 191100Z 18016KT 3500 RA BR FEW005 SCT008 BKN025 19/18 Q1013","updated":"2025-10-19T11:12:58Z"}
