{"icao":"KLAX","metar":"KLAX 160253Z 11007KT 10SM FEW007 BKN015 OVC028 15/13 A2984 RMK AO2 RAB0159E43 SLP102 P0003 60004 T01500133 53009 $","updated":"2025-11-16T03:17:10Z"}
