{"icao":"LPHR","metar":"LPHR 021800Z 23006KT 200V260 9999 FEW020 BKN035 19/12 Q1019","updated":"2025-11-02T18:21:51Z"}
