{"icao":"LPHR","metar":"LPHR 100800Z 21010KT 170V250 9999 SCT014 SCT030 21/18 Q1021","updated":"2025-10-10T08:23:17Z"}
