{"icao":"KJFK","metar":"KJFK 031551Z 32013KT 10SM FEW029 FEW085 SCT250 02/M04 A3004 RMK AO2 SLP172 T00221044","updated":"2025-12-03T16:27:51Z"}
