{"icao":"LPLA","metar":"LPLA 030900Z 23009KT 200V260 9999 FEW022 16/10 Q1027","updated":"2025-12-03T09:23:11Z"}
