{"icao":"LPFR","metar":"LPFR 042200Z 33014KT CAVOK 21/11 Q1016","updated":"2026-06-04T22:19:31Z"}
