{"icao":"KLAX","metar":"KLAX 210453Z 25006KT 10SM FEW002 18/17 A2993 RMK AO2 SLP133 T01780167","updated":"2026-03-21T05:39:50Z"}
