{"icao":"LPPD","metar":"LPPD 252130Z 04003KT 360V070 9999 FEW008 BKN013 16/14 Q1019","updated":"2026-04-25T21:35:24Z"}
