{"icao":"LPAZ","metar":"LPAZ 171000Z 30003KT 260V330 9999 FEW020 22/18 Q1013","updated":"2025-10-17T10:19:04Z"}
