{"icao":"KLAX","metar":"KLAX 040153Z 26011KT 10SM FEW250 16/13 A2999 RMK AO2 SLP154 T01560128","updated":"2026-03-04T01:57:20Z"}
