{"icao":"LPLA","metar":"LPLA 141600Z 17010KT 9999 SCT025 BKN045 25/21 Q1026","updated":"2025-09-14T16:17:58Z"}
