{"icao":"LPBJ","metar":"LPBJ 092000Z 29007KT CAVOK 20/15 Q1019","updated":"2025-10-09T20:19:40Z"}
