{"icao":"KJFK","metar":"KJFK 220951Z 08004KT 10SM SCT008 BKN065 BKN120 03/01 A3010 RMK AO2 SLP191 T00280011 $","updated":"2026-02-22T10:23:32Z"}
