{"icao":"LPPR","metar":"LPPR 291230Z 17003KT 140V220 9999 FEW030 14/07 Q1020","updated":"2025-12-29T12:42:00Z"}
