{"icao":"LPFR","metar":"LPFR 080530Z 06002KT CAVOK 11/09 Q1018","updated":"2026-03-08T05:41:37Z"}
