{"icao":"LPMT","metar":"LPMT 021300Z 24010KT 190V270 9999 FEW020 BKN030 22/14 Q1017","updated":"2026-05-02T13:08:05Z"}
