{"icao":"LPFR","metar":"LPFR 042000Z 30004KT 250V340 9999 FEW025 16/11 Q1003","updated":"2026-01-04T20:21:19Z"}
