{"icao":"LPBJ","metar":"LPBJ 171900Z VRB02KT 9999 FEW040 24/12 Q1014","updated":"2025-10-17T19:13:57Z"}
