{"icao":"LPAZ","metar":"LPAZ 211230Z 18013KT 9999 FEW049 19/14 Q1026","updated":"2026-02-21T12:44:06Z"}
