{"icao":"LPMT","metar":"LPMT 220100Z 05003KT CAVOK 10/09 Q1028","updated":"2026-02-22T02:03:21Z"}
