{"icao":"LPPR","metar":"LPPR 091830Z 34007KT 9999 FEW012 FEW025CB 10/07 Q1019","updated":"2026-03-09T18:51:37Z"}
