{"icao":"KLAX","metar":"KLAX 092253Z 25008KT 10SM FEW085 OVC250 19/13 A2993 RMK AO2 SLP135 T01940128 $","updated":"2026-02-09T23:35:04Z"}
