{"icao":"LPPD","metar":"LPPD 201100Z 24012KT 7000 FEW003 BKN006 22/22 Q1017","updated":"2025-10-20T11:15:55Z"}
