{"icao":"LPMA","metar":"LPMA 252200Z 01008KT 9999 BKN014 19/15 Q1024","updated":"2025-11-25T22:18:26Z"}
