{"icao":"LPLA","metar":"LPLA 072000Z 36011KT 4800 -DZ BR BKN005 BKN012 13/12 Q1022","updated":"2026-03-07T20:24:16Z"}
