{"icao":"LPOV","metar":"LPOV 281000Z 26006KT 9999 FEW020 21/16 Q1009","updated":"2026-04-28T11:04:07Z"}
