{"icao":"LPPD","metar":"LPPD 311800Z 25014KT 3000 BR SCT002 BKN003 16/16 Q1017","updated":"2026-01-31T18:30:35Z"}
