{"icao":"LPAZ","metar":"LPAZ 020300Z 08005KT 9999 FEW029 16/12 Q1021","updated":"2025-11-02T03:14:04Z"}
