{"icao":"KJFK","metar":"KJFK 141351Z 22006KT 10SM FEW200 BKN250 28/16 A2988 RMK AO2 SLP117 T02780156 $","updated":"2026-06-14T14:04:15Z"}
