{"icao":"LPPR","metar":"LPPR 241730Z 28004KT 260V320 9999 FEW015 FEW025TCU 22/15 Q1020","updated":"2026-05-24T18:04:29Z"}
