{"icao":"KLAX","metar":"KLAX 141653Z VRB05KT 10SM SCT017 SCT250 16/10 A3015 RMK AO2 SLP208 T01560100","updated":"2026-02-14T17:24:46Z"}
