{"icao":"LPPR","metar":"LPPR 062200Z 17011KT 9999 FEW018 14/12 Q1016","updated":"2025-11-06T22:17:31Z"}
