{"icao":"LPFL","metar":"LPFL 161300Z 18013G23KT 110V220 9999 FEW011 SCT014 24/20 Q1018","updated":"2025-09-16T13:27:18Z"}
