{"icao":"KJFK","metar":"KJFK 281951Z 03017KT 10SM FEW028 BKN045 BKN250 11/04 A3025 RMK AO2 PK WND 03026/1856 SLP242 T01110039","updated":"2025-10-28T20:21:06Z"}
