{"icao":"KORD","metar":"KORD 251551Z 28012G18KT 10SM SCT028 M01/M09 A2967 RMK AO2 SLP055 T10111094","updated":"2026-02-25T16:01:12Z"}
