{"icao":"KORD","metar":"KORD 151751Z 32008KT 10SM CLR 13/03 A2990 RMK AO2 SLP127 T01280033 10128 21006 58006","updated":"2026-02-15T18:35:43Z"}
