{"icao":"LPCS","metar":"LPCS 072000Z 36017KT 9999 FEW009 17/15 Q1022","updated":"2025-10-07T22:16:02Z"}
