{"icao":"LPFR","metar":"LPFR 071900Z 28005KT 250V310 CAVOK 22/16 Q1020","updated":"2025-10-07T19:13:41Z"}
