{"icao":"LPCS","metar":"LPCS 170800Z 33005KT 9999 VCSH FEW022 FEW025TCU 06/06 Q1014","updated":"2026-01-17T08:25:07Z"}
