{"icao":"KJFK","metar":"KJFK 291251Z 16007KT 10SM FEW100 FEW160 SCT250 05/M04 A3061 RMK AO2 SLP365 T00501039 $","updated":"2026-03-29T12:54:29Z"}
