{"icao":"KORD","metar":"KORD 050651Z 27013G25KT 10SM FEW035 BKN050 04/M03 A2997 RMK AO2 SLP152 T00441028 $","updated":"2026-04-05T07:04:12Z"}
