{"icao":"LPBJ","metar":"LPBJ 130800Z 29007KT 0100 FG VV002 08/08 Q1023","updated":"2026-03-13T08:38:05Z"}
