{"icao":"LPLA","metar":"LPLA 221900Z 21014KT 8000 -DZ SCT007 SCT014 BKN040 21/19 Q1020","updated":"2025-09-22T19:14:05Z"}
