{"icao":"LPPR","metar":"LPPR 170830Z 36005KT 320V050 9999 FEW015 SCT045 15/10 Q1018","updated":"2026-05-17T09:03:39Z"}
