{"icao":"KORD","metar":"KORD 010651Z 30005KT 10SM FEW025 M09/M13 A3035 RMK AO2 SLP288 T10891128","updated":"2026-02-01T07:36:20Z"}
