{"icao":"LPPD","metar":"LPPD 010730Z 24022G32KT 9999 FEW008 SCT016 BKN030 16/15 Q1008","updated":"2026-02-01T07:36:03Z"}
