{"icao":"LPOV","metar":"LPOV 051400Z 24014KT 200V270 6000 -TSRA FEW012 SCT018CB BKN035 15/12 Q0991 RESHRA","updated":"2026-02-05T14:08:20Z"}
