{"icao":"LPLA","metar":"LPLA 151200Z 35005KT 320V020 9999 FEW017 BKN035 16/13 Q1030","updated":"2026-03-15T12:51:20Z"}
