{"icao":"LPPT","metar":"LPPT 131630Z 30008KT 280V350 9999 BKN014 14/11 Q1021","updated":"2026-03-13T16:38:30Z"}
