{"icao":"LPPT","metar":"LPPT 201300Z 34015KT 9999 FEW034 14/06 Q1021","updated":"2025-11-20T13:28:59Z"}
