{"icao":"LPFR","metar":"LPFR 312030Z 30007KT CAVOK 28/18 Q1015","updated":"2026-05-31T20:58:13Z"}
