{"icao":"LPPR","metar":"LPPR 281900Z 20011KT 7000 -RA FEW032 13/11 Q1001","updated":"2026-01-28T19:26:58Z"}
