{"icao":"LPFR","metar":"LPFR 270300Z 03006KT CAVOK 09/05 Q1022","updated":"2025-11-27T03:10:00Z"}
