{"icao":"KJFK","metar":"KJFK 122151Z 31015KT 10SM FEW070 FEW190 FEW250 01/M11 A3009 RMK AO2 SLP188 T00061106","updated":"2025-12-12T22:19:26Z"}
