{"icao":"LPLA","metar":"LPLA 022300Z 23022G33KT 9000 -RA FEW004 SCT015 BKN035 16/13 Q1009","updated":"2026-02-02T23:27:24Z"}
