{"icao":"LPFR","metar":"LPFR 111100Z 10014KT CAVOK 25/15 Q1019","updated":"2025-10-11T11:12:49Z"}
