{"icao":"LPCS","metar":"LPCS 131400Z 17006KT 130V240 9999 FEW024 28/13 Q1015","updated":"2025-10-13T14:18:35Z"}
