{"icao":"KJFK","metar":"KJFK 012051Z 34019KT 10SM FEW060 FEW220 BKN250 M05/M17 A2976 RMK AO2 PK WND 34032/2012 SLP078 6//// T10501167 56010 PNO $","updated":"2026-02-01T21:22:03Z"}
