{"icao":"LPAZ","metar":"LPAZ 221030Z 21013KT 8000 BKN002 BKN005 17/17 Q1020","updated":"2026-05-22T10:48:52Z"}
