{"icao":"LPPT","metar":"LPPT 110700Z VRB02KT 4000 2000N BR FEW001 BKN010 10/10 Q1027","updated":"2026-01-11T07:19:40Z"}
