{"icao":"LPBJ","metar":"LPBJ 091200Z 17017KT CAVOK 15/13 Q1019","updated":"2025-12-09T12:41:17Z"}
