{"icao":"LPMR","metar":"LPMR 100500Z 15006KT 9999 SCT007 BKN015 BKN025 14/14 Q1018","updated":"2025-11-10T05:18:56Z"}
