{"icao":"LPLA","metar":"LPLA 120800Z 15005KT 120V180 9999 FEW015 SCT040 19/18 Q1022","updated":"2026-06-12T08:23:43Z"}
