{"icao":"LPPR","metar":"LPPR 061230Z 21010KT 180V240 2000 -DZ BR BKN001 BKN004 16/16 Q1021","updated":"2025-12-06T12:35:48Z"}
