{"icao":"KORD","metar":"KORD 230951Z 29014KT 10SM BKN023 BKN250 M19/M26 A3043 RMK AO2 SLP321 T11891261 $","updated":"2026-01-23T10:24:02Z"}
