{"icao":"KORD","metar":"KORD 140751Z 26009KT 10SM OVC043 05/M01 A2958 RMK AO2 SLP020 T00501006 $","updated":"2026-01-14T08:29:38Z"}
