{"icao":"LPCS","metar":"LPCS 070600Z 29003KT 220V010 9999 FEW016 13/09 Q1010","updated":"2026-05-07T06:08:50Z"}
