{"icao":"LPBJ","metar":"LPBJ 192100Z 31009KT CAVOK 08/07 Q1021","updated":"2026-01-19T21:18:46Z"}
