{"icao":"KORD","metar":"KORD 180851Z 26013G21KT 10SM BKN009 OVC036 13/12 A2963 RMK AO2 SLP030 60011 T01330117 51016 $","updated":"2026-04-18T09:47:10Z"}
