{"icao":"KLAX","metar":"KLAX 011053Z 04003KT 8SM SCT018 13/11 A3001 RMK AO2 SLP162 T01330111 $","updated":"2025-12-01T11:17:34Z"}
