{"icao":"LPFL","metar":"LPFL 121030Z 17005KT 150V220 9999 SCT008 BKN012 17/15 Q1029","updated":"2026-03-12T10:37:13Z"}
