{"icao":"KORD","metar":"KORD 031251Z 22015G21KT 10SM FEW120 OVC250 09/00 A2994 RMK AO2 SLP139 T00940000 $","updated":"2026-05-03T13:07:21Z"}
