{"icao":"KORD","metar":"KORD 300132Z 13011KT 3/4SM R10L/P6000FT -SN BR BKN008 OVC013 M02/M03 A2990 RMK AO2 P0003 T10171033 $","updated":"2025-11-30T01:42:39Z"}
