{"icao":"KJFK","metar":"KJFK 280751Z 28003KT 10SM FEW250 09/03 A3020 RMK SLP225 T00940033 ","updated":"2026-04-28T08:34:22Z"}
