{"icao":"LPCS","metar":"LPCS 201100Z 26006KT 170V310 9999 FEW025 21/16 Q1016","updated":"2025-10-20T11:15:39Z"}
