{"icao":"LPPD","metar":"LPPD 082330Z 35019G29KT 9999 SCT018 14/09 Q1016","updated":"2026-05-08T23:54:59Z"}
