{"icao":"LPOV","metar":"LPOV 051600Z 36010KT 9999 FEW045 11/M01 Q1015","updated":"2026-01-05T16:26:23Z"}
