{"icao":"KORD","metar":"KORD 160851Z 21010KT 10SM FEW200 17/11 A2974 RMK AO2 SLP068 T01670106 58021 $","updated":"2026-06-16T09:31:03Z"}
