{"icao":"LPCS","metar":"LPCS 161430Z 27011KT 230V300 9999 FEW020 SCT025 17/13 Q1031","updated":"2026-02-16T14:39:35Z"}
