{"icao":"LPPT","metar":"LPPT 081100Z 16010KT 120V190 9999 FEW022 FEW025TCU BKN030 18/10 Q1010","updated":"2026-05-08T11:12:42Z"}
