{"icao":"KJFK","metar":"KJFK 151851Z 29013KT 10SM FEW055 FEW140 BKN250 M02/M11 A3021 RMK AO2 SLP229 T10171111 $","updated":"2025-12-15T19:18:40Z"}
