{"icao":"KORD","metar":"KORD 151551Z 19018G30KT 10SM FEW035 BKN065 BKN250 16/08 A2992 RMK AO2 PK WND 19030/1545 SLP132 T01610083","updated":"2026-05-15T16:50:14Z"}
