{"icao":"LPHR","metar":"LPHR 142000Z 26010KT 9999 FEW008 SCT013 BKN020 20/18 Q1021","updated":"2026-06-14T20:16:10Z"}
