{"icao":"LPFL","metar":"LPFL 151930Z 09003KT 340V140 9999 FEW024 17/08 Q1032","updated":"2026-05-16T05:53:13Z"}
