{"icao":"LPFR","metar":"LPFR 231900Z 29020KT 9999 FEW016 FEW020TCU 10/06 Q1005","updated":"2026-01-23T19:23:28Z"}
