{"icao":"LPPS","metar":"LPPS 292100Z 35012KT 9999 SCT015 18/13 Q1023","updated":"2025-11-29T21:15:54Z"}
