{"icao":"LPPT","metar":"LPPT 311200Z 33011KT 300V010 CAVOK 26/14 Q1020","updated":"2026-05-31T12:10:32Z"}
