{"icao":"LPPD","metar":"LPPD 082200Z 15007KT 120V200 9999 SCT006 BKN012 22/21 Q1025","updated":"2025-10-08T22:16:04Z"}
