{"icao":"KLAX","metar":"KLAX 021903Z 24008KT 9SM OVC015 18/13 A2996 RMK AO2 T01780133","updated":"2026-05-02T19:54:56Z"}
