{"icao":"LPHR","metar":"LPHR 281100Z 06005KT 030V090 9999 FEW016 SCT028 15/09 Q1034","updated":"2026-03-28T11:27:36Z"}
