{"icao":"LPMR","metar":"LPMR 060400Z 07003KT CAVOK 06/02 Q1021","updated":"2026-01-06T04:38:40Z"}
