{"icao":"KJFK","metar":"KJFK 090551Z 18009KT 10SM SCT250 08/04 A2998 RMK AO2 SLP150 T00780039 10167 20078 53015 $","updated":"2026-03-09T05:56:26Z"}
