{"icao":"LPBJ","metar":"LPBJ 051500Z VRB03KT CAVOK 28/15 Q1018","updated":"2025-10-05T15:14:58Z"}
