{"icao":"LPHR","metar":"LPHR 291000Z 27007KT 8000 FEW002 BKN004 FEW012TCU 22/22 Q1023","updated":"2025-09-29T10:19:59Z"}
