{"icao":"LPMA","metar":"LPMA 231900Z 01025KT 9999 FEW013 20/15 Q1021","updated":"2026-05-23T19:23:31Z"}
