{"icao":"LPHR","metar":"LPHR 202000Z 29019KT 9999 SCT012 SCT027 17/15 Q1023","updated":"2026-01-20T20:11:09Z"}
