{"icao":"LPPS","metar":"LPPS 092230Z 01010KT 8000 SHRA SCT012 BKN030 14/13 Q1020","updated":"2026-04-09T22:39:29Z"}
