{"icao":"LPFL","metar":"LPFL 041630Z 30016G34KT 230V010 9999 FEW021 FEW024CB 14/08 Q0991","updated":"2026-02-04T16:45:26Z"}
