{"icao":"LPBJ","metar":"LPBJ 100900Z 03005KT 9999 BKN008 BKN022 12/12 Q1020","updated":"2025-12-10T09:23:36Z"}
