{"icao":"KLAX","metar":"KLAX 280253Z 32004KT 10SM CLR 14/09 A3007 RMK AO2 SLP183 T01440089 51011 $","updated":"2025-12-28T03:46:48Z"}
