{"icao":"LPBJ","metar":"LPBJ 012200Z 32006KT CAVOK 15/06 Q1021","updated":"2026-04-01T22:35:48Z"}
