{"icao":"LPFR","metar":"LPFR 170830Z 32010KT 290V350 CAVOK 18/09 Q1018","updated":"2026-05-17T09:03:38Z"}
