{"icao":"KLAX","metar":"KLAX 281653Z 12004KT 10SM FEW230 FEW270 12/06 A3020 RMK AO2 SLP226 T01220056 $","updated":"2025-12-28T17:16:55Z"}
