{"icao":"LPPD","metar":"LPPD 080700Z 02021G32KT 4000 -RA BR SCT014 BKN035 11/09 Q1023","updated":"2026-03-08T07:29:40Z"}
