{"icao":"LPMA","metar":"LPMA 291230Z 01010KT 320V040 9999 SCT015 SCT030 22/16 Q1023","updated":"2025-09-29T12:37:45Z"}
