{"icao":"KJFK","metar":"KJFK 130051Z 03018G28KT 8SM -RA BKN014 OVC021 14/13 A2997 RMK AO2 PK WND 03028/0049 SLP149 P0003 T01440128","updated":"2025-10-13T01:23:47Z"}
