{"icao":"KLAX","metar":"KLAX 240353Z 24007KT 10SM BKN012 14/12 A2990 RMK AO2 SLP122 T01440117 $","updated":"2026-01-24T04:34:07Z"}
