{"icao":"KORD","metar":"KORD 030551Z 20016G22KT 8SM OVC007 M06/M08 A2997 RMK AO2 SLP158 4/007 T10611078 11056 21072 410441083 56013","updated":"2025-12-03T06:31:03Z"}
