{"icao":"LPFR","metar":"LPFR 100600Z VRB02KT CAVOK 13/08 Q1019","updated":"2025-11-10T06:30:23Z"}
