{"icao":"LPMT","metar":"LPMT 231300Z 24005KT 200V270 9999 FEW020 BKN030 16/11 Q1026","updated":"2025-11-23T13:22:24Z"}
