{"icao":"LPBJ","metar":"LPBJ 270800Z 08010KT CAVOK 11/03 Q1016","updated":"2026-03-27T08:51:28Z"}
