{"icao":"KLAX","metar":"KLAX 200453Z 23006KT 8SM SCT008 21/19 A2992 RMK AO2 SLP130 T02060189","updated":"2025-09-20T05:15:55Z"}
