{"icao":"LPMT","metar":"LPMT 271400Z 03007KT CAVOK 16/05 Q1023","updated":"2025-11-27T14:18:35Z"}
