{"icao":"LPPD","metar":"LPPD 091230Z 29019KT 9999 -SHRA SCT025 BKN045 14/10 Q1021","updated":"2025-12-09T12:41:18Z"}
