{"icao":"LPPR","metar":"LPPR 230730Z 11005KT 070V140 CAVOK 10/05 Q1024","updated":"2026-02-23T07:53:33Z"}
