{"icao":"LPPD","metar":"LPPD 230500Z 26022KT 9999 FEW020 SCT045 14/09 Q1002","updated":"2026-04-23T05:28:50Z"}
