{"icao":"LPOV","metar":"LPOV 181000Z 24003KT 180V280 CAVOK 20/15 Q1016","updated":"2025-10-18T10:16:32Z"}
