{"icao":"LPOV","metar":"LPOV 191100Z 33009KT 9999 FEW008 SCT011 20/17 Q1016","updated":"2026-06-19T11:20:44Z"}
