{"icao":"LPMR","metar":"LPMR 031000Z 15007KT CAVOK 14/09 Q1023","updated":"2025-11-03T10:21:38Z"}
