{"icao":"KJFK","metar":"KJFK 242351Z 19010KT 10SM FEW080 FEW250 22/16 A2998 RMK SLP151 T02220161 10294 20222 53014 ","updated":"2026-06-25T00:10:44Z"}
