{"icao":"LPLA","metar":"LPLA 072200Z 18008KT 090V240 9999 SCT028 19/14 Q1020","updated":"2025-11-07T22:16:59Z"}
