{"icao":"LPST","metar":"LPST 161100Z VRB02KT CAVOK 26/10 Q1015","updated":"2025-10-16T11:15:15Z"}
