{"icao":"LPLA","metar":"LPLA 311500Z 02007KT 330V050 9999 SCT023 20/16 Q1014","updated":"2026-01-31T15:22:07Z"}
