{"icao":"LPMT","metar":"LPMT 130100Z VRB02KT CAVOK 15/14 Q1015","updated":"2025-10-13T01:23:31Z"}
