{"icao":"LPFR","metar":"LPFR 142000Z 01005KT CAVOK 15/10 Q1015","updated":"2025-12-14T20:20:07Z"}
