{"icao":"LPST","metar":"LPST 131500Z 28008KT 240V310 9999 FEW024 26/13 Q1015","updated":"2025-10-13T15:18:19Z"}
