{"icao":"LPPS","metar":"LPPS 081600Z 08007KT 030V130 9999 SCT014 17/12 Q1033","updated":"2026-01-08T16:28:56Z"}
