{"icao":"LPPS","metar":"LPPS 182100Z 08012KT 050V110 9999 FEW012 16/14 Q1015","updated":"2026-04-18T21:33:38Z"}
