{"icao":"LPFL","metar":"LPFL 231400Z VRB04KT 9999 SCT028 SCT038 14/06 Q1026","updated":"2026-01-23T14:24:23Z"}
