{"icao":"KORD","metar":"KORD 310451Z 18014G23KT 10SM FEW050 SCT070 BKN090 OVC250 19/15 A2975 RMK AO2 PK WND 23033/0354 RAE07B31E46 TSE47 SLP072 OCNL LTGICCC DSNT E CB DSNT E MOV E P0001 T01940150 $","updated":"2026-03-31T05:08:11Z"}
