{"icao":"LPHR","metar":"LPHR 281600Z 12011KT 9999 FEW020 SCT060 22/17 Q1027","updated":"2025-09-28T16:18:45Z"}
