{"icao":"LPOV","metar":"LPOV 121900Z 32006KT 280V340 9999 FEW015 17/15 Q1019","updated":"2026-05-12T19:49:06Z"}
