{"icao":"KORD","metar":"KORD 191751Z 11010KT 10SM FEW020 BKN033 BKN250 14/01 A2961 RMK AO2 SLP028 T01440011 10144 20039 58012 $","updated":"2026-02-19T18:49:34Z"}
