{"icao":"LPMT","metar":"LPMT 200100Z 23007KT 9999 BKN008 19/18 Q1013","updated":"2025-10-20T01:25:43Z"}
