{"icao":"LPPS","metar":"LPPS 181800Z 28008KT 9999 SCT015 BKN030 19/13 Q1022","updated":"2025-12-18T18:30:25Z"}
