{"icao":"LPCS","metar":"LPCS 141330Z 34010KT 290V360 9999 -SHRA FEW004 SCT017 14/12 Q1020","updated":"2026-01-14T13:39:18Z"}
