{"icao":"LPOV","metar":"LPOV 241300Z 27007KT 240V300 9999 SCT018 22/19 Q1014","updated":"2026-06-24T13:20:57Z"}
