{"icao":"KJFK","metar":"KJFK 172251Z 16010KT 10SM FEW040 SCT095 SCT140 BKN250 21/17 A2980 RMK AO2 RAB2154E04 SLP092 P0000 T02110172 $","updated":"2026-06-17T23:39:50Z"}
