{"icao":"LPFR","metar":"LPFR 111700Z 26008KT 9999 FEW025 23/15 Q1016","updated":"2025-10-11T17:12:53Z"}
