{"icao":"LPBJ","metar":"LPBJ 210823Z 18016KT 9000 -RA FEW009 BKN035 11/10 Q1011","updated":"2026-01-21T08:30:19Z"}
