{"icao":"LPFR","metar":"LPFR 201900Z 35006KT CAVOK 14/05 Q1020","updated":"2025-11-20T19:15:02Z"}
