{"icao":"LPMR","metar":"LPMR 230700Z 12002KT CAVOK 10/09 Q1014","updated":"2026-04-23T07:49:53Z"}
