{"icao":"LPMA","metar":"LPMA 131230Z 13006KT 090V160 9999 FEW015 FEW016CB 21/11 Q1004","updated":"2025-11-13T12:40:20Z"}
