{"icao":"KJFK","metar":"KJFK 221851Z 16006KT 10SM FEW030 BKN046 BKN250 21/14 A3010 RMK AO2 SLP193 T02110139 $","updated":"2025-09-22T19:14:06Z"}
