{"icao":"LPOV","metar":"LPOV 241000Z 23014KT 1200 RADZ BR BKN003 BKN011 16/16 Q1014","updated":"2025-11-24T10:21:41Z"}
