{"icao":"LPPT","metar":"LPPT 012300Z 31008KT CAVOK 24/15 Q1017 NOSIG","updated":"2026-07-01T23:13:18Z"}
