{"icao":"LPCS","metar":"LPCS 210900Z 01011KT 9999 FEW015 11/03 Q1027","updated":"2025-11-21T09:19:14Z"}
