{"icao":"KORD","metar":"KORD 171951Z 12003KT 10SM FEW300 28/14 A3006 RMK AO2 SLP173 T02780139 $","updated":"2025-09-17T20:18:52Z"}
