{"icao":"LPMT","metar":"LPMT 171600Z 01006KT 330V030 CAVOK 27/12 Q1016","updated":"2026-04-17T17:01:45Z"}
