{"icao":"LPLA","metar":"LPLA 281710Z 31016KT 4000 -DZRA BKN008 BKN013 17/15 Q1028","updated":"2026-02-28T17:19:33Z"}
