{"icao":"LPPT","metar":"LPPT 031130Z 07006G16KT 030V100 CAVOK 20/13 Q1023","updated":"2026-04-03T11:36:31Z"}
