{"icao":"KJFK","metar":"KJFK 180851Z 31005KT 10SM FEW250 09/02 A3000 RMK AO2 SLP157 T00940022 53002","updated":"2025-10-18T09:16:55Z"}
