{"icao":"LPAR","metar":"LPAR 131600Z 26006KT 190V320 9999 FEW045 29/11 Q1014","updated":"2025-10-14T03:36:41Z"}
