{"icao":"KORD","metar":"KORD 080951Z 23008KT 10SM OVC012 01/M02 A2991 RMK AO2 SLP133 T00111017","updated":"2026-03-08T10:24:39Z"}
