{"icao":"LPMA","metar":"LPMA 090830Z 02013G23KT 340V050 9999 BKN015 SCT030 15/07 Q1028","updated":"2026-03-09T08:42:22Z"}
