{"icao":"LPLA","metar":"LPLA 301200Z 10007KT 050V150 9999 FEW025 21/17 Q1032","updated":"2026-06-30T12:06:49Z"}
