{"icao":"KLAX","metar":"KLAX 242053Z 25013KT 10SM FEW029 FEW050 SCT100 24/17 A2994 RMK AO2 SLP139 T02440172 58012 $","updated":"2025-09-24T21:15:06Z"}
