{"icao":"LPLA","metar":"LPLA 260500Z 26008KT 9999 FEW014 BKN035 14/11 Q1003","updated":"2026-01-26T05:32:18Z"}
