{"icao":"LPOV","metar":"LPOV 291600Z 18009KT 3000 -RADZ BR SCT003 OVC015 13/12 Q1014 RERADZ","updated":"2025-11-29T16:21:39Z"}
