{"icao":"LPLA","metar":"LPLA 011200Z 04005KT 300V100 9999 FEW030 BKN045 17/06 Q1022","updated":"2025-11-01T12:33:07Z"}
