{"icao":"KORD","metar":"KORD 210051Z 17013G17KT 10SM OVC085 16/03 A2973 RMK AO2 SLP068 T01560028 $","updated":"2025-10-21T01:22:06Z"}
