{"icao":"LPFL","metar":"LPFL 221100Z 19013KT 150V270 9999 SCT008 17/15 Q1015","updated":"2026-02-22T11:20:20Z"}
