{"icao":"LPMT","metar":"LPMT 251800Z 25008KT 7000 SCT012 SCT020 14/14 Q1014","updated":"2026-01-25T18:28:37Z"}
