{"icao":"LPPD","metar":"LPPD 301500Z 22007KT 0400 FG VV001 18/18 Q1026","updated":"2026-05-30T15:04:56Z"}
