{"icao":"LPFL","metar":"LPFL 152100Z 33013G26KT 290V360 9999 SCT030 14/07 Q1032","updated":"2026-01-16T04:39:12Z"}
