{"icao":"LPMT","metar":"LPMT 131200Z 33007KT 310V020 CAVOK 30/14 Q1017","updated":"2026-06-13T12:23:17Z"}
