{"icao":"LPAR","metar":"LPAR 091500Z 34012G22KT 300V360 9999 SCT030 13/03 Q1022","updated":"2026-03-09T15:57:11Z"}
