{"icao":"LPFL","metar":"LPFL 181000Z 33008KT 270V010 9999 VCSH FEW030 BKN035 13/05 Q1027","updated":"2025-12-18T10:21:55Z"}
