{"icao":"LPOV","metar":"LPOV 271700Z 27014KT 230V300 9999 FEW022 FEW025CB SCT040 12/04 Q1000","updated":"2026-01-27T17:26:30Z"}
