{"icao":"LPPR","metar":"LPPR 220900Z 10007KT CAVOK 07/02 Q1031","updated":"2025-11-22T09:17:21Z"}
