{"icao":"LPPS","metar":"LPPS 150600Z 36010KT 9999 SCT015 BKN030 20/16 Q1021","updated":"2026-06-15T06:21:58Z"}
