{"icao":"LPMT","metar":"LPMT 032200Z 02009KT CAVOK 15/10 Q1014","updated":"2026-03-03T22:27:45Z"}
