{"icao":"LPCS","metar":"LPCS 231830Z 01007KT CAVOK 18/09 Q1014","updated":"2026-03-23T18:52:50Z"}
