{"icao":"LPOV","metar":"LPOV 060700Z VRB02KT CAVOK 14/09 Q1019","updated":"2025-10-06T07:17:54Z"}
