{"icao":"KLAX","metar":"KLAX 161253Z 00000KT 10SM FEW013 BKN021 13/12 A2995 RMK AO2 SLP140 T01330122 $","updated":"2025-11-16T13:23:12Z"}
