{"icao":"LPOV","metar":"LPOV 201600Z 21008KT 180V240 9999 FEW018 BKN035 19/17 Q1013","updated":"2025-10-20T17:15:55Z"}
