{"icao":"LPCS","metar":"LPCS 141500Z 33014G24KT 9999 FEW032 SCT038 13/07 Q1027","updated":"2026-02-14T15:23:58Z"}
