{"icao":"LPHR","metar":"LPHR 292000Z 24030KT 6000 -SHRA SCT012 BKN030 20/18 Q1009","updated":"2025-10-29T20:20:48Z"}
