{"icao":"KJFK","metar":"KJFK 240451Z 32021G30KT 10SM SCT250 M10/M24 A3046 RMK PK WND 34034/0424 SLP313 T11001244 400391100 $ ","updated":"2026-01-24T05:20:24Z"}
