{"icao":"LPOV","metar":"LPOV 222000Z 35004KT CAVOK 14/11 Q1013","updated":"2026-04-22T22:45:34Z"}
