{"icao":"LPMR","metar":"LPMR 182200Z 16003KT CAVOK 18/13 Q1016","updated":"2025-10-18T22:15:27Z"}
