{"icao":"LPMA","metar":"LPMA 250800Z 31003KT 260V340 9999 SCT015 13/07 Q1026","updated":"2026-01-25T08:26:35Z"}
