{"icao":"LPST","metar":"LPST 020900Z 16008KT 9000 SCT008 BKN012 13/11 Q1011","updated":"2026-03-02T09:47:58Z"}
