{"icao":"LPPS","metar":"LPPS 261500Z 20016KT 9999 FEW006 25/22 Q1015","updated":"2025-10-26T15:16:25Z"}
