{"icao":"KLAX","metar":"KLAX 140853Z 00000KT 10SM SCT200 18/10 A2991 RMK AO2 SLP126 T01780100 52002","updated":"2026-03-14T09:32:12Z"}
