{"icao":"LPOV","metar":"LPOV 021000Z 16008KT 120V190 9999 FEW025 BKN045 15/14 Q1017","updated":"2026-05-02T10:50:15Z"}
