{"icao":"KORD","metar":"KORD 241751Z 16010KT 10SM OVC220 06/M01 A3022 RMK AO2 SLP240 T00561011 10056 20006 58027 $","updated":"2025-12-24T18:28:57Z"}
