{"icao":"KJFK","metar":"KJFK 221551Z 25010KT 10SM FEW050 FEW250 01/M09 A3051 RMK AO2 SLP331 T00111089 $","updated":"2025-12-22T16:24:55Z"}
