{"icao":"LPPS","metar":"LPPS 311000Z 02016KT 350V050 9999 SCT015 20/15 Q1024","updated":"2026-05-31T10:14:40Z"}
