{"icao":"KJFK","metar":"KJFK 212051Z 32017G29KT 10SM FEW055 BKN170 BKN250 04/M11 A3013 RMK AO2 PK WND 31035/2020 SLP203 T00391106 53036 $","updated":"2025-12-21T21:17:07Z"}
