{"icao":"LPMA","metar":"LPMA 052000Z 01015G32KT 330V040 9999 SCT015 FEW018TCU 15/09 Q1023","updated":"2026-01-05T20:24:28Z"}
