{"icao":"LPCS","metar":"LPCS 241000Z 27009KT 240V300 9999 SCT004 SCT012 22/20 Q1018","updated":"2025-10-24T10:20:05Z"}
