{"icao":"LPPT","metar":"LPPT 131830Z 29014G24KT 260V320 9999 VCSH SCT018 SCT025CB 11/08 Q1011 RESHRA WS R02","updated":"2026-02-13T18:46:57Z"}
