{"icao":"KLAX","metar":"KLAX 290253Z 24008KT 10SM FEW250 16/10 A3002 RMK AO2 SLP164 T01560100 54000 $","updated":"2026-04-29T03:42:13Z"}
