{"icao":"LPCS","metar":"LPCS 112000Z 36020G30KT 9999 BKN028 12/06 Q1017 WS R35","updated":"2026-04-11T20:31:50Z"}
