{"icao":"LPMT","metar":"LPMT 040500Z VRB02KT CAVOK 14/12 Q1018","updated":"2025-11-04T05:18:39Z"}
