{"icao":"LPLA","metar":"LPLA 011200Z 32013KT 300V360 9999 SCT022 21/16 Q1028","updated":"2026-06-01T12:35:22Z"}
