{"icao":"LPLA","metar":"LPLA 232100Z 35010KT 9999 FEW025 SCT035 19/12 Q1024","updated":"2025-09-23T21:15:02Z"}
