{"icao":"KORD","metar":"KORD 081951Z 12010KT 10SM FEW012 BKN065 M01/M09 A3028 RMK AO2 SLP262 T10111094 $","updated":"2026-02-08T20:26:42Z"}
