{"icao":"LPPT","metar":"LPPT 050500Z 34012KT 310V010 9999 FEW020 14/09 Q1018","updated":"2026-06-05T05:14:58Z"}
