{"icao":"LPPS","metar":"LPPS 140500Z 04011KT 9999 FEW015 BKN030 22/18 Q1023","updated":"2025-09-14T05:15:49Z"}
