{"icao":"KORD","metar":"KORD 261951Z 04021G32KT 10SM -RA BKN043 BKN140 OVC250 11/05 A2972 RMK AO2 PK WND 01037/1920 RAB26 SLP065 P0000 T01060050","updated":"2026-03-26T19:53:50Z"}
