{"icao":"LPAZ","metar":"LPAZ 052300Z 06004KT 9999 BKN048 13/07 Q1032","updated":"2026-01-05T23:18:58Z"}
