{"icao":"KJFK","metar":"KJFK 111851Z 32013KT 10SM FEW060 17/M01 A3023 RMK AO2 SLP235 T01721006","updated":"2026-04-11T19:34:04Z"}
