{"icao":"LPAR","metar":"LPAR 220900Z 24008KT 220V280 9999 SCT015 23/20 Q1018","updated":"2025-10-22T09:20:48Z"}
