{"icao":"KORD","metar":"KORD 281351Z 35009KT 10SM FEW090 SCT110 BKN200 BKN250 01/M11 A3010 RMK AO2 SLP196 VIRGA NW-N T00111106 $","updated":"2026-02-28T14:20:50Z"}
