{"icao":"LPHR","metar":"LPHR 081300Z 30035G52KT 270V330 2500 SHRA SCT005 SCT010 FEW018CB BKN058 13/12 Q0991","updated":"2025-12-08T13:33:54Z"}
