{"icao":"KORD","metar":"KORD 161551Z 22011KT 10SM FEW150 BKN200 08/05 A2994 RMK AO2 SLP141 T00780050","updated":"2026-02-16T16:41:45Z"}
