{"icao":"LPPR","metar":"LPPR 170230Z 15002KT 9999 FEW005 12/12 Q1021","updated":"2025-09-17T02:54:24Z"}
