{"icao":"LPMR","metar":"LPMR 111700Z 35011KT 9999 FEW020 25/11 Q1018","updated":"2025-10-11T17:12:56Z"}
