{"icao":"LPBJ","metar":"LPBJ 281600Z 31005KT CAVOK 17/07 Q1021","updated":"2025-11-28T16:23:23Z"}
