{"icao":"LPPT","metar":"LPPT 261200Z 08007KT 030V110 9999 FEW030 21/15 Q1019","updated":"2025-10-26T12:33:24Z"}
