{"icao":"LPHR","metar":"LPHR 010630Z 27019KT 6000 -RA SCT003 BKN007 16/16 Q1024","updated":"2026-03-01T06:43:43Z"}
