{"icao":"LPMT","metar":"LPMT 300900Z 20005KT 160V220 9999 FEW022 BKN040 18/16 Q1014","updated":"2025-10-30T09:19:50Z"}
