{"icao":"LPBJ","metar":"LPBJ 091514Z 20015KT 6000 -RA SCT035 BKN045 17/13 Q1018","updated":"2025-12-09T15:22:33Z"}
