{"icao":"LPPD","metar":"LPPD 120430Z 20009KT 5000 BR SCT002 BKN004 16/15 Q1017","updated":"2026-02-12T04:56:36Z"}
