{"icao":"LPFR","metar":"LPFR 110800Z 05007KT 020V080 CAVOK 21/16 Q1019","updated":"2025-10-11T08:20:04Z"}
