{"icao":"LPMA","metar":"LPMA 081900Z 09003KT 020V150 9999 FEW015 19/14 Q1023","updated":"2026-02-08T19:23:47Z"}
