{"icao":"LPPR","metar":"LPPR 221230Z 26003KT 220V310 7000 2500W BCFG FEW002 15/12 Q1012","updated":"2026-03-22T12:49:22Z"}
