{"icao":"LPPS","metar":"LPPS 291330Z 13007KT 090V170 9999 SCT015 BKN030 19/09 Q1013","updated":"2026-04-29T13:53:09Z"}
