{"icao":"LPMA","metar":"LPMA 052200Z 36007KT 330V030 9999 FEW015 SCT030 22/17 Q1023","updated":"2025-10-05T22:15:08Z"}
