{"icao":"KLAX","metar":"KLAX 191053Z 08003KT 10SM BKN280 17/14 A2999 RMK AO2 SLP151 T01720139 $","updated":"2025-10-19T11:13:16Z"}
