{"icao":"LPPT","metar":"LPPT 270900Z VRB02KT 9999 SCT024 22/16 Q1020","updated":"2026-06-27T09:27:02Z"}
