{"icao":"KLAX","metar":"KLAX 081853Z 04005KT 10SM CLR 29/M06 A2989 RMK AO2 SLP118 T02941061 $","updated":"2026-03-08T19:22:41Z"}
