{"icao":"LPLA","metar":"LPLA 201600Z 30024KT 5000 -DZ BKN007 BKN014 16/15 Q1022","updated":"2026-01-20T16:34:45Z"}
