{"icao":"LPCS","metar":"LPCS 181230Z 22005KT 170V260 9999 FEW045 25/12 Q1021","updated":"2025-09-18T12:35:35Z"}
