{"icao":"LPMR","metar":"LPMR 171900Z 29005KT 210V350 8000 -SHRA SCT025 BKN040 07/06 Q1009","updated":"2026-01-17T19:14:11Z"}
