{"icao":"LPPR","metar":"LPPR 172000Z VRB02KT CAVOK 16/12 Q1016","updated":"2025-10-17T20:19:29Z"}
