{"icao":"KLAX","metar":"KLAX 131453Z 00000KT 10SM SCT016 BKN026 20/16 A2993 RMK AO2 SLP132 T02000161 53005 $","updated":"2025-09-13T15:14:14Z"}
