{"icao":"KLAX","metar":"KLAX 021653Z 12004KT 10SM FEW009 FEW250 12/09 A3008 RMK AO2 SLP186 T01170089 $","updated":"2025-12-02T17:21:19Z"}
