{"icao":"LPMR","metar":"LPMR 182200Z 16002KT 130V210 8000 SCT020 10/10 Q1019","updated":"2025-11-18T22:18:15Z"}
