{"icao":"KORD","metar":"KORD 170251Z 20007KT 10SM FEW190 OVC250 23/17 A2988 RMK AO2 SLP114 T02330172 53021","updated":"2026-05-17T02:56:10Z"}
