{"icao":"LPFL","metar":"LPFL 131130Z 20015G27KT 160V240 9999 FEW009 SCT014 19/14 Q1016","updated":"2026-04-13T12:01:47Z"}
