{"icao":"LPAR","metar":"LPAR 051000Z 02011KT 340V060 CAVOK 09/M03 Q1014","updated":"2026-01-05T10:23:40Z"}
