{"icao":"KLAX","metar":"KLAX 020953Z 09003KT 10SM FEW014 17/16 A2997 RMK AO2 SLP147 T01720161 $","updated":"2025-10-02T10:17:33Z"}
