{"icao":"LPPT","metar":"LPPT 171000Z 26004KT 230V290 9999 FEW018 FEW025CB 10/06 Q1014","updated":"2026-01-17T10:19:26Z"}
