{"icao":"LPPT","metar":"LPPT 170500Z 33012KT 290V350 9999 FEW009 11/09 Q1020","updated":"2025-12-17T05:21:28Z"}
