{"icao":"LPBJ","metar":"LPBJ 211600Z 16014KT 130V200 CAVOK 36/15 Q1017","updated":"2026-06-21T16:44:12Z"}
