{"icao":"LPPS","metar":"LPPS 212200Z 30015KT 7000 SCT006 BKN010 17/16 Q1019","updated":"2026-01-21T22:23:52Z"}
