{"icao":"LPLA","metar":"LPLA 042300Z 24015KT 210V290 9999 FEW015 SCT020 18/15 Q1020","updated":"2025-12-04T23:18:30Z"}
