{"icao":"LPMT","metar":"LPMT 150900Z 35004KT 300V040 9999 SCT017 16/12 Q1024","updated":"2026-04-15T09:17:44Z"}
