{"icao":"KLAX","metar":"KLAX 300753Z 00000KT 10SM CLR 19/M02 A3021 RMK AO2 SLP227 T01941017 402670100 $","updated":"2026-01-30T08:37:47Z"}
