{"icao":"LPCS","metar":"LPCS 151600Z 26010KT 230V300 9999 FEW022 18/13 Q1007","updated":"2025-11-15T16:19:53Z"}
