{"icao":"KORD","metar":"KORD 090451Z 20016G27KT 10SM BKN110 BKN220 17/04 A2999 RMK AO2 PK WND 20032/0426 SLP156 T01720039","updated":"2026-04-09T05:08:08Z"}
