{"icao":"KJFK","metar":"KJFK 301651Z 10024G39KT 2SM R04R/6000VP6000FT RA BR OVC008 15/14 A2964 RMK AO2 PK WND 10046/1605 SFC VIS 4 SLP038 P0006 T01500139","updated":"2025-10-30T17:17:04Z"}
