{"icao":"LPBJ","metar":"LPBJ 051800Z 33010KT CAVOK 07/M01 Q1013","updated":"2026-01-05T18:31:19Z"}
