{"icao":"LPHR","metar":"LPHR 302000Z 22008KT 190V250 9999 FEW008 SCT011 BKN030 17/16 Q1007","updated":"2025-12-30T20:22:20Z"}
