{"icao":"KJFK","metar":"KJFK 122051Z 24015KT 10SM FEW070 BKN230 04/M06 A3013 RMK AO2 SLP201 T00391056 56008 $","updated":"2026-01-12T21:19:59Z"}
