{"icao":"KORD","metar":"KORD 121951Z 21021G34KT 10SM SCT060 BKN100 BKN150 BKN250 26/13 A2984 RMK AO2 PK WND 18034/1945 SLP102 T02610128 $","updated":"2026-04-12T20:34:58Z"}
