{"icao":"KJFK","metar":"KJFK 032251Z 29009KT 10SM SCT049 BKN250 00/M10 A3018 RMK AO2 SLP218 T00001100 PNO $","updated":"2026-02-03T23:26:47Z"}
