{"icao":"LPAZ","metar":"LPAZ 231200Z 19006KT 160V220 9999 FEW020 BKN030 19/13 Q1029","updated":"2025-11-23T12:32:51Z"}
