{"icao":"LPMT","metar":"LPMT 182300Z 33003KT CAVOK 13/12 Q1018","updated":"2025-11-18T23:16:52Z"}
