{"icao":"LPPS","metar":"LPPS 050400Z 02008KT 350V050 9999 FEW015 BKN030 21/14 Q1024","updated":"2025-10-05T04:19:15Z"}
