{"icao":"KORD","metar":"KORD 270951Z 29017G24KT 10SM BKN032 M02/M09 A3013 RMK AO2 PK WND 31028/0941 SLP210 T10171089","updated":"2025-11-27T10:21:39Z"}
