{"icao":"LPMR","metar":"LPMR 260100Z 15003KT 2000 BR FEW001 04/03 Q1013","updated":"2025-12-26T01:38:09Z"}
