{"icao":"LPLA","metar":"LPLA 270300Z 07009G21KT 360V150 9999 FEW035 18/11 Q1021","updated":"2025-10-27T03:18:41Z"}
