{"icao":"LPPR","metar":"LPPR 201630Z 33012KT CAVOK 13/06 Q1030","updated":"2026-02-20T16:37:10Z"}
