{"icao":"LPPR","metar":"LPPR 171900Z 33013KT 300V360 9999 FEW020 15/10 Q1018","updated":"2026-05-17T19:06:44Z"}
