{"icao":"LPMR","metar":"LPMR 251500Z 35007KT 9999 FEW009 SCT014 BKN045 17/15 Q1014","updated":"2025-10-25T15:15:34Z"}
