{"icao":"KORD","metar":"KORD 060251Z 22012KT 10SM FEW035 SCT150 SCT250 26/20 A2981 RMK AO2 RAB0155E06 SLP090 P0000 60000 T02560200 53008","updated":"2026-06-06T02:59:00Z"}
