{"icao":"LPMR","metar":"LPMR 010100Z VRB02KT 7000 FEW045 11/11 Q1019","updated":"2026-05-01T02:55:05Z"}
