{"icao":"KORD","metar":"KORD 271351Z 09008KT 10SM FEW022 FEW250 11/04 A3026 RMK AO2 SLP249 T01060044","updated":"2025-10-27T14:19:19Z"}
