{"icao":"LPMR","metar":"LPMR 211300Z 01011KT CAVOK 14/01 Q1028","updated":"2025-11-21T13:27:13Z"}
