{"icao":"LPOV","metar":"LPOV 011000Z 17003KT 130V190 CAVOK 08/07 Q1021","updated":"2025-12-01T10:22:39Z"}
