{"icao":"LPFR","metar":"LPFR 070700Z 02007KT CAVOK 20/15 Q1020","updated":"2025-10-07T07:17:12Z"}
