{"icao":"LPBJ","metar":"LPBJ 010100Z 03004KT CAVOK 07/03 Q1020","updated":"2025-12-01T01:49:27Z"}
