{"icao":"LPCS","metar":"LPCS 111230Z 36025G37KT 9999 FEW015 SCT018 15/09 Q1015 WS R35","updated":"2026-04-11T12:55:31Z"}
