{"icao":"LPFR","metar":"LPFR 291330Z 23013KT 200V260 9999 FEW020 19/12 Q1010","updated":"2026-04-29T13:53:04Z"}
