{"icao":"LPFR","metar":"LPFR 240900Z 08009KT CAVOK 23/14 Q1017","updated":"2025-09-24T09:18:50Z"}
