{"icao":"LPPR","metar":"LPPR 082100Z 17015KT 4000 -DZRA BR BKN006 FEW018CB 11/10 Q1008","updated":"2026-02-08T21:25:29Z"}
