{"icao":"KORD","metar":"KORD 051551Z 24008KT 10SM BKN250 02/M02 A2982 RMK AO2 SLP102 T00221022","updated":"2026-01-05T16:26:39Z"}
