{"icao":"LPPD","metar":"LPPD 290600Z 34004KT 300V360 9999 FEW022 13/09 Q1028","updated":"2025-11-29T06:27:04Z"}
