{"icao":"LPPD","metar":"LPPD 031430Z 12006KT 070V140 9999 FEW025 BKN030 15/09 Q1025","updated":"2026-04-03T14:40:27Z"}
