{"icao":"KJFK","metar":"KJFK 132051Z 18015KT 10SM FEW080 BKN240 06/M01 A2992 RMK AO2 SLP131 T00561006 58029 $","updated":"2026-01-13T21:20:40Z"}
