{"icao":"LPMA","metar":"LPMA 120600Z 36006KT 310V040 9999 SCT015 18/16 Q1004","updated":"2025-11-12T06:28:32Z"}
