{"icao":"LPFL","metar":"LPFL 291900Z 28011G23KT 230V010 9999 VCSH FEW018 17/10 Q1010","updated":"2026-01-29T19:29:23Z"}
