{"icao":"LPBJ","metar":"LPBJ 270921Z 24016KT 3000 SHRA FEW010 BKN013 FEW015CB BKN020 13/11 Q1002","updated":"2026-01-27T09:31:29Z"}
