{"icao":"LPCS","metar":"LPCS 170700Z 32007KT 9999 FEW014 FEW020TCU 15/14 Q1013","updated":"2025-11-17T07:18:51Z"}
