{"icao":"LPMR","metar":"LPMR 300100Z 01008KT 7000 FEW009 SCT020 BKN035 12/10 Q1016","updated":"2025-11-30T01:42:23Z"}
