{"icao":"LPCS","metar":"LPCS 270700Z 07009KT 040V100 CAVOK 06/02 Q1009","updated":"2025-12-27T07:17:35Z"}
