{"icao":"KORD","metar":"KORD 062051Z 16004KT 10SM OVC023 00/M06 A2993 RMK AO2 SLP144 T00001056 55001","updated":"2025-12-06T21:16:16Z"}
