{"icao":"LPHR","metar":"LPHR 191030Z 19018KT 8000 -RADZ FEW004 SCT010 BKN025 16/14 Q1020","updated":"2026-02-19T10:41:21Z"}
