{"icao":"LPPD","metar":"LPPD 050930Z 06006KT 020V100 9999 FEW025 BKN040 12/04 Q1035","updated":"2026-03-05T09:41:18Z"}
