{"icao":"LPHR","metar":"LPHR 180900Z 35003KT 280V050 9999 FEW010 14/12 Q1027","updated":"2025-11-18T09:20:47Z"}
