{"icao":"KLAX","metar":"KLAX 301153Z 00000KT 10SM CLR 13/00 A3020 RMK AO2 SLP223 T01280000 10200 20128 58005 $","updated":"2026-01-30T12:53:20Z"}
