{"icao":"LPCS","metar":"LPCS 151430Z 34007KT 300V010 9999 FEW018 18/11 Q1024","updated":"2026-04-15T15:04:02Z"}
