{"icao":"LPPR","metar":"LPPR 271000Z 15010KT CAVOK 19/07 Q1015","updated":"2025-09-27T10:15:41Z"}
