{"icao":"LPPS","metar":"LPPS 020500Z 07006KT 040V100 9999 SCT012 21/17 Q1020","updated":"2025-10-02T05:16:26Z"}
