{"icao":"LPMR","metar":"LPMR 260400Z 17003KT 7000 3000S BCFG NSC 05/05 Q1025","updated":"2025-11-26T04:25:20Z"}
