{"icao":"KORD","metar":"KORD 281051Z 34008KT 10SM FEW120 FEW250 01/M07 A3001 RMK AO2 SLP164 T00111067 $","updated":"2026-02-28T11:17:48Z"}
