{"icao":"LPAR","metar":"LPAR 070800Z 23007KT 210V270 6000 -RA FEW015 BKN028 18/16 Q1016","updated":"2025-11-07T08:25:06Z"}
