{"icao":"KORD","metar":"KORD 130251Z 14003KT 10SM SCT180 BKN250 15/12 A2997 RMK AO2 SLP148 T01500117 53006 $","updated":"2025-10-13T03:08:39Z"}
