{"icao":"LPPT","metar":"LPPT 191300Z 34009KT 9999 FEW039 SCT045 16/07 Q1017","updated":"2025-11-19T13:30:50Z"}
