{"icao":"LPHR","metar":"LPHR 181300Z 19004KT 160V220 9999 SCT010 19/16 Q1027","updated":"2025-11-18T13:31:18Z"}
