{"icao":"LPBJ","metar":"LPBJ 202200Z 08002KT CAVOK 10/06 Q1028","updated":"2026-02-20T22:24:22Z"}
