{"icao":"KLAX","metar":"KLAX 241053Z 22003KT 10SM BKN019 OVC025 14/11 A2988 RMK AO2 SLP115 T01440111 $","updated":"2026-01-24T11:17:13Z"}
