{"icao":"LPPR","metar":"LPPR 190400Z 18010KT 9999 BKN012 OVC019 19/16 Q1014","updated":"2025-10-19T04:21:16Z"}
