{"icao":"LPMA","metar":"LPMA 162030Z 36010KT 330V030 9999 SCT016 17/11 Q1023","updated":"2026-05-16T20:43:22Z"}
