{"icao":"LPPR","metar":"LPPR 021700Z 11011KT 8000 -RA FEW020 BKN035 14/11 Q1002","updated":"2026-01-02T17:16:43Z"}
