{"icao":"LPBJ","metar":"LPBJ 280700Z 28020KT 8000 -RA FEW010 12/10 Q0998 RESHRA","updated":"2026-01-28T07:24:52Z"}
