{"icao":"LPFR","metar":"LPFR 011730Z 26010KT CAVOK 19/13 Q1018","updated":"2026-05-01T18:03:14Z"}
