{"icao":"LPFR","metar":"LPFR 041200Z 22006KT 190V250 CAVOK 26/09 Q1022","updated":"2025-10-04T12:31:33Z"}
