{"icao":"LPMT","metar":"LPMT 032200Z 17003KT CAVOK 14/12 Q1021","updated":"2025-11-03T22:17:46Z"}
