{"icao":"LPAR","metar":"LPAR 201700Z 06005KT CAVOK 18/07 Q1028","updated":"2026-02-23T08:49:51Z"}
