{"icao":"LPHR","metar":"LPHR 161530Z 26009KT 9999 FEW025 18/12 Q1029","updated":"2026-05-16T15:57:07Z"}
