{"icao":"LPST","metar":"LPST 221700Z 24016G26KT 2000 -RA BR BKN007 BKN010 FEW012CB 14/13 Q1004 RERA","updated":"2026-01-23T03:40:56Z"}
