{"icao":"LPMA","metar":"LPMA 220530Z 04011KT 010V110 9999 SCT015 FEW018CB 16/14 Q0998","updated":"2026-03-22T05:52:57Z"}
