{"icao":"LPMT","metar":"LPMT 062000Z 35008KT CAVOK 19/13 Q1018","updated":"2026-06-06T21:02:38Z"}
