{"icao":"LPMA","metar":"LPMA 251400Z 20011KT 110V250 9999 VCSH BKN015 FEW018CB 22/20 Q1014","updated":"2025-10-25T14:14:54Z"}
