{"icao":"LPPD","metar":"LPPD 091230Z 19010KT 9999 FEW018 17/13 Q1031","updated":"2026-01-09T12:42:08Z"}
