{"icao":"LPPR","metar":"LPPR 190930Z 19008KT 9999 3500W VCFG FEW008 17/13 Q1016","updated":"2026-04-19T09:45:24Z"}
