{"icao":"LPLA","metar":"LPLA 052100Z 14006KT 9999 OVC035 12/04 Q1036","updated":"2026-03-05T21:33:10Z"}
