{"icao":"LPOV","metar":"LPOV 111100Z 03005KT 330V080 CAVOK 25/13 Q1021","updated":"2025-10-11T11:12:50Z"}
