{"icao":"LPFL","metar":"LPFL 021830Z 08008KT 030V140 9999 SCT016 SCT035 16/12 Q1022","updated":"2026-05-02T18:57:27Z"}
