{"icao":"LPOV","metar":"LPOV 110300Z VRB01KT CAVOK 13/10 Q1020","updated":"2025-10-11T03:25:08Z"}
