{"icao":"LPBJ","metar":"LPBJ 110500Z 18003KT 0500 FG FEW003 05/05 Q1027","updated":"2026-01-11T05:23:50Z"}
