{"icao":"KJFK","metar":"KJFK 061751Z 18010KT 10SM FEW040 24/17 A3027 RMK AO2 SLP250 T02390172 10239 20178 58014","updated":"2025-10-06T18:26:06Z"}
