{"icao":"KJFK","metar":"KJFK 201951Z 28018G33KT 10SM SCT041 BKN050 BKN090 BKN250 17/07 A2980 RMK AO2 PK WND 26033/1853 SLP092 T01670067","updated":"2025-10-20T20:21:15Z"}
