{"icao":"KLAX","metar":"KLAX 312053Z 26012KT 10SM CLR 22/14 A2992 RMK AO2 SLP131 T02170144 58007 $","updated":"2026-05-31T20:58:31Z"}
