{"icao":"KORD","metar":"KORD 301851Z 05011G18KT 10SM BKN250 23/04 A3010 RMK AO2 SLP189 T02280044 $","updated":"2026-05-30T19:12:47Z"}
