{"icao":"LPMT","metar":"LPMT 220900Z 27006KT 230V320 7000 SCT006 SCT013 21/21 Q1018","updated":"2025-10-22T09:20:35Z"}
