{"icao":"KJFK","metar":"KJFK 241151Z 32024G35KT 10SM FEW046 SCT060 06/M03 A2998 RMK AO2 PK WND 32035/1151 SLP152 FROPA 70017 T00561033 10056 20011 53021 $","updated":"2025-12-24T12:40:19Z"}
