{"icao":"LPPS","metar":"LPPS 210330Z 29015KT 9999 FEW014 16/11 Q1022","updated":"2026-01-21T03:43:00Z"}
