{"icao":"LPBJ","metar":"LPBJ 220900Z 24008KT 8000 3000N VCFG SCT006 BKN012 20/19 Q1019","updated":"2025-10-22T09:20:36Z"}
