{"icao":"LPPD","metar":"LPPD 011800Z 34019G32KT 9999 FEW025 14/06 Q1024","updated":"2026-03-01T18:31:30Z"}
