{"icao":"KORD","metar":"KORD 302251Z 02014KT 10SM FEW025 BKN033 BKN050 M08/M14 A3039 RMK AO2 SNE10 SLP304 P0000 T10781144","updated":"2026-01-30T23:24:02Z"}
