{"icao":"LPPS","metar":"LPPS 020700Z 01015KT 9999 BKN013 20/16 Q1020","updated":"2026-07-02T07:30:25Z"}
