{"icao":"LPPS","metar":"LPPS 070200Z 31015KT 9000 -DZ SCT010 BKN030 14/10 Q1018","updated":"2026-04-07T02:14:11Z"}
