{"icao":"LPPS","metar":"LPPS 221900Z 07006KT 040V100 9999 FEW014 BKN030 23/19 Q1021","updated":"2025-10-22T19:13:59Z"}
