{"icao":"LPPT","metar":"LPPT 282200Z 34008KT CAVOK 11/07 Q1023","updated":"2026-02-28T22:20:50Z"}
