{"icao":"KJFK","metar":"KJFK 140551Z 17004KT 10SM SCT080 03/02 A2983 RMK AO2 SLP099 T00280022 10050 20022 58000","updated":"2026-03-14T06:43:55Z"}
