{"icao":"LPFR","metar":"LPFR 130500Z 16016KT 9999 SCT025 21/17 Q1004","updated":"2025-11-13T05:18:50Z"}
