{"icao":"LPLA","metar":"LPLA 121706Z 33025G40KT 8000 -SHRA SCT020CB 12/08 Q1002","updated":"2025-11-12T17:17:54Z"}
