{"icao":"LPFL","metar":"LPFL 311400Z 34008KT 270V010 9999 FEW018 18/12 Q1003","updated":"2025-12-31T14:19:10Z"}
