{"icao":"LPMR","metar":"LPMR 192100Z 29003KT CAVOK 13/12 Q1016","updated":"2026-04-19T21:34:32Z"}
