{"icao":"LPMA","metar":"LPMA 291800Z 35006KT 320V020 9999 FEW016 19/11 Q1021","updated":"2025-11-29T18:25:29Z"}
