{"icao":"LPBJ","metar":"LPBJ 021700Z 35006KT 280V020 CAVOK 30/12 Q1019","updated":"2025-10-02T17:12:59Z"}
