{"icao":"KORD","metar":"KORD 201551Z 19005KT 10SM FEW044 SCT050 SCT250 09/M05 A3035 RMK AO2 SLP280 T00891050 $","updated":"2026-04-20T16:07:44Z"}
