{"icao":"KLAX","metar":"KLAX 211653Z 25007KT 6SM BR SCT003 SCT008 19/17 A3007 RMK AO2 SLP179 SCT008 V BKN T01890167","updated":"2025-10-21T17:17:05Z"}
