{"icao":"LPPD","metar":"LPPD 131930Z 28009KT 9999 FEW027 14/10 Q1031","updated":"2026-02-13T19:40:44Z"}
