{"icao":"LPBJ","metar":"LPBJ 080100Z 19004KT 0800 FG OVC002 03/03 Q1031","updated":"2026-01-08T01:41:03Z"}
