{"icao":"LPMA","metar":"LPMA 311900Z 25008KT 230V290 9999 SCT015 21/16 Q1014","updated":"2025-10-31T19:13:16Z"}
