{"icao":"KLAX","metar":"KLAX 311453Z 11008KT 7SM SCT008 BKN011 17/14 A2999 RMK AO2 SLP152 T01670144 53010 $","updated":"2025-10-31T15:18:03Z"}
