{"icao":"LPPT","metar":"LPPT 121900Z 13007KT 110V170 9999 FEW002 BKN003 15/15 Q1006","updated":"2025-11-12T19:15:28Z"}
