{"icao":"LPOV","metar":"LPOV 292100Z 22008KT 190V260 9999 FEW012 SCT030 14/12 Q1012","updated":"2026-01-29T21:25:46Z"}
