{"icao":"LPMT","metar":"LPMT 011700Z 13011KT 9999 SCT010 BKN030 14/13 Q1007","updated":"2026-01-01T17:18:14Z"}
