{"icao":"LPMA","metar":"LPMA 181230Z 19007KT 160V220 9999 FEW014 19/12 Q1026","updated":"2026-02-18T13:01:44Z"}
