{"icao":"LPMR","metar":"LPMR 270500Z 28006KT 240V310 9999 FEW007 SCT016 BKN025 11/09 Q0999","updated":"2026-01-27T05:25:44Z"}
