{"icao":"LPPD","metar":"LPPD 312130Z 04009KT 010V070 9999 FEW016 BKN025 14/10 Q1030","updated":"2026-03-31T21:37:43Z"}
