{"icao":"LPCS","metar":"LPCS 020830Z 28018G30KT 240V300 9999 FEW025 FEW030CB SCT033 11/08 Q0998","updated":"2026-02-02T08:40:58Z"}
