{"icao":"LPCS","metar":"LPCS 251230Z 02009KT 9999 FEW011 BKN040 15/13 Q1017","updated":"2026-02-25T13:02:08Z"}
