{"icao":"LPPR","metar":"LPPR 230930Z 19007KT CAVOK 19/16 Q1022","updated":"2026-05-23T09:50:40Z"}
