{"icao":"LPHR","metar":"LPHR 101530Z 29015KT 270V330 9000 -SHRA SCT006 BKN011 17/16 Q1029","updated":"2026-04-10T15:52:06Z"}
