{"icao":"LPOV","metar":"LPOV 311500Z 23007KT 9999 FEW004 SCT040 15/10 Q1018","updated":"2026-01-31T15:21:50Z"}
