{"icao":"KLAX","metar":"KLAX 021253Z 05003KT 10SM SCT220 14/10 A3005 RMK AO2 SLP174 T01390100 CHINO RWY24 $","updated":"2026-02-02T12:57:14Z"}
