{"icao":"LPPR","metar":"LPPR 130100Z 17020KT 9999 -RA FEW030 SCT040 12/10 Q1008","updated":"2026-01-13T01:28:11Z"}
