{"icao":"LPPT","metar":"LPPT 201230Z 12011G21KT 9999 SCT016 BKN028 16/13 Q1007","updated":"2026-03-20T12:57:08Z"}
