{"icao":"KORD","metar":"KORD 151651Z 17014G20KT 10SM BKN032 OVC075 12/10 A2937 RMK AO2 PK WND 18029/1601 RAE51 SLP948 P0012 T01220100 $","updated":"2026-03-15T17:26:52Z"}
