{"icao":"KORD","metar":"KORD 231451Z 02008KT 10SM FEW070 FEW250 19/11 A3021 RMK AO2 SLP228 T01940106 50004","updated":"2026-06-23T15:46:29Z"}
