{"icao":"KLAX","metar":"KLAX 271253Z 04004KT 4SM HZ FEW008 OVC015 17/14 A2999 RMK AO2 SLP155 T01670139 $","updated":"2025-10-27T13:30:46Z"}
