{"icao":"LPAZ","metar":"LPAZ 311330Z 24017KT 5000 BR FEW004 BKN013 18/17 Q1019","updated":"2026-01-31T13:40:00Z"}
