{"icao":"LPCS","metar":"LPCS 271400Z 06013KT 020V090 9999 FEW020 10/05 Q1006","updated":"2025-12-27T14:17:18Z"}
