{"icao":"LPOV","metar":"LPOV 200800Z 03001KT 9999 SCT030 05/05 Q1031","updated":"2026-02-20T08:38:34Z"}
