{"icao":"LPBJ","metar":"LPBJ 020400Z 33004KT 9999 BKN024 16/15 Q1023","updated":"2025-11-02T04:21:35Z"}
