{"icao":"LPMR","metar":"LPMR 170800Z 03003KT 320V080 0600 FG VV003 14/13 Q1022","updated":"2025-09-17T08:22:41Z"}
