{"icao":"KLAX","metar":"KLAX 131253Z 08007KT 10SM FEW010 BKN018 BKN030 16/14 A2974 RMK AO2 SLP067 T01610139 $","updated":"2025-10-13T13:29:15Z"}
