{"icao":"LPPR","metar":"LPPR 311130Z 29005KT 260V330 CAVOK 21/12 Q1028","updated":"2026-03-31T11:48:28Z"}
