{"icao":"LPPD","metar":"LPPD 131900Z 28008KT 9999 FEW022 14/10 Q1026","updated":"2026-01-13T19:19:02Z"}
