{"icao":"LPLA","metar":"LPLA 012200Z 08005KT 340V120 9999 SCT007 BKN014 BKN030 13/12 Q1033","updated":"2026-04-01T22:35:50Z"}
