{"icao":"LPOV","metar":"LPOV 210100Z 21009KT 180V250 2000 -DZRA BR FEW001 OVC002 18/18 Q1011","updated":"2025-10-21T01:21:49Z"}
