{"icao":"LPPT","metar":"LPPT 032030Z 31005KT 270V350 9999 FEW020 14/10 Q1015","updated":"2026-05-03T20:41:28Z"}
