{"icao":"LPPR","metar":"LPPR 061530Z 36015KT CAVOK 14/05 Q1018","updated":"2026-03-06T15:35:35Z"}
