{"icao":"LPFR","metar":"LPFR 130400Z 00000KT CAVOK 18/14 Q1014","updated":"2025-10-13T04:21:07Z"}
