{"icao":"LPLA","metar":"LPLA 140900Z 36007KT 9999 FEW025 BKN040 15/08 Q1030","updated":"2026-05-14T09:33:07Z"}
