{"icao":"KLAX","metar":"KLAX 111853Z 27012KT 4SM HZ FEW004 BKN008 18/14 A3000 RMK AO2 SLP156 VIS SW-W 2 1/2 T01780144","updated":"2026-05-11T18:57:39Z"}
