{"icao":"KJFK","metar":"KJFK 102251Z 07009KT 5SM RA BR BKN007 OVC015 05/04 A3002 RMK AO2 SLP166 P0012 T00500039","updated":"2026-01-10T23:18:32Z"}
