{"icao":"LPPT","metar":"LPPT 301930Z 33012KT CAVOK 16/06 Q1027","updated":"2026-03-30T19:57:58Z"}
