{"icao":"KLAX","metar":"KLAX 120053Z 29004KT 10SM FEW250 18/02 A3016 RMK AO2 SLP213 T01830022 $","updated":"2026-01-12T01:45:39Z"}
