{"icao":"KLAX","metar":"KLAX 201553Z 07006KT 10SM FEW018 SCT050 BKN120 12/09 A3006 RMK AO2 SLP176 T01170089 $","updated":"2025-11-20T16:25:19Z"}
