{"icao":"LPCS","metar":"LPCS 101300Z 21006KT 170V240 9999 FEW015 20/15 Q1013","updated":"2026-04-10T13:07:12Z"}
