{"icao":"LPMT","metar":"LPMT 312300Z 19006KT 6000 -DZ FEW006 SCT014 BKN030 13/13 Q1018","updated":"2026-01-31T23:20:52Z"}
