{"icao":"LPLA","metar":"LPLA 071000Z 24009KT 150V290 9999 BKN040 17/08 Q1011","updated":"2025-12-07T10:17:23Z"}
