{"icao":"LPPD","metar":"LPPD 231300Z 24007KT 0200 R30/0200U FG VV000 18/17 Q1025","updated":"2026-05-23T13:22:01Z"}
