{"icao":"LPPD","metar":"LPPD 292100Z 28004KT 0800 -DZ FG VV002 15/15 Q1012","updated":"2025-12-29T21:18:05Z"}
