{"icao":"LPPR","metar":"LPPR 022200Z 01002KT CAVOK 12/11 Q1026","updated":"2025-11-02T22:15:21Z"}
