{"icao":"LPHR","metar":"LPHR 010900Z 27019KT 3000 -RADZ BR SCT001 BKN003 17/16 Q1024","updated":"2026-03-01T09:28:56Z"}
