{"icao":"LPFR","metar":"LPFR 170800Z 28011KT 9999 FEW015 16/13 Q1012","updated":"2025-11-17T08:27:13Z"}
