{"icao":"LPMT","metar":"LPMT 290700Z 24016KT 6000 BKN006 BKN015 15/15 Q1008","updated":"2026-01-29T07:38:31Z"}
