{"icao":"LPOV","metar":"LPOV 071800Z 22011KT 4000 -RA BR SCT007 BKN018 OVC028 13/12 Q0992","updated":"2026-02-07T18:33:55Z"}
