{"icao":"LPOV","metar":"LPOV 040600Z 16010KT 9999 SCT030 16/10 Q1015 RMK WIND PK 15018/40 RH66 BKN100 BLU","updated":"2025-11-04T06:28:11Z"}
