{"icao":"LPBJ","metar":"LPBJ 280900Z 08009KT CAVOK 14/08 Q1020","updated":"2026-03-28T09:35:54Z"}
