{"icao":"LPMT","metar":"LPMT 310900Z 03007KT 0100 FG VV002 05/05 Q1020","updated":"2025-12-31T09:23:24Z"}
