{"icao":"KLAX","metar":"KLAX 201353Z 08004KT 10SM FEW008 SCT013 16/14 A2997 RMK AO2 SLP148 FU SCT013 T01610139","updated":"2026-06-20T14:00:03Z"}
