{"icao":"KJFK","metar":"KJFK 281751Z 27020G30KT 10SM SCT055 BKN250 06/M08 A2993 RMK AO2 PK WND 27034/1719 SLP135 60000 T00611083 10061 20011 55000 $","updated":"2025-11-28T18:26:49Z"}
