{"icao":"KJFK","metar":"KJFK 122251Z 27014KT 2 1/2SM -SN BR SCT008 BKN014 OVC024 01/01 A2991 RMK AO2 SFC VIS 6 SLP128 P0001 T00110006","updated":"2026-03-12T23:27:15Z"}
