{"icao":"KORD","metar":"KORD 141520Z 34022G33KT 1 1/4SM -SN BLSN FEW013 BKN024 OVC036 M06/M08 A2977 RMK AO2 PK WND 35034/1509 P0001 T10611083 $","updated":"2026-01-14T15:24:59Z"}
