{"icao":"LPAZ","metar":"LPAZ 091900Z 02015KT 9999 FEW008 BKN020 16/13 Q1031","updated":"2026-04-09T19:04:51Z"}
