{"icao":"KORD","metar":"KORD 220443Z 28007KT 9SM -SN BKN029 OVC035 M03/M08 A3016 RMK AO2 P0000 T10331083 $","updated":"2026-02-22T04:47:33Z"}
