{"icao":"LPMA","metar":"LPMA 310500Z 22013KT 9999 SCT015 20/15 Q1014","updated":"2025-10-31T05:19:23Z"}
