{"icao":"LPPD","metar":"LPPD 231330Z 26008KT 9999 FEW016 17/15 Q1025","updated":"2025-12-23T13:34:54Z"}
