{"icao":"LPFL","metar":"LPFL 081500Z 20015G30KT 170V240 6000 2500N -SHRA FEW008 BKN011 FEW012TCU 19/17 Q1005","updated":"2026-02-08T15:25:01Z"}
