{"icao":"LPPS","metar":"LPPS 232200Z 07009KT 9999 SCT015 18/13 Q1026","updated":"2025-11-23T22:17:21Z"}
