{"icao":"LPMA","metar":"LPMA 252200Z 23010KT 9999 FEW015 23/19 Q1015","updated":"2025-10-25T22:15:23Z"}
