{"icao":"LPMA","metar":"LPMA 220700Z 29003KT 240V340 9999 FEW013 16/13 Q1018","updated":"2026-01-22T07:26:24Z"}
