{"icao":"LPCS","metar":"LPCS 231700Z 27004KT 230V300 9999 SCT018 BKN025 15/13 Q1025","updated":"2025-11-23T17:14:44Z"}
