{"icao":"KLAX","metar":"KLAX 121153Z 00000KT 8SM OVC007 18/17 A2987 RMK AO2 SLP111 T01830167 10189 20178 55002","updated":"2026-06-12T12:17:50Z"}
