{"icao":"LPMR","metar":"LPMR 160100Z VRB03KT 4000 BR SCT004 15/14 Q1016","updated":"2025-10-16T04:20:36Z"}
