{"icao":"LPLA","metar":"LPLA 031500Z 25009KT 220V280 8000 -RA FEW004 SCT017 21/17 Q1010","updated":"2025-11-03T15:19:42Z"}
