{"icao":"KJFK","metar":"KJFK 241851Z 21013G16KT 10SM FEW250 07/M09 A3035 RMK AO2 SLP278 T00721089","updated":"2026-03-24T19:01:45Z"}
