{"icao":"LPPR","metar":"LPPR 031400Z 21007KT 9999 FEW023 SCT032 11/07 Q0999","updated":"2026-02-03T14:06:22Z"}
