{"icao":"LPPD","metar":"LPPD 101730Z 22019KT 0800 R30/1200D FG VV001 17/16 Q1011","updated":"2026-02-10T18:00:19Z"}
