{"icao":"KJFK","metar":"KJFK 052051Z 19007KT 3SM -RA BR SCT030 BKN055 OVC085 11/11 A2976 RMK AO2 PRESFR SLP075 P0008 60016 T01110106 58017","updated":"2026-04-05T21:30:29Z"}
