{"icao":"LPLA","metar":"LPLA 141219Z 25006KT 190V300 7000 -TSRA BKN018 FEW020CB BKN035 19/14 Q1007","updated":"2025-10-14T12:39:05Z"}
