{"icao":"LPPD","metar":"LPPD 151500Z 32014KT 290V350 9999 FEW025 17/09 Q1026","updated":"2025-12-15T15:23:39Z"}
