{"icao":"KORD","metar":"KORD 250002Z 33013KT 3/4SM R10L/4500VP6000FT +TSRA BR FEW015 BKN035CB OVC075 17/16 A2996 RMK AO2 PK WND 28031/0000 RAB2354 PRESRR CONS LTGICCG OHD TS OHD MOV SE P0021 T01720156 $","updated":"2026-06-25T00:10:45Z"}
