{"icao":"KORD","metar":"KORD 050351Z 00000KT 10SM FEW250 M08/M12 A3031 RMK AO2 SLP274 T10781117","updated":"2026-02-05T04:20:36Z"}
