{"icao":"KJFK","metar":"KJFK 020451Z 22005KT 10SM FEW060 BKN100 BKN130 BKN250 11/06 A2988 RMK SLP119 T01110056 401670083 ","updated":"2026-05-02T05:36:03Z"}
