{"icao":"KJFK","metar":"KJFK 091151Z 12004KT 10SM SCT020 SCT250 04/01 A3064 RMK AO2 SLP375 T00390011 10039 20000 53012","updated":"2026-04-09T11:56:59Z"}
