{"icao":"LPFL","metar":"LPFL 221500Z 34018G34KT 300V030 9999 SCT026 15/06 Q1002 WS R36","updated":"2026-04-22T15:11:49Z"}
