{"icao":"LPPD","metar":"LPPD 230130Z 18013KT 9999 FEW016 16/13 Q1021","updated":"2026-02-23T02:04:17Z"}
