{"icao":"LPMR","metar":"LPMR 200400Z 24003KT 2500 BR BKN003 16/16 Q1013","updated":"2025-10-20T05:18:36Z"}
