{"icao":"KORD","metar":"KORD 010551Z 00000KT 10SM FEW075 05/02 A2992 RMK AO2 SLP136 60007 T00500022 10094 20050 401170044 53001 $","updated":"2025-11-01T06:24:46Z"}
