{"icao":"LPBJ","metar":"LPBJ 251200Z 24008KT 200V270 9999 FEW018 BKN025 23/17 Q1015","updated":"2025-10-25T12:32:57Z"}
