{"icao":"LPMT","metar":"LPMT 290500Z 11005KT 9999 -RA BKN013 17/17 Q1006","updated":"2025-10-29T05:18:25Z"}
