{"icao":"LPBJ","metar":"LPBJ 020300Z 14015KT 9999 FEW010 BKN016 12/10 Q1006","updated":"2026-01-02T03:38:49Z"}
