{"icao":"LPMR","metar":"LPMR 092300Z 17003KT 0600 FG SCT002 SCT030 12/12 Q1018","updated":"2025-12-09T23:18:24Z"}
