{"icao":"LPPS","metar":"LPPS 271300Z 06013KT 030V090 9999 SCT015 SCT030 19/12 Q1022","updated":"2025-11-27T13:30:58Z"}
