{"icao":"LPLA","metar":"LPLA 172000Z 21015G26KT 160V250 9999 FEW014 SCT018 24/20 Q1014","updated":"2025-09-17T20:18:51Z"}
