{"icao":"KLAX","metar":"KLAX 191653Z 11003KT 6SM BR FEW007 SCT140 SCT180 14/13 A3003 RMK AO2 SLP168 T01440133 $","updated":"2025-12-19T17:18:00Z"}
