{"icao":"LPPR","metar":"LPPR 080800Z 15009KT 6000 SCT005 BKN023 09/08 Q1030","updated":"2026-01-08T08:29:23Z"}
