{"icao":"KJFK","metar":"KJFK 280951Z 00000KT 10SM SCT045 OVC080 21/16 A2997 RMK CIG 045 W SLP148 T02060161 ","updated":"2026-06-28T10:25:50Z"}
