{"icao":"LPBJ","metar":"LPBJ 172200Z 02004KT CAVOK 12/10 Q1017","updated":"2025-11-17T22:17:34Z"}
