{"icao":"KLAX","metar":"KLAX 260953Z 10007KT 8SM SCT007 OVC010 19/17 A2990 RMK AO2 SLP121 T01940172 $","updated":"2025-09-26T10:18:40Z"}
