{"icao":"KJFK","metar":"KJFK 262051Z 25009KT 9SM SCT022 BKN050 BKN080 14/13 A2971 RMK AO2 SLP061 T01440128 56012","updated":"2025-11-26T21:16:47Z"}
