{"icao":"LPFR","metar":"LPFR 160700Z 28008KT 9999 FEW025 10/08 Q1008","updated":"2025-12-16T07:21:39Z"}
