{"icao":"KJFK","metar":"KJFK 251751Z 13010KT 10SM FEW070 FEW170 BKN250 26/14 A3008 RMK SLP186 T02610139 10267 20217 58008 ","updated":"2026-06-25T18:07:58Z"}
