{"icao":"KORD","metar":"KORD 141051Z 02005KT 10SM SCT190 BKN250 M02/M08 A3015 RMK AO2 SLP217 T10171078 $","updated":"2026-03-14T11:22:46Z"}
