{"icao":"LPMT","metar":"LPMT 261100Z 02006KT CAVOK 20/15 Q1018","updated":"2025-10-26T11:13:00Z"}
