{"icao":"LPPS","metar":"LPPS 011730Z 01014KT 340V040 9999 BKN013 22/18 Q1020","updated":"2026-07-01T17:53:51Z"}
