{"icao":"LPPD","metar":"LPPD 041300Z 02012KT 350V070 9999 FEW020 FEW022TCU 16/11 Q1021","updated":"2026-01-04T13:28:35Z"}
