{"icao":"LPMA","metar":"LPMA 101230Z 02010KT 330V050 9999 FEW016 19/10 Q1026","updated":"2025-12-10T12:41:26Z"}
