{"icao":"LPPR","metar":"LPPR 062100Z 18009KT 9000 FEW015 SCT036 15/13 Q1016","updated":"2025-11-06T21:16:15Z"}
