{"icao":"LPPR","metar":"LPPR 071600Z 23006KT 200V290 9999 SCT009 BKN015 18/16 Q1022","updated":"2025-10-07T16:21:30Z"}
