{"icao":"LPFR","metar":"LPFR 312300Z 21007KT 9999 FEW030 21/17 Q1017","updated":"2025-10-31T23:16:25Z"}
