{"icao":"LPPR","metar":"LPPR 292300Z 22006KT 200V260 8000 FEW015 FEW020TCU BKN028 13/11 Q1011","updated":"2026-01-29T23:25:10Z"}
