{"icao":"LPBJ","metar":"LPBJ 091700Z 31005KT CAVOK 17/07 Q1020","updated":"2025-11-09T17:14:23Z"}
