{"icao":"KORD","metar":"KORD 121651Z 10005KT 10SM BKN075 BKN140 OVC250 02/M05 A3030 RMK AO2 SLP269 T00171050","updated":"2026-02-12T16:57:26Z"}
