{"icao":"LPFR","metar":"LPFR 052000Z 33010KT 290V350 CAVOK 09/M02 Q1014","updated":"2026-01-05T20:24:07Z"}
