{"icao":"KJFK","metar":"KJFK 292051Z 26016G26KT 10SM FEW013 FEW029 BKN055 08/02 A2933 RMK AO2 PK WND 26027/1956 SLP932 60001 T00780017 50014 $","updated":"2025-12-29T21:18:10Z"}
