{"icao":"LPPS","metar":"LPPS 121500Z 32006KT 280V030 9999 FEW015 23/14 Q1017","updated":"2025-10-12T15:15:38Z"}
