{"icao":"LPFR","metar":"LPFR 100200Z 29004KT 9999 FEW012 15/13 Q1013","updated":"2026-04-10T02:27:24Z"}
