{"icao":"LPBJ","metar":"LPBJ 300100Z 28005KT 6000 VCFG NSC 15/14 Q1013","updated":"2025-10-30T01:25:04Z"}
