{"icao":"KJFK","metar":"KJFK 240051Z 27011KT 10SM FEW100 FEW250 08/02 A2999 RMK AO2 SLP156 T00830017","updated":"2025-11-24T01:39:05Z"}
