{"icao":"LPPS","metar":"LPPS 191700Z 14004KT 090V180 9999 FEW015 20/12 Q1017","updated":"2025-11-19T17:17:44Z"}
