{"icao":"LPPD","metar":"LPPD 312100Z 36013KT 9999 FEW020 16/10 Q1014","updated":"2025-10-31T21:15:07Z"}
