{"icao":"KORD","metar":"KORD 221751Z 24013G19KT 10SM BKN050 M06/M15 A3017 RMK AO2 SLP228 4/001 T10611150 11061 21100 58003 $","updated":"2026-01-22T18:32:09Z"}
