{"icao":"LPMA","metar":"LPMA 130500Z 23017KT 9999 BKN015 FEW018CB 16/12 Q0998","updated":"2025-11-13T05:18:54Z"}
