{"icao":"KJFK","metar":"KJFK 270351Z 02006KT 10SM BKN120 BKN250 02/M02 A2994 RMK AO2 SLP140 T00171017 $","updated":"2026-02-27T04:19:00Z"}
