{"icao":"LPCS","metar":"LPCS 272030Z 06015G25KT 030V100 9999 -RA SCT012 FEW022TCU BKN025 09/08 Q1006","updated":"2025-12-27T21:16:53Z"}
