{"icao":"KLAX","metar":"KLAX 250253Z 26007KT 10SM CLR 16/14 A3010 RMK AO2 SLP193 T01610139 51003","updated":"2025-11-25T03:13:53Z"}
