{"icao":"LPPD","metar":"LPPD 071130Z 31014KT 270V330 9999 SCT016 SCT030 15/11 Q1011","updated":"2026-05-07T11:45:37Z"}
