{"icao":"LPPR","metar":"LPPR 030100Z 36002KT CAVOK 11/11 Q1025","updated":"2025-11-03T01:26:11Z"}
