{"icao":"LPPT","metar":"LPPT 241430Z VRB05KT CAVOK 28/12 Q1020","updated":"2026-05-24T15:02:07Z"}
