{"icao":"LPPD","metar":"LPPD 111830Z 36008KT 9999 FEW025 BKN045 14/07 Q1032","updated":"2026-04-11T18:42:13Z"}
