{"icao":"KJFK","metar":"KJFK 020351Z 03007KT 10SM FEW250 M01/M12 A3047 RMK AO2 SLP318 T10111117 VISNO W $","updated":"2026-03-02T04:47:01Z"}
