{"icao":"LPMA","metar":"LPMA 290400Z 28007KT 220V360 9999 SCT015 22/14 Q1011","updated":"2025-10-29T04:25:09Z"}
