{"icao":"KORD","metar":"KORD 301751Z 24011G19KT 10SM FEW080 FEW300 23/10 A2986 RMK AO2 SLP109 T02330100 10233 20122 58018","updated":"2026-03-30T17:53:38Z"}
