{"icao":"LPMT","metar":"LPMT 282000Z 36010KT CAVOK 17/10 Q1023","updated":"2026-03-28T20:29:04Z"}
