{"icao":"LPAZ","metar":"LPAZ 281100Z 12025KT 4500 -RA FEW012 12/11 Q1015","updated":"2025-12-28T11:16:22Z"}
