{"icao":"LPLA","metar":"LPLA 191700Z 08004KT 320V100 9999 FEW008 BKN030 24/22 Q1015","updated":"2025-10-19T17:14:13Z"}
