{"icao":"LPPS","metar":"LPPS 221500Z 13007KT 100V180 9999 FEW015 18/12 Q1024","updated":"2026-02-22T15:23:35Z"}
