{"icao":"LPMR","metar":"LPMR 060300Z 18001KT CAVOK 12/11 Q1018","updated":"2025-10-06T04:20:50Z"}
