{"icao":"LPMR","metar":"LPMR 021000Z 14002KT 8000 -RA SCT030 15/15 Q1018","updated":"2026-05-02T10:50:16Z"}
