{"icao":"LPMA","metar":"LPMA 040130Z 32003KT 290V360 9999 FEW015 16/12 Q1014","updated":"2026-02-04T01:57:52Z"}
