{"icao":"LPMT","metar":"LPMT 151600Z 25007KT CAVOK 23/13 Q1015","updated":"2025-10-15T17:16:12Z"}
