{"icao":"KJFK","metar":"KJFK 082251Z 00000KT 10SM BKN250 07/00 A3027 RMK AO2 SLP248 T00670000 $","updated":"2026-01-08T23:17:44Z"}
