{"icao":"KLAX","metar":"KLAX 121853Z 25009KT 10SM FEW005 22/13 A2975 RMK AO2 SLP074 T02170128 $","updated":"2025-10-12T19:12:59Z"}
