{"icao":"LPMT","metar":"LPMT 111500Z 22008KT 190V270 9000 FEW009 BKN020 BKN030 15/12 Q1025","updated":"2026-01-11T15:18:39Z"}
