{"icao":"LPCS","metar":"LPCS 101130Z 20017KT 9999 FEW018 SCT028 18/10 Q1011","updated":"2026-05-10T11:50:18Z"}
