{"icao":"LPMR","metar":"LPMR 150700Z 11001KT 0300 FG BKN004 11/11 Q1024","updated":"2026-04-15T07:43:09Z"}
