{"icao":"KORD","metar":"KORD 241351Z 36010KT 10SM FEW018 SCT200 BKN250 19/16 A3002 RMK AO2 SLP164 T01940156","updated":"2025-09-24T14:16:24Z"}
