{"icao":"LPCS","metar":"LPCS 052000Z 01014KT CAVOK 18/12 Q1019","updated":"2025-10-06T03:00:29Z"}
