{"icao":"LPHR","metar":"LPHR 042000Z 08006KT 010V160 9999 FEW010 BKN050 23/21 Q1026","updated":"2025-10-05T04:19:14Z"}
