{"icao":"KLAX","metar":"KLAX 310453Z 01008KT 10SM BKN100 OVC250 20/02 A3003 RMK AO2 SLP168 T02000022 $","updated":"2025-12-31T05:24:02Z"}
