{"icao":"LPFR","metar":"LPFR 230130Z 26015KT 9000 -RADZ SCT030 15/14 Q1005","updated":"2026-01-23T01:41:11Z"}
