{"icao":"LPHR","metar":"LPHR 280900Z 33004KT 240V040 9999 FEW012 BKN030 16/13 Q1021","updated":"2025-10-28T09:20:03Z"}
