{"icao":"KORD","metar":"KORD 112051Z 14013G18KT 10SM FEW100 BKN150 BKN210 OVC300 24/19 A2961 RMK AO2 PRESRR SLP023 60007 T02440194 58071","updated":"2026-06-11T21:24:35Z"}
