{"icao":"LPPR","metar":"LPPR 191630Z VRB03KT 7000 2500NW BCFG SCT002 BKN004 FEW020TCU 15/13 Q1015","updated":"2026-04-19T16:38:35Z"}
