{"icao":"LPMA","metar":"LPMA 201100Z 34008KT 290V020 9999 FEW015 17/06 Q1027","updated":"2026-01-20T11:22:26Z"}
