{"icao":"KJFK","metar":"KJFK 211351Z 29007KT 10SM BKN037 BKN250 05/02 A2997 RMK AO2 SLP147 T00500017 $","updated":"2026-02-21T14:24:57Z"}
