{"icao":"LPPD","metar":"LPPD 210700Z 02017G28KT 350V050 9999 BKN014 SCT040 14/11 Q1011","updated":"2026-03-21T07:31:47Z"}
