{"icao":"LPMA","metar":"LPMA 112300Z 35015G27KT 310V020 9999 -SHRA SCT015 17/13 Q1021","updated":"2025-12-11T23:18:32Z"}
