{"icao":"LPPR","metar":"LPPR 220700Z 36007KT 330V030 CAVOK 11/08 Q1023","updated":"2025-09-22T07:18:24Z"}
