{"icao":"LPAR","metar":"LPAR 240900Z 17006KT 140V200 7000 BKN020 14/12 Q1019","updated":"2026-02-24T09:51:43Z"}
