{"icao":"LPAZ","metar":"LPAZ 311600Z 29008KT 9000 SCT002 BKN004 20/19 Q1027","updated":"2026-05-31T16:06:19Z"}
