{"icao":"LPMA","metar":"LPMA 020500Z 33009KT 290V010 9999 BKN015 20/16 Q1020","updated":"2025-10-02T05:16:26Z"}
