{"icao":"LPAZ","metar":"LPAZ 211700Z 22012KT 8000 FEW004 BKN006 24/22 Q1017","updated":"2025-10-21T17:16:49Z"}
