{"icao":"KJFK","metar":"KJFK 090351Z 36012KT 10SM SCT180 BKN250 M04/M20 A3030 RMK AO2 SLP261 T10441200 $","updated":"2025-12-09T04:28:09Z"}
