{"icao":"LPMA","metar":"LPMA 151700Z 01010KT 340V050 9999 SCT013 BKN028 18/13 Q1019","updated":"2026-03-15T17:26:51Z"}
