{"icao":"LPMT","metar":"LPMT 300500Z 19005KT 9999 BKN045 12/12 Q1013","updated":"2026-01-30T05:44:25Z"}
