{"icao":"LPST","metar":"LPST 190800Z 34003KT 300V020 9999 FEW005 BKN018 15/15 Q1023","updated":"2026-05-19T08:33:53Z"}
