{"icao":"LPPT","metar":"LPPT 151500Z 22007KT 180V240 CAVOK 28/10 Q1015","updated":"2025-10-15T15:17:33Z"}
