{"icao":"LPPD","metar":"LPPD 190300Z 35014KT 320V020 9999 SCT007 BKN011 17/16 Q1022","updated":"2025-11-19T03:10:32Z"}
