{"icao":"KJFK","metar":"KJFK 150651Z 01006KT 10SM OVC110 03/M07 A3041 RMK AO2 SLP296 T00331072","updated":"2026-03-15T06:55:34Z"}
