{"icao":"KLAX","metar":"KLAX 040553Z 25009KT 10SM FEW020 BKN055 16/11 A2996 RMK AO2 SLP145 T01560111 10178 20156 50007","updated":"2026-05-04T06:11:48Z"}
