{"icao":"LPOV","metar":"LPOV 112000Z 17011KT 150V210 7000 -RA BKN020 17/15 Q1006","updated":"2025-11-11T22:17:48Z"}
