{"icao":"LPAZ","metar":"LPAZ 102000Z 20026KT 5000 -RA BR SCT010 BKN020 18/17 Q1018","updated":"2025-12-10T20:23:11Z"}
