{"icao":"LPMA","metar":"LPMA 050630Z 35015KT 290V020 9999 FEW015 SCT070 17/09 Q1015","updated":"2026-04-05T07:04:12Z"}
