{"icao":"LPMA","metar":"LPMA 121130Z 11004KT 030V150 9999 SCT015 SCT030 19/12 Q1023","updated":"2026-05-12T11:54:59Z"}
