{"icao":"KJFK","metar":"KJFK 062051Z 25013KT 10SM FEW040 BKN200 BKN250 04/M02 A2987 RMK AO2 SLP116 T00441017 56007 $","updated":"2025-12-06T21:16:15Z"}
