{"icao":"LPAR","metar":"LPAR 211600Z 30007KT 260V340 7000 BKN015 SCT030 16/12 Q1005","updated":"2026-01-21T16:43:03Z"}
