{"icao":"LPPS","metar":"LPPS 281300Z 07010KT 040V100 9999 SCT015 BKN030 20/13 Q1023","updated":"2025-11-28T13:29:21Z"}
