{"icao":"KORD","metar":"KORD 240451Z 04009KT 10SM FEW014 OVC026 19/16 A2999 RMK AO2 SLP153 T01940161","updated":"2025-09-24T05:17:32Z"}
