{"icao":"LPOV","metar":"LPOV 261700Z 18017G27KT 4000 -RA BR BKN009 BKN014 15/14 Q1005","updated":"2026-01-26T17:28:21Z"}
