{"icao":"LPLA","metar":"LPLA 261431Z 13013KT 9999 SCT007 BKN012 17/15 Q1021","updated":"2026-04-26T14:41:15Z"}
