{"icao":"KJFK","metar":"KJFK 011851Z 33011G18KT 10SM FEW055 FEW250 21/04 A3017 RMK AO2 SLP215 T02060044","updated":"2025-10-01T19:14:17Z"}
