{"icao":"LPPT","metar":"LPPT 100900Z 33008KT 300V360 9999 FEW020 FEW025TCU 13/10 Q1021","updated":"2025-12-10T09:23:34Z"}
