{"icao":"LPSJ","metar":"LPSJ 011700Z 16006KT 120V210 9999 FEW020 24/18 Q1031","updated":"2026-07-02T03:27:10Z"}
