{"icao":"KJFK","metar":"KJFK 250251Z 32009KT 10SM SCT065 SCT095 11/03 A3022 RMK AO2 SLP232 T01110028 53014","updated":"2025-10-25T03:01:07Z"}
