{"icao":"LPAZ","metar":"LPAZ 230800Z 21010KT 9999 FEW020 BKN026 22/18 Q1022","updated":"2025-09-23T08:22:50Z"}
