{"icao":"LPMT","metar":"LPMT 091200Z 19016KT 3000 RA SCT008 SCT012 BKN016 17/17 Q1015","updated":"2025-12-09T12:41:17Z"}
