{"icao":"LPPR","metar":"LPPR 230430Z VRB02KT 8000 SCT002 18/18 Q1013","updated":"2026-06-23T04:58:35Z"}
