{"icao":"LPLA","metar":"LPLA 130700Z 32027KT 9999 SCT025 14/10 Q1004","updated":"2025-11-13T07:18:11Z"}
