{"icao":"LPHR","metar":"LPHR 151230Z 31008KT 260V360 9999 FEW030 17/09 Q1029","updated":"2025-12-15T12:43:58Z"}
