{"icao":"LPFR","metar":"LPFR 061100Z 28009KT 200V320 9999 FEW020 21/07 Q1013","updated":"2026-05-06T11:05:10Z"}
