{"icao":"LPFR","metar":"LPFR 090800Z 33003KT 280V020 CAVOK 18/14 Q1020","updated":"2025-10-09T08:23:33Z"}
