{"icao":"LPPT","metar":"LPPT 200130Z 31005KT 290V350 CAVOK 09/06 Q1030","updated":"2026-02-20T01:59:31Z"}
