{"icao":"KORD","metar":"KORD 150251Z 07006KT 10SM CLR 22/16 A3009 RMK AO2 SLP185 T02220161 51013 $","updated":"2025-09-15T03:06:07Z"}
