{"icao":"KORD","metar":"KORD 200851Z 18015G24KT 10SM OVC220 M02/M08 A2982 RMK AO2 SLP107 T10221083 56038","updated":"2025-12-20T09:19:12Z"}
