{"icao":"LPPT","metar":"LPPT 071600Z 19008KT 140V210 9999 FEW016 SCT022 17/13 Q1022","updated":"2025-12-07T16:20:46Z"}
