{"icao":"KORD","metar":"KORD 261651Z 02024KT 8SM SCT032 SCT140 BKN300 15/07 A2974 RMK AO2 PK WND 03031/1651 PRESRR SLP071 T01500067","updated":"2026-03-26T16:59:53Z"}
