{"icao":"LPMA","metar":"LPMA 021300Z 20007KT 9999 FEW015 24/19 Q1024","updated":"2025-11-02T13:21:31Z"}
