{"icao":"LPST","metar":"LPST 201600Z 31008KT CAVOK 26/17 Q1020","updated":"2026-05-20T21:51:20Z"}
