{"icao":"LPMT","metar":"LPMT 101300Z 36004KT 320V030 9999 FEW025 SCT035 16/12 Q1021","updated":"2025-12-10T13:36:06Z"}
