{"icao":"LPCS","metar":"LPCS 161600Z 27010G20KT 240V310 9999 VCSH SCT025 FEW028TCU 17/13 Q1011","updated":"2025-11-16T16:20:01Z"}
