{"icao":"LPCS","metar":"LPCS 231300Z VRB05KT CAVOK 26/02 Q1018","updated":"2025-09-23T13:27:01Z"}
