{"icao":"LPAZ","metar":"LPAZ 010200Z 08004KT 9000 -DZ FEW007 SCT014 BKN028 13/12 Q1029","updated":"2026-04-01T02:30:18Z"}
