{"icao":"LPAZ","metar":"LPAZ 280900Z 03003KT 360V070 9999 VCSH SCT007 SCT020 16/15 Q1024","updated":"2025-11-28T09:19:50Z"}
