{"icao":"LPMA","metar":"LPMA 272100Z 36013KT 9999 FEW008 SCT015 23/19 Q1023","updated":"2025-09-27T21:14:05Z"}
