{"icao":"KORD","metar":"KORD 132051Z 27024G46KT 10SM SCT055 08/M06 A2974 RMK AO2 PK WND 27047/2023 SLP075 T00781061 53044 $","updated":"2026-03-13T21:32:12Z"}
