{"icao":"LPAZ","metar":"LPAZ 291730Z 05012KT 9999 FEW020 SCT028 23/17 Q1029","updated":"2026-06-29T17:35:08Z"}
