{"icao":"KORD","metar":"KORD 060851Z 00000KT 10SM SCT250 04/M04 A3022 RMK AO2 SLP234 T00441039 58002","updated":"2025-11-06T09:20:26Z"}
