{"icao":"LPMR","metar":"LPMR 241300Z 26011G21KT 230V290 3000 -RADZ BR BKN005 OVC010 17/16 Q1016","updated":"2025-11-24T13:32:24Z"}
