{"icao":"LPFR","metar":"LPFR 141900Z 27005KT CAVOK 21/18 Q1016","updated":"2025-10-14T19:13:49Z"}
