{"icao":"LPPT","metar":"LPPT 271600Z 21019G29KT 9999 BKN005 19/19 Q1015 WS R20","updated":"2025-09-27T16:19:11Z"}
