{"icao":"KLAX","metar":"KLAX 061253Z 08004KT 10SM CLR 12/M01 A2998 RMK AO2 SLP149 T01171011","updated":"2026-03-06T13:54:29Z"}
