{"icao":"LPBJ","metar":"LPBJ 211300Z 09004KT 030V130 CAVOK 19/07 Q1029","updated":"2026-02-21T13:40:44Z"}
