{"icao":"KJFK","metar":"KJFK 061251Z 31024G35KT 10SM SCT050 SCT250 07/M05 A3005 RMK AO2 PK WND 32035/1251 SLP176 T00671050","updated":"2026-04-06T13:07:13Z"}
