{"icao":"LPPR","metar":"LPPR 202200Z 18013KT 8000 FEW009 BKN014 13/12 Q1011","updated":"2026-01-20T22:21:26Z"}
