{"icao":"KORD","metar":"KORD 070704Z 04013KT 10SM BKN030 00/M07 A3041 RMK AO2 T00001067 $","updated":"2026-04-07T07:15:11Z"}
