{"icao":"LPPD","metar":"LPPD 191330Z 35007KT 310V060 9999 FEW025 SCT035 15/06 Q1032","updated":"2026-01-19T13:44:04Z"}
