{"icao":"LPPD","metar":"LPPD 211900Z 32006KT 290V360 9999 FEW020 BKN030 14/09 Q1026","updated":"2025-12-21T19:14:22Z"}
