{"icao":"LPFL","metar":"LPFL 221900Z 33014KT 300V010 9999 VCSH FEW009 BKN016 20/18 Q1021","updated":"2025-09-22T19:14:05Z"}
