{"icao":"KLAX","metar":"KLAX 010953Z 02004KT 9SM BKN019 14/11 A3002 RMK AO2 SLP165 T01440111 $","updated":"2025-12-01T10:22:59Z"}
