{"icao":"LPMA","metar":"LPMA 100700Z 36009KT 320V020 9999 SCT015 SCT030 21/16 Q1023","updated":"2025-10-10T07:16:58Z"}
