{"icao":"KORD","metar":"KORD 172151Z 25013G22KT 10SM BKN039 M09/M17 A3002 RMK AO2 SLP179 VCSH W-NE T10891167 $","updated":"2026-01-17T22:18:22Z"}
