{"icao":"LPBJ","metar":"LPBJ 010300Z VRB01KT CAVOK 17/12 Q1019","updated":"2025-10-01T03:09:47Z"}
