{"icao":"LPPD","metar":"LPPD 151230Z 04010KT 010V080 9999 FEW013 SCT020 16/13 Q1029","updated":"2026-03-15T12:51:19Z"}
