{"icao":"KLAX","metar":"KLAX 052253Z 26008KT 10SM FEW280 18/08 A3005 RMK AO2 SLP174 T01780078 $","updated":"2025-12-05T23:17:51Z"}
