{"icao":"LPFL","metar":"LPFL 021930Z 20009KT 160V220 9999 FEW036 14/08 Q1029","updated":"2026-03-02T19:35:55Z"}
