{"icao":"LPFR","metar":"LPFR 230800Z 03005G15KT 010V070 CAVOK 09/02 Q1027","updated":"2025-11-23T08:22:29Z"}
