{"icao":"LPMA","metar":"LPMA 030630Z 32004KT 300V010 9999 FEW015 14/08 Q1015","updated":"2026-02-03T06:50:11Z"}
