{"icao":"LPMA","metar":"LPMA 062330Z 34009KT 9999 SCT015 15/09 Q1017","updated":"2026-05-06T23:50:47Z"}
