{"icao":"LPOV","metar":"LPOV 030900Z 04006KT 010V070 9999 FEW030 14/05 Q1014","updated":"2026-03-03T09:40:07Z"}
