{"icao":"KORD","metar":"KORD 231851Z VRB05KT 10SM FEW019 FEW250 21/14 A2997 RMK AO2 SLP147 T02110139","updated":"2026-05-23T19:23:32Z"}
