{"icao":"KJFK","metar":"KJFK 081251Z 03014KT 10SM FEW250 02/M09 A3063 RMK AO2 SLP372 T00171089","updated":"2026-04-08T13:18:12Z"}
