{"icao":"LPPS","metar":"LPPS 270130Z 36022KT 9999 BKN013 15/13 Q1025","updated":"2026-02-27T01:58:33Z"}
