{"icao":"LPLA","metar":"LPLA 160500Z 33020KT 9999 BKN040 14/08 Q1031","updated":"2026-01-16T05:24:17Z"}
