{"icao":"LPOV","metar":"LPOV 170300Z VRB02KT 0100 FG VV/// 13/13 Q1014","updated":"2025-10-17T05:17:03Z"}
