{"icao":"KJFK","metar":"KJFK 210651Z 27011KT 10SM CLR 12/04 A2992 RMK AO2 SLP131 T01220039","updated":"2025-10-21T07:18:45Z"}
