{"icao":"LPOV","metar":"LPOV 050500Z 20019KT 7000 -RA BKN008 BKN012 14/14 Q0985 RERA","updated":"2026-02-05T05:54:16Z"}
