{"icao":"LPPS","metar":"LPPS 101600Z 12005KT 090V150 9999 SCT015 17/11 Q1029","updated":"2026-01-10T16:23:24Z"}
