{"icao":"KLAX","metar":"KLAX 132253Z 14012G23KT 10SM FEW035 FEW150 21/12 A2973 RMK AO2 SLP065 T02110117 $","updated":"2025-10-13T23:15:29Z"}
