{"icao":"KORD","metar":"KORD 060851Z 26006KT 10SM BKN016 M03/M06 A2978 RMK AO2 SLP093 T10281056 53006","updated":"2025-12-06T09:18:18Z"}
