{"icao":"LPPS","metar":"LPPS 231900Z 03014KT 9999 SCT014 BKN030 18/14 Q1022","updated":"2026-05-23T19:23:31Z"}
