{"icao":"LPFR","metar":"LPFR 201700Z 34007KT CAVOK 17/05 Q1019","updated":"2025-11-20T17:15:10Z"}
