{"icao":"LPMR","metar":"LPMR 301100Z 17003KT 140V200 CAVOK 11/07 Q1022","updated":"2025-12-30T11:18:21Z"}
