{"icao":"LPLA","metar":"LPLA 031400Z 23011KT 190V250 9999 -RA FEW004 SCT035 21/16 Q1011","updated":"2025-11-03T14:18:42Z"}
