{"icao":"LPLA","metar":"LPLA 170500Z 31020KT 9999 BKN038 11/04 Q1015","updated":"2026-03-17T05:58:02Z"}
