{"icao":"LPPD","metar":"LPPD 290800Z 15007G18KT 070V180 9999 SCT020 SCT035 21/16 Q1026","updated":"2025-09-29T08:25:53Z"}
