{"icao":"KJFK","metar":"KJFK 141951Z 31011G15KT 10SM SCT049 BKN250 06/M03 A3003 RMK AO2 SLP168 T00611033 $","updated":"2026-02-14T20:25:42Z"}
