{"icao":"LPPT","metar":"LPPT 150700Z 08003KT 360V120 CAVOK 10/09 Q1012","updated":"2025-12-15T07:23:15Z"}
