{"icao":"LPMR","metar":"LPMR 182100Z 17003KT CAVOK 19/13 Q1016","updated":"2025-10-18T21:14:06Z"}
