{"icao":"LPFR","metar":"LPFR 150300Z 32004KT 250V360 CAVOK 25/14 Q1017","updated":"2025-09-15T03:05:51Z"}
