{"icao":"LPPS","metar":"LPPS 191500Z 30008KT 250V350 9999 FEW006 SCT030 24/21 Q1018","updated":"2025-10-19T15:15:45Z"}
