{"icao":"KORD","metar":"KORD 111351Z 10007KT 10SM FEW100 FEW250 08/M01 A3042 RMK AO2 SLP307 T00831006 $","updated":"2026-04-11T14:36:14Z"}
