{"icao":"LPCS","metar":"LPCS 221400Z 18007KT 150V220 9999 FEW025 SCT038 19/13 Q1011","updated":"2026-03-22T14:26:52Z"}
