{"icao":"LPOV","metar":"LPOV 311100Z 04008KT 010V080 CAVOK 24/06 Q1027","updated":"2026-03-31T11:48:29Z"}
