{"icao":"LPFR","metar":"LPFR 310430Z 04008KT CAVOK 11/08 Q1017","updated":"2025-12-31T04:36:59Z"}
