{"icao":"KLAX","metar":"KLAX 081053Z 25006KT 10SM SCT014 17/14 A2988 RMK AO2 SLP117 T01720139 $","updated":"2025-10-08T11:14:48Z"}
