{"icao":"KORD","metar":"KORD 261813Z 27019G36KT 10SM -SN OVC032 01/M07 A2977 RMK AO2 PK WND 29036/1759 SNB12 P0000 T00111067","updated":"2025-11-26T18:23:55Z"}
