{"icao":"LPPD","metar":"LPPD 071700Z 23008KT 9000 FEW004 BKN006 15/15 Q1014","updated":"2026-02-07T17:24:17Z"}
