{"icao":"LPMT","metar":"LPMT 171100Z 03003KT 340V100 CAVOK 22/14 Q1015","updated":"2025-10-17T11:14:46Z"}
