{"icao":"LPFR","metar":"LPFR 300900Z VRB03KT CAVOK 27/18 Q1019","updated":"2026-06-30T09:31:50Z"}
