{"icao":"LPMA","metar":"LPMA 270330Z 24017KT 9999 -RA SCT015 18/15 Q1013","updated":"2026-01-27T03:46:49Z"}
