{"icao":"LPFR","metar":"LPFR 160900Z 17004KT 150V220 CAVOK 20/14 Q1019","updated":"2026-04-16T09:17:22Z"}
