{"icao":"LPPS","metar":"LPPS 151700Z 33017KT 9999 FEW015 18/12 Q1020","updated":"2025-12-15T17:23:29Z"}
