{"icao":"LPLA","metar":"LPLA 191400Z 28010KT 240V300 9999 FEW025 17/10 Q1028","updated":"2025-12-19T14:20:00Z"}
