{"icao":"LPMA","metar":"LPMA 091230Z 03009KT 340V070 9999 SCT013 18/13 Q1033","updated":"2026-01-09T12:42:21Z"}
