{"icao":"KJFK","metar":"KJFK 080951Z 32010KT 10SM OVC028 06/01 A3010 RMK AO2 SLP191 T00560006 $","updated":"2026-01-08T10:23:27Z"}
