{"icao":"LPAZ","metar":"LPAZ 061030Z 31024KT 9999 SCT032 12/05 Q1016","updated":"2026-04-06T10:54:58Z"}
