{"icao":"LPAZ","metar":"LPAZ 221800Z 17013KT 9999 SCT049 16/12 Q1023","updated":"2026-02-22T18:33:46Z"}
