{"icao":"LPOV","metar":"LPOV 131800Z 35008KT 9999 FEW025 19/15 Q1016","updated":"2025-10-13T18:24:52Z"}
