{"icao":"LPPT","metar":"LPPT 052300Z 31006KT CAVOK 19/12 Q1019","updated":"2025-10-05T23:13:35Z"}
