{"icao":"LPMA","metar":"LPMA 151000Z 07003KT 020V120 9999 FEW016 19/13 Q1020","updated":"2025-12-15T10:24:27Z"}
