{"icao":"LPSJ","metar":"LPSJ 131200Z 31010KT 270V330 9999 FEW012 SCT035 21/16 Q1021","updated":"2026-06-13T12:23:18Z"}
