{"icao":"KJFK","metar":"KJFK 292051Z 30012G19KT 10SM FEW045 M06/M17 A3009 RMK SLP190 T10561167 53003 $ ","updated":"2026-01-29T21:26:04Z"}
