{"icao":"KLAX","metar":"KLAX 231453Z 07007KT 10SM FEW018 SCT190 SCT230 BKN270 16/09 A3002 RMK AO2 SLP164 T01560094 53009","updated":"2026-04-23T15:51:36Z"}
