{"icao":"KORD","metar":"KORD 271351Z 28013G21KT 10SM FEW027 FEW040 M11/M16 A2998 RMK AO2 SLP166 T11061161","updated":"2026-01-27T14:28:36Z"}
