{"icao":"KJFK","metar":"KJFK 031651Z 20007KT 10SM BKN008 OVC012 09/07 A3026 RMK AO2 SLP246 T00940072","updated":"2026-04-03T17:33:42Z"}
