{"icao":"KLAX","metar":"KLAX 151953Z 27008KT 4SM HZ FEW011 24/18 A2989 RMK AO2 SLP120 T02390178 $","updated":"2025-09-15T20:18:42Z"}
