{"icao":"LPFR","metar":"LPFR 021830Z 26014KT 9999 FEW025 19/15 Q1015","updated":"2026-05-02T18:57:06Z"}
