{"icao":"LPMR","metar":"LPMR 272000Z 19014KT 8000 -RA BKN008 OVC014 19/18 Q1010","updated":"2025-09-27T20:17:19Z"}
