{"icao":"KORD","metar":"KORD 301951Z 31008KT 10SM OVC026 M01/M06 A3022 RMK AO2 SLP242 T10111061 $","updated":"2025-11-30T20:20:29Z"}
