{"icao":"LPST","metar":"LPST 101500Z 34015KT 9999 SCT024 13/08 Q1021","updated":"2026-03-10T15:58:11Z"}
