{"icao":"LPPR","metar":"LPPR 081500Z 30007KT 260V340 9999 FEW012 13/09 Q1021","updated":"2026-03-08T15:22:20Z"}
