{"icao":"LPMA","metar":"LPMA 132300Z 36009KT 320V070 9999 FEW016 16/08 Q1029","updated":"2026-02-13T23:29:49Z"}
