{"icao":"LPMA","metar":"LPMA 010230Z 22005KT 190V250 9999 BKN012 17/15 Q1017","updated":"2026-05-01T02:55:36Z"}
