{"icao":"LPMA","metar":"LPMA 052100Z 24006KT 220V350 9999 SCT015 16/10 Q1012","updated":"2026-02-05T21:27:40Z"}
