{"icao":"LPLA","metar":"LPLA 272000Z 09004KT 9999 BKN040 19/11 Q1028","updated":"2025-09-27T20:17:20Z"}
