{"icao":"LPPT","metar":"LPPT 200900Z 24004KT 220V290 9999 FEW026 SCT034 11/08 Q1018","updated":"2025-12-20T09:18:38Z"}
