{"icao":"LPFL","metar":"LPFL 011000Z VRB02KT 9999 BKN045 16/07 Q1022","updated":"2025-11-01T10:17:08Z"}
