{"icao":"LPFR","metar":"LPFR 222230Z 27009KT CAVOK 15/10 Q1013","updated":"2026-04-22T22:45:33Z"}
