{"icao":"LPLA","metar":"LPLA 280200Z 17012KT 9999 FEW006 SCT020 16/15 Q1016","updated":"2026-04-28T02:47:23Z"}
