{"icao":"LPBJ","metar":"LPBJ 110900Z VRB02KT 4000 BR OVC015 06/06 Q1028","updated":"2026-01-11T09:19:40Z"}
