{"icao":"LPFR","metar":"LPFR 291430Z 25020KT 5000 -DZ BR OVC004 16/15 Q1013","updated":"2026-01-29T14:49:40Z"}
