{"icao":"KJFK","metar":"KJFK 082351Z 13006KT 10SM BKN080 BKN100 13/07 A2989 RMK AO2 SLP120 60000 T01330067 10189 20133 53004","updated":"2026-05-08T23:55:16Z"}
