{"icao":"LPFR","metar":"LPFR 031730Z 26011KT 9999 -RA FEW012 13/11 Q1005","updated":"2026-02-03T17:51:42Z"}
