{"icao":"LPFR","metar":"LPFR 161830Z 27011KT 250V310 9999 FEW035 22/10 Q1015","updated":"2026-05-16T19:01:46Z"}
