{"icao":"KJFK","metar":"KJFK 260851Z 03013KT 10SM BKN012 OVC024 M05/M07 A2976 RMK AO2 SLP077 T10501067 50009 $","updated":"2026-01-26T09:33:14Z"}
