{"icao":"LPST","metar":"LPST 031400Z 27009KT 9999 FEW025 13/07 Q1003","updated":"2026-02-03T14:06:22Z"}
