{"icao":"KORD","metar":"KORD 290451Z 13007KT 10SM SCT028 BKN110 BKN250 25/22 A2991 RMK AO2 SLP124 T02500217 $","updated":"2026-06-29T05:49:18Z"}
