{"icao":"LPHR","metar":"LPHR 211700Z 15004KT 110V200 9999 SCT013 BKN030 17/13 Q1031","updated":"2025-11-21T17:16:14Z"}
