{"icao":"LPAZ","metar":"LPAZ 110930Z 25014KT 7000 FEW004 16/16 Q1017","updated":"2026-02-11T10:01:48Z"}
