{"icao":"KLAX","metar":"KLAX 080653Z 24005KT 10SM BKN015 18/14 A2990 RMK AO2 SLP124 T01780144 $","updated":"2025-10-08T07:17:08Z"}
