{"icao":"LPFL","metar":"LPFL 042030Z VRB01KT 9999 FEW018 SCT032 13/09 Q1022","updated":"2026-04-04T21:30:02Z"}
