{"icao":"KLAX","metar":"KLAX 162053Z 26012KT 8SM FEW035 FEW060 24/18 A2992 RMK AO2 SLP131 T02440183 58011","updated":"2025-09-16T21:15:11Z"}
