{"icao":"LPLA","metar":"LPLA 101500Z 21019G29KT 9999 VCSH SCT007 BKN014 18/16 Q1019","updated":"2026-01-10T15:18:26Z"}
