{"icao":"LPHR","metar":"LPHR 090730Z 36008KT 320V030 9999 FEW015 BKN040 13/07 Q1019","updated":"2026-05-09T07:54:08Z"}
