{"icao":"LPMT","metar":"LPMT 101600Z 22014G25KT 190V250 9999 FEW025TCU BKN030 19/11 Q1010","updated":"2026-05-10T16:54:18Z"}
