{"icao":"LPMA","metar":"LPMA 212300Z 06006KT 360V140 9999 BKN013 FEW018CB 15/13 Q0999 RESHRA","updated":"2026-03-21T23:23:32Z"}
