{"icao":"LPPT","metar":"LPPT 271100Z 25009KT 210V280 9999 FEW024 SCT034 25/17 Q1020","updated":"2026-06-27T11:25:34Z"}
