{"icao":"LPBJ","metar":"LPBJ 312200Z 31009KT CAVOK 23/09 Q1019","updated":"2026-05-31T22:05:11Z"}
