{"icao":"LPFL","metar":"LPFL 190900Z 21003KT 120V290 9999 FEW022 11/07 Q1032","updated":"2026-01-19T09:32:56Z"}
