{"icao":"KJFK","metar":"KJFK 261651Z 20009KT 10SM FEW120 SCT250 16/06 A2991 RMK AO2 SLP127 T01610056 $","updated":"2026-03-26T16:59:41Z"}
