{"icao":"LPHR","metar":"LPHR 072130Z 32007KT 9999 FEW017 SCT030 14/09 Q1034","updated":"2026-04-07T21:40:29Z"}
