{"icao":"LPLA","metar":"LPLA 141500Z 20011G26KT 150V300 9999 SCT035 17/10 Q1029","updated":"2026-02-14T15:24:00Z"}
