{"icao":"LPFL","metar":"LPFL 221800Z 36005KT 9999 FEW013 20/17 Q1007","updated":"2025-10-22T18:27:48Z"}
