{"icao":"LPAR","metar":"LPAR 101300Z 07004KT 340V130 CAVOK 27/12 Q1020","updated":"2025-10-10T13:26:38Z"}
