{"icao":"LPFL","metar":"LPFL 081000Z 27007KT 220V010 9999 FEW022 SCT035 17/10 Q1036","updated":"2026-04-08T10:14:33Z"}
