{"icao":"LPLA","metar":"LPLA 170000Z 20016KT 9999 FEW007 SCT016 21/18 Q1016","updated":"2026-06-17T00:14:35Z"}
