{"icao":"KLAX","metar":"KLAX 152253Z 26008KT 10SM FEW250 25/05 A2996 RMK AO2 SLP143 T02500050 $","updated":"2026-01-15T23:19:35Z"}
