{"icao":"LPOV","metar":"LPOV 171900Z 35006KT CAVOK 16/14 Q1016","updated":"2025-10-17T19:13:56Z"}
