{"icao":"LPOV","metar":"LPOV 291400Z 26007KT 200V290 9999 FEW020 20/17 Q1008","updated":"2025-10-29T14:18:47Z"}
