{"icao":"LPHR","metar":"LPHR 162000Z 30006KT 9000 -RA SCT012 FEW016CB BKN030 16/14 Q1017","updated":"2026-04-16T20:46:38Z"}
