{"icao":"LPOV","metar":"LPOV 131200Z 17011KT 4000 -SHRA SCT013 FEW016CB BKN045 13/13 Q1008 RESHRA","updated":"2026-01-13T12:44:13Z"}
