{"icao":"LPLA","metar":"LPLA 250700Z 16011G21KT 120V200 9999 FEW022 20/14 Q1016 WS ALL RWY","updated":"2025-09-25T07:17:42Z"}
