{"icao":"LPPS","metar":"LPPS 140730Z 07007KT 040V100 9999 FEW015 BKN030 14/10 Q1025","updated":"2026-04-14T07:43:20Z"}
