{"icao":"LPMT","metar":"LPMT 270900Z 27004KT 230V310 9999 FEW020 22/16 Q1020","updated":"2026-06-27T09:27:04Z"}
