{"icao":"LPAR","metar":"LPAR 011100Z 07006KT 040V110 CAVOK 25/13 Q1021","updated":"2025-10-01T11:15:45Z"}
