{"icao":"KORD","metar":"KORD 110651Z 35006KT 10SM FEW040 13/09 A3014 RMK AO2 SLP205 T01280094","updated":"2025-10-11T07:15:18Z"}
