{"icao":"LPPT","metar":"LPPT 212000Z 26008KT 230V290 9999 FEW010 BKN014 21/19 Q1016","updated":"2025-10-21T20:20:36Z"}
