{"icao":"LPFR","metar":"LPFR 061330Z 23009KT 200V260 CAVOK 23/14 Q1018","updated":"2026-06-06T13:39:15Z"}
