{"icao":"LPPD","metar":"LPPD 080000Z 30004KT 280V340 9999 SCT020 BKN030 18/18 Q1032","updated":"2026-06-08T00:05:15Z"}
