{"icao":"KORD","metar":"KORD 042151Z 19008KT 10SM SCT150 BKN210 BKN250 M01/M10 A3008 RMK AO2 SLP193 T10061100 $","updated":"2026-01-04T22:19:09Z"}
