{"icao":"LPPS","metar":"LPPS 271600Z 27013KT 9999 SCT012 BKN030 24/21 Q1022","updated":"2025-09-27T16:19:16Z"}
