{"icao":"LPBJ","metar":"LPBJ 290939Z 25016KT 4000 1700N -DZ BR OVC004 15/15 Q1011","updated":"2026-01-29T09:40:48Z"}
