{"icao":"LPLA","metar":"LPLA 291600Z 23011KT 210V310 9999 FEW015 SCT020 18/13 Q1011","updated":"2026-01-29T16:42:02Z"}
