{"icao":"LPMA","metar":"LPMA 031600Z 20008KT 110V230 9999 SCT014 23/18 Q1019","updated":"2025-11-03T16:21:04Z"}
