{"icao":"LPPT","metar":"LPPT 021130Z 21010KT 190V250 9999 SCT016 18/14 Q1017","updated":"2026-05-02T11:43:02Z"}
