{"icao":"LPAR","metar":"LPAR 181500Z 26011KT 220V300 4000 -DZRA BR SCT012 BKN020 16/14 Q1018","updated":"2026-02-18T15:51:14Z"}
