{"icao":"LPMT","metar":"LPMT 171900Z 34004KT 9999 FEW025 14/12 Q1016","updated":"2025-11-17T19:14:26Z"}
