{"icao":"LPPD","metar":"LPPD 192000Z 04015KT 010V070 9999 SCT018 SCT030 16/13 Q1024","updated":"2025-11-19T20:18:21Z"}
