{"icao":"KORD","metar":"KORD 161751Z 22016G25KT 10SM FEW200 SCT250 15/07 A2989 RMK AO2 PK WND 23027/1736 SLP125 T01500072 10150 20033 58017","updated":"2026-02-16T18:40:54Z"}
