{"icao":"KJFK","metar":"KJFK 030351Z 00000KT 10SM SCT250 13/08 A3046 RMK AO2 SLP314 T01330078","updated":"2025-10-03T04:20:16Z"}
