{"icao":"LPPT","metar":"LPPT 120430Z 25006KT 210V280 9999 SCT014 BKN030 14/12 Q1020","updated":"2026-02-12T04:56:33Z"}
