{"icao":"LPMA","metar":"LPMA 111500Z 04005KT 360V140 9999 SCT015 18/13 Q1025","updated":"2026-01-11T15:18:56Z"}
