{"icao":"KJFK","metar":"KJFK 091151Z 01005KT 10SM FEW042 FEW170 FEW250 M07/M17 A3030 RMK AO2 SLP261 T10721167 11056 21078 53013 $","updated":"2025-12-09T12:41:33Z"}
