{"icao":"LPBJ","metar":"LPBJ 261900Z 07004KT CAVOK 08/02 Q1014","updated":"2025-12-26T19:14:53Z"}
