{"icao":"KJFK","metar":"KJFK 272151Z 14009KT 10SM FEW250 03/M02 A3013 RMK AO2 SLP201 T00281017","updated":"2026-02-27T22:21:31Z"}
