{"icao":"LPMA","metar":"LPMA 021030Z 12004KT 080V150 9999 FEW015 19/13 Q1020","updated":"2026-05-02T10:50:19Z"}
