{"icao":"LPFR","metar":"LPFR 032000Z 01004KT CAVOK 17/13 Q1021","updated":"2025-11-03T20:20:32Z"}
