{"icao":"LPPR","metar":"LPPR 281900Z 29006KT CAVOK 16/10 Q1025","updated":"2026-03-28T19:28:22Z"}
