{"icao":"LPPT","metar":"LPPT 290700Z 03006KT 7000 FEW001 BKN004 16/16 Q1007","updated":"2025-10-29T07:17:44Z"}
