{"icao":"LPOV","metar":"LPOV 142200Z 36004KT CAVOK 19/18 Q1023","updated":"2025-09-14T22:14:44Z"}
