{"icao":"LPPS","metar":"LPPS 221800Z 07015KT 040V100 9999 SCT015 18/10 Q1025","updated":"2025-11-22T18:24:47Z"}
