{"icao":"LPPR","metar":"LPPR 301330Z 18003KT 140V290 CAVOK 14/07 Q1021","updated":"2025-12-30T13:34:46Z"}
