{"icao":"KORD","metar":"KORD 281551Z 30011G17KT 10SM FEW030 SCT250 M03/M11 A3037 RMK AO2 SLP294 T10281106 $","updated":"2025-11-28T16:23:39Z"}
