{"icao":"KJFK","metar":"KJFK 281251Z 36017KT 10SM SCT060 01/M10 A3040 RMK AO2 PK WND 36026/1218 SLP293 T00061100","updated":"2026-03-28T13:50:48Z"}
