{"icao":"LPFR","metar":"LPFR 012300Z 02006KT CAVOK 13/11 Q1017","updated":"2026-03-01T23:21:59Z"}
