{"icao":"LPBJ","metar":"LPBJ 182300Z 10008KT CAVOK 13/11 Q1004","updated":"2026-03-18T23:29:19Z"}
