{"icao":"LPPR","metar":"LPPR 121230Z 33014KT 300V360 9999 FEW030 SCT048 14/07 Q1020","updated":"2026-04-12T12:58:53Z"}
