{"icao":"LPMR","metar":"LPMR 280800Z 32014KT 3000 -RA BKN005 OVC014 17/16 Q1009","updated":"2025-09-28T08:19:43Z"}
