{"icao":"LPHR","metar":"LPHR 051100Z 14010KT 9999 FEW012 SCT050 23/19 Q1023","updated":"2025-10-05T11:12:39Z"}
