{"icao":"LPOV","metar":"LPOV 162200Z VRB02KT 5000 BR SCT004 13/13 Q1015","updated":"2025-10-16T22:13:22Z"}
