{"icao":"LPFR","metar":"LPFR 072130Z 31008KT CAVOK 24/13 Q1019","updated":"2026-06-07T22:02:15Z"}
