{"icao":"KORD","metar":"KORD 120951Z 30003KT 10SM FEW250 M03/M07 A3026 RMK AO2 SLP253 T10281072 $","updated":"2026-02-12T10:43:51Z"}
