{"icao":"LPST","metar":"LPST 281300Z 17015KT 4000 -RA BR SCT009 SCT012 FEW013TCU 19/17 Q1011","updated":"2025-10-28T13:29:17Z"}
