{"icao":"LPLA","metar":"LPLA 252200Z 15018KT 9999 BKN017 BKN023 21/18 Q1009","updated":"2025-09-25T22:14:11Z"}
