{"icao":"LPBJ","metar":"LPBJ 082000Z 31011KT CAVOK 24/13 Q1019","updated":"2026-06-08T20:12:12Z"}
