{"icao":"LPPT","metar":"LPPT 252000Z 22006KT 9999 FEW008 12/11 Q1014","updated":"2026-01-25T20:22:32Z"}
