{"icao":"LPPT","metar":"LPPT 221100Z 30005KT 270V340 9999 FEW025 12/08 Q1014","updated":"2025-12-22T11:17:20Z"}
