{"icao":"KORD","metar":"KORD 070951Z 21007KT 6SM RA BR FEW023 SCT039 OVC090 16/14 A2970 RMK AO2 RAB0856E05B08 TSB04E39 PRESFR SLP055 P0012 T01610144","updated":"2026-03-07T10:22:49Z"}
