{"icao":"LPPD","metar":"LPPD 180800Z 32004KT 290V350 9999 FEW016 15/13 Q1025","updated":"2025-11-18T08:25:23Z"}
