{"icao":"KORD","metar":"KORD 250451Z 00000KT 10SM FEW250 04/02 A3032 RMK AO2 SLP272 T00440017 $","updated":"2025-10-25T05:16:32Z"}
