{"icao":"KORD","metar":"KORD 261351Z 25019G34KT 8SM -SN BKN017 BKN023 OVC029 01/M02 A2971 RMK AO2 PK WND 25039/1314 SLP063 P0000 T00061022","updated":"2025-11-26T14:19:30Z"}
