{"icao":"LPMT","metar":"LPMT 111500Z 18013KT 9999 FEW018 SCT025 20/16 Q1010","updated":"2025-11-11T15:19:35Z"}
