{"icao":"LPPT","metar":"LPPT 030600Z 33003KT 300V360 CAVOK 11/10 Q1023","updated":"2025-11-03T06:29:01Z"}
