{"icao":"LPFR","metar":"LPFR 251930Z 16005KT 9999 SCT035 19/15 Q1014","updated":"2026-04-25T19:42:17Z"}
