{"icao":"LPCS","metar":"LPCS 161000Z VRB02KT CAVOK 25/10 Q1015","updated":"2025-10-16T10:20:04Z"}
