{"icao":"KLAX","metar":"KLAX 112153Z 24011KT 10SM FEW010 22/12 A2976 RMK AO2 SLP078 T02170122 $","updated":"2025-10-11T22:14:52Z"}
