{"icao":"LPOV","metar":"LPOV 121400Z 27008KT 230V310 9999 FEW020 19/14 Q1018","updated":"2026-05-12T14:21:56Z"}
