{"icao":"LPMT","metar":"LPMT 061500Z 27009KT 230V320 9999 FEW025 SCT040 18/09 Q1018","updated":"2025-11-06T15:20:18Z"}
