{"icao":"LPPT","metar":"LPPT 281000Z 12007G17KT 080V160 9999 FEW006 BKN010 20/18 Q1015","updated":"2025-10-28T10:20:25Z"}
