{"icao":"LPCS","metar":"LPCS 051400Z 26010KT 230V290 9999 VCSH FEW005 SCT010 BKN016 17/17 Q1022","updated":"2025-12-05T14:19:50Z"}
