{"icao":"KLAX","metar":"KLAX 141453Z 14010G20KT 6SM -RA BR FEW009 SCT036 OVC049 16/14 A2980 RMK AO2 PK WND 16027/1442 SLP090 P0010 60019 T01610144 53001 $","updated":"2025-10-14T15:20:39Z"}
