{"icao":"LPHR","metar":"LPHR 282000Z 34004KT 300V020 9999 FEW025 BKN035 16/12 Q1022","updated":"2025-10-28T20:21:04Z"}
