{"icao":"KORD","metar":"KORD 261651Z 11009KT 10SM FEW070 14/02 A3035 RMK AO2 SLP280 T01390017 $","updated":"2025-10-26T17:14:18Z"}
