{"icao":"LPFL","metar":"LPFL 021000Z 24004KT 9999 VCSH FEW027 BKN030 14/08 Q1032","updated":"2025-12-02T10:22:03Z"}
