{"icao":"LPAZ","metar":"LPAZ 111430Z 24009KT 4500 BR FEW005 17/15 Q1019","updated":"2026-02-11T14:51:58Z"}
