{"icao":"LPPD","metar":"LPPD 191800Z 02012KT 350V060 9999 FEW025 21/11 Q1024","updated":"2025-09-19T18:24:09Z"}
