{"icao":"KJFK","metar":"KJFK 142051Z 18015KT 10SM FEW060 FEW120 SCT250 19/11 A2985 RMK AO2 SLP107 T01940111 58033","updated":"2026-04-14T21:51:28Z"}
