{"icao":"LPPS","metar":"LPPS 231130Z 07013KT 040V100 8000 -SHRA BKN011 FEW018CB 16/15 Q1012","updated":"2026-03-23T11:41:57Z"}
