{"icao":"LPPR","metar":"LPPR 052300Z 24009KT 210V300 9999 SCT018 FEW025CB BKN048 12/08 Q0997 RESHRA","updated":"2026-02-05T23:21:58Z"}
