{"icao":"LPHR","metar":"LPHR 010800Z 35005KT 250V060 9999 SCT014 BKN030 16/11 Q1006","updated":"2026-01-01T08:28:07Z"}
