{"icao":"LPPR","metar":"LPPR 121100Z 03004KT 350V060 9999 -RA FEW007 SCT012 12/10 Q1015","updated":"2025-12-12T11:18:21Z"}
