{"icao":"KJFK","metar":"KJFK 260051Z 02003KT 10SM FEW060 BKN080 BKN250 13/02 A3037 RMK AO2 SLP283 T01280017","updated":"2025-10-26T01:26:26Z"}
