{"icao":"LPBJ","metar":"LPBJ 100917Z 24014G24KT 4000 1200S -DZ PRFG OVC005 15/14 Q1018","updated":"2026-02-10T09:59:36Z"}
