{"icao":"LPMA","metar":"LPMA 160600Z 31008KT 260V010 9999 SCT015 19/12 Q1019","updated":"2025-11-16T06:26:31Z"}
