{"icao":"LPPT","metar":"LPPT 100700Z 03007KT CAVOK 19/10 Q1020","updated":"2025-10-10T07:16:54Z"}
