{"icao":"KJFK","metar":"KJFK 272151Z 27017G24KT 10SM FEW045 SCT120 SCT180 BKN250 06/M07 A2991 RMK AO2 PK WND 28027/2135 SLP129 T00561072","updated":"2025-11-27T22:17:31Z"}
