{"icao":"KORD","metar":"KORD 311451Z 21014G26KT 10SM FEW050 SCT190 BKN250 20/13 A2975 RMK AO2 PK WND 21026/1442 RAE02 TSE07 SLP069 CB DSNT SW TCU DSNT W P0000 60000 T02000128 56003","updated":"2026-03-31T15:00:25Z"}
