{"icao":"KJFK","metar":"KJFK 291951Z 19025G32KT 10SM FEW090 FEW170 SCT250 09/M02 A3046 RMK AO2 PK WND 19032/1938 SLP313 T00891017 $","updated":"2026-03-29T20:31:48Z"}
