{"icao":"KORD","metar":"KORD 040651Z 35007KT 10SM BKN023 M09/M13 A3031 RMK AO2 SLP276 T10891128","updated":"2026-02-04T07:43:07Z"}
