{"icao":"LPMA","metar":"LPMA 230500Z 02006KT 340V050 9999 SCT015 SCT030 23/18 Q1021","updated":"2025-10-23T05:17:36Z"}
