{"icao":"LPMR","metar":"LPMR 231400Z 27007KT 230V300 9999 SCT020 BKN035 14/12 Q1025","updated":"2025-11-23T14:15:24Z"}
