{"icao":"LPPT","metar":"LPPT 281400Z 26012KT 230V300 9999 SCT025 15/10 Q1004","updated":"2026-01-28T14:28:30Z"}
