{"icao":"LPPT","metar":"LPPT 041500Z 14006G18KT 100V190 CAVOK 21/16 Q1014","updated":"2025-11-04T15:20:18Z"}
