{"icao":"LPPS","metar":"LPPS 171230Z 34012KT 9999 FEW015 21/11 Q1024","updated":"2025-11-17T12:38:55Z"}
