{"icao":"KORD","metar":"KORD 111251Z 35006KT 10SM FEW035 11/07 A3017 RMK AO2 SLP217 T01060072","updated":"2025-10-11T13:20:45Z"}
