{"icao":"KORD","metar":"KORD 211951Z 03016G21KT 10SM FEW110 FEW150 BKN250 14/06 A3026 RMK AO2 SLP246 T01390061","updated":"2026-05-21T19:56:32Z"}
