{"icao":"LPPR","metar":"LPPR 261300Z 01009KT 340V060 CAVOK 15/08 Q1026","updated":"2025-11-26T13:33:33Z"}
