{"icao":"LPFR","metar":"LPFR 292100Z 01014KT CAVOK 17/M01 Q1025","updated":"2026-03-29T21:30:14Z"}
