{"icao":"LPPR","metar":"LPPR 300900Z 10014G24KT CAVOK 21/11 Q1019","updated":"2025-09-30T09:18:49Z"}
