{"icao":"KORD","metar":"KORD 251018Z 17006KT 1 1/4SM -RA BR BKN007 OVC012 08/08 A2980 RMK AO2 PRESRR P0006 T00830078","updated":"2025-11-25T10:22:35Z"}
