{"icao":"KLAX","metar":"KLAX 081701Z 14005KT 9SM OVC015 18/14 A3002 RMK AO2 T01780139","updated":"2026-05-08T17:15:37Z"}
