{"icao":"LPCS","metar":"LPCS 171300Z 36005KT 290V030 CAVOK 24/13 Q1018","updated":"2026-04-17T13:16:52Z"}
