{"icao":"LPAZ","metar":"LPAZ 282130Z 00000KT 9999 SCT019 20/17 Q1028","updated":"2026-06-28T22:00:37Z"}
