{"icao":"KJFK","metar":"KJFK 261451Z 24006KT 10SM SCT020 BKN100 BKN200 23/19 A3005 RMK RAE09B23E39 SLP176 P0000 60000 T02280189 51003 ","updated":"2026-06-26T15:22:32Z"}
