{"icao":"KORD","metar":"KORD 152151Z 07008KT 10SM OVC020 15/11 A3020 RMK AO2 SLP227 T01500106","updated":"2025-10-15T22:15:41Z"}
