{"icao":"KLAX","metar":"KLAX 272053Z 24013KT 10SM FEW016 SCT024 22/14 A2996 RMK AO2 SLP144 T02220139 56006","updated":"2026-06-27T21:01:57Z"}
