{"icao":"KORD","metar":"KORD 171751Z 20010G19KT 7SM -RA FEW050 BKN100 OVC140 13/11 A2949 RMK AO2 PK WND 17039/1700 SLP985 P0004 60048 T01330106 10161 20133 55049","updated":"2026-06-17T18:14:23Z"}
