{"icao":"KORD","metar":"KORD 082051Z 20018G33KT 10SM FEW200 FEW250 21/03 A3002 RMK AO2 PK WND 20034/2008 SLP167 T02110033 58031","updated":"2026-04-08T21:39:33Z"}
