{"icao":"KLAX","metar":"KLAX 130853Z 00000KT 10SM CLR 20/06 A3001 RMK AO2 SLP158 T02000061 55005 $","updated":"2026-03-13T09:37:15Z"}
