{"icao":"LPFL","metar":"LPFL 131030Z 12003KT 070V160 9999 FEW018 17/13 Q1032","updated":"2026-03-13T10:35:15Z"}
