{"icao":"LPBJ","metar":"LPBJ 221700Z 15010KT CAVOK 32/18 Q1015","updated":"2026-06-22T17:39:16Z"}
