{"icao":"LPCS","metar":"LPCS 300900Z 35015KT 320V020 9999 FEW002 21/17 Q1021","updated":"2026-06-30T09:31:52Z"}
