{"icao":"LPPD","metar":"LPPD 302300Z 04009KT 010V070 9999 FEW014 BKN020 20/17 Q1032","updated":"2026-06-30T23:10:37Z"}
