{"icao":"LPMT","metar":"LPMT 120700Z 17017G27KT 9999 FEW015 19/15 Q1004","updated":"2025-11-12T07:18:17Z"}
