{"icao":"LPPR","metar":"LPPR 142000Z 12004KT 070V140 CAVOK 12/10 Q1017","updated":"2025-12-14T20:20:07Z"}
