{"icao":"LPHR","metar":"LPHR 121400Z 07009KT 350V120 9999 SCT020 17/10 Q1028","updated":"2026-05-12T14:22:09Z"}
