{"icao":"KLAX","metar":"KLAX 210353Z 24009KT 10SM FEW015 FEW030 17/14 A2993 RMK AO2 SLP133 FU FEW030 T01720139","updated":"2026-06-21T04:04:41Z"}
