{"icao":"KORD","metar":"KORD 090251Z 08012KT 6SM -RA BR OVC017 05/03 A2985 RMK AO2 SLP110 P0007 60018 T00500028 53001 $","updated":"2025-11-09T03:11:50Z"}
