{"icao":"LPMA","metar":"LPMA 261700Z 23015G27KT 190V260 9999 BKN016 18/12 Q1016","updated":"2026-01-26T17:28:38Z"}
