{"icao":"LPPT","metar":"LPPT 231330Z 29004KT 260V320 9999 VCSH FEW012 SCT018 FEW020CB 14/13 Q1010 RESHRA WS R02","updated":"2025-12-23T13:34:50Z"}
