{"icao":"LPMT","metar":"LPMT 210300Z VRB02KT CAVOK 14/12 Q1020","updated":"2026-05-21T03:34:10Z"}
