{"icao":"LPPR","metar":"LPPR 212200Z 35008KT CAVOK 14/08 Q1023","updated":"2025-09-21T22:15:06Z"}
