{"icao":"KJFK","metar":"KJFK 071351Z 16006KT 1 1/4SM -DZ BR OVC003 03/03 A3027 RMK AO2 TWR VIS 1 1/2 SLP249 P0000 T00330033","updated":"2026-03-07T14:23:16Z"}
