{"icao":"LPOV","metar":"LPOV 111700Z 16012KT 130V190 9999 BKN028 20/13 Q1007","updated":"2025-11-11T17:16:48Z"}
