{"icao":"LPFR","metar":"LPFR 261000Z 22003KT 160V260 CAVOK 14/06 Q1024","updated":"2025-11-26T10:21:26Z"}
