{"icao":"LPOV","metar":"LPOV 271500Z 34010KT 9999 FEW035 FEW040CB 22/15 Q1013","updated":"2026-04-27T15:46:45Z"}
