{"icao":"LPMR","metar":"LPMR 150600Z 19012KT 7000 -SHRA SCT018 FEW020CB OVC025 15/13 Q1004","updated":"2025-11-15T06:25:28Z"}
