{"icao":"KORD","metar":"KORD 161721Z 23010KT 7SM -SN OVC010 00/M02 A2951 RMK AO2 SNE03B19 P0000 T00001022 $","updated":"2026-01-16T17:23:59Z"}
