{"icao":"LPPS","metar":"LPPS 170300Z 30019G31KT 9999 -RA BKN010 FEW016TCU 14/12 Q1022","updated":"2026-01-17T03:21:23Z"}
