{"icao":"KJFK","metar":"KJFK 160751Z 27006KT 10SM SCT042 BKN050 OVC110 11/08 A2921 RMK AO2 RAE15 SLP890 P0000 T01060078 $","updated":"2025-11-16T08:22:04Z"}
