{"icao":"KJFK","metar":"KJFK 240351Z 29012KT 10SM SCT060 12/03 A3004 RMK AO2 SLP170 T01170033","updated":"2025-10-24T04:21:24Z"}
