{"icao":"LPPS","metar":"LPPS 121400Z 29008KT 250V010 9999 FEW015 19/12 Q1022","updated":"2026-05-12T14:22:13Z"}
