{"icao":"LPMA","metar":"LPMA 141900Z 23008KT 210V270 9999 FEW015 20/14 Q1013","updated":"2025-11-14T19:14:36Z"}
