{"icao":"LPPR","metar":"LPPR 091630Z 30003KT 250V350 9999 FEW012 SCT020 11/09 Q1018","updated":"2026-03-09T16:59:34Z"}
