{"icao":"LPPT","metar":"LPPT 151600Z 29008KT 250V340 9999 FEW022 BKN029 14/09 Q1030","updated":"2026-02-15T16:28:40Z"}
