{"icao":"LPMA","metar":"LPMA 131400Z 02023KT 350V050 9999 FEW015 26/18 Q1022","updated":"2025-09-13T14:12:55Z"}
