{"icao":"KJFK","metar":"KJFK 041051Z 30014G26KT 10SM FEW250 09/01 A3002 RMK AO2 PK WND 30026/1044 SLP166 T00940006 $","updated":"2025-11-04T11:17:02Z"}
