{"icao":"KORD","metar":"KORD 270251Z 36006KT 10SM FEW015 20/13 A2988 RMK AO2 SLP115 T02000128 53007 $","updated":"2025-09-27T03:26:03Z"}
