{"icao":"LPOV","metar":"LPOV 241100Z 19009KT 160V220 9999 FEW018 15/11 Q1018","updated":"2026-02-24T11:39:19Z"}
