{"icao":"LPBJ","metar":"LPBJ 150300Z VRB02KT 0500 FG VV002 09/09 Q1021","updated":"2026-01-15T03:39:46Z"}
