{"icao":"LPMR","metar":"LPMR 110600Z 15005KT CAVOK 19/11 Q1020","updated":"2025-10-11T06:23:21Z"}
