{"icao":"LPBJ","metar":"LPBJ 121800Z 34005KT CAVOK 20/07 Q1023","updated":"2026-03-12T18:52:25Z"}
