{"icao":"LPFL","metar":"LPFL 010730Z 30014G26KT 240V360 9999 SCT020 14/06 Q1005","updated":"2026-02-01T07:36:17Z"}
