{"icao":"LPFR","metar":"LPFR 112200Z 35002KT CAVOK 10/08 Q1026","updated":"2026-01-11T22:18:21Z"}
