{"icao":"LPAR","metar":"LPAR 021300Z 25014G24KT 210V310 8000 -SHRA SCT020 SCT022CB BKN035 12/07 Q0999","updated":"2026-02-02T14:03:35Z"}
