{"icao":"LPLA","metar":"LPLA 101900Z 32006KT 290V350 9999 FEW018 BKN025 22/18 Q1021","updated":"2025-10-10T19:13:46Z"}
