{"icao":"KJFK","metar":"KJFK 081251Z 19009KT 1/8SM R04R/1000FT FG VV002 07/07 A2982 RMK AO2 SLP098 T00670067","updated":"2026-03-08T13:38:47Z"}
