{"icao":"KLAX","metar":"KLAX 131453Z 21004KT 6SM HZ BKN009 19/16 A2989 RMK AO2 SLP118 T01890161 51007 $","updated":"2026-06-13T14:59:22Z"}
