{"icao":"LPMT","metar":"LPMT 222100Z 12001KT CAVOK 11/09 Q1026","updated":"2026-02-22T21:22:54Z"}
