{"icao":"LPFL","metar":"LPFL 281000Z VRB05G15KT 4500 RA BR FEW005 BKN008 BKN012 15/14 Q1010","updated":"2025-12-28T10:19:14Z"}
