{"icao":"LPMT","metar":"LPMT 200500Z VRB03KT CAVOK 05/05 Q1029","updated":"2026-02-20T05:52:27Z"}
