{"icao":"LPPD","metar":"LPPD 310330Z 23013KT 8000 SCT007 BKN030 17/15 Q1017","updated":"2026-01-31T04:05:15Z"}
