{"icao":"LPAZ","metar":"LPAZ 031700Z 20007KT 160V230 9999 FEW016 25/21 Q1023","updated":"2025-10-03T17:14:41Z"}
