{"icao":"LPOV","metar":"LPOV 151800Z 36015KT CAVOK 14/12 Q1020","updated":"2026-03-15T18:37:14Z"}
