{"icao":"LPPD","metar":"LPPD 030400Z VRB02KT 9999 FEW018 21/19 Q1022","updated":"2025-10-03T04:20:14Z"}
