{"icao":"LPPR","metar":"LPPR 091530Z 33017G27KT CAVOK 20/11 Q1020","updated":"2026-06-09T15:53:15Z"}
