{"icao":"LPAZ","metar":"LPAZ 202300Z 25013KT 9999 FEW021 16/13 Q1016","updated":"2026-05-20T23:12:01Z"}
