{"icao":"KJFK","metar":"KJFK 070651Z 03005KT 1/2SM R04R/4500V5000FT -DZ BR OVC002 03/03 A2966 RMK AO2 SFC VIS 1 1/4 SLP043 P0001 T00330033 $","updated":"2026-01-07T07:24:04Z"}
