{"icao":"LPPR","metar":"LPPR 012000Z 10010KT 9999 SCT048 11/06 Q1007","updated":"2026-01-01T20:22:20Z"}
