{"icao":"LPMR","metar":"LPMR 230600Z 15001KT 120V180 CAVOK 07/06 Q1018","updated":"2025-09-23T06:26:55Z"}
