{"icao":"LPMT","metar":"LPMT 011900Z 22011KT 190V250 4000 -RADZ BR BKN006 BKN016 14/14 Q1007","updated":"2026-02-01T19:23:10Z"}
