{"icao":"KJFK","metar":"KJFK 041951Z 31012KT 10SM BKN043 01/M09 A3007 RMK AO2 SLP182 T00111089 $","updated":"2026-01-04T20:21:21Z"}
