{"icao":"LPPR","metar":"LPPR 021600Z 25010KT 200V310 6000 SHRA FEW016 SCT020CB BKN030 11/08 Q1014","updated":"2025-12-02T16:27:04Z"}
