{"icao":"LPBJ","metar":"LPBJ 180500Z 09004KT 070V130 CAVOK 11/10 Q1016","updated":"2026-04-18T05:05:07Z"}
