{"icao":"LPST","metar":"LPST 101100Z 26016KT 1500 -DZ BR BKN003 BKN012 16/15 Q1016","updated":"2026-02-10T13:10:48Z"}
