{"icao":"LPPD","metar":"LPPD 171300Z 17006KT 130V190 7000 -RA SCT006 SCT012 BKN025 18/17 Q1025","updated":"2025-11-17T13:30:47Z"}
