{"icao":"KJFK","metar":"KJFK 090451Z 24008KT 10SM SCT250 17/09 A3029 RMK AO2 SLP256 T01670089 402280161 $","updated":"2026-06-09T05:04:16Z"}
