{"icao":"LPPS","metar":"LPPS 051500Z 04014G25KT 360V080 9999 SCT015 SCT030 16/09 Q1020","updated":"2026-01-05T15:22:52Z"}
