{"icao":"KORD","metar":"KORD 202151Z 20005KT 10SM -RA FEW050 FEW070 BKN140 BKN250 23/18 A3001 RMK AO2 LTG DSNT SW AND NW RAB09 SLP160 P0000 T02280178","updated":"2025-09-20T22:14:48Z"}
