{"icao":"KJFK","metar":"KJFK 162351Z 19017KT 10SM FEW065 BKN250 19/13 A2984 RMK AO2 PK WND 20026/2326 SLP103 T01890133 10239 20189 53003","updated":"2026-06-17T00:14:48Z"}
