{"icao":"LPOV","metar":"LPOV 251900Z 34009KT 9999 FEW025 17/15 Q1016","updated":"2026-04-25T19:42:18Z"}
