{"icao":"LPHR","metar":"LPHR 171130Z 05009KT 020V090 9999 FEW012 SCT035 BKN080 16/11 Q1018","updated":"2026-04-17T11:51:21Z"}
