{"icao":"LPOV","metar":"LPOV 071700Z 33006KT 290V360 9999 SCT014 17/15 Q1015","updated":"2025-11-07T17:16:19Z"}
