{"icao":"KLAX","metar":"KLAX 310453Z 00000KT 10SM CLR 18/16 A2993 RMK AO2 SLP132 T01830156 $","updated":"2025-10-31T05:19:25Z"}
