{"icao":"LPPD","metar":"LPPD 250100Z 31004KT 9999 FEW025 16/13 Q1028","updated":"2025-11-25T01:24:25Z"}
