{"icao":"KJFK","metar":"KJFK 252330Z 10014G21KT 4SM RA BR SCT008 BKN013 OVC025 05/04 A3002 RMK P0009 T00500039 ","updated":"2026-04-25T23:36:42Z"}
