{"icao":"LPPR","metar":"LPPR 110500Z 17012KT 9999 -DZ SCT004 BKN006 11/11 Q1024","updated":"2026-01-11T05:23:47Z"}
