{"icao":"LPFR","metar":"LPFR 071700Z 36004KT 330V090 9999 FEW020 14/10 Q1026","updated":"2026-01-07T17:24:43Z"}
