{"icao":"KORD","metar":"KORD 101051Z 34015G23KT 10SM -SN FEW016 BKN039 BKN055 M04/M06 A3018 RMK AO2 SLP228 P0001 T10391061 $","updated":"2025-11-10T11:16:47Z"}
