{"icao":"LPCS","metar":"LPCS 281100Z 35019G30KT 9999 FEW018 14/06 Q1026","updated":"2026-02-28T11:17:44Z"}
