{"icao":"LPFL","metar":"LPFL 161400Z 18016KT 9999 -RA FEW009 SCT015 18/17 Q1018","updated":"2025-11-16T14:15:17Z"}
