{"icao":"KORD","metar":"KORD 141851Z 29009KT 10SM FEW020 FEW250 M13/M21 A3058 RMK AO2 SLP374 T11331211","updated":"2025-12-14T19:14:46Z"}
