{"icao":"LPMA","metar":"LPMA 232100Z 04006KT 010V070 9999 SCT015 23/19 Q1021","updated":"2025-10-23T21:15:41Z"}
