{"icao":"LPMT","metar":"LPMT 051200Z 34006KT 310V020 9999 FEW025 15/10 Q1018","updated":"2026-03-05T12:57:47Z"}
