{"icao":"LPBJ","metar":"LPBJ 211400Z 03011KT CAVOK 15/01 Q1025","updated":"2025-11-21T14:17:55Z"}
