{"icao":"KORD","metar":"KORD 290951Z 07011G22KT 10SM BKN250 09/04 A3001 RMK AO2 SLP165 T00940039","updated":"2025-10-29T10:20:40Z"}
