{"icao":"LPHR","metar":"LPHR 290900Z 24016KT 9999 FEW016 SCT040 18/15 Q1018","updated":"2025-10-29T09:19:33Z"}
