{"icao":"LPMT","metar":"LPMT 310600Z 04005KT 0100 FG VV002 05/05 Q1018","updated":"2025-12-31T06:31:53Z"}
