{"icao":"KLAX","metar":"KLAX 091053Z 12003KT 10SM FEW250 15/08 A3006 RMK AO2 SLP175 T01500083 $","updated":"2026-02-09T11:43:01Z"}
