{"icao":"LPPT","metar":"LPPT 220300Z 23007KT 9999 SCT006 BKN011 20/19 Q1017","updated":"2025-10-22T03:09:34Z"}
