{"icao":"LPMT","metar":"LPMT 261900Z 01005KT CAVOK 12/07 Q1024","updated":"2025-11-26T19:14:28Z"}
