{"icao":"LPAR","metar":"LPAR 050900Z 01012KT 350V050 CAVOK 09/M02 Q1013","updated":"2026-01-05T09:30:33Z"}
