{"icao":"LPPT","metar":"LPPT 220700Z 27003KT 230V310 9999 FEW030 BKN046 11/08 Q1009","updated":"2026-01-22T07:26:05Z"}
