{"icao":"KJFK","metar":"KJFK 152051Z 10012KT 10SM FEW055 FEW070 BKN250 23/16 A3023 RMK AO2 SLP235 T02280156 55001 $","updated":"2025-09-15T21:15:05Z"}
