{"icao":"LPLA","metar":"LPLA 210900Z 29020KT 7000 -RADZ SCT006 BKN015 17/16 Q1020","updated":"2026-01-21T09:31:03Z"}
