{"icao":"LPPR","metar":"LPPR 032200Z 03005KT CAVOK 12/10 Q1016","updated":"2026-03-03T22:27:43Z"}
