{"icao":"LPPS","metar":"LPPS 292000Z 36010KT 9999 SCT015 18/13 Q1022","updated":"2025-11-29T20:20:10Z"}
