{"icao":"KORD","metar":"KORD 242151Z 35007KT 10SM FEW046 FEW250 25/08 A3002 RMK AO2 SLP161 T02500078 $","updated":"2026-05-24T21:56:19Z"}
