{"icao":"LPLA","metar":"LPLA 180700Z 35024KT 9999 SCT025 BKN030 09/02 Q1016","updated":"2026-03-18T07:51:39Z"}
