{"icao":"LPMR","metar":"LPMR 020800Z 36004KT 5000 BR BKN006 SCT022 12/11 Q1022","updated":"2026-04-02T08:54:51Z"}
