{"icao":"LPPR","metar":"LPPR 281100Z 06003KT CAVOK 12/05 Q1016","updated":"2025-12-28T11:16:18Z"}
