{"icao":"LPAZ","metar":"LPAZ 261230Z 33012KT 9999 FEW010 SCT023 BKN030 16/14 Q1024","updated":"2025-12-26T12:39:26Z"}
