{"icao":"LPOV","metar":"LPOV 062200Z 36011KT CAVOK 11/04 Q1019","updated":"2026-03-06T22:27:19Z"}
