{"icao":"KORD","metar":"KORD 160751Z 26007KT 10SM SCT042 BKN070 OVC180 19/12 A2979 RMK AO2 SLP083 T01940122","updated":"2026-05-16T08:02:40Z"}
