{"icao":"KORD","metar":"KORD 101451Z 21010KT 10SM BKN075 BKN140 BKN250 15/05 A3020 RMK AO2 SLP226 T01500050 58010","updated":"2025-10-10T15:18:18Z"}
