{"icao":"KLAX","metar":"KLAX 180853Z 05006KT 10SM CLR 16/11 A2996 RMK AO2 SLP144 T01610111 50002","updated":"2026-04-18T09:47:10Z"}
