{"icao":"LPBJ","metar":"LPBJ 301700Z 05008KT CAVOK 29/11 Q1017","updated":"2025-09-30T17:15:49Z"}
