{"icao":"LPPR","metar":"LPPR 032000Z 06004KT CAVOK 14/09 Q1001","updated":"2026-01-03T20:20:52Z"}
