{"icao":"KJFK","metar":"KJFK 211751Z 20015KT 10SM SCT170 BKN250 M02/M12 A3048 RMK SLP321 T10221117 11017 21089 58029 $ ","updated":"2026-01-21T18:41:17Z"}
