{"icao":"LPPI","metar":"LPPI 291730Z 35005KT 290V030 9999 FEW024 22/16 Q1030","updated":"2026-06-29T17:35:09Z"}
