{"icao":"LPMR","metar":"LPMR 130700Z 12002KT 9999 FEW020 FEW022TCU 12/12 Q1020","updated":"2026-05-13T07:48:03Z"}
