{"icao":"LPPT","metar":"LPPT 190430Z 30005KT 280V340 9999 SCT028 SCT045 11/08 Q1025","updated":"2026-02-19T04:50:49Z"}
