{"icao":"LPAZ","metar":"LPAZ 261800Z 21006KT 9000 VCSH SCT004 BKN017 17/16 Q1023","updated":"2025-11-26T18:23:41Z"}
