{"icao":"LPPS","metar":"LPPS 062000Z 05006KT 350V080 9999 FEW012 SCT030 21/18 Q1022","updated":"2025-10-06T20:19:22Z"}
