{"icao":"LPPR","metar":"LPPR 172100Z 02007KT CAVOK 14/10 Q1019","updated":"2025-11-17T21:17:02Z"}
