{"icao":"KJFK","metar":"KJFK 221151Z 09013G22KT 10SM -RA BKN009 OVC048 02/01 A3009 RMK AO2 RAB48 SLP189 P0000 60000 T00220011 10028 20022 50000 $","updated":"2026-02-22T12:47:24Z"}
