{"icao":"LPFR","metar":"LPFR 271830Z 26008KT CAVOK 16/09 Q1014","updated":"2026-03-27T18:54:09Z"}
