{"icao":"LPCS","metar":"LPCS 051630Z 23008KT 200V270 CAVOK 23/06 Q1019","updated":"2026-04-05T16:35:10Z"}
