{"icao":"LPPS","metar":"LPPS 281300Z 24008KT 190V320 9999 FEW015 25/14 Q1011","updated":"2025-10-28T13:29:49Z"}
