{"icao":"LPPR","metar":"LPPR 101230Z 18013KT 9999 SCT009 BKN011 BKN035 17/15 Q1017","updated":"2025-11-10T12:38:34Z"}
