{"icao":"KJFK","metar":"KJFK 220951Z 22009KT 10SM BKN018 OVC023 15/13 A2972 RMK AO2 SLP062 T01500133","updated":"2025-10-22T10:20:22Z"}
