{"icao":"LPPS","metar":"LPPS 200530Z 11006KT 9999 SCT008 17/16 Q1005","updated":"2026-04-20T05:39:53Z"}
