{"icao":"LPMT","metar":"LPMT 231400Z 27005KT 220V290 9999 FEW025 BKN033 16/11 Q1025","updated":"2025-11-23T14:15:24Z"}
