{"icao":"KLAX","metar":"KLAX 201653Z 08005KT 10SM FEW011 FEW025 21/11 A3007 RMK AO2 SLP181 T02060106 $","updated":"2025-10-20T17:16:27Z"}
