{"icao":"LPPD","metar":"LPPD 101000Z 25014G24KT 9000 -SHRA SCT014 BKN030 16/15 Q1020","updated":"2025-11-10T10:21:44Z"}
