{"icao":"KJFK","metar":"KJFK 272251Z 24013KT 10SM FEW140 FEW210 BKN250 25/17 A2975 RMK AO2 SLP073 T02500167 $","updated":"2026-05-27T23:15:55Z"}
