{"icao":"LPBJ","metar":"LPBJ 192100Z 24006KT CAVOK 19/16 Q1015","updated":"2025-10-19T21:14:36Z"}
