{"icao":"LPMA","metar":"LPMA 202000Z 02010KT 9999 SCT016 SCT030 16/09 Q1026","updated":"2026-02-20T20:30:15Z"}
