{"icao":"LPHR","metar":"LPHR 281000Z 13010KT 9999 FEW018 SCT030 21/16 Q1028","updated":"2025-09-28T10:16:07Z"}
