{"icao":"LPPT","metar":"LPPT 131400Z 27008KT 240V300 9999 FEW014 SCT020 14/11 Q1010","updated":"2026-01-13T14:24:17Z"}
