{"icao":"LPMR","metar":"LPMR 101100Z 13008KT CAVOK 27/08 Q1013","updated":"2026-04-10T11:47:14Z"}
