{"icao":"KLAX","metar":"KLAX 131853Z 23011KT 10SM FEW025 FEW060 SCT100 17/09 A3007 RMK AO2 SLP182 T01720089 $","updated":"2026-04-13T19:23:21Z"}
