{"icao":"LPCS","metar":"LPCS 251230Z 07004KT 030V110 9999 SCT018 BKN030 11/07 Q1010","updated":"2025-12-25T12:39:20Z"}
