{"icao":"LPPT","metar":"LPPT 241700Z 26013KT 240V300 8000 -RADZ FEW006 BKN010 17/16 Q1016 RERA","updated":"2025-11-24T17:17:46Z"}
