{"icao":"LPHR","metar":"LPHR 230700Z 02008KT 9999 FEW014 SCT030 13/07 Q1023","updated":"2026-03-23T07:08:18Z"}
