{"icao":"LPPT","metar":"LPPT 111000Z 08003KT 050V180 2000 0700NE -DZ BR PRFG FEW001 BKN003 10/10 Q1027","updated":"2026-01-11T10:19:47Z"}
