{"icao":"LPMA","metar":"LPMA 191100Z 32009G20KT 260V050 9999 SCT014 FEW016TCU 19/13 Q1012","updated":"2026-04-19T11:34:05Z"}
