{"icao":"LPPS","metar":"LPPS 240700Z 05016KT 9999 SCT014 SCT030 16/13 Q1015","updated":"2026-03-24T07:15:53Z"}
