{"icao":"KLAX","metar":"KLAX 281553Z 09004KT 10SM FEW180 SCT240 BKN280 18/13 A2991 RMK AO2 SLP127 T01780133","updated":"2026-02-28T16:25:35Z"}
