{"icao":"LPMR","metar":"LPMR 310600Z 18012KT 7000 -RA BKN030 BKN045 17/16 Q1011","updated":"2025-10-31T06:27:36Z"}
