{"icao":"KJFK","metar":"KJFK 070851Z 00000KT 10SM SCT250 02/M01 A3015 RMK AO2 SLP209 T00221006 56007 $","updated":"2025-11-07T09:19:07Z"}
