{"icao":"LPPR","metar":"LPPR 280400Z 05013KT 9000 -RA SCT018 BKN032 18/17 Q1004 RERA","updated":"2025-09-28T04:20:16Z"}
