{"icao":"LPOV","metar":"LPOV 172200Z 18008KT 160V220 9999 SCT006 SCT018 BKN035 12/11 Q1023","updated":"2026-02-17T22:29:34Z"}
