{"icao":"KJFK","metar":"KJFK 060351Z 23007KT 10SM OVC031 03/M02 A3003 RMK AO2 SLP170 T00281017 $","updated":"2026-01-06T04:38:56Z"}
