{"icao":"LPHR","metar":"LPHR 171030Z 32015G26KT 280V340 9999 SCT016 11/03 Q1018","updated":"2026-03-17T10:50:36Z"}
