{"icao":"LPMT","metar":"LPMT 041000Z 18004KT 6000 -RADZ SCT007 BKN022 13/13 Q0997 RERADZ","updated":"2026-02-04T10:36:49Z"}
