{"icao":"LPFR","metar":"LPFR 150600Z 03004KT CAVOK 07/07 Q1020","updated":"2026-01-15T06:31:57Z"}
