{"icao":"LPFR","metar":"LPFR 080800Z 34003KT 280V040 CAVOK 20/12 Q1021","updated":"2025-10-08T08:24:01Z"}
