{"icao":"LPBJ","metar":"LPBJ 091600Z 24018KT 9999 FEW023 FEW025CB SCT035 20/10 Q1007","updated":"2026-05-09T16:53:26Z"}
