{"icao":"LPAR","metar":"LPAR 071200Z 24015KT 9000 4000W -RA BR SCT016 BKN029 20/16 Q1015","updated":"2025-11-07T12:37:03Z"}
