{"icao":"KJFK","metar":"KJFK 012251Z 32014G24KT 10SM FEW060 M04/M17 A2988 RMK AO2 SLP116 T10441172 $","updated":"2026-01-01T23:18:58Z"}
