{"icao":"LPHR","metar":"LPHR 141000Z VRB02KT 9999 FEW018 15/10 Q1008","updated":"2025-11-14T10:20:58Z"}
