{"icao":"LPBJ","metar":"LPBJ 171600Z 30011KT 9999 SCT045 21/10 Q1016","updated":"2026-05-17T17:02:50Z"}
