{"icao":"KLAX","metar":"KLAX 261353Z 07004KT 10SM FEW120 SCT160 BKN220 11/03 A3024 RMK AO2 SLP237 T01110028 $","updated":"2026-01-26T14:27:49Z"}
