{"icao":"LPAR","metar":"LPAR 071700Z 36005KT 320V030 9999 FEW015 SCT028 19/15 Q1015","updated":"2025-11-08T04:20:14Z"}
