{"icao":"LPPT","metar":"LPPT 301500Z 26007KT 220V280 9999 VCSH FEW015 BKN024 18/16 Q1014","updated":"2025-10-30T15:20:00Z"}
