{"icao":"LPPT","metar":"LPPT 071630Z 16009KT 140V200 9999 FEW016 FEW020CB BKN030 12/09 Q1014","updated":"2026-04-07T16:56:59Z"}
