{"icao":"KJFK","metar":"KJFK 100551Z 29008KT 8SM BKN012 BKN020 OVC250 11/09 A3012 RMK AO2 SLP199 60000 T01110089 10122 20072 51012 $","updated":"2026-01-10T06:29:49Z"}
