{"icao":"LPMT","metar":"LPMT 150900Z 19004KT 9999 BKN045 13/09 Q1019","updated":"2026-01-15T09:27:10Z"}
