{"icao":"LPMT","metar":"LPMT 300700Z 22007KT 9999 SCT030 13/12 Q1013","updated":"2026-01-30T07:38:41Z"}
