{"icao":"LPLA","metar":"LPLA 220927Z 30021KT 7000 -RADZ SCT009 BKN014 BKN020 15/13 Q1014","updated":"2026-01-22T09:31:15Z"}
