{"icao":"LPAZ","metar":"LPAZ 031830Z 11006KT 9999 FEW026 OVC034 15/08 Q1023","updated":"2026-04-03T18:44:56Z"}
