{"icao":"LPMT","metar":"LPMT 162100Z 35006KT CAVOK 15/11 Q1019","updated":"2026-04-16T21:41:35Z"}
