{"icao":"LPAR","metar":"LPAR 111100Z 16013KT 9000 VCFG SCT012 SCT030 18/16 Q1013","updated":"2025-11-11T11:16:21Z"}
