{"icao":"LPOV","metar":"LPOV 150800Z 01007KT CAVOK 10/07 Q1021","updated":"2026-03-15T08:34:49Z"}
