{"icao":"LPMT","metar":"LPMT 032000Z 24003KT CAVOK 15/12 Q1020","updated":"2025-11-03T20:20:34Z"}
