{"icao":"LPMT","metar":"LPMT 120100Z 17005KT 150V210 9999 SCT015 BKN020 13/13 Q1024","updated":"2026-01-12T01:45:37Z"}
