{"icao":"KLAX","metar":"KLAX 240153Z 25009KT 10SM FEW250 17/10 A3009 RMK AO2 SLP189 T01670100","updated":"2026-02-24T02:00:34Z"}
