{"icao":"KLAX","metar":"KLAX 171053Z 06005KT 9SM SCT024 16/12 A2981 RMK AO2 SLP093 T01560122","updated":"2026-05-17T11:04:32Z"}
