{"icao":"KORD","metar":"KORD 031951Z 03011KT 10SM BKN028 M02/M09 A3020 RMK AO2 SLP236 T10221089","updated":"2026-02-03T20:34:30Z"}
