{"icao":"LPPS","metar":"LPPS 080800Z 03009KT 9999 SCT014 21/17 Q1022","updated":"2025-11-08T08:21:56Z"}
