{"icao":"KORD","metar":"KORD 151151Z 27009KT 7SM RA SCT055 BKN070 OVC090 18/16 A2980 RMK AO2 SLP088 P0005 60005 70227 T01780156 10206 20178 53030","updated":"2026-04-15T11:58:11Z"}
