{"icao":"LPCS","metar":"LPCS 182000Z 26005KT 220V310 CAVOK 20/18 Q1016","updated":"2025-10-18T22:15:26Z"}
