{"icao":"LPPR","metar":"LPPR 050800Z 01005KT 330V060 9999 FEW005 13/11 Q1023","updated":"2025-10-05T08:19:46Z"}
