{"icao":"LPMA","metar":"LPMA 141600Z 36012KT 330V030 9999 BKN015 18/13 Q1023","updated":"2026-03-14T16:30:23Z"}
