{"icao":"LPPD","metar":"LPPD 261800Z 05014G25KT 020V080 9999 SCT017 FEW020TCU BKN030 17/14 Q1019","updated":"2025-10-26T18:23:39Z"}
