{"icao":"LPBJ","metar":"LPBJ 191800Z 14006KT CAVOK 26/06 Q1014","updated":"2026-04-19T18:49:40Z"}
