{"icao":"LPFR","metar":"LPFR 072130Z 21003KT 170V240 9999 FEW020 11/08 Q1017","updated":"2026-04-07T21:40:09Z"}
