{"icao":"LPPR","metar":"LPPR 102130Z 35006KT CAVOK 18/12 Q1020","updated":"2026-06-10T22:01:59Z"}
