{"icao":"LPLA","metar":"LPLA 070600Z 32017KT 9999 SCT008 BKN018 BKN030 14/13 Q1011","updated":"2026-05-07T06:09:08Z"}
