{"icao":"LPMR","metar":"LPMR 230500Z 18003KT 150V220 7000 FEW012 10/10 Q1011","updated":"2025-12-23T05:22:47Z"}
