{"icao":"LPMR","metar":"LPMR 280500Z 00000KT 0500 FG VV002 15/14 Q1009","updated":"2026-04-28T05:58:10Z"}
