{"icao":"LPPD","metar":"LPPD 052200Z 28028KT 9999 FEW025 13/06 Q1010","updated":"2026-02-05T22:25:11Z"}
