{"icao":"KJFK","metar":"KJFK 252351Z 19005KT 10SM FEW044 FEW210 BKN250 18/16 A3007 RMK AO2 SLP182 T01780161 10206 20172 53006 $","updated":"2026-05-26T00:04:23Z"}
