{"icao":"LPMA","metar":"LPMA 210730Z 34013KT 290V020 9999 VCSH SCT015 16/11 Q1008","updated":"2026-04-21T07:48:08Z"}
