{"icao":"LPPD","metar":"LPPD 031700Z 22006KT 190V250 9999 FEW016 24/20 Q1024","updated":"2025-10-03T17:14:40Z"}
