{"icao":"KJFK","metar":"KJFK 120951Z 05016KT 10SM FEW038 BKN065 BKN100 BKN130 BKN250 17/11 A3006 RMK AO2 PK WND 06029/0925 SLP180 T01670111","updated":"2025-10-12T10:16:38Z"}
