{"icao":"LPFR","metar":"LPFR 082300Z 30007KT CAVOK 17/13 Q1021","updated":"2025-10-08T23:15:29Z"}
