{"icao":"KLAX","metar":"KLAX 032053Z 27011KT 10SM FEW060 SCT120 BKN160 BKN250 22/14 A3000 RMK AO2 SLP157 T02220139 58004 $","updated":"2026-04-03T21:32:59Z"}
