{"icao":"KLAX","metar":"KLAX 191353Z 08004KT 10SM SCT280 16/10 A3001 RMK AO2 SLP160 T01610100 $","updated":"2025-10-19T14:15:10Z"}
