{"icao":"KORD","metar":"KORD 192151Z 02010KT 10SM OVC018 09/01 A2955 RMK AO2 SLP008 T00890006 $","updated":"2026-02-19T22:30:09Z"}
