{"icao":"LPMT","metar":"LPMT 290800Z 23006KT 200V270 9999 SCT014 BKN019 16/13 Q1008","updated":"2026-04-29T09:07:51Z"}
