{"icao":"KLAX","metar":"KLAX 131453Z 10010KT 8SM FEW028 BKN037 BKN044 17/13 A2975 RMK AO2 SLP073 T01720128 51013 $","updated":"2025-10-13T15:18:39Z"}
