{"icao":"KJFK","metar":"KJFK 250851Z 05009KT 10SM BKN080 OVC150 M11/M21 A3062 RMK AO2 SLP367 T11061206 57019 $","updated":"2026-01-25T09:20:21Z"}
