{"icao":"LPMA","metar":"LPMA 090900Z 03006KT 350V060 9999 SCT015 21/14 Q1023","updated":"2025-11-09T09:16:21Z"}
