{"icao":"LPBJ","metar":"LPBJ 072000Z 29006KT 9999 BKN008 SCT022 16/16 Q1018","updated":"2025-11-07T20:18:18Z"}
