{"icao":"LPMT","metar":"LPMT 181300Z 21005KT 170V250 9000 SCT020 16/12 Q1021","updated":"2025-12-18T13:35:18Z"}
