{"icao":"LPAR","metar":"LPAR 221700Z 23012KT 3000 RA BR BKN009 BKN018 14/13 Q1003","updated":"2026-01-22T19:23:51Z"}
