{"icao":"KJFK","metar":"KJFK 011551Z 29013G24KT 10SM SCT050 BKN060 BKN250 14/00 A2993 RMK AO2 SLP134 T01390000 $","updated":"2025-11-01T16:19:22Z"}
