{"icao":"LPHR","metar":"LPHR 131500Z 30019KT 270V330 9999 -SHRA FEW025 SCT030 15/12 Q1007","updated":"2025-11-13T15:21:17Z"}
