{"icao":"LPMA","metar":"LPMA 141500Z 15006KT 100V270 9999 SCT015 23/17 Q1015","updated":"2025-10-14T15:20:26Z"}
