{"icao":"LPPD","metar":"LPPD 020530Z 35014KT 320V020 9999 SCT020 11/04 Q1028","updated":"2026-03-02T05:51:34Z"}
