{"icao":"LPMA","metar":"LPMA 180430Z 35016G30KT 280V060 9999 BKN015 FEW018TCU 18/13 Q1013","updated":"2026-01-18T04:40:32Z"}
