{"icao":"LPBJ","metar":"LPBJ 221000Z 09007KT 060V120 CAVOK 09/01 Q1030","updated":"2025-11-22T10:17:46Z"}
