{"icao":"LPMT","metar":"LPMT 131800Z 32007KT CAVOK 25/12 Q1015","updated":"2025-10-13T18:24:53Z"}
