{"icao":"LPAZ","metar":"LPAZ 102100Z 05004KT 9999 BKN030 11/07 Q1034","updated":"2026-03-10T21:27:33Z"}
