{"icao":"LPHR","metar":"LPHR 260700Z 04004KT 010V080 9999 FEW005 BKN010 BKN020 14/14 Q1019","updated":"2026-04-26T07:27:06Z"}
