{"icao":"LPAR","metar":"LPAR 251000Z 06008KT 040V100 CAVOK 23/03 Q1018","updated":"2025-09-25T10:18:32Z"}
