{"icao":"KORD","metar":"KORD 220557Z 28019G28KT 10SM BKN026 BKN033 OVC047 M03/M09 A3000 RMK AO2 PK WND 28028/0555 T10331089 $","updated":"2026-01-22T06:34:08Z"}
