{"icao":"LPMT","metar":"LPMT 261400Z 34007KT 300V010 9999 FEW040 23/15 Q1017","updated":"2025-10-26T14:14:57Z"}
