{"icao":"LPMA","metar":"LPMA 261600Z 03014G25KT 9999 BKN016 19/11 Q1022","updated":"2025-11-26T16:24:41Z"}
