{"icao":"LPCS","metar":"LPCS 252000Z 24004KT 5000 BR FEW003 BKN015 13/13 Q1014","updated":"2026-01-25T20:22:33Z"}
