{"icao":"KLAX","metar":"KLAX 171853Z 25006KT 10SM CLR 23/12 A2994 RMK AO2 SLP135 T02330117 $","updated":"2025-10-17T19:14:12Z"}
