{"icao":"KLAX","metar":"KLAX 260653Z 02006KT 8SM SCT005 BKN007 16/14 A2996 RMK AO2 SLP143 T01560139 $","updated":"2026-03-26T07:06:51Z"}
