{"icao":"LPHR","metar":"LPHR 261700Z 20014KT 9999 SCT016 BKN030 19/17 Q1021","updated":"2025-11-26T17:17:32Z"}
