{"icao":"LPCS","metar":"LPCS 251700Z 34010KT CAVOK 26/03 Q1017","updated":"2025-09-25T17:15:09Z"}
