{"icao":"LPAZ","metar":"LPAZ 060700Z 30027KT 9999 FEW018 BKN030 13/07 Q1013","updated":"2026-04-06T07:28:13Z"}
