{"icao":"KORD","metar":"KORD 081251Z 21013G21KT 10SM FEW012 FEW190 02/M01 A2989 RMK AO2 PK WND 21026/1159 SLP126 T00171006","updated":"2026-03-08T13:38:48Z"}
