{"icao":"KJFK","metar":"KJFK 041451Z 31020G29KT 10SM FEW050 FEW250 13/M01 A3008 RMK AO2 PK WND 31030/1430 SLP186 T01281011 51015 $","updated":"2025-11-04T15:20:55Z"}
