{"icao":"LPBJ","metar":"LPBJ 302000Z 32009KT CAVOK 27/11 Q1019","updated":"2026-05-30T20:54:30Z"}
