{"icao":"LPHR","metar":"LPHR 211000Z 26012KT 7000 FEW007 SCT012 23/21 Q1013","updated":"2025-10-21T10:19:12Z"}
