{"icao":"LPBJ","metar":"LPBJ 170400Z 14010KT 110V170 3000 RA FEW012 BKN018 FEW020CB 12/12 Q1009","updated":"2025-11-17T04:25:22Z"}
