{"icao":"LPBJ","metar":"LPBJ 131600Z 17012KT CAVOK 33/10 Q1016","updated":"2026-06-13T16:21:49Z"}
