{"icao":"KORD","metar":"KORD 202251Z 17012G24KT 10SM FEW075 FEW200 17/02 A2972 RMK AO2 PK WND 17027/2240 SLP065 T01720017","updated":"2025-10-20T23:15:58Z"}
