{"icao":"LPPS","metar":"LPPS 111700Z 02018KT 9999 SCT012 SCT030 16/13 Q1023","updated":"2026-04-11T17:30:11Z"}
