{"icao":"LPPT","metar":"LPPT 280900Z 12007KT 090V150 9999 FEW003 BKN004 19/18 Q1015","updated":"2025-10-28T09:19:43Z"}
