{"icao":"LPMR","metar":"LPMR 042000Z 32006KT 9999 SCT022 14/09 Q1017","updated":"2026-05-04T20:13:09Z"}
