{"icao":"KJFK","metar":"KJFK 290251Z 33012KT 10SM FEW060 SCT075 18/08 A2997 RMK AO2 SLP149 T01830078 51020 $","updated":"2026-05-29T03:28:54Z"}
