{"icao":"LPPD","metar":"LPPD 031400Z 25012KT 9999 SCT016 20/15 Q1013","updated":"2025-11-03T14:18:42Z"}
