{"icao":"LPLA","metar":"LPLA 252300Z VRB11G23KT 9999 FEW025 19/09 Q1023","updated":"2025-10-25T23:15:21Z"}
