{"icao":"KORD","metar":"KORD 222151Z 20007KT 10SM SCT045 BKN250 27/16 A2981 RMK AO2 SLP089 T02720161","updated":"2025-09-22T22:16:08Z"}
