{"icao":"LPBJ","metar":"LPBJ 032200Z 08008KT 060V140 9999 -RA SCT008 OVC040 12/11 Q0998","updated":"2026-01-03T22:18:15Z"}
