{"icao":"LPFL","metar":"LPFL 081930Z 35019KT 9999 SCT018 SCT030 15/10 Q1021","updated":"2026-05-09T02:43:35Z"}
