{"icao":"LPBJ","metar":"LPBJ 031300Z 33013KT 300V360 CAVOK 30/11 Q1020","updated":"2026-06-03T13:20:44Z"}
