{"icao":"KORD","metar":"KORD 141451Z 08008KT 10SM CLR 23/17 A3004 RMK AO2 SLP168 T02280172 51004 $","updated":"2025-09-14T15:14:30Z"}
