{"icao":"LPMR","metar":"LPMR 160900Z 02003KT 320V050 9999 FEW014 17/13 Q1022","updated":"2026-04-16T09:17:26Z"}
