{"icao":"LPHR","metar":"LPHR 271200Z 28013KT 250V310 9999 FEW017 17/12 Q1018","updated":"2026-05-27T12:19:16Z"}
