{"icao":"LPPD","metar":"LPPD 051600Z 02012KT 350V050 9999 FEW022 BKN045 16/09 Q1026","updated":"2026-05-05T16:23:12Z"}
