{"icao":"LPPR","metar":"LPPR 200630Z 10005KT 060V140 9999 BKN033 07/05 Q1031","updated":"2026-02-20T06:54:45Z"}
