{"icao":"LPOV","metar":"LPOV 231400Z 32004KT 270V360 9999 SCT030 18/12 Q1020","updated":"2025-10-23T14:18:42Z"}
