{"icao":"LPAZ","metar":"LPAZ 081230Z 17011KT 9999 SCT009 25/22 Q1026","updated":"2025-10-08T12:37:29Z"}
