{"icao":"LPMT","metar":"LPMT 270100Z 09004KT CAVOK 08/06 Q1024","updated":"2025-11-27T01:23:13Z"}
