{"icao":"LPCS","metar":"LPCS 162030Z 02006KT CAVOK 16/08 Q1017","updated":"2026-03-16T20:36:56Z"}
