{"icao":"LPPR","metar":"LPPR 260130Z 16009KT 8000 FEW018 SCT030 11/10 Q1011","updated":"2026-01-26T01:50:09Z"}
