{"icao":"LPPI","metar":"LPPI 141800Z 25015KT 9999 FEW022 22/16 Q1021","updated":"2026-06-14T18:10:40Z"}
