{"icao":"LPPD","metar":"LPPD 040400Z 25020KT 4000 -RA BR SCT013 17/16 Q1006","updated":"2025-11-04T04:20:49Z"}
