{"icao":"LPPR","metar":"LPPR 030400Z VRB02KT 4200 BR BCFG FEW001 BKN004 15/14 Q1022","updated":"2025-10-03T04:20:13Z"}
