{"icao":"LPPR","metar":"LPPR 240500Z 23009KT 180V260 9999 -RA FEW018 BKN022 16/14 Q1016","updated":"2025-11-24T05:19:41Z"}
