{"icao":"LPFR","metar":"LPFR 060600Z 08007KT 9999 FEW004 20/17 Q1018","updated":"2025-10-06T06:27:16Z"}
