{"icao":"LPMT","metar":"LPMT 021700Z 29005KT 260V330 5000 -SHRA BR FEW016CB BKN020 14/13 Q1007 RESHRA","updated":"2026-03-02T17:43:45Z"}
