{"icao":"LPPS","metar":"LPPS 040830Z 27013KT 9999 FEW012 17/15 Q1012","updated":"2026-02-04T08:40:06Z"}
