{"icao":"LPFR","metar":"LPFR 020000Z 32007KT 260V360 CAVOK 23/13 Q1016","updated":"2026-06-02T00:12:01Z"}
