{"icao":"LPPD","metar":"LPPD 170930Z 33013KT 9999 VCSH FEW020 FEW025CB 12/04 Q1015","updated":"2026-03-17T09:54:31Z"}
