{"icao":"LPLA","metar":"LPLA 051635Z 30019KT 9999 FEW020CB SCT025 11/07 Q1005","updated":"2026-02-05T16:45:38Z"}
