{"icao":"KJFK","metar":"KJFK 061151Z 00000KT 10SM FEW055 BKN250 00/M02 A2999 RMK AO2 SLP156 T00001017 10028 21006 50002 $","updated":"2026-01-06T12:42:30Z"}
