{"icao":"KORD","metar":"KORD 210605Z 19007KT 2SM -SN OVC022 M06/M09 A3011 RMK AO2 P0001 T10561089 $","updated":"2026-01-21T06:35:23Z"}
