{"icao":"KORD","metar":"KORD 191451Z 28016G26KT 10SM FEW022 M18/M25 A3013 RMK AO2 PK WND 30029/1421 SLP218 DRSN 60000 T11831250 51044 $","updated":"2026-01-19T15:25:47Z"}
