{"icao":"KORD","metar":"KORD 311255Z 32011KT 10SM -SN OVC014 M10/M13 A3037 RMK AO2 SNB55 P0000 T11001133","updated":"2026-01-31T13:40:18Z"}
