{"icao":"KJFK","metar":"KJFK 031751Z 35011G18KT 10SM FEW080 FEW250 28/03 A3020 RMK AO2 SLP225 T02780028 10283 20206 58007 $","updated":"2026-06-03T18:21:31Z"}
