{"icao":"LPLA","metar":"LPLA 120700Z 21007KT 170V250 9999 FEW022 12/09 Q1030","updated":"2026-04-12T07:12:24Z"}
