{"icao":"KJFK","metar":"KJFK 142151Z 36011KT 10SM BKN019 OVC033 16/12 A3002 RMK AO2 SLP166 T01610117","updated":"2025-10-14T22:16:45Z"}
