{"icao":"LPPR","metar":"LPPR 091900Z 18008KT 6000 VCSH SCT004 BKN007 FEW018TCU 15/14 Q1016","updated":"2025-12-09T19:14:14Z"}
