{"icao":"LPOV","metar":"LPOV 270600Z 05007KT 020V080 CAVOK 11/01 Q1019","updated":"2026-03-27T07:05:11Z"}
