{"icao":"LPMA","metar":"LPMA 032000Z 33011G23KT 270V030 9999 FEW015 18/09 Q1003","updated":"2026-01-03T20:21:09Z"}
