{"icao":"KJFK","metar":"KJFK 051051Z 25004KT 10SM BKN140 BKN250 09/02 A3014 RMK AO2 SLP204 T00890017 $","updated":"2025-11-05T11:16:19Z"}
