{"icao":"LPLA","metar":"LPLA 112300Z 21004KT 180V240 9999 SCT014 BKN022 15/12 Q1032","updated":"2026-03-11T23:24:25Z"}
