{"icao":"KORD","metar":"KORD 271751Z 16009KT 5SM BR OVC008 04/02 A2997 RMK AO2 SLP152 T00440022 10044 20033 58023 $","updated":"2025-12-27T18:27:20Z"}
