{"icao":"LPPT","metar":"LPPT 122300Z 32006KT CAVOK 21/12 Q1016","updated":"2025-10-12T23:14:35Z"}
