{"icao":"LPMT","metar":"LPMT 231200Z 01003KT 310V100 CAVOK 19/10 Q1014","updated":"2026-03-23T13:04:48Z"}
