{"icao":"LPMA","metar":"LPMA 261800Z 21014KT 9999 BKN012 23/22 Q1016","updated":"2025-10-26T18:23:52Z"}
