{"icao":"KJFK","metar":"KJFK 271751Z 14007KT 10SM SCT250 03/M05 A3014 RMK AO2 SLP206 4/009 933012 T00281050 10033 21028 58005 $","updated":"2026-02-27T18:41:25Z"}
