{"icao":"LPPS","metar":"LPPS 160700Z 32010KT 9999 FEW015 18/11 Q1019","updated":"2025-11-16T07:17:24Z"}
