{"icao":"KJFK","metar":"KJFK 060851Z 23003KT 10SM SCT060 BKN250 01/M01 A2999 RMK AO2 SLP153 T00111006 58001 $","updated":"2026-01-06T09:25:21Z"}
