{"icao":"LPHR","metar":"LPHR 101400Z 23015KT 3000 RADZ BR SCT004 BKN009 17/17 Q1019","updated":"2026-01-10T14:17:47Z"}
