{"icao":"LPBJ","metar":"LPBJ 052300Z 31012KT CAVOK 17/08 Q1019","updated":"2026-06-05T23:07:05Z"}
