{"icao":"LPLA","metar":"LPLA 270400Z 28018G28KT 8000 -SHRA SCT025 BKN035 11/06 Q1008","updated":"2026-01-27T04:45:29Z"}
