{"icao":"LPMT","metar":"LPMT 170800Z 03004KT CAVOK 15/14 Q1014","updated":"2025-10-17T08:24:29Z"}
