{"icao":"LPAZ","metar":"LPAZ 041030Z 24016KT 8000 FEW008 SCT016 BKN046 17/15 Q1001","updated":"2026-02-04T10:36:50Z"}
