{"icao":"LPPR","metar":"LPPR 012300Z 01004KT 330V060 9000 -RA SCT038 BKN048 10/09 Q1016","updated":"2025-12-01T23:17:53Z"}
