{"icao":"LPFL","metar":"LPFL 311000Z 19008KT 130V270 9000 2800N -DZ FEW003 BKN009 21/19 Q1021","updated":"2026-05-31T10:14:26Z"}
