{"icao":"KORD","metar":"KORD 302151Z 24010KT 10SM FEW018 BKN030 OVC046 M06/M10 A3004 RMK AO2 SLP185 SNE15 T10561100 PNO $","updated":"2025-12-30T22:18:39Z"}
