{"icao":"LPMA","metar":"LPMA 241930Z VRB03KT 9999 SCT013 BKN030 18/13 Q1017","updated":"2026-02-24T19:51:49Z"}
