{"icao":"LPMA","metar":"LPMA 200130Z 19005KT 140V270 9999 FEW015 14/08 Q1025","updated":"2026-01-20T01:41:43Z"}
