{"icao":"LPCS","metar":"LPCS 141330Z 34020KT 310V010 9999 FEW034 14/07 Q1027","updated":"2026-02-14T13:42:47Z"}
