{"icao":"LPPR","metar":"LPPR 291630Z 22010KT 5000 -RA BR BKN012 BKN018 FEW020CB 14/13 Q1007","updated":"2026-01-29T16:41:59Z"}
