{"icao":"KLAX","metar":"KLAX 160453Z 27008KT 6SM BR OVC005 19/18 A2988 RMK AO2 SLP116 T01940183","updated":"2025-09-16T05:16:21Z"}
