{"icao":"KLAX","metar":"KLAX 231430Z 00000KT 1 3/4SM BR FEW002 OVC005 16/14 A2994 RMK AO2 VIS SW-N 3/4 T01560139","updated":"2026-03-23T14:53:27Z"}
