{"icao":"KLAX","metar":"KLAX 172053Z 25007KT 10SM FEW260 SCT300 22/07 A3004 RMK AO2 SLP173 T02220067 58016 $","updated":"2026-01-17T21:17:19Z"}
