{"icao":"LPOV","metar":"LPOV 031600Z 33009KT 300V360 9999 BKN008 17/15 Q1023","updated":"2025-10-03T16:20:39Z"}
