{"icao":"LPBJ","metar":"LPBJ 012100Z 23005KT 8000 RA SCT005 BKN015 FEW025TCU BKN045 17/16 Q1021","updated":"2025-11-01T21:14:05Z"}
