{"icao":"LPMT","metar":"LPMT 182300Z 24004KT CAVOK 20/18 Q1016","updated":"2025-10-18T23:15:32Z"}
