{"icao":"LPCS","metar":"LPCS 022200Z 01019KT 9999 FEW011 13/10 Q1021","updated":"2026-04-02T22:30:02Z"}
