{"icao":"KJFK","metar":"KJFK 131851Z 17019G28KT 10SM FEW050 SCT085 BKN130 BKN160 BKN250 04/M06 A3000 RMK AO2 PK WND 18028/1844 SLP159 T00391056","updated":"2026-03-13T19:30:17Z"}
