{"icao":"LPCS","metar":"LPCS 210700Z 26008KT 230V290 4800 -DZRA BR BKN002 BKN027 20/20 Q1014","updated":"2025-10-21T07:18:28Z"}
