{"icao":"KJFK","metar":"KJFK 311251Z 25022G29KT 10SM FEW032 BKN043 12/07 A2936 RMK AO2 PK WND 26029/1247 SLP942 T01220072","updated":"2025-10-31T13:28:30Z"}
