{"icao":"KLAX","metar":"KLAX 250253Z VRB04KT 10SM SCT035 BKN250 16/14 A2996 RMK AO2 SLP144 T01560144 53023 $","updated":"2025-12-25T03:25:35Z"}
