{"icao":"KJFK","metar":"KJFK 250451Z 00000KT 10SM FEW250 20/14 A3003 RMK SLP169 T02000139 402940183 ","updated":"2026-06-25T05:03:36Z"}
