{"icao":"KORD","metar":"KORD 261251Z 30011KT 10SM BKN080 M18/M23 A3024 RMK AO2 SLP256 T11781233 $","updated":"2026-01-26T13:43:32Z"}
