{"icao":"KORD","metar":"KORD 041351Z 20010KT 10SM FEW300 17/06 A2962 RMK AO2 SLP028 T01670061","updated":"2026-05-04T13:57:27Z"}
