{"icao":"LPMA","metar":"LPMA 041800Z 17005KT 140V200 9999 FEW012 20/18 Q1016","updated":"2026-05-04T18:13:21Z"}
