{"icao":"KJFK","metar":"KJFK 261651Z 21007KT 10SM FEW030 FEW095 BKN250 25/20 A3003 RMK SLP170 T02500200 ","updated":"2026-06-26T17:45:46Z"}
