{"icao":"KORD","metar":"KORD 270151Z 20004KT 10SM CLR 03/M05 A2987 RMK AO2 SLP121 T00281050","updated":"2026-02-27T01:58:34Z"}
