{"icao":"LPOV","metar":"LPOV 301500Z 32011KT 9999 SCT006 OVC015 19/17 Q1022","updated":"2026-05-30T15:04:41Z"}
