{"icao":"LPPD","metar":"LPPD 212100Z 15005KT 120V190 9999 FEW011 BKN048 16/14 Q1025","updated":"2026-02-21T21:21:41Z"}
