{"icao":"LPFL","metar":"LPFL 290900Z 31004KT 250V350 9999 SCT023 FEW025TCU SCT040 13/09 Q1006","updated":"2026-04-29T09:07:53Z"}
