{"icao":"LPPR","metar":"LPPR 140900Z VRB02KT CAVOK 19/13 Q1018","updated":"2025-10-14T09:19:47Z"}
