{"icao":"KLAX","metar":"KLAX 221653Z 08007KT 4SM BR SCT019 BKN120 BKN160 15/13 A3000 RMK AO2 SLP158 T01500128 $","updated":"2026-01-22T17:27:52Z"}
