{"icao":"KJFK","metar":"KJFK 111213Z 03005KT 10SM BKN032 BKN047 OVC150 15/13 A3025 RMK AO2 T01500128","updated":"2025-10-11T12:31:59Z"}
