{"icao":"LPMA","metar":"LPMA 170600Z 20013KT 9999 -RA BKN013 21/21 Q1011","updated":"2025-10-17T06:26:45Z"}
