{"icao":"LPFL","metar":"LPFL 271030Z 02012KT 2000 -DZ BR SCT004 OVC007 14/14 Q1032","updated":"2026-03-27T10:48:11Z"}
