{"icao":"KJFK","metar":"KJFK 021851Z 29007KT 10SM FEW035 BKN055 BKN090 BKN200 BKN250 16/03 A2986 RMK SLP110 T01610028 ","updated":"2026-05-02T18:57:41Z"}
