{"icao":"LPBJ","metar":"LPBJ 100200Z 25010KT 5000 -DZ BR OVC003 15/14 Q1017","updated":"2026-02-10T02:23:31Z"}
