{"icao":"KORD","metar":"KORD 041251Z 23005KT 10SM BKN120 BKN180 BKN250 06/M03 A3028 RMK AO2 SLP256 T00561028 $","updated":"2025-11-04T13:32:35Z"}
