{"icao":"KORD","metar":"KORD 151751Z 23016G23KT 10SM BKN250 M08/M16 A3011 RMK AO2 PK WND 23027/1705 SLP211 T10781161 11078 21139 58041","updated":"2025-12-15T18:30:31Z"}
