{"icao":"LPPT","metar":"LPPT 142330Z 34013KT 9999 SCT022 14/10 Q1014","updated":"2026-05-14T23:56:49Z"}
