{"icao":"LPAR","metar":"LPAR 161100Z 32016KT 3000 SHRA SCT015 FEW020CB BKN035 11/09 Q1015","updated":"2026-01-16T11:18:42Z"}
