{"icao":"KLAX","metar":"KLAX 200953Z 33005KT 10SM CLR 08/01 A2995 RMK AO2 SLP140 T00830006","updated":"2026-02-20T10:36:27Z"}
