{"icao":"LPLA","metar":"LPLA 210300Z VRB02KT 9999 FEW017 SCT022 BKN035 14/12 Q1032","updated":"2025-11-21T03:09:20Z"}
