{"icao":"LPBJ","metar":"LPBJ 100500Z 30008KT 4000 BCFG SCT002 BKN025 06/06 Q1019","updated":"2026-03-10T05:43:41Z"}
