{"icao":"LPBJ","metar":"LPBJ 130500Z 26021G31KT 3000 -DZRA OVC005 13/12 Q1003","updated":"2026-02-13T05:58:25Z"}
