{"icao":"LPMR","metar":"LPMR 070800Z 11003KT 040V140 9999 MIFG FEW002 SCT040 07/07 Q1023","updated":"2026-01-07T08:29:15Z"}
