{"icao":"LPMA","metar":"LPMA 301100Z 09003KT 360V140 9999 FEW015 20/15 Q1024","updated":"2026-01-30T11:26:56Z"}
