{"icao":"LPHR","metar":"LPHR 251000Z 07019G29KT 9999 FEW014 SCT030 19/13 Q1019","updated":"2025-10-25T10:16:49Z"}
