{"icao":"LPHR","metar":"LPHR 160800Z 13007KT 9999 SCT016 BKN030 18/13 Q1021","updated":"2025-11-16T08:22:03Z"}
