{"icao":"LPAR","metar":"LPAR 131300Z 31012KT 280V340 9999 SCT020 FEW022TCU 14/10 Q1008","updated":"2026-02-13T14:03:05Z"}
