{"icao":"LPPR","metar":"LPPR 041700Z 21004KT 1500 -DZ BR OVC002 18/17 Q1023","updated":"2025-10-04T17:12:57Z"}
