{"icao":"LPMT","metar":"LPMT 111500Z 32006KT 280V340 9999 FEW045 28/13 Q1017","updated":"2025-10-11T15:14:45Z"}
