{"icao":"KORD","metar":"KORD 230451Z 21005KT 10SM FEW055 SCT110 SCT250 22/17 A2986 RMK AO2 SLP107 OCNL LTGIC DSNT N CB DSNT N MOV SE T02220167","updated":"2025-09-23T05:17:02Z"}
