{"icao":"LPPT","metar":"LPPT 031730Z 20008KT 5000 RA FEW012 BKN020 10/09 Q1001","updated":"2026-02-03T17:51:41Z"}
