{"icao":"LPPT","metar":"LPPT 181830Z 31005KT 280V340 CAVOK 24/13 Q1015","updated":"2026-04-18T18:49:50Z"}
