{"icao":"LPLA","metar":"LPLA 281500Z 13026KT 5000 RA BR SCT009 SCT012 BKN022 13/12 Q1011","updated":"2025-12-28T15:18:54Z"}
