{"icao":"LPCS","metar":"LPCS 231800Z 36015KT CAVOK 21/08 Q1017","updated":"2025-09-23T18:26:17Z"}
