{"icao":"LPMR","metar":"LPMR 080700Z VRB01KT 0400 FG BKN002 SCT045 13/12 Q1022","updated":"2025-10-08T07:17:05Z"}
