{"icao":"KORD","metar":"KORD 140451Z 26008KT 10SM BKN036 OVC045 06/00 A2958 RMK AO2 SLP019 T00560000 $","updated":"2026-01-14T05:23:43Z"}
