{"icao":"KORD","metar":"KORD 041751Z 24008KT 190V270 10SM FEW060 29/16 A3009 RMK AO2 SLP185 T02940156 10294 20200 58014 $","updated":"2025-10-04T18:21:44Z"}
