{"icao":"LPPS","metar":"LPPS 221100Z 30014KT 9999 SCT004 BKN010 17/17 Q1019","updated":"2026-01-22T11:22:08Z"}
