{"icao":"LPPR","metar":"LPPR 182200Z 00000KT CAVOK 09/09 Q1018","updated":"2025-11-18T22:18:13Z"}
