{"icao":"LPOV","metar":"LPOV 051500Z 33012KT 300V010 CAVOK 20/13 Q1020","updated":"2025-10-05T15:14:57Z"}
