{"icao":"KORD","metar":"KORD 140551Z 31013KT 10SM FEW025 M17/M23 A3035 RMK AO2 SLP293 T11671233 11128 21167 410331167 51011","updated":"2025-12-14T06:28:40Z"}
