{"icao":"LPAR","metar":"LPAR 080900Z 16008KT 130V190 9999 FEW028 17/10 Q1010","updated":"2026-05-08T09:18:39Z"}
