{"icao":"LPHR","metar":"LPHR 192030Z 22012KT 9999 FEW006 17/16 Q1008","updated":"2026-05-19T20:47:44Z"}
