{"icao":"LPHR","metar":"LPHR 131600Z 25011KT 9999 FEW018 SCT033 17/11 Q1024","updated":"2026-01-13T16:30:40Z"}
