{"icao":"LPHR","metar":"LPHR 212230Z 31016G26KT 280V340 5000 -RA BR SCT007 SCT012 BKN030 10/07 Q1001","updated":"2026-04-21T22:37:00Z"}
