{"icao":"KORD","metar":"KORD 280651Z 02005KT 10SM FEW032 BKN070 OVC250 19/14 A2993 RMK AO2 SLP133 T01890144 $","updated":"2026-06-28T07:49:44Z"}
