{"icao":"LPFR","metar":"LPFR 200230Z 04003KT CAVOK 22/18 Q1018","updated":"2025-09-20T02:52:48Z"}
