{"icao":"LPFL","metar":"LPFL 231630Z 24009G20KT 180V300 6000 -SHRA SCT021 FEW023CB 17/10 Q1000 WS ALL RWY","updated":"2026-02-23T16:56:17Z"}
