{"icao":"LPBJ","metar":"LPBJ 150700Z 26003KT 8000 1300S BCFG FEW002 09/09 Q1024","updated":"2026-04-15T07:43:10Z"}
