{"icao":"LPOV","metar":"LPOV 091900Z 34007KT CAVOK 18/14 Q1020","updated":"2025-10-09T19:14:36Z"}
