{"icao":"LPMR","metar":"LPMR 141600Z 34013G23KT 9999 FEW020 22/17 Q1023","updated":"2025-09-14T16:17:44Z"}
