{"icao":"LPMT","metar":"LPMT 091700Z 33004KT 280V350 CAVOK 22/15 Q1018","updated":"2025-10-09T17:16:03Z"}
