{"icao":"LPPS","metar":"LPPS 041800Z 18007KT 140V210 9999 FEW004 SCT009 19/17 Q1017","updated":"2026-05-04T18:13:22Z"}
