{"icao":"LPLA","metar":"LPLA 292200Z 12013KT 9999 OVC030 15/08 Q1035","updated":"2026-03-29T22:29:01Z"}
