{"icao":"KLAX","metar":"KLAX 041853Z 07003KT 10SM FEW100 FEW180 21/M04 A3020 RMK AO2 SLP225 T02061039 $","updated":"2025-12-04T19:17:58Z"}
