{"icao":"LPPT","metar":"LPPT 121900Z 19011KT 8000 -DZ FEW004 SCT006 BKN012 14/14 Q1014","updated":"2026-02-12T19:08:16Z"}
