{"icao":"LPPR","metar":"LPPR 041000Z 18004KT 150V210 CAVOK 21/10 Q1023","updated":"2026-04-04T10:31:49Z"}
