{"icao":"LPMT","metar":"LPMT 161200Z 29004KT 260V340 CAVOK 26/11 Q1014","updated":"2025-10-16T12:38:40Z"}
