{"icao":"LPPR","metar":"LPPR 170430Z 23005KT 200V260 8000 -RADZ SCT002 BKN004 13/12 Q1027","updated":"2026-02-17T04:50:22Z"}
