{"icao":"KLAX","metar":"KLAX 051453Z 25005KT 5SM HZ FEW009 OVC012 18/16 A2986 RMK AO2 SLP108 VIS N-NE 2 1/2 T01830156 53005 $","updated":"2026-06-05T15:52:05Z"}
