{"icao":"LPFR","metar":"LPFR 160700Z 06008KT CAVOK 21/17 Q1014","updated":"2025-10-16T07:17:47Z"}
