{"icao":"KORD","metar":"KORD 031823Z 24007KT 1 1/4SM -SN BR BKN017 OVC026 M03/M04 A2997 RMK AO2 P0001 T10281044","updated":"2025-12-03T18:30:15Z"}
