{"icao":"LPPT","metar":"LPPT 010800Z 25008KT 4000 -DZ BR BKN003 15/15 Q1014","updated":"2026-02-01T08:30:55Z"}
