{"icao":"LPMR","metar":"LPMR 080800Z 10005KT 070V130 9999 FEW020 10/07 Q1017","updated":"2026-04-08T08:59:30Z"}
