{"icao":"LPPR","metar":"LPPR 151700Z 22009KT 180V250 9999 VCSH FEW012 FEW020CB 16/13 Q1003","updated":"2025-11-15T17:13:44Z"}
