{"icao":"KLAX","metar":"KLAX 111453Z 04004KT 10SM FEW300 09/M02 A3024 RMK AO2 SLP236 T00891022 53001 $","updated":"2026-01-11T15:19:09Z"}
