{"icao":"LPMT","metar":"LPMT 232200Z 33004KT CAVOK 15/11 Q1015","updated":"2026-04-23T22:41:54Z"}
