{"icao":"KORD","metar":"KORD 140551Z 32006KT 10SM FEW120 BKN180 BKN250 01/M08 A3009 RMK AO2 SLP195 T00061083 10061 20000 400830000 51023 $","updated":"2026-03-14T06:43:55Z"}
