{"icao":"LPPS","metar":"LPPS 220200Z 09019KT 8000 TSRA SCT008 SCT018CB 16/14 Q0999","updated":"2026-03-22T02:06:59Z"}
