{"icao":"LPST","metar":"LPST 051500Z 31014KT 9999 FEW018 18/11 Q1018","updated":"2026-06-05T15:51:49Z"}
