{"icao":"LPAZ","metar":"LPAZ 120730Z 20010KT 0800 R18/0900U -RA FG VV002 16/16 Q1017","updated":"2026-02-12T07:51:06Z"}
