{"icao":"LPBJ","metar":"LPBJ 160500Z 14004KT CAVOK 17/10 Q1015","updated":"2025-10-16T05:17:09Z"}
