{"icao":"KJFK","metar":"KJFK 281151Z 05004KT 7SM FEW003 SCT022 BKN250 M02/M02 A3014 RMK AO2 SLP207 4/008 T10171017 10000 21022 50002","updated":"2026-02-28T12:42:32Z"}
