{"icao":"LPFR","metar":"LPFR 140000Z 11003KT 9999 FEW015 21/19 Q1017","updated":"2026-06-14T00:04:50Z"}
