{"icao":"KJFK","metar":"KJFK 181851Z 02010KT 2SM -SN BR BKN006 OVC016 01/00 A2993 RMK AO2 SFC VIS 4 SLP133 P0000 T00110000 $","updated":"2026-01-18T19:15:39Z"}
