{"icao":"LPOV","metar":"LPOV 261500Z 33009KT 290V350 9999 FEW020 SCT025CB 20/16 Q1016","updated":"2026-04-26T15:40:04Z"}
