{"icao":"KJFK","metar":"KJFK 302151Z 30012G21KT 10SM FEW055 FEW250 M08/M20 A3014 RMK AO2 SLP207 T10831200 $","updated":"2026-01-30T22:24:29Z"}
