{"icao":"LPLA","metar":"LPLA 220100Z 22013G24KT 190V250 9999 FEW015 23/19 Q1013","updated":"2025-10-22T01:23:27Z"}
