{"icao":"LPPS","metar":"LPPS 111100Z 02014KT 360V060 9999 SCT015 BKN030 16/10 Q1027","updated":"2026-03-11T11:32:28Z"}
