{"icao":"LPMT","metar":"LPMT 301900Z 25007KT CAVOK 18/09 Q1017","updated":"2026-04-30T19:18:40Z"}
