{"icao":"LPBJ","metar":"LPBJ 111100Z 10003KT 060V120 9999 FEW007 OVC015 10/09 Q1029","updated":"2026-01-11T11:16:43Z"}
