{"icao":"KJFK","metar":"KJFK 060951Z 31024G31KT 10SM SCT046 SCT070 09/00 A2989 RMK AO2 PK WND 32034/0907 SLP121 T00940000","updated":"2025-11-06T10:21:25Z"}
