{"icao":"KLAX","metar":"KLAX 221253Z 36004KT 9SM FEW008 SCT010 BKN090 BKN150 17/14 A3002 RMK AO2 SLP163 T01670144","updated":"2025-10-22T13:32:07Z"}
