{"icao":"LPMR","metar":"LPMR 261200Z 02009KT CAVOK 14/04 Q1026","updated":"2025-11-26T12:40:31Z"}
