{"icao":"LPPS","metar":"LPPS 171900Z 31014KT 9999 SCT012 BKN030 15/13 Q1018 RESHRA","updated":"2026-01-17T19:14:14Z"}
