{"icao":"KORD","metar":"KORD 311551Z 22016G23KT 7SM -TSRA SCT049CB BKN100 OVC250 17/14 A2976 RMK AO2 PK WND 21032/1453 RAB39 TSB29 SLP076 FRQ LTGICCCCG NE-E TS NE-E MOV NE P0007 T01720144","updated":"2026-03-31T16:11:07Z"}
