{"icao":"LPST","metar":"LPST 131400Z 28010KT 240V300 9999 SCT018 FEW020TCU 15/11 Q1010","updated":"2026-01-13T14:24:18Z"}
