{"icao":"LPFL","metar":"LPFL 111800Z 15010KT 130V190 9999 FEW005 20/18 Q1022","updated":"2026-06-11T18:10:19Z"}
