{"icao":"LPHR","metar":"LPHR 041800Z 11004KT 070V140 9999 FEW006 SCT010 24/22 Q1026","updated":"2025-10-04T18:21:43Z"}
