{"icao":"KJFK","metar":"KJFK 310251Z 22008KT 1SM R04R/P6000FT BR BKN005 OVC012 17/16 A2935 RMK AO2 SFC VIS 6 RAE50 SLP940 P0004 60016 T01670161 57020","updated":"2025-10-31T03:09:27Z"}
