{"icao":"LPPR","metar":"LPPR 180900Z 03005KT CAVOK 11/09 Q1021","updated":"2025-11-18T09:20:28Z"}
