{"icao":"LPPS","metar":"LPPS 220900Z 06018G29KT 030V090 9999 SCT014 SCT030 19/11 Q1026","updated":"2025-11-22T09:17:26Z"}
