{"icao":"LPPS","metar":"LPPS 102300Z 02008KT 340V050 9999 SCT015 BKN030 21/14 Q1022","updated":"2025-10-10T23:15:46Z"}
