{"icao":"LPFR","metar":"LPFR 240300Z 26008KT CAVOK 21/19 Q1013","updated":"2026-06-24T03:28:24Z"}
