{"icao":"LPFR","metar":"LPFR 261300Z 10013KT CAVOK 23/11 Q1012","updated":"2026-03-26T13:12:51Z"}
