{"icao":"LPMR","metar":"LPMR 091800Z 19011KT 160V220 9999 FEW020 FEW022CB SCT035 17/10 Q1006","updated":"2026-05-09T18:59:14Z"}
