{"icao":"LPLA","metar":"LPLA 140200Z 20016G34KT 140V290 9999 SCT009 SCT012 BKN015 17/14 Q1015","updated":"2026-04-14T02:28:38Z"}
