{"icao":"LPCS","metar":"LPCS 200700Z 33004KT 9999 FEW018 SCT030 16/16 Q1015","updated":"2025-10-20T07:18:35Z"}
