{"icao":"LPBJ","metar":"LPBJ 231500Z 29005KT 250V340 9999 FEW030 16/08 Q1025","updated":"2025-11-23T15:16:36Z"}
