{"icao":"LPHR","metar":"LPHR 311800Z 05013KT 9999 VCSH SCT020 16/12 Q1013","updated":"2025-10-31T18:26:55Z"}
