{"icao":"LPCS","metar":"LPCS 291900Z 26006KT 230V300 8000 -RADZ FEW008 BKN018 14/13 Q1016","updated":"2025-11-29T23:16:54Z"}
