{"icao":"KJFK","metar":"KJFK 241551Z 32016G23KT 10SM FEW060 FEW250 10/M02 A3022 RMK AO2 SLP233 T01001022","updated":"2025-11-24T16:22:12Z"}
