{"icao":"LPPS","metar":"LPPS 010300Z 20013KT 9999 FEW015 21/15 Q1015","updated":"2025-11-01T03:10:31Z"}
