{"icao":"KORD","metar":"KORD 132051Z 20009KT 10SM FEW040 FEW130 BKN190 BKN250 25/17 A2984 RMK AO2 SLP101 CB DSNT SW MOV NE T02500167 58023","updated":"2026-04-13T21:48:09Z"}
