{"icao":"KLAX","metar":"KLAX 061253Z 07006KT 10SM FEW014 FEW020 SCT060 BKN250 13/11 A3006 RMK AO2 SLP179 T01280106 $","updated":"2026-01-06T13:36:50Z"}
