{"icao":"LPHR","metar":"LPHR 162100Z 15008KT 9000 -RA FEW008 BKN012 BKN025 19/18 Q1022","updated":"2025-11-16T21:15:35Z"}
