{"icao":"LPCS","metar":"LPCS 171230Z 21005KT 160V250 CAVOK 25/15 Q1015","updated":"2025-10-17T12:36:52Z"}
