{"icao":"LPOV","metar":"LPOV 300900Z 17012KT 4000 -RA BR SCT024 BKN040 12/11 Q1009","updated":"2026-01-30T09:36:57Z"}
