{"icao":"KJFK","metar":"KJFK 101851Z 20006KT 10SM FEW015 SCT100 BKN200 BKN250 18/12 A2993 RMK AO2 SLP134 T01780122 $","updated":"2026-05-10T19:01:33Z"}
