{"icao":"LPFR","metar":"LPFR 200400Z 02004KT CAVOK 20/17 Q1018","updated":"2025-09-20T04:19:43Z"}
