{"icao":"LPMA","metar":"LPMA 010600Z 20033KT 9000 -SHRA BKN013 FEW018CB 19/16 Q1002","updated":"2026-01-01T06:32:17Z"}
