{"icao":"LPPT","metar":"LPPT 030430Z 32008KT 290V350 CAVOK 12/10 Q1021","updated":"2026-04-03T05:03:27Z"}
