{"icao":"LPPD","metar":"LPPD 202200Z 02018G30KT 350V060 9999 BKN013 14/11 Q1010 WS R30","updated":"2026-03-20T22:27:10Z"}
