{"icao":"LPPT","metar":"LPPT 011230Z VRB04G15KT CAVOK 15/08 Q1021","updated":"2026-03-01T12:45:21Z"}
