{"icao":"LPHR","metar":"LPHR 291800Z 30008KT 9999 VCSH SCT010 BKN030 18/17 Q1028","updated":"2025-11-29T18:25:28Z"}
