{"icao":"LPMT","metar":"LPMT 281100Z 01012KT 9999 FEW025 26/16 Q1021","updated":"2026-06-28T12:14:52Z"}
