{"icao":"KORD","metar":"KORD 150551Z 21011G20KT 10SM BKN250 17/12 A2972 RMK AO2 SLP061 T01670122 10172 20156 401890067 56024 $","updated":"2025-11-15T06:25:31Z"}
