{"icao":"LPAR","metar":"LPAR 221200Z 09003KT 030V170 9999 FEW025 FEW027CB 12/09 Q1014","updated":"2025-12-22T12:40:22Z"}
