{"icao":"KJFK","metar":"KJFK 291351Z 20006KT 1/8SM R04R/1600FT -DZ FG VV002 06/06 A2947 RMK AO2 SFC VIS 1/4 SLP979 P0001 T00610061 $","updated":"2025-12-29T14:21:05Z"}
