{"icao":"KLAX","metar":"KLAX 070353Z 00000KT 9SM CLR 16/13 A3007 RMK AO2 SLP181 T01560128 $","updated":"2025-12-07T04:32:01Z"}
