{"icao":"LPMT","metar":"LPMT 120800Z 03010KT CAVOK 19/12 Q1016","updated":"2025-10-12T08:20:10Z"}
