{"icao":"LPHR","metar":"LPHR 191100Z 27010KT 1500 -DZ BR SCT001 BKN003 22/22 Q1016","updated":"2025-10-19T11:13:14Z"}
