{"icao":"LPMT","metar":"LPMT 032200Z 34005KT CAVOK 16/13 Q1023","updated":"2025-10-03T22:15:14Z"}
