{"icao":"KLAX","metar":"KLAX 162253Z 26009KT 10SM FEW080 21/13 A2988 RMK AO2 SLP116 T02060128 $","updated":"2025-10-16T23:14:57Z"}
