{"icao":"KORD","metar":"KORD 061951Z 17009KT 10SM SCT220 BKN250 14/M04 A3005 RMK AO2 SLP176 T01441044","updated":"2025-11-06T20:20:40Z"}
