{"icao":"KLAX","metar":"KLAX 111953Z 25006KT 10SM CLR 22/09 A2999 RMK AO2 SLP154 T02220089 $","updated":"2025-12-11T20:22:47Z"}
