{"icao":"LPMA","metar":"LPMA 130800Z 32005KT 240V020 9999 SCT015 FEW018CB 18/09 Q1000","updated":"2025-11-13T08:25:51Z"}
