{"icao":"LPHR","metar":"LPHR 270700Z 04012KT 9999 FEW030 BKN047 19/12 Q1023","updated":"2025-09-27T07:14:23Z"}
