{"icao":"LPFL","metar":"LPFL 301700Z 18016KT 150V210 6000 -RA SCT007 BKN017 FEW020CB 17/15 Q1010 RERA","updated":"2026-01-30T17:32:34Z"}
