{"icao":"LPBJ","metar":"LPBJ 102200Z 20010KT CAVOK 13/11 Q1014","updated":"2026-05-10T22:44:48Z"}
