{"icao":"LPBJ","metar":"LPBJ 181100Z 13005KT 080V170 CAVOK 24/12 Q1018","updated":"2025-10-18T11:13:12Z"}
