{"icao":"LPCS","metar":"LPCS 271100Z 05008KT 010V090 9999 FEW030 07/03 Q1010","updated":"2025-12-27T11:15:36Z"}
