{"icao":"LPST","metar":"LPST 120900Z 15009KT 7000 -RA FEW008 BKN018 12/11 Q1012","updated":"2025-12-12T09:23:33Z"}
