{"icao":"KLAX","metar":"KLAX 200153Z 26023G34KT 10SM FEW039 12/04 A2984 RMK AO2 PK WND 26034/0146 SLP103 T01220044","updated":"2026-02-20T02:00:07Z"}
