{"icao":"LPBJ","metar":"LPBJ 172100Z 03002KT CAVOK 12/10 Q1017","updated":"2025-11-17T21:17:04Z"}
