{"icao":"LPPT","metar":"LPPT 011600Z 22006KT 210V270 9999 FEW016 BKN021 20/16 Q1018","updated":"2025-11-01T16:19:18Z"}
