{"icao":"LPPD","metar":"LPPD 112200Z 34009KT 310V020 9999 FEW022 FEW025TCU 14/08 Q1004","updated":"2025-11-11T22:17:50Z"}
