{"icao":"LPLA","metar":"LPLA 052000Z 36007KT 9999 FEW025 BKN045 15/09 Q1028","updated":"2026-05-05T20:06:13Z"}
