{"icao":"KLAX","metar":"KLAX 132253Z 25017KT 10SM FEW070 FEW100 19/08 A3002 RMK AO2 SLP163 T01890078 $","updated":"2026-04-13T23:41:08Z"}
