{"icao":"LPPR","metar":"LPPR 151900Z 28003KT 9999 BKN036 15/13 Q1024","updated":"2026-04-15T19:15:39Z"}
