{"icao":"LPAZ","metar":"LPAZ 101730Z 21019KT 1500 BR BKN005 18/17 Q1013","updated":"2026-02-10T18:00:20Z"}
