{"icao":"KORD","metar":"KORD 092051Z 24008KT 10SM SCT085 OVC095 02/M02 A2964 RMK AO2 SLP045 VIRGA OHD T00171017 55006","updated":"2025-12-09T21:17:04Z"}
