{"icao":"LPAZ","metar":"LPAZ 150900Z 19010KT 9999 BKN033 15/11 Q1031","updated":"2026-02-15T09:29:55Z"}
