{"icao":"LPBJ","metar":"LPBJ 131600Z 33012KT 310V010 CAVOK 31/09 Q1019","updated":"2025-09-13T16:05:36Z"}
