{"icao":"LPMA","metar":"LPMA 060230Z 32003KT 290V020 9999 FEW015 SCT030 22/16 Q1022","updated":"2025-10-06T03:00:32Z"}
