{"icao":"KLAX","metar":"KLAX 182053Z 24009KT 10SM SCT300 24/14 A2994 RMK AO2 SLP139 T02390139 58011 $","updated":"2026-04-18T21:33:38Z"}
