{"icao":"LPAZ","metar":"LPAZ 221400Z 18018KT 9999 SCT007 25/23 Q1015","updated":"2025-10-22T14:20:02Z"}
