{"icao":"LPAZ","metar":"LPAZ 181000Z 33010KT 9999 SCT016 SCT020 18/15 Q1026","updated":"2025-11-18T10:21:39Z"}
