{"icao":"KLAX","metar":"KLAX 070953Z 00000KT 8SM CLR 12/09 A3009 RMK AO2 SLP187 T01170094 $","updated":"2025-12-07T10:17:37Z"}
