{"icao":"LPPT","metar":"LPPT 090830Z 34009KT 9999 -RADZ FEW006 SCT012 BKN035 11/10 Q1023 REDZ","updated":"2026-03-09T08:42:03Z"}
