{"icao":"LPMA","metar":"LPMA 101630Z 35017G29KT 330V030 9999 SCT015 FEW016TCU 17/13 Q1018","updated":"2026-04-10T16:49:55Z"}
