{"icao":"LPPS","metar":"LPPS 211100Z 28012KT 3000 RA BR SCT005 BKN010 17/16 Q1021","updated":"2026-01-21T11:22:58Z"}
