{"icao":"LPFL","metar":"LPFL 162000Z 20020G30KT 170V240 9999 BKN010 20/17 Q1017","updated":"2025-12-16T20:23:09Z"}
