{"icao":"LPHR","metar":"LPHR 212000Z 27008KT 9000 FEW007 SCT011 FEW013CB 22/19 Q1011","updated":"2025-10-22T05:18:00Z"}
