{"icao":"KJFK","metar":"KJFK 092351Z 19015KT 10SM SCT250 18/14 A3007 RMK AO2 SLP181 T01830144 10239 20183 56016 $","updated":"2026-06-10T00:12:03Z"}
