{"icao":"KJFK","metar":"KJFK 261751Z 02008KT 10SM FEW100 SCT160 BKN210 M02/M17 A3016 RMK AO2 SLP214 T10221167 11022 21067 58034 $","updated":"2025-12-26T18:28:24Z"}
