{"icao":"KORD","metar":"KORD 281451Z 31009KT 10SM FEW030 FEW250 M04/M10 A3036 RMK AO2 SLP291 T10441100 51014","updated":"2025-11-28T15:19:22Z"}
