{"icao":"LPMR","metar":"LPMR 280000Z 11001KT CAVOK 10/09 Q1020","updated":"2026-03-28T02:03:41Z"}
