{"icao":"LPMR","metar":"LPMR 272200Z 09004KT 9999 SCT048 17/13 Q1018","updated":"2025-10-27T22:16:18Z"}
