{"icao":"KJFK","metar":"KJFK 101315Z 32005KT 10SM BKN016 BKN041 BKN100 OVC160 13/10 A2968 RMK AO2 T01330100","updated":"2025-11-10T13:30:49Z"}
