{"icao":"LPMR","metar":"LPMR 271200Z 271200Z 26010G20KT 9999 FEW015 FEW020CB SCT023 11/07 Q1001 RESHRA","updated":"2026-01-27T12:48:07Z"}
