{"icao":"LPOV","metar":"LPOV 080900Z 16010KT 130V200 9999 SCT020 17/11 Q1009","updated":"2026-05-08T09:18:38Z"}
