{"icao":"LPPR","metar":"LPPR 310900Z VRB02KT CAVOK 07/05 Q1020","updated":"2025-12-31T09:23:22Z"}
