{"icao":"LPBJ","metar":"LPBJ 111400Z VRB03KT CAVOK 27/12 Q1017","updated":"2025-10-11T14:13:32Z"}
