{"icao":"KORD","metar":"KORD 301751Z 36012KT 10SM FEW034 FEW250 13/02 A2986 RMK AO2 SLP112 T01280022 10128 20050 58021 $","updated":"2025-10-30T18:27:12Z"}
