{"icao":"KJFK","metar":"KJFK 041051Z 24006KT 10SM BKN055 M03/M06 A3018 RMK SLP220 T10281056 PNO $ ","updated":"2026-02-04T11:31:57Z"}
