{"icao":"KJFK","metar":"KJFK 121751Z 31018G27KT 10SM SCT046 SCT220 01/M09 A2997 RMK AO2 PK WND 31027/1747 SLP147 4/003 933008 T00111089 10011 21011 58005 $","updated":"2026-02-12T17:57:13Z"}
