{"icao":"LPST","metar":"LPST 141000Z VRB01KT CAVOK 25/10 Q1018","updated":"2025-10-14T10:18:57Z"}
