{"icao":"LPFL","metar":"LPFL 091600Z 19014KT 140V250 8000 -DZ BKN010 19/16 Q1017","updated":"2026-01-09T16:26:51Z"}
