{"icao":"LPPR","metar":"LPPR 291830Z 26008KT 210V310 9000 FEW018 FEW020TCU BKN028 14/11 Q1009","updated":"2026-01-29T18:43:03Z"}
