{"icao":"LPMT","metar":"LPMT 250500Z 08003KT CAVOK 09/09 Q1020","updated":"2026-03-25T06:00:21Z"}
