{"icao":"LPHR","metar":"LPHR 131000Z 16003KT 110V200 9999 SCT030 20/12 Q1017","updated":"2025-10-13T10:21:01Z"}
