{"icao":"KJFK","metar":"KJFK 160451Z 29016G29KT 10SM FEW060 FEW250 M04/M16 A2957 RMK AO2 PK WND 28032/0404 SLP013 T10441161 400611044 $","updated":"2026-01-16T05:24:33Z"}
