{"icao":"LPPD","metar":"LPPD 111800Z 32006KT 250V030 9999 FEW020 23/18 Q1019","updated":"2025-10-11T18:20:37Z"}
