{"icao":"LPFR","metar":"LPFR 232330Z 09010KT CAVOK 24/11 Q1020","updated":"2026-05-23T23:55:47Z"}
