{"icao":"KLAX","metar":"KLAX 152053Z 25011KT 4SM HZ FEW007 FEW011 24/18 A2989 RMK AO2 SLP118 T02390178 58006 $","updated":"2025-09-15T21:15:05Z"}
