{"icao":"LPAR","metar":"LPAR 091000Z 05010KT 010V100 CAVOK 17/10 Q1017","updated":"2026-04-09T10:57:17Z"}
