{"icao":"LPHR","metar":"LPHR 120700Z 18009KT 160V220 9999 SCT020 BKN030 15/11 Q1030","updated":"2026-04-12T07:12:24Z"}
