{"icao":"LPMT","metar":"LPMT 231400Z 33006KT 300V010 CAVOK 29/17 Q1020","updated":"2026-05-23T14:59:22Z"}
