{"icao":"KLAX","metar":"KLAX 180553Z 07003KT 10SM FEW024 FEW030 SCT042 13/11 A2990 RMK AO2 RAB18E28 SLP123 P0000 60053 T01280106 10167 20128 53007 $","updated":"2025-11-18T06:28:09Z"}
