{"icao":"LPFR","metar":"LPFR 221700Z 10007KT CAVOK 15/05 Q1026","updated":"2025-11-22T17:14:35Z"}
