{"icao":"LPAZ","metar":"LPAZ 091400Z 17016KT 9999 FEW014 25/19 Q1023","updated":"2025-10-09T14:17:37Z"}
