{"icao":"LPPR","metar":"LPPR 241530Z 21012KT 9999 FEW015 SCT023 15/11 Q1015","updated":"2026-02-24T15:57:07Z"}
