{"icao":"KORD","metar":"KORD 101651Z 21009KT 10SM SCT065 BKN080 BKN140 BKN250 17/08 A3016 RMK AO2 RAE14 SLP214 P0001 T01670083","updated":"2025-10-10T17:16:01Z"}
