{"icao":"LPFL","metar":"LPFL 310830Z 17008KT 9999 FEW010 BKN033 16/13 Q1030","updated":"2026-03-31T09:00:26Z"}
