{"icao":"KJFK","metar":"KJFK 101651Z 15007KT 10SM BKN046 16/04 A3047 RMK AO2 SLP318 T01610039","updated":"2025-10-10T17:16:00Z"}
