{"icao":"KJFK","metar":"KJFK 111551Z 02006KT 10SM SCT022 BKN029 OVC150 17/15 A3022 RMK AO2 SLP233 T01720150","updated":"2025-10-11T16:18:48Z"}
