{"icao":"LPFL","metar":"LPFL 051730Z 32011KT 240V360 9999 SCT023 FEW024TCU 11/04 Q1009","updated":"2026-02-05T17:45:50Z"}
