{"icao":"LPPD","metar":"LPPD 221400Z 31015G25KT 280V340 9999 FEW020 17/10 Q1017","updated":"2026-01-22T14:29:10Z"}
