{"icao":"KJFK","metar":"KJFK 041951Z 35011KT 10SM FEW250 00/M12 A3018 RMK AO2 SLP220 T00001122 PNO $","updated":"2026-02-04T20:33:16Z"}
