{"icao":"LPMA","metar":"LPMA 291600Z 03008KT 310V080 9999 FEW016 21/12 Q1021","updated":"2025-11-29T16:21:58Z"}
