{"icao":"LPHR","metar":"LPHR 210900Z 26013KT 7000 FEW007 SCT012 22/21 Q1012","updated":"2025-10-21T09:19:55Z"}
