{"icao":"KORD","metar":"KORD 241951Z 18009KT 10SM SCT085 OVC250 08/M09 A3027 RMK AO2 SLP255 T00831094","updated":"2026-03-24T20:40:40Z"}
