{"icao":"LPPT","metar":"LPPT 281900Z 33014KT CAVOK 11/06 Q1023","updated":"2026-02-28T19:19:24Z"}
