{"icao":"LPPR","metar":"LPPR 171900Z 36004KT CAVOK 13/11 Q1018","updated":"2025-11-17T19:14:22Z"}
