{"icao":"LPMA","metar":"LPMA 020530Z 35007KT 280V060 9999 SCT015 16/06 Q1013","updated":"2026-02-02T06:02:49Z"}
