{"icao":"LPMA","metar":"LPMA 041630Z 36010G20KT 300V050 9999 VCSH BKN015 FEW016CB 16/11 Q1021","updated":"2026-03-04T16:42:22Z"}
