{"icao":"LPFR","metar":"LPFR 131900Z 34009KT 310V010 CAVOK 31/07 Q1018","updated":"2025-09-13T19:11:35Z"}
