{"icao":"LPMT","metar":"LPMT 160400Z 17003KT 140V210 9999 FEW025 14/14 Q1010","updated":"2025-11-16T04:24:25Z"}
