{"icao":"LPPT","metar":"LPPT 211800Z 35009KT CAVOK 12/04 Q1027","updated":"2025-11-21T18:25:11Z"}
