{"icao":"LPPR","metar":"LPPR 230900Z 22004KT 170V270 9999 VCSH FEW020 FEW025TCU BKN030 07/06 Q0998 RETS","updated":"2026-01-23T09:28:39Z"}
