{"icao":"LPAZ","metar":"LPAZ 191530Z 33008KT 290V020 9999 SCT008 19/14 Q1014","updated":"2026-04-19T15:36:15Z"}
