{"icao":"LPPS","metar":"LPPS 192200Z 33008KT 9999 FEW015 24/19 Q1020","updated":"2025-09-19T22:16:01Z"}
