{"icao":"LPFL","metar":"LPFL 030930Z 20009KT 140V250 9999 FEW009 SCT012 17/13 Q1026","updated":"2026-03-03T09:40:22Z"}
