{"icao":"LPPD","metar":"LPPD 281630Z 24023KT 6000 FEW010 SCT040 17/15 Q1007","updated":"2026-01-28T16:35:37Z"}
