{"icao":"LPAZ","metar":"LPAZ 241700Z 30025KT 9000 SCT022 16/11 Q1017","updated":"2026-02-24T17:08:34Z"}
