{"icao":"LPPT","metar":"LPPT 280900Z 27012G22KT 240V300 9999 FEW020 13/10 Q1001","updated":"2026-01-28T09:32:42Z"}
