{"icao":"KJFK","metar":"KJFK 132151Z 19023G32KT 10SM FEW070 FEW100 BKN150 BKN250 15/09 A2986 RMK AO2 PK WND 20036/2059 SLP112 T01500094","updated":"2026-05-13T22:09:55Z"}
