{"icao":"KJFK","metar":"KJFK 200551Z 02009KT 10SM CLR 19/08 A3013 RMK AO2 SLP203 T01940083 10261 20194 51020 $","updated":"2025-09-20T06:23:53Z"}
