{"icao":"LPOV","metar":"LPOV 230800Z VRB01KT CAVOK 11/08 Q1020","updated":"2025-09-23T08:22:49Z"}
