{"icao":"LPAZ","metar":"LPAZ 081700Z 24016KT 0450 R18/0450D FG VV001 17/17 Q1015","updated":"2026-02-08T17:25:32Z"}
