{"icao":"KJFK","metar":"KJFK 151751Z 06008KT 10SM FEW080 SCT200 BKN250 04/M03 A3009 RMK AO2 SLP188 4/002 933004 T00391033 10044 21017 58004 $","updated":"2026-02-15T18:35:31Z"}
