{"icao":"LPPR","metar":"LPPR 172200Z 20006KT 9999 -RA FEW005 SCT008 BKN014 11/11 Q1023","updated":"2026-02-17T22:29:33Z"}
