{"icao":"LPFL","metar":"LPFL 231100Z 18017KT 150V210 9000 -DZ FEW004 BKN008 17/16 Q1022","updated":"2025-12-23T11:17:59Z"}
