{"icao":"KORD","metar":"KORD 272151Z 07011KT 10SM FEW030 BKN300 13/04 A3013 RMK AO2 SLP205 T01280039","updated":"2025-10-27T22:16:33Z"}
