{"icao":"LPMA","metar":"LPMA 090730Z 34003KT 310V020 9999 FEW015 16/12 Q1022","updated":"2026-02-09T07:56:43Z"}
