{"icao":"LPMT","metar":"LPMT 280600Z 01009KT CAVOK 11/06 Q1025","updated":"2026-02-28T06:36:47Z"}
