{"icao":"LPPR","metar":"LPPR 042100Z 19013KT 9999 BKN007 13/12 Q0993","updated":"2026-02-04T21:31:40Z"}
