{"icao":"LPPT","metar":"LPPT 162230Z 33011KT CAVOK 14/09 Q1020","updated":"2026-04-16T22:38:18Z"}
