{"icao":"LPOV","metar":"LPOV 080900Z VRB01KT CAVOK 12/11 Q1022","updated":"2025-11-08T09:16:38Z"}
