{"icao":"LPPS","metar":"LPPS 092230Z 28014KT 9999 SCT015 16/09 Q1015","updated":"2026-05-09T22:41:53Z"}
