{"icao":"KORD","metar":"KORD 081351Z 35007KT 10SM FEW035 12/07 A3037 RMK AO2 SLP286 T01220072","updated":"2025-10-08T14:18:32Z"}
