{"icao":"LPAR","metar":"LPAR 231100Z 12006KT 070V160 CAVOK 26/18 Q1013","updated":"2026-06-23T12:05:09Z"}
