{"icao":"LPPS","metar":"LPPS 200600Z 32009KT 4000 RA SCT006 BKN012 21/20 Q1018","updated":"2025-10-20T06:28:28Z"}
