{"icao":"LPPR","metar":"LPPR 031830Z 30004KT 270V330 CAVOK 15/11 Q1023","updated":"2026-04-03T18:44:39Z"}
