{"icao":"KORD","metar":"KORD 041951Z 36005KT 10SM FEW022 OVC026 M03/M09 A3035 RMK AO2 SLP290 T10331094","updated":"2026-02-04T20:33:16Z"}
