{"icao":"LPPD","metar":"LPPD 281300Z 11027G38KT 3000 R30/1400D RA BR FEW007 BKN012 FEW025TCU 13/11 Q1012","updated":"2025-12-28T13:28:27Z"}
