{"icao":"LPMA","metar":"LPMA 161430Z 06004KT 360V120 9999 SCT014 18/13 Q1030","updated":"2026-02-16T14:39:37Z"}
