{"icao":"KJFK","metar":"KJFK 231751Z 24007KT 10SM FEW050 BKN085 BKN120 BKN250 08/00 A2994 RMK AO2 SLP139 T00830000 10089 20000 58025","updated":"2025-11-23T18:25:16Z"}
