{"icao":"LPAZ","metar":"LPAZ 251600Z 04017KT 9999 SCT016 FEW024TCU BKN048 19/16 Q1015","updated":"2025-10-25T16:19:47Z"}
