{"icao":"LPBJ","metar":"LPBJ 031900Z 14002KT CAVOK 17/09 Q1021","updated":"2025-11-03T19:14:54Z"}
