{"icao":"LPMT","metar":"LPMT 071400Z 22010KT 190V260 3000 -RADZ BR BKN008 BKN012 OVC018 19/18 Q1015","updated":"2025-11-07T14:18:22Z"}
