{"icao":"LPFL","metar":"LPFL 091300Z 19013G23KT 160V230 9999 SCT019 FEW021TCU 24/18 Q1017","updated":"2025-10-09T13:29:07Z"}
