{"icao":"KORD","metar":"KORD 160851Z 19009KT 10SM OVC013 M04/M07 A2960 RMK AO2 SLP033 60000 T10441072 56025 $","updated":"2026-01-16T09:26:24Z"}
