{"icao":"KJFK","metar":"KJFK 181115Z 16005KT 1/4SM R04R/1600V3000FT FG VV002 01/01 A2997 RMK AO2 T00110011 $","updated":"2026-02-18T11:37:47Z"}
