{"icao":"KORD","metar":"KORD 201251Z 21005KT 10SM CLR 06/02 A2999 RMK AO2 SLP156 T00560017","updated":"2025-10-20T13:28:27Z"}
