{"icao":"LPPS","metar":"LPPS 292100Z 02010KT 9999 SCT015 21/12 Q1022","updated":"2025-09-29T21:14:58Z"}
