{"icao":"LPMT","metar":"LPMT 251700Z 26010KT CAVOK 26/14 Q1020","updated":"2026-05-25T18:24:11Z"}
