{"icao":"KJFK","metar":"KJFK 301751Z 29024G32KT 10SM BKN065 BKN250 02/M14 A2967 RMK AO2 PK WND 29036/1702 SLP045 T00171139 10017 21011 58011 $","updated":"2025-12-30T18:29:50Z"}
