{"icao":"LPMT","metar":"LPMT 230600Z 07003KT CAVOK 08/08 Q1024","updated":"2026-02-23T06:06:02Z"}
