{"icao":"KLAX","metar":"KLAX 051901Z 09005KT 8SM SCT011 SCT016 BKN025 16/13 A3011 RMK AO2 T01610128 $","updated":"2026-01-05T19:19:46Z"}
