{"icao":"LPAZ","metar":"LPAZ 022200Z 06007KT 9999 BKN020 14/09 Q1029","updated":"2026-04-02T22:30:06Z"}
