{"icao":"LPMR","metar":"LPMR 132100Z 18003KT 3000 -DZ BR SCT004 BKN006 12/12 Q1022","updated":"2026-04-13T21:47:49Z"}
