{"icao":"LPHR","metar":"LPHR 260500Z 35042G66KT 6000 SHRA BKN012 18/18 Q0994","updated":"2025-09-26T05:17:11Z"}
