{"icao":"KJFK","metar":"KJFK 200751Z 20007KT 10SM BKN055 BKN250 03/M01 A3015 RMK AO2 SLP210 T00281006","updated":"2026-03-20T08:38:59Z"}
