{"icao":"LPPS","metar":"LPPS 140900Z 03014KT 9999 FEW015 SCT030 15/08 Q1031","updated":"2026-02-14T09:28:49Z"}
