{"icao":"LPLA","metar":"LPLA 172100Z 23008KT 200V260 9999 SCT007 BKN014 23/21 Q1011","updated":"2025-10-17T21:15:06Z"}
