{"icao":"LPPS","metar":"LPPS 081300Z 05014KT 9999 FEW015 BKN030 23/17 Q1026","updated":"2025-10-08T13:28:46Z"}
