{"icao":"KORD","metar":"KORD 280951Z 36006KT 10SM CLR M04/M11 A3061 RMK AO2 SLP372 T10391106","updated":"2026-03-28T10:30:57Z"}
