{"icao":"LPPR","metar":"LPPR 300130Z 34008KT CAVOK 09/06 Q1017","updated":"2025-11-30T01:42:22Z"}
