{"icao":"KLAX","metar":"KLAX 010653Z 26007KT 9SM -RA SCT014 BKN022 OVC065 17/16 A2996 RMK AO2 SLP142 P0002 T01720156 $","updated":"2026-04-01T07:18:59Z"}
