{"icao":"LPAR","metar":"LPAR 211700Z 01008KT CAVOK 14/01 Q1027","updated":"2025-11-21T17:16:12Z"}
