{"icao":"LPBJ","metar":"LPBJ 300600Z VRB01KT 0200 FG VV002 15/14 Q1014","updated":"2025-10-30T06:27:31Z"}
