{"icao":"LPMT","metar":"LPMT 191200Z 02006KT 340V050 9999 FEW030 SCT045 16/09 Q1018","updated":"2025-11-19T12:39:22Z"}
