{"icao":"LPPR","metar":"LPPR 161300Z 30007KT 250V340 9999 SCT015 17/12 Q1022","updated":"2026-04-16T13:27:37Z"}
