{"icao":"LPMA","metar":"LPMA 301030Z 02020G34KT 350V050 9999 FEW015 18/11 Q1026","updated":"2026-03-30T11:00:47Z"}
