{"icao":"LPOV","metar":"LPOV 011400Z 18012KT 1800 -DZRA BR BKN003 BKN005 15/15 Q1009","updated":"2026-02-01T15:23:34Z"}
