{"icao":"LPST","metar":"LPST 131700Z 31019KT 9999 SCT020 FEW030TCU 13/09 Q1010","updated":"2026-02-14T16:27:58Z"}
