{"icao":"LPPR","metar":"LPPR 291930Z 32007KT CAVOK 21/17 Q1021","updated":"2026-06-29T19:54:56Z"}
