{"icao":"LPPR","metar":"LPPR 310500Z VRB02KT CAVOK 10/07 Q1029","updated":"2026-03-31T05:07:48Z"}
