{"icao":"LPPR","metar":"LPPR 290400Z 18010KT 9999 FEW011 BKN015 17/15 Q1006","updated":"2025-10-29T04:25:04Z"}
