{"icao":"LPPS","metar":"LPPS 301730Z 03018KT 360V060 9999 SCT015 SCT030 22/16 Q1022","updated":"2026-06-30T17:52:03Z"}
