{"icao":"KORD","metar":"KORD 072051Z 23009G17KT 10SM FEW080 FEW250 17/05 A2955 RMK AO2 SLP005 T01720050 53004 $","updated":"2025-11-07T21:13:57Z"}
