{"icao":"LPPR","metar":"LPPR 170130Z 22006KT 190V260 9999 FEW002 BKN006 13/13 Q1028","updated":"2026-02-17T02:01:11Z"}
