{"icao":"KORD","metar":"KORD 071751Z 07010KT 10SM FEW040 FEW250 02/M09 A3051 RMK AO2 SLP337 T00221089 10022 21022 58009 $","updated":"2026-04-07T17:59:26Z"}
