{"icao":"KJFK","metar":"KJFK 070651Z 28011KT 4SM -SN FEW013 BKN018 OVC045 M03/M06 A2957 RMK AO2 SLP012 P0000 T10281056 $","updated":"2026-02-07T07:31:01Z"}
