{"icao":"LPMT","metar":"LPMT 080200Z 31004KT 9999 FEW025 15/13 Q1019","updated":"2025-11-08T03:00:53Z"}
