{"icao":"LPFR","metar":"LPFR 311830Z 35009KT CAVOK 25/10 Q1020","updated":"2026-03-31T19:01:29Z"}
