{"icao":"LPPR","metar":"LPPR 080400Z VRB01KT 5000 BR OVC032 16/15 Q1022","updated":"2025-10-08T04:20:25Z"}
