{"icao":"LPAZ","metar":"LPAZ 231800Z 31006KT 9999 FEW022 17/12 Q1025","updated":"2025-12-23T18:29:21Z"}
