{"icao":"LPBJ","metar":"LPBJ 250824Z 25003KT 8000 1500S BCFG NSC 02/02 Q1009","updated":"2025-12-25T08:26:47Z"}
