{"icao":"LPST","metar":"LPST 091500Z 31011KT 280V340 9999 FEW025 SCT035 14/09 Q1028","updated":"2026-01-09T15:22:34Z"}
