{"icao":"LPOV","metar":"LPOV 230300Z VRB01KT CAVOK 10/07 Q1019","updated":"2025-09-23T03:30:59Z"}
