{"icao":"LPPT","metar":"LPPT 050530Z 25017KT 8000 -RA FEW004 BKN009 14/14 Q0991 RERA REDZ WS R20","updated":"2026-02-05T05:54:15Z"}
