{"icao":"LPPR","metar":"LPPR 302000Z 03003KT 330V070 4500 BR NSC 07/07 Q1021","updated":"2025-12-30T20:22:01Z"}
