{"icao":"KORD","metar":"KORD 241451Z 32003KT 10SM FEW035 07/00 A3030 RMK AO2 SLP264 T00720000 53011 $","updated":"2025-10-24T15:19:21Z"}
