{"icao":"LPLA","metar":"LPLA 251800Z 33011KT 9999 SCT007 BKN011 BKN022 15/14 Q1024","updated":"2025-12-25T18:27:59Z"}
