{"icao":"KJFK","metar":"KJFK 251751Z 27013KT 10SM FEW090 SCT200 BKN240 08/M03 A2985 RMK AO2 SLP107 T00781028 10078 20028 58044 $","updated":"2025-12-25T18:28:13Z"}
