{"icao":"KJFK","metar":"KJFK 291051Z 31011KT 10SM SCT170 SCT250 16/08 A3000 RMK AO2 SLP157 T01560078 $","updated":"2026-05-29T11:28:03Z"}
