{"icao":"KLAX","metar":"KLAX 230853Z 05004KT 10SM FEW250 14/06 A3018 RMK AO2 SLP219 T01390056 58000 $","updated":"2026-02-23T09:54:25Z"}
