{"icao":"LPAR","metar":"LPAR 111400Z 24017KT 7000 BKN013 BKN020 17/15 Q1015","updated":"2026-02-11T14:51:57Z"}
