{"icao":"LPHR","metar":"LPHR 010700Z 35006KT 9999 FEW025 BKN045 14/07 Q1019","updated":"2025-11-01T07:15:53Z"}
