{"icao":"LPPR","metar":"LPPR 270700Z 09007KT CAVOK 11/06 Q1021","updated":"2025-10-27T07:18:01Z"}
