{"icao":"LPPD","metar":"LPPD 261400Z 36013KT 330V030 9999 VCSH FEW009 SCT016 15/11 Q1024","updated":"2025-12-26T14:19:01Z"}
