{"icao":"LPPS","metar":"LPPS 131500Z 04010KT 010V070 9999 FEW015 BKN030 25/19 Q1023","updated":"2025-09-13T15:14:13Z"}
