{"icao":"LPPR","metar":"LPPR 270600Z 11008KT CAVOK 12/06 Q1021","updated":"2025-10-27T06:30:20Z"}
