{"icao":"LPPR","metar":"LPPR 161400Z 22012KT 190V260 8000 -SHRA BKN017 SCT020CB 16/13 Q1006 RESHRA","updated":"2025-11-16T14:15:13Z"}
