{"icao":"KLAX","metar":"KLAX 051953Z 25009KT 10SM FEW240 SCT300 22/12 A3001 RMK AO2 SLP160 T02220117 $","updated":"2026-04-05T20:32:04Z"}
