{"icao":"KJFK","metar":"KJFK 111151Z 25007KT 10SM FEW013 FEW060 OVC080 06/04 A2982 RMK AO2 RAE1058 SLP099 P0000 60001 70087 T00560044 10061 20050 53006","updated":"2026-01-11T12:39:06Z"}
