{"icao":"LPHR","metar":"LPHR 120730Z 25018KT 6000 -SHRA SCT012 SCT035 BKN070 15/13 Q1014","updated":"2026-02-12T07:51:08Z"}
