{"icao":"LPPS","metar":"LPPS 091600Z 06007KT 010V100 9999 FEW015 BKN030 23/16 Q1024","updated":"2025-10-09T16:23:41Z"}
