{"icao":"LPHR","metar":"LPHR 050730Z 03006KT 010V110 9999 FEW017 SCT035 10/04 Q1036","updated":"2026-03-05T07:40:55Z"}
