{"icao":"LPAR","metar":"LPAR 221000Z 26009KT 230V290 9999 BKN018 24/19 Q1018","updated":"2025-10-22T10:20:07Z"}
