{"icao":"LPFR","metar":"LPFR 251600Z 22004KT 160V270 9999 FEW040 25/18 Q1016","updated":"2025-09-25T16:21:50Z"}
