{"icao":"KORD","metar":"KORD 011151Z 10004KT 10SM FEW200 BKN250 17/12 A3020 RMK AO2 SLP223 T01720122 10200 20172 51006","updated":"2025-10-01T12:38:46Z"}
