{"icao":"LPPT","metar":"LPPT 060100Z 00000KT CAVOK 16/12 Q1019","updated":"2025-10-06T01:19:03Z"}
