{"icao":"LPMR","metar":"LPMR 170000Z 35003KT 9999 BKN006 16/16 Q1019","updated":"2026-06-17T00:14:33Z"}
