{"icao":"LPFL","metar":"LPFL 091100Z 18010KT 150V210 9999 SCT018 FEW020TCU 23/18 Q1016","updated":"2025-10-09T11:14:57Z"}
