{"icao":"LPLA","metar":"LPLA 060300Z VRB01KT 9999 SCT030 BKN045 13/07 Q1032","updated":"2026-01-06T03:27:51Z"}
