{"icao":"KJFK","metar":"KJFK 230751Z 31007KT 10SM BKN230 02/M16 A3013 RMK AO2 SLP201 T00171156 $","updated":"2026-01-23T08:29:31Z"}
