{"icao":"KORD","metar":"KORD 241751Z 35005KT 10SM -RA FEW011 SCT060 OVC080 19/17 A3005 RMK AO2 RAE1657B31 SLP173 P0000 60005 T01940172 10222 20178 53000 $","updated":"2026-06-24T18:50:04Z"}
