{"icao":"LPAZ","metar":"LPAZ 301800Z 28019KT 9999 -SHRA SCT022 SCT026 19/16 Q1008","updated":"2025-10-30T18:26:54Z"}
