{"icao":"LPFR","metar":"LPFR 221800Z 09005KT CAVOK 18/05 Q1026","updated":"2026-02-22T18:33:42Z"}
