{"icao":"LPFR","metar":"LPFR 100230Z VRB02KT CAVOK 18/16 Q1018","updated":"2025-10-10T02:59:13Z"}
