{"icao":"LPLA","metar":"LPLA 251500Z 07005KT 030V100 9999 FEW009 BKN015 19/17 Q1026","updated":"2025-11-25T15:21:19Z"}
