{"icao":"LPMT","metar":"LPMT 201600Z 26009KT CAVOK 23/09 Q1009","updated":"2026-04-20T16:07:28Z"}
