{"icao":"KLAX","metar":"KLAX 022053Z 25012KT 10SM FEW011 SCT015 BKN220 BKN270 19/13 A2993 RMK AO2 SLP133 T01940133 58012","updated":"2026-05-02T21:39:28Z"}
