{"icao":"LPMA","metar":"LPMA 190430Z 01008KT 310V080 9999 SCT015 15/07 Q1023","updated":"2026-01-19T04:50:44Z"}
