{"icao":"LPPR","metar":"LPPR 021400Z 28005KT CAVOK 20/15 Q1021","updated":"2025-10-02T14:17:13Z"}
