{"icao":"KJFK","metar":"KJFK 031651Z 23010KT 10SM FEW050 SCT250 20/09 A3035 RMK AO2 SLP278 T02000089","updated":"2025-10-03T17:14:58Z"}
