{"icao":"LPPT","metar":"LPPT 262300Z 20025KT 5000 RA BR BKN010 14/13 Q1005 WS R20","updated":"2026-01-26T23:20:37Z"}
