{"icao":"LPPS","metar":"LPPS 070400Z 27004KT 9999 FEW015 18/13 Q1019","updated":"2025-11-07T04:20:53Z"}
