{"icao":"LPST","metar":"LPST 301300Z 31008KT 9999 FEW030 25/15 Q1018","updated":"2025-09-30T13:27:43Z"}
