{"icao":"KJFK","metar":"KJFK 250151Z 13006KT 10SM BKN095 BKN250 09/07 A2994 RMK SLP137 T00940067 $ ","updated":"2026-04-25T02:22:49Z"}
