{"icao":"LPFL","metar":"LPFL 172000Z 32003KT 260V360 9999 VCSH FEW006 BKN014 20/18 Q1013","updated":"2026-06-18T03:53:35Z"}
