{"icao":"LPAZ","metar":"LPAZ 022030Z 07008KT 040V100 9999 SCT018 16/12 Q1019","updated":"2026-05-02T20:39:56Z"}
