{"icao":"KJFK","metar":"KJFK 292251Z 13008KT 10SM SCT008 SCT100 BKN120 BKN160 OVC250 09/07 A2987 RMK SLP115 SCT008 V BKN T00940072 ","updated":"2026-04-29T22:55:50Z"}
