{"icao":"LPFL","metar":"LPFL 301700Z VRB07KT 9999 -DZ FEW012 BKN018 18/15 Q1024","updated":"2025-11-30T17:15:30Z"}
