{"icao":"KLAX","metar":"KLAX 211653Z 13004KT 2 1/2SM BR FEW009 SCT120 OVC160 14/12 A3010 RMK AO2 SLP192 VIS 1 1/2V4 T01390122","updated":"2026-01-21T17:53:07Z"}
