{"icao":"LPLA","metar":"LPLA 052200Z 22023KT 9999 FEW030 20/15 Q1012","updated":"2025-11-05T22:17:24Z"}
