{"icao":"LPPR","metar":"LPPR 051800Z 32011KT 280V350 9999 SCT025 16/10 Q1016","updated":"2026-05-05T18:09:31Z"}
