{"icao":"LPPR","metar":"LPPR 021130Z 19009KT 160V230 9999 SCT020 BKN030 18/11 Q1016","updated":"2026-05-02T11:43:03Z"}
