{"icao":"LPCR","metar":"LPCR 271330Z 06008KT 360V090 9999 SCT024 BKN029 20/13 Q1027","updated":"2026-06-28T07:49:30Z"}
