{"icao":"KORD","metar":"KORD 050951Z 19007KT 10SM CLR 20/13 A3009 RMK AO2 SLP183 T02000128 $","updated":"2025-10-05T10:16:27Z"}
