{"icao":"LPCS","metar":"LPCS 151600Z 26009KT 230V290 9999 FEW012 BKN030 14/11 Q1030","updated":"2026-02-15T16:28:42Z"}
