{"icao":"LPPS","metar":"LPPS 140430Z 35013KT 9999 SCT015 15/08 Q1023","updated":"2026-01-14T04:45:35Z"}
