{"icao":"LPPT","metar":"LPPT 201830Z 09007KT 9999 FEW009 BKN028 14/13 Q1007","updated":"2026-03-20T18:48:31Z"}
