{"icao":"LPBJ","metar":"LPBJ 140400Z VRB01KT 0600 FG VV003 05/05 Q1017","updated":"2026-01-14T04:45:33Z"}
