{"icao":"LPAZ","metar":"LPAZ 281000Z 25026KT 7000 FEW010 BKN040 17/16 Q1010","updated":"2026-01-28T10:27:05Z"}
