{"icao":"LPMR","metar":"LPMR 271400Z 13008KT 080V160 9999 FEW045 24/11 Q1020","updated":"2025-10-27T14:19:04Z"}
