{"icao":"LPLA","metar":"LPLA 081500Z 16012KT 9000 -RA SCT005 BKN016 23/22 Q1023","updated":"2025-10-08T15:19:01Z"}
