{"icao":"KORD","metar":"KORD 202051Z 22012G17KT 10SM SCT250 13/M06 A3024 RMK AO2 SLP245 T01281056 58025 $","updated":"2026-04-20T21:44:51Z"}
