{"icao":"LPFR","metar":"LPFR 150800Z 05006KT 010V080 CAVOK 21/18 Q1016","updated":"2025-10-15T08:25:09Z"}
