{"icao":"LPPD","metar":"LPPD 011630Z 03013KT 360V070 9999 FEW014 SCT018 16/11 Q1030","updated":"2026-04-01T16:53:21Z"}
