{"icao":"KORD","metar":"KORD 311751Z 34014KT 10SM -SN BKN021 OVC032 M06/M11 A3039 RMK AO2 SNB35 SLP305 4/004 933002 P0000 60000 T10561106 11056 21106 50000","updated":"2026-01-31T18:30:38Z"}
