{"icao":"LPMR","metar":"LPMR 252200Z 18002KT CAVOK 14/11 Q1019","updated":"2025-09-25T22:14:10Z"}
