{"icao":"LPBJ","metar":"LPBJ 030200Z 24003KT 220V280 9999 FEW008 BKN025 14/13 Q1015","updated":"2026-05-03T02:47:32Z"}
