{"icao":"LPFR","metar":"LPFR 260700Z 02008KT CAVOK 17/08 Q1012","updated":"2026-03-26T07:06:28Z"}
