{"icao":"LPMR","metar":"LPMR 251700Z 32015KT CAVOK 18/13 Q1016","updated":"2026-04-25T17:35:45Z"}
