{"icao":"LPPR","metar":"LPPR 212300Z 31012KT 280V340 9999 BKN034 BKN048 11/06 Q1004","updated":"2026-01-21T23:23:55Z"}
