{"icao":"LPFR","metar":"LPFR 070730Z 06003KT 350V130 CAVOK 24/16 Q1018","updated":"2026-06-07T07:53:18Z"}
