{"icao":"LPFR","metar":"LPFR 152330Z 27008KT CAVOK 21/17 Q1014","updated":"2026-06-15T23:43:22Z"}
