{"icao":"LPLA","metar":"LPLA 231300Z 36005KT 300V100 9999 BKN030 15/08 Q1026","updated":"2026-03-23T13:04:50Z"}
