{"icao":"KORD","metar":"KORD 160610Z 20009KT 6SM -SN BKN023 BKN033 OVC041 M06/M08 A2967 RMK AO2 P0000 T10561083 $","updated":"2026-01-16T06:32:48Z"}
