{"icao":"LPBJ","metar":"LPBJ 230300Z 28009KT 9999 FEW018 SCT035 10/08 Q1005","updated":"2026-01-23T05:26:27Z"}
