{"icao":"LPPT","metar":"LPPT 081400Z 32012KT 290V350 9999 FEW025 BKN035 20/12 Q1021","updated":"2025-10-08T14:17:54Z"}
