{"icao":"LPHR","metar":"LPHR 011100Z 19003KT 150V220 9999 FEW003 SCT006 BKN033 22/21 Q1021","updated":"2025-10-01T11:15:46Z"}
