{"icao":"KLAX","metar":"KLAX 230253Z 33003KT 5SM BR OVC230 16/14 A2992 RMK AO2 SLP133 T01610139 55001 $","updated":"2025-12-23T03:25:31Z"}
