{"icao":"LPOV","metar":"LPOV 011400Z 17013KT CAVOK 15/07 Q1018","updated":"2025-12-01T14:20:39Z"}
