{"icao":"LPHR","metar":"LPHR 081000Z 24030G40KT 9999 FEW013 SCT020 BKN035 20/17 Q0989","updated":"2025-12-08T10:22:11Z"}
