{"icao":"LPPI","metar":"LPPI 180830Z 24007KT 210V280 9999 FEW016 SCT025 BKN043 20/17 Q1014","updated":"2026-06-18T08:45:10Z"}
