{"icao":"LPBJ","metar":"LPBJ 310800Z 11004KT 0400 FG NSC 02/02 Q1019","updated":"2025-12-31T08:28:10Z"}
