{"icao":"LPPT","metar":"LPPT 131300Z 32003KT 270V020 9999 FEW018 FEW025CB SCT030 18/12 Q1019","updated":"2026-05-13T13:09:56Z"}
