{"icao":"KJFK","metar":"KJFK 021351Z 06005KT 10SM SCT032 BKN065 OVC095 04/M01 A2999 RMK AO2 SLP156 T00391011 $","updated":"2025-12-02T14:20:58Z"}
