{"icao":"LPMR","metar":"LPMR 251200Z 30005KT 8000 FEW009 18/13 Q1021","updated":"2026-03-25T13:07:32Z"}
