{"icao":"KJFK","metar":"KJFK 081351Z 20008KT 1/8SM R04R/0800FT FG VV002 07/07 A2982 RMK AO2 SLP098 T00670067","updated":"2026-03-08T14:24:19Z"}
