{"icao":"LPPR","metar":"LPPR 140900Z 19005KT 5000 BR OVC004 14/14 Q1023","updated":"2026-04-14T09:16:11Z"}
