{"icao":"LPMR","metar":"LPMR 221100Z 25010KT 220V290 6000 BKN008 BKN015 21/19 Q1018","updated":"2025-10-22T11:16:13Z"}
