{"icao":"KJFK","metar":"KJFK 261951Z 05017G25KT 10SM SCT040 SCT075 SCT180 13/03 A3012 RMK SLP200 T01330033 $ ","updated":"2026-04-26T20:37:20Z"}
