{"icao":"LPPR","metar":"LPPR 130730Z 21008KT 180V240 9999 SCT035 23/15 Q1018","updated":"2026-06-13T07:44:41Z"}
