{"icao":"KORD","metar":"KORD 072051Z 04013G19KT 10SM FEW025 FEW250 19/06 A3009 RMK AO2 SLP189 60000 T01890056 55002","updated":"2025-10-07T21:14:49Z"}
