{"icao":"KORD","metar":"KORD 050251Z 18008KT 10SM FEW065 FEW250 13/04 A2995 RMK AO2 SLP142 T01280044 58016 $","updated":"2025-11-05T03:10:10Z"}
