{"icao":"LPPR","metar":"LPPR 220100Z 35005KT CAVOK 12/08 Q1023","updated":"2025-09-22T01:23:53Z"}
