{"icao":"KORD","metar":"KORD 211551Z 26007KT 10SM OVC020 M02/M07 A3011 RMK AO2 SLP205 T10221072 $","updated":"2026-02-21T16:27:48Z"}
