{"icao":"LPFL","metar":"LPFL 131400Z 19007KT 150V300 9999 SCT016 25/18 Q1024","updated":"2025-09-13T14:12:55Z"}
