{"icao":"KORD","metar":"KORD 151551Z 26006KT 9SM FEW110 08/03 A2991 RMK AO2 SLP132 T00830033 $","updated":"2026-02-15T16:29:18Z"}
