{"icao":"LPBJ","metar":"LPBJ 190600Z 29004KT CAVOK 16/13 Q1014","updated":"2026-06-19T06:16:54Z"}
