{"icao":"LPPR","metar":"LPPR 252300Z 01009KT CAVOK 14/05 Q1018","updated":"2026-03-25T23:33:38Z"}
