{"icao":"LPCS","metar":"LPCS 160900Z 31003KT 290V350 CAVOK 23/10 Q1015","updated":"2025-10-16T09:19:44Z"}
