{"icao":"LPMR","metar":"LPMR 281800Z 17009KT 4000 -RA BR FEW015 SCT040 17/16 Q1010","updated":"2025-10-28T18:28:02Z"}
