{"icao":"LPMT","metar":"LPMT 020600Z 14015KT 9999 -RA SCT015 BKN030 14/14 Q1002","updated":"2026-01-02T07:23:05Z"}
