{"icao":"LPAZ","metar":"LPAZ 222000Z 09004KT 9999 FEW020 SCT031 16/13 Q1030","updated":"2025-11-22T20:19:21Z"}
