{"icao":"KLAX","metar":"KLAX 211053Z 05003KT 10SM FEW015 SCT020 SCT160 BKN250 14/12 A3001 RMK AO2 SLP160 T01440117 $","updated":"2026-04-21T11:05:15Z"}
