{"icao":"KORD","metar":"KORD 011251Z 04013KT 10SM BKN030 M04/M11 A3041 RMK AO2 SLP310 T10391106 $","updated":"2026-03-01T13:37:34Z"}
