{"icao":"LPPS","metar":"LPPS 261600Z 06009KT 030V100 9999 SCT015 BKN030 19/12 Q1022","updated":"2025-11-26T16:24:42Z"}
