{"icao":"LPST","metar":"LPST 200900Z 36006KT 330V030 9999 FEW024 11/07 Q1021","updated":"2025-11-20T10:20:10Z"}
