{"icao":"LPFL","metar":"LPFL 041830Z 33007KT 300V360 9999 FEW012 SCT015 BKN028 13/10 Q1022","updated":"2026-04-04T18:40:14Z"}
