{"icao":"LPBJ","metar":"LPBJ 232300Z 27005KT CAVOK 13/11 Q1015","updated":"2026-04-23T23:43:08Z"}
