{"icao":"LPLA","metar":"LPLA 271100Z 06007KT 340V110 9999 BKN045 20/10 Q1026","updated":"2025-09-27T11:12:39Z"}
