{"icao":"KORD","metar":"KORD 152051Z 23009KT 10SM SCT100 OVC250 21/16 A2979 RMK AO2 SLP085 60000 T02110161 58001","updated":"2026-04-15T21:51:27Z"}
