{"icao":"KJFK","metar":"KJFK 032051Z 17008KT 10SM FEW016 BKN250 11/08 A3018 RMK AO2 SLP219 VIS N 5 T01110083 56019","updated":"2026-04-03T21:32:58Z"}
