{"icao":"LPPT","metar":"LPPT 140400Z 31004KT 280V020 9999 FEW012 SCT020 12/11 Q1018","updated":"2026-03-14T04:11:57Z"}
