{"icao":"LPMA","metar":"LPMA 271200Z 21009KT 150V240 9999 SCT016 SCT030 22/14 Q1021","updated":"2026-05-27T12:19:17Z"}
