{"icao":"LPPT","metar":"LPPT 202000Z 23005KT 9999 FEW010 FEW020TCU SCT046 11/10 Q1013","updated":"2025-12-20T20:19:28Z"}
