{"icao":"KJFK","metar":"KJFK 191251Z 32008KT 2 1/2SM -DZ BR OVC004 10/09 A2979 RMK SFC VIS 5 SLP086 P0000 T01000094 ","updated":"2026-04-19T12:59:47Z"}
