{"icao":"LPPD","metar":"LPPD 011300Z 19005KT 150V230 9999 FEW010 23/20 Q1022","updated":"2025-10-01T13:28:09Z"}
