{"icao":"KJFK","metar":"KJFK 112251Z 29029G40KT 10SM SCT047 SCT055 BKN070 03/M03 A2985 RMK AO2 PK WND 30040/2250 PRESRR SLP108 T00331028","updated":"2026-01-11T23:18:39Z"}
