{"icao":"LPPT","metar":"LPPT 121800Z 28005KT 260V340 9999 FEW040 24/13 Q1015","updated":"2025-10-12T18:21:43Z"}
