{"icao":"KJFK","metar":"KJFK 161551Z 18024G31KT 1/4SM R04R/2400V3000FT -RA FG VV002 10/10 A2971 RMK AO2 PK WND 18032/1532 SFC VIS 1/2 DZE1459RAB1459 SLP061 P0000 T01000100","updated":"2026-03-16T16:11:04Z"}
