{"icao":"LPPR","metar":"LPPR 181030Z 19016KT 9999 SCT003 BKN005 14/13 Q1016","updated":"2026-02-18T10:42:28Z"}
