{"icao":"LPFL","metar":"LPFL 010800Z 20004KT 160V240 9999 VCSH FEW008 BKN015 FEW016CB 23/21 Q1017","updated":"2025-10-01T08:23:58Z"}
