{"icao":"LPMA","metar":"LPMA 060800Z 01013KT 350V050 9999 BKN015 15/08 Q1026","updated":"2026-01-06T08:29:10Z"}
