{"icao":"LPPT","metar":"LPPT 181230Z 05009G20KT 330V090 CAVOK 17/09 Q1019","updated":"2025-11-18T12:39:02Z"}
