{"icao":"KJFK","metar":"KJFK 051451Z 06005KT 1 1/2SM R04R/3500VP6000FT -RA BR FEW000 BKN005 OVC042 05/04 A3025 RMK AO2 SFC VIS 2 1/2 SLP242 BR FEW000 P0013 60027 T00500044 50009","updated":"2026-03-05T15:49:22Z"}
