{"icao":"LPFL","metar":"LPFL 291500Z 35004KT 320V020 9999 FEW004 SCT006 23/21 Q1021","updated":"2025-09-29T15:18:28Z"}
