{"icao":"LPOV","metar":"LPOV 031600Z 05008KT 010V090 9999 FEW030 21/09 Q1013","updated":"2026-03-03T16:45:02Z"}
