{"icao":"LPOV","metar":"LPOV 201300Z 16009KT 8000 -SHRA FEW014 BKN018 BKN040 10/09 Q1017","updated":"2026-01-20T13:45:41Z"}
