{"icao":"LPFR","metar":"LPFR 190200Z 04006KT CAVOK 17/12 Q1016","updated":"2026-04-19T02:34:17Z"}
