{"icao":"LPOV","metar":"LPOV 291700Z 21011KT 4000 -SHRA BR SCT014 BKN020 14/14 Q1008","updated":"2026-01-29T17:36:00Z"}
