{"icao":"KJFK","metar":"KJFK 021951Z 28007KT 10SM FEW045 SCT060 BKN200 BKN250 17/01 A2983 RMK SLP101 T01670011 ","updated":"2026-05-02T20:40:00Z"}
