{"icao":"LPAZ","metar":"LPAZ 072000Z 22007KT 9999 FEW020 19/14 Q1022","updated":"2025-11-07T20:18:20Z"}
