{"icao":"LPPD","metar":"LPPD 280900Z 01021KT 7000 -SHRA SCT011 14/13 Q1025","updated":"2025-11-28T09:19:49Z"}
