{"icao":"LPPS","metar":"LPPS 152200Z 06008KT 9999 SCT010 SCT030 15/13 Q1021","updated":"2026-03-15T22:27:04Z"}
