{"icao":"LPMR","metar":"LPMR 242300Z 23008KT 4000 RA SCT015 BKN020 11/08 Q1014","updated":"2026-01-24T23:18:41Z"}
