{"icao":"LPMR","metar":"LPMR 191500Z 34012KT 9999 FEW020 SCT035 15/08 Q1016","updated":"2025-11-19T15:20:00Z"}
