{"icao":"LPPT","metar":"LPPT 021700Z 31009KT 280V340 CAVOK 26/12 Q1020","updated":"2025-10-02T17:12:57Z"}
