{"icao":"KORD","metar":"KORD 210851Z 24007KT 10SM FEW090 FEW250 09/07 A2974 RMK AO2 SLP071 T00940067 51011 $","updated":"2025-10-21T09:20:10Z"}
