{"icao":"LPLA","metar":"LPLA 132200Z 21008KT 170V250 9999 BKN035 15/11 Q1025","updated":"2026-01-13T22:20:55Z"}
