{"icao":"LPAZ","metar":"LPAZ 150630Z 02007KT 330V050 9999 FEW024 BKN038 14/07 Q1030","updated":"2026-05-15T06:54:05Z"}
