{"icao":"LPMT","metar":"LPMT 141900Z 34004KT 9999 FEW030 13/11 Q1022","updated":"2026-01-14T19:18:31Z"}
