{"icao":"LPFR","metar":"LPFR 032330Z 30007KT CAVOK 16/12 Q1016","updated":"2026-05-03T23:42:43Z"}
