{"icao":"LPHR","metar":"LPHR 022300Z 12005KT 090V150 9999 FEW015 BKN025 15/12 Q1029","updated":"2026-04-02T23:34:15Z"}
