{"icao":"LPPR","metar":"LPPR 081700Z 20014KT 3500 -RADZ BR SCT007 BKN014 11/10 Q1011","updated":"2026-02-08T17:25:29Z"}
