{"icao":"LPCS","metar":"LPCS 101500Z 23009KT 190V260 9999 FEW017 19/15 Q1018","updated":"2025-11-10T15:20:49Z"}
