{"icao":"LPMT","metar":"LPMT 302000Z 14002KT 4000 0200N BCFG BR NSC 06/06 Q1020","updated":"2025-12-30T20:22:04Z"}
