{"icao":"LPFR","metar":"LPFR 260400Z 02003KT CAVOK 10/05 Q1022","updated":"2025-11-26T04:25:18Z"}
