{"icao":"KLAX","metar":"KLAX 101853Z 24009G20KT 5SM HZ FEW010 20/14 A2994 RMK AO2 SLP138 T02000139","updated":"2026-05-10T19:01:34Z"}
