{"icao":"LPMT","metar":"LPMT 231000Z 27003KT 230V320 9999 FEW015 BKN021 BKN045 23/19 Q1020","updated":"2025-10-23T10:19:28Z"}
