{"icao":"KJFK","metar":"KJFK 290351Z 21010KT 1SM R04R/P6000FT -DZ BR BKN006 OVC010 04/03 A2987 RMK AO2 SFC VIS 2 DZB27 SLP113 P0001 T00390033 $","updated":"2025-12-29T04:48:15Z"}
