{"icao":"LPPR","metar":"LPPR 262300Z 10003KT 060V150 CAVOK 08/08 Q1025","updated":"2025-11-26T23:17:06Z"}
