{"icao":"LPBJ","metar":"LPBJ 140800Z 30005KT 280V020 9999 FEW016 18/16 Q1022","updated":"2025-09-14T08:19:57Z"}
