{"icao":"LPFL","metar":"LPFL 311200Z 19009G20KT 140V250 8000 -DZ FEW003 BKN008 FEW012TCU 20/19 Q1022","updated":"2026-05-31T12:10:38Z"}
