{"icao":"LPPS","metar":"LPPS 070130Z 03008KT 360V070 9999 FEW015 BKN030 13/07 Q1026","updated":"2026-03-07T01:52:23Z"}
