{"icao":"LPHR","metar":"LPHR 082200Z 29011KT 9999 FEW012 19/17 Q1032","updated":"2026-06-09T05:04:14Z"}
