{"icao":"KJFK","metar":"KJFK 110351Z 24013G19KT 10SM FEW017 FEW048 BKN100 BKN180 06/03 A2942 RMK AO2 SLP962 T00560028","updated":"2025-12-11T04:34:17Z"}
