{"icao":"KLAX","metar":"KLAX 311253Z 01006KT 10SM FEW090 BKN120 OVC200 18/06 A3003 RMK AO2 RAE01 SLP166 P0000 T01830056 $","updated":"2025-12-31T13:31:51Z"}
