{"icao":"LPFR","metar":"LPFR 131500Z 18025KT 6000 R28/1300N -RA FEW008 SCT014 FEW018CB BKN025 19/17 Q1001 RERA","updated":"2025-11-13T15:21:13Z"}
