{"icao":"LPMR","metar":"LPMR 112100Z 16012KT CAVOK 17/13 Q1007","updated":"2025-11-11T21:16:19Z"}
