{"icao":"LPPR","metar":"LPPR 092030Z 34012KT CAVOK 16/11 Q1020","updated":"2026-06-09T20:55:56Z"}
