{"icao":"LPHR","metar":"LPHR 021800Z 34011KT 310V020 9999 SCT018 SCT035 15/08 Q1010","updated":"2026-01-02T18:29:12Z"}
