{"icao":"LPPR","metar":"LPPR 270630Z 13006KT 6000 -RA FEW008 SCT012 BKN035 11/10 Q1024 RERA","updated":"2026-02-27T06:52:20Z"}
