{"icao":"LPMA","metar":"LPMA 211330Z 04018KT 9999 FEW016 18/10 Q1026","updated":"2026-02-21T13:40:46Z"}
