{"icao":"LPPS","metar":"LPPS 051300Z 01007KT 330V060 9999 FEW015 BKN030 23/15 Q1023","updated":"2025-10-05T13:20:33Z"}
