{"icao":"LPPD","metar":"LPPD 052300Z 32004KT 280V350 9999 FEW016 BKN025 17/14 Q1026","updated":"2026-06-05T23:07:06Z"}
