{"icao":"KLAX","metar":"KLAX 301853Z 08004KT 10SM CLR 28/06 A2995 RMK AO2 SLP140 T02830061 $","updated":"2025-10-30T19:14:52Z"}
