{"icao":"LPMT","metar":"LPMT 022000Z 02007KT 9000 BKN024 13/13 Q1008","updated":"2026-03-02T20:36:38Z"}
