{"icao":"KORD","metar":"KORD 132051Z 25014G27KT 10SM SCT250 11/02 A2951 RMK AO2 PK WND 24027/2044 SLP996 T01110022 56016 $","updated":"2026-01-13T21:20:40Z"}
