{"icao":"LPMR","metar":"LPMR 120900Z 17020KT 9999 SCT020 19/14 Q1003","updated":"2025-11-12T09:20:12Z"}
