{"icao":"KJFK","metar":"KJFK 270651Z 28014G26KT 10SM SCT095 07/M03 A2985 RMK AO2 PK WND 28031/0553 SLP108 T00671033","updated":"2025-11-27T07:19:45Z"}
