{"icao":"LPPR","metar":"LPPR 152330Z 33006KT 300V360 9999 BKN007 16/15 Q1018","updated":"2026-06-15T23:43:22Z"}
