{"icao":"LPCS","metar":"LPCS 271600Z 36010KT 9999 FEW020 16/08 Q1023","updated":"2025-11-27T16:23:20Z"}
