{"icao":"LPCS","metar":"LPCS 102100Z 02010KT CAVOK 22/12 Q1020","updated":"2025-10-10T23:15:09Z"}
