{"icao":"LPOV","metar":"LPOV 070100Z 22009KT 190V250 9999 FEW012 FEW020CB 11/07 Q1007 RESHRA","updated":"2026-02-07T01:54:36Z"}
