{"icao":"KJFK","metar":"KJFK 151651Z 12012KT 10SM BKN065 BKN110 BKN250 05/M03 A3048 RMK AO2 SLP320 T00501033","updated":"2026-03-15T17:26:52Z"}
