{"icao":"KJFK","metar":"KJFK 281751Z 21007KT 10SM FEW035 FEW085 FEW200 SCT250 24/18 A3006 RMK AO2 SLP178 T02440178 10250 20183 58008","updated":"2025-09-28T18:21:39Z"}
