{"icao":"LPMA","metar":"LPMA 241800Z 03019G30KT 350V050 9999 FEW015 19/15 Q1019","updated":"2026-05-24T18:04:46Z"}
