{"icao":"LPAR","metar":"LPAR 251200Z VRB02KT 6000 SCT009 BKN015 BKN025 15/13 Q1017","updated":"2026-02-25T13:02:10Z"}
