{"icao":"LPPR","metar":"LPPR 111000Z 10010KT CAVOK 23/11 Q1022","updated":"2025-10-11T10:16:16Z"}
