{"icao":"LPMA","metar":"LPMA 240500Z 01011KT 9999 FEW016 18/13 Q1025","updated":"2025-11-24T05:20:01Z"}
