{"icao":"LPPR","metar":"LPPR 091000Z 35005KT 330V030 CAVOK 20/16 Q1021","updated":"2025-10-09T10:19:01Z"}
