{"icao":"LPCS","metar":"LPCS 132000Z 01010KT CAVOK 22/11 Q1016","updated":"2025-10-14T03:36:25Z"}
