{"icao":"LPMA","metar":"LPMA 310700Z 32003KT 280V350 9999 FEW015 15/13 Q1024","updated":"2026-01-31T07:27:37Z"}
