{"icao":"LPPD","metar":"LPPD 080600Z 11008KT 9999 SCT011 21/19 Q1025","updated":"2025-10-08T06:27:23Z"}
