{"icao":"LPST","metar":"LPST 101700Z 26015KT 0500 -DZ FG BKN002 BKN010 15/15 Q1016","updated":"2026-02-10T23:36:36Z"}
