{"icao":"LPFL","metar":"LPFL 131400Z 34009KT 260V030 9999 SCT024 16/08 Q1009","updated":"2025-11-13T14:19:09Z"}
