{"icao":"KJFK","metar":"KJFK 100951Z 34004KT 10SM FEW130 BKN190 BKN250 M04/M13 A3017 RMK AO2 SLP215 T10391133 $","updated":"2026-02-10T09:59:39Z"}
