{"icao":"KJFK","metar":"KJFK 232151Z 28013G23KT 10SM SCT095 BKN250 09/01 A2995 RMK AO2 PK WND 28027/2112 SLP142 T00890011","updated":"2025-11-23T22:17:21Z"}
