{"icao":"LPBJ","metar":"LPBJ 241600Z VRB02KT 9999 FEW035 22/11 Q1019","updated":"2026-03-24T16:08:17Z"}
