{"icao":"LPPR","metar":"LPPR 290630Z 23008KT 190V270 2500 RADZ BR SCT003 BKN004 14/14 Q1002","updated":"2026-01-29T06:44:27Z"}
