{"icao":"LPBJ","metar":"LPBJ 231500Z 17017KT CAVOK 34/14 Q1012","updated":"2026-06-23T15:46:10Z"}
