{"icao":"LPMA","metar":"LPMA 252030Z 36014KT 320V030 9999 FEW015 17/11 Q1018","updated":"2026-03-25T20:37:34Z"}
