{"icao":"LPMT","metar":"LPMT 161900Z 31004KT 270V350 9999 FEW015 SCT030 09/07 Q1014","updated":"2026-01-16T19:19:04Z"}
