{"icao":"LPAZ","metar":"LPAZ 192000Z 03013KT 9999 SCT034 20/13 Q1024","updated":"2025-09-19T20:18:37Z"}
