{"icao":"LPFR","metar":"LPFR 102130Z 24004KT CAVOK 20/17 Q1015","updated":"2026-06-10T22:01:27Z"}
