{"icao":"KJFK","metar":"KJFK 230751Z 25005KT 10SM OVC090 02/M05 A3036 RMK AO2 SLP282 T00171050 $","updated":"2025-12-23T08:28:33Z"}
