{"icao":"LPPR","metar":"LPPR 292000Z 30002KT 9999 FEW038 15/13 Q1011","updated":"2025-10-29T20:20:44Z"}
