{"icao":"LPPT","metar":"LPPT 281000Z 01007KT 9999 FEW016 13/09 Q1024","updated":"2025-11-28T10:20:45Z"}
