{"icao":"KLAX","metar":"KLAX 141253Z 23006KT 10SM OVC014 20/17 A2987 RMK AO2 SLP113 T02000167 $","updated":"2025-09-14T13:18:22Z"}
