{"icao":"LPPT","metar":"LPPT 260700Z 03011KT CAVOK 14/08 Q1016","updated":"2026-03-26T07:06:28Z"}
