{"icao":"LPLA","metar":"LPLA 280700Z 13007KT 9999 FEW025 BKN035 18/13 Q1028","updated":"2025-09-28T07:14:22Z"}
