{"icao":"LPMA","metar":"LPMA 081330Z 24015G26KT 190V280 9999 FEW016 21/10 Q1007","updated":"2026-05-08T13:44:18Z"}
