{"icao":"LPHR","metar":"LPHR 241600Z 21005KT 110V250 9999 FEW006 SCT012 22/18 Q1020","updated":"2026-06-24T16:20:21Z"}
