{"icao":"KLAX","metar":"KLAX 181853Z VRB03KT 6SM HZ FEW009 SCT100 BKN140 BKN250 21/11 A2999 RMK AO2 SLP155 T02110106 $","updated":"2025-12-18T19:16:43Z"}
