{"icao":"KLAX","metar":"KLAX 261653Z 12005KT 4SM -RA BR FEW008 SCT013 OVC017 15/14 A3008 RMK AO2 RAEMMB1559RAEMMB12 SLP184 SCT V BKN P0005 T01500139 $","updated":"2025-12-26T17:16:32Z"}
