{"icao":"LPMA","metar":"LPMA 011130Z 04014KT 9999 FEW013 20/12 Q1023","updated":"2026-04-01T11:52:27Z"}
