{"icao":"LPFL","metar":"LPFL 101230Z 19022G46KT 160V240 8000 BKN014 22/18 Q1006","updated":"2025-12-10T12:41:25Z"}
