{"icao":"LPMA","metar":"LPMA 280800Z 34008KT 320V020 9999 FEW015 16/12 Q1016","updated":"2026-01-28T08:30:44Z"}
