{"icao":"LPPR","metar":"LPPR 220430Z 10003KT 020V190 CAVOK 08/07 Q1028","updated":"2026-02-22T04:47:17Z"}
