{"icao":"KLAX","metar":"KLAX 132253Z 25013KT 10SM BKN016 BKN026 22/17 A2988 RMK AO2 SLP115 T02170167 $","updated":"2025-09-13T23:14:32Z"}
