{"icao":"KORD","metar":"KORD 020651Z 27004KT 10SM OVC035 M06/M11 A2987 RMK AO2 SLP126 T10611111 $","updated":"2026-01-02T07:23:19Z"}
