{"icao":"LPOV","metar":"LPOV 260800Z 05004KT 020V080 CAVOK 13/04 Q1019","updated":"2026-03-26T08:54:18Z"}
