{"icao":"LPPR","metar":"LPPR 202130Z 08004KT 060V120 CAVOK 17/11 Q1008","updated":"2026-04-20T21:44:28Z"}
