{"icao":"LPMA","metar":"LPMA 022300Z 36008KT 9999 SCT015 21/17 Q1023","updated":"2025-10-02T23:15:56Z"}
