{"icao":"KJFK","metar":"KJFK 182351Z 24020G26KT 10SM FEW065 SCT250 28/16 A2953 RMK AO2 PK WND 25030/2258 SLP000 T02780161 10317 20256 53016","updated":"2026-06-19T00:25:20Z"}
