{"icao":"KORD","metar":"KORD 270651Z 22015G25KT 10SM BKN120 M12/M18 A2995 RMK AO2 PK WND 23029/0609 SLP155 T11221183","updated":"2026-01-27T07:26:30Z"}
