{"icao":"LPPS","metar":"LPPS 250700Z 02003KT 320V060 9999 FEW014 15/12 Q1018","updated":"2026-04-25T07:13:43Z"}
