{"icao":"LPAZ","metar":"LPAZ 291500Z 22012KT 4000 BKN002 BKN005 17/16 Q1015","updated":"2026-01-29T15:34:21Z"}
