{"icao":"LPFL","metar":"LPFL 192000Z 17007KT 9999 SCT017 SCT030 15/13 Q1029","updated":"2026-01-19T20:22:41Z"}
