{"icao":"LPAR","metar":"LPAR 201500Z 26008KT 220V290 9999 FEW020 SCT035 15/09 Q1018","updated":"2026-01-20T15:29:19Z"}
