{"icao":"LPMT","metar":"LPMT 041100Z 36005KT 320V070 CAVOK 21/14 Q1022","updated":"2026-04-04T11:28:05Z"}
