{"icao":"LPMA","metar":"LPMA 131730Z 36008KT 330V050 9999 SCT015 17/09 Q1025","updated":"2026-04-13T17:58:29Z"}
