{"icao":"KLAX","metar":"KLAX 060853Z 19005KT 10SM OVC200 18/14 A2999 RMK AO2 SLP151 T01780144 52004 $","updated":"2026-04-06T09:07:22Z"}
