{"icao":"LPCS","metar":"LPCS 112100Z 35018KT 9999 SCT029 12/06 Q1018 WS R35","updated":"2026-04-11T21:30:58Z"}
