{"icao":"LPAZ","metar":"LPAZ 282230Z 15013KT 9999 FEW009 SCT029 BKN043 17/15 Q1013","updated":"2026-04-28T22:57:18Z"}
