{"icao":"LPPD","metar":"LPPD 031030Z 06005KT 030V090 9999 FEW020 BKN030 14/09 Q1027","updated":"2026-04-03T10:41:45Z"}
