{"icao":"LPMA","metar":"LPMA 130600Z 28009KT 250V310 9999 SCT015 15/08 Q1016","updated":"2026-01-13T06:32:29Z"}
