{"icao":"KLAX","metar":"KLAX 031753Z 04004KT 7SM FEW028 SCT040 BKN150 17/11 A3005 RMK AO2 SLP177 T01670111 10167 20117 51021 $","updated":"2025-12-03T18:30:15Z"}
