{"icao":"LPFR","metar":"LPFR 011800Z 21011KT 9999 FEW012 BKN018 16/14 Q1011","updated":"2026-02-01T18:33:21Z"}
