{"icao":"KJFK","metar":"KJFK 072251Z 28010KT 10SM BKN044 BKN150 BKN250 05/M04 A3005 RMK AO2 SLP175 T00501044 $","updated":"2025-12-07T23:17:00Z"}
