{"icao":"LPPD","metar":"LPPD 250500Z 16003KT 130V190 0100 R30/M0050 FG VV001 17/17 Q1023","updated":"2026-05-25T05:18:17Z"}
