{"icao":"LPHR","metar":"LPHR 311400Z 25006KT 220V280 9999 FEW014 17/13 Q1002","updated":"2025-12-31T14:19:10Z"}
