{"icao":"LPCS","metar":"LPCS 181100Z 19005KT 150V240 CAVOK 22/13 Q1017","updated":"2026-04-18T11:33:05Z"}
