{"icao":"LPMA","metar":"LPMA 191930Z 36007KT 9999 BKN016 16/10 Q1027","updated":"2026-02-19T19:37:38Z"}
