{"icao":"KJFK","metar":"KJFK 231451Z 02014KT 5SM -DZ BR FEW007 BKN012 OVC019 05/03 A2983 RMK AO2 RAE1358DZB1358 SLP102 P0000 60010 T00500033 53029","updated":"2026-03-23T14:53:27Z"}
