{"icao":"KJFK","metar":"KJFK 272151Z 27015KT 10SM FEW040 BKN055 BKN070 BKN250 M07/M15 A2999 RMK AO2 PK WND 25028/2101 SLP156 T10671150 $","updated":"2026-01-27T22:21:56Z"}
