{"icao":"KORD","metar":"KORD 042251Z 00000KT 10SM SCT028 M03/M10 A3035 RMK AO2 SLP288 T10331100","updated":"2026-02-04T23:26:04Z"}
