{"icao":"LPFR","metar":"LPFR 190630Z 25006KT 6000 TSRA FEW006 SCT012 FEW020CB BKN026 13/12 Q1005","updated":"2026-03-19T07:03:21Z"}
