{"icao":"KJFK","metar":"KJFK 192051Z 31015G20KT 10SM SCT019 SCT025 BKN150 07/04 A2994 RMK RAE23 SLP138 P0000 60004 T00720039 51019 ","updated":"2026-04-19T21:34:47Z"}
