{"icao":"LPMA","metar":"LPMA 281000Z 04008KT 010V080 9999 BKN016 21/13 Q1023","updated":"2025-11-28T10:20:47Z"}
