{"icao":"KJFK","metar":"KJFK 151751Z 26021G28KT 10SM FEW055 FEW120 FEW200 03/M09 A2945 RMK AO2 PK WND 27029/1719 SLP971 60000 T00331089 10061 20033 58002 $","updated":"2026-01-15T18:35:20Z"}
