{"icao":"LPMR","metar":"LPMR 072100Z VRB01KT CAVOK 07/06 Q1030","updated":"2026-01-07T21:18:41Z"}
