{"icao":"LPST","metar":"LPST 171200Z 12015KT CAVOK 17/06 Q1009","updated":"2026-03-17T13:09:32Z"}
