{"icao":"LPMT","metar":"LPMT 281600Z 25008KT 9999 SCT020 15/12 Q1006","updated":"2026-01-28T16:35:37Z"}
