{"icao":"LPMT","metar":"LPMT 071900Z 29017G28KT 9999 SCT015 FEW018CB 13/08 Q1007","updated":"2026-02-07T19:22:48Z"}
