{"icao":"KORD","metar":"KORD 281451Z 03009KT 10SM FEW300 19/09 A3019 RMK AO2 SLP221 T01890089 51007","updated":"2026-05-28T15:50:32Z"}
