{"icao":"LPMA","metar":"LPMA 181900Z 03008KT 310V060 9999 FEW016 22/16 Q1018","updated":"2026-06-18T19:27:14Z"}
