{"icao":"LPMT","metar":"LPMT 241500Z 31012KT 280V350 9999 FEW015 SCT030 BKN040 12/09 Q1013","updated":"2026-01-24T15:19:06Z"}
