{"icao":"LPMT","metar":"LPMT 271900Z 23008KT CAVOK 25/13 Q1017","updated":"2026-05-27T19:23:05Z"}
