{"icao":"LPPS","metar":"LPPS 291930Z 04014KT 360V070 9999 SCT014 SCT030 22/17 Q1023","updated":"2026-06-29T19:54:59Z"}
