{"icao":"LPFR","metar":"LPFR 042100Z 30007KT 9999 FEW025 14/11 Q1004","updated":"2026-01-04T21:17:39Z"}
