{"icao":"KORD","metar":"KORD 090751Z 17010KT 8SM OVC042 M06/M09 A2998 RMK AO2 SNB0655E30 PRESFR SLP160 P0001 T10611094","updated":"2025-12-09T08:28:15Z"}
