{"icao":"KORD","metar":"KORD 271651Z 34008KT 10SM FEW032 03/M06 A3040 RMK AO2 SLP300 T00331061","updated":"2026-03-27T16:53:48Z"}
