{"icao":"LPPR","metar":"LPPR 281500Z 32012KT CAVOK 14/08 Q1025","updated":"2026-02-28T15:20:29Z"}
