{"icao":"LPPR","metar":"LPPR 171300Z 17006KT 140V210 9999 SCT020 BKN047 09/07 Q1010","updated":"2026-01-17T13:27:47Z"}
