{"icao":"LPMT","metar":"LPMT 222000Z 35007KT CAVOK 24/10 Q1019","updated":"2026-05-22T20:42:07Z"}
