{"icao":"KJFK","metar":"KJFK 291551Z 31017G26KT 10SM FEW055 FEW250 04/M09 A3044 RMK AO2 PK WND 30026/1551 SLP308 T00441089 $","updated":"2025-11-29T16:21:59Z"}
