{"icao":"LPPR","metar":"LPPR 220800Z 35005KT CAVOK 13/09 Q1023","updated":"2025-09-22T08:24:36Z"}
