{"icao":"LPPR","metar":"LPPR 140500Z 17007KT 9999 FEW007 BKN015 11/10 Q1015","updated":"2026-01-14T05:23:27Z"}
