{"icao":"LPCS","metar":"LPCS 281430Z 34016KT 310V010 9999 FEW015 25/15 Q1022","updated":"2026-06-28T14:46:54Z"}
