{"icao":"KJFK","metar":"KJFK 032251Z 29015KT 10SM FEW080 16/M07 A2984 RMK PK WND 31026/2211 SLP106 T01561067 ","updated":"2026-05-03T23:42:48Z"}
