{"icao":"KORD","metar":"KORD 270051Z 31008KT 10SM OVC014 06/02 A2989 RMK AO2 SLP125 T00560022 $","updated":"2025-12-27T01:27:10Z"}
