{"icao":"LPMT","metar":"LPMT 171600Z 27008KT 9999 FEW040 24/15 Q1013","updated":"2025-10-17T16:21:33Z"}
