{"icao":"LPFL","metar":"LPFL 231300Z 11005KT 060V150 9999 FEW022 BKN036 16/08 Q1026","updated":"2026-03-23T13:04:50Z"}
