{"icao":"KJFK","metar":"KJFK 300851Z 33025G43KT 10SM SCT070 SCT110 14/02 A2972 RMK AO2 PK WND 34043/0844 SLP065 T01440017 53015 $","updated":"2026-05-30T09:13:26Z"}
