{"icao":"LPPT","metar":"LPPT 101230Z 07005KT 330V140 CAVOK 25/12 Q1021","updated":"2025-10-10T12:36:37Z"}
