{"icao":"KORD","metar":"KORD 112334Z 16014G21KT 6SM TS SCT035CB BKN075 BKN120 BKN150 OVC250 24/22 A2959 RMK AO2 PK WND 18026/2316 RAB20E34 TSB19 OCNL LTGICCG E TS E MOV NE P0004 T02390217 $","updated":"2026-06-11T23:40:46Z"}
