{"icao":"KORD","metar":"KORD 201951Z 26010KT 10SM FEW100 BKN150 BKN250 04/M03 A2978 RMK AO2 SLP089 T00391033","updated":"2025-12-20T20:19:46Z"}
