{"icao":"LPPR","metar":"LPPR 282300Z 03012KT CAVOK 14/05 Q1028","updated":"2026-03-28T23:29:26Z"}
