{"icao":"LPFR","metar":"LPFR 260430Z 26011KT 9999 FEW007 SCT010 BKN025 15/14 Q1016","updated":"2026-01-26T04:55:29Z"}
