{"icao":"KLAX","metar":"KLAX 210853Z 00000KT 4SM BR CLR 14/12 A3009 RMK AO2 VIS 2 1/2 RWY24 SLP188 T01390122 56002 $","updated":"2025-12-21T09:18:50Z"}
