{"icao":"LPAR","metar":"LPAR 291000Z 36008KT 320V030 CAVOK 27/17 Q1021","updated":"2026-06-29T10:55:19Z"}
