{"icao":"LPPD","metar":"LPPD 221100Z 27023KT 8000 FEW006 BKN012 16/15 Q1016","updated":"2026-01-22T11:21:54Z"}
