{"icao":"LPPS","metar":"LPPS 270800Z 05009KT 9999 FEW015 17/10 Q1023","updated":"2025-11-27T08:27:18Z"}
