{"icao":"LPHR","metar":"LPHR 271330Z 25033G43KT 7000 -RA SCT012 BKN020 16/14 Q1005","updated":"2026-01-27T13:45:46Z"}
