{"icao":"KORD","metar":"KORD 080551Z 08006KT 8SM FEW020 OVC050 M06/M08 A3035 RMK AO2 SNE46 SLP289 4/001 P0000 60001 T10561083 11050 21061 410391111 53001 $","updated":"2026-02-08T06:49:00Z"}
