{"icao":"LPMA","metar":"LPMA 191900Z 30004KT 260V350 9999 FEW015 16/10 Q1026","updated":"2026-01-19T19:18:31Z"}
