{"icao":"LPMT","metar":"LPMT 201300Z 23006KT 200V280 9999 FEW023 SCT030 15/10 Q1019","updated":"2026-01-20T13:45:42Z"}
