{"icao":"LPPR","metar":"LPPR 240700Z 05004KT 010V110 9999 SCT020 BKN040 14/12 Q1016","updated":"2025-10-24T07:17:39Z"}
