{"icao":"KJFK","metar":"KJFK 291451Z 31012KT 10SM FEW037 FEW250 M09/M17 A3012 RMK SLP200 T10941172 51008 $ ","updated":"2026-01-29T15:34:38Z"}
