{"icao":"KJFK","metar":"KJFK 281851Z 27018G29KT 10SM BKN060 BKN250 07/M08 A2994 RMK AO2 PK WND 26033/1824 SLP139 T00671078 $","updated":"2025-11-28T19:14:25Z"}
