{"icao":"LPOV","metar":"LPOV 221800Z 20010KT 170V240 9999 FEW006 20/19 Q1016","updated":"2025-10-22T18:27:45Z"}
