{"icao":"LPLA","metar":"LPLA 161400Z 31020KT 9999 BKN035 16/10 Q1034","updated":"2026-01-16T14:22:10Z"}
