{"icao":"LPGR","metar":"LPGR 011530Z 08010KT 9999 FEW017 BKN024 22/18 Q1032","updated":"2026-07-01T15:40:05Z"}
