{"icao":"LPHR","metar":"LPHR 240900Z 13003KT 080V240 9999 FEW012 BKN027 18/15 Q1023","updated":"2026-05-24T09:23:23Z"}
