{"icao":"LPFL","metar":"LPFL 201500Z 13006KT 090V170 9999 FEW033 21/13 Q1029","updated":"2025-09-20T15:14:56Z"}
