{"icao":"LPPS","metar":"LPPS 170930Z 13007KT 100V180 9999 FEW014 BKN030 16/12 Q1028","updated":"2026-02-17T09:46:55Z"}
