{"icao":"LPPT","metar":"LPPT 010430Z 24010KT 3500 -RADZ BR FEW002 BKN004 15/15 Q1015","updated":"2026-02-01T04:59:42Z"}
