{"icao":"LPHR","metar":"LPHR 081000Z 30012KT 270V330 9999 SCT012 19/15 Q1019","updated":"2025-11-08T10:16:59Z"}
