{"icao":"LPPT","metar":"LPPT 262030Z 33014KT CAVOK 20/12 Q1015","updated":"2026-04-26T20:36:44Z"}
