{"icao":"LPPT","metar":"LPPT 051400Z VRB06G22KT CAVOK 25/11 Q1020","updated":"2026-04-05T14:34:06Z"}
