{"icao":"LPAR","metar":"LPAR 231400Z 17003KT 130V220 CAVOK 20/11 Q1022","updated":"2026-02-23T14:43:49Z"}
