{"icao":"LPPR","metar":"LPPR 062000Z 34009KT CAVOK 14/10 Q1011","updated":"2026-05-06T20:20:38Z"}
