{"icao":"KLAX","metar":"KLAX 100353Z 00000KT 10SM CLR 14/04 A3036 RMK AO2 SLP280 T01390039 $","updated":"2026-01-10T04:33:20Z"}
