{"icao":"LPPD","metar":"LPPD 141500Z 01011KT 9999 SCT016 SCT025 17/12 Q1031","updated":"2026-03-14T15:27:17Z"}
