{"icao":"KJFK","metar":"KJFK 161751Z 29023G35KT 10SM BKN070 13/M04 A2928 RMK AO2 PK WND 30038/1720 SLP916 60000 T01331044 10144 20117 53006 $","updated":"2025-11-16T18:24:29Z"}
