{"icao":"LPMA","metar":"LPMA 250100Z 36007KT 320V030 9999 FEW015 18/11 Q1025","updated":"2025-11-25T01:24:29Z"}
