{"icao":"KORD","metar":"KORD 060451Z 24011KT 10SM -RA BKN050 BKN070 OVC120 08/01 A3013 RMK AO2 RAB49 SLP208 P0000 T00830006 $","updated":"2026-04-06T05:22:26Z"}
