{"icao":"LPBJ","metar":"LPBJ 130606Z 23013G28KT 3000 SHRA SCT014TCU OVC020 12/11 Q1010","updated":"2026-01-13T06:32:15Z"}
