{"icao":"LPPT","metar":"LPPT 061900Z 23005KT CAVOK 16/12 Q1018","updated":"2025-11-06T19:14:40Z"}
