{"icao":"LPFL","metar":"LPFL 041800Z VRB02KT 9999 FEW019 BKN034 15/10 Q1025","updated":"2026-01-05T05:35:00Z"}
