{"icao":"LPST","metar":"LPST 170700Z 30003KT 6000 SCT003 09/08 Q1019","updated":"2026-04-17T07:44:24Z"}
