{"icao":"LPMR","metar":"LPMR 291100Z 15004KT 8000 -RA SCT007 BKN020 FEW022CB 14/14 Q1008 RESHRA","updated":"2026-04-29T11:27:12Z"}
