{"icao":"KJFK","metar":"KJFK 281051Z 33005KT 10SM FEW250 M05/M08 A3023 RMK AO2 SLP237 T10501078 $","updated":"2025-12-28T11:16:35Z"}
