{"icao":"LPAZ","metar":"LPAZ 011900Z 33024KT 9999 FEW020 SCT033 14/07 Q1024","updated":"2026-03-01T19:21:07Z"}
