{"icao":"LPMA","metar":"LPMA 292100Z 01006KT 310V050 9999 SCT016 19/12 Q1022","updated":"2025-11-29T21:15:54Z"}
