{"icao":"KJFK","metar":"KJFK 241451Z 33016G24KT 10SM FEW055 SCT250 09/M02 A3022 RMK AO2 PK WND 31027/1357 SLP231 T00891022 51021","updated":"2025-11-24T15:21:35Z"}
