{"icao":"KORD","metar":"KORD 290751Z 02006KT 10SM FEW300 11/07 A3010 RMK AO2 SLP193 T01110067","updated":"2026-05-29T07:53:58Z"}
