{"icao":"LPPR","metar":"LPPR 202330Z 11008KT CAVOK 20/10 Q1006","updated":"2026-04-20T23:40:40Z"}
