{"icao":"LPCS","metar":"LPCS 111500Z 22006KT 200V260 9999 FEW035 25/15 Q1017","updated":"2025-10-11T15:14:44Z"}
