{"icao":"LPFR","metar":"LPFR 081300Z 26012KT 230V290 CAVOK 24/14 Q1020","updated":"2025-10-08T13:28:11Z"}
