{"icao":"LPHR","metar":"LPHR 200800Z 25015KT 6000 FEW003 BKN005 22/22 Q1014","updated":"2025-10-20T08:24:51Z"}
