{"icao":"LPST","metar":"LPST 271100Z 33007KT 9999 BKN011 13/11 Q1025","updated":"2026-02-27T11:31:05Z"}
