{"icao":"LPOV","metar":"LPOV 261500Z 04006KT 9999 FEW025 21/11 Q1019","updated":"2025-10-26T15:15:53Z"}
