{"icao":"LPFR","metar":"LPFR 131230Z 20013KT 160V220 7000 R28/1400U -TSRA SCT006 SCT018CB BKN025 16/16 Q1003 RERA","updated":"2025-11-13T12:40:03Z"}
