{"icao":"KJFK","metar":"KJFK 090951Z 10004KT 6SM BR SCT170 BKN220 02/02 A3032 RMK AO2 SLP268 T00170017 $","updated":"2026-01-09T10:22:05Z"}
