{"icao":"LPLA","metar":"LPLA 212200Z 30015KT 7000 -RA SCT018 BKN035 11/09 Q1001","updated":"2026-04-21T22:36:59Z"}
