{"icao":"KJFK","metar":"KJFK 242051Z 32011G18KT 10SM FEW050 FEW150 SCT210 BKN250 M08/M23 A3064 RMK AO2 SLP376 T10831233 53002 $","updated":"2026-01-24T21:17:23Z"}
