{"icao":"KLAX","metar":"KLAX 271453Z 13005KT 10SM BKN025 OVC032 20/15 A2990 RMK AO2 SLP123 T02000150 53011 $","updated":"2025-09-27T15:14:35Z"}
