{"icao":"LPOV","metar":"LPOV 251100Z 19011KT 3000 RA BR FEW018 FEW024CB SCT026 BKN035 13/12 Q1018","updated":"2026-02-25T11:39:17Z"}
