{"icao":"LPAZ","metar":"LPAZ 041800Z 14008KT 110V180 9999 FEW019 23/18 Q1027","updated":"2025-10-04T18:21:42Z"}
