{"icao":"LPMT","metar":"LPMT 311600Z 21010KT 170V230 8000 -RA SCT012 BKN015 OVC030 20/19 Q1012","updated":"2025-10-31T16:22:37Z"}
