{"icao":"LPFR","metar":"LPFR 090230Z 30004KT CAVOK 16/13 Q1019","updated":"2025-10-09T02:58:21Z"}
