{"icao":"KORD","metar":"KORD 240651Z 19005KT 10SM BKN250 M06/M10 A3020 RMK AO2 SLP237 T10611100","updated":"2026-02-24T07:07:34Z"}
