{"icao":"LPAZ","metar":"LPAZ 191900Z 29011KT 7000 BKN004 23/22 Q1017","updated":"2025-10-19T19:13:13Z"}
