{"icao":"LPPT","metar":"LPPT 201530Z 09008KT 060V120 9999 FEW012 FEW020CB BKN026 16/14 Q1006","updated":"2026-03-20T15:41:02Z"}
