{"icao":"KORD","metar":"KORD 100151Z 04009KT 10SM FEW090 FEW250 13/01 A2980 RMK AO2 SLP090 T01280006","updated":"2026-05-10T02:50:00Z"}
