{"icao":"LPMR","metar":"LPMR 211100Z 03005KT 360V060 CAVOK 12/04 Q1029","updated":"2025-11-21T11:15:47Z"}
