{"icao":"LPOV","metar":"LPOV 101800Z 17020KT 7000 -RA FEW012 BKN020 15/14 Q1008 RMK WIND PK 18023/03 RH97 BKN070 WHT","updated":"2026-05-10T19:01:30Z"}
