{"icao":"LPAZ","metar":"LPAZ 131700Z 21007KT 170V250 9999 FEW015 SCT031 25/20 Q1026","updated":"2025-09-13T17:12:21Z"}
