{"icao":"LPPT","metar":"LPPT 302000Z 18010KT 140V210 9999 FEW008 18/16 Q1014","updated":"2025-10-30T20:19:50Z"}
