{"icao":"KLAX","metar":"KLAX 231053Z 08004KT 10SM CLR 15/14 A3002 RMK AO2 SLP164 T01500139","updated":"2025-10-23T11:15:43Z"}
