{"icao":"LPPT","metar":"LPPT 231900Z 23010KT CAVOK 15/09 Q1022","updated":"2026-02-23T19:18:09Z"}
