{"icao":"LPPS","metar":"LPPS 122100Z 28015KT 9999 SCT014 17/13 Q1022","updated":"2026-02-12T21:32:33Z"}
