{"icao":"LPPS","metar":"LPPS 271230Z 28015KT 9999 -SHRA SCT014 BKN030 18/13 Q1017","updated":"2026-01-27T12:48:11Z"}
