{"icao":"LPAR","metar":"LPAR 251700Z 34011KT CAVOK 22/09 Q1017","updated":"2026-03-25T19:01:09Z"}
