{"icao":"LPPD","metar":"LPPD 091730Z 36014KT 330V030 9999 SCT018 FEW020CB 15/11 Q1015","updated":"2026-05-09T17:50:15Z"}
