{"icao":"LPFL","metar":"LPFL 051100Z 19018G31KT 160V220 9999 BKN014 17/12 Q1012","updated":"2026-04-05T11:28:29Z"}
