{"icao":"LPOV","metar":"LPOV 082200Z 14003KT 110V170 8000 NSC 13/13 Q1021","updated":"2025-10-08T22:16:03Z"}
