{"icao":"LPPT","metar":"LPPT 222200Z 31003KT 280V360 CAVOK 16/08 Q1026","updated":"2026-02-22T22:22:51Z"}
