{"icao":"LPOV","metar":"LPOV 300600Z 03006KT 360V070 CAVOK 07/05 Q1018","updated":"2025-11-30T06:28:00Z"}
