{"icao":"KJFK","metar":"KJFK 011251Z 32014G21KT 10SM FEW035 FEW060 SCT250 03/M04 A3028 RMK AO2 SLP254 T00331044 $","updated":"2025-12-01T13:34:29Z"}
