{"icao":"LPCS","metar":"LPCS 281830Z 21011KT 6000 -DZ SCT006 14/14 Q1006","updated":"2026-01-28T18:35:48Z"}
