{"icao":"LPPS","metar":"LPPS 141300Z 08008KT 050V120 9999 FEW015 BKN030 17/11 Q1025","updated":"2026-04-14T13:23:21Z"}
