{"icao":"LPPS","metar":"LPPS 222000Z 36007KT 330V030 9999 SCT014 21/14 Q1021","updated":"2025-09-22T20:19:13Z"}
