{"icao":"LPPR","metar":"LPPR 101130Z 18019KT 150V210 9999 FEW015 FEW025CB 17/10 Q1009","updated":"2026-05-10T11:50:18Z"}
