{"icao":"KORD","metar":"KORD 221651Z 02023G32KT 10SM BKN013 OVC150 04/00 A2983 RMK AO2 PK WND 04034/1631 SLP100 T00440000","updated":"2026-03-22T17:24:20Z"}
