{"icao":"KLAX","metar":"KLAX 100253Z 23012KT 10SM FEW150 19/15 A2989 RMK AO2 SLP121 T01890150 53011 $","updated":"2025-10-10T02:59:35Z"}
