{"icao":"LPMT","metar":"LPMT 182300Z VRB03KT CAVOK 14/10 Q1022","updated":"2026-05-19T00:04:25Z"}
