{"icao":"LPAR","metar":"LPAR 111700Z 25014KT 3000 -DZRA BR BKN007 BKN013 16/16 Q1015","updated":"2026-02-12T08:44:10Z"}
