{"icao":"KORD","metar":"KORD 160551Z 18003KT 10SM CLR M08/M12 A3005 RMK AO2 SLP188 T10781117 11061 21078 410611161 58009","updated":"2025-12-16T06:32:13Z"}
