{"icao":"LPBJ","metar":"LPBJ 111400Z 17011KT 140V200 9999 SCT034 21/13 Q1012","updated":"2025-11-11T14:19:26Z"}
