{"icao":"LPAR","metar":"LPAR 061400Z 36011KT 320V040 9999 FEW025 12/M01 Q1023","updated":"2026-01-06T14:21:20Z"}
