{"icao":"LPMR","metar":"LPMR 061300Z 30007KT 260V340 9999 FEW045 17/09 Q1018","updated":"2025-11-06T13:31:03Z"}
