{"icao":"LPPT","metar":"LPPT 170200Z 32008KT CAVOK 12/10 Q1019","updated":"2026-04-17T02:29:30Z"}
