{"icao":"LPOV","metar":"LPOV 221300Z 30004KT 240V330 CAVOK 14/06 Q1030","updated":"2025-11-22T13:22:17Z"}
