{"icao":"KJFK","metar":"KJFK 040351Z 29016G28KT 10SM FEW075 12/M01 A2987 RMK AO2 PK WND 32034/0319 SLP114 T01221011 $","updated":"2025-11-04T04:20:51Z"}
