{"icao":"LPFR","metar":"LPFR 200530Z 31003KT 230V340 CAVOK 07/05 Q1028","updated":"2026-02-20T05:52:25Z"}
