{"icao":"LPOV","metar":"LPOV 161500Z 32009KT 280V340 9999 FEW012 16/13 Q1021","updated":"2026-04-16T15:24:24Z"}
