{"icao":"LPBJ","metar":"LPBJ 250700Z 26012KT 6000 -RADZ SCT006 SCT020 12/11 Q1016","updated":"2026-01-25T07:20:23Z"}
