{"icao":"LPPR","metar":"LPPR 102200Z 17011KT 9999 FEW009 BKN040 16/15 Q1015","updated":"2025-11-10T22:18:15Z"}
