{"icao":"LPLA","metar":"LPLA 020800Z 33032KT 9999 BKN025 14/09 Q1006","updated":"2026-01-02T08:28:06Z"}
