{"icao":"LPHR","metar":"LPHR 101400Z 24021KT 9999 SCT012 BKN017 20/17 Q1013","updated":"2025-11-10T14:18:47Z"}
