{"icao":"KJFK","metar":"KJFK 251235Z 05010KT 3/4SM R04R/3500V6000FT -SN BR VV007 M11/M13 A3057 RMK AO2 P0002 T11111133 $","updated":"2026-01-25T12:40:12Z"}
