{"icao":"LPLA","metar":"LPLA 100500Z 20020G33KT 170V250 8000 -RADZ SCT005 BKN010 BKN016 18/16 Q1022","updated":"2026-01-10T05:19:44Z"}
