{"icao":"KORD","metar":"KORD 070051Z 18010KT 10SM SCT150 BKN190 OVC250 13/M03 A2990 RMK AO2 SLP126 T01331033","updated":"2025-11-07T01:24:10Z"}
