{"icao":"LPCS","metar":"LPCS 030900Z VRB02KT CAVOK 14/12 Q1024","updated":"2025-11-03T09:22:13Z"}
