{"icao":"KORD","metar":"KORD 100251Z 18012KT 7SM -RA BKN043 BKN050 OVC075 02/01 A2942 RMK AO2 SLP967 P0003 60007 T00220006 58054","updated":"2025-12-10T03:21:30Z"}
