{"icao":"LPPR","metar":"LPPR 120500Z 01005KT CAVOK 05/01 Q1019","updated":"2026-04-12T05:22:16Z"}
