{"icao":"LPOV","metar":"LPOV 261300Z 31007KT 280V350 6000 BKN009 SCT020TCU 18/16 Q1017","updated":"2026-04-26T14:41:12Z"}
