{"icao":"LPOV","metar":"LPOV 251700Z 26006KT 9999 FEW030 14/10 Q1013","updated":"2026-01-25T17:16:49Z"}
