{"icao":"KORD","metar":"KORD 261051Z 15008KT 1 1/4SM -DZ BR OVC004 04/03 A2968 RMK AO2 RAB06E10 SLP055 CIG 003V005 P0000 T00440033 $","updated":"2025-12-26T11:17:53Z"}
