{"icao":"LPPT","metar":"LPPT 290930Z 25019KT 7000 -DZ BKN004 16/16 Q1009","updated":"2026-01-29T09:40:43Z"}
