{"icao":"LPMR","metar":"LPMR 190500Z 16001KT 6000 FEW020 08/08 Q1017","updated":"2025-11-19T05:18:50Z"}
