{"icao":"KORD","metar":"KORD 251405Z 34008KT 1SM R10L/3000V4500FT -SN BR VV014 M13/M15 A3016 RMK AO2 P0001 T11281150 $","updated":"2026-01-25T14:18:04Z"}
