{"icao":"LPBJ","metar":"LPBJ 211400Z 11003KT 050V220 CAVOK 20/06 Q1028","updated":"2026-02-21T14:24:54Z"}
