{"icao":"LPLA","metar":"LPLA 160800Z VRB03KT 9999 FEW018 23/18 Q1022","updated":"2025-09-16T08:23:48Z"}
