{"icao":"LPLA","metar":"LPLA 081600Z 29011KT 260V320 9999 FEW040 21/12 Q1020","updated":"2025-11-08T16:20:10Z"}
