{"icao":"LPAZ","metar":"LPAZ 261300Z 06009KT 010V090 9999 BKN022 17/10 Q1029","updated":"2026-03-26T13:12:53Z"}
