{"icao":"LPMA","metar":"LPMA 140400Z 02013KT 330V050 9999 FEW016 15/07 Q1029","updated":"2026-02-14T04:11:50Z"}
