{"icao":"KJFK","metar":"KJFK 250151Z 26008KT 10SM FEW050 FEW250 M03/M11 A2998 RMK AO2 SLP151 T10281111 $","updated":"2026-02-25T02:03:33Z"}
