{"icao":"LPPT","metar":"LPPT 231500Z 32008KT 290V350 9999 FEW016 FEW020TCU 15/12 Q1009","updated":"2025-12-23T15:20:42Z"}
