{"icao":"LPHR","metar":"LPHR 181100Z 34009KT 320V020 9999 FEW018 SCT040 14/08 Q1027","updated":"2025-12-18T11:18:21Z"}
