{"icao":"LPPT","metar":"LPPT 091600Z 24004KT 220V280 9999 SCT006 SCT012 16/16 Q1016","updated":"2025-12-09T16:26:33Z"}
