{"icao":"LPFR","metar":"LPFR 220900Z VRB02KT 9999 FEW020 BKN040 12/10 Q1012","updated":"2026-01-22T09:31:12Z"}
