{"icao":"LPOV","metar":"LPOV 281500Z 01006KT 340V050 9999 FEW025 16/07 Q1014","updated":"2025-12-28T15:18:38Z"}
