{"icao":"LPST","metar":"LPST 291000Z 33005KT 290V020 9999 FEW010 19/15 Q1017","updated":"2025-09-29T10:19:57Z"}
