{"icao":"LPAZ","metar":"LPAZ 271030Z 03009KT 9999 FEW029 15/09 Q1035","updated":"2026-02-27T10:36:04Z"}
