{"icao":"LPFL","metar":"LPFL 230930Z 23011G23KT 170V290 9999 VCSH SCT018 FEW020TCU 16/11 Q1002","updated":"2026-02-23T09:54:21Z"}
