{"icao":"KORD","metar":"KORD 151451Z 29007KT 10SM FEW024 FEW250 M09/M15 A2999 RMK AO2 SLP168 T10941150 57003 $","updated":"2026-01-15T15:24:28Z"}
