{"icao":"LPPS","metar":"LPPS 202200Z 06012KT 010V090 8000 SHRA SCT015 18/14 Q1023","updated":"2025-11-20T22:17:20Z"}
