{"icao":"LPPR","metar":"LPPR 181230Z 18019G29KT 9999 FEW025 SCT038 15/10 Q1018","updated":"2025-12-18T12:42:38Z"}
