{"icao":"KLAX","metar":"KLAX 140453Z 14003KT 10SM CLR 16/09 A3006 RMK AO2 SLP178 T01560094","updated":"2026-02-14T05:43:04Z"}
