{"icao":"LPMA","metar":"LPMA 270230Z 33004KT CAVOK 20/17 Q1021","updated":"2025-09-27T02:52:56Z"}
