{"icao":"KORD","metar":"KORD 161851Z 22016G28KT 10SM BKN055 BKN250 24/12 A2957 RMK AO2 PK WND 24033/1833 SLP010 T02440117","updated":"2026-06-16T19:33:26Z"}
