{"icao":"KORD","metar":"KORD 212251Z 03006KT 10SM FEW075 OVC095 07/02 A2995 RMK AO2 SLP147 T00720017","updated":"2025-11-21T23:16:54Z"}
