{"icao":"LPPR","metar":"LPPR 131300Z 09007KT 040V120 CAVOK 18/10 Q1023","updated":"2025-12-13T13:25:52Z"}
