{"icao":"LPFL","metar":"LPFL 021030Z 15007KT 110V170 9999 FEW005 SCT007 BKN011 20/19 Q1029","updated":"2026-07-02T10:37:24Z"}
