{"icao":"LPPR","metar":"LPPR 022330Z 01003KT 330V050 9999 FEW020 15/11 Q1023","updated":"2026-06-02T23:43:44Z"}
