{"icao":"LPPD","metar":"LPPD 232130Z 26014KT 9999 FEW025 15/09 Q1011","updated":"2026-04-23T21:43:47Z"}
