{"icao":"LPMT","metar":"LPMT 192100Z 26007KT 9999 -DZ OVC006 20/19 Q1014","updated":"2025-10-19T21:14:35Z"}
