{"icao":"LPOV","metar":"LPOV 041400Z 31008KT 270V340 8000 FEW007 BKN020 19/17 Q1024","updated":"2025-10-04T14:14:00Z"}
