{"icao":"LPPS","metar":"LPPS 171300Z 09012KT 060V120 9999 FEW015 SCT030 18/13 Q1019","updated":"2026-04-17T13:17:10Z"}
