{"icao":"LPMA","metar":"LPMA 181030Z 05005KT 020V140 9999 FEW014 18/10 Q1026","updated":"2026-02-18T10:42:32Z"}
