{"icao":"KORD","metar":"KORD 131651Z 21011G18KT 10SM FEW250 08/M02 A3014 RMK AO2 SLP213 T00781022","updated":"2026-02-13T17:38:38Z"}
