{"icao":"KORD","metar":"KORD 050951Z 32006KT 10SM -RA FEW055 OVC100 11/01 A2971 RMK AO2 RAB41 SLP056 P0000 T01060006","updated":"2026-05-05T10:45:03Z"}
