{"icao":"LPMR","metar":"LPMR 040200Z 09001KT 9999 SCT020 BKN030 12/12 Q1015","updated":"2026-05-04T02:44:44Z"}
