{"icao":"LPMT","metar":"LPMT 282000Z 07005KT 030V090 CAVOK 17/15 Q1007","updated":"2026-04-28T20:14:28Z"}
