{"icao":"LPMA","metar":"LPMA 111830Z 02011KT 340V060 8000 -SHRA FEW008 BKN013 15/12 Q1024","updated":"2026-03-11T18:52:25Z"}
