{"icao":"LPHR","metar":"LPHR 312300Z 03005KT 9999 FEW015 BKN027 14/09 Q1031","updated":"2026-04-01T02:30:19Z"}
