{"icao":"LPHR","metar":"LPHR 180800Z 32004KT 240V050 7000 -SHRA SCT012 BKN025 16/14 Q1029","updated":"2026-01-18T08:25:28Z"}
