{"icao":"LPMA","metar":"LPMA 072000Z 25005KT 210V270 9999 -SHRA SCT015 19/13 Q1021","updated":"2025-12-07T20:19:42Z"}
