{"icao":"KORD","metar":"KORD 120251Z VRB04KT 10SM FEW025 OVC110 M04/M09 A3002 RMK AO2 SLP176 T10391094 53010","updated":"2025-12-12T03:22:33Z"}
