{"icao":"LPBJ","metar":"LPBJ 122300Z 32013KT CAVOK 09/04 Q1021","updated":"2026-04-12T23:33:28Z"}
