{"icao":"LPMT","metar":"LPMT 271900Z 21011KT 7000 FEW009 BKN015 BKN040 20/18 Q1014","updated":"2025-09-27T19:12:31Z"}
