{"icao":"LPAZ","metar":"LPAZ 142300Z 02012KT 9000 VCSH SCT007 BKN014 15/13 Q1031","updated":"2026-03-14T23:26:45Z"}
