{"icao":"LPMA","metar":"LPMA 160500Z 35016KT 9999 -RADZ BKN014 16/12 Q1023","updated":"2026-01-16T05:24:32Z"}
