{"icao":"LPMR","metar":"LPMR 251400Z 32014KT CAVOK 21/14 Q1016","updated":"2026-04-25T14:40:02Z"}
