{"icao":"LPMT","metar":"LPMT 310500Z 03005KT 0100 FG VV002 06/06 Q1019","updated":"2025-12-31T05:23:32Z"}
