{"icao":"KJFK","metar":"KJFK 161751Z 11012KT 10SM FEW041 SCT190 BKN230 22/14 A3021 RMK AO2 SLP230 T02220139 10244 20189 58008 $","updated":"2025-09-16T18:25:20Z"}
