{"icao":"LPFL","metar":"LPFL 071700Z 16013G23KT 9999 SCT019 20/16 Q1015","updated":"2025-11-07T17:16:22Z"}
