{"icao":"LPOV","metar":"LPOV 080200Z VRB01KT 9999 MIFG BKN030 13/13 Q1023","updated":"2025-10-08T02:56:15Z"}
