{"icao":"LPPD","metar":"LPPD 110730Z 25015KT 5000 BR FEW005 SCT014 16/15 Q1014","updated":"2026-02-11T07:58:45Z"}
