{"icao":"KORD","metar":"KORD 180751Z 19013G19KT 10SM FEW055 SCT180 BKN250 24/14 A2983 RMK AO2 PK WND 20026/0705 SLP094 T02440144 $","updated":"2026-05-18T08:01:50Z"}
