{"icao":"KLAX","metar":"KLAX 272053Z 26010KT 10SM FEW250 20/02 A3022 RMK AO2 SLP231 T02000022 58025 $","updated":"2026-01-27T21:17:17Z"}
