{"icao":"KJFK","metar":"KJFK 181451Z 06004KT 10SM FEW250 06/M01 A3033 RMK SLP269 T00561006 51010 $ ","updated":"2025-12-18T15:21:29Z"}
