{"icao":"KORD","metar":"KORD 110951Z 35006KT 10SM CLR 10/07 A3013 RMK AO2 SLP204 T01000072","updated":"2025-10-11T10:16:34Z"}
