{"icao":"KORD","metar":"KORD 052251Z 21011G20KT 10SM SCT046 BKN060 BKN250 26/19 A2980 RMK AO2 SLP087 T02610189","updated":"2026-06-05T23:07:21Z"}
