{"icao":"KJFK","metar":"KJFK 280451Z 02009KT 10SM FEW055 FEW250 08/03 A3036 RMK AO2 SLP279 T00780033 401390056","updated":"2025-10-28T05:18:58Z"}
