{"icao":"LPPT","metar":"LPPT 201330Z 27008KT 230V310 9999 FEW024 BKN028 14/09 Q1019","updated":"2026-01-20T13:45:39Z"}
