{"icao":"LPLA","metar":"LPLA 102000Z 24020G31KT 210V270 8000 -RA FEW015 BKN020 19/16 Q1007","updated":"2025-11-10T20:21:53Z"}
