{"icao":"KLAX","metar":"KLAX 261508Z 25010KT 6SM -RA BR SCT007 OVC013 14/14 A3006 RMK AO2 VIS 1 3/4 RWY24 P0000 T01440139 $","updated":"2025-12-26T15:19:33Z"}
