{"icao":"LPFL","metar":"LPFL 071230Z 18014KT 140V220 9999 FEW028 20/13 Q1018","updated":"2025-11-07T12:37:04Z"}
