{"icao":"LPHR","metar":"LPHR 080900Z 24011KT 8000 VCSH SCT003 BKN007 BKN025 17/16 Q1029","updated":"2026-01-08T09:27:34Z"}
