{"icao":"LPMA","metar":"LPMA 040700Z 01009KT 9999 FEW015 21/17 Q1026","updated":"2025-10-04T07:14:35Z"}
