{"icao":"LPPD","metar":"LPPD 241900Z 24023KT 9999 FEW005 SCT012 BKN025 16/14 Q1020","updated":"2026-01-24T19:15:53Z"}
