{"icao":"LPMT","metar":"LPMT 270000Z VRB02KT CAVOK 11/09 Q1024","updated":"2026-02-27T01:58:01Z"}
