{"icao":"LPLA","metar":"LPLA 031300Z 02005KT 330V070 9999 FEW007 BKN020 22/19 Q1029","updated":"2026-06-03T13:20:47Z"}
