{"icao":"LPMT","metar":"LPMT 092100Z 23005KT 190V290 7000 BKN006 BKN020 15/15 Q1016","updated":"2026-02-09T21:37:48Z"}
