{"icao":"LPLA","metar":"LPLA 230300Z VRB02KT 9999 FEW020 BKN035 16/13 Q1028","updated":"2025-11-23T03:26:14Z"}
