{"icao":"KORD","metar":"KORD 070251Z 29003KT 10SM OVC024 M01/M04 A2997 RMK AO2 SLP157 T10061044 51013","updated":"2025-12-07T03:26:07Z"}
