{"icao":"KORD","metar":"KORD 280651Z 26006KT 10SM CLR M16/M21 A3024 RMK AO2 SLP256 T11561211","updated":"2026-01-28T07:25:08Z"}
