{"icao":"KJFK","metar":"KJFK 131651Z 23008KT 10SM SCT250 06/M04 A3004 RMK AO2 SLP172 T00611044 $","updated":"2026-01-13T17:25:47Z"}
