{"icao":"KJFK","metar":"KJFK 241551Z 31019KT 10SM FEW040 M03/M11 A2991 RMK AO2 PK WND 31029/1509 SLP127 T10281111 $","updated":"2026-02-24T15:57:43Z"}
