{"icao":"LPBJ","metar":"LPBJ 212200Z 33012KT CAVOK 15/09 Q1020","updated":"2025-09-21T22:15:08Z"}
