{"icao":"LPAR","metar":"LPAR 231000Z 24003KT 210V280 9999 VCSH FEW018 FEW022CB SCT035 12/09 Q1003","updated":"2026-01-23T11:19:36Z"}
