{"icao":"LPMT","metar":"LPMT 141500Z 34004KT 290V010 9999 FEW020 SCT035 14/12 Q1020","updated":"2026-01-14T15:24:43Z"}
