{"icao":"LPPS","metar":"LPPS 290730Z 29012KT 9999 FEW011 SCT030 17/16 Q1021","updated":"2026-01-29T07:38:33Z"}
