{"icao":"LPLA","metar":"LPLA 210500Z 22012KT 170V250 9999 FEW015 SCT023 23/19 Q1012","updated":"2025-10-21T05:17:37Z"}
