{"icao":"KLAX","metar":"KLAX 110853Z 23011G19KT 3SM -RA BR SCT008 SCT012 OVC016 14/13 A2998 RMK AO2 WSHFT 0747 SLP151 VIS SE 2 1/2 P0018 60022 T01390128 53012 $","updated":"2026-02-11T08:59:37Z"}
