{"icao":"LPBJ","metar":"LPBJ 251600Z 33012KT CAVOK 15/03 Q1021","updated":"2025-11-25T16:26:17Z"}
