{"icao":"LPFR","metar":"LPFR 111430Z 21007KT 170V230 9999 FEW030 21/16 Q1011","updated":"2026-04-11T14:35:56Z"}
