{"icao":"LPPS","metar":"LPPS 191100Z 07010KT 040V110 9999 SCT014 FEW016TCU 19/13 Q1013","updated":"2026-04-19T11:34:05Z"}
