{"icao":"LPOV","metar":"LPOV 230700Z 26014KT 200V300 9999 SCT020 11/05 Q1000","updated":"2026-01-23T07:24:24Z"}
