{"icao":"LPMR","metar":"LPMR 141700Z 31002KT CAVOK 15/09 Q1017","updated":"2025-12-14T17:15:47Z"}
