{"icao":"LPFR","metar":"LPFR 270500Z VRB03KT CAVOK 11/02 Q1022","updated":"2025-11-27T05:19:09Z"}
