{"icao":"LPAZ","metar":"LPAZ 081000Z 22028KT 9000 SCT010 BKN015 20/19 Q1001","updated":"2025-12-08T10:22:10Z"}
