{"icao":"LPCS","metar":"LPCS 291500Z 32012KT 260V360 9999 FEW008 SCT018 FEW022TCU 21/17 Q1008","updated":"2025-10-29T15:20:19Z"}
