{"icao":"KORD","metar":"KORD 130151Z 21010G22KT 7SM -RA BKN043 OVC055 18/14 A2981 RMK AO2 PK WND 20029/0113 SLP092 P0002 T01780144 $","updated":"2026-04-13T02:34:59Z"}
