{"icao":"LPMA","metar":"LPMA 300900Z 01019G32KT 340V050 9999 FEW015 17/11 Q1025","updated":"2026-03-30T09:10:37Z"}
