{"icao":"LPOV","metar":"LPOV 290800Z 24010KT 210V270 4500 -RADZ BR BKN003 BKN012 15/15 Q1003 RERADZ","updated":"2026-01-29T08:37:27Z"}
