{"icao":"LPAZ","metar":"LPAZ 280900Z 08005KT 9999 FEW022 SCT038 20/14 Q1028","updated":"2025-09-28T09:15:49Z"}
