{"icao":"LPFR","metar":"LPFR 011500Z 16007KT 9999 FEW015 15/10 Q1019","updated":"2025-12-01T15:20:25Z"}
