{"icao":"LPFR","metar":"LPFR 210700Z 28007KT 9999 FEW008 20/18 Q1015","updated":"2025-10-21T07:18:27Z"}
