{"icao":"LPAR","metar":"LPAR 141400Z 22009KT 6000 -TSRA SCT013 SCT022 SCT025CB 14/11 Q1002 RERA","updated":"2025-11-14T15:17:12Z"}
