{"icao":"LPMR","metar":"LPMR 170900Z VRB01KT CAVOK 07/06 Q1022","updated":"2025-12-17T09:26:45Z"}
