{"icao":"LPMR","metar":"LPMR 252300Z 27002KT 8000 BKN006 14/14 Q1017","updated":"2026-04-25T23:36:39Z"}
