{"icao":"LPMA","metar":"LPMA 070500Z 35019KT 320V020 9999 FEW014 14/07 Q1017","updated":"2026-04-07T05:08:20Z"}
