{"icao":"LPPS","metar":"LPPS 092000Z 04004KT 350V080 9999 FEW015 BKN030 21/11 Q1022","updated":"2025-11-09T20:17:53Z"}
