{"icao":"LPPD","metar":"LPPD 212200Z 04003KT 010V080 9999 FEW020 15/12 Q1032","updated":"2025-11-21T22:17:52Z"}
