{"icao":"LPPD","metar":"LPPD 122130Z 25005KT 9999 SCT014 BKN045 20/17 Q1023","updated":"2026-06-12T21:42:13Z"}
