{"icao":"LPFR","metar":"LPFR 210500Z 07012KT CAVOK 19/10 Q1004","updated":"2026-04-21T05:26:01Z"}
