{"icao":"KLAX","metar":"KLAX 211008Z 04010KT 7SM -RA FEW007 BKN015 OVC032 13/11 A2982 RMK AO2 OCNL LTGIC DSNT N CB DSNT N-NE P0001 T01280111 $","updated":"2025-11-21T10:20:13Z"}
