{"icao":"LPPS","metar":"LPPS 241900Z 01008KT 9999 SCT015 18/13 Q1025","updated":"2025-11-24T19:13:37Z"}
