{"icao":"LPLA","metar":"LPLA 011000Z 01006KT 300V080 9999 FEW030 BKN045 17/07 Q1021","updated":"2025-11-01T10:17:07Z"}
