{"icao":"LPAZ","metar":"LPAZ 101630Z 36015KT 9999 FEW011 SCT016 17/14 Q1017","updated":"2026-05-10T16:54:33Z"}
