{"icao":"LPOV","metar":"LPOV 242100Z 36010KT CAVOK 12/08 Q1018","updated":"2025-11-24T21:17:48Z"}
