{"icao":"LPFL","metar":"LPFL 170900Z 03007KT 360V060 9999 SCT028 BKN045 14/08 Q1020","updated":"2026-04-17T09:16:34Z"}
