{"icao":"KORD","metar":"KORD 091251Z 21006KT 10SM BKN085 BKN110 13/07 A3011 RMK AO2 RAB21E35 SLP196 VIRGA P0000 T01280072","updated":"2026-04-09T13:47:44Z"}
