{"icao":"LPPT","metar":"LPPT 011030Z 05011KT 020V080 CAVOK 18/05 Q1024","updated":"2026-04-01T10:54:22Z"}
