{"icao":"KJFK","metar":"KJFK 120551Z 01010KT 10SM BKN095 BKN250 11/02 A3014 RMK AO2 SLP206 T01110017 10139 20094 53014 $","updated":"2026-05-12T06:35:18Z"}
