{"icao":"LPLA","metar":"LPLA 310500Z 27007KT 230V300 9999 FEW025 BKN035 16/12 Q1007","updated":"2025-10-31T05:19:08Z"}
