{"icao":"KJFK","metar":"KJFK 140651Z 19004KT 8SM FEW080 03/02 A2981 RMK AO2 SLP095 T00280022","updated":"2026-03-14T07:34:01Z"}
