{"icao":"LPBJ","metar":"LPBJ 191000Z 27004KT 250V310 0400 FG VV002 10/10 Q1018","updated":"2025-11-19T10:20:52Z"}
