{"icao":"LPPD","metar":"LPPD 171300Z 30013KT 260V330 9999 FEW022 BKN030 15/10 Q1030","updated":"2026-01-17T13:27:49Z"}
