{"icao":"LPOV","metar":"LPOV 170800Z VRB01KT 0200 FG BKN001 11/11 Q1015","updated":"2025-10-17T08:24:27Z"}
