{"icao":"KORD","metar":"KORD 070451Z 34005KT 4SM +RA BR BKN007 OVC011 17/17 A3004 RMK AO2 LTG DSNT N RAB32 SLP170 P0006 T01720167 $","updated":"2025-10-07T05:16:43Z"}
