{"icao":"KORD","metar":"KORD 221751Z 19008KT 10SM BKN060 BKN160 OVC250 07/M09 A3019 RMK AO2 SLP229 T00671094 10067 20017 56032","updated":"2025-12-22T18:29:42Z"}
