{"icao":"LPLA","metar":"LPLA 050800Z 24003KT 210V310 9999 FEW025 SCT040 13/09 Q1016","updated":"2025-11-05T08:25:29Z"}
