{"icao":"KLAX","metar":"KLAX 140653Z 00000KT 10SM OVC016 21/17 A2989 RMK AO2 SLP118 T02060167 $","updated":"2025-09-14T07:15:04Z"}
