{"icao":"LPMT","metar":"LPMT 211500Z 26008KT CAVOK 29/11 Q1020","updated":"2026-05-21T15:21:04Z"}
