{"icao":"LPCS","metar":"LPCS 220900Z 24007KT 3500 BR FEW001 BKN003 21/21 Q1018","updated":"2025-10-22T09:20:33Z"}
