{"icao":"LPFR","metar":"LPFR 060400Z 24011KT 9999 FEW020 FEW022CB 15/12 Q1005","updated":"2026-02-06T04:20:42Z"}
