{"icao":"LPHR","metar":"LPHR 292100Z 29021G33KT 6000 RA SCT007 BKN012 BKN030 17/16 Q1009","updated":"2025-10-30T06:27:33Z"}
