{"icao":"LPAZ","metar":"LPAZ 280100Z 35026G39KT 8000 -RA FEW004 SCT008 BKN011 18/17 Q1012","updated":"2025-10-28T01:20:20Z"}
