{"icao":"LPPR","metar":"LPPR 231430Z 29005KT 260V330 CAVOK 19/10 Q1014","updated":"2026-03-23T14:53:08Z"}
