{"icao":"KLAX","metar":"KLAX 081053Z 00000KT 10SM CLR 14/11 A3014 RMK AO2 SLP205 T01440106 $","updated":"2026-02-08T11:21:33Z"}
