{"icao":"LPHR","metar":"LPHR 160800Z 36003KT 290V060 9999 FEW015 SCT033 14/08 Q1033","updated":"2026-01-16T08:28:44Z"}
