{"icao":"LPBJ","metar":"LPBJ 202013Z 13010KT 8000 -RADZ BKN003 SCT013 13/12 Q1007 RERADZ","updated":"2026-03-20T20:31:01Z"}
