{"icao":"LPPT","metar":"LPPT 110200Z 23009KT 6000 RA SCT004 BKN018 15/15 Q1017 RERA","updated":"2026-02-11T02:11:52Z"}
