{"icao":"LPFR","metar":"LPFR 020400Z 01003KT 9999 BKN010 19/18 Q1022","updated":"2025-11-02T04:21:18Z"}
