{"icao":"LPPT","metar":"LPPT 041230Z 26012KT 4000 -RADZ BR FEW004 BKN010 14/14 Q0998","updated":"2026-02-04T12:56:46Z"}
