{"icao":"LPPR","metar":"LPPR 130700Z 15023G36KT 6000 SHRA FEW017 SCT025CB BKN034 16/14 Q0999","updated":"2025-11-13T07:18:09Z"}
