{"icao":"LPOV","metar":"LPOV 241600Z 33013KT 9999 FEW020 19/14 Q1018","updated":"2026-04-24T16:54:24Z"}
