{"icao":"LPOV","metar":"LPOV 041500Z 31011KT 280V340 9999 FEW020 SCT025 18/09 Q1017","updated":"2026-05-04T16:02:07Z"}
