{"icao":"KLAX","metar":"KLAX 141144Z 09004KT 10SM FEW011 BKN017 14/12 A3001 RMK AO2 T01440117","updated":"2026-05-14T11:51:07Z"}
