{"icao":"LPCS","metar":"LPCS 210800Z 10007KT 070V140 9999 FEW008 SCT012 BKN018 14/13 Q1008","updated":"2026-03-21T08:31:34Z"}
