{"icao":"KLAX","metar":"KLAX 170353Z 00000KT 10SM BKN280 18/11 A2997 RMK AO2 SLP147 T01780106","updated":"2026-01-17T04:31:44Z"}
