{"icao":"LPPD","metar":"LPPD 011030Z 28012KT 9999 FEW018 16/12 Q1015","updated":"2026-05-01T10:39:53Z"}
