{"icao":"LPAR","metar":"LPAR 251700Z 01010KT CAVOK 14/05 Q1023","updated":"2025-11-26T06:29:17Z"}
