{"icao":"KORD","metar":"KORD 241451Z 03015KT 10SM SCT029 BKN035 BKN200 BKN250 21/14 A3003 RMK AO2 SLP167 T02060144 51008","updated":"2025-09-24T15:18:53Z"}
