{"icao":"LPPD","metar":"LPPD 062300Z 18006KT 9999 SCT003 BKN007 22/22 Q1020","updated":"2025-10-06T23:15:42Z"}
