{"icao":"LPAZ","metar":"LPAZ 271430Z 04012KT 010V080 9999 FEW015 BKN022 15/11 Q1028","updated":"2026-03-27T14:48:40Z"}
