{"icao":"LPLA","metar":"LPLA 050800Z 28013KT 9000 -SHRA SCT022 FEW025TCU BKN035 11/07 Q1001","updated":"2026-02-05T08:41:08Z"}
