{"icao":"LPMR","metar":"LPMR 042000Z 17015KT CAVOK 22/14 Q1012","updated":"2025-11-04T20:20:53Z"}
