{"icao":"LPHR","metar":"LPHR 142100Z 31010KT 280V350 9999 FEW014 16/11 Q1025","updated":"2025-12-14T21:16:51Z"}
