{"icao":"LPMT","metar":"LPMT 270900Z 04008KT CAVOK 05/02 Q1010","updated":"2025-12-27T09:18:58Z"}
