{"icao":"LPPD","metar":"LPPD 171300Z 18012KT 9999 SCT014 SCT022 24/20 Q1019","updated":"2025-09-17T13:26:09Z"}
