{"icao":"LPCS","metar":"LPCS 190700Z 34009KT 9999 FEW030 10/06 Q1026","updated":"2026-02-19T07:07:18Z"}
