{"icao":"KLAX","metar":"KLAX 220253Z 24006KT 7SM FEW009 16/14 A3005 RMK AO2 SLP176 T01560139 53004 $","updated":"2025-12-22T03:41:57Z"}
