{"icao":"KLAX","metar":"KLAX 091053Z 06003KT 10SM FEW011 BKN250 16/14 A2991 RMK AO2 SLP126 T01610139 $","updated":"2026-04-09T10:57:35Z"}
