{"icao":"LPHR","metar":"LPHR 081000Z 32008G18KT 270V080 9999 FEW025 BKN035 17/09 Q1036","updated":"2026-04-08T10:14:33Z"}
