{"icao":"LPCS","metar":"LPCS 191230Z 33011KT 9999 FEW020 14/08 Q1021","updated":"2026-01-19T12:47:12Z"}
