{"icao":"LPPT","metar":"LPPT 161800Z 31004KT 280V340 9999 FEW015 FEW025CB 10/07 Q1014","updated":"2026-01-16T18:30:38Z"}
