{"icao":"LPPD","metar":"LPPD 261230Z 27030G41KT 5000 SHRA BKN015 FEW020CB 14/11 Q1005","updated":"2026-01-26T12:45:49Z"}
