{"icao":"LPCS","metar":"LPCS 091530Z 22010KT 9999 VCSH FEW009 FEW022CB 14/11 Q1006","updated":"2026-05-09T15:50:57Z"}
