{"icao":"LPPT","metar":"LPPT 092000Z 26005KT CAVOK 14/12 Q1020","updated":"2025-11-09T20:17:50Z"}
