{"icao":"LPPR","metar":"LPPR 142100Z 00000KT 6000 NSC 14/14 Q1017","updated":"2025-10-14T21:15:01Z"}
