{"icao":"LPCS","metar":"LPCS 241500Z 31009KT 240V350 9999 FEW020 SCT035 21/12 Q1017","updated":"2026-04-24T15:06:35Z"}
