{"icao":"LPMT","metar":"LPMT 141000Z 02006KT 350V050 CAVOK 21/13 Q1017","updated":"2025-10-14T10:18:59Z"}
