{"icao":"LPHR","metar":"LPHR 191900Z 03010KT 350V080 9999 VCSH SCT025 16/12 Q1027","updated":"2025-11-19T19:15:17Z"}
