{"icao":"LPAZ","metar":"LPAZ 070500Z 33019KT 9999 SCT028 11/05 Q1027","updated":"2026-04-07T05:08:07Z"}
