{"icao":"LPPT","metar":"LPPT 181830Z 30009KT 270V330 9999 FEW025 17/09 Q1021","updated":"2026-05-18T18:49:43Z"}
