{"icao":"KORD","metar":"KORD 281051Z 02010KT 10SM FEW080 SCT250 14/08 A3015 RMK AO2 SLP206 T01390078 $","updated":"2026-05-28T11:37:51Z"}
