{"icao":"KJFK","metar":"KJFK 071751Z 23010KT 10SM BKN042 BKN150 BKN250 06/M05 A3008 RMK AO2 SLP186 T00561050 10061 21017 56019 $","updated":"2025-12-07T18:25:06Z"}
