{"icao":"LPCS","metar":"LPCS 281900Z 01013KT 330V030 CAVOK 11/06 Q1023","updated":"2026-02-28T19:19:25Z"}
