{"icao":"LPPR","metar":"LPPR 301700Z 33006KT CAVOK 12/07 Q1020","updated":"2025-11-30T17:15:25Z"}
