{"icao":"LPFR","metar":"LPFR 301930Z 28010KT CAVOK 29/15 Q1017","updated":"2026-06-30T19:54:00Z"}
