{"icao":"LPFR","metar":"LPFR 062100Z VRB02KT CAVOK 22/19 Q1020","updated":"2025-10-06T21:14:53Z"}
