{"icao":"KORD","metar":"KORD 130951Z 26006KT 10SM CLR 03/M03 A3012 RMK AO2 SLP202 T00331028 $","updated":"2025-11-13T10:21:02Z"}
