{"icao":"LPFR","metar":"LPFR 230700Z 02005KT CAVOK 10/01 Q1027","updated":"2025-11-23T07:16:47Z"}
