{"icao":"KJFK","metar":"KJFK 190551Z 23005KT 10SM FEW250 13/09 A3004 RMK AO2 SLP173 T01280094 10161 20128 50001 $","updated":"2025-10-19T06:25:26Z"}
