{"icao":"LPFR","metar":"LPFR 192100Z 26004KT 9999 FEW008 SCT015 20/19 Q1015","updated":"2025-10-19T21:14:33Z"}
