{"icao":"KORD","metar":"KORD 061851Z 31009KT 10SM BKN027 OVC038 03/M02 A2986 RMK AO2 SLP118 T00281022 $","updated":"2026-02-06T19:36:56Z"}
