{"icao":"LPPR","metar":"LPPR 210700Z 18025KT 6000 RA BKN006 BKN012 12/11 Q1002 RESHRA","updated":"2026-01-21T07:27:18Z"}
