{"icao":"LPMR","metar":"LPMR 241900Z 24007KT 210V270 1500 -DZ BR SCT004 OVC006 18/18 Q1016 REDZ","updated":"2025-10-24T19:14:24Z"}
