{"icao":"LPPT","metar":"LPPT 280730Z 34009KT 9999 SCT014 20/17 Q1022","updated":"2026-06-28T07:49:24Z"}
