{"icao":"LPFL","metar":"LPFL 271230Z 34010KT 300V010 9999 FEW032 BKN040 16/07 Q1027","updated":"2025-11-27T12:39:55Z"}
