{"icao":"LPBJ","metar":"LPBJ 211800Z 28008KT 9999 SCT012 BKN025 20/19 Q1016","updated":"2025-10-21T18:25:39Z"}
