{"icao":"LPPR","metar":"LPPR 022030Z 28003KT 220V320 9999 SCT011 SCT015 FEW025CB 16/13 Q1014","updated":"2026-05-02T20:39:40Z"}
