{"icao":"KJFK","metar":"KJFK 042251Z 31013G18KT 10SM BKN040 M01/M09 A3014 RMK AO2 SLP205 T10061094 $","updated":"2026-01-04T23:18:59Z"}
