{"icao":"KJFK","metar":"KJFK 180151Z 09013KT 9SM SCT005 BKN055 13/12 A3002 RMK AO2 SLP165 T01280117","updated":"2026-04-18T02:16:52Z"}
