{"icao":"LPFR","metar":"LPFR 130400Z 15016KT 9999 SCT030 20/18 Q1006","updated":"2025-11-13T04:23:55Z"}
