{"icao":"LPPI","metar":"LPPI 211130Z 30005KT 250V350 9999 FEW019 SCT042 19/15 Q1019","updated":"2026-06-21T11:45:58Z"}
