{"icao":"LPFR","metar":"LPFR 070230Z 02007KT CAVOK 20/18 Q1020","updated":"2025-10-07T02:56:09Z"}
