{"icao":"LPFL","metar":"LPFL 071500Z VRB05KT 9999 FEW024 BKN037 16/08 Q1033","updated":"2026-04-07T15:06:27Z"}
