{"icao":"KLAX","metar":"KLAX 300153Z 26007KT 10SM FEW020 19/06 A3013 RMK AO2 SLP204 FU FEW020 T01890056 $","updated":"2026-01-30T01:56:32Z"}
