{"icao":"LPPR","metar":"LPPR 270930Z 10009KT 070V140 CAVOK 15/03 Q1021","updated":"2026-03-27T09:53:18Z"}
