{"icao":"LPCS","metar":"LPCS 131600Z 03010KT CAVOK 18/12 Q1019","updated":"2025-12-13T16:22:11Z"}
