{"icao":"LPMT","metar":"LPMT 300500Z VRB02KT 9999 FEW030 BKN040 16/16 Q1013","updated":"2025-10-30T06:27:31Z"}
