{"icao":"LPLA","metar":"LPLA 262300Z 32013KT 9999 FEW017 SCT022 15/13 Q1033","updated":"2026-02-26T23:28:25Z"}
