{"icao":"KLAX","metar":"KLAX 042053Z 21004KT 8SM FEW017 SCT020 BKN220 BKN270 17/12 A3002 RMK AO2 SLP163 T01720122 58012","updated":"2026-03-04T21:33:00Z"}
