{"icao":"LPFL","metar":"LPFL 241830Z VRB08KT 9999 FEW025 14/07 Q1022","updated":"2026-02-24T19:00:29Z"}
