{"icao":"KORD","metar":"KORD 091651Z 20014G22KT 10SM FEW250 17/04 A2973 RMK AO2 SLP066 T01720044 $","updated":"2026-03-09T16:59:54Z"}
