{"icao":"LPPS","metar":"LPPS 120100Z VRB02KT 9999 FEW014 20/16 Q1018","updated":"2025-10-12T01:21:52Z"}
