{"icao":"LPMT","metar":"LPMT 270600Z 03009KT CAVOK 11/05 Q1016","updated":"2026-03-27T07:05:12Z"}
