{"icao":"KORD","metar":"KORD 240851Z 27005KT 10SM CLR 02/M01 A3022 RMK AO2 SLP237 T00221006 53011","updated":"2025-10-24T09:19:57Z"}
