{"icao":"LPPD","metar":"LPPD 212000Z 27013KT 7000 SCT001 BKN005 16/16 Q1019","updated":"2026-01-21T20:29:01Z"}
