{"icao":"LPAZ","metar":"LPAZ 270730Z 27014KT 9999 FEW017 SCT024 16/11 Q1018","updated":"2026-05-27T08:01:57Z"}
