{"icao":"LPFL","metar":"LPFL 182100Z 36010KT 340V040 9999 SCT021 16/11 Q1029","updated":"2025-11-18T22:18:33Z"}
