{"icao":"KORD","metar":"KORD 090951Z 24003KT 10SM FEW040 08/06 A3045 RMK AO2 SLP312 T00830056 $","updated":"2025-10-09T10:19:35Z"}
