{"icao":"LPPS","metar":"LPPS 291500Z 04019KT 010V070 9999 SCT013 19/13 Q1026","updated":"2026-03-29T15:31:38Z"}
