{"icao":"LPPS","metar":"LPPS 170800Z 18011KT 6000 -RADZ SCT005 BKN010 22/21 Q1011","updated":"2025-10-17T08:24:47Z"}
