{"icao":"KORD","metar":"KORD 231851Z 30006KT 10SM SCT250 11/01 A3005 RMK AO2 SLP177 T01110011","updated":"2025-12-23T19:16:57Z"}
