{"icao":"LPMA","metar":"LPMA 281230Z 23018KT 200V270 9999 SCT015 FEW016TCU 25/17 Q1011","updated":"2025-10-28T12:37:55Z"}
