{"icao":"LPST","metar":"LPST 121100Z 25009KT 220V280 9999 FEW015 BKN020 15/11 Q1021","updated":"2026-02-12T11:38:16Z"}
