{"icao":"LPMA","metar":"LPMA 050900Z 36008KT 310V030 9999 FEW015 SCT030 22/14 Q1025","updated":"2025-10-05T09:15:43Z"}
