{"icao":"LPST","metar":"LPST 101500Z 30010KT CAVOK 26/12 Q1020","updated":"2025-10-10T15:17:42Z"}
