{"icao":"LPPR","metar":"LPPR 310900Z 19019KT 9999 BKN007 18/17 Q1010","updated":"2025-10-31T09:19:37Z"}
