{"icao":"KJFK","metar":"KJFK 050551Z 24008KT 10SM FEW250 07/02 A3017 RMK AO2 SLP216 T00720017 10133 20072 51006 $","updated":"2025-11-05T06:28:04Z"}
