{"icao":"LPPR","metar":"LPPR 211600Z 30008KT CAVOK 16/11 Q1009","updated":"2026-03-21T16:28:07Z"}
