{"icao":"LPOV","metar":"LPOV 281700Z 35014KT CAVOK 17/11 Q1024","updated":"2026-03-28T17:27:29Z"}
