{"icao":"LPFR","metar":"LPFR 301730Z 27012KT CAVOK 29/17 Q1017","updated":"2026-06-30T17:51:28Z"}
