{"icao":"LPPS","metar":"LPPS 261700Z 05012KT 010V080 9999 SCT015 BKN030 19/11 Q1022","updated":"2025-11-26T17:17:34Z"}
