{"icao":"LPPT","metar":"LPPT 200830Z 34009KT 300V020 CAVOK 23/16 Q1016","updated":"2026-06-20T08:52:55Z"}
