{"icao":"LPOV","metar":"LPOV 151100Z 16007KT 8000 -RA SCT030 10/10 Q1011","updated":"2025-12-15T11:17:51Z"}
