{"icao":"LPPS","metar":"LPPS 161300Z 17006KT 140V200 9999 FEW012 SCT030 23/20 Q1015","updated":"2025-10-16T13:29:55Z"}
