{"icao":"LPHR","metar":"LPHR 170600Z 18006KT 160V220 9999 FEW015 BKN060 21/18 Q1010","updated":"2025-10-17T06:26:43Z"}
