{"icao":"LPAZ","metar":"LPAZ 132200Z 15006KT 9999 FEW020 19/17 Q1015","updated":"2025-10-13T22:16:34Z"}
