{"icao":"LPMT","metar":"LPMT 121200Z 19005KT 160V230 9999 -RA FEW015 SCT020 BKN030 14/12 Q1019","updated":"2026-01-12T12:44:37Z"}
