{"icao":"LPPR","metar":"LPPR 211230Z 21010KT 190V250 9999 BKN003 BKN007 19/18 Q1012","updated":"2025-10-21T12:38:42Z"}
