{"icao":"LPMA","metar":"LPMA 232330Z VRB02KT 9999 SCT015 17/12 Q1017","updated":"2026-04-23T23:43:26Z"}
