{"icao":"LPPS","metar":"LPPS 021400Z 26019G29KT 230V290 7000 SHRA SCT014 FEW018CB SCT030 16/14 Q0996 RERA","updated":"2026-01-02T14:19:31Z"}
