{"icao":"LPPR","metar":"LPPR 261800Z 23004KT 190V270 CAVOK 18/15 Q1019","updated":"2025-09-26T18:22:50Z"}
