{"icao":"LPPD","metar":"LPPD 070530Z 28019KT 9999 FEW016 SCT040 15/13 Q1012","updated":"2026-02-07T05:40:49Z"}
