{"icao":"LPFR","metar":"LPFR 282200Z 34005KT CAVOK 13/06 Q1022","updated":"2026-02-28T22:20:50Z"}
