{"icao":"KLAX","metar":"KLAX 130753Z VRB05KT 10SM FEW014 FEW028 SCT060 BKN160 15/08 A3005 RMK AO2 SLP175 T01500078 402060144 $","updated":"2026-04-13T08:01:20Z"}
