{"icao":"LPFR","metar":"LPFR 220700Z 05011KT 030V100 CAVOK 10/M02 Q1028","updated":"2025-11-22T07:16:19Z"}
