{"icao":"LPFR","metar":"LPFR 080830Z 17010KT 140V220 9999 -SHRA FEW012 FEW020CB SCT028 13/08 Q1017","updated":"2026-04-08T08:59:28Z"}
