{"icao":"LPMR","metar":"LPMR 270300Z 13003KT CAVOK 19/15 Q1019","updated":"2026-05-27T03:39:22Z"}
