{"icao":"LPBJ","metar":"LPBJ 210700Z 31013KT 9000 -RA SCT030 09/07 Q1010","updated":"2025-12-21T07:17:57Z"}
