{"icao":"LPFL","metar":"LPFL 140900Z 32006KT 240V030 9999 FEW012 SCT017 17/14 Q1021","updated":"2025-12-14T09:18:58Z"}
