{"icao":"LPCS","metar":"LPCS 051500Z 22008KT CAVOK 25/12 Q1019","updated":"2026-04-05T15:31:21Z"}
