{"icao":"LPPD","metar":"LPPD 202130Z 32005KT 9999 FEW025 11/05 Q1016","updated":"2026-04-20T21:44:45Z"}
