{"icao":"LPFR","metar":"LPFR 022230Z 27009KT 9999 FEW015 17/14 Q1016","updated":"2026-05-02T22:39:25Z"}
