{"icao":"KORD","metar":"KORD 010517Z 03018KT 10SM SCT019 SCT250 04/01 A3008 RMK AO2 PK WND 04027/0504 T00440011 $","updated":"2026-04-01T05:22:51Z"}
