{"icao":"LPBJ","metar":"LPBJ 062200Z 25008KT 9999 FEW023 08/06 Q1012","updated":"2026-02-06T22:22:07Z"}
