{"icao":"LPFL","metar":"LPFL 251600Z 02014KT 9999 SCT025 19/12 Q1025","updated":"2025-10-25T16:19:48Z"}
