{"icao":"LPBJ","metar":"LPBJ 030600Z VRB01KT CAVOK 08/07 Q1023","updated":"2025-11-03T06:29:19Z"}
