{"icao":"LPMT","metar":"LPMT 291100Z 22008KT 180V260 9999 FEW020 BKN035 19/12 Q1008","updated":"2026-04-29T11:27:13Z"}
