{"icao":"LPFL","metar":"LPFL 141130Z 05005KT 360V080 9999 FEW020 BKN034 16/11 Q1032","updated":"2026-05-14T11:51:06Z"}
