{"icao":"LPMR","metar":"LPMR 250600Z 36005KT 9999 FEW018 SCT033 BKN045 10/06 Q1021","updated":"2025-11-25T06:29:54Z"}
