{"icao":"LPST","metar":"LPST 050900Z 28010KT 4500 -DZ BR BKN005 OVC012 16/15 Q1021","updated":"2025-12-05T09:20:33Z"}
