{"icao":"LPFL","metar":"LPFL 271930Z 19011KT 150V230 9999 FEW025 16/09 Q1016","updated":"2026-05-28T03:28:44Z"}
