{"icao":"KLAX","metar":"KLAX 240953Z 10004KT 8SM BKN008 16/14 A3014 RMK AO2 SLP206 T01560139","updated":"2025-11-24T10:21:59Z"}
