{"icao":"LPMR","metar":"LPMR 021700Z 31008KT 8000 VCSH SCT014 SCT020CB BKN030 11/07 Q1016 RETSRAGS","updated":"2025-12-02T17:21:00Z"}
