{"icao":"LPBJ","metar":"LPBJ 300400Z 22006KT 0700 FG BKN003 09/09 Q1016","updated":"2026-01-30T04:10:16Z"}
