{"icao":"KJFK","metar":"KJFK 072051Z 19018KT 10SM SCT180 BKN240 23/18 A3008 RMK AO2 PK WND 19026/2041 SLP186 T02280178 56013","updated":"2025-10-07T21:14:48Z"}
