{"icao":"LPFL","metar":"LPFL 061900Z 33013G25KT 260V010 9999 VCSH BKN023 11/06 Q1026","updated":"2026-04-06T21:36:21Z"}
