{"icao":"LPSJ","metar":"LPSJ 230800Z 28004KT 230V340 9999 FEW012 SCT022 19/17 Q1025","updated":"2026-06-23T08:33:21Z"}
