{"icao":"LPPD","metar":"LPPD 052130Z 02008KT 350V050 9999 FEW022 BKN045 15/10 Q1027","updated":"2026-05-05T21:59:46Z"}
