{"icao":"KLAX","metar":"KLAX 240753Z 26007KT 10SM BKN024 15/11 A2990 RMK AO2 SLP126 T01500111 401780122 $","updated":"2026-01-24T08:25:38Z"}
