{"icao":"LPST","metar":"LPST 051200Z 35018KT 320V020 9999 FEW030 08/00 Q1014","updated":"2026-01-05T12:43:43Z"}
