{"icao":"LPPS","metar":"LPPS 141100Z 26015KT 9999 FEW015 FEW018CB 21/15 Q1012","updated":"2025-11-14T11:15:50Z"}
