{"icao":"LPPT","metar":"LPPT 160430Z 23005KT 9999 VCSH FEW016 FEW020TCU BKN044 09/09 Q1015","updated":"2026-01-16T04:38:54Z"}
