{"icao":"LPPT","metar":"LPPT 050800Z 22025G35KT 3000 +SHRA FEW005 SCT012 SCT022TCU 18/17 Q1006 RETS WS R20","updated":"2025-11-05T08:25:11Z"}
