{"icao":"LPAZ","metar":"LPAZ 262200Z 05012G23KT 010V080 9999 FEW012 BKN020 FEW025TCU 18/16 Q1017","updated":"2025-10-26T22:16:24Z"}
