{"icao":"LPPT","metar":"LPPT 011400Z 13004KT 060V190 9999 FEW015 BKN020 19/16 Q1018","updated":"2025-11-01T14:14:27Z"}
