{"icao":"LPPT","metar":"LPPT 230930Z 05005KT 020V080 CAVOK 12/10 Q1025","updated":"2026-02-23T09:53:47Z"}
