{"icao":"LPMT","metar":"LPMT 092200Z 32003KT CAVOK 10/09 Q1030","updated":"2026-01-09T22:20:03Z"}
