{"icao":"LPST","metar":"LPST 211200Z 26011KT 5000 BR BKN005 OVC012 20/19 Q1015","updated":"2025-10-21T12:38:43Z"}
