{"icao":"KJFK","metar":"KJFK 122051Z 31019G27KT 10SM SCT050 SCT250 02/M09 A2997 RMK AO2 PK WND 30027/2042 SLP149 T00171089 53002 $","updated":"2026-02-12T21:32:34Z"}
