{"icao":"LPAZ","metar":"LPAZ 010600Z 17009KT 8000 -DZ BKN002 BKN010 21/20 Q1021","updated":"2025-10-01T06:27:02Z"}
