{"icao":"LPFR","metar":"LPFR 111000Z 07011KT 030V100 CAVOK 24/15 Q1019","updated":"2025-10-11T10:16:16Z"}
