{"icao":"KLAX","metar":"KLAX 291853Z 36004KT 10SM FEW280 23/M03 A3021 RMK AO2 SLP228 T02331033","updated":"2026-01-29T19:29:24Z"}
