{"icao":"KORD","metar":"KORD 271051Z 09006KT 10SM CLR 08/04 A3025 RMK AO2 SLP244 T00780044 $","updated":"2025-10-27T11:16:35Z"}
