{"icao":"LPAZ","metar":"LPAZ 290530Z 03004KT 360V060 9999 FEW010 BKN032 20/18 Q1028","updated":"2026-06-29T05:49:01Z"}
