{"icao":"LPOV","metar":"LPOV 251300Z 30003KT CAVOK 12/07 Q1010","updated":"2025-12-25T13:31:00Z"}
