{"icao":"LPAZ","metar":"LPAZ 251130Z 33017KT 9999 FEW028 16/08 Q1028","updated":"2026-02-25T11:39:19Z"}
