{"icao":"LPPT","metar":"LPPT 240600Z 25011KT 9999 VCSH FEW010 SCT022 14/14 Q1020","updated":"2025-11-24T06:29:31Z"}
