{"icao":"KORD","metar":"KORD 030151Z 14004KT 10SM CLR 22/12 A3019 RMK AO2 SLP222 T02170122","updated":"2025-10-03T02:55:17Z"}
