{"icao":"LPBJ","metar":"LPBJ 171500Z 36004KT 320V050 CAVOK 28/09 Q1016","updated":"2026-04-17T15:59:26Z"}
