{"icao":"LPFR","metar":"LPFR 090100Z 00000KT CAVOK 13/10 Q1021","updated":"2025-11-09T01:26:56Z"}
