{"icao":"LPLA","metar":"LPLA 081100Z 21031G45KT 9000 -RA FEW009 BKN020 20/17 Q0989 RERA","updated":"2025-12-08T11:17:56Z"}
