{"icao":"LPMR","metar":"LPMR 252000Z 14003KT 7000 FEW007 SCT018 BKN035 12/11 Q1013","updated":"2026-01-25T20:22:34Z"}
