{"icao":"LPHR","metar":"LPHR 231700Z 29017KT 260V320 9999 FEW027 15/08 Q1026","updated":"2026-01-23T17:24:57Z"}
