{"icao":"LPMR","metar":"LPMR 092200Z VRB02KT 0800 FG BKN003 SCT030 12/12 Q1018 RMK WIND RWY36 VRB01KT RH98 AMB","updated":"2025-12-09T22:19:10Z"}
