{"icao":"KORD","metar":"KORD 170451Z 26017G25KT 10SM OVC050 M03/M11 A2970 RMK AO2 PK WND 27026/0426 SLP064 T10331106 $","updated":"2026-01-17T05:19:59Z"}
