{"icao":"KJFK","metar":"KJFK 150351Z 20005KT 10SM BKN050 OVC080 06/03 A2945 RMK AO2 SLP971 T00610033 $","updated":"2026-01-15T04:39:11Z"}
