{"icao":"LPLA","metar":"LPLA 180400Z 31008KT 9999 BKN035 13/10 Q1024","updated":"2026-02-18T04:52:12Z"}
