{"icao":"LPMR","metar":"LPMR 301500Z 32009KT 300V360 9999 FEW028 26/14 Q1018","updated":"2025-09-30T15:16:41Z"}
