{"icao":"KORD","metar":"KORD 220651Z 34007KT 10SM FEW150 BKN250 02/M02 A3001 RMK AO2 SLP166 T00171022","updated":"2025-11-22T07:16:37Z"}
