{"icao":"LPLA","metar":"LPLA 120900Z 29003KT 240V330 9999 FEW016 BKN030 14/11 Q1030","updated":"2026-03-12T09:41:15Z"}
