{"icao":"LPFR","metar":"LPFR 062230Z 34004KT 300V020 CAVOK 24/15 Q1017","updated":"2026-06-06T23:02:02Z"}
