{"icao":"LPFL","metar":"LPFL 091300Z 20021G41KT 160V240 6000 -RA BKN013 20/15 Q1002","updated":"2026-02-09T13:06:32Z"}
