{"icao":"LPPS","metar":"LPPS 211230Z 01009KT 340V040 9999 FEW005 SCT011 BKN030 24/21 Q1021","updated":"2025-10-21T12:39:15Z"}
