{"icao":"KLAX","metar":"KLAX 241713Z 10005KT 8SM SCT012 BKN230 15/12 A3019 RMK AO2 T01500122","updated":"2025-11-24T17:18:03Z"}
