{"icao":"LPOV","metar":"LPOV 161000Z 30004KT 250V330 9000 FEW012 16/12 Q1022","updated":"2026-04-16T11:01:03Z"}
