{"icao":"LPPT","metar":"LPPT 250500Z 36004KT CAVOK 16/03 Q1017","updated":"2025-09-25T05:16:56Z"}
