{"icao":"KORD","metar":"KORD 311051Z 19011KT 10SM FEW090 BKN150 OVC250 19/13 A2974 RMK AO2 SLP066 T01890133 $","updated":"2026-03-31T11:48:45Z"}
