{"icao":"LPPR","metar":"LPPR 290600Z 21006KT 9999 BKN005 BKN011 16/15 Q1006","updated":"2026-04-29T06:21:40Z"}
