{"icao":"LPPS","metar":"LPPS 180400Z 28002KT 9999 SCT008 SCT025 20/19 Q1013","updated":"2025-10-18T04:20:19Z"}
