{"icao":"KLAX","metar":"KLAX 020453Z 12004KT 10SM CLR 16/11 A3002 RMK AO2 SLP164 T01610106","updated":"2026-02-02T04:56:29Z"}
