{"icao":"KLAX","metar":"KLAX 171953Z 23013KT 10SM FEW030 FEW045 SCT140 BKN180 BKN250 26/17 A2987 RMK AO2 SLP114 T02560172","updated":"2025-09-17T20:18:52Z"}
