{"icao":"KJFK","metar":"KJFK 250951Z 33009KT 10SM FEW065 FEW100 08/03 A3031 RMK AO2 SLP263 T00830033","updated":"2025-10-25T10:17:01Z"}
