{"icao":"LPMT","metar":"LPMT 051400Z 25020G33KT 8000 SCT025 SCT035 16/12 Q0997","updated":"2026-02-05T14:08:20Z"}
