{"icao":"LPPS","metar":"LPPS 211230Z 07010KT 030V110 9999 SCT015 18/12 Q1027","updated":"2026-02-21T12:44:20Z"}
