{"icao":"LPHR","metar":"LPHR 272000Z 26028KT 7000 SCT007 SCT011 BKN016 17/16 Q1004","updated":"2026-01-27T20:22:03Z"}
