{"icao":"KLAX","metar":"KLAX 201053Z 27006KT 9SM OVC007 20/18 A2995 RMK AO2 SLP138 T02000183","updated":"2025-09-20T11:12:52Z"}
