{"icao":"LPPT","metar":"LPPT 250930Z 29004KT 220V340 CAVOK 18/12 Q1017","updated":"2026-04-25T09:51:10Z"}
