{"icao":"LPMT","metar":"LPMT 021300Z 15010KT 9000 FEW020 BKN028 15/11 Q1009","updated":"2026-03-02T14:00:34Z"}
