{"icao":"LPPT","metar":"LPPT 191230Z 13005KT 070V200 CAVOK 25/15 Q1019","updated":"2025-09-19T12:36:08Z"}
