{"icao":"LPAZ","metar":"LPAZ 301030Z 10008KT 060V140 9999 FEW016 SCT030 17/11 Q1033","updated":"2026-03-30T11:00:33Z"}
