{"icao":"LPPD","metar":"LPPD 181700Z 33009KT 9999 FEW025 SCT045 15/07 Q1026","updated":"2025-12-18T17:22:00Z"}
