{"icao":"LPMT","metar":"LPMT 030000Z 32003KT CAVOK 17/14 Q1022","updated":"2025-10-03T01:16:30Z"}
