{"icao":"LPAR","metar":"LPAR 031000Z 07006KT 9999 FEW015 13/11 Q1024","updated":"2025-11-03T10:21:40Z"}
