{"icao":"LPMT","metar":"LPMT 070900Z 21014G34KT 2000 SHRA BR FEW010 SCT015 BKN020 14/13 Q1002","updated":"2026-02-07T09:29:33Z"}
