{"icao":"LPCS","metar":"LPCS 221800Z 23007KT 200V270 8000 VCFG FEW002 BKN004 21/21 Q1019","updated":"2025-10-22T18:27:44Z"}
