{"icao":"LPPI","metar":"LPPI 270900Z 11004KT 070V150 9999 FEW010 SCT014 BKN030 19/16 Q1029 RMK WIND RWY09 10004KT RWY27 12003KT","updated":"2025-09-30T10:18:28Z"}
