{"icao":"LPPT","metar":"LPPT 261830Z 32012KT 290V350 9999 FEW025 22/15 Q1014","updated":"2026-04-26T18:52:37Z"}
