{"icao":"LPPS","metar":"LPPS 131900Z 04010KT 010V080 9999 FEW015 BKN030 16/10 Q1025","updated":"2026-03-13T19:30:16Z"}
