{"icao":"KLAX","metar":"KLAX 280753Z 09003KT 10SM CLR 16/15 A2994 RMK AO2 SLP137 T01610150 402170156 $","updated":"2025-10-28T08:25:24Z"}
