{"icao":"KORD","metar":"KORD 232051Z 36009KT 10SM FEW035 SCT250 M02/M14 A3040 RMK AO2 SLP303 T10171139 56022","updated":"2026-02-23T21:42:56Z"}
