{"icao":"LPAZ","metar":"LPAZ 050630Z 07006KT 9999 FEW022 BKN048 13/08 Q1026","updated":"2026-01-05T06:37:22Z"}
