{"icao":"LPPT","metar":"LPPT 212100Z 26006KT 230V290 9999 VCSH FEW012 BKN034 20/19 Q1017","updated":"2025-10-21T21:16:20Z"}
