{"icao":"LPOV","metar":"LPOV 020700Z 01008KT CAVOK 25/07 Q1018","updated":"2026-07-02T07:29:54Z"}
