{"icao":"KJFK","metar":"KJFK 291051Z 31010KT 10SM BKN250 M11/M18 A3007 RMK SLP186 T11061178 $ ","updated":"2026-01-29T11:30:20Z"}
