{"icao":"LPPS","metar":"LPPS 180900Z 24005KT 9999 FEW008 22/20 Q1015","updated":"2025-10-18T09:16:43Z"}
