{"icao":"KORD","metar":"KORD 190851Z 00000KT 10SM BKN120 BKN200 06/M07 A2964 RMK AO2 SLP039 T00561067 50001 $","updated":"2026-02-19T09:43:15Z"}
