{"icao":"LPFL","metar":"LPFL 191500Z 21009G20KT 160V280 9999 FEW004 25/21 Q1013 WS R18","updated":"2025-10-19T15:15:33Z"}
