{"icao":"LPFR","metar":"LPFR 102200Z VRB02KT CAVOK 10/05 Q1023","updated":"2026-03-10T22:26:56Z"}
