{"icao":"KLAX","metar":"KLAX 271453Z 09003KT 10SM FEW025 SCT160 BKN200 18/10 A2997 RMK AO2 SLP148 T01780100 53004","updated":"2026-02-27T15:36:28Z"}
