{"icao":"LPPD","metar":"LPPD 181500Z 26009KT 8000 SCT004 BKN008 23/21 Q1016","updated":"2025-10-18T15:15:40Z"}
