{"icao":"KLAX","metar":"KLAX 170553Z 00000KT 10SM CLR 18/14 A2989 RMK AO2 SLP120 T01780139 10194 20178 53003 $","updated":"2025-10-17T06:26:58Z"}
