{"icao":"KLAX","metar":"KLAX 282053Z 23012G23KT 10SM FEW016 SCT041 SCT095 23/16 A2999 RMK AO2 SLP154 T02330156 58014 $","updated":"2025-09-28T21:14:09Z"}
