{"icao":"LPPS","metar":"LPPS 152230Z 05007KT 360V100 9999 SCT015 BKN030 15/11 Q1024","updated":"2026-04-15T22:39:53Z"}
