{"icao":"LPFR","metar":"LPFR 241930Z 29008KT 9999 FEW030 19/14 Q1016","updated":"2026-04-24T19:51:25Z"}
