{"icao":"KORD","metar":"KORD 192051Z 28013G22KT 10SM SCT023 M15/M22 A3024 RMK AO2 PK WND 27027/2021 SLP254 T11501222 53010 $","updated":"2026-01-19T21:19:18Z"}
