{"icao":"LPHR","metar":"LPHR 022300Z 31008KT 260V340 9999 SCT016 SCT030 14/09 Q1011","updated":"2026-01-02T23:18:04Z"}
