{"icao":"LPMA","metar":"LPMA 140900Z 01009KT 330V050 9999 SCT015 16/11 Q1025","updated":"2026-03-14T09:32:11Z"}
