{"icao":"LPHR","metar":"LPHR 300800Z 22009KT 0600 -DZ FG VV001 22/22 Q1018","updated":"2025-09-30T08:25:09Z"}
