{"icao":"LPHR","metar":"LPHR 061630Z 25030G41KT 7000 SCT008 SCT012 FEW015CB BKN030 17/14 Q1005","updated":"2026-02-06T16:42:13Z"}
