{"icao":"LPCS","metar":"LPCS 061500Z 23010KT 200V260 CAVOK 24/17 Q1020","updated":"2025-10-06T15:17:58Z"}
