{"icao":"LPAZ","metar":"LPAZ 201630Z 02026G38KT 9000 FEW016 SCT022 BKN049 16/11 Q1004","updated":"2026-03-20T16:41:28Z"}
