{"icao":"LPOV","metar":"LPOV 221500Z 27004KT 240V310 9999 BKN035 14/06 Q1029","updated":"2025-11-22T15:16:16Z"}
