{"icao":"KORD","metar":"KORD 251251Z 28011KT 10SM FEW028 M03/M07 A2959 RMK AO2 SLP025 T10281072","updated":"2026-02-25T13:02:13Z"}
