{"icao":"LPPT","metar":"LPPT 260330Z 24010KT 8000 -DZ FEW003 BKN005 13/13 Q1014","updated":"2026-01-26T03:55:49Z"}
