{"icao":"KLAX","metar":"KLAX 260853Z 12003KT 10SM FEW010 SCT250 14/14 A3008 RMK AO2 SLP183 T01440139 51003","updated":"2026-02-26T09:49:10Z"}
