{"icao":"KLAX","metar":"KLAX 241653Z 27007KT 8SM FEW007 SCT120 BKN160 22/18 A2998 RMK AO2 SLP150 T02220183 $","updated":"2025-09-24T17:16:09Z"}
