{"icao":"LPST","metar":"LPST 181400Z 02004KT 290V070 CAVOK 31/09 Q1020","updated":"2025-09-18T14:17:33Z"}
