{"icao":"KJFK","metar":"KJFK 052151Z 17007KT 10SM CLR 23/17 A3026 RMK AO2 SLP246 T02280172","updated":"2025-10-05T22:15:08Z"}
