{"icao":"LPPT","metar":"LPPT 091730Z 32006G16KT 240V350 9999 FEW026 11/06 Q1022","updated":"2026-03-09T17:53:23Z"}
