{"icao":"LPFR","metar":"LPFR 261600Z 22008KT 180V240 9999 FEW010 FEW025CB BKN045 23/20 Q1017","updated":"2025-10-26T16:20:08Z"}
