{"icao":"LPCS","metar":"LPCS 211230Z 25010KT 190V300 2700 -DZRA BR OVC003 21/21 Q1015","updated":"2025-10-21T12:38:42Z"}
