{"icao":"KJFK","metar":"KJFK 310351Z 32014KT 10SM FEW250 M11/M19 A3021 RMK AO2 SLP228 T11111194 $","updated":"2026-01-31T04:05:33Z"}
