{"icao":"LPMR","metar":"LPMR 210400Z 16009KT 6000 -RA BKN008 BKN022 12/11 Q1009","updated":"2026-01-21T04:42:26Z"}
