{"icao":"LPBJ","metar":"LPBJ 081800Z 34006KT CAVOK 15/09 Q1021","updated":"2025-11-08T18:23:32Z"}
