{"icao":"LPLA","metar":"LPLA 192200Z VRB05KT 9999 FEW030 BKN040 19/11 Q1028","updated":"2025-09-19T22:16:00Z"}
