{"icao":"LPMT","metar":"LPMT 280500Z 11006KT 9999 FEW012 BKN030 18/18 Q1015","updated":"2025-10-28T05:18:25Z"}
