{"icao":"KJFK","metar":"KJFK 311451Z 26020G33KT 10SM BKN043 12/04 A2940 RMK AO2 PK WND 26033/1449 SLP955 T01220044 51021","updated":"2025-10-31T15:18:02Z"}
