{"icao":"KORD","metar":"KORD 151451Z 17013G22KT 10SM FEW060 SCT140 OVC250 12/03 A2941 RMK AO2 SLP963 T01170028 56050 $","updated":"2026-03-15T15:28:18Z"}
