{"icao":"LPPS","metar":"LPPS 180830Z 07010KT 040V100 9999 SCT014 BKN030 16/12 Q1017","updated":"2026-04-18T08:49:56Z"}
