{"icao":"LPPR","metar":"LPPR 290300Z 14007KT 9999 -RA BKN018 16/15 Q1006","updated":"2025-10-29T03:14:11Z"}
