{"icao":"LPMA","metar":"LPMA 151700Z 35009KT 320V020 9999 BKN016 22/16 Q1015","updated":"2025-11-15T17:13:47Z"}
