{"icao":"KORD","metar":"KORD 191751Z 31012G24KT 10SM FEW032 BKN080 OVC100 12/06 A2970 RMK AO2 SLP059 60030 T01170056 10117 20089 51020 $","updated":"2025-10-19T18:22:44Z"}
