{"icao":"LPMA","metar":"LPMA 080530Z 35008KT 320V020 9999 BKN015 14/06 Q1024","updated":"2026-03-08T05:41:57Z"}
