{"icao":"KJFK","metar":"KJFK 081751Z 32005KT 10SM FEW037 BKN250 11/00 A3020 RMK AO2 SLP227 T01060000 10106 20050 58002 $","updated":"2026-01-08T18:27:13Z"}
