{"icao":"KJFK","metar":"KJFK 181551Z VRB05KT 10SM SCT250 25/17 A3018 RMK AO2 SLP221 T02500167","updated":"2026-05-18T16:20:53Z"}
