{"icao":"LPAZ","metar":"LPAZ 210400Z 23013KT 9999 BKN005 23/22 Q1016","updated":"2025-10-21T04:21:29Z"}
