{"icao":"KJFK","metar":"KJFK 310051Z 28018G27KT 10SM SCT060 M02/M13 A2978 RMK AO2 PK WND 30032/2353 SLP083 T10171128 $","updated":"2025-12-31T01:39:38Z"}
