{"icao":"LPPR","metar":"LPPR 040630Z 24009KT 220V280 7000 FEW011 BKN015 14/13 Q0990","updated":"2026-02-04T06:51:01Z"}
