{"icao":"LPMA","metar":"LPMA 271100Z 31009KT 260V010 9999 SCT015 16/10 Q1016","updated":"2025-12-27T11:15:42Z"}
