{"icao":"LPBJ","metar":"LPBJ 271900Z 29011KT CAVOK 30/09 Q1017","updated":"2026-05-27T19:23:06Z"}
