{"icao":"LPPS","metar":"LPPS 270930Z 01022KT 9999 SCT015 16/12 Q1027","updated":"2026-02-27T09:39:47Z"}
