{"icao":"LPHR","metar":"LPHR 152000Z 34006KT 9999 FEW025 14/10 Q1019","updated":"2025-11-15T20:18:17Z"}
