{"icao":"LPFL","metar":"LPFL 041330Z 25015G31KT 150V320 9999 VCSH BKN023 FEW025TCU 16/07 Q0991","updated":"2026-02-04T14:04:09Z"}
