{"icao":"LPAZ","metar":"LPAZ 150600Z 25007KT 9000 FEW009 BKN019 FEW025TCU 18/17 Q1008 RESHRA","updated":"2025-10-15T06:27:16Z"}
