{"icao":"LPPR","metar":"LPPR 260100Z 34006KT 9999 FEW048 13/10 Q1016","updated":"2025-10-26T01:26:09Z"}
