{"icao":"KORD","metar":"KORD 281751Z 04011G16KT 10SM SCT300 21/09 A3019 RMK AO2 SLP221 T02110089 10211 20150 50000","updated":"2026-05-28T18:34:52Z"}
