{"icao":"LPBJ","metar":"LPBJ 240800Z 23007KT 9999 VCFG BKN035 SCT047 12/11 Q1022","updated":"2025-11-24T08:27:18Z"}
