{"icao":"KJFK","metar":"KJFK 132151Z 23016KT 10SM FEW048 FEW150 SCT250 22/12 A2994 RMK AO2 PK WND 23029/2105 SLP137 T02220122","updated":"2026-04-13T22:41:31Z"}
