{"icao":"LPMT","metar":"LPMT 201200Z 25005KT 210V290 9999 SCT032 23/15 Q1015","updated":"2025-10-20T12:38:10Z"}
