{"icao":"LPBJ","metar":"LPBJ 052000Z 20006KT CAVOK 18/04 Q1019","updated":"2026-04-05T20:32:02Z"}
