{"icao":"LPAR","metar":"LPAR 231700Z 20007KT CAVOK 20/10 Q1021","updated":"2026-02-24T07:07:13Z"}
