{"icao":"LPPS","metar":"LPPS 261000Z 17003KT 130V210 9999 FEW015 BKN030 18/09 Q1022","updated":"2026-01-26T10:25:40Z"}
