{"icao":"KJFK","metar":"KJFK 222151Z 11014KT 10SM FEW100 BKN190 BKN250 15/06 A3037 RMK AO2 SLP282 T01500056","updated":"2026-05-22T22:06:18Z"}
