{"icao":"LPMA","metar":"LPMA 012100Z 02009KT 340V050 9999 SCT015 21/16 Q1021","updated":"2025-10-01T21:15:27Z"}
