{"icao":"LPBJ","metar":"LPBJ 090100Z 15010KT CAVOK 11/08 Q1020","updated":"2025-12-09T01:26:23Z"}
