{"icao":"LPLA","metar":"LPLA 141600Z VRB09KT 9999 SCT035 17/09 Q1028","updated":"2026-02-14T16:28:14Z"}
