{"icao":"LPHR","metar":"LPHR 301230Z 12016KT 7000 -RA SCT006 BKN011 BKN025 18/17 Q1009","updated":"2025-12-30T12:41:33Z"}
