{"icao":"LPMR","metar":"LPMR 180600Z VRB02KT CAVOK 13/11 Q1015","updated":"2025-10-18T06:24:01Z"}
