{"icao":"KORD","metar":"KORD 140451Z 36006KT 10SM OVC048 17/12 A3019 RMK AO2 SLP221 T01720117 $","updated":"2025-10-14T05:17:04Z"}
