{"icao":"LPFL","metar":"LPFL 140900Z 27008KT 210V330 9999 FEW021 13/07 Q1015","updated":"2026-04-14T09:16:30Z"}
