{"icao":"LPAZ","metar":"LPAZ 191030Z 15009KT 120V190 9999 FEW008 SCT011 18/15 Q1015","updated":"2026-04-19T10:37:24Z"}
