{"icao":"KLAX","metar":"KLAX 111420Z 14006KT 10SM FEW009 BKN015 19/16 A2985 RMK AO2 BKN V SCT T01940156","updated":"2026-06-11T14:34:16Z"}
