{"icao":"LPPR","metar":"LPPR 032000Z 34010KT 300V360 9999 BKN006 17/16 Q1024","updated":"2025-10-03T20:18:28Z"}
