{"icao":"LPFR","metar":"LPFR 131000Z 21007KT 180V250 9999 FEW012 19/13 Q1020","updated":"2026-05-13T10:25:44Z"}
