{"icao":"LPPT","metar":"LPPT 131530Z 30017G41KT 270V340 6000 -SHRA SCT018 SCT025CB 11/09 Q1009 RETSRA","updated":"2026-02-13T15:40:21Z"}
