{"icao":"KORD","metar":"KORD 170551Z 24004KT 10SM FEW250 16/10 A2965 RMK AO2 SLP038 T01610100 10200 20161 402440161 50001 $","updated":"2026-06-17T06:09:35Z"}
