{"icao":"LPMT","metar":"LPMT 062200Z 36004KT 310V040 9999 FEW018 FEW020CB SCT030 09/08 Q1011","updated":"2026-02-06T22:22:06Z"}
