{"icao":"LPPS","metar":"LPPS 121700Z 04014KT 010V080 9999 FEW015 BKN030 16/07 Q1026","updated":"2026-04-12T17:33:18Z"}
