{"icao":"KORD","metar":"KORD 211235Z 23010G18KT 9SM -SN OVC038 M02/M09 A2989 RMK AO2 SNB34 P0000 T10171094 $","updated":"2026-01-21T12:48:24Z"}
