{"icao":"LPLA","metar":"LPLA 171900Z 31025KT 9000 -SHRA FEW014 BKN018 15/11 Q1028","updated":"2026-01-17T19:14:13Z"}
