{"icao":"KJFK","metar":"KJFK 271051Z 00000KT 10SM FEW250 07/04 A3021 RMK SLP228 T00720044 $ ","updated":"2026-04-27T11:03:02Z"}
