{"icao":"LPMT","metar":"LPMT 090400Z 26008KT 9000 -RADZ SCT008 BKN012 14/14 Q1011","updated":"2026-02-09T04:58:32Z"}
