{"icao":"LPAZ","metar":"LPAZ 130730Z 36007KT 9999 FEW014 SCT018 BKN040 14/11 Q1026","updated":"2026-05-13T07:48:04Z"}
