{"icao":"LPPD","metar":"LPPD 220430Z 25015KT 9000 FEW005 BKN009 16/15 Q1016","updated":"2026-01-22T04:46:55Z"}
