{"icao":"LPLA","metar":"LPLA 202300Z 14010KT 060V200 9000 -RA SCT015 SCT030 17/14 Q1021","updated":"2026-02-20T23:27:30Z"}
