{"icao":"LPPT","metar":"LPPT 121200Z VRB04KT CAVOK 31/13 Q1019","updated":"2026-06-12T12:17:15Z"}
