{"icao":"LPMT","metar":"LPMT 030400Z 11002KT CAVOK 09/09 Q1023","updated":"2025-11-03T04:27:14Z"}
