{"icao":"LPAZ","metar":"LPAZ 222000Z 31021KT 9999 SCT026 15/08 Q1020","updated":"2026-01-22T20:26:38Z"}
