{"icao":"LPPR","metar":"LPPR 301900Z 17015KT 9999 BKN040 18/13 Q1011","updated":"2025-10-30T19:14:16Z"}
