{"icao":"LPBJ","metar":"LPBJ 151400Z 33007KT 280V050 CAVOK 22/08 Q1023","updated":"2026-04-15T15:04:04Z"}
