{"icao":"LPMA","metar":"LPMA 100930Z 11002KT CAVOK 20/13 Q1025","updated":"2026-02-10T09:59:39Z"}
