{"icao":"LPAZ","metar":"LPAZ 201030Z 18015KT 9999 BKN044 17/10 Q1025","updated":"2026-02-20T10:36:14Z"}
