{"icao":"LPOV","metar":"LPOV 291000Z 30007KT 280V340 CAVOK 22/17 Q1022","updated":"2026-06-29T10:55:17Z"}
