{"icao":"LPOV","metar":"LPOV 030900Z 12001KT CAVOK 16/11 Q1023","updated":"2026-04-03T13:01:02Z"}
