{"icao":"LPHR","metar":"LPHR 031000Z 22005KT 9999 -SHRA SCT005 SCT010 BKN020 22/22 Q1022","updated":"2025-10-03T10:17:50Z"}
