{"icao":"LPPS","metar":"LPPS 071000Z 04010KT 350V070 9999 SCT015 15/08 Q1033","updated":"2026-01-07T10:23:29Z"}
