{"icao":"LPPT","metar":"LPPT 042100Z 16010KT CAVOK 20/14 Q1013","updated":"2025-11-04T21:16:48Z"}
