{"icao":"KJFK","metar":"KJFK 191551Z 29015KT 10SM SCT090 M03/M09 A2997 RMK AO2 SLP149 T10281094 $","updated":"2026-01-19T16:27:55Z"}
