{"icao":"LPPS","metar":"LPPS 120700Z 05006KT 010V080 9999 SCT014 BKN030 13/08 Q1026","updated":"2026-04-12T07:12:26Z"}
