{"icao":"LPMA","metar":"LPMA 161300Z 02015KT 350V050 9999 SCT016 18/11 Q1021","updated":"2026-04-16T13:27:43Z"}
