{"icao":"LPPR","metar":"LPPR 272300Z 01004KT CAVOK 08/06 Q1027","updated":"2026-02-27T23:22:56Z"}
