{"icao":"LPMA","metar":"LPMA 182200Z 03018KT 9999 SCT013 17/13 Q1015","updated":"2026-04-18T22:33:45Z"}
