{"icao":"LPCS","metar":"LPCS 161300Z 21006KT 170V240 CAVOK 27/17 Q1021","updated":"2025-09-16T13:27:16Z"}
