{"icao":"KLAX","metar":"KLAX 081653Z 12003KT 10SM FEW010 17/09 A3016 RMK AO2 SLP212 T01670094 $","updated":"2025-12-08T17:19:33Z"}
