{"icao":"LPAZ","metar":"LPAZ 150600Z 32018KT 9999 FEW022 15/10 Q1024","updated":"2025-12-15T06:33:46Z"}
