{"icao":"LPAR","metar":"LPAR 011000Z 06007KT 020V090 CAVOK 24/13 Q1021","updated":"2025-10-01T10:18:33Z"}
