{"icao":"LPCS","metar":"LPCS 271800Z 20013KT 9999 SCT005 BKN012 18/18 Q1014","updated":"2025-09-27T18:21:50Z"}
