{"icao":"LPBJ","metar":"LPBJ 051600Z 14005KT 100V170 CAVOK 27/01 Q1019","updated":"2026-04-05T16:35:13Z"}
