{"icao":"KORD","metar":"KORD 111951Z 06011KT 10SM FEW030 BKN038 18/09 A3012 RMK AO2 SLP198 T01780089","updated":"2025-10-11T20:16:50Z"}
