{"icao":"LPCS","metar":"LPCS 312000Z 36025KT 9999 FEW012 19/13 Q1018 WS R35","updated":"2026-06-01T06:01:00Z"}
