{"icao":"KORD","metar":"KORD 170351Z 16007KT 10SM CLR 16/05 A3004 RMK AO2 SLP169 T01610050","updated":"2025-10-17T04:21:23Z"}
