{"icao":"LPPT","metar":"LPPT 250800Z 27013KT 9000 -SHRA FEW008 BKN015 14/12 Q1015","updated":"2026-01-25T08:26:14Z"}
