{"icao":"KJFK","metar":"KJFK 190851Z 11008KT 2SM -DZ BR BKN005 OVC012 09/08 A2982 RMK SFC VIS 6 SLP096 P0000 60000 T00890083 58030 ","updated":"2026-04-19T09:45:45Z"}
