{"icao":"KJFK","metar":"KJFK 041651Z 11010KT 10SM BKN090 BKN110 BKN220 20/12 A3020 RMK AO2 SLP226 T02000122","updated":"2026-04-04T17:28:33Z"}
