{"icao":"KORD","metar":"KORD 141751Z 28007KT 10SM FEW020 M15/M22 A3059 RMK AO2 SLP376 T11501222 11150 21189 50007","updated":"2025-12-14T18:26:51Z"}
