{"icao":"LPBJ","metar":"LPBJ 110900Z 07005KT CAVOK 10/07 Q1025","updated":"2026-03-11T09:40:50Z"}
