{"icao":"LPPD","metar":"LPPD 072030Z VRB02KT 9999 FEW015 21/19 Q1026","updated":"2025-10-07T21:14:47Z"}
