{"icao":"KLAX","metar":"KLAX 261904Z 26008KT 5SM HZ FEW011 SCT017 BKN280 19/14 A3005 RMK AO2 T01940139 $","updated":"2025-10-26T19:13:59Z"}
