{"icao":"KJFK","metar":"KJFK 100651Z 32006KT 10SM SCT110 BKN250 M04/M13 A3019 RMK AO2 SLP222 T10391133 $","updated":"2026-02-10T07:02:53Z"}
