{"icao":"LPMR","metar":"LPMR 111300Z 16015KT 130V190 9999 FEW020 19/13 Q1010","updated":"2025-11-11T13:29:53Z"}
