{"icao":"LPLA","metar":"LPLA 061400Z 07005KT 050V110 9999 SCT030 BKN045 16/08 Q1023","updated":"2026-05-06T14:07:14Z"}
