{"icao":"KORD","metar":"KORD 061651Z 29004KT 10SM BKN029 BKN110 BKN250 29/21 A2986 RMK AO2 SLP105 T02890206 $","updated":"2026-06-06T17:12:16Z"}
