{"icao":"LPMT","metar":"LPMT 160900Z VRB02KT CAVOK 21/13 Q1015","updated":"2025-10-16T09:19:46Z"}
