{"icao":"LPPR","metar":"LPPR 251230Z 26008KT 220V320 9999 SCT032 BKN046 15/09 Q1012","updated":"2026-01-25T12:40:07Z"}
