{"icao":"LPBJ","metar":"LPBJ 072300Z 31006KT 9000 OVC008 14/14 Q1019","updated":"2025-11-07T23:16:04Z"}
