{"icao":"LPMT","metar":"LPMT 161000Z 01006KT 330V060 CAVOK 18/11 Q1021","updated":"2026-04-16T11:01:04Z"}
