{"icao":"LPAZ","metar":"LPAZ 311700Z 23016KT 6000 SCT007 19/17 Q1018","updated":"2026-01-31T17:22:20Z"}
