{"icao":"LPPT","metar":"LPPT 022200Z 33007KT 9999 FEW024 11/08 Q1018","updated":"2025-12-02T22:16:31Z"}
