{"icao":"KORD","metar":"KORD 070651Z 21013G25KT 6SM -RA BKN044 OVC060 10/03 A2965 RMK AO2 PK WND 18032/0604 RAB19 SLP042 P0001 T01000033 $","updated":"2025-11-07T07:17:58Z"}
