{"icao":"KORD","metar":"KORD 250851Z 16005KT 10SM OVC160 06/M04 A3012 RMK AO2 SLP203 T00611039 56021","updated":"2026-03-25T09:52:43Z"}
