{"icao":"LPAR","metar":"LPAR 271500Z VRB02KT 9999 FEW030 30/09 Q1011","updated":"2026-04-27T15:46:48Z"}
