{"icao":"LPPT","metar":"LPPT 232200Z 34013KT CAVOK 19/06 Q1018","updated":"2025-09-23T22:15:45Z"}
