{"icao":"KORD","metar":"KORD 071351Z 24010G23KT 10SM SCT014 SCT150 BKN250 11/09 A2951 RMK AO2 SLP994 T01110089 $","updated":"2025-11-07T14:18:24Z"}
