{"icao":"LPPR","metar":"LPPR 101400Z 35004KT 300V020 9999 FEW020 16/10 Q1022","updated":"2025-12-10T14:21:01Z"}
