{"icao":"LPFR","metar":"LPFR 270630Z 35003KT 320V030 CAVOK 10/09 Q1023","updated":"2026-02-27T06:52:19Z"}
