{"icao":"KJFK","metar":"KJFK 291951Z 32012KT 10SM FEW055 FEW250 06/M09 A3045 RMK AO2 SLP310 T00611089 $","updated":"2025-11-29T20:20:10Z"}
