{"icao":"LPLA","metar":"LPLA 032000Z 25014KT 7000 -RA FEW016 SCT030 17/14 Q1000","updated":"2026-02-03T20:34:28Z"}
