{"icao":"LPMR","metar":"LPMR 081200Z 35011KT 300V020 9999 SCT020 SCT038 20/12 Q1022","updated":"2025-10-08T12:37:28Z"}
