{"icao":"LPBJ","metar":"LPBJ 282300Z 34003KT 300V010 CAVOK 09/05 Q1023","updated":"2026-02-28T23:20:28Z"}
