{"icao":"KORD","metar":"KORD 281459Z 10003KT 1/2SM R10L/P6000FT RA FG BKN048 OVC070 09/09 A2961 RMK AO2 P0001 T00940089 $","updated":"2025-12-28T15:19:10Z"}
