{"icao":"KJFK","metar":"KJFK 292151Z 05009KT 10SM SCT030 OVC042 12/06 A3012 RMK AO2 SLP199 T01220061","updated":"2025-10-29T22:18:01Z"}
