{"icao":"LPPR","metar":"LPPR 141900Z 00000KT 8000 NSC 16/14 Q1017","updated":"2025-10-14T19:13:50Z"}
