{"icao":"LPPD","metar":"LPPD 012300Z 33015KT 9999 SCT025 SCT040 12/05 Q1027","updated":"2026-03-01T23:22:16Z"}
