{"icao":"KLAX","metar":"KLAX 190253Z 23004KT 10SM FEW100 BKN150 23/17 A2983 RMK AO2 SLP100 T02280172 53009","updated":"2025-09-19T02:58:55Z"}
