{"icao":"KORD","metar":"KORD 121251Z 22010KT 10SM BKN250 M02/M08 A3014 RMK AO2 SLP215 T10221078 $","updated":"2026-01-12T13:41:30Z"}
