{"icao":"LPLA","metar":"LPLA 250500Z VRB06G17KT 9999 FEW020 19/14 Q1016","updated":"2025-09-25T05:17:17Z"}
