{"icao":"LPPT","metar":"LPPT 240830Z 06009KT CAVOK 15/06 Q1019","updated":"2026-03-24T08:52:05Z"}
