{"icao":"LPMR","metar":"LPMR 131500Z 25008KT 220V280 9999 SCT020 FEW022TCU FEW023CB 15/10 Q1009","updated":"2026-01-13T15:23:53Z"}
