{"icao":"KJFK","metar":"KJFK 300851Z 00000KT 10SM BKN040 BKN150 BKN210 02/M06 A3043 RMK AO2 SLP305 T00171056 58017 $","updated":"2025-11-30T09:17:50Z"}
