{"icao":"LPOV","metar":"LPOV 300900Z 03005KT 360V060 CAVOK 09/05 Q1021","updated":"2025-11-30T09:17:30Z"}
