{"icao":"LPAZ","metar":"LPAZ 311800Z 23014KT 6000 VCSH FEW005 BKN007 18/17 Q1018","updated":"2026-01-31T18:30:36Z"}
