{"icao":"LPMA","metar":"LPMA 162200Z VRB05KT 9999 SCT015 16/08 Q1026","updated":"2026-01-16T22:19:58Z"}
