{"icao":"LPFR","metar":"LPFR 201600Z 11010KT CAVOK 22/11 Q1009","updated":"2026-04-20T16:07:25Z"}
