{"icao":"LPPR","metar":"LPPR 210800Z 12004KT 060V170 9999 -SHRA SCT014 FEW020CB BKN028 06/04 Q1007 RERA","updated":"2025-12-21T08:24:37Z"}
