{"icao":"LPPR","metar":"LPPR 222000Z 00000KT CAVOK 12/11 Q1012","updated":"2026-03-22T20:26:15Z"}
