{"icao":"LPMA","metar":"LPMA 200900Z 01006KT 340V040 9999 SCT015 19/13 Q1020","updated":"2025-11-20T09:20:11Z"}
