{"icao":"LPOV","metar":"LPOV 071100Z 30007KT 250V330 9999 FEW016 BKN040 17/12 Q1011","updated":"2026-05-07T11:45:36Z"}
