{"icao":"LPST","metar":"LPST 251400Z 35005KT 9999 FEW014 BKN030 16/12 Q1017","updated":"2026-02-25T14:46:31Z"}
