{"icao":"KJFK","metar":"KJFK 301851Z 19014KT 10SM FEW055 BKN170 BKN250 27/19 A3008 RMK SLP185 T02720189 $ ","updated":"2026-06-30T19:54:36Z"}
