{"icao":"LPCS","metar":"LPCS 261100Z 04007KT 010V090 CAVOK 21/14 Q1018","updated":"2025-10-26T11:12:57Z"}
