{"icao":"LPPD","metar":"LPPD 011800Z 03010KT 360V060 9999 FEW025 SCT045 18/08 Q1021","updated":"2025-11-01T18:22:28Z"}
