{"icao":"KORD","metar":"KORD 251151Z 27006KT 10SM FEW160 SCT250 18/17 A2992 RMK AO2 SLP129 70089 T01830172 10183 20167 53011","updated":"2026-06-25T12:19:41Z"}
