{"icao":"KORD","metar":"KORD 230451Z 29008KT 10SM BKN045 08/01 A2997 RMK AO2 SLP150 T00780011","updated":"2025-10-23T05:17:48Z"}
