{"icao":"LPPT","metar":"LPPT 131000Z 08009KT 320V100 CAVOK 27/14 Q1018","updated":"2026-06-13T10:26:41Z"}
