{"icao":"KORD","metar":"KORD 111351Z 21011G16KT 10SM SCT065 OVC110 M01/M07 A2999 RMK AO2 SNE25 SLP163 P0000 T10111067","updated":"2025-11-11T14:19:44Z"}
