{"icao":"LPPT","metar":"LPPT 211100Z 06007KT 330V100 CAVOK 13/08 Q1030","updated":"2026-02-21T11:20:37Z"}
