{"icao":"LPPR","metar":"LPPR 270100Z 09006KT 050V110 CAVOK 07/M00 Q1014","updated":"2025-12-27T01:26:54Z"}
