{"icao":"LPFR","metar":"LPFR 191230Z 11012KT CAVOK 22/11 Q1016","updated":"2026-04-19T12:59:23Z"}
