{"icao":"LPLA","metar":"LPLA 070900Z 31021KT 9999 FEW023 BKN025 14/10 Q1011","updated":"2026-05-07T09:30:19Z"}
