{"icao":"LPPR","metar":"LPPR 081300Z 29004KT 240V330 9999 SCT027 17/11 Q1023","updated":"2025-11-08T13:22:13Z"}
