{"icao":"LPAZ","metar":"LPAZ 211400Z 22013KT 9000 SCT006 BKN025 24/23 Q1018","updated":"2025-10-21T14:17:18Z"}
