{"icao":"LPMR","metar":"LPMR 090100Z 16004KT 8000 NSC 09/08 Q1023","updated":"2025-11-09T01:26:59Z"}
