{"icao":"LPMT","metar":"LPMT 040300Z 33007KT 280V010 9999 BKN020 18/14 Q1019","updated":"2026-06-04T03:53:03Z"}
