{"icao":"LPPR","metar":"LPPR 122200Z 03007KT 340V070 9999 FEW040 11/09 Q1019","updated":"2025-12-12T22:18:53Z"}
