{"icao":"LPMA","metar":"LPMA 161300Z 02013KT 330V050 9999 SCT015 19/13 Q1024","updated":"2026-05-16T13:19:33Z"}
