{"icao":"KORD","metar":"KORD 280051Z 13009KT 6SM BR OVC006 05/04 A2986 RMK AO2 SLP116 T00500039 $","updated":"2025-12-28T01:48:12Z"}
