{"icao":"LPMR","metar":"LPMR 041400Z 14019KT CAVOK 20/14 Q1012","updated":"2025-11-04T14:19:03Z"}
