{"icao":"KORD","metar":"KORD 040551Z 19004KT 10SM CLR 22/16 A3010 RMK AO2 SLP189 T02170156 10278 20217 403170178 58003 $","updated":"2025-10-04T06:23:40Z"}
