{"icao":"LPAZ","metar":"LPAZ 250700Z 25018KT 9000 SCT014 BKN022 17/15 Q1020","updated":"2026-01-25T07:20:24Z"}
