{"icao":"LPMA","metar":"LPMA 140500Z 02016KT 340V040 9999 SCT015 22/17 Q1022","updated":"2025-09-14T05:15:49Z"}
