{"icao":"LPPS","metar":"LPPS 312300Z 06009KT 020V090 9999 FEW012 16/13 Q1025","updated":"2026-03-31T23:33:30Z"}
