{"icao":"LPPR","metar":"LPPR 260530Z VRB01KT CAVOK 12/11 Q1016","updated":"2026-04-26T05:38:02Z"}
