{"icao":"LPFR","metar":"LPFR 192100Z 35004KT CAVOK 12/06 Q1028","updated":"2026-02-19T21:30:29Z"}
