{"icao":"LPMA","metar":"LPMA 252000Z 36017G28KT 320V040 9999 BKN015 FEW018CB 15/09 Q1021","updated":"2026-02-25T20:34:12Z"}
