{"icao":"LPAZ","metar":"LPAZ 101530Z 34007KT 270V030 9999 FEW030 15/07 Q1033","updated":"2026-03-10T15:58:14Z"}
