{"icao":"LPBJ","metar":"LPBJ 261500Z 24015G25KT 9999 SCT008 BKN018 BKN025 15/13 Q1014","updated":"2026-01-26T15:28:01Z"}
