{"icao":"LPPD","metar":"LPPD 141600Z 31009KT 9999 FEW022 SCT040 17/10 Q1006","updated":"2025-11-14T16:23:39Z"}
