{"icao":"KORD","metar":"KORD 210651Z 00000KT 9SM BKN120 21/19 A2997 RMK AO2 RAE0553B17E35 SLP143 P0000 T02060189","updated":"2025-09-21T07:14:12Z"}
