{"icao":"LPPS","metar":"LPPS 181430Z 25012KT 220V280 9999 FEW012 FEW018CB SCT030 14/08 Q0998","updated":"2026-03-18T15:01:10Z"}
