{"icao":"LPPR","metar":"LPPR 190700Z VRB02KT 8000 NSC 18/15 Q1018","updated":"2025-09-19T07:16:47Z"}
