{"icao":"LPMA","metar":"LPMA 300700Z 01016G29KT 330V050 9999 FEW015 16/10 Q1025","updated":"2026-03-30T07:25:44Z"}
