{"icao":"LPFR","metar":"LPFR 161000Z 30013KT 9999 -RA FEW012 11/08 Q1010","updated":"2025-12-16T10:23:48Z"}
