{"icao":"LPPD","metar":"LPPD 130430Z 02005KT 320V090 9999 FEW016 13/10 Q1026","updated":"2026-05-13T04:41:53Z"}
