{"icao":"LPMA","metar":"LPMA 170400Z 35009KT 310V010 9999 SCT015 18/13 Q1022","updated":"2025-11-17T04:25:40Z"}
