{"icao":"LPMA","metar":"LPMA 221000Z 02009KT 330V060 9999 SCT013 SCT030 23/21 Q1022","updated":"2025-10-22T10:20:21Z"}
