{"icao":"LPPT","metar":"LPPT 151230Z 30007KT 260V340 9999 FEW018 BKN033 14/09 Q1032","updated":"2026-02-15T12:48:13Z"}
