{"icao":"LPFL","metar":"LPFL 231800Z 19008KT 9999 FEW010 SCT015 19/15 Q1025","updated":"2025-11-23T18:25:00Z"}
