{"icao":"LPMT","metar":"LPMT 031000Z 03008KT CAVOK 17/11 Q1023","updated":"2026-04-03T10:41:44Z"}
