{"icao":"LPCS","metar":"LPCS 171700Z 23005KT 9999 FEW014 FEW025TCU 10/09 Q1010","updated":"2026-01-17T17:16:17Z"}
