{"icao":"LPMA","metar":"LPMA 102300Z 33014G26KT 280V010 9999 FEW014 16/10 Q1020","updated":"2026-04-10T23:33:41Z"}
