{"icao":"KJFK","metar":"KJFK 132151Z 20015KT 10SM SCT075 BKN250 26/16 A2987 RMK SLP113 T02610161 ","updated":"2026-06-13T22:02:55Z"}
