{"icao":"KJFK","metar":"KJFK 192151Z 31011KT 10SM CLR 28/12 A2997 RMK AO2 SLP147 T02830117 $","updated":"2025-09-19T22:16:01Z"}
