{"icao":"LPOV","metar":"LPOV 250900Z VRB02KT CAVOK 06/06 Q1023","updated":"2025-11-25T09:22:23Z"}
