{"icao":"LPPT","metar":"LPPT 212000Z 34008KT CAVOK 10/04 Q1028","updated":"2025-11-21T20:21:06Z"}
