{"icao":"LPCS","metar":"LPCS 141700Z 25004KT 220V280 CAVOK 27/10 Q1016","updated":"2025-10-14T17:15:17Z"}
