{"icao":"KJFK","metar":"KJFK 022151Z 18006KT 10SM FEW050 BKN250 16/07 A3046 RMK AO2 SLP314 T01610067","updated":"2025-10-02T22:16:12Z"}
