{"icao":"LPFL","metar":"LPFL 291830Z 28010G23KT 210V350 9999 FEW018 17/11 Q1010","updated":"2026-01-29T18:43:06Z"}
