{"icao":"KJFK","metar":"KJFK 260651Z 22012KT 10SM BKN015 OVC021 13/12 A2990 RMK AO2 SLP125 T01280122","updated":"2025-11-26T07:18:29Z"}
