{"icao":"LPPT","metar":"LPPT 042100Z 35011KT 310V010 9999 SCT012 19/17 Q1023","updated":"2025-10-04T21:13:41Z"}
