{"icao":"KORD","metar":"KORD 132151Z 23014G20KT 10SM FEW085 12/M03 A3004 RMK AO2 SLP178 T01221033","updated":"2026-02-13T22:31:51Z"}
