{"icao":"LPBJ","metar":"LPBJ 060800Z 21007KT CAVOK 11/10 Q1018","updated":"2025-11-06T08:25:34Z"}
