{"icao":"KJFK","metar":"KJFK 261551Z 33011KT 10SM BKN015 OVC023 M06/M09 A2982 RMK AO2 SLP096 T10611089 $","updated":"2026-01-26T16:33:20Z"}
