{"icao":"LPMA","metar":"LPMA 020230Z 01009KT 330V040 9999 BKN015 20/17 Q1021","updated":"2025-10-02T02:55:57Z"}
