{"icao":"LPFR","metar":"LPFR 150800Z 32007KT CAVOK 23/17 Q1019","updated":"2025-09-15T08:23:38Z"}
