{"icao":"KJFK","metar":"KJFK 240251Z 06009KT 7SM -RA BKN007 BKN026 OVC035 11/09 A3046 RMK AO2 SLP315 P0001 60012 T01060094 57003 $","updated":"2026-05-24T03:38:48Z"}
