{"icao":"LPPR","metar":"LPPR 042100Z 08005KT 070V140 9999 BKN047 10/05 Q1008","updated":"2026-01-04T21:17:40Z"}
