{"icao":"LPMR","metar":"LPMR 280700Z 00000KT 4000 BR BKN008 17/17 Q1020","updated":"2026-05-28T07:55:44Z"}
