{"icao":"LPMT","metar":"LPMT 291800Z 25005KT 220V280 9999 FEW016 SCT025 14/13 Q1012","updated":"2026-01-29T18:43:04Z"}
