{"icao":"LPHR","metar":"LPHR 261330Z 29031G47KT 9999 SCT012 SCT030 11/07 Q1005","updated":"2026-01-26T13:43:16Z"}
