{"icao":"LPPT","metar":"LPPT 120730Z 25010KT 8000 FEW012 13/12 Q1020","updated":"2026-02-12T07:50:48Z"}
