{"icao":"LPBJ","metar":"LPBJ 031200Z 11009KT 9999 -RA FEW008 SCT035 14/13 Q0999","updated":"2026-01-03T12:37:23Z"}
