{"icao":"LPMT","metar":"LPMT 171100Z 26003KT 220V320 9999 FEW018 BKN028 14/11 Q1028","updated":"2026-02-17T11:38:03Z"}
