{"icao":"LPPD","metar":"LPPD 020400Z 19005KT 9999 FEW001 BKN002 22/21 Q1021","updated":"2025-10-02T04:19:57Z"}
