{"icao":"KORD","metar":"KORD 080751Z 33009KT 10SM FEW085 12/06 A3025 RMK AO2 SLP242 T01220056 $","updated":"2025-10-08T08:24:21Z"}
