{"icao":"LPCR","metar":"LPCR 151600Z 24012KT 1600 -DZ BR SCT002 OVC004 20/19 Q1015","updated":"2026-06-16T03:58:07Z"}
