{"icao":"LPHR","metar":"LPHR 070800Z 30004KT 260V320 9999 FEW014 21/19 Q1021","updated":"2025-10-07T08:23:49Z"}
