{"icao":"LPLA","metar":"LPLA 191400Z 35026G36KT 9999 SCT014 BKN020 15/12 Q1006","updated":"2026-03-19T14:45:07Z"}
