{"icao":"LPMT","metar":"LPMT 011900Z 13014KT 9999 FEW010 SCT030 14/13 Q1007","updated":"2026-01-01T19:16:26Z"}
