{"icao":"LPPT","metar":"LPPT 141900Z 31005KT CAVOK 24/10 Q1016","updated":"2025-10-14T19:13:49Z"}
