{"icao":"KJFK","metar":"KJFK 261651Z 23009KT 3SM BR OVC008 14/13 A2978 RMK AO2 SFC VIS 6 SLP083 T01390128","updated":"2025-11-26T17:17:46Z"}
