{"icao":"LPGR","metar":"LPGR 291430Z 24010KT 200V270 9999 FEW020 22/16 Q1030","updated":"2026-06-29T14:46:55Z"}
