{"icao":"LPPT","metar":"LPPT 211000Z 23011KT 3000 -RADZ BR FEW000 BKN004 20/20 Q1015 RERA REDZ","updated":"2025-10-21T10:19:10Z"}
