{"icao":"LPMT","metar":"LPMT 291800Z 34008KT 9999 FEW040 23/15 Q1015","updated":"2025-09-29T18:26:19Z"}
