{"icao":"LPLA","metar":"LPLA 230100Z 30024KT 9999 FEW030 13/07 Q1019","updated":"2026-01-23T01:41:30Z"}
