{"icao":"LPCS","metar":"LPCS 201930Z 09007KT 060V120 9000 -RA FEW008 BKN020 14/13 Q1007","updated":"2026-03-20T19:35:54Z"}
