{"icao":"LPPT","metar":"LPPT 280100Z 36007KT CAVOK 11/08 Q1024","updated":"2025-11-28T01:22:14Z"}
