{"icao":"KORD","metar":"KORD 190551Z 21004KT 10SM BKN170 OVC250 08/M09 A2964 RMK AO2 SLP038 T00831094 10139 20083 401720083 50008 $","updated":"2026-02-19T05:57:52Z"}
