{"icao":"LPFR","metar":"LPFR 071400Z 36007KT 300V020 2500 -RADZ BR SCT003 BKN009 11/11 Q1026 RERA","updated":"2026-01-07T14:22:34Z"}
