{"icao":"LPLA","metar":"LPLA 270100Z 08008KT 020V130 9999 SCT035 19/10 Q1022","updated":"2025-10-27T01:28:13Z"}
