{"icao":"KJFK","metar":"KJFK 072151Z 33014G21KT 10SM SCT080 SCT110 SCT250 17/M02 A2976 RMK AO2 SLP076 T01671017","updated":"2026-05-07T21:56:33Z"}
