{"icao":"LPPD","metar":"LPPD 261600Z 02020G32KT 360V060 2000 SHRA SCT016 FEW020TCU BKN030 18/15 Q1019","updated":"2025-10-26T16:20:12Z"}
