{"icao":"LPBJ","metar":"LPBJ 120400Z 28005KT 9999 SCT008 SCT012 12/12 Q1020","updated":"2026-02-12T04:56:35Z"}
