{"icao":"LPCS","metar":"LPCS 200830Z 01006KT CAVOK 10/06 Q1030","updated":"2026-02-20T08:38:34Z"}
