{"icao":"LPBJ","metar":"LPBJ 131016Z 28015KT 9000 VCSH FEW020CB BKN026 12/09 Q1008 RETSRA","updated":"2026-02-13T10:38:16Z"}
