{"icao":"KJFK","metar":"KJFK 130651Z 03023G33KT 3SM -RA BR BKN014 OVC019 14/13 A2988 RMK AO2 PK WND 04033/0648 SLP118 P0008 T01390128","updated":"2025-10-13T07:18:37Z"}
