{"icao":"LPCS","metar":"LPCS 311600Z 24007KT 200V270 9999 FEW025 BKN035 14/11 Q1020","updated":"2026-01-31T16:26:29Z"}
