{"icao":"KORD","metar":"KORD 171051Z 16004KT 10SM BKN200 BKN250 19/17 A2989 RMK AO2 SLP116 T01890167","updated":"2026-05-17T11:04:32Z"}
