{"icao":"LPBJ","metar":"LPBJ 112200Z 27015KT 3000 -DZ BR OVC003 15/15 Q1019","updated":"2026-02-11T22:28:17Z"}
