{"icao":"LPLA","metar":"LPLA 011800Z 24008KT 210V280 9999 FEW023 BKN040 24/17 Q1020","updated":"2025-10-01T18:25:26Z"}
