{"icao":"LPPT","metar":"LPPT 140900Z 34013KT 310V010 9999 SCT024 16/11 Q1016","updated":"2026-05-14T09:33:03Z"}
