{"icao":"LPPD","metar":"LPPD 260900Z 04018G31KT 360V070 9999 FEW018 FEW020TCU 17/12 Q1020","updated":"2025-10-26T09:16:18Z"}
