{"icao":"LPFR","metar":"LPFR 271330Z 24010KT CAVOK 24/17 Q1019","updated":"2026-06-27T13:39:11Z"}
