{"icao":"LPOV","metar":"LPOV 172000Z 22006KT 190V250 9999 FEW006 SCT014 BKN038 13/11 Q1024","updated":"2026-02-17T20:35:53Z"}
