{"icao":"LPPR","metar":"LPPR 101100Z 12006KT 070V130 9999 FEW020 SCT036 10/08 Q1030","updated":"2026-01-10T11:15:53Z"}
