{"icao":"LPAR","metar":"LPAR 231400Z 20008KT 180V260 9999 SCT025 BKN040 25/19 Q1019","updated":"2025-10-23T14:18:43Z"}
