{"icao":"LPBJ","metar":"LPBJ 040500Z 27014KT 4000 -RADZ BKN006 OVC014 14/13 Q0998","updated":"2026-02-04T05:47:31Z"}
