{"icao":"LPMA","metar":"LPMA 262230Z 36004KT CAVOK 21/17 Q1022","updated":"2025-09-26T23:15:46Z"}
