{"icao":"LPPS","metar":"LPPS 051800Z 02003KT 340V070 9999 FEW015 BKN030 18/10 Q1025","updated":"2025-12-05T18:26:28Z"}
