{"icao":"LPMT","metar":"LPMT 261200Z VRB02KT 9999 FEW020 11/07 Q1014","updated":"2025-12-26T12:39:24Z"}
