{"icao":"KLAX","metar":"KLAX 120853Z 35003KT 10SM FEW250 14/M01 A3021 RMK AO2 SLP227 T01391006 50004 $","updated":"2026-01-12T09:31:55Z"}
