{"icao":"LPST","metar":"LPST 300900Z 33008KT 5000 BR BKN006 19/18 Q1022","updated":"2026-06-30T09:31:52Z"}
