{"icao":"LPFR","metar":"LPFR 070600Z 03006KT CAVOK 20/15 Q1020","updated":"2025-10-07T06:26:42Z"}
