{"icao":"LPPD","metar":"LPPD 112330Z 02006KT 340V060 9999 FEW020 SCT030 14/10 Q1023","updated":"2026-05-11T23:56:40Z"}
