{"icao":"LPLA","metar":"LPLA 091300Z 18017KT 150V210 9999 FEW014 SCT018 22/19 Q1020","updated":"2025-10-09T13:28:55Z"}
