{"icao":"KJFK","metar":"KJFK 070951Z 22003KT 10SM SCT250 03/M02 A3014 RMK AO2 SLP205 T00331017 $","updated":"2025-11-07T10:20:33Z"}
