{"icao":"LPPR","metar":"LPPR 150430Z 36003KT CAVOK 08/06 Q1018","updated":"2026-03-15T05:04:20Z"}
