{"icao":"KJFK","metar":"KJFK 220551Z 27009KT 9SM -RA SCT060 BKN075 OVC090 15/13 A2978 RMK AO2 WSHFT 0457 CIG 060 W SLP085 P0006 60009 T01500133 10178 20150 58005","updated":"2025-10-22T06:28:06Z"}
