{"icao":"LPCS","metar":"LPCS 171430Z 23005KT 190V280 9999 FEW018 BKN024 14/09 Q1026","updated":"2026-02-17T14:42:41Z"}
