{"icao":"KORD","metar":"KORD 020451Z 02005KT 10SM FEW250 14/03 A3018 RMK AO2 SLP219 T01390028 $","updated":"2026-06-02T05:47:22Z"}
