{"icao":"LPPD","metar":"LPPD 121000Z 27005KT 230V290 9999 FEW025 21/16 Q1019","updated":"2025-10-12T10:16:36Z"}
