{"icao":"LPCS","metar":"LPCS 120930Z 26006KT 220V300 8000 3000NW VCFG SCT006 SCT016 15/13 Q1021","updated":"2026-02-12T09:48:40Z"}
