{"icao":"LPMR","metar":"LPMR 091200Z 14014KT 7000 -RA SCT007 BKN032 14/13 Q1014 RERA","updated":"2025-12-09T12:41:17Z"}
