{"icao":"LPFR","metar":"LPFR 271600Z 25007KT CAVOK 17/07 Q1021","updated":"2025-11-27T16:23:19Z"}
