{"icao":"KORD","metar":"KORD 031351Z 25006KT 10SM OVC013 08/05 A3004 RMK AO2 SLP172 T00780050","updated":"2026-04-03T14:40:42Z"}
