{"icao":"KORD","metar":"KORD 220251Z 03011KT 10SM BKN085 OVC250 11/04 A3021 RMK AO2 SLP232 T01060039 55002 $","updated":"2026-05-22T03:32:48Z"}
