{"icao":"LPMR","metar":"LPMR 311800Z 32009KT CAVOK 20/10 Q1023","updated":"2026-03-31T19:01:32Z"}
