{"icao":"LPHR","metar":"LPHR 192100Z 27012KT 6000 FEW003 BKN005 23/22 Q1016","updated":"2025-10-19T21:14:38Z"}
