{"icao":"LPFL","metar":"LPFL 081400Z VRB05KT 9999 FEW025 20/12 Q1019","updated":"2025-11-08T14:15:18Z"}
