{"icao":"LPPD","metar":"LPPD 061600Z 09006KT 050V130 9999 FEW025 BKN045 16/06 Q1033","updated":"2026-01-06T16:27:36Z"}
