{"icao":"LPCS","metar":"LPCS 290700Z 00000KT 9999 FEW014 SCT030 12/11 Q1020","updated":"2025-11-29T07:16:52Z"}
