{"icao":"LPLA","metar":"LPLA 100200Z 29002KT 9999 FEW015 SCT022 14/12 Q1032","updated":"2026-04-10T02:27:43Z"}
