{"icao":"KORD","metar":"KORD 131351Z 16006KT 10SM BKN120 BKN150 OVC250 15/09 A3006 RMK AO2 SLP178 T01500089 $","updated":"2025-10-13T14:19:08Z"}
