{"icao":"KLAX","metar":"KLAX 050353Z 26005KT 10SM OVC011 14/12 A2994 RMK AO2 SLP138 T01390122","updated":"2026-03-05T04:19:15Z"}
