{"icao":"KORD","metar":"KORD 030751Z 22008KT 10SM SCT120 BKN160 BKN200 07/01 A3007 RMK AO2 SLP186 T00670006 $","updated":"2025-11-03T08:26:21Z"}
