{"icao":"KLAX","metar":"KLAX 080453Z 34008G17KT 10SM CLR 16/04 A2996 RMK AO2 SLP145 T01560039 $","updated":"2026-01-08T05:24:07Z"}
