{"icao":"KLAX","metar":"KLAX 010853Z 00000KT 5SM BR BKN007 17/16 A3002 RMK AO2 SLP162 T01670156 53002 $","updated":"2025-11-01T09:16:53Z"}
