{"icao":"LPAZ","metar":"LPAZ 012130Z 05010KT 9999 FEW005 SCT010 BKN020 14/11 Q1030","updated":"2026-04-01T21:42:44Z"}
