{"icao":"LPMT","metar":"LPMT 212300Z VRB02KT 9999 FEW022 12/09 Q1008","updated":"2026-01-21T23:23:58Z"}
