{"icao":"LPPS","metar":"LPPS 200430Z 35008KT 9999 SCT014 14/09 Q1026","updated":"2026-01-20T04:43:09Z"}
