{"icao":"LPAR","metar":"LPAR 241100Z 16010KT 7000 BKN020 14/11 Q1018","updated":"2026-02-24T11:39:20Z"}
