{"icao":"LPMT","metar":"LPMT 201100Z VRB02KT 9999 FEW030 12/09 Q1020","updated":"2026-01-20T11:22:24Z"}
