{"icao":"KORD","metar":"KORD 312151Z 26007KT 10SM FEW065 BKN080 BKN250 11/02 A2988 RMK AO2 SLP119 T01110017 $","updated":"2025-10-31T22:17:11Z"}
