{"icao":"LPMA","metar":"LPMA 122100Z 02010KT 340V040 9999 SCT015 SCT030 15/08 Q1028","updated":"2026-04-12T21:33:26Z"}
