{"icao":"LPPD","metar":"LPPD 021700Z 32015G28KT 250V020 9999 -SHRA FEW014 FEW020TCU BKN030 14/10 Q1003","updated":"2026-01-02T17:16:46Z"}
