{"icao":"LPMA","metar":"LPMA 101900Z 01007KT 330V060 9999 SCT015 21/15 Q1021","updated":"2025-10-10T19:13:59Z"}
