{"icao":"LPHR","metar":"LPHR 201300Z 26012KT 6000 FEW004 BKN006 23/22 Q1014","updated":"2025-10-20T13:28:13Z"}
