{"icao":"LPPS","metar":"LPPS 061100Z 02010KT 340V040 9999 FEW015 SCT040 18/11 Q1019","updated":"2026-05-06T11:05:14Z"}
