{"icao":"LPCS","metar":"LPCS 100800Z 05010KT CAVOK 21/10 Q1020","updated":"2025-10-10T08:23:01Z"}
