{"icao":"KJFK","metar":"KJFK 110551Z 34009KT 1/2SM R04R/P6000FT BR BKN004 OVC007 05/04 A2974 RMK AO2 SFC VIS 1 1/2 RAE06B42E51 SLP070 P0000 60033 T00500044 10078 20050 55020","updated":"2026-01-11T06:30:29Z"}
