{"icao":"KORD","metar":"KORD 140451Z 30010KT 10SM CLR M16/M23 A3034 RMK AO2 SLP291 T11611228","updated":"2025-12-14T05:18:46Z"}
