{"icao":"LPMA","metar":"LPMA 061100Z 03012KT 9999 VCSH SCT014 SCT030 23/19 Q1023","updated":"2025-10-06T11:14:48Z"}
