{"icao":"LPFR","metar":"LPFR 160400Z 32004KT 9999 FEW022 FEW024CB 14/13 Q1012 RESHRA","updated":"2025-11-16T04:24:22Z"}
