{"icao":"LPPS","metar":"LPPS 211100Z 05017KT 020V080 9999 SCT014 SCT030 19/11 Q1026","updated":"2025-11-21T11:16:02Z"}
