{"icao":"LPLA","metar":"LPLA 241300Z 14011KT 9999 FEW008 SCT013 BKN017 15/13 Q1023","updated":"2025-12-24T13:31:01Z"}
