{"icao":"LPBJ","metar":"LPBJ 121100Z 26007KT 9999 BKN018 14/11 Q1022","updated":"2026-02-12T11:38:18Z"}
