{"icao":"LPST","metar":"LPST 221300Z 22011KT 5000 -RA BR SCT008 BKN022 BKN040 12/10 Q1008","updated":"2026-01-22T13:45:19Z"}
