{"icao":"LPMA","metar":"LPMA 140630Z 28005KT 240V330 9999 FEW015 15/09 Q1020","updated":"2026-05-14T06:45:02Z"}
