{"icao":"LPOV","metar":"LPOV 211100Z 21008KT 170V250 9999 FEW008 BKN030 20/19 Q1013","updated":"2025-10-21T11:14:58Z"}
