{"icao":"LPMT","metar":"LPMT 162000Z 13003KT CAVOK 20/14 Q1014","updated":"2025-10-16T20:19:25Z"}
