{"icao":"LPFR","metar":"LPFR 230930Z 09014G25KT CAVOK 26/08 Q1020","updated":"2026-05-23T09:50:39Z"}
