{"icao":"LPOV","metar":"LPOV 162200Z 25002KT 210V270 3000 -DZ OVC007 14/14 Q1029","updated":"2026-02-16T22:27:01Z"}
