{"icao":"LPPD","metar":"LPPD 281300Z 02015KT 340V050 9999 FEW007 16/13 Q1026","updated":"2025-11-28T13:29:20Z"}
