{"icao":"LPBJ","metar":"LPBJ 090700Z 16010KT 7000 VCFG FEW004 10/10 Q1019","updated":"2025-12-09T07:20:46Z"}
