{"icao":"LPHR","metar":"LPHR 142000Z 22006KT 180V260 9999 FEW016 BKN030 16/11 Q1031","updated":"2026-05-15T03:46:51Z"}
