{"icao":"KJFK","metar":"KJFK 152151Z 17010KT 10SM BKN039 BKN047 OVC110 08/01 A2963 RMK AO2 RAB35E45 SLP032 P0000 T00830011","updated":"2025-11-15T22:14:22Z"}
