{"icao":"LPPT","metar":"LPPT 312030Z 35006KT 270V070 CAVOK 19/12 Q1019 WS R02","updated":"2026-05-31T20:58:13Z"}
