{"icao":"KORD","metar":"KORD 081651Z 18011G25KT 10SM SCT140 SCT200 OVC250 11/07 A2978 RMK AO2 SLP086 T01110067","updated":"2026-01-08T17:25:29Z"}
