{"icao":"LPFR","metar":"LPFR 120230Z 03005KT CAVOK 20/15 Q1016","updated":"2025-10-12T03:00:54Z"}
