{"icao":"LPMR","metar":"LPMR 241600Z 28009KT 240V310 9999 TS FEW032 FEW035CB 22/17 Q1014","updated":"2026-06-24T16:20:04Z"}
