{"icao":"LPFL","metar":"LPFL 161900Z 18016KT 140V210 9000 -RA FEW006 SCT012 FEW013CB 19/18 Q1018","updated":"2025-11-16T19:13:57Z"}
