{"icao":"LPLA","metar":"LPLA 102300Z 22024KT 9999 FEW006 BKN014 19/17 Q1007","updated":"2026-02-10T23:36:40Z"}
