{"icao":"LPMT","metar":"LPMT 061100Z 25012KT 9999 4000S -SHRA SCT020 FEW025CB BKN030 14/10 Q1005","updated":"2026-02-06T11:32:13Z"}
