{"icao":"LPPD","metar":"LPPD 271800Z 08006KT 010V120 6000 RA SCT004 SCT010 16/15 Q1022","updated":"2025-11-27T18:26:33Z"}
