{"icao":"LPLA","metar":"LPLA 080100Z 21011G21KT 170V260 9000 -SHRA FEW020 BKN025 20/15 Q1018","updated":"2025-11-08T01:19:44Z"}
