{"icao":"LPAZ","metar":"LPAZ 180730Z 24010KT 9999 FEW004 BKN022 16/15 Q1024","updated":"2026-05-18T08:01:36Z"}
