{"icao":"LPLA","metar":"LPLA 022200Z 33020KT 9999 FEW013 BKN020 14/12 Q1008","updated":"2026-01-02T22:18:58Z"}
