{"icao":"LPMA","metar":"LPMA 240800Z 36007KT 9999 FEW016 18/13 Q1025","updated":"2025-11-24T08:27:49Z"}
