{"icao":"LPBJ","metar":"LPBJ 202300Z 32005KT CAVOK 07/05 Q1023","updated":"2025-11-20T23:17:14Z"}
