{"icao":"KLAX","metar":"KLAX 120053Z 26009KT 10SM FEW005 SCT200 BKN250 17/15 A3002 RMK AO2 SLP166 T01720150 $","updated":"2025-11-12T01:24:30Z"}
