{"icao":"LPAR","metar":"LPAR 192000Z 01007KT 300V080 CAVOK 23/12 Q1014","updated":"2026-06-20T15:49:10Z"}
