{"icao":"LPHR","metar":"LPHR 230930Z 33004KT 9999 FEW014 BKN030 14/09 Q1024","updated":"2026-03-23T10:01:36Z"}
