{"icao":"KORD","metar":"KORD 231151Z 22007KT 10SM SCT250 03/M01 A2998 RMK AO2 SLP155 T00281006 10061 20028 53001 $","updated":"2025-12-23T12:41:14Z"}
