{"icao":"LPPS","metar":"LPPS 191900Z 06003KT 030V100 9999 FEW015 19/12 Q1018","updated":"2025-11-19T19:15:29Z"}
