{"icao":"LPBJ","metar":"LPBJ 111900Z 13007KT CAVOK 16/06 Q1011","updated":"2025-11-11T19:14:56Z"}
