{"icao":"LPBJ","metar":"LPBJ 251300Z 35014KT CAVOK 15/02 Q1021","updated":"2025-11-25T13:33:04Z"}
