{"icao":"LPHR","metar":"LPHR 300800Z 32004KT 290V360 9999 FEW018 12/09 Q1006","updated":"2026-04-30T08:27:59Z"}
