{"icao":"KLAX","metar":"KLAX 190653Z 27012KT 10SM FEW015 FEW040 SCT070 BKN200 12/04 A3002 RMK AO2 SLP162 T01170044","updated":"2026-02-19T07:07:37Z"}
