{"icao":"LPMR","metar":"LPMR 252300Z VRB01KT 7000 NSC 11/11 Q1017","updated":"2026-03-25T23:33:40Z"}
