{"icao":"KLAX","metar":"KLAX 151453Z 12006KT 6SM BR BKN011 BKN300 15/12 A2999 RMK AO2 SLP154 T01500122 53013 $","updated":"2026-03-15T15:28:18Z"}
