{"icao":"LPCS","metar":"LPCS 070900Z 27003KT 220V330 9999 FEW014 SCT023 20/16 Q1023","updated":"2025-10-07T09:18:58Z"}
