{"icao":"LPPT","metar":"LPPT 290400Z 06003KT 8000 -SHRA SCT004 BKN012 FEW022TCU 16/16 Q1006 RESHRA","updated":"2025-10-29T04:25:03Z"}
