{"icao":"LPPR","metar":"LPPR 082030Z 07005KT 040V100 CAVOK 17/09 Q1006","updated":"2026-05-08T20:58:11Z"}
