{"icao":"LPFL","metar":"LPFL 181130Z 16010KT 9999 FEW027 15/09 Q1025","updated":"2026-02-18T11:37:33Z"}
