{"icao":"KJFK","metar":"KJFK 041951Z 19014KT 10SM BKN250 23/12 A3008 RMK AO2 SLP187 T02280122 $","updated":"2026-06-04T20:03:32Z"}
