{"icao":"LPCS","metar":"LPCS 060930Z 28012KT 230V310 9999 VCSH FEW016 FEW022TCU SCT030 13/10 Q1004","updated":"2026-02-06T09:41:09Z"}
