{"icao":"LPMT","metar":"LPMT 292300Z 33004KT 9999 FEW015 17/15 Q1013","updated":"2025-10-29T23:16:50Z"}
