{"icao":"LPLA","metar":"LPLA 101700Z 21021G35KT 180V250 4000 -DZ BR SCT008 BKN013 BKN020 19/17 Q1006","updated":"2026-02-10T18:00:20Z"}
