{"icao":"LPPS","metar":"LPPS 082000Z 05008KT 020V080 9999 FEW015 SCT030 22/16 Q1026","updated":"2025-10-08T20:19:42Z"}
