{"icao":"LPLA","metar":"LPLA 192200Z VRB02KT 9999 FEW023 20/15 Q1010","updated":"2026-06-19T23:02:43Z"}
