{"icao":"LPMA","metar":"LPMA 171630Z 09004KT 010V130 9999 SCT014 18/12 Q1025","updated":"2026-02-17T16:56:03Z"}
