{"icao":"LPMR","metar":"LPMR 110400Z 35007KT 7000 SCT008 BKN020 13/12 Q1014","updated":"2026-04-11T04:53:23Z"}
