{"icao":"LPAR","metar":"LPAR 080900Z 00000KT 9999 BKN030 08/07 Q1033","updated":"2026-01-08T09:27:20Z"}
