{"icao":"LPMA","metar":"LPMA 070630Z 01010KT 340V040 9999 BKN016 13/06 Q1024","updated":"2026-03-07T06:39:06Z"}
