{"icao":"LPPR","metar":"LPPR 010400Z 07003KT CAVOK 15/13 Q1020","updated":"2025-10-01T04:20:35Z"}
