{"icao":"LPPS","metar":"LPPS 190330Z 14003KT 090V180 9999 FEW013 21/20 Q1018","updated":"2025-09-19T03:35:49Z"}
