{"icao":"LPMA","metar":"LPMA 202300Z 28006KT 250V340 9999 -DZ BKN015 15/12 Q1023","updated":"2025-12-20T23:17:05Z"}
