{"icao":"LPPR","metar":"LPPR 251100Z 28006KT 240V310 8000 FEW016 BKN028 BKN042 13/10 Q1012","updated":"2026-01-25T11:16:53Z"}
