{"icao":"KLAX","metar":"KLAX 031859Z 00000KT 4SM HZ FEW009 SCT017 BKN180 18/13 A3008 RMK AO2 SCT V BKN T01830133 $","updated":"2025-11-03T19:15:13Z"}
