{"icao":"LPAZ","metar":"LPAZ 221400Z 32023KT 9000 FEW012 BKN030 16/13 Q1018","updated":"2026-01-22T14:29:12Z"}
