{"icao":"LPMR","metar":"LPMR 202100Z 21007KT 6000 BKN008 BKN025 19/18 Q1014","updated":"2025-10-20T21:16:23Z"}
