{"icao":"LPCS","metar":"LPCS 061400Z 19010KT 160V220 CAVOK 24/16 Q1020","updated":"2025-10-06T14:17:28Z"}
