{"icao":"LPLA","metar":"LPLA 091500Z 31020KT 9999 SCT025 BKN035 19/13 Q1023","updated":"2025-11-09T15:15:33Z"}
