{"icao":"KORD","metar":"KORD 270751Z 29012G22KT 10SM OVC035 M01/M08 A3012 RMK AO2 SLP206 T10111083","updated":"2025-11-27T08:27:31Z"}
