{"icao":"KLAX","metar":"KLAX 301453Z 11005KT 2 1/2SM BCFG BR OVC007 14/13 A2998 RMK AO2 SLP150 VIS 1 3/4V3 VIS SW-N 1 1/2 T01440133 53017 $","updated":"2026-03-30T15:02:30Z"}
