{"icao":"LPOV","metar":"LPOV 221400Z 19004KT 130V240 9999 FEW020 12/07 Q1012","updated":"2025-12-22T14:19:51Z"}
