{"icao":"KORD","metar":"KORD 011351Z 23005KT 10SM BKN070 06/02 A3002 RMK AO2 SLP169 T00560022 $","updated":"2025-11-01T14:14:33Z"}
