{"icao":"LPHR","metar":"LPHR 152300Z 35005KT 300V020 9999 FEW016 SCT035 14/07 Q1032","updated":"2026-01-15T23:19:34Z"}
