{"icao":"LPAZ","metar":"LPAZ 132300Z 35003KT 310V020 9999 FEW017 11/10 Q1033","updated":"2026-02-13T23:29:34Z"}
