{"icao":"LPFR","metar":"LPFR 211700Z 09009KT 050V110 9999 FEW010 17/14 Q1008","updated":"2026-03-21T17:23:58Z"}
