{"icao":"LPFL","metar":"LPFL 191930Z 19009KT 150V260 9999 FEW005 BKN010 24/21 Q1013 WS R18","updated":"2025-10-19T22:16:02Z"}
