{"icao":"LPMT","metar":"LPMT 220500Z 03007KT CAVOK 08/05 Q1030","updated":"2025-11-22T06:25:26Z"}
