{"icao":"LPBJ","metar":"LPBJ 012300Z 24004KT CAVOK 14/10 Q1019","updated":"2026-05-01T23:50:55Z"}
