{"icao":"LPMT","metar":"LPMT 231000Z VRB01KT CAVOK 13/09 Q1028","updated":"2025-11-23T10:17:40Z"}
