{"icao":"KJFK","metar":"KJFK 180751Z 30011KT 10SM FEW060 04/M06 A3005 RMK AO2 SLP175 T00441061 $","updated":"2025-11-18T08:25:38Z"}
