{"icao":"KORD","metar":"KORD 012051Z 06011KT 10SM BKN300 23/14 A3018 RMK AO2 SLP215 T02330139 56008","updated":"2025-10-01T21:15:28Z"}
