{"icao":"KORD","metar":"KORD 252151Z 24005KT 10SM BKN013 OVC021 11/08 A2974 RMK AO2 SLP074 T01060078","updated":"2025-11-25T22:18:27Z"}
