{"icao":"LPMT","metar":"LPMT 141100Z 32004KT 270V360 9999 FEW025 14/11 Q1020","updated":"2026-01-14T11:20:14Z"}
