{"icao":"KJFK","metar":"KJFK 282151Z 15006KT 10SM FEW090 FEW250 07/03 A3004 RMK AO2 SLP170 T00720028 $","updated":"2026-02-28T22:20:54Z"}
