{"icao":"KJFK","metar":"KJFK 261351Z 31013G20KT 10SM FEW100 FEW160 BKN250 04/M03 A2990 RMK AO2 SLP126 T00441033 $","updated":"2026-02-26T14:44:52Z"}
