{"icao":"LPOV","metar":"LPOV 081100Z 02004KT 320V080 9999 FEW018 17/11 Q1023","updated":"2025-11-08T11:13:17Z"}
