{"icao":"LPBJ","metar":"LPBJ 092000Z 30005KT CAVOK 12/07 Q1020","updated":"2025-11-09T20:17:51Z"}
