{"icao":"LPPT","metar":"LPPT 011230Z 08007KT 020V100 9999 BKN006 10/09 Q1011","updated":"2026-01-01T12:40:16Z"}
