{"icao":"LPOV","metar":"LPOV 301600Z 15008KT 120V180 9999 SCT015 18/14 Q1011","updated":"2025-10-30T16:23:12Z"}
