{"icao":"LPPR","metar":"LPPR 200830Z 10005KT 040V130 9999 FEW025 BKN035 08/06 Q1032","updated":"2026-02-20T08:38:34Z"}
