{"icao":"KORD","metar":"KORD 120251Z 23007KT 10SM FEW043 03/M03 A2974 RMK AO2 SLP076 T00331033 53007","updated":"2025-11-12T03:10:54Z"}
