{"icao":"KLAX","metar":"KLAX 241853Z VRB04KT 8SM FEW011 SCT230 BKN270 17/13 A3016 RMK AO2 SLP212 T01720128","updated":"2025-11-24T19:13:38Z"}
