{"icao":"LPOV","metar":"LPOV 061800Z 35005KT CAVOK 27/08 Q1019","updated":"2025-10-06T19:13:40Z"}
