{"icao":"LPGR","metar":"LPGR 181200Z 29007KT 9999 FEW012 20/17 Q1014","updated":"2026-06-18T12:24:19Z"}
