{"icao":"LPMT","metar":"LPMT 051100Z 25013KT 6000 -SHRA SCT015 FEW020TCU SCT025 20/17 Q1008","updated":"2025-11-05T11:16:16Z"}
