{"icao":"KORD","metar":"KORD 020951Z 23006KT 6SM -FZDZ BR OVC008 M06/M08 A3005 RMK AO2 SLP186 P0000 I1000 T10561078","updated":"2026-02-02T10:43:03Z"}
