{"icao":"LPMT","metar":"LPMT 091000Z 33005KT 290V360 9999 BKN016 19/15 Q1021","updated":"2025-10-09T10:19:04Z"}
