{"icao":"LPMR","metar":"LPMR 062200Z 32004KT CAVOK 16/13 Q1021","updated":"2026-06-06T23:03:12Z"}
