{"icao":"LPMR","metar":"LPMR 210100Z 18010KT 7000 -RA FEW018 BKN030 12/11 Q1012","updated":"2026-01-21T01:44:25Z"}
