{"icao":"LPLA","metar":"LPLA 150000Z 16003KT 100V220 9999 FEW015 19/15 Q1022","updated":"2026-06-15T00:08:24Z"}
