{"icao":"LPPR","metar":"LPPR 292330Z 20006KT 170V230 9999 -SHRA FEW009 SCT011 BKN040 16/14 Q1012","updated":"2026-04-29T23:53:49Z"}
