{"icao":"KORD","metar":"KORD 210951Z 31004KT 7SM FEW024 OVC300 07/06 A3002 RMK AO2 SLP170 T00720056","updated":"2025-11-21T10:20:13Z"}
