{"icao":"LPMR","metar":"LPMR 272200Z 34004KT CAVOK 20/17 Q1019","updated":"2026-05-27T23:15:39Z"}
