{"icao":"LPPT","metar":"LPPT 151330Z 35019KT 9999 SCT034 19/10 Q1015","updated":"2026-05-15T14:03:55Z"}
