{"icao":"LPMR","metar":"LPMR 272300Z 14005KT CAVOK 18/11 Q1018","updated":"2025-10-27T23:15:58Z"}
