{"icao":"LPOV","metar":"LPOV 032300Z 34010KT 9999 OVC008 17/16 Q1024","updated":"2025-10-03T23:15:05Z"}
