{"icao":"LPOV","metar":"LPOV 021400Z 29005KT 250V310 9999 FEW024 BKN045 17/13 Q1026","updated":"2025-11-02T14:14:40Z"}
