{"icao":"LPPS","metar":"LPPS 071900Z 31011KT 9000 -DZ SCT006 BKN012 21/19 Q1020","updated":"2025-11-07T19:15:42Z"}
