{"icao":"LPLA","metar":"LPLA 101000Z 21020G37KT 170V250 8000 -RADZ SCT007 BKN012 18/16 Q1021","updated":"2026-01-10T10:19:53Z"}
