{"icao":"LPLA","metar":"LPLA 040200Z 00000KT 9999 FEW035 21/19 Q1026","updated":"2025-10-04T02:50:00Z"}
