{"icao":"LPPR","metar":"LPPR 061530Z 20014KT 9999 -RA FEW037 24/09 Q1013","updated":"2026-04-06T15:44:10Z"}
