{"icao":"LPHR","metar":"LPHR 261700Z 06015KT 9999 FEW015 FEW020TCU BKN035 19/12 Q1022","updated":"2025-10-26T17:14:05Z"}
