{"icao":"LPFR","metar":"LPFR 051930Z 30014KT 9999 FEW012 14/10 Q1016","updated":"2026-03-05T19:50:38Z"}
