{"icao":"LPPT","metar":"LPPT 151200Z 23007KT 190V250 9999 FEW002 SCT008 15/15 Q1006","updated":"2025-11-15T12:33:55Z"}
