{"icao":"LPPR","metar":"LPPR 202200Z 20015KT 5000 -RA BR BKN002 18/17 Q1011 RERA","updated":"2025-10-20T22:16:02Z"}
