{"icao":"LPLA","metar":"LPLA 082300Z 24021G41KT 8000 -RADZ SCT007 BKN014 19/17 Q1010 RM K WIND RWY15 24028KT PK 24041/53 RH86 GRN","updated":"2026-02-08T23:29:35Z"}
