{"icao":"LPAZ","metar":"LPAZ 230130Z 28010KT 9999 FEW024 BKN032 16/12 Q1024","updated":"2025-12-23T01:38:31Z"}
