{"icao":"LPBJ","metar":"LPBJ 072300Z 26012KT 9999 SCT040 10/07 Q1011","updated":"2026-02-07T23:28:15Z"}
