{"icao":"LPMA","metar":"LPMA 111000Z 01019KT CAVOK 23/14 Q1020","updated":"2026-06-11T10:20:39Z"}
