{"icao":"LPLA","metar":"LPLA 052000Z 28018KT 9999 3500SW -SHRA FEW020 SCT022CB 09/07 Q1008","updated":"2026-02-05T20:32:22Z"}
