{"icao":"KORD","metar":"KORD 180851Z 20009G18KT 10SM SCT120 BKN250 19/14 A2967 RMK AO2 SLP043 T01890139 58017","updated":"2025-10-18T09:16:55Z"}
