{"icao":"KORD","metar":"KORD 181151Z 25011G21KT 10SM FEW018 OVC100 M13/M19 A3004 RMK AO2 SLP186 60000 T11331189 11100 21133 56001 $","updated":"2026-01-18T12:37:48Z"}
