{"icao":"LPPS","metar":"LPPS 101400Z 13006KT 090V170 9999 FEW015 18/11 Q1030","updated":"2026-01-10T14:17:59Z"}
