{"icao":"LPPT","metar":"LPPT 181630Z 30011KT 260V320 9999 SCT018 14/12 Q1019","updated":"2026-02-18T17:01:45Z"}
