{"icao":"LPST","metar":"LPST 191400Z 33010KT 9999 SCT018 13/08 Q1021","updated":"2026-01-19T14:26:16Z"}
