{"icao":"LPPD","metar":"LPPD 241400Z 02010KT 350V060 9999 FEW025 21/13 Q1021","updated":"2025-09-24T14:16:05Z"}
