{"icao":"KLAX","metar":"KLAX 141415Z 15013G21KT 2 1/2SM -RA BR FEW010 OVC024 16/14 A2979 RMK AO2 VIS 2V4 P0005 T01560144 $","updated":"2025-10-14T14:18:32Z"}
