{"icao":"KORD","metar":"KORD 071651Z 36015KT 10SM FEW010 FEW024 SCT031 M03/M07 A3014 RMK AO2 SLP214 T10331067","updated":"2025-12-07T17:14:54Z"}
