{"icao":"KORD","metar":"KORD 101551Z 33011KT 10SM BKN250 06/M02 A2984 RMK AO2 SLP108 T00611022","updated":"2026-02-10T16:09:18Z"}
