{"icao":"LPMT","metar":"LPMT 272000Z 32009KT CAVOK 22/16 Q1020","updated":"2026-06-27T21:01:27Z"}
