{"icao":"KLAX","metar":"KLAX 050853Z 07004KT 10SM FEW015 FEW028 BKN032 13/13 A3001 RMK AO2 SLP162 T01330128 58003","updated":"2026-01-05T09:30:51Z"}
