{"icao":"LPCS","metar":"LPCS 131500Z 34018KT CAVOK 24/14 Q1021","updated":"2025-09-13T15:13:55Z"}
