{"icao":"LPPS","metar":"LPPS 270630Z 02010G20KT 350V070 9999 BKN013 15/12 Q1026","updated":"2026-02-27T06:52:36Z"}
