{"icao":"LPMA","metar":"LPMA 051100Z 02019G29KT 330V040 2000 RADZ BR BKN014 16/14 Q1025","updated":"2026-03-05T11:32:32Z"}
