{"icao":"LPPS","metar":"LPPS 191200Z 32010KT 4000 -RADZ BR SCT008 BKN030 23/21 Q1019","updated":"2025-10-19T12:33:18Z"}
