{"icao":"LPPR","metar":"LPPR 280800Z 08003KT 020V180 8000 FEW035 05/05 Q1024","updated":"2025-11-28T08:25:57Z"}
