{"icao":"LPAR","metar":"LPAR 031700Z 24004KT 200V270 CAVOK 20/11 Q1020","updated":"2025-11-03T21:16:39Z"}
