{"icao":"LPMR","metar":"LPMR 231600Z 29017G27KT 250V310 4000 -SHRA BR SCT025 BKN035 08/04 Q0998","updated":"2026-01-23T16:28:40Z"}
