{"icao":"KJFK","metar":"KJFK 011251Z 35022G31KT 9SM -SN BKN027 M12/M17 A2985 RMK AO2 PK WND 36032/1217 SNB30 SLP108 P0001 T11171172 $","updated":"2026-02-01T13:42:16Z"}
