{"icao":"LPSJ","metar":"LPSJ 231530Z 25009KT 200V300 9999 FEW014 23/15 Q1023","updated":"2026-06-23T17:52:07Z"}
