{"icao":"LPFL","metar":"LPFL 061000Z 18013G23KT 160V220 9999 FEW020 SCT038 16/11 Q1030","updated":"2026-01-06T10:22:21Z"}
