{"icao":"LPPS","metar":"LPPS 141400Z 26018KT 9999 SCT015 FEW018CB 22/14 Q1012","updated":"2025-11-14T14:18:10Z"}
