{"icao":"LPLA","metar":"LPLA 200300Z 01003KT 9999 FEW040 19/08 Q1028","updated":"2025-09-20T03:25:57Z"}
