{"icao":"LPPT","metar":"LPPT 290630Z 04007KT 350V080 CAVOK 11/05 Q1028","updated":"2026-03-29T07:01:45Z"}
