{"icao":"LPHR","metar":"LPHR 160900Z 31007KT 280V340 9999 SCT018 20/17 Q1005","updated":"2025-10-16T09:19:48Z"}
