{"icao":"LPPD","metar":"LPPD 150630Z 02009KT 350V050 9999 FEW018 BKN035 15/12 Q1029","updated":"2026-03-15T06:55:20Z"}
