{"icao":"LPPT","metar":"LPPT 311600Z 25008KT 220V280 9999 SCT025 BKN032 14/09 Q1020","updated":"2026-01-31T16:26:28Z"}
