{"icao":"LPPS","metar":"LPPS 181830Z 07012KT 030V120 9999 FEW013 17/13 Q1014","updated":"2026-04-18T18:50:09Z"}
