{"icao":"LPHR","metar":"LPHR 250000Z 03004KT 360V090 9999 FEW016 BKN028 14/09 Q1031","updated":"2026-03-25T02:05:54Z"}
