{"icao":"LPPD","metar":"LPPD 240900Z 26008KT 3000 -DZ BR SCT003 BKN006 16/15 Q1027","updated":"2025-11-24T09:23:03Z"}
