{"icao":"LPMA","metar":"LPMA 301100Z 01007KT 320V050 9999 BKN015 19/14 Q1023","updated":"2025-11-30T11:14:29Z"}
