{"icao":"LPAZ","metar":"LPAZ 241600Z 05012KT 020V080 9999 FEW022 BKN028 16/10 Q1026","updated":"2026-03-24T16:08:18Z"}
