{"icao":"LPFL","metar":"LPFL 121530Z 32010G21KT 250V020 9999 FEW023 15/09 Q1019","updated":"2026-02-12T15:52:10Z"}
