{"icao":"KJFK","metar":"KJFK 251851Z 32006KT 10SM BKN065 BKN250 14/02 A3033 RMK AO2 SLP271 T01440017","updated":"2025-10-25T19:13:18Z"}
