{"icao":"KJFK","metar":"KJFK 300251Z 07010KT 10SM FEW021 BKN033 BKN100 OVC130 12/07 A3010 RMK AO2 SLP192 T01170072 58007","updated":"2025-10-30T03:10:26Z"}
