{"icao":"LPPD","metar":"LPPD 190200Z 35018G30KT 310V020 9999 FEW016 FEW022CB BKN030 11/07 Q1003","updated":"2026-03-19T02:06:45Z"}
