{"icao":"KLAX","metar":"KLAX 061953Z 26008KT 10SM FEW100 SCT160 BKN250 23/M03 A3002 RMK AO2 SLP166 T02281033","updated":"2026-03-06T20:30:58Z"}
