{"icao":"KJFK","metar":"KJFK 302251Z 02007KT 10SM FEW200 BKN250 23/11 A3004 RMK AO2 SLP170 T02330111 $","updated":"2025-09-30T23:16:21Z"}
