{"icao":"LPMA","metar":"LPMA 161730Z 03006KT 350V070 9999 SCT013 BKN030 17/11 Q1013","updated":"2026-03-16T17:58:38Z"}
