{"icao":"LPMA","metar":"LPMA 110700Z 36015G27KT 320V070 9000 -SHRA BKN015 15/11 Q1022","updated":"2026-04-11T07:13:08Z"}
