{"icao":"LPPD","metar":"LPPD 022000Z 31014KT 270V340 9999 FEW016 FEW020TCU BKN030 14/11 Q1005","updated":"2026-01-02T20:21:10Z"}
