{"icao":"LPPS","metar":"LPPS 071000Z 28005KT 240V330 9999 FEW015 BKN030 22/16 Q1021","updated":"2025-11-07T10:20:21Z"}
