{"icao":"LPMA","metar":"LPMA 201900Z 04020KT 9999 -SHRA BKN016 19/13 Q1021","updated":"2025-11-20T19:15:35Z"}
