{"icao":"LPAZ","metar":"LPAZ 030230Z 15005KT 9999 FEW007 21/21 Q1022","updated":"2025-10-03T02:55:15Z"}
