{"icao":"KORD","metar":"KORD 030751Z 22009KT 10SM SCT250 08/M03 A2995 RMK AO2 SLP142 T00781028","updated":"2026-05-03T08:06:53Z"}
