{"icao":"LPMR","metar":"LPMR 291100Z 31007KT 240V350 9999 BKN018 20/14 Q1022","updated":"2026-05-29T11:27:31Z"}
