{"icao":"LPFR","metar":"LPFR 061400Z 35011KT CAVOK 13/M02 Q1021","updated":"2026-01-06T14:21:18Z"}
