{"icao":"KLAX","metar":"KLAX 260253Z 25009KT 10SM OVC008 19/17 A2992 RMK AO2 SLP129 T01940167 58002 $","updated":"2025-09-26T03:34:34Z"}
