{"icao":"LPAZ","metar":"LPAZ 031730Z 24026KT 6000 FEW006 SCT012 18/16 Q1006","updated":"2026-02-03T17:51:45Z"}
