{"icao":"LPPR","metar":"LPPR 251300Z 28005KT 240V320 CAVOK 22/07 Q1018","updated":"2025-09-25T13:27:59Z"}
