{"icao":"LPLA","metar":"LPLA 211400Z 12009KT 070V140 9999 BKN035 17/09 Q1033","updated":"2025-11-21T14:17:57Z"}
