{"icao":"LPFL","metar":"LPFL 191200Z 19008KT 150V240 3000 RADZ FEW001 SCT009 FEW012TCU BKN016 24/22 Q1014","updated":"2025-10-19T12:33:16Z"}
