{"icao":"LPBJ","metar":"LPBJ 122200Z 19014KT 4000 -DZ BKN005 SCT012 14/14 Q1012","updated":"2026-02-12T22:31:25Z"}
