{"icao":"LPCS","metar":"LPCS 261500Z 04008KT CAVOK 17/04 Q1024","updated":"2025-11-26T15:17:53Z"}
