{"icao":"LPMT","metar":"LPMT 201900Z 26007KT 9999 SCT016 20/17 Q1015","updated":"2025-10-20T19:14:51Z"}
