{"icao":"LPFL","metar":"LPFL 150900Z 17003KT 140V230 9999 FEW020 SCT038 15/11 Q1031","updated":"2026-03-15T09:32:53Z"}
