{"icao":"LPHR","metar":"LPHR 291230Z 24021KT 9999 FEW014 BKN040 20/13 Q1016","updated":"2025-10-29T12:39:31Z"}
