{"icao":"LPAZ","metar":"LPAZ 212300Z 34007KT 290V020 9999 OVC030 14/09 Q1026","updated":"2025-12-21T23:17:46Z"}
