{"icao":"LPPS","metar":"LPPS 211230Z 05015KT 010V090 9999 SCT015 SCT030 19/12 Q1025","updated":"2025-11-21T12:37:23Z"}
