{"icao":"LPPS","metar":"LPPS 061500Z 10008KT 070V130 9999 FEW015 SCT030 19/12 Q1023","updated":"2025-12-06T15:17:24Z"}
