{"icao":"LPPS","metar":"LPPS 251900Z 01015KT 9999 FEW015 15/10 Q1020","updated":"2026-02-25T19:06:30Z"}
