{"icao":"LPPT","metar":"LPPT 092300Z 32006KT 290V350 9999 -SHRA FEW016 FEW020TCU SCT024 BKN032 09/07 Q1022","updated":"2026-03-09T23:26:43Z"}
