{"icao":"LPBJ","metar":"LPBJ 260800Z 33002KT 5000 VCFG NSC 09/08 Q1023","updated":"2026-02-26T08:47:23Z"}
