{"icao":"KJFK","metar":"KJFK 240851Z 21005KT 10SM BKN021 BKN026 OVC055 21/20 A3000 RMK AO2 SLP157 60004 T02110200 51002 $","updated":"2025-09-24T09:18:54Z"}
