{"icao":"KLAX","metar":"KLAX 190453Z 18004KT 10SM SCT220 18/12 A2993 RMK AO2 SLP134 T01830122 $","updated":"2026-04-19T05:28:00Z"}
