{"icao":"KJFK","metar":"KJFK 081251Z 26008KT 9SM -RA BKN090 BKN150 13/12 A2972 RMK AO2 SLP065 P0001 T01330117 $","updated":"2025-11-08T13:22:49Z"}
