{"icao":"LPOV","metar":"LPOV 121700Z 34025KT 9999 FEW020 14/06 Q1020","updated":"2026-04-12T17:33:02Z"}
