{"icao":"KORD","metar":"KORD 181751Z 22013G20KT 10SM FEW031 FEW055 03/M04 A2999 RMK AO2 SLP164 60000 T00281044 10028 21044 58008 $","updated":"2026-03-18T18:02:19Z"}
