{"icao":"KORD","metar":"KORD 041934Z 36006KT 10SM OVC025 M03/M09 A3035 RMK AO2 T10331094","updated":"2026-02-04T19:37:21Z"}
