{"icao":"LPAZ","metar":"LPAZ 041230Z 32004KT 280V010 9999 OVC044 17/06 Q1024","updated":"2026-04-04T12:53:32Z"}
