{"icao":"LPFR","metar":"LPFR 220600Z VRB01KT 9999 BKN006 19/18 Q1018","updated":"2025-10-22T06:28:01Z"}
