{"icao":"LPMT","metar":"LPMT 230700Z VRB01KT CAVOK 06/06 Q1027","updated":"2025-11-23T07:16:50Z"}
