{"icao":"LPPR","metar":"LPPR 291500Z 33009KT CAVOK 23/13 Q1017","updated":"2025-09-29T15:18:12Z"}
