{"icao":"LPMR","metar":"LPMR 122300Z 16015G26KT 9999 FEW025 SCT040 13/09 Q1010","updated":"2026-01-12T23:16:02Z"}
