{"icao":"KORD","metar":"KORD 112251Z 09008KT 10SM BKN110 BKN180 OVC250 12/02 A3027 RMK AO2 SLP255 T01170017 $","updated":"2026-04-11T23:32:23Z"}
