{"icao":"KJFK","metar":"KJFK 031451Z 34013KT 10SM FEW027 FEW050 BKN250 02/M04 A3005 RMK AO2 SLP175 T00171044 51027","updated":"2025-12-03T15:21:32Z"}
