{"icao":"LPPT","metar":"LPPT 140800Z 03015KT CAVOK 12/08 Q1019","updated":"2025-12-14T08:24:08Z"}
