{"icao":"LPFR","metar":"LPFR 172200Z 05004KT 020V080 CAVOK 22/17 Q1015","updated":"2025-10-17T22:15:53Z"}
