{"icao":"KJFK","metar":"KJFK 051051Z 35007KT 10SM SCT250 M07/M12 A3014 RMK AO2 SLP205 T10671122 PNO $","updated":"2026-02-05T11:34:24Z"}
