{"icao":"LPAZ","metar":"LPAZ 261400Z 30017KT 9000 VCSH FEW010 BKN014 22/20 Q1013","updated":"2025-09-26T14:15:29Z"}
