{"icao":"LPHR","metar":"LPHR 121230Z 34012G29KT 300V360 9999 VCSH SCT016 FEW020CB BKN035 14/08 Q1004 WS R28","updated":"2025-11-12T12:39:31Z"}
