{"icao":"LPAR","metar":"LPAR 171000Z 24003KT 170V320 9999 FEW018 FEW022TCU 10/07 Q1014","updated":"2026-01-18T23:18:50Z"}
