{"icao":"LPMA","metar":"LPMA 152100Z 33005KT 220V020 9999 FEW015 20/13 Q1017","updated":"2025-11-15T21:14:43Z"}
