{"icao":"LPMA","metar":"LPMA 102330Z 01011KT 300V060 9999 -DZ BKN015 15/09 Q1028","updated":"2026-03-11T00:00:43Z"}
