{"icao":"LPOV","metar":"LPOV 141200Z VRB01KT CAVOK 17/09 Q1020","updated":"2025-12-14T12:36:37Z"}
