{"icao":"LPHR","metar":"LPHR 250700Z 05020G30KT 020V080 8000 SCT011 FEW013TCU BKN020 18/15 Q1018","updated":"2025-10-25T07:16:17Z"}
