{"icao":"LPMA","metar":"LPMA 122100Z 31006KT 270V340 9999 FEW015 16/12 Q1023","updated":"2026-05-12T21:18:12Z"}
