{"icao":"LPPS","metar":"LPPS 202000Z 27006KT 260V340 9000 DZ FEW010 BKN030 23/22 Q1019","updated":"2025-10-20T20:21:15Z"}
