{"icao":"LPLA","metar":"LPLA 121000Z 29021KT 9999 VCSH FEW022 12/08 Q1012","updated":"2026-01-12T10:24:21Z"}
