{"icao":"LPMR","metar":"LPMR 120700Z 17005KT CAVOK 17/10 Q1017","updated":"2025-10-12T07:15:24Z"}
