{"icao":"LPAZ","metar":"LPAZ 091730Z 21018KT 4900 BR FEW001 BKN004 18/17 Q1014","updated":"2026-02-09T17:53:04Z"}
