{"icao":"LPLA","metar":"LPLA 251600Z 33015KT 8000 SCT005 BKN007 BKN011 15/15 Q1023","updated":"2025-12-25T16:24:18Z"}
