{"icao":"LPPD","metar":"LPPD 151630Z 02011KT 350V060 9999 FEW025 17/07 Q1031","updated":"2026-05-15T16:49:57Z"}
