{"icao":"KORD","metar":"KORD 211951Z 26014G26KT 10SM SCT037 BKN065 BKN100 11/03 A2969 RMK AO2 PK WND 27035/1858 RAB21E34 SLP056 P0000 T01060033","updated":"2025-10-21T20:21:10Z"}
