{"icao":"LPMA","metar":"LPMA 261630Z 01017G31KT 330V050 9999 BKN015 FEW018CB 17/10 Q1023","updated":"2026-02-26T16:57:36Z"}
