{"icao":"LPHR","metar":"LPHR 290700Z 05013KT 9999 FEW006 SCT011 BKN027 16/14 Q1009","updated":"2025-12-29T07:24:55Z"}
