{"icao":"LPOV","metar":"LPOV 240100Z VRB02KT CAVOK 10/07 Q1018","updated":"2025-09-24T15:18:19Z"}
