{"icao":"LPPD","metar":"LPPD 091500Z 01015KT 9999 BKN016 17/12 Q1033","updated":"2026-04-09T15:21:12Z"}
