{"icao":"LPPS","metar":"LPPS 302030Z 14005KT 110V180 9999 FEW014 18/14 Q1017","updated":"2026-04-30T20:58:49Z"}
