{"icao":"LPAZ","metar":"LPAZ 281330Z 08009KT 040V100 9999 FEW016 BKN022 15/11 Q1032","updated":"2026-03-28T13:50:34Z"}
