{"icao":"LPMR","metar":"LPMR 190400Z 12004KT 7000 -RA SCT040 12/11 Q1018","updated":"2025-12-19T04:33:15Z"}
