{"icao":"LPPD","metar":"LPPD 180330Z 22012KT 9000 SCT003 BKN006 20/20 Q1017","updated":"2026-06-18T03:52:34Z"}
