{"icao":"LPPR","metar":"LPPR 032100Z VRB04KT CAVOK 14/09 Q1001","updated":"2026-01-03T21:17:00Z"}
