{"icao":"LPMT","metar":"LPMT 101600Z 33011KT CAVOK 28/12 Q1016","updated":"2026-06-10T16:56:25Z"}
