{"icao":"LPPS","metar":"LPPS 020300Z 33005KT 300V010 9999 FEW012 BKN030 17/15 Q1023","updated":"2025-12-02T03:17:41Z"}
