{"icao":"LPMT","metar":"LPMT 111700Z 22005KT 190V270 9999 FEW030 14/11 Q1018","updated":"2025-12-11T19:18:37Z"}
