{"icao":"KORD","metar":"KORD 191751Z 32012KT 10SM FEW055 FEW250 23/09 A2997 RMK AO2 SLP147 T02280089 10228 20161 50003 $","updated":"2026-06-19T18:00:03Z"}
