{"icao":"LPPT","metar":"LPPT 071400Z 24007KT 180V280 9999 FEW034 25/16 Q1021","updated":"2025-10-07T14:18:13Z"}
