{"icao":"KORD","metar":"KORD 110751Z 02007KT 8SM OVC004 06/04 A2963 RMK AO2 SLP036 T00560044 $","updated":"2026-03-11T08:39:44Z"}
