{"icao":"LPLA","metar":"LPLA 150500Z 31021KT 9999 BKN035 15/07 Q1025","updated":"2025-12-15T05:24:02Z"}
