{"icao":"LPFR","metar":"LPFR 061500Z 10010KT 9999 FEW015 25/19 Q1019","updated":"2025-10-06T15:17:58Z"}
