{"icao":"KORD","metar":"KORD 211751Z 25018G33KT 10SM FEW048 BKN060 BKN080 11/02 A2969 RMK AO2 PK WND 25033/1751 SLP056 VCSH W 60000 T01110017 10128 20078 56007","updated":"2025-10-21T18:25:55Z"}
