{"icao":"LPST","metar":"LPST 211500Z 01010KT CAVOK 15/03 Q1026","updated":"2025-11-21T15:17:11Z"}
