{"icao":"KJFK","metar":"KJFK 270651Z 01008KT 10SM FEW250 00/M06 A2999 RMK AO2 SLP155 T00001061 $","updated":"2026-02-27T07:44:58Z"}
