{"icao":"LPMA","metar":"LPMA 271500Z 16006KT 110V200 9999 SCT014 20/13 Q1016","updated":"2026-01-27T15:29:53Z"}
