{"icao":"LPMT","metar":"LPMT 080500Z 33003KT CAVOK 10/07 Q1019","updated":"2026-03-08T05:41:40Z"}
