{"icao":"LPMA","metar":"LPMA 051230Z VRB06KT 9999 FEW016 21/11 Q1010","updated":"2026-02-05T12:59:50Z"}
