{"icao":"LPBJ","metar":"LPBJ 171500Z 32008KT 300V360 9999 FEW025CB SCT027 17/10 Q1014","updated":"2025-11-17T15:20:39Z"}
