{"icao":"LPCS","metar":"LPCS 272000Z 36013KT CAVOK 14/08 Q1016","updated":"2026-03-28T02:03:39Z"}
