{"icao":"LPOV","metar":"LPOV 050900Z 18012KT 150V220 6000 TSRA SCT016 SCT020CB OVC025 16/16 Q1004","updated":"2025-11-05T09:20:36Z"}
