{"icao":"KORD","metar":"KORD 132251Z 24005KT 10SM FEW080 FEW250 11/M03 A3004 RMK AO2 SLP179 T01111033","updated":"2026-02-13T23:29:51Z"}
