{"icao":"KJFK","metar":"KJFK 091351Z 02018G25KT 10SM FEW040 13/02 A3044 RMK AO2 SLP306 T01280017","updated":"2025-10-09T14:17:38Z"}
