{"icao":"LPMR","metar":"LPMR 261800Z 32004KT CAVOK 31/13 Q1019","updated":"2026-05-26T19:20:25Z"}
