{"icao":"LPPT","metar":"LPPT 050930Z 36010KT 310V030 9999 FEW030 18/09 Q1018","updated":"2026-06-05T09:44:19Z"}
