{"icao":"KORD","metar":"KORD 131751Z 24015KT 10SM FEW110 SCT250 08/01 A2956 RMK AO2 PK WND 25026/1726 SLP014 T00780006 10078 20039 58010 $","updated":"2026-01-13T18:30:09Z"}
