{"icao":"KORD","metar":"KORD 010051Z 22006KT 8SM RA SCT020 BKN038 OVC047 08/05 A2991 RMK AO2 RAB32 SLP131 P0006 T00780050 $","updated":"2025-11-01T01:26:40Z"}
