{"icao":"LPMT","metar":"LPMT 311700Z 34011KT CAVOK 27/11 Q1018","updated":"2026-05-31T17:59:55Z"}
