{"icao":"LPLA","metar":"LPLA 121300Z 23005KT 9999 FEW020 16/08 Q1033 WIND RWY15 30007KT RH56 BKN250 BLU","updated":"2025-12-12T13:33:33Z"}
