{"icao":"LPMA","metar":"LPMA 271530Z 01021G32KT 330V030 9999 FEW015 18/09 Q1025","updated":"2026-02-27T15:36:27Z"}
