{"icao":"KORD","metar":"KORD 021851Z 11009KT 10SM BKN250 05/M08 A3033 RMK AO2 SLP279 T00501083 $","updated":"2026-03-02T19:35:58Z"}
