{"icao":"KLAX","metar":"KLAX 101653Z 11004KT 10SM FEW280 11/00 A3041 RMK AO2 SLP298 T01060000 $","updated":"2026-01-10T17:17:03Z"}
