{"icao":"LPFL","metar":"LPFL 311230Z 34019KT 9999 VCSH BKN025 17/11 Q1013","updated":"2025-10-31T12:38:04Z"}
