{"icao":"KORD","metar":"KORD 141615Z 34021G29KT 6SM -SN FEW024 BKN038 OVC050 M06/M11 A2981 RMK AO2 PK WND 35033/1600 P0000 T10561106 $","updated":"2026-01-14T16:29:08Z"}
