{"icao":"LPFL","metar":"LPFL 291830Z VRB05KT 9999 FEW015 21/15 Q1016","updated":"2026-05-29T21:05:54Z"}
