{"icao":"KORD","metar":"KORD 141351Z 09005KT 10SM FEW030 SCT130 BKN170 BKN250 01/M07 A3020 RMK AO2 SLP233 T00061067 $","updated":"2026-03-14T14:27:13Z"}
