{"icao":"LPOV","metar":"LPOV 152300Z 21009KT 180V240 9999 SCT012 BKN040 13/13 Q1029","updated":"2026-02-15T23:25:06Z"}
