{"icao":"LPAZ","metar":"LPAZ 251800Z 13003KT 090V150 9999 FEW016 18/14 Q1027","updated":"2025-11-25T18:29:03Z"}
