{"icao":"LPLA","metar":"LPLA 180700Z 28005KT 210V300 4000 SHRA FEW002 SCT008 BKN018 FEW020CB 20/19 Q1015","updated":"2025-09-18T07:16:42Z"}
