{"icao":"LPBJ","metar":"LPBJ 052000Z 26009KT 9999 SCT030 14/12 Q1014","updated":"2025-11-05T20:21:04Z"}
