{"icao":"LPPR","metar":"LPPR 302200Z VRB02KT 7000 NSC 07/06 Q1021","updated":"2025-12-30T22:18:21Z"}
