{"icao":"LPHR","metar":"LPHR 051400Z 06009KT 360V100 9999 FEW020 BKN045 17/10 Q1028","updated":"2026-05-05T14:18:38Z"}
