{"icao":"LPAZ","metar":"LPAZ 040900Z 04010KT 9000 -SHRA FEW018 BKN037 14/12 Q1018","updated":"2026-01-04T09:18:33Z"}
