{"icao":"LPOV","metar":"LPOV 061300Z 01012KT CAVOK 11/00 Q1025","updated":"2026-01-06T13:36:29Z"}
