{"icao":"LPAZ","metar":"LPAZ 112100Z VRB02KT 9999 FEW017 BKN040 19/17 Q1025","updated":"2026-06-11T21:19:26Z"}
