{"icao":"LPMT","metar":"LPMT 171300Z 29005KT 250V320 CAVOK 25/14 Q1014","updated":"2025-10-17T13:26:42Z"}
