{"icao":"LPFR","metar":"LPFR 061700Z 10007KT 070V140 9999 FEW015 24/19 Q1019","updated":"2025-10-06T17:15:51Z"}
