{"icao":"LPMA","metar":"LPMA 272000Z 33010KT 280V010 9999 SCT016 16/06 Q1016","updated":"2025-12-27T20:20:49Z"}
