{"icao":"LPLA","metar":"LPLA 102100Z 25003KT 9999 FEW016 BKN028 21/19 Q1022","updated":"2025-10-10T21:14:29Z"}
