{"icao":"LPMT","metar":"LPMT 100800Z 12003KT 050V150 9999 FEW015 16/14 Q1013","updated":"2026-04-10T09:07:27Z"}
