{"icao":"LPPT","metar":"LPPT 241300Z 06008G22KT 330V100 CAVOK 25/04 Q1017","updated":"2025-09-24T13:27:05Z"}
