{"icao":"LPMT","metar":"LPMT 280500Z 06003KT 040V120 CAVOK 07/07 Q1023","updated":"2025-11-28T05:19:18Z"}
