{"icao":"KJFK","metar":"KJFK 251851Z 14012KT 10SM FEW075 BKN150 BKN200 BKN250 08/M01 A3033 RMK AO2 SLP270 T00831011 $","updated":"2026-03-25T19:01:10Z"}
