{"icao":"LPPD","metar":"LPPD 090600Z 17009KT 9999 FEW011 SCT016 22/20 Q1023","updated":"2025-10-09T06:27:34Z"}
