{"icao":"LPPR","metar":"LPPR 281830Z 20010KT 8000 FEW018 13/10 Q1001","updated":"2026-01-28T18:35:48Z"}
