{"icao":"LPPR","metar":"LPPR 271800Z 04004KT 360V080 CAVOK 09/02 Q1011","updated":"2025-12-27T18:26:47Z"}
