{"icao":"LPST","metar":"LPST 271300Z 32008KT 5000 BR FEW006 BKN012 14/12 Q1025","updated":"2026-02-27T14:00:50Z"}
