{"icao":"KJFK","metar":"KJFK 032251Z 29005KT 10SM BKN130 OVC200 M01/M12 A3001 RMK AO2 SLP160 T10111122 $","updated":"2026-01-03T23:18:14Z"}
