{"icao":"LPPS","metar":"LPPS 040830Z 36018KT 9999 SCT013 FEW016TCU 16/12 Q1019","updated":"2026-03-04T08:37:34Z"}
