{"icao":"LPPD","metar":"LPPD 161500Z 32015KT 300V360 9999 VCSH FEW025 SCT030 15/09 Q1032","updated":"2026-01-16T15:22:32Z"}
