{"icao":"LPPD","metar":"LPPD 210700Z 36006KT 9999 FEW022 BKN035 18/14 Q1027","updated":"2025-09-21T07:14:11Z"}
