{"icao":"KJFK","metar":"KJFK 081851Z 17010KT 10SM FEW250 06/M07 A3062 RMK AO2 SLP367 T00611067","updated":"2026-04-08T19:14:25Z"}
