{"icao":"LPFL","metar":"LPFL 110900Z 33021G36KT 250V010 9999 -SHRA SCT016 FEW018TCU 15/09 Q1008","updated":"2025-11-11T09:20:25Z"}
