{"icao":"LPFR","metar":"LPFR 080700Z 03004KT 350V050 CAVOK 15/10 Q1011","updated":"2026-05-08T07:28:00Z"}
