{"icao":"LPFR","metar":"LPFR 151600Z 26011KT 9000 SCT010 FEW020CB 19/17 Q1009","updated":"2025-11-15T16:19:52Z"}
