{"icao":"LPFR","metar":"LPFR 051230Z 33013KT CAVOK 13/02 Q1010","updated":"2026-01-05T12:43:41Z"}
