{"icao":"LPMR","metar":"LPMR 290900Z 15006KT 9999 FEW012 17/15 Q1007","updated":"2025-10-29T09:19:17Z"}
