{"icao":"LPFR","metar":"LPFR 190700Z 16009KT 9999 FEW020 SCT030 16/12 Q1018","updated":"2025-12-19T07:20:20Z"}
