{"icao":"LPHR","metar":"LPHR 072030Z 31008KT 9999 FEW017 SCT030 15/09 Q1034","updated":"2026-04-07T20:45:40Z"}
