{"icao":"KORD","metar":"KORD 131151Z 21012G20KT 10SM FEW110 OVC160 04/M02 A2970 RMK AO2 SLP063 T00441022 10044 20011 56045 $","updated":"2026-01-13T12:44:30Z"}
