{"icao":"KLAX","metar":"KLAX 052053Z 24009KT 10SM FEW028 SCT040 BKN140 BKN160 20/10 A3019 RMK AO2 SLP220 T02000100 58015 $","updated":"2025-11-05T21:17:39Z"}
