{"icao":"LPHR","metar":"LPHR 291300Z 28010KT 250V310 9999 FEW012 SCT030 19/15 Q1029","updated":"2025-11-29T13:25:15Z"}
