{"icao":"LPPD","metar":"LPPD 060830Z 26024G39KT 6000 SHRA SCT014 BKN030 13/09 Q1013","updated":"2026-02-06T08:39:53Z"}
