{"icao":"LPCS","metar":"LPCS 272000Z 06016KT 030V090 9999 -RA SCT012 BKN025 09/08 Q1006","updated":"2025-12-27T20:20:29Z"}
