{"icao":"LPPR","metar":"LPPR 241830Z 32009KT 290V360 9999 SCT012 16/13 Q1019","updated":"2026-04-24T18:50:09Z"}
