{"icao":"LPFR","metar":"LPFR 040730Z 25024KT 7000 SCT006 BKN009 16/15 Q1000","updated":"2026-02-04T07:42:32Z"}
