{"icao":"LPPR","metar":"LPPR 030500Z 11006KT 9999 FEW035 14/09 Q1000","updated":"2026-01-03T05:20:28Z"}
