{"icao":"LPLA","metar":"LPLA 251900Z 14002KT 9999 FEW008 BKN020 BKN035 18/17 Q1026","updated":"2025-11-25T19:16:38Z"}
