{"icao":"KJFK","metar":"KJFK 190651Z 00000KT 10SM FEW250 13/11 A3004 RMK AO2 SLP172 T01280106 $","updated":"2025-10-19T07:15:38Z"}
