{"icao":"LPFR","metar":"LPFR 180430Z 12011KT 9999 -RA FEW018 BKN035 15/13 Q1005","updated":"2026-03-18T04:54:45Z"}
