{"icao":"KJFK","metar":"KJFK 181751Z 20008KT 10SM BKN080 BKN180 BKN250 17/02 A3003 RMK AO2 SLP169 T01670022 10172 20100 58012 $","updated":"2025-10-18T18:22:32Z"}
