{"icao":"KORD","metar":"KORD 102251Z 25006KT 10SM FEW030 SCT075 BKN130 BKN180 02/M04 A2994 RMK AO2 SLP143 T00171044","updated":"2026-01-10T23:18:33Z"}
