{"icao":"LPMA","metar":"LPMA 272000Z 01015KT 300V050 9999 VCSH SCT014 16/13 Q1027","updated":"2026-02-27T20:26:53Z"}
