{"icao":"KLAX","metar":"KLAX 091253Z 16004KT 10SM FEW200 09/M07 A3025 RMK AO2 SLP242 T00941067 $","updated":"2026-01-09T13:36:42Z"}
