{"icao":"LPAR","metar":"LPAR 151600Z 34015KT 9999 SCT035 20/10 Q1015","updated":"2026-05-15T21:58:13Z"}
