{"icao":"LPFL","metar":"LPFL 101600Z 19022G37KT 150V230 5000 RADZ FEW009 SCT013 BKN016 18/16 Q1001","updated":"2026-02-10T16:09:03Z"}
