{"icao":"KJFK","metar":"KJFK 121151Z 27012KT 10SM SCT021 BKN055 BKN080 BKN180 BKN250 26/21 A2974 RMK AO2 SLP070 60000 T02560206 10261 20239 51007 $","updated":"2026-06-12T12:17:50Z"}
