{"icao":"LPMA","metar":"LPMA 270430Z 34006KT 260V040 9999 SCT015 19/14 Q1013","updated":"2026-01-27T04:45:30Z"}
