{"icao":"KLAX","metar":"KLAX 300653Z 00000KT 1 1/2SM BR FEW001 BKN003 BKN006 14/13 A2993 RMK AO2 SLP133 VIS 3/4V3 T01440133 $","updated":"2026-03-30T07:25:45Z"}
