{"icao":"KJFK","metar":"KJFK 030751Z 30003KT 10SM FEW250 M04/M13 A3014 RMK AO2 SLP204 T10391128 PNO $","updated":"2026-02-03T08:35:16Z"}
