{"icao":"LPPT","metar":"LPPT 251400Z 20006KT 160V230 8000 3500SW RA FEW010 BKN020 FEW025TCU 20/19 Q1013","updated":"2025-10-25T14:14:36Z"}
