{"icao":"LPPT","metar":"LPPT 031800Z 33011KT CAVOK 21/13 Q1022","updated":"2025-10-03T18:24:16Z"}
