{"icao":"LPMR","metar":"LPMR 042200Z 29001KT 6000 NSC 13/13 Q1022","updated":"2026-04-04T22:28:11Z"}
