{"icao":"LPPT","metar":"LPPT 230430Z 04004KT 350V060 CAVOK 20/17 Q1013","updated":"2026-06-23T04:58:34Z"}
