{"icao":"KORD","metar":"KORD 220651Z 22013G23KT 10SM SCT180 20/09 A2956 RMK AO2 SLP006 T02000089","updated":"2026-03-22T07:37:34Z"}
