{"icao":"LPPS","metar":"LPPS 221100Z 11010KT 080V140 9999 SCT012 SCT030 24/20 Q1022","updated":"2025-10-22T11:16:28Z"}
