{"icao":"KORD","metar":"KORD 312151Z 36017KT 10SM BKN029 M04/M10 A3039 RMK AO2 SLP302 T10391100","updated":"2026-01-31T22:21:33Z"}
