{"icao":"KLAX","metar":"KLAX 290253Z 26013KT 10SM SCT065 BKN095 BKN130 16/11 A2995 RMK AO2 SLP142 T01610111 53005 $","updated":"2026-05-29T03:28:54Z"}
