{"icao":"LPPD","metar":"LPPD 170630Z 18009KT 9999 FEW008 SCT040 15/14 Q1021","updated":"2026-02-17T07:02:33Z"}
