{"icao":"LPPS","metar":"LPPS 240700Z 34014KT 9999 SCT012 BKN030 15/13 Q1015","updated":"2025-12-24T07:22:46Z"}
