{"icao":"KJFK","metar":"KJFK 122251Z 03019G30KT 10SM -RA OVC014 14/13 A2999 RMK AO2 PK WND 03030/2244 SLP154 P0003 T01390128","updated":"2025-10-12T23:15:12Z"}
