{"icao":"LPMT","metar":"LPMT 022200Z 35007KT 320V020 CAVOK 14/09 Q1022","updated":"2026-04-02T22:30:04Z"}
