{"icao":"LPAZ","metar":"LPAZ 110100Z 03006KT 9999 FEW005 OVC035 20/19 Q1022","updated":"2025-10-11T01:15:52Z"}
