{"icao":"KJFK","metar":"KJFK 101951Z 17009KT 10SM BKN044 16/05 A3040 RMK AO2 SLP295 T01560050","updated":"2025-10-10T20:18:53Z"}
