{"icao":"LPPR","metar":"LPPR 051400Z 28008KT 240V320 9999 FEW020 BKN030 17/11 Q1017","updated":"2026-05-05T14:18:35Z"}
