{"icao":"LPPS","metar":"LPPS 242130Z 06011KT 010V080 9999 SCT014 BKN030 18/14 Q1021","updated":"2026-05-24T21:56:07Z"}
