{"icao":"LPBJ","metar":"LPBJ 282200Z 16009KT 9999 SCT042 18/17 Q1011","updated":"2025-10-28T22:17:19Z"}
