{"icao":"LPPR","metar":"LPPR 010430Z 18015KT 5000 -DZ BR OVC004 13/12 Q1012","updated":"2026-02-01T04:59:42Z"}
