{"icao":"LPPS","metar":"LPPS 171600Z 35014KT 9999 SCT015 SCT030 20/13 Q1023","updated":"2025-11-17T16:25:59Z"}
