{"icao":"LPPR","metar":"LPPR 112300Z 18016KT 9000 -DZ OVC004 13/13 Q1021","updated":"2026-01-11T23:18:18Z"}
