{"icao":"LPMT","metar":"LPMT 250900Z 10004KT 8000 MIFG FEW020 07/07 Q1010","updated":"2025-12-25T09:21:55Z"}
