{"icao":"LPMT","metar":"LPMT 041400Z 02010KT 9999 FEW030 19/11 Q1012","updated":"2026-03-04T14:40:46Z"}
