{"icao":"KLAX","metar":"KLAX 270853Z 08004KT 5SM BR FEW006 FEW009 16/14 A2999 RMK AO2 SLP155 T01560139 55004 $","updated":"2025-10-27T09:22:14Z"}
