{"icao":"LPAZ","metar":"LPAZ 271830Z 25028KT 8000 FEW015 BKN018 17/14 Q1009","updated":"2026-01-27T18:37:28Z"}
