{"icao":"KLAX","metar":"KLAX 200653Z 09008KT 1/2SM R25L/4000VP6000FT FG VV000 14/14 A3004 RMK AO2 SLP172 VIS E 1/4 FG VV000 T01390139","updated":"2025-12-20T07:17:06Z"}
