{"icao":"KORD","metar":"KORD 270951Z 02019G28KT 10SM SCT020 BKN200 00/M04 A3028 RMK AO2 PK WND 02032/0854 SLP259 T00001044 $","updated":"2026-03-27T10:48:25Z"}
