{"icao":"LPOV","metar":"LPOV 140600Z 36010KT 9999 FEW011 09/04 Q1021","updated":"2026-02-14T06:42:37Z"}
