{"icao":"KLAX","metar":"KLAX 040853Z 06005KT 10SM FEW250 13/07 A3011 RMK AO2 SLP194 T01280067 58003","updated":"2025-12-04T09:23:26Z"}
