{"icao":"LPBJ","metar":"LPBJ 110808Z 15009KT 3000 1400NE BCFG SCT003 14/14 Q1015","updated":"2025-11-11T08:24:34Z"}
