{"icao":"KJFK","metar":"KJFK 022051Z 27015KT 10SM FEW046 BKN060 M01/M11 A2976 RMK AO2 SLP078 T10111106 53002 $","updated":"2026-01-02T21:15:14Z"}
