{"icao":"LPMA","metar":"LPMA 050630Z 29003KT 200V340 9999 FEW015 14/09 Q1023","updated":"2026-03-05T06:51:05Z"}
