{"icao":"KJFK","metar":"KJFK 040251Z 04003KT 10SM SCT100 BKN190 BKN250 M02/M11 A3000 RMK AO2 SLP159 T10221106 57003 $","updated":"2026-01-04T03:50:08Z"}
