{"icao":"LPOV","metar":"LPOV 251900Z 34004KT CAVOK 17/07 Q1018","updated":"2025-09-25T19:14:24Z"}
