{"icao":"LPFR","metar":"LPFR 291500Z 22009KT 9999 FEW040 23/16 Q1014","updated":"2025-09-29T15:18:11Z"}
