{"icao":"LPOV","metar":"LPOV 231200Z 33009KT CAVOK 16/12 Q1015","updated":"2026-03-23T13:04:47Z"}
