{"icao":"LPPR","metar":"LPPR 030430Z VRB02KT CAVOK 07/05 Q1022","updated":"2026-04-03T05:03:28Z"}
