{"icao":"LPPT","metar":"LPPT 101330Z 35015KT 9999 SCT028 14/09 Q1021","updated":"2026-03-10T14:03:11Z"}
