{"icao":"LPBJ","metar":"LPBJ 232300Z 29008KT CAVOK 16/01 Q1017","updated":"2025-09-23T23:14:48Z"}
