{"icao":"KORD","metar":"KORD 022051Z 18027G40KT 10SM BKN031 BKN043 OVC055 21/16 A2964 RMK AO2 PK WND 18040/2049 SLP035 CB DSNT W-NW MOV NE 60002 T02110161 56030","updated":"2026-04-02T21:36:32Z"}
