{"icao":"LPPS","metar":"LPPS 220430Z 32012KT 9999 -SHRA FEW007 BKN011 16/15 Q1018","updated":"2026-01-22T04:46:57Z"}
