{"icao":"LPLA","metar":"LPLA 111800Z VRB05KT 9999 SCT045 14/06 Q1032","updated":"2026-04-11T18:42:13Z"}
