{"icao":"LPFR","metar":"LPFR 252200Z 25003KT CAVOK 15/14 Q1015","updated":"2026-03-25T22:34:26Z"}
