{"icao":"LPLA","metar":"LPLA 240300Z 27004KT 240V300 9999 FEW016 16/11 Q1026","updated":"2025-11-24T03:22:52Z"}
