{"icao":"LPPR","metar":"LPPR 211000Z 20009KT 8000 BKN003 19/19 Q1012","updated":"2025-10-21T10:19:10Z"}
