{"icao":"LPLA","metar":"LPLA 301700Z 31010KT 280V350 9999 FEW025 17/09 Q1008","updated":"2026-04-30T17:19:12Z"}
