{"icao":"LPPS","metar":"LPPS 110130Z 35004KT 9999 FEW015 14/13 Q1029","updated":"2026-01-11T01:49:17Z"}
