{"icao":"KJFK","metar":"KJFK 041951Z 31017G29KT 10SM FEW070 FEW250 16/M04 A3004 RMK AO2 PK WND 29030/1904 SLP173 T01561044 $","updated":"2025-11-04T20:20:57Z"}
