{"icao":"LPFL","metar":"LPFL 251700Z 31008G19KT 200V010 5000 -RA SCT010 BKN013 16/13 Q1006","updated":"2026-01-25T17:17:07Z"}
