{"icao":"LPBJ","metar":"LPBJ 211800Z 22008KT CAVOK 34/17 Q1017","updated":"2026-06-21T18:18:45Z"}
