{"icao":"LPMR","metar":"LPMR 240000Z VRB02KT 7000 1500S PRFG SCT005 BKN010 16/16 Q1018","updated":"2025-10-24T02:58:49Z"}
