{"icao":"LPFR","metar":"LPFR 172000Z 05004KT 360V080 CAVOK 22/16 Q1015","updated":"2025-10-17T20:19:29Z"}
