{"icao":"LPMT","metar":"LPMT 022000Z 34005KT CAVOK 16/10 Q1025","updated":"2025-11-02T20:17:33Z"}
