{"icao":"LPMA","metar":"LPMA 180500Z 02015KT 9999 BKN015 16/11 Q1016","updated":"2026-04-18T05:05:11Z"}
