{"icao":"LPOV","metar":"LPOV 052100Z 36023KT 9999 FEW025 10/05 Q1019","updated":"2026-03-05T21:33:08Z"}
