{"icao":"LPMR","metar":"LPMR 150900Z 34014KT 9999 FEW025 SCT035 16/09 Q1015","updated":"2026-05-15T09:46:45Z"}
