{"icao":"LPCS","metar":"LPCS 220900Z 03005KT CAVOK 10/02 Q1030","updated":"2025-11-22T09:17:21Z"}
