{"icao":"KLAX","metar":"KLAX 071553Z 06009G20KT 10SM FEW110 FEW130 19/M07 A3004 RMK AO2 SLP172 T01941072 $","updated":"2026-03-07T16:26:40Z"}
