{"icao":"KJFK","metar":"KJFK 051951Z 18025G32KT 10SM FEW060 SCT250 18/11 A2980 RMK PK WND 19036/1939 SLP090 T01780106 ","updated":"2026-05-05T20:06:14Z"}
