{"icao":"LPPT","metar":"LPPT 242200Z 24005KT 220V330 9999 FEW010 20/17 Q1015","updated":"2026-06-24T22:15:17Z"}
