{"icao":"LPPR","metar":"LPPR 141400Z 31008KT 270V330 9999 FEW020 SCT030 24/18 Q1023","updated":"2025-09-14T14:13:34Z"}
