{"icao":"LPMA","metar":"LPMA 211930Z 33008KT 290V010 9999 SCT015 15/08 Q1012","updated":"2026-04-21T20:01:48Z"}
