{"icao":"LPPR","metar":"LPPR 272030Z 00000KT CAVOK 16/14 Q1011","updated":"2026-04-27T21:00:16Z"}
