{"icao":"LPSJ","metar":"LPSJ 160900Z 29006KT 250V330 9999 FEW006 SCT014 20/20 Q1018","updated":"2026-06-16T09:30:46Z"}
