{"icao":"KJFK","metar":"KJFK 181401Z 04003KT 3/4SM R04R/3500V6000FT -SN BR BKN004 OVC010 00/00 A3009 RMK AO2 TWR VIS 1 P0001 T00000000 $","updated":"2026-01-18T14:17:25Z"}
