{"icao":"LPMR","metar":"LPMR 110700Z 14007KT CAVOK 19/11 Q1021","updated":"2025-10-11T07:15:01Z"}
