{"icao":"LPBJ","metar":"LPBJ 050500Z 22021KT 9000 -DZ SCT006 BKN012 OVC025 15/14 Q0995","updated":"2026-02-05T05:54:17Z"}
