{"icao":"KLAX","metar":"KLAX 100953Z 11004KT 10SM CLR 08/01 A3040 RMK AO2 SLP292 T00780011 $","updated":"2026-01-10T10:19:56Z"}
