{"icao":"LPPD","metar":"LPPD 211100Z 28020KT 8000 SCT003 BKN005 16/16 Q1021","updated":"2026-01-21T11:22:42Z"}
