{"icao":"LPPR","metar":"LPPR 132130Z 19008KT 7000 -DZRA OVC004 12/11 Q1021","updated":"2026-04-13T21:47:46Z"}
