{"icao":"KORD","metar":"KORD 080951Z 03012KT 4SM -DZ BR BKN013 OVC021 07/06 A2978 RMK AO2 SLP086 P0000 T00670056 $","updated":"2025-11-08T10:17:00Z"}
