{"icao":"LPPT","metar":"LPPT 032330Z 30006KT 9999 FEW020 13/10 Q1016","updated":"2026-05-03T23:42:43Z"}
