{"icao":"LPFR","metar":"LPFR 092000Z 32009KT 9999 FEW012 12/09 Q1029","updated":"2026-01-09T20:23:09Z"}
