{"icao":"KJFK","metar":"KJFK 250651Z 33005KT 10SM FEW065 FEW100 09/03 A3027 RMK AO2 SLP248 T00890033","updated":"2025-10-25T07:16:31Z"}
