{"icao":"LPLA","metar":"LPLA 051900Z 20014G28KT 150V260 9999 FEW020 BKN030 16/11 Q1011","updated":"2026-04-05T19:32:38Z"}
