{"icao":"KJFK","metar":"KJFK 131351Z 27018G23KT 10SM FEW040 SCT070 BKN090 10/00 A2987 RMK AO2 PK WND 26028/1321 SLP115 T01000000","updated":"2025-11-13T14:19:12Z"}
