{"icao":"LPCS","metar":"LPCS 252030Z 01009KT CAVOK 20/05 Q1018","updated":"2025-09-25T22:14:09Z"}
