{"icao":"LPPD","metar":"LPPD 270130Z 29004KT 240V020 9999 FEW020 14/10 Q1033","updated":"2026-02-27T01:58:15Z"}
