{"icao":"LPFL","metar":"LPFL 041830Z 24019G32KT 200V310 9999 FEW010 21/16 Q1022","updated":"2026-06-05T00:05:34Z"}
