{"icao":"LPMT","metar":"LPMT 031900Z 33007KT 300V360 9999 FEW035 17/10 Q1014","updated":"2026-05-03T19:55:27Z"}
