{"icao":"KLAX","metar":"KLAX 301653Z 13004KT 10SM CLR 24/09 A2996 RMK AO2 SLP144 T02390094 $","updated":"2025-10-30T17:17:05Z"}
