{"icao":"KORD","metar":"KORD 231051Z 22005KT 10SM BKN250 03/M01 A2996 RMK AO2 SLP148 T00331011 $","updated":"2025-12-23T11:18:01Z"}
