{"icao":"LPPR","metar":"LPPR 101430Z 24010KT 210V270 6000 -DZ BKN002 BKN005 15/15 Q1011","updated":"2026-02-10T14:56:57Z"}
