{"icao":"KORD","metar":"KORD 080351Z 20009KT 10SM CLR 06/03 A2986 RMK AO2 SLP117 T00610033","updated":"2026-01-08T04:38:18Z"}
