{"icao":"LPCS","metar":"LPCS 192230Z 02012KT CAVOK 15/10 Q1015","updated":"2026-04-20T02:34:54Z"}
