{"icao":"KLAX","metar":"KLAX 211453Z 09007KT 10SM FEW017 SCT025 BKN160 BKN250 16/12 A3002 RMK AO2 SLP165 T01610117 53006 $","updated":"2026-04-21T15:11:34Z"}
