{"icao":"KORD","metar":"KORD 272251Z 05011KT 10SM BKN045 BKN075 BKN250 23/16 A2994 RMK AO2 SLP134 T02330156 $","updated":"2026-06-27T23:00:25Z"}
