{"icao":"KORD","metar":"KORD 122251Z 26006KT 10SM FEW021 BKN055 BKN080 OVC250 M03/M07 A3008 RMK AO2 SLP194 T10281072","updated":"2025-12-12T23:18:23Z"}
