{"icao":"KORD","metar":"KORD 032151Z 30013G21KT 10SM CLR 16/M07 A3015 RMK AO2 SLP210 T01561067 $","updated":"2025-11-03T22:18:03Z"}
