{"icao":"KORD","metar":"KORD 230351Z 17006KT 10SM FEW050 SCT250 22/17 A2985 RMK AO2 SLP103 T02220167","updated":"2025-09-23T04:20:57Z"}
