{"icao":"LPAR","metar":"LPAR 021000Z 06011KT 040V100 CAVOK 31/12 Q1017","updated":"2026-07-02T10:37:18Z"}
