{"icao":"LPCS","metar":"LPCS 141500Z 27009KT 240V310 1500 -DZ BR FEW002 BKN004 13/13 Q1017","updated":"2026-03-14T15:27:13Z"}
