{"icao":"LPLA","metar":"LPLA 042100Z 24003KT 9999 FEW023 BKN040 15/11 Q1022","updated":"2026-04-04T21:30:01Z"}
