{"icao":"LPPR","metar":"LPPR 250600Z 26006KT 210V330 8000 VCSH FEW020 FEW023CB SCT030 BKN049 13/11 Q1010","updated":"2026-01-25T06:30:09Z"}
