{"icao":"LPMR","metar":"LPMR 221000Z 04008KT 9999 FEW020 17/07 Q1022","updated":"2025-09-22T10:19:59Z"}
