{"icao":"LPPS","metar":"LPPS 270430Z 28017KT 6000 RADZ SCT010 SCT030 16/16 Q1014","updated":"2026-01-27T04:45:30Z"}
