{"icao":"LPOV","metar":"LPOV 131600Z 29015KT 2500 +SHRA BKN022 SCT026CB 13/10 Q1004","updated":"2026-02-13T16:43:49Z"}
