{"icao":"LPMT","metar":"LPMT 200200Z 08002KT CAVOK 11/10 Q1014","updated":"2026-04-20T02:34:55Z"}
