{"icao":"LPPR","metar":"LPPR 101800Z 36005KT CAVOK 21/10 Q1020","updated":"2025-10-10T18:25:09Z"}
