{"icao":"KJFK","metar":"KJFK 120951Z 33018G26KT 10SM SCT047 M01/M09 A2991 RMK AO2 PK WND 32029/0913 SLP128 T10061089 $","updated":"2026-02-12T10:43:51Z"}
