{"icao":"LPPT","metar":"LPPT 262300Z 01006KT CAVOK 18/13 Q1020","updated":"2025-10-26T23:16:05Z"}
