{"icao":"LPPT","metar":"LPPT 252000Z 32006KT 290V350 CAVOK 21/14 Q1021","updated":"2026-05-25T20:21:30Z"}
