{"icao":"LPHR","metar":"LPHR 051900Z 22014KT 9999 SCT015 BKN030 BKN070 20/16 Q1014","updated":"2025-11-05T19:14:37Z"}
