{"icao":"KLAX","metar":"KLAX 241753Z 26009KT 9SM FEW009 SCT017 21/15 A3002 RMK AO2 SLP163 SCT V BKN T02110150 10211 20167 54000 $","updated":"2026-06-24T18:50:04Z"}
