{"icao":"LPAZ","metar":"LPAZ 272100Z 26033G43KT 9000 FEW015 BKN018 17/15 Q1009","updated":"2026-01-27T21:17:02Z"}
