{"icao":"KLAX","metar":"KLAX 161453Z 04003KT 10SM CLR 14/08 A2995 RMK AO2 SLP139 T01440078 53000 $","updated":"2025-10-16T15:19:38Z"}
