{"icao":"LPPT","metar":"LPPT 291000Z 33006KT 310V010 CAVOK 21/15 Q1017","updated":"2025-09-29T10:19:55Z"}
