{"icao":"LPFL","metar":"LPFL 100930Z 20019G34KT 180V250 9999 FEW012 18/12 Q1005","updated":"2026-02-10T09:59:38Z"}
