{"icao":"LPPS","metar":"LPPS 021100Z 14006KT 110V170 9999 FEW014 23/19 Q1025","updated":"2025-11-02T11:12:59Z"}
