{"icao":"LPPR","metar":"LPPR 250930Z 25003KT 180V330 7000 SCT004 BKN006 18/17 Q1022","updated":"2026-05-25T10:02:02Z"}
