{"icao":"LPFR","metar":"LPFR 092300Z 36005KT CAVOK 15/09 Q1020","updated":"2025-11-09T23:15:45Z"}
