{"icao":"LPOV","metar":"LPOV 231400Z 23012KT 200V260 8000 -SHRA SCT020 FEW022CB BKN040 09/07 Q0997 RESHGSRA","updated":"2026-01-23T15:24:15Z"}
