{"icao":"LPPR","metar":"LPPR 011100Z 10012KT 9999 -RA SCT035 07/05 Q1013","updated":"2026-01-01T11:17:19Z"}
