{"icao":"LPOV","metar":"LPOV 260800Z VRB02KT 9999 MIFG NSC 07/07 Q1025","updated":"2026-02-26T08:47:09Z"}
