{"icao":"LPFL","metar":"LPFL 232100Z VRB02KT 9999 FEW024 SCT034 13/07 Q1026","updated":"2026-01-24T04:34:07Z"}
