{"icao":"LPFR","metar":"LPFR 082000Z 01005KT 330V030 CAVOK 17/09 Q1022","updated":"2025-11-08T20:17:25Z"}
