{"icao":"KORD","metar":"KORD 250951Z 34005KT 10SM FEW025 SCT050 14/13 A2995 RMK AO2 SLP141 T01440133 $","updated":"2025-09-25T10:19:09Z"}
