{"icao":"LPHR","metar":"LPHR 191230Z 06013G24KT 040V100 9999 FEW018 18/10 Q1027","updated":"2025-11-19T12:39:38Z"}
