{"icao":"LPPR","metar":"LPPR 071600Z 20021G31KT 5000 -RADZ BR SCT010 FEW015TCU SCT018 OVC030 12/10 Q0992","updated":"2026-02-07T16:28:55Z"}
