{"icao":"LPHR","metar":"LPHR 271530Z 20005KT 140V240 9999 SCT018 17/12 Q1035","updated":"2026-02-27T15:36:26Z"}
