{"icao":"LPCS","metar":"LPCS 042000Z 34009KT 9999 FEW028 14/09 Q1018","updated":"2026-05-04T21:58:38Z"}
