{"icao":"KLAX","metar":"KLAX 230453Z 32005KT 10SM FEW050 FEW100 19/05 A2994 RMK AO2 SLP138 T01890050","updated":"2025-11-23T05:17:46Z"}
