{"icao":"LPPS","metar":"LPPS 202100Z 30006KT 9000 SCT004 SCT030 22/21 Q1019 REDZ","updated":"2025-10-20T21:16:38Z"}
