{"icao":"LPOV","metar":"LPOV 210600Z 16016G26KT 7000 -RA FEW002 BKN006 BKN020 12/12 Q1004","updated":"2026-01-21T06:34:45Z"}
