{"icao":"LPPR","metar":"LPPR 110700Z 17021G31KT 9999 BKN018 16/13 Q1011","updated":"2025-11-11T07:18:20Z"}
