{"icao":"LPPD","metar":"LPPD 072000Z 23014KT 8000 -RA FEW006 SCT010 BKN040 16/15 Q1014","updated":"2026-02-07T20:25:07Z"}
