{"icao":"LPAZ","metar":"LPAZ 131730Z 31009KT 9999 FEW024 16/11 Q1031","updated":"2026-02-13T17:38:36Z"}
