{"icao":"LPFR","metar":"LPFR 130730Z 11014KT 9000 FEW015 22/18 Q1018","updated":"2026-06-13T07:44:40Z"}
