{"icao":"KLAX","metar":"KLAX 260053Z 27006KT 10SM BKN011 17/14 A2999 RMK AO2 SLP154 T01670139 $","updated":"2025-10-26T01:26:26Z"}
