{"icao":"KJFK","metar":"KJFK 200751Z 06006KT 10SM FEW050 SCT065 BKN250 02/00 A3000 RMK AO2 SLP157 T00220000 $","updated":"2026-02-20T08:38:37Z"}
