{"icao":"LPMR","metar":"LPMR 160800Z 04003KT 010V080 0300 FG VV002 14/14 Q1022","updated":"2025-09-16T08:23:46Z"}
