{"icao":"LPAZ","metar":"LPAZ 191330Z 28007KT 260V330 9999 FEW008 SCT038 18/15 Q1015","updated":"2026-04-19T14:02:31Z"}
