{"icao":"KLAX","metar":"KLAX 051253Z 10004KT 9SM CLR 16/14 A2981 RMK AO2 SLP091 T01610139 $","updated":"2025-10-05T13:20:34Z"}
