{"icao":"LPCS","metar":"LPCS 110930Z 36026G38KT 9999 VCSH FEW008 SCT013 15/12 Q1014 WS R35","updated":"2026-04-11T09:38:39Z"}
