{"icao":"LPMT","metar":"LPMT 042100Z 34009KT 9999 FEW045 15/09 Q1018","updated":"2026-05-04T21:58:40Z"}
