{"icao":"KJFK","metar":"KJFK 031651Z 32017G25KT 10SM FEW060 BKN075 BKN250 13/M05 A2987 RMK PK WND 32033/1625 SLP114 T01281050 ","updated":"2026-05-03T17:45:11Z"}
