{"icao":"KORD","metar":"KORD 271951Z 07011KT 10SM FEW030 SCT300 13/03 A3016 RMK AO2 SLP216 T01330033","updated":"2025-10-27T20:18:18Z"}
