{"icao":"LPOV","metar":"LPOV 082300Z 14005KT 2000 BR SCT004 14/14 Q1021","updated":"2025-10-08T23:15:30Z"}
