{"icao":"KJFK","metar":"KJFK 152151Z 11010KT 10SM BKN070 OVC090 02/M02 A3009 RMK AO2 SLP190 T00171022 $","updated":"2026-02-15T22:22:23Z"}
