{"icao":"KJFK","metar":"KJFK 141451Z 24011KT 10SM BKN050 BKN095 BKN250 00/M06 A3011 RMK AO2 SLP196 T00001061 58007 $","updated":"2026-02-14T15:24:02Z"}
