{"icao":"KJFK","metar":"KJFK 210551Z 29013KT 10SM CLR M07/M18 A3052 RMK SLP334 T10721183 11067 21072 50002 ","updated":"2026-01-21T06:35:22Z"}
