{"icao":"LPFL","metar":"LPFL 151400Z 12004KT 070V190 9999 FEW026 16/09 Q1028","updated":"2025-12-15T14:23:58Z"}
