{"icao":"LPAZ","metar":"LPAZ 011830Z 04011KT 010V070 9999 SCT019 BKN024 15/11 Q1029","updated":"2026-04-01T19:00:04Z"}
