{"icao":"LPMT","metar":"LPMT 191300Z 35006KT 320V020 9999 FEW030 SCT040 16/06 Q1017","updated":"2025-11-19T13:30:53Z"}
