{"icao":"LPPD","metar":"LPPD 260900Z 25035G49KT 4000 BR FEW009 BKN014 21/19 Q1003","updated":"2025-09-26T09:20:00Z"}
