{"icao":"KORD","metar":"KORD 091851Z 24007KT 10SM FEW085 BKN250 20/03 A3012 RMK AO2 SLP198 T02000033","updated":"2026-04-09T19:05:08Z"}
