{"icao":"KJFK","metar":"KJFK 091751Z 17010KT 10SM BKN015 BKN190 08/06 A3020 RMK AO2 SLP225 T00830056 10089 20028 58032 $","updated":"2026-01-09T18:30:51Z"}
