{"icao":"KLAX","metar":"KLAX 281153Z 09004KT 9SM FEW009 15/13 A2994 RMK AO2 SLP137 T01500133 10178 20150 58002 $","updated":"2025-10-28T12:37:56Z"}
