{"icao":"LPAZ","metar":"LPAZ 182300Z 03013KT 7000 SCT003 BKN005 15/14 Q1030","updated":"2026-01-18T23:18:53Z"}
