{"icao":"KORD","metar":"KORD 171951Z 20010G18KT 10SM BKN230 OVC350 22/11 A2982 RMK AO2 SLP095 T02220111","updated":"2025-10-17T20:20:02Z"}
