{"icao":"LPMR","metar":"LPMR 230800Z 16003KT 9999 FEW015 SCT025 07/06 Q1027","updated":"2025-11-23T08:22:32Z"}
