{"icao":"LPPT","metar":"LPPT 210600Z 35010KT 320V030 9999 FEW020 16/12 Q1020","updated":"2025-09-21T06:24:26Z"}
