{"icao":"LPLA","metar":"LPLA 241000Z 36007KT 9999 BKN025 13/08 Q1028","updated":"2026-03-24T10:51:14Z"}
