{"icao":"KORD","metar":"KORD 262151Z 19007KT 10SM FEW030 BKN055 BKN250 04/M07 A2986 RMK AO2 SLP118 T00441072","updated":"2026-02-26T22:32:07Z"}
