{"icao":"LPAZ","metar":"LPAZ 312300Z 22016KT 6000 FEW003 BKN007 17/17 Q1017","updated":"2026-01-31T23:21:07Z"}
