{"icao":"LPPT","metar":"LPPT 202100Z 35016KT CAVOK 11/05 Q1023","updated":"2025-11-20T21:17:10Z"}
