{"icao":"KJFK","metar":"KJFK 041951Z 11022G37KT 10SM BKN037 BKN150 OVC250 12/06 A3023 RMK AO2 PK WND 11039/1852 SLP236 T01220061","updated":"2026-04-04T20:30:18Z"}
