{"icao":"LPOV","metar":"LPOV 011200Z 26004KT 220V300 CAVOK 16/10 Q1022","updated":"2026-03-01T12:45:25Z"}
