{"icao":"KJFK","metar":"KJFK 171551Z 24008KT 10SM BKN050 OVC250 01/M03 A2995 RMK AO2 SLP141 T00111028 $","updated":"2025-12-17T16:27:14Z"}
