{"icao":"LPPS","metar":"LPPS 152330Z 05008KT 9999 SCT015 BKN030 15/11 Q1024","updated":"2026-04-15T23:40:28Z"}
