{"icao":"LPPS","metar":"LPPS 240900Z 01011KT 9999 SCT015 BKN030 21/13 Q1021","updated":"2025-09-24T09:18:54Z"}
