{"icao":"KLAX","metar":"KLAX 030453Z 33003KT 8SM FEW007 15/14 A3014 RMK AO2 SLP206 T01500139 $","updated":"2026-02-03T05:50:43Z"}
