{"icao":"LPCS","metar":"LPCS 042100Z 35016KT 9999 FEW010 SCT016 13/12 Q1006","updated":"2026-01-05T03:54:18Z"}
