{"icao":"KJFK","metar":"KJFK 070951Z 00000KT 7SM BKN006 OVC009 03/02 A3033 RMK AO2 SLP269 T00280017","updated":"2026-03-07T10:22:48Z"}
