{"icao":"LPHR","metar":"LPHR 081000Z 23013KT 9000 VCSH SCT005 BKN010 BKN025 17/16 Q1029","updated":"2026-01-08T10:23:15Z"}
