{"icao":"LPPR","metar":"LPPR 282100Z 03016KT CAVOK 16/06 Q1027","updated":"2026-03-28T21:28:15Z"}
