{"icao":"LPFR","metar":"LPFR 021000Z 34013KT 300V360 CAVOK 26/15 Q1019","updated":"2026-06-02T10:20:39Z"}
