{"icao":"LPLA","metar":"LPLA 010600Z 14005KT 100V170 9999 SCT015 21/19 Q1020","updated":"2025-10-01T06:27:02Z"}
