{"icao":"LPPD","metar":"LPPD 302000Z 28012KT 9999 SCT018 FEW020TCU 19/14 Q1008","updated":"2025-10-30T20:20:10Z"}
