{"icao":"KORD","metar":"KORD 280451Z 30010G18KT 10SM FEW036 M03/M10 A3026 RMK AO2 SLP255 T10331100","updated":"2025-11-28T05:19:33Z"}
