{"icao":"LPHR","metar":"LPHR 261800Z 04011KT 9000 -SHRA SCT016 FEW020TCU BKN035 18/13 Q1023","updated":"2025-10-26T18:23:51Z"}
