{"icao":"LPPT","metar":"LPPT 281030Z VRB06KT 9999 FEW015 21/15 Q1009","updated":"2026-04-28T11:04:05Z"}
