{"icao":"LPBJ","metar":"LPBJ 151000Z 32004KT 290V360 CAVOK 24/15 Q1021","updated":"2025-09-15T10:18:30Z"}
