{"icao":"LPMA","metar":"LPMA 100400Z 35010KT 280V020 9999 BKN015 21/16 Q1022","updated":"2025-10-10T04:21:28Z"}
