{"icao":"LPHR","metar":"LPHR 092300Z 31007KT 9999 FEW024 BKN035 16/14 Q1033","updated":"2026-04-10T02:27:44Z"}
