{"icao":"KORD","metar":"KORD 152251Z 24008KT 10SM SCT075 BKN250 24/07 A2984 RMK AO2 SLP103 T02440067","updated":"2026-06-15T23:43:57Z"}
