{"icao":"LPAZ","metar":"LPAZ 041400Z 02011KT 350V070 9999 FEW022 BKN028 16/11 Q1020","updated":"2026-01-04T14:17:30Z"}
