{"icao":"LPPD","metar":"LPPD 151230Z 20014KT 9999 FEW018 BKN039 16/13 Q1031","updated":"2026-02-15T12:48:30Z"}
