{"icao":"LPFL","metar":"LPFL 071400Z 35011KT 320V020 9999 FEW027 BKN038 14/07 Q1023","updated":"2026-03-07T14:23:12Z"}
