{"icao":"LPPS","metar":"LPPS 040400Z 03003KT 350V060 9999 SCT015 15/10 Q1027","updated":"2025-12-04T04:29:37Z"}
