{"icao":"LPBJ","metar":"LPBJ 191200Z 16008KT 100V220 CAVOK 25/09 Q1016","updated":"2026-04-19T12:59:28Z"}
