{"icao":"LPPR","metar":"LPPR 220630Z 09004KT 360V140 CAVOK 06/05 Q1028","updated":"2026-02-22T06:45:29Z"}
