{"icao":"LPAR","metar":"LPAR 130900Z VRB02KT 9999 SCT020 12/10 Q1008","updated":"2026-01-13T09:26:47Z"}
