{"icao":"LPPD","metar":"LPPD 261400Z 02024G34KT 350V050 3000 SHRA FEW020 SCT030 18/13 Q1020","updated":"2025-10-26T14:14:58Z"}
