{"icao":"LPPD","metar":"LPPD 141700Z 26017KT 9999 FEW015 17/11 Q1020","updated":"2026-04-14T17:05:08Z"}
