{"icao":"LPHR","metar":"LPHR 181430Z 36022KT 9999 FEW011 FEW013CB SCT020 BKN040 10/05 Q1015","updated":"2026-03-18T15:01:10Z"}
