{"icao":"KJFK","metar":"KJFK 180051Z 10006KT 10SM -RA FEW014 OVC032 20/16 A3003 RMK AO2 SLP168 P0000 T02000161 $","updated":"2025-09-18T01:16:41Z"}
