{"icao":"LPOV","metar":"LPOV 271300Z 26004KT 220V310 4000 -DZ BR BKN006 BKN015 13/13 Q1025","updated":"2026-02-27T14:00:51Z"}
