{"icao":"LPAZ","metar":"LPAZ 092000Z 33008KT 9999 FEW020 17/14 Q1024","updated":"2025-11-09T20:17:52Z"}
