{"icao":"KORD","metar":"KORD 041751Z 19004KT 10SM BKN250 M01/M12 A3016 RMK AO2 SLP222 T10111122 11011 21061 58010 $","updated":"2026-01-04T18:27:43Z"}
