{"icao":"KJFK","metar":"KJFK 051151Z 00000KT 10SM FEW250 17/16 A3029 RMK AO2 SLP256 T01720156 10200 20156 53016","updated":"2025-10-05T12:32:15Z"}
