{"icao":"KLAX","metar":"KLAX 230253Z 30008KT 10SM FEW015 BKN060 BKN150 BKN220 16/13 A2996 RMK AO2 SLP143 T01560128 50002 $","updated":"2026-01-23T03:41:00Z"}
