{"icao":"KJFK","metar":"KJFK 101751Z 18007KT 10SM BKN048 16/04 A3045 RMK AO2 SLP310 T01610039 10167 20083 58022","updated":"2025-10-10T18:25:26Z"}
