{"icao":"LPBJ","metar":"LPBJ 142100Z 27005KT CAVOK 20/10 Q1017","updated":"2025-10-14T21:15:05Z"}
