{"icao":"LPAZ","metar":"LPAZ 281830Z 06009KT 010V110 9999 BKN020 15/10 Q1032","updated":"2026-03-28T18:39:01Z"}
