{"icao":"LPLA","metar":"LPLA 242300Z 36005KT 330V060 9999 SCT016 SCT030 20/17 Q1018","updated":"2025-10-24T23:16:00Z"}
