{"icao":"LPAZ","metar":"LPAZ 020430Z 08006KT 030V120 9999 FEW004 SCT008 BKN018 13/12 Q1028","updated":"2026-04-02T05:01:17Z"}
