{"icao":"LPFL","metar":"LPFL 121800Z 19014KT 140V240 9999 FEW019 BKN029 17/10 Q1028","updated":"2025-12-13T07:20:18Z"}
