{"icao":"LPST","metar":"LPST 221200Z 34008KT 300V010 CAVOK 25/18 Q1017","updated":"2026-06-22T12:48:36Z"}
