{"icao":"KORD","metar":"KORD 080609Z 35007KT 10SM BKN023 BKN043 OVC050 09/05 A2974 RMK AO2 T00890050 $","updated":"2025-11-08T06:25:35Z"}
