{"icao":"KJFK","metar":"KJFK 070951Z 01003KT 1/4SM R04R/2200V4000FT FG VV002 03/03 A2964 RMK AO2 SFC VIS 1/2 SLP038 T00330033 $","updated":"2026-01-07T10:23:29Z"}
