{"icao":"KLAX","metar":"KLAX 302010Z 24009KT 8SM SCT020 BKN220 BKN270 17/12 A2998 RMK AO2 T01670117 $","updated":"2025-11-30T20:20:28Z"}
