{"icao":"LPPD","metar":"LPPD 271300Z 03010KT 350V080 9999 FEW025 21/11 Q1026","updated":"2025-09-27T13:19:54Z"}
