{"icao":"LPFR","metar":"LPFR 171430Z 12009KT CAVOK 24/12 Q1016","updated":"2026-04-17T14:53:55Z"}
