{"icao":"KORD","metar":"KORD 040151Z 01011KT 10SM SCT026 M06/M11 A3029 RMK AO2 SLP268 T10561111","updated":"2026-02-04T01:57:53Z"}
