{"icao":"LPBJ","metar":"LPBJ 041300Z 14012KT 9999 FEW035 21/14 Q1017","updated":"2025-11-04T13:32:33Z"}
