{"icao":"LPBJ","metar":"LPBJ 310700Z 17009KT 9999 FEW048 16/14 Q1015","updated":"2025-10-31T07:16:51Z"}
