{"icao":"LPPD","metar":"LPPD 011900Z 07007KT 030V100 9999 FEW025 SCT045 17/08 Q1021","updated":"2025-11-01T19:12:34Z"}
