{"icao":"LPAR","metar":"LPAR 091700Z 33012KT 280V020 9999 SCT030 12/04 Q1022","updated":"2026-03-09T17:53:28Z"}
