{"icao":"LPPT","metar":"LPPT 282130Z 32008KT 9999 SCT007 SCT016 15/14 Q1009","updated":"2026-04-28T21:56:16Z"}
