{"icao":"LPAR","metar":"LPAR 021100Z 05004KT 010V160 CAVOK 22/09 Q1021","updated":"2026-04-04T18:40:13Z"}
