{"icao":"KLAX","metar":"KLAX 171353Z 05004KT 10SM FEW200 FEW250 17/12 A2991 RMK AO2 SLP128 T01720117 $","updated":"2026-03-17T14:55:00Z"}
