{"icao":"LPFL","metar":"LPFL 101500Z 32023G36KT 300V360 8000 -DZ SCT014 FEW015CB 15/12 Q1007","updated":"2025-12-10T15:23:40Z"}
