{"icao":"KORD","metar":"KORD 031951Z 23005KT 10SM BKN065 OVC085 M04/M15 A3004 RMK AO2 SLP180 T10391150 $","updated":"2026-01-03T20:21:10Z"}
