{"icao":"LPPT","metar":"LPPT 161530Z 33015KT 290V010 9999 FEW045 19/09 Q1017","updated":"2026-05-16T15:57:03Z"}
