{"icao":"KORD","metar":"KORD 071151Z 33009KT 10SM FEW030 M11/M18 A3037 RMK AO2 SLP296 4/001 T11111183 11072 21111 51020 $","updated":"2026-02-07T12:45:52Z"}
