{"icao":"KLAX","metar":"KLAX 271053Z 04007KT 10SM FEW250 13/M06 A3023 RMK AO2 SLP234 T01331061 $","updated":"2026-01-27T11:21:52Z"}
