{"icao":"LPBJ","metar":"LPBJ 270300Z 14008KT CAVOK 20/10 Q1020","updated":"2026-05-27T03:39:24Z"}
