{"icao":"LPPD","metar":"LPPD 131500Z 06005KT 030V110 9999 FEW016 BKN030 20/16 Q1015","updated":"2025-10-13T15:18:34Z"}
