{"icao":"LPFR","metar":"LPFR 182130Z 29006KT 280V340 CAVOK 17/10 Q1021","updated":"2026-05-18T22:02:25Z"}
