{"icao":"LPMA","metar":"LPMA 130800Z 01024G39KT 340V050 9999 -SHRA BKN015 FEW018CB 13/08 Q1020","updated":"2025-12-13T08:24:08Z"}
