{"icao":"LPFR","metar":"LPFR 062230Z 30010KT CAVOK 16/09 Q1010","updated":"2026-05-06T22:52:07Z"}
