{"icao":"LPMA","metar":"LPMA 151330Z 34012KT 290V080 9999 SCT013 BKN023 18/13 Q1021","updated":"2026-03-15T13:46:25Z"}
