{"icao":"LPMR","metar":"LPMR 202100Z 21004KT 8000 -SHRA FEW009 SCT018 BKN030 10/09 Q1010","updated":"2025-12-20T21:15:30Z"}
