{"icao":"KJFK","metar":"KJFK 051951Z 35008KT 10SM FEW250 00/M12 A2999 RMK AO2 SLP153 T00001122 PNO $","updated":"2026-02-05T20:32:38Z"}
