{"icao":"LPOV","metar":"LPOV 152300Z VRB03KT 0600 FG OVC002 15/14 Q1017","updated":"2025-10-15T23:15:31Z"}
