{"icao":"KJFK","metar":"KJFK 300751Z 06004KT 10SM SCT043 BKN120 BKN150 BKN210 02/M05 A3046 RMK AO2 SLP313 T00171050 $","updated":"2025-11-30T08:22:39Z"}
