{"icao":"KLAX","metar":"KLAX 071753Z 26008KT 9SM OVC016 19/15 A2991 RMK AO2 SLP125 T01940150 10194 20172 51011 $","updated":"2025-10-07T18:26:38Z"}
