{"icao":"LPCS","metar":"LPCS 112030Z 01011KT CAVOK 22/12 Q1018","updated":"2025-10-11T23:15:29Z"}
