{"icao":"LPAZ","metar":"LPAZ 262300Z 04014KT 010V120 9999 SCT011 FEW025TCU 18/15 Q1017","updated":"2025-10-26T23:16:09Z"}
