{"icao":"LPPT","metar":"LPPT 261230Z 05007KT 350V120 9999 FEW035 26/14 Q1016","updated":"2026-04-26T13:03:59Z"}
