{"icao":"KORD","metar":"KORD 200551Z 00000KT 10SM FEW070 BKN150 BKN250 22/18 A3001 RMK AO2 SLP158 T02220178 10272 20222 403170194 50001","updated":"2025-09-20T06:23:53Z"}
