{"icao":"LPCS","metar":"LPCS 021030Z 10007KT 070V160 CAVOK 35/11 Q1017","updated":"2026-07-02T10:37:02Z"}
