{"icao":"LPAZ","metar":"LPAZ 102130Z 21023KT 9999 SCT008 BKN018 19/17 Q1018","updated":"2025-12-11T07:22:58Z"}
