{"icao":"LPMR","metar":"LPMR 140100Z 20005KT 7000 FEW022 10/10 Q1014","updated":"2026-01-14T01:47:02Z"}
