{"icao":"KJFK","metar":"KJFK 080051Z 26014KT 10SM BKN043 BKN150 05/M04 A3006 RMK AO2 SLP179 T00501039 $","updated":"2025-12-08T01:27:01Z"}
