{"icao":"LPMA","metar":"LPMA 162230Z 01009KT 330V050 9999 SCT016 17/12 Q1024","updated":"2026-05-16T22:42:18Z"}
