{"icao":"LPPD","metar":"LPPD 150200Z 21013KT 9999 FEW020 BKN035 16/11 Q1031","updated":"2026-02-15T02:07:46Z"}
