{"icao":"LPCS","metar":"LPCS 261230Z 01010KT 340V050 9999 FEW010 25/16 Q1016","updated":"2026-04-26T13:04:01Z"}
