{"icao":"LPCS","metar":"LPCS 120730Z 26004KT 240V310 9000 FEW010 SCT022 13/12 Q1020","updated":"2026-02-12T07:50:50Z"}
