{"icao":"LPPR","metar":"LPPR 081500Z 36007KT 9999 SCT048 14/11 Q1019","updated":"2026-04-08T15:08:18Z"}
