{"icao":"LPPT","metar":"LPPT 071800Z 27016G31KT 240V310 9999 -SHRA FEW015 SCT025 FEW030CB 12/09 Q1005 WS R20","updated":"2026-02-07T18:33:52Z"}
