{"icao":"LPST","metar":"LPST 021000Z 11007KT CAVOK 32/10 Q1017","updated":"2026-07-02T10:37:03Z"}
