{"icao":"LPFR","metar":"LPFR 131430Z 32013KT 9999 FEW030 18/08 Q1021","updated":"2026-04-13T14:46:48Z"}
