{"icao":"LPMT","metar":"LPMT 220000Z 32004KT CAVOK 23/15 Q1017","updated":"2026-06-22T00:10:33Z"}
