{"icao":"LPPD","metar":"LPPD 310500Z 27013KT 9999 FEW018 19/14 Q1007","updated":"2025-10-31T05:19:07Z"}
