{"icao":"KJFK","metar":"KJFK 041751Z 19014KT 10SM FEW070 19/07 A2988 RMK SLP117 T01890067 ","updated":"2026-05-04T18:13:22Z"}
