{"icao":"LPPT","metar":"LPPT 132330Z 35006KT 290V020 9999 SCT014 14/12 Q1019","updated":"2026-05-13T23:56:35Z"}
