{"icao":"KORD","metar":"KORD 241751Z 27009KT 10SM FEW030 SCT130 BKN160 OVC250 21/13 A2970 RMK AO2 SLP055 T02060128 10217 20194 51013","updated":"2026-04-24T18:50:28Z"}
