{"icao":"LPMR","metar":"LPMR 292000Z 34006KT 9999 FEW012 BKN042 17/15 Q1012","updated":"2025-10-29T20:20:46Z"}
