{"icao":"KJFK","metar":"KJFK 022051Z 15009KT 10SM FEW055 BKN250 17/07 A3045 RMK AO2 SLP311 T01670067 55003","updated":"2025-10-02T21:15:08Z"}
