{"icao":"LPBJ","metar":"LPBJ 051800Z 32012KT CAVOK 20/06 Q1014","updated":"2026-05-05T18:09:32Z"}
