{"icao":"LPFR","metar":"LPFR 151030Z 19007KT CAVOK 21/12 Q1023","updated":"2026-04-15T10:57:36Z"}
