{"icao":"LPPD","metar":"LPPD 180600Z 33003KT 280V030 9999 FEW014 15/14 Q1024","updated":"2025-11-18T06:28:07Z"}
