{"icao":"LPAZ","metar":"LPAZ 161100Z 20007KT 160V220 9999 FEW020 25/19 Q1024","updated":"2025-09-16T11:14:18Z"}
