{"icao":"LPST","metar":"LPST 120800Z 18010KT 9999 SCT014 BKN022 12/10 Q1020","updated":"2026-01-12T10:24:05Z"}
