{"icao":"LPMT","metar":"LPMT 180300Z 04002KT CAVOK 10/10 Q1018","updated":"2025-11-18T03:11:11Z"}
