{"icao":"LPFR","metar":"LPFR 290700Z 31003KT 9999 FEW022 16/15 Q1015","updated":"2025-09-29T07:17:58Z"}
