{"icao":"LPMA","metar":"LPMA 041500Z 20018KT 9999 SCT013 23/21 Q1013","updated":"2025-11-04T15:20:54Z"}
