{"icao":"KORD","metar":"KORD 101251Z 20008KT 10SM BKN130 BKN250 12/04 A3022 RMK AO2 SLP233 T01220044","updated":"2025-10-10T13:26:40Z"}
