{"icao":"KJFK","metar":"KJFK 091651Z 15011KT 10SM FEW021 SCT250 08/01 A3061 RMK AO2 SLP365 T00780006","updated":"2026-04-09T17:06:22Z"}
