{"icao":"LPPT","metar":"LPPT 241500Z 31006KT 260V360 9999 BKN034 21/13 Q1017","updated":"2026-04-24T15:06:34Z"}
