{"icao":"LPFL","metar":"LPFL 100830Z 20017G28KT 170V240 9999 FEW012 18/13 Q1005","updated":"2026-02-10T08:54:17Z"}
