{"icao":"LPMT","metar":"LPMT 162300Z VRB01KT CAVOK 14/11 Q1014","updated":"2025-10-16T23:14:55Z"}
