{"icao":"LPFL","metar":"LPFL 241230Z 18017G27KT 9999 FEW005 BKN008 17/16 Q1019","updated":"2025-12-24T12:40:18Z"}
