{"icao":"LPMR","metar":"LPMR 191800Z 23008KT 190V280 6000 -DZ BKN007 OVC015 20/19 Q1013","updated":"2025-10-19T18:22:42Z"}
