{"icao":"KJFK","metar":"KJFK 112051Z 18017G23KT 10SM FEW008 SCT110 BKN140 BKN250 11/08 A2978 RMK AO2 SLP085 T01060083 56029","updated":"2026-03-11T21:32:14Z"}
