{"icao":"LPFR","metar":"LPFR 120100Z 09008KT CAVOK 20/14 Q1016","updated":"2025-10-12T01:21:47Z"}
