{"icao":"LPMA","metar":"LPMA 022300Z 33006KT 300V010 9999 SCT015 15/07 Q1015","updated":"2026-02-02T23:27:39Z"}
