{"icao":"LPAR","metar":"LPAR 051000Z 35007KT 9999 FEW018 OVC022 14/10 Q1017","updated":"2026-03-05T10:37:35Z"}
