{"icao":"LPBJ","metar":"LPBJ 250400Z 30005KT 5000 1500N BCFG SCT003 04/04 Q1009","updated":"2025-12-25T04:36:52Z"}
