{"icao":"KORD","metar":"KORD 261151Z 19004KT 1SM R10L/P6000FT -DZ BR OVC002 04/04 A2968 RMK AO2 SLP055 P0000 60000 T00440039 10050 20044 56027 $","updated":"2025-12-26T12:39:39Z"}
