{"icao":"KORD","metar":"KORD 121351Z 13006KT 10SM FEW029 FEW250 13/08 A3005 RMK AO2 SLP175 T01280083 $","updated":"2025-10-12T14:14:15Z"}
