{"icao":"LPPS","metar":"LPPS 090800Z 35003KT 330V060 9000 -RA SCT008 BKN025 13/13 Q1033 RERA","updated":"2026-01-09T08:29:53Z"}
