{"icao":"LPMA","metar":"LPMA 010400Z 22014KT 9999 SCT015 21/16 Q1015","updated":"2025-11-01T04:19:04Z"}
