{"icao":"LPAZ","metar":"LPAZ 080100Z 10005KT 9999 FEW018 19/18 Q1026","updated":"2025-10-08T01:17:58Z"}
