{"icao":"LPCS","metar":"LPCS 162030Z 36014KT CAVOK 15/08 Q1020","updated":"2026-04-16T20:46:34Z"}
