{"icao":"LPMT","metar":"LPMT 160500Z 03006KT CAVOK 10/10 Q1019","updated":"2026-03-16T05:13:17Z"}
