{"icao":"LPPT","metar":"LPPT 261900Z 24008KT CAVOK 29/07 Q1019","updated":"2026-05-26T19:20:22Z"}
