{"icao":"LPPD","metar":"LPPD 211700Z 23011KT 7000 FEW004 SCT008 BKN012 23/22 Q1015","updated":"2025-10-21T17:16:48Z"}
