{"icao":"LPMA","metar":"LPMA 272100Z 32008KT 260V010 9999 SCT016 FEW018TCU 16/06 Q1017","updated":"2025-12-27T21:17:10Z"}
