{"icao":"KORD","metar":"KORD 312106Z 05012KT 10SM BKN025 OVC031 09/06 A2980 RMK AO2 PK WND 01028/2056 WSHFT 2052 T00940056","updated":"2026-03-31T21:38:03Z"}
