{"icao":"LPPR","metar":"LPPR 080900Z 12006KT 100V200 9999 FEW023 13/11 Q1022","updated":"2025-11-08T09:16:37Z"}
