{"icao":"LPCS","metar":"LPCS 031300Z 02010KT 9999 FEW015 24/13 Q1022","updated":"2025-10-03T13:24:24Z"}
