{"icao":"LPPS","metar":"LPPS 130730Z 05005KT 010V070 9999 FEW015 BKN030 15/07 Q1026","updated":"2026-04-13T08:01:19Z"}
