{"icao":"LPPS","metar":"LPPS 260900Z 07010KT 040V100 9999 FEW015 19/12 Q1024","updated":"2025-11-26T09:22:06Z"}
