{"icao":"LPHR","metar":"LPHR 050930Z 21018KT 9999 FEW014 BKN030 16/11 Q1018","updated":"2026-04-05T09:37:26Z"}
