{"icao":"KORD","metar":"KORD 232151Z 05013KT 10SM BKN017 BKN025 OVC250 22/17 A2995 RMK AO2 SLP138 T02170172","updated":"2025-09-23T22:15:48Z"}
