{"icao":"LPMA","metar":"LPMA 280230Z 35013KT 310V010 9999 SCT015 FEW018CB 16/09 Q1016","updated":"2026-04-28T02:47:24Z"}
