{"icao":"LPFR","metar":"LPFR 082200Z 05003KT 9999 BKN028 11/08 Q1032","updated":"2026-01-08T22:20:11Z"}
