{"icao":"LPCS","metar":"LPCS 301100Z 20010KT 9999 FEW016 SCT030 20/14 Q1014","updated":"2025-10-30T11:15:28Z"}
