{"icao":"LPMR","metar":"LPMR 201700Z 32004KT 300V360 CAVOK 21/11 Q1009","updated":"2026-04-20T17:56:18Z"}
