{"icao":"LPPS","metar":"LPPS 172030Z 31004KT 280V360 9999 FEW015 SCT030 15/12 Q1026","updated":"2026-02-17T20:36:26Z"}
