{"icao":"LPAZ","metar":"LPAZ 102200Z 20003KT 9999 FEW008 SCT010 BKN040 20/19 Q1022","updated":"2025-10-10T22:15:23Z"}
