{"icao":"KORD","metar":"KORD 161705Z 25011KT 10SM TS BKN021 BKN042CB BKN080 21/16 A2977 RMK AO2 TSE03B05 OCNL LTGICCG NE TS NE MOV E T02060156 $","updated":"2026-04-16T17:12:56Z"}
