{"icao":"KJFK","metar":"KJFK 061651Z 24003KT 10SM FEW085 BKN130 BKN180 BKN250 M01/M09 A2972 RMK AO2 SLP062 T10061094 $","updated":"2026-02-06T17:40:26Z"}
