{"icao":"KORD","metar":"KORD 182051Z 28019G27KT 10SM BKN048 BKN250 09/M02 A2991 RMK AO2 PK WND 29034/2009 SLP130 T00941017 51008 $","updated":"2026-04-18T21:33:38Z"}
