{"icao":"LPPS","metar":"LPPS 151300Z 04011KT 360V070 9999 FEW015 BKN030 23/15 Q1021","updated":"2026-06-15T13:11:26Z"}
