{"icao":"LPST","metar":"LPST 221600Z 23014KT 2500 RA BR BKN010 SCT012CB 13/12 Q1004","updated":"2026-01-22T16:34:36Z"}
