{"icao":"KORD","metar":"KORD 220751Z 35006KT 10SM FEW250 01/M03 A3002 RMK AO2 SLP169 T00111028","updated":"2025-11-22T08:22:38Z"}
