{"icao":"LPPD","metar":"LPPD 231600Z 25006KT 220V280 9999 FEW012 BKN040 18/17 Q1025","updated":"2026-05-23T16:07:17Z"}
