{"icao":"KJFK","metar":"KJFK 210351Z 19008KT 10SM SCT026 BKN045 OVC060 07/04 A2980 RMK AO2 RAE22 SLP089 P0000 T00670044","updated":"2026-03-21T04:05:15Z"}
