{"icao":"LPMT","metar":"LPMT 031800Z 34006KT 310V010 CAVOK 23/14 Q1021","updated":"2025-10-03T18:24:18Z"}
