{"icao":"LPOV","metar":"LPOV 060900Z 26004KT 200V320 9999 FEW014 BKN030 15/11 Q1016","updated":"2025-11-06T09:20:08Z"}
