{"icao":"LPMA","metar":"LPMA 082330Z 27006KT 250V310 9999 FEW015 17/10 Q1010","updated":"2026-05-08T23:55:04Z"}
