{"icao":"LPMA","metar":"LPMA 061500Z 02014KT 350V050 9999 BKN015 FEW018TCU 16/06 Q1027","updated":"2026-01-06T15:22:01Z"}
