{"icao":"LPBJ","metar":"LPBJ 150400Z 31001KT CAVOK 17/10 Q1016","updated":"2025-10-15T04:20:59Z"}
