{"icao":"LPHR","metar":"LPHR 081700Z 24024KT 8000 FEW005 BKN008 18/17 Q1009","updated":"2026-02-08T17:25:32Z"}
