{"icao":"KORD","metar":"KORD 010804Z 04013G19KT 10SM SCT028 M03/M09 A3033 RMK AO2 T10331094 $","updated":"2026-03-01T08:29:17Z"}
