{"icao":"LPAR","metar":"LPAR 031100Z 14005KT 090V170 CAVOK 23/15 Q1023","updated":"2025-10-03T11:13:57Z"}
