{"icao":"LPPS","metar":"LPPS 161500Z 36010KT 320V030 9999 FEW015 SCT030 23/16 Q1021","updated":"2026-06-16T15:09:01Z"}
