{"icao":"LPPT","metar":"LPPT 010900Z 23007KT 3500 -DZ BR FEW002 BKN003 15/15 Q1014","updated":"2026-02-01T09:29:15Z"}
