{"icao":"LPFR","metar":"LPFR 082000Z 03006KT 9999 FEW020 BKN030 11/08 Q1033","updated":"2026-01-08T20:23:49Z"}
