{"icao":"KJFK","metar":"KJFK 231651Z 26019G27KT 10SM SCT200 BKN250 03/M13 A3015 RMK AO2 PK WND 25029/1601 SLP208 T00281128 $","updated":"2026-01-23T17:25:11Z"}
