{"icao":"LPMA","metar":"LPMA 032200Z 36023G39KT 290V020 9999 BKN015 FEW018CB 15/09 Q1016","updated":"2026-03-03T22:27:48Z"}
