{"icao":"LPPR","metar":"LPPR 271830Z 34004KT CAVOK 16/11 Q1018","updated":"2026-03-27T18:54:10Z"}
