{"icao":"KJFK","metar":"KJFK 290351Z 03017G23KT 10SM SCT032 BKN041 OVC050 11/05 A3019 RMK AO2 PK WND 04027/0334 CIG 033 W SLP223 T01060050","updated":"2025-10-29T04:25:20Z"}
