{"icao":"LPAZ","metar":"LPAZ 092000Z 20016KT 9999 -SHRA FEW005 SCT012 BKN040 16/15 Q1029","updated":"2026-01-09T20:23:13Z"}
