{"icao":"KJFK","metar":"KJFK 111751Z 29011KT 10SM FEW040 BKN100 BKN200 08/M02 A2975 RMK AO2 SLP073 T00781022 10083 20050 58023","updated":"2026-01-11T18:27:48Z"}
