{"icao":"LPFL","metar":"LPFL 281700Z 26010G28KT 190V320 6000 -RA BKN012 FEW015TCU 17/13 Q1002","updated":"2026-01-28T17:30:45Z"}
