{"icao":"LPAZ","metar":"LPAZ 111030Z 04010KT 360V060 9999 -SHRA FEW007 SCT014 FEW024TCU 15/13 Q1018","updated":"2026-05-11T10:37:12Z"}
