{"icao":"LPFL","metar":"LPFL 101900Z 31014G25KT 240V350 9999 SCT022 FEW023TCU 18/12 Q1008","updated":"2025-11-10T19:15:21Z"}
