{"icao":"LPBJ","metar":"LPBJ 301500Z 09007KT 030V120 CAVOK 29/11 Q1017","updated":"2025-09-30T15:16:41Z"}
