{"icao":"LPMA","metar":"LPMA 242100Z 01006KT 330V050 9999 FEW015 18/13 Q1025","updated":"2025-11-24T21:17:52Z"}
