{"icao":"LPMR","metar":"LPMR 251200Z 04003KT CAVOK 10/05 Q1010","updated":"2025-12-25T12:39:20Z"}
