{"icao":"LPAZ","metar":"LPAZ 060900Z 30026KT 9999 SCT032 12/06 Q1015","updated":"2026-04-06T09:07:08Z"}
