{"icao":"KORD","metar":"KORD 061851Z 30015G23KT 10SM BKN049 09/M02 A3022 RMK AO2 SLP237 T00891017 $","updated":"2026-04-06T18:57:38Z"}
