{"icao":"KLAX","metar":"KLAX 180853Z 13006KT 3SM BR FEW001 FEW004 14/13 A2994 RMK AO2 SLP139 VIS N 2 1/2 T01390128 56008 $","updated":"2025-12-18T09:26:05Z"}
