{"icao":"LPOV","metar":"LPOV 040500Z 09002KT 060V130 CAVOK 10/09 Q1014","updated":"2026-03-04T05:42:13Z"}
