{"icao":"LPFR","metar":"LPFR 080500Z VRB02KT CAVOK 13/12 Q1019","updated":"2025-11-08T05:16:40Z"}
