{"icao":"LPPT","metar":"LPPT 040530Z VRB02KT CAVOK 13/05 Q1021","updated":"2026-04-04T05:55:30Z"}
