{"icao":"LPPS","metar":"LPPS 011600Z 25009KT 210V300 9999 BKN010 17/15 Q1000","updated":"2026-01-01T16:25:40Z"}
