{"icao":"KLAX","metar":"KLAX 181153Z 06004KT 9SM BKN022 BKN050 16/12 A2983 RMK AO2 SLP099 T01610122 10167 20144 53005","updated":"2026-05-18T12:28:24Z"}
