{"icao":"KLAX","metar":"KLAX 012253Z 26013KT 10SM FEW250 23/12 A2994 RMK AO2 SLP139 T02280117","updated":"2026-03-01T23:22:33Z"}
