{"icao":"LPFL","metar":"LPFL 071500Z 21004KT 130V270 9999 -RA FEW017 SCT030 14/11 Q1007","updated":"2025-12-07T15:16:31Z"}
