{"icao":"KLAX","metar":"KLAX 231610Z VRB04KT 3SM BR SCT009 OVC016 16/13 A2997 RMK AO2 T01560133 $","updated":"2025-12-23T16:26:20Z"}
