{"icao":"LPLA","metar":"LPLA 081900Z 24017G33KT 9000 -RADZ SCT007 BKN014 19/17 Q1009","updated":"2026-02-08T19:23:44Z"}
