{"icao":"LPAZ","metar":"LPAZ 291700Z 26020KT 9000 FEW015 SCT020 BKN026 18/15 Q1011","updated":"2025-12-29T17:17:17Z"}
