{"icao":"LPMT","metar":"LPMT 061400Z 24005KT 210V280 9999 SCT038 BKN048 18/15 Q1023","updated":"2025-12-06T14:15:54Z"}
