{"icao":"LPMT","metar":"LPMT 232200Z 26007KT 220V290 9999 FEW025 BKN040 16/11 Q1024","updated":"2025-11-23T22:17:03Z"}
