{"icao":"KLAX","metar":"KLAX 060853Z 09007KT 10SM FEW010 BKN150 BKN220 17/14 A3009 RMK AO2 SLP186 T01670139 53000","updated":"2026-02-06T09:41:45Z"}
