{"icao":"LPPD","metar":"LPPD 051230Z 23006KT 200V270 9999 VCSH FEW025 17/11 Q1018","updated":"2025-11-05T12:38:30Z"}
