{"icao":"KLAX","metar":"KLAX 070453Z 21003KT 10SM SCT008 17/15 A3003 RMK AO2 SLP166 T01670150 $","updated":"2025-11-07T05:18:01Z"}
