{"icao":"LPFL","metar":"LPFL 171130Z 02007KT 350V050 9999 FEW030 BKN049 14/05 Q1021","updated":"2026-04-17T11:51:21Z"}
