{"icao":"LPFR","metar":"LPFR 302300Z 36009KT CAVOK 27/12 Q1018","updated":"2026-05-30T23:08:29Z"}
