{"icao":"KJFK","metar":"KJFK 141551Z 18006KT 10SM BKN100 BKN210 07/02 A2969 RMK AO2 SLP054 T00720017 $","updated":"2026-01-14T16:29:07Z"}
