{"icao":"LPPR","metar":"LPPR 172100Z 01003KT 9000 NSC 14/13 Q1016","updated":"2025-10-17T21:15:04Z"}
