{"icao":"LPMT","metar":"LPMT 091900Z 33004KT 9999 FEW048 12/08 Q1028","updated":"2026-01-09T19:18:48Z"}
