{"icao":"KORD","metar":"KORD 201551Z 25008KT 10SM FEW020 FEW250 M13/M20 A3037 RMK AO2 SLP301 T11331200 $","updated":"2026-01-20T16:34:48Z"}
