{"icao":"LPOV","metar":"LPOV 141300Z 30003KT 210V010 8000 BKN012 SCT045 14/12 Q1020","updated":"2026-01-14T13:39:18Z"}
