{"icao":"KJFK","metar":"KJFK 230951Z 35031G47KT 1/2SM R04R/2200V3000FT SN BLSN FZFG VV006 M02/M02 A2943 RMK AO2 PK WND 35047/0943 SLP964 P0002 T10171022 $","updated":"2026-02-23T09:54:24Z"}
