{"icao":"LPMA","metar":"LPMA 271830Z 01014G26KT 330V050 9999 SCT015 17/13 Q1026","updated":"2026-02-27T18:41:12Z"}
