{"icao":"LPPS","metar":"LPPS 040700Z 33016KT 9999 -SHRA FEW012 FEW015TCU SCT030 15/14 Q1006","updated":"2026-01-04T07:20:24Z"}
