{"icao":"KORD","metar":"KORD 260851Z 00000KT 10SM FEW100 M05/M13 A2987 RMK AO2 SLP123 T10501133 58000","updated":"2026-02-26T09:49:10Z"}
