{"icao":"KJFK","metar":"KJFK 241751Z 07008KT 3SM -RA BR BKN008 OVC012 14/13 A3030 RMK AO2 SLP260 P0005 60058 T01390128 10139 20117 58017 $","updated":"2026-05-24T18:04:47Z"}
