{"icao":"LPPT","metar":"LPPT 232300Z 23003KT 200V260 9999 FEW020 09/08 Q1010","updated":"2025-12-23T23:17:55Z"}
