{"icao":"LPPD","metar":"LPPD 130800Z 32013KT 9000 -SHRA BKN016 FEW018CB 14/10 Q1004","updated":"2025-11-13T08:25:34Z"}
