{"icao":"LPMA","metar":"LPMA 140600Z 01017KT 330V040 9999 SCT015 23/17 Q1022","updated":"2025-09-14T06:23:18Z"}
