{"icao":"KJFK","metar":"KJFK 121451Z 12012KT 10SM FEW150 SCT250 10/00 A3056 RMK AO2 SLP347 T01000000 53007 $","updated":"2026-04-12T15:35:09Z"}
