{"icao":"KJFK","metar":"KJFK 030551Z 10008KT 5SM -DZ BR BKN007 OVC018 05/04 A3044 RMK AO2 SLP307 P0001 60002 T00500044 10061 20050 56007","updated":"2026-04-03T07:06:28Z"}
