{"icao":"LPAR","metar":"LPAR 221400Z 22003KT 160V290 9999 FEW025 14/10 Q1013","updated":"2025-12-22T14:19:52Z"}
