{"icao":"LPLA","metar":"LPLA 270100Z 29020G31KT 9999 FEW025 SCT035 09/06 Q1007","updated":"2026-01-27T01:47:57Z"}
