{"icao":"LPMT","metar":"LPMT 041000Z 02005KT 340V060 CAVOK 18/12 Q1023","updated":"2026-04-04T10:31:52Z"}
