{"icao":"LPST","metar":"LPST 241400Z 31013KT 280V340 9999 FEW020 20/12 Q1018","updated":"2026-04-24T15:06:35Z"}
