{"icao":"KORD","metar":"KORD 200051Z 27010KT 10SM FEW120 BKN250 M16/M22 A3028 RMK AO2 SLP270 T11561222 $","updated":"2026-01-20T01:41:45Z"}
