{"icao":"LPPS","metar":"LPPS 111700Z 14005KT 110V170 9999 FEW015 SCT030 17/13 Q1025","updated":"2026-01-11T17:16:52Z"}
