{"icao":"LPAR","metar":"LPAR 301700Z 21009KT 9999 SCT020 SCT040 20/15 Q1013","updated":"2025-10-30T17:16:45Z"}
