{"icao":"LPCS","metar":"LPCS 121200Z 05006KT 010V130 9999 FEW045 24/13 Q1016","updated":"2025-10-12T12:32:21Z"}
