{"icao":"LPFL","metar":"LPFL 251800Z 31009G19KT 240V010 9999 -RA FEW009 BKN013 14/12 Q1007","updated":"2026-01-25T18:28:53Z"}
