{"icao":"LPBJ","metar":"LPBJ 141400Z 34010KT 310V010 CAVOK 31/14 Q1020","updated":"2025-09-14T14:13:36Z"}
