{"icao":"KJFK","metar":"KJFK 150851Z 02005KT 10SM BKN100 03/M08 A3042 RMK AO2 PRESRR SLP299 T00281078 53008","updated":"2026-03-15T09:32:55Z"}
