{"icao":"KLAX","metar":"KLAX 111653Z 01006KT 10SM FEW008 FEW240 SCT300 17/M03 A3025 RMK AO2 SLP243 FU FEW008 T01671033 $","updated":"2026-01-11T17:16:53Z"}
