{"icao":"LPST","metar":"LPST 141400Z 25012KT 8000 -TSRA FEW009 SCT015 FEW020CB 13/10 Q1002","updated":"2025-11-14T15:17:11Z"}
