{"icao":"LPMA","metar":"LPMA 200300Z 03006KT 340V100 9999 BKN015 FEW016TCU 18/15 Q1018","updated":"2025-11-20T03:08:28Z"}
