{"icao":"LPPD","metar":"LPPD 081600Z 15008KT 9999 FEW006 24/22 Q1024","updated":"2025-10-08T16:22:16Z"}
