{"icao":"KORD","metar":"KORD 010251Z 35017G24KT 10SM BKN025 M04/M09 A2991 RMK AO2 PK WND 36029/0224 SLPNO 60001 T10391089 53027","updated":"2026-01-01T03:49:25Z"}
