{"icao":"KORD","metar":"KORD 010351Z 05007KT 10SM OVC300 20/17 A3016 RMK AO2 SLP207 T02000167","updated":"2025-10-01T04:21:11Z"}
