{"icao":"KJFK","metar":"KJFK 122051Z 26017KT 10SM SCT055 SCT250 35/21 A2967 RMK AO2 SLP048 TCU DSNT W T03500206 58010 $","updated":"2026-06-12T21:42:35Z"}
