{"icao":"LPPD","metar":"LPPD 251100Z 18003KT 140V240 9999 FEW015 19/16 Q1028","updated":"2025-11-25T11:16:44Z"}
