{"icao":"LPPD","metar":"LPPD 071800Z 24012KT 8000 -RA FEW004 SCT006 BKN045 16/15 Q1014","updated":"2026-02-07T18:33:57Z"}
