{"icao":"LPMA","metar":"LPMA 011000Z 02010KT 320V050 9999 SCT015 19/09 Q1024","updated":"2025-12-01T10:22:59Z"}
