{"icao":"LPPT","metar":"LPPT 231030Z VRB05G17KT CAVOK 13/10 Q1025","updated":"2026-02-23T10:49:43Z"}
