{"icao":"LPMA","metar":"LPMA 030200Z 36018KT 9999 FEW016 18/02 Q1022","updated":"2026-04-03T02:11:09Z"}
