{"icao":"KJFK","metar":"KJFK 242151Z 35007KT 10SM FEW050 FEW150 SCT210 BKN250 M09/M24 A3066 RMK AO2 SLP382 T10891239 $","updated":"2026-01-24T22:18:57Z"}
