{"icao":"LPBJ","metar":"LPBJ 062300Z 12011KT CAVOK 15/13 Q1015","updated":"2026-04-06T23:34:13Z"}
