{"icao":"LPPS","metar":"LPPS 280700Z 28020KT 7000 -DZ SCT004 BKN007 16/15 Q1016","updated":"2026-01-28T07:25:07Z"}
