{"icao":"KORD","metar":"KORD 280251Z 06005KT 10SM FEW250 17/07 A3005 RMK AO2 SLP174 T01720072 50022 $","updated":"2026-05-28T03:28:59Z"}
