{"icao":"LPPD","metar":"LPPD 260500Z 32007KT 300V360 9999 FEW020 BKN035 17/11 Q1024","updated":"2026-06-26T05:06:47Z"}
