{"icao":"LPFL","metar":"LPFL 090830Z 20019G33KT 170V240 9999 FEW009 BKN012 20/17 Q1002","updated":"2026-02-09T08:55:46Z"}
