{"icao":"KJFK","metar":"KJFK 080351Z 31012G19KT 10SM FEW030 06/01 A3000 RMK AO2 SLP157 T00610006 $","updated":"2026-01-08T04:38:18Z"}
