{"icao":"LPFL","metar":"LPFL 281400Z 16012KT 9999 FEW018 22/18 Q1026","updated":"2025-09-28T14:14:02Z"}
