{"icao":"LPAZ","metar":"LPAZ 281000Z 03005KT 360V060 9000 VCSH FEW004 SCT006 BKN015 16/15 Q1025","updated":"2025-11-28T10:20:47Z"}
