{"icao":"LPPT","metar":"LPPT 151900Z 26006KT 9999 FEW014 SCT021 BKN036 13/11 Q1031","updated":"2026-02-15T19:23:42Z"}
