{"icao":"LPFL","metar":"LPFL 061700Z VRB05KT 9999 FEW025 18/11 Q1014","updated":"2025-11-06T17:18:17Z"}
