{"icao":"LPMT","metar":"LPMT 081400Z 32009KT 290V350 9999 FEW030 BKN040 21/13 Q1021","updated":"2025-10-08T14:17:59Z"}
