{"icao":"LPPT","metar":"LPPT 152000Z 31009KT CAVOK 22/08 Q1016","updated":"2025-10-15T20:20:11Z"}
