{"icao":"KJFK","metar":"KJFK 081051Z 32017G27KT 10SM FEW090 SCT250 M16/M24 A3013 RMK AO2 PK WND 34032/0958 SLP201 T11561239 $","updated":"2026-02-08T11:21:33Z"}
