{"icao":"KORD","metar":"KORD 032051Z 29016G23KT 10SM CLR 16/M06 A3013 RMK AO2 SLP206 T01611056 55003 $","updated":"2025-11-03T21:16:57Z"}
