{"icao":"LPMA","metar":"LPMA 131100Z 02013G24KT 340V050 9999 BKN015 17/10 Q1026","updated":"2026-03-13T11:30:25Z"}
