{"icao":"LPCS","metar":"LPCS 061100Z 27008KT 220V310 9999 FEW018 18/13 Q1019","updated":"2025-11-06T11:16:31Z"}
