{"icao":"LPMR","metar":"LPMR 190100Z 14004KT 3000 BR FEW020 09/09 Q1018","updated":"2025-11-19T01:23:30Z"}
