{"icao":"KORD","metar":"KORD 111912Z 32013G23KT 10SM BKN015 BKN022 OVC034 02/M01 A2983 RMK AO2 T00171011","updated":"2026-03-11T19:40:27Z"}
