{"icao":"LPFR","metar":"LPFR 210400Z 26005KT 9999 SCT006 BKN009 20/19 Q1015","updated":"2025-10-21T04:21:11Z"}
