{"icao":"LPCS","metar":"LPCS 131800Z 01011KT CAVOK 16/12 Q1019","updated":"2025-12-13T18:24:44Z"}
