{"icao":"LPBJ","metar":"LPBJ 061700Z 18012KT CAVOK 29/14 Q1019","updated":"2025-10-06T17:15:53Z"}
