{"icao":"LPPR","metar":"LPPR 172030Z 21008KT 180V250 9999 FEW004 BKN030 12/10 Q1023","updated":"2026-02-17T20:35:51Z"}
