{"icao":"KJFK","metar":"KJFK 221951Z 25009KT 10SM SCT250 03/M08 A3046 RMK AO2 SLP314 T00331078 $","updated":"2025-12-22T20:21:09Z"}
