{"icao":"LPMA","metar":"LPMA 021500Z 03011KT 340V070 8000 VCSH FEW013 BKN016 17/13 Q1024","updated":"2025-12-02T15:21:23Z"}
