{"icao":"LPFL","metar":"LPFL 102000Z 32015G28KT 260V050 9999 SCT023 17/11 Q1008","updated":"2025-11-10T20:21:54Z"}
