{"icao":"LPPS","metar":"LPPS 052100Z 33007KT 9999 SCT010 BKN030 21/19 Q1023","updated":"2025-10-05T21:14:12Z"}
