{"icao":"KORD","metar":"KORD 140514Z 20006KT 10SM FEW040 BKN090 BKN110 20/18 A2982 RMK AO2 TSE08 OCNL LTGIC DSNT SE-S CB DSNT SE-S MOV SE T02000183 $","updated":"2026-06-14T05:47:22Z"}
