{"icao":"LPPT","metar":"LPPT 152030Z 33010KT 300V360 9999 FEW030 14/11 Q1023","updated":"2026-04-15T20:45:47Z"}
