{"icao":"LPPS","metar":"LPPS 211700Z 06014KT 9999 SCT015 23/16 Q1022","updated":"2025-09-21T17:13:51Z"}
