{"icao":"KORD","metar":"KORD 191244Z 28012G27KT 9SM BKN018 M17/M22 A3004 RMK AO2 PK WND 30032/1220 SNB24E44 DRSN P0000 T11721222 $","updated":"2026-01-19T12:47:16Z"}
