{"icao":"LPAR","metar":"LPAR 131200Z 07006KT 040V120 9999 FEW045 27/12 Q1016","updated":"2025-10-13T12:37:07Z"}
