{"icao":"KORD","metar":"KORD 132051Z 29011KT 10SM FEW020 OVC075 M12/M21 A3023 RMK AO2 SLP250 T11221206 53008","updated":"2025-12-13T21:16:32Z"}
