{"icao":"KORD","metar":"KORD 041251Z 31005KT 10SM OVC023 M07/M11 A3035 RMK AO2 SLP289 T10671111","updated":"2026-02-04T12:56:50Z"}
