{"icao":"LPPD","metar":"LPPD 182000Z 25008KT 4000 BR SCT002 BKN004 22/22 Q1017","updated":"2025-10-18T20:17:39Z"}
