{"icao":"KORD","metar":"KORD 141151Z 18003KT 10SM FEW250 07/M01 A3000 RMK AO2 SLP160 T00671006 10078 20067 58009","updated":"2025-11-14T12:38:13Z"}
