{"icao":"LPPR","metar":"LPPR 220700Z 21008KT 1100 R17/1400D BCFG BKN002 18/18 Q1013","updated":"2025-10-22T07:17:35Z"}
