{"icao":"LPOV","metar":"LPOV 030500Z VRB02KT CAVOK 06/06 Q1023","updated":"2025-11-03T05:18:55Z"}
