{"icao":"LPHR","metar":"LPHR 152300Z 20014KT 9999 FEW015 BKN040 17/15 Q1027","updated":"2026-02-15T23:25:23Z"}
