{"icao":"LPST","metar":"LPST 141000Z 21018G30KT 7000 -SHRA FEW009 SCT020 FEW022CB 14/11 Q1003","updated":"2025-11-14T10:20:39Z"}
