{"icao":"LPBJ","metar":"LPBJ 241300Z 15010KT CAVOK 32/07 Q1020","updated":"2026-05-24T13:23:08Z"}
