{"icao":"LPPS","metar":"LPPS 240100Z 36009KT 330V030 9999 FEW015 SCT030 21/13 Q1021","updated":"2025-09-24T01:17:57Z"}
