{"icao":"KORD","metar":"KORD 140951Z 19006KT 10SM FEW050 SCT250 08/M01 A3001 RMK AO2 SLP165 T00781011","updated":"2025-11-14T10:21:14Z"}
