{"icao":"LPHR","metar":"LPHR 032030Z 24007KT 210V270 9999 FEW025 BKN040 16/10 Q1023","updated":"2026-04-03T20:35:24Z"}
