{"icao":"LPLA","metar":"LPLA 280600Z 10006KT 8000 -SHRA SCT017 OVC023 13/10 Q1032","updated":"2026-03-28T06:58:44Z"}
