{"icao":"LPMA","metar":"LPMA 290600Z 01014KT 340V040 9999 SCT015 SCT030 21/12 Q1022","updated":"2025-09-29T06:28:34Z"}
