{"icao":"LPPT","metar":"LPPT 311730Z 33012G22KT 280V010 CAVOK 25/09 Q1019","updated":"2026-05-31T17:59:52Z"}
