{"icao":"LPLA","metar":"LPLA 250800Z 24013G28KT 210V270 9999 FEW015 BKN025 BKN040 18/14 Q1014","updated":"2026-01-25T08:26:32Z"}
