{"icao":"LPPD","metar":"LPPD 191200Z 28010KT 4000 BR SCT003 BKN006 22/22 Q1016","updated":"2025-10-19T12:33:13Z"}
