{"icao":"KLAX","metar":"KLAX 090253Z 32011G21KT 10SM CLR 13/M02 A3010 RMK AO2 SLP192 T01331022 53025 $","updated":"2026-01-09T03:38:43Z"}
