{"icao":"LPFR","metar":"LPFR 292030Z 25010KT CAVOK 17/12 Q1013","updated":"2026-04-29T21:02:49Z"}
