{"icao":"LPAZ","metar":"LPAZ 271400Z 09007KT 050V120 9999 FEW026 SCT032 BKN049 16/10 Q1020","updated":"2025-12-27T14:17:35Z"}
