{"icao":"LPPR","metar":"LPPR 102200Z 11007KT CAVOK 21/10 Q1021","updated":"2025-10-10T22:15:20Z"}
