{"icao":"LPBJ","metar":"LPBJ 230500Z 29003KT CAVOK 06/01 Q1027","updated":"2025-11-23T05:17:16Z"}
