{"icao":"KORD","metar":"KORD 181451Z 20007KT 10SM FEW038 FEW120 BKN150 BKN250 19/16 A2969 RMK AO2 SLP049 60001 T01940161 50003 $","updated":"2025-10-18T15:15:57Z"}
