{"icao":"KORD","metar":"KORD 091451Z 22012KT 10SM FEW200 FEW250 17/09 A2964 RMK AO2 SLP037 T01720089 53002","updated":"2026-05-09T15:51:01Z"}
