{"icao":"KJFK","metar":"KJFK 061951Z 20011KT 8SM FEW023 OVC030 13/12 A2976 RMK AO2 PK WND 21026/1908 RAB07E44 SLP077 P0001 T01330122","updated":"2026-05-06T20:20:56Z"}
