{"icao":"LPPT","metar":"LPPT 251430Z 07005KT 340V100 9999 FEW022 17/13 Q1017","updated":"2026-02-25T14:46:29Z"}
