{"icao":"LPAZ","metar":"LPAZ 080300Z 10006KT 9999 FEW018 19/18 Q1026","updated":"2025-10-08T03:30:27Z"}
