{"icao":"LPPD","metar":"LPPD 231000Z 35018KT 9999 FEW006 BKN035 22/19 Q1022","updated":"2025-09-23T10:18:30Z"}
