{"icao":"LPMA","metar":"LPMA 270930Z 01007KT 310V050 9999 BKN015 15/10 Q1018","updated":"2026-03-27T09:53:35Z"}
