{"icao":"LPLA","metar":"LPLA 271900Z 36008KT 330V040 9999 SCT018 BKN032 19/14 Q1026","updated":"2026-06-27T19:18:23Z"}
