{"icao":"LPPT","metar":"LPPT 162200Z 31014KT CAVOK 19/14 Q1017","updated":"2026-06-16T22:09:38Z"}
