{"icao":"KORD","metar":"KORD 170751Z 31010KT 10SM BKN060 M08/M18 A2999 RMK AO2 SLP165 T10831183 $","updated":"2026-03-17T08:52:41Z"}
