{"icao":"LPCS","metar":"LPCS 221500Z 24006KT 200V280 9999 FEW004 SCT008 BKN020 22/21 Q1018","updated":"2025-10-22T15:18:22Z"}
