{"icao":"LPPT","metar":"LPPT 160330Z 32009KT 290V350 9999 FEW012 16/14 Q1016 TEMPO CAVOK","updated":"2026-06-16T03:58:02Z"}
