{"icao":"LPOV","metar":"LPOV 160800Z 14005KT 6000 -SHRA SCT020 FEW022CB BKN030 09/09 Q1012","updated":"2026-01-16T08:28:41Z"}
