{"icao":"LPMA","metar":"LPMA 192300Z 30004KT 280V340 9999 FEW015 15/10 Q1027","updated":"2026-01-19T23:19:35Z"}
