{"icao":"KJFK","metar":"KJFK 022251Z 28010KT 9SM -SN SCT034 BKN043 BKN060 M02/M09 A2980 RMK AO2 SNB08 SLP090 P0000 T10171089 $","updated":"2026-01-02T23:18:04Z"}
