{"icao":"KJFK","metar":"KJFK 130851Z 00000KT 10SM FEW020 SCT070 SCT250 17/16 A3017 RMK AO2 SLP217 T01670156 55005 $","updated":"2025-09-13T08:57:13Z"}
