{"icao":"LPPD","metar":"LPPD 051100Z 28022KT 9999 FEW014 FEW020CB SCT030 13/07 Q1003 RESHRA","updated":"2026-02-05T11:34:07Z"}
