{"icao":"KLAX","metar":"KLAX 102253Z 26011KT 10SM FEW005 FEW250 19/16 A3006 RMK AO2 SLP178 T01890156 $","updated":"2025-11-10T23:17:16Z"}
