{"icao":"LPLA","metar":"LPLA 051600Z 24012KT 190V280 9999 FEW013 SCT020 BKN035 20/17 Q1016","updated":"2025-12-05T16:24:36Z"}
