{"icao":"LPLA","metar":"LPLA 092200Z 35015KT 9999 FEW022 SCT035 15/10 Q1020","updated":"2026-05-09T22:41:38Z"}
