{"icao":"LPPT","metar":"LPPT 211400Z 29012G26KT 260V320 8000 FEW006 BKN014 14/13 Q1006 RERA","updated":"2026-01-21T14:29:27Z"}
