{"icao":"LPPT","metar":"LPPT 190000Z 33012KT 300V360 CAVOK 17/15 Q1015","updated":"2026-06-19T00:24:56Z"}
