{"icao":"LPLA","metar":"LPLA 080700Z 23025G35KT 8000 -RA FEW009 BKN015 19/17 Q1009","updated":"2026-02-08T07:37:40Z"}
