{"icao":"KORD","metar":"KORD 112051Z 32011KT 10SM SCT250 06/M06 A3019 RMK AO2 SLP230 T00561061 56009 $","updated":"2026-02-11T21:33:12Z"}
