{"icao":"LPMT","metar":"LPMT 080500Z 12003KT 9999 BKN025 05/05 Q1031","updated":"2026-01-08T05:23:52Z"}
