{"icao":"LPPT","metar":"LPPT 282300Z 13004KT 110V170 9999 -RA FEW002 BKN006 FEW025TCU 18/17 Q1009 WS R02","updated":"2025-10-28T23:16:33Z"}
