{"icao":"LPCS","metar":"LPCS 071800Z 34008KT 9999 FEW014 SCT018 17/16 Q1017","updated":"2025-11-07T18:25:55Z"}
