{"icao":"KLAX","metar":"KLAX 181853Z 32004KT 10SM FEW190 SCT230 SCT300 23/M01 A3012 RMK AO2 SLP198 T02331006 $","updated":"2026-01-18T19:15:39Z"}
