{"icao":"KJFK","metar":"KJFK 012251Z 18014KT 10SM FEW055 SCT250 27/22 A2995 RMK SLP140 T02670217 $ ","updated":"2026-07-01T23:13:58Z"}
