{"icao":"KLAX","metar":"KLAX 221822Z 27006KT 1SM R25L/P6000FT BCFG BR BKN002 OVC220 14/14 A3005 RMK AO2 VIS SW-NW 1/2 T01440144 $","updated":"2025-12-22T18:29:42Z"}
