{"icao":"LPLA","metar":"LPLA 190200Z 35023G33KT 9999 FEW018 SCT025 11/08 Q1008","updated":"2026-03-19T02:06:47Z"}
