{"icao":"LPBJ","metar":"LPBJ 251400Z 34013KT CAVOK 15/02 Q1021","updated":"2025-11-25T14:18:52Z"}
