{"icao":"LPPT","metar":"LPPT 031230Z VRB08G20KT 8000 FEW005 BKN008 15/14 Q0998","updated":"2026-01-03T12:37:20Z"}
