{"icao":"LPFR","metar":"LPFR 152000Z 29009KT 9999 SCT032 14/09 Q1032","updated":"2026-02-15T20:25:02Z"}
