{"icao":"LPPS","metar":"LPPS 181800Z 35013KT 6000 VCSH BKN003 22/21 Q1016","updated":"2025-10-18T18:22:31Z"}
