{"icao":"LPAR","metar":"LPAR 061400Z 21012KT 9999 SCT040 23/12 Q1015","updated":"2026-04-06T14:44:48Z"}
