{"icao":"LPBJ","metar":"LPBJ 211500Z 03010KT 350V050 CAVOK 15/01 Q1025","updated":"2025-11-21T15:17:13Z"}
