{"icao":"LPMR","metar":"LPMR 091600Z 15002KT 9999 FEW009 15/14 Q1016","updated":"2025-12-09T16:26:35Z"}
