{"icao":"LPMR","metar":"LPMR 302100Z 17002KT CAVOK 08/05 Q1021","updated":"2025-11-30T21:16:12Z"}
