{"icao":"LPAZ","metar":"LPAZ 161600Z 30006KT 260V330 9999 FEW028 19/11 Q1024","updated":"2025-11-16T16:20:17Z"}
