{"icao":"LPPD","metar":"LPPD 241800Z 35003KT 290V080 9999 FEW015 18/14 Q1027","updated":"2025-11-24T18:28:10Z"}
