{"icao":"LPCS","metar":"LPCS 211330Z 29018KT 260V320 9999 -DZ FEW003 BKN030 14/14 Q1006","updated":"2026-01-21T13:43:56Z"}
