{"icao":"LPPR","metar":"LPPR 040400Z 34005KT 8000 -DZ FEW003 BKN008 BKN012 16/16 Q1024","updated":"2025-10-04T04:19:37Z"}
