{"icao":"LPMA","metar":"LPMA 072000Z 32003KT 290V350 9999 FEW015 SCT030 21/16 Q1020","updated":"2025-11-07T20:18:34Z"}
