{"icao":"LPPD","metar":"LPPD 252100Z 03018G32KT 350V060 9999 FEW018TCU BKN030 18/12 Q1019 WS R30","updated":"2025-10-25T21:14:48Z"}
