{"icao":"KLAX","metar":"KLAX 251711Z 10011KT 10SM FEW010 BKN017 BKN025 16/14 A3012 RMK AO2 T01560144 $","updated":"2025-12-25T17:17:16Z"}
