{"icao":"LPMR","metar":"LPMR 211900Z 30004KT CAVOK 26/11 Q1020","updated":"2026-05-21T19:55:59Z"}
