{"icao":"LPMR","metar":"LPMR 270300Z 16004KT 1300 BR BKN002 12/11 Q1018","updated":"2025-09-27T03:26:00Z"}
