{"icao":"LPMR","metar":"LPMR 072100Z 17005KT CAVOK 15/11 Q1022","updated":"2025-12-07T21:15:11Z"}
