{"icao":"LPFL","metar":"LPFL 050730Z 32015G29KT 260V020 9999 VCSH BKN020 10/06 Q1002","updated":"2026-02-05T07:51:41Z"}
