{"icao":"LPPR","metar":"LPPR 241900Z 35006KT CAVOK 18/08 Q1018","updated":"2025-09-24T19:14:14Z"}
