{"icao":"LPMA","metar":"LPMA 041830Z 36008KT 310V030 9999 BKN014 16/10 Q1021","updated":"2026-03-04T18:50:34Z"}
