{"icao":"LPOV","metar":"LPOV 272300Z 36004KT CAVOK 09/04 Q1027","updated":"2026-02-27T23:22:57Z"}
