{"icao":"KORD","metar":"KORD 310551Z 27008KT 10SM CLR 06/01 A2982 RMK AO2 SLP100 T00610011 10094 20056 402670050 55005 $","updated":"2025-10-31T06:27:40Z"}
