{"icao":"KLAX","metar":"KLAX 022153Z 23015KT 10SM FEW025 FEW160 SCT200 SCT250 18/11 A2997 RMK AO2 SLP146 T01830106","updated":"2026-03-02T22:25:28Z"}
