{"icao":"LPLA","metar":"LPLA 011500Z 32033KT 9999 BKN028 16/07 Q1004","updated":"2026-01-01T15:20:20Z"}
