{"icao":"LPHR","metar":"LPHR 130900Z 00000KT 9999 FEW030 17/11 Q1016","updated":"2025-10-13T09:21:08Z"}
