{"icao":"LPMR","metar":"LPMR 020300Z 12001KT CAVOK 18/16 Q1017","updated":"2026-07-02T03:26:55Z"}
