{"icao":"KORD","metar":"KORD 230451Z 29011G25KT 10SM FEW035 M13/M24 A3029 RMK AO2 PK WND 29033/0433 SLP273 T11331244 $","updated":"2026-01-23T05:26:30Z"}
