{"icao":"LPLA","metar":"LPLA 061600Z 18015KT 150V210 9999 FEW025 16/08 Q1027","updated":"2026-03-06T16:39:58Z"}
