{"icao":"LPMA","metar":"LPMA 142230Z 02010KT 9999 BKN015 16/11 Q1025","updated":"2026-04-14T22:49:36Z"}
