{"icao":"LPOV","metar":"LPOV 082000Z 32004KT 290V360 7000 NSC 16/15 Q1021","updated":"2025-10-08T20:19:09Z"}
