{"icao":"LPPT","metar":"LPPT 170430Z 07005KT 040V100 CAVOK 11/08 Q1013","updated":"2026-03-17T04:50:16Z"}
