{"icao":"LPCS","metar":"LPCS 200900Z 26003KT 150V310 9999 FEW014 SCT026 11/10 Q1018","updated":"2025-12-20T09:18:39Z"}
