{"icao":"LPPT","metar":"LPPT 101500Z 21007KT 9999 SCT030 BKN041 14/09 Q1028","updated":"2026-01-10T15:18:21Z"}
