{"icao":"LPPR","metar":"LPPR 090500Z 11009KT CAVOK 10/08 Q1021","updated":"2025-11-09T05:16:49Z"}
