{"icao":"LPPR","metar":"LPPR 120430Z 17019KT 6000 -RADZ BKN005 BKN012 13/12 Q1018","updated":"2026-01-12T04:49:17Z"}
