{"icao":"LPAZ","metar":"LPAZ 141800Z 24009KT 0350 R18/0175 -DZ FG VV001 18/17 Q1021","updated":"2025-12-14T18:26:38Z"}
