{"icao":"LPOV","metar":"LPOV 030900Z 22010KT 190V250 9999 SCT015 FEW020CB BKN030 10/07 Q0999","updated":"2026-02-03T09:39:23Z"}
