{"icao":"KLAX","metar":"KLAX 302253Z 26012KT 10SM FEW012 FEW100 20/13 A2997 RMK AO2 SLP146 T02000133 $","updated":"2026-05-30T23:09:03Z"}
