{"icao":"KJFK","metar":"KJFK 231751Z 33027G39KT 3/4SM R04R/4500V5500FT -SN BLSN SCT000 BKN009 OVC019 M01/M02 A2951 RMK AO2 PK WND 33039/1749 SFC VIS 1 SLP993 SN BLSN SCT000 SNINCR 1/20 4/020 933016 P0001 60006 T10061022 11006 21017 51011 $","updated":"2026-02-23T18:00:23Z"}
