{"icao":"KJFK","metar":"KJFK 032151Z 31010KT 10SM BKN047 BKN250 01/M09 A3015 RMK AO2 SLP211 T00061094 PNO $","updated":"2026-02-03T22:28:30Z"}
