{"icao":"LPMT","metar":"LPMT 020500Z 01006KT 320V070 9999 BKN013 19/15 Q1019","updated":"2026-06-02T05:47:07Z"}
