{"icao":"KJFK","metar":"KJFK 292251Z 19018KT 10SM FEW080 FEW085 SCT150 SCT250 18/12 A2977 RMK AO2 PK WND 19029/2155 SLP081 T01780117 $","updated":"2026-05-29T23:11:01Z"}
