{"icao":"LPCS","metar":"LPCS 281230Z 27010KT 230V300 9999 FEW016 15/13 Q1005","updated":"2026-01-28T12:48:07Z"}
