{"icao":"LPHR","metar":"LPHR 281800Z 32006KT 9999 FEW025 BKN035 18/11 Q1022","updated":"2025-10-28T18:28:17Z"}
