{"icao":"LPMR","metar":"LPMR 111400Z 09007KT 050V140 CAVOK 28/11 Q1018","updated":"2025-10-11T14:13:32Z"}
