{"icao":"LPST","metar":"LPST 031100Z 34004KT 290V360 9999 FEW012 21/14 Q1024","updated":"2025-10-03T11:13:55Z"}
