{"icao":"LPBJ","metar":"LPBJ 121600Z 33004KT 300V010 CAVOK 21/07 Q1024","updated":"2026-03-12T17:02:38Z"}
