{"icao":"LPPD","metar":"LPPD 040530Z 24010KT 9999 SCT007 BKN016 15/14 Q1024","updated":"2026-03-04T05:42:29Z"}
