{"icao":"LPPT","metar":"LPPT 161300Z 27012KT 250V310 9999 FEW020 FEW025CB 19/11 Q1012","updated":"2025-11-16T13:22:38Z"}
