{"icao":"LPMT","metar":"LPMT 270300Z 02007KT CAVOK 08/07 Q1024","updated":"2025-11-27T03:10:02Z"}
