{"icao":"LPLA","metar":"LPLA 251200Z VRB08G20KT 9999 SCT025 SCT035 20/13 Q1021","updated":"2025-10-25T12:32:59Z"}
