{"icao":"LPFL","metar":"LPFL 291430Z 20019G30KT 180V240 9999 SCT015 17/13 Q1008 WS ALL RWY","updated":"2026-01-29T14:49:59Z"}
