{"icao":"KJFK","metar":"KJFK 230551Z 01027G38KT 1/2SM R04R/4500VP6000FT SN BLSN FZFG VV007 M01/M01 A2955 RMK AO2 PK WND 01044/0523 SLP005 SNINCR 1/8 P0001 60022 T10061011 11006 21011 58066 $","updated":"2026-02-23T06:06:04Z"}
