{"icao":"LPMA","metar":"LPMA 161800Z 35011KT 280V030 9999 VCSH SCT015 17/10 Q1025","updated":"2026-01-16T18:31:14Z"}
