{"icao":"LPBJ","metar":"LPBJ 061400Z 17016KT CAVOK 21/08 Q1018","updated":"2026-04-06T14:44:48Z"}
