{"icao":"LPFR","metar":"LPFR 242030Z 07005KT 030V090 CAVOK 16/12 Q1020","updated":"2026-03-24T20:39:49Z"}
