{"icao":"LPPT","metar":"LPPT 241230Z 23013KT 7000 -DZRA BKN010 17/15 Q1018","updated":"2025-11-24T12:39:35Z"}
