{"icao":"KLAX","metar":"KLAX 280253Z 25009KT 10SM BKN220 16/10 A3024 RMK AO2 SLP238 T01610100 53012","updated":"2026-01-28T03:44:09Z"}
