{"icao":"LPLA","metar":"LPLA 241000Z 34006KT 300V010 9999 FEW014 BKN023 22/18 Q1021","updated":"2026-06-24T10:47:44Z"}
