{"icao":"LPFR","metar":"LPFR 200830Z 18009KT CAVOK 25/19 Q1014","updated":"2026-06-20T08:52:55Z"}
