{"icao":"LPMA","metar":"LPMA 140430Z 36007KT 290V050 9999 BKN015 15/07 Q1023","updated":"2026-01-14T04:45:35Z"}
