{"icao":"LPPS","metar":"LPPS 080600Z 03007KT 360V060 9999 SCT014 21/18 Q1025","updated":"2025-10-08T06:27:41Z"}
