{"icao":"LPAZ","metar":"LPAZ 042100Z 03009KT 9999 FEW021 BKN040 14/10 Q1023","updated":"2026-01-04T21:17:44Z"}
