{"icao":"LPMT","metar":"LPMT 050100Z 22011KT 3500 -RADZ BR FEW003 BKN005 BKN015 15/15 Q0995","updated":"2026-02-05T01:59:11Z"}
