{"icao":"LPPR","metar":"LPPR 160800Z 16008KT 6000 -SHRA FEW007 FEW018CB BKN025 09/08 Q1012","updated":"2026-01-16T08:28:41Z"}
