{"icao":"LPMA","metar":"LPMA 281230Z 04007KT 350V080 9999 FEW014 20/14 Q1018","updated":"2026-01-28T12:48:10Z"}
