{"icao":"KJFK","metar":"KJFK 221951Z 14005KT 10SM FEW005 SCT018 SCT150 BKN250 11/08 A2972 RMK AO2 SLP063 T01110078 $","updated":"2026-03-22T20:26:34Z"}
