{"icao":"LPCS","metar":"LPCS 031000Z 02008KT CAVOK 21/14 Q1024","updated":"2025-10-03T10:17:47Z"}
