{"icao":"LPPT","metar":"LPPT 171400Z 28006KT 230V320 9999 FEW018 FEW025TCU 11/06 Q1011","updated":"2026-01-17T14:17:49Z"}
