{"icao":"LPHR","metar":"LPHR 110000Z 25021KT 7000 SCT006 BKN011 18/17 Q1007","updated":"2026-02-11T02:11:55Z"}
