{"icao":"LPPD","metar":"LPPD 141100Z 16010KT 130V190 9999 FEW018 FEW020CB 21/17 Q1009","updated":"2025-10-14T11:14:58Z"}
