{"icao":"LPBJ","metar":"LPBJ 081200Z 30006KT 270V350 9999 FEW030 15/09 Q1021","updated":"2026-03-08T12:46:03Z"}
