{"icao":"LPFR","metar":"LPFR 041600Z 25011KT CAVOK 24/17 Q1020","updated":"2025-10-04T16:18:44Z"}
