{"icao":"KJFK","metar":"KJFK 110451Z 00000KT 10SM FEW250 09/04 A3000 RMK AO2 SLP158 T00940044 401780033","updated":"2026-03-11T05:47:23Z"}
