{"icao":"KJFK","metar":"KJFK 130851Z 33009KT 10SM FEW180 SCT250 M05/M11 A3010 RMK AO2 SLP193 T10501111 50004 $","updated":"2026-02-13T09:42:26Z"}
