{"icao":"LPAZ","metar":"LPAZ 260830Z 04005KT 020V080 9999 FEW009 SCT012 BKN020 13/10 Q1028","updated":"2026-03-26T08:54:19Z"}
