{"icao":"LPBJ","metar":"LPBJ 291000Z 26018KT 2000 -DZ BR OVC004 15/15 Q1011","updated":"2026-01-29T10:35:35Z"}
