{"icao":"LPHR","metar":"LPHR 271100Z 04014G25KT 010V080 9999 FEW007 SCT015 17/12 Q1023","updated":"2025-11-27T11:16:50Z"}
