{"icao":"LPST","metar":"LPST 101600Z 27009KT CAVOK 22/11 Q1012","updated":"2026-04-12T16:37:06Z"}
