{"icao":"LPMA","metar":"LPMA 141600Z 15006KT 110V180 9999 SCT015 23/18 Q1015","updated":"2025-10-14T16:22:33Z"}
