{"icao":"LPPR","metar":"LPPR 110830Z VRB02KT 8000 SCT012 BKN015 10/09 Q1027","updated":"2026-03-11T08:39:11Z"}
