{"icao":"LPFR","metar":"LPFR 051830Z 08008KT CAVOK 22/07 Q1018","updated":"2026-04-05T18:41:28Z"}
