{"icao":"LPPR","metar":"LPPR 022330Z 20004KT 170V240 9999 SCT009 BKN014 FEW025CB 15/14 Q1015 RESHRA","updated":"2026-05-02T23:40:59Z"}
