{"icao":"KLAX","metar":"KLAX 120453Z 26008KT 10SM BKN020 17/12 A2999 RMK AO2 SLP153 T01670117 $","updated":"2026-04-12T05:22:38Z"}
