{"icao":"LPPR","metar":"LPPR 141830Z 33016KT 9999 FEW025 16/10 Q1014","updated":"2026-05-14T18:58:58Z"}
