{"icao":"LPPT","metar":"LPPT 311400Z 20022G33KT 2500 -RADZ BR BKN006 19/18 Q1012 RERA WS R20","updated":"2025-10-31T14:18:04Z"}
