{"icao":"LPMA","metar":"LPMA 260500Z 01014KT 340V040 9999 -DZ BKN015 16/12 Q1018","updated":"2026-03-26T05:04:35Z"}
