{"icao":"LPPT","metar":"LPPT 180400Z 33005KT CAVOK 12/09 Q1018","updated":"2025-11-18T04:22:22Z"}
