{"icao":"LPMR","metar":"LPMR 210200Z 23009KT 8000 FEW002 OVC005 20/19 Q1013","updated":"2025-10-21T03:04:27Z"}
