{"icao":"LPPD","metar":"LPPD 081100Z 34018KT 300V360 9999 VCSH SCT018 15/11 Q1012","updated":"2026-05-08T11:12:45Z"}
