{"icao":"KJFK","metar":"KJFK 111651Z 28011KT 10SM FEW040 BKN100 BKN200 08/M02 A2977 RMK AO2 SLP081 T00781017","updated":"2026-01-11T17:16:52Z"}
