{"icao":"KJFK","metar":"KJFK 101051Z 03008KT 10SM BKN085 OVC100 13/10 A2966 RMK AO2 RAB10E49 SLP044 P0000 T01280100 $","updated":"2025-11-10T11:16:46Z"}
