{"icao":"LPAZ","metar":"LPAZ 101830Z 34006KT 290V010 9999 FEW030 15/07 Q1033","updated":"2026-03-10T18:44:38Z"}
