{"icao":"LPPS","metar":"LPPS 101800Z 02010KT 9999 SCT015 SCT030 22/14 Q1021","updated":"2025-10-10T18:25:26Z"}
