{"icao":"LPMA","metar":"LPMA 152300Z 02013KT 9999 BKN015 16/12 Q1020","updated":"2026-03-15T23:27:32Z"}
