{"icao":"LPCS","metar":"LPCS 020700Z 36013KT 9999 FEW008 12/11 Q1021","updated":"2026-04-02T07:10:32Z"}
