{"icao":"KLAX","metar":"KLAX 191153Z 02004KT 8SM FEW010 FEW250 16/13 A2993 RMK AO2 SLP132 T01560128 10178 20150 58005","updated":"2026-05-19T12:08:58Z"}
