{"icao":"KJFK","metar":"KJFK 280051Z 36008KT 10SM SCT041 M03/M06 A3021 RMK AO2 SLP231 T10281056 $","updated":"2025-12-28T01:48:12Z"}
