{"icao":"KLAX","metar":"KLAX 111953Z 08003KT 10SM FEW220 FEW260 SCT300 22/M03 A3020 RMK AO2 SLP227 CCSL DSNT NE T02171033","updated":"2026-01-11T20:22:00Z"}
