{"icao":"LPMT","metar":"LPMT 051800Z 26013G24KT 240V300 9000 -RA SCT015 FEW022CB BKN030 13/10 Q1011 RETS","updated":"2025-11-05T18:26:46Z"}
