{"icao":"KORD","metar":"KORD 071451Z 35008KT 10SM FEW030 M09/M16 A3041 RMK AO2 SLP309 T10941161 53013 $","updated":"2026-02-07T15:23:32Z"}
