{"icao":"LPLA","metar":"LPLA 061100Z 32005KT 280V010 9999 SCT018 23/18 Q1011","updated":"2025-11-06T11:16:33Z"}
