{"icao":"KORD","metar":"KORD 282251Z 28012KT 10SM FEW080 M09/M18 A3014 RMK AO2 SLP221 T10941183","updated":"2026-01-28T23:25:09Z"}
