{"icao":"LPPR","metar":"LPPR 160430Z 17005KT 150V230 9999 FEW007 SCT020 09/08 Q1013","updated":"2026-01-16T04:38:55Z"}
