{"icao":"LPPS","metar":"LPPS 272200Z 02010KT 9999 SCT014 SCT030 22/18 Q1024","updated":"2025-09-27T22:14:36Z"}
