{"icao":"KORD","metar":"KORD 171551Z 00000KT 10SM FEW060 FEW250 06/M08 A3012 RMK AO2 SLP203 T00561078","updated":"2025-11-17T16:26:00Z"}
