{"icao":"KJFK","metar":"KJFK 050451Z 28009KT 10SM SCT060 M01/M08 A3019 RMK AO2 SLP222 T10061078 400221033 $","updated":"2026-01-05T05:35:01Z"}
