{"icao":"LPMA","metar":"LPMA 300400Z 35007KT 300V030 9999 SCT015 17/13 Q1022","updated":"2025-11-30T04:33:13Z"}
