{"icao":"LPLA","metar":"LPLA 251800Z 23020G30KT 4000 RADZ SCT008 SCT013 BKN022 18/15 Q1009","updated":"2026-01-25T18:28:52Z"}
