{"icao":"LPBJ","metar":"LPBJ 122100Z 19009KT 9999 SCT012 OVC020 14/13 Q1014","updated":"2026-02-12T21:32:04Z"}
