{"icao":"KLAX","metar":"KLAX 061053Z 05005KT 10SM FEW020 14/11 A3004 RMK AO2 SLP170 T01390106","updated":"2026-05-06T11:05:15Z"}
