{"icao":"LPMA","metar":"LPMA 242300Z 30003KT 280V010 9999 SCT016 14/09 Q1028","updated":"2026-01-24T23:18:58Z"}
