{"icao":"LPFR","metar":"LPFR 030100Z 29010KT 9999 FEW020 12/10 Q1020","updated":"2025-12-03T01:25:55Z"}
