{"icao":"KJFK","metar":"KJFK 262151Z 13009KT 10SM FEW040 FEW080 FEW180 12/06 A3014 RMK SLP206 T01220061 $ ","updated":"2026-04-26T22:36:24Z"}
