{"icao":"LPPR","metar":"LPPR 080700Z 13008KT 7000 -DZRA FEW003 BKN006 08/07 Q1030","updated":"2026-01-08T07:23:23Z"}
