{"icao":"LPAZ","metar":"LPAZ 222000Z 17006KT 9999 FEW026 21/16 Q1023","updated":"2025-09-22T20:19:12Z"}
