{"icao":"LPPR","metar":"LPPR 230700Z 07003KT 030V150 9999 FEW048 19/15 Q1021","updated":"2026-05-23T07:30:03Z"}
