{"icao":"LPPR","metar":"LPPR 252000Z 36003KT CAVOK 15/13 Q1016","updated":"2025-10-25T20:18:21Z"}
