{"icao":"KJFK","metar":"KJFK 160751Z 28010KT 10SM BKN080 BKN250 M04/M08 A3021 RMK AO2 SLP230 T10391083 $","updated":"2025-12-16T08:28:36Z"}
