{"icao":"LPPR","metar":"LPPR 211600Z 05004KT 010V090 9999 FEW016 SCT040 07/06 Q1007 RERA","updated":"2025-12-21T16:21:58Z"}
