{"icao":"LPPT","metar":"LPPT 150100Z 32002KT CAVOK 19/10 Q1016","updated":"2025-10-15T01:20:17Z"}
