{"icao":"LPLA","metar":"LPLA 270508Z 33022KT 6000 -RADZ BKN005 BKN012 16/15 Q1020","updated":"2025-11-27T05:19:13Z"}
