{"icao":"LPFL","metar":"LPFL 240900Z 20004KT 9999 FEW017 19/14 Q1024","updated":"2025-09-24T09:18:53Z"}
