{"icao":"LPMR","metar":"LPMR 051700Z 32007KT 280V350 CAVOK 23/10 Q1019","updated":"2026-04-05T17:29:11Z"}
