{"icao":"LPOV","metar":"LPOV 071300Z 31006KT 270V340 6000 SCT007 BKN024 18/17 Q1013","updated":"2025-11-07T13:26:49Z"}
