{"icao":"KLAX","metar":"KLAX 031453Z VRB03KT 10SM FEW012 SCT017 BKN160 14/11 A3002 RMK AO2 SLP164 T01390106 53012","updated":"2026-03-03T14:56:00Z"}
