{"icao":"LPPR","metar":"LPPR 271900Z 29003KT 240V330 CAVOK 20/15 Q1011","updated":"2026-04-27T19:18:56Z"}
