{"icao":"LPAR","metar":"LPAR 020900Z 17005KT 9999 VCSH FEW020 BKN035 12/11 Q1012","updated":"2026-03-02T09:48:01Z"}
