{"icao":"LPPT","metar":"LPPT 212100Z 34006KT CAVOK 15/09 Q1028","updated":"2026-02-21T21:21:24Z"}
