{"icao":"LPST","metar":"LPST 150800Z VRB01KT CAVOK 14/10 Q1017","updated":"2025-10-15T08:25:10Z"}
