{"icao":"LPAZ","metar":"LPAZ 011400Z 27031KT 9000 SCT024 17/11 Q1009","updated":"2026-02-01T14:24:41Z"}
