{"icao":"LPAZ","metar":"LPAZ 080400Z 12005KT 9999 FEW013 19/19 Q1025","updated":"2025-10-08T04:20:27Z"}
