{"icao":"LPMA","metar":"LPMA 222200Z 02011KT 340V050 9999 SCT015 18/11 Q1026","updated":"2025-11-22T22:17:06Z"}
