{"icao":"LPBJ","metar":"LPBJ 222100Z 12002KT CAVOK 15/07 Q1026","updated":"2026-02-22T21:22:54Z"}
