{"icao":"LPMR","metar":"LPMR 312100Z 23007KT 190V260 7000 -RA SCT008 OVC017 17/17 Q1011 RESHRA","updated":"2025-10-31T21:15:04Z"}
