{"icao":"LPMA","metar":"LPMA 060500Z 34005KT 310V010 9999 SCT015 16/11 Q1014","updated":"2026-04-06T05:22:25Z"}
