{"icao":"LPPS","metar":"LPPS 291230Z 18016KT 9999 SCT014 18/12 Q1019","updated":"2025-12-29T12:42:21Z"}
