{"icao":"LPLA","metar":"LPLA 132200Z 16002KT 9999 FEW030 BKN040 17/13 Q1014","updated":"2025-10-13T22:16:34Z"}
