{"icao":"LPLA","metar":"LPLA 030200Z 08009KT 050V110 9999 FEW020 SCT035 15/11 Q1022","updated":"2026-05-03T02:47:36Z"}
