{"icao":"LPMT","metar":"LPMT 220800Z 03007KT CAVOK 09/08 Q1028","updated":"2026-02-22T08:30:16Z"}
