{"icao":"LPBJ","metar":"LPBJ 252000Z VRB01KT CAVOK 18/10 Q1016","updated":"2026-03-25T20:37:31Z"}
