{"icao":"LPPT","metar":"LPPT 280800Z 28016G29KT 9999 FEW025 13/10 Q1000 WS R20","updated":"2026-01-28T08:30:39Z"}
