{"icao":"LPPR","metar":"LPPR 251830Z 33009KT 9999 FEW020 18/14 Q1015","updated":"2026-04-25T18:51:00Z"}
