{"icao":"LPPR","metar":"LPPR 160130Z 21008KT 180V240 9999 FEW020 BKN028 13/12 Q1028","updated":"2026-02-16T02:03:47Z"}
