{"icao":"KJFK","metar":"KJFK 062251Z 33015KT 10SM FEW070 BKN250 08/M04 A3014 RMK AO2 SLP204 T00831044 $","updated":"2025-11-06T23:17:13Z"}
