{"icao":"KJFK","metar":"KJFK 172151Z 20017KT 10SM FEW050 BKN250 22/14 A3004 RMK AO2 SLP172 T02170144 $","updated":"2026-05-17T21:54:59Z"}
