{"icao":"KORD","metar":"KORD 141551Z 30010KT 10SM FEW020 M17/M24 A3059 RMK AO2 SLP378 T11671239","updated":"2025-12-14T16:22:31Z"}
