{"icao":"KLAX","metar":"KLAX 172053Z 23013G22KT 10SM FEW032 FEW045 SCT140 BKN180 BKN250 24/18 A2985 RMK AO2 LTG DSNT N SLP106 TCU DSNT N-NE T02390183 58016","updated":"2025-09-17T21:14:42Z"}
