{"icao":"LPHR","metar":"LPHR 271500Z 04010KT 360V070 9999 FEW016 BKN030 21/14 Q1025","updated":"2026-06-27T15:13:45Z"}
