{"icao":"KORD","metar":"KORD 041725Z 01005KT 10SM FEW018 OVC024 M04/M10 A3040 RMK AO2 SNE24 P0000 T10441100","updated":"2026-02-04T17:43:46Z"}
