{"icao":"LPLA","metar":"LPLA 070300Z 19013G23KT 160V220 9999 FEW015 15/11 Q1023","updated":"2026-03-07T03:59:50Z"}
