{"icao":"LPFL","metar":"LPFL 281900Z 24009KT 200V290 9999 FEW011 18/13 Q1028","updated":"2026-02-28T19:19:42Z"}
