{"icao":"KORD","metar":"KORD 090251Z 07007KT 10SM FEW035 13/05 A3043 RMK AO2 SLP303 T01330050 53011 $","updated":"2025-10-09T02:58:26Z"}
