{"icao":"LPPR","metar":"LPPR 282200Z 01006KT CAVOK 19/14 Q1016","updated":"2025-09-28T22:15:03Z"}
