{"icao":"KORD","metar":"KORD 230951Z 36008KT 10SM OVC029 M02/M06 A3025 RMK AO2 SLP252 T10171056","updated":"2026-03-23T10:01:38Z"}
