{"icao":"LPFR","metar":"LPFR 291630Z 25018KT 2000 -DZ BR OVC004 16/15 Q1013","updated":"2026-01-29T16:41:59Z"}
