{"icao":"LPPR","metar":"LPPR 031400Z 21006KT 180V270 CAVOK 19/09 Q1021","updated":"2025-11-03T14:18:40Z"}
