{"icao":"KJFK","metar":"KJFK 042251Z 33004KT 10SM BKN250 M01/M12 A3021 RMK AO2 SLP228 T10111122 PNO $","updated":"2026-02-04T23:26:04Z"}
