{"icao":"LPBJ","metar":"LPBJ 090700Z 27008KT 5000 -DZ OVC004 14/14 Q1013","updated":"2026-02-09T07:56:13Z"}
