{"icao":"KORD","metar":"KORD 011751Z 24004KT 10SM OVC055 M10/M17 A2999 RMK AO2 SLP168 T11001167 11094 21117 58016 $","updated":"2026-01-01T18:29:19Z"}
