{"icao":"LPST","metar":"LPST 051600Z 34014KT 310V010 CAVOK 18/11 Q1018","updated":"2026-06-06T15:13:30Z"}
