{"icao":"KJFK","metar":"KJFK 140751Z 31014KT 10SM FEW120 06/M01 A3003 RMK AO2 SLP169 T00561011","updated":"2025-11-14T08:24:52Z"}
