{"icao":"LPMT","metar":"LPMT 040500Z 34006KT 310V020 CAVOK 17/15 Q1022","updated":"2025-10-04T06:23:25Z"}
