{"icao":"KLAX","metar":"KLAX 030853Z 00000KT 10SM FEW007 SCT022 BKN180 16/14 A3006 RMK AO2 SLP177 T01560144 58001","updated":"2026-01-03T09:19:32Z"}
