{"icao":"LPPR","metar":"LPPR 211700Z 32007KT CAVOK 16/11 Q1010","updated":"2026-03-21T17:23:58Z"}
