{"icao":"LPPT","metar":"LPPT 201530Z 08007KT 010V110 CAVOK 16/08 Q1028","updated":"2026-02-20T15:36:01Z"}
