{"icao":"LPMT","metar":"LPMT 180800Z 33005KT 260V360 CAVOK 21/15 Q1016","updated":"2026-06-18T08:45:06Z"}
