{"icao":"LPPD","metar":"LPPD 292300Z 18007KT 140V230 4000 -RADZ SCT007 BKN012 21/19 Q1024","updated":"2025-09-29T23:15:46Z"}
