{"icao":"LPBJ","metar":"LPBJ 132300Z 21011KT 9999 -RA SCT020 14/13 Q1003","updated":"2025-11-13T23:17:43Z"}
