{"icao":"LPMR","metar":"LPMR 212300Z 25007KT 220V280 8000 BKN005 OVC016 20/19 Q1016","updated":"2025-10-21T23:17:01Z"}
