{"icao":"LPMT","metar":"LPMT 021500Z 33006KT 290V010 CAVOK 24/13 Q1019","updated":"2026-04-02T15:59:34Z"}
