{"icao":"LPPT","metar":"LPPT 170900Z 06004KT 030V090 CAVOK 19/13 Q1015","updated":"2025-10-17T09:19:31Z"}
