{"icao":"LPHR","metar":"LPHR 041300Z 07010KT 9000 -SHRA SCT010 BKN022 14/12 Q1023","updated":"2026-01-04T13:28:36Z"}
