{"icao":"KORD","metar":"KORD 212051Z 20015G23KT 10SM FEW100 BKN250 22/06 A2972 RMK AO2 SLP061 T02170056 56046","updated":"2026-03-21T21:24:18Z"}
