{"icao":"LPFL","metar":"LPFL 142000Z 33007KT 290V360 9999 SCT022 15/10 Q1012","updated":"2025-11-14T20:20:31Z"}
