{"icao":"LPPR","metar":"LPPR 021800Z VRB02KT CAVOK 16/12 Q1026","updated":"2025-11-02T18:21:48Z"}
