{"icao":"LPPD","metar":"LPPD 081700Z 27006KT 230V310 9999 FEW018 17/15 Q1031","updated":"2026-01-08T17:25:28Z"}
