{"icao":"KORD","metar":"KORD 242051Z 26009KT 10SM BKN032 BKN041 BKN250 20/12 A2972 RMK AO2 SLP062 T02000122 50006","updated":"2026-04-24T21:45:55Z"}
