{"icao":"LPPT","metar":"LPPT 281700Z 23013KT 9999 FEW012 SCT015 15/12 Q1006","updated":"2026-01-28T17:30:40Z"}
