{"icao":"KORD","metar":"KORD 270251Z 05008KT 10SM SCT009 BKN080 16/14 A3005 RMK AO2 SLP173 T01610144 53002 $","updated":"2026-06-27T02:56:49Z"}
