{"icao":"KJFK","metar":"KJFK 170351Z 17026G39KT 1/4SM R04R/3000V5500FT -RA FG VV002 10/10 A2930 RMK AO2 PK WND 17039/0348 SFC VIS 1/2 RAB15 SLP920 P0001 T01000100","updated":"2026-03-17T04:50:19Z"}
