{"icao":"KORD","metar":"KORD 280251Z 10010KT 10SM FEW250 12/03 A3014 RMK AO2 SLP209 T01170028 55000","updated":"2025-10-28T03:06:26Z"}
