{"icao":"LPAZ","metar":"LPAZ 110630Z 25017KT 7000 FEW002 SCT006 17/16 Q1015","updated":"2026-02-11T06:59:26Z"}
