{"icao":"LPPS","metar":"LPPS 281500Z 01012KT 340V040 9999 SCT015 SCT030 25/15 Q1024","updated":"2025-09-28T15:14:27Z"}
