{"icao":"LPPS","metar":"LPPS 060900Z 08007KT 050V110 9999 SCT010 SCT030 21/19 Q1022","updated":"2025-10-06T09:21:04Z"}
