{"icao":"LPAZ","metar":"LPAZ 210900Z 28024KT 9999 FEW022 BKN046 15/08 Q1010","updated":"2026-04-21T09:24:22Z"}
