{"icao":"LPBJ","metar":"LPBJ 041200Z 25019G29KT 3000 -RADZ BR SCT007 OVC012 15/15 Q0999","updated":"2026-02-04T12:56:48Z"}
