{"icao":"LPPR","metar":"LPPR 060800Z 10013KT CAVOK 19/07 Q1020","updated":"2025-10-06T08:23:44Z"}
