{"icao":"KORD","metar":"KORD 260551Z 26016G32KT 10SM SCT026 SCT040 BKN048 05/M01 A2971 RMK AO2 PK WND 25032/0544 RAE15 SLP063 P0000 60002 T00501006 10100 20050 401110050 50004","updated":"2025-11-26T06:29:32Z"}
