{"icao":"LPFR","metar":"LPFR 221100Z 09009KT CAVOK 18/06 Q1028","updated":"2026-02-22T11:19:45Z"}
