{"icao":"LPFR","metar":"LPFR 202330Z 08007KT CAVOK 20/11 Q1008","updated":"2026-04-20T23:40:39Z"}
