{"icao":"KLAX","metar":"KLAX 250453Z 27003KT 10SM CLR 14/09 A2999 RMK AO2 SLP154 T01390094 $","updated":"2026-01-25T05:27:25Z"}
