{"icao":"LPMT","metar":"LPMT 182000Z VRB02KT CAVOK 18/12 Q1015","updated":"2026-04-18T20:35:27Z"}
