{"icao":"LPPD","metar":"LPPD 181300Z 27011KT 8000 FEW004 BKN007 23/22 Q1016","updated":"2025-10-18T13:21:28Z"}
