{"icao":"LPMR","metar":"LPMR 071200Z 32015KT CAVOK 21/13 Q1021","updated":"2026-06-07T12:19:23Z"}
