{"icao":"LPFL","metar":"LPFL 181600Z 35010KT 330V030 9999 FEW030 16/10 Q1032","updated":"2026-01-18T16:23:21Z"}
