{"icao":"LPFR","metar":"LPFR 010100Z 36003KT 330V030 CAVOK 19/15 Q1018","updated":"2025-10-01T01:26:44Z"}
