{"icao":"LPBJ","metar":"LPBJ 212200Z 08004KT CAVOK 13/08 Q1028","updated":"2026-02-21T22:22:18Z"}
