{"icao":"LPFL","metar":"LPFL 011030Z 07005KT 340V120 9999 FEW020 16/10 Q1033","updated":"2026-04-01T10:54:26Z"}
