{"icao":"LPAZ","metar":"LPAZ 020430Z 30025KT 9999 FEW020 SCT049 13/08 Q1013","updated":"2026-02-02T04:56:24Z"}
