{"icao":"LPLA","metar":"LPLA 300100Z 30007KT 260V330 9999 FEW025 16/12 Q1015","updated":"2026-01-30T01:56:30Z"}
