{"icao":"LPAR","metar":"LPAR 271100Z 04004KT 360V080 9999 SCT020 15/11 Q1025","updated":"2026-02-27T11:31:08Z"}
