{"icao":"LPAR","metar":"LPAR 201000Z 08004KT 030V120 CAVOK 19/10 Q1012","updated":"2026-04-20T10:46:45Z"}
