{"icao":"LPMA","metar":"LPMA 311230Z 20014KT 9000 -RADZ SCT008 BKN015 FEW018CB 19/17 Q1016","updated":"2025-12-31T12:40:49Z"}
