{"icao":"LPAZ","metar":"LPAZ 171500Z 23013KT 9999 BKN005 BKN036 24/21 Q1020","updated":"2026-06-17T15:24:38Z"}
