{"icao":"KLAX","metar":"KLAX 141753Z 09008KT 10SM SCT021 SCT250 17/11 A3014 RMK AO2 SLP205 T01720111 10172 20111 50008","updated":"2026-02-14T18:33:14Z"}
