{"icao":"LPPD","metar":"LPPD 291930Z 02008KT 350V050 9999 FEW020 SCT030 21/16 Q1030","updated":"2026-06-29T19:54:57Z"}
