{"icao":"LPLA","metar":"LPLA 131700Z 31009KT 280V340 9999 FEW030 16/10 Q1030","updated":"2026-02-13T17:38:36Z"}
