{"icao":"LPMA","metar":"LPMA 221100Z 04021KT 010V070 9999 SCT008 BKN012 FEW018CB 16/15 Q1002","updated":"2026-03-22T11:22:25Z"}
