{"icao":"LPAZ","metar":"LPAZ 202100Z 03019G29KT 6000 -SHRA FEW007 SCT014 BKN049 13/12 Q1007","updated":"2026-03-20T21:28:47Z"}
