{"icao":"LPAZ","metar":"LPAZ 150800Z 01006KT 9999 FEW012 14/12 Q1024","updated":"2026-01-15T08:29:31Z"}
