{"icao":"KORD","metar":"KORD 112212Z 30004KT 10SM SCT027 OVC150 M03/M09 A2997 RMK AO2 T10331094","updated":"2025-12-11T22:19:41Z"}
