{"icao":"LPAZ","metar":"LPAZ 300530Z 27011KT 8000 FEW004 SCT047 16/15 Q1019","updated":"2026-01-30T05:44:26Z"}
