{"icao":"LPHR","metar":"LPHR 100630Z 24011KT 9000 FEW008 SCT011 17/16 Q1009","updated":"2026-02-10T07:02:38Z"}
