{"icao":"KLAX","metar":"KLAX 040053Z 25017KT 10SM FEW011 SCT040 SCT060 21/14 A2992 RMK AO2 SLP129 T02060139 $","updated":"2025-10-04T01:15:06Z"}
