{"icao":"LPLA","metar":"LPLA 160100Z 21014KT 170V230 8000 -RA FEW008 BKN018 BKN030 21/18 Q1004","updated":"2025-10-16T01:19:49Z"}
