{"icao":"LPOV","metar":"LPOV 270700Z 16002KT 110V200 1600 0700S RA PRFG FEW008 SCT015 BKN030 10/10 Q1024","updated":"2026-02-27T07:44:38Z"}
