{"icao":"LPPT","metar":"LPPT 281500Z 25014KT 9999 SCT022 15/11 Q1005","updated":"2026-01-28T15:30:55Z"}
