{"icao":"LPPT","metar":"LPPT 270800Z 00000KT CAVOK 07/05 Q1024","updated":"2025-11-27T08:26:56Z"}
