{"icao":"LPPD","metar":"LPPD 210100Z 23011KT 7000 SCT005 BKN009 23/22 Q1016","updated":"2025-10-21T01:21:51Z"}
