{"icao":"KLAX","metar":"KLAX 222253Z 25008KT 10SM SCT075 BKN095 16/12 A2996 RMK AO2 RAB27E42 SLP143 P0000 T01610122 $","updated":"2026-01-22T23:19:50Z"}
