{"icao":"LPPT","metar":"LPPT 180500Z 32007KT CAVOK 15/09 Q1016","updated":"2026-04-18T05:05:05Z"}
