{"icao":"KORD","metar":"KORD 161751Z 09005KT 10SM FEW300 27/13 A3020 RMK AO2 SLP221 T02720128 10283 20178 58014 $","updated":"2025-09-16T18:25:21Z"}
