{"icao":"LPAZ","metar":"LPAZ 291330Z 26018KT 9999 SCT017 SCT028 18/15 Q1011","updated":"2025-12-29T13:36:25Z"}
