{"icao":"LPMT","metar":"LPMT 180500Z VRB01KT CAVOK 07/07 Q1022","updated":"2025-12-18T05:20:57Z"}
