{"icao":"LPFR","metar":"LPFR 060600Z 36003KT CAVOK 06/M01 Q1018","updated":"2026-01-06T06:33:08Z"}
