{"icao":"LPFL","metar":"LPFL 151600Z 35011KT 300V010 9999 VCSH FEW035 BKN045 15/06 Q1029","updated":"2026-01-15T16:33:56Z"}
