{"icao":"KJFK","metar":"KJFK 191351Z 27013KT 10SM FEW025 FEW055 M04/M09 A2996 RMK AO2 SLP146 T10441089 $","updated":"2026-01-19T14:26:48Z"}
