{"icao":"LPPT","metar":"LPPT 090100Z 05003KT 300V080 CAVOK 13/11 Q1023","updated":"2025-11-09T01:26:56Z"}
