{"icao":"LPFL","metar":"LPFL 252100Z 29006KT 220V350 9999 SCT017 SCT034 15/09 Q1007","updated":"2026-01-26T05:32:19Z"}
