{"icao":"LPFL","metar":"LPFL 202100Z 13005KT 080V170 9999 FEW016 BKN034 17/12 Q1032","updated":"2025-11-21T07:18:32Z"}
