{"icao":"LPPS","metar":"LPPS 221300Z 01011KT 340V040 9999 FEW015 18/11 Q1023","updated":"2025-12-22T13:33:17Z"}
