{"icao":"KORD","metar":"KORD 011551Z 09006KT 10SM FEW020 BKN250 23/14 A3022 RMK AO2 SLP230 T02280144","updated":"2025-10-01T16:22:08Z"}
