{"icao":"LPHR","metar":"LPHR 032030Z 22005KT 180V250 9999 SCT003 BKN005 23/22 Q1024","updated":"2025-10-03T21:14:25Z"}
