{"icao":"LPPT","metar":"LPPT 151130Z 01018KT 9999 SCT038 19/09 Q1015","updated":"2026-05-15T11:54:52Z"}
