{"icao":"LPHR","metar":"LPHR 261100Z 07017KT 4000 SHRA SCT011 SCT030 17/13 Q1025","updated":"2025-10-26T11:13:16Z"}
