{"icao":"LPPD","metar":"LPPD 170400Z 29005KT 260V320 9999 FEW020 18/15 Q1011","updated":"2025-10-17T04:21:09Z"}
