{"icao":"KLAX","metar":"KLAX 210453Z 24007KT 9SM SCT008 19/18 A2993 RMK AO2 SLP132 T01940178","updated":"2025-09-21T05:16:26Z"}
