{"icao":"KORD","metar":"KORD 220551Z 34005KT 10SM SCT130 BKN250 03/M02 A3001 RMK AO2 SLP166 T00281022 10067 20028 400890028 53008","updated":"2025-11-22T06:25:42Z"}
