{"icao":"LPMA","metar":"LPMA 122100Z 34009KT 320V020 9999 SCT015 21/15 Q1018","updated":"2025-10-12T21:14:34Z"}
