{"icao":"LPPR","metar":"LPPR 170500Z VRB03KT 5000 -RA BR FEW001 SCT035 BKN040 05/05 Q1013","updated":"2026-01-17T05:19:40Z"}
