{"icao":"LPMA","metar":"LPMA 252300Z 36007KT 9999 BKN014 19/15 Q1024","updated":"2025-11-25T23:17:00Z"}
