{"icao":"KLAX","metar":"KLAX 030753Z 11005KT 10SM CLR 14/13 A2999 RMK AO2 SLP154 T01390128 401830133","updated":"2026-03-03T08:39:44Z"}
