{"icao":"LPBJ","metar":"LPBJ 270400Z 20021KT 3500 RADZ SCT007 BKN020 13/13 Q1002","updated":"2026-01-27T04:45:28Z"}
