{"icao":"LPMA","metar":"LPMA 201930Z 21018KT 9999 FEW012 FEW018CB 16/14 Q0996","updated":"2026-03-20T19:36:14Z"}
