{"icao":"LPBJ","metar":"LPBJ 092300Z VRB04KT 7000 -RA SCT008 OVC028 13/13 Q1019","updated":"2025-12-09T23:18:24Z"}
