{"icao":"LPFR","metar":"LPFR 051730Z 29019KT CAVOK 27/09 Q1014","updated":"2026-06-05T17:52:34Z"}
