{"icao":"LPPT","metar":"LPPT 250600Z 26013KT 230V300 9000 -RA FEW008 BKN012 13/12 Q1015","updated":"2026-01-25T06:30:09Z"}
