{"icao":"LPPR","metar":"LPPR 231800Z 30012KT 260V330 9999 -SHRA SCT017 FEW020TCU BKN030 08/04 Q0996","updated":"2026-01-23T18:31:42Z"}
