{"icao":"LPPR","metar":"LPPR 230430Z 36004KT 9000 3500N BCFG NSC 08/08 Q1012","updated":"2026-03-23T05:01:41Z"}
