{"icao":"KLAX","metar":"KLAX 121406Z 00000KT 4SM BR BKN005 16/15 A2977 RMK AO2 VIS SW-W 2 T01610150 $","updated":"2025-10-12T14:14:14Z"}
