{"icao":"KORD","metar":"KORD 252051Z 27011G17KT 10SM SCT070 BKN250 26/13 A2994 RMK AO2 SLP133 T02560133 55000","updated":"2026-06-25T21:02:00Z"}
