{"icao":"LPCR","metar":"LPCR 261700Z 26011KT 190V280 9999 FEW007 BKN011 22/19 Q1023","updated":"2026-06-26T23:05:33Z"}
