{"icao":"KJFK","metar":"KJFK 161251Z 33014KT 10SM FEW043 BKN160 BKN250 10/02 A2997 RMK AO2 SLP147 T01000017","updated":"2025-10-16T13:29:55Z"}
