{"icao":"LPPT","metar":"LPPT 291700Z 24012KT 220V280 9999 SCT028 17/10 Q1010","updated":"2026-04-29T17:26:53Z"}
