{"icao":"LPCS","metar":"LPCS 281330Z 26010KT 230V320 9999 FEW015 16/13 Q1005","updated":"2026-01-28T13:47:51Z"}
