{"icao":"LPPT","metar":"LPPT 171630Z 24006KT 210V290 9999 BKN025 14/09 Q1025","updated":"2026-02-17T16:55:27Z"}
