{"icao":"LPPT","metar":"LPPT 041800Z 20013KT CAVOK 20/15 Q1013","updated":"2025-11-04T18:27:03Z"}
