{"icao":"LPFL","metar":"LPFL 301330Z 18014KT 150V220 9999 -RA SCT009 16/15 Q1014","updated":"2026-01-30T13:55:04Z"}
