{"icao":"LPPT","metar":"LPPT 022030Z 25007KT 9999 FEW012 16/13 Q1016","updated":"2026-05-02T20:39:39Z"}
