{"icao":"LPPT","metar":"LPPT 250130Z 24014KT 9999 FEW016 BKN022 13/10 Q1015","updated":"2026-01-25T01:50:43Z"}
