{"icao":"KORD","metar":"KORD 160751Z 00000KT 7SM CLR 18/17 A3018 RMK AO2 SLP216 T01830172 $","updated":"2025-09-16T08:24:01Z"}
