{"icao":"LPBJ","metar":"LPBJ 091100Z 03008KT 350V070 9999 FEW017 17/11 Q1015","updated":"2026-04-09T11:56:43Z"}
