{"icao":"LPPS","metar":"LPPS 122100Z 28015KT 9999 SCT014 SCT030 15/14 Q1016","updated":"2026-01-12T21:19:58Z"}
