{"icao":"LPPR","metar":"LPPR 172300Z VRB02KT 4000 BR FEW009 04/03 Q1010","updated":"2026-01-17T23:18:08Z"}
