{"icao":"LPPR","metar":"LPPR 221500Z 25003KT 220V280 9999 BKN035 13/05 Q1029","updated":"2025-11-22T15:16:14Z"}
