{"icao":"LPAZ","metar":"LPAZ 030530Z 07008KT 020V100 9999 FEW015 SCT019 15/12 Q1019","updated":"2026-05-03T05:58:00Z"}
