{"icao":"LPGR","metar":"LPGR 261500Z 29010KT 250V320 9999 FEW018 20/14 Q1025","updated":"2026-06-26T15:22:19Z"}
