{"icao":"LPPT","metar":"LPPT 052130Z 33012KT CAVOK 14/10 Q1017","updated":"2026-05-05T21:59:44Z"}
