{"icao":"LPCS","metar":"LPCS 141900Z 36017KT 9999 FEW014 21/16 Q1021","updated":"2025-09-14T19:11:44Z"}
