{"icao":"KJFK","metar":"KJFK 180051Z 26007KT 8SM FEW010 SCT090 BKN250 01/M01 A3012 RMK AO2 SLP198 T00061011 $","updated":"2026-01-18T01:48:05Z"}
