{"icao":"LPPS","metar":"LPPS 121200Z 12006KT 090V150 9999 BKN015 20/15 Q1020","updated":"2026-06-12T12:17:49Z"}
