{"icao":"LPAZ","metar":"LPAZ 252130Z 05008KT 010V070 9999 FEW017 BKN026 15/11 Q1029","updated":"2026-03-25T21:37:57Z"}
