{"icao":"LPBJ","metar":"LPBJ 301200Z 23006KT 200V280 9999 FEW018 BKN035 19/13 Q1015","updated":"2025-10-30T12:38:01Z"}
