{"icao":"LPPR","metar":"LPPR 302330Z 00000KT CAVOK 13/12 Q1019","updated":"2026-04-30T23:51:30Z"}
