{"icao":"KJFK","metar":"KJFK 080451Z 35014KT 10SM FEW250 01/M10 A3052 RMK AO2 SLP334 T00061100 401330006","updated":"2026-04-08T05:09:56Z"}
