{"icao":"KJFK","metar":"KJFK 300851Z 30020G31KT 10SM SCT060 BKN095 M01/M13 A2957 RMK AO2 PK WND 30041/0819 SLP013 T10061133 53004 $","updated":"2025-12-30T09:24:33Z"}
