{"icao":"LPLA","metar":"LPLA 251700Z 08004KT 040V120 9999 SCT022 OVC025 15/10 Q1030","updated":"2026-03-25T17:57:45Z"}
