{"icao":"LPLA","metar":"LPLA 151400Z 20014G25KT 9999 SCT030 22/14 Q1006","updated":"2025-10-15T14:18:53Z"}
