{"icao":"LPLA","metar":"LPLA 311600Z 34014KT 9999 SCT025 SCT040 17/11 Q1012","updated":"2025-10-31T16:22:38Z"}
