{"icao":"LPPS","metar":"LPPS 091330Z 06006KT 340V120 9999 -SHRA SCT012 17/13 Q1033","updated":"2026-01-09T13:36:42Z"}
