{"icao":"KLAX","metar":"KLAX 272053Z VRB03KT 10SM FEW024 SCT037 16/07 A3003 RMK AO2 SLP170 T01610072 58020 $","updated":"2025-12-27T21:17:10Z"}
