{"icao":"KORD","metar":"KORD 310551Z 33011KT 10SM FEW030 SCT080 BKN180 M12/M17 A3042 RMK AO2 SLP314 4/004 60000 T11171167 11083 21117 410781144 56008","updated":"2026-01-31T06:37:37Z"}
