{"icao":"LPAR","metar":"LPAR 281700Z 25011KT 220V280 9999 SCT020 16/11 Q1005","updated":"2026-01-29T01:56:12Z"}
