{"icao":"KORD","metar":"KORD 181751Z VRB05KT 10SM SCT250 29/12 A3006 RMK AO2 SLP176 T02890117 10289 20172 58002","updated":"2025-09-18T18:25:47Z"}
