{"icao":"KORD","metar":"KORD 051451Z 21010KT 10SM BKN045 OVC200 M08/M12 A2998 RMK AO2 SLP164 T10831122 56012","updated":"2025-12-05T15:20:34Z"}
