{"icao":"LPMT","metar":"LPMT 251000Z 33003KT 290V040 7000 FEW008 BKN015 15/14 Q1016","updated":"2026-02-25T10:50:21Z"}
