{"icao":"KORD","metar":"KORD 222251Z 25006KT 10SM FEW047 SCT250 27/16 A2981 RMK AO2 SLP091 T02670156","updated":"2025-09-22T23:15:31Z"}
