{"icao":"LPMT","metar":"LPMT 252000Z 34006KT 9999 FEW045 19/11 Q1015","updated":"2026-04-25T21:35:23Z"}
