{"icao":"LPPD","metar":"LPPD 201300Z 04008KT 340V090 9999 FEW020 BKN040 20/14 Q1028","updated":"2025-09-20T13:20:54Z"}
