{"icao":"KLAX","metar":"KLAX 130653Z 22003KT 3SM BR BKN007 14/13 A3005 RMK AO2 SLP173 VIS W 2 T01390128 $","updated":"2025-12-13T07:20:32Z"}
