{"icao":"LPPT","metar":"LPPT 040630Z 29008KT 260V330 6000 RA SCT006 SCT010 FEW020TCU BKN025 12/12 Q0996","updated":"2026-02-04T06:51:01Z"}
