{"icao":"LPPS","metar":"LPPS 032200Z 07007KT 030V100 9999 SCT015 22/18 Q1026","updated":"2025-10-03T22:15:17Z"}
