{"icao":"LPBJ","metar":"LPBJ 261400Z 36005KT 9999 SCT020 OVC030 22/15 Q1018","updated":"2025-10-26T14:14:57Z"}
