{"icao":"LPBJ","metar":"LPBJ 051100Z 22020KT 9999 SCT022 FEW028CB 20/18 Q1010 RETS","updated":"2025-11-05T11:16:16Z"}
