{"icao":"LPCS","metar":"LPCS 070900Z 34008KT 280V020 9999 FEW016 17/09 Q1011","updated":"2026-05-07T09:30:03Z"}
