{"icao":"LPLA","metar":"LPLA 140100Z 21007KT 160V300 9999 SCT018 14/11 Q1031","updated":"2026-02-14T01:56:54Z"}
