{"icao":"LPFL","metar":"LPFL 111600Z 25016G27KT 190V320 9999 SCT025 16/07 Q1013","updated":"2026-01-11T16:23:26Z"}
