{"icao":"LPLA","metar":"LPLA 282100Z 29021KT 8000 -RA BKN020 BKN030 17/13 Q1005","updated":"2026-01-28T21:28:02Z"}
