{"icao":"LPPT","metar":"LPPT 181530Z 27012KT 240V310 9999 FEW006 SCT014 BKN035 14/14 Q1019","updated":"2026-02-18T15:50:56Z"}
