{"icao":"LPMR","metar":"LPMR 261400Z 22017G30KT 200V260 8000 BKN009 OVC022 16/13 Q1010","updated":"2026-01-26T14:27:30Z"}
