{"icao":"LPAZ","metar":"LPAZ 241930Z 17013KT 9999 FEW005 SCT009 17/16 Q1015","updated":"2026-04-24T19:51:44Z"}
