{"icao":"LPMR","metar":"LPMR 211400Z 01012KT CAVOK 14/02 Q1027","updated":"2025-11-21T14:17:55Z"}
