{"icao":"KJFK","metar":"KJFK 151151Z 03005KT 10SM FEW130 BKN250 M02/M04 A3007 RMK AO2 SLP181 4/002 T10171044 10000 21028 53006 $","updated":"2026-02-15T12:48:47Z"}
