{"icao":"LPPT","metar":"LPPT 220630Z 04003KT 020V080 CAVOK 09/07 Q1027","updated":"2026-02-22T06:45:28Z"}
