{"icao":"LPFL","metar":"LPFL 211000Z 22003KT 130V250 9999 FEW026 12/07 Q1029","updated":"2025-12-21T10:18:53Z"}
