{"icao":"KORD","metar":"KORD 141351Z 30010KT 10SM FEW020 M19/M25 A3055 RMK AO2 SLP363 T11891250","updated":"2025-12-14T14:17:01Z"}
