{"icao":"LPFR","metar":"LPFR 281230Z 09012KT 9999 SCT008 22/19 Q1014","updated":"2025-10-28T12:37:37Z"}
