{"icao":"LPMA","metar":"LPMA 300600Z 27003KT 240V300 9999 BKN015 16/13 Q1017","updated":"2025-12-30T06:32:13Z"}
