{"icao":"LPBJ","metar":"LPBJ 131300Z 27007KT 220V340 9999 SCT035 21/09 Q1019","updated":"2026-05-13T13:09:58Z"}
