{"icao":"KORD","metar":"KORD 161651Z VRB05KT 10SM FEW048 BKN090 18/07 A3019 RMK AO2 SLP224 T01780067","updated":"2025-10-16T17:16:07Z"}
