{"icao":"KORD","metar":"KORD 040551Z 33012G18KT 10SM FEW250 M09/M15 A3023 RMK AO2 SLP248 4/005 60000 T10891150 11017 21089 410111089 51020","updated":"2025-12-04T06:30:46Z"}
