{"icao":"LPCS","metar":"LPCS 192100Z 36006KT 330V030 CAVOK 15/09 Q1015","updated":"2026-04-19T21:34:30Z"}
