{"icao":"LPAZ","metar":"LPAZ 051230Z 27026KT 9999 SCT019 FEW028TCU 14/08 Q1006","updated":"2026-02-05T12:59:46Z"}
