{"icao":"LPPR","metar":"LPPR 160500Z 00000KT 5000 BR BKN001 14/14 Q1015","updated":"2025-10-16T05:17:06Z"}
