{"icao":"LPPD","metar":"LPPD 041800Z 04013KT 350V080 9999 FEW025 BKN040 17/09 Q1024","updated":"2026-05-04T18:13:16Z"}
