{"icao":"LPAZ","metar":"LPAZ 012100Z 28029KT 9999 FEW028 13/07 Q1013","updated":"2026-02-01T21:21:59Z"}
