{"icao":"KLAX","metar":"KLAX 060253Z 25007KT 10SM FEW011 18/16 A2978 RMK AO2 SLP082 T01830156 53006 $","updated":"2025-10-06T03:00:32Z"}
