{"icao":"LPBJ","metar":"LPBJ 131500Z 07011KT CAVOK 18/10 Q1018","updated":"2025-12-13T15:17:17Z"}
