{"icao":"LPCS","metar":"LPCS 011600Z 23010KT 0500 R17/0600D -DZ FG VV002 15/15 Q1009","updated":"2026-02-01T16:28:21Z"}
