{"icao":"KLAX","metar":"KLAX 162253Z 14008KT 10SM BKN020 BKN085 13/11 A2976 RMK AO2 RAE44 SLP075 P0003 T01280106 $","updated":"2026-02-16T23:27:49Z"}
