{"icao":"KORD","metar":"KORD 081651Z 14008KT 10SM FEW028 FEW120 BKN250 M06/M13 A3036 RMK AO2 SLP290 T10561128","updated":"2025-12-08T17:19:34Z"}
