{"icao":"KJFK","metar":"KJFK 071051Z 23007KT 10SM FEW045 BKN240 18/16 A3020 RMK AO2 SLP224 T01830161 $","updated":"2025-10-07T11:15:16Z"}
