{"icao":"LPLA","metar":"LPLA 192100Z 14003KT 050V150 9999 FEW023 23/21 Q1015","updated":"2025-10-19T21:14:37Z"}
