{"icao":"LPLA","metar":"LPLA 272100Z 17004KT 130V230 9999 FEW022 14/10 Q1034","updated":"2026-02-27T21:27:58Z"}
