{"icao":"KJFK","metar":"KJFK 241751Z 23009G16KT 10SM SCT070 28/09 A2995 RMK SLP140 T02830094 10283 20211 58006 ","updated":"2026-06-24T18:50:03Z"}
