{"icao":"LPFR","metar":"LPFR 270930Z 27003KT 200V330 CAVOK 16/12 Q1024","updated":"2026-02-27T09:39:10Z"}
