{"icao":"KJFK","metar":"KJFK 190151Z 15005KT 10SM FEW250 M02/M08 A3041 RMK AO2 SLP297 T10171083","updated":"2026-03-19T02:06:51Z"}
