{"icao":"KJFK","metar":"KJFK 020151Z 33017G26KT 10SM SCT210 BKN250 M08/M16 A2985 RMK AO2 PK WND 33033/0059 SLP108 T10781161 PNO $","updated":"2026-02-02T02:04:13Z"}
