{"icao":"LPHR","metar":"LPHR 131630Z 21009KT 180V250 9999 FEW025 18/12 Q1031","updated":"2026-03-13T16:38:34Z"}
