{"icao":"LPLA","metar":"LPLA 160200Z 28003KT 9999 BKN040 14/10 Q1032","updated":"2026-05-16T02:47:39Z"}
