{"icao":"LPFR","metar":"LPFR 161600Z 12009KT 9999 FEW015 24/18 Q1013","updated":"2025-10-16T16:23:08Z"}
