{"icao":"LPMR","metar":"LPMR 292000Z 18005KT 9000 -RA BKN028 12/11 Q1015","updated":"2025-11-29T20:19:51Z"}
