{"icao":"KJFK","metar":"KJFK 201351Z 24021G27KT 10SM FEW016 BKN020 BKN045 BKN250 16/10 A2977 RMK AO2 PK WND 24028/1324 SLP082 T01560100 $","updated":"2025-10-20T14:17:56Z"}
