{"icao":"LPLA","metar":"LPLA 261400Z 29025G38KT 260V320 9000 -SHRA FEW015 BKN020 BKN035 11/06 Q1004","updated":"2026-01-26T14:27:45Z"}
