{"icao":"KORD","metar":"KORD 092051Z 24007G19KT 10SM FEW085 OVC250 21/04 A3010 RMK AO2 SLP191 T02110039 58012","updated":"2026-04-09T21:43:56Z"}
