{"icao":"LPLA","metar":"LPLA 202200Z 28023KT 9999 SCT018 SCT032 18/14 Q1021","updated":"2026-01-20T22:21:42Z"}
