{"icao":"LPHR","metar":"LPHR 192100Z 02024G37KT 360V070 9999 VCSH FEW003 SCT055 13/06 Q1018","updated":"2026-04-19T21:34:34Z"}
