{"icao":"KJFK","metar":"KJFK 160451Z 01012G21KT 10SM SCT150 BKN200 12/02 A2997 RMK AO2 SLP149 T01170022 402110117","updated":"2025-10-16T05:17:24Z"}
