{"icao":"KORD","metar":"KORD 281751Z 08011KT 10SM FEW030 BKN250 13/04 A3008 RMK AO2 SLP187 T01280044 10133 20083 58015","updated":"2025-10-28T18:28:19Z"}
