{"icao":"LPAR","metar":"LPAR 211100Z 25010KT 3000 -DZRA BR BKN007 BKN015 16/16 Q1007","updated":"2026-01-21T11:22:41Z"}
