{"icao":"LPOV","metar":"LPOV 240900Z 15006KT 140V200 8000 BKN008 BKN015 18/17 Q1019","updated":"2026-05-24T09:23:08Z"}
