{"icao":"LPPD","metar":"LPPD 181300Z 35023G36KT 9999 -SHRA FEW020 FEW025CB SCT040 11/02 Q1011 WS R30","updated":"2026-03-18T13:09:10Z"}
