{"icao":"LPPR","metar":"LPPR 170930Z 11010KT CAVOK 17/06 Q1012","updated":"2026-03-17T09:54:28Z"}
