{"icao":"LPBJ","metar":"LPBJ 290700Z 29003KT 8000 NSC 17/14 Q1021","updated":"2026-05-29T07:53:42Z"}
