{"icao":"LPPD","metar":"LPPD 192100Z 20007KT 9999 FEW007 SCT013 16/15 Q1024","updated":"2026-02-19T21:30:32Z"}
