{"icao":"LPCS","metar":"LPCS 032000Z 36008KT CAVOK 18/05 Q1022","updated":"2026-04-04T02:03:35Z"}
