{"icao":"LPPT","metar":"LPPT 131930Z 30015G27KT 280V340 9999 FEW024 FEW030TCU 11/08 Q1012 WS R02","updated":"2026-02-13T19:40:42Z"}
