{"icao":"LPLA","metar":"LPLA 222000Z 22014KT 190V250 9000 -DZ SCT007 SCT014 BKN040 21/19 Q1020","updated":"2025-09-22T20:19:12Z"}
