{"icao":"LPLA","metar":"LPLA 020317Z 11008KT 4500 -RADZ BR BKN003 BKN006 19/18 Q1031","updated":"2026-07-02T03:27:12Z"}
