{"icao":"KLAX","metar":"KLAX 160053Z 26009KT 5SM HZ FEW011 22/18 A2985 RMK AO2 SLP105 T02170183","updated":"2025-09-16T01:17:08Z"}
