{"icao":"LPCS","metar":"LPCS 121630Z 21008KT 9999 SCT006 BKN018 15/13 Q1017","updated":"2026-02-12T16:56:50Z"}
