{"icao":"KORD","metar":"KORD 172051Z 10007KT 10SM FEW300 28/14 A3004 RMK AO2 SLP168 T02780139 58016 $","updated":"2025-09-17T21:14:42Z"}
