{"icao":"LPMR","metar":"LPMR 281000Z 35013KT 320V020 9999 FEW018 SCT022 23/17 Q1023","updated":"2026-06-28T10:25:48Z"}
