{"icao":"LPBJ","metar":"LPBJ 210300Z VRB01KT CAVOK 21/15 Q1017","updated":"2026-06-21T04:04:25Z"}
