{"icao":"LPPT","metar":"LPPT 201100Z 10009G19KT 070V170 9999 BKN014 14/12 Q1008","updated":"2026-03-20T11:30:29Z"}
