{"icao":"LPFL","metar":"LPFL 131800Z 33012G26KT 290V010 9999 SCT020 15/08 Q1009","updated":"2025-11-13T18:26:56Z"}
