{"icao":"LPMR","metar":"LPMR 092000Z 34018KT CAVOK 16/11 Q1020","updated":"2026-06-09T20:56:53Z"}
