{"icao":"KJFK","metar":"KJFK 270851Z 02005KT 10SM FEW250 M02/M06 A3003 RMK AO2 SLP168 T10171056 53019 $","updated":"2026-02-27T09:39:47Z"}
