{"icao":"LPPR","metar":"LPPR 032200Z 21003KT CAVOK 11/09 Q1023","updated":"2026-04-03T22:31:55Z"}
