{"icao":"LPHR","metar":"LPHR 201630Z 04010G22KT 340V090 9999 VCSH SCT012 BKN025 16/10 Q1012","updated":"2026-03-20T16:41:29Z"}
