{"icao":"LPST","metar":"LPST 231300Z 30008KT 260V340 9999 FEW022 18/12 Q1014","updated":"2026-04-23T13:26:08Z"}
