{"icao":"LPPR","metar":"LPPR 092230Z 09007KT CAVOK 23/12 Q1015","updated":"2026-04-09T22:39:12Z"}
