{"icao":"LPPR","metar":"LPPR 031700Z 31007KT CAVOK 17/11 Q1022","updated":"2026-04-03T17:33:08Z"}
