{"icao":"KLAX","metar":"KLAX 272253Z 27009KT 7SM FEW220 SCT270 BKN300 19/14 A2992 RMK AO2 SLP132 T01890144","updated":"2026-03-27T23:31:14Z"}
