{"icao":"LPFR","metar":"LPFR 010800Z 10005KT 060V120 CAVOK 21/15 Q1020","updated":"2025-10-01T08:23:36Z"}
