{"icao":"LPMR","metar":"LPMR 082300Z 04002KT CAVOK 13/06 Q1021","updated":"2026-04-08T23:36:32Z"}
