{"icao":"KORD","metar":"KORD 192351Z 25009KT 210V290 10SM FEW060 BKN160 BKN250 23/10 A2995 RMK AO2 SLP138 T02330100 10250 20228 58002 $","updated":"2026-06-20T00:08:50Z"}
