{"icao":"LPBJ","metar":"LPBJ 162300Z 30009KT CAVOK 13/09 Q1017","updated":"2026-05-16T23:51:24Z"}
