{"icao":"KORD","metar":"KORD 170725Z 12005KT 1/2SM R10L/2400VP6000FT FG VV002 10/09 A2993 RMK AO2 T01000094 $","updated":"2026-04-17T07:44:30Z"}
