{"icao":"LPBJ","metar":"LPBJ 020500Z 34008KT 5000 -DZRA BR SCT006 OVC014 09/09 Q1017 REDZRA","updated":"2025-12-02T05:18:44Z"}
