{"icao":"LPHR","metar":"LPHR 101800Z 32019KT 9999 SCT012 18/16 Q1012 RERA","updated":"2025-12-10T18:28:40Z"}
