{"icao":"LPFR","metar":"LPFR 292100Z 26005KT CAVOK 26/18 Q1017","updated":"2026-06-29T21:25:10Z"}
