{"icao":"LPPT","metar":"LPPT 310100Z 20011KT 9999 FEW010 SCT014 18/17 Q1013","updated":"2025-10-31T01:22:29Z"}
