{"icao":"LPST","metar":"LPST 231500Z 30005KT 260V340 9999 FEW022 20/14 Q1014","updated":"2026-03-23T15:58:34Z"}
