{"icao":"LPMA","metar":"LPMA 150500Z 02017KT 9999 SCT015 22/17 Q1021","updated":"2025-09-15T05:17:52Z"}
