{"icao":"LPOV","metar":"LPOV 100700Z VRB02KT CAVOK 14/11 Q1013","updated":"2026-04-10T07:25:51Z"}
