{"icao":"LPMR","metar":"LPMR 280400Z 26013G23KT 220V290 7000 -RA OVC005 17/16 Q1007","updated":"2025-09-28T04:20:19Z"}
