{"icao":"LPMR","metar":"LPMR 262300Z 19022KT 8000 -RA SCT014 BKN022 14/12 Q1001","updated":"2026-01-26T23:20:41Z"}
