{"icao":"LPLA","metar":"LPLA 190400Z 23004KT 180V290 9999 FEW015 15/11 Q1017","updated":"2026-05-19T04:58:51Z"}
