{"icao":"LPPR","metar":"LPPR 260630Z 21013KT 5000 -RA BR BKN003 14/13 Q1007 RERA","updated":"2026-01-26T06:35:28Z"}
