{"icao":"LPPD","metar":"LPPD 291300Z 34006KT 290V030 9999 FEW020 17/14 Q1029","updated":"2025-11-29T13:25:14Z"}
