{"icao":"LPAZ","metar":"LPAZ 030830Z 08003KT 050V120 9999 OVC026 13/09 Q1026","updated":"2026-04-03T08:52:37Z"}
