{"icao":"LPHR","metar":"LPHR 281400Z 25027KT 8000 BKN012 18/16 Q1005","updated":"2026-01-28T14:28:47Z"}
