{"icao":"LPPT","metar":"LPPT 311130Z 07008KT 030V120 CAVOK 21/11 Q1026","updated":"2026-03-31T11:48:27Z"}
