{"icao":"LPAZ","metar":"LPAZ 082300Z 24017KT 6000 FEW002 BKN008 17/16 Q1016","updated":"2026-02-08T23:29:34Z"}
