{"icao":"LPCS","metar":"LPCS 241300Z 31011KT 280V350 9999 FEW020 13/09 Q1013","updated":"2026-01-24T13:29:41Z"}
