{"icao":"KLAX","metar":"KLAX 251853Z 21008KT 10SM FEW022 SCT026 BKN042 BKN200 18/09 A2991 RMK AO2 SLP127 T01780089","updated":"2026-04-25T19:42:36Z"}
