{"icao":"LPOV","metar":"LPOV 061000Z 35008KT CAVOK 07/01 Q1025","updated":"2026-01-06T10:22:18Z"}
