{"icao":"LPBJ","metar":"LPBJ 221412Z 23012KT 7000 -RA FEW027 BKN045 13/09 Q1009","updated":"2026-01-22T14:29:09Z"}
