{"icao":"LPPT","metar":"LPPT 070530Z 19011KT 4500 RADZ BR FEW006 BKN010 11/11 Q1008 RERA","updated":"2026-02-07T05:40:32Z"}
