{"icao":"LPMR","metar":"LPMR 230800Z 09001KT 060V130 CAVOK 12/08 Q1020","updated":"2025-09-23T08:22:49Z"}
