{"icao":"LPPT","metar":"LPPT 212100Z VRB01KT CAVOK 25/15 Q1020","updated":"2026-05-21T21:27:02Z"}
