{"icao":"LPAR","metar":"LPAR 231300Z 16005KT 030V200 9999 FEW015 BKN025 24/18 Q1019","updated":"2025-10-23T13:30:37Z"}
