{"icao":"LPMA","metar":"LPMA 242300Z 24005KT 200V270 9999 SCT014 BKN030 21/17 Q1019","updated":"2025-10-24T23:16:12Z"}
