{"icao":"LPFR","metar":"LPFR 020300Z 10004KT CAVOK 28/15 Q1015","updated":"2026-07-02T03:26:51Z"}
