{"icao":"LPPT","metar":"LPPT 182100Z VRB03KT CAVOK 26/09 Q1019","updated":"2025-09-18T21:15:23Z"}
