{"icao":"LPAR","metar":"LPAR 191500Z 34009KT 300V020 9999 FEW025 16/06 Q1016","updated":"2025-11-19T15:20:00Z"}
