{"icao":"LPFL","metar":"LPFL 180830Z 33007KT 300V360 9999 4900N -DZ FEW006 BKN014 17/16 Q1015","updated":"2026-06-18T08:45:09Z"}
