{"icao":"LPFR","metar":"LPFR 011830Z 23005KT CAVOK 17/11 Q1019","updated":"2026-04-01T18:59:46Z"}
