{"icao":"LPBJ","metar":"LPBJ 040800Z 10006KT CAVOK 12/11 Q1019","updated":"2025-11-04T08:26:33Z"}
