{"icao":"LPMA","metar":"LPMA 242200Z 22004KT 170V280 9999 SCT015 22/19 Q1018","updated":"2026-06-24T22:15:21Z"}
