{"icao":"LPAZ","metar":"LPAZ 290200Z 07005KT 040V120 9999 FEW012 BKN022 13/10 Q1033","updated":"2026-03-29T02:23:02Z"}
