{"icao":"LPPD","metar":"LPPD 021600Z 32013G27KT 280V360 9999 VCSH FEW014 FEW020TCU SCT030 15/10 Q1003 WS ALL RWY","updated":"2026-01-02T16:24:17Z"}
