{"icao":"LPAZ","metar":"LPAZ 301930Z 09008KT 050V120 9999 FEW020 15/10 Q1031","updated":"2026-03-30T19:58:05Z"}
