{"icao":"LPOV","metar":"LPOV 020300Z VRB02KT 9999 MIFG FEW006 09/09 Q1023","updated":"2025-11-02T03:14:02Z"}
