{"icao":"KORD","metar":"KORD 042151Z 24017G29KT 10SM SCT090CB BKN130 BKN250 26/06 A2946 RMK AO2 PK WND 24029/2150 SLP971 CB OHD MOV E T02560061","updated":"2026-05-04T21:58:43Z"}
