{"icao":"LPPD","metar":"LPPD 302130Z 08006KT 050V110 9999 FEW020 13/10 Q1032","updated":"2026-03-30T21:40:42Z"}
