{"icao":"LPHR","metar":"LPHR 171800Z 32010KT 290V350 9999 FEW015 BKN025 15/10 Q1030","updated":"2026-01-17T18:27:14Z"}
