{"icao":"LPMR","metar":"LPMR 191500Z 33014KT 300V360 CAVOK 23/15 Q1015","updated":"2026-06-19T15:12:01Z"}
