{"icao":"LPMT","metar":"LPMT 121100Z 34013KT 300V010 9999 BKN040 15/06 Q1020","updated":"2026-04-12T11:32:50Z"}
