{"icao":"KJFK","metar":"KJFK 240751Z 26003KT 10SM BKN110 OVC250 13/08 A2979 RMK SLP0088 T01280078 ","updated":"2026-04-24T08:01:49Z"}
