{"icao":"KORD","metar":"KORD 231751Z 33012KT 10SM FEW024 FEW250 M21/M33 A3070 RMK AO2 SLP417 4/001 T12111328 11211 21239 51020","updated":"2026-01-23T18:31:47Z"}
