{"icao":"LPFR","metar":"LPFR 201600Z 24015KT 9999 FEW035 23/19 Q1014","updated":"2025-10-20T16:22:07Z"}
