{"icao":"LPPR","metar":"LPPR 281500Z 10008KT 9999 FEW018 BKN037 20/13 Q1010","updated":"2025-10-28T15:20:12Z"}
