{"icao":"KLAX","metar":"KLAX 081953Z 00000KT 10SM CLR 27/02 A3020 RMK AO2 SLP226 T02670017 $","updated":"2026-02-08T20:26:42Z"}
