{"icao":"LPPT","metar":"LPPT 311430Z 06011KT CAVOK 25/07 Q1024","updated":"2026-03-31T15:00:04Z"}
