{"icao":"LPPR","metar":"LPPR 122130Z VRB02KT CAVOK 22/15 Q1018","updated":"2026-06-12T21:41:57Z"}
