{"icao":"LPOV","metar":"LPOV 060900Z 05003KT CAVOK 21/10 Q1020","updated":"2025-10-06T09:21:01Z"}
