{"icao":"LPFR","metar":"LPFR 050930Z 24019KT 6000 FEW012 SCT016 16/15 Q1000","updated":"2026-02-05T09:42:25Z"}
