{"icao":"KJFK","metar":"KJFK 201051Z 29017G27KT 10SM FEW060 FEW250 21/09 A2978 RMK AO2 PK WND 29027/1039 SLP083 T02060094 $","updated":"2026-06-20T11:16:47Z"}
