{"icao":"LPPT","metar":"LPPT 071600Z 35012KT 320V020 9999 FEW035 13/05 Q1027","updated":"2026-01-07T16:29:27Z"}
