{"icao":"LPCS","metar":"LPCS 061100Z 35009KT 320V040 9999 FEW014 SCT022 21/15 Q1020","updated":"2026-06-06T11:24:27Z"}
