{"icao":"KLAX","metar":"KLAX 182253Z 25007KT 10SM FEW050 SCT075 SCT250 16/08 A2991 RMK AO2 SLP128 T01560083","updated":"2025-11-18T23:17:22Z"}
