{"icao":"LPFL","metar":"LPFL 022100Z 22016G28KT 180V310 5000 -RADZ FEW007 BKN009 FEW012TCU 18/16 Q1007 RERA","updated":"2026-02-03T06:50:11Z"}
