{"icao":"LPPT","metar":"LPPT 031530Z 24010KT 9000 -RA FEW020 SCT026 12/09 Q1002","updated":"2026-02-03T15:48:55Z"}
