{"icao":"LPBJ","metar":"LPBJ 030600Z 13010KT 9999 -RA FEW018 FEW020CB OVC045 13/12 Q0999","updated":"2026-01-03T06:29:24Z"}
