{"icao":"KORD","metar":"KORD 190133Z 22011KT 5SM -SN FEW024 BKN033 OVC090 M09/M12 A2988 RMK AO2 P0001 T10891117 $","updated":"2026-01-19T01:46:45Z"}
