{"icao":"LPMT","metar":"LPMT 130900Z 34006KT 300V010 9999 FEW020 13/09 Q1024","updated":"2026-03-13T09:37:00Z"}
