{"icao":"LPPR","metar":"LPPR 300200Z VRB02KT CAVOK 09/03 Q1032","updated":"2026-03-30T02:25:15Z"}
