{"icao":"LPPR","metar":"LPPR 270800Z 10006KT CAVOK 12/07 Q1022","updated":"2025-10-27T08:25:28Z"}
