{"icao":"LPLA","metar":"LPLA 220600Z 21013KT 170V230 9999 SCT016 BKN026 17/14 Q1021","updated":"2026-02-22T06:45:46Z"}
