{"icao":"LPMA","metar":"LPMA 200700Z 36006KT 330V040 9999 BKN015 18/13 Q1019","updated":"2025-11-20T07:18:20Z"}
