{"icao":"LPPT","metar":"LPPT 180800Z VRB02KT 4000 BR FEW002 04/04 Q1012","updated":"2026-01-18T08:25:25Z"}
