{"icao":"LPOV","metar":"LPOV 241100Z 02006KT 330V070 9999 FEW030 13/05 Q1012","updated":"2025-12-24T11:17:51Z"}
