{"icao":"LPPR","metar":"LPPR 162200Z 12006KT 5000 BR FEW003 FEW020CB SCT033 07/06 Q1014","updated":"2026-01-16T22:19:53Z"}
