{"icao":"LPLA","metar":"LPLA 100600Z 21022G37KT 180V240 6000 -RADZ SCT005 BKN010 BKN016 18/16 Q1021","updated":"2026-01-10T06:29:31Z"}
