{"icao":"LPMA","metar":"LPMA 251530Z 36016G26KT 310V030 9999 SCT015 FEW018CB 16/10 Q1019","updated":"2026-02-25T16:01:11Z"}
