{"icao":"LPBJ","metar":"LPBJ 181800Z 27012KT 250V310 9999 FEW040 20/09 Q1020","updated":"2026-05-18T18:49:48Z"}
