{"icao":"LPFR","metar":"LPFR 221730Z 25009KT CAVOK 18/12 Q1013","updated":"2026-04-22T18:02:58Z"}
