{"icao":"KLAX","metar":"KLAX 290953Z 00000KT 10SM FEW250 11/04 A3014 RMK AO2 SLP206 T01060044 $","updated":"2025-12-29T10:22:12Z"}
