{"icao":"KORD","metar":"KORD 210251Z 17010KT 10SM BKN055 OVC075 M05/M13 A3015 RMK AO2 SLP223 T10501133 58022 $","updated":"2026-01-21T03:43:02Z"}
