{"icao":"KLAX","metar":"KLAX 121853Z 26005KT 6SM HZ FEW009 SCT022 BKN140 BKN180 19/15 A3009 RMK AO2 SLP188 T01890150 $","updated":"2025-11-12T19:15:33Z"}
