{"icao":"LPFR","metar":"LPFR 141100Z 16004KT 120V180 9999 FEW030 15/11 Q1021","updated":"2026-01-14T11:20:11Z"}
