{"icao":"KJFK","metar":"KJFK 121913Z 31018G28KT 10SM -RASN FEW027 BKN060 OVC075 04/M01 A2981 RMK AO2 PK WND 31028/1907 RAB12SNB12 P0000 T00391011","updated":"2026-03-12T19:41:28Z"}
