{"icao":"LPFR","metar":"LPFR 171730Z 17007KT 9999 VCSH FEW015 BKN024 16/14 Q1010","updated":"2026-03-17T17:56:44Z"}
