{"icao":"LPPD","metar":"LPPD 201630Z 03018G31KT 350V070 9999 BKN018 FEW020TCU 16/11 Q1007","updated":"2026-03-20T16:41:28Z"}
