{"icao":"KORD","metar":"KORD 021651Z 20010KT 10SM SCT025 SCT250 11/04 A3019 RMK AO2 SLP225 T01060039 $","updated":"2025-11-02T17:14:43Z"}
