{"icao":"KLAX","metar":"KLAX 160853Z 24006KT 10SM FEW008 BKN010 17/15 A2999 RMK AO2 SLP152 T01720150 58005 $","updated":"2026-06-16T09:30:51Z"}
