{"icao":"KJFK","metar":"KJFK 200651Z 01005KT 10SM SCT250 03/M02 A3024 RMK AO2 SLP241 T00281017 $","updated":"2025-11-20T07:18:21Z"}
