{"icao":"KLAX","metar":"KLAX 200653Z 22004KT 10SM FEW250 18/13 A3003 RMK AO2 SLP166 T01830133","updated":"2025-10-20T07:19:08Z"}
