{"icao":"LPMA","metar":"LPMA 050800Z 02004KT 350V050 9999 -DZRA SCT005 FEW015TCU BKN030 18/16 Q1016","updated":"2026-05-05T08:07:22Z"}
