{"icao":"KJFK","metar":"KJFK 180051Z 25009KT 10SM BKN250 03/M01 A3008 RMK AO2 SLP186 T00331006 $","updated":"2025-12-18T01:25:39Z"}
