{"icao":"LPFR","metar":"LPFR 112030Z 25007KT 9999 FEW025 17/14 Q1016","updated":"2026-05-11T20:46:57Z"}
