{"icao":"KJFK","metar":"KJFK 051351Z 06004KT 3SM R04R/3000VP6000FT RA BR FEW007 BKN012 OVC021 05/04 A3026 RMK AO2 SLP245 P0013 T00500039 $","updated":"2026-03-05T14:02:44Z"}
