{"icao":"LPBJ","metar":"LPBJ 180200Z 17004KT CAVOK 15/12 Q1016","updated":"2025-10-18T02:53:39Z"}
