{"icao":"LPLA","metar":"LPLA 041800Z 11005KT 070V150 9999 FEW030 BKN040 16/10 Q1022","updated":"2026-04-04T18:40:14Z"}
