{"icao":"LPOV","metar":"LPOV 141000Z 29009KT 8000 FEW007 SCT014 BKN022 12/11 Q1017","updated":"2026-03-14T10:26:41Z"}
