{"icao":"KJFK","metar":"KJFK 091851Z 34011G20KT 10SM FEW060 15/M02 A3043 RMK AO2 SLP305 T01501017","updated":"2025-10-09T19:14:40Z"}
