{"icao":"KORD","metar":"KORD 022251Z 31005KT 10SM -SN OVC020 M03/M08 A3011 RMK AO2 SLP207 P0000 T10331078","updated":"2026-02-02T23:27:42Z"}
