{"icao":"LPMA","metar":"LPMA 121230Z 24009KT 8000 DZ BKN013 FEW016TCU 19/15 Q1005","updated":"2025-11-12T12:39:33Z"}
