{"icao":"LPHR","metar":"LPHR 080900Z 14016KT 9999 FEW006 SCT011 BKN045 22/21 Q1022","updated":"2025-10-08T09:19:10Z"}
