{"icao":"KJFK","metar":"KJFK 280551Z 10003KT 10SM FEW250 00/M01 A3014 RMK AO2 SLP207 4/008 T00001006 10011 21017 58011","updated":"2026-02-28T06:36:51Z"}
