{"icao":"KJFK","metar":"KJFK 280251Z 28013G25KT 10SM FEW055 BKN180 BKN250 03/M07 A2992 RMK AO2 PK WND 28028/0220 SLP132 T00331067 56002","updated":"2025-11-28T03:10:11Z"}
