{"icao":"LPMA","metar":"LPMA 301830Z 08003KT 360V140 9999 FEW013 BKN020 19/16 Q1023","updated":"2026-01-30T18:40:10Z"}
