{"icao":"LPHR","metar":"LPHR 041300Z 17003KT 140V200 9999 FEW008 23/22 Q1027","updated":"2025-10-04T13:19:58Z"}
