{"icao":"LPPR","metar":"LPPR 081030Z 31007KT 260V350 CAVOK 20/13 Q1024","updated":"2026-06-08T10:50:41Z"}
