{"icao":"LPOV","metar":"LPOV 281300Z 35006KT 320V030 9999 SCT038 14/09 Q1023","updated":"2025-11-28T13:29:19Z"}
