{"icao":"KJFK","metar":"KJFK 111751Z 32012G23KT 10SM FEW060 17/M01 A3024 RMK AO2 PK WND 36027/1714 SLP240 T01671006 10167 20122 58003","updated":"2026-04-11T18:42:14Z"}
