{"icao":"KJFK","metar":"KJFK 180651Z 32011KT 10SM SCT055 SCT250 M02/M11 A3026 RMK AO2 SLP245 T10171106","updated":"2026-03-18T07:51:43Z"}
