{"icao":"LPMT","metar":"LPMT 101900Z 23005KT 9999 FEW025 SCT035 12/10 Q1029","updated":"2026-01-10T21:16:55Z"}
