{"icao":"LPBJ","metar":"LPBJ 061200Z 16012KT 130V190 CAVOK 27/15 Q1021","updated":"2025-10-06T12:37:34Z"}
