{"icao":"LPFL","metar":"LPFL 121300Z 33022G33KT 310V010 9999 FEW028 FEW030CB 16/07 Q1008","updated":"2025-11-12T13:32:25Z"}
