{"icao":"LPPR","metar":"LPPR 211800Z 30005KT 270V330 9999 3500W VCFG SCT005 20/17 Q1018","updated":"2026-06-21T18:18:43Z"}
