{"icao":"LPOV","metar":"LPOV 011900Z 35008KT CAVOK 14/11 Q1022","updated":"2026-04-01T19:59:43Z"}
