{"icao":"LPLA","metar":"LPLA 220900Z 35004KT 320V020 8000 RA SCT014 SCT018CB BKN020 BKN 035 21/20 Q1013 RERA","updated":"2025-10-22T09:20:50Z"}
