{"icao":"LPPD","metar":"LPPD 272130Z 25008KT 9999 FEW018 17/12 Q1021","updated":"2026-05-27T21:53:22Z"}
