{"icao":"LPPD","metar":"LPPD 271830Z 25032G44KT 5000 BR BKN012 BKN030 16/14 Q1006 WS R30","updated":"2026-01-27T18:37:28Z"}
