{"icao":"LPAR","metar":"LPAR 131100Z 05008KT CAVOK 25/12 Q1016","updated":"2025-10-13T11:15:14Z"}
