{"icao":"LPFL","metar":"LPFL 080800Z 22003KT 160V270 9999 FEW020 16/11 Q1017","updated":"2025-11-08T08:21:43Z"}
