{"icao":"LPST","metar":"LPST 260900Z 01003KT 340V060 CAVOK 11/07 Q1026","updated":"2025-11-26T09:21:47Z"}
