{"icao":"KLAX","metar":"KLAX 141153Z 00000KT 10SM CLR 12/06 A3013 RMK AO2 SLP201 T01170061 10172 20100 58006 $","updated":"2026-01-14T12:43:30Z"}
