{"icao":"LPMA","metar":"LPMA 092000Z 03019KT 9999 BKN013 FEW015TCU 14/10 Q1028","updated":"2026-03-09T20:33:40Z"}
