{"icao":"KORD","metar":"KORD 300951Z 29009KT 10SM FEW018 SCT100 M11/M15 A3022 RMK AO2 SLP246 T11061150","updated":"2025-12-30T10:22:22Z"}
