{"icao":"LPPD","metar":"LPPD 012300Z VRB02KT 9999 FEW006 SCT011 21/20 Q1022","updated":"2025-10-01T23:15:35Z"}
