{"icao":"LPMA","metar":"LPMA 142200Z 30005KT 260V330 9999 SCT015 15/07 Q1026","updated":"2026-01-14T22:21:02Z"}
