{"icao":"LPPD","metar":"LPPD 031230Z 25010KT 9999 FEW025 BKN045 18/11 Q1029","updated":"2025-12-03T12:41:05Z"}
