{"icao":"KORD","metar":"KORD 251551Z 20008KT 10SM FEW120 25/11 A3013 RMK AO2 SLP200 T02500111 $","updated":"2026-05-25T16:26:37Z"}
