{"icao":"LPFL","metar":"LPFL 300930Z 14004KT 110V260 9999 FEW013 SCT020 17/12 Q1016","updated":"2026-01-30T09:37:00Z"}
