{"icao":"LPMT","metar":"LPMT 211200Z 26011KT 6000 SCT008 BKN014 15/15 Q1007","updated":"2026-01-21T12:47:52Z"}
