{"icao":"KJFK","metar":"KJFK 162151Z 31020G32KT 10SM FEW065 SCT080 09/M05 A2941 RMK AO2 PK WND 30036/2057 SLP958 VIRGA ALQDS T00891050 $","updated":"2025-11-16T22:16:42Z"}
