{"icao":"LPCS","metar":"LPCS 022000Z 01008KT 9999 FEW020 14/12 Q1025","updated":"2025-11-02T20:17:32Z"}
