{"icao":"LPFR","metar":"LPFR 280430Z 08008KT 9999 FEW012 10/07 Q1007","updated":"2025-12-28T04:43:02Z"}
