{"icao":"LPPR","metar":"LPPR 202000Z 20010KT 7000 -RA FEW005 BKN012 BKN022 13/12 Q1012","updated":"2026-01-20T20:10:50Z"}
