{"icao":"LPAZ","metar":"LPAZ 311230Z 23014KT 4400 BR SCT003 BKN008 17/17 Q1020","updated":"2026-01-31T12:44:34Z"}
