{"icao":"LPFR","metar":"LPFR 031100Z 11009KT CAVOK 20/09 Q1023","updated":"2025-11-03T11:15:29Z"}
