{"icao":"LPHR","metar":"LPHR 281630Z 25029KT 7000 -DZ SCT008 BKN011 18/16 Q1004","updated":"2026-01-28T16:35:38Z"}
