{"icao":"LPPT","metar":"LPPT 141500Z 04011KT 360V060 CAVOK 16/10 Q1016","updated":"2025-12-14T15:17:18Z"}
