{"icao":"LPFR","metar":"LPFR 281000Z 07005KT 020V090 CAVOK 16/04 Q1023","updated":"2025-11-28T10:20:45Z"}
