{"icao":"LPMA","metar":"LPMA 161130Z 04007KT 350V090 9999 BKN014 18/13 Q1032","updated":"2026-02-16T11:39:18Z"}
