{"icao":"LPLA","metar":"LPLA 252300Z 20006KT 9999 FEW015 SCT020 BKN025 16/13 Q1029","updated":"2026-02-25T23:27:03Z"}
