{"icao":"LPFR","metar":"LPFR 042130Z 30011KT CAVOK 16/09 Q1017","updated":"2026-05-04T21:58:38Z"}
