{"icao":"LPBJ","metar":"LPBJ 040800Z 09005KT CAVOK 14/07 Q1023","updated":"2026-04-04T08:39:17Z"}
