{"icao":"LPPR","metar":"LPPR 032200Z 21009KT 9000 -SHRA SCT015 BKN020 13/12 Q1020","updated":"2025-12-03T22:19:13Z"}
