{"icao":"LPBJ","metar":"LPBJ 072000Z 30012KT CAVOK 25/12 Q1019","updated":"2026-06-07T20:10:07Z"}
