{"icao":"LPST","metar":"LPST 061300Z 18014KT CAVOK 26/12 Q1020","updated":"2025-10-06T13:27:31Z"}
