{"icao":"LPPS","metar":"LPPS 030400Z 07004KT 360V120 9999 SCT015 21/18 Q1022","updated":"2025-10-03T04:20:16Z"}
