{"icao":"KORD","metar":"KORD 220551Z 29009KT 10SM -SN OVC033 M04/M09 A3016 RMK AO2 SLP221 P0000 60002 T10391089 11028 21039 410171039 58001 $","updated":"2026-02-22T06:46:02Z"}
