{"icao":"KLAX","metar":"KLAX 292053Z 10006KT 10SM FEW220 FEW250 22/M03 A3009 RMK AO2 SLP190 T02221028 58025","updated":"2025-12-29T21:18:21Z"}
