{"icao":"LPOV","metar":"LPOV 271600Z 05008KT CAVOK 13/03 Q1010","updated":"2025-12-27T16:22:28Z"}
