{"icao":"LPPS","metar":"LPPS 181600Z 32008KT 280V020 9999 SCT015 22/17 Q1020","updated":"2026-06-18T16:29:50Z"}
