{"icao":"KJFK","metar":"KJFK 230451Z 02025G41KT 1/2SM R04R/P6000FT -SN BLSN BR VV007 M01/M01 A2961 RMK AO2 PK WND 03041/0444 SFC VIS 3/4 PRESFR SLP027 SNINCR 2/7 P0002 T10061011 400441011 $","updated":"2026-02-23T04:57:14Z"}
