{"icao":"LPAZ","metar":"LPAZ 160800Z 31007KT 280V340 9999 FEW030 BKN036 16/10 Q1023","updated":"2025-11-16T08:22:03Z"}
