{"icao":"KORD","metar":"KORD 071751Z 09013KT 10SM FEW075 BKN250 28/12 A2997 RMK AO2 SLP142 T02830122 10283 20194 56006 $","updated":"2026-06-07T18:02:54Z"}
