{"icao":"LPMT","metar":"LPMT 150400Z 18006KT 150V210 9999 FEW030 SCT042 16/13 Q1006","updated":"2025-11-15T04:20:49Z"}
