{"icao":"LPPS","metar":"LPPS 080700Z 02004KT 320V070 9999 FEW014 14/12 Q1033","updated":"2026-01-08T07:23:40Z"}
