{"icao":"LPCS","metar":"LPCS 101300Z 35017KT CAVOK 24/12 Q1018","updated":"2026-06-10T13:33:51Z"}
