{"icao":"LPMR","metar":"LPMR 161100Z 32005KT 270V360 8000 FEW005 22/16 Q1015","updated":"2025-10-16T11:15:16Z"}
