{"icao":"LPMT","metar":"LPMT 271600Z 26018KT 9999 FEW020 SCT035 13/06 Q1004","updated":"2026-01-27T16:28:56Z"}
