{"icao":"LPFL","metar":"LPFL 160930Z 18020G35KT 150V210 9999 SCT014 BKN045 17/14 Q1018","updated":"2026-02-16T09:52:48Z"}
