{"icao":"KJFK","metar":"KJFK 032251Z 18012KT 10SM CLR 21/07 A3017 RMK AO2 SLP215 T02110067 $","updated":"2026-06-03T23:41:45Z"}
