{"icao":"LPPR","metar":"LPPR 262000Z 03003KT 330V060 CAVOK 10/08 Q1025","updated":"2025-11-26T20:20:26Z"}
