{"icao":"LPFR","metar":"LPFR 072000Z 27012KT CAVOK 17/11 Q1011","updated":"2026-05-07T20:12:55Z"}
