{"icao":"LPMA","metar":"LPMA 221500Z 04007KT 350V080 9999 FEW016 19/12 Q1024","updated":"2026-02-22T15:23:35Z"}
