{"icao":"LPCS","metar":"LPCS 130800Z 15014KT 5000 -RA BR FEW003 BKN010 FEW018CB 17/17 Q1000","updated":"2025-11-13T08:25:17Z"}
