{"icao":"LPMR","metar":"LPMR 030900Z 01006KT 9999 FEW008 BKN010 16/13 Q1024","updated":"2025-10-03T09:17:21Z"}
