{"icao":"LPMT","metar":"LPMT 281900Z 22008KT 190V260 9999 FEW008 BKN020 15/13 Q1005","updated":"2026-01-28T19:26:59Z"}
