{"icao":"LPPS","metar":"LPPS 012100Z 34009KT 9999 FEW015 BKN030 14/08 Q1021","updated":"2026-03-01T21:21:16Z"}
