{"icao":"LPPR","metar":"LPPR 282100Z 19015KT 4700 RADZ BR SCT008 BKN015 FEW017CB BKN024 13/11 Q1000","updated":"2026-01-28T21:27:44Z"}
