{"icao":"LPMT","metar":"LPMT 171400Z 13010KT CAVOK 21/09 Q1007","updated":"2026-03-17T16:04:27Z"}
