{"icao":"LPPT","metar":"LPPT 100900Z 05005KT 360V100 9999 FEW006 17/14 Q1013","updated":"2026-04-10T09:07:24Z"}
