{"icao":"LPPR","metar":"LPPR 260830Z 12008KT 9999 FEW002 10/09 Q1025","updated":"2026-02-26T08:47:07Z"}
