{"icao":"LPMR","metar":"LPMR 190400Z 17002KT 130V190 4000 BR FEW020 SCT035 09/08 Q1017","updated":"2025-11-19T04:22:15Z"}
