{"icao":"LPFL","metar":"LPFL 101500Z 34012KT 310V010 9999 BKN014 BKN028 15/12 Q1031","updated":"2026-04-10T15:52:17Z"}
