{"icao":"KJFK","metar":"KJFK 200551Z 16022G31KT 8SM RA SCT034 BKN045 OVC065 19/17 A2974 RMK AO2 PK WND 17035/0503 RAB48 SLP072 P0000 60000 T01940172 10200 20183 58035 $","updated":"2025-10-20T06:28:28Z"}
