{"icao":"LPCS","metar":"LPCS 181300Z 02006KT 340V050 9999 FEW020 19/07 Q1019","updated":"2025-11-18T13:30:58Z"}
