{"icao":"LPMA","metar":"LPMA 182100Z 36009KT 330V030 9999 FEW014 17/11 Q1026","updated":"2026-02-18T21:33:57Z"}
