{"icao":"LPPD","metar":"LPPD 282300Z 05010KT 9999 FEW018 BKN030 14/10 Q1034","updated":"2026-03-28T23:29:42Z"}
