{"icao":"LPPD","metar":"LPPD 241500Z 18012KT 8000 -RA SCT016 BKN030 16/15 Q1014","updated":"2026-04-24T15:06:37Z"}
