{"icao":"LPLA","metar":"LPLA 310300Z 26007KT 220V300 9999 FEW025 SCT035 16/13 Q1007","updated":"2025-10-31T03:09:26Z"}
