{"icao":"KORD","metar":"KORD 111751Z 19015G25KT 10SM FEW100 BKN130 BKN250 03/M07 A2977 RMK AO2 PK WND 18027/1726 SLP087 60000 T00281067 10028 21028 58064","updated":"2025-11-11T18:26:38Z"}
