{"icao":"LPFR","metar":"LPFR 301500Z 26009KT CAVOK 26/13 Q1019","updated":"2026-05-30T15:04:39Z"}
