{"icao":"LPFR","metar":"LPFR 290000Z 35009KT CAVOK 25/15 Q1019","updated":"2026-06-29T00:07:26Z"}
