{"icao":"LPOV","metar":"LPOV 131000Z 34006KT CAVOK 21/14 Q1022","updated":"2025-09-13T10:48:39Z"}
