{"icao":"LPOV","metar":"LPOV 072100Z 33022G32KT 9999 SCT030 BKN045 11/08 Q1003","updated":"2026-02-07T21:25:25Z"}
