{"icao":"KLAX","metar":"KLAX 051553Z 00000KT 8SM FEW019 BKN033 17/11 A3019 RMK AO2 SLP222 T01720111 $","updated":"2025-11-05T16:24:26Z"}
