{"icao":"LPFR","metar":"LPFR 051000Z 22006KT CAVOK 23/17 Q1019","updated":"2025-10-05T10:16:08Z"}
