{"icao":"LPPS","metar":"LPPS 252000Z 02010KT 9999 SCT015 19/15 Q1023","updated":"2025-11-25T20:21:43Z"}
