{"icao":"LPHR","metar":"LPHR 151130Z 06007KT 020V090 9999 FEW018 BKN035 16/10 Q1033","updated":"2026-05-15T11:55:11Z"}
