{"icao":"LPPS","metar":"LPPS 280100Z 04006KT 010V080 9999 SCT015 SCT030 19/12 Q1023","updated":"2025-11-28T01:22:51Z"}
