{"icao":"KORD","metar":"KORD 150851Z 24005KT 10SM SCT250 M01/M02 A2991 RMK AO2 SLP133 T10061022 56008 $","updated":"2026-02-15T09:29:57Z"}
