{"icao":"KORD","metar":"KORD 070251Z 09006KT 10SM FEW060 BKN250 22/13 A2991 RMK AO2 SLP123 T02220133 53013 $","updated":"2026-06-07T03:46:04Z"}
