{"icao":"LPPD","metar":"LPPD 210100Z 03008KT 9999 FEW020 SCT035 19/13 Q1028","updated":"2025-09-21T01:24:51Z"}
