{"icao":"LPPT","metar":"LPPT 281600Z 35007KT 330V030 9999 FEW026 14/09 Q1022","updated":"2025-11-28T16:23:20Z"}
