{"icao":"LPST","metar":"LPST 210900Z 25007KT 3000 -RADZ BR BKN006 OVC012 20/19 Q1015","updated":"2025-10-21T09:19:37Z"}
