{"icao":"KJFK","metar":"KJFK 160851Z 24009KT 10SM FEW050 BKN092 10/08 A2920 RMK AO2 SLP886 60002 T01000078 56018 $","updated":"2025-11-16T09:17:40Z"}
