{"icao":"KORD","metar":"KORD 231851Z 06008KT 10SM FEW050 FEW250 04/M09 A3043 RMK AO2 SLP312 T00441094","updated":"2026-03-23T18:53:23Z"}
