{"icao":"LPFL","metar":"LPFL 191400Z 01009KT 340V050 9999 FEW020 SCT028 20/12 Q1026","updated":"2025-09-19T14:17:02Z"}
