{"icao":"LPOV","metar":"LPOV 262000Z 23002KT 9999 SCT040 21/18 Q1018","updated":"2026-06-27T02:56:15Z"}
