{"icao":"KORD","metar":"KORD 142151Z 09009KT 10SM CLR 27/17 A3004 RMK AO2 SLP168 T02720167 $","updated":"2025-09-14T22:14:59Z"}
