{"icao":"KJFK","metar":"KJFK 201751Z 36005KT 10SM SCT200 SCT240 07/M03 A3020 RMK AO2 SLP225 T00721028 10078 20022 56031 $","updated":"2025-11-20T18:28:13Z"}
