{"icao":"LPLA","metar":"LPLA 200200Z 34018KT 9999 SCT025 BKN0035 12/06 Q1019","updated":"2026-04-20T02:34:58Z"}
