{"icao":"KJFK","metar":"KJFK 070951Z 23010KT 10SM SCT047 SCT200 SCT250 18/17 A3019 RMK AO2 SLP223 T01830167 $","updated":"2025-10-07T10:19:01Z"}
