{"icao":"KLAX","metar":"KLAX 111753Z 31008KT 10SM FEW012 23/17 A2987 RMK AO2 SLP112 T02280167 10239 20183 51005","updated":"2026-06-11T18:10:20Z"}
