{"icao":"LPPR","metar":"LPPR 182100Z 08005KT 050V110 CAVOK 17/09 Q1004","updated":"2026-03-18T21:33:03Z"}
