{"icao":"KORD","metar":"KORD 040351Z 19006KT 10SM CLR 24/15 A3011 RMK AO2 SLP192 T02440150 $","updated":"2025-10-04T04:19:55Z"}
