{"icao":"LPOV","metar":"LPOV 011400Z 31006KT 280V340 CAVOK 23/14 Q1021","updated":"2025-10-01T14:17:55Z"}
