{"icao":"LPPR","metar":"LPPR 012200Z 19004KT CAVOK 18/14 Q1021","updated":"2025-10-01T22:15:50Z"}
