{"icao":"KLAX","metar":"KLAX 041053Z 07006KT 9SM CLR 16/14 A2991 RMK AO2 SLP126 T01610139 $","updated":"2025-10-04T11:12:41Z"}
