{"icao":"LPPR","metar":"LPPR 050400Z 21021G32KT 8000 -RA BKN006 FEW018TCU 14/14 Q0984","updated":"2026-02-05T04:20:33Z"}
