{"icao":"LPPD","metar":"LPPD 031300Z 17005KT 140V210 9999 FEW006 BKN025 23/21 Q1024","updated":"2025-10-03T13:24:26Z"}
