{"icao":"LPOV","metar":"LPOV 141200Z 21006KT 2000 -DZ BR BKN004 BKN012 12/12 Q1016","updated":"2026-03-14T12:49:28Z"}
