{"icao":"LPST","metar":"LPST 121000Z 26005KT 220V290 9999 FEW007 BKN018 14/12 Q1021","updated":"2026-02-12T10:43:33Z"}
