{"icao":"LPPR","metar":"LPPR 091030Z 12005KT 070V160 8000 -RA SCT011 FEW022CB BKN026 14/13 Q1004 RERA","updated":"2026-05-09T10:55:53Z"}
