{"icao":"LPPR","metar":"LPPR 090830Z 33008KT 280V360 9999 SCT005 BKN014 BKN030 09/08 Q1020","updated":"2026-03-09T08:42:04Z"}
