{"icao":"LPCS","metar":"LPCS 190800Z 34005KT 310V020 9999 FEW005 SCT014 16/14 Q1023","updated":"2026-05-19T08:33:52Z"}
