{"icao":"LPOV","metar":"LPOV 241100Z 16009KT 9999 -RA SCT014 BKN035 09/07 Q1008","updated":"2026-01-24T11:16:55Z"}
