{"icao":"LPHR","metar":"LPHR 232100Z 26029G40KT 8000 -SHRA SCT013 FEW015TCU SCT030 15/12 Q1006","updated":"2026-02-23T23:33:17Z"}
