{"icao":"LPAZ","metar":"LPAZ 192100Z 03013KT 9999 FEW024 SCT036 20/13 Q1024","updated":"2025-09-19T21:14:39Z"}
