{"icao":"LPPT","metar":"LPPT 202000Z 35013KT CAVOK 11/06 Q1023","updated":"2025-11-20T20:21:06Z"}
