{"icao":"LPMA","metar":"LPMA 271500Z 03012KT 340V050 9999 SCT016 20/12 Q1021","updated":"2025-11-27T15:19:21Z"}
