{"icao":"KLAX","metar":"KLAX 251553Z 09004KT 4SM BR OVC004 19/18 A3001 RMK AO2 SLP160 VIS S-NW 2 1/2 T01890178","updated":"2025-09-25T16:21:55Z"}
