{"icao":"KJFK","metar":"KJFK 061051Z 23009KT 10SM BKN170 BKN250 22/16 A2992 RMK AO2 SLP132 T02220156 $","updated":"2026-06-06T11:24:43Z"}
