{"icao":"LPLA","metar":"LPLA 071900Z 22025G39KT 8000 -RA FEW008 SCT015 17/15 Q1009","updated":"2026-02-07T19:23:03Z"}
