{"icao":"LPCS","metar":"LPCS 291230Z 23005KT 190V260 9999 FEW012 FEW018TCU SCT020 20/19 Q1008","updated":"2025-10-29T12:39:12Z"}
