{"icao":"LPFR","metar":"LPFR 201330Z 13004KT 100V160 CAVOK 17/05 Q1027","updated":"2026-02-20T14:00:37Z"}
