{"icao":"LPLA","metar":"LPLA 172100Z 30023KT 9999 FEW014 BKN020 15/11 Q1028","updated":"2026-01-17T21:17:03Z"}
