{"icao":"LPCS","metar":"LPCS 231730Z 20005KT 170V230 CAVOK 16/08 Q1022","updated":"2026-02-23T18:00:19Z"}
