{"icao":"LPPS","metar":"LPPS 170630Z 13007KT 100V160 9999 SCT014 15/12 Q1026","updated":"2026-02-17T07:02:50Z"}
