{"icao":"KORD","metar":"KORD 222351Z 02013KT 10SM FEW045 FEW250 19/09 A3007 RMK AO2 SLP181 T01940094 10228 20194 53009","updated":"2026-06-23T00:04:07Z"}
