{"icao":"LPPD","metar":"LPPD 212000Z 17008KT 140V200 9999 FEW012 BKN045 16/14 Q1025","updated":"2026-02-21T20:23:39Z"}
