{"icao":"LPMA","metar":"LPMA 201900Z 03013KT 9999 FEW015 24/20 Q1019","updated":"2025-09-20T19:11:24Z"}
