{"icao":"LPGR","metar":"LPGR 011130Z 09011KT 9999 FEW018 BKN027 22/18 Q1032","updated":"2026-07-01T12:05:55Z"}
