{"icao":"LPPR","metar":"LPPR 270700Z 12007KT CAVOK 13/09 Q1016","updated":"2025-09-27T07:14:02Z"}
