{"icao":"LPPS","metar":"LPPS 090830Z 29019KT 9000 -DZ BKN008 SCT013 17/16 Q1023","updated":"2026-02-09T08:56:00Z"}
