{"icao":"KLAX","metar":"KLAX 072253Z 26014KT 10SM FEW015 FEW060 SCT150 17/10 A2989 RMK AO2 SLP121 T01720100 $","updated":"2026-01-07T23:19:37Z"}
