{"icao":"KJFK","metar":"KJFK 020551Z 33014KT 10SM BKN250 M09/M16 A2992 RMK AO2 SLP130 4/006 6//// T10891161 11056 21094 51018 PNO $","updated":"2026-02-02T06:02:49Z"}
