{"icao":"LPCS","metar":"LPCS 231800Z 30013KT 9999 FEW007 FEW025TCU SCT030 08/06 Q1001","updated":"2026-01-23T18:31:43Z"}
