{"icao":"LPFR","metar":"LPFR 110500Z 05010KT 9999 FEW012 FEW020TCU SCT030 13/13 Q1020","updated":"2025-12-11T05:21:18Z"}
