{"icao":"KJFK","metar":"KJFK 011851Z 29018G33KT 10SM BKN065 BKN250 15/M01 A2993 RMK AO2 PK WND 29033/1846 SLP134 T01501006 $","updated":"2025-11-01T19:12:52Z"}
