{"icao":"LPPR","metar":"LPPR 051930Z 23013KT 200V260 9999 FEW020CB BKN025 13/11 Q0995","updated":"2026-02-05T19:35:48Z"}
