{"icao":"LPBJ","metar":"LPBJ 150200Z 29006KT CAVOK 17/10 Q1017","updated":"2025-10-15T03:03:27Z"}
