{"icao":"KLAX","metar":"KLAX 042353Z 26012KT 10SM BKN012 21/15 A2988 RMK AO2 SLP116 T02060150 10222 20189 56006 $","updated":"2026-06-05T00:05:49Z"}
