{"icao":"LPMR","metar":"LPMR 050800Z 35007KT 8000 OVC005 15/14 Q1022","updated":"2025-10-05T08:19:48Z"}
