{"icao":"LPCS","metar":"LPCS 090800Z 17014KT 3000 RADZ BR FEW003 SCT006 BKN010 FEW020CB 16/16 Q1016","updated":"2025-12-09T08:27:57Z"}
