{"icao":"LPMT","metar":"LPMT 012100Z 19009KT 140V210 6000 -RADZ SCT008 BKN020 14/14 Q1005","updated":"2026-02-01T21:21:45Z"}
