{"icao":"LPMA","metar":"LPMA 270900Z 02013KT 340V040 9999 FEW015 23/17 Q1022","updated":"2026-06-27T09:27:06Z"}
