{"icao":"LPLA","metar":"LPLA 111700Z 03007KT 340V090 9999 SCT045 14/06 Q1032","updated":"2026-04-11T17:30:07Z"}
