{"icao":"LPBJ","metar":"LPBJ 130500Z 30009KT CAVOK 06/05 Q1020","updated":"2026-04-13T05:40:22Z"}
