{"icao":"KLAX","metar":"KLAX 061853Z 25008KT 8SM FEW010 SCT022 22/15 A2984 RMK AO2 SLP104 T02220150 $","updated":"2025-10-06T19:14:15Z"}
