{"icao":"LPMA","metar":"LPMA 260500Z 36009KT 340V040 9999 BKN015 FEW016TCU 18/14 Q1023","updated":"2025-11-26T05:18:33Z"}
