{"icao":"KJFK","metar":"KJFK 141251Z 18007KT 10SM BKN110 BKN250 06/02 A2969 RMK AO2 SLP054 T00560022 $","updated":"2026-01-14T13:39:34Z"}
