{"icao":"LPFL","metar":"LPFL 222000Z 31011G22KT 240V360 9999 VCSH SCT027 13/06 Q1021","updated":"2026-01-22T20:26:40Z"}
