{"icao":"KJFK","metar":"KJFK 051451Z 23007KT 10SM FEW095 BKN160 14/02 A3006 RMK AO2 SLP178 T01390022 58025 $","updated":"2025-11-05T15:19:24Z"}
