{"icao":"LPLA","metar":"LPLA 091700Z 10007KT 050V160 9999 SCT035 14/07 Q1035","updated":"2026-03-09T17:53:42Z"}
