{"icao":"LPMR","metar":"LPMR 100900Z VRB01KT 0200 FG SCT001 09/09 Q1021","updated":"2025-12-10T10:22:20Z"}
