{"icao":"LPPR","metar":"LPPR 231600Z 31006KT 270V350 9999 VCSH FEW017 FEW020CB BKN027 07/05 Q0995 RESHGS","updated":"2026-01-23T16:28:39Z"}
