{"icao":"LPPT","metar":"LPPT 222100Z 33003KT CAVOK 10/05 Q1029","updated":"2025-11-22T21:15:29Z"}
