{"icao":"KLAX","metar":"KLAX 141453Z VRB04KT 8SM FEW012 OVC014 20/17 A2990 RMK AO2 SLP122 T02000167 53011 $","updated":"2025-09-14T15:14:30Z"}
