{"icao":"KORD","metar":"KORD 021451Z 26005KT 4SM BR BKN007 M08/M10 A3001 RMK AO2 SLP174 I3001 T10831100 52014","updated":"2025-12-02T15:21:35Z"}
