{"icao":"LPPD","metar":"LPPD 191230Z 01020G31KT 340V040 9999 FEW014 22/12 Q1021","updated":"2025-09-19T12:36:13Z"}
