{"icao":"LPHR","metar":"LPHR 191700Z 06014G25KT 030V090 9999 FEW025 18/10 Q1026","updated":"2025-11-19T17:17:31Z"}
