{"icao":"LPPT","metar":"LPPT 250830Z 07005KT 340V100 5000 2000E BR VCFG SCT002 BKN006 13/13 Q1016","updated":"2026-02-25T08:47:28Z"}
