{"icao":"LPMT","metar":"LPMT 191300Z 34006KT 300V010 9999 FEW020 15/08 Q1020","updated":"2026-01-19T13:43:51Z"}
