{"icao":"LPFL","metar":"LPFL 171430Z 05010KT 010V080 9999 FEW007 SCT012 BKN015 20/17 Q1022 WS R18","updated":"2026-05-17T14:54:50Z"}
