{"icao":"KJFK","metar":"KJFK 151851Z 35008KT 280V020 10SM SCT045 SCT160 BKN250 21/11 A2989 RMK AO2 SLP121 T02110106","updated":"2025-10-15T19:14:13Z"}
