{"icao":"LPST","metar":"LPST 261100Z 13012KT 100V160 CAVOK 27/12 Q1022","updated":"2026-05-26T16:40:58Z"}
