{"icao":"LPFL","metar":"LPFL 211100Z VRB10G24KT 8000 -SHRA BKN016 14/10 Q1008","updated":"2026-04-21T11:05:13Z"}
