{"icao":"LPPT","metar":"LPPT 071600Z 26025G39KT 220V280 9999 -SHRA FEW025 FEW030CB 13/10 Q1003 WS R20","updated":"2026-02-07T16:28:54Z"}
