{"icao":"LPPT","metar":"LPPT 082230Z 01006KT CAVOK 12/08 Q1020","updated":"2026-04-08T22:37:15Z"}
