{"icao":"KORD","metar":"KORD 271651Z 09012KT 10SM FEW030 FEW250 13/01 A3024 RMK AO2 SLP242 T01330006","updated":"2025-10-27T17:15:44Z"}
