{"icao":"LPLA","metar":"LPLA 131800Z 22010KT 180V240 9999 FEW028 25/18 Q1024","updated":"2025-09-13T18:20:42Z"}
