{"icao":"LPLA","metar":"LPLA 051200Z 23008KT 200V270 9999 FEW025 18/08 Q1017","updated":"2025-11-05T12:38:31Z"}
