{"icao":"LPMT","metar":"LPMT 281500Z 35010KT CAVOK 16/06 Q1023","updated":"2026-02-28T15:20:30Z"}
