{"icao":"LPMT","metar":"LPMT 020700Z 33006KT 300V360 9999 FEW002 13/11 Q1021","updated":"2026-04-02T07:10:35Z"}
