{"icao":"KLAX","metar":"KLAX 270953Z VRB03KT 4SM BR FEW007 BKN010 16/14 A2999 RMK AO2 SLP154 T01610144 $","updated":"2025-10-27T10:21:38Z"}
