{"icao":"LPPS","metar":"LPPS 130500Z 24013KT 9999 -RA SCT014 FEW016CB BKN030 17/12 Q0999","updated":"2025-11-13T05:18:54Z"}
