{"icao":"LPFR","metar":"LPFR 041500Z 22009KT CAVOK 23/17 Q1020","updated":"2025-10-04T15:14:22Z"}
