{"icao":"LPMR","metar":"LPMR 201000Z 15005KT 4000 BR FEW020 07/07 Q1019","updated":"2026-01-20T10:26:13Z"}
