{"icao":"LPAZ","metar":"LPAZ 261400Z 14008KT 100V170 9999 FEW014 19/15 Q1024","updated":"2025-11-26T14:19:28Z"}
