{"icao":"LPMT","metar":"LPMT 251800Z 35009KT CAVOK 14/06 Q1023","updated":"2025-11-25T18:29:02Z"}
