{"icao":"LPMA","metar":"LPMA 141100Z 02019KT 9999 SCT015 25/18 Q1024","updated":"2025-09-14T11:11:42Z"}
