{"icao":"LPHR","metar":"LPHR 180900Z 27014KT 8000 SCT003 BKN005 22/21 Q1014","updated":"2025-10-18T09:16:42Z"}
