{"icao":"LPPT","metar":"LPPT 151000Z 33003KT 270V360 9999 FEW010 10/10 Q1013","updated":"2025-12-15T10:24:05Z"}
