{"icao":"LPCS","metar":"LPCS 242000Z 04006KT CAVOK 20/15 Q1019","updated":"2026-05-24T21:55:14Z"}
