{"icao":"LPCS","metar":"LPCS 301000Z 24012KT 9000 FEW004 SCT008 BKN012 15/15 Q1013","updated":"2026-01-30T10:32:28Z"}
