{"icao":"LPPT","metar":"LPPT 102230Z 22004KT 190V260 8000 FEW003 BKN005 16/15 Q1018","updated":"2026-02-10T22:37:38Z"}
