{"icao":"KORD","metar":"KORD 021051Z 07009KT 6SM BR OVC006 04/02 A2992 RMK AO2 LTG DSNT NE RAE38 SLP138 P0004 T00390022","updated":"2026-04-02T11:43:09Z"}
