{"icao":"LPPT","metar":"LPPT 251000Z 26013G24KT 230V290 9999 VCSH FEW012 SCT016 FEW020CB 14/12 Q1016 RESHRA","updated":"2026-01-25T10:20:36Z"}
