{"icao":"LPPD","metar":"LPPD 301300Z 29011KT 250V340 9999 SCT018 SCT030 18/15 Q1028","updated":"2025-11-30T13:24:58Z"}
