{"icao":"LPBJ","metar":"LPBJ 031200Z 05011KT 030V090 9999 FEW035 17/10 Q1011","updated":"2026-03-03T12:55:31Z"}
