{"icao":"LPPD","metar":"LPPD 050130Z 01012KT 340V040 9999 FEW025 BKN040 12/05 Q1033","updated":"2026-03-05T02:00:08Z"}
