{"icao":"LPPR","metar":"LPPR 261930Z 21003KT 180V240 9999 SCT049 21/18 Q1018","updated":"2026-06-26T19:44:27Z"}
