{"icao":"LPFR","metar":"LPFR 120930Z 17006KT 9999 VCSH FEW020 FEW025TCU SCT035 19/14 Q1020","updated":"2026-05-12T09:36:42Z"}
