{"icao":"LPPT","metar":"LPPT 051400Z 32011KT 290V360 9999 SCT038 19/09 Q1017","updated":"2026-05-05T14:18:35Z"}
