{"icao":"LPFR","metar":"LPFR 091730Z 25013KT 3500 R28/1100U -DZ BR OVC002 15/15 Q1016","updated":"2026-02-09T17:52:43Z"}
