{"icao":"LPPS","metar":"LPPS 040600Z 04006KT 9999 SCT015 21/16 Q1026","updated":"2025-10-04T06:23:28Z"}
