{"icao":"KJFK","metar":"KJFK 160951Z 29015G20KT 10SM FEW050 FEW250 M06/M15 A2970 RMK AO2 PK WND 29030/0903 SLP058 T10561150 $","updated":"2026-01-16T10:22:57Z"}
