{"icao":"LPAZ","metar":"LPAZ 251600Z 22004KT 160V270 9999 FEW021 20/15 Q1027","updated":"2025-11-25T16:26:30Z"}
