{"icao":"LPPS","metar":"LPPS 201500Z 01013KT 340V040 9999 FEW015 26/19 Q1019","updated":"2025-09-20T15:14:56Z"}
