{"icao":"LPAR","metar":"LPAR 141600Z 21007KT 9999 FEW042 30/10 Q1015","updated":"2025-10-14T19:13:52Z"}
