{"icao":"LPFL","metar":"LPFL 250900Z 21018G30KT 170V240 6000 RA FEW008 BKN013 18/15 Q1009","updated":"2026-01-25T09:20:20Z"}
