{"icao":"LPFR","metar":"LPFR 280800Z 00000KT CAVOK 10/07 Q1022","updated":"2026-02-28T08:27:41Z"}
