{"icao":"LPFL","metar":"LPFL 071000Z 16006KT 110V200 9999 FEW030 18/11 Q1019","updated":"2025-11-07T10:20:19Z"}
