{"icao":"LPOV","metar":"LPOV 091800Z 16004KT 9999 FEW016 SCT040 16/12 Q1019","updated":"2025-11-10T01:27:04Z"}
