{"icao":"LPBJ","metar":"LPBJ 042100Z 26015KT 8000 -DZRA BKN007 OVC014 14/14 Q1000","updated":"2026-02-04T21:31:42Z"}
