{"icao":"LPLA","metar":"LPLA 141700Z 18012KT 160V220 9999 TS FEW015 FEW020CB SCT035 19/15 Q1004 WS R15","updated":"2025-10-14T17:15:20Z"}
