{"icao":"LPPR","metar":"LPPR 211700Z 31005KT CAVOK 14/09 Q1029","updated":"2026-02-21T17:23:56Z"}
