{"icao":"LPLA","metar":"LPLA 090932Z 23021G35KT 4000 -DZ BR SCT003 BKN010 18/17 Q1008","updated":"2026-02-09T10:02:03Z"}
