{"icao":"LPBJ","metar":"LPBJ 081900Z 16008KT CAVOK 14/09 Q1021","updated":"2025-12-08T19:16:16Z"}
