{"icao":"LPHR","metar":"LPHR 022000Z 26007KT 230V310 9999 FEW020 SCT035 17/12 Q1019","updated":"2025-11-02T20:17:35Z"}
