{"icao":"LPMT","metar":"LPMT 062300Z 12006KT 9999 FEW045 16/14 Q1012","updated":"2026-04-06T23:34:13Z"}
