{"icao":"KLAX","metar":"KLAX 170902Z 07005KT 10SM FEW011 SCT024 OVC045 14/13 A2997 RMK AO2 RAE0857 P0000 T01390128 $","updated":"2025-11-17T09:23:41Z"}
