{"icao":"LPAR","metar":"LPAR 060900Z 06007KT CAVOK 20/11 Q1020","updated":"2025-10-06T09:21:02Z"}
