{"icao":"LPPD","metar":"LPPD 211600Z 22012KT 6000 FEW003 SCT008 BKN010 23/22 Q1015","updated":"2025-10-21T16:23:52Z"}
