{"icao":"LPPR","metar":"LPPR 300300Z 10007KT CAVOK 20/11 Q1017","updated":"2025-09-30T03:32:20Z"}
