{"icao":"KJFK","metar":"KJFK 281351Z 35015G24KT 10SM FEW060 02/M11 A3043 RMK AO2 SLP304 T00171111","updated":"2026-03-28T14:30:55Z"}
