{"icao":"LPMR","metar":"LPMR 021200Z 13012KT 9999 SCT022 SCT035 15/12 Q1002","updated":"2026-01-02T12:39:20Z"}
