{"icao":"LPPD","metar":"LPPD 270600Z 02022G32KT 9999 FEW018 18/13 Q1016","updated":"2025-10-27T06:30:21Z"}
