{"icao":"LPLA","metar":"LPLA 071400Z 33007KT 9000 -RA FEW017 BKN020 15/13 Q1021","updated":"2026-03-07T14:22:59Z"}
