{"icao":"LPMR","metar":"LPMR 252100Z 01005KT CAVOK 11/08 Q1025","updated":"2025-11-25T21:17:17Z"}
