{"icao":"KORD","metar":"KORD 210251Z 00000KT 10SM SCT085 BKN110 BKN160 OVC250 21/18 A3002 RMK AO2 RAB10E28 SLP161 P0000 60000 T02060183 50001","updated":"2025-09-21T03:06:05Z"}
