{"icao":"LPOV","metar":"LPOV 191200Z 06004KT 330V100 CAVOK 19/12 Q1007","updated":"2026-03-19T13:02:27Z"}
