{"icao":"LPMA","metar":"LPMA 300230Z 02006KT 340V060 9999 SCT016 21/11 Q1021","updated":"2025-09-30T02:57:11Z"}
