{"icao":"LPPD","metar":"LPPD 271500Z 20009KT 8000 -RA SCT003 SCT007 BKN010 17/16 Q1022","updated":"2025-11-27T15:19:07Z"}
