{"icao":"LPPS","metar":"LPPS 292330Z 04011KT 360V080 9999 SCT014 SCT030 21/16 Q1025","updated":"2026-06-30T00:03:01Z"}
