{"icao":"LPOV","metar":"LPOV 091700Z 34023KT CAVOK 18/12 Q1020","updated":"2026-06-09T18:02:57Z"}
