{"icao":"KLAX","metar":"KLAX 042053Z 25008KT 5SM HZ FEW009 SCT018 19/14 A3008 RMK AO2 SLP186 T01940139 58015 $","updated":"2025-11-04T21:17:25Z"}
