{"icao":"LPPD","metar":"LPPD 251900Z 18009G19KT 160V230 9999 SCT020 21/16 Q1014","updated":"2025-09-25T19:14:40Z"}
