{"icao":"LPST","metar":"LPST 031100Z 07012KT 9999 FEW025 16/09 Q1012","updated":"2026-03-03T11:31:11Z"}
