{"icao":"LPPR","metar":"LPPR 171530Z 22007KT 180V270 9999 SCT008 SCT012 BKN040 14/12 Q1025","updated":"2026-02-17T15:51:25Z"}
