{"icao":"LPCS","metar":"LPCS 160830Z 25004KT 210V270 9999 FEW008 SCT015 BKN035 12/12 Q1032","updated":"2026-02-16T08:45:27Z"}
