{"icao":"LPAZ","metar":"LPAZ 210800Z 05009KT 020V080 9999 FEW022 SCT034 BKN041 16/10 Q1030","updated":"2025-11-21T08:26:24Z"}
