{"icao":"LPLA","metar":"LPLA 072100Z 19017KT 160V220 9999 -SHRA SCT025 SCT045 16/11 Q1031","updated":"2026-01-07T21:18:44Z"}
