{"icao":"KORD","metar":"KORD 300151Z 32006KT 10SM FEW100 M12/M20 A3032 RMK AO2 SLP283 T11171200","updated":"2026-01-30T01:56:32Z"}
