{"icao":"LPPS","metar":"LPPS 311800Z 29006KT 260V320 8000 SCT004 BKN010 18/17 Q1024","updated":"2026-01-31T18:30:37Z"}
