{"icao":"LPMR","metar":"LPMR 160100Z 15004KT 3000 BR FEW015 12/12 Q1009","updated":"2025-11-16T01:36:49Z"}
