{"icao":"LPFR","metar":"LPFR 282100Z 35006KT CAVOK 17/09 Q1021","updated":"2026-03-28T21:28:14Z"}
