{"icao":"LPPR","metar":"LPPR 190330Z 10003KT 060V130 CAVOK 05/04 Q1019","updated":"2026-01-19T03:48:54Z"}
