{"icao":"LPPS","metar":"LPPS 131730Z 34020KT 9999 FEW015 17/09 Q1026","updated":"2026-02-13T17:38:38Z"}
