{"icao":"LPMR","metar":"LPMR 271000Z 06005KT CAVOK 15/02 Q1019","updated":"2026-03-27T10:47:54Z"}
