{"icao":"LPOV","metar":"LPOV 040900Z 33004KT 9999 BKN020 19/16 Q1025","updated":"2025-10-04T09:15:28Z"}
