{"icao":"LPMA","metar":"LPMA 010800Z 35009KT 320V030 9999 BKN015 15/08 Q1023","updated":"2026-03-01T08:29:16Z"}
