{"icao":"LPMT","metar":"LPMT 011500Z 26003KT 230V310 9999 BKN036 20/17 Q1018","updated":"2025-11-01T15:15:04Z"}
