{"icao":"KJFK","metar":"KJFK 091751Z 01011G25KT 10SM FEW060 15/M02 A3044 RMK AO2 SLP306 T01501017 10150 20111 58003","updated":"2025-10-09T18:25:37Z"}
