{"icao":"LPAZ","metar":"LPAZ 020130Z 32036G46KT 9999 FEW018 BKN040 15/11 Q1001","updated":"2026-01-02T01:41:00Z"}
