{"icao":"LPFR","metar":"LPFR 151700Z 10004KT CAVOK 23/18 Q1015","updated":"2025-10-15T17:16:09Z"}
