{"icao":"LPLA","metar":"LPLA 271900Z 09006KT 050V120 9999 BKN040 20/11 Q1028","updated":"2025-09-27T19:12:47Z"}
