{"icao":"LPPR","metar":"LPPR 022000Z VRB02KT 0500 R17/0900U FG SCT001 BKN003 15/15 Q1022","updated":"2025-10-02T20:18:37Z"}
