{"icao":"KJFK","metar":"KJFK 231351Z 28012KT 10SM BKN180 BKN250 01/M14 A3020 RMK AO2 SLP225 T00061139 $","updated":"2026-01-23T14:24:27Z"}
