{"icao":"LPPT","metar":"LPPT 120800Z 05010KT 9999 FEW035 20/11 Q1017","updated":"2025-10-12T08:20:08Z"}
