{"icao":"LPPS","metar":"LPPS 092100Z 07007KT 030V100 9999 FEW015 BKN030 21/16 Q1025","updated":"2025-10-09T21:15:42Z"}
