{"icao":"LPHR","metar":"LPHR 051530Z 15006KT 120V190 9999 SCT043 BKN049 14/05 Q1036","updated":"2026-03-05T15:49:21Z"}
