{"icao":"LPLA","metar":"LPLA 061426Z 34025KT 9999 FEW024 FEW026CB 11/05 Q1020 RESHRAGS","updated":"2026-04-06T14:44:50Z"}
