{"icao":"LPMT","metar":"LPMT 241800Z 21006KT 180V260 8000 FEW020 15/12 Q1015","updated":"2026-02-24T19:00:12Z"}
