{"icao":"LPBJ","metar":"LPBJ 142000Z 30010KT CAVOK 22/16 Q1016","updated":"2026-06-14T20:16:08Z"}
