{"icao":"LPPT","metar":"LPPT 231530Z 24010KT 210V280 CAVOK 31/17 Q1011","updated":"2026-06-23T15:46:08Z"}
