{"icao":"LPHR","metar":"LPHR 122000Z 07007KT 050V130 9999 SCT020 SCT040 15/10 Q1028","updated":"2026-05-13T00:08:56Z"}
