{"icao":"KJFK","metar":"KJFK 260051Z 12009KT 6SM -RA BR FEW008 BKN023 OVC060 12/11 A3004 RMK AO2 SLP173 P0012 T01170111","updated":"2025-11-26T01:24:43Z"}
