{"icao":"LPBJ","metar":"LPBJ 030700Z 12003KT CAVOK 09/08 Q1023","updated":"2025-11-03T07:18:12Z"}
