{"icao":"LPPD","metar":"LPPD 010300Z 17006KT 8000 SCT003 BKN007 21/21 Q1021","updated":"2025-10-01T03:09:48Z"}
