{"icao":"LPBJ","metar":"LPBJ 281200Z 14010KT 110V170 9999 FEW014 BKN028 22/17 Q1015","updated":"2025-10-28T12:37:40Z"}
