{"icao":"LPPT","metar":"LPPT 271330Z 08005KT 020V140 9999 FEW040 27/13 Q1012","updated":"2026-04-27T13:50:02Z"}
