{"icao":"LPOV","metar":"LPOV 111900Z 34009KT CAVOK 23/14 Q1018","updated":"2026-06-11T23:27:32Z"}
