{"icao":"LPOV","metar":"LPOV 181200Z 01008KT 340V040 9999 FEW045 11/05 Q1014","updated":"2026-01-18T12:37:45Z"}
