{"icao":"LPBJ","metar":"LPBJ 110821Z 07003KT 030V090 2500 BR SCT003 BKN015 06/06 Q1028","updated":"2026-01-11T08:25:30Z"}
