{"icao":"LPPS","metar":"LPPS 210530Z 11005KT 070V140 6000 TSRA SCT012 FEW018CB SCT030 14/13 Q0998 RERA","updated":"2026-03-21T05:39:49Z"}
