{"icao":"LPMA","metar":"LPMA 070500Z 24003KT 210V270 9999 FEW016 18/12 Q1019","updated":"2025-11-07T05:18:01Z"}
