{"icao":"LPLA","metar":"LPLA 191800Z 36011KT 340V040 9999 SCT025 16/11 Q1026","updated":"2025-11-19T18:28:03Z"}
