{"icao":"KORD","metar":"KORD 022051Z 25007KT 10SM BKN080 BKN095 12/M03 A3002 RMK AO2 SLP171 T01221033 58020","updated":"2026-05-02T21:39:29Z"}
