{"icao":"LPLA","metar":"LPLA 271600Z 06007KT 030V090 9999 FEW030 BKN045 20/11 Q1027","updated":"2025-09-27T16:19:14Z"}
