{"icao":"LPLA","metar":"LPLA 211000Z 11007KT 080V140 9999 FEW020 BKN035 16/10 Q1033","updated":"2025-11-21T10:19:57Z"}
