{"icao":"LPAZ","metar":"LPAZ 290000Z 04003KT 9999 FEW018 BKN037 20/16 Q1029","updated":"2026-06-29T00:07:29Z"}
