{"icao":"LPMA","metar":"LPMA 060500Z 01016KT 340V040 9999 SCT015 FEW018TCU 16/05 Q1025","updated":"2026-01-06T05:23:34Z"}
