{"icao":"KLAX","metar":"KLAX 091853Z 25009KT 9SM FEW010 SCT018 19/14 A2994 RMK AO2 SLP139 T01940144","updated":"2026-05-09T18:59:31Z"}
