{"icao":"LPBJ","metar":"LPBJ 281600Z 28014KT 9999 FEW018 BKN024 BKN035 20/15 Q1012","updated":"2025-09-28T16:18:32Z"}
