{"icao":"LPCS","metar":"LPCS 141800Z 25009KT 9999 SCT020 FEW024TCU 17/13 Q1005","updated":"2025-11-14T18:26:32Z"}
