{"icao":"KLAX","metar":"KLAX 131853Z VRB03KT 6SM HZ FEW050 SCT070 BKN140 21/16 A3005 RMK AO2 SLP174 T02110156","updated":"2025-11-13T19:15:26Z"}
