{"icao":"KJFK","metar":"KJFK 031051Z 29013KT 10SM FEW050 M04/M14 A2995 RMK AO2 SLP140 T10441144 $","updated":"2026-01-03T11:16:15Z"}
