{"icao":"LPMT","metar":"LPMT 041300Z 36008KT 320V030 CAVOK 24/16 Q1023","updated":"2025-10-04T13:19:41Z"}
