{"icao":"LPPD","metar":"LPPD 241830Z 28012KT 9999 VCSH SCT013 BKN025 21/18 Q1020","updated":"2026-06-24T18:50:01Z"}
