{"icao":"LPMR","metar":"LPMR 120700Z VRB02KT 6000 -DZRA SCT006 BKN020 BKN040 12/11 Q1013 RERA","updated":"2025-12-12T07:22:10Z"}
