{"icao":"KLAX","metar":"KLAX 220811Z 24007KT 10SM SCT011 SCT026 BKN150 17/15 A3001 RMK AO2 T01720150","updated":"2025-10-22T08:26:48Z"}
