{"icao":"LPAZ","metar":"LPAZ 091600Z 31012KT 9999 FEW026 21/14 Q1024","updated":"2025-11-09T16:20:00Z"}
