{"icao":"LPMR","metar":"LPMR 011300Z 31007KT 280V350 9999 FEW010 SCT016 18/15 Q1018","updated":"2025-11-01T13:22:13Z"}
