{"icao":"KJFK","metar":"KJFK 161451Z 18018G26KT 1/4SM R04R/1200V1400FT -DZ FG VV002 10/09 A2974 RMK AO2 PK WND 17026/1448 SLP070 P0000 60001 T01000094 58022","updated":"2026-03-16T14:58:28Z"}
