{"icao":"KORD","metar":"KORD 041851Z 00000KT 10SM FEW035 M08/M22 A3035 RMK AO2 SLP292 T10831222","updated":"2025-12-04T19:18:10Z"}
