{"icao":"LPMA","metar":"LPMA 141000Z 17004KT 100V230 9999 FEW015 23/17 Q1017","updated":"2025-10-14T10:19:13Z"}
