{"icao":"LPFR","metar":"LPFR 120600Z 03007KT 340V100 CAVOK 20/16 Q1015","updated":"2025-10-12T06:23:27Z"}
