{"icao":"KORD","metar":"KORD 030851Z 32006KT 10SM SCT120 OVC180 M07/M16 A3003 RMK AO2 SLP179 T10671156 53006 $","updated":"2026-01-03T09:19:32Z"}
