{"icao":"LPPT","metar":"LPPT 132200Z 35006KT CAVOK 20/10 Q1017","updated":"2025-10-13T22:16:15Z"}
