{"icao":"LPFL","metar":"LPFL 311400Z 35015KT 9999 VCSH SCT023 SCT040 17/11 Q1013","updated":"2025-10-31T14:18:27Z"}
