{"icao":"LPOV","metar":"LPOV 130800Z 16010KT 5000 -RA BR FEW012 FEW020CB BKN035 12/12 Q1006 RERA","updated":"2026-01-13T08:29:21Z"}
