{"icao":"LPOV","metar":"LPOV 061700Z 16004KT 9999 FEW020 15/13 Q1016","updated":"2025-11-06T17:17:58Z"}
