{"icao":"LPPR","metar":"LPPR 152000Z 09003KT 070V200 9999 FEW022 SCT038 10/09 Q1005","updated":"2025-12-15T20:22:31Z"}
