{"icao":"LPBJ","metar":"LPBJ 182200Z 29007KT CAVOK 24/08 Q1014","updated":"2026-06-18T22:06:34Z"}
