{"icao":"LPAZ","metar":"LPAZ 141600Z 34012KT 1700 -DZ BR BKN002 OVC005 16/15 Q1006","updated":"2025-11-14T16:23:39Z"}
