{"icao":"LPFR","metar":"LPFR 141330Z 19006KT 9999 FEW025 16/12 Q1020","updated":"2026-01-14T13:39:17Z"}
