{"icao":"LPFL","metar":"LPFL 131700Z 24019G31KT 180V280 9999 FEW008 20/17 Q1021","updated":"2025-12-13T17:16:42Z"}
