{"icao":"LPPR","metar":"LPPR 110130Z 16011KT 5000 -RADZ BR BKN004 11/10 Q1026","updated":"2026-01-11T01:49:00Z"}
