{"icao":"LPPT","metar":"LPPT 142200Z 31008KT 270V340 9999 FEW012 18/15 Q1017","updated":"2026-06-14T22:06:52Z"}
