{"icao":"LPMT","metar":"LPMT 270600Z 04006KT CAVOK 08/07 Q1023","updated":"2025-11-27T06:30:16Z"}
