{"icao":"LPBJ","metar":"LPBJ 040100Z 27006KT CAVOK 15/11 Q1023","updated":"2025-10-04T01:14:46Z"}
