{"icao":"LPPS","metar":"LPPS 131100Z 32018KT 9999 SCT015 18/10 Q1026","updated":"2026-02-13T11:30:23Z"}
