{"icao":"LPMR","metar":"LPMR 232200Z 02003KT 350V050 3000 -DZRA BR BKN007 BKN012 15/15 Q1019","updated":"2025-10-23T22:16:12Z"}
