{"icao":"KORD","metar":"KORD 281551Z 10010KT 10SM FEW024 FEW220 BKN250 12/06 A3011 RMK AO2 SLP197 T01220056","updated":"2025-10-28T16:24:58Z"}
