{"icao":"KLAX","metar":"KLAX 260253Z 25008KT 10SM OVC010 16/14 A3000 RMK AO2 SLP158 T01610139 53002 $","updated":"2025-10-26T03:08:58Z"}
