{"icao":"LPPR","metar":"LPPR 100830Z 34007KT 9999 FEW030 09/06 Q1022","updated":"2026-03-10T08:40:13Z"}
