{"icao":"LPMA","metar":"LPMA 121130Z 22005KT 130V270 9999 FEW015 BKN030 18/10 Q1026","updated":"2026-02-12T11:38:35Z"}
