{"icao":"KLAX","metar":"KLAX 202053Z 25010KT 9SM CLR 23/15 A3001 RMK AO2 SLP162 T02280150 57018 $","updated":"2025-10-20T21:16:39Z"}
