{"icao":"KORD","metar":"KORD 201751Z 25011KT 10SM FEW025 SCT250 M10/M19 A3035 RMK AO2 SLP294 4/001 T11001189 11100 21161 58004 $","updated":"2026-01-20T18:35:39Z"}
