{"icao":"KJFK","metar":"KJFK 221351Z 31009KT 10SM FEW043 FEW250 M01/M09 A3052 RMK AO2 SLP333 T10061094 $","updated":"2025-12-22T14:20:07Z"}
