{"icao":"KJFK","metar":"KJFK 270651Z 06009KT 1SM R04R/P6000FT -SN BR BKN006 BKN011 OVC018 M01/M02 A2989 RMK AO2 TWR VIS 1 1/2 SLP119 P0008 T10111017 $","updated":"2025-12-27T07:17:53Z"}
