{"icao":"LPHR","metar":"LPHR 071800Z 23021KT 7000 -RA SCT004 BKN008 17/16 Q1010","updated":"2026-02-07T18:34:10Z"}
