{"icao":"LPOV","metar":"LPOV 050600Z 34007KT 7000 BKN006 BKN012 14/14 Q1021","updated":"2025-10-05T06:23:24Z"}
