{"icao":"LPAZ","metar":"LPAZ 290500Z 31012KT 9999 FEW028 BKN035 17/11 Q1020","updated":"2025-10-29T05:18:27Z"}
