{"icao":"LPAR","metar":"LPAR 011600Z 36011KT 320V040 CAVOK 27/14 Q1018","updated":"2026-06-02T00:12:04Z"}
