{"icao":"LPBJ","metar":"LPBJ 050600Z 31005KT 0900 FG SCT003 BKN007 15/15 Q1020","updated":"2025-10-05T06:23:38Z"}
