{"icao":"LPMR","metar":"LPMR 061400Z 15014KT 120V180 9999 SCT030 25/08 Q1014","updated":"2026-04-06T14:44:48Z"}
