{"icao":"LPPT","metar":"LPPT 111700Z 25018KT 5000 -DZ BR SCT004 BKN006 15/15 Q1016","updated":"2026-02-11T17:13:23Z"}
