{"icao":"KJFK","metar":"KJFK 121551Z 26011KT 10SM FEW050 OVC070 07/M02 A2980 RMK AO2 SLP091 T00671017 $","updated":"2025-11-12T16:25:07Z"}
