{"icao":"KJFK","metar":"KJFK 080851Z 34017G24KT 10SM SCT035 SCT048 BKN060 02/M08 A3011 RMK AO2 PK WND 33027/0753 SLP194 T00171078 51021 $","updated":"2025-12-08T09:27:16Z"}
