{"icao":"KJFK","metar":"KJFK 081651Z 09007KT 10SM CLR 06/M12 A3063 RMK AO2 SLP371 T00611122","updated":"2026-04-08T17:00:49Z"}
