{"icao":"KORD","metar":"KORD 220351Z 21006KT 10SM BKN100 M02/M09 A3040 RMK AO2 SLP305 T10171089","updated":"2025-12-22T04:39:24Z"}
