{"icao":"LPPR","metar":"LPPR 121530Z 19010KT 4500 -RADZ BR BKN009 BKN013 14/12 Q1016","updated":"2026-02-12T15:51:50Z"}
