{"icao":"KORD","metar":"KORD 231751Z 04004KT 10SM FEW019 20/14 A2998 RMK AO2 SLP150 T02000139 10206 20128 58008","updated":"2026-05-23T17:59:41Z"}
