{"icao":"LPMT","metar":"LPMT 111000Z 15003KT 120V200 9999 SCT012 BKN020 13/12 Q1022","updated":"2025-12-11T11:17:51Z"}
