{"icao":"LPBJ","metar":"LPBJ 141300Z 04009KT CAVOK 16/08 Q1017","updated":"2025-12-14T13:26:02Z"}
