{"icao":"LPFR","metar":"LPFR 240400Z 04003KT 010V070 CAVOK 19/01 Q1015","updated":"2025-09-24T04:20:33Z"}
