{"icao":"KORD","metar":"KORD 062201Z 32006KT 10SM TS SCT055CB BKN075 BKN110 BKN250 24/16 A3000 RMK AO2 TSB01 OCNL LTGICCG SE TS SE MOV NE T02390156 $","updated":"2025-10-06T22:16:05Z"}
