{"icao":"LPBJ","metar":"LPBJ 292300Z 30007KT CAVOK 21/13 Q1020","updated":"2026-05-29T23:10:31Z"}
