{"icao":"LPMA","metar":"LPMA 031930Z 35023G37KT 290V020 9999 BKN015 FEW018CB 15/07 Q1014","updated":"2026-03-03T19:37:59Z"}
