{"icao":"LPLA","metar":"LPLA 031000Z 25005KT 200V290 9999 FEW025 SCT045 16/11 Q1028","updated":"2025-12-03T10:22:03Z"}
