{"icao":"LPMR","metar":"LPMR 211600Z 35020KT 9999 FEW028 19/08 Q1021","updated":"2025-09-21T16:18:56Z"}
