{"icao":"LPHR","metar":"LPHR 191500Z 05012KT 010V090 9999 SCT025 18/11 Q1026","updated":"2025-11-19T15:20:02Z"}
