{"icao":"LPMR","metar":"LPMR 150200Z 00000KT 5000 BR BKN004 BKN005 13/13 Q1023","updated":"2026-04-15T02:27:03Z"}
