{"icao":"LPFR","metar":"LPFR 212200Z 02006KT CAVOK 12/02 Q1027","updated":"2025-11-21T22:17:48Z"}
