{"icao":"LPPT","metar":"LPPT 120300Z 22005KT 9999 FEW008 SCT012 FEW025TCU 14/14 Q1016","updated":"2026-05-12T03:31:27Z"}
