{"icao":"LPCS","metar":"LPCS 081500Z 11009KT 070V150 9999 VCSH FEW028 FEW030TCU SCT040 16/07 Q1017","updated":"2026-04-08T15:08:18Z"}
