{"icao":"LPFR","metar":"LPFR 022330Z 33013KT CAVOK 20/10 Q1019","updated":"2026-06-02T23:43:43Z"}
