{"icao":"KLAX","metar":"KLAX 210853Z 09004KT 10SM CLR 08/03 A3013 RMK AO2 SLP201 T00780028 52008 $","updated":"2026-02-21T09:28:40Z"}
