{"icao":"LPHR","metar":"LPHR 222100Z 35004KT 300V020 9999 SCT012 SCT030 16/14 Q1029","updated":"2025-11-22T21:15:31Z"}
