{"icao":"KJFK","metar":"KJFK 071651Z 31029G39KT 8SM FEW035 BKN050 BKN095 M11/M20 A2972 RMK AO2 PK WND 31041/1633 SLP062 T11111200 $","updated":"2026-02-07T17:24:19Z"}
