{"icao":"LPST","metar":"LPST 031400Z 19006KT CAVOK 18/10 Q1022","updated":"2025-11-03T14:18:40Z"}
