{"icao":"KLAX","metar":"KLAX 271553Z 06003KT 10SM FEW018 FEW033 10/08 A3006 RMK AO2 SLP178 T01000083 $","updated":"2025-12-27T16:22:45Z"}
