{"icao":"LPAZ","metar":"LPAZ 200830Z 02031G48KT 9000 VCSH FEW019 FEW022TCU SCT026 13/10 Q1001","updated":"2026-03-20T08:38:45Z"}
