{"icao":"LPPR","metar":"LPPR 300400Z 35006KT CAVOK 08/05 Q1018","updated":"2025-11-30T04:32:38Z"}
