{"icao":"LPAR","metar":"LPAR 151500Z 19005KT CAVOK 27/14 Q1014","updated":"2025-10-15T15:17:38Z"}
