{"icao":"KJFK","metar":"KJFK 061551Z 19008KT 10SM CLR 22/16 A3031 RMK AO2 SLP262 T02220161","updated":"2025-10-06T16:21:28Z"}
