{"icao":"KORD","metar":"KORD 080051Z 23008KT 10SM SCT085 BKN150 BKN250 13/04 A2960 RMK AO2 SLP023 T01330044 $","updated":"2025-11-08T01:20:01Z"}
