{"icao":"KORD","metar":"KORD 072051Z 35011KT 10SM FEW020 SCT250 M07/M13 A3021 RMK AO2 SLP241 T10671128 52019","updated":"2025-12-07T21:15:27Z"}
