{"icao":"KLAX","metar":"KLAX 272053Z 25010KT 10SM FEW140 SCT180 BKN250 23/07 A3001 RMK AO2 SLP159 T02330067 56016 $","updated":"2025-11-27T21:17:09Z"}
