{"icao":"KORD","metar":"KORD 041848Z 06008KT 7SM BKN016 OVC028 07/01 A3010 RMK AO2","updated":"2026-03-04T18:50:36Z"}
