{"icao":"LPMA","metar":"LPMA 261500Z 35006KT 230V030 9999 BKN015 18/11 Q1017","updated":"2025-12-26T15:19:32Z"}
