{"icao":"LPHR","metar":"LPHR 091100Z 07009KT 040V100 9999 FEW017 SCT033 14/06 Q1035","updated":"2026-03-09T11:33:35Z"}
