{"icao":"LPHR","metar":"LPHR 041230Z 24025KT 9999 -RA FEW014 BKN080 16/13 Q0994","updated":"2026-02-04T12:56:49Z"}
