{"icao":"LPPS","metar":"LPPS 140500Z 07009KT 040V100 9999 FEW015 BKN030 14/09 Q1024","updated":"2026-04-14T05:22:27Z"}
