{"icao":"LPFL","metar":"LPFL 270900Z 25014G27KT 150V320 9999 BKN016 14/10 Q1005","updated":"2026-01-27T09:32:00Z"}
