{"icao":"LPFL","metar":"LPFL 201600Z 34015KT 310V020 9999 FEW033 16/08 Q1032","updated":"2025-12-20T16:22:21Z"}
