{"icao":"KJFK","metar":"KJFK 110451Z 17007KT 10SM BKN035 BKN045 16/09 A3029 RMK AO2 SLP258 T01560094 401720061","updated":"2025-10-11T05:16:02Z"}
