{"icao":"LPFR","metar":"LPFR 282130Z 32009KT CAVOK 27/16 Q1019","updated":"2026-06-28T22:00:18Z"}
