{"icao":"LPPR","metar":"LPPR 040930Z 22010KT 190V250 6000 FEW009 BKN014 BKN022 14/13 Q0992","updated":"2026-02-04T09:42:02Z"}
