{"icao":"KORD","metar":"KORD 281951Z VRB05KT 10SM FEW060 26/13 A3016 RMK AO2 SLP210 T02610128 $","updated":"2025-09-28T20:17:21Z"}
