{"icao":"LPPS","metar":"LPPS 241630Z 03012KT 360V080 9999 SCT013 BKN030 19/15 Q1020","updated":"2026-05-24T16:59:10Z"}
