{"icao":"KLAX","metar":"KLAX 172053Z 25010KT 10SM FEW260 SCT300 27/13 A2992 RMK AO2 SLP130 T02670133 58008 $","updated":"2026-03-17T21:36:07Z"}
