{"icao":"KORD","metar":"KORD 062051Z 26007KT 10SM SCT055 BKN080 BKN100 BKN250 28/16 A3001 RMK AO2 SLP157 CB DSNT N MOV NE 60000 T02780161 56020 $","updated":"2025-10-06T21:14:58Z"}
