{"icao":"LPLA","metar":"LPLA 050700Z 29015KT 7000 -SHRA FEW014 SCT020 FEW025TCU BKN035 11/07 Q1000","updated":"2026-02-05T07:51:29Z"}
