{"icao":"LPCS","metar":"LPCS 091130Z 03009KT 350V080 9999 FEW024 19/09 Q1016","updated":"2026-04-09T11:56:41Z"}
