{"icao":"LPLA","metar":"LPLA 151300Z 35004KT 310V030 9999 FEW023 OVC037 16/13 Q1030","updated":"2026-03-15T13:46:24Z"}
