{"icao":"LPMA","metar":"LPMA 051300Z 36009KT 320V050 9999 FEW015 24/13 Q1023","updated":"2025-10-05T13:20:32Z"}
