{"icao":"LPPD","metar":"LPPD 161000Z 34005KT 300V360 9999 FEW025 16/11 Q1024","updated":"2025-11-16T10:17:34Z"}
