{"icao":"LPMR","metar":"LPMR 200300Z 24003KT 1000 BR OVC002 16/16 Q1013","updated":"2025-10-20T03:14:12Z"}
