{"icao":"LPLA","metar":"LPLA 071400Z 20009KT 170V240 9999 FEW025 SCT040 18/11 Q1010","updated":"2025-12-07T14:16:17Z"}
