{"icao":"LPPR","metar":"LPPR 121130Z 23008KT 190V270 9999 SCT017 FEW020CB 18/13 Q1018","updated":"2026-05-12T11:53:48Z"}
