{"icao":"LPPR","metar":"LPPR 010700Z 11012KT 9999 -RA NSC 07/03 Q1013","updated":"2026-01-01T07:21:23Z"}
