{"icao":"KJFK","metar":"KJFK 241251Z 35015G19KT 10SM FEW070 FEW085 23/13 A2995 RMK SLP141 T02280128 ","updated":"2026-06-24T13:21:29Z"}
