{"icao":"KORD","metar":"KORD 281151Z 09006KT 10SM SCT250 08/05 A3011 RMK AO2 SLP198 T00830050 10094 20083 56005","updated":"2025-10-28T12:37:56Z"}
