{"icao":"LPAR","metar":"LPAR 221400Z 19006KT 150V230 9999 FEW035 22/10 Q1014","updated":"2026-04-22T15:11:44Z"}
