{"icao":"LPMA","metar":"LPMA 190000Z 02006KT 350V060 9999 SCT014 17/13 Q1025","updated":"2026-05-19T00:04:56Z"}
