{"icao":"KORD","metar":"KORD 011951Z 21007KT 10SM FEW045 FEW070 BKN085 OVC250 M01/M07 A3023 RMK AO2 SLP245 T10111067","updated":"2025-12-01T20:19:57Z"}
