{"icao":"LPOV","metar":"LPOV 080700Z 17010KT 130V190 CAVOK 14/11 Q1019","updated":"2025-12-08T07:22:35Z"}
