{"icao":"LPPT","metar":"LPPT 251030Z 07005G15KT 010V110 8000 VCTS FEW008 FEW020CB SCT022 14/14 Q1017","updated":"2026-02-25T10:50:19Z"}
