{"icao":"LPOV","metar":"LPOV 141000Z 19005KT 7000 BKN004 BKN010 15/15 Q1023","updated":"2026-04-14T11:01:13Z"}
