{"icao":"LPMA","metar":"LPMA 141000Z 36008KT 310V030 9999 BKN015 16/09 Q1025","updated":"2026-01-14T10:24:20Z"}
