{"icao":"LPMA","metar":"LPMA 131530Z 03015KT 340V050 9999 BKN015 17/10 Q1025","updated":"2026-03-13T15:41:11Z"}
