{"icao":"LPMR","metar":"LPMR 280100Z 22015G26KT 7000 -RA OVC005 18/17 Q1008","updated":"2025-09-28T01:25:35Z"}
