{"icao":"KORD","metar":"KORD 170151Z 08006KT 10SM FEW005 12/09 A2991 RMK AO2 SLP127 T01170094 $","updated":"2026-04-17T02:29:33Z"}
