{"icao":"LPFR","metar":"LPFR 070100Z VRB02KT CAVOK 14/10 Q1018","updated":"2025-11-07T01:23:35Z"}
