{"icao":"LPBJ","metar":"LPBJ 010800Z 18010KT CAVOK 17/15 Q1017","updated":"2025-11-01T08:21:28Z"}
