{"icao":"LPCS","metar":"LPCS 191030Z 12011KT 090V150 9999 FEW015 15/11 Q1005","updated":"2026-03-19T10:38:32Z"}
