{"icao":"LPFL","metar":"LPFL 261300Z 18010KT 140V260 9000 VCSH FEW012 BKN015 18/16 Q1018","updated":"2025-11-26T13:33:52Z"}
