{"icao":"LPHR","metar":"LPHR 071900Z 19015KT 9999 FEW017 BKN040 17/15 Q1030","updated":"2026-01-07T19:19:08Z"}
