{"icao":"LPPS","metar":"LPPS 200530Z 10011KT 9999 FEW015 BKN030 15/09 Q1026","updated":"2026-02-20T05:52:30Z"}
