{"icao":"KORD","metar":"KORD 240051Z 31009KT 10SM SCT250 M23/M32 A3073 RMK AO2 SLP431 T12281322","updated":"2026-01-24T01:39:03Z"}
