{"icao":"KLAX","metar":"KLAX 310053Z 26007KT 10SM CLR 22/14 A2989 RMK AO2 SLP119 T02170139 $","updated":"2025-10-31T01:22:33Z"}
