{"icao":"LPMT","metar":"LPMT 271400Z 19011KT 160V240 5000 -RA BR BKN018 20/17 Q1016","updated":"2025-09-27T14:14:17Z"}
