{"icao":"LPCS","metar":"LPCS 251600Z 24007KT 180V300 CAVOK 27/11 Q1021","updated":"2026-05-25T16:26:03Z"}
