{"icao":"LPBJ","metar":"LPBJ 191600Z 14008KT 120V180 CAVOK 27/06 Q1014","updated":"2026-04-19T16:38:36Z"}
