{"icao":"LPLA","metar":"LPLA 180615Z 30012KT 4000 -RADZ BR FEW003 BKN005 BKN012 16/16 Q1025","updated":"2025-11-18T06:28:07Z"}
