{"icao":"LPPD","metar":"LPPD 161600Z 31010KT 280V360 9999 FEW022 BKN035 16/09 Q1032","updated":"2026-01-16T16:27:29Z"}
