{"icao":"LPPS","metar":"LPPS 281230Z 07008KT 9999 FEW015 BKN030 19/12 Q1023","updated":"2025-11-28T12:38:49Z"}
