{"icao":"LPOV","metar":"LPOV 281200Z 03012KT 350V080 9999 FEW045 24/16 Q1012","updated":"2025-09-28T12:32:23Z"}
