{"icao":"LPAZ","metar":"LPAZ 082230Z 02015KT 9999 BKN008 15/13 Q1033","updated":"2026-04-08T22:37:19Z"}
