{"icao":"KORD","metar":"KORD 090451Z 04017G25KT 6SM -RA BR SCT008 BKN012 OVC020 04/02 A2985 RMK AO2 SLP113 P0007 T00390017 $","updated":"2025-11-09T05:16:53Z"}
