{"icao":"LPMT","metar":"LPMT 101800Z 22013KT 180V250 9999 FEW025CB BKN028 18/12 Q1010 RMK WIND PK 21027/36 BKN090 CB NW BLU","updated":"2026-05-10T19:01:31Z"}
