{"icao":"LPST","metar":"LPST 241700Z VRB04KT 9999 FEW010 BKN016 14/11 Q1015","updated":"2026-02-24T19:51:46Z"}
