{"icao":"KORD","metar":"KORD 242251Z 21015G23KT 10SM SCT075 BKN095 OVC250 03/M08 A2947 RMK AO2 SLP988 VIRGA T00281083","updated":"2026-02-24T23:30:48Z"}
