{"icao":"LPMR","metar":"LPMR 030300Z 35005KT CAVOK 15/15 Q1023","updated":"2026-06-03T03:57:41Z"}
