{"icao":"LPAZ","metar":"LPAZ 272030Z 03009KT 9000 FEW005 BKN007 19/18 Q1025","updated":"2026-06-27T21:01:41Z"}
