{"icao":"KORD","metar":"KORD 290651Z 09010KT 10SM FEW065 BKN250 09/04 A3002 RMK AO2 SLP169 T00940044","updated":"2025-10-29T07:18:02Z"}
