{"icao":"LPCS","metar":"LPCS 111500Z 15006KT 130V190 9999 SCT013 14/13 Q1018","updated":"2025-12-11T15:22:51Z"}
