{"icao":"LPPD","metar":"LPPD 251030Z 33007KT 290V360 9999 FEW025 SCT035 14/09 Q1028","updated":"2026-02-25T10:50:22Z"}
