{"icao":"KJFK","metar":"KJFK 192151Z 20008KT 10SM FEW065 SCT100 SCT250 21/16 A2998 RMK AO2 SLP150 T02110156","updated":"2026-05-19T22:15:22Z"}
