{"icao":"LPPT","metar":"LPPT 190500Z 00000KT CAVOK 13/10 Q1015","updated":"2026-04-19T05:27:43Z"}
