{"icao":"LPAR","metar":"LPAR 181900Z 32006KT 260V360 CAVOK 26/12 Q1013","updated":"2026-06-18T19:26:57Z"}
