{"icao":"LPHR","metar":"LPHR 071300Z 22007KT 190V250 9999 FEW022 20/12 Q1021","updated":"2025-11-07T13:26:51Z"}
