{"icao":"LPPR","metar":"LPPR 121500Z 03006KT 340V090 9999 -RA FEW012 12/10 Q1015","updated":"2025-12-12T15:21:14Z"}
