{"icao":"KORD","metar":"KORD 130651Z 14005KT 10SM SCT180 SCT250 14/08 A2999 RMK AO2 SLP155 T01390083 $","updated":"2025-10-13T07:18:41Z"}
