{"icao":"KLAX","metar":"KLAX 011953Z 29008KT 10SM FEW280 23/09 A3004 RMK AO2 SLP172 T02280089","updated":"2026-02-01T20:25:57Z"}
