{"icao":"KLAX","metar":"KLAX 280853Z 00000KT 9SM CLR 16/15 A2995 RMK AO2 SLP138 T01610150 55001 $","updated":"2025-10-28T09:20:17Z"}
