{"icao":"LPPS","metar":"LPPS 110900Z 36005KT 320V040 9999 FEW015 BKN030 22/14 Q1020","updated":"2025-10-11T09:15:54Z"}
