{"icao":"LPPR","metar":"LPPR 010500Z 12008KT CAVOK 08/04 Q1020","updated":"2025-12-01T05:26:50Z"}
