{"icao":"LPHR","metar":"LPHR 182000Z 04006KT 010V070 9999 FEW020 14/10 Q1031","updated":"2026-01-18T20:21:54Z"}
