{"icao":"LPAZ","metar":"LPAZ 281500Z 23007KT 9000 FEW010 BKN018 15/12 Q1031","updated":"2026-02-28T15:20:32Z"}
