{"icao":"KORD","metar":"KORD 112051Z 32012G22KT 4SM -SN BR BKN019 OVC032 02/M01 A2990 RMK AO2 RAB36E38SNB38 SLP132 P0000 60002 T00171011 53027","updated":"2026-03-11T21:32:26Z"}
