{"icao":"KJFK","metar":"KJFK 082151Z 36016KT 10SM FEW050 SCT070 SCT250 20/06 A3006 RMK AO2 SLP180 T02000061","updated":"2025-10-08T22:16:07Z"}
