{"icao":"LPMR","metar":"LPMR 091100Z 18013KT 150V210 9999 SCT020 SCT045 17/11 Q1003","updated":"2026-05-09T11:50:44Z"}
