{"icao":"LPPD","metar":"LPPD 032300Z 25010KT 6000 FEW006 SCT012 BKN030 16/15 Q1003","updated":"2026-02-03T23:26:44Z"}
