{"icao":"LPBJ","metar":"LPBJ 141900Z 22006KT 9999 FEW035 14/11 Q1008","updated":"2025-11-14T19:14:34Z"}
