{"icao":"LPFR","metar":"LPFR 151230Z 12009KT CAVOK 27/16 Q1019","updated":"2025-09-15T12:36:17Z"}
