{"icao":"KORD","metar":"KORD 030351Z 04004KT 10SM CLR 14/06 A3032 RMK AO2 SLP267 T01440056 $","updated":"2026-06-03T03:57:57Z"}
