{"icao":"LPLA","metar":"LPLA 202300Z 10005KT 060V130 9999 FEW022 16/12 Q1032","updated":"2025-11-20T23:17:28Z"}
