{"icao":"LPCS","metar":"LPCS 081300Z 34009KT 290V010 9999 SCT017 SCT024 19/15 Q1022","updated":"2025-10-08T13:28:12Z"}
