{"icao":"LPOV","metar":"LPOV 101500Z 31007KT CAVOK 24/12 Q1021","updated":"2025-10-10T15:17:43Z"}
