{"icao":"LPBJ","metar":"LPBJ 030700Z 19008KT 9999 FEW025 06/06 Q1003","updated":"2026-02-03T08:34:56Z"}
