{"icao":"KJFK","metar":"KJFK 311951Z 27022G39KT 10SM BKN060 13/02 A2943 RMK AO2 PK WND 27043/1915 SLP964 T01330022 $","updated":"2025-10-31T20:20:06Z"}
