{"icao":"LPGR","metar":"LPGR 131700Z 29008KT 260V320 9999 FEW014 21/16 Q1021","updated":"2026-06-14T00:06:46Z"}
