{"icao":"LPMA","metar":"LPMA 102100Z 34007KT 310V020 9999 SCT016 21/15 Q1022","updated":"2025-10-10T21:14:31Z"}
