{"icao":"LPOV","metar":"LPOV 161000Z 33003KT 290V360 1400 0900N PRFG BKN002 BKN004 16/15 Q1016","updated":"2025-10-16T10:20:05Z"}
