{"icao":"LPPT","metar":"LPPT 121700Z 03010KT 7000 -RA SCT004 BKN036 11/11 Q1013","updated":"2025-12-12T17:18:06Z"}
