{"icao":"LPPT","metar":"LPPT 122000Z 18015KT 9999 SCT020 BKN036 14/11 Q1013","updated":"2026-01-12T20:23:41Z"}
