{"icao":"KJFK","metar":"KJFK 081451Z 32012KT 10SM FEW028 08/01 A3021 RMK AO2 SLP229 T00830006 53026 $","updated":"2026-01-08T15:24:54Z"}
