{"icao":"KJFK","metar":"KJFK 100851Z 33004KT 10SM BKN240 08/05 A3017 RMK AO2 SLP215 T00830050 51017 $","updated":"2026-01-10T09:19:27Z"}
