{"icao":"LPMT","metar":"LPMT 110500Z 02006KT 9999 SCT015 OVC025 12/12 Q1021","updated":"2025-12-11T05:21:20Z"}
