{"icao":"LPMA","metar":"LPMA 241730Z 01012G23KT 320V040 9999 SCT014 18/12 Q1017","updated":"2026-03-24T17:54:50Z"}
