{"icao":"LPCS","metar":"LPCS 101630Z 21015KT 9999 FEW010 SCT019 BKN028 FEW030CB 17/13 Q1010","updated":"2026-05-10T16:54:15Z"}
