{"icao":"LPCS","metar":"LPCS 110730Z 01012KT 9999 FEW013 10/08 Q1025","updated":"2026-03-11T07:42:07Z"}
