{"icao":"LPAZ","metar":"LPAZ 081700Z 31034G45KT 5000 BR FEW008 BKN016 16/14 Q1000","updated":"2025-12-08T17:19:29Z"}
