{"icao":"LPHR","metar":"LPHR 311730Z 26009KT 0500 FG VV002 18/18 Q1025","updated":"2026-05-31T18:00:09Z"}
