{"icao":"LPBJ","metar":"LPBJ 240500Z 11005KT CAVOK 15/02 Q1016","updated":"2025-09-24T05:17:16Z"}
