{"icao":"KORD","metar":"KORD 111051Z 35008KT 10SM OVC030 M04/M09 A2996 RMK AO2 SLP154 T10441094","updated":"2025-12-11T11:18:07Z"}
