{"icao":"LPMT","metar":"LPMT 172300Z 35003KT CAVOK 14/10 Q1017","updated":"2026-04-17T23:39:27Z"}
