{"icao":"LPMA","metar":"LPMA 312100Z 23009KT 9999 SCT015 21/16 Q1015","updated":"2025-10-31T21:15:22Z"}
