{"icao":"KLAX","metar":"KLAX 131353Z 07003KT 10SM CLR 10/02 A3018 RMK AO2 SLP218 T01000022 $","updated":"2026-01-13T14:24:35Z"}
