{"icao":"LPPR","metar":"LPPR 051130Z 27007KT 220V320 9999 FEW020 SCT030 17/10 Q1017","updated":"2026-05-05T12:00:04Z"}
