{"icao":"LPAR","metar":"LPAR 221000Z 11005KT 060V160 CAVOK 26/09 Q1020","updated":"2026-05-22T10:48:51Z"}
