{"icao":"KORD","metar":"KORD 010851Z 04012KT 10SM SCT028 M04/M09 A3033 RMK AO2 SLP281 T10391094 51011 $","updated":"2026-03-01T09:29:12Z"}
