{"icao":"LPPR","metar":"LPPR 251900Z 35005KT 310V030 CAVOK 15/14 Q1015","updated":"2025-10-25T19:13:01Z"}
