{"icao":"LPPT","metar":"LPPT 201130Z VRB06G22KT CAVOK 21/13 Q1011","updated":"2026-04-20T12:02:42Z"}
