{"icao":"LPPR","metar":"LPPR 191430Z 17005KT 140V200 9999 FEW030 21/09 Q1006","updated":"2026-03-19T14:44:49Z"}
