{"icao":"LPHR","metar":"LPHR 291000Z 25016KT 9999 FEW016 SCT040 19/14 Q1018","updated":"2025-10-29T10:20:38Z"}
