{"icao":"KORD","metar":"KORD 102051Z 03016KT 10SM OVC008 04/02 A2981 RMK AO2 SLP097 T00390017 58030","updated":"2026-03-10T21:27:35Z"}
