{"icao":"LPPR","metar":"LPPR 151500Z 22006KT 180V270 9999 FEW012 SCT040 16/14 Q1002","updated":"2025-11-15T15:16:36Z"}
