{"icao":"KJFK","metar":"KJFK 302101Z 24011KT 10SM -DZ BKN012 BKN024 OVC031 05/04 A3012 RMK AO2 DZB2059 P0000 T00500039 $","updated":"2025-11-30T21:16:14Z"}
