{"icao":"LPAZ","metar":"LPAZ 202330Z 33010KT 9999 FEW033 SCT040 12/05 Q1016","updated":"2026-04-20T23:40:44Z"}
