{"icao":"KORD","metar":"KORD 271251Z 31017G29KT 10SM OVC032 M02/M10 A3018 RMK AO2 PK WND 31029/1248 SLP229 T10221100","updated":"2025-11-27T13:30:59Z"}
