{"icao":"KORD","metar":"KORD 310451Z 29005KT 10SM FEW150 BKN250 06/01 A2982 RMK AO2 SLP099 T00610011 $","updated":"2025-10-31T05:19:25Z"}
