{"icao":"LPHR","metar":"LPHR 172200Z 22009KT 9999 VCSH SCT002 BKN005 BKN010 22/22 Q1011","updated":"2025-10-17T22:15:57Z"}
