{"icao":"LPFR","metar":"LPFR 260330Z 26012KT 9000 -DZ FEW008 BKN016 15/14 Q1017","updated":"2026-01-26T03:55:50Z"}
