{"icao":"LPHR","metar":"LPHR 210700Z 25007KT 7000 SCT005 SCT010 BKN025 17/16 Q1019","updated":"2026-02-21T07:30:50Z"}
