{"icao":"LPPT","metar":"LPPT 020830Z 18008KT 150V220 9999 SCT014 17/13 Q1017","updated":"2026-05-02T09:04:20Z"}
