{"icao":"LPFL","metar":"LPFL 232030Z 27017G33KT 210V320 9999 VCSH SCT020 15/08 Q1003","updated":"2026-02-23T20:42:53Z"}
