{"icao":"LPAZ","metar":"LPAZ 231500Z 31021KT 9999 FEW030 15/08 Q1025","updated":"2026-01-23T15:24:32Z"}
