{"icao":"LPLA","metar":"LPLA 051600Z 09005KT 070V140 9999 FEW024 15/09 Q1030","updated":"2026-01-05T16:26:26Z"}
