{"icao":"KJFK","metar":"KJFK 040251Z 26008KT 10SM FEW250 03/M06 A3008 RMK AO2 SLP185 T00281056 56003","updated":"2025-12-04T03:18:30Z"}
