{"icao":"LPPT","metar":"LPPT 031330Z 05015KT 9999 FEW025 18/11 Q1012","updated":"2026-03-03T13:59:19Z"}
