{"icao":"KJFK","metar":"KJFK 241251Z 16003KT 10SM FEW011 FEW030 SCT090 BKN140 BKN250 22/21 A3003 RMK AO2 SLP170 T02220206","updated":"2025-09-24T13:27:10Z"}
