{"icao":"KORD","metar":"KORD 170551Z 25017G27KT 10SM OVC050 M04/M12 A2971 RMK AO2 PK WND 27028/0458 SLP067 60002 T10391117 10022 21039 400281056 51015 $","updated":"2026-01-17T06:29:39Z"}
