{"icao":"KJFK","metar":"KJFK 081851Z 33005KT 10SM FEW040 BKN250 11/00 A3020 RMK AO2 SLP227 T01060000 $","updated":"2026-01-08T19:19:18Z"}
