{"icao":"LPMT","metar":"LPMT 010400Z 01005KT CAVOK 17/14 Q1019","updated":"2025-10-01T04:20:39Z"}
