{"icao":"LPOV","metar":"LPOV 270600Z 15002KT 8000 MIFG FEW002 12/12 Q1015","updated":"2026-04-27T08:22:22Z"}
