{"icao":"KORD","metar":"KORD 150051Z 18007KT 10SM BKN300 16/11 A2982 RMK AO2 SLP099 T01560106 $","updated":"2025-11-15T01:22:01Z"}
