{"icao":"LPCS","metar":"LPCS 112130Z 34016KT 9999 SCT029 11/05 Q1018 WS R35","updated":"2026-04-12T05:22:17Z"}
