{"icao":"KLAX","metar":"KLAX 242253Z 24011KT 10SM FEW035 SCT100 SCT140 19/13 A2986 RMK AO2 SLP112 T01940128 $","updated":"2026-04-24T23:37:38Z"}
