{"icao":"LPPR","metar":"LPPR 041000Z 05006KT 020V100 CAVOK 13/08 Q1004","updated":"2026-01-04T10:19:15Z"}
