{"icao":"KLAX","metar":"KLAX 190253Z 26009KT 10SM CLR 19/17 A2997 RMK AO2 SLP149 T01890167 53006 $","updated":"2025-10-19T03:14:36Z"}
