{"icao":"LPPD","metar":"LPPD 271100Z 04007KT 010V070 9999 FEW015 SCT035 14/11 Q1022","updated":"2025-12-27T11:15:39Z"}
