{"icao":"LPMT","metar":"LPMT 202000Z 19003KT 150V240 9999 SCT025 13/11 Q1016","updated":"2026-01-20T20:10:53Z"}
