{"icao":"LPCS","metar":"LPCS 291800Z 35006KT 320V020 9999 FEW007 SCT016 19/17 Q1010","updated":"2025-10-29T18:27:30Z"}
