{"icao":"LPPT","metar":"LPPT 110600Z 05011KT CAVOK 19/12 Q1020","updated":"2025-10-11T06:23:18Z"}
