{"icao":"LPMT","metar":"LPMT 241000Z 26010KT 9999 FEW008 SCT030 17/15 Q1020","updated":"2025-11-24T10:21:42Z"}
