{"icao":"LPHR","metar":"LPHR 242230Z 16005KT 0200 -DZ FG VV002 18/18 Q1022","updated":"2026-05-24T22:57:14Z"}
