{"icao":"LPPT","metar":"LPPT 020200Z 31004KT 270V340 CAVOK 15/06 Q1021","updated":"2026-04-02T02:09:09Z"}
