{"icao":"LPLA","metar":"LPLA 221300Z 12007KT 8000 -TSRA SCT005 BKN012 BKN020 19/19 Q1012","updated":"2025-10-22T13:32:03Z"}
