{"icao":"LPMT","metar":"LPMT 161300Z 25013KT 220V280 9999 FEW023 18/13 Q1012","updated":"2025-11-16T15:16:28Z"}
