{"icao":"LPPS","metar":"LPPS 221300Z 13007KT 9999 FEW015 BKN030 24/21 Q1021","updated":"2025-10-22T13:32:06Z"}
