{"icao":"LPMT","metar":"LPMT 262000Z 36006KT CAVOK 12/08 Q1024","updated":"2025-11-26T20:20:28Z"}
