{"icao":"LPBJ","metar":"LPBJ 090400Z 28004KT 6000 VCFG SCT002 BKN039 08/08 Q1023","updated":"2026-03-09T04:49:50Z"}
