{"icao":"LPCS","metar":"LPCS 311000Z 30010KT 9999 FEW018 14/09 Q1020","updated":"2026-01-31T10:23:17Z"}
