{"icao":"LPBJ","metar":"LPBJ 151800Z 32002KT 280V350 CAVOK 26/10 Q1015","updated":"2025-10-15T18:26:53Z"}
