{"icao":"KLAX","metar":"KLAX 040318Z 09007KT 3SM BR BKN006 OVC011 15/14 A2999 RMK AO2 RAE0255 P0000 T01500144 $","updated":"2026-01-04T03:50:08Z"}
