{"icao":"LPFR","metar":"LPFR 140900Z 28008KT 250V310 CAVOK 25/16 Q1020","updated":"2025-09-14T09:15:29Z"}
