{"icao":"KJFK","metar":"KJFK 220651Z 14007KT 10SM -RA SCT085 BKN180 OVC250 07/M01 A2996 RMK AO2 RAB47 SLP145 P0000 T00671011 $","updated":"2026-03-22T07:37:33Z"}
