{"icao":"LPPS","metar":"LPPS 122200Z VRB01KT 9999 FEW015 19/15 Q1018","updated":"2025-10-12T22:15:45Z"}
