{"icao":"LPPT","metar":"LPPT 122100Z 17009KT 4000 -RA BR FEW002 BKN004 14/13 Q1011","updated":"2026-02-12T21:31:59Z"}
