{"icao":"LPFL","metar":"LPFL 241130Z 33013G25KT 260V360 9999 SCT022 14/08 Q1017","updated":"2026-02-24T11:39:21Z"}
