{"icao":"LPPR","metar":"LPPR 251600Z 33009KT 300V010 CAVOK 19/11 Q1018","updated":"2026-03-25T16:14:05Z"}
