{"icao":"KLAX","metar":"KLAX 110353Z 34008KT 10SM FEW200 17/M06 A3028 RMK AO2 SLP253 T01671061 $","updated":"2026-01-11T04:46:42Z"}
