{"icao":"LPPS","metar":"LPPS 090200Z 34027KT 9999 SCT014 SCT030 15/09 Q1016","updated":"2026-04-09T02:08:45Z"}
