{"icao":"LPPS","metar":"LPPS 132200Z 35017KT 9999 FEW015 15/08 Q1022","updated":"2026-01-13T22:21:08Z"}
