{"icao":"LPMR","metar":"LPMR 210300Z 16009KT 5000 -RA SCT009 BKN022 12/11 Q1010","updated":"2026-01-21T03:42:25Z"}
