{"icao":"LPPR","metar":"LPPR 292100Z VRB02KT 7000 3400N NSC 07/06 Q1021","updated":"2025-12-29T21:17:49Z"}
