{"icao":"KJFK","metar":"KJFK 210351Z 29012G17KT 10SM CLR M07/M18 A3051 RMK SLP332 T10721178 ","updated":"2026-01-21T04:42:58Z"}
