{"icao":"LPMA","metar":"LPMA 121700Z 02005KT 9999 SCT015 18/13 Q1022","updated":"2026-05-12T17:09:11Z"}
