{"icao":"LPAZ","metar":"LPAZ 280700Z 06007KT 9999 FEW022 SCT038 17/13 Q1028","updated":"2025-09-28T07:14:22Z"}
