{"icao":"LPFR","metar":"LPFR 311200Z 23007KT CAVOK 28/13 Q1018","updated":"2026-05-31T12:10:33Z"}
