{"icao":"LPAZ","metar":"LPAZ 070900Z 28008KT 250V310 6000 -SHRA FEW005 SCT008 BKN023 14/13 Q1010","updated":"2026-05-07T09:30:19Z"}
