{"icao":"LPBJ","metar":"LPBJ 040800Z 25011KT 3000 -RADZ BKN006 OVC014 14/14 Q0998","updated":"2026-02-04T08:39:47Z"}
