{"icao":"LPPR","metar":"LPPR 281000Z 02008KT 330V050 CAVOK 15/07 Q1025","updated":"2026-03-28T10:30:24Z"}
