{"icao":"KORD","metar":"KORD 141751Z 00000KT 10SM OVC240 07/M01 A3001 RMK AO2 SLP164 T00721011 10072 21017 58011 $","updated":"2026-02-14T18:33:14Z"}
