{"icao":"KLAX","metar":"KLAX 060753Z 08005KT 10SM FEW010 BKN150 BKN250 17/14 A3008 RMK AO2 SLP182 T01670144 402830156","updated":"2026-02-06T08:39:59Z"}
