{"icao":"LPCS","metar":"LPCS 060830Z 28010KT 240V310 9999 -SHRA FEW012 SCT018 FEW020TCU 10/10 Q1003","updated":"2026-02-06T08:39:38Z"}
