{"icao":"LPPR","metar":"LPPR 211500Z 27012G23KT 220V310 8000 VCSH SCT022 FEW025CB SCT030 14/08 Q0999","updated":"2026-01-21T15:30:33Z"}
