{"icao":"LPFL","metar":"LPFL 071600Z VRB06KT 9999 FEW013 23/17 Q1028","updated":"2026-06-07T16:13:47Z"}
