{"icao":"LPMR","metar":"LPMR 182100Z 29001KT CAVOK 14/14 Q1016","updated":"2026-04-18T21:33:36Z"}
