{"icao":"LPMA","metar":"LPMA 031630Z 35024G38KT 300V030 9999 SCT015 FEW018CB 15/07 Q1014","updated":"2026-03-03T16:45:05Z"}
