{"icao":"LPFR","metar":"LPFR 111300Z 20006KT 170V240 9999 FEW020 14/09 Q1028","updated":"2026-01-11T13:28:49Z"}
