{"icao":"KJFK","metar":"KJFK 151951Z 18012KT 10SM FEW060 BKN250 24/14 A2986 RMK AO2 SLP111 T02390139","updated":"2026-04-15T20:46:05Z"}
