{"icao":"LPBJ","metar":"LPBJ 250300Z 29007KT CAVOK 05/04 Q1009","updated":"2025-12-25T03:25:20Z"}
