{"icao":"LPMT","metar":"LPMT 082300Z 14003KT CAVOK 12/10 Q1023","updated":"2025-11-08T23:15:34Z"}
