{"icao":"LPBJ","metar":"LPBJ 270700Z 24012KT 5000 -DZRA BKN005 BKN015 12/12 Q1002","updated":"2026-01-27T07:26:27Z"}
