{"icao":"LPHR","metar":"LPHR 080530Z 28007KT 9999 SCT003 BKN005 19/18 Q1031","updated":"2026-06-08T05:48:32Z"}
