{"icao":"KLAX","metar":"KLAX 112253Z 27008KT 5SM HZ FEW004 BKN200 17/14 A3003 RMK AO2 SLP168 T01720144 $","updated":"2025-11-11T23:16:53Z"}
