{"icao":"LPMR","metar":"LPMR 090400Z 12001KT CAVOK 08/07 Q1019","updated":"2026-04-09T05:08:06Z"}
