{"icao":"KORD","metar":"KORD 250444Z 01006KT 2 1/2SM R10L/2800VP6000FT -SN OVC030 M15/M18 A3038 RMK AO2 P0000 T11501178","updated":"2026-01-25T04:51:27Z"}
