{"icao":"LPMR","metar":"LPMR 151500Z 18010KT 2500 -DZRA BR BKN008 OVC030 13/12 Q1007","updated":"2025-12-15T15:23:25Z"}
