{"icao":"LPAZ","metar":"LPAZ 221900Z 10005KT 9999 FEW022 15/13 Q1030","updated":"2025-11-22T19:13:45Z"}
