{"icao":"KLAX","metar":"KLAX 031853Z 29004KT 8SM FEW009 22/08 A3021 RMK AO2 SLP228 T02220083 $","updated":"2026-02-03T19:43:40Z"}
