{"icao":"LPHR","metar":"LPHR 181400Z 27013KT 6000 VCSH SCT002 BKN004 BKN020 23/22 Q1015","updated":"2025-10-18T14:14:40Z"}
