{"icao":"KJFK","metar":"KJFK 292318Z 15008KT 10SM -RA BKN008 BKN095 OVC250 09/08 A2988 RMK RAB18 P0000 T00940078 ","updated":"2026-04-29T23:53:52Z"}
