{"icao":"LPPT","metar":"LPPT 162200Z 31006KT 280V340 9999 -SHRA SCT035 08/07 Q1015","updated":"2026-01-16T22:19:53Z"}
