{"icao":"LPPS","metar":"LPPS 121600Z 20009KT 9999 FEW014 20/15 Q1003","updated":"2025-11-12T16:25:07Z"}
