{"icao":"KLAX","metar":"KLAX 022253Z 25010G18KT 10SM FEW015 FEW100 BKN160 22/14 A2996 RMK AO2 SLP146 T02170144 $","updated":"2025-10-02T23:15:58Z"}
