{"icao":"KORD","metar":"KORD 160851Z 18003KT 10SM FEW250 M08/M12 A3003 RMK AO2 SLP181 T10831117 58007","updated":"2025-12-16T09:25:28Z"}
