{"icao":"LPFL","metar":"LPFL 011700Z 30010G20KT 240V360 9999 SCT019 FEW023TCU 12/05 Q1011","updated":"2026-02-01T17:24:01Z"}
