{"icao":"LPLA","metar":"LPLA 030900Z 24007KT 190V280 9999 FEW012 23/19 Q1021","updated":"2025-10-03T09:17:36Z"}
