{"icao":"LPHR","metar":"LPHR 140900Z 02005KT 300V080 9999 FEW018 13/08 Q1007","updated":"2025-11-14T09:19:45Z"}
