{"icao":"LPLA","metar":"LPLA 060300Z 21026G38KT 9000 -RA SCT017 BKN022 21/18 Q1010","updated":"2025-11-06T03:12:53Z"}
