{"icao":"LPBJ","metar":"LPBJ 041400Z VRB03KT CAVOK 25/08 Q1021","updated":"2026-04-04T14:32:09Z"}
