{"icao":"LPPT","metar":"LPPT 112000Z 20009KT 8000 -DZ FEW004 BKN006 13/13 Q1025","updated":"2026-01-11T20:21:42Z"}
