{"icao":"LPLA","metar":"LPLA 091300Z 30017KT 9999 SCT023 SCT035 20/14 Q1024","updated":"2025-11-09T13:22:48Z"}
