{"icao":"LPPT","metar":"LPPT 290400Z 30003KT 9999 BKN032 12/10 Q1020","updated":"2025-11-29T04:21:42Z"}
