{"icao":"LPPR","metar":"LPPR 060230Z 13006KT 5000 -RADZ BR FEW003 OVC009 14/13 Q1019 RERA","updated":"2026-06-06T02:58:25Z"}
