{"icao":"LPMR","metar":"LPMR 131600Z 24007KT 200V270 9999 SCT018 15/10 Q1010","updated":"2026-01-13T16:30:24Z"}
