{"icao":"LPAZ","metar":"LPAZ 170230Z 22008KT 9999 FEW015 15/13 Q1020","updated":"2026-04-17T20:05:34Z"}
