{"icao":"LPMR","metar":"LPMR 222200Z 33015G26KT 290V360 8000 SCT018 10/08 Q1006","updated":"2026-01-22T09:31:13Z"}
