{"icao":"LPAZ","metar":"LPAZ 040130Z 23014KT 6000 SCT003 BKN047 16/16 Q1004","updated":"2026-02-04T01:57:51Z"}
