{"icao":"KLAX","metar":"KLAX 301623Z VRB06KT 4SM BCFG BR SCT012 BKN140 17/13 A3002 RMK AO2 SCT V BKN T01670133","updated":"2026-03-30T16:54:26Z"}
