{"icao":"LPFR","metar":"LPFR 310500Z 03006KT CAVOK 11/08 Q1017","updated":"2025-12-31T05:23:29Z"}
