{"icao":"LPBJ","metar":"LPBJ 080500Z VRB01KT 2000 PRFG BKN002 01/01 Q1031","updated":"2026-01-08T05:23:52Z"}
