{"icao":"LPPD","metar":"LPPD 010200Z 29007KT 260V340 9999 SCT008 SCT014 15/14 Q1027","updated":"2026-03-01T02:10:15Z"}
