{"icao":"LPHR","metar":"LPHR 061400Z 21006KT 180V240 9999 FEW020 BKN045 16/10 Q1023","updated":"2026-05-06T14:07:26Z"}
