{"icao":"LPBJ","metar":"LPBJ 131312Z 16015KT 7000 -SHRA VCTS FEW015 SCT020CB BKN035 17/15 Q1003 RETS","updated":"2025-11-13T13:31:39Z"}
