{"icao":"LPCS","metar":"LPCS 211000Z 11006KT 060V150 9999 SCT011 SCT016 15/13 Q1008","updated":"2026-03-21T10:24:54Z"}
