{"icao":"LPLA","metar":"LPLA 111800Z 22011KT 180V250 9999 FEW016 17/13 Q1016","updated":"2026-02-11T19:01:28Z"}
