{"icao":"LPOV","metar":"LPOV 140900Z 15005KT 2000 BR OVC001 11/11 Q1018","updated":"2026-01-14T09:27:37Z"}
