{"icao":"LPHR","metar":"LPHR 110530Z 36005KT 9999 FEW025 13/07 Q1032","updated":"2026-04-11T05:59:47Z"}
