{"icao":"KORD","metar":"KORD 180751Z 09005KT 7SM -RA OVC070 05/02 A3008 RMK AO2 SLP189 P0007 T00500017","updated":"2025-11-18T08:25:39Z"}
