{"icao":"LPLA","metar":"LPLA 060800Z 23011KT 200V260 9999 FEW008 SCT018 BKN026 21/19 Q1010","updated":"2025-11-06T08:25:35Z"}
