{"icao":"LPOV","metar":"LPOV 131800Z 29004KT 250V320 9999 SCT045 20/16 Q1022","updated":"2025-09-13T19:11:36Z"}
