{"icao":"KLAX","metar":"KLAX 020053Z 23005KT 10SM FEW015 FEW030 SCT050 16/14 A3006 RMK AO2 SLP178 T01610139 $","updated":"2026-01-02T01:41:20Z"}
