{"icao":"KORD","metar":"KORD 141351Z 20006KT 10SM FEW250 08/01 A2999 RMK AO2 SLP158 T00780006","updated":"2025-11-14T14:18:10Z"}
