{"icao":"LPPT","metar":"LPPT 021030Z 05012G25KT 030V090 CAVOK 31/10 Q1017 NOSIG","updated":"2026-07-02T10:37:00Z"}
