{"icao":"KJFK","metar":"KJFK 281351Z 12005KT 10SM SCT025 BKN065 BKN080 BKN250 25/18 A3000 RMK SLP157 T02500178 $ ","updated":"2026-06-28T14:47:10Z"}
