{"icao":"LPFL","metar":"LPFL 111100Z 15005KT 110V180 9999 FEW020 21/16 Q1021","updated":"2025-10-11T11:12:54Z"}
