{"icao":"LPST","metar":"LPST 231200Z 15010KT CAVOK 20/08 Q1024","updated":"2026-02-23T13:01:30Z"}
