{"icao":"LPPS","metar":"LPPS 181300Z 29017KT 8000 -SHRA FEW012 FEW018CB SCT030 11/08 Q1000","updated":"2026-03-18T13:09:25Z"}
