{"icao":"LPPR","metar":"LPPR 272300Z 04002KT CAVOK 07/06 Q1025","updated":"2025-11-27T23:16:46Z"}
