{"icao":"KLAX","metar":"KLAX 250053Z 26008KT 8SM FEW010 FEW250 16/14 A3010 RMK AO2 SLP191 T01610139","updated":"2025-11-25T01:24:42Z"}
