{"icao":"KORD","metar":"KORD 232251Z 24004KT 10SM FEW015 FEW250 11/M04 A3013 RMK AO2 SLP206 FU FEW015 T01061044","updated":"2025-11-23T23:16:37Z"}
