{"icao":"KJFK","metar":"KJFK 030351Z 33018G24KT 10SM FEW042 BKN060 M02/M12 A2988 RMK AO2 SLP117 T10221122 $","updated":"2026-01-03T04:31:32Z"}
