{"icao":"KORD","metar":"KORD 091451Z 30018G28KT 10SM -RA OVC017 05/02 A2980 RMK AO2 PK WND 30028/1352 RAB47 PRESRR SLP093 P0000 60000 T00500022 53092","updated":"2026-01-09T15:22:51Z"}
