{"icao":"LPMT","metar":"LPMT 171000Z 03004KT 350V070 CAVOK 20/13 Q1015","updated":"2025-10-17T10:19:03Z"}
