{"icao":"LPBJ","metar":"LPBJ 301900Z 15004KT CAVOK 09/07 Q1020","updated":"2025-12-30T19:16:09Z"}
