{"icao":"LPMA","metar":"LPMA 080700Z 02012KT 340V050 9999 SCT015 22/18 Q1025","updated":"2025-10-08T07:17:07Z"}
