{"icao":"LPMA","metar":"LPMA 290830Z 31003KT 9999 FEW015 16/13 Q1021","updated":"2026-01-29T08:38:00Z"}
