{"icao":"LPPD","metar":"LPPD 160600Z 24014KT 9999 FEW025 16/11 Q1027","updated":"2025-12-16T06:31:56Z"}
