{"icao":"LPPT","metar":"LPPT 011900Z 31005KT 290V360 9999 FEW010 17/16 Q1021","updated":"2025-11-01T19:12:15Z"}
