{"icao":"LPOV","metar":"LPOV 021800Z 28012KT 250V320 9999 -SHRA FEW015 FEW020CB BKN030 11/06 Q0996","updated":"2026-02-03T04:44:52Z"}
