{"icao":"LPCS","metar":"LPCS 172000Z 01010KT CAVOK 21/14 Q1015","updated":"2025-10-17T22:15:53Z"}
