{"icao":"LPAZ","metar":"LPAZ 191700Z 35005KT 290V050 9999 FEW032 16/07 Q1030","updated":"2026-01-19T17:22:33Z"}
