{"icao":"KLAX","metar":"KLAX 170153Z 25020G26KT 10SM FEW031 FEW047 14/08 A2980 RMK AO2 PK WND 26029/0117 SLP089 T01390083 $","updated":"2026-02-17T02:01:15Z"}
