{"icao":"LPCS","metar":"LPCS 050900Z 25013KT 220V280 9999 FEW012 SCT016 FEW020CB 18/17 Q1007","updated":"2025-11-05T09:20:35Z"}
