{"icao":"LPBJ","metar":"LPBJ 160200Z 02007KT CAVOK 10/07 Q1019","updated":"2026-03-16T02:22:24Z"}
