{"icao":"LPPT","metar":"LPPT 151400Z 22007KT 170V240 CAVOK 28/11 Q1016","updated":"2025-10-15T14:18:48Z"}
