{"icao":"KJFK","metar":"KJFK 280451Z 36004KT 10SM BKN070 BKN100 OVC120 20/17 A3000 RMK AO2 RAB0355E50 SLP157 P0001 T02000172","updated":"2025-09-28T05:16:39Z"}
