{"icao":"KLAX","metar":"KLAX 120853Z 00000KT 8SM BKN008 BKN200 17/15 A3006 RMK AO2 SLP176 T01670150 53002 $","updated":"2025-11-12T09:20:15Z"}
