{"icao":"LPPD","metar":"LPPD 081430Z 31009KT 270V350 9999 FEW020 BKN030 20/18 Q1032","updated":"2026-06-08T14:46:49Z"}
