{"icao":"LPBJ","metar":"LPBJ 041000Z 12003KT 060V170 CAVOK 20/10 Q1023","updated":"2026-04-04T10:31:53Z"}
