{"icao":"LPMT","metar":"LPMT 012100Z 17005KT CAVOK 12/10 Q1017","updated":"2026-03-01T21:21:14Z"}
