{"icao":"LPPR","metar":"LPPR 121300Z VRB06KT CAVOK 27/11 Q1017","updated":"2025-10-12T13:20:35Z"}
