{"icao":"LPFR","metar":"LPFR 191100Z 24006KT CAVOK 11/06 Q1020","updated":"2026-01-19T11:20:24Z"}
