{"icao":"KLAX","metar":"KLAX 090053Z 33013KT 10SM FEW050 15/M01 A3003 RMK AO2 SLP170 T01501011 $","updated":"2026-01-09T01:41:32Z"}
