{"icao":"LPPT","metar":"LPPT 041700Z 33011KT 9999 FEW020 15/11 Q1003","updated":"2026-01-04T17:16:14Z"}
