{"icao":"LPPD","metar":"LPPD 201400Z 24012KT 9999 FEW005 BKN007 16/15 Q1025","updated":"2026-01-20T14:29:45Z"}
