{"icao":"LPBJ","metar":"LPBJ 141318Z 16014KT 9999 SCT030 14/12 Q1004","updated":"2025-11-14T13:28:51Z"}
