{"icao":"KORD","metar":"KORD 161251Z 18004KT 10SM SCT250 M08/M11 A2999 RMK AO2 SLP165 T10781111","updated":"2025-12-16T13:37:48Z"}
