{"icao":"LPMR","metar":"LPMR 240100Z 15002KT 7000 FEW020 06/05 Q1010","updated":"2025-12-24T03:22:43Z"}
