{"icao":"LPPD","metar":"LPPD 220430Z 02015KT 350V050 9999 FEW017 BKN030 14/11 Q1017","updated":"2026-03-22T04:50:41Z"}
