{"icao":"LPMT","metar":"LPMT 181800Z 25007KT CAVOK 21/13 Q1014","updated":"2026-04-18T18:49:53Z"}
