{"icao":"LPPT","metar":"LPPT 161700Z 31010KT 280V350 CAVOK 21/12 Q1019","updated":"2026-04-16T17:12:37Z"}
