{"icao":"KJFK","metar":"KJFK 121351Z 04019G30KT 10SM -RA FEW030 SCT070 SCT110 BKN160 OVC220 16/10 A3007 RMK AO2 PK WND 04030/1333 SLP184 P0000 T01560100","updated":"2025-10-12T14:14:14Z"}
