{"icao":"LPFR","metar":"LPFR 311300Z 22008KT CAVOK 20/11 Q1023","updated":"2026-03-31T13:15:56Z"}
