{"icao":"LPMA","metar":"LPMA 302000Z 02015KT 340V060 9999 SCT015 19/10 Q1022","updated":"2025-11-30T20:20:27Z"}
