{"icao":"LPAZ","metar":"LPAZ 281100Z 22006KT 180V260 9999 FEW022 BKN049 15/11 Q1034","updated":"2026-02-28T11:17:46Z"}
