{"icao":"LPMT","metar":"LPMT 262300Z 35005KT CAVOK 12/11 Q1024","updated":"2026-02-26T23:28:10Z"}
