{"icao":"KORD","metar":"KORD 052051Z 22006KT 10SM -RA FEW035 BKN055 BKN090 OVC250 24/21 A2984 RMK AO2 RAB03E12B42 SLP101 P0000 60002 T02390206 58011","updated":"2026-06-05T21:24:04Z"}
