{"icao":"LPOV","metar":"LPOV 280100Z 16017G28KT 4000 DZRA BKN009 BKN013 19/18 Q1001","updated":"2025-09-28T01:25:34Z"}
