{"icao":"LPMA","metar":"LPMA 050730Z 36008KT 320V030 9999 FEW015 18/14 Q1006","updated":"2026-02-05T07:51:42Z"}
