{"icao":"LPPR","metar":"LPPR 231200Z 21004KT 180V250 8000 -SHRA FEW020CB 20/18 Q1014","updated":"2026-06-23T12:05:07Z"}
