{"icao":"LPPR","metar":"LPPR 202300Z 32018G29KT 290V350 6000 RA SCT005 BKN011 08/07 Q1006","updated":"2025-12-20T23:17:03Z"}
