{"icao":"LPHR","metar":"LPHR 141400Z 11010KT 080V140 9999 FEW020 19/13 Q1032","updated":"2026-03-14T14:27:00Z"}
