{"icao":"LPBJ","metar":"LPBJ 030900Z 12011KT 7000 -RA SCT005 BKN045 13/12 Q0999","updated":"2026-01-03T09:19:02Z"}
