{"icao":"KORD","metar":"KORD 251751Z 20010KT 10SM FEW210 OVC250 17/M02 A2993 RMK AO2 SLP136 T01721017 10172 20061 58029","updated":"2026-03-25T17:58:02Z"}
