{"icao":"LPFL","metar":"LPFL 101100Z 25012KT 180V280 9999 -SHRA SCT017 19/15 Q1013","updated":"2025-11-10T11:16:43Z"}
