{"icao":"LPPR","metar":"LPPR 170100Z 36002KT 2800 BR FEW006 11/11 Q1014","updated":"2025-10-17T01:19:41Z"}
