{"icao":"LPOV","metar":"LPOV 200700Z 09003KT 0300 FG OVC001 11/11 Q1013","updated":"2026-04-20T08:04:48Z"}
