{"icao":"KJFK","metar":"KJFK 031639Z 09008KT 9SM -RA FEW016 OVC027 02/00 A3052 RMK AO2 P0001 T00220000","updated":"2026-03-03T16:45:05Z"}
