{"icao":"LPPD","metar":"LPPD 220730Z 20011KT 0100 R30/0700U -DZ FG VV001 16/16 Q1017","updated":"2026-05-22T07:42:52Z"}
