{"icao":"KJFK","metar":"KJFK 021051Z 02011KT 10SM FEW250 M06/M18 A3062 RMK AO2 SLP369 T10611178 VISNO W $","updated":"2026-03-02T11:31:30Z"}
