{"icao":"KJFK","metar":"KJFK 230751Z 19006KT 1/4SM R04R/P6000FT BR BKN002 BKN006 OVC014 19/19 A2982 RMK SFC VIS 1 1/2 SLP098 T01940189 $ ","updated":"2026-06-23T08:33:38Z"}
