{"icao":"LPMT","metar":"LPMT 070800Z 23003KT 200V260 9999 SCT029 20/16 Q1022","updated":"2025-10-07T08:23:48Z"}
