{"icao":"LPPD","metar":"LPPD 140330Z 02010KT 9999 -SHRA SCT016 BKN030 14/11 Q1028","updated":"2026-05-14T03:39:09Z"}
