{"icao":"LPPT","metar":"LPPT 052000Z 26003KT 210V340 9999 FEW012 13/11 Q1013","updated":"2025-11-05T20:21:00Z"}
