{"icao":"KORD","metar":"KORD 160651Z 14006KT 10SM SCT070 BKN110 OVC250 16/14 A2976 RMK AO2 SLP075 T01610144 $","updated":"2026-04-16T07:44:09Z"}
