{"icao":"LPFR","metar":"LPFR 121330Z 33020KT 9999 FEW040 20/03 Q1016","updated":"2026-04-12T14:01:39Z"}
