{"icao":"LPMA","metar":"LPMA 181700Z 35007KT 320V030 9999 FEW015 21/13 Q1021","updated":"2025-11-18T17:18:19Z"}
