{"icao":"LPPT","metar":"LPPT 200330Z 24003KT 9999 FEW020 SCT038 08/07 Q1021","updated":"2026-01-20T03:42:19Z"}
