{"icao":"LPHR","metar":"LPHR 260700Z 33019G34KT 280V030 9999 -SHRA SCT012 20/17 Q1003","updated":"2025-09-26T07:17:04Z"}
