{"icao":"LPPS","metar":"LPPS 061100Z 11007KT 080V140 9999 SCT014 22/18 Q1023","updated":"2025-10-06T11:14:48Z"}
