{"icao":"KORD","metar":"KORD 021951Z 18005KT 10SM FEW070 BKN300 29/12 A3019 RMK AO2 SLP218 T02890122","updated":"2025-10-02T20:19:14Z"}
