{"icao":"LPPS","metar":"LPPS 022130Z 05007KT 360V090 9999 FEW012 15/12 Q1023","updated":"2026-04-02T21:36:31Z"}
