{"icao":"LPBJ","metar":"LPBJ 232200Z 24004KT CAVOK 23/16 Q1020","updated":"2026-05-23T22:51:38Z"}
