{"icao":"KLAX","metar":"KLAX 212253Z 14007KT 10SM FEW015 FEW043 SCT100 BKN150 18/11 A2993 RMK AO2 SLP133 T01830106 $","updated":"2025-11-21T23:16:54Z"}
