{"icao":"KORD","metar":"KORD 150451Z 08009KT 10SM OVC070 02/M03 A2990 RMK AO2 SLP132 T00221033 $","updated":"2026-03-15T05:04:26Z"}
