{"icao":"LPBJ","metar":"LPBJ 310800Z VRB02KT CAVOK 14/08 Q1026","updated":"2026-03-31T08:58:25Z"}
