{"icao":"LPPT","metar":"LPPT 181000Z VRB03KT 6000 2000N VCFG FEW002 BKN007 10/10 Q1023","updated":"2025-12-18T10:21:53Z"}
