{"icao":"LPMA","metar":"LPMA 281500Z 05005KT 350V090 9999 FEW014 20/15 Q1017","updated":"2026-01-28T15:30:59Z"}
