{"icao":"KJFK","metar":"KJFK 152251Z 09010KT 10SM BKN065 BKN100 OVC140 02/M03 A3008 RMK AO2 SLP187 T00171028 $","updated":"2026-02-15T23:25:37Z"}
