{"icao":"LPBJ","metar":"LPBJ 020000Z 29006KT CAVOK 16/14 Q1019","updated":"2026-06-02T00:12:04Z"}
