{"icao":"KJFK","metar":"KJFK 012151Z 31015G25KT 10SM FEW060 FEW250 M04/M18 A2985 RMK AO2 PK WND 31033/2115 SLP108 T10391178 $","updated":"2026-01-01T22:19:02Z"}
