{"icao":"KJFK","metar":"KJFK 120451Z 31018G32KT 10SM BKN045 BKN055 01/M09 A2997 RMK AO2 PK WND 30037/0425 SLP149 T00111089 400940011","updated":"2026-01-12T05:28:38Z"}
