{"icao":"KLAX","metar":"KLAX 092053Z 27013KT 10SM FEW050 FEW090 SCT180 SCT250 22/14 A2988 RMK AO2 SLP117 TCU DSNT NE T02220139 58017 $","updated":"2025-10-09T21:15:42Z"}
