{"icao":"LPBJ","metar":"LPBJ 231000Z 31008KT 9999 FEW008 BKN020 22/19 Q1021","updated":"2025-10-23T10:19:28Z"}
