{"icao":"LPMT","metar":"LPMT 231400Z 26006KT 220V280 9999 FEW030 BKN036 23/19 Q1019","updated":"2025-10-23T14:18:42Z"}
