{"icao":"LPMT","metar":"LPMT 272000Z 25004KT 9999 SCT030 19/17 Q1018","updated":"2025-10-27T20:17:48Z"}
