{"icao":"LPBJ","metar":"LPBJ 091426Z 32014KT 9999 VCSH FEW009 BKN020 OVC025 10/08 Q1021","updated":"2026-03-09T14:48:54Z"}
