{"icao":"LPMT","metar":"LPMT 261000Z 02010KT CAVOK 18/14 Q1018","updated":"2025-10-26T10:16:56Z"}
