{"icao":"LPCS","metar":"LPCS 191200Z 35005KT 270V020 9999 FEW016 BKN023 19/13 Q1023","updated":"2026-05-19T12:08:22Z"}
