{"icao":"LPMA","metar":"LPMA 281700Z 04011KT 9999 SCT016 SCT030 20/13 Q1022","updated":"2025-11-28T17:16:23Z"}
