{"icao":"LPPD","metar":"LPPD 041300Z 28025KT 9999 FEW022 19/11 Q1006","updated":"2025-11-04T13:32:34Z"}
