{"icao":"LPPR","metar":"LPPR 120800Z 10009KT 060V130 CAVOK 21/10 Q1018","updated":"2025-10-12T08:20:08Z"}
