{"icao":"LPMR","metar":"LPMR 070400Z 15007KT 7000 -RA SCT020 BKN040 06/05 Q1023","updated":"2026-01-07T04:39:18Z"}
