{"icao":"KORD","metar":"KORD 191251Z 36005KT 10SM BKN120 BKN250 04/M07 A2965 RMK AO2 SLP041 VIRGA T00441067","updated":"2026-02-19T13:02:53Z"}
