{"icao":"KJFK","metar":"KJFK 020751Z 01012KT 10SM FEW250 M04/M15 A3055 RMK AO2 SLP345 T10391150 VISNO W $","updated":"2026-03-02T08:42:41Z"}
