{"icao":"LPMA","metar":"LPMA 011600Z 02006KT 300V100 9999 SCT015 19/11 Q1022","updated":"2025-12-01T16:27:26Z"}
