{"icao":"LPCS","metar":"LPCS 112200Z 01014KT CAVOK 26/10 Q1017","updated":"2026-06-11T23:26:32Z"}
