{"icao":"LPPS","metar":"LPPS 141100Z 01010KT 9999 SCT011 16/13 Q1026","updated":"2026-03-14T11:22:46Z"}
