{"icao":"KLAX","metar":"KLAX 221253Z 06003KT 10SM FEW250 10/02 A3016 RMK AO2 SLP212 T01000022 $","updated":"2026-02-22T13:42:08Z"}
