{"icao":"KLAX","metar":"KLAX 211328Z VRB03KT 1/4SM R25L/1200VP6000FT FG BKN001 BKN004 16/16 A3003 RMK AO2 VIS S-SW 4 FG FEW000 T01610156","updated":"2025-10-21T13:32:42Z"}
