{"icao":"LPPT","metar":"LPPT 300800Z 34015KT 9999 FEW015 11/06 Q1018","updated":"2025-11-30T08:22:04Z"}
