{"icao":"LPPR","metar":"LPPR 060800Z 03008KT 320V080 CAVOK 03/00 Q1023","updated":"2026-01-06T08:29:07Z"}
