{"icao":"LPPT","metar":"LPPT 191900Z 21011KT 3000 -RADZ BR FEW002 BKN003 20/20 Q1014","updated":"2025-10-19T19:12:54Z"}
