{"icao":"LPMR","metar":"LPMR 260100Z 16005KT 7000 FEW011 BKN020 12/11 Q1013","updated":"2026-01-26T01:50:11Z"}
