{"icao":"LPMA","metar":"LPMA 060400Z 33006KT 260V010 9999 SCT016 SCT033 20/11 Q1020","updated":"2025-11-06T04:25:29Z"}
