{"icao":"LPOV","metar":"LPOV 041700Z 20012KT 7000 BKN008 BKN012 14/14 Q0993","updated":"2026-02-04T17:43:26Z"}
