{"icao":"LPHR","metar":"LPHR 080700Z 23020KT 6000 SHRA SCT006 BKN011 BKN027 20/19 Q1016","updated":"2025-11-08T07:16:14Z"}
