{"icao":"KJFK","metar":"KJFK 160451Z 12018G27KT 10SM SCT032 BKN055 OVC070 08/05 A3010 RMK AO2 PK WND 11034/0416 SLP193 T00780050 400780017","updated":"2026-03-16T05:13:46Z"}
