{"icao":"KORD","metar":"KORD 270451Z 03022G35KT 10SM OVC018 01/M03 A3017 RMK AO2 PK WND 03037/0438 PRESRR SLP219 T00061033 $","updated":"2026-03-27T05:05:28Z"}
