{"icao":"LPAR","metar":"LPAR 121100Z 11005KT 050V140 8000 2000NW -SHRA SCT018 SCT021CB BKN024 16/13 Q1019","updated":"2026-05-12T11:54:23Z"}
