{"icao":"KORD","metar":"KORD 032251Z 03013KT 10SM OVC027 M04/M08 A3024 RMK AO2 SLP253 T10391083","updated":"2026-02-03T23:26:58Z"}
