{"icao":"KJFK","metar":"KJFK 291851Z 19019G26KT 10SM FEW095 FEW180 SCT250 09/M04 A3049 RMK AO2 PK WND 19026/1846 SLP323 T00941044 $","updated":"2026-03-29T19:36:16Z"}
