{"icao":"LPAZ","metar":"LPAZ 120700Z 31007KT 9999 FEW023 19/16 Q1018","updated":"2025-10-12T07:15:39Z"}
