{"icao":"LPLA","metar":"LPLA 240700Z 35008KT 9999 BKN025 13/07 Q1027","updated":"2026-03-24T07:15:40Z"}
