{"icao":"KJFK","metar":"KJFK 030851Z 26008KT 10SM FEW250 M06/M11 A3014 RMK AO2 SLP207 6//// T10561111 52005 PNO $","updated":"2026-02-03T09:39:27Z"}
