{"icao":"KJFK","metar":"KJFK 251951Z 16009KT 10SM FEW060 SCT180 SCT250 08/01 A3029 RMK AO2 SLP258 T00830011 $","updated":"2026-03-25T20:37:35Z"}
