{"icao":"LPMR","metar":"LPMR 031300Z 13011KT 9999 SCT020 BKN035 15/12 Q0999","updated":"2026-01-03T13:27:44Z"}
