{"icao":"LPPD","metar":"LPPD 151100Z 22013KT 9999 FEW018 21/16 Q1009","updated":"2025-10-15T11:15:20Z"}
