{"icao":"LPOV","metar":"LPOV 201500Z 34016KT CAVOK 22/18 Q1016","updated":"2026-06-20T15:49:09Z"}
