{"icao":"LPBJ","metar":"LPBJ 260400Z 09006KT CAVOK 18/11 Q1022","updated":"2026-05-26T05:02:05Z"}
