{"icao":"KORD","metar":"KORD 151151Z 31012G20KT 10SM BKN027 M09/M16 A3000 RMK AO2 SLP170 4/001 70002 T10941156 11083 21094 53002 $","updated":"2026-01-15T12:44:05Z"}
