{"icao":"LPST","metar":"LPST 230800Z VRB01KT 0300 FG BKN001 09/08 Q1013","updated":"2026-03-23T08:54:27Z"}
