{"icao":"LPMR","metar":"LPMR 261500Z 31008KT 280V350 9999 FEW008 FEW025CB 21/15 Q1016","updated":"2026-04-26T15:40:04Z"}
