{"icao":"KORD","metar":"KORD 061651Z 29008KT 7SM FEW036 SCT055 07/03 A2957 RMK AO2 SLP017 T00670028","updated":"2026-01-06T17:22:30Z"}
