{"icao":"LPPR","metar":"LPPR 300600Z 34009KT CAVOK 08/05 Q1018","updated":"2025-11-30T06:27:59Z"}
