{"icao":"KORD","metar":"KORD 221251Z 25012G25KT 10SM FEW030 FEW250 M09/M17 A3016 RMK AO2 PK WND 24026/1240 SLP224 T10941172 $","updated":"2026-01-22T13:45:23Z"}
