{"icao":"LPMA","metar":"LPMA 052300Z 03019G31KT 350V060 9999 SCT015 FEW018TCU 15/06 Q1024","updated":"2026-01-05T23:19:11Z"}
