{"icao":"LPAZ","metar":"LPAZ 271130Z 04009KT 360V070 9999 FEW017 BKN022 15/11 Q1029","updated":"2026-03-27T11:40:32Z"}
