{"icao":"KORD","metar":"KORD 280851Z 08005KT 10SM FEW250 09/05 A3013 RMK AO2 SLP204 T00890050 56005","updated":"2025-10-28T09:20:18Z"}
