{"icao":"LPMT","metar":"LPMT 022300Z 30018G28KT 270V330 9999 TSRA BKN030 SCT035CB 09/07 Q1003","updated":"2026-02-02T23:27:09Z"}
