{"icao":"LPLA","metar":"LPLA 211900Z 24006G18KT 160V310 9999 VCSH FEW012 SCT045 16/13 Q1013","updated":"2026-05-21T19:56:15Z"}
