{"icao":"KJFK","metar":"KJFK 161851Z 19019G26KT 10SM FEW250 21/09 A3003 RMK AO2 PK WND 18026/1850 SLP168 T02060089","updated":"2026-05-16T19:01:51Z"}
