{"icao":"LPBJ","metar":"LPBJ 311400Z 30006KT 260V330 CAVOK 32/11 Q1018","updated":"2026-05-31T14:42:54Z"}
