{"icao":"KORD","metar":"KORD 031034Z 07005KT 10SM FEW013 OVC027 02/M06 A3014 RMK AO2 T00221056 $","updated":"2026-03-03T10:37:48Z"}
