{"icao":"KORD","metar":"KORD 250758Z 03010KT 10SM OVC008 09/07 A2989 RMK AO2 T00890067","updated":"2026-04-25T08:51:59Z"}
