{"icao":"LPPR","metar":"LPPR 120800Z 10004KT 050V140 8000 -RA SCT042 11/10 Q1013","updated":"2025-12-12T08:28:08Z"}
