{"icao":"LPAZ","metar":"LPAZ 141230Z 21008KT 9999 FEW020 BKN033 16/10 Q1034","updated":"2026-02-14T12:44:38Z"}
