{"icao":"LPCS","metar":"LPCS 041130Z 33015KT 300V360 9999 FEW022 21/11 Q1019","updated":"2026-06-04T11:51:27Z"}
