{"icao":"LPST","metar":"LPST 021200Z 26016KT 230V290 9999 -SHRA FEW022 FEW025CB 12/07 Q1000","updated":"2026-02-02T12:57:10Z"}
