{"icao":"LPPR","metar":"LPPR 271330Z 24008KT 200V300 9999 FEW012 23/17 Q1020","updated":"2026-06-27T13:39:12Z"}
