{"icao":"KJFK","metar":"KJFK 101451Z 21009KT 10SM FEW012 SCT250 08/04 A3037 RMK AO2 SLP283 T00830044 56011","updated":"2026-04-10T15:52:18Z"}
