{"icao":"KJFK","metar":"KJFK 130751Z 28010KT 10SM FEW250 08/01 A2983 RMK AO2 SLP102 T00830011","updated":"2025-11-13T08:25:52Z"}
