{"icao":"LPPS","metar":"LPPS 222200Z 04008KT 9999 SCT014 21/13 Q1021","updated":"2025-09-22T22:16:08Z"}
