{"icao":"LPPR","metar":"LPPR 032200Z 34005KT 300V010 9999 OVC007 17/16 Q1024","updated":"2025-10-03T22:15:13Z"}
