{"icao":"LPPD","metar":"LPPD 262000Z 05016KT 020V080 9999 SCT018 FEW020TCU BKN030 18/14 Q1019","updated":"2025-10-26T20:19:02Z"}
