{"icao":"LPPT","metar":"LPPT 200400Z 34012KT CAVOK 11/07 Q1018","updated":"2025-11-20T04:20:39Z"}
