{"icao":"LPFL","metar":"LPFL 161700Z 20018G30KT 170V250 8000 -DZ BKN008 20/17 Q1017","updated":"2025-12-16T17:22:37Z"}
