{"icao":"LPMR","metar":"LPMR 050800Z 02010KT CAVOK 05/M05 Q1013","updated":"2026-01-05T08:31:46Z"}
