{"icao":"LPHR","metar":"LPHR 130700Z 34006KT 310V010 9999 FEW025 14/09 Q1028","updated":"2026-02-13T07:08:43Z"}
