{"icao":"KORD","metar":"KORD 071251Z 35009KT 1/2SM R10L/4500VP6000FT SN FZFG BKN007 OVC014 M02/M02 A3002 RMK AO2 SLP172 P0004 T10171022","updated":"2025-12-07T13:24:12Z"}
