{"icao":"LPPR","metar":"LPPR 272100Z 03005KT CAVOK 06/03 Q1012","updated":"2025-12-27T21:16:53Z"}
