{"icao":"LPFR","metar":"LPFR 161000Z 26002KT 9999 FEW015 FEW020TCU 17/15 Q1015","updated":"2025-11-16T10:17:32Z"}
