{"icao":"LPFR","metar":"LPFR 231800Z 27013KT CAVOK 23/19 Q1018","updated":"2025-10-23T18:26:24Z"}
