{"icao":"LPLA","metar":"LPLA 211515Z 34012KT 9000 SCT008 SCT015 BKN022 13/12 Q1016","updated":"2026-03-21T15:24:29Z"}
