{"icao":"LPPD","metar":"LPPD 210700Z 06006KT 040V100 9999 FEW020 BKN035 15/09 Q1031","updated":"2025-11-21T07:18:30Z"}
