{"icao":"LPCS","metar":"LPCS 152000Z 35013KT 9999 FEW010 SCT018 15/12 Q1016","updated":"2026-05-15T20:15:44Z"}
