{"icao":"LPPT","metar":"LPPT 210300Z 29005KT 250V360 9999 FEW025 10/07 Q1009","updated":"2025-12-21T03:27:57Z"}
