{"icao":"LPBJ","metar":"LPBJ 161500Z 28006KT 260V340 CAVOK 25/11 Q1019","updated":"2026-04-16T15:24:25Z"}
