{"icao":"LPOV","metar":"LPOV 161500Z 31005KT 280V360 7000 FEW003 18/15 Q1014","updated":"2025-10-16T15:19:21Z"}
