{"icao":"LPOV","metar":"LPOV 291900Z 35013KT CAVOK 14/10 Q1029","updated":"2026-03-29T20:31:28Z"}
