{"icao":"LPFR","metar":"LPFR 022130Z 29007KT CAVOK 19/12 Q1019","updated":"2026-04-02T21:36:13Z"}
