{"icao":"LPPS","metar":"LPPS 042000Z 04005KT 010V070 9999 FEW015 BKN030 17/10 Q1026","updated":"2025-12-04T20:22:08Z"}
