{"icao":"LPBJ","metar":"LPBJ 190700Z VRB02KT CAVOK 02/01 Q1019","updated":"2026-01-19T07:27:52Z"}
