{"icao":"LPCS","metar":"LPCS 221300Z 34012KT 9999 FEW025 13/07 Q1014","updated":"2025-12-22T13:32:57Z"}
