{"icao":"LPST","metar":"LPST 050800Z 29010KT 3000 -DZ BR BKN005 OVC012 16/15 Q1021","updated":"2025-12-05T08:26:23Z"}
