{"icao":"LPCS","metar":"LPCS 271700Z 36018KT 9999 FEW015 15/10 Q1024","updated":"2026-02-27T17:33:57Z"}
