{"icao":"LPPT","metar":"LPPT 171900Z 34008KT CAVOK 14/13 Q1016","updated":"2025-11-17T19:14:20Z"}
