{"icao":"LPOV","metar":"LPOV 180700Z 16002KT 8000 NSC 08/08 Q1017","updated":"2026-04-18T07:05:27Z"}
