{"icao":"LPMR","metar":"LPMR 212000Z VRB01KT 0500 FG FEW025 05/04 Q1009","updated":"2025-12-21T20:20:16Z"}
