{"icao":"LPAZ","metar":"LPAZ 162300Z 29010KT 9999 FEW018 SCT033 14/12 Q1016","updated":"2026-03-16T23:30:44Z"}
