{"icao":"LPPT","metar":"LPPT 181930Z 29007KT 9999 FEW020 BKN045 13/10 Q1021","updated":"2026-02-18T19:47:12Z"}
