{"icao":"LPBJ","metar":"LPBJ 190300Z VRB02KT CAVOK 03/02 Q1017","updated":"2026-01-19T03:49:10Z"}
