{"icao":"LPBJ","metar":"LPBJ 080500Z 29005KT CAVOK 12/11 Q1021","updated":"2026-06-08T05:48:30Z"}
