{"icao":"LPBJ","metar":"LPBJ 082000Z 15011KT CAVOK 13/08 Q1021","updated":"2025-12-08T20:21:46Z"}
