{"icao":"LPFL","metar":"LPFL 241300Z 18010KT 150V210 9999 VCSH FEW007 BKN010 19/17 Q1025","updated":"2025-11-24T13:32:27Z"}
