{"icao":"LPMA","metar":"LPMA 241500Z 04013KT 010V080 9999 FEW015 21/14 Q1023","updated":"2025-11-24T15:21:34Z"}
