{"icao":"KJFK","metar":"KJFK 252151Z 19018G27KT 10SM SCT011 BKN090 BKN110 BKN250 23/21 A2974 RMK AO2 PK WND 19027/2147 SLP070 T02280211 $","updated":"2025-09-25T22:14:12Z"}
