{"icao":"LPAZ","metar":"LPAZ 200730Z 02029G42KT 9999 SCT017 FEW020TCU BKN026 14/10 Q1001","updated":"2026-03-20T07:44:33Z"}
