{"icao":"KJFK","metar":"KJFK 061251Z 00000KT 10SM BKN140 OVC250 01/M02 A3000 RMK AO2 SLP157 T00111017 $","updated":"2026-01-06T13:36:50Z"}
