{"icao":"LPFR","metar":"LPFR 132300Z 29008KT CAVOK 13/11 Q1020","updated":"2026-03-13T23:26:55Z"}
