{"icao":"LPFR","metar":"LPFR 151800Z VRB02KT CAVOK 23/18 Q1015","updated":"2025-10-15T18:26:52Z"}
