{"icao":"LPFR","metar":"LPFR 032300Z 02006KT CAVOK 16/12 Q1021","updated":"2025-11-03T23:16:03Z"}
