{"icao":"LPPT","metar":"LPPT 180400Z VRB01KT CAVOK 20/05 Q1019","updated":"2025-09-18T04:21:00Z"}
