{"icao":"LPMT","metar":"LPMT 202200Z VRB02KT CAVOK 21/12 Q1006","updated":"2026-04-20T22:41:14Z"}
