{"icao":"LPPR","metar":"LPPR 090900Z 09004KT 050V130 CAVOK 16/12 Q1020","updated":"2026-04-09T09:05:53Z"}
