{"icao":"LPAZ","metar":"LPAZ 281300Z 12029G43KT 2000 R18/1200D RA BR FEW007 SCT012 13/12 Q1012","updated":"2025-12-28T13:28:28Z"}
