{"icao":"LPMT","metar":"LPMT 121200Z 24010KT 200V270 6000 FEW008 SCT012 BKN020 15/14 Q1007 RERA","updated":"2025-11-12T13:32:07Z"}
