{"icao":"LPAZ","metar":"LPAZ 231530Z 20025KT 8000 FEW005 BKN013 17/15 Q1013","updated":"2026-02-23T15:44:01Z"}
