{"icao":"LPPS","metar":"LPPS 211630Z 27007KT 180V330 9999 FEW011 25/18 Q1021","updated":"2026-06-21T16:44:27Z"}
