{"icao":"KJFK","metar":"KJFK 040551Z 33006KT 10SM BKN100 BKN160 BKN250 M02/M10 A3000 RMK AO2 SLP157 T10221100 11011 21033 58003 $","updated":"2026-01-04T06:30:20Z"}
