{"icao":"LPFL","metar":"LPFL 021300Z 05004KT 350V110 9999 OVC028 16/10 Q1033","updated":"2026-04-02T13:11:16Z"}
