{"icao":"LPOV","metar":"LPOV 060700Z 06002KT CAVOK 02/00 Q1022","updated":"2026-01-06T07:24:31Z"}
