{"icao":"LPPT","metar":"LPPT 080630Z 31007KT CAVOK 10/07 Q1020","updated":"2026-03-08T06:40:34Z"}
