{"icao":"KORD","metar":"KORD 311954Z 25013G24KT 10SM -SN BKN017 OVC027 02/M02 A2975 RMK AO2 SNB54 P0000 T00171017","updated":"2025-12-31T20:21:02Z"}
