{"icao":"KORD","metar":"KORD 230851Z 00000KT 10SM FEW250 11/06 A2991 RMK AO2 SLP128 T01110061 56010","updated":"2026-04-23T09:26:20Z"}
