{"icao":"KORD","metar":"KORD 070651Z 35010KT 5SM -TSRA BR BKN006 BKN013 OVC021CB 17/16 A3003 RMK AO2 RAE06B28 SLP163 OCNL LTGIC OHD TS OHD MOV E P0009 T01670161 $","updated":"2025-10-07T07:17:16Z"}
