{"icao":"LPPR","metar":"LPPR 140730Z 19006KT 5000 -DZ BR OVC003 13/13 Q1022","updated":"2026-04-14T07:43:18Z"}
