{"icao":"LPBJ","metar":"LPBJ 302300Z 29006KT CAVOK 20/12 Q1019","updated":"2025-09-30T23:15:52Z"}
