{"icao":"LPCS","metar":"LPCS 211400Z 30009KT 280V340 9999 FEW025 FEW030CB SCT040 11/07 Q1009","updated":"2025-12-21T14:17:11Z"}
