{"icao":"KJFK","metar":"KJFK 030151Z 10010KT 4SM -DZ BR SCT005 BKN007 OVC010 05/04 A3047 RMK AO2 SLP319 P0000 T00500044","updated":"2026-04-03T02:11:09Z"}
