{"icao":"KLAX","metar":"KLAX 071513Z 00000KT 6SM BR FEW009 SCT250 13/11 A3018 RMK AO2 T01280111 $","updated":"2026-02-07T15:23:32Z"}
