{"icao":"LPPT","metar":"LPPT 271330Z 24023G33KT 8000 SHRA VCTS FEW025 SCT030 FEW035CB 10/06 Q1003 WS R02","updated":"2026-01-27T13:45:42Z"}
