{"icao":"LPPS","metar":"LPPS 171800Z 35010KT 320V020 9999 FEW015 22/17 Q1021","updated":"2026-06-17T18:14:20Z"}
