{"icao":"LPAZ","metar":"LPAZ 170100Z 15006KT 9999 FEW016 21/19 Q1022","updated":"2025-09-17T01:16:46Z"}
