{"icao":"LPCS","metar":"LPCS 071400Z 36013KT 330V030 9999 FEW018 SCT030 14/09 Q1026","updated":"2026-01-07T14:22:35Z"}
