{"icao":"LPCS","metar":"LPCS 211900Z 01010KT CAVOK 11/05 Q1028","updated":"2025-11-21T19:15:36Z"}
