{"icao":"KORD","metar":"KORD 090751Z 15005KT 10SM OVC060 M03/M09 A3021 RMK AO2 SLP240 T10331089 $","updated":"2026-02-09T07:56:45Z"}
