{"icao":"LPPS","metar":"LPPS 010100Z 21014KT 9999 FEW015 22/15 Q1015","updated":"2025-11-01T01:26:40Z"}
