{"icao":"LPMT","metar":"LPMT 151300Z 03007KT 330V070 CAVOK 25/16 Q1016","updated":"2026-06-15T13:10:56Z"}
