{"icao":"KJFK","metar":"KJFK 241351Z 33012G18KT 10SM FEW050 BKN180 BKN250 M12/M23 A3064 RMK AO2 SLP376 T11171228 $","updated":"2026-01-24T14:19:07Z"}
