{"icao":"LPFR","metar":"LPFR 281900Z 33004KT CAVOK 13/07 Q1021","updated":"2025-11-28T19:14:08Z"}
