{"icao":"KLAX","metar":"KLAX 300953Z 06005KT 10SM BKN150 BKN250 16/M02 A3011 RMK AO2 SLP195 T01561022 $","updated":"2025-12-30T10:22:21Z"}
