{"icao":"LPCS","metar":"LPCS 291700Z 25011KT 220V300 9999 FEW019 17/11 Q1010","updated":"2026-04-29T17:26:54Z"}
