{"icao":"LPMA","metar":"LPMA 091100Z 01010KT 330V040 9999 SCT016 24/16 Q1024","updated":"2025-10-09T11:14:58Z"}
