{"icao":"LPBJ","metar":"LPBJ 041900Z 26018KT 4000 -RADZ BR SCT007 OVC014 15/14 Q1000","updated":"2026-02-04T19:37:19Z"}
