{"icao":"LPPR","metar":"LPPR 310400Z 30012G22KT 270V340 9999 FEW020CB BKN030 12/07 Q1013","updated":"2026-01-31T04:04:58Z"}
