{"icao":"LPCS","metar":"LPCS 111830Z 26013KT 230V290 2500 -DZ BR OVC002 15/15 Q1017","updated":"2026-02-11T19:01:26Z"}
