{"icao":"KORD","metar":"KORD 130651Z 00000KT 10SM FEW080 FEW200 M04/M06 A3024 RMK AO2 SLP248 T10391056 $","updated":"2026-02-13T07:08:45Z"}
