{"icao":"LPAZ","metar":"LPAZ 170800Z 16008KT 9999 FEW015 21/18 Q1020","updated":"2025-09-17T08:22:54Z"}
