{"icao":"LPPT","metar":"LPPT 210500Z 35010KT CAVOK 10/03 Q1025","updated":"2025-11-21T05:18:35Z"}
