{"icao":"LPAZ","metar":"LPAZ 162230Z 24007KT 210V270 9999 FEW021 16/12 Q1021","updated":"2026-04-16T22:38:22Z"}
