{"icao":"LPOV","metar":"LPOV 061200Z 29004KT CAVOK 26/12 Q1020","updated":"2025-10-06T12:37:32Z"}
