{"icao":"LPOV","metar":"LPOV 241800Z 36004KT 9999 FEW008 BKN020 16/15 Q1015","updated":"2025-10-24T18:24:59Z"}
