{"icao":"LPOV","metar":"LPOV 010400Z 18003KT 8000 MIFG NSC 03/03 Q1023","updated":"2026-03-01T04:52:06Z"}
