{"icao":"LPPR","metar":"LPPR 280500Z 11010KT CAVOK 17/09 Q1015","updated":"2025-10-28T05:18:22Z"}
