{"icao":"LPPR","metar":"LPPR 021300Z 26004KT 230V310 9999 FEW023 BKN040 17/12 Q1026","updated":"2025-11-02T13:21:28Z"}
