{"icao":"KORD","metar":"KORD 041751Z 20010KT 10SM FEW110 SCT250 16/M04 A3019 RMK AO2 SLP226 T01561044 10156 20044 58024 $","updated":"2025-11-04T18:27:26Z"}
