{"icao":"LPFL","metar":"LPFL 101330Z 19020G33KT 160V230 9000 BKN012 FEW013CB 21/18 Q1005","updated":"2025-12-10T13:36:22Z"}
