{"icao":"LPMT","metar":"LPMT 122200Z VRB01KT CAVOK 16/13 Q1016","updated":"2025-10-12T22:15:30Z"}
