{"icao":"LPPR","metar":"LPPR 222100Z 30016G27KT 270V330 9000 VCSH SCT015 FEW020CB BKN025 13/07 Q0998 RESHRA","updated":"2026-01-22T21:21:24Z"}
