{"icao":"LPFR","metar":"LPFR 280630Z 03007KT CAVOK 12/10 Q1018","updated":"2026-03-28T06:58:26Z"}
