{"icao":"KLAX","metar":"KLAX 031453Z 00000KT 10SM FEW013 SCT020 OVC025 16/11 A2994 RMK AO2 SLP137 T01560106 53012","updated":"2026-05-03T15:45:34Z"}
