{"icao":"LPMT","metar":"LPMT 231200Z VRB02KT 9999 FEW020 BKN026 BKN040 24/19 Q1020","updated":"2025-10-23T12:38:54Z"}
