{"icao":"LPPT","metar":"LPPT 270800Z 21007KT 190V250 9999 FEW005 SCT012 17/14 Q1019","updated":"2025-09-27T08:19:57Z"}
