{"icao":"KJFK","metar":"KJFK 031951Z 18010KT 10SM FEW055 FEW250 21/09 A3028 RMK AO2 SLP254 T02060094","updated":"2025-10-03T20:18:32Z"}
