{"icao":"KLAX","metar":"KLAX 271353Z 13005KT 10SM BKN023 OVC031 20/17 A2988 RMK AO2 SLP117 T02000167 $","updated":"2025-09-27T14:14:20Z"}
