{"icao":"LPPD","metar":"LPPD 251100Z 04016G30KT 350V070 9999 SCT012 FEW018TCU 19/15 Q1017","updated":"2025-10-25T11:12:59Z"}
