{"icao":"LPMA","metar":"LPMA 161500Z 01013KT 9999 SCT013 BKN030 23/17 Q1020","updated":"2026-06-16T15:09:00Z"}
