{"icao":"KORD","metar":"KORD 220851Z 27012G23KT 10SM CLR M09/M18 A3007 RMK AO2 SLP194 T10891178 51027 $","updated":"2026-01-22T09:31:16Z"}
