{"icao":"LPOV","metar":"LPOV 290500Z 35006KT CAVOK 14/13 Q1016","updated":"2025-09-29T05:17:48Z"}
