{"icao":"LPPT","metar":"LPPT 231100Z 16004KT 120V200 9999 FEW015 14/10 Q1028","updated":"2025-11-23T11:14:02Z"}
