{"icao":"LPPS","metar":"LPPS 220100Z 01006KT 9999 SCT010 SCT030 22/21 Q1021","updated":"2025-10-22T01:23:40Z"}
