{"icao":"KLAX","metar":"KLAX 181253Z 27021G34KT 10SM FEW020 FEW035 BKN080 BKN200 11/05 A2990 RMK AO2 PK WND 29034/1249 RAE13 SLP123 P0000 T01110050","updated":"2026-02-18T13:01:44Z"}
