{"icao":"KJFK","metar":"KJFK 131551Z 05022G32KT 2SM -RA BR SCT007 OVC012 16/14 A2991 RMK AO2 PK WND 06032/1546 SFC VIS 2 1/2 SLP128 P0003 T01560139","updated":"2025-10-13T16:22:19Z"}
