{"icao":"LPPT","metar":"LPPT 021300Z 32009KT 280V350 CAVOK 21/10 Q1021","updated":"2026-04-02T13:10:56Z"}
