{"icao":"KJFK","metar":"KJFK 141851Z 20009KT 10SM FEW035 BKN075 BKN170 17/10 A2972 RMK AO2 SLP065 T01670100","updated":"2026-05-14T18:59:18Z"}
