{"icao":"LPAZ","metar":"LPAZ 250800Z 07005KT 040V110 9999 FEW018 20/17 Q1014","updated":"2025-10-25T08:20:17Z"}
