{"icao":"LPHR","metar":"LPHR 111600Z 32020KT 9999 SCT022 FEW028TCU 17/08 Q1005 WS R28","updated":"2025-11-11T16:24:07Z"}
