{"icao":"LPHR","metar":"LPHR 101700Z 25008KT 9999 SCT014 22/19 Q1020","updated":"2025-10-10T17:15:46Z"}
