{"icao":"LPMA","metar":"LPMA 022330Z 02017KT 9999 SCT015 19/13 Q1026","updated":"2026-06-02T23:44:04Z"}
