{"icao":"KJFK","metar":"KJFK 042151Z 18018G29KT 10SM FEW070 FEW250 14/09 A2984 RMK PK WND 19030/2124 SLP103 T01440089 ","updated":"2026-05-04T21:58:43Z"}
