{"icao":"LPMA","metar":"LPMA 181230Z 03015KT 350V060 9999 FEW015 21/12 Q1023","updated":"2025-11-18T12:39:06Z"}
