{"icao":"LPBJ","metar":"LPBJ 220300Z 25004KT 200V270 8000 2000N BKN007 BKN025 18/18 Q1018","updated":"2025-10-22T03:09:39Z"}
