{"icao":"LPFL","metar":"LPFL 191600Z 20019G37KT 170V240 9999 FEW015 FEW018TCU 20/15 Q1005","updated":"2026-05-19T16:17:42Z"}
