{"icao":"LPMA","metar":"LPMA 091600Z 01008KT 340V050 9999 FEW016 SCT033 22/12 Q1021","updated":"2025-11-09T16:20:03Z"}
