{"icao":"KJFK","metar":"KJFK 080751Z 26004KT 1/8SM R04R/1200FT FG BKN002 OVC006 06/06 A2978 RMK AO2 SLP084 T00610061","updated":"2026-03-08T08:29:52Z"}
