{"icao":"LPBJ","metar":"LPBJ 180500Z 07005KT CAVOK 17/10 Q1020","updated":"2025-09-18T05:16:06Z"}
