{"icao":"LPAZ","metar":"LPAZ 310800Z 28014KT 2900 +RA BR FEW010 SCT018 14/13 Q1005","updated":"2025-12-31T08:28:11Z"}
