{"icao":"LPOV","metar":"LPOV 042000Z 35013KT CAVOK 15/13 Q1019","updated":"2026-06-05T00:05:16Z"}
