{"icao":"LPAZ","metar":"LPAZ 060500Z 10005KT CAVOK 13/07 Q1032","updated":"2026-01-06T05:23:33Z"}
