{"icao":"LPPR","metar":"LPPR 271230Z 34008KT 300V360 9999 SCT004 BKN007 14/12 Q1025","updated":"2026-02-27T12:56:41Z"}
