{"icao":"LPMA","metar":"LPMA 161800Z 02013KT 9999 SCT016 24/17 Q1020","updated":"2025-09-16T18:25:20Z"}
