{"icao":"LPPT","metar":"LPPT 122200Z 02005KT 310V090 CAVOK 21/13 Q1016","updated":"2025-10-12T22:15:28Z"}
