{"icao":"LPMA","metar":"LPMA 100900Z 35014G26KT 310V020 9999 -SHRA BKN015 FEW018TCU 16/12 Q1018","updated":"2026-04-10T09:07:41Z"}
