{"icao":"KLAX","metar":"KLAX 241453Z 08007KT 10SM FEW010 FEW019 SCT160 BKN200 17/12 A2993 RMK AO2 SLP135 T01670122 53010 $","updated":"2026-04-24T15:06:39Z"}
