{"icao":"LPPT","metar":"LPPT 110800Z 13006KT 100V220 1200 0500NE R20/0700N PRFG BR SCT000 BKN002 14/14 Q1014","updated":"2025-11-11T08:24:32Z"}
