{"icao":"LPFR","metar":"LPFR 211630Z 12006KT 090V160 CAVOK 26/21 Q1017","updated":"2026-06-21T16:44:09Z"}
