{"icao":"KJFK","metar":"KJFK 030751Z 32013G23KT 10SM FEW031 SCT075 02/M03 A2983 RMK AO2 PK WND 32027/0737 SLP102 T00171028","updated":"2025-12-03T08:27:43Z"}
