{"icao":"LPPS","metar":"LPPS 051800Z 07017KT 5000 -RA BR SCT005 SCT010 15/13 Q1017","updated":"2026-05-05T18:09:35Z"}
