{"icao":"LPPT","metar":"LPPT 311300Z 04011KT 010V070 CAVOK 23/07 Q1025","updated":"2026-03-31T13:15:56Z"}
