{"icao":"LPFR","metar":"LPFR 291800Z 28007KT 9999 FEW022 BKN040 16/11 Q1018","updated":"2025-11-29T18:25:26Z"}
