{"icao":"LPFL","metar":"LPFL 172000Z 32011KT 230V020 9999 FEW020 16/10 Q1017","updated":"2025-12-17T20:22:36Z"}
