{"icao":"LPPD","metar":"LPPD 050230Z 03008KT 360V070 9999 FEW025 14/10 Q1025","updated":"2026-05-05T02:37:46Z"}
