{"icao":"LPPT","metar":"LPPT 250200Z 30004KT 260V330 9999 FEW012 14/12 Q1018","updated":"2026-04-25T02:22:43Z"}
