{"icao":"LPFL","metar":"LPFL 230900Z 33019G33KT 290V350 9999 FEW030 13/03 Q1025","updated":"2026-01-23T09:28:42Z"}
