{"icao":"KLAX","metar":"KLAX 311753Z 00000KT 9SM SCT015 SCT140 20/14 A3001 RMK AO2 SLP161 T02000144 10206 20161 50009 $","updated":"2025-10-31T18:27:10Z"}
