{"icao":"LPLA","metar":"LPLA 261400Z 05006KT 350V090 9999 FEW022 BKN030 16/10 Q1030","updated":"2026-03-26T15:02:29Z"}
