{"icao":"LPPT","metar":"LPPT 260930Z 08007G20KT 020V110 CAVOK 25/14 Q1022","updated":"2026-05-26T09:53:28Z"}
