{"icao":"LPMT","metar":"LPMT 092300Z 20009KT 170V230 9999 FEW020 15/10 Q1009","updated":"2026-05-09T23:45:54Z"}
