{"icao":"LPAR","metar":"LPAR 271200Z 04011KT CAVOK 19/04 Q1018","updated":"2026-03-27T13:04:01Z"}
