{"icao":"LPMT","metar":"LPMT 021900Z 35010KT CAVOK 16/08 Q1020","updated":"2026-04-02T19:50:21Z"}
