{"icao":"LPFR","metar":"LPFR 201430Z 11012KT CAVOK 23/10 Q1010","updated":"2026-04-20T14:49:14Z"}
