{"icao":"KJFK","metar":"KJFK 120051Z 26021G31KT 10SM FEW038 SCT065 05/M03 A2987 RMK AO2 PK WND 26036/0004 SLP114 T00501033 $","updated":"2025-11-12T01:24:29Z"}
