{"icao":"LPPS","metar":"LPPS 161400Z 18006KT 150V210 9999 FEW012 SCT030 23/19 Q1014","updated":"2025-10-16T14:18:42Z"}
