{"icao":"LPPD","metar":"LPPD 270800Z 02021G31KT 350V050 9999 FEW018 18/14 Q1015","updated":"2025-10-27T08:25:32Z"}
