{"icao":"LPPS","metar":"LPPS 191000Z 32010KT 9999 BKN010 23/21 Q1019","updated":"2025-10-19T10:16:41Z"}
