{"icao":"LPAZ","metar":"LPAZ 030700Z 08005KT 050V110 9999 BKN026 13/09 Q1026","updated":"2026-04-03T07:06:15Z"}
