{"icao":"KJFK","metar":"KJFK 281051Z 00000KT 10SM SCT250 09/04 A3019 RMK SLP222 T00940044 ","updated":"2026-04-28T11:04:10Z"}
