{"icao":"KORD","metar":"KORD 231951Z 03006KT 10SM FEW250 05/M09 A3042 RMK AO2 SLP308 T00501089","updated":"2026-03-23T20:36:32Z"}
