{"icao":"KLAX","metar":"KLAX 271753Z VRB04KT 4SM HZ SCT014 BKN160 BKN250 19/14 A2999 RMK AO2 SLP153 T01940139 10200 20156 51007","updated":"2026-03-27T18:54:28Z"}
