{"icao":"LPPS","metar":"LPPS 061700Z 34005KT 300V010 9999 FEW015 21/13 Q1020","updated":"2025-11-06T17:18:30Z"}
