{"icao":"LPPD","metar":"LPPD 291600Z 30006KT 260V330 9999 FEW018 BKN035 17/15 Q1027","updated":"2025-11-29T16:21:54Z"}
