{"icao":"LPPR","metar":"LPPR 150630Z 01006KT 350V060 9999 FEW030 BKN040 13/09 Q1014","updated":"2026-05-15T06:54:03Z"}
