{"icao":"KJFK","metar":"KJFK 220851Z 02004KT 10SM FEW055 SCT250 12/09 A3018 RMK AO2 SLP219 T01220094 56009 $","updated":"2025-09-22T09:21:39Z"}
