{"icao":"LPOV","metar":"LPOV 041500Z 33008KT CAVOK 20/10 Q1022","updated":"2026-04-04T15:30:31Z"}
