{"icao":"LPOV","metar":"LPOV 251700Z 34015KT 9999 FEW025 18/14 Q1016","updated":"2026-04-25T17:35:45Z"}
