{"icao":"LPBJ","metar":"LPBJ 171300Z 06007KT CAVOK 15/08 Q1021","updated":"2025-12-17T13:32:32Z"}
