{"icao":"LPOV","metar":"LPOV 050500Z 34006KT 9999 OVC005 15/15 Q1022","updated":"2025-10-05T05:15:30Z"}
