{"icao":"KJFK","metar":"KJFK 010551Z 35014G19KT 10SM FEW075 BKN090 BKN250 12/03 A2985 RMK SLP108 T01170028 101442011 51021 ","updated":"2026-05-01T06:15:37Z"}
