{"icao":"LPMR","metar":"LPMR 201400Z 36015KT 9999 SCT009 BKN017 20/15 Q1020","updated":"2025-09-20T14:14:05Z"}
