{"icao":"LPMA","metar":"LPMA 021430Z 01014KT 340V050 9999 FEW016 23/07 Q1022","updated":"2026-04-02T14:54:32Z"}
