{"icao":"KJFK","metar":"KJFK 051651Z 19019KT 10SM SCT180 BKN250 16/02 A2994 RMK AO2 PRESFR SLP139 T01560017 $","updated":"2025-11-05T17:17:44Z"}
