{"icao":"LPPS","metar":"LPPS 180200Z 03007KT 340V070 9999 SCT014 SCT030 16/12 Q1018","updated":"2026-04-18T02:16:47Z"}
