{"icao":"LPCS","metar":"LPCS 150730Z 36019KT 9999 FEW015 12/09 Q1018","updated":"2026-03-15T07:43:36Z"}
