{"icao":"LPCS","metar":"LPCS 220730Z 03005KT CAVOK 11/06 Q1027","updated":"2026-02-22T07:34:40Z"}
