{"icao":"LPPD","metar":"LPPD 201500Z 05013KT 010V080 9999 SCT030 18/12 Q1028","updated":"2025-11-20T15:19:59Z"}
