{"icao":"KLAX","metar":"KLAX 101853Z 25008KT 10SM FEW004 18/14 A3013 RMK AO2 SLP201 T01830139 $","updated":"2025-11-10T19:15:36Z"}
