{"icao":"LPPT","metar":"LPPT 140300Z VRB02KT 9999 FEW025 14/13 Q1002","updated":"2025-11-14T03:11:55Z"}
