{"icao":"LPHR","metar":"LPHR 081800Z 29010KT 260V320 9999 VCSH FEW017 SCT035 19/15 Q1021","updated":"2025-11-08T18:23:34Z"}
