{"icao":"KORD","metar":"KORD 091229Z 24023G37KT 10SM OVC013 06/03 A2955 RMK AO2 PK WND 24037/1229 T00610033 $","updated":"2026-01-09T12:42:22Z"}
