{"icao":"KLAX","metar":"KLAX 270053Z 25008KT 10SM FEW250 21/09 A3002 RMK AO2 SLP165 T02060089 $","updated":"2025-11-27T01:23:29Z"}
