{"icao":"LPOV","metar":"LPOV 012000Z 33009KT 3000 -DZ SCT005 BKN008 17/17 Q1020","updated":"2026-06-02T00:12:03Z"}
