{"icao":"LPFR","metar":"LPFR 251300Z 11009KT CAVOK 18/12 Q1018","updated":"2026-03-25T13:07:29Z"}
