{"icao":"LPPT","metar":"LPPT 172300Z 24005KT 190V300 9999 BKN021 12/09 Q1024","updated":"2026-02-17T23:27:05Z"}
