{"icao":"LPMA","metar":"LPMA 092200Z 35019KT 9999 SCT016 18/12 Q1022","updated":"2025-12-09T22:19:25Z"}
