{"icao":"KJFK","metar":"KJFK 311751Z 26017KT 10SM FEW055 SCT130 BKN250 00/M11 A2980 RMK AO2 SLP090 T00001111 10006 21028 56028 $","updated":"2025-12-31T18:28:16Z"}
