{"icao":"LPHR","metar":"LPHR 121300Z 34015G26KT 9999 FEW014 BKN035 21/13 Q1018","updated":"2025-10-12T13:20:39Z"}
