{"icao":"LPCS","metar":"LPCS 301700Z 36015KT CAVOK 13/07 Q1018","updated":"2025-11-30T17:15:25Z"}
