{"icao":"KORD","metar":"KORD 201915Z 25018G26KT 10SM OVC020 01/M04 A2963 RMK AO2 PK WND 26030/1855 SNE15 PRESRR P0000 T00061039","updated":"2026-02-20T19:36:01Z"}
