{"icao":"LPPS","metar":"LPPS 241600Z 04015KT 010V070 9999 SCT014 SCT030 17/13 Q1017","updated":"2026-03-24T16:08:32Z"}
