{"icao":"LPMA","metar":"LPMA 131030Z 03009KT 320V060 9999 BKN015 SCT030 17/08 Q1027","updated":"2026-04-13T10:43:58Z"}
