{"icao":"LPMA","metar":"LPMA 240400Z 32011KT 270V010 9999 FEW016 16/06 Q1023","updated":"2026-01-24T04:34:07Z"}
