{"icao":"LPOV","metar":"LPOV 271500Z 27014G26KT 230V300 9999 SCT022 FEW025CB SCT040 13/05 Q0999","updated":"2026-01-27T15:29:35Z"}
