{"icao":"KLAX","metar":"KLAX 160653Z 11003KT 10SM CLR 16/11 A2999 RMK AO2 SLP153 T01560111 $","updated":"2025-10-16T07:18:03Z"}
