{"icao":"KORD","metar":"KORD 101951Z 31016G22KT 10SM FEW050 BKN120 02/M11 A3019 RMK AO2 SLP233 T00171106","updated":"2025-11-10T20:22:09Z"}
