{"icao":"LPPT","metar":"LPPT 121100Z 34021G35KT 9999 FEW026 BKN034 14/07 Q1020 WS R02","updated":"2026-04-12T11:32:48Z"}
