{"icao":"LPAR","metar":"LPAR 291600Z 33009KT 310V020 9999 FEW018 22/16 Q1008","updated":"2025-10-29T16:24:37Z"}
