{"icao":"LPPR","metar":"LPPR 110400Z 12009KT CAVOK 10/08 Q1021","updated":"2025-12-11T04:33:41Z"}
