{"icao":"LPPD","metar":"LPPD 270400Z 35004KT 300V030 9999 FEW018 13/09 Q1033","updated":"2026-02-27T04:18:29Z"}
