{"icao":"KLAX","metar":"KLAX 200453Z 12005KT 7SM FEW001 SCT011 14/14 A3002 RMK AO2 SLP165 T01440139","updated":"2025-12-20T05:18:49Z"}
