{"icao":"LPMR","metar":"LPMR 180800Z 13003KT CAVOK 07/07 Q1020","updated":"2025-11-18T08:25:21Z"}
