{"icao":"KJFK","metar":"KJFK 040751Z 25008KT 10SM OVC055 M02/M06 A3018 RMK AO2 SLP219 T10221061 PNO $","updated":"2026-02-04T08:40:07Z"}
