{"icao":"LPPT","metar":"LPPT 191700Z 23007KT 210V270 CAVOK 28/14 Q1019","updated":"2025-09-19T17:14:50Z"}
