{"icao":"KORD","metar":"KORD 140351Z 32012KT 10SM FEW250 01/M08 A3004 RMK AO2 SLP179 T00111083 $","updated":"2026-03-14T04:12:20Z"}
