{"icao":"KORD","metar":"KORD 150251Z 34014G20KT 10SM CLR M07/M16 A3000 RMK AO2 SLP168 T10721156 51010 $","updated":"2026-01-15T03:40:02Z"}
