{"icao":"LPPT","metar":"LPPT 261630Z 06013KT CAVOK 22/03 Q1013","updated":"2026-03-26T16:59:18Z"}
