{"icao":"LPPD","metar":"LPPD 142000Z 21014KT 9999 FEW020 BKN035 16/10 Q1031","updated":"2026-02-14T20:25:25Z"}
