{"icao":"LPFR","metar":"LPFR 300700Z 03007KT CAVOK 12/M04 Q1028","updated":"2026-03-30T07:25:27Z"}
