{"icao":"KJFK","metar":"KJFK 230651Z 26007KT 10SM BKN085 OVC100 02/M05 A3037 RMK AO2 SLP284 T00221050 $","updated":"2025-12-23T07:22:46Z"}
