{"icao":"KORD","metar":"KORD 132251Z VRB04KT 10SM SCT050 BKN070 BKN090 BKN250 19/09 A3011 RMK AO2 SLP194 T01940094 $","updated":"2025-10-13T23:15:29Z"}
