{"icao":"LPBJ","metar":"LPBJ 241000Z 09008KT 040V140 CAVOK 23/02 Q1018","updated":"2025-09-24T10:18:27Z"}
