{"icao":"LPMA","metar":"LPMA 041930Z 22018G28KT 9999 FEW015 19/13 Q1009","updated":"2026-02-04T19:37:21Z"}
