{"icao":"LPMT","metar":"LPMT 142300Z 18008KT 150V230 9999 BKN040 15/13 Q1007","updated":"2025-11-14T23:16:55Z"}
