{"icao":"LPMA","metar":"LPMA 101600Z 11004KT 060V140 9999 FEW016 BKN030 22/15 Q1019","updated":"2025-11-10T16:25:25Z"}
