{"icao":"LPAZ","metar":"LPAZ 041500Z 23014KT 9999 FEW028 BKN044 19/12 Q1025","updated":"2025-12-04T15:22:21Z"}
