{"icao":"KORD","metar":"KORD 240251Z 13004KT 10SM CLR 18/07 A3017 RMK AO2 SLP214 T01780067 53007","updated":"2026-06-24T03:28:29Z"}
