{"icao":"LPPR","metar":"LPPR 120600Z 12008KT CAVOK 19/09 Q1017","updated":"2025-10-12T06:23:28Z"}
