{"icao":"LPOV","metar":"LPOV 200600Z 21002KT 7000 -RA FEW006 13/13 Q1008","updated":"2026-03-20T06:53:48Z"}
