{"icao":"LPMA","metar":"LPMA 220500Z 36007KT 9999 SCT015 23/19 Q1020","updated":"2025-10-22T05:18:00Z"}
