{"icao":"LPHR","metar":"LPHR 091500Z 18018KT 9000 -RA SCT008 BKN012 17/16 Q1024","updated":"2026-01-09T15:22:37Z"}
