{"icao":"LPPT","metar":"LPPT 031930Z 32008KT 9999 FEW022 15/11 Q1014","updated":"2026-05-03T19:55:23Z"}
