{"icao":"LPPT","metar":"LPPT 201230Z 35015KT 9999 FEW034 14/06 Q1021","updated":"2025-11-20T12:38:10Z"}
