{"icao":"LPPT","metar":"LPPT 172100Z 32007KT CAVOK 21/13 Q1015","updated":"2025-10-17T21:15:04Z"}
