{"icao":"LPOV","metar":"LPOV 161400Z 30009KT CAVOK 20/09 Q1020","updated":"2026-03-16T14:58:12Z"}
