{"icao":"KLAX","metar":"KLAX 211411Z 05005KT 6SM BR SCT009 OVC120 14/12 A3008 RMK AO2 SCT V BKN T01390122 $","updated":"2026-01-21T14:30:05Z"}
