{"icao":"LPLA","metar":"LPLA 281600Z 09010KT 060V120 9999 FEW035 21/12 Q1028","updated":"2026-06-28T16:08:34Z"}
