{"icao":"LPPD","metar":"LPPD 011430Z 36013KT 9999 FEW025 18/11 Q1016","updated":"2026-05-01T14:53:46Z"}
