{"icao":"LPPD","metar":"LPPD 171030Z 33016KT 9999 VCSH FEW020 FEW025CB 13/05 Q1015","updated":"2026-03-17T10:50:33Z"}
