{"icao":"LPLA","metar":"LPLA 172200Z 34008KT 9999 BKN008 BKN017 15/13 Q1018","updated":"2026-04-17T22:06:14Z"}
