{"icao":"KLAX","metar":"KLAX 230753Z 25004KT 10SM FEW009 SCT011 17/15 A2999 RMK AO2 SLP153 T01720150 402220167 $","updated":"2026-06-23T08:33:39Z"}
