{"icao":"LPPT","metar":"LPPT 131130Z 31009KT 280V340 9999 SCT030 15/08 Q1023","updated":"2026-04-13T12:01:31Z"}
