{"icao":"LPMA","metar":"LPMA 231900Z 33014G27KT 280V020 9999 SCT015 16/09 Q1021","updated":"2026-01-23T19:23:32Z"}
