{"icao":"LPPS","metar":"LPPS 071900Z 06007KT 020V080 9999 SCT015 SCT030 15/09 Q1033","updated":"2026-01-07T19:19:21Z"}
