{"icao":"LPMR","metar":"LPMR 201200Z 01005KT 250V010 CAVOK 26/14 Q1021","updated":"2026-05-20T12:22:35Z"}
