{"icao":"KLAX","metar":"KLAX 162253Z 27013KT 10SM FEW060 FEW120 25/16 A2989 RMK AO2 SLP120 T02500161","updated":"2025-09-16T23:12:59Z"}
