{"icao":"KJFK","metar":"KJFK 130625Z 03020G31KT 2 1/2SM -RA BR OVC014 14/13 A2989 RMK AO2 PK WND 03032/0614 P0006 T01390128","updated":"2025-10-13T06:28:43Z"}
