{"icao":"KJFK","metar":"KJFK 111851Z 02004KT 10SM FEW065 BKN150 OVC250 15/M03 A3009 RMK AO2 SLP189 T01501033 $","updated":"2026-05-11T18:57:39Z"}
