{"icao":"LPBJ","metar":"LPBJ 011500Z 07006KT 330V120 CAVOK 29/11 Q1019","updated":"2025-10-01T15:17:44Z"}
