{"icao":"KJFK","metar":"KJFK 032251Z 02006KT 3SM -RA BR BKN005 OVC018 02/02 A3032 RMK AO2 SFC VIS 6 SLP265 P0002 T00220017","updated":"2026-03-03T23:25:51Z"}
