{"icao":"LPPR","metar":"LPPR 152200Z 33004KT 290V350 CAVOK 16/15 Q1022","updated":"2025-09-15T22:15:07Z"}
