{"icao":"LPPT","metar":"LPPT 200400Z 28004KT 250V310 9999 FEW010 SCT030 17/16 Q1014","updated":"2025-10-20T04:23:57Z"}
