{"icao":"LPAZ","metar":"LPAZ 060930Z 13005KT 090V170 9999 BKN040 13/06 Q1033","updated":"2026-03-06T09:36:53Z"}
