{"icao":"LPFL","metar":"LPFL 081700Z 18007KT 160V220 9999 FEW010 SCT018 22/18 Q1032","updated":"2026-06-08T17:50:54Z"}
