{"icao":"LPMT","metar":"LPMT 030500Z 07007KT 9999 BKN036 13/12 Q1008","updated":"2026-03-03T05:48:02Z"}
