{"icao":"LPPR","metar":"LPPR 141600Z 32011KT 1800 -DZRA BCFG BKN004 OVC008 13/13 Q1014","updated":"2026-03-14T16:30:19Z"}
