{"icao":"LPMA","metar":"LPMA 160800Z 35006KT 310V020 9999 SCT016 17/11 Q1020","updated":"2025-11-16T08:22:04Z"}
