{"icao":"LPMA","metar":"LPMA 260930Z 01015KT 340V040 9999 BKN015 17/10 Q1018","updated":"2026-03-26T10:00:59Z"}
