{"icao":"LPPR","metar":"LPPR 181600Z 18020KT 6000 -RA SCT020 BKN030 15/11 Q1016","updated":"2025-12-18T16:28:26Z"}
