{"icao":"LPPR","metar":"LPPR 282300Z 20021G31KT 3500 -RADZ BR BKN003 FEW015CB 13/13 Q0999","updated":"2026-01-28T23:24:53Z"}
