{"icao":"KJFK","metar":"KJFK 130251Z 26011KT 10SM FEW250 02/M06 A3014 RMK AO2 SLP207 T00221056 51004 $","updated":"2026-01-13T03:26:51Z"}
