{"icao":"LPLA","metar":"LPLA 080800Z 24019G31KT 8000 -RA FEW009 BKN015 19/17 Q1009","updated":"2026-02-08T08:31:39Z"}
