{"icao":"LPLA","metar":"LPLA 280300Z 14021KT 9000 -RA FEW025 BKN035 14/10 Q1016","updated":"2025-12-28T03:46:34Z"}
