{"icao":"KJFK","metar":"KJFK 201651Z 26019G27KT 10SM BKN030 BKN050 BKN250 16/09 A2977 RMK AO2 PK WND 25027/1616 SLP082 T01560089 $","updated":"2025-10-20T17:16:27Z"}
