{"icao":"LPPR","metar":"LPPR 141800Z 35004KT 7000 NSC 17/15 Q1016","updated":"2025-10-14T18:26:15Z"}
