{"icao":"KJFK","metar":"KJFK 132251Z 17009KT 10SM FEW045 SCT100 SCT250 21/14 A3006 RMK AO2 SLP178 T02060144 $","updated":"2025-09-13T23:14:32Z"}
