{"icao":"LPMR","metar":"LPMR 260800Z VRB01KT 7000 NSC 04/04 Q1026","updated":"2025-11-26T08:26:20Z"}
