{"icao":"LPPS","metar":"LPPS 181230Z 34007KT 300V020 9999 FEW014 19/11 Q1026","updated":"2026-02-18T13:01:44Z"}
