{"icao":"LPOV","metar":"LPOV 291100Z 16005KT 140V200 9999 BKN016 SCT030 19/16 Q1007","updated":"2025-10-29T11:16:04Z"}
