{"icao":"LPPT","metar":"LPPT 181100Z 04007KT 360V090 CAVOK 16/10 Q1020","updated":"2025-11-18T11:17:12Z"}
