{"icao":"LPOV","metar":"LPOV 191700Z 20010KT 160V250 8000 2000N -RA SCT006 SCT018 18/18 Q1011","updated":"2025-10-19T17:13:57Z"}
