{"icao":"LPLA","metar":"LPLA 112100Z 31021KT 9999 FEW025 BKN040 15/09 Q1003","updated":"2025-11-11T21:16:33Z"}
