{"icao":"LPPR","metar":"LPPR 081900Z VRB02KT 8000 FEW049 14/12 Q1020","updated":"2026-04-08T19:14:07Z"}
