{"icao":"KJFK","metar":"KJFK 241851Z 30016G23KT 10SM BKN048 M01/M12 A2988 RMK AO2 SLP119 T10061117 $","updated":"2026-02-24T19:00:42Z"}
