{"icao":"LPBJ","metar":"LPBJ 260500Z 28006KT CAVOK 04/03 Q1013","updated":"2025-12-26T05:20:51Z"}
