{"icao":"KJFK","metar":"KJFK 141851Z 18007KT 10SM FEW045 SCT070 BKN250 24/17 A3004 RMK AO2 SLP172 T02440167 $","updated":"2025-09-14T19:11:46Z"}
