{"icao":"KORD","metar":"KORD 241851Z 20017G30KT 10SM BKN140 OVC250 01/M11 A2960 RMK AO2 PK WND 21030/1849 SLP032 T00061106","updated":"2026-02-24T19:00:43Z"}
