{"icao":"KLAX","metar":"KLAX 052253Z 26008KT 10SM FEW015 FEW250 19/10 A3016 RMK AO2 SLP213 T01940100 $","updated":"2025-11-05T23:17:48Z"}
