{"icao":"LPLA","metar":"LPLA 112000Z 24007KT 190V300 9999 FEW025 14/08 Q1015","updated":"2026-01-11T20:21:46Z"}
