{"icao":"KJFK","metar":"KJFK 051351Z 15004KT 2SM BR OVC006 09/09 A2985 RMK AO2 SFC VIS 5 SLP108 T00940089","updated":"2026-04-05T13:54:47Z"}
