{"icao":"LPMR","metar":"LPMR 241900Z 36017KT 7000 -SHRA BKN005 OVC015 14/14 Q1016","updated":"2025-11-24T19:13:07Z"}
