{"icao":"KLAX","metar":"KLAX 140653Z 08005KT 10SM CLR 13/11 A3008 RMK AO2 SLP183 T01330106","updated":"2026-02-14T07:32:57Z"}
