{"icao":"LPBJ","metar":"LPBJ 300100Z 22004KT CAVOK 05/05 Q1021","updated":"2025-12-30T01:38:54Z"}
