{"icao":"LPOV","metar":"LPOV 011700Z 35008KT CAVOK 21/13 Q1020","updated":"2025-10-02T04:19:55Z"}
