{"icao":"LPPT","metar":"LPPT 261900Z 31006KT CAVOK 19/15 Q1018","updated":"2025-10-26T19:13:24Z"}
