{"icao":"LPPT","metar":"LPPT 310500Z 19012KT 9999 FEW015 SCT020 19/17 Q1012","updated":"2025-10-31T05:18:48Z"}
