{"icao":"LPMA","metar":"LPMA 101900Z 01006KT 310V040 9999 FEW016 17/11 Q1025","updated":"2025-12-10T19:17:02Z"}
