{"icao":"LPFR","metar":"LPFR 041400Z 36011KT 290V050 9999 FEW020 SCT030 19/11 Q0999","updated":"2026-01-04T14:17:25Z"}
