{"icao":"LPCS","metar":"LPCS 251200Z 17013KT 7000 BKN004 20/19 Q1016","updated":"2026-06-25T12:19:05Z"}
