{"icao":"LPPR","metar":"LPPR 060130Z 35015KT 9999 FEW040 09/04 Q1020","updated":"2026-03-06T02:00:07Z"}
