{"icao":"LPOV","metar":"LPOV 261100Z 20016KT 4000 BR SCT004 BKN009 15/15 Q1009","updated":"2026-01-26T11:19:43Z"}
