{"icao":"LPFR","metar":"LPFR 262000Z 01007KT CAVOK 13/07 Q1023","updated":"2025-11-26T20:20:26Z"}
