{"icao":"LPMA","metar":"LPMA 061300Z 35006KT 310V070 9999 BKN016 22/13 Q1021","updated":"2025-11-06T13:31:33Z"}
