{"icao":"KLAX","metar":"KLAX 011219Z 08007KT 2 1/2SM -RA BR FEW002 BKN004 OVC007 14/14 A2998 RMK AO2 VIS N 2 P0004 T01440139 $","updated":"2026-01-01T12:40:34Z"}
