{"icao":"LPFR","metar":"LPFR 300230Z 16003KT 120V180 CAVOK 22/17 Q1018","updated":"2026-05-30T02:55:12Z"}
