{"icao":"LPBJ","metar":"LPBJ 240100Z 31008KT 0600 FG OVC002 17/17 Q1019","updated":"2025-10-24T01:17:32Z"}
