{"icao":"LPMA","metar":"LPMA 160730Z 02010KT 9999 BKN016 16/12 Q1031","updated":"2026-02-16T07:53:41Z"}
