{"icao":"LPBJ","metar":"LPBJ 172300Z 24005KT CAVOK 22/08 Q1021","updated":"2025-09-17T23:15:35Z"}
