{"icao":"LPAZ","metar":"LPAZ 022200Z 32030KT 9999 FEW012 BKN016 15/12 Q1005","updated":"2026-01-02T22:18:58Z"}
