{"icao":"LPPT","metar":"LPPT 261630Z 07005KT 040V110 CAVOK 21/11 Q1023","updated":"2026-02-26T16:56:57Z"}
