{"icao":"LPMT","metar":"LPMT 032300Z 17004KT CAVOK 14/12 Q1020","updated":"2025-11-03T23:16:04Z"}
