{"icao":"LPPR","metar":"LPPR 121000Z 18025G35KT 6000 -RA FEW004 FEW018TCU BKN030 18/14 Q1001","updated":"2025-11-12T10:20:43Z"}
