{"icao":"LPLA","metar":"LPLA 132000Z 31027KT 9999 SCT020 14/10 Q1006","updated":"2025-11-13T20:20:55Z"}
