{"icao":"KLAX","metar":"KLAX 242214Z 07010KT 4SM -RA BR FEW037 BKN075 OVC090 15/14 A2986 RMK AO2 PRESFR VIS 2V3 P0004 T01500139 $","updated":"2025-12-24T22:18:47Z"}
