{"icao":"LPFL","metar":"LPFL 050930Z 34006KT 270V020 9999 VCSH FEW010 BKN015 16/15 Q1024","updated":"2026-06-05T09:44:22Z"}
