{"icao":"LPMT","metar":"LPMT 231300Z 01007KT 340V040 CAVOK 30/14 Q1020","updated":"2026-05-23T13:22:01Z"}
