{"icao":"LPFR","metar":"LPFR 212230Z 19006KT 9000 FEW005 BKN009 17/16 Q1011","updated":"2026-04-21T22:36:54Z"}
