{"icao":"LPHR","metar":"LPHR 280800Z 05003KT 280V080 9000 VCSH FEW005 SCT008 BKN012 15/15 Q1013","updated":"2026-04-28T08:34:21Z"}
