{"icao":"LPBJ","metar":"LPBJ 191200Z 30007KT 270V330 9999 SCT012 13/11 Q1017","updated":"2025-11-19T12:39:23Z"}
