{"icao":"KORD","metar":"KORD 011351Z 07005KT 10SM FEW020 FEW200 BKN250 20/14 A3022 RMK AO2 SLP230 T02000144","updated":"2025-10-01T14:17:58Z"}
