{"icao":"KLAX","metar":"KLAX 200353Z 25005KT 10SM CLR 15/14 A3003 RMK AO2 SLP168 T01500139 $","updated":"2026-01-20T04:43:10Z"}
