{"icao":"LPFR","metar":"LPFR 302030Z 29012KT CAVOK 18/09 Q1017","updated":"2026-04-30T20:58:45Z"}
