{"icao":"KJFK","metar":"KJFK 180551Z 23013KT 1/4SM R04R/1400VP6000FT BR VV004 01/00 A3007 RMK AO2 SFC VIS 3/4 SLP183 4/002 T00060000 10033 20000 58009 $","updated":"2026-02-18T06:00:17Z"}
