{"icao":"LPBJ","metar":"LPBJ 231000Z 07012KT 040V100 CAVOK 22/01 Q1018","updated":"2025-09-23T10:18:30Z"}
