{"icao":"LPAZ","metar":"LPAZ 211100Z 04007KT 350V090 9999 VCSH SCT010 BKN018 17/14 Q1031","updated":"2025-11-21T11:15:49Z"}
