{"icao":"KLAX","metar":"KLAX 282253Z 25013KT 10SM CLR 19/11 A3002 RMK AO2 SLP165 T01890106 $","updated":"2026-04-28T22:57:20Z"}
