{"icao":"LPLA","metar":"LPLA 291700Z 22010KT 190V250 9999 SCT025 FEW027CB 17/09 Q1004 R MK WIND RWY15 23013KT PK 23018/47 RH59 SCT200 CB NE BLU","updated":"2026-04-29T17:26:57Z"}
