{"icao":"LPBJ","metar":"LPBJ 110921Z 34009KT 9999 BKN007 14/12 Q1013","updated":"2026-04-11T09:38:42Z"}
