{"icao":"LPFR","metar":"LPFR 090930Z 35004KT 290V060 CAVOK 26/14 Q1016","updated":"2026-06-09T09:40:06Z"}
