{"icao":"LPLA","metar":"LPLA 021400Z 32035KT 9999 FEW022 FEW025TCU SCT040 16/10 Q1005","updated":"2026-01-02T14:19:17Z"}
