{"icao":"LPAZ","metar":"LPAZ 200400Z 06010KT 020V080 9999 SCT025 17/12 Q1025","updated":"2025-11-20T04:20:57Z"}
