{"icao":"KLAX","metar":"KLAX 191453Z 08005KT 10SM FEW008 BKN140 BKN200 12/04 A3002 RMK AO2 SLP162 T01170044 53001 $","updated":"2026-01-19T15:25:47Z"}
