{"icao":"LPPD","metar":"LPPD 061000Z 15007KT 9999 FEW025 BKN045 13/05 Q1033","updated":"2026-03-06T10:33:18Z"}
