{"icao":"LPPR","metar":"LPPR 300100Z 12006KT 9999 FEW006 12/12 Q1012","updated":"2025-10-30T01:25:03Z"}
