{"icao":"LPBJ","metar":"LPBJ 201700Z 29010KT CAVOK 27/15 Q1018","updated":"2025-09-20T17:12:35Z"}
