{"icao":"LPLA","metar":"LPLA 101516Z 35016KT 7000 -SHRA SCT014 BKN018 15/11 Q1021","updated":"2026-05-10T15:52:17Z"}
