{"icao":"LPMA","metar":"LPMA 151600Z 33007KT 260V010 9999 SCT015 FEW018CB BKN030 24/18 Q1015","updated":"2025-10-15T16:19:38Z"}
