{"icao":"LPPT","metar":"LPPT 140330Z 33008KT 300V360 9999 FEW016 13/11 Q1017","updated":"2026-05-14T03:38:50Z"}
