{"icao":"LPLA","metar":"LPLA 162100Z 19013G23KT 150V210 8000 -DZRA SCT008 SCT013 BKN017 16/14 Q1022","updated":"2026-02-16T21:28:02Z"}
