{"icao":"LPPR","metar":"LPPR 160930Z 26007KT 210V290 7000 -DZ SCT003 BKN005 14/13 Q1028","updated":"2026-02-16T09:52:45Z"}
