{"icao":"KJFK","metar":"KJFK 232004Z 05003KT 10SM -RA SCT009 BKN013 OVC037 04/03 A3004 RMK AO2 P0000 T00440033 $","updated":"2025-12-23T20:21:03Z"}
