{"icao":"LPAR","metar":"LPAR 291200Z 06007KT CAVOK 12/08 Q1020","updated":"2025-12-29T12:42:04Z"}
