{"icao":"LPHR","metar":"LPHR 162000Z 12007KT 8000 -SHRA FEW008 BKN012 BKN025 19/18 Q1022","updated":"2025-11-16T20:19:12Z"}
