{"icao":"LPOV","metar":"LPOV 141900Z 35012KT 3500 -DZ BR BKN005 BKN012 13/13 Q1015","updated":"2026-03-14T19:25:25Z"}
