{"icao":"LPMT","metar":"LPMT 101500Z 34006KT CAVOK 28/13 Q1018","updated":"2025-10-10T15:17:45Z"}
