{"icao":"LPSJ","metar":"LPSJ 260900Z 29006KT 250V320 9999 FEW020 SCT030 17/11 Q1026","updated":"2026-06-26T09:22:49Z"}
