{"icao":"LPBJ","metar":"LPBJ 270500Z 29005KT CAVOK 10/09 Q1023","updated":"2026-02-27T05:51:40Z"}
