{"icao":"KORD","metar":"KORD 260551Z 33004KT 10SM SCT140 SCT250 M02/M12 A2987 RMK AO2 SLP123 T10221122 10011 21022 400331028 53017","updated":"2026-02-26T05:56:36Z"}
