{"icao":"LPPR","metar":"LPPR 150400Z VRB02KT CAVOK 15/14 Q1022","updated":"2025-09-15T04:21:12Z"}
