{"icao":"LPPS","metar":"LPPS 151500Z 18010KT 150V210 9999 SCT014 23/20 Q1015","updated":"2025-10-15T15:18:07Z"}
