{"icao":"LPPT","metar":"LPPT 131230Z 23003KT 140V270 9999 FEW006 FEW025TCU 14/12 Q1009","updated":"2026-01-13T12:44:11Z"}
