{"icao":"LPBJ","metar":"LPBJ 121900Z VRB02KT 4000 TSRA SCT006 SCT014CB OVC020 14/14 Q1008","updated":"2025-11-12T19:15:30Z"}
