{"icao":"LPPD","metar":"LPPD 021100Z 06006KT 350V090 9999 VCSH FEW018 BKN028 19/14 Q1023","updated":"2025-11-02T11:12:57Z"}
