{"icao":"LPBJ","metar":"LPBJ 071400Z 28005KT 250V320 9999 FEW036 16/07 Q1017","updated":"2026-03-07T14:22:56Z"}
