{"icao":"KLAX","metar":"KLAX 161053Z 31005KT 1/4SM R25L/P6000FT FG VV002 19/18 A2989 RMK AO2 SLP120 VIS SE 3/4 VIS W 1/8 T01890178","updated":"2025-09-16T11:14:22Z"}
