{"icao":"LPPT","metar":"LPPT 131430Z 25007KT 200V290 CAVOK 31/11 Q1016","updated":"2026-06-13T14:58:47Z"}
