{"icao":"KJFK","metar":"KJFK 170951Z 23005KT 8SM FEW016 OVC024 01/M01 A3016 RMK AO2 SLP214 T00061006 $","updated":"2026-02-17T10:43:24Z"}
