{"icao":"LPPS","metar":"LPPS 041300Z 22020G33KT 9999 FEW015 25/19 Q1013","updated":"2025-11-04T13:32:35Z"}
