{"icao":"LPMT","metar":"LPMT 241900Z 01004KT 9999 FEW025 10/07 Q1009","updated":"2025-12-24T20:20:39Z"}
