{"icao":"KJFK","metar":"KJFK 162051Z 29020G31KT 10SM SCT070 SCT090 09/M03 A2938 RMK AO2 PK WND 28046/2027 SLP949 VIRGA ALQDS T00891033 53033 $","updated":"2025-11-16T21:15:36Z"}
