{"icao":"LPMT","metar":"LPMT 251700Z 33007KT CAVOK 21/13 Q1017","updated":"2026-03-25T17:57:15Z"}
