{"icao":"LPOV","metar":"LPOV 261500Z 32008KT 290V350 9999 SCT005 15/12 Q1024","updated":"2026-02-26T15:52:15Z"}
