{"icao":"LPLA","metar":"LPLA 201000Z 09007KT 9999 FEW024 17/10 Q1031","updated":"2025-11-20T10:20:44Z"}
