{"icao":"LPPR","metar":"LPPR 162300Z 35002KT 0550 0450S R17/0600U PRFG BKN001 12/12 Q1015","updated":"2025-10-16T23:14:54Z"}
