{"icao":"KORD","metar":"KORD 141951Z 21013G26KT 10SM SCT040 BKN160 BKN250 26/17 A2977 RMK AO2 PK WND 19026/1942 SLP076 T02610172","updated":"2026-04-14T20:52:48Z"}
