{"icao":"KORD","metar":"KORD 261151Z 00000KT 10SM FEW070 07/03 A3036 RMK AO2 SLP283 T00720028 10111 20072 53006 $","updated":"2025-10-26T12:33:46Z"}
