{"icao":"LPMT","metar":"LPMT 210400Z 36008KT CAVOK 11/03 Q1025","updated":"2025-11-21T04:21:58Z"}
