{"icao":"KJFK","metar":"KJFK 161451Z 02012KT 10SM BKN017 OVC028 M01/M03 A3017 RMK AO2 SLP214 T10061033 51022 $","updated":"2026-02-16T15:39:11Z"}
