{"icao":"LPPR","metar":"LPPR 180830Z VRB02KT CAVOK 16/12 Q1018","updated":"2026-04-18T08:49:40Z"}
