{"icao":"LPOV","metar":"LPOV 240500Z 16008KT 9999 SCT006 BKN022 12/11 Q1018","updated":"2026-02-24T05:57:31Z"}
