{"icao":"LPOV","metar":"LPOV 171500Z 33010KT 300V360 CAVOK 21/16 Q1018","updated":"2026-06-17T15:24:35Z"}
