{"icao":"LPMA","metar":"LPMA 150800Z 22015KT 9999 -RA BKN014 20/17 Q1013","updated":"2025-11-15T08:21:33Z"}
