{"icao":"LPOV","metar":"LPOV 141700Z 33006KT 300V360 CAVOK 19/15 Q1016","updated":"2025-10-14T17:15:17Z"}
