{"icao":"LPOV","metar":"LPOV 031900Z 34008KT CAVOK 14/12 Q1023","updated":"2026-04-03T19:37:27Z"}
