{"icao":"LPBJ","metar":"LPBJ 301700Z 35008KT 9999 SCT040 14/05 Q1016","updated":"2025-11-30T17:15:27Z"}
