{"icao":"LPMR","metar":"LPMR 140800Z VRB02KT CAVOK 12/10 Q1017","updated":"2025-10-14T08:22:03Z"}
