{"icao":"KORD","metar":"KORD 141751Z 04010KT 10SM SCT026 SCT250 20/12 A3031 RMK AO2 SLP261 T02000122 10206 20133 58007 $","updated":"2025-10-14T18:26:37Z"}
