{"icao":"LPFR","metar":"LPFR 202000Z 27011KT CAVOK 21/19 Q1016","updated":"2025-10-20T20:20:42Z"}
