{"icao":"KLAX","metar":"KLAX 212253Z 24010KT 10SM FEW010 FEW090 19/13 A2985 RMK AO2 SLP106 T01940133 $","updated":"2026-05-21T23:02:22Z"}
