{"icao":"LPMT","metar":"LPMT 242000Z 29004KT CAVOK 16/11 Q1020","updated":"2026-03-24T20:39:53Z"}
