{"icao":"LPFL","metar":"LPFL 040600Z 09006KT 050V160 9999 FEW020 15/10 Q1025","updated":"2026-05-04T06:11:48Z"}
