{"icao":"LPPT","metar":"LPPT 261700Z 05005KT CAVOK 14/06 Q1024","updated":"2025-11-26T17:17:12Z"}
