{"icao":"KJFK","metar":"KJFK 171451Z 31003KT 10SM SCT039 BKN050 BKN110 BKN250 23/14 A2986 RMK AO2 SLP110 T02280144 53008","updated":"2026-04-17T14:53:58Z"}
