{"icao":"LPMR","metar":"LPMR 260100Z 12001KT 5000 BR NSC 10/10 Q1017","updated":"2026-03-26T02:11:27Z"}
