{"icao":"LPOV","metar":"LPOV 260800Z 17003KT CAVOK 13/07 Q1019","updated":"2025-09-26T08:24:14Z"}
