{"icao":"LPFR","metar":"LPFR 071600Z 25009KT CAVOK 24/19 Q1019","updated":"2026-06-07T16:13:30Z"}
