{"icao":"KLAX","metar":"KLAX 121053Z 11003KT 10SM FEW150 BKN250 11/08 A3016 RMK AO2 SLP210 T01110078","updated":"2026-02-12T11:38:36Z"}
