{"icao":"LPCS","metar":"LPCS 151100Z 28006KT 230V310 9999 4500NW -DZ FEW005 BKN016 13/11 Q1032","updated":"2026-02-15T11:21:18Z"}
