{"icao":"LPPS","metar":"LPPS 111000Z 19017KT 9999 FEW015 22/16 Q1014","updated":"2025-11-11T10:20:33Z"}
