{"icao":"LPOV","metar":"LPOV 071300Z 32006KT 290V350 9999 SCT016 12/09 Q1026","updated":"2026-01-07T13:38:34Z"}
