{"icao":"KJFK","metar":"KJFK 211251Z 24007KT 10SM OVC024 08/04 A3011 RMK AO2 SLP196 T00780044 $","updated":"2025-11-21T13:27:44Z"}
