{"icao":"KORD","metar":"KORD 020651Z 29004KT 10SM FEW015 FEW034 SCT065 06/04 A3015 RMK AO2 SLP212 T00560044 $","updated":"2025-11-02T07:15:54Z"}
