{"icao":"LPOV","metar":"LPOV 111500Z 32014KT 9999 FEW010 15/13 Q1026","updated":"2026-03-11T15:47:11Z"}
