{"icao":"LPOV","metar":"LPOV 061900Z 21009KT 190V250 9999 FEW012 FEW025CB BKN048 10/07 Q1004 RESHRA","updated":"2026-02-06T19:36:36Z"}
