{"icao":"LPFR","metar":"LPFR 282100Z 24018KT 8000 SCT005 BKN012 16/15 Q1010","updated":"2026-01-28T21:27:43Z"}
