{"icao":"KLAX","metar":"KLAX 140653Z 00000KT 10SM BKN010 14/13 A3006 RMK AO2 SLP178 T01440133 $","updated":"2025-12-14T07:17:56Z"}
