{"icao":"KJFK","metar":"KJFK 200451Z 29024G37KT 10SM BKN050 00/M11 A2990 RMK AO2 PK WND 29039/0416 SLP125 T00001111 401390000 $","updated":"2025-12-20T05:18:49Z"}
