{"icao":"KORD","metar":"KORD 280651Z 29011G18KT 10SM CLR M04/M09 A3027 RMK AO2 SLP258 T10391094","updated":"2025-11-28T07:18:52Z"}
