{"icao":"KLAX","metar":"KLAX 070853Z VRB03KT 10SM CLR 17/M02 A3002 RMK AO2 SLP164 T01671022 51003 $","updated":"2026-03-07T09:27:24Z"}
