{"icao":"KLAX","metar":"KLAX 180053Z 00000KT 10SM SCT220 SCT280 20/07 A3005 RMK AO2 SLP176 T02000072 $","updated":"2026-01-18T01:48:05Z"}
