{"icao":"KLAX","metar":"KLAX 242253Z 26009KT 10SM BKN250 18/13 A3002 RMK AO2 SLP164 T01830133","updated":"2026-02-24T23:30:48Z"}
