{"icao":"KJFK","metar":"KJFK 200851Z 29015G23KT 10SM SCT050 SCT250 M01/M11 A3006 RMK AO2 SLP178 T10061106 51042 $","updated":"2025-12-20T09:19:00Z"}
