{"icao":"LPAZ","metar":"LPAZ 220400Z 21014KT 9999 SCT004 BKN010 22/22 Q1016","updated":"2025-10-22T04:21:09Z"}
