{"icao":"LPPS","metar":"LPPS 211600Z 13011KT 9999 SCT012 FEW018TCU 17/14 Q0998","updated":"2026-03-21T16:28:23Z"}
