{"icao":"KORD","metar":"KORD 190451Z 20013G20KT 10SM SCT070 BKN095 OVC250 20/17 A2994 RMK AO2 SLP134 T02000167","updated":"2026-05-19T04:58:53Z"}
