{"icao":"LPPR","metar":"LPPR 130900Z 09005KT 060V120 CAVOK 13/09 Q1023","updated":"2025-12-13T09:18:05Z"}
