{"icao":"LPLA","metar":"LPLA 161106Z 17014KT 5000 -DZ BR FEW005 BKN008 BKN015 16/14 Q1026","updated":"2026-02-16T11:39:15Z"}
