{"icao":"LPFR","metar":"LPFR 261600Z 23009KT 8000 FEW012 BKN035 17/15 Q1015","updated":"2026-01-26T16:32:47Z"}
