{"icao":"LPBJ","metar":"LPBJ 030400Z 29007KT CAVOK 06/06 Q1019","updated":"2025-12-03T04:27:53Z"}
