{"icao":"LPPT","metar":"LPPT 121300Z 24008KT 210V280 9999 FEW014 BKN025 16/12 Q1020","updated":"2026-02-12T13:04:47Z"}
