{"icao":"KORD","metar":"KORD 131251Z 29007KT 10SM FEW025 OVC130 M12/M18 A3017 RMK AO2 SLP227 T11221183","updated":"2025-12-13T13:26:26Z"}
