{"icao":"LPPS","metar":"LPPS 102200Z 02008KT 9999 SCT015 BKN030 21/13 Q1022","updated":"2025-10-10T22:15:36Z"}
