{"icao":"LPPT","metar":"LPPT 130530Z 27017G29KT 240V310 9999 FEW018 SCT024 13/10 Q1003","updated":"2026-02-13T05:58:20Z"}
