{"icao":"LPMA","metar":"LPMA 111030Z 20012KT 160V220 9999 SCT016 FEW018TCU 19/13 Q1016","updated":"2026-05-11T10:37:14Z"}
