{"icao":"LPFL","metar":"LPFL 041400Z 19014G28KT 140V260 9999 VCSH FEW010 SCT015 19/16 Q1018","updated":"2025-12-04T14:20:26Z"}
