{"icao":"LPOV","metar":"LPOV 222100Z 07001KT 9999 MIFG NSC 10/09 Q1027","updated":"2026-02-22T21:22:53Z"}
