{"icao":"KORD","metar":"KORD 230051Z 29009G22KT 10SM BKN047 09/01 A2994 RMK AO2 SLP141 T00890011","updated":"2025-10-23T01:21:12Z"}
