{"icao":"LPMR","metar":"LPMR 220800Z 24006KT 200V270 5000 BR BKN005 BKN013 20/20 Q1016","updated":"2025-10-22T08:26:32Z"}
