{"icao":"LPAZ","metar":"LPAZ 241030Z 28021KT 8000 FEW023 SCT030 15/12 Q1015","updated":"2026-02-24T10:47:47Z"}
