{"icao":"LPFL","metar":"LPFL 081000Z 20012KT 150V240 9999 FEW009 BKN013 19/16 Q1006","updated":"2026-02-08T10:25:21Z"}
