{"icao":"LPHR","metar":"LPHR 061930Z 27032G45KT 6000 VCSH SCT008 SCT011 BKN020 16/15 Q1006","updated":"2026-02-06T19:36:53Z"}
