{"icao":"LPMA","metar":"LPMA 090900Z 35010KT 310V020 9999 SCT016 SCT033 23/16 Q1024","updated":"2025-10-09T09:18:47Z"}
