{"icao":"LPPR","metar":"LPPR 252000Z VRB02KT CAVOK 16/07 Q1018","updated":"2025-09-25T20:19:35Z"}
