{"icao":"KJFK","metar":"KJFK 151551Z 30012G19KT 10SM BKN046 BKN065 BKN100 18/07 A2987 RMK AO2 SLP114 T01780067","updated":"2026-05-15T16:50:13Z"}
