{"icao":"LPFR","metar":"LPFR 041730Z 25021G32KT 4200 -RA BR BKN006 SCT015 16/15 Q1002","updated":"2026-02-04T17:43:24Z"}
