{"icao":"LPPR","metar":"LPPR 200800Z 27004KT 230V300 0900 R17/P2000 FG SCT002 BKN004 17/17 Q1020","updated":"2025-09-20T08:20:12Z"}
