{"icao":"LPMT","metar":"LPMT 230200Z 29010KT 260V320 9999 FEW014 SCT032 13/08 Q1005","updated":"2026-01-23T03:40:57Z"}
