{"icao":"LPCS","metar":"LPCS 121530Z 22005KT 190V260 9999 FEW013 20/12 Q1025","updated":"2026-03-12T15:57:47Z"}
