{"icao":"LPPD","metar":"LPPD 251230Z 13004KT 8000 FEW001 SCT003 BKN040 17/16 Q1018","updated":"2026-04-25T13:01:29Z"}
