{"icao":"KLAX","metar":"KLAX 211253Z 29003KT 6SM BR OVC009 14/13 A3008 RMK AO2 SLP186 T01440128 $","updated":"2026-01-21T13:44:00Z"}
