{"icao":"LPMR","metar":"LPMR 200600Z 15004KT 0800 FG FEW002 04/03 Q1020","updated":"2026-01-20T07:26:53Z"}
