{"icao":"LPBJ","metar":"LPBJ 242300Z 15009KT CAVOK 13/10 Q1017","updated":"2026-02-24T23:30:16Z"}
