{"icao":"LPOV","metar":"LPOV 061400Z 16014KT CAVOK 27/06 Q1013","updated":"2026-04-06T14:44:47Z"}
