{"icao":"LPMT","metar":"LPMT 272000Z 33005KT CAVOK 13/08 Q1024","updated":"2025-11-27T20:18:23Z"}
