{"icao":"LPFR","metar":"LPFR 140900Z 33014KT CAVOK 17/11 Q1023","updated":"2026-04-14T09:16:10Z"}
