{"icao":"KJFK","metar":"KJFK 011751Z 29019G33KT 10SM FEW050 SCT060 BKN250 15/M01 A2992 RMK AO2 PK WND 27033/1746 SLP131 T01501006 10156 20094 50003 $","updated":"2025-11-01T18:22:30Z"}
