{"icao":"LPST","metar":"LPST 051100Z 25021KT 9999 BKN020 15/12 Q0996","updated":"2026-02-05T11:33:52Z"}
