{"icao":"LPST","metar":"LPST 201500Z 04006KT 330V090 CAVOK 16/05 Q1028","updated":"2026-02-20T15:36:02Z"}
