{"icao":"KJFK","metar":"KJFK 231151Z 26011KT 10SM FEW050 SCT110 SCT210 12/03 A2991 RMK AO2 SLP128 T01170033 10117 20106 53013","updated":"2025-10-23T12:38:56Z"}
