{"icao":"KORD","metar":"KORD 181803Z 26005KT 10SM FEW028 SCT034 OVC045 22/17 A2967 RMK AO2 T02170167 $","updated":"2025-10-18T18:22:33Z"}
