{"icao":"LPOV","metar":"LPOV 041500Z 18012KT 150V220 CAVOK 22/13 Q1012","updated":"2025-11-04T15:20:22Z"}
