{"icao":"LPMA","metar":"LPMA 290300Z 03004KT 360V090 9999 SCT015 19/16 Q1024","updated":"2026-05-29T03:28:53Z"}
