{"icao":"LPFR","metar":"LPFR 052300Z 08010KT CAVOK 19/09 Q1019","updated":"2026-04-05T23:32:17Z"}
