{"icao":"KORD","metar":"KORD 032051Z 20005KT 10SM FEW075 SCT250 31/13 A3011 RMK AO2 SLP192 T03110133 56020 $","updated":"2025-10-03T21:14:29Z"}
