{"icao":"LPAR","metar":"LPAR 021200Z 27008KT 240V300 9999 SCT020 16/08 Q1019","updated":"2025-12-02T12:41:23Z"}
