{"icao":"KORD","metar":"KORD 021851Z 18010G17KT 9SM -RA BKN026 OVC033 19/17 A2969 RMK AO2 RAB19 SLP055 P0000 T01940172","updated":"2026-04-02T19:50:41Z"}
