{"icao":"LPFR","metar":"LPFR 122000Z 16010KT 9999 FEW025 BKN038 15/11 Q1017","updated":"2026-01-12T20:23:41Z"}
