{"icao":"LPLA","metar":"LPLA 132200Z 17004KT 120V220 9999 FEW018 13/09 Q1031","updated":"2026-02-13T22:31:49Z"}
