{"icao":"LPAR","metar":"LPAR 151000Z 06003KT 010V180 CAVOK 21/14 Q1017","updated":"2025-10-15T10:19:48Z"}
