{"icao":"LPPR","metar":"LPPR 260700Z 02005KT 360V060 CAVOK 05/05 Q1026","updated":"2025-11-26T07:18:12Z"}
