{"icao":"LPFL","metar":"LPFL 221500Z 18011KT 9999 FEW016 BKN030 18/13 Q1029","updated":"2025-11-22T15:16:34Z"}
