{"icao":"LPMR","metar":"LPMR 261600Z 34014KT CAVOK 20/09 Q1015","updated":"2026-03-26T16:59:22Z"}
