{"icao":"LPMR","metar":"LPMR 312100Z 00000KT CAVOK 16/08 Q1024","updated":"2026-03-31T21:37:29Z"}
