{"icao":"KLAX","metar":"KLAX 271153Z 06004KT 10SM FEW250 11/M06 A3022 RMK AO2 SLP232 T01111056 10156 20111 58004 $","updated":"2026-01-27T12:48:11Z"}
