{"icao":"LPBJ","metar":"LPBJ 292300Z 26008KT 8000 VCFG FEW003 12/11 Q1016","updated":"2026-01-29T23:25:11Z"}
