{"icao":"LPFR","metar":"LPFR 131400Z 17007KT CAVOK 33/12 Q1018","updated":"2025-09-13T14:12:53Z"}
