{"icao":"LPPT","metar":"LPPT 212000Z 28008G19KT 160V330 9999 FEW020 13/09 Q1006","updated":"2026-01-21T20:28:44Z"}
