{"icao":"KJFK","metar":"KJFK 210651Z 19005KT 10SM BKN014 OVC080 06/05 A2976 RMK AO2 SLP078 T00560050","updated":"2026-03-21T07:32:01Z"}
