{"icao":"LPMR","metar":"LPMR 232100Z 04002KT 7000 -RA OVC020 16/15 Q1019","updated":"2025-10-23T21:15:26Z"}
