{"icao":"LPMT","metar":"LPMT 120200Z VRB01KT CAVOK 19/14 Q1016","updated":"2026-06-12T03:50:25Z"}
