{"icao":"LPFL","metar":"LPFL 111800Z 17008KT 140V210 9999 SCT020 21/16 Q1018","updated":"2025-10-11T23:15:48Z"}
