{"icao":"LPPR","metar":"LPPR 111000Z 34016KT 9999 FEW018 SCT024 13/09 Q1016","updated":"2026-04-11T10:32:38Z"}
