{"icao":"LPMR","metar":"LPMR 172000Z 02004KT CAVOK 14/12 Q1018","updated":"2025-11-17T20:21:37Z"}
