{"icao":"LPHR","metar":"LPHR 032100Z VRB04KT 9000 -SHRA FEW010 SCT025 14/11 Q1017","updated":"2026-01-03T21:17:05Z"}
