{"icao":"LPPR","metar":"LPPR 101130Z VRB05KT CAVOK 27/11 Q1013","updated":"2026-04-10T11:47:11Z"}
