{"icao":"LPHR","metar":"LPHR 180930Z 35018G33KT 310V010 9999 SHRAGS FEW015 SCT022 FEW030CB 11/03 Q1018","updated":"2026-03-18T09:53:42Z"}
