{"icao":"LPMR","metar":"LPMR 261600Z 34009KT 9999 FEW020 20/14 Q1018","updated":"2025-10-26T16:20:10Z"}
