{"icao":"LPBJ","metar":"LPBJ 221300Z 13009KT 090V180 CAVOK 34/04 Q1019","updated":"2026-05-22T13:30:22Z"}
