{"icao":"KORD","metar":"KORD 041651Z 21005KT 10SM FEW035 BKN250 M02/M12 A3020 RMK AO2 SLP236 T10221117 $","updated":"2026-01-04T17:16:31Z"}
