{"icao":"LPFL","metar":"LPFL 202000Z 26016G30KT 200V320 9999 FEW017 SCT032 18/14 Q1021","updated":"2026-01-20T20:11:09Z"}
