{"icao":"KORD","metar":"KORD 221414Z 32010G22KT 6SM -SN FEW019 FEW024 OVC032 M06/M10 A3022 RMK AO2 P0000 T10561100 $","updated":"2026-02-22T14:24:38Z"}
