{"icao":"LPMA","metar":"LPMA 220230Z 03017KT 9999 SCT015 18/08 Q1025","updated":"2025-11-22T03:03:05Z"}
