{"icao":"LPFL","metar":"LPFL 061100Z 19008KT 160V280 9999 FEW025 16/08 Q1024","updated":"2026-05-06T11:05:14Z"}
