{"icao":"LPCS","metar":"LPCS 080830Z 12009KT 090V150 9999 FEW012 12/08 Q1015","updated":"2026-04-08T08:59:29Z"}
