{"icao":"KLAX","metar":"KLAX 260453Z VRB04KT 10SM BKN012 16/14 A3002 RMK AO2 SLP164 T01610139 $","updated":"2025-10-26T05:17:09Z"}
