{"icao":"LPPR","metar":"LPPR 180800Z 11010KT CAVOK 20/12 Q1016","updated":"2025-10-18T08:20:59Z"}
