{"icao":"LPLA","metar":"LPLA 171200Z 20018KT 160V230 9999 FEW015 SCT022 24/19 Q1017","updated":"2025-09-17T12:36:21Z"}
