{"icao":"LPPD","metar":"LPPD 012000Z 02004KT 360V070 9999 FEW025 BKN040 16/09 Q1022","updated":"2025-11-01T20:17:14Z"}
