{"icao":"KJFK","metar":"KJFK 081251Z 30011KT 10SM FEW028 06/01 A3015 RMK AO2 SLP210 T00610006 $","updated":"2026-01-08T13:39:39Z"}
