{"icao":"LPPT","metar":"LPPT 030930Z 06004KT 020V100 CAVOK 17/12 Q1023","updated":"2026-04-03T09:52:16Z"}
