{"icao":"LPPT","metar":"LPPT 040500Z 00000KT 9999 FEW008 14/14 Q1018","updated":"2025-11-04T05:18:36Z"}
