{"icao":"LPMA","metar":"LPMA 081000Z 35008G21KT 280V060 9999 FEW015 15/05 Q1022","updated":"2026-04-08T10:14:45Z"}
