{"icao":"LPFR","metar":"LPFR 282300Z 02006KT CAVOK 13/06 Q1021","updated":"2026-02-28T23:20:23Z"}
