{"icao":"KORD","metar":"KORD 021651Z 27007KT 6SM BR OVC007 M08/M10 A3002 RMK AO2 SLP177 T10831100","updated":"2025-12-02T17:21:30Z"}
