{"icao":"LPOV","metar":"LPOV 280700Z 18003KT 1500 BR FEW001 15/15 Q1009","updated":"2026-04-28T08:34:19Z"}
