{"icao":"LPPS","metar":"LPPS 251300Z 20009KT 170V230 9999 FEW014 BKN030 25/17 Q1015","updated":"2025-10-25T13:21:51Z"}
