{"icao":"KORD","metar":"KORD 051251Z 21007KT 10SM SCT070 BKN090 OVC110 M07/M11 A3009 RMK AO2 SLP199 T10671111","updated":"2026-02-05T13:00:06Z"}
