{"icao":"KORD","metar":"KORD 150651Z 15008KT 10SM FEW032 SCT050 BKN150 OVC250 18/16 A2970 RMK AO2 RAE0559 TSE12 SLP054 OCNL LTGIC DSNT N-E CB DSNT N-E MOV E P0000 T01780161","updated":"2026-04-15T07:43:40Z"}
