{"icao":"LPHR","metar":"LPHR 041830Z 25008KT 9999 FEW016 BKN040 17/12 Q1022","updated":"2026-04-04T18:40:14Z"}
