{"icao":"KORD","metar":"KORD 300451Z 03007KT 10SM FEW037 09/03 A2997 RMK AO2 SLP149 T00890033","updated":"2025-10-30T05:18:30Z"}
