{"icao":"LPPD","metar":"LPPD 011900Z 34018KT 300V010 9999 FEW025 13/06 Q1025","updated":"2026-03-01T19:21:07Z"}
