{"icao":"LPCS","metar":"LPCS 301900Z 04005KT CAVOK 10/09 Q1020","updated":"2025-12-30T19:16:06Z"}
