{"icao":"LPAZ","metar":"LPAZ 200300Z 06012KT 030V090 9999 FEW026 17/11 Q1025","updated":"2025-11-20T03:08:27Z"}
