{"icao":"LPBJ","metar":"LPBJ 162000Z 21005KT 9999 FEW018 SCT036 12/11 Q1013","updated":"2025-11-16T20:19:10Z"}
