{"icao":"LPMR","metar":"LPMR 090400Z 35010KT 9999 SCT005 OVC007 15/13 Q1021","updated":"2026-06-09T05:04:00Z"}
