{"icao":"LPFL","metar":"LPFL 031730Z VRB14G25KT 9999 -RA FEW016 18/12 Q0998","updated":"2026-02-03T17:51:46Z"}
