{"icao":"LPPT","metar":"LPPT 212230Z VRB02KT CAVOK 21/15 Q1020","updated":"2026-05-21T23:02:03Z"}
