{"icao":"LPBJ","metar":"LPBJ 312200Z 03007KT CAVOK 18/05 Q1022","updated":"2026-03-31T22:33:07Z"}
