{"icao":"LPMA","metar":"LPMA 212100Z 02014KT 340V040 9999 BKN015 18/11 Q1025","updated":"2025-11-21T21:16:21Z"}
