{"icao":"LPHR","metar":"LPHR 271930Z 03007KT 360V070 9999 FEW016 16/10 Q1030","updated":"2026-03-27T19:40:23Z"}
