{"icao":"LPGR","metar":"LPGR 291730Z 29005KT 240V340 9999 FEW020 22/16 Q1030","updated":"2026-06-29T17:35:09Z"}
