{"icao":"LPPD","metar":"LPPD 290600Z 00000KT 4000 -RA BR FEW002 BKN008 14/13 Q1008 RERA","updated":"2026-04-29T06:21:44Z"}
