{"icao":"LPAZ","metar":"LPAZ 291730Z 24013KT 0300 R18/0200N FG VV002 17/17 Q1014","updated":"2026-01-29T17:36:02Z"}
