{"icao":"KORD","metar":"KORD 010951Z 03004KT 10SM -RA BKN037 BKN070 OVC095 04/02 A2997 RMK AO2 SLP151 P0003 T00440017 $","updated":"2026-05-01T10:40:10Z"}
