{"icao":"LPHR","metar":"LPHR 020930Z 30019KT 9999 FEW016 14/06 Q1015","updated":"2026-02-02T09:47:47Z"}
