{"icao":"KJFK","metar":"KJFK 231651Z 33025G34KT 3/4SM R04R/3000V4000FT -SN BLSN SCT000 BKN009 OVC014 M01/M02 A2950 RMK AO2 PK WND 34034/1648 SFC VIS 1 SLP989 SN BLSN SCT000 P0001 T10061017 $","updated":"2026-02-23T16:56:31Z"}
