{"icao":"LPMA","metar":"LPMA 081900Z 01008KT 330V050 9999 BKN015 SCT030 14/07 Q1026","updated":"2026-03-08T19:22:39Z"}
