{"icao":"LPLA","metar":"LPLA 152300Z 23008KT 9999 FEW023 SCT043 15/10 Q1022","updated":"2026-04-15T23:40:26Z"}
