{"icao":"LPPS","metar":"LPPS 180500Z 36024KT 9999 SCT010 BKN030 16/12 Q1014","updated":"2026-01-18T05:22:37Z"}
