{"icao":"KJFK","metar":"KJFK 301351Z 28019G31KT 10SM BKN060 M01/M13 A2969 RMK AO2 PK WND 28035/1316 SLP053 T10061133 $","updated":"2025-12-30T14:20:21Z"}
