{"icao":"KORD","metar":"KORD 171951Z 20014G30KT 10SM SCT055 BKN200 BKN250 30/16 A2981 RMK AO2 PK WND 17035/1901 SLP090 T03000161","updated":"2026-05-17T20:50:18Z"}
