{"icao":"KORD","metar":"KORD 020651Z 00000KT 4SM -SN BR OVC042 M05/M06 A2998 RMK AO2 SNB0555 SLP160 P0000 T10501061","updated":"2025-12-02T07:21:08Z"}
