{"icao":"LPFL","metar":"LPFL 242000Z 17006KT 140V210 9999 SCT025 21/15 Q1019","updated":"2025-09-24T23:16:10Z"}
