{"icao":"LPOV","metar":"LPOV 251100Z 32010KT 9999 FEW025 18/13 Q1017","updated":"2026-04-25T11:36:52Z"}
