{"icao":"KLAX","metar":"KLAX 031053Z 24003KT 4SM -DZ BR FEW005 OVC008 19/18 A2997 RMK AO2 SLP147 VIS NE 2 1/2 P0001 T01940183 $","updated":"2025-10-03T11:14:13Z"}
