{"icao":"LPAZ","metar":"LPAZ 170800Z 31021KT 9999 FEW018 BKN030 15/10 Q1031","updated":"2026-01-17T08:25:25Z"}
