{"icao":"LPAZ","metar":"LPAZ 030230Z 08006KT 030V110 9999 FEW014 SCT022 15/13 Q1019","updated":"2026-05-03T02:47:35Z"}
