{"icao":"LPBJ","metar":"LPBJ 171300Z 13004KT 070V220 9999 FEW030 27/14 Q1015","updated":"2025-10-17T13:26:42Z"}
