{"icao":"KJFK","metar":"KJFK 021751Z 36007G16KT 340V040 10SM FEW055 BKN250 18/04 A3046 RMK AO2 SLP314 T01830039 10183 20128 58013 $","updated":"2025-10-02T18:24:45Z"}
