{"icao":"LPLA","metar":"LPLA 101800Z 24014KT 210V270 9999 SCT018 BKN025 20/15 Q1009","updated":"2025-11-10T18:27:09Z"}
