{"icao":"LPPT","metar":"LPPT 251000Z 06007KT 340V130 CAVOK 22/03 Q1018","updated":"2025-09-25T10:18:27Z"}
