{"icao":"LPPT","metar":"LPPT 110800Z 06012KT CAVOK 19/12 Q1021","updated":"2025-10-11T08:20:04Z"}
