{"icao":"LPCS","metar":"LPCS 101700Z 22005KT 190V270 9999 FEW015 18/16 Q1018","updated":"2025-11-10T17:16:51Z"}
