{"icao":"KLAX","metar":"KLAX 210653Z 00000KT 10SM CLR 18/16 A3005 RMK AO2 SLP174 T01780161","updated":"2025-10-21T07:18:45Z"}
