{"icao":"LPMR","metar":"LPMR 261400Z 35006KT 310V020 9999 FEW020 21/13 Q1019","updated":"2025-10-26T14:14:56Z"}
