{"icao":"LPMR","metar":"LPMR 111300Z 11008KT 070V150 CAVOK 28/11 Q1019","updated":"2025-10-11T13:20:13Z"}
