{"icao":"LPPS","metar":"LPPS 070800Z 06008KT 040V100 9999 FEW015 BKN030 13/07 Q1025","updated":"2026-03-07T08:29:55Z"}
