{"icao":"LPLA","metar":"LPLA 101100Z 22014KT 190V250 9999 FEW016 SCT040 19/14 Q1017","updated":"2025-11-10T11:16:30Z"}
