{"icao":"LPPT","metar":"LPPT 200000Z 32006KT 270V010 9999 FEW012 19/16 Q1016","updated":"2026-06-20T00:08:32Z"}
