{"icao":"KLAX","metar":"KLAX 031853Z 09005KT 10SM FEW008 SCT039 OVC050 17/14 A3006 RMK AO2 SLP179 T01670139 $","updated":"2026-01-03T19:14:38Z"}
