{"icao":"KJFK","metar":"KJFK 210851Z 28009KT 10SM CLR M08/M18 A3053 RMK SLP339 T10781183 5002 ","updated":"2026-01-21T09:31:04Z"}
