{"icao":"LPLA","metar":"LPLA 280300Z 23008KT 170V300 9999 FEW015 BKN030 15/12 Q1032","updated":"2026-02-28T03:53:29Z"}
