{"icao":"KJFK","metar":"KJFK 241851Z 33012KT 10SM FEW050 SCT200 BKN250 M08/M23 A3063 RMK AO2 SLP370 T10831233 $","updated":"2026-01-24T19:15:55Z"}
