{"icao":"LPAZ","metar":"LPAZ 151400Z VRB06KT 9999 -SHRA SCT017 SCT025 25/19 Q1027","updated":"2025-09-15T14:18:16Z"}
