{"icao":"LPBJ","metar":"LPBJ 211700Z 20009KT 160V230 CAVOK 33/05 Q1020","updated":"2026-05-21T17:56:39Z"}
