{"icao":"LPMA","metar":"LPMA 280100Z 35004KT 250V060 9999 FEW008 SCT015 22/19 Q1024","updated":"2025-09-28T01:25:38Z"}
