{"icao":"LPLA","metar":"LPLA 110300Z 31016KT 7000 -DZ BKN008 BKN014 BKN025 14/13 Q1016","updated":"2026-01-11T03:49:21Z"}
