{"icao":"LPPR","metar":"LPPR 111100Z 18013KT 9999 BKN005 BKN011 13/12 Q1025 REDZ","updated":"2026-01-11T11:16:40Z"}
