{"icao":"LPMA","metar":"LPMA 261730Z 02008KT 310V080 9999 BKN012 22/18 Q1020","updated":"2026-06-26T17:45:46Z"}
