{"icao":"KORD","metar":"KORD 240351Z 34005KT 10SM BKN250 04/M02 A3022 RMK AO2 SLP238 T00441017","updated":"2025-12-24T04:34:53Z"}
