{"icao":"LPBJ","metar":"LPBJ 191900Z 29013KT CAVOK 31/13 Q1013","updated":"2026-06-19T19:48:48Z"}
