{"icao":"LPFL","metar":"LPFL 080900Z VRB02KT 9999 SCT025 16/11 Q1018","updated":"2025-11-08T09:16:40Z"}
