{"icao":"LPPR","metar":"LPPR 112200Z 35013KT CAVOK 10/01 Q1019","updated":"2026-04-11T22:30:41Z"}
