{"icao":"LPMA","metar":"LPMA 191730Z 17005KT 120V250 9999 SCT015 23/18 Q1018","updated":"2026-06-19T17:59:56Z"}
