{"icao":"LPPT","metar":"LPPT 311000Z 05005KT 020V080 0200 R02/0500N FG VV001 06/06 Q1020","updated":"2025-12-31T10:20:52Z"}
