{"icao":"LPAZ","metar":"LPAZ 030930Z 26023KT 6000 FEW003 BKN008 17/16 Q1010","updated":"2026-02-03T09:39:25Z"}
