{"icao":"LPPS","metar":"LPPS 041030Z 35021KT 9999 SCT014 16/13 Q1020","updated":"2026-03-04T10:35:25Z"}
