{"icao":"LPMR","metar":"LPMR 091600Z 34014KT CAVOK 21/13 Q1014","updated":"2026-04-09T17:06:03Z"}
