{"icao":"LPPR","metar":"LPPR 171000Z 13007KT 9999 VCSH FEW010 FEW020TCU BKN042 07/05 Q1012","updated":"2026-01-17T10:19:27Z"}
