{"icao":"LPPR","metar":"LPPR 112200Z 16018KT 9999 FEW037 14/10 Q1015","updated":"2025-12-11T22:19:23Z"}
