{"icao":"LPFR","metar":"LPFR 202230Z 09005KT CAVOK 20/12 Q1008","updated":"2026-04-20T22:41:11Z"}
