{"icao":"KJFK","metar":"KJFK 102151Z 28018KT 10SM BKN022 BKN050 BKN080 08/03 A2962 RMK AO2 SLP031 T00780033","updated":"2025-11-10T22:18:48Z"}
