{"icao":"KLAX","metar":"KLAX 080753Z 03008KT 10SM CLR 21/M11 A2995 RMK AO2 SLP139 T02111106 402560144 $","updated":"2026-03-08T08:29:53Z"}
