{"icao":"LPMR","metar":"LPMR 062000Z 14008KT 8000 -RA FEW022 SCT038 16/16 Q1015","updated":"2026-04-06T20:36:20Z"}
