{"icao":"LPLA","metar":"LPLA 291800Z 26009KT 200V280 9999 FEW013 18/13 Q1012","updated":"2026-01-29T18:43:05Z"}
