{"icao":"KLAX","metar":"KLAX 041853Z 11007KT 10SM FEW009 BKN025 OVC033 16/14 A3005 RMK AO2 SLP175 T01560139","updated":"2026-01-04T19:14:39Z"}
