{"icao":"KORD","metar":"KORD 211451Z 24011G22KT 10SM BKN075 BKN095 10/04 A2971 RMK AO2 SLP062 VIRGA T01000039 55003","updated":"2025-10-21T15:19:24Z"}
