{"icao":"LPMT","metar":"LPMT 241200Z 01010KT CAVOK 25/08 Q1017","updated":"2025-09-24T16:22:43Z"}
