{"icao":"LPOV","metar":"LPOV 090900Z 19011KT 2000 -RADZ BR SCT003 BKN006 BKN018 14/14 Q1009 RERADZ","updated":"2026-02-09T10:01:45Z"}
