{"icao":"LPMR","metar":"LPMR 051300Z 33005KT CAVOK 25/14 Q1020","updated":"2026-04-05T13:54:17Z"}
