{"icao":"LPLA","metar":"LPLA 070700Z 32018KT 9999 SCT035 11/06 Q1029","updated":"2026-04-07T07:14:55Z"}
