{"icao":"LPMA","metar":"LPMA 201700Z VRB10KT 9999 SCT016 23/19 Q1018","updated":"2026-06-20T17:25:12Z"}
