{"icao":"LPFL","metar":"LPFL 061500Z VRB12G29KT 9999 FEW025 19/10 Q1012","updated":"2025-11-06T15:20:20Z"}
