{"icao":"LPFR","metar":"LPFR 090830Z 32004KT 9999 FEW035 11/09 Q1023","updated":"2026-03-09T08:42:04Z"}
