{"icao":"LPMA","metar":"LPMA 221900Z 36007KT 320V030 9999 FEW015 20/15 Q1021","updated":"2025-09-22T19:14:06Z"}
