{"icao":"LPMR","metar":"LPMR 261600Z 02006KT CAVOK 15/05 Q1025","updated":"2025-11-26T16:24:40Z"}
