{"icao":"KJFK","metar":"KJFK 190151Z 03004KT 2 1/2SM -RA BR OVC007 03/03 A2983 RMK AO2 RAB39 SLP102 P0001 T00280028 $","updated":"2026-02-19T02:04:17Z"}
