{"icao":"LPFR","metar":"LPFR 240900Z 04003KT 340V080 9999 FEW025 BKN040 15/12 Q1023","updated":"2025-11-24T09:23:00Z"}
