{"icao":"KORD","metar":"KORD 201651Z 20006KT 4SM BR BKN010 OVC019 08/06 A3007 RMK AO2 SLP187 T00780056","updated":"2025-11-20T17:15:13Z"}
