{"icao":"KLAX","metar":"KLAX 100538Z 25007KT 10SM FEW005 FEW015 16/14 A2997 RMK AO2 T01560139 $","updated":"2026-03-10T05:43:44Z"}
