{"icao":"KLAX","metar":"KLAX 312008Z 23005KT 10SM BKN029 OVC035 21/14 A2996 RMK AO2 T02060139 $","updated":"2026-03-31T20:40:53Z"}
