{"icao":"LPFR","metar":"LPFR 301700Z 21003KT 180V250 9999 FEW030 21/15 Q1015","updated":"2025-10-30T17:16:28Z"}
