{"icao":"LPOV","metar":"LPOV 221000Z VRB01KT CAVOK 08/05 Q1031","updated":"2025-11-22T10:17:44Z"}
