{"icao":"LPPS","metar":"LPPS 050130Z 21007KT 160V250 9999 FEW014 18/14 Q1007","updated":"2026-02-05T01:59:13Z"}
