{"icao":"LPFR","metar":"LPFR 211930Z 08007KT CAVOK 25/10 Q1020","updated":"2026-05-21T19:55:56Z"}
