{"icao":"LPFR","metar":"LPFR 232230Z 09009KT CAVOK 24/12 Q1020","updated":"2026-05-23T22:51:35Z"}
