{"icao":"LPST","metar":"LPST 271000Z VRB02KT CAVOK 21/16 Q1014","updated":"2026-04-27T11:02:28Z"}
