{"icao":"LPCS","metar":"LPCS 181530Z 22005KT 180V270 CAVOK 24/09 Q1016","updated":"2026-04-18T15:36:03Z"}
