{"icao":"LPPT","metar":"LPPT 261630Z 31011KT 280V350 9999 FEW040 26/16 Q1014","updated":"2026-04-26T16:40:32Z"}
