{"icao":"LPFR","metar":"LPFR 102100Z 03004KT CAVOK 11/06 Q1022","updated":"2026-03-10T21:27:30Z"}
