{"icao":"LPFR","metar":"LPFR 092000Z 24009KT 9999 -RA FEW009 BKN015 16/15 Q1019","updated":"2025-12-09T20:19:32Z"}
