{"icao":"KJFK","metar":"KJFK 120651Z 06013G23KT 10SM BKN060 BKN085 BKN130 BKN250 17/09 A3008 RMK AO2 SLP184 T01720094","updated":"2025-10-12T07:15:43Z"}
