{"icao":"LPPT","metar":"LPPT 291900Z 25008KT 220V280 9999 FEW026 16/10 Q1010","updated":"2026-04-29T19:23:04Z"}
