{"icao":"KORD","metar":"KORD 191351Z 19005KT 10SM FEW060 FEW120 SCT250 06/00 A3007 RMK AO2 SLP187 T00560000 $","updated":"2026-03-19T14:45:23Z"}
