{"icao":"LPHR","metar":"LPHR 232030Z 26005KT 9999 FEW015 SCT025 19/14 Q1023","updated":"2026-05-23T20:50:19Z"}
