{"icao":"LPAZ","metar":"LPAZ 010130Z 34008KT 9999 FEW014 SCT017 14/12 Q1002","updated":"2026-01-01T01:48:53Z"}
