{"icao":"LPFL","metar":"LPFL 271700Z 13006KT 090V170 9999 FEW022 BKN038 21/13 Q1026","updated":"2025-09-27T17:13:14Z"}
