{"icao":"LPBJ","metar":"LPBJ 041700Z 33013KT CAVOK 26/09 Q1015","updated":"2026-06-04T17:45:57Z"}
