{"icao":"LPPD","metar":"LPPD 101430Z 22013KT 0100 R30/0125N -DZ FG VV001 17/16 Q1012","updated":"2026-02-10T14:56:59Z"}
