{"icao":"LPFR","metar":"LPFR 131700Z 20005KT 160V230 CAVOK 23/20 Q1015","updated":"2025-10-13T17:15:16Z"}
