{"icao":"KJFK","metar":"KJFK 061751Z 04005KT 9SM FEW050 BKN150 OVC250 05/M01 A2993 RMK AO2 SLP134 T00501011 10050 20000 56027 $","updated":"2026-01-06T18:30:33Z"}
