{"icao":"LPFR","metar":"LPFR 270530Z 02004KT CAVOK 10/08 Q1022","updated":"2026-02-27T05:51:24Z"}
