{"icao":"LPFR","metar":"LPFR 190600Z 08004KT CAVOK 24/19 Q1018","updated":"2025-09-19T06:26:19Z"}
