{"icao":"LPMT","metar":"LPMT 210400Z 04004KT CAVOK 06/06 Q1028","updated":"2026-02-21T04:06:17Z"}
