{"icao":"KORD","metar":"KORD 120351Z 36005KT 10SM SCT027 OVC110 M04/M09 A3004 RMK AO2 SLP182 T10441089","updated":"2025-12-12T04:32:44Z"}
