{"icao":"LPLA","metar":"LPLA 052200Z 16005KT 9999 OVC038 12/04 Q1036","updated":"2026-03-05T22:29:55Z"}
