{"icao":"KORD","metar":"KORD 140651Z 22005KT 10SM CLR 04/M02 A3005 RMK AO2 SLP180 T00391022 $","updated":"2026-02-14T07:32:57Z"}
