{"icao":"KORD","metar":"KORD 020951Z 32005KT 10SM -RA FEW025 BKN037 BKN060 06/04 A3018 RMK AO2 RAB51 SLP224 P0000 T00560039 $","updated":"2025-11-02T10:17:25Z"}
