{"icao":"LPFR","metar":"LPFR 202100Z 28007KT CAVOK 21/18 Q1016","updated":"2025-10-20T21:16:21Z"}
