{"icao":"LPHR","metar":"LPHR 251230Z 18015KT 9999 SCT020 22/18 Q1013","updated":"2025-09-25T12:37:17Z"}
