{"icao":"LPAZ","metar":"LPAZ 260430Z 22028G38KT 8000 -SHRA SCT012 BKN020 17/16 Q1009","updated":"2026-01-26T04:55:32Z"}
