{"icao":"LPMT","metar":"LPMT 182100Z 32008KT 9999 SCT025 13/10 Q1022","updated":"2026-02-18T21:33:39Z"}
