{"icao":"KLAX","metar":"KLAX 172053Z 25012KT 10SM FEW038 SCT040 SCT280 21/12 A2978 RMK AO2 SLP082 T02060122 56012","updated":"2026-05-17T21:54:59Z"}
