{"icao":"KORD","metar":"KORD 190451Z 09005KT 10SM SCT150 22/17 A3005 RMK AO2 SLP169 T02170167","updated":"2025-09-19T05:16:15Z"}
