{"icao":"LPFR","metar":"LPFR 161600Z 28014KT 9999 VCSH FEW010 FEW020CB 19/14 Q1013","updated":"2025-11-16T16:20:00Z"}
