{"icao":"LPCS","metar":"LPCS 151900Z 33006KT 300V360 9999 FEW006 SCT012 13/13 Q1015","updated":"2026-01-15T19:23:00Z"}
