{"icao":"KORD","metar":"KORD 050351Z 04008KT 1/8SM R10L/2200V4000FT FG VV002 04/03 A3000 RMK AO2 RAE18 SLP162 P0001 T00390033 $","updated":"2026-03-05T04:19:15Z"}
