{"icao":"KJFK","metar":"KJFK 271251Z 27013KT 10SM SCT050 BKN230 06/M04 A2995 RMK AO2 SLP140 T00611044","updated":"2025-11-27T13:30:59Z"}
