{"icao":"KJFK","metar":"KJFK 030451Z 31019G28KT 10SM FEW017 OVC070 03/M01 A2974 RMK AO2 PK WND 31028/0451 SLP071 T00281006 400721011","updated":"2025-12-03T05:19:05Z"}
