{"icao":"LPFR","metar":"LPFR 242030Z 25014KT CAVOK 21/18 Q1014","updated":"2026-06-24T20:47:05Z"}
