{"icao":"KJFK","metar":"KJFK 290751Z 33009KT 10SM FEW250 15/08 A2997 RMK AO2 SLP149 T01500078 $","updated":"2026-05-29T07:53:57Z"}
