{"icao":"LPMA","metar":"LPMA 061730Z 05005KT 010V160 9999 FEW015 18/09 Q1019","updated":"2026-02-06T17:40:14Z"}
