{"icao":"LPPS","metar":"LPPS 280630Z 03012G22KT 350V060 9999 BKN014 14/08 Q1027","updated":"2026-02-28T06:36:50Z"}
