{"icao":"KJFK","metar":"KJFK 191951Z 18020KT 10SM FEW060 FEW250 23/16 A3000 RMK AO2 SLP158 T02280161","updated":"2026-05-19T20:47:47Z"}
