{"icao":"LPBJ","metar":"LPBJ 012200Z 26005KT CAVOK 15/09 Q1019","updated":"2026-05-01T22:48:43Z"}
