{"icao":"LPFL","metar":"LPFL 141230Z 18018G31KT 150V210 9999 FEW022 17/12 Q1025","updated":"2026-02-14T12:44:39Z"}
