{"icao":"LPPS","metar":"LPPS 200400Z 08010KT 040V120 9999 FEW015 SCT030 15/09 Q1027","updated":"2026-02-20T04:21:44Z"}
