{"icao":"LPPR","metar":"LPPR 221930Z 35005KT 330V040 CAVOK 14/11 Q1013","updated":"2026-04-22T20:03:58Z"}
