{"icao":"LPPS","metar":"LPPS 191800Z 13005KT 9999 SCT015 23/21 Q1019","updated":"2025-09-19T18:24:10Z"}
