{"icao":"LPAZ","metar":"LPAZ 080430Z 17012KT 9999 FEW016 BKN040 15/13 Q1032","updated":"2026-01-08T04:38:17Z"}
