{"icao":"LPBJ","metar":"LPBJ 280200Z 20002KT CAVOK 14/13 Q1009","updated":"2026-04-28T02:47:22Z"}
