{"icao":"LPST","metar":"LPST 151200Z 34012KT 320V020 9999 FEW012 26/14 Q1022","updated":"2025-09-15T12:36:18Z"}
