{"icao":"KORD","metar":"KORD 200251Z 27007KT 10SM CLR 10/01 A2990 RMK AO2 SLP125 T01000006 52025 $","updated":"2025-10-20T03:14:29Z"}
