{"icao":"LPPR","metar":"LPPR 261600Z 33008KT CAVOK 19/11 Q1020","updated":"2025-10-26T16:20:09Z"}
