{"icao":"KORD","metar":"KORD 241651Z 19012G19KT 10SM BKN190 OVC250 10/03 A3007 RMK AO2 SLP185 T01000028","updated":"2025-11-24T17:18:03Z"}
