{"icao":"KJFK","metar":"KJFK 252051Z 23007KT 10SM FEW055 BKN070 BKN250 13/03 A3035 RMK AO2 SLP276 T01330028 53004","updated":"2025-10-25T21:15:04Z"}
