{"icao":"LPLA","metar":"LPLA 192300Z 21014G24KT 180V260 9000 -RA FEW012 SCT020 18/14 Q1009","updated":"2026-05-20T00:03:49Z"}
