{"icao":"LPPT","metar":"LPPT 301000Z 22009KT 190V250 9999 FEW022 19/13 Q1014","updated":"2025-10-30T10:19:40Z"}
