{"icao":"LPPD","metar":"LPPD 161400Z 34010KT 310V020 9999 FEW018 SCT030 23/20 Q1005","updated":"2025-10-16T14:18:29Z"}
