{"icao":"LPCS","metar":"LPCS 030700Z 02006KT CAVOK 11/11 Q1023","updated":"2025-11-03T07:18:10Z"}
