{"icao":"LPPS","metar":"LPPS 200900Z 11006KT 080V150 9999 FEW014 24/18 Q1020","updated":"2025-09-20T09:16:21Z"}
