{"icao":"LPOV","metar":"LPOV 251600Z 26007KT 230V290 9999 FEW030 15/10 Q1013","updated":"2026-01-25T16:24:18Z"}
