{"icao":"LPAZ","metar":"LPAZ 081500Z 21036G47KT 7000 FEW011 SCT015 21/19 Q0996","updated":"2025-12-08T15:22:11Z"}
