{"icao":"LPPR","metar":"LPPR 192200Z 21009KT 9999 -RA FEW022 SCT030 15/12 Q1010","updated":"2026-03-19T22:27:21Z"}
