{"icao":"LPMR","metar":"LPMR 021900Z 34008KT 4000 BR BKN006 17/16 Q1023","updated":"2025-10-02T19:13:45Z"}
