{"icao":"KJFK","metar":"KJFK 270751Z 30014G25KT 10SM FEW043 M08/M17 A3006 RMK AO2 PK WND 30032/0652 SLP179 T10831167 $","updated":"2026-01-27T08:32:17Z"}
