{"icao":"LPPR","metar":"LPPR 032100Z 01004KT CAVOK 12/11 Q1015","updated":"2026-03-03T21:32:21Z"}
