{"icao":"LPFR","metar":"LPFR 160600Z 03006KT CAVOK 20/16 Q1014","updated":"2025-10-16T06:26:56Z"}
