{"icao":"LPBJ","metar":"LPBJ 251100Z 27003KT 180V350 CAVOK 21/12 Q1016","updated":"2026-04-25T11:36:53Z"}
