{"icao":"LPMA","metar":"LPMA 030700Z 01006KT 9999 SCT015 21/19 Q1022","updated":"2025-10-03T07:16:49Z"}
