{"icao":"LPMR","metar":"LPMR 032200Z 00000KT CAVOK 12/12 Q1023","updated":"2026-04-03T22:32:11Z"}
