{"icao":"LPPS","metar":"LPPS 070700Z 02010KT 350V080 9999 SCT015 14/09 Q1031","updated":"2026-01-07T07:24:04Z"}
