{"icao":"LPAZ","metar":"LPAZ 251900Z 23022KT 8000 FEW014 SCT017 18/16 Q1015","updated":"2026-01-25T19:16:02Z"}
