{"icao":"LPHR","metar":"LPHR 090530Z 01003KT 310V050 9999 FEW015 SCT045 13/06 Q1019","updated":"2026-05-09T05:47:16Z"}
