{"icao":"LPOV","metar":"LPOV 211500Z 35004KT 300V040 CAVOK 26/09 Q1022","updated":"2026-05-21T15:21:02Z"}
