{"icao":"LPMA","metar":"LPMA 221900Z 03016KT 9999 FEW007 BKN012 FEW018CB 16/14 Q1005","updated":"2026-03-22T19:24:21Z"}
