{"icao":"LPHR","metar":"LPHR 131030Z 23017KT 9999 SCT008 SCT012 BKN035 17/15 Q1021","updated":"2026-04-13T10:43:56Z"}
