{"icao":"LPHR","metar":"LPHR 232200Z 29009KT 9999 FEW025 14/08 Q1026","updated":"2026-01-23T22:17:46Z"}
