{"icao":"KORD","metar":"KORD 161431Z 22009KT 2SM BR BKN003 BKN220 06/05 A2994 RMK AO2 T00560050","updated":"2026-02-16T14:39:38Z"}
