{"icao":"LPLA","metar":"LPLA 290200Z 18011KT 150V210 9999 FEW020 SCT035 21/17 Q1025","updated":"2025-09-29T03:03:08Z"}
