{"icao":"LPMR","metar":"LPMR 291600Z 22005KT 6000 -RA BKN008 OVC028 13/10 Q1016","updated":"2025-11-29T16:21:40Z"}
