{"icao":"LPOV","metar":"LPOV 141800Z 35006KT CAVOK 17/14 Q1017","updated":"2025-10-14T18:26:17Z"}
