{"icao":"LPPS","metar":"LPPS 161400Z 06017KT 9999 FEW015 24/18 Q1021","updated":"2025-09-16T14:18:24Z"}
