{"icao":"KORD","metar":"KORD 131451Z 29008KT 10SM FEW020 OVC095 M12/M21 A3021 RMK AO2 SLP241 T11221211 53019","updated":"2025-12-13T15:17:47Z"}
