{"icao":"KJFK","metar":"KJFK 230651Z 25010KT 10SM CLR 11/03 A2986 RMK AO2 SLP111 T01110033","updated":"2025-10-23T07:18:42Z"}
