{"icao":"LPCS","metar":"LPCS 210700Z 32005KT 290V350 9999 FEW025 09/07 Q1009","updated":"2025-12-21T07:17:55Z"}
