{"icao":"LPCS","metar":"LPCS 211500Z 01013KT 340V040 9999 FEW020 15/02 Q1026","updated":"2025-11-21T15:17:11Z"}
