{"icao":"LPPS","metar":"LPPS 141700Z 06009KT 030V090 9999 SCT015 16/09 Q1031","updated":"2026-02-14T17:24:46Z"}
