{"icao":"LPBJ","metar":"LPBJ 261700Z 08008KT CAVOK 27/09 Q1013","updated":"2026-04-26T17:37:01Z"}
