{"icao":"LPPT","metar":"LPPT 271900Z 22020G30KT 4500 RADZ BR SCT005 BKN008 19/18 Q1014 WS R20","updated":"2025-09-27T19:12:26Z"}
