{"icao":"LPHR","metar":"LPHR 081830Z 23024KT 3000 -SHRA SCT004 BKN007 18/17 Q1009","updated":"2026-02-08T18:35:46Z"}
