{"icao":"KJFK","metar":"KJFK 110451Z 18006KT 10SM BKN110 BKN180 OVC250 09/06 A3014 RMK AO2 SLP205 T00940056 401110039","updated":"2026-04-11T04:53:54Z"}
