{"icao":"LPFR","metar":"LPFR 021900Z 18014G25KT 150V210 6000 -SHRA SCT020 FEW025CB BKN030 16/14 Q1003","updated":"2026-01-02T19:12:54Z"}
