{"icao":"LPPR","metar":"LPPR 142200Z 32008KT 9999 FEW008 12/11 Q1017","updated":"2026-03-14T22:24:44Z"}
