{"icao":"KJFK","metar":"KJFK 071951Z 33021G27KT 10SM FEW060 FEW080 BKN100 BKN250 29/12 A2979 RMK AO2 PK WND 30030/1916 SLP087 T02890122 $","updated":"2026-06-07T20:10:10Z"}
