{"icao":"LPPS","metar":"LPPS 151100Z 30011KT 5000 -RADZ BR SCT008 FEW018CB BKN030 19/18 Q1015 RERA","updated":"2025-11-15T11:13:59Z"}
