{"icao":"LPPD","metar":"LPPD 042100Z 03006KT 9999 FEW020 BKN035 14/08 Q1025","updated":"2026-01-04T21:17:43Z"}
