{"icao":"LPFR","metar":"LPFR 281100Z 15019KT 6000 -SHRA FEW014 FEW018CB BKN030 11/09 Q1010","updated":"2025-12-28T11:16:18Z"}
