{"icao":"LPPD","metar":"LPPD 061730Z 24027KT 8000 FEW012 SCT020 BKN030 16/13 Q1009","updated":"2026-02-06T17:40:09Z"}
