{"icao":"LPPS","metar":"LPPS 161430Z 11014KT 9999 SCT015 18/13 Q1030","updated":"2026-02-16T14:39:37Z"}
