{"icao":"KJFK","metar":"KJFK 160951Z 04006KT 10SM FEW023 FEW060 BKN180 BKN250 18/15 A3023 RMK AO2 SLP237 T01780150 $","updated":"2025-09-16T10:18:17Z"}
