{"icao":"LPMR","metar":"LPMR 310100Z 18011KT CAVOK 18/14 Q1012","updated":"2025-10-31T01:22:31Z"}
