{"icao":"KORD","metar":"KORD 251951Z 21016G27KT 10SM BKN250 20/M04 A2985 RMK AO2 PK WND 21028/1937 SLP107 T02001044","updated":"2026-03-25T20:37:35Z"}
