{"icao":"LPPS","metar":"LPPS 151700Z 32010KT 9999 SCT015 20/15 Q1016","updated":"2025-11-15T17:13:47Z"}
