{"icao":"LPAR","metar":"LPAR 191700Z 07005KT 350V120 6000 -RA SCT008 BKN015 BKN030 14/13 Q1006","updated":"2026-03-19T19:47:49Z"}
