{"icao":"LPBJ","metar":"LPBJ 271300Z 32007KT 290V350 9999 FEW030 16/10 Q1024","updated":"2026-02-27T14:01:05Z"}
