{"icao":"LPMR","metar":"LPMR 141000Z VRB02KT 9999 FEW007 20/13 Q1018","updated":"2025-10-14T10:18:58Z"}
