{"icao":"KLAX","metar":"KLAX 100653Z 25004KT 10SM FEW008 FEW012 SCT250 16/14 A2997 RMK AO2 SLP146 T01610139 $","updated":"2026-04-10T07:26:08Z"}
