{"icao":"LPFR","metar":"LPFR 101300Z 24013KT 2200 -DZ BR BKN002 16/16 Q1020","updated":"2026-02-10T13:10:47Z"}
