{"icao":"KJFK","metar":"KJFK 041451Z 33014KT 10SM SCT037 BKN060 M01/M08 A3023 RMK SLP235 T10111083 51014 PNO $ ","updated":"2026-02-04T15:41:30Z"}
