{"icao":"LPHR","metar":"LPHR 011100Z 28031G45KT 9000 VCSH SCT019 BKN040 15/07 Q1008","updated":"2026-02-01T11:20:03Z"}
