{"icao":"LPPT","metar":"LPPT 181000Z 06005G16KT 010V100 CAVOK 16/11 Q1020","updated":"2025-11-18T10:21:36Z"}
