{"icao":"LPMA","metar":"LPMA 080900Z 01008KT 330V050 9999 FEW015 16/10 Q1033","updated":"2026-01-08T09:27:35Z"}
