{"icao":"LPCS","metar":"LPCS 141100Z 32009KT 280V340 9999 FEW014 SCT023 14/10 Q1020","updated":"2026-03-14T11:22:29Z"}
