{"icao":"LPMR","metar":"LPMR 251900Z 28005KT CAVOK 17/10 Q1018","updated":"2025-09-25T19:14:25Z"}
