{"icao":"KLAX","metar":"KLAX 131953Z 25010KT 10SM SCT010 22/16 A2993 RMK AO2 SLP133 T02170161 $","updated":"2026-06-13T20:13:59Z"}
