{"icao":"LPPR","metar":"LPPR 302100Z 35008KT CAVOK 19/15 Q1021","updated":"2026-06-30T21:26:51Z"}
