{"icao":"LPPS","metar":"LPPS 280900Z 02014KT 9999 FEW015 BKN030 14/09 Q1028","updated":"2026-02-28T09:25:14Z"}
