{"icao":"KJFK","metar":"KJFK 150651Z 31008KT 10SM FEW060 FEW250 07/M03 A2992 RMK AO2 SLP132 T00671028","updated":"2025-11-15T07:15:36Z"}
