{"icao":"LPPD","metar":"LPPD 300830Z 26012KT 9000 FEW008 15/14 Q1019","updated":"2026-01-30T08:37:29Z"}
