{"icao":"LPMA","metar":"LPMA 082330Z 35012KT 290V020 9999 BKN015 FEW016TCU 15/09 Q1019","updated":"2026-04-08T23:36:50Z"}
