{"icao":"LPPT","metar":"LPPT 121230Z 22010KT 8000 RA FEW008 FEW025TCU 14/13 Q1007","updated":"2025-11-12T12:39:11Z"}
