{"icao":"LPFR","metar":"LPFR 071500Z 28018KT 9999 FEW010 BKN030 13/10 Q1016","updated":"2026-04-07T15:06:22Z"}
