{"icao":"LPCS","metar":"LPCS 062200Z 03006KT CAVOK 18/17 Q1021","updated":"2025-10-06T23:15:40Z"}
