{"icao":"KORD","metar":"KORD 120451Z 22011G18KT 10SM FEW013 SCT080 BKN120 BKN170 M03/M07 A3030 RMK AO2 SLP270 T10331067 $","updated":"2026-01-12T05:28:39Z"}
