{"icao":"LPPD","metar":"LPPD 051230Z 08006KT 030V100 9999 FEW025 BKN045 15/08 Q1030","updated":"2026-01-05T12:43:58Z"}
