{"icao":"KORD","metar":"KORD 210651Z 30018G24KT 10SM CLR M03/M12 A3017 RMK AO2 PK WND 31028/0624 SLP224 T10331122","updated":"2025-12-21T07:18:12Z"}
