{"icao":"LPPD","metar":"LPPD 030130Z 25020KT 5000 -DZ BR SCT004 BKN007 15/14 Q1011","updated":"2026-02-03T02:02:49Z"}
