{"icao":"LPAZ","metar":"LPAZ 101500Z 19021KT 9999 FEW015 18/15 Q1021","updated":"2025-12-10T15:23:38Z"}
