{"icao":"LPMA","metar":"LPMA 021600Z 20006KT 160V230 9999 FEW016 23/18 Q1023","updated":"2025-11-02T16:19:42Z"}
