{"icao":"KORD","metar":"KORD 040651Z 32006KT 10SM OVC038 M04/M13 A3008 RMK AO2 SLP196 T10391128 $","updated":"2026-01-04T07:20:24Z"}
