{"icao":"LPAZ","metar":"LPAZ 081330Z 23019KT 1700 BR OVC001 17/17 Q1017","updated":"2026-02-08T13:43:03Z"}
