{"icao":"LPOV","metar":"LPOV 101300Z 16003KT 120V190 9999 FEW020 13/09 Q1029","updated":"2026-01-10T13:28:06Z"}
