{"icao":"LPPS","metar":"LPPS 161400Z 35011KT 320V020 9999 SCT015 21/13 Q1020","updated":"2025-11-16T14:15:18Z"}
