{"icao":"LPMA","metar":"LPMA 212230Z 01010KT 330V050 9999 SCT015 SCT030 18/14 Q1020","updated":"2026-05-21T23:02:21Z"}
