{"icao":"KJFK","metar":"KJFK 240551Z 27012KT 10SM SCT085 08/01 A3004 RMK AO2 SLP170 T00780006 10089 20072 51008","updated":"2025-11-24T06:29:54Z"}
