{"icao":"KORD","metar":"KORD 091451Z 24007KT 210V280 10SM FEW100 SCT140 16/02 A3012 RMK AO2 SLP200 60000 T01610022 51013","updated":"2026-04-09T15:21:27Z"}
