{"icao":"LPOV","metar":"LPOV 200700Z 00000KT 0150 FG OVC002 17/17 Q1016","updated":"2026-06-20T08:52:57Z"}
