{"icao":"LPPD","metar":"LPPD 161600Z 23005KT 190V260 9999 FEW022 19/13 Q1023","updated":"2025-11-16T16:20:05Z"}
