{"icao":"LPLA","metar":"LPLA 020400Z 09004KT 030V130 9999 FEW018 BKN020 14/10 Q1031","updated":"2026-04-02T05:01:17Z"}
