{"icao":"LPBJ","metar":"LPBJ 140100Z 29005KT CAVOK 18/11 Q1016","updated":"2025-10-14T01:18:21Z"}
