{"icao":"KJFK","metar":"KJFK 151551Z 14013KT 10SM BKN070 BKN110 BKN250 05/M05 A3049 RMK AO2 SLP324 T00501050","updated":"2026-03-15T16:31:56Z"}
