{"icao":"LPCS","metar":"LPCS 280700Z 07003KT 020V100 9999 FEW025 09/06 Q1025","updated":"2026-02-28T07:25:32Z"}
