{"icao":"LPFR","metar":"LPFR 262230Z 31011KT CAVOK 22/16 Q1018","updated":"2026-06-26T23:04:06Z"}
