{"icao":"KLAX","metar":"KLAX 100253Z 26004KT 10SM CLR 18/08 A2999 RMK AO2 SLP155 T01830083 53004 $","updated":"2025-12-10T03:21:29Z"}
