{"icao":"KLAX","metar":"KLAX 051553Z 10006KT 10SM R25L/1200VP6000FT FEW230 SCT270 BKN300 20/01 A2999 RMK AO2 SLP155 T02000011 $","updated":"2026-04-05T16:35:47Z"}
