{"icao":"LPAZ","metar":"LPAZ 220730Z 15009KT 9999 FEW014 BKN049 16/12 Q1024","updated":"2026-02-22T07:34:42Z"}
