{"icao":"KLAX","metar":"KLAX 201053Z 36003KT 10SM CLR 07/02 A2996 RMK AO2 SLP144 T00720017","updated":"2026-02-20T11:31:31Z"}
