{"icao":"KORD","metar":"KORD 291704Z 13008KT 1/2SM R10L/3000V4500FT SN FZFG VV008 M03/M04 A3025 RMK AO2 P0001 T10281039 $","updated":"2025-11-29T17:15:55Z"}
