{"icao":"KJFK","metar":"KJFK 012251Z 31013KT 10SM FEW065 BKN250 13/M01 A3003 RMK AO2 SLP167 T01281011 $","updated":"2025-11-01T23:15:55Z"}
