{"icao":"LPMR","metar":"LPMR 221500Z 32007KT CAVOK 14/02 Q1029","updated":"2025-11-22T15:16:17Z"}
