{"icao":"LPLA","metar":"LPLA 261800Z 07011KT 020V110 9999 SCT025 19/12 Q1023","updated":"2025-10-26T18:23:39Z"}
