{"icao":"LPPS","metar":"LPPS 151800Z 34008KT 9999 FEW014 23/17 Q1015","updated":"2025-10-15T18:26:54Z"}
