{"icao":"LPLA","metar":"LPLA 290800Z 30009KT 9999 BKN030 16/13 Q1028","updated":"2025-11-29T08:23:22Z"}
