{"icao":"LPAR","metar":"LPAR 261300Z 07007KT 050V110 CAVOK 19/14 Q1024","updated":"2026-02-26T13:03:19Z"}
