{"icao":"LPPD","metar":"LPPD 162100Z 18010KT 9999 SCT012 BKN030 15/14 Q1025","updated":"2026-02-16T21:28:00Z"}
