{"icao":"KORD","metar":"KORD 170651Z 31006KT 10SM CLR 02/M08 A2999 RMK AO2 SLP161 T00221078 $","updated":"2025-11-17T07:18:55Z"}
