{"icao":"KJFK","metar":"KJFK 192251Z 16005KT 10SM FEW060 FEW250 03/M03 A3020 RMK AO2 SLP224 T00281028","updated":"2026-03-19T23:28:35Z"}
