{"icao":"LPOV","metar":"LPOV 192100Z 17006KT CAVOK 19/11 Q1019","updated":"2025-09-19T21:14:38Z"}
