{"icao":"LPSJ","metar":"LPSJ 152300Z 27007KT 230V310 9999 FEW016 BKN025 21/18 Q1019","updated":"2026-06-16T03:58:06Z"}
