{"icao":"KLAX","metar":"KLAX 040653Z 26007KT 9SM FEW010 SCT250 16/14 A3008 RMK AO2 SLP183 T01560139 $","updated":"2025-11-04T07:18:27Z"}
