{"icao":"LPAR","metar":"LPAR 051400Z 01017G30KT 340V040 CAVOK 11/M03 Q1013","updated":"2026-01-05T14:23:19Z"}
