{"icao":"LPPR","metar":"LPPR 011030Z 05005G18KT 330V120 CAVOK 20/06 Q1026","updated":"2026-04-01T10:54:22Z"}
