{"icao":"LPPT","metar":"LPPT 311100Z 20020KT 9999 -RA FEW012 BKN015 20/17 Q1013","updated":"2025-10-31T11:14:57Z"}
