{"icao":"KORD","metar":"KORD 211951Z 19009KT 10SM SCT035 SCT100 BKN250 27/18 A2988 RMK AO2 SLP115 T02720183 $","updated":"2025-09-21T20:18:01Z"}
