{"icao":"LPHR","metar":"LPHR 061330Z 27014KT 9000 SCT002 BKN006 20/18 Q1024","updated":"2026-06-06T13:39:36Z"}
