{"icao":"LPPS","metar":"LPPS 290900Z 02014KT 9999 SCT015 BKN030 21/15 Q1023","updated":"2025-09-29T09:20:54Z"}
