{"icao":"LPMA","metar":"LPMA 050530Z 25003KT 200V330 9999 FEW015 15/09 Q1023","updated":"2026-03-05T05:46:43Z"}
