{"icao":"LPBJ","metar":"LPBJ 032300Z 29008KT CAVOK 18/09 Q1023","updated":"2025-10-03T23:15:06Z"}
