{"icao":"KJFK","metar":"KJFK 070551Z 00000KT 10SM SCT250 05/M04 A3017 RMK AO2 SLP216 T00501044 10083 20050 58003 $","updated":"2025-11-07T06:27:47Z"}
