{"icao":"LPMT","metar":"LPMT 091500Z 02006KT 330V050 CAVOK 24/15 Q1018","updated":"2025-10-09T15:29:15Z"}
