{"icao":"LPMR","metar":"LPMR 110500Z 13001KT CAVOK 11/11 Q1018","updated":"2026-06-11T05:26:35Z"}
