{"icao":"LPPT","metar":"LPPT 270800Z 06010KT CAVOK 04/02 Q1010","updated":"2025-12-27T08:25:07Z"}
