{"icao":"KORD","metar":"KORD 301429Z 35009KT 2 1/2SM -SN OVC028 M12/M16 A3035 RMK AO2 P0000 T11171156","updated":"2026-01-30T14:34:44Z"}
