{"icao":"LPFR","metar":"LPFR 241730Z 26012KT CAVOK 19/14 Q1016","updated":"2026-04-24T17:49:17Z"}
