{"icao":"LPLA","metar":"LPLA 070800Z 16002KT CAVOK 17/16 Q1021","updated":"2025-10-07T08:23:49Z"}
