{"icao":"KJFK","metar":"KJFK 131351Z 33010KT 10SM SCT250 M04/M11 A3018 RMK AO2 SLP219 T10391111 $","updated":"2026-02-13T14:03:07Z"}
