{"icao":"LPMR","metar":"LPMR 301300Z 31008KT 270V350 CAVOK 27/15 Q1018","updated":"2025-09-30T13:27:44Z"}
