{"icao":"LPPD","metar":"LPPD 010600Z 02006KT 350V050 9999 FEW022 BKN045 16/07 Q1017","updated":"2025-11-01T06:24:29Z"}
