{"icao":"LPMR","metar":"LPMR 062000Z 33009KT CAVOK 17/12 Q1020","updated":"2026-06-06T21:02:37Z"}
