{"icao":"LPPD","metar":"LPPD 030830Z 25020KT 6000 SCT003 BKN005 16/16 Q1007","updated":"2026-02-03T08:34:58Z"}
