{"icao":"LPPR","metar":"LPPR 271300Z 17004KT 070V220 CAVOK 22/08 Q1021","updated":"2025-10-27T13:30:29Z"}
