{"icao":"LPMA","metar":"LPMA 032300Z 34007KT 310V010 9999 BKN015 FEW018TCU 17/12 Q1028","updated":"2025-12-03T23:16:13Z"}
