{"icao":"KORD","metar":"KORD 240551Z 16005KT 10SM FEW130 FEW250 M01/M07 A3041 RMK AO2 SLP305 T10061072 10017 21011 400611022 55006","updated":"2026-03-24T05:59:01Z"}
