{"icao":"KJFK","metar":"KJFK 092151Z 01009KT 10SM FEW060 14/M04 A3044 RMK AO2 SLP309 T01391039","updated":"2025-10-09T22:15:40Z"}
