{"icao":"LPAR","metar":"LPAR 271600Z 29014G24KT 260V320 9999 SCT020 BKN030 13/05 Q1004","updated":"2026-01-27T16:29:08Z"}
