{"icao":"LPMA","metar":"LPMA 091030Z 01017G31KT 330V050 9999 BKN015 FEW016TCU 16/11 Q1019","updated":"2026-04-09T10:57:33Z"}
