{"icao":"LPFL","metar":"LPFL 181400Z VRB05KT 8000 -DZ FEW004 SCT009 BKN014 23/21 Q1013","updated":"2025-10-18T14:14:40Z"}
