{"icao":"LPPR","metar":"LPPR 022000Z VRB04KT CAVOK 13/12 Q1026","updated":"2025-11-02T20:17:31Z"}
