{"icao":"KORD","metar":"KORD 271251Z 14006KT 5SM BR OVC009 03/02 A3000 RMK AO2 SLP163 T00330017 $","updated":"2025-12-27T13:27:22Z"}
