{"icao":"LPMR","metar":"LPMR 261600Z 32008KT 280V010 9999 FEW007 20/15 Q1016","updated":"2026-04-26T16:40:36Z"}
