{"icao":"LPMT","metar":"LPMT 092200Z 31003KT CAVOK 17/14 Q1020","updated":"2025-10-09T22:15:37Z"}
