{"icao":"LPMA","metar":"LPMA 272000Z 36009KT 330V030 9999 SCT016 19/12 Q1023","updated":"2025-11-27T20:18:26Z"}
