{"icao":"LPPT","metar":"LPPT 140800Z VRB01KT CAVOK 18/12 Q1017","updated":"2025-10-14T08:22:02Z"}
