{"icao":"KLAX","metar":"KLAX 151053Z 06003KT 10SM FEW014 FEW035 SCT050 13/11 A2998 RMK AO2 SLP151 T01280111 $","updated":"2025-10-15T11:15:37Z"}
