{"icao":"LPPT","metar":"LPPT 132100Z 23014KT 9999 4500S -SHRA FEW010 SCT014 FEW025TCU 15/14 Q0998 RESHRA","updated":"2025-11-13T21:17:11Z"}
