{"icao":"LPMT","metar":"LPMT 281900Z 07004KT 9999 FEW009 SCT016 FEW020CB BKN035 17/17 Q1010","updated":"2025-10-28T19:14:36Z"}
