{"icao":"LPHR","metar":"LPHR 261600Z 06018G31KT 9000 VCSH SCT015 FEW020TCU SCT035 19/12 Q1022","updated":"2025-10-26T16:20:13Z"}
