{"icao":"KORD","metar":"KORD 101651Z 28008KT 4SM -RASN BR BKN009 OVC016 02/00 A2993 RMK AO2 SLP140 P0002 T00170000","updated":"2026-01-10T17:17:04Z"}
