{"icao":"LPAR","metar":"LPAR 061000Z 36019G29KT 9999 BKN022 SCT025 12/05 Q1019","updated":"2026-03-06T10:33:18Z"}
