{"icao":"LPST","metar":"LPST 191700Z 01010KT 9999 FEW030 13/05 Q1028","updated":"2026-02-20T06:54:45Z"}
