{"icao":"LPHR","metar":"LPHR 011300Z 20004KT 170V230 9999 SCT006 BKN008 22/21 Q1021","updated":"2025-10-01T13:28:11Z"}
