{"icao":"KORD","metar":"KORD 291551Z VRB04KT 10SM CLR 26/16 A3023 RMK AO2 SLP233 T02610156","updated":"2025-09-29T16:18:35Z"}
