{"icao":"LPPD","metar":"LPPD 172300Z 23018KT 4000 -RA BR SCT005 BKN008 18/17 Q1018","updated":"2025-12-17T23:18:49Z"}
