{"icao":"KJFK","metar":"KJFK 110451Z 15004KT 10SM FEW070 SCT110 OVC220 01/M01 A2975 RMK AO2 SLP075 T00111006 400221061 $","updated":"2026-02-11T05:01:37Z"}
