{"icao":"KJFK","metar":"KJFK 130851Z 26009KT 10SM SCT250 01/M04 A3010 RMK AO2 SLP193 T00111044 58008 $","updated":"2026-01-13T09:26:48Z"}
