{"icao":"LPBJ","metar":"LPBJ 041200Z 30006KT 240V330 CAVOK 22/13 Q1023","updated":"2025-10-04T12:31:37Z"}
