{"icao":"LPFL","metar":"LPFL 041800Z 21018G33KT 150V270 9999 FEW010 SCT016 20/15 Q1015","updated":"2025-12-05T01:27:16Z"}
