{"icao":"LPPS","metar":"LPPS 101900Z 02010KT 9999 SCT015 SCT030 21/13 Q1021","updated":"2025-10-10T19:13:59Z"}
