{"icao":"LPAZ","metar":"LPAZ 092330Z 02010KT 9999 FEW010 BKN015 15/12 Q1032","updated":"2026-04-09T23:36:20Z"}
