{"icao":"LPPD","metar":"LPPD 140530Z 25009KT 9999 FEW018 SCT030 14/10 Q1032","updated":"2026-02-14T05:43:01Z"}
