{"icao":"LPPI","metar":"LPPI 261730Z 32006KT 250V030 9999 FEW018 22/14 Q1024","updated":"2026-06-26T17:45:46Z"}
