{"icao":"KORD","metar":"KORD 211451Z 23015G30KT 10SM FEW180 SCT250 18/06 A2993 RMK AO2 PK WND 22030/1450 SLP134 T01780061 58018 $","updated":"2026-04-21T15:11:35Z"}
