{"icao":"LPPR","metar":"LPPR 081800Z 00000KT CAVOK 14/11 Q1022","updated":"2025-11-08T18:23:31Z"}
