{"icao":"LPPD","metar":"LPPD 181000Z 30006KT 9999 BKN014 17/16 Q1025","updated":"2025-11-18T10:21:39Z"}
