{"icao":"LPOV","metar":"LPOV 041100Z 14008KT 110V180 CAVOK 18/13 Q1015","updated":"2025-11-04T11:16:43Z"}
