{"icao":"LPST","metar":"LPST 141000Z 33004KT 300V020 9999 FEW008 SCT014 12/11 Q1020","updated":"2026-01-14T10:24:01Z"}
