{"icao":"LPPD","metar":"LPPD 260100Z 03019G32KT 360V060 9999 FEW018 FEW020TCU 17/12 Q1019","updated":"2025-10-26T01:26:12Z"}
