{"icao":"LPMA","metar":"LPMA 291600Z 03012KT 330V060 9999 SCT015 SCT030 23/13 Q1021","updated":"2025-09-29T16:18:33Z"}
