{"icao":"LPST","metar":"LPST 121500Z 36012KT CAVOK 27/17 Q1020","updated":"2025-09-13T15:13:55Z"}
