{"icao":"LPAZ","metar":"LPAZ 071800Z 24014KT 8000 FEW005 17/15 Q1016","updated":"2026-02-07T18:33:58Z"}
