{"icao":"LPHR","metar":"LPHR 231530Z 24029KT 9000 SCT013 SCT030 18/14 Q1005","updated":"2026-02-23T15:44:01Z"}
