{"icao":"LPMR","metar":"LPMR 201300Z 02009KT 9999 FEW022 13/04 Q1021","updated":"2025-11-20T13:29:01Z"}
