{"icao":"LPPS","metar":"LPPS 032200Z 04004KT 300V110 9999 FEW012 14/11 Q1022","updated":"2026-04-03T22:33:03Z"}
