{"icao":"KLAX","metar":"KLAX 302253Z 26010KT 10SM CLR 23/16 A2989 RMK AO2 SLP121 T02330156 $","updated":"2025-10-30T23:17:04Z"}
