{"icao":"LPHR","metar":"LPHR 051400Z 29025KT 9999 SCT014 FEW018TCU 14/07 Q1006","updated":"2026-02-05T14:08:22Z"}
