{"icao":"KORD","metar":"KORD 300551Z 00000KT 10SM CLR 19/16 A3018 RMK AO2 SLP214 T01940161 10244 20194 403170167 55002","updated":"2025-09-30T06:27:23Z"}
