{"icao":"LPPD","metar":"LPPD 142200Z 24024KT 9999 FEW010 BKN025 16/15 Q1022","updated":"2026-01-14T22:20:48Z"}
