{"icao":"LPAZ","metar":"LPAZ 051000Z 07008KT 9999 BKN044 14/06 Q1028","updated":"2026-01-05T10:23:41Z"}
