{"icao":"KORD","metar":"KORD 251751Z 28004KT 10SM BKN010 BKN030 11/08 A2974 RMK AO2 SLP073 60000 T01060078 10106 20083 55011","updated":"2025-11-25T18:29:06Z"}
