{"icao":"LPMR","metar":"LPMR 031900Z 30004KT CAVOK 15/10 Q1023","updated":"2026-04-03T19:37:27Z"}
