{"icao":"LPFL","metar":"LPFL 242100Z 30005KT 230V040 9999 FEW021 13/07 Q1024","updated":"2026-02-25T02:03:31Z"}
