{"icao":"LPPS","metar":"LPPS 042200Z 02009KT 350V050 9999 SCT015 21/17 Q1026","updated":"2025-10-04T22:14:28Z"}
