{"icao":"LPBJ","metar":"LPBJ 110800Z 10003KT 8000 1200E BCFG NSC 07/06 Q1025","updated":"2026-03-11T08:39:14Z"}
