{"icao":"KJFK","metar":"KJFK 122051Z 30014G21KT 10SM FEW070 FEW250 01/M11 A3006 RMK AO2 SLP178 T00111111 53008","updated":"2025-12-12T21:17:46Z"}
