{"icao":"LPBJ","metar":"LPBJ 010500Z 10006KT 9999 FEW028 06/06 Q1014","updated":"2026-01-01T05:25:52Z"}
