{"icao":"LPPR","metar":"LPPR 071500Z 22018G30KT 200V260 8000 VCSH FEW010 SCT015 FEW017CB 13/10 Q0992","updated":"2026-02-07T15:23:27Z"}
