{"icao":"LPAZ","metar":"LPAZ 141000Z 28016KT 9999 SCT029 BKN036 17/11 Q1009","updated":"2025-11-14T10:20:56Z"}
