{"icao":"KORD","metar":"KORD 150651Z 13004KT 10SM CLR 20/14 A3012 RMK AO2 SLP193 T02000144 $","updated":"2025-09-15T07:18:01Z"}
