{"icao":"LPPS","metar":"LPPS 150900Z 02010KT 360V060 7000 SCT006 BKN030 15/14 Q1022","updated":"2026-03-15T09:32:54Z"}
