{"icao":"LPPS","metar":"LPPS 010600Z 19024KT 7000 -RADZ BKN006 17/16 Q1004","updated":"2026-01-01T06:32:17Z"}
