{"icao":"KLAX","metar":"KLAX 181453Z 05003KT 10SM FEW180 SCT240 SCT280 15/M02 A3010 RMK AO2 SLP192 T01501017 53004 $","updated":"2026-01-18T15:18:03Z"}
