{"icao":"KORD","metar":"KORD 171751Z 08004KT 10SM FEW060 FEW110 SCT180 07/M08 A3008 RMK AO2 SLP192 T00721078 10078 21006 58009","updated":"2025-11-17T18:27:38Z"}
