{"icao":"LPCS","metar":"LPCS 271530Z 34012KT 310V010 9999 FEW013 16/11 Q1024","updated":"2026-02-27T15:36:24Z"}
