{"icao":"KLAX","metar":"KLAX 010253Z 26013KT 10SM CLR 20/16 A2999 RMK AO2 SLP154 T02000161 53003 $","updated":"2025-10-01T03:09:49Z"}
