{"icao":"KLAX","metar":"KLAX 060853Z VRB06KT 10SM CLR 17/M03 A2995 RMK AO2 SLP140 T01671028 58001","updated":"2026-03-06T09:37:07Z"}
