{"icao":"LPPR","metar":"LPPR 101100Z 10011KT 070V130 CAVOK 23/09 Q1022","updated":"2025-10-10T11:15:17Z"}
