{"icao":"LPPT","metar":"LPPT 151100Z 20003KT 090V260 9999 FEW008 BKN010 FEW020TCU 13/11 Q1012","updated":"2025-12-15T11:17:49Z"}
