{"icao":"LPBJ","metar":"LPBJ 080400Z 29006KT CAVOK 07/07 Q1019","updated":"2026-03-08T04:41:36Z"}
