{"icao":"LPCS","metar":"LPCS 051100Z 25017G29KT 9999 FEW016 SCT024 16/14 Q0996","updated":"2026-02-05T11:33:51Z"}
