{"icao":"LPMT","metar":"LPMT 202300Z 04003KT 010V070 CAVOK 17/13 Q1006","updated":"2026-04-21T05:26:03Z"}
