{"icao":"LPMR","metar":"LPMR 210700Z 35006KT 9999 FEW018 14/11 Q1021","updated":"2025-09-21T07:14:10Z"}
