{"icao":"LPOV","metar":"LPOV 021900Z 36011KT CAVOK 15/11 Q1021","updated":"2026-04-02T19:50:20Z"}
