{"icao":"LPMT","metar":"LPMT 170600Z VRB03KT 9999 FEW006 SCT024 12/12 Q1012","updated":"2025-11-17T06:29:20Z"}
