{"icao":"LPHR","metar":"LPHR 141330Z 26018KT 5000 -SHRA BR SCT008 SCT011 BKN030 17/15 Q1023","updated":"2026-01-14T13:39:22Z"}
