{"icao":"LPPT","metar":"LPPT 281200Z 35013KT 9999 FEW032 25/16 Q1022","updated":"2026-06-28T12:14:50Z"}
