{"icao":"LPAZ","metar":"LPAZ 151100Z 23006KT 160V300 9999 FEW018 SCT044 24/19 Q1027","updated":"2025-09-15T11:14:30Z"}
