{"icao":"LPHR","metar":"LPHR 301100Z 28007KT 240V300 0200 DZ FG VV002 18/18 Q1023","updated":"2026-05-30T11:18:49Z"}
