{"icao":"LPPT","metar":"LPPT 081330Z 32009KT 9999 FEW030 BKN044 15/09 Q1021","updated":"2026-03-08T13:38:43Z"}
