{"icao":"LPMR","metar":"LPMR 080400Z 00000KT 0700 FG VV001 13/12 Q1022","updated":"2025-10-08T04:20:26Z"}
