{"icao":"LPPT","metar":"LPPT 140130Z 33016KT 290V350 9999 FEW033 11/05 Q1018 WS R02","updated":"2026-02-14T01:56:50Z"}
