{"icao":"LPOV","metar":"LPOV 100900Z 35011KT CAVOK 19/10 Q1021","updated":"2026-06-10T09:56:41Z"}
