{"icao":"LPPS","metar":"LPPS 181500Z 01012KT 240V030 9999 SCT015 20/14 Q1021","updated":"2025-11-18T15:20:57Z"}
