{"icao":"LPAZ","metar":"LPAZ 230300Z 09006KT CAVOK 13/12 Q1029","updated":"2025-11-23T03:26:13Z"}
