{"icao":"LPFR","metar":"LPFR 242330Z 07008KT CAVOK 22/12 Q1020","updated":"2026-05-25T00:03:09Z"}
