{"icao":"KJFK","metar":"KJFK 021351Z 34009KT 10SM FEW250 21/07 A3019 RMK AO2 SLP223 T02060072 $","updated":"2026-06-02T14:51:37Z"}
