{"icao":"LPFR","metar":"LPFR 232100Z 35005KT CAVOK 13/08 Q1025","updated":"2025-11-23T21:15:53Z"}
