{"icao":"LPPR","metar":"LPPR 081730Z 32010KT 290V350 9999 BKN007 BKN011 19/16 Q1022","updated":"2026-06-08T17:50:49Z"}
