{"icao":"LPMT","metar":"LPMT 310400Z 03007KT 0100 FG VV002 06/06 Q1019","updated":"2025-12-31T04:37:01Z"}
