{"icao":"LPHR","metar":"LPHR 141130Z 09012KT 050V120 9999 FEW017 SCT033 18/11 Q1031","updated":"2026-05-14T11:51:06Z"}
