{"icao":"LPST","metar":"LPST 261400Z 23015KT 9000 BKN008 BKN016 FEW025TCU 15/13 Q1012","updated":"2026-01-26T14:27:29Z"}
