{"icao":"KJFK","metar":"KJFK 261551Z 10004KT 10SM BKN250 24/11 A3013 RMK AO2 SLP201 T02440111 $","updated":"2026-05-26T16:41:15Z"}
