{"icao":"KORD","metar":"KORD 010551Z 31006KT 10SM BKN025 M08/M12 A3036 RMK AO2 SLP292 4/003 T10781122 11061 21078 410391117 58010","updated":"2026-02-01T06:03:26Z"}
