{"icao":"LPBJ","metar":"LPBJ 020700Z 30003KT CAVOK 10/07 Q1020","updated":"2026-04-02T07:10:35Z"}
