{"icao":"LPPD","metar":"LPPD 180930Z 36005KT 320V020 9999 FEW025 BKN040 14/10 Q1025","updated":"2026-02-18T09:46:01Z"}
