{"icao":"LPLA","metar":"LPLA 290500Z VRB01KT CAVOK 15/13 Q1028","updated":"2026-06-29T05:49:02Z"}
