{"icao":"LPPT","metar":"LPPT 130700Z 28016G26KT 250V310 9999 FEW024 SCT029 13/09 Q1004","updated":"2026-02-13T07:08:39Z"}
