{"icao":"LPPR","metar":"LPPR 161900Z 32006KT 290V350 CAVOK 18/15 Q1017","updated":"2026-06-16T19:33:21Z"}
