{"icao":"LPPR","metar":"LPPR 261930Z 01004KT 340V060 9999 FEW025 18/13 Q1016","updated":"2026-04-26T19:44:48Z"}
