{"icao":"LPPR","metar":"LPPR 282100Z 05003KT 340V120 CAVOK 07/06 Q1017","updated":"2025-12-28T21:17:12Z"}
