{"icao":"LPPS","metar":"LPPS 201100Z 32010KT 280V360 9999 FEW014 17/11 Q1027","updated":"2025-12-20T11:15:19Z"}
