{"icao":"LPFR","metar":"LPFR 141700Z 24005KT 210V270 CAVOK 23/19 Q1015","updated":"2025-10-14T17:15:16Z"}
