{"icao":"KORD","metar":"KORD 192151Z 30009KT 10SM BKN070 BKN150 15/02 A2977 RMK AO2 SLP081 T01500017 $","updated":"2025-10-19T22:16:03Z"}
