{"icao":"KORD","metar":"KORD 190951Z 15004KT 9SM BKN120 02/M02 A3002 RMK AO2 SLP171 T00221017 $","updated":"2026-03-19T10:39:06Z"}
