{"icao":"KORD","metar":"KORD 262151Z 08011KT 10SM BKN250 14/08 A2999 RMK AO2 SLP157 T01440078 $","updated":"2026-04-26T22:36:25Z"}
