{"icao":"LPFR","metar":"LPFR 241000Z 18007KT 150V210 9999 FEW020 20/12 Q1017","updated":"2026-04-24T10:19:36Z"}
