{"icao":"LPLA","metar":"LPLA 121321Z 33019G40KT 3000 SHRA BKN020CB SCT025 13/09 Q1002","updated":"2025-11-12T13:32:23Z"}
