{"icao":"LPBJ","metar":"LPBJ 230900Z 09005KT CAVOK 12/09 Q1025","updated":"2026-02-23T09:54:04Z"}
