{"icao":"LPBJ","metar":"LPBJ 061500Z 17011KT 140V210 9999 FEW045 30/13 Q1019","updated":"2025-10-06T15:18:00Z"}
