{"icao":"LPFR","metar":"LPFR 180100Z 08008KT CAVOK 21/17 Q1015","updated":"2025-10-18T01:15:58Z"}
