{"icao":"LPLA","metar":"LPLA 261300Z 08012G22KT 020V140 9999 FEW022 SCT030 19/13 Q1025","updated":"2025-10-26T13:22:17Z"}
