{"icao":"LPMA","metar":"LPMA 211100Z 18006KT 130V220 9999 FEW015 20/15 Q1020","updated":"2026-05-21T11:21:45Z"}
