{"icao":"LPBJ","metar":"LPBJ 310728Z 29006KT 6000 VCFG NSC 16/14 Q1020","updated":"2026-05-31T07:44:15Z"}
