{"icao":"LPMA","metar":"LPMA 301900Z 22010KT 200V270 9999 SCT015 20/11 Q1016","updated":"2026-04-30T19:18:43Z"}
