{"icao":"LPFL","metar":"LPFL 141400Z 19019G30KT 160V220 9999 FEW021 SCT038 18/13 Q1025","updated":"2026-02-14T14:26:01Z"}
