{"icao":"LPAR","metar":"LPAR 261400Z 24018G30KT 8000 SCT009 BKN016 BKN030 17/13 Q1012","updated":"2026-01-26T14:27:31Z"}
