{"icao":"LPPR","metar":"LPPR 201730Z 33008KT CAVOK 12/06 Q1030","updated":"2026-02-20T17:36:11Z"}
