{"icao":"LPMT","metar":"LPMT 101700Z 24006KT 220V280 9999 SCT025 18/15 Q1017","updated":"2025-11-10T17:16:52Z"}
