{"icao":"LPFR","metar":"LPFR 091330Z 26014KT 9999 BKN006 OVC012 15/14 Q1028","updated":"2026-01-09T13:36:40Z"}
