{"icao":"KORD","metar":"KORD 030451Z 31004KT 10SM FEW130 BKN170 OVC250 M07/M14 A3001 RMK AO2 SLP174 T10671139 $","updated":"2026-01-03T05:21:02Z"}
