{"icao":"LPBJ","metar":"LPBJ 150200Z 31012KT 9999 SCT012 OVC020 12/10 Q1016","updated":"2026-03-15T02:13:04Z"}
