{"icao":"LPPT","metar":"LPPT 101900Z 28004KT 9999 FEW035 12/08 Q1029","updated":"2026-01-10T19:14:23Z"}
