{"icao":"LPCS","metar":"LPCS 111100Z 03004KT 340V100 9999 FEW018 16/09 Q1027","updated":"2026-03-11T11:32:07Z"}
