{"icao":"LPPD","metar":"LPPD 021230Z 31014G26KT 280V350 9999 FEW023 FEW025TCU 14/08 Q1005 WS ALL RWY","updated":"2026-01-02T12:39:34Z"}
