{"icao":"KLAX","metar":"KLAX 050253Z 30008KT 10SM SCT250 18/04 A3013 RMK AO2 SLP202 T01780039 53002 $","updated":"2025-12-05T03:17:50Z"}
