{"icao":"LPFR","metar":"LPFR 040900Z VRB01KT CAVOK 25/11 Q1022","updated":"2025-10-04T09:15:25Z"}
