{"icao":"LPPS","metar":"LPPS 040600Z VRB02KT 9999 SCT011 18/16 Q1016","updated":"2026-05-04T06:11:48Z"}
