{"icao":"LPHR","metar":"LPHR 121130Z 05012KT 020V080 9999 SCT016 16/11 Q1028","updated":"2026-05-12T11:54:43Z"}
