{"icao":"LPOV","metar":"LPOV 260400Z 35002KT CAVOK 09/09 Q1022","updated":"2026-02-26T04:22:31Z"}
