{"icao":"KJFK","metar":"KJFK 290951Z 03012G19KT 10SM BKN041 10/04 A3014 RMK AO2 SLP206 T01000044","updated":"2025-10-29T10:20:40Z"}
