{"icao":"LPOV","metar":"LPOV 271500Z 34017KT 9999 FEW016 15/06 Q1024","updated":"2026-02-27T15:36:24Z"}
