{"icao":"LPCS","metar":"LPCS 291100Z 20011KT 180V240 9999 SCT014 18/13 Q1009","updated":"2026-04-29T11:27:10Z"}
