{"icao":"LPPT","metar":"LPPT 241230Z 06009KT CAVOK 25/05 Q1017","updated":"2025-09-24T12:36:10Z"}
