{"icao":"LPMR","metar":"LPMR 140500Z 15002KT CAVOK 11/10 Q1016","updated":"2025-10-14T05:16:48Z"}
