{"icao":"LPPR","metar":"LPPR 161530Z VRB06KT 8000 BKN007 14/13 Q1028","updated":"2026-02-16T15:39:07Z"}
