{"icao":"LPFR","metar":"LPFR 212100Z 03008KT CAVOK 15/04 Q1027","updated":"2026-02-21T21:21:25Z"}
