{"icao":"KJFK","metar":"KJFK 292151Z 33009KT 10SM FEW055 FEW250 04/M09 A3049 RMK SLP324 T00391089 ","updated":"2025-11-29T22:17:23Z"}
