{"icao":"LPBJ","metar":"LPBJ 291616Z 27017KT 3000 -RADZ BR BKN006 BKN012 15/15 Q1011 RERADZ","updated":"2026-01-29T16:42:01Z"}
