{"icao":"LPAZ","metar":"LPAZ 102100Z 24022KT 9999 BKN021 SCT040 20/15 Q1012","updated":"2025-11-10T21:16:46Z"}
