{"icao":"LPMA","metar":"LPMA 290400Z 31003KT 9999 FEW015 16/13 Q1020","updated":"2026-01-29T04:08:24Z"}
