{"icao":"KJFK","metar":"KJFK 032051Z 33006KT 10SM SCT140 BKN190 BKN250 M02/M12 A2998 RMK AO2 SLP150 T10171122 55002 $","updated":"2026-01-03T21:17:17Z"}
