{"icao":"LPMT","metar":"LPMT 212200Z 30005KT 260V320 9999 SCT025 15/10 Q1010","updated":"2026-04-21T22:36:57Z"}
