{"icao":"LPMA","metar":"LPMA 092300Z 34004KT 320V020 9999 SCT016 20/13 Q1023","updated":"2025-11-09T23:16:21Z"}
