{"icao":"LPST","metar":"LPST 291200Z 05003KT 010V100 CAVOK 14/07 Q1020","updated":"2025-12-29T12:42:01Z"}
