{"icao":"KJFK","metar":"KJFK 191251Z 16006KT 10SM SCT060 BKN110 BKN250 02/M06 A3033 RMK AO2 SLP269 T00171061","updated":"2026-03-19T13:02:29Z"}
