{"icao":"LPBJ","metar":"LPBJ 101100Z 12007KT 100V160 CAVOK 24/14 Q1021","updated":"2025-10-10T11:15:20Z"}
