{"icao":"LPFR","metar":"LPFR 140300Z 06010KT CAVOK 14/08 Q1016","updated":"2025-12-14T03:27:42Z"}
