{"icao":"KJFK","metar":"KJFK 091751Z 20009KT 10SM FEW250 19/00 A3004 RMK AO2 SLP170 T01940000 10194 20039 58018 $","updated":"2026-03-09T17:53:46Z"}
