{"icao":"LPMA","metar":"LPMA 291330Z 16008KT 9999 FEW015 BKN030 18/12 Q1013","updated":"2026-04-29T13:53:08Z"}
