{"icao":"LPBJ","metar":"LPBJ 290400Z 28006KT 9999 FEW040 14/13 Q1015","updated":"2025-09-29T04:21:56Z"}
