{"icao":"KJFK","metar":"KJFK 240751Z 30011G18KT 10SM FEW048 SCT110 BKN250 M01/M07 A2980 RMK AO2 SLP092 T10111067 $","updated":"2026-02-24T08:46:22Z"}
