{"icao":"LPMT","metar":"LPMT 152100Z 32004KT 9999 FEW010 BKN025 13/13 Q1016","updated":"2026-01-15T21:20:19Z"}
