{"icao":"LPOV","metar":"LPOV 281800Z 16011KT 9999 FEW015 SCT030 BKN045 20/15 Q1009","updated":"2025-10-28T18:28:01Z"}
