{"icao":"KJFK","metar":"KJFK 041451Z 02005KT 10SM FEW020 SCT045 SCT100 BKN140 M01/M07 A3009 RMK AO2 SLP189 60000 T10111072 51018 $","updated":"2026-01-04T15:18:19Z"}
