{"icao":"LPST","metar":"LPST 181600Z 34010KT 310V010 9999 FEW018 16/11 Q1018","updated":"2025-11-18T19:15:37Z"}
