{"icao":"KJFK","metar":"KJFK 201251Z 23009KT 10SM FEW060 FEW250 05/00 A3013 RMK AO2 SLP204 T00500000","updated":"2026-03-20T12:57:26Z"}
