{"icao":"LPMA","metar":"LPMA 111800Z 03004KT 300V080 9999 BKN015 17/13 Q1025","updated":"2026-01-11T18:27:47Z"}
