{"icao":"LPOV","metar":"LPOV 152100Z VRB03KT 0800 FG OVC002 15/14 Q1017","updated":"2025-10-15T21:15:44Z"}
