{"icao":"LPPS","metar":"LPPS 220430Z 09023KT 9999 SCT010 FEW018CB 16/13 Q0999","updated":"2026-03-22T04:50:42Z"}
