{"icao":"KJFK","metar":"KJFK 261851Z 21009KT 10SM FEW050 SCT150 BKN250 04/M03 A2988 RMK AO2 SLP119 T00391033 $","updated":"2026-02-26T19:43:04Z"}
