{"icao":"KORD","metar":"KORD 311251Z 28006KT 10SM FEW065 FEW250 04/02 A2984 RMK AO2 SLP108 T00440022 $","updated":"2025-10-31T13:28:30Z"}
