{"icao":"LPPD","metar":"LPPD 312100Z 23012KT 0800 R30/P2000 -DZ FG VV001 16/16 Q1016","updated":"2026-01-31T21:19:54Z"}
