{"icao":"KJFK","metar":"KJFK 072151Z 19019KT 10SM FEW049 BKN210 BKN250 22/18 A3006 RMK AO2 PK WND 18030/2129 SLP180 T02170183","updated":"2025-10-07T22:16:37Z"}
