{"icao":"KLAX","metar":"KLAX 031653Z 11004KT 10SM FEW017 BKN035 BKN180 16/12 A3005 RMK AO2 SLP175 T01610117","updated":"2026-03-03T17:41:47Z"}
