{"icao":"LPBJ","metar":"LPBJ 100200Z 20003KT CAVOK 12/11 Q1013","updated":"2026-04-10T02:27:28Z"}
