{"icao":"KORD","metar":"KORD 281251Z 27004KT 10SM FEW025 FEW250 M02/M10 A3065 RMK AO2 SLP386 T10171100","updated":"2026-03-28T13:50:48Z"}
