{"icao":"LPMR","metar":"LPMR 202200Z 07005KT 030V100 CAVOK 19/10 Q1006","updated":"2026-04-20T22:41:14Z"}
