{"icao":"LPPS","metar":"LPPS 070700Z 05007KT 350V070 9999 SCT010 BKN030 20/18 Q1024","updated":"2025-10-07T07:17:16Z"}
