{"icao":"KLAX","metar":"KLAX 200353Z 30004KT 10SM CLR 22/09 A2991 RMK AO2 SLP126 T02170094","updated":"2026-05-20T05:03:20Z"}
