{"icao":"KJFK","metar":"KJFK 251451Z 11012KT 10SM -RA BKN055 OVC090 08/03 A3006 RMK SLP179 P0001 60001 T00780033 51008 $ ","updated":"2026-04-25T15:38:07Z"}
