{"icao":"LPAZ","metar":"LPAZ 211100Z 29014KT 2500 BR BKN002 16/16 Q1023","updated":"2026-01-21T11:22:54Z"}
