{"icao":"LPCS","metar":"LPCS 190700Z 02002KT CAVOK 14/12 Q1015","updated":"2026-04-19T07:17:23Z"}
