{"icao":"LPAZ","metar":"LPAZ 291700Z 25017KT 210V270 9999 FEW018 BKN025 20/13 Q1016","updated":"2025-10-29T17:17:28Z"}
