{"icao":"LPOV","metar":"LPOV 230800Z VRB01KT 0200 FG BKN002 09/09 Q1014","updated":"2026-03-23T08:54:27Z"}
