{"icao":"LPBJ","metar":"LPBJ 031000Z 09003KT 050V140 CAVOK 27/10 Q1023","updated":"2025-10-03T10:17:49Z"}
