{"icao":"LPFL","metar":"LPFL 251500Z 19008G18KT 160V230 9999 FEW014 21/15 Q1025","updated":"2025-11-25T15:21:20Z"}
