{"icao":"KLAX","metar":"KLAX 192253Z 24011KT 10SM FEW250 22/17 A2999 RMK AO2 SLP154 T02220167","updated":"2025-10-19T23:16:04Z"}
