{"icao":"LPLA","metar":"LPLA 192000Z 31017KT 9999 FEW012 SCT024 BKN035 14/12 Q1029 RMK WIND RWY15 31017KT PK 30029/08 RH86 BLU","updated":"2025-12-19T20:21:26Z"}
