{"icao":"LPAZ","metar":"LPAZ 110730Z 24013KT 5000 BR SCT003 SCT021 17/16 Q1015","updated":"2026-02-11T07:58:46Z"}
