{"icao":"KORD","metar":"KORD 250651Z 00000KT 7SM FEW014 OVC036 08/07 A2985 RMK AO2 SLP110 T00830067","updated":"2025-11-25T07:18:59Z"}
