{"icao":"LPHR","metar":"LPHR 091730Z 25017KT 8000 VCSH SCT007 SCT011 BKN027 18/17 Q1006","updated":"2026-02-09T17:53:06Z"}
