{"icao":"KORD","metar":"KORD 071751Z 23009G17KT 200V260 10SM FEW070 BKN085 BKN250 14/M02 A2988 RMK AO2 SLP120 T01441017 10150 20039 58028","updated":"2026-05-07T18:22:49Z"}
