{"icao":"LPPS","metar":"LPPS 110430Z 26005KT 220V280 9999 FEW010 SCT030 17/12 Q1024","updated":"2026-02-11T05:01:37Z"}
