{"icao":"LPSJ","metar":"LPSJ 271500Z 36011KT 340V050 9999 FEW014 SCT020 18/14 Q1025","updated":"2026-06-28T03:39:23Z"}
