{"icao":"LPPT","metar":"LPPT 141600Z 24015G25KT 9999 FEW016 FEW020TCU 16/12 Q1003 WS R20","updated":"2025-11-14T16:23:37Z"}
