{"icao":"LPPS","metar":"LPPS 200100Z 09006KT 050V120 9999 FEW015 SCT030 19/11 Q1019","updated":"2025-11-20T01:22:26Z"}
