{"icao":"LPPD","metar":"LPPD 280800Z 36022G32KT 8000 -SHRA SCT011 14/13 Q1024","updated":"2025-11-28T08:26:00Z"}
