{"icao":"LPLA","metar":"LPLA 121900Z 29003KT 220V350 9999 FEW022 14/08 Q1031 WIND RWY15 25007KT RH71 BLU","updated":"2025-12-12T19:16:47Z"}
