{"icao":"KORD","metar":"KORD 071709Z 26017G31KT 10SM -RA BKN014 OVC020 16/13 A2968 RMK AO2 PK WND 24031/1702 RAB00 P0000 T01560133","updated":"2026-03-07T17:20:36Z"}
