{"icao":"LPMA","metar":"LPMA 291230Z 10004KT 010V140 9999 FEW014 21/14 Q1022","updated":"2026-01-29T12:55:11Z"}
