{"icao":"LPPR","metar":"LPPR 210500Z 18021KT 7000 -RA BKN007 BKN013 12/11 Q1004 RERA","updated":"2026-01-21T05:27:15Z"}
