{"icao":"KORD","metar":"KORD 020851Z 09011KT 8SM -RA OVC007 03/02 A2996 RMK AO2 SLP151 P0009 60042 T00330022 58030","updated":"2026-04-02T08:55:08Z"}
