{"icao":"KLAX","metar":"KLAX 121453Z 02005KT 10SM FEW045 FEW150 SCT200 BKN250 12/08 A3017 RMK AO2 SLP214 T01170083 53001","updated":"2026-02-12T15:52:24Z"}
