{"icao":"KJFK","metar":"KJFK 140751Z 24009KT 10SM SCT055 SCT075 BKN120 BKN250 M03/M08 A3014 RMK AO2 SLP204 T10331078 $","updated":"2026-02-14T08:30:46Z"}
