{"icao":"LPBJ","metar":"LPBJ 201400Z 14008KT 120V180 CAVOK 28/05 Q1010","updated":"2026-04-20T14:49:30Z"}
