{"icao":"LPFL","metar":"LPFL 161530Z 19022G32KT 150V220 9000 -DZ FEW009 SCT014 BKN035 17/15 Q1016 REDZ RERA","updated":"2026-02-16T15:39:10Z"}
