{"icao":"KORD","metar":"KORD 070601Z 02007KT 5SM -TSRA BR BKN006 BKN013 OVC030 17/17 A3003 RMK AO2 P0003 T01720167 $","updated":"2025-10-07T06:27:01Z"}
