{"icao":"LPOV","metar":"LPOV 101500Z 21005KT 180V240 9999 FEW010 SCT040 18/15 Q1017","updated":"2025-11-10T15:20:50Z"}
