{"icao":"LPPS","metar":"LPPS 101300Z 03017KT 350V060 9999 SCT015 21/14 Q1022","updated":"2026-06-10T13:34:12Z"}
