{"icao":"LPMT","metar":"LPMT 050500Z 22021G32KT 5000 -RADZ BR BKN008 BKN013 16/16 Q0990","updated":"2026-02-05T05:54:17Z"}
