{"icao":"LPFR","metar":"LPFR 120830Z 28007KT 6000 SCT004 SCT012 15/14 Q1022","updated":"2026-02-12T08:43:53Z"}
