{"icao":"KLAX","metar":"KLAX 021053Z 00000KT 10SM FEW008 SCT050 BKN200 12/11 A3007 RMK AO2 SLP181 T01220111 $","updated":"2026-01-02T11:17:43Z"}
