{"icao":"LPMT","metar":"LPMT 120800Z 05003KT 7000 FEW008 SCT012 10/10 Q1026","updated":"2026-03-12T08:40:34Z"}
