{"icao":"LPLA","metar":"LPLA 011802Z 30030G46KT 6000 -TSRA BKN024 SCT025CB BKN040 10/06 Q1009 WS ALL RWY","updated":"2026-02-01T18:33:39Z"}
