{"icao":"LPPR","metar":"LPPR 061430Z 36016G27KT CAVOK 14/04 Q1019","updated":"2026-03-06T14:36:33Z"}
