{"icao":"LPHR","metar":"LPHR 240700Z 25020KT 9999 VCSH SCT025 SCT055 16/11 Q1022","updated":"2026-01-24T07:18:51Z"}
