{"icao":"LPMR","metar":"LPMR 021800Z 34006KT CAVOK 15/10 Q1025","updated":"2025-11-02T18:21:49Z"}
