{"icao":"LPPR","metar":"LPPR 182000Z 22004KT 9000 -RA SCT004 BKN040 13/12 Q1018","updated":"2025-12-18T20:19:21Z"}
