{"icao":"LPHR","metar":"LPHR 012000Z 23006KT 9999 SCT006 BKN011 22/22 Q1020","updated":"2025-10-01T23:15:36Z"}
