{"icao":"LPFL","metar":"LPFL 091230Z 18016KT 150V210 3000 -RADZ BR SCT003 BKN006 17/16 Q1019 RERA","updated":"2026-01-09T12:42:09Z"}
