{"icao":"LPPD","metar":"LPPD 022200Z 18004KT 9999 SCT012 22/20 Q1022","updated":"2025-10-02T22:15:55Z"}
