{"icao":"LPBJ","metar":"LPBJ 170100Z 28007KT 5000 1500N PRFG NSC 05/05 Q1014","updated":"2026-01-17T01:28:15Z"}
