{"icao":"KLAX","metar":"KLAX 170653Z 24006KT 10SM SCT100 22/18 A2993 RMK AO2 SLP133 T02170178","updated":"2025-09-17T07:16:29Z"}
