{"icao":"LPPS","metar":"LPPS 011500Z 22021KT 9999 SCT013 18/15 Q1000","updated":"2026-01-01T15:20:23Z"}
