{"icao":"LPMA","metar":"LPMA 141400Z 02016G26KT 340V050 9999 FEW016 27/18 Q1022","updated":"2025-09-14T14:13:36Z"}
