{"icao":"LPHR","metar":"LPHR 120100Z 25008KT 220V280 9999 FEW012 BKN020 15/11 Q1031","updated":"2026-03-12T04:45:52Z"}
