{"icao":"LPFR","metar":"LPFR 281230Z 26015KT 9000 FEW010 SCT025 16/14 Q1007","updated":"2026-01-28T12:48:07Z"}
