{"icao":"LPHR","metar":"LPHR 281800Z 06030G44KT 9000 -RA FEW008 SCT011 BKN030 14/13 Q1006 RERA","updated":"2025-12-28T18:28:03Z"}
