{"icao":"LPPS","metar":"LPPS 280930Z 02012KT 360V060 9999 FEW014 SCT030 16/11 Q1023","updated":"2026-03-28T09:36:11Z"}
