{"icao":"LPPS","metar":"LPPS 262300Z 36016KT 9999 SCT013 15/12 Q1026","updated":"2026-02-26T23:28:41Z"}
