{"icao":"LPPS","metar":"LPPS 292200Z 34006KT 310V010 9999 FEW015 SCT030 20/14 Q1018","updated":"2025-10-29T22:18:01Z"}
