{"icao":"LPFR","metar":"LPFR 160400Z 03006KT CAVOK 20/16 Q1014","updated":"2025-10-16T04:20:34Z"}
