{"icao":"LPPD","metar":"LPPD 192200Z 20021KT 8000 SCT005 BKN009 17/16 Q1014","updated":"2026-05-19T22:15:05Z"}
