{"icao":"LPAZ","metar":"LPAZ 060630Z 08003KT 050V120 9999 SCT030 BKN040 11/07 Q1033","updated":"2026-03-06T06:45:58Z"}
