{"icao":"LPBJ","metar":"LPBJ 091300Z 01003KT 310V040 CAVOK 18/06 Q1021","updated":"2025-11-09T13:22:45Z"}
