{"icao":"LPPR","metar":"LPPR 010700Z 12010KT CAVOK 07/03 Q1020","updated":"2025-12-01T07:21:55Z"}
