{"icao":"LPPS","metar":"LPPS 220300Z 01004KT 9999 SCT010 SCT030 22/21 Q1021","updated":"2025-10-22T03:09:56Z"}
