{"icao":"LPCS","metar":"LPCS 131700Z 28010KT 250V310 9999 SCT018 14/12 Q1012","updated":"2026-01-13T17:25:30Z"}
