{"icao":"LPPD","metar":"LPPD 151800Z 19005KT 150V240 9999 FEW023 24/19 Q1025","updated":"2025-09-15T18:24:57Z"}
