{"icao":"LPCS","metar":"LPCS 261030Z 03007KT CAVOK 16/12 Q1025","updated":"2026-02-26T10:43:29Z"}
