{"icao":"KORD","metar":"KORD 121251Z 19010G23KT 10SM FEW070 SCT110 BKN250 17/11 A2999 RMK AO2 SLP157 T01670111 $","updated":"2026-04-12T12:59:29Z"}
