{"icao":"KORD","metar":"KORD 271551Z 30014G26KT 10SM BKN035 M01/M11 A3023 RMK AO2 PK WND 29027/1536 SLP243 T10111106","updated":"2025-11-27T16:23:38Z"}
