{"icao":"LPBJ","metar":"LPBJ 140400Z 31009KT CAVOK 17/14 Q1021","updated":"2025-09-14T04:19:42Z"}
