{"icao":"KJFK","metar":"KJFK 131451Z 29017G28KT 10SM FEW043 BKN100 09/M01 A2988 RMK AO2 PK WND 29028/1449 SLP116 T00941011 51002","updated":"2025-11-13T15:21:18Z"}
