{"icao":"LPHR","metar":"LPHR 172030Z 34020G32KT 310V020 9999 VCSH FEW008 SCT020 09/03 Q1018 RESHRA","updated":"2026-03-17T20:37:30Z"}
