{"icao":"LPMR","metar":"LPMR 161600Z 27003KT 240V310 9999 SCT022 FEW025CB SCT040 11/07 Q1013","updated":"2026-01-16T16:27:27Z"}
