{"icao":"LPPS","metar":"LPPS 291230Z 03016KT 360V060 9999 FEW014 18/13 Q1027","updated":"2026-03-29T12:54:28Z"}
