{"icao":"LPBJ","metar":"LPBJ 170700Z 09002KT CAVOK 14/13 Q1014","updated":"2025-10-17T07:17:52Z"}
