{"icao":"LPAZ","metar":"LPAZ 292300Z 26011KT 4000 BR BKN002 16/16 Q1016","updated":"2026-01-29T23:25:12Z"}
