{"icao":"LPLA","metar":"LPLA 212300Z 19005KT 140V240 9000 -RA FEW008 SCT014 BKN023 17/15 Q1023","updated":"2026-02-21T23:22:23Z"}
