{"icao":"LPPD","metar":"LPPD 031400Z 23005KT 200V270 9999 FEW012 BKN030 23/21 Q1024","updated":"2025-10-03T14:16:31Z"}
