{"icao":"KORD","metar":"KORD 221251Z 17006KT 10SM FEW100 OVC130 02/M08 A3033 RMK AO2 SLP280 T00171083","updated":"2025-12-22T13:33:30Z"}
