{"icao":"KJFK","metar":"KJFK 300351Z 07004KT 10SM SCT110 BKN190 BKN250 02/M06 A3051 RMK AO2 SLP329 T00171061 $","updated":"2025-11-30T04:33:14Z"}
