{"icao":"LPFL","metar":"LPFL 121300Z 16010KT 130V210 9999 SCT030 16/09 Q1031","updated":"2025-12-12T13:33:45Z"}
