{"icao":"LPPS","metar":"LPPS 041300Z 01011KT 350V050 9999 FEW015 23/16 Q1027","updated":"2025-10-04T13:20:12Z"}
