{"icao":"LPPS","metar":"LPPS 141230Z 14008KT 110V170 9999 SCT015 22/17 Q1017","updated":"2025-10-14T12:39:08Z"}
