{"icao":"KORD","metar":"KORD 030551Z 24010G23KT 10SM FEW120 BKN180 07/00 A3010 RMK AO2 SLP196 T00720000 10094 20072 401170050 51010 $","updated":"2025-11-03T06:29:40Z"}
