{"icao":"LPBJ","metar":"LPBJ 230700Z 07002KT 0400 FG NSC 08/08 Q1012","updated":"2026-03-23T07:08:16Z"}
