{"icao":"LPOV","metar":"LPOV 111300Z 17010KT 8000 -DZ BKN006 OVC011 14/13 Q1025","updated":"2026-01-11T13:28:51Z"}
