{"icao":"LPPT","metar":"LPPT 111100Z 10003KT 020V170 1500 -DZRA BR FEW001 BKN003 11/11 Q1028","updated":"2026-01-11T11:16:40Z"}
