{"icao":"KLAX","metar":"KLAX 281553Z 14006KT 10SM FEW020 SCT025 BKN037 19/13 A2993 RMK AO2 SLP135 T01940128","updated":"2026-06-28T16:08:35Z"}
