{"icao":"KJFK","metar":"KJFK 220351Z 04004KT 10SM FEW038 FEW250 13/09 A3022 RMK AO2 SLP233 T01280094 $","updated":"2025-09-22T04:21:04Z"}
