{"icao":"LPPS","metar":"LPPS 022300Z 04008KT 020V080 9999 FEW015 SCT030 17/07 Q1027","updated":"2025-12-02T23:17:43Z"}
