{"icao":"KORD","metar":"KORD 081851Z 06009KT 10SM SCT039 BKN055 16/07 A3039 RMK AO2 SLP289 T01610072","updated":"2025-10-08T19:14:11Z"}
