{"icao":"LPMA","metar":"LPMA 281400Z 06005KT 320V130 9999 FEW014 21/15 Q1017","updated":"2026-01-28T14:28:48Z"}
