{"icao":"LPLA","metar":"LPLA 071100Z 22014G25KT 9000 -RA FEW015 BKN020 16/12 Q1021","updated":"2026-03-07T11:18:46Z"}
