{"icao":"LPOV","metar":"LPOV 260600Z VRB02KT CAVOK 11/10 Q1017","updated":"2025-10-26T07:15:26Z"}
