{"icao":"LPPR","metar":"LPPR 152300Z 35007KT CAVOK 11/10 Q1022","updated":"2026-03-15T23:27:28Z"}
