{"icao":"LPLA","metar":"LPLA 291311Z 09013KT 070V130 3500 -RADZ BR BKN006 BKN012 15/14 Q1012","updated":"2025-12-29T13:36:26Z"}
