{"icao":"LPPR","metar":"LPPR 150300Z 14013KT 9999 SCT042 13/10 Q1002","updated":"2025-11-15T03:05:46Z"}
