{"icao":"KLAX","metar":"KLAX 120453Z 00000KT 10SM CLR 19/13 A2978 RMK AO2 SLP081 T01940133 $","updated":"2025-10-12T05:15:49Z"}
