{"icao":"LPLA","metar":"LPLA 152000Z 20012KT 170V230 9999 FEW018 21/17 Q1006","updated":"2025-10-15T20:20:15Z"}
