{"icao":"KLAX","metar":"KLAX 151053Z 07003KT 10SM FEW008 13/12 A3001 RMK AO2 SLP160 T01280117","updated":"2026-04-15T10:58:11Z"}
