{"icao":"LPPS","metar":"LPPS 011800Z 03011KT 360V060 9999 FEW015 SCT030 22/16 Q1021","updated":"2025-10-01T18:25:27Z"}
