{"icao":"KJFK","metar":"KJFK 240351Z 29011KT 10SM FEW060 FEW100 08/01 A3002 RMK AO2 SLP166 T00780011","updated":"2025-11-24T04:33:07Z"}
