{"icao":"LPPR","metar":"LPPR 181400Z 25004KT 190V310 9999 FEW002 18/15 Q1021","updated":"2025-09-18T14:17:33Z"}
