{"icao":"LPLA","metar":"LPLA 300500Z 29002KT 200V330 9999 SCT017 BKN023 16/16 Q1028","updated":"2025-11-30T05:18:00Z"}
