{"icao":"LPBJ","metar":"LPBJ 050500Z 29005KT 0700 FG VV001 15/15 Q1020","updated":"2025-10-05T05:15:32Z"}
