{"icao":"KLAX","metar":"KLAX 211453Z 12005KT 7SM FEW008 SCT012 19/16 A2989 RMK AO2 SLP120 T01890156 53012 $","updated":"2026-05-21T15:21:36Z"}
