{"icao":"LPST","metar":"LPST 291100Z 26006KT 220V300 9999 SCT018 16/12 Q1008","updated":"2026-04-29T11:27:10Z"}
