{"icao":"KJFK","metar":"KJFK 221209Z 16011KT 10SM FEW007 BKN013 OVC040 07/06 A2992 RMK AO2 T00670056 $","updated":"2026-03-22T12:49:39Z"}
