{"icao":"LPHR","metar":"LPHR 280900Z 26025KT 8000 SCT005 SCT009 BKN012 17/16 Q1005","updated":"2026-01-28T09:32:46Z"}
