{"icao":"LPMT","metar":"LPMT 141500Z 04010KT CAVOK 17/10 Q1016","updated":"2025-12-14T15:17:21Z"}
