{"icao":"LPPS","metar":"LPPS 050300Z 02003KT 310V090 9999 FEW015 BKN030 16/09 Q1025","updated":"2025-12-05T03:17:50Z"}
