{"icao":"LPFL","metar":"LPFL 142000Z 17015G27KT 140V220 9999 FEW019 17/13 Q1023","updated":"2026-02-14T20:25:28Z"}
