{"icao":"LPFL","metar":"LPFL 091430Z 20015G25KT 150V260 9999 VCSH FEW009 BKN012 FEW013TCU 19/16 Q1001 RERA","updated":"2026-02-09T14:51:14Z"}
