{"icao":"LPHR","metar":"LPHR 011930Z 34005KT 300V050 9999 FEW020 SCT040 17/12 Q1017","updated":"2026-05-01T20:02:48Z"}
