{"icao":"KORD","metar":"KORD 160951Z 07006KT 10SM OVC046 15/09 A3020 RMK AO2 SLP225 T01500094 $","updated":"2025-10-16T10:20:38Z"}
