{"icao":"LPMR","metar":"LPMR 231600Z 34015KT 300V360 CAVOK 21/07 Q1018","updated":"2025-09-23T16:21:48Z"}
