{"icao":"LPCS","metar":"LPCS 301630Z 27014G26KT 230V310 9999 SCT014 BKN026 15/14 Q1012","updated":"2026-01-30T16:37:45Z"}
