{"icao":"LPFR","metar":"LPFR 220130Z 03007KT CAVOK 12/06 Q1027","updated":"2026-02-22T02:03:16Z"}
