{"icao":"KJFK","metar":"KJFK 071251Z 31022G38KT 10SM BKN065 BKN080 M08/M18 A2964 RMK AO2 PK WND 30042/1221 SLP037 T10781183 $","updated":"2026-02-07T13:42:35Z"}
