{"icao":"LPFR","metar":"LPFR 090330Z 00000KT 5000 -RADZ BR SCT008 SCT018 10/09 Q1030","updated":"2026-01-09T03:38:09Z"}
