{"icao":"LPBJ","metar":"LPBJ 191600Z 32007KT 9999 FEW025 BKN040 15/07 Q1016","updated":"2025-11-19T16:25:28Z"}
