{"icao":"LPMR","metar":"LPMR 102100Z 32007KT CAVOK 17/12 Q1020","updated":"2026-06-10T22:02:51Z"}
