{"icao":"LPSJ","metar":"LPSJ 200830Z 24007KT 210V270 9999 FEW015 SCT035 19/15 Q1010","updated":"2026-06-20T08:53:13Z"}
