{"icao":"LPBJ","metar":"LPBJ 260500Z 29003KT 9999 SCT006 SCT018 18/17 Q1015","updated":"2025-10-26T05:16:51Z"}
