{"icao":"LPFL","metar":"LPFL 130900Z VRB09G19KT 9999 -DZ BKN010 19/16 Q1025","updated":"2025-12-13T09:18:10Z"}
