{"icao":"LPBJ","metar":"LPBJ 261900Z 04007KT CAVOK 19/07 Q1013","updated":"2026-03-26T19:53:48Z"}
