{"icao":"LPOV","metar":"LPOV 221500Z 33008KT CAVOK 16/10 Q1027","updated":"2026-02-22T15:23:31Z"}
