{"icao":"LPBJ","metar":"LPBJ 041022Z 26015KT 2000 RADZ BR BKN005 OVC014 15/14 Q0999","updated":"2026-02-04T10:36:49Z"}
