{"icao":"LPFR","metar":"LPFR 062200Z VRB02KT CAVOK 07/01 Q1025","updated":"2026-01-06T22:19:44Z"}
