{"icao":"LPAR","metar":"LPAR 201700Z 24008KT 220V280 9999 FEW020 SCT035 15/10 Q1017","updated":"2026-01-20T21:19:42Z"}
