{"icao":"LPPS","metar":"LPPS 011430Z 03013KT 9999 FEW015 23/16 Q1021","updated":"2025-10-01T15:18:03Z"}
