{"icao":"KORD","metar":"KORD 011451Z 33005KT 10SM FEW030 BKN085 OVC130 M11/M17 A3004 RMK AO2 SLP183 T11111167 51002 $","updated":"2026-01-01T15:20:24Z"}
