{"icao":"LPPS","metar":"LPPS 291230Z 35008KT 320V030 9999 SCT015 20/13 Q1023","updated":"2025-11-29T12:35:38Z"}
