{"icao":"LPAR","metar":"LPAR 261000Z 05013KT CAVOK 18/07 Q1017","updated":"2026-03-26T11:05:26Z"}
