{"icao":"LPBJ","metar":"LPBJ 191400Z 24009KT 200V260 CAVOK 27/14 Q1015","updated":"2025-10-19T14:14:41Z"}
