{"icao":"LPLA","metar":"LPLA 111400Z 03003KT 350V080 9999 FEW020 BKN025 21/18 Q1021","updated":"2025-10-11T14:13:34Z"}
