{"icao":"LPAZ","metar":"LPAZ 100200Z 22023KT 2000 BR BKN003 17/17 Q1014","updated":"2026-02-10T02:23:34Z"}
