{"icao":"LPBJ","metar":"LPBJ 271000Z 07004KT 040V100 CAVOK 10/03 Q1024","updated":"2025-11-27T10:21:23Z"}
