{"icao":"KLAX","metar":"KLAX 301253Z 08007KT 10SM CLR 16/13 A2993 RMK AO2 SLP133 T01610128 $","updated":"2025-10-30T13:29:35Z"}
