{"icao":"LPMT","metar":"LPMT 010700Z 24008KT 2500 -DZ BR BKN002 BKN008 15/15 Q1014","updated":"2026-02-01T07:36:02Z"}
