{"icao":"LPHR","metar":"LPHR 060930Z 18010KT 160V230 9999 FEW025 BKN055 15/07 Q1030","updated":"2026-03-06T09:36:54Z"}
