{"icao":"LPMT","metar":"LPMT 151000Z 01004KT 340V040 CAVOK 20/13 Q1017","updated":"2025-10-15T10:19:47Z"}
