{"icao":"LPPD","metar":"LPPD 100700Z 19009KT 9999 FEW005 SCT012 BKN045 21/19 Q1022","updated":"2025-10-10T07:16:56Z"}
