{"icao":"KLAX","metar":"KLAX 250753Z VRB03KT 8SM CLR 15/13 A3010 RMK AO2 SLP192 T01500128 401940139","updated":"2025-11-25T08:27:17Z"}
