{"icao":"LPPR","metar":"LPPR 041230Z 27005KT CAVOK 22/11 Q1022","updated":"2026-04-04T12:53:14Z"}
