{"icao":"LPPD","metar":"LPPD 082130Z 01012KT 340V070 9999 BKN014 FEW016CB 15/13 Q1034","updated":"2026-04-08T21:39:32Z"}
