{"icao":"LPMT","metar":"LPMT 081200Z 22007KT 9999 FEW030 15/08 Q1016","updated":"2026-02-08T12:47:23Z"}
