{"icao":"LPMT","metar":"LPMT 121200Z 34007KT CAVOK 31/15 Q1018","updated":"2026-06-12T12:17:20Z"}
