{"icao":"LPMT","metar":"LPMT 152300Z 35005KT CAVOK 14/11 Q1023","updated":"2026-04-15T23:40:12Z"}
