{"icao":"KJFK","metar":"KJFK 172251Z 20007KT 7SM SCT250 03/01 A3009 RMK AO2 SLP190 T00330011 $","updated":"2026-02-17T23:27:10Z"}
