{"icao":"KLAX","metar":"KLAX 241253Z 00000KT 9SM FEW008 16/14 A3000 RMK AO2 SLP159 T01610144","updated":"2025-10-24T13:29:24Z"}
