{"icao":"LPFR","metar":"LPFR 142300Z 28005KT 240V320 CAVOK 11/07 Q1029","updated":"2026-02-14T23:22:42Z"}
