{"icao":"KJFK","metar":"KJFK 111551Z 01008KT 10SM FEW065 SCT120 BKN250 14/M03 A3013 RMK AO2 SLP201 T01441033 $","updated":"2026-05-11T16:31:58Z"}
