{"icao":"LPCS","metar":"LPCS 012100Z 36005KT 330V030 9999 FEW014 SCT035 17/15 Q1021","updated":"2025-11-01T21:13:50Z"}
