{"icao":"KJFK","metar":"KJFK 290351Z 23007KT 10SM FEW250 21/19 A3013 RMK AO2 SLP201 T02060189","updated":"2025-09-29T04:22:15Z"}
