{"icao":"LPPR","metar":"LPPR 261230Z 14009KT 9999 FEW036 10/03 Q1013","updated":"2025-12-26T12:39:23Z"}
