{"icao":"LPPD","metar":"LPPD 131500Z 22007KT 180V250 9999 FEW025 BKN045 24/19 Q1026","updated":"2025-09-13T15:13:58Z"}
