{"icao":"LPPT","metar":"LPPT 221230Z 06007G26KT 340V100 CAVOK 27/16 Q1017","updated":"2026-06-22T12:48:34Z"}
