{"icao":"LPFR","metar":"LPFR 151300Z 13007KT 090V150 CAVOK 28/17 Q1019","updated":"2025-09-15T13:26:21Z"}
