{"icao":"LPMA","metar":"LPMA 070700Z 35018KT 320V020 9999 FEW014 13/07 Q1020","updated":"2026-04-07T07:14:58Z"}
