{"icao":"KLAX","metar":"KLAX 011253Z 08006KT 10SM FEW012 OVC017 17/12 A2993 RMK AO2 SLP135 T01670122","updated":"2026-05-01T13:42:33Z"}
