{"icao":"KJFK","metar":"KJFK 191351Z 07008KT 10SM OVC030 03/M03 A3009 RMK AO2 SLP188 T00281033 $","updated":"2026-02-19T14:48:30Z"}
