{"icao":"LPPD","metar":"LPPD 150430Z 21014KT 9999 FEW020 BKN035 15/12 Q1030","updated":"2026-02-15T04:52:44Z"}
