{"icao":"LPBJ","metar":"LPBJ 221700Z 20013KT 2500 -RA BR SCT015 BKN020 11/10 Q1007","updated":"2026-01-22T17:27:32Z"}
