{"icao":"LPPD","metar":"LPPD 260400Z 16018G28KT 4000 -SHRA SCT007 BKN010 22/21 Q1006","updated":"2025-09-26T04:20:52Z"}
