{"icao":"LPLA","metar":"LPLA 212300Z VRB03KT 9999 OVC035 15/09 Q1033","updated":"2025-11-21T23:16:40Z"}
