{"icao":"LPBJ","metar":"LPBJ 021000Z 14017KT 6000 -RA FEW015 SCT040 13/12 Q1007","updated":"2026-01-02T10:20:19Z"}
