{"icao":"LPBJ","metar":"LPBJ 131700Z 29017KT 9999 FEW020CB BKN028 12/08 Q1009","updated":"2026-02-13T17:38:35Z"}
