{"icao":"LPCS","metar":"LPCS 281600Z 17013G32KT 140V200 2000 +SHRA BR FEW002 SCT010 BKN014 FEW018CB 18/18 Q1010","updated":"2025-10-28T16:24:24Z"}
