{"icao":"LPFR","metar":"LPFR 020700Z 03005KT 330V090 CAVOK 29/16 Q1015","updated":"2026-07-02T07:29:51Z"}
