{"icao":"LPAZ","metar":"LPAZ 121030Z 24018KT 5000 BR SCT002 BKN004 16/15 Q1018","updated":"2026-02-12T10:43:48Z"}
