{"icao":"LPPD","metar":"LPPD 031600Z 23006KT 200V260 9999 FEW018 25/20 Q1023","updated":"2025-10-03T16:20:40Z"}
