{"icao":"KLAX","metar":"KLAX 091853Z 25008KT 4SM HZ FEW002 FEW005 19/15 A3008 RMK AO2 SLP185 VIS SW-NW 2 T01890150 $","updated":"2025-11-09T19:12:38Z"}
