{"icao":"KORD","metar":"KORD 212251Z 21012G23KT 10SM BKN250 25/07 A2966 RMK AO2 SLP043 T02500072","updated":"2026-03-21T23:23:33Z"}
