{"icao":"KJFK","metar":"KJFK 192151Z 26017G25KT 10SM FEW044 SCT060 M01/M09 A3001 RMK AO2 SLP161 T10111089 $","updated":"2026-01-19T22:20:19Z"}
