{"icao":"LPPD","metar":"LPPD 102100Z 35004KT 320V020 9999 FEW018 FEW020TCU 21/19 Q1022","updated":"2025-10-10T21:14:29Z"}
