{"icao":"LPPD","metar":"LPPD 160800Z 06008KT 020V110 5000 -RA SCT012 FEW018TCU BKN030 19/18 Q1004","updated":"2025-10-16T08:25:36Z"}
