{"icao":"LPMT","metar":"LPMT 131900Z 32005KT 290V350 CAVOK 23/14 Q1015","updated":"2025-10-13T19:13:11Z"}
