{"icao":"KJFK","metar":"KJFK 020551Z 06006KT 10SM CLR 13/08 A3034 RMK AO2 SLP274 T01280078 10172 20128 53015","updated":"2025-10-02T06:26:09Z"}
