{"icao":"LPHR","metar":"LPHR 031430Z 07019KT 040V110 9999 SCT020 18/11 Q1022","updated":"2026-05-03T14:47:32Z"}
