{"icao":"LPCS","metar":"LPCS 031430Z 17007KT 120V200 CAVOK 24/06 Q1022","updated":"2026-04-03T14:40:24Z"}
