{"icao":"LPMR","metar":"LPMR 150900Z VRB02KT 6000 NSC 16/13 Q1017","updated":"2025-10-15T09:19:25Z"}
