{"icao":"LPPR","metar":"LPPR 012300Z 11014KT 9999 FEW036 12/08 Q1006","updated":"2026-01-01T23:18:53Z"}
