{"icao":"LPMA","metar":"LPMA 310430Z 34003KT 300V030 9999 FEW015 16/13 Q1017","updated":"2025-12-31T04:37:16Z"}
