{"icao":"LPBJ","metar":"LPBJ 270800Z 08005KT CAVOK 19/16 Q1014","updated":"2026-04-27T08:22:35Z"}
