{"icao":"LPBJ","metar":"LPBJ 221000Z 13012KT CAVOK 31/06 Q1020","updated":"2026-05-22T10:48:51Z"}
