{"icao":"LPOV","metar":"LPOV 181600Z 35007KT 310V020 9999 SCT005 BKN016 19/17 Q1016 RMK RH86 WHT METAR LPMR 181600Z 32010KT 9999 FEW020 21/15 Q1016 RMK WIND PK 32019/17 RH68 BLU METAR LPST 181600Z 31010KT CAVOK 24/16 Q1015 RMK WIND RWY32 30011KT PK 32016/12 RH64 FEW220 BLU METAR LPAR 181600Z 30009KT 260V330 CAVOK 31/13 Q1014 RMK RH33 FEW250 BLU METAR LPMT 181600Z 34008KT CAVOK 31/15 Q1013 RMK FEW220 BLU","updated":"2026-06-18T16:29:19Z"}
