{"icao":"LPHR","metar":"LPHR 242300Z 26014KT 9999 SCT006 BKN010 17/16 Q1018","updated":"2026-01-24T23:18:57Z"}
