{"icao":"LPPR","metar":"LPPR 022000Z 10010KT 070V130 9999 SCT045 15/09 Q1001","updated":"2026-01-02T20:21:07Z"}
