{"icao":"LPBJ","metar":"LPBJ 201400Z 28009KT 250V320 9999 SCT035 23/13 Q1015","updated":"2025-10-20T14:17:41Z"}
