{"icao":"LPBJ","metar":"LPBJ 112000Z 26017KT 5000 -DZ BR OVC006 15/15 Q1019","updated":"2026-02-11T20:37:28Z"}
