{"icao":"LPPR","metar":"LPPR 231700Z 02004KT 320V050 8000 -RA FEW018 SCT026 BKN036 15/13 Q1019","updated":"2025-10-23T17:15:46Z"}
