{"icao":"LPBJ","metar":"LPBJ 290800Z 25016KT 3000 -DZ BR OVC004 15/15 Q1010","updated":"2026-01-29T08:37:40Z"}
