{"icao":"LPAZ","metar":"LPAZ 102100Z 21026KT 9999 FEW010 BKN018 19/17 Q1018","updated":"2025-12-10T21:20:02Z"}
