{"icao":"LPBJ","metar":"LPBJ 131312Z 21012KT 9000 -SHRA FEW007 FEW020CB SCT022 13/11 Q1011","updated":"2026-01-13T13:39:57Z"}
