{"icao":"LPPT","metar":"LPPT 161500Z 34005KT 300V010 9999 FEW015 10/09 Q1013","updated":"2026-01-16T15:22:30Z"}
