{"icao":"KORD","metar":"KORD 211851Z 19008G17KT 10SM SCT250 27/18 A2991 RMK AO2 SLP122 T02670183 $","updated":"2025-09-21T19:12:31Z"}
