{"icao":"LPMA","metar":"LPMA 120500Z 01009KT 340V040 9999 BKN015 19/17 Q1004","updated":"2025-11-12T05:19:08Z"}
