{"icao":"KJFK","metar":"KJFK 091551Z 18012KT 10SM FEW020 SCT060 SCT150 BKN250 09/05 A3028 RMK AO2 SLP252 T00890050 $","updated":"2026-01-09T16:26:52Z"}
