{"icao":"LPPD","metar":"LPPD 211700Z 02016KT 350V060 9999 BKN016 FEW018CB 15/11 Q1013 WS R30","updated":"2026-03-21T17:24:01Z"}
