{"icao":"KLAX","metar":"KLAX 221415Z 25003KT 2 1/2SM BR OVC008 16/14 A2991 RMK AO2 VIS SW-W 1 3/4 T01610144","updated":"2026-03-22T14:27:26Z"}
