{"icao":"KLAX","metar":"KLAX 061053Z 00000KT 10SM FEW007 BKN190 OVC240 17/16 A2997 RMK AO2 SLP146 T01720156 $","updated":"2026-04-06T11:47:39Z"}
