{"icao":"LPOV","metar":"LPOV 091400Z 34013KT CAVOK 21/15 Q1020","updated":"2025-10-09T14:17:35Z"}
