{"icao":"LPMT","metar":"LPMT 150800Z 20009KT 160V220 7000 -RA SCT026 SCT038 16/14 Q1006","updated":"2025-11-15T08:21:12Z"}
