{"icao":"KORD","metar":"KORD 230251Z 17006KT 10SM FEW050 FEW250 23/17 A2983 RMK AO2 SLP097 FRQ LTGIC DSNT N CB DSNT N T02330167 53004","updated":"2025-09-23T02:56:34Z"}
