{"icao":"LPMT","metar":"LPMT 230000Z VRB03KT CAVOK 21/15 Q1019","updated":"2026-05-23T00:05:20Z"}
