{"icao":"LPMA","metar":"LPMA 111900Z 36009KT 320V030 9999 FEW015 22/15 Q1018","updated":"2025-10-11T19:12:30Z"}
