{"icao":"LPST","metar":"LPST 151100Z 17004KT 110V210 CAVOK 27/10 Q1017","updated":"2025-10-15T11:15:05Z"}
