{"icao":"LPLA","metar":"LPLA 011100Z 07007KT 020V110 9999 FEW015 BKN025 14/11 Q1032","updated":"2026-04-01T11:52:24Z"}
