{"icao":"LPAZ","metar":"LPAZ 022330Z 07009KT 040V100 9999 FEW018 15/11 Q1020","updated":"2026-05-02T23:41:01Z"}
