{"icao":"KLAX","metar":"KLAX 170103Z 20010G18KT 10SM SCT025 SCT031 OVC041 16/12 A2997 RMK AO2 T01610122 $","updated":"2025-11-17T01:24:59Z"}
