{"icao":"LPPT","metar":"LPPT 111100Z 34018G31KT 320V020 9999 BKN014 14/11 Q1016","updated":"2026-04-11T11:28:48Z"}
