{"icao":"LPMR","metar":"LPMR 161900Z 33014KT 9999 FEW010 19/15 Q1018","updated":"2026-06-16T19:33:22Z"}
