{"icao":"LPBJ","metar":"LPBJ 280405Z 21023KT 3000 +RA BR SCT009 BKN015 BKN025 10/10 Q0997","updated":"2026-01-28T04:42:33Z"}
