{"icao":"LPAZ","metar":"LPAZ 011700Z 24007KT 9999 BKN006 24/21 Q1022","updated":"2025-10-01T17:15:45Z"}
