{"icao":"LPPT","metar":"LPPT 092100Z 25005KT CAVOK 14/12 Q1020","updated":"2025-11-09T21:14:51Z"}
