{"icao":"LPPD","metar":"LPPD 221900Z 11005KT 9999 FEW018 16/12 Q1030","updated":"2025-11-22T19:13:44Z"}
