{"icao":"KLAX","metar":"KLAX 082153Z 26008KT 10SM FEW200 26/06 A3014 RMK AO2 SLP206 T02560061 $","updated":"2026-02-08T22:25:41Z"}
