{"icao":"LPFR","metar":"LPFR 280900Z 14012KT 8000 -SHRA SCT018 FEW020CB BKN030 10/08 Q1009 RESHRA","updated":"2025-12-28T09:18:51Z"}
