{"icao":"LPPT","metar":"LPPT 010600Z 20013KT 7000 RADZ FEW006 BKN008 FEW016CB 19/18 Q1013","updated":"2025-11-01T06:24:24Z"}
