{"icao":"KORD","metar":"KORD 050551Z 20010G19KT 10SM SCT250 13/08 A2986 RMK AO2 SLP110 T01280078 10144 20122 401670044 58029 $","updated":"2025-11-05T06:28:05Z"}
