{"icao":"LPPR","metar":"LPPR 282330Z 10009KT CAVOK 20/11 Q1007","updated":"2026-04-28T23:57:52Z"}
