{"icao":"LPCS","metar":"LPCS 041300Z 02013KT 350V050 9999 FEW025 18/10 Q1002","updated":"2026-01-04T13:28:33Z"}
