{"icao":"KORD","metar":"KORD 071051Z 02006KT 3/4SM R10L/P6000FT -SN BR VV009 M02/M02 A2998 RMK AO2 SLP160 SNINCR 1/8 P0008 T10171022","updated":"2025-12-07T11:14:25Z"}
