{"icao":"LPFR","metar":"LPFR 231500Z 29019KT 4000 SHRA FEW022 FEW024CB BKN028 11/09 Q1005","updated":"2026-01-23T15:24:13Z"}
