{"icao":"LPMR","metar":"LPMR 311300Z 19020KT 9000 SCT009 BKN020 OVC035 21/18 Q1009","updated":"2025-10-31T13:28:28Z"}
