{"icao":"LPMR","metar":"LPMR 242000Z 35009KT 9999 FEW009 BKN020 BKN032 14/12 Q1017","updated":"2025-11-24T20:21:42Z"}
