{"icao":"KJFK","metar":"KJFK 051451Z 19003KT 5SM BR BKN006 OVC110 12/10 A2984 RMK AO2 SLP103 T01170100 56020","updated":"2026-04-05T15:31:42Z"}
