{"icao":"LPFR","metar":"LPFR 232200Z 35004KT CAVOK 20/02 Q1016","updated":"2025-09-23T22:15:45Z"}
