{"icao":"KORD","metar":"KORD 031451Z 29009KT 10SM FEW075 09/02 A3012 RMK AO2 SLP201 T00890022 51026 $","updated":"2025-11-03T15:19:45Z"}
