{"icao":"KJFK","metar":"KJFK 210951Z 25007KT 10SM BKN100 BKN200 BKN250 03/M01 A2997 RMK AO2 SLP149 T00281006 $","updated":"2025-12-21T10:19:06Z"}
