{"icao":"LPPR","metar":"LPPR 011930Z 35007KT CAVOK 31/18 Q1017","updated":"2026-07-01T19:51:52Z"}
