{"icao":"KJFK","metar":"KJFK 180251Z 07008KT 10SM -RA FEW011 BKN020 OVC036 19/17 A3002 RMK AO2 RAE29B45 SLP165 P0000 60000 T01890172 58003 $","updated":"2025-09-18T02:56:20Z"}
