{"icao":"LPPT","metar":"LPPT 040100Z VRB01KT CAVOK 13/12 Q1020","updated":"2025-11-04T01:23:08Z"}
