{"icao":"LPPS","metar":"LPPS 241830Z 26011KT 9000 -DZ FEW007 SCT012 BKN030 18/15 Q1016","updated":"2026-02-24T19:00:42Z"}
