{"icao":"LPPS","metar":"LPPS 161700Z 35018KT 9999 SCT015 18/12 Q1026","updated":"2025-12-16T17:22:39Z"}
