{"icao":"LPPR","metar":"LPPR 201830Z 21009KT 8000 -RA BKN012 BKN018 13/12 Q1013","updated":"2026-01-20T18:35:34Z"}
