{"icao":"LPFR","metar":"LPFR 102330Z 24012KT 3200 -DZ BR BKN002 15/15 Q1021","updated":"2026-02-10T23:36:35Z"}
