{"icao":"LPPR","metar":"LPPR 302100Z 31017G34KT 270V340 8000 -SHRA FEW020CB BKN038 10/07 Q1009 RESHRA WS R35","updated":"2026-01-30T21:26:41Z"}
