{"icao":"LPFR","metar":"LPFR 142300Z 26003KT CAVOK 19/16 Q1016","updated":"2025-10-14T23:15:48Z"}
