{"icao":"LPFR","metar":"LPFR 031900Z 29005KT CAVOK 23/17 Q1020","updated":"2025-10-03T19:13:39Z"}
