{"icao":"LPFR","metar":"LPFR 181500Z 17005KT 9999 FEW030 19/11 Q1017","updated":"2025-11-18T15:20:53Z"}
