{"icao":"KJFK","metar":"KJFK 070851Z 27011KT 5SM -SN FEW016 BKN044 OVC090 M03/M06 A2954 RMK AO2 SLP003 P0000 60000 T10281056 56013 $","updated":"2026-02-07T09:30:03Z"}
