{"icao":"LPPT","metar":"LPPT 271400Z 20020KT 2000 RADZ FEW006 BKN010 FEW018TCU 19/18 Q1016","updated":"2025-09-27T14:14:15Z"}
