{"icao":"LPBJ","metar":"LPBJ 070900Z 17017KT 3000 -RADZ BR BKN006 FEW018CB OVC025 10/10 Q1007 RERADZ","updated":"2026-02-07T09:29:34Z"}
