{"icao":"LPPS","metar":"LPPS 050400Z 33007KT 9999 SCT010 BKN030 14/13 Q1023","updated":"2026-03-05T04:19:02Z"}
