{"icao":"LPCS","metar":"LPCS 271400Z 12006KT 090V190 9999 FEW022 23/16 Q1019","updated":"2025-10-27T14:19:03Z"}
