{"icao":"KORD","metar":"KORD 311152Z 31011KT 10SM OVC016 M02/M04 A2991 RMK 4/002 T10171044 ","updated":"2025-12-31T12:40:50Z"}
