{"icao":"LPPR","metar":"LPPR 060400Z 10010KT CAVOK 19/06 Q1019","updated":"2025-10-06T04:20:49Z"}
