{"icao":"LPBJ","metar":"LPBJ 131900Z 30007KT CAVOK 24/11 Q1015","updated":"2025-10-13T19:13:12Z"}
