{"icao":"KLAX","metar":"KLAX 292053Z VRB03KT 10SM FEW180 26/M01 A3014 RMK AO2 SLP205 T02611011 58024 $","updated":"2026-01-29T21:26:04Z"}
