{"icao":"KLAX","metar":"KLAX 130253Z 17004KT 10SM CLR 19/14 A2968 RMK AO2 SLP051 T01890144 53001 $","updated":"2025-10-13T03:08:38Z"}
