{"icao":"KORD","metar":"KORD 171951Z 29012G19KT 10SM FEW040 BKN250 M06/M18 A3018 RMK AO2 SLP230 T10561178","updated":"2026-03-17T20:37:31Z"}
