{"icao":"LPST","metar":"LPST 040800Z 26003KT 170V310 1500 -RA BR SCT002 BKN010 12/11 Q0996","updated":"2026-02-04T08:39:32Z"}
