{"icao":"LPMA","metar":"LPMA 210800Z 03012KT 010V070 9999 SCT014 23/19 Q1021","updated":"2025-09-21T08:19:44Z"}
