{"icao":"KJFK","metar":"KJFK 060451Z 01005KT 10SM SCT250 M04/M11 A2990 RMK AO2 SLP126 4/005 T10391111 400001072 PNO $","updated":"2026-02-06T05:52:16Z"}
