{"icao":"LPOV","metar":"LPOV 242100Z 34003KT CAVOK 13/10 Q1022","updated":"2026-03-24T22:29:52Z"}
