{"icao":"LPLA","metar":"LPLA 141800Z VRB05G15KT 9999 FEW025 17/09 Q1028","updated":"2026-02-14T18:33:13Z"}
