{"icao":"KLAX","metar":"KLAX 071053Z 09005KT 10SM FEW070 FEW160 BKN250 11/09 A2997 RMK AO2 SLP145 T01110094 $","updated":"2026-01-07T11:19:29Z"}
