{"icao":"LPHR","metar":"LPHR 252300Z 30016KT 7000 -RA SCT003 BKN007 BKN011 14/13 Q1008","updated":"2026-01-25T23:18:57Z"}
