{"icao":"LPBJ","metar":"LPBJ 170500Z 30001KT CAVOK 12/11 Q1018","updated":"2026-04-17T05:26:33Z"}
