{"icao":"LPFL","metar":"LPFL 080730Z 21011KT 170V280 9999 BKN014 19/16 Q1005","updated":"2026-02-08T07:37:40Z"}
