{"icao":"LPFR","metar":"LPFR 031930Z 29008KT CAVOK 19/04 Q1021","updated":"2026-04-03T19:37:26Z"}
