{"icao":"KJFK","metar":"KJFK 271051Z 28010KT 10SM FEW045 M09/M17 A3012 RMK AO2 SLP198 T10891172 $","updated":"2026-01-27T11:21:52Z"}
