{"icao":"LPPT","metar":"LPPT 112000Z 17012KT 9999 FEW012 18/14 Q1009","updated":"2025-11-11T20:19:59Z"}
