{"icao":"LPMR","metar":"LPMR 290400Z VRB02KT 4000 BR SCT025 BKN040 10/10 Q1020","updated":"2025-11-29T04:21:45Z"}
