{"icao":"LPPS","metar":"LPPS 252100Z 20005KT 180V240 9999 FEW014 22/20 Q1015","updated":"2025-10-25T21:14:53Z"}
