{"icao":"KORD","metar":"KORD 110451Z 32012KT 10SM OVC029 M03/M09 A2994 RMK AO2 SLP146 T10281089","updated":"2025-12-11T05:21:40Z"}
