{"icao":"LPMT","metar":"LPMT 130700Z 11005KT CAVOK 21/17 Q1018","updated":"2026-06-13T07:44:44Z"}
