{"icao":"LPAR","metar":"LPAR 061600Z 20015KT 9999 BKN035 18/15 Q1016","updated":"2026-04-07T07:14:52Z"}
