{"icao":"KJFK","metar":"KJFK 232151Z 27011G22KT 10SM SCT055 SCT070 13/02 A2996 RMK AO2 SLP146 T01330017","updated":"2025-10-23T22:16:27Z"}
