{"icao":"LPMA","metar":"LPMA 171300Z 34013KT 270V050 9999 SCT015 18/09 Q1022","updated":"2026-01-17T13:27:51Z"}
