{"icao":"LPLA","metar":"LPLA 232000Z 35012KT 9999 FEW025 SCT035 20/12 Q1024","updated":"2025-09-23T20:18:57Z"}
