{"icao":"LPMA","metar":"LPMA 030100Z 36008KT 330V040 9999 SCT015 21/17 Q1023","updated":"2025-10-03T01:16:33Z"}
