{"icao":"KJFK","metar":"KJFK 251551Z VRB06KT 10SM FEW060 SCT250 14/M01 A3039 RMK AO2 SLP289 T01441006","updated":"2025-10-25T16:20:15Z"}
