{"icao":"LPOV","metar":"LPOV 170800Z 14005KT 110V170 0600 FG OVC002 13/12 Q1022","updated":"2025-09-17T08:22:40Z"}
