{"icao":"LPPS","metar":"LPPS 260130Z 02015KT 9999 SCT014 15/10 Q1022","updated":"2026-02-26T01:58:40Z"}
