{"icao":"KLAX","metar":"KLAX 111353Z 00000KT 10SM FEW014 FEW250 12/10 A3022 RMK AO2 SLP233 T01220100 $","updated":"2026-03-11T14:07:27Z"}
