{"icao":"LPBJ","metar":"LPBJ 211800Z 10004KT CAVOK 19/10 Q1027","updated":"2026-02-21T18:33:17Z"}
