{"icao":"LPCS","metar":"LPCS 091300Z 17005KT 130V250 9999 FEW018 17/11 Q1021","updated":"2025-11-09T13:22:29Z"}
