{"icao":"LPAR","metar":"LPAR 181100Z VRB02KT 8000 FEW010 BKN015 11/11 Q1022","updated":"2025-12-18T11:18:19Z"}
