{"icao":"LPLA","metar":"LPLA 091300Z 22027G42KT 4000 -DZ BR SCT006 BKN010 19/17 Q1007","updated":"2026-02-09T13:06:31Z"}
