{"icao":"LPPT","metar":"LPPT 211300Z 01018KT 330V030 9999 FEW045 22/05 Q1021","updated":"2025-09-21T13:20:30Z"}
