{"icao":"LPHR","metar":"LPHR 031030Z 25026KT 9999 VCSH FEW010 BKN013 18/16 Q1004","updated":"2026-02-03T10:38:25Z"}
