{"icao":"KORD","metar":"KORD 150851Z 07008KT 10SM BKN110 03/M03 A2973 RMK AO2 LTG DSNT W AND NW SLP074 60000 T00281028 58047 $","updated":"2026-03-15T09:33:07Z"}
