{"icao":"LPMA","metar":"LPMA 090700Z 36007KT 9999 BKN015 15/11 Q1033","updated":"2026-01-09T07:24:57Z"}
