{"icao":"LPPT","metar":"LPPT 031700Z 35005KT 300V060 CAVOK 24/12 Q1021","updated":"2026-04-03T17:33:07Z"}
