{"icao":"LPFL","metar":"LPFL 280900Z 24003KT 220V280 9999 BKN035 15/07 Q1028","updated":"2025-11-28T09:20:02Z"}
