{"icao":"LPOV","metar":"LPOV 221400Z 29004KT 220V330 CAVOK 14/07 Q1029","updated":"2025-11-22T14:15:21Z"}
