{"icao":"LPPS","metar":"LPPS 140300Z 03019G29KT 9999 SCT014 18/13 Q1017","updated":"2025-12-14T03:28:00Z"}
