{"icao":"KORD","metar":"KORD 252051Z 29006KT 10SM BKN060 24/11 A2990 RMK AO2 SLP121 T02390106 56015","updated":"2025-09-25T21:15:06Z"}
