{"icao":"LPMA","metar":"LPMA 041800Z 03008KT 350V050 9999 FEW015 23/16 Q1026","updated":"2025-10-04T18:21:44Z"}
