{"icao":"LPOV","metar":"LPOV 311700Z 20011KT 7000 -RA FEW008 BKN012 19/18 Q1010","updated":"2025-10-31T17:16:51Z"}
