{"icao":"KLAX","metar":"KLAX 172253Z 25012KT 10SM SCT017 21/14 A2993 RMK AO2 SLP133 T02060139 $","updated":"2026-06-17T23:40:00Z"}
