{"icao":"KORD","metar":"KORD 050751Z 26014G22KT 10SM FEW035 BKN055 04/M03 A2997 RMK AO2 SLP152 T00441028 $","updated":"2026-04-05T08:41:34Z"}
