{"icao":"LPPD","metar":"LPPD 100930Z 23012KT 6000 FEW003 BKN006 16/15 Q1013","updated":"2026-02-10T09:59:37Z"}
