{"icao":"LPBJ","metar":"LPBJ 290900Z 10002KT 9999 BCFG FEW030 07/07 Q1019","updated":"2025-12-29T09:28:50Z"}
