{"icao":"KLAX","metar":"KLAX 180705Z 22018G35KT 9SM FEW018 BKN030 BKN050 OVC200 13/11 A2994 RMK AO2 PK WND 23035/0659 SHRA NE AND SE T01330106","updated":"2026-02-18T07:12:52Z"}
