{"icao":"LPPD","metar":"LPPD 220500Z 22012KT 9000 FEW004 SCT007 BKN020 22/21 Q1015","updated":"2025-10-22T05:17:59Z"}
