{"icao":"KJFK","metar":"KJFK 080751Z 31012KT 10SM SCT031 SCT250 06/01 A3007 RMK AO2 SLP183 T00610006 $","updated":"2026-01-08T08:29:28Z"}
