{"icao":"KJFK","metar":"KJFK 150751Z 36004KT 10SM FEW250 06/M02 A2991 RMK AO2 SLP128 T00561022","updated":"2025-11-15T08:21:33Z"}
