{"icao":"KLAX","metar":"KLAX 280653Z 27010KT 10SM BKN016 18/14 A2993 RMK AO2 SLP131 T01780139","updated":"2026-06-28T07:49:43Z"}
