{"icao":"KORD","metar":"KORD 261713Z 01009KT 10SM FEW005 FEW030 BKN110 OVC140 18/14 A3009 RMK AO2 T01780139 $","updated":"2026-06-26T17:45:46Z"}
