{"icao":"KJFK","metar":"KJFK 161051Z 00000KT 10SM FEW120 FEW250 13/11 A3012 RMK AO2 SLP197 T01330111","updated":"2026-05-16T11:49:37Z"}
