{"icao":"LPAZ","metar":"LPAZ 081230Z 21028G38KT 8000 SCT010 BKN015 21/19 Q1000","updated":"2025-12-08T12:40:13Z"}
