{"icao":"KJFK","metar":"KJFK 081951Z 31021G28KT 10SM CLR M08/M20 A3014 RMK AO2 PK WND 31030/1921 SLP205 T10831200 $","updated":"2026-02-08T20:26:42Z"}
