{"icao":"LPMR","metar":"LPMR 080200Z 20001KT 3000 BR FEW003 13/13 Q1023","updated":"2025-10-08T02:56:15Z"}
