{"icao":"LPMT","metar":"LPMT 262000Z 34006KT CAVOK 16/10 Q1014","updated":"2026-03-26T20:34:32Z"}
