{"icao":"LPLA","metar":"LPLA 230400Z 21011KT 9999 FSCT016 22/18 Q1013","updated":"2025-10-23T04:20:54Z"}
