{"icao":"KJFK","metar":"KJFK 060151Z 36009KT 10SM FEW250 M03/M11 A2995 RMK AO2 SLP140 T10281111 PNO $","updated":"2026-02-06T01:58:48Z"}
