{"icao":"LPFR","metar":"LPFR 140630Z 30009KT 9999 SCT020 BKN026 14/11 Q1018","updated":"2026-03-14T06:43:52Z"}
