{"icao":"LPLA","metar":"LPLA 111600Z 02004KT 360V090 9999 FEW022 BKN025 21/17 Q1020","updated":"2025-10-11T16:18:44Z"}
