{"icao":"KLAX","metar":"KLAX 091953Z VRB03KT 10SM FEW200 27/02 A3002 RMK AO2 SLP165 T02670017 $","updated":"2025-12-09T20:19:50Z"}
