{"icao":"LPPD","metar":"LPPD 190100Z 25007KT 1200 R30/P2000 -DZ BR OVC002 22/22 Q1017","updated":"2025-10-19T01:28:44Z"}
