{"icao":"LPPT","metar":"LPPT 010830Z 04011KT 360V070 CAVOK 16/04 Q1024","updated":"2026-04-01T09:02:14Z"}
