{"icao":"LPBJ","metar":"LPBJ 032300Z 30003KT CAVOK 16/07 Q1023","updated":"2026-04-03T23:32:14Z"}
