{"icao":"LPAZ","metar":"LPAZ 142000Z 34012KT 9999 FEW022 15/10 Q1008","updated":"2025-11-14T20:20:30Z"}
