{"icao":"LPAZ","metar":"LPAZ 100930Z 22018KT 0450 R18/0600 FG VV002 17/17 Q1015","updated":"2026-02-10T09:59:37Z"}
