{"icao":"KJFK","metar":"KJFK 151328Z 26014G21KT 10SM BKN024 BKN060 BKN100 06/02 A2942 RMK AO2 T00610022 $","updated":"2026-01-15T13:38:47Z"}
