{"icao":"LPAZ","metar":"LPAZ 281530Z 20013KT 9999 FEW020 21/15 Q1022","updated":"2026-05-28T15:50:18Z"}
