{"icao":"KLAX","metar":"KLAX 092153Z 18006KT 10SM FEW190 17/M02 A3030 RMK AO2 SLP260 T01671022 $","updated":"2026-01-09T22:20:18Z"}
