{"icao":"LPOV","metar":"LPOV 120200Z 15002KT CAVOK 13/12 Q1017","updated":"2025-10-12T03:00:55Z"}
