{"icao":"LPBJ","metar":"LPBJ 290800Z 04009KT CAVOK 11/01 Q1027","updated":"2026-03-29T08:38:09Z"}
