{"icao":"KLAX","metar":"KLAX 171053Z 16004KT 9SM OVC006 17/15 A2991 RMK AO2 SLP127 T01670150 $","updated":"2026-06-17T11:45:53Z"}
