{"icao":"LPPS","metar":"LPPS 151500Z 07015KT 030V090 9999 SCT015 SCT030 25/17 Q1022","updated":"2025-09-15T15:18:59Z"}
