{"icao":"LPPR","metar":"LPPR 250500Z 02003KT 350V050 CAVOK 07/06 Q1021","updated":"2025-11-25T05:18:49Z"}
