{"icao":"LPHR","metar":"LPHR 051000Z 26013KT 9000 FEW004 BKN008 BKN011 18/18 Q1018 RERA","updated":"2025-12-05T10:20:54Z"}
