{"icao":"LPMR","metar":"LPMR 112200Z 17006KT 7000 FEW004 BKN006 OVC015 13/12 Q1024","updated":"2026-01-11T22:18:23Z"}
