{"icao":"KORD","metar":"KORD 130351Z 26004KT 10SM BKN300 07/M02 A3004 RMK AO2 SLP176 T00671022 $","updated":"2025-11-13T04:24:00Z"}
