{"icao":"LPAR","metar":"LPAR 181400Z 06006KT 020V110 CAVOK 19/09 Q1018","updated":"2025-11-18T14:18:50Z"}
