{"icao":"LPMT","metar":"LPMT 260900Z 04003KT CAVOK 10/07 Q1026","updated":"2025-11-26T09:21:48Z"}
