{"icao":"KLAX","metar":"KLAX 131653Z 00000KT 5SM HZ SCT055 BKN075 19/15 A3008 RMK AO2 SLP183 T01890150 $","updated":"2025-11-13T17:17:44Z"}
