{"icao":"LPBJ","metar":"LPBJ 181600Z 32009KT 290V350 CAVOK 35/13 Q1013","updated":"2026-06-18T16:29:21Z"}
