{"icao":"LPPS","metar":"LPPS 310500Z 23003KT 200V270 9999 SCT010 16/15 Q1017","updated":"2025-12-31T05:23:50Z"}
