{"icao":"LPHR","metar":"LPHR 011000Z 01013KT 320V060 9999 SCT018 15/09 Q1008","updated":"2026-01-01T10:21:27Z"}
