{"icao":"LPMT","metar":"LPMT 121800Z 21006KT 170V250 9999 BKN020 BKN028 15/13 Q1016","updated":"2026-02-12T19:08:22Z"}
