{"icao":"LPMR","metar":"LPMR 271700Z 09003KT 060V120 9999 FEW045 24/11 Q1019","updated":"2025-10-27T17:15:42Z"}
