{"icao":"KJFK","metar":"KJFK 092217Z 17010KT 10SM SCT006 BKN029 OVC043 07/06 A3009 RMK AO2 RAE2159 P0000 T00720061 $","updated":"2026-01-09T22:20:18Z"}
