{"icao":"KJFK","metar":"KJFK 031051Z 28006KT 10SM FEW250 M06/M12 A3015 RMK AO2 SLP209 T10611122 PNO $","updated":"2026-02-03T11:33:21Z"}
