{"icao":"LPPD","metar":"LPPD 170130Z 32014G24KT 280V350 9999 FEW010 BKN040 13/10 Q1016","updated":"2026-03-17T02:01:36Z"}
