{"icao":"LPPS","metar":"LPPS 061630Z 29017KT 9999 FEW015 17/09 Q1019","updated":"2026-02-06T16:42:15Z"}
