{"icao":"LPMT","metar":"LPMT 230100Z 28007KT 9999 FEW014 SCT032 13/07 Q1005","updated":"2026-01-23T01:41:15Z"}
