{"icao":"LPAZ","metar":"LPAZ 280430Z 13003KT 9999 FEW029 09/07 Q1033","updated":"2026-02-28T04:54:42Z"}
