{"icao":"KJFK","metar":"KJFK 010751Z 23014KT 10SM FEW090 OVC110 01/M05 A2961 RMK AO2 SLP026 T00111050 $","updated":"2026-01-01T08:28:10Z"}
