{"icao":"LPOV","metar":"LPOV 021900Z 06003KT 030V090 CAVOK 14/12 Q1025","updated":"2025-11-02T19:12:29Z"}
