{"icao":"KORD","metar":"KORD 172051Z 25012G25KT 10SM BKN039 M09/M17 A3000 RMK AO2 PK WND 24028/1957 SLP172 VCSH W-NE 60000 T10891172 53006 $","updated":"2026-01-17T21:17:19Z"}
