{"icao":"LPST","metar":"LPST 211700Z 36009KT 330V030 CAVOK 13/03 Q1027","updated":"2025-11-23T09:17:31Z"}
