{"icao":"LPPR","metar":"LPPR 190700Z 12008KT 090V150 CAVOK 06/05 Q1019","updated":"2026-01-19T07:27:48Z"}
