{"icao":"LPMA","metar":"LPMA 011900Z 26005KT 160V330 9999 FEW013 16/12 Q1001","updated":"2026-01-01T19:16:42Z"}
