{"icao":"KJFK","metar":"KJFK 190751Z 11005KT 3/4SM R04R/P6000FT -DZ BR OVC003 09/08 A2986 RMK DZB48 SLP111 P0000 T00890083 ","updated":"2026-04-19T08:53:11Z"}
