{"icao":"LPPS","metar":"LPPS 271100Z 07013KT 9999 FEW015 19/11 Q1023","updated":"2025-11-27T11:17:03Z"}
