{"icao":"LPLA","metar":"LPLA 141800Z 32017KT 9999 SCT030 16/09 Q1008","updated":"2025-11-14T18:26:35Z"}
