{"icao":"LPAZ","metar":"LPAZ 201100Z 06015KT 030V100 9999 SCT026 17/11 Q1028","updated":"2025-11-20T11:16:57Z"}
