{"icao":"LPOV","metar":"LPOV 060100Z VRB02KT CAVOK 11/10 Q1019","updated":"2025-10-06T03:00:29Z"}
