{"icao":"LPMT","metar":"LPMT 210500Z 07003KT CAVOK 07/07 Q1028","updated":"2026-02-21T05:40:13Z"}
