{"icao":"LPFR","metar":"LPFR 030100Z 18018KT 9999 FEW018 SCT035 16/14 Q1000","updated":"2026-01-03T01:26:15Z"}
