{"icao":"LPAZ","metar":"LPAZ 112200Z 06004KT 9999 FEW023 BKN044 12/07 Q1033","updated":"2026-04-11T22:30:59Z"}
