{"icao":"LPFL","metar":"LPFL 280800Z 24015G31KT 160V330 9999 FEW008 BKN012 19/16 Q1000","updated":"2026-01-28T08:30:43Z"}
