{"icao":"LPHR","metar":"LPHR 191830Z VRB15G30KT 9999 VCSH FEW010 BKN075 16/09 Q1016","updated":"2026-04-19T18:49:55Z"}
