{"icao":"LPFL","metar":"LPFL 160900Z VRB05KT 9999 FEW012 SCT015 15/12 Q1016","updated":"2026-04-16T09:17:58Z"}
