{"icao":"LPAR","metar":"LPAR 281600Z 26012KT 230V300 9999 SCT020 16/11 Q1005","updated":"2026-01-28T16:35:37Z"}
