{"icao":"KJFK","metar":"KJFK 021851Z 07006KT 10SM OVC012 07/04 A3046 RMK AO2 SLP314 T00670039","updated":"2026-04-02T18:55:23Z"}
