{"icao":"LPMT","metar":"LPMT 310500Z 18009KT 9999 FEW030 19/17 Q1012","updated":"2025-10-31T05:18:53Z"}
