{"icao":"LPOV","metar":"LPOV 080800Z 17005KT 9999 SCT020 06/05 Q1013","updated":"2026-02-08T08:31:21Z"}
