{"icao":"LPPT","metar":"LPPT 071430Z 32012KT 280V340 CAVOK 25/14 Q1020","updated":"2026-06-07T14:50:32Z"}
