{"icao":"LPMR","metar":"LPMR 190100Z 17002KT 8000 FEW010 04/04 Q1018","updated":"2026-01-19T01:46:28Z"}
