{"icao":"LPPS","metar":"LPPS 062100Z 05010KT 020V100 9999 SCT015 14/07 Q1030","updated":"2026-01-06T21:20:03Z"}
