{"icao":"LPAR","metar":"LPAR 281500Z 31011KT 280V350 CAVOK 31/15 Q1018","updated":"2026-05-28T15:50:16Z"}
