{"icao":"LPFL","metar":"LPFL 081400Z VRB04KT 9999 -DZ SCT005 BKN010 16/14 Q1029","updated":"2026-01-08T14:24:03Z"}
