{"icao":"LPPR","metar":"LPPR 220100Z 21008KT 6000 BKN002 BKN012 18/18 Q1014","updated":"2025-10-22T01:23:23Z"}
