{"icao":"LPMR","metar":"LPMR 140400Z 16008KT 9999 SCT020 14/12 Q1001","updated":"2025-11-14T04:21:46Z"}
