{"icao":"KJFK","metar":"KJFK 210651Z 05005KT 10SM SCT250 14/11 A3031 RMK AO2 SLP262 T01390111 $","updated":"2025-09-21T07:14:12Z"}
