{"icao":"KLAX","metar":"KLAX 230753Z 25004KT 7SM OVC007 19/18 A2983 RMK AO2 SLP100 T01940178 402440183 $","updated":"2025-09-23T08:22:52Z"}
