{"icao":"KJFK","metar":"KJFK 152151Z 19003KT 10SM FEW070 BKN250 21/12 A2985 RMK AO2 SLP109 T02060122","updated":"2026-04-15T22:40:06Z"}
