{"icao":"KLAX","metar":"KLAX 130053Z 23007KT 9SM CLR 21/11 A2968 RMK AO2 SLP048 T02060111 $","updated":"2025-10-13T01:23:47Z"}
