{"icao":"LPPR","metar":"LPPR 141700Z 25006KT 210V310 9999 FEW009 SCT013 16/13 Q1023","updated":"2026-04-14T17:05:05Z"}
