{"icao":"KORD","metar":"KORD 231851Z 18011G22KT 10SM SCT055 BKN250 26/13 A2982 RMK AO2 SLP094 T02610128","updated":"2026-04-23T19:06:17Z"}
