{"icao":"LPHR","metar":"LPHR 032000Z 35006KT 300V020 9000 -SHRA FEW005 SCT011 BKN025 15/12 Q1016","updated":"2026-01-03T20:20:56Z"}
