{"icao":"KORD","metar":"KORD 211251Z 00000KT 6SM BR FEW250 OVC300 06/04 A3005 RMK AO2 SLP178 T00560044","updated":"2025-11-21T13:27:45Z"}
