{"icao":"LPMT","metar":"LPMT 080400Z 12003KT 9999 SCT025 07/07 Q1031","updated":"2026-01-08T04:38:16Z"}
