{"icao":"LPAR","metar":"LPAR 151300Z 22014KT 8000 -RA FEW015 BKN035 13/10 Q1017","updated":"2026-01-15T13:38:32Z"}
