{"icao":"LPMT","metar":"LPMT 270100Z 20018G29KT 170V230 6000 RADZ SCT010 BKN018 15/14 Q1002","updated":"2026-01-27T01:47:43Z"}
