{"icao":"LPPD","metar":"LPPD 212230Z 22006G16KT 200V340 4000 -SHRA BR SCT006 BKN012 16/15 Q1017","updated":"2026-05-21T23:02:07Z"}
