{"icao":"KORD","metar":"KORD 230651Z 30009KT 10SM SCT039 07/02 A2997 RMK AO2 SLP152 T00670017","updated":"2025-10-23T07:18:43Z"}
