{"icao":"LPPR","metar":"LPPR 031300Z 28004KT 260V330 9000 FEW006 18/14 Q1024","updated":"2025-10-03T13:24:24Z"}
