{"icao":"KJFK","metar":"KJFK 122151Z 31016G26KT 10SM SCT050 BKN250 01/M09 A2998 RMK AO2 PK WND 30028/2103 SLP153 T00111089 $","updated":"2026-02-12T22:31:45Z"}
