{"icao":"LPBJ","metar":"LPBJ 151700Z 25007KT 9999 FEW024 SCT048 17/13 Q1009","updated":"2025-11-15T17:13:46Z"}
