{"icao":"KJFK","metar":"KJFK 031851Z 18008KT 10SM BKN011 OVC019 10/07 A3022 RMK AO2 SLP231 T01000072","updated":"2026-04-03T19:37:43Z"}
