{"icao":"LPMT","metar":"LPMT 022300Z 35012KT 9999 SCT020 17/12 Q1022","updated":"2026-06-02T23:43:47Z"}
