{"icao":"KJFK","metar":"KJFK 081351Z 33018G26KT 10SM FEW030 FEW250 M14/M24 A3017 RMK AO2 PK WND 34029/1300 SLP217 T11441239 $","updated":"2026-02-08T14:26:33Z"}
