{"icao":"LPPR","metar":"LPPR 311000Z 28005KT 240V320 9000 3500W BCFG FEW001 20/16 Q1022","updated":"2026-05-31T10:14:06Z"}
