{"icao":"LPPR","metar":"LPPR 141700Z 32013KT 5000 -DZRA BR OVC004 13/13 Q1014 REDZ","updated":"2026-03-14T17:25:28Z"}
