{"icao":"LPMR","metar":"LPMR 140800Z 14003KT 0700 FG SCT006 BKN015 09/09 Q1018","updated":"2026-01-14T08:29:07Z"}
