{"icao":"LPFL","metar":"LPFL 091500Z VRB05KT 9999 SCT020 BKN040 18/14 Q1034","updated":"2026-04-09T15:21:14Z"}
