{"icao":"KJFK","metar":"KJFK 181351Z 31019G27KT 10SM FEW070 FEW250 05/M06 A3016 RMK AO2 PK WND 31027/1351 SLP214 T00501061 $","updated":"2025-11-18T14:19:09Z"}
