{"icao":"KJFK","metar":"KJFK 261651Z 05011KT 10SM FEW020 SCT035 BKN047 12/03 A3013 RMK SLP202 T01170028 $ ","updated":"2026-04-26T17:37:16Z"}
