{"icao":"LPST","metar":"LPST 301200Z VRB03KT CAVOK 27/13 Q1018","updated":"2025-09-30T12:38:23Z"}
