{"icao":"KORD","metar":"KORD 012151Z 04011KT 10SM SCT180 BKN250 20/01 A3011 RMK AO2 SLP194 VIRGA T02000011","updated":"2026-06-01T22:09:42Z"}
