{"icao":"LPFR","metar":"LPFR 071500Z 14006KT 120V180 9999 FEW030 25/17 Q1020","updated":"2025-10-07T15:19:06Z"}
