{"icao":"LPBJ","metar":"LPBJ 230600Z 33002KT CAVOK 05/01 Q1027","updated":"2025-11-23T06:26:38Z"}
