{"icao":"KLAX","metar":"KLAX 232253Z 25008KT 10SM FEW085 20/12 A3007 RMK AO2 SLP181 T02000122","updated":"2025-11-23T23:16:37Z"}
