{"icao":"LPCS","metar":"LPCS 141600Z 29012KT 250V320 2500 -DZ BR FEW002 BKN004 14/13 Q1017","updated":"2026-03-14T16:30:19Z"}
