{"icao":"LPCS","metar":"LPCS 311600Z 21008KT 7000 SCT004 BKN012 19/19 Q1013","updated":"2025-10-31T16:22:36Z"}
