{"icao":"LPPS","metar":"LPPS 191330Z 07021KT 9999 SCT015 19/13 Q1011","updated":"2026-04-19T14:02:45Z"}
