{"icao":"KJFK","metar":"KJFK 300551Z 05013KT 10SM OVC023 11/09 A3002 RMK AO2 RAE38 SLP167 P0001 60001 T01060089 10117 20106 58025","updated":"2025-10-30T06:27:33Z"}
