{"icao":"LPMA","metar":"LPMA 010800Z 01023G34KT 340V050 9999 FEW014 22/16 Q1020","updated":"2026-07-01T08:11:22Z"}
