{"icao":"LPOV","metar":"LPOV 181500Z 23008KT 200V270 CAVOK 24/15 Q1016","updated":"2025-10-18T15:15:25Z"}
