{"icao":"KORD","metar":"KORD 181051Z 19015G23KT 9SM BKN016 BKN021 OVC026 11/09 A2946 RMK AO2 PK WND 17028/1021 SLP976 T01110089 $","updated":"2026-02-18T11:37:49Z"}
