{"icao":"LPBJ","metar":"LPBJ 111400Z 30006KT 250V360 CAVOK 35/07 Q1018","updated":"2026-06-11T14:33:57Z"}
