{"icao":"KLAX","metar":"KLAX 270753Z VRB04KT 10SM FEW250 15/M06 A3024 RMK AO2 SLP238 T01501056 402280094 $","updated":"2026-01-27T08:32:18Z"}
