{"icao":"LPPR","metar":"LPPR 222200Z 15003KT 120V190 CAVOK 08/07 Q1027","updated":"2026-02-22T22:22:51Z"}
