{"icao":"LPBJ","metar":"LPBJ 131100Z 17021G31KT 7000 -TSRA SCT020CB BKN030 19/15 Q1004","updated":"2025-11-13T11:16:55Z"}
