{"icao":"KLAX","metar":"KLAX 230853Z 03004KT 10SM FEW012 17/14 A3003 RMK AO2 SLP167 T01670144 58002","updated":"2025-10-23T09:20:00Z"}
