{"icao":"KORD","metar":"KORD 211851Z 27006KT 10SM CLR M02/M15 A3043 RMK AO2 SLP315 T10171150","updated":"2025-12-21T19:14:40Z"}
