{"icao":"LPLA","metar":"LPLA 310100Z 23014KT 9000 -RA FEW008 SCT020 18/15 Q1015","updated":"2026-01-31T01:52:47Z"}
