{"icao":"LPLA","metar":"LPLA 071700Z 18009KT 150V210 9999 FEW025 SCT035 17/13 Q1007","updated":"2025-12-07T17:14:53Z"}
