{"icao":"KORD","metar":"KORD 271051Z 24011G20KT 10SM SCT030 SCT110 M11/M15 A2990 RMK AO2 PK WND 24026/1012 SLP140 T11061150","updated":"2026-01-27T11:21:52Z"}
