{"icao":"LPST","metar":"LPST 231100Z 18006KT 110V230 CAVOK 27/19 Q1013","updated":"2026-06-23T12:05:08Z"}
