{"icao":"LPPT","metar":"LPPT 101700Z 24005KT 220V290 9999 FEW022 SCT030 14/09 Q1028","updated":"2026-01-10T17:16:45Z"}
