{"icao":"LPMT","metar":"LPMT 052300Z 35008KT CAVOK 14/10 Q1016","updated":"2026-05-05T23:03:55Z"}
