{"icao":"LPCS","metar":"LPCS 170930Z 09009KT 060V130 CAVOK 15/04 Q1011","updated":"2026-03-17T09:54:28Z"}
