{"icao":"LPBJ","metar":"LPBJ 131400Z VRB05KT 9999 SCT040 28/12 Q1015","updated":"2025-10-13T14:18:38Z"}
