{"icao":"LPBJ","metar":"LPBJ 250300Z 31008KT 9999 FEW035 11/09 Q1019","updated":"2025-11-25T03:13:37Z"}
