{"icao":"LPHR","metar":"LPHR 051330Z 22003KT 160V320 9999 FEW025 BKN045 14/03 Q1037","updated":"2026-03-05T14:02:43Z"}
