{"icao":"KLAX","metar":"KLAX 161812Z 11010G15KT 5SM -RA BR BKN007 OVC015 13/12 A2978 RMK AO2 P0002 T01280122 $","updated":"2026-02-16T18:40:54Z"}
