{"icao":"LPMA","metar":"LPMA 231300Z 04013KT 360V060 9999 SCT013 FEW018CB 18/16 Q1012","updated":"2026-03-23T13:05:02Z"}
