{"icao":"LPCS","metar":"LPCS 272130Z 36005KT CAVOK 20/14 Q1019","updated":"2026-05-27T23:15:38Z"}
