{"icao":"LPMA","metar":"LPMA 081500Z 01008KT 330V040 9999 SCT015 17/12 Q1032","updated":"2026-01-08T15:24:53Z"}
