{"icao":"LPHR","metar":"LPHR 222300Z 18010KT 150V220 9999 SCT007 BKN011 21/20 Q1012","updated":"2025-10-23T01:21:11Z"}
