{"icao":"KJFK","metar":"KJFK 100951Z 19007KT 10SM FEW100 SCT160 BKN220 19/15 A2999 RMK AO2 SLP156 T01890150 $","updated":"2026-06-10T09:56:58Z"}
