{"icao":"KLAX","metar":"KLAX 121253Z 18007KT 10SM SCT026 BKN035 OVC060 17/12 A2992 RMK AO2 SLP130 T01670117 $","updated":"2026-04-12T12:59:28Z"}
