{"icao":"LPFL","metar":"LPFL 201930Z 33013KT 280V020 9999 VCSH SCT017 BKN030 13/07 Q1019","updated":"2026-04-21T02:30:51Z"}
