{"icao":"LPMT","metar":"LPMT 061600Z 35017KT 9999 -RA FEW028 13/07 Q1017","updated":"2026-03-06T16:39:24Z"}
