{"icao":"LPCS","metar":"LPCS 051030Z 36011KT 320V030 9999 FEW020 SCT032 16/08 Q1018","updated":"2026-05-05T10:44:45Z"}
