{"icao":"LPLA","metar":"LPLA 220500Z 17012G23KT 130V230 9999 BKN012 BKN020 17/15 Q1021","updated":"2026-02-22T05:50:50Z"}
