{"icao":"KLAX","metar":"KLAX 071653Z 04019G27KT 10SM FEW110 FEW130 21/M07 A3005 RMK AO2 PK WND 04027/1653 SLP175 ACSL DSNT NE-E T02111072 $","updated":"2026-03-07T17:20:36Z"}
