{"icao":"LPOV","metar":"LPOV 041300Z 30007KT 260V340 9999 SCT020 20/16 Q1024","updated":"2025-10-04T13:19:40Z"}
