{"icao":"LPPT","metar":"LPPT 121300Z 09006KT 8000 3000NW -RA FEW001 SCT008 BKN022 12/12 Q1013","updated":"2025-12-12T13:33:28Z"}
