{"icao":"LPPT","metar":"LPPT 272030Z 32013KT CAVOK 15/07 Q1017","updated":"2026-03-27T20:37:06Z"}
