{"icao":"LPMA","metar":"LPMA 291800Z 01009KT 320V040 9999 FEW015 20/13 Q1025","updated":"2026-05-29T18:30:44Z"}
