{"icao":"KJFK","metar":"KJFK 261651Z 33006KT 10SM FEW030 FEW090 SCT250 14/02 A3040 RMK AO2 SLP293 T01390017","updated":"2025-10-26T17:14:18Z"}
