{"icao":"LPPD","metar":"LPPD 260900Z 25024KT 3000 +SHRA SCT006 BKN011 FEW020CB 14/14 Q1005","updated":"2026-01-26T09:32:59Z"}
