{"icao":"LPMR","metar":"LPMR 262000Z 35004KT CAVOK 15/12 Q1020","updated":"2025-10-26T20:18:48Z"}
