{"icao":"LPBJ","metar":"LPBJ 151200Z 09003KT 010V170 CAVOK 27/11 Q1017","updated":"2025-10-15T12:38:41Z"}
