{"icao":"LPCS","metar":"LPCS 271500Z 17004KT 110V240 9999 FEW022 25/16 Q1018","updated":"2025-10-27T15:19:25Z"}
