{"icao":"LPOV","metar":"LPOV 201800Z 35012KT CAVOK 12/07 Q1030","updated":"2026-02-20T18:45:01Z"}
