{"icao":"LPPR","metar":"LPPR 071400Z 23006KT 180V270 9999 BKN008 18/16 Q1023","updated":"2025-10-07T14:18:14Z"}
