{"icao":"LPMA","metar":"LPMA 300100Z 01010KT 310V070 9999 SCT016 21/14 Q1021","updated":"2025-09-30T01:20:06Z"}
