{"icao":"LPPT","metar":"LPPT 311600Z 33014KT 290V350 CAVOK 27/09 Q1019","updated":"2026-05-31T16:06:14Z"}
