{"icao":"LPMT","metar":"LPMT 102300Z 24006KT 2000 -DZ BR OVC002 15/15 Q1018","updated":"2026-02-10T23:36:38Z"}
