{"icao":"LPCS","metar":"LPCS 031830Z 03009KT CAVOK 18/08 Q1012","updated":"2026-03-03T18:44:26Z"}
