{"icao":"LPPR","metar":"LPPR 210400Z 03002KT CAVOK 04/03 Q1026","updated":"2025-11-21T04:21:56Z"}
