{"icao":"KORD","metar":"KORD 020351Z 32005KT 10SM -RA FEW024 BKN037 OVC055 06/05 A3014 RMK AO2 RAB0253 SLP210 P0002 T00610050 $","updated":"2025-11-02T04:21:56Z"}
