{"icao":"LPFR","metar":"LPFR 191630Z 10008KT CAVOK 21/13 Q1014","updated":"2026-04-19T16:38:35Z"}
