{"icao":"KJFK","metar":"KJFK 181151Z 01004KT 10SM SCT075 SCT250 10/03 A3003 RMK AO2 SLP169 T01000028 10106 20083 51012","updated":"2025-10-18T12:32:57Z"}
