{"icao":"LPPS","metar":"LPPS 241100Z 33014KT 4000 -SHRA BR FEW006 SCT012 BKN030 16/13 Q1016","updated":"2025-12-24T11:18:07Z"}
