{"icao":"LPHR","metar":"LPHR 161300Z 24007KT 210V280 9999 FEW020 SCT040 18/12 Q1030","updated":"2026-05-16T13:19:19Z"}
