{"icao":"LPMR","metar":"LPMR 170300Z 18002KT 1500 BR FEW008 05/05 Q1014","updated":"2026-01-17T03:21:20Z"}
