{"icao":"LPPR","metar":"LPPR 280230Z 00000KT CAVOK 15/13 Q1010","updated":"2026-04-28T02:47:21Z"}
