{"icao":"LPMT","metar":"LPMT 171900Z 35006KT CAVOK 20/13 Q1016","updated":"2026-04-17T20:03:25Z"}
