{"icao":"LPFR","metar":"LPFR 070430Z 29010KT CAVOK 10/07 Q1016","updated":"2026-03-07T05:04:11Z"}
