{"icao":"LPAZ","metar":"LPAZ 092200Z 20015KT 9999 FEW005 SCT014 BKN040 17/15 Q1029","updated":"2026-01-09T22:20:05Z"}
