{"icao":"LPAZ","metar":"LPAZ 290330Z 14014KT 9999 FEW007 SCT028 17/16 Q1009","updated":"2026-04-29T03:42:11Z"}
