{"icao":"LPPD","metar":"LPPD 100630Z 24011KT 5000 BR SCT001 BKN014 16/15 Q1012","updated":"2026-02-10T07:02:35Z"}
