{"icao":"LPCS","metar":"LPCS 282230Z 01010KT 9999 FEW001 BKN011 15/13 Q1009","updated":"2026-04-29T03:42:09Z"}
