{"icao":"LPBJ","metar":"LPBJ 181600Z 18007KT 150V210 CAVOK 28/09 Q1015","updated":"2025-10-18T16:19:29Z"}
