{"icao":"LPFL","metar":"LPFL 180900Z VRB03KT 9999 -DZ FEW008 SCT015 23/21 Q1011","updated":"2025-10-18T09:16:42Z"}
