{"icao":"LPPR","metar":"LPPR 081100Z 23005KT 190V360 9999 FEW011 13/09 Q1022","updated":"2026-03-08T11:19:55Z"}
