{"icao":"LPLA","metar":"LPLA 302000Z 15010KT 9999 FEW020 BKN025 15/11 Q1032","updated":"2026-03-30T20:54:08Z"}
