{"icao":"LPPD","metar":"LPPD 121400Z 24008KT 9999 FEW025 22/17 Q1018","updated":"2025-10-12T14:14:13Z"}
