{"icao":"LPPD","metar":"LPPD 051900Z 03006KT 010V070 9999 FEW025 BKN045 14/08 Q1030","updated":"2026-01-05T19:19:32Z"}
