{"icao":"LPMR","metar":"LPMR 280100Z 15008KT CAVOK 18/08 Q1017","updated":"2025-10-28T01:20:05Z"}
