{"icao":"LPMT","metar":"LPMT 060400Z 34017G28KT 9999 FEW030 11/05 Q1018","updated":"2026-03-06T04:15:30Z"}
