{"icao":"LPPR","metar":"LPPR 251430Z 14006KT 9999 SCT019 16/11 Q1018","updated":"2026-02-25T14:46:30Z"}
