{"icao":"KJFK","metar":"KJFK 011951Z 31018G27KT 10SM SCT065 BKN250 14/M01 A2994 RMK AO2 PK WND 31027/1943 SLP139 T01441006 $","updated":"2025-11-01T20:17:16Z"}
