{"icao":"LPPT","metar":"LPPT 190930Z 35005KT 320V030 9999 FEW022 SCT046 12/07 Q1028","updated":"2026-02-19T09:43:10Z"}
