{"icao":"LPPR","metar":"LPPR 140130Z 17007KT 7000 -SHRA SCT007 BKN015 BKN025 11/11 Q1013","updated":"2026-01-14T01:46:59Z"}
