{"icao":"LPAR","metar":"LPAR 251500Z 17005KT CAVOK 30/M01 Q1016","updated":"2025-09-25T15:18:43Z"}
