{"icao":"LPCS","metar":"LPCS 271400Z 28013G23KT 250V310 9999 VCSH FEW013 FEW020CB SCT035 11/09 Q1003 RETS","updated":"2026-01-27T14:28:20Z"}
