{"icao":"KORD","metar":"KORD 140851Z 30014G20KT 10SM CLR M18/M24 A3042 RMK AO2 SLP317 T11781239 53023","updated":"2025-12-14T09:19:12Z"}
