{"icao":"LPPR","metar":"LPPR 062300Z 36007KT CAVOK 08/03 Q1020","updated":"2026-03-06T23:26:07Z"}
