{"icao":"LPPD","metar":"LPPD 231600Z 31015G25KT 270V340 9999 FEW025 14/06 Q1024","updated":"2026-01-23T16:28:41Z"}
