{"icao":"LPPS","metar":"LPPS 181900Z 01013KT 9999 SCT015 15/09 Q1022","updated":"2026-01-18T19:15:38Z"}
