{"icao":"KLAX","metar":"KLAX 021753Z 10003KT 10SM FEW009 FEW160 15/07 A3009 RMK AO2 SLP187 T01500072 10150 20089 51012 $","updated":"2025-12-02T18:30:52Z"}
