{"icao":"KORD","metar":"KORD 251151Z 03012KT 8SM BKN024 BKN250 04/01 A3011 RMK AO2 SLP199 T00440006 10050 20022 53009","updated":"2025-12-25T12:39:22Z"}
