{"icao":"LPHR","metar":"LPHR 091400Z 17015KT 9000 -SHRA SCT008 SCT012 BKN025 17/16 Q1025","updated":"2026-01-09T14:23:20Z"}
