{"icao":"KLAX","metar":"KLAX 151218Z 06005KT 5SM BR BKN020 BKN070 BKN110 17/16 A2980 RMK AO2 T01670161 $","updated":"2025-11-15T12:34:32Z"}
