{"icao":"KORD","metar":"KORD 280451Z 09009KT 10SM FEW250 10/02 A3015 RMK AO2 SLP210 T01000022","updated":"2025-10-28T05:18:59Z"}
