{"icao":"KORD","metar":"KORD 231951Z 29006KT 10SM BKN250 12/01 A3007 RMK AO2 SLP185 T01170011","updated":"2025-12-23T20:21:04Z"}
