{"icao":"LPOV","metar":"LPOV 271300Z 30004KT 260V330 CAVOK 20/10 Q1021","updated":"2025-10-27T13:30:30Z"}
