{"icao":"LPPT","metar":"LPPT 040630Z VRB02KT CAVOK 11/06 Q1022","updated":"2026-04-04T07:00:46Z"}
