{"icao":"LPMT","metar":"LPMT 042200Z VRB03KT 6000 -RA FEW012 BKN032 13/13 Q1021","updated":"2025-12-04T22:16:25Z"}
