{"icao":"LPPT","metar":"LPPT 142130Z 31009KT 9999 FEW008 14/12 Q1024","updated":"2026-04-14T21:50:52Z"}
