{"icao":"KJFK","metar":"KJFK 161951Z 30021G39KT 10SM FEW070 SCT085 BKN250 11/M05 A2934 RMK AO2 PK WND 30039/1942 SLP935 VIRGA ALQDS T01111050 $","updated":"2025-11-16T20:19:13Z"}
