{"icao":"LPPS","metar":"LPPS 211400Z 35008KT 320V030 9999 SCT014 26/20 Q1020","updated":"2025-10-21T14:17:22Z"}
