{"icao":"KLAX","metar":"KLAX 051053Z 00000KT 8SM FEW011 13/11 A2991 RMK AO2 SLP125 T01280111","updated":"2026-03-05T11:32:32Z"}
