{"icao":"LPST","metar":"LPST 241700Z 28014KT 6000 BKN006 BKN028 16/15 Q1017","updated":"2025-11-25T04:25:10Z"}
