{"icao":"KJFK","metar":"KJFK 150851Z 31009KT 10SM BKN110 11/06 A2979 RMK AO2 SLP088 T01060056 53004","updated":"2026-05-15T09:46:49Z"}
