{"icao":"LPMT","metar":"LPMT 152200Z 36007KT CAVOK 14/11 Q1023","updated":"2026-04-15T22:39:35Z"}
