{"icao":"LPHR","metar":"LPHR 252230Z 19003KT 150V210 9999 SCT010 16/14 Q1019","updated":"2026-04-25T22:35:47Z"}
