{"icao":"LPFL","metar":"LPFL 260930Z 19012KT 150V230 9999 FEW012 SCT019 17/13 Q1010","updated":"2026-05-26T09:55:33Z"}
