{"icao":"KORD","metar":"KORD 121751Z 28009G15KT 10SM FEW043 05/M05 A3016 RMK AO2 SLP218 T00501050 10050 21017 58007 $","updated":"2026-03-12T18:52:41Z"}
