{"icao":"LPMR","metar":"LPMR 190900Z 20010KT 170V230 9999 SCT016 21/17 Q1015","updated":"2025-10-19T09:16:01Z"}
