{"icao":"LPPT","metar":"LPPT 061400Z 28008KT 230V320 9999 FEW025 FEW030TCU SCT045 19/09 Q1018","updated":"2025-11-06T14:18:57Z"}
