{"icao":"LPMT","metar":"LPMT 011300Z 34007KT 310V020 CAVOK 21/08 Q1023","updated":"2026-04-01T13:19:19Z"}
