{"icao":"LPBJ","metar":"LPBJ 180900Z 11006KT CAVOK 20/10 Q1017","updated":"2026-04-18T09:46:54Z"}
