{"icao":"KLAX","metar":"KLAX 270553Z 06005KT 10SM CLR 14/M03 A3024 RMK AO2 SLP238 T01391028 10206 20139 50008 $","updated":"2026-01-27T06:34:18Z"}
