{"icao":"KORD","metar":"KORD 211721Z 27013G19KT 10SM BKN025 M02/M08 A2990 RMK AO2 T10171078 $","updated":"2026-01-21T17:53:07Z"}
