{"icao":"KJFK","metar":"KJFK 021351Z 27013G18KT 10SM FEW050 BKN090 M04/M11 A2983 RMK AO2 SLP102 T10441111 $","updated":"2026-01-02T14:19:31Z"}
