{"icao":"LPHR","metar":"LPHR 262200Z 19017KT 8000 -RA SCT006 BKN010 BKN030 19/18 Q1021","updated":"2025-11-26T22:18:09Z"}
