{"icao":"LPAZ","metar":"LPAZ 151500Z 31012KT 9999 SCT036 18/09 Q1017","updated":"2025-11-15T15:16:55Z"}
