{"icao":"LPMR","metar":"LPMR 052300Z 22005KT 8000 -SHRA SCT017 FEW020CB SCT032 12/11 Q1014 RESHRA","updated":"2025-11-05T23:17:18Z"}
