{"icao":"LPBJ","metar":"LPBJ 301700Z 31010KT CAVOK 21/09 Q1016","updated":"2026-04-30T17:19:10Z"}
