{"icao":"LPMA","metar":"LPMA 311300Z 22018KT 8000 -SHRA SCT007 BKN015 FEW018CB 19/17 Q1015","updated":"2025-12-31T13:31:50Z"}
