{"icao":"LPPR","metar":"LPPR 202230Z 10006KT CAVOK 18/10 Q1008","updated":"2026-04-20T22:41:12Z"}
