{"icao":"LPFR","metar":"LPFR 312200Z 34005KT 300V010 CAVOK 28/15 Q1016","updated":"2026-05-31T22:05:08Z"}
