{"icao":"KJFK","metar":"KJFK 190551Z 04009KT 4SM -DZ BR SCT010 OVC019 02/02 A2991 RMK AO2 DZB15 CIG 014 W SLP129 4/001 P0000 60008 T00220017 10033 20022 53023 $","updated":"2026-02-19T05:57:51Z"}
