{"icao":"LPLA","metar":"LPLA 100200Z 20004KT 090V260 9999 FEW018 21/18 Q1021","updated":"2025-10-10T02:59:31Z"}
