{"icao":"LPMA","metar":"LPMA 080430Z 01008KT 9999 SCT015 15/10 Q1033","updated":"2026-01-08T04:38:17Z"}
