{"icao":"KLAX","metar":"KLAX 282253Z 26007KT 10SM FEW200 19/12 A2998 RMK AO2 SLP152 T01890117 $","updated":"2025-11-28T23:17:16Z"}
