{"icao":"KJFK","metar":"KJFK 090451Z 18005KT 10SM FEW250 02/M01 A3064 RMK AO2 SLP374 T00221011 400721011","updated":"2026-04-09T05:08:08Z"}
