{"icao":"LPPS","metar":"LPPS 231130Z 12008KT 090V160 9999 FEW014 17/13 Q1024","updated":"2026-02-23T11:39:16Z"}
