{"icao":"LPPT","metar":"LPPT 201000Z 29004KT 250V330 9999 FEW018 BKN028 20/14 Q1016","updated":"2025-10-20T10:20:04Z"}
