{"icao":"LPMA","metar":"LPMA 152230Z 02014KT 350V050 9999 SCT015 16/11 Q1023","updated":"2026-04-15T22:39:53Z"}
