{"icao":"LPPR","metar":"LPPR 212300Z 23008KT 190V270 6000 BKN002 18/18 Q1014","updated":"2025-10-21T23:16:59Z"}
