{"icao":"LPOV","metar":"LPOV 251800Z 25004KT 9999 FEW030 12/10 Q1013","updated":"2026-01-25T21:18:08Z"}
