{"icao":"LPFR","metar":"LPFR 060700Z 05005KT CAVOK 06/M01 Q1019","updated":"2026-01-06T07:24:30Z"}
