{"icao":"LPMR","metar":"LPMR 061800Z 26003KT CAVOK 20/13 Q1020","updated":"2025-10-06T18:26:03Z"}
