{"icao":"LPCS","metar":"LPCS 280800Z 01009KT 9999 FEW028 11/09 Q1023","updated":"2025-11-28T08:25:57Z"}
