{"icao":"LPPR","metar":"LPPR 022300Z 36007KT 9999 FEW018 BKN032 11/10 Q1012","updated":"2026-03-02T23:24:15Z"}
