{"icao":"LPPT","metar":"LPPT 250130Z 31007KT CAVOK 09/05 Q1009","updated":"2025-12-25T01:38:33Z"}
