{"icao":"KLAX","metar":"KLAX 260653Z 36004KT 10SM CLR 18/06 A3007 RMK AO2 SLP181 T01780061","updated":"2025-11-26T07:18:29Z"}
