{"icao":"LPMR","metar":"LPMR 151000Z VRB02KT 8000 NSC 20/13 Q1017","updated":"2025-10-15T10:19:46Z"}
