{"icao":"LPPS","metar":"LPPS 102130Z 28006KT 9999 SCT006 16/15 Q1025","updated":"2026-02-10T21:40:31Z"}
