{"icao":"LPPT","metar":"LPPT 301730Z 33015KT 290V350 CAVOK 28/16 Q1020 NOSIG","updated":"2026-06-30T17:51:27Z"}
