{"icao":"KORD","metar":"KORD 122051Z 21014G35KT 10SM SCT065 SCT100 BKN150 BKN250 26/12 A2982 RMK AO2 PK WND 20039/2004 SLP094 T02610117 56024 $","updated":"2026-04-12T21:33:38Z"}
