{"icao":"KLAX","metar":"KLAX 211053Z 00000KT 3SM BR CLR 13/12 A3008 RMK AO2 VIS 2 RWY24 SLP186 T01280117 $","updated":"2025-12-21T11:15:56Z"}
