{"icao":"LPBJ","metar":"LPBJ 272300Z 01003KT CAVOK 08/02 Q1023","updated":"2025-11-27T23:16:48Z"}
