{"icao":"KORD","metar":"KORD 180451Z 00000KT 10SM FEW250 20/16 A3005 RMK AO2 SLP171 T02000156 $","updated":"2025-09-18T05:16:07Z"}
