{"icao":"LPPD","metar":"LPPD 131830Z 27011KT 9999 FEW027 15/11 Q1031","updated":"2026-02-13T18:47:02Z"}
