{"icao":"KLAX","metar":"KLAX 210253Z 27008KT 8SM SCT013 SCT220 15/13 A3007 RMK AO2 SLP181 T01500128 53014 $","updated":"2025-12-21T03:28:15Z"}
