{"icao":"KJFK","metar":"KJFK 131251Z 13004KT 10SM FEW020 SCT060 BKN090 BKN250 21/17 A3017 RMK AO2 SLP216 T02060167 $","updated":"2025-09-13T13:18:43Z"}
