{"icao":"LPPS","metar":"LPPS 210400Z 07013KT 9999 SCT015 18/13 Q1023","updated":"2025-11-21T04:22:12Z"}
