{"icao":"KLAX","metar":"KLAX 100353Z 00000KT 4SM BR OVC004 17/16 A3009 RMK AO2 SLP189 T01670161 $","updated":"2025-11-10T04:26:13Z"}
