{"icao":"KLAX","metar":"KLAX 290453Z VRB04KT 10SM FEW250 15/03 A3012 RMK AO2 SLP199 T01500033 $","updated":"2025-12-29T05:27:23Z"}
