{"icao":"LPPD","metar":"LPPD 060730Z 14009KT 9999 FEW025 BKN040 13/06 Q1033","updated":"2026-03-06T07:37:23Z"}
