{"icao":"LPLA","metar":"LPLA 301500Z VRB04KT 9999 SCT020 BKN025 18/16 Q1026","updated":"2025-11-30T15:16:51Z"}
