{"icao":"LPAR","metar":"LPAR 141600Z 36006KT 320V040 9999 SCT022 FEW025TCU 14/11 Q1020","updated":"2026-01-14T16:28:53Z"}
