{"icao":"KLAX","metar":"KLAX 161929Z 23012KT 2 1/2SM +RA BR SCT004 BKN010 OVC026 12/11 A2979 RMK AO2 VIS 1/2V3 P0029 T01220111 $","updated":"2026-02-16T19:32:12Z"}
