{"icao":"LPPT","metar":"LPPT 182200Z 23008KT CAVOK 20/18 Q1017","updated":"2025-10-18T22:15:25Z"}
