{"icao":"LPSJ","metar":"LPSJ 141130Z 26005KT 190V320 9999 FEW016 21/15 Q1022","updated":"2026-06-14T11:56:14Z"}
