{"icao":"LPBJ","metar":"LPBJ 280800Z 26002KT 230V290 CAVOK 05/04 Q1023","updated":"2025-11-28T08:25:59Z"}
