{"icao":"LPPS","metar":"LPPS 201230Z 16006KT 9999 FEW014 BKN030 23/21 Q1019","updated":"2025-10-20T12:38:26Z"}
