{"icao":"KJFK","metar":"KJFK 210051Z 00000KT 10SM SCT250 04/M01 A3019 RMK AO2 SLP223 T00441006 $","updated":"2025-11-21T01:23:10Z"}
