{"icao":"KJFK","metar":"KJFK 060751Z 01008KT 10SM SCT250 M06/M11 A2987 RMK AO2 SLP115 T10561111 PNO $","updated":"2026-02-06T08:39:58Z"}
