{"icao":"LPMR","metar":"LPMR 232000Z 23003KT 200V260 9999 SCT009 SCT020 BKN025 13/12 Q1023","updated":"2025-11-23T20:19:50Z"}
