{"icao":"LPFL","metar":"LPFL 221700Z 18019G31KT 140V210 9999 FEW010 BKN012 18/15 Q1012","updated":"2026-02-22T17:24:01Z"}
