{"icao":"KJFK","metar":"KJFK 231151Z 29010KT 10SM FEW190 BKN250 00/M14 A3017 RMK AO2 SLP215 T00001144 10033 21006 53014 $","updated":"2026-01-23T12:44:20Z"}
