{"icao":"LPOV","metar":"LPOV 022300Z 36004KT CAVOK 12/11 Q1025","updated":"2025-11-02T23:15:32Z"}
