{"icao":"KORD","metar":"KORD 102251Z 30008KT 10SM SCT190 BKN250 05/M02 A2995 RMK AO2 SLP149 T00501017","updated":"2026-02-10T23:36:55Z"}
