{"icao":"KJFK","metar":"KJFK 052251Z 19008KT 10SM FEW200 BKN250 25/12 A2993 RMK AO2 SLP134 T02500122 $","updated":"2026-06-05T23:07:20Z"}
