{"icao":"KJFK","metar":"KJFK 030151Z 15004KT 10SM FEW100 FEW250 M03/M08 A3066 RMK AO2 SLP383 T10281078","updated":"2026-03-03T02:03:16Z"}
