{"icao":"LPFL","metar":"LPFL 152100Z 20005KT 160V220 9999 FEW024 17/11 Q1018","updated":"2025-11-16T05:17:40Z"}
