{"icao":"LPMA","metar":"LPMA 100100Z 35006KT 9999 SCT016 20/14 Q1022","updated":"2025-11-10T01:27:36Z"}
