{"icao":"LPLA","metar":"LPLA 181200Z 33003KT 310V020 9999 VCSH FEW025 SCT030 18/17 Q1016 RERA","updated":"2025-09-18T12:35:37Z"}
