{"icao":"LPFL","metar":"LPFL 121330Z 34015KT 310V010 9999 VCSH SCT026 15/07 Q1020","updated":"2026-01-12T13:41:28Z"}
