{"icao":"LPMT","metar":"LPMT 251200Z 19015KT 9999 BKN022 25/19 Q1015","updated":"2026-06-25T12:19:08Z"}
