{"icao":"LPFL","metar":"LPFL 020930Z 32010G23KT 240V050 9999 SCT018 14/06 Q1015","updated":"2026-02-02T09:47:47Z"}
