{"icao":"LPHR","metar":"LPHR 231900Z 30010KT 280V340 9999 FEW027 SCT055 14/08 Q1027","updated":"2026-01-23T19:23:31Z"}
