{"icao":"LPBJ","metar":"LPBJ 281700Z 16016KT 7000 -SHRA FEW020 SCT026 19/18 Q1011","updated":"2025-10-28T17:17:31Z"}
