{"icao":"LPPD","metar":"LPPD 190900Z 24011KT 4000 -SHRA BR SCT002 BKN004 22/22 Q1016","updated":"2025-10-19T09:16:14Z"}
