{"icao":"LPAZ","metar":"LPAZ 251000Z 08007KT 050V130 8000 -SHRA FEW012 BKN018 19/17 Q1016","updated":"2025-10-25T10:16:48Z"}
