{"icao":"LPOV","metar":"LPOV 201700Z 34016KT CAVOK 22/18 Q1015","updated":"2026-06-20T17:24:56Z"}
