{"icao":"LPPT","metar":"LPPT 301700Z 30007KT 270V330 9999 FEW043 26/15 Q1018","updated":"2025-09-30T17:15:32Z"}
