{"icao":"LPFR","metar":"LPFR 100800Z 02005KT CAVOK 14/09 Q1020","updated":"2025-11-10T08:27:06Z"}
