{"icao":"LPLA","metar":"LPLA 211700Z 31008KT 9999 BKN030 15/08 Q1026","updated":"2025-12-21T17:16:03Z"}
