{"icao":"LPAZ","metar":"LPAZ 110830Z 02009KT 9999 FEW022 SCT040 13/07 Q1031","updated":"2026-04-11T08:41:38Z"}
