{"icao":"LPGR","metar":"LPGR 291030Z 24007KT 220V300 9999 FEW018 21/16 Q1030","updated":"2026-06-29T10:55:32Z"}
