{"icao":"LPBJ","metar":"LPBJ 011000Z 07007KT 030V110 9999 FEW040 25/13 Q1021","updated":"2025-10-01T10:18:32Z"}
