{"icao":"KORD","metar":"KORD 101351Z 20011G17KT 10SM BKN075 BKN130 BKN250 13/04 A3021 RMK AO2 SLP231 T01330044","updated":"2025-10-10T14:17:21Z"}
