{"icao":"LPLA","metar":"LPLA 021000Z 08011KT 050V110 9999 FEW015 17/13 Q1021","updated":"2026-05-02T10:50:17Z"}
