{"icao":"KLAX","metar":"KLAX 061153Z 00000KT 10SM CLR 11/04 A3002 RMK AO2 SLP165 T01060039 10150 20106 58006 $","updated":"2025-12-06T12:36:10Z"}
