{"icao":"KORD","metar":"KORD 201056Z 23024G39KT 4SM -DZ BR OVC013 02/M01 A2931 RMK AO2 PK WND 21039/1055 DZB55 P0000 T00171006 $","updated":"2026-02-20T11:31:31Z"}
