{"icao":"LPPR","metar":"LPPR 281400Z 05008G18KT 340V090 CAVOK 20/07 Q1025","updated":"2026-03-28T14:30:32Z"}
