{"icao":"LPOV","metar":"LPOV 201100Z 18005KT 9999 FEW007 SCT015 BKN035 18/17 Q1014","updated":"2025-10-20T11:15:40Z"}
