{"icao":"LPPT","metar":"LPPT 201730Z 35006KT 330V050 CAVOK 16/08 Q1028","updated":"2026-02-20T17:36:10Z"}
