{"icao":"LPPR","metar":"LPPR 142230Z 17005KT 9000 FEW003 SCT015 13/12 Q1024","updated":"2026-04-14T22:44:30Z"}
