{"icao":"LPBJ","metar":"LPBJ 010600Z 19007KT CAVOK 15/14 Q1016","updated":"2025-11-01T06:24:28Z"}
