{"icao":"KLAX","metar":"KLAX 251053Z 11006KT 10SM FEW008 SCT028 SCT035 14/14 A3005 RMK AO2 SLP175 T01440139 $","updated":"2025-12-25T11:17:31Z"}
