{"icao":"LPPS","metar":"LPPS 122300Z 29007KT 9999 FEW014 FEW016CB 17/14 Q1002","updated":"2025-11-12T23:18:12Z"}
