{"icao":"LPHR","metar":"LPHR 062100Z 16015KT 9999 FEW020 BKN050 17/13 Q1033","updated":"2026-01-07T05:24:11Z"}
