{"icao":"LPBJ","metar":"LPBJ 060544Z 29006KT 0700 FG BKN001 08/08 Q1014","updated":"2026-05-06T05:56:34Z"}
