{"icao":"LPPS","metar":"LPPS 061230Z 01006KT 330V040 9999 FEW015 BKN030 19/10 Q1025","updated":"2025-12-06T12:36:09Z"}
