{"icao":"LPAZ","metar":"LPAZ 071100Z 02006KT 330V060 9999 FEW022 20/15 Q1022","updated":"2025-11-07T11:15:09Z"}
