{"icao":"LPMT","metar":"LPMT 131800Z 33013G27KT 300V360 7000 -SHRA FEW025 FEW028CB BKN030 11/08 Q1011","updated":"2026-02-13T18:47:00Z"}
