{"icao":"LPMA","metar":"LPMA 090800Z 03007KT 340V070 9999 -SHRA BKN015 15/11 Q1033","updated":"2026-01-09T08:29:51Z"}
