{"icao":"KORD","metar":"KORD 101414Z 31011KT 1 1/4SM R10L/5000VP6000FT -SN BR BKN009 OVC014 01/M01 A2943 RMK AO2 PRESRR P0000 T00061006","updated":"2025-12-10T14:21:18Z"}
