{"icao":"KORD","metar":"KORD 151051Z 06006KT 10SM SCT200 03/M03 A2962 RMK AO2 SLP037 T00331028 $","updated":"2026-03-15T11:24:43Z"}
