{"icao":"LPMA","metar":"LPMA 151500Z 01012KT 330V040 6000 -RADZ BKN013 19/16 Q1019","updated":"2025-12-15T15:23:44Z"}
