{"icao":"LPST","metar":"LPST 101100Z 01003KT 330V040 9999 FEW020 14/09 Q1022","updated":"2025-12-10T11:17:23Z"}
