{"icao":"LPHR","metar":"LPHR 151030Z 26009KT 9999 FEW018 BKN050 15/08 Q1022","updated":"2026-04-15T10:57:56Z"}
