{"icao":"LPPR","metar":"LPPR 110830Z 21015KT 1500 R17/1200N -RADZ BR BKN002 BKN006 15/14 Q1011","updated":"2026-02-11T08:59:33Z"}
