{"icao":"LPPR","metar":"LPPR 141630Z 34019KT 300V360 9999 FEW025 SCT045 17/10 Q1014","updated":"2026-05-14T16:59:25Z"}
