{"icao":"LPPT","metar":"LPPT 231930Z 30008KT CAVOK 18/11 Q1015","updated":"2026-03-23T19:47:37Z"}
