{"icao":"KLAX","metar":"KLAX 160853Z 07003KT 8SM FEW003 13/12 A3007 RMK AO2 SLP181 T01330122 53001","updated":"2025-12-16T09:25:17Z"}
