{"icao":"KLAX","metar":"KLAX 301853Z 08004KT 4SM HZ BKN018 BKN220 16/12 A3000 RMK AO2 SLP159 VIS SW-W 2 1/2 T01610122 $","updated":"2025-11-30T19:14:38Z"}
