{"icao":"KJFK","metar":"KJFK 291851Z 32009G18KT 10SM FEW060 FEW250 06/M09 A3044 RMK SLP306 T00611094 ","updated":"2025-11-29T19:14:29Z"}
