{"icao":"LPCS","metar":"LPCS 092000Z 29003KT 220V340 9999 FEW018 11/09 Q1029","updated":"2026-01-09T21:19:51Z"}
