{"icao":"KORD","metar":"KORD 050851Z 22009G20KT 10SM FEW250 12/08 A2979 RMK AO2 SLP088 T01220078 56021 $","updated":"2025-11-05T09:20:56Z"}
