{"icao":"LPMA","metar":"LPMA 192300Z 22037G47KT 9999 SCT014 15/09 Q0993","updated":"2026-03-19T23:28:34Z"}
