{"icao":"LPHR","metar":"LPHR 232300Z 27013KT 9999 FEW025 14/09 Q1026","updated":"2026-01-23T23:20:39Z"}
