{"icao":"KORD","metar":"KORD 010851Z 03018G25KT 10SM FEW020 OVC200 03/M02 A3012 RMK AO2 PK WND 03034/0802 SLP200 T00281017 50005 $","updated":"2026-04-01T09:02:34Z"}
