{"icao":"KORD","metar":"KORD 090951Z 34017G26KT 10SM -SN FEW012 BKN020 OVC065 01/M01 A2991 RMK AO2 PK WND 35027/0926 SLP133 P0000 T00061011 $","updated":"2025-11-09T10:17:21Z"}
