{"icao":"LPPT","metar":"LPPT 272200Z 22015KT 200V260 8000 +DZ FEW004 SCT006 BKN008 19/18 Q1013","updated":"2025-09-27T22:14:31Z"}
