{"icao":"LPLA","metar":"LPLA 270800Z 29021G31KT 9999 FEW025 SCT035 13/08 Q1008","updated":"2026-01-27T08:32:13Z"}
