{"icao":"KORD","metar":"KORD 191327Z 07006KT 10SM OVC014 06/03 A3020 RMK AO2 T00610028 $","updated":"2025-11-19T13:31:10Z"}
