{"icao":"LPHR","metar":"LPHR 111700Z 32014KT 7000 VCSH SCT020 FEW025TCU 15/10 Q1006 RESHRA","updated":"2025-11-11T17:16:50Z"}
