{"icao":"LPMT","metar":"LPMT 172300Z 35006KT CAVOK 14/09 Q1020","updated":"2026-05-18T00:03:40Z"}
