{"icao":"KORD","metar":"KORD 201051Z 24007KT 10SM CLR M16/M21 A3032 RMK AO2 SLP286 T11611206 $","updated":"2026-01-20T11:22:26Z"}
