{"icao":"LPPS","metar":"LPPS 090230Z 07011KT 030V100 9999 SCT015 21/16 Q1025","updated":"2025-10-09T02:58:25Z"}
