{"icao":"LPPT","metar":"LPPT 181600Z 30007KT 270V340 9999 FEW035 18/11 Q1018","updated":"2025-11-18T16:25:48Z"}
