{"icao":"KLAX","metar":"KLAX 011953Z 25011KT 9SM FEW019 SCT045 BKN055 BKN150 17/14 A3007 RMK AO2 SLP181 T01670144 $","updated":"2026-01-01T20:22:36Z"}
