{"icao":"LPMR","metar":"LPMR 011000Z 14014G24KT CAVOK 09/06 Q1013","updated":"2026-01-01T10:21:26Z"}
