{"icao":"KORD","metar":"KORD 150851Z 22011G18KT 10SM BKN250 16/12 A2965 RMK AO2 SLP037 T01610122 56023 $","updated":"2025-11-15T09:17:07Z"}
