{"icao":"LPOV","metar":"LPOV 180100Z VRB01KT CAVOK 13/12 Q1015","updated":"2025-10-18T01:16:00Z"}
