{"icao":"LPMT","metar":"LPMT 281500Z 06010KT 040V110 9999 FEW025 15/08 Q1012","updated":"2025-12-28T15:18:39Z"}
