{"icao":"LPPR","metar":"LPPR 021030Z 07012KT 040V110 CAVOK 32/05 Q1020","updated":"2026-07-02T10:37:02Z"}
