{"icao":"LPPR","metar":"LPPR 081800Z 33008KT CAVOK 18/15 Q1020","updated":"2025-10-08T18:26:32Z"}
