{"icao":"LPOV","metar":"LPOV 211600Z 29015KT 260V320 4000 -SHRA BR FEW018CB SCT030 BKN040 12/11 Q1001 RESHRA","updated":"2026-01-21T16:42:49Z"}
