{"icao":"LPLA","metar":"LPLA 241600Z 31015KT 4000 -DZ BR BKN004 BKN015 20/19 Q1020","updated":"2026-06-24T16:20:20Z"}
