{"icao":"LPPS","metar":"LPPS 062000Z 04012KT 9999 SCT015 14/09 Q1029","updated":"2026-01-06T20:22:51Z"}
