{"icao":"LPPT","metar":"LPPT 021030Z 25012KT 230V290 9999 FEW020 FEW025CB SCT030 10/08 Q0999","updated":"2026-02-02T10:42:25Z"}
