{"icao":"LPPT","metar":"LPPT 190700Z 35005KT 320V050 9999 FEW007 SCT036 11/10 Q1019","updated":"2025-12-19T07:20:20Z"}
