{"icao":"LPFL","metar":"LPFL 181500Z 34009G19KT 280V020 9999 VCSH FEW026 15/06 Q1028","updated":"2025-12-18T15:21:16Z"}
