{"icao":"KORD","metar":"KORD 140851Z 27009G15KT 10SM OVC038 04/M01 A2958 RMK AO2 SLP019 T00441006 53001 $","updated":"2026-01-14T09:27:56Z"}
