{"icao":"LPFL","metar":"LPFL 291500Z 16009KT 9999 FEW012 SCT024 BKN049 19/16 Q1016","updated":"2026-05-29T15:24:57Z"}
