{"icao":"LPOV","metar":"LPOV 031100Z 04010KT 010V070 9999 FEW040 17/04 Q1014","updated":"2026-03-03T11:31:11Z"}
