{"icao":"LPMA","metar":"LPMA 230100Z 35009KT 9999 SCT015 20/14 Q1021","updated":"2025-09-23T01:17:31Z"}
