{"icao":"LPFR","metar":"LPFR 110600Z 03003KT 330V070 CAVOK 07/06 Q1028","updated":"2026-01-11T06:30:13Z"}
