{"icao":"KORD","metar":"KORD 110751Z 24006KT 10SM CLR M04/M08 A3010 RMK AO2 SLP201 T10391078","updated":"2025-11-11T08:24:37Z"}
