{"icao":"KORD","metar":"KORD 181251Z 29014G22KT 10SM SCT024 SCT070 SCT130 OVC220 08/02 A2976 RMK AO2 PK WND 30027/1205 SLP077 T00780022 $","updated":"2026-04-18T13:00:31Z"}
