{"icao":"KJFK","metar":"KJFK 051751Z 05007KT 020V090 10SM BKN032 OVC180 M02/M09 A3021 RMK AO2 PRESFR SLP229 T10171094 11017 21067 58045 $","updated":"2025-12-05T18:26:29Z"}
