{"icao":"LPPI","metar":"LPPI 010800Z VRB02KT 9999 FEW010 BKN020 20/16 Q1031","updated":"2026-07-01T08:11:22Z"}
