{"icao":"KLAX","metar":"KLAX 021053Z 03003KT 10SM FEW003 12/06 A3004 RMK AO2 SLP170 T01170056 $","updated":"2025-12-02T11:18:41Z"}
