{"icao":"LPMT","metar":"LPMT 081300Z 31008KT 9999 FEW028 BKN040 21/13 Q1021","updated":"2025-10-08T13:28:15Z"}
