{"icao":"LPAZ","metar":"LPAZ 010530Z 29009KT 0800 FG VV001 18/18 Q1027","updated":"2026-06-01T06:01:17Z"}
