{"icao":"LPMR","metar":"LPMR 192100Z 33002KT 4000 1500N PRFG BR FEW004 08/08 Q1022","updated":"2026-01-19T21:18:45Z"}
