{"icao":"LPCS","metar":"LPCS 081630Z 13008KT 090V160 9999 FEW028 FEW035TCU SCT040 16/07 Q1017","updated":"2026-04-08T17:00:32Z"}
