{"icao":"KORD","metar":"KORD 231351Z 31006KT 10SM FEW025 06/01 A3009 RMK AO2 SLP191 T00560011","updated":"2025-10-23T14:18:58Z"}
