{"icao":"LPCS","metar":"LPCS 031600Z 23003KT 150V280 CAVOK 18/11 Q1021","updated":"2025-11-03T16:21:01Z"}
