{"icao":"LPMT","metar":"LPMT 252200Z 08001KT CAVOK 16/07 Q1018","updated":"2025-09-25T22:14:10Z"}
