{"icao":"LPPR","metar":"LPPR 161230Z VRB02KT 8000 -SHRA FEW018CB BKN040 10/08 Q1012","updated":"2026-01-16T12:42:09Z"}
