{"icao":"LPFR","metar":"LPFR 301100Z 23009KT 7000 FEW008 BKN018 16/15 Q1016","updated":"2026-01-30T11:26:52Z"}
