{"icao":"LPFL","metar":"LPFL 010600Z 03004KT 320V100 9999 FEW015 16/13 Q1014","updated":"2026-05-01T06:15:36Z"}
