{"icao":"LPPD","metar":"LPPD 301200Z 24009KT 9999 SCT018 FEW022TCU 15/11 Q1008","updated":"2026-04-30T12:14:14Z"}
