{"icao":"KORD","metar":"KORD 211051Z 32006KT 10SM CLR M07/M14 A3030 RMK AO2 SLP269 T10671139","updated":"2025-12-21T11:16:08Z"}
