{"icao":"KJFK","metar":"KJFK 080251Z 21011KT 10SM BKN090 BKN110 OVC190 14/07 A2973 RMK AO2 SLP066 T01440072 58016","updated":"2025-11-08T03:00:55Z"}
