{"icao":"LPFL","metar":"LPFL 241430Z 33012KT 280V010 9999 SCT023 15/08 Q1020","updated":"2026-02-24T14:48:22Z"}
