{"icao":"LPPS","metar":"LPPS 042000Z 24008KT 210V280 9999 FEW014 18/14 Q1010","updated":"2026-02-04T20:33:15Z"}
