{"icao":"LPLA","metar":"LPLA 130400Z 33012KT 9999 FEW025 13/07 Q1022","updated":"2026-01-13T04:39:02Z"}
