{"icao":"LPMA","metar":"LPMA 262300Z 35015G25KT 280V030 9999 BKN015 17/09 Q1025","updated":"2026-02-26T23:28:40Z"}
