{"icao":"KJFK","metar":"KJFK 251551Z 18011KT 1SM R04R/P6000FT BR OVC003 23/22 A2989 RMK AO2 SFC VIS 6 SLP120 T02280217 $","updated":"2025-09-25T16:21:54Z"}
