{"icao":"LPHR","metar":"LPHR 252100Z 06005KT 360V100 9999 FEW010 15/12 Q1024","updated":"2025-12-25T23:18:47Z"}
