{"icao":"LPPT","metar":"LPPT 291300Z 23007KT 210V270 9999 FEW028 BKN035 16/10 Q1018","updated":"2025-11-29T13:25:13Z"}
