{"icao":"LPPT","metar":"LPPT 160700Z 24006KT 9999 FEW015 FEW025TCU 14/14 Q1011","updated":"2025-11-16T07:16:47Z"}
