{"icao":"KLAX","metar":"KLAX 240753Z 10004KT 10SM FEW250 15/10 A3008 RMK AO2 SLP184 T01500100 402330111","updated":"2026-02-24T08:46:23Z"}
