{"icao":"LPOV","metar":"LPOV 122200Z 16005KT 9999 FEW016 SCT035 15/14 Q1004","updated":"2025-11-13T05:18:51Z"}
