{"icao":"LPFR","metar":"LPFR 092030Z 33011KT CAVOK 27/12 Q1014","updated":"2026-06-09T20:55:38Z"}
