{"icao":"LPBJ","metar":"LPBJ 220800Z 11004KT CAVOK 05/02 Q1030","updated":"2025-11-22T08:22:22Z"}
