{"icao":"LPPT","metar":"LPPT 221600Z 30003KT 220V360 9999 FEW030 BKN043 13/08 Q1014","updated":"2025-12-22T16:24:37Z"}
