{"icao":"LPMT","metar":"LPMT 190700Z VRB02KT 9999 SCT030 05/05 Q1020","updated":"2026-01-19T07:27:51Z"}
