{"icao":"KLAX","metar":"KLAX 062253Z 23011KT 10SM FEW180 FEW250 22/M03 A2998 RMK AO2 SLP149 T02221033","updated":"2026-03-06T23:26:12Z"}
