{"icao":"LPAZ","metar":"LPAZ 141900Z 19012KT 9999 SCT020 21/17 Q1007","updated":"2025-10-14T19:13:53Z"}
