{"icao":"LPAZ","metar":"LPAZ 131700Z 17007KT 140V200 9999 SCT022 FEW028TCU 22/18 Q1015","updated":"2025-10-13T17:15:20Z"}
