{"icao":"LPPR","metar":"LPPR 310500Z 17020G30KT 1500 +RA BR BKN008 FEW017TCU 16/16 Q1008","updated":"2025-10-31T05:18:49Z"}
