{"icao":"KORD","metar":"KORD 071506Z 27007KT 2SM BR OVC002 00/M01 A2992 RMK AO2 T00001006","updated":"2026-01-07T15:24:31Z"}
