{"icao":"LPPR","metar":"LPPR 221100Z 13006KT CAVOK 10/04 Q1031","updated":"2025-11-22T11:13:18Z"}
