{"icao":"KJFK","metar":"KJFK 282251Z 35012KT 10SM SCT070 SCT085 BKN100 21/08 A2989 RMK AO2 SLP121 VCSH NW T02110083 $","updated":"2026-05-28T23:14:29Z"}
