{"icao":"KORD","metar":"KORD 161951Z 28010G16KT 10SM BKN045TCU BKN060 22/13 A2980 RMK AO2 SLP090 TCU NE-E T02220133 $","updated":"2026-04-16T20:46:52Z"}
