{"icao":"KORD","metar":"KORD 150651Z 22007G17KT 10SM FEW150 BKN190 M16/M22 A3046 RMK AO2 SLP331 T11611222","updated":"2025-12-15T07:23:49Z"}
