{"icao":"LPPR","metar":"LPPR 291300Z 21007KT 180V250 9999 BKN008 BKN013 19/16 Q1007","updated":"2025-10-29T13:31:32Z"}
