{"icao":"LPBJ","metar":"LPBJ 011700Z 30009KT CAVOK 37/14 Q1016","updated":"2026-07-01T17:53:22Z"}
