{"icao":"KLAX","metar":"KLAX 281153Z 08003KT 10SM FEW012 OVC037 20/16 A2996 RMK AO2 SLP142 T02000161 10200 20194 53006 $","updated":"2025-09-28T12:32:42Z"}
