{"icao":"LPAZ","metar":"LPAZ 070600Z 23014KT 210V270 2200 -SHRA SCT002 BKN009 FEW020TCU BKN030 18/17 Q1011 RESHRA","updated":"2025-12-07T06:26:47Z"}
