{"icao":"LPFR","metar":"LPFR 081100Z 25005KT CAVOK 13/10 Q1018","updated":"2026-02-08T11:21:28Z"}
