{"icao":"LPFL","metar":"LPFL 071000Z 26017G27KT 220V310 9000 -DZ FEW007 SCT012 20/17 Q1026","updated":"2026-06-07T10:27:40Z"}
