{"icao":"LPMA","metar":"LPMA 221600Z 04009KT 010V070 9999 FEW016 18/11 Q1024","updated":"2026-02-22T16:28:39Z"}
