{"icao":"LPMR","metar":"LPMR 291800Z 33007KT CAVOK 19/13 Q1017","updated":"2025-09-29T18:26:19Z"}
