{"icao":"KJFK","metar":"KJFK 260251Z 02004KT 10SM FEW055 BKN080 BKN210 12/02 A3036 RMK AO2 SLP282 T01220022 57003","updated":"2025-10-26T03:08:58Z"}
