{"icao":"LPMT","metar":"LPMT 161800Z 32004KT 290V350 9999 FEW018 FEW020TCU 09/07 Q1014","updated":"2026-01-16T18:30:44Z"}
