{"icao":"LPPS","metar":"LPPS 230600Z 04004KT 9999 SCT013 14/12 Q1022","updated":"2026-02-23T06:06:04Z"}
