{"icao":"LPCS","metar":"LPCS 191130Z 34008KT 310V010 9999 FEW028 14/07 Q1029","updated":"2026-02-19T11:37:05Z"}
