{"icao":"LPPD","metar":"LPPD 110930Z 34007KT 9999 FEW022 BKN040 13/07 Q1032","updated":"2026-04-11T09:38:43Z"}
