{"icao":"LPFL","metar":"LPFL 312100Z 36011KT 330V040 9999 FEW024 SCT028 16/07 Q1017","updated":"2025-11-01T01:26:39Z"}
