{"icao":"LPPT","metar":"LPPT 041600Z 34017KT 9999 FEW030 23/16 Q1022","updated":"2025-10-04T16:18:44Z"}
