{"icao":"LPPT","metar":"LPPT 060800Z 32008KT 290V350 9999 FEW030 07/04 Q1022","updated":"2026-01-06T08:29:07Z"}
