{"icao":"LPHR","metar":"LPHR 150800Z 36008KT 9999 SCT030 13/07 Q1015","updated":"2025-11-15T08:21:32Z"}
