{"icao":"KORD","metar":"KORD 300751Z 25005KT 9SM CLR 04/03 A3000 RMK AO2 SLP163 T00440028","updated":"2026-04-30T08:28:14Z"}
