{"icao":"LPHR","metar":"LPHR 162000Z 33005KT 9999 FEW020 19/16 Q1009","updated":"2025-10-16T23:14:56Z"}
