{"icao":"KORD","metar":"KORD 231310Z 02006KT 8SM OVC009 13/11 A3000 RMK AO2 T01330111","updated":"2026-05-23T13:22:03Z"}
