{"icao":"KLAX","metar":"KLAX 190653Z 09005KT 10SM FEW250 18/16 A3000 RMK AO2 SLP155 T01830161 $","updated":"2025-10-19T07:15:38Z"}
