{"icao":"LPMA","metar":"LPMA 160230Z 35009KT 320V020 9999 SCT016 16/11 Q1023","updated":"2026-05-16T02:47:43Z"}
