{"icao":"LPPT","metar":"LPPT 170000Z 31008KT 280V340 CAVOK 18/14 Q1018","updated":"2026-06-17T00:14:30Z"}
