{"icao":"LPPR","metar":"LPPR 261730Z 24005KT 210V290 9999 FEW015 22/18 Q1018","updated":"2026-06-26T17:45:42Z"}
