{"icao":"LPCS","metar":"LPCS 180700Z 02006KT CAVOK 11/09 Q1019","updated":"2025-11-18T07:18:13Z"}
