{"icao":"LPFL","metar":"LPFL 061030Z 33016KT 280V010 9999 VCSH SCT020 10/03 Q1021","updated":"2026-04-06T10:55:00Z"}
