{"icao":"LPOV","metar":"LPOV 231000Z 23012KT 200V260 9999 SCT023 FEW024CB BKN030 11/08 Q0999","updated":"2026-01-23T11:19:35Z"}
