{"icao":"LPAR","metar":"LPAR 271700Z 21003KT 180V270 9999 FEW035 26/14 Q1018","updated":"2025-10-28T01:20:07Z"}
