{"icao":"LPMT","metar":"LPMT 151900Z 24008KT 9999 FEW030 17/13 Q1008","updated":"2025-11-15T20:18:03Z"}
