{"icao":"LPPT","metar":"LPPT 131030Z 27013G28KT 230V300 9999 FEW020 13/09 Q1006 WS R20","updated":"2026-02-13T10:37:58Z"}
