{"icao":"LPFR","metar":"LPFR 250330Z 02006KT CAVOK 18/11 Q1015","updated":"2025-09-25T03:37:22Z"}
