{"icao":"LPLA","metar":"LPLA 270900Z 36006KT 330V030 9999 SCT016 BKN025 14/10 Q1030","updated":"2026-03-27T09:53:22Z"}
