{"icao":"KORD","metar":"KORD 090451Z 08005KT 10SM FEW035 13/05 A3042 RMK AO2 SLP302 T01280050 $","updated":"2025-10-09T05:17:38Z"}
