{"icao":"LPMA","metar":"LPMA 170100Z 34009G22KT 280V030 9999 FEW015 18/11 Q1027","updated":"2025-12-17T01:24:39Z"}
