{"icao":"LPST","metar":"LPST 091300Z 32009KT 290V350 9999 FEW020 15/08 Q1029","updated":"2026-01-09T13:36:40Z"}
