{"icao":"LPPR","metar":"LPPR 281830Z 31009KT 280V350 9999 BKN009 18/16 Q1021","updated":"2026-05-28T18:34:49Z"}
