{"icao":"LPMA","metar":"LPMA 131030Z 02019G31KT 340V050 9999 FEW015 25/17 Q1022","updated":"2025-09-13T10:48:54Z"}
