{"icao":"LPPR","metar":"LPPR 191300Z 18020G30KT 2000 R17/1200D RADZ BR SCT004 BKN006 18/17 Q1012","updated":"2025-10-19T13:21:25Z"}
