{"icao":"LPMR","metar":"LPMR 160800Z 16005KT 9999 SCT020 BKN030 08/08 Q1013","updated":"2026-01-16T08:28:42Z"}
