{"icao":"LPCS","metar":"LPCS 301400Z 35019KT 9999 FEW018 15/06 Q1018","updated":"2025-11-30T14:16:17Z"}
