{"icao":"LPPS","metar":"LPPS 131700Z 30017KT 9999 FEW015 FEW018CB 19/12 Q1005","updated":"2025-11-13T17:17:44Z"}
