{"icao":"LPMA","metar":"LPMA 200730Z 22014KT 200V260 9999 SCT014 15/11 Q0992","updated":"2026-03-20T07:44:35Z"}
