{"icao":"LPFR","metar":"LPFR 302100Z 25003KT CAVOK 20/17 Q1018","updated":"2025-09-30T21:15:02Z"}
