{"icao":"LPMA","metar":"LPMA 070330Z 02013KT 330V050 9999 SCT015 19/15 Q1022","updated":"2026-06-07T03:45:52Z"}
