{"icao":"LPHR","metar":"LPHR 201300Z 32013KT 290V350 9999 FEW030 16/08 Q1032","updated":"2025-12-20T13:26:27Z"}
