{"icao":"LPLA","metar":"LPLA 191600Z 19020G31KT 5000 -DZRA SCT007 BKN022 18/15 Q1019","updated":"2026-02-19T16:51:03Z"}
