{"icao":"LPFR","metar":"LPFR 051830Z 26018KT 7000 FEW020 FEW022TCU SCT030 16/13 Q1004","updated":"2026-02-05T18:45:11Z"}
