{"icao":"KLAX","metar":"KLAX 112053Z 00000KT 10SM FEW220 FEW260 SCT300 23/M01 A3018 RMK AO2 SLP217 CCSL DSNT NE T02331006 58024","updated":"2026-01-11T21:17:54Z"}
