{"icao":"KORD","metar":"KORD 131751Z 29007KT 10SM FEW020 OVC070 M12/M20 A3020 RMK AO2 SLP240 T11221200 11122 21128 58001","updated":"2025-12-13T18:25:05Z"}
