{"icao":"KJFK","metar":"KJFK 080651Z 28009KT 10SM FEW050 SCT250 03/M03 A3006 RMK AO2 SLP179 T00331033 $","updated":"2025-12-08T07:23:06Z"}
