{"icao":"LPFR","metar":"LPFR 022200Z 02003KT CAVOK 16/10 Q1024","updated":"2025-11-02T22:15:21Z"}
