{"icao":"LPFL","metar":"LPFL 220730Z 32013G31KT 220V010 9999 VCSH BKN017 12/06 Q1003","updated":"2026-04-22T07:44:50Z"}
