{"icao":"LPBJ","metar":"LPBJ 021900Z 31006KT CAVOK 21/08 Q1019","updated":"2026-04-02T19:50:22Z"}
