{"icao":"LPPT","metar":"LPPT 180600Z 32006KT 290V350 CAVOK 13/09 Q1018","updated":"2025-11-18T06:28:04Z"}
