{"icao":"LPAR","metar":"LPAR 011300Z 17006KT 130V200 CAVOK 33/17 Q1018","updated":"2026-07-01T19:51:54Z"}
