{"icao":"LPBJ","metar":"LPBJ 190500Z 14004KT CAVOK 17/13 Q1016 EMK RH75 BKN220 BLU","updated":"2025-10-19T05:17:10Z"}
