{"icao":"LPBJ","metar":"LPBJ 182300Z 29006KT 9999 FEW030 13/09 Q1022","updated":"2026-05-19T00:04:26Z"}
