{"icao":"KJFK","metar":"KJFK 241651Z 34010G17KT 10SM FEW050 BKN200 BKN250 M09/M23 A3066 RMK AO2 SLP380 T10941233 $","updated":"2026-01-24T17:17:07Z"}
