{"icao":"LPCS","metar":"LPCS 110700Z 14003KT 4000 -DZ BR FEW001 BKN008 12/12 Q1026","updated":"2026-01-11T07:19:41Z"}
