{"icao":"KLAX","metar":"KLAX 141253Z 07006KT 10SM -RA FEW020 SCT035 BKN070 OVC150 17/13 A2996 RMK AO2 SLP144 P0000 T01670128","updated":"2025-11-14T13:29:11Z"}
