{"icao":"LPHR","metar":"LPHR 121630Z 29025KT 9999 FEW025 17/08 Q1019","updated":"2026-02-12T16:57:10Z"}
