{"icao":"LPMT","metar":"LPMT 210100Z VRB02KT CAVOK 08/07 Q1029","updated":"2026-02-21T01:54:11Z"}
