{"icao":"LPPR","metar":"LPPR 230800Z 34005KT 9000 -RA FEW024 FEW028TCU SCT032 16/13 Q1020","updated":"2025-10-23T08:24:57Z"}
