{"icao":"LPBJ","metar":"LPBJ 271600Z 26014KT 9999 VCSH FEW040 25/11 Q1017","updated":"2025-09-27T16:19:13Z"}
