{"icao":"LPMA","metar":"LPMA 091500Z 04011KT 360V060 9999 SCT016 SCT033 22/13 Q1021","updated":"2025-11-09T15:15:46Z"}
