{"icao":"LPPS","metar":"LPPS 081500Z 05010KT 020V090 9999 SCT015 22/16 Q1021","updated":"2025-11-08T15:16:21Z"}
