{"icao":"LPBJ","metar":"LPBJ 012100Z 27005KT CAVOK 09/05 Q1019","updated":"2025-12-01T21:15:51Z"}
