{"icao":"LPMT","metar":"LPMT 202000Z 24004KT 200V270 9999 SCT004 BKN009 BKN020 19/18 Q1015","updated":"2025-10-20T20:20:45Z"}
