{"icao":"LPOV","metar":"LPOV 211000Z 16004KT 070V220 9999 FEW014 FEW020CB BKN026 06/05 Q1008","updated":"2025-12-21T10:18:50Z"}
