{"icao":"LPST","metar":"LPST 060800Z 00000KT CAVOK 15/12 Q1019","updated":"2025-10-06T08:23:46Z"}
