{"icao":"KLAX","metar":"KLAX 051053Z 02004KT 10SM FEW015 FEW028 SCT035 13/12 A3002 RMK AO2 SLP164 T01280122 $","updated":"2026-01-05T11:18:35Z"}
