{"icao":"LPMT","metar":"LPMT 061300Z 27008KT 9999 FEW025 SCT035 20/13 Q1018","updated":"2025-11-06T13:31:03Z"}
