{"icao":"KJFK","metar":"KJFK 132151Z 18018KT 10SM FEW050 BKN120 BKN250 04/M02 A2994 RMK AO2 PK WND 17029/2054 SLP137 T00391022","updated":"2026-03-13T22:27:09Z"}
