{"icao":"LPST","metar":"LPST 131300Z 28010KT 9999 FEW011 SCT045 14/11 Q1010","updated":"2026-01-13T13:39:54Z"}
