{"icao":"LPCS","metar":"LPCS 211600Z 36013KT CAVOK 15/03 Q1026","updated":"2025-11-21T16:23:35Z"}
