{"icao":"KORD","metar":"KORD 011751Z 09012KT 10SM FEW033 FEW250 M01/M17 A3049 RMK AO2 SLP333 T10061167 11006 21039 51003 $","updated":"2026-03-01T18:31:32Z"}
