{"icao":"LPOV","metar":"LPOV 131400Z 02003KT 320V130 CAVOK 20/11 Q1022","updated":"2025-12-13T14:16:49Z"}
