{"icao":"LPST","metar":"LPST 131000Z 25003KT 200V320 9999 SCT014 FEW018TCU SCT030 16/13 Q1020","updated":"2026-05-13T10:25:45Z"}
