{"icao":"LPBJ","metar":"LPBJ 080200Z 31006KT 9999 FEW015 15/13 Q1022","updated":"2025-10-08T02:56:15Z"}
