{"icao":"LPFR","metar":"LPFR 161000Z 33004KT 9999 FEW020 SCT048 12/11 Q1017","updated":"2026-01-16T10:22:22Z"}
