{"icao":"LPPT","metar":"LPPT 241730Z 22009KT CAVOK 26/11 Q1019","updated":"2026-05-24T18:04:29Z"}
