{"icao":"KLAX","metar":"KLAX 091053Z 00000KT 10SM CLR 11/M03 A3023 RMK AO2 SLP236 T01061028 $","updated":"2026-01-09T11:18:28Z"}
