{"icao":"LPLA","metar":"LPLA 160100Z 32015KT 9999 SCT025 BKN035 13/10 Q1031","updated":"2026-01-16T01:42:07Z"}
