{"icao":"LPPT","metar":"LPPT 160230Z 29002KT CAVOK 19/09 Q1015","updated":"2025-10-16T03:01:50Z"}
