{"icao":"LPHR","metar":"LPHR 261400Z 06018KT 040V110 6000 -SHRA SCT015 FEW017TCU 19/13 Q1024 RESHRA","updated":"2025-10-26T14:15:00Z"}
