{"icao":"LPFL","metar":"LPFL 130930Z 23007KT 200V270 9999 FEW023 15/10 Q1029","updated":"2026-02-13T09:42:23Z"}
