{"icao":"LPMT","metar":"LPMT 081300Z 10007KT 050V120 9999 BKN025 16/07 Q1016","updated":"2026-04-08T13:17:53Z"}
