{"icao":"LPBJ","metar":"LPBJ 092100Z 29007KT CAVOK 18/14 Q1020","updated":"2025-10-09T21:15:40Z"}
