{"icao":"KJFK","metar":"KJFK 260651Z 05008KT 10SM -RA SCT010 OVC032 05/04 A3005 RMK SLP174 P0001 T00500044 $ ","updated":"2026-04-26T07:27:07Z"}
