{"icao":"LPPS","metar":"LPPS 150800Z 26009KT 230V290 9999 -RA FEW012 BKN030 20/17 Q1013","updated":"2025-11-15T08:21:33Z"}
