{"icao":"KORD","metar":"KORD 062222Z 21004KT 5SM BR FEW065 SCT120 BKN170 BKN250 17/16 A2983 RMK AO2 RAE2158 P0000 T01720161","updated":"2026-03-06T22:27:54Z"}
