{"icao":"LPHR","metar":"LPHR 191300Z 05010G21KT 360V110 9999 FEW018 18/10 Q1027","updated":"2025-11-19T13:31:07Z"}
