{"icao":"LPST","metar":"LPST 051600Z 28009KT 7000 BKN007 BKN012 16/15 Q1022","updated":"2025-12-05T16:24:33Z"}
