{"icao":"LPBJ","metar":"LPBJ 201900Z 32012KT CAVOK 33/13 Q1013","updated":"2026-06-20T19:23:48Z"}
