{"icao":"KJFK","metar":"KJFK 111551Z 35012G22KT 10SM FEW055 14/M01 A3025 RMK AO2 PK WND 32026/1534 SLP243 T01441011","updated":"2026-04-11T16:36:01Z"}
