{"icao":"LPOV","metar":"LPOV 131000Z 29007KT 260V340 9999 SCT020 18/15 Q1020","updated":"2026-05-13T10:25:45Z"}
