{"icao":"LPPR","metar":"LPPR 272200Z 36004G14KT 330V040 CAVOK 09/06 Q1027","updated":"2026-02-27T22:21:27Z"}
