{"icao":"KLAX","metar":"KLAX 222053Z 24011KT 9SM FEW009 FEW025 SCT060 23/18 A2983 RMK AO2 SLP100 T02330178 58019 $","updated":"2025-09-22T21:14:49Z"}
