{"icao":"LPFR","metar":"LPFR 052300Z 25012KT 9000 FEW025 15/13 Q1006","updated":"2026-02-05T23:21:57Z"}
