{"icao":"LPLA","metar":"LPLA 070700Z 30011KT 260V330 9999 BKN025 BKN035 14/10 Q1012","updated":"2026-02-07T07:30:45Z"}
