{"icao":"KJFK","metar":"KJFK 211951Z 19018G31KT 10SM FEW036 FEW170 BKN250 00/M07 A3035 RMK PK WND 19031/1942 SLP276 T00001072 $ ","updated":"2026-01-21T20:29:06Z"}
