{"icao":"LPPR","metar":"LPPR 161300Z 22010KT 190V250 9999 VCSH SCT012 SCT018CB 17/14 Q1007","updated":"2025-11-16T13:22:39Z"}
