{"icao":"KJFK","metar":"KJFK 182027Z 01006KT 1/2SM R04R/5000VP6000FT BR FEW000 OVC004 03/03 A2976 RMK AO2 SFC VIS 2 PRESFR BR FEW000 T00330028 $","updated":"2026-02-18T20:38:01Z"}
