{"icao":"LPAZ","metar":"LPAZ 091530Z 29023KT 9999 SCT020 SCT027TCU 15/09 Q1015","updated":"2026-05-09T15:50:59Z"}
