{"icao":"LPAZ","metar":"LPAZ 200100Z 05010KT 020V090 9999 SCT024 17/12 Q1025","updated":"2025-11-20T01:22:26Z"}
