{"icao":"LPPT","metar":"LPPT 011000Z 05004KT 020V100 9999 FEW008 SCT038 18/16 Q1017","updated":"2025-11-01T10:17:04Z"}
