{"icao":"LPPR","metar":"LPPR 070530Z 16013KT 9999 SCT020 SCT030 09/07 Q1005","updated":"2026-02-07T05:40:33Z"}
