{"icao":"LPBJ","metar":"LPBJ 040600Z 10006KT 8000 VCFG NSC 11/10 Q1019","updated":"2025-11-04T06:28:25Z"}
