{"icao":"KORD","metar":"KORD 300151Z 20008G16KT 10SM BKN043 BKN055 OVC250 15/M01 A3003 RMK AO2 SLP170 T01501011 $","updated":"2026-03-30T02:25:32Z"}
