{"icao":"LPPR","metar":"LPPR 150600Z 04003KT 340V120 9999 FEW002 15/14 Q1022","updated":"2025-09-15T06:28:11Z"}
