{"icao":"LPBJ","metar":"LPBJ 131100Z 18013KT 8000 -RA FEW012 SCT045 12/11 Q1012","updated":"2026-01-13T11:19:14Z"}
