{"icao":"KJFK","metar":"KJFK 231951Z 36014KT 10SM FEW018 FEW038 BKN110 OVC130 21/17 A2985 RMK RAE47 SLP109 P0001 T02110172 ","updated":"2026-06-23T20:03:26Z"}
