{"icao":"LPPD","metar":"LPPD 152100Z 33005KT 290V010 9999 FEW020 14/09 Q1028","updated":"2025-12-15T21:18:47Z"}
