{"icao":"LPMT","metar":"LPMT 291500Z 02005KT 320V050 9999 FEW045 28/14 Q1015","updated":"2025-09-29T15:18:14Z"}
