{"icao":"LPBJ","metar":"LPBJ 201900Z 04005KT CAVOK 14/07 Q1028","updated":"2026-02-20T19:35:42Z"}
