{"icao":"KLAX","metar":"KLAX 091853Z 25010KT 10SM FEW018 SCT110 BKN180 21/15 A2997 RMK AO2 SLP146 T02110150 $","updated":"2026-04-09T19:05:08Z"}
