{"icao":"LPFR","metar":"LPFR 232330Z 26005KT CAVOK 14/11 Q1015","updated":"2026-04-23T23:43:04Z"}
