{"icao":"LPFR","metar":"LPFR 131500Z 25014KT 8000 -SHRA FEW015 FEW018CB SCT030 13/11 Q1013 RESHRA","updated":"2026-01-13T15:23:52Z"}
