{"icao":"LPPD","metar":"LPPD 300600Z 00000KT 0600 R30/0800 FG VV001 13/13 Q1013","updated":"2025-12-30T06:32:08Z"}
