{"icao":"KORD","metar":"KORD 211951Z 35004KT 10SM FEW024 SCT090 OVC140 08/02 A2996 RMK AO2 SLP149 T00830022","updated":"2025-11-21T20:21:41Z"}
