{"icao":"KORD","metar":"KORD 050651Z 22004KT 10SM CLR M12/M17 A3012 RMK AO2 SLP214 T11221172","updated":"2025-12-05T07:20:10Z"}
