{"icao":"LPAZ","metar":"LPAZ 270800Z 02016G26KT 350V050 6000 -SHRA SCT014 BKN020 FEW028TCU 18/16 Q1014","updated":"2025-10-27T08:25:45Z"}
