{"icao":"KJFK","metar":"KJFK 050051Z 34019G33KT 10SM FEW250 M01/M12 A3020 RMK AO2 PK WND 33033/0021 SLP226 T10061122 $","updated":"2025-12-05T01:27:19Z"}
