{"icao":"LPMR","metar":"LPMR 130300Z 16014KT 8000 -RA BKN022 12/10 Q1007","updated":"2026-01-13T03:26:47Z"}
