{"icao":"LPBJ","metar":"LPBJ 030300Z 31006KT CAVOK 13/10 Q1020","updated":"2026-06-03T03:57:41Z"}
