{"icao":"LPFR","metar":"LPFR 231300Z 12013KT CAVOK 25/02 Q1016","updated":"2025-09-23T13:27:00Z"}
