{"icao":"LPPD","metar":"LPPD 102000Z 21026G36KT 8000 FEW008 BKN012 BKN025 18/17 Q1016","updated":"2025-12-10T20:23:11Z"}
