{"icao":"KJFK","metar":"KJFK 071351Z 21014KT 10SM FEW043 BKN250 12/01 A3009 RMK AO2 SLP187 T01170011 $","updated":"2025-11-07T14:18:24Z"}
