{"icao":"LPPR","metar":"LPPR 010200Z 14009KT 4500 -DZ BR BKN005 11/11 Q1014","updated":"2026-02-01T02:12:20Z"}
