{"icao":"LPOV","metar":"LPOV 240900Z 17008KT 130V190 9999 FEW015 BKN022 13/10 Q1018","updated":"2026-02-24T09:51:41Z"}
