{"icao":"LPMT","metar":"LPMT 120800Z 01009KT CAVOK 22/17 Q1018","updated":"2026-06-12T08:23:41Z"}
