{"icao":"LPHR","metar":"LPHR 252200Z 28014KT 7000 -RA SCT003 BKN006 15/15 Q1007","updated":"2026-01-25T22:19:14Z"}
