{"icao":"LPFL","metar":"LPFL 091600Z 19010KT 150V240 9999 FEW034 17/08 Q1018","updated":"2025-12-09T16:26:38Z"}
