{"icao":"LPFL","metar":"LPFL 151100Z 14004KT 100V160 9999 FEW030 17/10 Q1017","updated":"2025-11-15T11:13:46Z"}
