{"icao":"LPFR","metar":"LPFR 311230Z 24008KT 9999 SCT032 15/11 Q1022","updated":"2026-01-31T12:44:17Z"}
