{"icao":"KORD","metar":"KORD 122051Z 24007G18KT 10SM FEW045 BKN250 07/M06 A3008 RMK AO2 SLP192 T00671056 58026 $","updated":"2026-03-12T21:31:12Z"}
