{"icao":"KJFK","metar":"KJFK 140351Z 18013G22KT 10SM SCT080 05/03 A2983 RMK AO2 PK WND 16026/0310 SLP102 T00500028","updated":"2026-03-14T04:12:19Z"}
