{"icao":"LPLA","metar":"LPLA 101600Z 21019G36KT 150V250 9999 SCT007 BKN014 18/16 Q1018","updated":"2026-01-10T16:23:11Z"}
