{"icao":"LPMA","metar":"LPMA 251800Z 23008KT 9999 SCT015 SCT033 23/19 Q1020","updated":"2026-06-25T18:07:58Z"}
