{"icao":"KORD","metar":"KORD 291709Z 35017G22KT 10SM BKN020 BKN032 OVC065 11/06 A2992 RMK AO2 T01110061","updated":"2026-04-29T17:26:58Z"}
