{"icao":"LPPT","metar":"LPPT 090800Z 23004KT 210V280 9999 4500NW VCSH FEW010 SCT018 11/11 Q1028","updated":"2026-01-09T08:29:15Z"}
