{"icao":"KORD","metar":"KORD 261551Z 28012G18KT 10SM FEW040 M17/M24 A3029 RMK AO2 SLP273 T11671244","updated":"2026-01-26T16:33:21Z"}
