{"icao":"LPMT","metar":"LPMT 290700Z 32004KT 290V360 CAVOK 18/14 Q1020","updated":"2026-05-29T07:53:42Z"}
