{"icao":"KJFK","metar":"KJFK 131851Z 19032G42KT 10SM FEW055 SCT100 BKN190 BKN250 18/06 A2989 RMK AO2 PK WND 19043/1817 SLP121 T01830061","updated":"2026-05-13T18:56:16Z"}
