{"icao":"LPLA","metar":"LPLA 160900Z 15006KT 100V180 9999 FEW020 SCT037 23/19 Q1022","updated":"2025-09-16T09:19:06Z"}
