{"icao":"LPPD","metar":"LPPD 030730Z 25019KT 5000 BR SCT003 BKN005 16/16 Q1007","updated":"2026-02-03T07:41:08Z"}
