{"icao":"LPMR","metar":"LPMR 200100Z 33003KT 6000 SCT004 BKN008 17/17 Q1013","updated":"2025-10-20T01:25:42Z"}
