{"icao":"LPPT","metar":"LPPT 140900Z VRB03KT 9999 FEW012 17/14 Q1024","updated":"2026-04-14T09:16:10Z"}
