{"icao":"KJFK","metar":"KJFK 212051Z 34005KT 10SM BKN044 BKN200 08/M02 A3000 RMK AO2 SLP158 T00781017 53007 $","updated":"2026-02-21T21:21:46Z"}
