{"icao":"LPOV","metar":"LPOV 051000Z 26007KT 240V300 8000 SCT002 BKN006 16/16 Q1019","updated":"2025-12-05T10:20:37Z"}
