{"icao":"LPLA","metar":"LPLA 172000Z 31013KT 9000 -RADZ SCT009 BKN014 18/17 Q1024","updated":"2025-11-17T20:21:38Z"}
