{"icao":"LPMT","metar":"LPMT 262200Z 02005KT CAVOK 11/08 Q1025","updated":"2025-11-26T22:18:06Z"}
