{"icao":"LPMA","metar":"LPMA 260830Z 02013KT 9999 BKN015 16/12 Q1018","updated":"2026-03-26T08:54:20Z"}
