{"icao":"LPMA","metar":"LPMA 120500Z 35013G30KT 300V070 9999 SCT015 17/07 Q1020","updated":"2025-12-12T05:20:31Z"}
