{"icao":"LPPT","metar":"LPPT 241600Z 29010KT 250V340 9999 FEW024 SCT032 12/07 Q1014","updated":"2026-01-24T16:23:10Z"}
