{"icao":"KJFK","metar":"KJFK 201551Z 17012KT 10SM BKN250 08/01 A3008 RMK AO2 SLP187 T00780011","updated":"2026-03-20T16:41:42Z"}
