{"icao":"LPPT","metar":"LPPT 312300Z 03011KT CAVOK 20/05 Q1023","updated":"2026-03-31T23:33:11Z"}
