{"icao":"LPBJ","metar":"LPBJ 121100Z 08005KT 050V140 CAVOK 24/13 Q1017","updated":"2025-10-12T11:12:44Z"}
