{"icao":"LPMT","metar":"LPMT 021700Z 33005KT CAVOK 27/15 Q1019","updated":"2025-10-02T17:12:59Z"}
