{"icao":"KLAX","metar":"KLAX 150453Z 26004KT 10SM BKN012 19/17 A2986 RMK AO2 SLP108 T01940167 $","updated":"2025-09-15T05:17:53Z"}
