{"icao":"KORD","metar":"KORD 272251Z 34014G21KT 10SM BKN065 07/M08 A3038 RMK AO2 SLP295 T00671083","updated":"2026-03-27T23:31:14Z"}
