{"icao":"LPLA","metar":"LPLA 210700Z 20016KT 170V230 7000 -RA SCT008 BKN012 17/15 Q1020","updated":"2026-02-21T07:30:49Z"}
