{"icao":"KJFK","metar":"KJFK 040651Z 34009KT 10SM BKN100 BKN120 BKN160 M02/M11 A3000 RMK AO2 SLP160 T10221106 $","updated":"2026-01-04T07:20:24Z"}
