{"icao":"LPFL","metar":"LPFL 221100Z 18006KT 160V220 9999 FEW016 SCT030 17/12 Q1030","updated":"2025-11-22T11:13:20Z"}
