{"icao":"LPPR","metar":"LPPR 271600Z 08008KT 050V120 CAVOK 14/01 Q1011","updated":"2025-12-27T16:22:27Z"}
