{"icao":"LPPR","metar":"LPPR 310700Z 09004KT 030V130 CAVOK 07/05 Q1019","updated":"2025-12-31T07:22:39Z"}
