{"icao":"KLAX","metar":"KLAX 251853Z 26008KT 8SM FEW250 SCT280 20/12 A3007 RMK AO2 SLP181 T02000122","updated":"2026-02-25T19:06:31Z"}
