{"icao":"KLAX","metar":"KLAX 140153Z 23004KT 10SM FEW045 FEW080 16/11 A3000 RMK AO2 SLP159 T01560106","updated":"2026-02-14T01:56:55Z"}
