{"icao":"KJFK","metar":"KJFK 251051Z 34007KT 10SM FEW065 FEW100 08/03 A3033 RMK AO2 SLP268 T00780033","updated":"2025-10-25T11:13:13Z"}
