{"icao":"LPOV","metar":"LPOV 261800Z 24003KT 020V120 9999 FEW020 BKN040 22/19 Q1018","updated":"2026-06-26T19:44:28Z"}
