{"icao":"LPFL","metar":"LPFL 090900Z 18021G35KT 150V210 9999 FEW007 SCT013 17/16 Q1021","updated":"2026-01-09T09:27:08Z"}
