{"icao":"LPPS","metar":"LPPS 191600Z 31008KT 280V340 9999 SCT006 SCT030 24/21 Q1018","updated":"2025-10-19T16:19:36Z"}
