{"icao":"KLAX","metar":"KLAX 110653Z 17004KT 10SM FEW130 18/15 A2981 RMK AO2 SLP092 T01830150 $","updated":"2025-10-11T07:15:17Z"}
