{"icao":"KORD","metar":"KORD 191551Z 24015G24KT 10SM FEW027 SCT120 BKN250 24/17 A2990 RMK AO2 PK WND 22029/1509 SLP122 T02390167","updated":"2026-05-19T16:17:43Z"}
