{"icao":"LPPD","metar":"LPPD 070700Z 01002KT 8000 FEW008 BKN014 16/15 Q1011","updated":"2025-12-07T07:17:17Z"}
