{"icao":"LPPT","metar":"LPPT 280430Z 28025G60KT 6000 -RA FEW004 SCT006 FEW015TCU 13/10 Q0993 RERA","updated":"2026-01-28T04:42:32Z"}
