{"icao":"KJFK","metar":"KJFK 240351Z 31016G25KT 10SM FEW050 SCT100 BKN250 M01/M08 A2976 RMK AO2 PK WND 30027/0311 SLP077 T10061083 $","updated":"2026-02-24T04:50:28Z"}
