{"icao":"KLAX","metar":"KLAX 041453Z 36005KT 10SM FEW190 SCT280 13/M03 A3015 RMK AO2 SLP209 T01331033 53021 $","updated":"2025-12-04T15:22:34Z"}
