{"icao":"KORD","metar":"KORD 020951Z 21005KT 10SM FEW050 SCT250 26/23 A3000 RMK AO2 SLP153 T02610228 $","updated":"2026-07-02T10:37:39Z"}
