{"icao":"LPPR","metar":"LPPR 231230Z 24010KT 210V310 9999 FEW017 SCT030 10/05 Q0996","updated":"2026-01-23T12:43:59Z"}
