{"icao":"LPOV","metar":"LPOV 150100Z VRB01KT 2000 BR BKN004 13/13 Q1017","updated":"2025-10-15T01:20:19Z"}
