{"icao":"KORD","metar":"KORD 270851Z 23004KT 10SM CLR 18/12 A2990 RMK AO2 SLP120 T01780122 51003 $","updated":"2025-09-27T09:16:03Z"}
