{"icao":"LPLA","metar":"LPLA 230100Z 16012G23KT 120V210 9999 SCT012 BKN015 17/14 Q1017","updated":"2026-02-23T02:04:17Z"}
