{"icao":"LPMA","metar":"LPMA 200100Z VRB02KT 9999 FEW015 22/19 Q1020","updated":"2025-09-20T01:15:43Z"}
