{"icao":"LPOV","metar":"LPOV 050100Z 16010KT 1000 +RA BR BKN005 BKN010 FEW018TCU 13/13 Q0989","updated":"2026-02-05T01:59:10Z"}
