{"icao":"LPFL","metar":"LPFL 180830Z 03005KT 340V080 9999 FEW019 15/11 Q1018","updated":"2026-04-18T08:49:44Z"}
