{"icao":"LPPR","metar":"LPPR 111700Z 19012KT 5000 -DZRA BR SCT003 BKN005 13/13 Q1023 REDZ","updated":"2026-01-11T17:16:35Z"}
