{"icao":"LPPR","metar":"LPPR 151400Z 19012KT 3000 RADZ BR SCT004 BKN009 FEW015TCU 11/10 Q1012 WS ALL RWY","updated":"2026-01-15T14:23:31Z"}
