{"icao":"KORD","metar":"KORD 171051Z 35004KT 10SM FEW250 17/16 A3011 RMK AO2 SLP192 T01720156 $","updated":"2025-09-17T11:13:52Z"}
