{"icao":"LPPT","metar":"LPPT 101030Z 34014KT 9999 VCSH FEW012 SCT015 12/09 Q1022","updated":"2026-03-10T10:37:34Z"}
