{"icao":"LPPR","metar":"LPPR 231430Z 32007KT 270V010 CAVOK 23/17 Q1022","updated":"2026-05-23T14:59:19Z"}
