{"icao":"KLAX","metar":"KLAX 140353Z 18003KT 10SM CLR 18/09 A3015 RMK AO2 SLP209 T01780094 $","updated":"2026-01-14T04:45:35Z"}
