{"icao":"LPHR","metar":"LPHR 141000Z 26015KT 6000 VCSH SCT002 BKN004 FEW012TCU 18/18 Q1021","updated":"2025-12-14T10:18:55Z"}
