{"icao":"LPMT","metar":"LPMT 181900Z 23006KT 180V250 CAVOK 21/16 Q1015","updated":"2025-10-18T19:12:49Z"}
