{"icao":"LPAR","metar":"LPAR 051100Z 02012G25KT 350V060 CAVOK 09/M03 Q1014","updated":"2026-01-05T11:18:20Z"}
