{"icao":"LPPT","metar":"LPPT 021300Z 32008KT 290V350 9999 FEW040 27/16 Q1021","updated":"2025-10-02T13:25:11Z"}
