{"icao":"LPPT","metar":"LPPT 210700Z 25008KT 230V300 5000 -DZ BR FEW002 BKN005 20/20 Q1014 REDZ","updated":"2025-10-21T07:18:27Z"}
