{"icao":"LPMA","metar":"LPMA 232230Z VRB02KT 9999 SCT015 17/11 Q1017","updated":"2026-04-23T22:41:57Z"}
