{"icao":"LPPR","metar":"LPPR 141700Z 28003KT 250V320 CAVOK 21/15 Q1016","updated":"2025-10-14T17:15:16Z"}
