{"icao":"LPAZ","metar":"LPAZ 181800Z 27011KT 6000 BKN003 23/22 Q1017","updated":"2025-10-18T18:22:28Z"}
