{"icao":"KORD","metar":"KORD 240451Z 28004KT 10SM CLR 04/00 A3018 RMK AO2 SLP225 T00440000","updated":"2025-10-24T05:17:40Z"}
