{"icao":"LPMR","metar":"LPMR 100100Z 19007KT 9999 SCT020 FEW022CB SCT035 12/10 Q1008 RESHRA","updated":"2026-05-10T02:49:42Z"}
