{"icao":"LPHR","metar":"LPHR 241300Z 23020KT 6000 VCSH SCT003 BKN006 BKN011 FEW013TCU 16/16 Q1008 RERA","updated":"2026-04-24T13:22:58Z"}
