{"icao":"LPFL","metar":"LPFL 251400Z 19008KT 140V240 9999 FEW014 21/15 Q1025","updated":"2025-11-25T14:18:55Z"}
