{"icao":"KJFK","metar":"KJFK 182251Z 16008KT 10SM FEW100 FEW250 M01/M10 A3039 RMK AO2 SLP291 T10111100","updated":"2026-03-18T23:29:37Z"}
