{"icao":"LPBJ","metar":"LPBJ 271400Z 16005KT 090V210 9999 SCT026 25/15 Q1019","updated":"2025-10-27T14:19:05Z"}
