{"icao":"LPAZ","metar":"LPAZ 140800Z 17003KT 120V230 9999 FEW018 11/09 Q1032","updated":"2026-02-14T08:30:45Z"}
