{"icao":"KORD","metar":"KORD 061551Z 29005KT 6SM HZ BKN055 04/02 A2956 RMK AO2 SLP013 T00440017","updated":"2026-01-06T16:27:53Z"}
