{"icao":"KORD","metar":"KORD 111851Z 29009KT 10SM FEW250 03/M07 A3020 RMK AO2 SLP234 T00331067 $","updated":"2026-02-11T19:01:41Z"}
