{"icao":"LPLA","metar":"LPLA 271400Z 23028G46KT 6000 RA SCT009 SCT020 15/12 Q1002","updated":"2026-01-27T14:28:23Z"}
