{"icao":"LPPS","metar":"LPPS 101000Z 04008KT 360V090 9999 FEW015 BKN030 22/14 Q1024","updated":"2025-10-10T10:19:33Z"}
