{"icao":"KLAX","metar":"KLAX 061253Z 00000KT 10SM BKN011 16/15 A2981 RMK AO2 SLP094 T01610150 $","updated":"2025-10-06T13:27:35Z"}
