{"icao":"LPOV","metar":"LPOV 221100Z VRB03KT CAVOK 14/10 Q1029","updated":"2026-02-22T11:19:47Z"}
