{"icao":"LPCS","metar":"LPCS 151330Z 34017KT 320V020 9999 FEW015 SCT025 18/11 Q1016","updated":"2026-05-15T14:03:55Z"}
