{"icao":"LPLA","metar":"LPLA 010500Z 19007KT 170V230 9999 FEW015 21/19 Q1020","updated":"2025-10-01T05:17:29Z"}
