{"icao":"LPLA","metar":"LPLA 090400Z 28010KT 250V310 9999 FEW025 BKN035 17/13 Q1023","updated":"2025-11-09T04:20:55Z"}
