{"icao":"LPPS","metar":"LPPS 170600Z 01006KT 9999 SCT013 19/17 Q1021","updated":"2026-06-17T06:09:33Z"}
