{"icao":"LPLA","metar":"LPLA 300700Z 28004KT 250V330 9999 FEW025 15/06 Q1017","updated":"2026-01-30T07:38:56Z"}
