{"icao":"KJFK","metar":"KJFK 171951Z 19018KT 10SM FEW050 FEW250 24/15 A3004 RMK AO2 SLP173 T02390150 $","updated":"2026-05-17T20:50:17Z"}
