{"icao":"KORD","metar":"KORD 251851Z 21016G26KT 10SM BKN250 19/M03 A2989 RMK AO2 PK WND 19026/1850 SLP121 T01891033","updated":"2026-03-25T19:01:10Z"}
