{"icao":"KJFK","metar":"KJFK 230251Z 26009KT 10SM BKN095 BKN150 BKN210 BKN250 03/M06 A3042 RMK AO2 SLP301 T00281061 56012 $","updated":"2025-12-23T03:25:30Z"}
