{"icao":"LPFR","metar":"LPFR 151900Z VRB02KT CAVOK 15/12 Q1017","updated":"2026-03-15T19:26:38Z"}
