{"icao":"LPPT","metar":"LPPT 131730Z 30015G28KT 260V320 9999 VCSH FEW020 FEW025CB 12/08 Q1010 WS R02","updated":"2026-02-13T17:38:33Z"}
