{"icao":"KORD","metar":"KORD 280051Z 24003KT 10SM CLR 26/11 A2993 RMK AO2 SLP131 T02560106 $","updated":"2025-09-28T01:25:38Z"}
