{"icao":"LPPR","metar":"LPPR 261100Z 21014KT 6000 -RADZ BKN007 BKN011 14/14 Q1008","updated":"2026-01-26T11:19:42Z"}
