{"icao":"LPMR","metar":"LPMR 181300Z 31009KT 250V340 9999 FEW030 27/13 Q1016","updated":"2025-10-18T13:21:26Z"}
