{"icao":"KJFK","metar":"KJFK 290551Z 32012KT 10SM FEW250 M09/M18 A3002 RMK SLP166 4/007 T10941178 11061 21100 58004 $ ","updated":"2026-01-29T06:44:31Z"}
