{"icao":"LPHR","metar":"LPHR 250600Z 05021G35KT 7000 -SHRA SCT011 FEW013TCU BKN020 18/15 Q1017","updated":"2025-10-25T06:23:54Z"}
