{"icao":"LPPD","metar":"LPPD 150400Z 20014KT 9999 FEW016 21/17 Q1006","updated":"2025-10-15T04:21:12Z"}
