{"icao":"LPST","metar":"LPST 291000Z 27001KT 200V320 CAVOK 07/06 Q1020","updated":"2025-12-29T10:21:54Z"}
