{"icao":"LPBJ","metar":"LPBJ 181800Z 33005KT 9999 VCSH FEW030 09/05 Q1014","updated":"2026-01-18T18:26:38Z"}
