{"icao":"LPPR","metar":"LPPR 051500Z 35013KT CAVOK 11/00 Q1015","updated":"2026-01-05T15:22:35Z"}
