{"icao":"KLAX","metar":"KLAX 161353Z 24004KT 10SM BKN022 OVC027 17/13 A2992 RMK AO2 SLP129 T01670133","updated":"2026-05-16T14:55:23Z"}
