{"icao":"LPPR","metar":"LPPR 271100Z 11008KT 090V150 CAVOK 18/08 Q1022","updated":"2025-10-27T11:16:01Z"}
