{"icao":"LPPT","metar":"LPPT 211900Z 27006KT 240V300 9999 -DZ FEW010 BKN016 21/19 Q1016","updated":"2025-10-21T19:15:02Z"}
