{"icao":"LPMA","metar":"LPMA 140800Z 01010KT 330V050 9999 SCT016 15/07 Q1030","updated":"2026-02-14T08:30:46Z"}
