{"icao":"LPPR","metar":"LPPR 100830Z 23012KT 200V260 2000 RA BR BKN002 FEW018CB 14/14 Q1010","updated":"2026-02-10T08:54:13Z"}
