{"icao":"KJFK","metar":"KJFK 020551Z 28011KT 10SM OVC055 M05/M15 A2988 RMK AO2 SLP117 T10501150 11039 21061 58009 $","updated":"2026-01-02T06:31:42Z"}
