{"icao":"LPPD","metar":"LPPD 051300Z 11009KT 080V140 9999 FEW016 SCT025 23/19 Q1024","updated":"2025-10-05T13:20:16Z"}
