{"icao":"KJFK","metar":"KJFK 140251Z 03016G28KT 10SM OVC011 13/12 A2997 RMK AO2 PK WND 03029/0152 RAB06E14 SLP150 P0000 60000 T01330122 51010","updated":"2025-10-14T02:59:22Z"}
