{"icao":"KJFK","metar":"KJFK 041751Z 12015KT 10SM SCT090 BKN110 BKN220 19/11 A3020 RMK AO2 SLP228 T01940106 10211 20144 58001","updated":"2026-04-04T18:40:15Z"}
