{"icao":"LPPT","metar":"LPPT 030800Z 26004KT 210V300 9999 FEW015 15/12 Q1015","updated":"2026-05-03T08:06:49Z"}
