{"icao":"LPPS","metar":"LPPS 121230Z 19011KT 9999 FEW014 FEW016TCU 20/17 Q1005","updated":"2025-11-12T12:39:34Z"}
