{"icao":"LPAZ","metar":"LPAZ 251000Z 24021KT 9000 FEW010 SCT016 17/15 Q1020","updated":"2026-01-25T10:20:40Z"}
