{"icao":"KJFK","metar":"KJFK 010851Z 03014G24KT 10SM FEW250 15/05 A3011 RMK AO2 SLP196 T01500050 53010 $","updated":"2025-10-01T09:19:40Z"}
