{"icao":"LPSJ","metar":"LPSJ 291630Z 24007KT 200V280 9999 FEW025 23/16 Q1030","updated":"2026-06-30T00:02:56Z"}
