{"icao":"LPBJ","metar":"LPBJ 071300Z 15006KT 050V200 9999 FEW035 27/15 Q1021","updated":"2025-10-07T13:27:59Z"}
