{"icao":"LPHR","metar":"LPHR 121700Z 23015KT 9999 SCT005 SCT010 BKN025 16/15 Q1027","updated":"2026-04-12T17:33:05Z"}
