{"icao":"KJFK","metar":"KJFK 131751Z 24013KT 10SM SCT250 07/M06 A3001 RMK AO2 SLP160 T00721056 10072 20000 58034 $","updated":"2026-01-13T18:30:09Z"}
