{"icao":"LPPT","metar":"LPPT 071130Z 22008KT 9999 -RA FEW012 BKN045 13/09 Q1013","updated":"2026-04-07T11:52:42Z"}
