{"icao":"KORD","metar":"KORD 310121Z 24008KT 1SM -SN BR BKN013 OVC021 M06/M07 A3002 RMK T10561072 ","updated":"2025-12-31T01:39:38Z"}
