{"icao":"KLAX","metar":"KLAX 072153Z 25013KT 10SM FEW015 FEW075 SCT180 18/09 A2989 RMK AO2 SLP123 T01780089 $","updated":"2026-01-07T22:19:54Z"}
