{"icao":"LPPS","metar":"LPPS 130330Z 34008KT 9999 SCT015 BKN030 19/15 Q1019","updated":"2026-06-13T03:35:32Z"}
