{"icao":"KORD","metar":"KORD 181151Z 19014G22KT 10SM SCT060 BKN090 OVC250 24/17 A2983 RMK AO2 SLP096 CB DSNT NW-N T02390172 10250 20233 53005","updated":"2026-05-18T12:28:24Z"}
