{"icao":"LPLA","metar":"LPLA 042300Z 36004KT 310V090 9999 FEW025 SCT035 14/07 Q1027","updated":"2026-01-04T23:18:46Z"}
