{"icao":"KORD","metar":"KORD 162151Z 06008KT 10SM BKN045 23/12 A2983 RMK AO2 SLP099 WSHFT 13 T02330117 $","updated":"2026-04-16T22:38:36Z"}
