{"icao":"LPLA","metar":"LPLA 092300Z VRB01KT CAVOK 10/06 Q1036","updated":"2026-03-09T23:26:47Z"}
