{"icao":"LPOV","metar":"LPOV 290300Z 17007KT 9999 FEW015 BKN022 FEW025TCU 16/16 Q1007","updated":"2025-10-29T03:14:12Z"}
