{"icao":"KORD","metar":"KORD 160351Z 06008KT 10SM FEW025 BKN044 OVC100 15/09 A3021 RMK AO2 SLP229 T01500094","updated":"2025-10-16T04:20:52Z"}
