{"icao":"KJFK","metar":"KJFK 140351Z 27009KT 10SM BKN180 BKN250 M01/M08 A3015 RMK AO2 SLP207 T10061083 $","updated":"2026-02-14T04:11:50Z"}
