{"icao":"LPPT","metar":"LPPT 220800Z 33007KT CAVOK 14/07 Q1021","updated":"2025-09-22T08:24:36Z"}
