{"icao":"LPPS","metar":"LPPS 081500Z 28016KT 9999 FEW011 19/16 Q1022","updated":"2026-02-08T15:25:03Z"}
