{"icao":"LPPD","metar":"LPPD 010800Z 24019KT 9999 FEW007 BKN010 16/15 Q1007","updated":"2026-02-01T08:30:57Z"}
