{"icao":"KORD","metar":"KORD 260751Z 15012G18KT 10SM OVC013 05/01 A2981 RMK AO2 DZE10 SLP099 P0000 T00500006 $","updated":"2025-12-26T08:26:50Z"}
