{"icao":"LPPS","metar":"LPPS 171300Z 02010KT 350V060 9999 SCT015 SCT030 17/14 Q1026","updated":"2025-12-17T13:32:46Z"}
