{"icao":"LPLA","metar":"LPLA 181400Z 32018KT 5000 -DZ BR SCT004 SCT008 BKN012 18/17 Q1025","updated":"2025-11-18T14:18:53Z"}
