{"icao":"LPMR","metar":"LPMR 221400Z 24008KT 5000 -DZ BR SCT008 BKN011 21/19 Q1017","updated":"2025-10-22T14:19:47Z"}
