{"icao":"KJFK","metar":"KJFK 212051Z 01009KT 10SM -RA FEW019 SCT050 BKN110 OVC130 16/12 A3021 RMK AO2 RAB46 SLP231 P0000 60000 T01560122 56009","updated":"2026-05-21T21:27:19Z"}
