{"icao":"LPMA","metar":"LPMA 272100Z 32005KT 270V350 CAVOK 16/11 Q1018","updated":"2026-01-27T21:17:16Z"}
