{"icao":"LPHR","metar":"LPHR 101600Z 22017KT 3000 -RADZ BR SCT004 BKN009 18/17 Q1017","updated":"2026-01-10T16:23:12Z"}
