{"icao":"LPAZ","metar":"LPAZ 010830Z 05006KT 9999 SCT010 BKN020 14/12 Q1029","updated":"2026-04-01T09:02:19Z"}
