{"icao":"KORD","metar":"KORD 130251Z 27007KT 10SM SCT300 07/M02 A3003 RMK AO2 SLP171 T00721022 53012 $","updated":"2025-11-13T03:14:08Z"}
