{"icao":"LPLA","metar":"LPLA 172300Z 30013KT 9000 -RA SCT017 BKN025 OVC035 16/13 Q1018","updated":"2025-12-17T23:18:49Z"}
