{"icao":"LPFL","metar":"LPFL 251600Z 26008G18KT 210V310 9999 SCT012 BKN016 17/13 Q1006","updated":"2026-01-25T16:24:35Z"}
