{"icao":"LPPR","metar":"LPPR 040300Z 16011KT CAVOK 16/10 Q1017","updated":"2025-11-04T03:08:41Z"}
