{"icao":"LPFL","metar":"LPFL 100930Z 17007KT 9999 FEW015 BKN030 19/18 Q1029","updated":"2026-06-10T09:56:57Z"}
