{"icao":"LPMA","metar":"LPMA 041700Z 36005G16KT 320V040 9999 BKN018 18/09 Q1026","updated":"2025-12-04T17:21:43Z"}
