{"icao":"KJFK","metar":"KJFK 192051Z 31015G23KT 10SM SCT070 SCT095 BKN250 29/09 A2965 RMK AO2 SLP038 T02890094 56009 $","updated":"2026-06-19T21:09:25Z"}
