{"icao":"LPBJ","metar":"LPBJ 010500Z 09002KT CAVOK 15/11 Q1019","updated":"2025-10-01T05:17:28Z"}
