{"icao":"LPOV","metar":"LPOV 231100Z 26003KT 190V320 9999 FEW006 22/19 Q1014","updated":"2026-06-23T12:05:08Z"}
