{"icao":"KORD","metar":"KORD 191851Z 24014G26KT 10SM BKN036 OVC048 25/17 A2991 RMK AO2 PK WND 23029/1817 SLP126 T02500172","updated":"2026-05-19T18:58:49Z"}
