{"icao":"LPLA","metar":"LPLA 020700Z 09011KT 050V110 9999 FEW012 SCT020 15/13 Q1020","updated":"2026-05-02T07:41:54Z"}
