{"icao":"LPCS","metar":"LPCS 041100Z 12005KT 080V160 CAVOK 23/05 Q1022","updated":"2026-04-04T11:28:02Z"}
