{"icao":"LPHR","metar":"LPHR 271430Z 08012G22KT 040V120 9999 FEW018 SCT033 17/10 Q1030","updated":"2026-03-27T14:48:40Z"}
