{"icao":"LPPT","metar":"LPPT 240100Z 34008KT CAVOK 18/06 Q1018","updated":"2025-09-24T01:17:52Z"}
