{"icao":"LPHR","metar":"LPHR 241700Z 32017G30KT 290V350 9999 SCT018 SCT035 16/08 Q1019","updated":"2026-02-24T17:08:35Z"}
