{"icao":"KLAX","metar":"KLAX 221653Z 22003KT 7SM FEW009 SCT140 SCT180 22/18 A2990 RMK AO2 SLP123 SCT V BKN T02170178 $","updated":"2025-09-22T17:14:53Z"}
