{"icao":"LPFL","metar":"LPFL 061000Z 29012G23KT 240V360 9999 4500N -DZRA FEW007 SCT014 FEW015CB 18/16 Q1004 RERA","updated":"2025-12-06T10:18:24Z"}
