{"icao":"LPFR","metar":"LPFR 091900Z 35004KT 300V010 CAVOK 16/10 Q1020","updated":"2025-11-09T19:12:34Z"}
