{"icao":"LPFL","metar":"LPFL 291500Z 22016G29KT 170V300 9999 FEW012 SCT015 18/13 Q1008 WS ALL RWY","updated":"2026-01-29T15:34:24Z"}
