{"icao":"LPLA","metar":"LPLA 052300Z 21026G39KT 9999 FEW025 20/15 Q1012","updated":"2025-11-05T23:17:33Z"}
