{"icao":"KORD","metar":"KORD 250751Z 00000KT 10SM FEW250 03/01 A3031 RMK AO2 SLP267 T00280006 $","updated":"2025-10-25T08:20:31Z"}
