{"icao":"LPPR","metar":"LPPR 141900Z 33007KT 300V360 9999 FEW007 20/19 Q1023","updated":"2025-09-14T19:11:44Z"}
