{"icao":"LPFL","metar":"LPFL 111330Z 16006KT 120V190 9999 FEW033 15/06 Q1034","updated":"2026-04-11T13:56:12Z"}
