{"icao":"LPFL","metar":"LPFL 031600Z VRB04KT 9999 FEW008 SCT049 20/15 Q1025","updated":"2025-12-03T16:27:37Z"}
