{"icao":"KJFK","metar":"KJFK 142251Z 11008KT 10SM SCT060 OVC090 07/02 A2954 RMK AO2 SLP003 T00670022 $","updated":"2026-01-14T23:17:08Z"}
