{"icao":"LPOV","metar":"LPOV 222200Z 04002KT CAVOK 12/11 Q1014","updated":"2026-04-23T05:28:48Z"}
