{"icao":"KLAX","metar":"KLAX 150253Z 26010KT 10SM FEW014 17/14 A2997 RMK AO2 SLP148 T01670139 55001","updated":"2026-05-15T03:46:55Z"}
