{"icao":"KLAX","metar":"KLAX 271053Z 05005KT 4SM BR FEW007 BKN011 16/14 A2998 RMK AO2 SLP152 T01610144 $","updated":"2025-10-27T11:16:35Z"}
