{"icao":"LPPD","metar":"LPPD 051330Z 08008KT 040V110 9999 FEW025 BKN045 15/06 Q1030","updated":"2026-01-05T13:39:53Z"}
