{"icao":"KJFK","metar":"KJFK 131451Z 21009KT 10SM BKN050 OVC150 02/M07 A3015 RMK AO2 SLP209 T00171067 58000","updated":"2025-12-13T15:17:35Z"}
