{"icao":"LPCS","metar":"LPCS 030830Z 28010KT 220V320 9999 FEW020 FEW030TCU 12/08 Q1002","updated":"2026-02-03T08:34:41Z"}
