{"icao":"LPPT","metar":"LPPT 160500Z 35003KT CAVOK 20/09 Q1015","updated":"2025-10-16T05:17:06Z"}
