{"icao":"LPAZ","metar":"LPAZ 281200Z 16010KT 120V190 9999 FEW024 SCT040 24/13 Q1029","updated":"2025-09-28T12:32:38Z"}
