{"icao":"LPMT","metar":"LPMT 031000Z 04004KT 010V070 CAVOK 20/14 Q1023","updated":"2025-10-03T10:17:48Z"}
