{"icao":"LPFR","metar":"LPFR 082100Z 30010KT CAVOK 18/14 Q1021","updated":"2025-10-08T21:15:46Z"}
