{"icao":"LPPT","metar":"LPPT 130800Z 03004KT 350V070 CAVOK 21/12 Q1016","updated":"2025-10-13T08:25:50Z"}
