{"icao":"LPFL","metar":"LPFL 261500Z 15011KT 9999 BKN006 16/15 Q1023","updated":"2025-12-26T15:19:32Z"}
