{"icao":"LPFR","metar":"LPFR 311900Z 25009KT 9000 FEW025 14/12 Q1021","updated":"2026-01-31T19:19:27Z"}
