{"icao":"KORD","metar":"KORD 122051Z 23012KT 10SM FEW250 06/M03 A3005 RMK AO2 SLP184 T00561028 56014 $","updated":"2026-01-12T21:19:59Z"}
