{"icao":"LPFL","metar":"LPFL 220800Z 20011KT 7000 -RA SCT007 SCT012 16/14 Q1020","updated":"2025-12-22T08:28:54Z"}
