{"icao":"KORD","metar":"KORD 160651Z 06006KT 10SM OVC042 15/09 A3021 RMK AO2 SLP228 T01500089 $","updated":"2025-10-16T07:18:03Z"}
