{"icao":"LPFR","metar":"LPFR 220430Z 29009KT 260V320 9999 FEW020 SCT030 13/09 Q1010","updated":"2026-01-22T04:46:53Z"}
