{"icao":"LPAZ","metar":"LPAZ 051500Z 06008KT 020V090 9999 FEW032 BKN048 15/09 Q1029","updated":"2026-01-05T15:22:39Z"}
