{"icao":"KORD","metar":"KORD 062151Z 18010KT 10SM SCT170 BKN250 OVC300 14/M06 A2999 RMK AO2 SLP158 T01391056","updated":"2025-11-06T22:17:35Z"}
