{"icao":"LPPR","metar":"LPPR 132200Z 17017KT 9999 SCT032 BKN040 16/13 Q0995","updated":"2025-11-13T22:18:00Z"}
