{"icao":"LPMT","metar":"LPMT 121500Z 33015G26KT 9999 SCT040 16/06 Q1019","updated":"2026-04-12T15:34:40Z"}
