{"icao":"KJFK","metar":"KJFK 012051Z 19015KT 10SM FEW055 FEW250 28/22 A2996 RMK SLP144 T02780217 58012 $ ","updated":"2026-07-01T21:27:11Z"}
