{"icao":"LPPD","metar":"LPPD 041730Z 36027G39KT 6000 VCSH FEW010 13/11 Q1026","updated":"2026-03-04T17:37:11Z"}
