{"icao":"KLAX","metar":"KLAX 180253Z 00000KT 10SM SCT013 OVC200 20/17 A2991 RMK AO2 SLP126 T02000172 50021","updated":"2025-09-18T02:56:20Z"}
