{"icao":"LPFL","metar":"LPFL 211000Z 16010KT 9999 FEW027 22/14 Q1027","updated":"2025-09-21T10:16:22Z"}
