{"icao":"KJFK","metar":"KJFK 181751Z 12013G20KT 10SM SCT016 BKN250 16/11 A3007 RMK SLP181 T01610106 10167 20139 58005 ","updated":"2026-04-18T18:50:09Z"}
