{"icao":"LPPD","metar":"LPPD 011100Z 33015KT 300V360 9999 -SHRA BKN016 FEW018TCU 15/11 Q1004","updated":"2026-01-01T11:17:23Z"}
