{"icao":"LPOV","metar":"LPOV 102100Z VRB01KT CAVOK 15/12 Q1020","updated":"2025-10-10T21:14:27Z"}
