{"icao":"LPFR","metar":"LPFR 270400Z VRB02KT CAVOK 19/09 Q1018","updated":"2025-09-27T04:20:08Z"}
