{"icao":"KORD","metar":"KORD 211751Z 29008KT 10SM OVC021 M02/M07 A3011 RMK AO2 SNB19E30 SLP206 VCSH P0000 60000 T10221072 11022 21033 50006 $","updated":"2026-02-21T18:33:49Z"}
