{"icao":"LPMA","metar":"LPMA 192000Z 01009KT 9999 BKN016 16/09 Q1027","updated":"2026-02-19T20:31:10Z"}
