{"icao":"LPPD","metar":"LPPD 081000Z 23008KT 190V300 9999 FEW008 17/15 Q1032","updated":"2026-01-08T10:23:14Z"}
