{"icao":"LPPR","metar":"LPPR 160800Z 00000KT 2800 BR BCFG FEW001 14/14 Q1016","updated":"2025-10-16T08:25:20Z"}
