{"icao":"LPAR","metar":"LPAR 291400Z 30012KT 270V340 4000 -RADZ BKN005 BKN012 16/14 Q1009","updated":"2026-01-29T14:49:45Z"}
