{"icao":"LPFR","metar":"LPFR 291700Z 26008KT 9999 FEW036 BKN040 16/11 Q1017","updated":"2025-11-29T17:15:36Z"}
