{"icao":"LPMA","metar":"LPMA 071700Z 02014KT 330V050 9999 SCT015 SCT030 15/07 Q1023","updated":"2026-03-07T17:20:34Z"}
