{"icao":"KJFK","metar":"KJFK 202051Z 00000KT 10SM FEW180 SCT250 07/M03 A3019 RMK AO2 SLP224 T00721028 56002 $","updated":"2025-11-20T21:17:28Z"}
