{"icao":"LPPS","metar":"LPPS 141300Z 13008KT 100V170 9999 SCT015 23/16 Q1017","updated":"2025-10-14T13:29:14Z"}
