{"icao":"LPBJ","metar":"LPBJ 051700Z 26005KT 230V310 CAVOK 28/14 Q1017","updated":"2025-10-05T17:13:14Z"}
