{"icao":"LPST","metar":"LPST 160900Z 33010KT 300V020 9999 SCT011 18/15 Q1018","updated":"2026-06-16T09:30:30Z"}
