{"icao":"LPMA","metar":"LPMA 112330Z 33004KT 9999 FEW016 15/11 Q1019","updated":"2026-05-11T23:56:41Z"}
