{"icao":"LPFL","metar":"LPFL 222000Z 18019G32KT 150V210 9999 FEW007 BKN010 18/16 Q1010","updated":"2026-02-22T20:25:59Z"}
