{"icao":"LPMA","metar":"LPMA 122100Z 33005KT 9999 BKN015 16/11 Q1023","updated":"2026-02-12T21:32:21Z"}
