{"icao":"LPMT","metar":"LPMT 252300Z 34006KT CAVOK 14/10 Q1016","updated":"2026-03-25T23:33:40Z"}
