{"icao":"LPPT","metar":"LPPT 121000Z 06012G25KT 010V080 9999 FEW032 22/12 Q1017","updated":"2025-10-12T10:16:33Z"}
