{"icao":"KJFK","metar":"KJFK 092251Z 02008KT 10SM FEW060 13/M04 A3046 RMK AO2 SLP313 T01281039","updated":"2025-10-09T23:15:31Z"}
