{"icao":"LPPD","metar":"LPPD 280330Z 34002KT 9999 FEW020 11/08 Q1034","updated":"2026-02-28T03:53:28Z"}
