{"icao":"LPCS","metar":"LPCS 210900Z 24008KT 220V280 3500 -DZRA BR BKN003 BKN014 21/21 Q1015","updated":"2025-10-21T09:19:37Z"}
