{"icao":"KORD","metar":"KORD 281551Z 11010KT 10SM SCT031 BKN250 26/19 A2993 RMK AO2 SLP129 T02610194 $","updated":"2026-06-28T16:08:36Z"}
