{"icao":"LPMR","metar":"LPMR 130800Z VRB03KT 7000 MIFG NSC 09/09 Q1021","updated":"2025-12-13T10:18:21Z"}
