{"icao":"LPOV","metar":"LPOV 071400Z 19008KT 160V220 9999 SCT020 BKN040 14/12 Q1012","updated":"2026-04-07T15:06:23Z"}
