{"icao":"LPLA","metar":"LPLA 200700Z 09007KT 050V110 9999 FEW024 BKN032 17/11 Q1029","updated":"2025-11-20T07:18:07Z"}
