{"icao":"KJFK","metar":"KJFK 271251Z 05004KT 10SM BKN110 BKN200 25/18 A3003 RMK SLP170 T02500183 $ ","updated":"2026-06-27T13:39:54Z"}
