{"icao":"LPFL","metar":"LPFL 291100Z 21013KT 170V250 9999 FEW025 15/08 Q1009 WS ALL RWY","updated":"2026-01-29T11:30:06Z"}
