{"icao":"LPBJ","metar":"LPBJ 100700Z 33005KT 0900 FG OVC003 12/12 Q1019","updated":"2025-12-10T07:21:28Z"}
