{"icao":"KORD","metar":"KORD 130551Z 00000KT 10SM SCT200 M02/M04 A3024 RMK AO2 SLP248 T10221044 10006 21022 400441044 50003 $","updated":"2026-02-13T05:58:56Z"}
