{"icao":"LPHR","metar":"LPHR 241300Z 15006KT 9999 FEW020 21/14 Q1023","updated":"2025-09-24T13:27:08Z"}
