{"icao":"KORD","metar":"KORD 181351Z 09007KT 7SM -RA BKN010 OVC017 04/03 A2999 RMK AO2 RAE22B41 SLP160 P0001 T00440033","updated":"2025-11-18T14:19:10Z"}
