{"icao":"LPCS","metar":"LPCS 302000Z 04003KT CAVOK 09/09 Q1020","updated":"2025-12-30T20:22:02Z"}
