{"icao":"KJFK","metar":"KJFK 160351Z 35012G22KT 10SM BKN150 13/03 A2997 RMK AO2 SLP147 T01280033","updated":"2025-10-16T04:20:52Z"}
