{"icao":"KJFK","metar":"KJFK 200551Z 02006KT 10SM BKN250 03/M02 A3024 RMK AO2 SLP241 T00331022 10061 20028 58002 $","updated":"2025-11-20T06:27:43Z"}
