{"icao":"LPMT","metar":"LPMT 240900Z 11004KT 8000 SCT015 13/11 Q1019","updated":"2026-02-24T09:51:42Z"}
