{"icao":"LPPD","metar":"LPPD 072230Z 31010KT 290V350 9999 SCT020 FEW022CB 13/08 Q1009","updated":"2026-05-07T23:01:04Z"}
