{"icao":"KORD","metar":"KORD 232051Z 27004KT 10SM FEW250 13/M06 A3012 RMK AO2 SLP203 T01281056 55004","updated":"2025-11-23T21:16:12Z"}
