{"icao":"LPFL","metar":"LPFL 031500Z 20009KT 140V290 9999 FEW010 SCT015 26/21 Q1020","updated":"2025-10-03T15:17:05Z"}
