{"icao":"LPLA","metar":"LPLA 151400Z 01005KT 340V090 9999 VCSH SCT023 BKN037 16/14 Q1030","updated":"2026-03-15T14:28:34Z"}
