{"icao":"LPMR","metar":"LPMR 030800Z 35008KT 9999 FEW020 19/14 Q1023","updated":"2026-06-03T08:58:16Z"}
