{"icao":"LPPT","metar":"LPPT 041900Z 31012KT CAVOK 19/05 Q1020","updated":"2026-04-04T19:30:05Z"}
