{"icao":"LPFR","metar":"LPFR 050000Z 34012KT CAVOK 19/09 Q1016","updated":"2026-06-05T00:05:14Z"}
