{"icao":"LPPS","metar":"LPPS 171800Z 30007KT 270V340 9999 SCT014 SCT030 17/14 Q1025","updated":"2025-12-17T18:30:48Z"}
