{"icao":"LPPR","metar":"LPPR 291700Z 21009KT 9999 SCT011 SCT020 17/14 Q1008","updated":"2026-04-29T17:26:54Z"}
