{"icao":"KJFK","metar":"KJFK 101251Z 22011KT 10SM SCT018 SCT090 BKN160 BKN250 01/M02 A2978 RMK AO2 SLP083 T00111022","updated":"2025-12-10T13:36:36Z"}
