{"icao":"LPPD","metar":"LPPD 300300Z 17009KT 9999 SCT004 BKN016 21/20 Q1022","updated":"2025-09-30T03:32:22Z"}
