{"icao":"LPMT","metar":"LPMT 171500Z 27007KT 9999 FEW035 25/15 Q1013","updated":"2025-10-17T15:17:58Z"}
