{"icao":"KJFK","metar":"KJFK 142151Z 31007KT 10SM SCT065 BKN150 BKN250 09/M03 A2998 RMK AO2 SLP151 T00941033","updated":"2025-11-14T22:17:25Z"}
