{"icao":"KORD","metar":"KORD 190351Z 08006KT 10SM FEW150 22/16 A3005 RMK AO2 SLP172 T02170156","updated":"2025-09-19T04:21:05Z"}
