{"icao":"KJFK","metar":"KJFK 012151Z 31017KT 10SM FEW065 BKN250 13/M01 A3000 RMK AO2 SLP159 T01331011 $","updated":"2025-11-01T22:15:42Z"}
