{"icao":"KORD","metar":"KORD 210551Z 28007KT 10SM BKN019 OVC026 M03/M07 A2996 RMK AO2 SLP154 T10281072 11017 21028 400781028 53013","updated":"2026-02-21T06:40:33Z"}
