{"icao":"LPMA","metar":"LPMA 290300Z 35012KT 310V010 9999 SCT015 22/15 Q1011","updated":"2025-10-29T03:14:28Z"}
