{"icao":"LPCS","metar":"LPCS 311900Z 20008KT 160V220 9999 -RA FEW006 SCT010 BKN025 13/13 Q1020","updated":"2026-02-01T06:03:07Z"}
