{"icao":"KORD","metar":"KORD 251237Z 36010KT 1SM R10L/P6000FT -SN VV012 M13/M16 A3017 RMK AO2 P0001 T11331161 $","updated":"2026-01-25T12:40:12Z"}
