{"icao":"LPLA","metar":"LPLA 272000Z 35017KT 9999 SCT007 BKN018 BKN030 17/15 Q1018","updated":"2025-10-27T20:18:02Z"}
