{"icao":"LPMT","metar":"LPMT 120900Z 24005KT 5000 BR FEW008 SCT022 14/14 Q1021","updated":"2026-02-12T09:48:42Z"}
