{"icao":"LPCS","metar":"LPCS 111830Z 22009KT 9999 FEW014 SCT019 16/13 Q1014","updated":"2026-05-11T18:57:04Z"}
