{"icao":"LPPR","metar":"LPPR 070600Z 10004KT 030V140 CAVOK 09/08 Q1010","updated":"2026-05-07T06:08:49Z"}
