{"icao":"LPFL","metar":"LPFL 131400Z 15008KT 120V180 9999 BKN014 17/13 Q1023","updated":"2026-01-13T14:24:22Z"}
