{"icao":"LPMA","metar":"LPMA 220400Z 34008KT 300V020 9999 BKN015 20/16 Q1021","updated":"2025-09-22T04:21:03Z"}
