{"icao":"KLAX","metar":"KLAX 102153Z 26011KT 10SM FEW010 19/13 A2993 RMK AO2 SLP134 T01940133","updated":"2026-05-10T22:45:19Z"}
