{"icao":"LPFL","metar":"LPFL 020800Z 19009KT 150V220 9999 FEW023 BKN036 18/11 Q1020","updated":"2025-11-02T08:20:20Z"}
