{"icao":"LPMR","metar":"LPMR 071400Z 30007KT 270V330 9999 BKN007 BKN011 18/16 Q1014","updated":"2025-11-07T14:18:21Z"}
