{"icao":"LPPR","metar":"LPPR 031400Z 09009KT CAVOK 18/10 Q1000","updated":"2026-01-03T14:17:23Z"}
