{"icao":"LPPT","metar":"LPPT 260930Z 34007KT 310V010 9000 FEW004 13/12 Q1025","updated":"2026-02-26T09:49:06Z"}
