{"icao":"LPMR","metar":"LPMR 031400Z 34011KT 9999 FEW015 19/14 Q1024","updated":"2025-10-03T14:16:29Z"}
