{"icao":"LPLA","metar":"LPLA 081000Z 22031G48KT 190V250 5000 RA BR SCT007 BKN018 FEW020CB 20/17 Q0990","updated":"2025-12-08T10:22:10Z"}
