{"icao":"LPBJ","metar":"LPBJ 030600Z 28008KT CAVOK 06/05 Q1021","updated":"2025-12-03T06:30:31Z"}
