{"icao":"LPBJ","metar":"LPBJ 051130Z 25022KT 9999 BKN015 16/12 Q0998 WS ALL RWY","updated":"2026-02-05T11:33:55Z"}
