{"icao":"LPMT","metar":"LPMT 221000Z 03006KT CAVOK 08/04 Q1031","updated":"2025-11-22T10:17:46Z"}
