{"icao":"LPMR","metar":"LPMR 011800Z 33016KT 9999 BKN012 19/15 Q1020","updated":"2026-06-01T18:36:36Z"}
