{"icao":"LPOV","metar":"LPOV 081400Z 18010KT 7000 SCT002 BKN006 BKN018 12/12 Q1028","updated":"2026-01-08T14:23:45Z"}
