{"icao":"LPFL","metar":"LPFL 061700Z 20022G34KT 160V230 9999 FEW021 16/11 Q1022","updated":"2026-03-06T17:33:49Z"}
