{"icao":"LPPR","metar":"LPPR 112100Z 01004KT 350V070 CAVOK 24/16 Q1019","updated":"2026-06-11T21:17:53Z"}
