{"icao":"LPMA","metar":"LPMA 211000Z 34006KT 290V010 9999 BKN013 15/12 Q0998 RESHRA","updated":"2026-03-21T10:24:56Z"}
