{"icao":"LPPS","metar":"LPPS 151600Z 07013KT 040V100 9999 SCT015 SCT030 24/17 Q1022","updated":"2025-09-15T16:21:32Z"}
