{"icao":"LPLA","metar":"LPLA 312100Z 21012KT 9999 FEW007 SCT014 18/15 Q1013","updated":"2026-01-31T21:19:54Z"}
