{"icao":"KORD","metar":"KORD 081951Z 07010KT 10SM SCT037 BKN050 16/07 A3038 RMK AO2 SLP289 T01610067","updated":"2025-10-08T20:19:44Z"}
