{"icao":"LPOV","metar":"LPOV 072000Z VRB01KT 9999 SCT030 16/15 Q1023","updated":"2025-10-07T20:19:01Z"}
