{"icao":"LPPS","metar":"LPPS 071400Z 05008KT 360V110 9999 SCT015 17/09 Q1033","updated":"2026-01-07T14:22:52Z"}
