{"icao":"LPCS","metar":"LPCS 151330Z 28007KT 240V320 9999 -DZ FEW010 BKN018 14/09 Q1032","updated":"2026-02-15T13:43:30Z"}
