{"icao":"LPFR","metar":"LPFR 110630Z 25011KT 4500 -DZ BR OVC002 15/15 Q1020","updated":"2026-02-11T06:59:06Z"}
