{"icao":"LPLA","metar":"LPLA 132300Z 31022KT 9999 FEW020 SCT030 15/09 Q1007","updated":"2025-11-13T23:17:58Z"}
