{"icao":"LPPT","metar":"LPPT 271800Z 23008KT 9999 FEW025 22/15 Q1019","updated":"2025-10-27T18:26:54Z"}
