{"icao":"KJFK","metar":"KJFK 291651Z 20009KT 10SM FEW060 SCT250 28/18 A3011 RMK SLP195 T02830178 ","updated":"2026-06-29T17:35:09Z"}
