{"icao":"LPLA","metar":"LPLA 180400Z 30015KT 7000 -RADZ FEW003 SCT007 BKN014 17/16 Q1025","updated":"2025-11-18T04:22:43Z"}
