{"icao":"KJFK","metar":"KJFK 031251Z 31010KT 10SM FEW050 FEW200 SCT250 M04/M14 A2998 RMK AO2 SLP151 T10441144 $","updated":"2026-01-03T13:27:49Z"}
