{"icao":"LPMA","metar":"LPMA 051800Z 34009KT 300V010 9999 SCT018 21/12 Q1018","updated":"2025-11-05T18:26:48Z"}
