{"icao":"LPAR","metar":"LPAR 121300Z 08005KT 040V130 9999 FEW020 17/13 Q1026","updated":"2026-03-12T14:04:39Z"}
