{"icao":"KJFK","metar":"KJFK 161624Z 04013KT 10SM SCT023 BKN060 01/M04 A3015 RMK AO2 T00061039 $","updated":"2026-02-16T16:41:45Z"}
