{"icao":"LPBJ","metar":"LPBJ 050100Z 28007KT CAVOK 08/07 Q1006","updated":"2026-01-05T01:49:11Z"}
