{"icao":"LPLA","metar":"LPLA 160800Z VRB02KT 9999 FEW015 BKN030 14/10 Q1021","updated":"2026-03-16T08:55:10Z"}
