{"icao":"LPST","metar":"LPST 201400Z 20009KT 160V240 CAVOK 25/12 Q1011","updated":"2026-04-20T14:49:16Z"}
