{"icao":"LPPR","metar":"LPPR 072230Z 08003KT 030V140 9999 FEW020 13/10 Q1010","updated":"2026-05-07T23:01:00Z"}
