{"icao":"KJFK","metar":"KJFK 230551Z 36005KT 10SM FEW250 03/M03 A3004 RMK AO2 SLP172 T00331028 10083 20033 53005","updated":"2025-11-23T06:26:39Z"}
