{"icao":"LPBJ","metar":"LPBJ 142300Z 31013KT CAVOK 13/09 Q1013","updated":"2026-05-14T23:56:51Z"}
