{"icao":"LPMA","metar":"LPMA 071100Z VRB07KT 9999 FEW016 23/16 Q1021","updated":"2025-11-07T11:15:10Z"}
