{"icao":"LPHR","metar":"LPHR 261130Z 13010KT 9999 FEW013 BKN020 17/14 Q1020","updated":"2026-04-26T11:37:54Z"}
