{"icao":"LPMR","metar":"LPMR 051000Z 35004KT CAVOK 16/12 Q1022","updated":"2026-04-05T10:31:49Z"}
