{"icao":"LPMR","metar":"LPMR 251500Z 26006KT 230V290 9999 SCT020 SCT045 13/12 Q1014","updated":"2026-01-25T15:19:22Z"}
