{"icao":"LPMA","metar":"LPMA 091800Z 36005KT 330V030 9999 FEW016 SCT033 21/13 Q1022","updated":"2025-11-09T18:23:05Z"}
