{"icao":"LPLA","metar":"LPLA 161700Z 31013KT 9999 FEW025 22/16 Q1007","updated":"2025-10-16T17:16:02Z"}
