{"icao":"LPLA","metar":"LPLA 242200Z 30009KT 9999 FEW020 16/12 Q1019","updated":"2026-01-24T22:18:54Z"}
