{"icao":"LPOV","metar":"LPOV 231000Z 27006KT 240V300 CAVOK 22/12 Q1021","updated":"2025-09-23T10:18:29Z"}
