{"icao":"LPFR","metar":"LPFR 072130Z 28006KT CAVOK 16/08 Q1011","updated":"2026-05-07T21:56:15Z"}
