{"icao":"LPMA","metar":"LPMA 280700Z 36005KT 330V040 9999 BKN015 19/11 Q1022","updated":"2025-11-28T07:18:51Z"}
