{"icao":"KJFK","metar":"KJFK 011451Z 28013G20KT 10SM FEW055 FEW250 14/M01 A2993 RMK SLP133 T01391011 51001 ","updated":"2026-05-01T14:53:48Z"}
