{"icao":"LPPS","metar":"LPPS 021800Z 08007KT 040V120 9999 SCT014 22/18 Q1021","updated":"2025-10-02T18:24:45Z"}
