{"icao":"LPBJ","metar":"LPBJ 051200Z 30013KT 270V350 CAVOK 23/06 Q1016","updated":"2026-06-05T12:35:43Z"}
