{"icao":"LPLA","metar":"LPLA 161100Z 30011KT 9999 FEW023 22/17 Q1006","updated":"2025-10-16T11:15:18Z"}
