{"icao":"LPBJ","metar":"LPBJ 070100Z 19007KT CAVOK 11/09 Q1018","updated":"2025-11-07T01:23:39Z"}
