{"icao":"LPST","metar":"LPST 241300Z 29006KT 260V320 CAVOK 22/17 Q1021","updated":"2026-05-24T13:22:54Z"}
