{"icao":"KORD","metar":"KORD 140651Z 27009KT 10SM OVC042 05/M01 A2957 RMK AO2 SLP017 T00501011 $","updated":"2026-01-14T07:24:25Z"}
