{"icao":"LPAZ","metar":"LPAZ 221400Z 12008KT 090V160 9999 FEW021 BKN040 20/14 Q1030","updated":"2025-11-22T14:15:24Z"}
