{"icao":"LPPS","metar":"LPPS 061700Z 04011G23KT 360V080 9999 SCT015 BKN030 15/07 Q1026","updated":"2026-03-06T17:33:51Z"}
