{"icao":"LPPR","metar":"LPPR 020400Z 00000KT CAVOK 15/13 Q1020","updated":"2025-10-02T04:19:54Z"}
