{"icao":"LPFR","metar":"LPFR 181230Z 12007KT CAVOK 19/11 Q1018","updated":"2025-11-18T12:39:02Z"}
