{"icao":"LPMA","metar":"LPMA 291230Z 01010KT 330V050 9999 VCSH BKN014 23/18 Q1016","updated":"2025-10-29T12:39:33Z"}
