{"icao":"KLAX","metar":"KLAX 221853Z 26009KT 8SM FEW009 FEW050 SCT140 23/18 A2987 RMK AO2 SLP115 T02330178 $","updated":"2025-09-22T19:14:06Z"}
