{"icao":"KJFK","metar":"KJFK 060751Z 03012KT 10SM OVC010 03/02 A3025 RMK AO2 RAE06 SLP243 P0000 T00280017","updated":"2026-03-06T08:36:21Z"}
