{"icao":"KLAX","metar":"KLAX 070353Z 32006KT 10SM CLR 17/09 A3000 RMK AO2 SLP157 T01720089 $","updated":"2026-03-07T04:00:04Z"}
