{"icao":"LPLA","metar":"LPLA 040100Z 24005KT 9999 FEW016 BKN035 15/11 Q1024","updated":"2026-04-04T02:03:52Z"}
