{"icao":"LPMA","metar":"LPMA 031030Z 35018G30KT 300V020 9999 SCT015 FEW018CB 14/07 Q1017","updated":"2026-03-03T10:37:35Z"}
