{"icao":"LPPR","metar":"LPPR 271500Z 24008KT 200V280 9999 FEW012 22/17 Q1021","updated":"2026-06-27T15:13:42Z"}
