{"icao":"LPPR","metar":"LPPR 141100Z VRB02KT CAVOK 24/15 Q1018","updated":"2025-10-14T11:14:55Z"}
