{"icao":"LPPS","metar":"LPPS 170100Z 33010KT 9000 -SHRA FEW015 SCT030 18/13 Q1022","updated":"2025-11-17T01:24:58Z"}
