{"icao":"LPFL","metar":"LPFL 021300Z 18016KT 150V210 9999 SCT030 20/13 Q1019","updated":"2025-11-02T13:21:31Z"}
