{"icao":"LPMT","metar":"LPMT 310400Z 19008KT 9999 FEW030 19/17 Q1012","updated":"2025-10-31T04:22:14Z"}
