{"icao":"LPHR","metar":"LPHR 041100Z 06005KT 020V100 8000 VCSH SCT010 BKN025 14/12 Q1023","updated":"2026-01-04T11:15:56Z"}
