{"icao":"LPFL","metar":"LPFL 291700Z 30009G19KT 230V020 2500 RA FEW012 FEW015CB 17/15 Q1007","updated":"2025-10-29T17:17:29Z"}
