{"icao":"KJFK","metar":"KJFK 261051Z 35006KT 3SM -SN BR BKN011 OVC018 M06/M07 A2978 RMK AO2 SNB24 PRESRR SLP084 P0000 T10561067 $","updated":"2026-01-26T11:20:03Z"}
