{"icao":"LPFR","metar":"LPFR 202000Z 34006KT CAVOK 12/05 Q1021","updated":"2025-11-20T20:21:07Z"}
