{"icao":"KJFK","metar":"KJFK 052151Z 25012KT 10SM SCT045 BKN110 BKN180 BKN250 12/11 A2980 RMK AO2 RAE09 SLP090 P0000 T01220106","updated":"2026-04-05T22:29:36Z"}
