{"icao":"LPOV","metar":"LPOV 181400Z 29004KT 9999 FEW001 18/17 Q1021","updated":"2025-09-18T14:17:33Z"}
