{"icao":"LPMT","metar":"LPMT 102000Z 35003KT 9999 FEW030 22/12 Q1019","updated":"2025-10-10T20:18:38Z"}
