{"icao":"LPBJ","metar":"LPBJ 102000Z 25012KT 3000 -DZ BR OVC003 15/15 Q1019 RERADZ","updated":"2026-02-10T20:42:45Z"}
