{"icao":"LPPT","metar":"LPPT 302000Z 34013KT CAVOK 12/05 Q1020","updated":"2025-11-30T20:19:49Z"}
