{"icao":"LPPD","metar":"LPPD 020830Z 06004KT 030V090 9999 FEW016 BKN022 13/10 Q1030","updated":"2026-04-02T08:54:53Z"}
