{"icao":"KLAX","metar":"KLAX 072253Z 06009KT 10SM FEW120 26/M08 A2997 RMK AO2 PK WND 05026/2203 SLP148 T02561078 $","updated":"2026-03-07T23:20:45Z"}
