{"icao":"KLAX","metar":"KLAX 201953Z 25013KT 10SM FEW027 FEW180 SCT250 21/12 A3001 RMK AO2 SLP161 T02110122 $","updated":"2026-04-20T20:43:51Z"}
