{"icao":"LPMT","metar":"LPMT 021200Z 29003KT 230V340 9999 SCT035 16/08 Q1019","updated":"2025-12-02T12:41:11Z"}
