{"icao":"LPBJ","metar":"LPBJ 072000Z 26009KT CAVOK 20/15 Q1021","updated":"2025-10-07T20:19:15Z"}
