{"icao":"LPPT","metar":"LPPT 161700Z 34021G31KT 310V010 9999 FEW030 13/08 Q1014 WS R02","updated":"2025-12-16T17:22:18Z"}
