{"icao":"LPMT","metar":"LPMT 052300Z 36003KT CAVOK 14/12 Q1018","updated":"2025-10-05T23:13:37Z"}
