{"icao":"LPPR","metar":"LPPR 271030Z 10008KT 070V130 CAVOK 16/03 Q1021","updated":"2026-03-27T10:47:51Z"}
