{"icao":"LPBJ","metar":"LPBJ 110600Z 23011KT 4000 -RADZ BR OVC004 15/14 Q1018","updated":"2026-02-11T06:59:23Z"}
