{"icao":"LPFL","metar":"LPFL 171630Z 02006KT 340V060 9999 SCT028 15/08 Q1020","updated":"2026-04-17T22:08:14Z"}
