{"icao":"KORD","metar":"KORD 151611Z 08008KT 4SM -RA BR BKN005 OVC010 13/12 A3027 RMK AO2 P0002 T01330122","updated":"2025-10-15T16:19:39Z"}
