{"icao":"LPPD","metar":"LPPD 041900Z 01011KT 9999 VCSH FEW016 BKN030 14/10 Q1023","updated":"2026-01-04T19:14:38Z"}
