{"icao":"KORD","metar":"KORD 262204Z 02017G24KT 8SM -RA OVC044 09/07 A2984 RMK AO2 TSE02 P0000 T00940067","updated":"2026-03-26T22:28:21Z"}
