{"icao":"LPMA","metar":"LPMA 260200Z 36012KT 320V040 9999 -SHRA BKN015 16/12 Q1019","updated":"2026-03-26T02:11:46Z"}
