{"icao":"LPFR","metar":"LPFR 241300Z 11011KT 9999 FEW030 25/16 Q1016","updated":"2025-09-24T13:27:05Z"}
