{"icao":"LPBJ","metar":"LPBJ 171127Z 35004KT 320V030 9999 FEW009 BKN012 13/10 Q1028","updated":"2026-02-17T11:38:03Z"}
