{"icao":"LPMT","metar":"LPMT 191400Z 35007KT 310V020 9999 FEW025 SCT045 14/08 Q1019","updated":"2025-12-19T14:19:58Z"}
