{"icao":"LPPT","metar":"LPPT 261130Z 05005KT 350V080 CAVOK 16/13 Q1025","updated":"2026-02-26T11:38:40Z"}
