{"icao":"LPFL","metar":"LPFL 071730Z 33019G30KT 9999 FEW024 16/08 Q1015","updated":"2026-05-08T02:49:00Z"}
