{"icao":"LPFR","metar":"LPFR 081400Z 20004KT 160V250 9999 FEW016 13/08 Q1032","updated":"2026-01-08T14:23:43Z"}
