{"icao":"LPMR","metar":"LPMR 120800Z 15005KT 9999 FEW022 19/11 Q1018","updated":"2025-10-12T08:20:10Z"}
