{"icao":"LPMA","metar":"LPMA 292100Z 36010G20KT 310V030 9999 FEW015 19/13 Q1025","updated":"2026-05-29T21:05:55Z"}
