{"icao":"LPPD","metar":"LPPD 070330Z 29006KT 5000 BR SCT003 BKN005 18/18 Q1026","updated":"2026-06-07T03:45:50Z"}
