{"icao":"LPPD","metar":"LPPD 030700Z 33009KT 300V360 9999 SCT018 15/12 Q1007","updated":"2026-01-03T07:18:11Z"}
