{"icao":"LPMA","metar":"LPMA 180430Z 26005KT 240V300 9999 SCT014 13/09 Q1025","updated":"2026-02-18T04:52:27Z"}
