{"icao":"LPCS","metar":"LPCS 210900Z 10008KT 070V130 9999 FEW009 SCT020 15/13 Q1008","updated":"2026-03-21T09:30:16Z"}
