{"icao":"LPPD","metar":"LPPD 210900Z 32007KT 300V020 9999 -SHRA SCT018 BKN025 14/11 Q1027","updated":"2025-12-21T09:18:49Z"}
