{"icao":"LPLA","metar":"LPLA 280500Z 14020KT 7000 -RA FEW014 BKN020 OVC035 13/11 Q1015","updated":"2025-12-28T05:23:09Z"}
