{"icao":"LPLA","metar":"LPLA 061700Z 21007KT 180V240 9999 FEW006 BKN018 24/20 Q1017","updated":"2025-10-06T17:15:56Z"}
