{"icao":"LPPT","metar":"LPPT 070900Z 27005KT 240V320 9999 FEW010 BKN024 21/16 Q1023","updated":"2025-10-07T09:18:57Z"}
