{"icao":"LPPD","metar":"LPPD 231900Z 36012KT 9999 VCSH FEW016 20/17 Q1022","updated":"2025-09-23T19:14:07Z"}
