{"icao":"LPPT","metar":"LPPT 120930Z 26009KT 240V300 9000 FEW012 BKN020 14/12 Q1021","updated":"2026-02-12T09:48:39Z"}
