{"icao":"KJFK","metar":"KJFK 190851Z 17005KT 10SM SCT130 SCT250 M01/M06 A3034 RMK AO2 SLP272 T10061061 56013","updated":"2026-03-19T09:41:48Z"}
