{"icao":"LPPS","metar":"LPPS 251400Z 21006KT 190V250 9999 FEW014 BKN030 24/17 Q1015","updated":"2025-10-25T14:14:55Z"}
