{"icao":"KJFK","metar":"KJFK 040651Z 30016G24KT 10SM FEW050 FEW250 10/02 A2994 RMK AO2 PK WND 30038/0554 SLP137 T01000017 $","updated":"2025-11-04T07:18:27Z"}
