{"icao":"KLAX","metar":"KLAX 030507Z 19004KT 10SM FEW026 SCT040 BKN070 16/15 A3006 RMK AO2 DZE0454RAB0454E06 P0001 T01610150","updated":"2026-01-03T05:21:01Z"}
