{"icao":"KJFK","metar":"KJFK 040451Z 03004KT 10SM BKN095 BKN170 BKN250 M03/M10 A2999 RMK AO2 SLP156 T10281100 410111050 $","updated":"2026-01-04T05:24:44Z"}
