{"icao":"KJFK","metar":"KJFK 121551Z 03021G31KT 10SM FEW023 FEW039 BKN070 BKN150 OVC220 15/10 A3007 RMK AO2 PK WND 04032/1518 RAE31 SLP182 P0000 T01500100","updated":"2025-10-12T16:19:11Z"}
