{"icao":"LPAR","metar":"LPAR 221000Z 25004KT 220V280 8000 FEW025 12/10 Q1010","updated":"2026-01-22T10:26:20Z"}
