{"icao":"LPLA","metar":"LPLA 051100Z 20012G23KT 130V240 9999 FEW020 SCT025 16/11 Q1017","updated":"2026-04-05T11:28:28Z"}
