{"icao":"LPFR","metar":"LPFR 231230Z 10011KT CAVOK 18/10 Q1024","updated":"2026-02-23T13:01:30Z"}
