{"icao":"KLAX","metar":"KLAX 110953Z 00000KT 10SM CLR 11/M03 A3026 RMK AO2 SLP245 T01111028 $","updated":"2026-01-11T10:20:10Z"}
