{"icao":"LPFL","metar":"LPFL 101100Z 24006KT 170V300 9999 SCT021 FEW022TCU 21/16 Q1021","updated":"2025-10-10T11:15:35Z"}
