{"icao":"LPPR","metar":"LPPR 282230Z 13008KT CAVOK 19/12 Q1007","updated":"2026-04-28T22:57:16Z"}
