{"icao":"KJFK","metar":"KJFK 020251Z 36005KT 10SM BKN250 09/01 A3012 RMK AO2 SLP199 T00940006 51020 $","updated":"2025-11-02T03:14:06Z"}
