{"icao":"LPPS","metar":"LPPS 240530Z 23005KT 190V270 9999 FEW014 SCT030 16/13 Q1019","updated":"2026-02-24T05:58:05Z"}
