{"icao":"KORD","metar":"KORD 220337Z 25011G21KT 10SM FEW015 BKN025 OVC037 M02/M04 A2988 RMK AO2 SNE21 P0002 T10221039 $","updated":"2026-01-22T03:46:59Z"}
