{"icao":"LPMT","metar":"LPMT 031500Z 27006KT CAVOK 26/16 Q1021","updated":"2025-10-03T15:17:03Z"}
