{"icao":"LPPS","metar":"LPPS 010630Z 35011KT 9999 FEW015 BKN030 15/07 Q1023","updated":"2026-03-01T06:43:44Z"}
