{"icao":"KJFK","metar":"KJFK 051551Z 21010KT 10SM FEW100 BKN180 BKN250 14/02 A3002 RMK AO2 SLP164 T01440017 $","updated":"2025-11-05T16:24:25Z"}
