{"icao":"LPMT","metar":"LPMT 041000Z 10007KT 070V130 9999 SCT020 16/14 Q1016","updated":"2025-11-04T10:21:15Z"}
