{"icao":"LPPS","metar":"LPPS 081400Z 04010KT 360V070 9999 SCT015 23/17 Q1022","updated":"2025-11-08T14:15:18Z"}
