{"icao":"LPCS","metar":"LPCS 250900Z 25008KT 220V280 3000 -RADZ BR FEW002 SCT006 BKN012 19/19 Q1015","updated":"2025-10-25T09:16:04Z"}
