{"icao":"KJFK","metar":"KJFK 052315Z 08008KT 1 1/2SM -RA BR FEW000 OVC004 06/05 A3023 RMK AO2 SFC VIS 2 1/2 DZE07RAB07 BR FEW000 P0001 T00560050","updated":"2026-03-05T23:50:11Z"}
