{"icao":"KORD","metar":"KORD 301651Z 29008KT 10SM FEW035 BKN060 BKN080 12/M01 A3000 RMK AO2 SLP161 T01221011","updated":"2026-04-30T17:19:25Z"}
