{"icao":"LPFL","metar":"LPFL 170600Z VRB02KT 9999 VCSH FEW010 BKN015 18/15 Q1023","updated":"2026-05-17T06:24:03Z"}
