{"icao":"LPPD","metar":"LPPD 130430Z 31011KT 9999 FEW018 SCT030 14/10 Q1026","updated":"2026-02-13T04:51:23Z"}
