{"icao":"LPPT","metar":"LPPT 232230Z 30004KT 280V340 CAVOK 14/12 Q1015","updated":"2026-04-23T22:41:52Z"}
