{"icao":"KLAX","metar":"KLAX 121153Z 14003KT 10SM FEW003 14/12 A3000 RMK AO2 SLP157 T01390117 10161 20128 58001 $","updated":"2025-12-12T12:41:10Z"}
