{"icao":"LPAZ","metar":"LPAZ 301230Z 28013KT 9999 SCT025 SCT042 20/16 Q1010","updated":"2025-10-30T12:38:02Z"}
