{"icao":"KJFK","metar":"KJFK 060751Z 23003KT 10SM SCT055 BKN250 02/M01 A2999 RMK AO2 SLP156 T00171006 $","updated":"2026-01-06T08:29:10Z"}
