{"icao":"LPOV","metar":"LPOV 101900Z 17003KT 140V200 9999 FEW006 SCT016 14/14 Q1017","updated":"2025-11-10T19:15:02Z"}
