{"icao":"LPBJ","metar":"LPBJ 101300Z 31006KT 260V010 9999 FEW015 SCT025 13/08 Q1030","updated":"2026-01-10T13:28:08Z"}
