{"icao":"LPPT","metar":"LPPT 261000Z 23014KT 7000 -RADZ BKN006 15/14 Q1014","updated":"2026-01-26T10:25:03Z"}
