{"icao":"LPPT","metar":"LPPT 201700Z 32014KT CAVOK 28/16 Q1014","updated":"2026-06-20T17:24:54Z"}
