{"icao":"LPMT","metar":"LPMT 211700Z 36006KT CAVOK 18/12 Q1027","updated":"2026-02-21T17:24:00Z"}
