{"icao":"KORD","metar":"KORD 172051Z 18012G28KT 10SM SCT047 OVC250 27/16 A2971 RMK AO2 PK WND 17031/1959 SLP058 T02670156 56042 $","updated":"2026-04-17T21:15:56Z"}
