{"icao":"KJFK","metar":"KJFK 290851Z 28012KT 10SM CLR 01/M07 A3029 RMK SLP257 T00111072 51029 ","updated":"2025-11-29T09:18:33Z"}
