{"icao":"LPPR","metar":"LPPR 031100Z 08009KT 040V100 CAVOK 17/10 Q1015","updated":"2026-03-03T11:31:09Z"}
