{"icao":"LPBJ","metar":"LPBJ 301000Z 19008KT 9000 SCT010 BKN035 12/12 Q1015","updated":"2026-01-30T10:32:30Z"}
