{"icao":"LPFR","metar":"LPFR 192200Z 03004KT 360V090 CAVOK 18/12 Q1015","updated":"2026-04-19T22:33:53Z"}
