{"icao":"LPPD","metar":"LPPD 061630Z 18011KT 150V210 9999 FEW025 BKN045 14/07 Q1029","updated":"2026-03-06T16:39:26Z"}
