{"icao":"LPMA","metar":"LPMA 132130Z 16005KT 100V220 9999 FEW015 20/14 Q1021","updated":"2026-06-13T22:02:55Z"}
