{"icao":"LPOV","metar":"LPOV 161900Z 34009KT 9999 SCT012 14/12 Q1020","updated":"2026-04-16T20:46:35Z"}
