{"icao":"LPBJ","metar":"LPBJ 231600Z 28010KT 9000 -SHRA SCT024 FEW030CB 15/10 Q1009","updated":"2025-12-23T16:26:05Z"}
