{"icao":"LPFR","metar":"LPFR 182030Z VRB02KT CAVOK 16/15 Q1016","updated":"2026-04-18T20:35:25Z"}
