{"icao":"LPPR","metar":"LPPR 240730Z 18006KT 4000 BR OVC002 19/18 Q1014","updated":"2026-06-24T07:38:46Z"}
