{"icao":"LPPT","metar":"LPPT 261230Z 05010KT 020V080 CAVOK 14/05 Q1025","updated":"2025-11-26T12:40:27Z"}
