{"icao":"LPPR","metar":"LPPR 170300Z 17003KT 9999 FEW017CB SCT020 BKN030 13/12 Q1010","updated":"2025-11-17T03:14:52Z"}
