{"icao":"LPFR","metar":"LPFR 081800Z 33015KT CAVOK 21/13 Q1019","updated":"2025-10-08T18:26:31Z"}
