{"icao":"KJFK","metar":"KJFK 240351Z 34015G27KT 10SM FEW055 02/M07 A3021 RMK AO2 PK WND 34031/0255 SLP228 T00171067","updated":"2026-03-24T04:25:20Z"}
