{"icao":"LPFL","metar":"LPFL 051000Z 22004KT 190V250 9999 FEW022 13/09 Q1029","updated":"2026-01-05T10:23:42Z"}
