{"icao":"LPAZ","metar":"LPAZ 211800Z 23014KT 9000 SCT006 BKN012 23/22 Q1017","updated":"2025-10-21T18:25:41Z"}
