{"icao":"LPFL","metar":"LPFL 271500Z VRB13G29KT 5000 -RADZ FEW010 BKN012 17/15 Q1001","updated":"2026-01-27T15:29:52Z"}
