{"icao":"LPBJ","metar":"LPBJ 010912Z 23011KT 2200 -RADZ BR BKN006 OVC020 14/13 Q1016","updated":"2026-02-01T09:29:17Z"}
