{"icao":"KJFK","metar":"KJFK 261751Z 22007KT 3SM BR OVC008 14/13 A2975 RMK AO2 SFC VIS 6 SLP072 60001 T01390128 10139 20122 58031","updated":"2025-11-26T18:23:55Z"}
