{"icao":"LPPD","metar":"LPPD 302000Z 29011KT 6000 -DZ SCT006 BKN014 16/15 Q1027","updated":"2025-11-30T20:20:09Z"}
