{"icao":"LPSJ","metar":"LPSJ 181830Z 28006KT 230V320 9999 FEW014 22/17 Q1014","updated":"2026-06-19T06:16:55Z"}
