{"icao":"LPPT","metar":"LPPT 291330Z 26013KT 230V290 2500 RADZ BR FEW003 BKN006 15/15 Q1009","updated":"2026-01-29T13:59:21Z"}
