{"icao":"KJFK","metar":"KJFK 260651Z 01009KT 10SM FEW160 SCT250 M04/M14 A3021 RMK AO2 SLP231 T10391139 $","updated":"2025-12-26T07:20:29Z"}
