{"icao":"KLAX","metar":"KLAX 051653Z VRB03KT 10SM FEW220 SCT270 BKN300 24/02 A3000 RMK AO2 SLP156 T02390017 $","updated":"2026-04-05T17:29:28Z"}
