{"icao":"LPBJ","metar":"LPBJ 081100Z 13008KT 090V160 9999 SCT026 14/09 Q1017","updated":"2026-04-08T11:53:54Z"}
