{"icao":"LPPS","metar":"LPPS 091600Z 35006KT 290V060 9999 FEW015 22/13 Q1021","updated":"2025-11-09T16:20:03Z"}
