{"icao":"LPAZ","metar":"LPAZ 312000Z 03010KT 360V060 9999 FEW025 BKN029 18/13 Q1013","updated":"2025-10-31T20:20:04Z"}
