{"icao":"KLAX","metar":"KLAX 271353Z 08003KT 5SM BR FEW008 BKN019 16/14 A3000 RMK AO2 SLP159 T01610139 $","updated":"2025-10-27T14:19:19Z"}
