{"icao":"KLAX","metar":"KLAX 300853Z 04005KT 2 1/2SM BR FEW012 13/12 A3000 RMK AO2 SLP157 T01330117 58003 $","updated":"2025-11-30T09:17:50Z"}
