{"icao":"LPPS","metar":"LPPS 161030Z 11014KT 9999 BKN013 16/13 Q1032","updated":"2026-02-16T10:49:42Z"}
