{"icao":"LPPT","metar":"LPPT 231900Z 31005KT 280V340 9999 FEW020 11/09 Q1011","updated":"2025-12-23T19:16:37Z"}
