{"icao":"KLAX","metar":"KLAX 100107Z 25011KT 5SM BR OVC004 17/16 A3004 RMK AO2 T01670156 $","updated":"2025-11-10T01:27:38Z"}
