{"icao":"LPLA","metar":"LPLA 301700Z 07005KT 9999 3000W VCSH FEW012 SCT018 BKN030 23/21 Q1019","updated":"2025-09-30T17:15:52Z"}
