{"icao":"KORD","metar":"KORD 210151Z 27016G25KT 10SM OVC019 M03/M07 A2990 RMK AO2 PK WND 28029/0128 SLP132 T10281072","updated":"2026-02-21T01:54:14Z"}
