{"icao":"LPBJ","metar":"LPBJ 281900Z 29006KT CAVOK 11/07 Q1022","updated":"2025-11-28T19:14:10Z"}
