{"icao":"LPMA","metar":"LPMA 301230Z 02012KT 320V060 9999 BKN015 20/14 Q1023","updated":"2025-11-30T12:35:38Z"}
