{"icao":"LPFR","metar":"LPFR 100900Z 08008KT 060V120 CAVOK 21/17 Q1020","updated":"2025-10-10T09:19:15Z"}
