{"icao":"KLAX","metar":"KLAX 030153Z 24008KT 10SM FEW160 20/17 A2995 RMK AO2 SLP140 T02000167 $","updated":"2025-10-03T02:55:17Z"}
