{"icao":"LPPT","metar":"LPPT 150800Z 22010KT 6000 RA SCT014 FEW025TCU SCT035 15/14 Q1006","updated":"2025-11-15T08:21:09Z"}
