{"icao":"KORD","metar":"KORD 310552Z 26008KT 7SM BKN009 OVC015 M04/M05 A2992 RMK T10391050 4/002 ","updated":"2025-12-31T06:32:23Z"}
