{"icao":"KJFK","metar":"KJFK 011251Z 32021G31KT 10SM FEW026 BKN041 BKN095 M03/M10 A2965 RMK AO2 PK WND 33040/1213 SNE44 SLP041 VCSH NE-SE P0000 T10331100 $","updated":"2026-01-01T13:32:26Z"}
