{"icao":"LPHR","metar":"LPHR 111800Z 11006KT 9999 SCT010 SCT020 21/18 Q1024","updated":"2026-06-11T18:10:19Z"}
