{"icao":"KORD","metar":"KORD 120151Z 27003KT 10SM CLR 02/M07 A3024 RMK AO2 SLP248 T00171072 $","updated":"2026-02-12T02:05:41Z"}
