{"icao":"LPPD","metar":"LPPD 291830Z 26014KT 3000 BR BKN002 BKN006 16/15 Q1014","updated":"2026-01-29T18:43:05Z"}
