{"icao":"LPPS","metar":"LPPS 061030Z 30013KT 9999 FEW014 18/13 Q1015","updated":"2026-04-06T10:55:12Z"}
