{"icao":"LPHR","metar":"LPHR 191930Z 01024G43KT 340V040 9999 SCT012 FEW014TCU SCT025 15/11 Q1007","updated":"2026-03-19T19:47:51Z"}
