{"icao":"LPHR","metar":"LPHR 182000Z 03009KT 360V070 9999 FEW010 BKN022 18/15 Q1026","updated":"2025-11-18T20:22:14Z"}
