{"icao":"LPPS","metar":"LPPS 291400Z 36009KT 330V030 9999 FEW015 20/12 Q1022","updated":"2025-11-29T14:16:18Z"}
