{"icao":"LPFR","metar":"LPFR 200130Z VRB02KT CAVOK 10/08 Q1020","updated":"2026-01-20T01:41:22Z"}
