{"icao":"KJFK","metar":"KJFK 190051Z 08005KT 10SM SCT080 BKN250 07/06 A3014 RMK AO2 SLP206 T00670061","updated":"2025-12-19T01:28:37Z"}
