{"icao":"LPLA","metar":"LPLA 171032Z 34007KT 9999 -DZ FEW004 BKN008 BKN012 14/13 Q1018","updated":"2026-04-17T10:54:15Z"}
