{"icao":"LPHR","metar":"LPHR 041800Z 30017G29KT 9999 SCT030 17/08 Q1010 WS ALL RWY","updated":"2025-11-04T18:27:22Z"}
