{"icao":"LPBJ","metar":"LPBJ 182300Z 15007KT 9999 FEW025 12/11 Q1021","updated":"2025-12-18T23:18:47Z"}
