{"icao":"LPMA","metar":"LPMA 031330Z 01007KT 310V050 9999 BKN015 19/10 Q1027","updated":"2025-12-03T13:35:10Z"}
