{"icao":"LPAZ","metar":"LPAZ 051400Z 05006KT 020V080 9999 BKN048 15/08 Q1029","updated":"2026-01-05T14:23:21Z"}
