{"icao":"LPBJ","metar":"LPBJ 101500Z 08006KT 030V140 CAVOK 28/11 Q1019","updated":"2025-10-10T15:17:45Z"}
