{"icao":"LPOV","metar":"LPOV 031800Z 25004KT 220V280 9999 FEW006 BKN018 BKN028 19/17 Q1020","updated":"2026-06-03T18:21:29Z"}
