{"icao":"LPAZ","metar":"LPAZ 202300Z 33021KT 9999 FEW025 BKN045 15/07 Q1028","updated":"2025-12-20T23:17:05Z"}
