{"icao":"KJFK","metar":"KJFK 300813Z 07014KT 8SM -DZ BKN008 OVC013 11/10 A2996 RMK AO2 DZB13 P0000 T01110100","updated":"2025-10-30T08:24:33Z"}
