{"icao":"KLAX","metar":"KLAX 101653Z 24006KT 10SM FEW100 FEW160 SCT200 23/14 A2988 RMK AO2 SLP117 T02280139 $","updated":"2025-10-10T17:16:00Z"}
