{"icao":"LPFL","metar":"LPFL 202100Z 21012G22KT 150V260 9999 SCT014 18/13 Q1013","updated":"2026-02-21T06:40:16Z"}
