{"icao":"LPMA","metar":"LPMA 292230Z 03017G31KT 350V060 9999 SCT014 22/17 Q1023","updated":"2026-06-29T22:55:22Z"}
