{"icao":"KJFK","metar":"KJFK 060551Z 19015KT 10SM SCT250 13/11 A2985 RMK SLP109 T01330111 10167 20128 51014 ","updated":"2026-05-06T05:56:54Z"}
