{"icao":"KJFK","metar":"KJFK 021051Z 00000KT 10SM BKN065 BKN080 BKN250 11/08 A2988 RMK RAE49 SLP116 P0003 T01060083 ","updated":"2026-05-02T11:43:24Z"}
