{"icao":"LPMR","metar":"LPMR 082100Z 35011KT 9999 OVC008 17/16 Q1022","updated":"2025-10-08T21:15:49Z"}
