{"icao":"LPMR","metar":"LPMR 040300Z 32007KT 8000 SCT020 OVC035 17/14 Q1019","updated":"2026-06-04T03:53:02Z"}
