{"icao":"KORD","metar":"KORD 161051Z 20011KT 10SM SCT015 OVC037 M04/M07 A2954 RMK AO2 SLP011 T10391067 $","updated":"2026-01-16T11:18:44Z"}
