{"icao":"KLAX","metar":"KLAX 271053Z 00000KT 10SM BKN024 18/14 A2993 RMK AO2 SLP133 T01780139","updated":"2026-06-27T11:25:39Z"}
