{"icao":"KJFK","metar":"KJFK 210617Z 17004KT 10SM BKN017 BKN080 05/04 A2977 RMK AO2 T00500044","updated":"2026-03-21T06:41:12Z"}
