{"icao":"LPMR","metar":"LPMR 012200Z 00000KT CAVOK 15/12 Q1019","updated":"2026-05-01T23:50:55Z"}
