{"icao":"LPAZ","metar":"LPAZ 201230Z 05015KT 020V090 9999 FEW026 SCT033 19/12 Q1028","updated":"2025-11-20T12:38:14Z"}
