{"icao":"LPMA","metar":"LPMA 052000Z 04003KT 350V120 9999 SCT014 BKN030 18/14 Q1015","updated":"2026-04-05T20:32:03Z"}
