{"icao":"LPFR","metar":"LPFR 211830Z 30008KT 9999 FEW008 SCT012 BKN030 15/14 Q1007","updated":"2026-01-21T18:40:41Z"}
