{"icao":"LPAZ","metar":"LPAZ 011400Z 24008KT 9999 SCT005 BKN010 23/21 Q1022","updated":"2025-10-01T14:17:57Z"}
