{"icao":"LPLA","metar":"LPLA 130100Z 33016KT 9999 FEW025 BKN035 14/08 Q1022","updated":"2026-01-13T01:28:16Z"}
