{"icao":"LPOV","metar":"LPOV 271500Z 33017KT CAVOK 16/09 Q1018","updated":"2026-03-27T15:52:06Z"}
