{"icao":"LPLA","metar":"LPLA 020300Z 16006KT 110V210 9999 FEW015 22/20 Q1020","updated":"2025-10-02T03:29:15Z"}
