{"icao":"LPFR","metar":"LPFR 241000Z 34004KT 290V030 9999 -RA FEW020CB BKN048 08/06 Q1009","updated":"2026-01-24T10:20:10Z"}
