{"icao":"LPPD","metar":"LPPD 150700Z 33006KT 9999 FEW025 14/06 Q1013","updated":"2025-11-15T07:15:34Z"}
