{"icao":"LPAZ","metar":"LPAZ 181500Z 28011KT 9000 BKN005 BKN017 24/22 Q1016","updated":"2025-10-18T15:15:41Z"}
