{"icao":"LPHR","metar":"LPHR 011100Z 07008KT 9999 FEW025 BKN045 17/07 Q1021","updated":"2025-11-01T11:13:13Z"}
