{"icao":"LPMR","metar":"LPMR 102200Z 16004KT 6000 FEW020 SCT040 09/08 Q1028","updated":"2026-01-11T06:30:14Z"}
