{"icao":"LPFL","metar":"LPFL 081230Z 18011KT 160V220 9999 FEW006 SCT016 FEW017CB 23/21 Q1016","updated":"2025-10-08T12:37:29Z"}
