{"icao":"LPAR","metar":"LPAR 261500Z 24016G26KT 7000 SCT009 BKN016 BKN030 17/13 Q1011","updated":"2026-01-26T15:28:02Z"}
