{"icao":"LPHR","metar":"LPHR 111030Z 05011KT 020V080 9999 SCT013 FEW015TCU SCT030 16/11 Q1022","updated":"2026-05-11T10:37:13Z"}
