{"icao":"KORD","metar":"KORD 132051Z 17004KT 10SM BKN050 OVC100 19/11 A3008 RMK AO2 SLP186 T01940111 58002 $","updated":"2025-10-13T21:15:30Z"}
