{"icao":"LPFR","metar":"LPFR 252000Z 08009KT CAVOK 25/14 Q1021","updated":"2026-05-25T20:21:30Z"}
