{"icao":"LPPT","metar":"LPPT 062200Z VRB01KT CAVOK 19/15 Q1021","updated":"2025-10-06T22:15:27Z"}
