{"icao":"LPCS","metar":"LPCS 221230Z 01017KT 340V040 CAVOK 21/06 Q1019 WS R35","updated":"2025-09-22T12:36:46Z"}
