{"icao":"LPMR","metar":"LPMR 091400Z 21010KT 180V250 6000 -TSRA BKN018 FEW020CB BKN040 16/14 Q1004 RETSRA","updated":"2026-05-09T14:49:12Z"}
