{"icao":"KORD","metar":"KORD 012051Z 26007KT 10SM FEW039 OVC070 09/01 A3005 RMK AO2 SLP179 T00940006 55000 $","updated":"2025-11-01T21:14:26Z"}
