{"icao":"LPOV","metar":"LPOV 081300Z 34008KT 9000 -RA FEW026 SCT045 13/11 Q1019","updated":"2026-04-08T13:17:52Z"}
