{"icao":"LPHR","metar":"LPHR 030700Z 20003KT 140V240 9999 FEW015 BKN025 15/09 Q1026","updated":"2026-04-03T07:06:16Z"}
