{"icao":"LPCS","metar":"LPCS 221600Z 25007KT 220V280 9999 FEW006 SCT012 BKN024 22/20 Q1018","updated":"2025-10-22T16:24:10Z"}
