{"icao":"LPMT","metar":"LPMT 210400Z 18011KT 5000 RA BR FEW009 BKN018 12/12 Q1013","updated":"2026-01-21T04:42:26Z"}
