{"icao":"LPMT","metar":"LPMT 251400Z 27006KT 250V310 CAVOK 25/14 Q1015","updated":"2026-04-25T14:40:02Z"}
