{"icao":"LPOV","metar":"LPOV 141800Z 15011KT 9000 -SHRA FEW005 BKN014 FEW020CB 12/11 Q1001","updated":"2025-11-14T23:16:55Z"}
