{"icao":"LPHR","metar":"LPHR 301230Z 25004KT 220V280 9999 FEW006 BKN011 17/16 Q1019","updated":"2026-01-30T12:53:17Z"}
