{"icao":"KLAX","metar":"KLAX 220753Z 25004KT 5SM BR FEW003 OVC005 19/18 A2987 RMK AO2 SLP111 VIS S 2 1/2 T01890178 402500183 $","updated":"2025-09-22T08:24:39Z"}
