{"icao":"LPMT","metar":"LPMT 182200Z 32005KT CAVOK 13/12 Q1018","updated":"2025-11-18T22:18:15Z"}
