{"icao":"LPAZ","metar":"LPAZ 011130Z 26006KT 9999 FEW020 17/13 Q1016","updated":"2026-05-01T11:58:15Z"}
