{"icao":"LPPT","metar":"LPPT 111700Z 21009KT 6000 -DZ FEW008 BKN010 13/13 Q1025","updated":"2026-01-11T17:16:35Z"}
