{"icao":"LPFR","metar":"LPFR 110700Z VRB06KT CAVOK 08/07 Q1028","updated":"2026-01-11T07:19:40Z"}
