{"icao":"LPMA","metar":"LPMA 280430Z 01013KT 340V040 9999 BKN014 15/09 Q1027","updated":"2026-02-28T04:54:59Z"}
