{"icao":"KORD","metar":"KORD 180451Z 19007KT 10SM BKN060 OVC075 M04/M11 A3014 RMK AO2 SLP217 T10441111 $","updated":"2026-03-18T04:55:04Z"}
