{"icao":"LPHR","metar":"LPHR 111830Z 19003KT 130V250 9999 FEW020 15/07 Q1032","updated":"2026-04-11T18:42:13Z"}
