{"icao":"LPPD","metar":"LPPD 200630Z 02027G43KT 350V050 9999 SCT016 SCT030 14/10 Q1003","updated":"2026-03-20T06:53:50Z"}
