{"icao":"KORD","metar":"KORD 131951Z 24014G20KT 10SM SCT250 09/02 A2952 RMK AO2 SLP000 T00940017 $","updated":"2026-01-13T20:24:03Z"}
