{"icao":"LPFR","metar":"LPFR 012000Z 12015KT 9999 SCT010 16/15 Q1010","updated":"2026-01-01T20:22:20Z"}
