{"icao":"LPPD","metar":"LPPD 201600Z 04015KT 010V070 9999 VCSH SCT022 BKN040 17/12 Q1029","updated":"2025-11-20T16:25:02Z"}
