{"icao":"KJFK","metar":"KJFK 270451Z 29019G29KT 10SM FEW048 M08/M17 A2998 RMK AO2 PK WND 29033/0418 SLP153 T10781167 410281083 $","updated":"2026-01-27T05:26:02Z"}
