{"icao":"LPMR","metar":"LPMR 160400Z 17005KT 3000 BR FEW015 12/12 Q1009","updated":"2025-11-16T05:17:38Z"}
