{"icao":"LPST","metar":"LPST 091200Z 19016KT 2000 -RA BR BKN005 BKN012 16/16 Q1015 RERA","updated":"2025-12-09T12:41:16Z"}
