{"icao":"KORD","metar":"KORD 071551Z 09010G18KT 10SM SCT250 27/15 A2997 RMK AO2 SLP143 T02720150 $","updated":"2026-06-07T16:13:49Z"}
