{"icao":"KLAX","metar":"KLAX 020653Z 25007KT 10SM FEW014 19/17 A3000 RMK AO2 SLP157 T01890167 $","updated":"2025-10-02T07:16:34Z"}
