{"icao":"LPLA","metar":"LPLA 070300Z 16004KT 9999 BKN045 13/07 Q1033","updated":"2026-01-07T03:28:22Z"}
