{"icao":"KLAX","metar":"KLAX 241253Z VRB03KT 6SM BR FEW004 BKN006 BKN090 20/19 A2993 RMK AO2 SLP133 T02000189 $","updated":"2025-09-24T13:27:10Z"}
