{"icao":"KJFK","metar":"KJFK 170251Z 27016G27KT 10SM BKN060 BKN080 06/M06 A2954 RMK AO2 PK WND 31028/0201 SLP001 T00611061 51010 $","updated":"2025-11-17T03:15:28Z"}
