{"icao":"LPFL","metar":"LPFL 171800Z 34008KT 300V020 9999 FEW011 18/14 Q1024","updated":"2025-11-17T18:27:23Z"}
