{"icao":"LPPR","metar":"LPPR 260430Z 18015KT 4000 RA BR BKN004 FEW020CB 12/12 Q1008 RESHRA","updated":"2026-01-26T04:55:29Z"}
