{"icao":"LPFR","metar":"LPFR 191630Z 11011KT 4000 RA BR SCT010 BKN048 15/14 Q1007","updated":"2026-03-19T16:56:24Z"}
