{"icao":"LPPT","metar":"LPPT 151600Z 21012KT 3500 RA BR SCT008 BKN020 FEW025TCU 12/12 Q1007 RERA","updated":"2025-12-15T16:29:14Z"}
