{"icao":"KJFK","metar":"KJFK 150251Z 32017G29KT 10SM FEW060 M06/M14 A3011 RMK AO2 PK WND 32031/0234 SLP194 DRSN T10611139 51016 $","updated":"2025-12-15T03:40:36Z"}
