{"icao":"KJFK","metar":"KJFK 010551Z 03010KT 10SM FEW060 SCT250 18/11 A3008 RMK AO2 SLP186 T01780111 10211 20178 51006 $","updated":"2025-10-01T06:27:03Z"}
