{"icao":"LPPD","metar":"LPPD 272000Z 36019KT 9999 SCT016 BKN030 17/14 Q1013","updated":"2025-10-27T20:18:01Z"}
