{"icao":"LPAZ","metar":"LPAZ 291400Z 26016KT 9999 SCT017 SCT028 18/16 Q1011","updated":"2025-12-29T14:20:50Z"}
