{"icao":"KJFK","metar":"KJFK 040951Z 23006KT 10SM BKN050 M03/M06 A3018 RMK SLP219 T10281061 PNO $ ","updated":"2026-02-04T10:36:52Z"}
