{"icao":"LPMT","metar":"LPMT 130200Z 36004KT 9999 SCT045 12/08 Q1021","updated":"2026-04-13T02:34:43Z"}
