{"icao":"LPMA","metar":"LPMA 151900Z 33008KT 280V010 9999 FEW015 20/15 Q1016","updated":"2025-11-15T19:12:27Z"}
