{"icao":"LPMR","metar":"LPMR 192300Z 06001KT CAVOK 07/06 Q1019","updated":"2025-11-19T23:17:11Z"}
