{"icao":"LPPD","metar":"LPPD 062000Z 24026G37KT 9000 FEW012 BKN020 16/14 Q1008","updated":"2026-02-06T20:32:48Z"}
