{"icao":"KJFK","metar":"KJFK 072151Z 33028G43KT 10SM SCT038 BKN055 BKN100 BKN250 M12/M23 A2984 RMK AO2 PK WND 33043/2146 SLP103 T11171228 $","updated":"2026-02-07T22:24:41Z"}
