{"icao":"LPBJ","metar":"LPBJ 301400Z 03005KT 280V090 9999 FEW030 29/11 Q1017","updated":"2025-09-30T14:18:34Z"}
