{"icao":"LPCS","metar":"LPCS 302100Z 01014KT CAVOK 15/05 Q1027","updated":"2026-03-31T05:07:48Z"}
