{"icao":"KLAX","metar":"KLAX 131253Z 07004KT 9SM SCT060 BKN080 16/14 A3002 RMK AO2 SLP162 T01610144 $","updated":"2025-11-13T13:31:41Z"}
