{"icao":"LPAZ","metar":"LPAZ 121400Z 29009KT 9999 FEW026 23/16 Q1018","updated":"2025-10-12T14:14:13Z"}
