{"icao":"KJFK","metar":"KJFK 021251Z 07011G22KT 8SM -DZ OVC014 07/04 A3042 RMK AO2 DZB42 SLP301 P0000 T00670044","updated":"2026-04-02T13:11:18Z"}
