{"icao":"LPHR","metar":"LPHR 011400Z 29027G44KT 9999 VCSH SCT020 FEW025TCU SCT040 14/06 Q1009 WS R28","updated":"2026-02-01T14:24:42Z"}
