{"icao":"LPPT","metar":"LPPT 280130Z 34009KT CAVOK 14/06 Q1018","updated":"2026-03-28T02:03:37Z"}
