{"icao":"LPFL","metar":"LPFL 120900Z 20003KT 150V240 9999 SCT024 14/07 Q1033","updated":"2025-12-12T09:23:34Z"}
