{"icao":"LPMT","metar":"LPMT 170100Z 29003KT 260V320 9999 BKN018 BKN025 14/12 Q1030","updated":"2026-02-17T02:01:13Z"}
