{"icao":"KJFK","metar":"KJFK 291351Z 21005KT 10SM FEW045 FEW120 BKN250 13/06 A3000 RMK SLP157 T01330056 ","updated":"2026-04-29T13:53:09Z"}
