{"icao":"LPBJ","metar":"LPBJ 160300Z 32009KT 9999 BKN006 SCT020 10/09 Q1016","updated":"2026-01-16T03:38:22Z"}
