{"icao":"KORD","metar":"KORD 262051Z 10010KT 10SM BKN250 28/08 A2998 RMK AO2 SLP149 T02780083 56017","updated":"2026-05-26T21:44:04Z"}
