{"icao":"LPFL","metar":"LPFL 021430Z 10004KT 050V160 9999 FEW022 OVC028 16/10 Q1032","updated":"2026-04-02T14:54:30Z"}
