{"icao":"KLAX","metar":"KLAX 022253Z 27011KT 10SM FEW250 19/12 A3007 RMK AO2 SLP181 T01940122 $","updated":"2026-02-02T23:27:41Z"}
