{"icao":"LPMT","metar":"LPMT 072100Z 13006KT 080V190 9999 FEW020 BKN037 11/09 Q1014","updated":"2026-04-07T21:40:13Z"}
