{"icao":"LPBJ","metar":"LPBJ 241000Z 07003KT 310V120 9999 FEW018 18/10 Q1018","updated":"2026-04-24T10:19:40Z"}
