{"icao":"KLAX","metar":"KLAX 120953Z 04004KT 7SM FEW006 16/14 A2977 RMK AO2 SLP078 T01610144 $","updated":"2025-10-12T10:16:38Z"}
