{"icao":"LPMA","metar":"LPMA 252030Z 01008KT 330V050 9999 SCT016 17/12 Q1018","updated":"2026-04-25T20:37:42Z"}
