{"icao":"KLAX","metar":"KLAX 130453Z 23003KT 4SM BR BKN006 14/13 A3003 RMK AO2 SLP168 T01390128 $","updated":"2025-12-13T05:19:42Z"}
