{"icao":"LPPD","metar":"LPPD 270900Z 21006KT 9999 FEW017 SCT045 18/15 Q1022","updated":"2025-11-27T09:21:20Z"}
