{"icao":"KORD","metar":"KORD 081851Z 19006KT 10SM FEW030 FEW100 BKN250 M05/M13 A3030 RMK AO2 SLP271 T10501128","updated":"2025-12-08T19:16:32Z"}
