{"icao":"LPPS","metar":"LPPS 140600Z 36010KT 9999 SCT015 14/07 Q1023","updated":"2026-01-14T06:32:43Z"}
