{"icao":"LPBJ","metar":"LPBJ 130700Z 27016KT 6000 -SHRA BKN008 BKN022 11/10 Q1005","updated":"2026-02-13T07:08:41Z"}
