{"icao":"KORD","metar":"KORD 081951Z 08008KT 10SM BKN026 OVC040 07/01 A2985 RMK AO2 SLP110 T00720011 $","updated":"2025-11-08T20:18:03Z"}
