{"icao":"LPMR","metar":"LPMR 161400Z 33009KT CAVOK 23/15 Q1021","updated":"2025-09-16T14:18:08Z"}
