{"icao":"KJFK","metar":"KJFK 071151Z 32024G36KT 10SM BKN055 BKN070 OVC095 M06/M13 A2960 RMK AO2 PK WND 33041/1113 SNE28 SLP022 4/005 P0000 60000 7//// T10561133 11022 21056 53019 $","updated":"2026-02-07T12:45:40Z"}
