{"icao":"LPOV","metar":"LPOV 261100Z 12004KT 060V190 CAVOK 19/11 Q1020","updated":"2025-10-26T11:12:59Z"}
