{"icao":"LPMA","metar":"LPMA 301230Z 24008KT 180V340 9999 SCT015 24/14 Q1017","updated":"2025-10-30T12:38:03Z"}
