{"icao":"LPLA","metar":"LPLA 231900Z 29016KT 9999 FEW025 SCT045 14/07 Q1025","updated":"2026-01-23T19:23:31Z"}
