{"icao":"LPPR","metar":"LPPR 172330Z 32006KT CAVOK 13/10 Q1019","updated":"2026-05-18T00:01:38Z"}
