{"icao":"LPPS","metar":"LPPS 181630Z 08012KT 050V110 9999 FEW015 18/13 Q1015","updated":"2026-04-18T16:39:09Z"}
