{"icao":"LPBJ","metar":"LPBJ 230300Z 30002KT CAVOK 06/02 Q1027","updated":"2025-11-23T03:25:59Z"}
