{"icao":"LPAZ","metar":"LPAZ 152100Z 16008KT 9999 BKN027 15/13 Q1030","updated":"2026-02-15T21:23:21Z"}
