{"icao":"LPST","metar":"LPST 120800Z 27004KT 220V300 4000 BR BKN004 SCT015 13/12 Q1020","updated":"2026-02-12T08:43:55Z"}
