{"icao":"LPBJ","metar":"LPBJ 270200Z 26003KT 220V280 CAVOK 15/04 Q1019","updated":"2025-09-27T02:52:40Z"}
