{"icao":"KJFK","metar":"KJFK 302015Z 11013KT 2SM R04R/4500VP6000FT RA BR BKN006 BKN022 OVC045 17/16 A2952 RMK AO2 WSHFT 1956 SFC VIS 5 PRESFR P0104 T01670156","updated":"2025-10-30T20:20:28Z"}
