{"icao":"KLAX","metar":"KLAX 212053Z 25010KT 10SM FEW040 SCT090 BKN140 BKN200 21/15 A2997 RMK AO2 SLP148 T02110150 56027","updated":"2025-10-21T21:16:57Z"}
