{"icao":"LPPR","metar":"LPPR 031430Z 32011KT 270V350 9999 SCT015 17/12 Q1013","updated":"2026-05-03T14:47:14Z"}
