{"icao":"LPLA","metar":"LPLA 071200Z 26007KT 200V310 9999 FEW023 24/18 Q1023","updated":"2025-10-07T12:37:13Z"}
