{"icao":"LPBJ","metar":"LPBJ 292000Z 01002KT CAVOK 21/13 Q1016","updated":"2025-09-29T20:17:43Z"}
