{"icao":"LPHR","metar":"LPHR 171000Z 28008KT 9999 SCT003 BKN006 BKN025 20/19 Q1023","updated":"2025-11-17T10:21:23Z"}
