{"icao":"LPAZ","metar":"LPAZ 211600Z 22015KT 9000 SCT005 BKN028 25/23 Q1017","updated":"2025-10-21T16:23:52Z"}
