{"icao":"KORD","metar":"KORD 221251Z 31011KT 9SM -SN FEW027 OVC044 M06/M11 A3020 RMK AO2 SLP236 P0000 T10561106 $","updated":"2026-02-22T13:42:08Z"}
