{"icao":"LPMA","metar":"LPMA 171230Z 35013G23KT 250V050 9999 SCT015 18/09 Q1022","updated":"2026-01-17T12:37:42Z"}
