{"icao":"KJFK","metar":"KJFK 190751Z 16018G26KT 10SM -RA SCT042 BKN055 OVC085 12/11 A2985 RMK AO2 PK WND 17027/0718 RAB47 SLP109 P0000 T01220106","updated":"2025-12-19T08:28:01Z"}
