{"icao":"LPHR","metar":"LPHR 131330Z 26010KT 230V290 9999 FEW027 17/10 Q1031","updated":"2026-02-13T14:03:06Z"}
