{"icao":"LPPD","metar":"LPPD 100900Z 28015KT 6000 SHRA FEW006 SCT013 BKN030 16/15 Q1020","updated":"2025-11-10T09:22:43Z"}
