{"icao":"LPLA","metar":"LPLA 050700Z 16008KT 9999 FEW015 20/19 Q1024","updated":"2025-10-05T07:14:30Z"}
