{"icao":"LPCS","metar":"LPCS 160700Z 35003KT 330V030 CAVOK 18/10 Q1015","updated":"2025-10-16T07:17:47Z"}
