{"icao":"KLAX","metar":"KLAX 241910Z 26006KT 1 3/4SM RA BR SCT008 SCT029 OVC038 14/14 A2994 RMK AO2 VIS 1V2 1/2 SCT029 V BKN P0009 T01440139 $","updated":"2025-12-24T19:15:11Z"}
