{"icao":"LPCS","metar":"LPCS 231000Z 33007KT 300V360 9999 FEW005 SCT015 BKN040 22/19 Q1021","updated":"2025-10-23T10:19:27Z"}
