{"icao":"LPFR","metar":"LPFR 101130Z 25012KT 9999 FEW025 17/14 Q1013","updated":"2026-04-10T11:47:11Z"}
