{"icao":"LPFR","metar":"LPFR 080530Z 32006KT CAVOK 19/05 Q1020","updated":"2026-06-08T05:48:27Z"}
