{"icao":"LPFL","metar":"LPFL 311900Z 21012KT 180V280 9999 FEW012 18/12 Q1009","updated":"2026-01-31T19:19:44Z"}
