{"icao":"LPBJ","metar":"LPBJ 272200Z 28010KT CAVOK 20/15 Q1021","updated":"2026-06-27T23:00:10Z"}
