{"icao":"LPST","metar":"LPST 250800Z VRB01KT 7000 SCT006 BKN014 13/12 Q1015","updated":"2026-02-25T08:47:29Z"}
