{"icao":"LPAZ","metar":"LPAZ 191900Z VRB02KT 9999 FEW032 13/07 Q1030","updated":"2026-01-19T19:18:27Z"}
