{"icao":"LPPR","metar":"LPPR 251530Z 17004KT 110V240 9999 SCT025 16/10 Q1018","updated":"2026-02-25T16:01:08Z"}
