{"icao":"LPLA","metar":"LPLA 241600Z 08004KT 060V120 9999 FEW024 19/13 Q1026","updated":"2025-11-24T16:21:57Z"}
