{"icao":"LPFR","metar":"LPFR 232130Z 30008KT CAVOK 16/10 Q1015","updated":"2026-04-23T21:43:30Z"}
