{"icao":"KLAX","metar":"KLAX 070653Z 24011KT 10SM FEW140 SCT270 16/13 A3018 RMK AO2 SLP217 T01560128 $","updated":"2026-02-07T07:31:01Z"}
