{"icao":"LPHR","metar":"LPHR 092000Z 20021KT 5000 -RADZ BR SCT004 BKN007 17/17 Q1023","updated":"2026-01-09T20:23:14Z"}
