{"icao":"LPMA","metar":"LPMA 050130Z 01009KT 270V070 9999 -SHRA BKN015 FEW018CB 16/12 Q1014","updated":"2026-01-05T01:49:25Z"}
