{"icao":"LPFL","metar":"LPFL 241630Z 20011KT 180V250 9999 FEW010 SCT013 18/13 Q1007","updated":"2026-04-24T16:54:26Z"}
