{"icao":"LPPS","metar":"LPPS 281400Z 25010KT 210V290 9999 FEW015 25/14 Q1010","updated":"2025-10-28T14:18:47Z"}
