{"icao":"LPPS","metar":"LPPS 132000Z 27015G26KT 9999 FEW015 FEW018CB 18/11 Q1008","updated":"2025-11-13T20:21:09Z"}
