{"icao":"LPBJ","metar":"LPBJ 021300Z 34004KT 260V060 CAVOK 23/09 Q1020","updated":"2026-04-02T13:11:00Z"}
