{"icao":"LPMA","metar":"LPMA 140630Z 01009KT 330V050 9999 FEW016 16/07 Q1029","updated":"2026-02-14T06:42:40Z"}
