{"icao":"LPAZ","metar":"LPAZ 062130Z 33020KT 9999 FEW038 12/03 Q1023","updated":"2026-04-06T21:36:20Z"}
