{"icao":"LPPD","metar":"LPPD 310700Z 23015KT 4000 BR BKN002 BKN006 16/16 Q1017","updated":"2026-01-31T07:27:20Z"}
