{"icao":"KORD","metar":"KORD 271451Z 10010KT 10SM FEW023 FEW250 12/03 A3025 RMK AO2 SLP246 T01170033 50002","updated":"2025-10-27T15:19:43Z"}
