{"icao":"LPPS","metar":"LPPS 202300Z 33013KT 9999 SCT013 SCT030 16/12 Q1023","updated":"2025-12-20T23:17:06Z"}
