{"icao":"LPAZ","metar":"LPAZ 132000Z 29023KT 9999 FEW020 SCT029 16/11 Q1007","updated":"2025-11-13T20:20:55Z"}
