{"icao":"LPHR","metar":"LPHR 250700Z 25021KT 8000 SCT008 SCT012 BKN040 18/16 Q1015","updated":"2026-01-25T07:20:24Z"}
