{"icao":"LPST","metar":"LPST 060900Z 35020G31KT 330V030 9999 SCT016 11/05 Q1019","updated":"2026-03-06T09:36:51Z"}
