{"icao":"KORD","metar":"KORD 010251Z 03006KT 10SM OVC300 19/17 A3016 RMK AO2 SLP208 T01940167 51002","updated":"2025-10-01T03:09:49Z"}
