{"icao":"LPMT","metar":"LPMT 171600Z 26007KT 230V290 9999 VCSH SCT030 11/07 Q1010","updated":"2026-01-17T16:21:49Z"}
