{"icao":"LPGR","metar":"LPGR 281730Z 05005KT 010V090 9999 FEW020 22/12 Q1028","updated":"2026-06-28T18:03:35Z"}
