{"icao":"LPLA","metar":"LPLA 181100Z 31017KT 9000 -DZ FEW004 SCT006 BKN012 17/16 Q1026","updated":"2025-11-18T11:17:33Z"}
