{"icao":"KJFK","metar":"KJFK 231451Z 25005KT 10SM FEW075 BKN110 BKN250 07/01 A3002 RMK AO2 SLP164 T00670006 58015","updated":"2025-11-23T15:16:51Z"}
