{"icao":"LPFL","metar":"LPFL 071300Z 21008KT 160V250 9999 FEW024 23/18 Q1021","updated":"2025-10-07T13:28:14Z"}
