{"icao":"LPPS","metar":"LPPS 180600Z 00000KT 9999 FEW006 SCT025 20/20 Q1014","updated":"2025-10-18T06:24:19Z"}
