{"icao":"KORD","metar":"KORD 280951Z 09005KT 10SM CLR 08/05 A3012 RMK AO2 SLP201 T00830050","updated":"2025-10-28T10:20:59Z"}
