{"icao":"LPPT","metar":"LPPT 040230Z 33011KT 290V350 9999 SCT006 16/15 Q1023","updated":"2025-10-04T02:49:58Z"}
