{"icao":"LPMR","metar":"LPMR 232300Z 31003KT 280V350 9999 OVC007 17/16 Q1021","updated":"2026-05-23T23:55:50Z"}
