{"icao":"LPMA","metar":"LPMA 020530Z VRB01KT 9999 FEW015 16/10 Q1019","updated":"2026-05-02T05:36:02Z"}
