{"icao":"KORD","metar":"KORD 052151Z 22010G16KT 10SM OVC028 M01/M06 A2983 RMK AO2 SLP110 T10061061 $","updated":"2026-02-05T22:25:14Z"}
