{"icao":"LPHR","metar":"LPHR 010000Z 23010KT 4000 -DZ BR SCT001 BKN005 17/17 Q1010","updated":"2026-02-01T06:03:23Z"}
