{"icao":"LPHR","metar":"LPHR 021800Z 25005KT 180V280 9999 FEW025 BKN040 16/08 Q1030","updated":"2025-12-02T18:30:50Z"}
