{"icao":"LPPT","metar":"LPPT 041300Z 05008KT 350V100 9999 FEW025 17/11 Q1002","updated":"2026-01-04T13:28:31Z"}
