{"icao":"LPMT","metar":"LPMT 140000Z VRB02KT CAVOK 20/16 Q1017","updated":"2026-06-14T00:06:00Z"}
