{"icao":"LPOV","metar":"LPOV 271500Z 28008KT 250V330 9999 FEW009 22/18 Q1021","updated":"2026-06-27T15:13:43Z"}
