{"icao":"KJFK","metar":"KJFK 230051Z 34010KT 10SM FEW050 SCT250 08/M02 A3001 RMK AO2 SLP162 T00781022","updated":"2025-11-23T01:43:16Z"}
