{"icao":"LPOV","metar":"LPOV 141800Z 35008KT 3000 BR OVC002 19/19 Q1016","updated":"2026-06-14T18:10:36Z"}
