{"icao":"LPPR","metar":"LPPR 102000Z 33004KT 310V030 9999 FEW012 11/09 Q1023","updated":"2026-03-10T20:32:22Z"}
