{"icao":"LPBJ","metar":"LPBJ 300400Z 30006KT 0200 FG VV002 14/14 Q1013","updated":"2025-10-30T04:20:45Z"}
