{"icao":"KORD","metar":"KORD 242151Z 27007KT 10SM SCT039 BKN250 21/12 A2972 RMK AO2 SLP058 T02060122","updated":"2026-04-24T22:37:39Z"}
