{"icao":"LPPS","metar":"LPPS 180330Z 01007KT 9999 SCT012 19/17 Q1020","updated":"2026-06-18T03:53:57Z"}
