{"icao":"LPMR","metar":"LPMR 011000Z 18003KT 140V200 9999 SCT005 OVC018 16/15 Q1017","updated":"2025-11-01T10:17:06Z"}
