{"icao":"LPFL","metar":"LPFL 121200Z 34010KT 300V010 9999 SCT026 19/11 Q1020","updated":"2025-10-12T12:32:25Z"}
