{"icao":"KORD","metar":"KORD 270551Z 00000KT 10SM CLR 18/17 A2989 RMK AO2 SLP117 T01830167 10256 20178 402830150 50003 $","updated":"2025-09-27T06:22:27Z"}
