{"icao":"LPMT","metar":"LPMT 260700Z 02003KT CAVOK 09/06 Q1025","updated":"2025-11-26T07:18:14Z"}
