{"icao":"LPBJ","metar":"LPBJ 212300Z 06005KT CAVOK 08/M00 Q1029","updated":"2025-11-21T23:16:38Z"}
