{"icao":"LPPS","metar":"LPPS 011630Z 26008KT 230V290 9999 FEW015 20/13 Q1018","updated":"2026-05-01T16:58:59Z"}
