{"icao":"LPPT","metar":"LPPT 230900Z 31008KT 270V340 9999 FEW030 16/10 Q1014","updated":"2026-04-23T09:26:17Z"}
