{"icao":"LPHR","metar":"LPHR 171430Z 33016G26KT 290V360 9000 -SHRA SCT018 FEW025CB BKN030 10/06 Q1018","updated":"2026-03-17T14:54:58Z"}
