{"icao":"LPCS","metar":"LPCS 261630Z 03011KT 010V070 CAVOK 22/04 Q1013 WS R35","updated":"2026-03-26T16:59:20Z"}
