{"icao":"KJFK","metar":"KJFK 091851Z 18012KT 10SM BKN014 OVC190 08/06 A3017 RMK AO2 SLP215 T00780056 $","updated":"2026-01-09T19:19:03Z"}
