{"icao":"LPMR","metar":"LPMR 242000Z 29006KT 260V320 9999 FEW022 SCT035 11/07 Q1015","updated":"2026-01-24T20:20:27Z"}
