{"icao":"LPFL","metar":"LPFL 021030Z 00000KT 9999 FEW040 12/05 Q1033","updated":"2026-03-02T10:41:43Z"}
