{"icao":"LPMR","metar":"LPMR 261400Z 01007KT 340V040 CAVOK 15/05 Q1025","updated":"2025-11-26T14:19:26Z"}
