{"icao":"LPMR","metar":"LPMR 110000Z 30001KT CAVOK 14/12 Q1019","updated":"2026-06-11T00:13:17Z"}
