{"icao":"KJFK","metar":"KJFK 032051Z 19012KT 10SM FEW250 19/10 A3027 RMK AO2 SLP249 T01940100 56019","updated":"2025-10-03T21:14:28Z"}
