{"icao":"LPLA","metar":"LPLA 160600Z 16009KT 140V200 9999 FEW010 SCT016 BKN030 15/13 Q1026","updated":"2026-02-16T06:08:15Z"}
