{"icao":"LPFR","metar":"LPFR 121230Z 32019KT CAVOK 19/03 Q1016","updated":"2026-04-12T12:58:53Z"}
