{"icao":"KORD","metar":"KORD 292051Z 01013KT 10SM -RA SCT022 BKN037 OVC070 09/04 A2995 RMK AO2 RAB12E26B47 SLP144 P0000 60000 T00890044 51009","updated":"2026-04-29T21:03:10Z"}
