{"icao":"LPLA","metar":"LPLA 260300Z 20004KT 160V240 8000 -RA FEW007 SCT014 BKN025 17/15 Q1025","updated":"2025-11-26T03:13:40Z"}
