{"icao":"LPMR","metar":"LPMR 240700Z 00000KT 3000 BR SCT002 OVC007 19/19 Q1014","updated":"2026-06-24T07:38:49Z"}
