{"icao":"LPAZ","metar":"LPAZ 060530Z 36007KT 9999 SCT022 BKN042 15/09 Q1025","updated":"2026-05-06T05:56:37Z"}
