{"icao":"LPOV","metar":"LPOV 152200Z 22007KT 190V250 8000 -RADZ SCT009 BKN030 13/13 Q1029","updated":"2026-02-15T22:22:19Z"}
