{"icao":"LPCS","metar":"LPCS 291730Z 28011KT 240V300 9999 FEW006 SCT014 15/15 Q1012","updated":"2026-01-29T17:36:00Z"}
