{"icao":"LPMA","metar":"LPMA 170200Z 02010KT 340V060 9999 SCT016 16/10 Q1019","updated":"2026-04-17T02:29:33Z"}
