{"icao":"KORD","metar":"KORD 101651Z 33016G27KT 5SM -SN OVC017 M01/M04 A2958 RMK AO2 PK WND 35028/1634 SLP023 P0000 T10111039","updated":"2025-12-10T17:21:15Z"}
