{"icao":"KORD","metar":"KORD 051751Z 33014G25KT 10SM FEW055 FEW070 16/03 A2999 RMK AO2 PK WND 29026/1654 SLP153 T01560028 10156 20111 53039","updated":"2025-11-05T18:26:49Z"}
