{"icao":"LPCS","metar":"LPCS 252000Z 01017KT CAVOK 17/11 Q1015","updated":"2026-04-26T02:37:36Z"}
