{"icao":"LPBJ","metar":"LPBJ 270507Z 24017KT 3000 -RADZ FEW005 OVC010 13/12 Q1002 RERADZ","updated":"2026-01-27T05:25:45Z"}
