{"icao":"LPPS","metar":"LPPS 071800Z 05007KT 020V090 9999 SCT015 SCT030 15/09 Q1033","updated":"2026-01-07T18:31:45Z"}
