{"icao":"KORD","metar":"KORD 210051Z 26004KT 10SM OVC013 08/06 A3004 RMK AO2 SLP176 T00830061","updated":"2025-11-21T01:23:10Z"}
