{"icao":"LPPD","metar":"LPPD 031530Z 13006KT 9999 FEW025 BKN035 15/09 Q1025","updated":"2026-04-03T15:37:49Z"}
