{"icao":"LPPS","metar":"LPPS 241930Z 02007KT 9999 FEW015 17/12 Q1019","updated":"2026-04-24T19:52:00Z"}
