{"icao":"LPPD","metar":"LPPD 041930Z 26032G48KT 8000 -SHRA FEW012 BKN030 14/09 Q0994","updated":"2026-02-04T19:37:19Z"}
