{"icao":"LPOV","metar":"LPOV 081000Z 16010KT 7000 SCT005 SCT014 BKN022 10/10 Q1030","updated":"2026-01-08T10:23:12Z"}
