{"icao":"KORD","metar":"KORD 261751Z 02025G36KT 10SM FEW028 BKN038 BKN140 OVC250 13/03 A2977 RMK AO2 PK WND 02041/1720 SLP082 T01330033 10222 20117 53029","updated":"2026-03-26T18:04:30Z"}
