{"icao":"LPMA","metar":"LPMA 162000Z 34007KT 280V070 9999 BKN015 17/12 Q1027","updated":"2025-12-16T20:23:11Z"}
