{"icao":"LPBJ","metar":"LPBJ 240200Z 28004KT CAVOK 12/11 Q1016","updated":"2026-04-24T02:32:55Z"}
