{"icao":"KORD","metar":"KORD 111551Z 32011KT 8SM -DZ OVC011 02/01 A2976 RMK AO2 DZB09 SLP082 P0000 T00220006","updated":"2026-03-11T16:50:58Z"}
