{"icao":"KLAX","metar":"KLAX 290853Z 08005KT 10SM FEW250 12/02 A3015 RMK AO2 SLP208 T01170017 58007","updated":"2026-01-29T09:41:06Z"}
