{"icao":"LPMT","metar":"LPMT 252100Z 03008KT 9999 FEW012 SCT035 19/16 Q1014","updated":"2025-10-25T21:14:35Z"}
