{"icao":"LPPS","metar":"LPPS 230730Z 34003KT 9999 FEW014 17/13 Q1014","updated":"2026-04-23T07:49:55Z"}
