{"icao":"LPMA","metar":"LPMA 181100Z 22004KT 9999 SCT016 BKN033 19/10 Q1025","updated":"2025-12-18T11:18:33Z"}
