{"icao":"LPFL","metar":"LPFL 210800Z VRB06KT 9000 -RA FEW005 BKN008 18/16 Q1021","updated":"2026-01-21T08:30:35Z"}
