{"icao":"KLAX","metar":"KLAX 241853Z VRB04KT 10SM FEW140 SCT250 BKN280 23/07 A3006 RMK AO2 SLP179 T02280067","updated":"2026-02-24T19:00:43Z"}
