{"icao":"LPPS","metar":"LPPS 231800Z 06009KT 010V110 9999 FEW015 19/13 Q1025","updated":"2025-11-23T18:25:12Z"}
