{"icao":"LPPS","metar":"LPPS 302030Z 06018G29KT 030V090 9999 SCT015 16/11 Q1024","updated":"2026-03-30T20:54:22Z"}
