{"icao":"LPOV","metar":"LPOV 192300Z 13002KT CAVOK 06/06 Q1030","updated":"2026-02-19T23:28:25Z"}
