{"icao":"LPPR","metar":"LPPR 182300Z 10005KT CAVOK 17/08 Q1004","updated":"2026-03-18T23:29:15Z"}
