{"icao":"LPPD","metar":"LPPD 020930Z 06007KT 030V090 9999 FEW015 BKN021 14/11 Q1031","updated":"2026-04-02T10:01:00Z"}
