{"icao":"KLAX","metar":"KLAX 272253Z 24009KT 10SM FEW025 SCT039 16/09 A3003 RMK AO2 SLP168 T01560089 $","updated":"2025-12-27T23:18:01Z"}
