{"icao":"LPPR","metar":"LPPR 170100Z 12009KT 0600 0450S R17/0450N FG VV001 05/05 Q1013","updated":"2026-01-17T01:28:11Z"}
