{"icao":"KJFK","metar":"KJFK 280251Z 14004KT 10SM -RA BKN080 OVC100 21/18 A2999 RMK AO2 SLP156 P0001 60001 T02060178 50006","updated":"2025-09-28T03:06:59Z"}
