{"icao":"LPMR","metar":"LPMR 100700Z 19003KT 1200 -SHRA BR SCT003 SCT016 10/10 Q1020","updated":"2025-12-10T07:21:27Z"}
