{"icao":"LPMR","metar":"LPMR 220300Z 24006KT 9999 BKN004 SCT015 OVC025 20/19 Q1015","updated":"2025-10-22T03:09:38Z"}
