{"icao":"LPPD","metar":"LPPD 071100Z 28009KT 9999 VCSH FEW011 SCT016 BKN030 15/12 Q1015","updated":"2026-02-07T11:20:29Z"}
