{"icao":"LPAZ","metar":"LPAZ 052130Z 04006KT 9999 FEW024 SCT038 15/08 Q1027","updated":"2026-05-05T21:59:47Z"}
