{"icao":"LPMR","metar":"LPMR 270600Z 00000KT CAVOK 09/01 Q1017","updated":"2026-03-27T07:05:11Z"}
