{"icao":"KJFK","metar":"KJFK 191351Z 17014KT 10SM FEW200 BKN250 19/14 A3000 RMK AO2 SLP160 T01940144 $","updated":"2025-10-19T14:14:58Z"}
