{"icao":"LPPS","metar":"LPPS 010800Z 20012KT 9999 FEW015 21/17 Q1016","updated":"2025-11-01T08:21:47Z"}
