{"icao":"LPMA","metar":"LPMA 161730Z 08005KT 360V160 9999 SCT014 18/13 Q1029","updated":"2026-02-16T17:36:56Z"}
