{"icao":"LPMR","metar":"LPMR 261700Z 33005KT CAVOK 13/07 Q1025","updated":"2025-11-26T17:17:16Z"}
