{"icao":"KJFK","metar":"KJFK 311151Z 26018G26KT 10SM FEW032 BKN042 12/08 A2934 RMK AO2 PK WND 26027/1052 SLP934 70190 T01170078 10133 20111 53015","updated":"2025-10-31T12:38:06Z"}
