{"icao":"LPHR","metar":"LPHR 171500Z 22010KT 9999 SCT003 BKN005 22/21 Q1011","updated":"2025-10-17T15:18:14Z"}
