{"icao":"LPCS","metar":"LPCS 020830Z 20010KT 160V230 3500 -RA BKN008 15/14 Q1017","updated":"2026-05-02T09:04:22Z"}
