{"icao":"LPPS","metar":"LPPS 011330Z 28009KT 250V310 9999 FEW015 21/09 Q1019","updated":"2026-05-01T13:42:33Z"}
