{"icao":"LPMT","metar":"LPMT 241500Z 22007KT 200V260 9999 -RA BKN025 22/20 Q1016","updated":"2025-10-24T15:19:07Z"}
