{"icao":"LPFL","metar":"LPFL 211600Z 17005KT 130V240 9999 FEW030 16/10 Q1020","updated":"2026-02-21T16:27:45Z"}
