{"icao":"LPFR","metar":"LPFR 032100Z 32006KT CAVOK 16/13 Q1021","updated":"2025-11-03T21:16:35Z"}
