{"icao":"KJFK","metar":"KJFK 140251Z 19011KT 10SM SCT170 BKN250 05/03 A2980 RMK AO2 SLP091 T00500028 58022 $","updated":"2026-01-14T03:45:57Z"}
