{"icao":"LPPS","metar":"LPPS 141330Z 02012KT 3000 -RADZ BR SCT006 BKN014 16/14 Q1025","updated":"2026-03-14T13:44:35Z"}
