{"icao":"LPBJ","metar":"LPBJ 161000Z 36005KT 290V050 9999 FEW030 19/08 Q1017","updated":"2026-05-16T10:13:10Z"}
