{"icao":"LPPR","metar":"LPPR 281800Z 12007KT 070V150 9999 BKN038 BKN045 19/13 Q1008","updated":"2025-10-28T18:28:00Z"}
