{"icao":"LPAZ","metar":"LPAZ 261100Z 04009KT 360V070 4000 -DZ BR SCT004 BKN012 15/13 Q1029","updated":"2026-03-26T11:05:39Z"}
