{"icao":"KLAX","metar":"KLAX 160253Z 26005KT 10SM CLR 19/08 A2995 RMK AO2 SLP142 T01890078 55002 $","updated":"2026-01-16T03:38:24Z"}
