{"icao":"LPMA","metar":"LPMA 262200Z 24015G27KT 190V280 9999 -RA BKN015 18/14 Q1016","updated":"2026-01-26T22:20:57Z"}
