{"icao":"LPPR","metar":"LPPR 222000Z 01008KT CAVOK 16/09 Q1020","updated":"2025-09-22T20:19:09Z"}
