{"icao":"KLAX","metar":"KLAX 171912Z 34006KT 7SM -RA SCT013 BKN022 BKN033 12/11 A3011 RMK AO2 P0005 T01220106","updated":"2026-02-17T19:47:31Z"}
