{"icao":"LPFL","metar":"LPFL 010800Z 29013G38KT 190V350 9999 -SHRA SCT019 14/07 Q1006","updated":"2026-02-01T08:30:58Z"}
