{"icao":"LPFR","metar":"LPFR 180830Z 10005KT CAVOK 29/10 Q1015","updated":"2026-06-18T08:45:04Z"}
