{"icao":"LPHR","metar":"LPHR 091930Z 14009KT 9999 FEW030 14/08 Q1034","updated":"2026-03-09T19:39:35Z"}
