{"icao":"LPFL","metar":"LPFL 012100Z 33020G36KT 300V020 9999 SCT019 11/05 Q1013","updated":"2026-02-02T02:04:12Z"}
