{"icao":"LPPS","metar":"LPPS 062100Z 09005KT 9999 FEW015 16/12 Q1024","updated":"2025-12-06T21:16:15Z"}
