{"icao":"KLAX","metar":"KLAX 302053Z 25011KT 10SM SCT021 BKN220 BKN270 17/12 A2997 RMK AO2 SLP149 T01720122 58013 $","updated":"2025-11-30T21:16:14Z"}
