{"icao":"KJFK","metar":"KJFK 070751Z 27010KT 5SM -SN SCT016 BKN045 OVC075 M03/M06 A2955 RMK AO2 SLP006 P0000 T10281056 $","updated":"2026-02-07T08:30:07Z"}
