{"icao":"KORD","metar":"KORD 010551Z 04007KT 10SM -RA BKN090 OVC110 14/06 A3004 RMK AO2 RAB11 SLP169 P0000 60000 T01440061 10200 20144 402390128 53006 $","updated":"2026-06-01T06:01:33Z"}
