{"icao":"LPOV","metar":"LPOV 211500Z 31005KT 270V330 CAVOK 15/10 Q1029","updated":"2026-02-21T15:23:16Z"}
