{"icao":"LPPS","metar":"LPPS 151430Z 04010KT 350V090 9999 FEW015 BKN030 16/12 Q1024","updated":"2026-04-15T15:04:19Z"}
