{"icao":"LPPS","metar":"LPPS 080430Z 35008KT 9999 SCT015 13/12 Q1034","updated":"2026-01-08T04:38:18Z"}
