{"icao":"KLAX","metar":"KLAX 030734Z 11005KT 10SM FEW008 14/13 A2999 RMK AO2 T01390128","updated":"2026-03-03T07:41:14Z"}
