{"icao":"LPAZ","metar":"LPAZ 181400Z 22009KT 9999 FEW012 BKN041 26/21 Q1017","updated":"2025-09-18T14:17:34Z"}
