{"icao":"LPPR","metar":"LPPR 252100Z 05002KT CAVOK 05/04 Q1013","updated":"2025-12-25T21:17:31Z"}
