{"icao":"LPCS","metar":"LPCS 140600Z 35005KT CAVOK 16/10 Q1016","updated":"2025-10-14T06:27:16Z"}
