{"icao":"LPPD","metar":"LPPD 291100Z 24012KT 0600 R30/0800N -RADZ FG VV001 16/15 Q1011","updated":"2025-12-29T11:17:45Z"}
