{"icao":"LPFL","metar":"LPFL 211000Z 20020G33KT 170V240 9999 SCT015 23/19 Q1008","updated":"2025-10-21T10:19:12Z"}
