{"icao":"LPMR","metar":"LPMR 242200Z 29002KT CAVOK 16/16 Q1021","updated":"2026-05-25T00:03:11Z"}
