{"icao":"KLAX","metar":"KLAX 281653Z 33003KT 9SM CLR 22/13 A2999 RMK AO2 SLP156 T02220128 $","updated":"2025-10-28T17:17:46Z"}
