{"icao":"LPPD","metar":"LPPD 261100Z 04020G33KT 010V070 9000 VCSH SCT018 FEW022TCU 18/12 Q1021","updated":"2025-10-26T11:13:13Z"}
