{"icao":"LPPR","metar":"LPPR 142100Z 12008KT CAVOK 12/08 Q1017","updated":"2025-12-14T21:16:47Z"}
