{"icao":"LPCS","metar":"LPCS 221630Z 22007KT 190V260 CAVOK 17/08 Q1013","updated":"2026-04-22T16:57:38Z"}
