{"icao":"LPOV","metar":"LPOV 061700Z 24015KT 210V270 9999 FEW018 12/06 Q1003","updated":"2026-02-06T17:39:54Z"}
