{"icao":"LPPT","metar":"LPPT 182100Z 25008KT 220V280 CAVOK 21/17 Q1016","updated":"2025-10-18T21:14:05Z"}
