{"icao":"LPOV","metar":"LPOV 051500Z 23015KT 190V260 9000 FEW015 SCT018CB 14/12 Q0992 RETS","updated":"2026-02-05T15:39:08Z"}
