{"icao":"LPFR","metar":"LPFR 240600Z 07009KT CAVOK 20/01 Q1016","updated":"2025-09-24T06:26:35Z"}
