{"icao":"LPOV","metar":"LPOV 180800Z VRB01KT CAVOK 14/12 Q1016","updated":"2025-10-18T08:21:00Z"}
