{"icao":"LPFR","metar":"LPFR 211500Z 11013KT CAVOK 26/11 Q1020","updated":"2026-05-21T15:21:00Z"}
