{"icao":"LPPR","metar":"LPPR 161830Z 24006KT 210V290 7000 FEW004 BKN006 14/13 Q1028","updated":"2026-02-16T18:40:50Z"}
