{"icao":"LPFR","metar":"LPFR 022000Z 28009KT CAVOK 19/11 Q1019","updated":"2026-04-02T20:33:37Z"}
