{"icao":"LPFL","metar":"LPFL 261500Z 06005KT 020V100 9999 FEW016 22/16 Q1024","updated":"2026-06-26T15:22:19Z"}
