{"icao":"LPAZ","metar":"LPAZ 071700Z 27003KT 240V320 9999 FEW017 18/14 Q1010","updated":"2025-12-07T17:14:53Z"}
