{"icao":"LPAZ","metar":"LPAZ 252200Z 06018G29KT 9999 FEW015 SCT020 FEW025TCU BKN049 17/15 Q1018","updated":"2025-10-25T22:15:20Z"}
