{"icao":"KLAX","metar":"KLAX 231553Z 08006KT 10SM FEW014 17/13 A3007 RMK AO2 SLP182 T01720128","updated":"2025-10-23T16:23:00Z"}
