{"icao":"KLAX","metar":"KLAX 091053Z 24004KT 2SM BR CLR 16/14 A3003 RMK AO2 SLP166 VIS W 1 T01560144","updated":"2025-11-09T11:13:37Z"}
