{"icao":"LPPD","metar":"LPPD 061100Z 01004KT 9999 FEW025 BKN045 14/07 Q1035","updated":"2026-01-06T11:18:09Z"}
