{"icao":"LPFR","metar":"LPFR 151400Z 31010KT 290V350 9999 SCT028 16/10 Q1031","updated":"2026-02-15T14:26:07Z"}
