{"icao":"LPLA","metar":"LPLA 262100Z 02003KT 340V080 9999 SCT023 12/08 Q1025","updated":"2025-12-26T21:17:15Z"}
