{"icao":"KJFK","metar":"KJFK 161151Z 29020G28KT 10SM FEW055 M06/M16 A2978 RMK AO2 PK WND 28029/1057 SLP083 T10561156 11044 21056 51042 $","updated":"2026-01-16T12:42:13Z"}
