{"icao":"LPOV","metar":"LPOV 291100Z 26004KT 230V290 9999 FEW009 SCT015 17/16 Q1007","updated":"2026-04-29T11:27:11Z"}
