{"icao":"LPFR","metar":"LPFR 010800Z 06010KT 9000 SCT006 BKN012 13/11 Q1013","updated":"2026-01-01T08:27:48Z"}
