{"icao":"LPPD","metar":"LPPD 071130Z 32012KT 300V010 9999 FEW025 14/06 Q1031","updated":"2026-04-07T11:52:45Z"}
