{"icao":"LPBJ","metar":"LPBJ 292300Z 17003KT 130V190 CAVOK 06/05 Q1021","updated":"2025-12-29T23:18:35Z"}
