{"icao":"LPPT","metar":"LPPT 140800Z 35006KT 310V030 9999 BKN010 20/17 Q1023","updated":"2025-09-14T08:19:52Z"}
