{"icao":"KJFK","metar":"KJFK 080851Z 21015KT 10SM FEW032 OVC100 21/19 A2993 RMK AO2 RAB38E50 SLP134 P0000 60000 T02110189 56019","updated":"2025-10-08T09:19:11Z"}
