{"icao":"KJFK","metar":"KJFK 011451Z 19010KT 10SM SCT110 BKN160 BKN250 18/11 A3003 RMK AO2 SLP168 T01830111 53012","updated":"2026-04-01T15:02:51Z"}
