{"icao":"LPOV","metar":"LPOV 270200Z 15003KT 100V230 9999 BKN012 09/09 Q1025","updated":"2026-02-27T04:18:14Z"}
