{"icao":"KLAX","metar":"KLAX 052053Z 24011KT 10SM FEW220 FEW260 SCT300 23/11 A3000 RMK AO2 SLP158 T02330106 58003 $","updated":"2026-04-05T21:30:30Z"}
