{"icao":"KORD","metar":"KORD 250133Z 35007KT 4SM R10L/5500VP6000FT -SN OVC037 M15/M18 A3047 RMK AO2 P0000 T11501183","updated":"2026-01-25T01:51:00Z"}
