{"icao":"KJFK","metar":"KJFK 261851Z 23007KT 3SM BKN013 BKN019 14/13 A2972 RMK AO2 SFC VIS 7 SLP064 T01440128","updated":"2025-11-26T19:14:44Z"}
