{"icao":"LPAR","metar":"LPAR 130800Z VRB02KT CAVOK 18/14 Q1015","updated":"2025-10-13T08:25:55Z"}
