{"icao":"LPMR","metar":"LPMR 251000Z 26007KT 230V290 5000 -SHRA BR SCT009 BKN015 FEW020CB BKN040 13/12 Q1015","updated":"2026-01-25T10:20:39Z"}
