{"icao":"LPPD","metar":"LPPD 031130Z 04015KT 360V070 9999 FEW022 17/11 Q1022","updated":"2026-05-03T11:40:45Z"}
