{"icao":"LPAR","metar":"LPAR 141600Z 17004KT 140V210 9999 FEW025 SCT045 19/13 Q1022","updated":"2026-04-14T22:46:15Z"}
