{"icao":"LPBJ","metar":"LPBJ 301800Z 06006KT CAVOK 27/11 Q1018","updated":"2025-09-30T18:23:05Z"}
