{"icao":"LPFR","metar":"LPFR 180700Z 34003KT 320V020 CAVOK 12/10 Q1017","updated":"2025-11-18T07:18:12Z"}
