{"icao":"KLAX","metar":"KLAX 171853Z 19008KT 10SM FEW034 SCT050 SCT270 21/12 A2980 RMK AO2 SLP091 T02060122","updated":"2026-05-17T19:06:47Z"}
