{"icao":"LPPT","metar":"LPPT 231230Z 12004KT 050V180 CAVOK 18/09 Q1024","updated":"2026-02-23T13:01:29Z"}
