{"icao":"LPAR","metar":"LPAR 201200Z 28005KT 9999 SCT030 23/15 Q1015","updated":"2025-10-20T12:38:11Z"}
