{"icao":"LPFL","metar":"LPFL 171600Z 20012G25KT 140V290 9000 VCSH FEW006 SCT010 BKN014 24/22 Q1007","updated":"2025-10-17T16:21:49Z"}
