{"icao":"KJFK","metar":"KJFK 151551Z 32016KT 10SM FEW055 SCT250 M04/M12 A3027 RMK AO2 PK WND 32026/1502 SLP248 T10391117 $","updated":"2025-12-15T16:29:32Z"}
