{"icao":"LPPT","metar":"LPPT 191430Z 35012KT 9999 SCT038 14/06 Q1028","updated":"2026-02-19T14:48:10Z"}
