{"icao":"LPPD","metar":"LPPD 270330Z 25015KT 9999 FEW016 16/12 Q1016","updated":"2026-05-27T03:39:37Z"}
