{"icao":"LPMA","metar":"LPMA 232000Z 36008KT 310V100 9999 SCT015 21/13 Q1021","updated":"2025-09-23T20:18:57Z"}
