{"icao":"LPPR","metar":"LPPR 031800Z 05005G15KT 010V070 CAVOK 15/09 Q1001","updated":"2026-01-03T18:27:08Z"}
