{"icao":"KORD","metar":"KORD 291451Z 22011G21KT 10SM BKN110 BKN250 10/M03 A3020 RMK AO2 SLP229 T01001033 58009 $","updated":"2026-03-29T15:31:50Z"}
