{"icao":"LPPD","metar":"LPPD 182030Z 16013KT 9000 -SHRA FEW006 BKN013 FEW018TCU 16/15 Q1014","updated":"2026-04-18T20:35:28Z"}
