{"icao":"LPMA","metar":"LPMA 260230Z 01013KT 340V040 9999 SCT015 17/11 Q1018","updated":"2026-04-26T02:37:57Z"}
