{"icao":"KORD","metar":"KORD 301851Z 32012G20KT 10SM OVC023 M01/M06 A3018 RMK AO2 SLP228 T10111061 $","updated":"2025-11-30T19:14:38Z"}
