{"icao":"KORD","metar":"KORD 090951Z 21013G24KT 10SM CLR 09/02 A2972 RMK AO2 PK WND 21026/0916 SLP065 T00940017 $","updated":"2026-03-09T10:43:46Z"}
