{"icao":"LPMR","metar":"LPMR 111700Z 18013KT 150V210 9999 FEW020 BKN025 19/14 Q1008","updated":"2025-11-11T17:16:48Z"}
