{"icao":"KJFK","metar":"KJFK 230451Z 23010KT 10SM FEW250 19/17 A3005 RMK AO2 SLP175 T01890167 402170111 $","updated":"2025-09-23T05:17:01Z"}
