{"icao":"LPMR","metar":"LPMR 301000Z 14005KT 9999 SCT022 BKN040 17/13 Q1017","updated":"2026-04-30T10:54:02Z"}
