{"icao":"LPPT","metar":"LPPT 251730Z 31010KT CAVOK 19/11 Q1017","updated":"2026-03-25T17:57:10Z"}
