{"icao":"LPPS","metar":"LPPS 071400Z 27010KT 240V300 9999 FEW014 23/17 Q1020","updated":"2025-11-07T14:18:24Z"}
