{"icao":"LPAZ","metar":"LPAZ 281600Z 13009KT 080V180 9999 FEW026 24/14 Q1028","updated":"2025-09-28T16:18:33Z"}
