{"icao":"LPBJ","metar":"LPBJ 081400Z 30009KT 270V340 9999 SCT030 17/08 Q1021","updated":"2026-03-08T14:23:50Z"}
