{"icao":"LPST","metar":"LPST 060900Z 10007KT 070V130 CAVOK 22/11 Q1020","updated":"2025-10-06T09:21:01Z"}
