{"icao":"LPPT","metar":"LPPT 181100Z 10004KT 060V130 CAVOK 22/14 Q1018","updated":"2025-10-18T11:13:09Z"}
