{"icao":"LPPT","metar":"LPPT 121630Z 32017G29KT 9999 SCT040 15/05 Q1020 WS R02","updated":"2026-04-12T16:37:04Z"}
