{"icao":"KJFK","metar":"KJFK 061551Z 00000KT 10SM BKN130 BKN170 BKN250 M01/M09 A2974 RMK AO2 SLP070 T10111094 $","updated":"2026-02-06T16:42:15Z"}
