{"icao":"LPFL","metar":"LPFL 291100Z 18008KT 130V250 9999 FEW022 19/13 Q1016","updated":"2026-05-29T11:27:49Z"}
