{"icao":"LPBJ","metar":"LPBJ 251400Z 33008KT 290V050 9999 FEW040 25/12 Q1015","updated":"2026-04-25T14:40:02Z"}
