{"icao":"KJFK","metar":"KJFK 290751Z 01005KT 10SM FEW250 20/18 A3016 RMK AO2 SLP212 T02000178 $","updated":"2025-09-29T08:25:55Z"}
