{"icao":"LPPS","metar":"LPPS 301600Z 02013KT 350V050 9999 SCT015 23/14 Q1021","updated":"2025-09-30T16:22:39Z"}
