{"icao":"LPOV","metar":"LPOV 211100Z 23009KT 200V280 9999 FEW006 BKN025 BKN035 15/14 Q1003","updated":"2026-01-21T11:22:39Z"}
