{"icao":"LPLA","metar":"LPLA 171800Z 24011KT 190V280 9999 VCSH FEW008 BKN012 23/21 Q1011","updated":"2025-10-17T18:23:24Z"}
