{"icao":"KJFK","metar":"KJFK 070751Z 28008KT 10SM FEW120 21/18 A2978 RMK AO2 SLP084 T02060183 $","updated":"2026-06-07T07:53:42Z"}
