{"icao":"LPPT","metar":"LPPT 211330Z 06008KT 010V100 CAVOK 18/07 Q1029","updated":"2026-02-21T13:40:42Z"}
