{"icao":"LPPD","metar":"LPPD 061000Z 22018KT 5000 -RADZ BR FEW006 BKN011 20/19 Q1014","updated":"2025-11-06T10:21:08Z"}
