{"icao":"KJFK","metar":"KJFK 201251Z 02005KT 10SM FEW037 BKN190 BKN250 03/M02 A3027 RMK AO2 SLP250 T00331017 $","updated":"2025-11-20T13:29:17Z"}
