{"icao":"KJFK","metar":"KJFK 201351Z 21008KT 10SM FEW060 SCT250 06/01 A3011 RMK AO2 SLP197 T00560006","updated":"2026-03-20T14:02:35Z"}
