{"icao":"LPPS","metar":"LPPS 262000Z 06010KT 020V100 9999 SCT015 BKN030 18/09 Q1023","updated":"2025-11-26T20:20:43Z"}
