{"icao":"LPCS","metar":"LPCS 171530Z 20012KT CAVOK 17/08 Q1007","updated":"2026-03-17T16:04:25Z"}
