{"icao":"LPMA","metar":"LPMA 201900Z 05004KT 010V080 9999 FEW013 19/14 Q1003","updated":"2026-04-20T19:08:29Z"}
