{"icao":"KORD","metar":"KORD 060651Z 08004KT 1 1/2SM -DZ BR OVC004 07/06 A3002 RMK AO2 DZB27 SLP170 P0000 T00670061","updated":"2026-03-06T07:37:43Z"}
