{"icao":"LPMR","metar":"LPMR 240300Z 26006KT 220V290 9999 FEW020 FEW022CB SCT032 08/04 Q1002","updated":"2026-01-24T03:25:27Z"}
