{"icao":"LPFL","metar":"LPFL 201630Z 19018KT 160V220 9999 -DZ BKN009 17/15 Q1011","updated":"2026-02-20T16:37:12Z"}
