{"icao":"LPPR","metar":"LPPR 250900Z 19009KT 160V220 9999 VCSH SCT010 SCT014 21/18 Q1014","updated":"2026-06-25T09:18:31Z"}
