{"icao":"KJFK","metar":"KJFK 230851Z 29008KT 10SM FEW250 11/03 A2987 RMK AO2 SLP116 T01110028 52007","updated":"2025-10-23T09:20:00Z"}
