{"icao":"LPPR","metar":"LPPR 222200Z 21011KT 8000 BKN003 BKN010 19/19 Q1016","updated":"2025-10-22T22:14:12Z"}
