{"icao":"LPAR","metar":"LPAR 170800Z 05005KT CAVOK 16/12 Q1014","updated":"2025-10-17T08:24:41Z"}
