{"icao":"LPMR","metar":"LPMR 080200Z VRB02KT 9999 SCT024 12/11 Q1019","updated":"2025-11-08T03:00:53Z"}
