{"icao":"LPHR","metar":"LPHR 071900Z 23019KT 8000 -RA SCT005 BKN010 17/16 Q1010","updated":"2026-02-07T19:23:04Z"}
