{"icao":"KJFK","metar":"KJFK 091051Z 33012KT 10SM CLR M12/M19 A3028 RMK AO2 SLP252 T11221189 $","updated":"2026-02-09T11:43:00Z"}
