{"icao":"LPPR","metar":"LPPR 301900Z 05004KT 320V100 CAVOK 09/06 Q1021","updated":"2025-11-30T19:14:20Z"}
