{"icao":"LPCS","metar":"LPCS 141900Z 24008KT 9999 TS SCT020 FEW024CB 16/13 Q1005","updated":"2025-11-14T19:14:32Z"}
