{"icao":"LPPS","metar":"LPPS 312030Z 07011KT 040V100 9999 FEW016 16/13 Q1024","updated":"2026-03-31T20:40:52Z"}
