{"icao":"KORD","metar":"KORD 091951Z 21015G24KT 10SM CLR 22/07 A2968 RMK AO2 SLP050 T02170067 $","updated":"2026-03-09T20:33:42Z"}
