{"icao":"KORD","metar":"KORD 211251Z 26006KT 10SM BKN019 M03/M08 A3007 RMK AO2 SLP190 T10331078 $","updated":"2026-02-21T13:40:47Z"}
