{"icao":"LPCS","metar":"LPCS 221800Z 01005KT CAVOK 12/05 Q1028","updated":"2025-11-22T18:24:30Z"}
