{"icao":"LPOV","metar":"LPOV 251000Z 02004KT 350V050 CAVOK 11/08 Q1024","updated":"2025-11-25T10:22:18Z"}
