{"icao":"LPBJ","metar":"LPBJ 120940Z 25008KT 9999 FEW007 BKN025 13/12 Q1022","updated":"2026-02-12T09:48:42Z"}
