{"icao":"KLAX","metar":"KLAX 200553Z 02004KT 10SM FEW030 FEW250 13/08 A3004 RMK AO2 SLP170 T01330083 10161 20133 53003 $","updated":"2025-11-20T06:27:44Z"}
