{"icao":"KLAX","metar":"KLAX 010253Z 26007KT 10SM FEW010 17/16 A2997 RMK AO2 SLP148 T01720156 53008 $","updated":"2025-11-01T03:10:32Z"}
