{"icao":"LPLA","metar":"LPLA 012200Z 07006KT 030V110 9999 FEW012 SCT020 16/13 Q1019","updated":"2026-05-01T22:48:58Z"}
