{"icao":"LPBJ","metar":"LPBJ 271300Z VRB03KT 9999 FEW030 28/11 Q1012","updated":"2026-04-27T13:50:19Z"}
