{"icao":"LPOV","metar":"LPOV 041800Z 16013KT CAVOK 22/11 Q1010","updated":"2025-11-04T18:27:06Z"}
