{"icao":"LPPS","metar":"LPPS 250500Z 06008KT 030V090 9999 SCT014 BKN030 17/15 Q1020","updated":"2026-05-25T05:18:31Z"}
