{"icao":"KJFK","metar":"KJFK 301851Z 11026G39KT 2SM RA BR BKN007 OVC012 16/15 A2954 RMK AO2 PK WND 12041/1814 SFC VIS 3 LTG DSNT W SLP003 P0011 T01610150","updated":"2025-10-30T19:14:51Z"}
