{"icao":"LPAZ","metar":"LPAZ 121230Z 22010KT 9999 FEW038 16/06 Q1032","updated":"2026-04-12T12:59:12Z"}
