{"icao":"LPLA","metar":"LPLA 242300Z 28008KT 9999 FEW020 16/13 Q1019","updated":"2026-01-24T23:18:56Z"}
