{"icao":"KLAX","metar":"KLAX 052253Z 25013G19KT 10SM FEW010 SCT070 BKN100 18/09 A2996 RMK AO2 SLP144 T01780089","updated":"2026-05-05T23:04:13Z"}
