{"icao":"LPCS","metar":"LPCS 041330Z 25011KT 220V280 5000 BR FEW002 BKN004 15/15 Q0998","updated":"2026-02-04T14:03:47Z"}
