{"icao":"LPPD","metar":"LPPD 121030Z 23016KT 9999 -SHRA FEW006 SCT012 BKN035 16/15 Q1016","updated":"2026-02-12T10:43:36Z"}
