{"icao":"LPPR","metar":"LPPR 212230Z 10004KT 080V140 CAVOK 20/13 Q1020","updated":"2026-05-21T23:02:03Z"}
