{"icao":"LPPR","metar":"LPPR 012200Z 30003KT 260V330 9000 BKN007 17/16 Q1020","updated":"2026-06-01T22:09:25Z"}
