{"icao":"LPPS","metar":"LPPS 191230Z 14005KT 100V170 CAVOK 24/20 Q1019","updated":"2025-09-19T12:36:28Z"}
