{"icao":"LPMA","metar":"LPMA 180800Z 05009KT 9999 FEW015 23/13 Q1018","updated":"2025-09-18T08:22:07Z"}
