{"icao":"LPAZ","metar":"LPAZ 211800Z 31016KT 9999 FEW021 22/16 Q1021","updated":"2026-06-21T18:18:46Z"}
