{"icao":"LPOV","metar":"LPOV 140400Z 35017KT 7000 -SHRA SCT013 SCT040 09/05 Q1020","updated":"2026-02-14T04:11:47Z"}
