{"icao":"LPMR","metar":"LPMR 280100Z 16009KT 140V200 1200 +RA BR FEW015 SCT045 09/08 Q0999 RETSRA","updated":"2026-01-28T01:43:59Z"}
