{"icao":"LPHR","metar":"LPHR 220900Z 31023G36KT 6000 -SHRA FEW008 BKN012 BKN030 16/13 Q1016","updated":"2026-01-22T09:31:15Z"}
