{"icao":"LPPR","metar":"LPPR 090800Z 32007KT 9999 VCSH FEW018 SCT033 BKN045 12/09 Q1027","updated":"2026-01-09T08:29:16Z"}
