{"icao":"KORD","metar":"KORD 161151Z 32011G22KT 10SM CLR 04/M09 A2987 RMK AO2 SLP116 T00391094 10094 20039 53020 $","updated":"2025-11-16T12:34:21Z"}
