{"icao":"LPPR","metar":"LPPR 190800Z 03009KT 9999 FEW030 10/03 Q1018","updated":"2025-11-19T08:25:08Z"}
