{"icao":"KORD","metar":"KORD 130851Z 18006KT 10SM SCT080 BKN150 OVC250 21/11 A3005 RMK AO2 SLP171 T02110111 55008 $","updated":"2025-09-13T09:34:28Z"}
