{"icao":"LPLA","metar":"LPLA 090700Z 18020G30KT 9000 -RA FEW009 BKN016 21/19 Q1020","updated":"2025-10-09T07:17:28Z"}
