{"icao":"LPCS","metar":"LPCS 151230Z 31007KT 280V340 9999 FEW015 SCT032 BKN045 13/10 Q1032","updated":"2026-02-15T12:48:14Z"}
