{"icao":"LPPS","metar":"LPPS 041900Z 25009KT 220V280 9999 SCT014 23/19 Q1013","updated":"2025-11-04T19:14:55Z"}
