{"icao":"LPAR","metar":"LPAR 231200Z 10003KT 020V160 CAVOK 16/11 Q1024","updated":"2026-02-23T13:01:31Z"}
