{"icao":"LPFL","metar":"LPFL 161800Z 33014G26KT 280V040 9999 SCT017 13/06 Q1019 WS ALL RWY","updated":"2026-03-16T20:37:01Z"}
