{"icao":"LPFR","metar":"LPFR 131830Z 30010KT CAVOK 19/11 Q1019","updated":"2026-03-13T18:40:35Z"}
