{"icao":"LPHR","metar":"LPHR 091230Z 12006KT 080V150 9999 FEW018 SCT035 15/07 Q1035","updated":"2026-03-09T13:00:41Z"}
