{"icao":"KORD","metar":"KORD 060951Z 23003KT 10SM BKN250 03/M03 A3021 RMK AO2 SLP231 T00331028","updated":"2025-11-06T10:21:26Z"}
