{"icao":"KORD","metar":"KORD 291851Z 07019G28KT 10SM BKN039 12/03 A3002 RMK AO2 PK WND 07028/1849 SLP166 T01220028","updated":"2025-10-29T19:14:24Z"}
