{"icao":"LPMR","metar":"LPMR 241900Z 34009KT 9999 FEW025 17/12 Q1018","updated":"2026-04-24T19:51:29Z"}
