{"icao":"LPMT","metar":"LPMT 090700Z 34005KT 9999 BKN015 17/14 Q1020","updated":"2025-10-09T07:17:13Z"}
