{"icao":"LPOV","metar":"LPOV 290600Z 10001KT 4000 BR SCT008 BKN020 06/06 Q1020","updated":"2025-11-29T06:26:49Z"}
