{"icao":"LPAR","metar":"LPAR 091300Z 05009KT 010V090 CAVOK 22/11 Q1015","updated":"2026-04-09T13:47:29Z"}
