{"icao":"LPAZ","metar":"LPAZ 251230Z 18009KT 9000 SCT002 BKN020 16/16 Q1018","updated":"2026-04-25T13:01:30Z"}
