{"icao":"LPMA","metar":"LPMA 261130Z 01021G33KT 330V030 9999 SCT015 FEW016CB 17/09 Q1024","updated":"2026-02-26T11:38:44Z"}
