{"icao":"LPBJ","metar":"LPBJ 011200Z VRB05KT 9999 SCT045 27/13 Q1021","updated":"2025-10-01T12:38:25Z"}
