{"icao":"LPMA","metar":"LPMA 270600Z 21013KT 9999 FEW008 SCT013 FEW018CB 22/21 Q1015","updated":"2025-10-27T06:30:22Z"}
