{"icao":"KJFK","metar":"KJFK 052151Z 19015KT 10SM FEW180 BKN240 16/11 A2968 RMK AO2 SLP051 T01560106","updated":"2025-11-05T22:17:25Z"}
