{"icao":"LPPT","metar":"LPPT 031700Z 25005KT CAVOK 18/11 Q1021","updated":"2025-11-03T17:16:33Z"}
