{"icao":"KJFK","metar":"KJFK 131151Z 35007KT 10SM FEW100 SCT250 24/15 A2988 RMK SLP118 70052 T02390150 10256 20222 53021 $ ","updated":"2026-06-13T12:23:32Z"}
