{"icao":"KJFK","metar":"KJFK 290051Z 27019G32KT 10SM FEW065 03/M08 A3010 RMK PK WND 27032/0043 SLP192 T00331078 $ ","updated":"2025-11-29T01:22:38Z"}
