{"icao":"LPHR","metar":"LPHR 150900Z 32009KT 280V010 9999 FEW025 15/08 Q1027","updated":"2025-12-15T09:30:37Z"}
