{"icao":"LPPT","metar":"LPPT 230600Z 23004KT 200V270 CAVOK 09/07 Q1027","updated":"2025-11-23T06:26:37Z"}
