{"icao":"KLAX","metar":"KLAX 281553Z 10005KT 10SM FEW140 SCT200 BKN250 12/01 A3024 RMK AO2 SLP239 T01220006","updated":"2026-01-28T16:35:39Z"}
