{"icao":"LPPT","metar":"LPPT 031700Z 34011KT 9999 FEW014 23/13 Q1022","updated":"2025-10-03T17:14:21Z"}
