{"icao":"LPBJ","metar":"LPBJ 211700Z 03009KT CAVOK 14/M00 Q1025","updated":"2025-11-21T17:16:12Z"}
