{"icao":"LPPT","metar":"LPPT 180730Z 31003KT 270V010 9999 FEW022 14/10 Q1020","updated":"2026-05-18T08:01:33Z"}
