{"icao":"LPPS","metar":"LPPS 131830Z 02014KT 9999 FEW015 BKN030 16/09 Q1025","updated":"2026-03-13T18:41:09Z"}
