{"icao":"LPBJ","metar":"LPBJ 160400Z 30006KT 0800 FG BKN006 SCT020 09/09 Q1016","updated":"2026-01-16T04:38:57Z"}
