{"icao":"KJFK","metar":"KJFK 261051Z 23009KT 10SM SCT250 01/M02 A2985 RMK AO2 SLP107 T00061022 $","updated":"2026-02-26T11:38:45Z"}
