{"icao":"LPPS","metar":"LPPS 310800Z 31008KT 270V340 9999 FEW006 15/15 Q1024","updated":"2026-01-31T08:29:23Z"}
