{"icao":"KORD","metar":"KORD 141151Z 31011G17KT 10SM CLR M18/M25 A3050 RMK AO2 SLP345 T11831250 11167 21183 53027","updated":"2025-12-14T12:36:53Z"}
