{"icao":"LPLA","metar":"LPLA 240800Z 36008KT 9999 SCT025 BKN036 19/13 Q1023","updated":"2025-09-24T08:18:48Z"}
