{"icao":"LPFL","metar":"LPFL 141330Z 22010G22KT 170V330 9999 FEW009 SCT014 21/17 Q1019","updated":"2026-06-14T14:04:14Z"}
