{"icao":"LPOV","metar":"LPOV 290100Z 23014KT 200V270 2000 -RADZ BR OVC005 15/15 Q1001","updated":"2026-01-29T01:56:11Z"}
