{"icao":"KJFK","metar":"KJFK 101251Z 00000KT 1/4SM R04R/2800V3500FT FG OVC002 12/12 A2993 RMK AO2 SFC VIS 1/2 SLP134 T01170117 $","updated":"2026-05-10T13:15:38Z"}
