{"icao":"LPMT","metar":"LPMT 281700Z 25007KT 200V280 2500 TSRA SCT010 BKN012 SCT020CB BKN023 16/16 Q1010 RERA","updated":"2025-10-28T17:17:30Z"}
