{"icao":"LPHR","metar":"LPHR 141300Z 29011KT 230V320 9999 FEW020 SCT055 17/09 Q1008","updated":"2025-11-14T13:28:56Z"}
