{"icao":"LPPD","metar":"LPPD 062200Z 24031G42KT 8000 FEW012 BKN020 FEW025TCU 16/14 Q1008","updated":"2026-02-06T22:22:08Z"}
