{"icao":"LPPT","metar":"LPPT 211130Z 35005KT 280V020 CAVOK 31/15 Q1017","updated":"2026-06-21T11:45:55Z"}
