{"icao":"LPPS","metar":"LPPS 251800Z 02010KT 9999 SCT014 19/16 Q1023","updated":"2025-11-25T18:29:05Z"}
