{"icao":"KLAX","metar":"KLAX 010253Z 25010KT 10SM FEW015 18/14 A2992 RMK AO2 SLP129 T01830139 55005 $","updated":"2026-07-01T03:41:05Z"}
