{"icao":"KLAX","metar":"KLAX 180653Z 10005KT 10SM CLR 16/11 A2997 RMK AO2 SLP146 T01610111","updated":"2026-04-18T07:05:29Z"}
