{"icao":"LPAZ","metar":"LPAZ 290600Z 16015KT 9000 -SHRA FEW007 BKN010 17/16 Q1008","updated":"2026-04-29T06:21:45Z"}
