{"icao":"LPLA","metar":"LPLA 160800Z 33019KT 9999 SCT040 14/07 Q1032","updated":"2026-01-16T08:28:44Z"}
