{"icao":"LPPR","metar":"LPPR 292330Z 00000KT 9000 NSC 17/16 Q1021","updated":"2026-06-30T00:02:38Z"}
