{"icao":"LPFR","metar":"LPFR 062300Z 33007KT CAVOK 06/01 Q1025","updated":"2026-01-06T23:19:09Z"}
