{"icao":"LPBJ","metar":"LPBJ 062000Z 32008KT CAVOK 05/M00 Q1024","updated":"2026-01-06T20:22:33Z"}
