{"icao":"LPLA","metar":"LPLA 191900Z 34019KT 7000 -RADZ SCT005 BKN014 14/11 Q1017","updated":"2026-04-19T19:40:09Z"}
