{"icao":"LPMR","metar":"LPMR 021000Z 04008KT CAVOK 27/12 Q1018","updated":"2026-07-02T10:37:05Z"}
