{"icao":"LPPD","metar":"LPPD 281700Z 02012KT 350V060 9999 FEW018 BKN030 15/10 Q1033","updated":"2026-03-28T17:27:29Z"}
