{"icao":"LPLA","metar":"LPLA 061200Z 14007KT 9999 BKN047 16/07 Q1034","updated":"2026-01-06T12:42:26Z"}
