{"icao":"LPST","metar":"LPST 121500Z 17016KT 9999 FEW026 SCT040 14/10 Q1016","updated":"2026-01-12T15:24:21Z"}
