{"icao":"KORD","metar":"KORD 151351Z 19014G23KT 10SM BKN070 OVC250 15/05 A2994 RMK AO2 SLP138 T01500050","updated":"2026-05-15T14:03:58Z"}
