{"icao":"KORD","metar":"KORD 091411Z 23013G24KT 10SM BKN020 BKN031 M02/M06 A2975 RMK AO2 T10221056","updated":"2025-12-09T14:21:00Z"}
