{"icao":"LPPR","metar":"LPPR 271130Z 04005KT 340V090 CAVOK 17/05 Q1021","updated":"2026-03-27T11:40:14Z"}
