{"icao":"LPPS","metar":"LPPS 312100Z 20010KT 9999 FEW015 21/17 Q1015","updated":"2025-10-31T21:15:22Z"}
