{"icao":"LPFR","metar":"LPFR 041530Z 24023KT 5000 -RA FEW008 BKN012 16/15 Q1002","updated":"2026-02-04T15:40:56Z"}
