{"icao":"LPAZ","metar":"LPAZ 042300Z 31026KT 9999 FEW030 17/09 Q1014","updated":"2025-11-04T23:17:08Z"}
