{"icao":"LPBJ","metar":"LPBJ 142300Z 31009KT CAVOK 08/06 Q1029","updated":"2026-02-14T23:22:58Z"}
