{"icao":"LPFL","metar":"LPFL 060730Z 20012G24KT 170V250 9999 VCSH FEW014 SCT020 14/11 Q1007","updated":"2026-02-06T07:46:10Z"}
