{"icao":"KORD","metar":"KORD 010751Z 30005KT 10SM FEW025 M10/M13 A3034 RMK AO2 SLP287 T11001133","updated":"2026-02-01T08:30:59Z"}
