{"icao":"LPPR","metar":"LPPR 092100Z 17009KT 9999 FEW023 BKN027 16/13 Q1018","updated":"2025-11-09T21:14:52Z"}
