{"icao":"KJFK","metar":"KJFK 241151Z 27007KT 10SM FEW035 FEW250 08/03 A3010 RMK AO2 SLP192 T00830033 10106 20083 53011","updated":"2025-10-24T12:38:48Z"}
