{"icao":"LPPT","metar":"LPPT 130530Z 30006KT 270V330 9999 FEW030 11/08 Q1021","updated":"2026-04-13T05:40:16Z"}
