{"icao":"LPBJ","metar":"LPBJ 111016Z 15010KT 9999 SCT006 15/14 Q1015","updated":"2025-11-11T10:20:31Z"}
