{"icao":"KORD","metar":"KORD 031929Z 03008KT 10SM BKN029 M02/M09 A3020 RMK AO2 T10171089","updated":"2026-02-03T19:43:40Z"}
