{"icao":"LPLA","metar":"LPLA 072000Z 31017KT 9999 FEW022 BKN038 14/10 Q1033","updated":"2026-04-07T20:45:39Z"}
