{"icao":"KORD","metar":"KORD 142318Z 09012KT 9SM OVC010 01/M02 A3007 RMK AO2 SNE18 P0000 T00061017 $","updated":"2026-03-14T23:26:59Z"}
