{"icao":"LPPT","metar":"LPPT 261430Z 05013G25KT 020V080 CAVOK 21/06 Q1015","updated":"2026-03-26T15:02:24Z"}
