{"icao":"KLAX","metar":"KLAX 120753Z VRB03KT 10SM FEW250 13/M01 A3021 RMK AO2 SLP229 T01331006 402390072 $","updated":"2026-01-12T08:31:17Z"}
