{"icao":"KORD","metar":"KORD 311851Z 33013KT 10SM -SN BKN021 OVC034 M05/M10 A3038 RMK AO2 SLP302 P0000 T10501100","updated":"2026-01-31T19:19:46Z"}
