{"icao":"LPPR","metar":"LPPR 191300Z VRB03KT CAVOK 23/16 Q1019","updated":"2025-09-19T13:26:18Z"}
