{"icao":"LPLA","metar":"LPLA 040500Z 28012G23KT 6000 -SHRA FEW014 SCT018CB BKN020 17/14 Q1004","updated":"2025-11-04T05:18:42Z"}
