{"icao":"LPPD","metar":"LPPD 221030Z 21010KT 0100 R30/0175N FG VV001 17/16 Q1019","updated":"2026-05-22T10:48:52Z"}
