{"icao":"KORD","metar":"KORD 131551Z 20006KT 10SM BKN110 BKN140 BKN250 18/09 A3009 RMK AO2 SLP188 T01830094 $","updated":"2025-10-13T16:22:20Z"}
