{"icao":"LPBJ","metar":"LPBJ 261100Z 06003KT 350V100 CAVOK 17/12 Q1024","updated":"2026-02-26T11:38:42Z"}
