{"icao":"KJFK","metar":"KJFK 160551Z 30013G29KT 10SM FEW055 SCT250 M05/M16 A2956 RMK AO2 PK WND 31035/0533 SLP010 T10501156 11017 21050 58003 $","updated":"2026-01-16T06:32:48Z"}
