{"icao":"LPMR","metar":"LPMR 062300Z 15003KT CAVOK 17/13 Q1021","updated":"2025-10-06T23:15:41Z"}
