{"icao":"KLAX","metar":"KLAX 221053Z 26004KT 8SM FEW009 BKN110 15/13 A3000 RMK AO2 SLP159 T01500128 $","updated":"2026-01-22T11:22:08Z"}
