{"icao":"LPMR","metar":"LPMR 250600Z 26009KT 230V300 8000 -TSRA BKN015 FEW018CB SCT025 14/12 Q1012","updated":"2026-01-25T06:30:11Z"}
