{"icao":"LPFL","metar":"LPFL 221100Z 15009KT 100V210 9999 FEW007 BKN012 18/14 Q1021","updated":"2025-12-22T11:17:25Z"}
