{"icao":"LPMA","metar":"LPMA 190700Z 35007KT 310V060 9999 SCT015 15/09 Q1024","updated":"2026-01-19T07:28:22Z"}
