{"icao":"LPBJ","metar":"LPBJ 120700Z 32013KT CAVOK 08/M00 Q1016","updated":"2026-04-12T07:12:22Z"}
