{"icao":"LPCS","metar":"LPCS 241300Z 34008KT 300V020 9999 FEW020 22/12 Q1017","updated":"2026-04-24T13:22:54Z"}
