{"icao":"LPPR","metar":"LPPR 151830Z 22008KT 190V250 9999 FEW012 BKN040 13/12 Q1028","updated":"2026-02-15T18:34:53Z"}
