{"icao":"LPFR","metar":"LPFR 250800Z 26019KT 9999 -DZ SCT011 BKN025 14/12 Q1018","updated":"2026-01-25T08:26:15Z"}
