{"icao":"KORD","metar":"KORD 012308Z 17006KT 2SM -SN BR SCT013 BKN025 OVC038 M03/M04 A3014 RMK AO2 P0001 T10281044","updated":"2025-12-01T23:18:12Z"}
