{"icao":"KLAX","metar":"KLAX 170653Z 00000KT 10SM BKN280 19/06 A3001 RMK AO2 SLP159 T01940056","updated":"2026-01-17T07:18:05Z"}
