{"icao":"LPMR","metar":"LPMR 090300Z 16004KT 7000 NSC 08/07 Q1022","updated":"2025-11-09T03:11:47Z"}
