{"icao":"LPOV","metar":"LPOV 071700Z 35017KT CAVOK 19/14 Q1021","updated":"2026-06-07T18:02:21Z"}
