{"icao":"LPCS","metar":"LPCS 211900Z 36016KT 9999 FEW020 17/10 Q1021","updated":"2025-09-21T19:12:28Z"}
