{"icao":"KORD","metar":"KORD 290957Z 26025G33KT 3/4SM R10L/P6000FT -SN BLSN VV010 M09/M13 A2968 RMK AO2 PK WND 26033/0955 P0000 T10941128 $","updated":"2025-12-29T10:22:12Z"}
