{"icao":"KLAX","metar":"KLAX 010553Z 00000KT 10SM FEW009 17/16 A2990 RMK AO2 SLP124 T01720156 10211 20172 51015 $","updated":"2026-06-01T06:01:33Z"}
