{"icao":"LPCS","metar":"LPCS 011800Z 21013KT 2000 -RADZ BR VV002 14/14 Q1007","updated":"2026-02-01T18:33:22Z"}
