{"icao":"LPFR","metar":"LPFR 232100Z 34003KT 280V040 CAVOK 21/03 Q1016","updated":"2025-09-23T21:14:57Z"}
