{"icao":"LPCS","metar":"LPCS 172000Z 26004KT 220V300 9999 BKN020 13/09 Q1025","updated":"2026-02-17T23:27:06Z"}
