{"icao":"LPPD","metar":"LPPD 130900Z 33004KT 9999 FEW025 22/17 Q1026","updated":"2025-09-13T09:08:44Z"}
