{"icao":"LPFR","metar":"LPFR 080700Z 13008KT 9999 FEW015 FEW020CB SCT030 13/10 Q1016","updated":"2026-04-08T07:17:32Z"}
