{"icao":"LPAZ","metar":"LPAZ 300700Z 30019KT 9999 FEW005 SCT022 18/17 Q1010","updated":"2025-10-30T07:17:46Z"}
