{"icao":"KORD","metar":"KORD 181051Z 00000KT 10SM FEW250 17/14 A3004 RMK AO2 SLP169 T01670144 $","updated":"2025-09-18T11:13:47Z"}
