{"icao":"LPFR","metar":"LPFR 230700Z 28007KT 240V310 9999 FEW015 FEW020TCU SCT028 14/12 Q1013","updated":"2025-12-23T07:22:44Z"}
