{"icao":"KORD","metar":"KORD 200551Z 26007KT 10SM CLR 08/01 A2994 RMK AO2 SLP140 T00780006 10128 20078 401500078 51014 $","updated":"2025-10-20T06:28:40Z"}
