{"icao":"LPAR","metar":"LPAR 281600Z 28005KT 240V330 4000 SHRA SCT005 BKN020 FEW025CB 19/17 Q1010","updated":"2025-10-28T16:24:39Z"}
