{"icao":"KJFK","metar":"KJFK 082051Z 36015KT 10SM SCT050 SCT130 SCT250 21/08 A3003 RMK AO2 SLP170 T02110078 51013","updated":"2025-10-08T21:16:07Z"}
