{"icao":"LPMR","metar":"LPMR 262300Z 26002KT CAVOK 22/12 Q1020","updated":"2026-05-26T23:08:47Z"}
