{"icao":"LPPS","metar":"LPPS 271630Z 02013KT 350V060 9999 SCT015 SCT030 17/12 Q1018","updated":"2026-03-27T16:53:48Z"}
