{"icao":"LPMR","metar":"LPMR 060800Z 12002KT 9999 FEW020 02/M01 Q1023","updated":"2026-01-06T08:29:08Z"}
