{"icao":"LPFR","metar":"LPFR 161300Z 09015KT CAVOK 20/07 Q1018","updated":"2026-03-16T13:09:14Z"}
