{"icao":"KORD","metar":"KORD 232251Z 30011KT 10SM SCT250 M22/M33 A3071 RMK AO2 SLP420 T12171328","updated":"2026-01-23T23:20:55Z"}
