{"icao":"KJFK","metar":"KJFK 231406Z 20008KT 1 1/2SM RASN BR BKN008 BKN013 OVC019 02/01 A3030 RMK AO2 SFC VIS 4 SNB01 P0002 T00170006 $","updated":"2025-12-23T14:20:19Z"}
