{"icao":"LPST","metar":"LPST 261600Z 03006KT 360V080 CAVOK 16/04 Q1024","updated":"2025-11-26T16:24:40Z"}
