{"icao":"LPPS","metar":"LPPS 131000Z 35007KT 320V040 9999 FEW015 19/12 Q1023","updated":"2026-05-13T10:25:49Z"}
