{"icao":"LPFR","metar":"LPFR 020300Z 33005KT 9999 FEW005 BKN015 19/18 Q1022","updated":"2025-11-02T03:14:01Z"}
