{"icao":"LPMA","metar":"LPMA 071130Z VRB11G23KT 9999 SCT014 17/05 Q1023","updated":"2026-04-07T11:52:59Z"}
