{"icao":"LPPR","metar":"LPPR 221230Z 33010KT 290V040 9999 FEW018 21/08 Q1021","updated":"2025-09-22T12:36:46Z"}
