{"icao":"LPFR","metar":"LPFR 270300Z 02005KT 9999 FEW008 20/18 Q1018","updated":"2025-10-27T03:18:25Z"}
