{"icao":"LPMR","metar":"LPMR 291000Z 03008KT CAVOK 16/01 Q1031","updated":"2026-03-29T11:27:36Z"}
