{"icao":"LPCS","metar":"LPCS 201230Z 27008KT 240V310 9999 SCT020 SCT048 14/10 Q1020","updated":"2026-01-20T12:47:45Z"}
