{"icao":"LPMA","metar":"LPMA 271630Z 36018G28KT 330V030 9999 FEW015 18/10 Q1026","updated":"2026-02-27T16:39:25Z"}
