{"icao":"KJFK","metar":"KJFK 280451Z 27017G23KT 10SM FEW170 SCT250 02/M06 A2991 RMK AO2 SLP128 T00221061 401000022","updated":"2025-11-28T05:19:33Z"}
