{"icao":"LPFR","metar":"LPFR 272130Z 09007KT CAVOK 23/12 Q1017","updated":"2026-05-27T21:53:04Z"}
