{"icao":"KORD","metar":"KORD 140251Z 10005KT 10SM CLR 08/01 A3008 RMK AO2 SLP187 T00830011 53005 $","updated":"2026-05-14T03:39:23Z"}
