{"icao":"LPMA","metar":"LPMA 170500Z 20012KT 9999 -RA BKN013 FEW015TCU 22/21 Q1010","updated":"2025-10-17T05:17:19Z"}
