{"icao":"LPCS","metar":"LPCS 271330Z 22008KT 170V250 9999 FEW025 26/14 Q1013","updated":"2026-04-27T13:50:04Z"}
