{"icao":"LPHR","metar":"LPHR 020000Z 28006KT 9999 SCT007 17/16 Q1030","updated":"2026-06-02T00:12:06Z"}
