{"icao":"KJFK","metar":"KJFK 011451Z 22011KT 10SM FEW250 29/20 A2999 RMK SLP156 T02940200 58007 $ ","updated":"2026-07-01T15:40:19Z"}
