{"icao":"LPLA","metar":"LPLA 140400Z 28006KT 240V340 9999 FEW020 SCT030 14/09 Q1031","updated":"2026-02-14T04:11:49Z"}
