{"icao":"KJFK","metar":"KJFK 100551Z 05006KT 10SM CLR 08/01 A3051 RMK AO2 SLP330 T00830006 10117 20072 51001","updated":"2025-10-10T06:27:35Z"}
