{"icao":"LPHR","metar":"LPHR 101230Z 24016KT 7000 -RADZ SCT004 BKN007 18/17 Q1020","updated":"2026-01-10T12:37:53Z"}
