{"icao":"LPBJ","metar":"LPBJ 052100Z 19006KT CAVOK 17/04 Q1020","updated":"2026-04-05T21:30:14Z"}
