{"icao":"LPAZ","metar":"LPAZ 271700Z 10006KT 060V140 9999 FEW025 SCT044 16/08 Q1019","updated":"2025-12-27T17:16:04Z"}
