{"icao":"LPMT","metar":"LPMT 010100Z 18008KT 4000 -RA BR SCT005 BKN012 BKN028 14/14 Q1016","updated":"2026-02-01T02:12:24Z"}
