{"icao":"LPFR","metar":"LPFR 230400Z 05004KT CAVOK 11/01 Q1026","updated":"2025-11-23T04:31:24Z"}
