{"icao":"KJFK","metar":"KJFK 080051Z 20019KT 10SM FEW050 BKN210 BKN250 14/09 A2976 RMK AO2 PK WND 21026/0005 SLP076 T01440089","updated":"2025-11-08T01:20:00Z"}
