{"icao":"LPFR","metar":"LPFR 280800Z 10015G25KT 080V140 3500 SHRA FEW012 FEW020CB SCT030 12/09 Q1008","updated":"2025-12-28T08:25:16Z"}
