{"icao":"LPLA","metar":"LPLA 280500Z 34009KT 9999 OVC035 15/09 Q1026","updated":"2025-11-28T05:19:20Z"}
