{"icao":"LPAZ","metar":"LPAZ 052100Z 08005KT 9999 BKN049 14/06 Q1031","updated":"2026-01-05T21:19:38Z"}
