{"icao":"KLAX","metar":"KLAX 180853Z 08005KT 10SM CLR 19/12 A2998 RMK AO2 SLP148 T01890117 51008 $","updated":"2026-03-18T09:53:46Z"}
