{"icao":"KJFK","metar":"KJFK 200651Z 17019G28KT 10SM BKN024 OVC031 19/17 A2972 RMK AO2 PK WND 16032/0558 RAE0557B36E45 SLP064 P0000 T01940172 $","updated":"2025-10-20T07:19:07Z"}
