{"icao":"LPPD","metar":"LPPD 010330Z 04007KT 010V070 9999 FEW023 19/15 Q1031","updated":"2026-07-01T03:41:03Z"}
