{"icao":"LPFL","metar":"LPFL 241030Z 33017G32KT 300V360 9999 SCT020 14/08 Q1016","updated":"2026-02-24T10:47:48Z"}
