{"icao":"KJFK","metar":"KJFK 150151Z 04006KT 10SM FEW250 03/M04 A3010 RMK AO2 SLP193 T00331044 $","updated":"2026-02-15T02:07:48Z"}
