{"icao":"LPPR","metar":"LPPR 010830Z 08009KT CAVOK 16/05 Q1026","updated":"2026-04-01T09:02:15Z"}
