{"icao":"KLAX","metar":"KLAX 161729Z 10014KT 3SM R25L/6000VP6000FT -RA BR FEW009 BKN014 OVC020 12/11 A2978 RMK AO2 VIS 2V4 P0010 T01220111 $","updated":"2026-02-16T17:36:57Z"}
