{"icao":"LPMR","metar":"LPMR 250400Z 17005KT 9999 -RA FEW016 BKN030 19/18 Q1013","updated":"2025-10-25T04:20:08Z"}
