{"icao":"LPBJ","metar":"LPBJ 122200Z 14010KT 8000 RA BKN035 15/15 Q1009","updated":"2025-11-12T22:17:48Z"}
