{"icao":"LPMT","metar":"LPMT 150600Z 32007KT CAVOK 17/15 Q1016","updated":"2026-06-15T06:21:42Z"}
