{"icao":"KJFK","metar":"KJFK 170151Z 18019G25KT 1/4SM R04R/2200V2400FT FG VV002 09/09 A2940 RMK AO2 PK WND 18033/0053 SLP956 T00940094","updated":"2026-03-17T02:01:50Z"}
