{"icao":"LPFL","metar":"LPFL 141630Z 07004KT 030V130 9999 FEW018 BKN035 16/11 Q1032","updated":"2026-05-14T16:59:28Z"}
