{"icao":"LPFR","metar":"LPFR 171230Z 10014KT CAVOK 24/17 Q1014","updated":"2025-10-17T12:36:52Z"}
