{"icao":"LPHR","metar":"LPHR 191630Z 02026G44KT 9999 SCT012 SCT025 16/10 Q1006","updated":"2026-03-19T16:56:29Z"}
