{"icao":"LPMA","metar":"LPMA 102000Z 34008KT 310V020 9999 SCT016 21/14 Q1021","updated":"2025-10-10T20:18:53Z"}
