{"icao":"LPMA","metar":"LPMA 210630Z 29003KT 270V330 9999 SCT015 14/09 Q1021","updated":"2026-01-21T06:35:21Z"}
