{"icao":"KORD","metar":"KORD 241751Z 34004KT 10SM FEW040 FEW250 11/M02 A3031 RMK AO2 SLP268 T01061017 10106 20011 50004 $","updated":"2025-10-24T18:25:17Z"}
