{"icao":"LPAZ","metar":"LPAZ 182300Z 26008KT 4000 BR BKN002 23/22 Q1018","updated":"2025-10-18T23:15:33Z"}
