{"icao":"LPCS","metar":"LPCS 212300Z 01007KT CAVOK 09/04 Q1030","updated":"2025-11-21T23:16:37Z"}
