{"icao":"LPLA","metar":"LPLA 252000Z 11003KT 080V140 9999 FEW010 SCT015 BKN030 18/16 Q1026","updated":"2025-11-25T20:21:28Z"}
