{"icao":"KORD","metar":"KORD 260851Z 01004KT 10SM FEW250 17/14 A3004 RMK AO2 SLP168 T01670139 53003 $","updated":"2026-06-26T09:22:56Z"}
