{"icao":"LPBJ","metar":"LPBJ 122100Z 32015KT CAVOK 11/03 Q1020","updated":"2026-04-12T21:33:23Z"}
