{"icao":"LPBJ","metar":"LPBJ 011200Z 13008KT 100V160 9999 VCFG OVC004 11/11 Q1013","updated":"2026-01-01T12:40:19Z"}
