{"icao":"LPHR","metar":"LPHR 222200Z 22007KT 190V250 9999 FEW014 BKN020 18/15 Q1023","updated":"2025-12-22T22:19:10Z"}
