{"icao":"LPMR","metar":"LPMR 171800Z 33008KT CAVOK 18/10 Q1018","updated":"2026-04-17T18:58:19Z"}
