{"icao":"LPLA","metar":"LPLA 100500Z 33003KT 270V360 9999 FEW015 SCT023 20/18 Q1021","updated":"2025-10-10T05:17:34Z"}
