{"icao":"LPPT","metar":"LPPT 161900Z 31013KT CAVOK 23/15 Q1016","updated":"2026-06-16T19:33:20Z"}
