{"icao":"LPPT","metar":"LPPT 162300Z 06005G18KT 020V110 CAVOK 17/06 Q1016","updated":"2026-03-16T23:30:39Z"}
