{"icao":"LPPT","metar":"LPPT 042100Z 26009KT 230V290 3000 RA SCT006 SCT010 14/14 Q0997 RERA WS R20","updated":"2026-02-04T21:31:40Z"}
