{"icao":"KJFK","metar":"KJFK 110951Z 13005KT 10SM FEW090 FEW250 08/05 A2997 RMK AO2 SLP149 T00830050","updated":"2026-03-11T10:37:54Z"}
