{"icao":"LPBJ","metar":"LPBJ 140600Z 17011KT CAVOK 13/11 Q1005","updated":"2025-11-14T06:28:39Z"}
