{"icao":"LPAR","metar":"LPAR 160900Z 23006KT 9999 BKN035 13/12 Q1032","updated":"2026-02-16T09:52:47Z"}
