{"icao":"KORD","metar":"KORD 130951Z 15003KT 10SM BKN190 13/09 A3000 RMK AO2 SLP158 T01280089 $","updated":"2025-10-13T10:21:14Z"}
