{"icao":"KORD","metar":"KORD 141651Z 21011KT 10SM BKN034 BKN230 24/16 A2982 RMK AO2 SLP092 T02390161","updated":"2026-04-14T17:05:23Z"}
