{"icao":"LPFR","metar":"LPFR 011800Z 27007KT CAVOK 23/17 Q1019","updated":"2025-10-01T18:25:22Z"}
