{"icao":"LPFR","metar":"LPFR 161900Z 26007KT CAVOK 19/13 Q1017","updated":"2026-04-16T19:10:54Z"}
