{"icao":"LPMA","metar":"LPMA 200000Z 00000KT 9999 FEW015 20/16 Q1019","updated":"2026-06-20T00:08:38Z"}
