{"icao":"KLAX","metar":"KLAX 270853Z 02003KT 10SM FEW250 14/M05 A3023 RMK AO2 SLP235 T01391050 58002 $","updated":"2026-01-27T09:32:21Z"}
