{"icao":"KJFK","metar":"KJFK 100551Z 25011KT 1/4SM R04R/P6000FT -RA BR BKN003 OVC007 14/14 A2973 RMK AO2 SFC VIS 3 RAB30 SLP065 P0000 60000 T01440144 10150 20139 53005 $","updated":"2025-11-10T06:31:00Z"}
