{"icao":"LPBJ","metar":"LPBJ 122100Z 12009KT 9000 -RA SCT002 FEW014CB BKN035 15/14 Q1009 RETS","updated":"2025-11-12T21:17:10Z"}
