{"icao":"LPPR","metar":"LPPR 092000Z 34004KT 9999 FEW020 SCT028 10/07 Q1028","updated":"2026-01-09T20:23:10Z"}
