{"icao":"KJFK","metar":"KJFK 161651Z 32018G26KT 10SM FEW060 14/M03 A2991 RMK AO2 PK WND 31027/1612 SLP129 T01441028","updated":"2025-10-16T17:16:06Z"}
