{"icao":"KORD","metar":"KORD 230938Z 06009KT 10SM FEW019 SCT024 OVC080 13/11 A2996 RMK AO2 T01330106","updated":"2026-05-23T09:50:56Z"}
