{"icao":"LPPR","metar":"LPPR 090900Z 12009KT CAVOK 11/08 Q1022","updated":"2025-11-09T09:16:16Z"}
