{"icao":"LPFR","metar":"LPFR 291830Z 25017KT 7000 -DZ SCT004 BKN010 16/15 Q1015","updated":"2026-01-29T18:43:03Z"}
