{"icao":"KJFK","metar":"KJFK 100406Z 15005KT 1/4SM R04R/1800V2000FT FG OVC002 14/14 A2971 RMK AO2 SFC VIS 1/2 T01440144 $","updated":"2025-11-10T04:26:13Z"}
