{"icao":"KLAX","metar":"KLAX 280353Z 22004KT 10SM CLR 18/16 A2994 RMK AO2 SLP137 T01780156 $","updated":"2025-10-28T04:21:31Z"}
