{"icao":"LPPD","metar":"LPPD 110230Z VRB02KT 9999 FEW018 18/15 Q1022","updated":"2025-10-11T02:52:18Z"}
