{"icao":"LPFL","metar":"LPFL 141700Z 30008KT 220V030 6000 -RADZ FEW009 BKN016 16/13 Q1019","updated":"2026-01-14T17:25:46Z"}
