{"icao":"KJFK","metar":"KJFK 151951Z 13012KT 10SM FEW055 SCT070 BKN250 24/16 A3023 RMK AO2 SLP235 T02440156 $","updated":"2025-09-15T20:18:42Z"}
