{"icao":"LPBJ","metar":"LPBJ 240200Z 32002KT 270V350 0600 FG OVC002 18/17 Q1018","updated":"2025-10-24T02:58:50Z"}
