{"icao":"LPPR","metar":"LPPR 152200Z 18005KT 9999 FEW014 13/12 Q1006","updated":"2025-11-15T22:13:44Z"}
