{"icao":"LPLA","metar":"LPLA 081500Z 01010KT 340V090 9999 FEW032 SCT045 14/05 Q1031","updated":"2026-03-08T15:22:38Z"}
