{"icao":"LPCS","metar":"LPCS 150900Z 34004KT 250V030 9999 VCSH SCT016 16/11 Q1024","updated":"2026-04-15T09:17:42Z"}
