{"icao":"LPPR","metar":"LPPR 281530Z 30009KT 280V340 CAVOK 21/16 Q1020","updated":"2026-05-28T15:50:14Z"}
