{"icao":"LPBJ","metar":"LPBJ 262200Z 24004KT 220V280 CAVOK 18/15 Q1015","updated":"2026-04-26T22:36:22Z"}
