{"icao":"KLAX","metar":"KLAX 180453Z 09005KT 10SM FEW026 BKN090 13/12 A2990 RMK AO2 RAE10 CIG 046 RWY24 SLP122 P0001 T01280117 $","updated":"2025-11-18T05:18:54Z"}
