{"icao":"LPPT","metar":"LPPT 271300Z 05012KT 9999 FEW026 SCT032 09/05 Q1008","updated":"2025-12-27T13:27:05Z"}
