{"icao":"LPPT","metar":"LPPT 201900Z 36003KT CAVOK 22/07 Q1008","updated":"2026-04-20T19:08:11Z"}
