{"icao":"LPOV","metar":"LPOV 071000Z 23010KT 200V260 9999 FEW002 18/16 Q1023","updated":"2025-10-07T11:14:42Z"}
