{"icao":"LPPS","metar":"LPPS 132200Z 04017G29KT 010V070 9999 SCT014 FEW016TCU 17/13 Q1018","updated":"2025-12-13T22:17:28Z"}
