{"icao":"LPBJ","metar":"LPBJ 280800Z 10005KT 8000 VCFG SCT008 BKN024 18/17 Q1016","updated":"2025-10-28T08:24:55Z"}
