{"icao":"LPHR","metar":"LPHR 021800Z 23006KT 9999 FEW002 SCT004 BKN020 23/22 Q1019","updated":"2025-10-02T18:24:44Z"}
