{"icao":"LPPT","metar":"LPPT 311300Z 06004KT 020V080 3500 1200NE BR VCFG FEW001 SCT002 08/08 Q1018","updated":"2025-12-31T13:31:33Z"}
