{"icao":"LPMT","metar":"LPMT 170800Z VRB03KT 9999 FEW014 12/12 Q1013","updated":"2025-11-17T08:27:14Z"}
