{"icao":"LPBJ","metar":"LPBJ 020800Z 30005KT CAVOK 13/07 Q1020","updated":"2026-04-02T08:54:52Z"}
