{"icao":"LPBJ","metar":"LPBJ 072100Z 28009KT CAVOK 14/05 Q1011","updated":"2026-05-07T21:56:18Z"}
