{"icao":"LPBJ","metar":"LPBJ 201600Z VRB03KT CAVOK 33/08 Q1019","updated":"2026-05-20T16:23:59Z"}
