{"icao":"LPAZ","metar":"LPAZ 231730Z 02009KT 340V070 9999 SCT009 24/19 Q1021","updated":"2026-06-23T17:52:07Z"}
