{"icao":"KORD","metar":"KORD 150451Z 32015G23KT 10SM OVC036 M08/M14 A2999 RMK AO2 SLP166 T10781144 $","updated":"2026-01-15T05:25:02Z"}
