{"icao":"KJFK","metar":"KJFK 141751Z 30023G32KT 10SM SCT070 SCT250 11/M08 A2999 RMK AO2 PK WND 28036/1741 SLP155 T01061078 10111 20039 51017","updated":"2026-03-14T18:37:04Z"}
