{"icao":"LPMR","metar":"LPMR 291500Z 32010KT 290V350 9999 SCT012 21/16 Q1022","updated":"2026-05-29T15:24:54Z"}
