{"icao":"LPOV","metar":"LPOV 271800Z 35013KT CAVOK 16/10 Q1018","updated":"2026-03-27T20:37:08Z"}
