{"icao":"LPPS","metar":"LPPS 212300Z 07014KT 030V100 9999 FEW014 18/09 Q1026","updated":"2025-11-21T23:16:53Z"}
