{"icao":"LPCS","metar":"LPCS 251530Z 19011KT 160V220 9999 SCT005 BKN012 21/20 Q1016","updated":"2026-06-25T15:38:30Z"}
