{"icao":"LPHR","metar":"LPHR 312300Z 24010KT 9999 SCT003 BKN006 17/17 Q1012","updated":"2026-01-31T23:21:08Z"}
