{"icao":"LPMT","metar":"LPMT 281000Z 03013KT 9999 FEW026 10/08 Q1013","updated":"2025-12-28T10:19:11Z"}
