{"icao":"LPAZ","metar":"LPAZ 172300Z 22013KT 9999 FEW005 BKN007 22/21 Q1019","updated":"2026-06-17T23:31:24Z"}
