{"icao":"LPHR","metar":"LPHR 081600Z 24022KT 8000 FEW006 SCT010 BKN040 18/17 Q1009","updated":"2026-02-08T16:29:41Z"}
