{"icao":"LPCS","metar":"LPCS 121300Z 21010KT 9999 FEW014 SCT022 16/13 Q1020","updated":"2026-02-12T13:04:48Z"}
