{"icao":"LPOV","metar":"LPOV 031200Z 26005KT 220V290 CAVOK 18/13 Q1022","updated":"2025-11-03T12:38:51Z"}
