{"icao":"KJFK","metar":"KJFK 280551Z 03008KT 10SM FEW060 BKN075 BKN130 04/M08 A3019 RMK AO2 SLP222 T00441078 10072 20039 50002","updated":"2026-03-28T05:55:50Z"}
