{"icao":"LPAR","metar":"LPAR 231500Z VRB05KT CAVOK 33/17 Q1011","updated":"2026-06-23T15:46:10Z"}
