{"icao":"LPCS","metar":"LPCS 221300Z 26007KT 220V280 9000 VCSH FEW002 SCT008 BKN013 22/21 Q1019","updated":"2025-10-22T13:31:46Z"}
