{"icao":"LPPD","metar":"LPPD 040100Z VRB01KT 9999 FEW007 BKN045 22/20 Q1026","updated":"2025-10-04T01:14:48Z"}
