{"icao":"KORD","metar":"KORD 021151Z 00000KT 5SM BR FEW006 M07/M09 A2997 RMK AO2 SLP159 4/007 60000 70013 I1001 I6002 T10721089 11044 21072 53005","updated":"2025-12-02T12:41:41Z"}
