{"icao":"LPBJ","metar":"LPBJ 232000Z 28007KT CAVOK 19/17 Q1020","updated":"2025-10-23T20:19:04Z"}
