{"icao":"LPPR","metar":"LPPR 262100Z VRB02KT CAVOK 13/10 Q1021","updated":"2025-10-26T21:15:06Z"}
