{"icao":"LPPD","metar":"LPPD 211800Z 26031KT 8000 SCT014 BKN035 15/12 Q1003","updated":"2026-04-21T18:06:42Z"}
