{"icao":"LPPS","metar":"LPPS 051600Z 03017G27KT 360V070 9999 SCT015 16/08 Q1020","updated":"2026-01-05T16:26:38Z"}
