{"icao":"KLAX","metar":"KLAX 010153Z 24010KT 10SM FEW013 17/13 A2986 RMK AO2 SLP111 T01720133","updated":"2026-05-01T02:55:38Z"}
