{"icao":"KJFK","metar":"KJFK 302310Z 25011KT 6SM -RA BR OVC009 06/04 A3010 RMK AO2 P0001 T00560044 $","updated":"2025-11-30T23:17:20Z"}
