{"icao":"LPAR","metar":"LPAR 091700Z 34009KT 310V020 9999 FEW025 15/07 Q1028","updated":"2026-01-11T17:16:38Z"}
