{"icao":"LPPR","metar":"LPPR 260900Z 05005KT 350V100 CAVOK 15/09 Q1020","updated":"2025-10-26T09:16:02Z"}
