{"icao":"LPBJ","metar":"LPBJ 170200Z 32004KT CAVOK 13/11 Q1018","updated":"2026-04-17T02:29:31Z"}
