{"icao":"KJFK","metar":"KJFK 090851Z 13003KT 10SM SCT085 BKN110 12/08 A2990 RMK AO2 SLP125 T01170083 56008","updated":"2026-05-09T09:18:01Z"}
