{"icao":"LPAZ","metar":"LPAZ 241400Z 25008KT 9999 FEW020 BKN028 19/15 Q1027","updated":"2025-11-24T14:19:06Z"}
