{"icao":"KJFK","metar":"KJFK 140751Z 04016G23KT 10SM OVC013 13/11 A2997 RMK AO2 PK WND 04028/0711 SLP147 T01280106","updated":"2025-10-14T08:22:05Z"}
