{"icao":"LPLA","metar":"LPLA 190300Z 17005KT 8000 -RA FEW009 BKN016 BKN030 22/21 Q1015 RERA","updated":"2025-10-19T03:14:34Z"}
