{"icao":"LPMA","metar":"LPMA 152130Z 02007KT 350V050 9999 FEW015 21/16 Q1021","updated":"2026-06-15T21:41:10Z"}
