{"icao":"LPBJ","metar":"LPBJ 242100Z 29010KT CAVOK 16/12 Q1018","updated":"2026-04-24T21:45:24Z"}
