{"icao":"LPHR","metar":"LPHR 131300Z 04014KT 020V080 9999 FEW015 BKN050 17/11 Q1029","updated":"2026-05-13T13:09:59Z"}
