{"icao":"LPPR","metar":"LPPR 261600Z 19018KT 5000 -RADZ BR BKN006 BKN011 14/13 Q1005","updated":"2026-01-26T16:32:47Z"}
