{"icao":"KJFK","metar":"KJFK 281651Z 26009KT 10SM FEW030 BKN190 M01/M05 A3017 RMK AO2 SLP217 T10111050 $","updated":"2025-12-28T17:16:55Z"}
