{"icao":"LPPD","metar":"LPPD 051100Z 11009KT 9999 FEW016 23/19 Q1025","updated":"2025-10-05T11:12:38Z"}
