{"icao":"KJFK","metar":"KJFK 101551Z 19008KT 10SM FEW017 SCT250 09/04 A3035 RMK AO2 SLP275 T00890039","updated":"2026-04-10T16:49:56Z"}
