{"icao":"LPOV","metar":"LPOV 010800Z VRB01KT CAVOK 14/13 Q1021","updated":"2025-10-01T08:23:39Z"}
