{"icao":"LPFL","metar":"LPFL 301800Z 16010KT 9000 -DZ FEW011 BKN017 17/16 Q1023","updated":"2025-12-01T05:27:09Z"}
