{"icao":"LPFL","metar":"LPFL 221930Z 33015G33KT 290V360 9999 SCT027 FEW028TCU 14/06 Q1001 WS R36","updated":"2026-04-22T22:45:38Z"}
