{"icao":"LPBJ","metar":"LPBJ 231700Z 15016KT CAVOK 33/14 Q1012","updated":"2026-06-23T17:52:06Z"}
