{"icao":"KORD","metar":"KORD 180251Z 23012KT 5SM -SN FEW023 BKN031 OVC090 M10/M13 A3005 RMK AO2 SLP191 P0000 60000 T11001133 58002 $","updated":"2026-01-18T03:44:57Z"}
