{"icao":"KORD","metar":"KORD 271051Z 14009KT 10SM FEW100 BKN160 OVC250 12/09 A2989 RMK AO2 SLP122 T01220089 $","updated":"2026-04-27T11:03:03Z"}
