{"icao":"LPST","metar":"LPST 310900Z 19012KT 8000 -RA BKN006 OVC014 19/17 Q1012","updated":"2025-10-31T09:19:38Z"}
