{"icao":"LPMA","metar":"LPMA 050900Z 33004KT 310V010 9999 BKN020 17/10 Q1026","updated":"2025-12-05T09:21:07Z"}
