{"icao":"LPLA","metar":"LPLA 040500Z 26013G23KT 220V290 9000 -RA FEW018 BKN035 16/13 Q0997 RERA","updated":"2026-02-04T05:47:45Z"}
