{"icao":"LPAZ","metar":"LPAZ 071800Z 23003KT 190V270 CAVOK 17/14 Q1010","updated":"2025-12-07T18:24:52Z"}
