{"icao":"LPBJ","metar":"LPBJ 122300Z 14013KT 9999 SCT035 16/16 Q1007 RERA","updated":"2025-11-12T23:17:53Z"}
