{"icao":"LPMR","metar":"LPMR 231000Z 31007KT 3500 SHRA BR BKN010 SCT018CB BKN022 12/12 Q1011","updated":"2025-12-23T11:17:45Z"}
