{"icao":"KORD","metar":"KORD 201851Z 30009G18KT 10SM BKN055 23/11 A2994 RMK AO2 SLP133 T02330111 $","updated":"2026-06-20T19:24:03Z"}
