{"icao":"LPBJ","metar":"LPBJ 241100Z 13008KT 100V170 CAVOK 27/10 Q1021","updated":"2026-05-24T11:15:05Z"}
