{"icao":"LPPT","metar":"LPPT 301330Z 25015KT 220V280 9999 FEW008 SCT015 16/13 Q1011","updated":"2026-01-30T13:55:00Z"}
