{"icao":"LPMA","metar":"LPMA 261500Z 20016KT 120V220 9999 SCT016 19/11 Q1018","updated":"2026-01-26T15:28:20Z"}
