{"icao":"KJFK","metar":"KJFK 311251Z 24012KT 10SM FEW085 FEW120 BKN250 16/10 A3005 RMK AO2 SLP175 T01610100","updated":"2026-03-31T13:16:14Z"}
