{"icao":"LPPD","metar":"LPPD 300800Z VRB01KT 7000 FEW003 BKN006 14/14 Q1014","updated":"2025-12-30T08:27:54Z"}
