{"icao":"KORD","metar":"KORD 200800Z 17009KT 5SM BR SCT004 BKN033 07/06 A2927 RMK AO2 T00670056 $","updated":"2026-02-20T08:38:38Z"}
