{"icao":"LPMT","metar":"LPMT 151600Z 34014KT 320V030 9999 FEW040 20/10 Q1015","updated":"2026-05-15T18:21:36Z"}
