{"icao":"LPMR","metar":"LPMR 251600Z 29007KT 250V340 CAVOK 22/15 Q1022","updated":"2026-05-25T16:26:05Z"}
