{"icao":"LPFR","metar":"LPFR 060130Z 33009KT CAVOK 08/M03 Q1016","updated":"2026-01-06T01:40:47Z"}
