{"icao":"LPMT","metar":"LPMT 300700Z 04005KT 0500 FG VV002 05/05 Q1021","updated":"2025-12-30T07:21:39Z"}
