{"icao":"LPFR","metar":"LPFR 171000Z 09013KT CAVOK 23/17 Q1014","updated":"2025-10-17T10:19:00Z"}
