{"icao":"LPPR","metar":"LPPR 110500Z 10007KT CAVOK 20/09 Q1021","updated":"2025-10-11T05:15:25Z"}
