{"icao":"KLAX","metar":"KLAX 291553Z 01007KT 10SM CLR 26/M01 A3002 RMK AO2 SLP164 T02561006 $","updated":"2025-10-29T16:24:52Z"}
