{"icao":"LPPT","metar":"LPPT 291000Z 07004KT 010V110 9999 FEW005 BKN007 18/17 Q1008","updated":"2025-10-29T10:20:21Z"}
