{"icao":"LPMA","metar":"LPMA 272230Z 02010KT 350V060 9999 SCT015 22/16 Q1024","updated":"2026-06-27T23:00:13Z"}
