{"icao":"LPMA","metar":"LPMA 050400Z 24003KT 160V290 9999 BKN014 21/17 Q1014","updated":"2025-11-05T04:21:28Z"}
