{"icao":"LPAR","metar":"LPAR 091500Z 24009KT 3000 -RADZ BR SCT009 BKN015 BKN025 17/16 Q1012","updated":"2026-02-09T15:54:39Z"}
