{"icao":"KORD","metar":"KORD 301318Z 26014G25KT 6SM -SN OVC013 M03/M05 A2993 RMK AO2 PK WND 25029/1255 SNB17 DRSN P0000 T10281050 $","updated":"2025-11-30T13:25:13Z"}
