{"icao":"KJFK","metar":"KJFK 062051Z 09009KT 9SM SCT120 BKN140 BKN250 04/00 A2987 RMK AO2 SLP114 T00390000 56020 $","updated":"2026-01-06T21:20:03Z"}
