{"icao":"LPFL","metar":"LPFL 021730Z 20015G27KT 160V260 4000 RADZ SCT010 FEW015TCU 15/12 Q1009","updated":"2026-02-02T17:37:06Z"}
