{"icao":"KORD","metar":"KORD 110951Z 28007KT 10SM CLR M02/M07 A3014 RMK AO2 SLP214 T10221067 $","updated":"2026-02-11T10:01:53Z"}
