{"icao":"LPOV","metar":"LPOV 141000Z 17004KT 2500 BR OVC001 11/11 Q1019","updated":"2026-01-14T10:24:01Z"}
