{"icao":"LPPS","metar":"LPPS 242200Z 35003KT 320V030 9999 SCT015 17/12 Q1026","updated":"2025-11-24T22:17:59Z"}
