{"icao":"LPPT","metar":"LPPT 051230Z 22014KT 9000 -SHRA FEW012 BKN022 FEW025CB 18/16 Q1009","updated":"2025-11-05T12:38:28Z"}
