{"icao":"KORD","metar":"KORD 221551Z 24008KT 10SM OVC042 M08/M17 A3020 RMK AO2 SLP236 T10831172 $","updated":"2026-01-22T16:34:41Z"}
