{"icao":"LPBJ","metar":"LPBJ 131510Z 16011KT 120V180 7000 3000N -RA FEW015 FEW020CB SCT035 15/14 Q1000","updated":"2025-11-13T15:21:15Z"}
