{"icao":"LPCS","metar":"LPCS 302000Z 01008KT CAVOK 11/07 Q1020","updated":"2025-11-30T20:19:50Z"}
