{"icao":"LPMT","metar":"LPMT 011200Z 26003KT 210V320 CAVOK 14/09 Q1022","updated":"2026-03-01T12:45:27Z"}
