{"icao":"KJFK","metar":"KJFK 210651Z 29010KT 10SM CLR M07/M18 A3053 RMK SLP339 T10721183 ","updated":"2026-01-21T07:27:37Z"}
