{"icao":"LPPS","metar":"LPPS 311500Z 21016KT 9999 FEW015 24/13 Q1014","updated":"2025-10-31T15:18:02Z"}
