{"icao":"LPLA","metar":"LPLA 191800Z 35022G32KT 7000 -SHRA FEW007 BKN012 BKN018 15/12 Q1005","updated":"2026-03-19T18:57:16Z"}
