{"icao":"LPMA","metar":"LPMA 251030Z 01017G31KT 330V030 9999 FEW015 19/12 Q1020","updated":"2026-03-25T10:47:56Z"}
