{"icao":"KJFK","metar":"KJFK 181351Z 06004KT 10SM FEW140 FEW250 02/M01 A3033 RMK SLP269 T00221011 $ ","updated":"2025-12-18T14:21:21Z"}
