{"icao":"LPHR","metar":"LPHR 141500Z 22012KT 9999 FEW020 BKN040 17/12 Q1029","updated":"2026-02-14T15:24:01Z"}
