{"icao":"LPOV","metar":"LPOV 251000Z VRB02KT CAVOK 22/08 Q1019","updated":"2025-09-25T10:18:30Z"}
