{"icao":"LPMT","metar":"LPMT 172200Z 35004KT CAVOK 14/12 Q1017","updated":"2025-11-17T22:17:34Z"}
