{"icao":"LPSJ","metar":"LPSJ 191100Z 25007KT 220V280 9999 FEW008 SCT014 20/19 Q1009","updated":"2026-06-19T11:20:45Z"}
