{"icao":"LPBJ","metar":"LPBJ 200131Z 30009KT 0600 FG VV003 07/07 Q1020","updated":"2026-01-20T01:41:26Z"}
