{"icao":"LPPD","metar":"LPPD 041030Z 23019KT 8000 FEW010 BKN020 16/14 Q0998","updated":"2026-02-04T10:36:50Z"}
