{"icao":"LPAZ","metar":"LPAZ 251600Z 23021KT 9000 SCT014 BKN049 18/16 Q1016","updated":"2026-01-25T16:24:33Z"}
