{"icao":"LPPT","metar":"LPPT 262100Z 34006KT CAVOK 18/14 Q1019","updated":"2025-10-26T21:15:05Z"}
