{"icao":"KORD","metar":"KORD 280651Z 30011G21KT 10SM FEW250 06/M02 A2989 RMK AO2 SLP124 T00611017 $","updated":"2026-02-28T07:25:36Z"}
