{"icao":"LPPT","metar":"LPPT 161500Z 23008KT 200V270 CAVOK 27/10 Q1013","updated":"2025-10-16T15:19:20Z"}
