{"icao":"KORD","metar":"KORD 250351Z 14004KT 9SM FEW010 BKN075 OVC090 08/07 A2989 RMK AO2 SLP122 T00830067","updated":"2025-11-25T04:25:27Z"}
