{"icao":"LPLA","metar":"LPLA 210400Z 19017G28KT 160V230 9999 FEW012 BKN015 17/15 Q1020","updated":"2026-02-21T04:06:19Z"}
