{"icao":"LPFL","metar":"LPFL 261700Z 32011G21KT 240V360 9999 -SHRA FEW015 BKN019 FEW022CB 10/04 Q1005","updated":"2026-01-26T17:28:37Z"}
