{"icao":"KORD","metar":"KORD 042051Z 17010KT 10SM SCT095 BKN250 M01/M11 A3006 RMK AO2 PRESFR SLP189 T10061106 58032 $","updated":"2026-01-04T21:18:13Z"}
