{"icao":"LPMA","metar":"LPMA 050530Z 25003KT 220V310 9999 -RA BKN010 SCT030 FEW018CB 18/17 Q1015","updated":"2026-05-05T05:41:50Z"}
