{"icao":"LPMA","metar":"LPMA 011430Z 20013KT 160V260 9999 SCT013 20/14 Q1018","updated":"2026-05-01T14:53:48Z"}
