{"icao":"LPPT","metar":"LPPT 251200Z 31003KT 280V360 9999 -SHRA FEW012 SCT018 20/17 Q1014","updated":"2025-10-25T12:32:54Z"}
