{"icao":"LPFR","metar":"LPFR 300930Z 24008KT 8000 FEW005 BKN010 15/14 Q1016","updated":"2026-01-30T09:36:56Z"}
