{"icao":"LPPR","metar":"LPPR 230900Z VRB02KT CAVOK 17/11 Q1014","updated":"2026-04-23T09:26:18Z"}
