{"icao":"LPOV","metar":"LPOV 282100Z 36005KT CAVOK 10/08 Q1025","updated":"2026-02-28T21:19:18Z"}
