{"icao":"LPFR","metar":"LPFR 190130Z 34009KT CAVOK 08/03 Q1017","updated":"2026-01-19T01:46:26Z"}
