{"icao":"KORD","metar":"KORD 160051Z 06010KT 10SM FEW050 OVC100 15/10 A3020 RMK AO2 SLP226 T01500100","updated":"2025-10-16T01:20:03Z"}
