{"icao":"LPBJ","metar":"LPBJ 010700Z 18010KT CAVOK 16/14 Q1016","updated":"2025-11-01T07:15:38Z"}
