{"icao":"LPMR","metar":"LPMR 092100Z 24002KT 200V310 CAVOK 15/14 Q1021","updated":"2025-10-09T21:15:39Z"}
