{"icao":"KORD","metar":"KORD 030551Z 22008KT 10SM CLR 08/M03 A2997 RMK AO2 SLP152 T00831028 10128 20083 401390000 58009","updated":"2026-05-03T05:58:18Z"}
