{"icao":"LPMT","metar":"LPMT 021800Z 31003KT 280V340 CAVOK 25/15 Q1020","updated":"2025-10-02T18:24:42Z"}
