{"icao":"LPBJ","metar":"LPBJ 270200Z 06008KT CAVOK 12/04 Q1014","updated":"2026-03-27T02:12:29Z"}
