{"icao":"KORD","metar":"KORD 192151Z 28014G21KT 10SM FEW023 SCT250 M14/M23 A3025 RMK AO2 PK WND 30028/2134 SLP260 T11441228 $","updated":"2026-01-19T22:20:19Z"}
