{"icao":"LPFR","metar":"LPFR 240800Z 36004KT 320V050 9999 FEW025 BKN040 14/11 Q1023","updated":"2025-11-24T08:27:14Z"}
