{"icao":"LPPR","metar":"LPPR 242300Z 04005KT CAVOK 07/06 Q1010","updated":"2025-12-24T23:18:11Z"}
