{"icao":"KORD","metar":"KORD 050551Z 21006KT 10SM CLR M12/M17 A3015 RMK AO2 SLP225 4/005 T11221172 11083 21122 410611139 56024","updated":"2025-12-05T06:30:31Z"}
