{"icao":"LPPR","metar":"LPPR 260100Z 00000KT CAVOK 13/07 Q1018","updated":"2025-09-26T01:18:12Z"}
