{"icao":"LPMR","metar":"LPMR 240800Z 24008KT 210V270 9999 SCT015 OVC030 16/14 Q1018","updated":"2025-11-24T08:27:16Z"}
