{"icao":"LPOV","metar":"LPOV 081100Z 17008KT 3000 -DZ BR BKN004 SCT014 BKN022 10/10 Q1031","updated":"2026-01-08T12:42:52Z"}
