{"icao":"KLAX","metar":"KLAX 171953Z 22013KT 8SM SCT037 BKN280 21/13 A2979 RMK AO2 SLP086 T02060128","updated":"2026-05-17T20:50:18Z"}
