{"icao":"KJFK","metar":"KJFK 051751Z 24005KT 6SM -RA BR FEW013 SCT040 OVC060 14/12 A2981 RMK AO2 SLP093 P0004 60011 T01390117 10139 20089 58010","updated":"2026-04-05T18:41:50Z"}
