{"icao":"LPAR","metar":"LPAR 150900Z 01011KT 9999 FEW022 SCT030 17/08 Q1015","updated":"2026-05-15T09:46:46Z"}
