{"icao":"KORD","metar":"KORD 042151Z 03010KT 1 1/2SM R10L/5000VP6000FT -DZ BR OVC006 03/02 A3006 RMK AO2 DZB23 SLP185 P0000 T00330022","updated":"2026-03-04T22:30:03Z"}
