{"icao":"LPMA","metar":"LPMA 281100Z 35009KT 290V040 9999 VCSH BKN015 15/09 Q1028","updated":"2026-02-28T11:17:47Z"}
