{"icao":"LPFL","metar":"LPFL 181430Z 16012KT 9999 FEW022 16/11 Q1023","updated":"2026-02-18T14:41:52Z"}
