{"icao":"LPOV","metar":"LPOV 021900Z 34008KT 2000 BR BKN004 16/15 Q1022","updated":"2025-10-02T19:13:45Z"}
