{"icao":"LPMT","metar":"LPMT 091400Z 24011KT 6000 -RA BKN006 BKN012 16/16 Q1015","updated":"2025-12-09T14:20:44Z"}
