{"icao":"LPPR","metar":"LPPR 061300Z 11006KT 030V150 CAVOK 28/11 Q1020","updated":"2025-10-06T13:27:31Z"}
