{"icao":"LPMR","metar":"LPMR 271200Z 02005KT 340V060 CAVOK 14/05 Q1025","updated":"2025-11-27T12:39:39Z"}
