{"icao":"LPMR","metar":"LPMR 272100Z 11001KT CAVOK 09/07 Q1025","updated":"2025-11-27T21:16:38Z"}
