{"icao":"LPFL","metar":"LPFL 201500Z 15006KT 9999 FEW015 SCT034 18/14 Q1031","updated":"2025-11-20T15:20:01Z"}
