{"icao":"LPMR","metar":"LPMR 312300Z 34009KT 9999 FEW008 BKN012 18/17 Q1021","updated":"2026-06-01T00:04:30Z"}
