{"icao":"LPPT","metar":"LPPT 062000Z 24006KT 220V280 9999 FEW015 FEW020TCU SCT032 10/07 Q1009","updated":"2026-02-06T20:32:45Z"}
