{"icao":"LPCS","metar":"LPCS 221400Z 22010KT 4800 -RA BR SCT003 BKN008 12/12 Q1007 RERA","updated":"2026-01-22T14:28:54Z"}
