{"icao":"LPFR","metar":"LPFR 211930Z 22009KT 9000 FEW020 17/16 Q1008","updated":"2026-04-21T20:01:42Z"}
