{"icao":"LPLA","metar":"LPLA 182100Z 14004KT 060V200 9999 FEW025 12/08 Q1029","updated":"2025-12-18T21:16:42Z"}
