{"icao":"KJFK","metar":"KJFK 270451Z 05008KT 1 1/2SM -SN BR BKN008 BKN013 OVC023 M02/M03 A2990 RMK AO2 TWR VIS 2 SLP125 P0002 T10221028 410221067 $","updated":"2025-12-27T05:20:16Z"}
