{"icao":"KLAX","metar":"KLAX 230853Z 08004KT 10SM OVC018 17/12 A2991 RMK AO2 SLP126 T01670122 58001","updated":"2026-05-23T09:50:45Z"}
