{"icao":"LPAZ","metar":"LPAZ 200600Z 33017KT 9999 FEW028 14/07 Q1029","updated":"2025-12-20T06:29:00Z"}
