{"icao":"LPLA","metar":"LPLA 131200Z 02006KT 330V060 9999 FEW025 24/18 Q1025","updated":"2025-09-13T12:31:33Z"}
