{"icao":"LPBJ","metar":"LPBJ 081900Z 20011KT CAVOK 17/09 Q1007","updated":"2026-05-08T19:15:03Z"}
