{"icao":"LPPS","metar":"LPPS 101300Z 36010KT 9999 SCT015 BKN030 22/16 Q1023","updated":"2025-10-10T13:26:40Z"}
