{"icao":"LPMR","metar":"LPMR 180800Z VRB02KT 0300 FZFG SCT001 BKN003 M00/M01 Q1013","updated":"2026-01-18T08:25:26Z"}
