{"icao":"LPPR","metar":"LPPR 171430Z 32016KT 290V350 9999 FEW020 17/10 Q1018","updated":"2026-05-17T14:54:30Z"}
