{"icao":"LPFL","metar":"LPFL 201500Z 27017G32KT 220V360 9999 FEW017 18/12 Q1021","updated":"2026-01-20T15:29:20Z"}
