{"icao":"LPPS","metar":"LPPS 260430Z 24006KT 220V290 9999 FEW014 SCT030 17/10 Q1023","updated":"2026-01-26T04:55:33Z"}
