{"icao":"KJFK","metar":"KJFK 311751Z 34011KT 10SM FEW040 SCT180 BKN250 M07/M14 A3013 RMK AO2 SLP202 4/006 933012 T10671144 11067 21122 58021 $","updated":"2026-01-31T18:30:37Z"}
