{"icao":"LPPD","metar":"LPPD 051000Z 35003KT 9999 VCSH FEW020 16/09 Q1018","updated":"2025-11-05T10:20:32Z"}
