{"icao":"LPPR","metar":"LPPR 100930Z 23011KT 200V260 4000 -RA BR BKN003 FEW018CB 15/15 Q1010","updated":"2026-02-10T09:59:35Z"}
