{"icao":"LPAR","metar":"LPAR 291300Z 07006KT 030V120 9999 FEW038 27/14 Q1015","updated":"2025-09-29T13:28:08Z"}
