{"icao":"LPFR","metar":"LPFR 191830Z 02006KT CAVOK 15/05 Q1027","updated":"2026-02-19T18:49:28Z"}
