{"icao":"LPCS","metar":"LPCS 071400Z 29011KT 240V320 9999 FEW018 18/05 Q1011","updated":"2026-05-07T14:04:42Z"}
