{"icao":"KJFK","metar":"KJFK 100851Z 05006KT 10SM CLR 08/01 A3050 RMK AO2 SLP328 T00780011 55002","updated":"2025-10-10T09:19:19Z"}
