{"icao":"LPAZ","metar":"LPAZ 032300Z 01010KT 9999 FEW010 BKN016 15/14 Q1014","updated":"2026-01-03T23:18:01Z"}
