{"icao":"LPCS","metar":"LPCS 141400Z 26012KT 210V310 8000 -SHRA FEW009 SCT020CB 13/13 Q1002","updated":"2025-11-14T14:18:07Z"}
