{"icao":"LPMT","metar":"LPMT 051000Z 03005KT CAVOK 19/12 Q1020","updated":"2026-04-05T11:28:11Z"}
