{"icao":"LPFR","metar":"LPFR 290900Z 35007KT 310V030 9999 FEW025 22/16 Q1015","updated":"2025-09-29T09:20:33Z"}
