{"icao":"LPFL","metar":"LPFL 190700Z 34010KT 280V010 9999 FEW030 18/10 Q1022","updated":"2025-09-19T07:16:48Z"}
