{"icao":"LPMR","metar":"LPMR 141300Z 33014KT 300V360 9999 FEW022 23/17 Q1023","updated":"2025-09-14T13:18:04Z"}
