{"icao":"KORD","metar":"KORD 011251Z 30006KT 10SM FEW030 SCT110 BKN240 M12/M17 A3004 RMK AO2 SLP183 T11171172 $","updated":"2026-01-01T13:32:37Z"}
