{"icao":"LPBJ","metar":"LPBJ 291900Z 29007KT CAVOK 18/15 Q1011","updated":"2025-10-29T19:14:09Z"}
