{"icao":"LPAZ","metar":"LPAZ 070600Z 22012KT 4500 -RA BR SCT003 BKN011 13/12 Q1011","updated":"2026-05-07T06:09:08Z"}
