{"icao":"LPLA","metar":"LPLA 202000Z 29011KT 9999 FEW020 SCT032 11/08 Q1016","updated":"2026-04-20T20:43:47Z"}
