{"icao":"LPHR","metar":"LPHR 010900Z 30003KT 230V340 9999 SCT003 BKN006 BKN010 22/21 Q1020","updated":"2025-10-01T09:19:39Z"}
