{"icao":"LPPT","metar":"LPPT 292300Z 21006KT 9999 FEW010 13/12 Q1015","updated":"2025-11-29T23:16:53Z"}
