{"icao":"LPLA","metar":"LPLA 061927Z 32028G38KT 7000 -SHRA SCT024 FEW026TCU SCT035 10/05 Q1023","updated":"2026-04-06T19:54:04Z"}
