{"icao":"LPAZ","metar":"LPAZ 021530Z 09008KT 030V130 9999 SCT022 18/11 Q1029","updated":"2026-04-02T15:59:48Z"}
