{"icao":"LPPT","metar":"LPPT 250430Z 33006KT 290V350 CAVOK 09/05 Q1009","updated":"2025-12-25T04:36:47Z"}
