{"icao":"LPHR","metar":"LPHR 251100Z 10012KT 9000 FEW003 SCT007 BKN030 16/16 Q1024","updated":"2025-12-25T11:17:18Z"}
