{"icao":"LPOV","metar":"LPOV 251500Z 34011KT 310V010 9999 FEW038 15/09 Q1023","updated":"2025-11-25T15:21:16Z"}
