{"icao":"LPCS","metar":"LPCS 231000Z 26015KT 230V290 9999 FEW020 FEW025CB BKN035 13/07 Q1004","updated":"2026-01-23T10:23:44Z"}
