{"icao":"LPHR","metar":"LPHR 021300Z 11006KT 080V140 9999 SCT015 BKN025 17/11 Q1031","updated":"2026-04-02T13:11:15Z"}
