{"icao":"KORD","metar":"KORD 180851Z 18015G24KT 9SM BKN015 OVC023 11/09 A2949 RMK AO2 SLP987 60001 T01110089 58037 $","updated":"2026-02-18T09:46:20Z"}
