{"icao":"LPMR","metar":"LPMR 160000Z 01002KT 6000 BKN006 13/13 Q1024","updated":"2026-04-16T02:33:42Z"}
