{"icao":"KJFK","metar":"KJFK 150451Z 36008KT 10SM FEW120 FEW250 03/M07 A3037 RMK AO2 SLP282 T00331072 401170011","updated":"2026-03-15T05:04:25Z"}
