{"icao":"LPPT","metar":"LPPT 180700Z 06004KT 020V130 CAVOK 13/10 Q1017","updated":"2026-04-18T07:05:26Z"}
