{"icao":"KJFK","metar":"KJFK 170851Z 23008KT 10SM OVC023 01/M01 A3016 RMK AO2 SLP211 T00061011 58010 $","updated":"2026-02-17T09:46:55Z"}
