{"icao":"KORD","metar":"KORD 092151Z 23008KT 10SM BKN075 OVC250 21/04 A3011 RMK AO2 SLP194 T02060039","updated":"2026-04-09T22:39:29Z"}
