{"icao":"LPAZ","metar":"LPAZ 250200Z 21013KT 7000 BKN002 17/16 Q1016","updated":"2026-04-25T02:22:47Z"}
