{"icao":"LPPT","metar":"LPPT 121000Z 14007KT 110V200 9999 FEW003 SCT010 BKN018 12/12 Q1020","updated":"2026-01-12T10:24:02Z"}
