{"icao":"KJFK","metar":"KJFK 162051Z 27010KT 10SM FEW085 SCT130 SCT250 01/M13 A2999 RMK AO2 SLP154 T00061128 53021 $","updated":"2026-01-16T21:20:11Z"}
