{"icao":"LPPT","metar":"LPPT 101900Z 31009KT CAVOK 23/11 Q1019","updated":"2025-10-10T19:13:42Z"}
