{"icao":"LPPS","metar":"LPPS 291500Z 35016KT 9999 SCT015 23/16 Q1016","updated":"2025-10-29T15:20:36Z"}
