{"icao":"LPLA","metar":"LPLA 080500Z 23014G26KT 190V270 9999 FEW015 SCT020 BKN025 20/17 Q1016","updated":"2025-11-08T05:16:57Z"}
