{"icao":"LPAZ","metar":"LPAZ 022300Z 08006KT 050V110 9999 BKN022 13/09 Q1029","updated":"2026-04-02T23:34:03Z"}
