{"icao":"LPFL","metar":"LPFL 290930Z 15008KT 9999 FEW019 BKN030 14/10 Q1035","updated":"2026-03-29T09:35:16Z"}
