{"icao":"LPPR","metar":"LPPR 060900Z 22009KT 190V250 2000 -RADZ BR BKN002 BKN004 16/16 Q1020","updated":"2025-12-06T09:18:00Z"}
