{"icao":"LPOV","metar":"LPOV 210400Z 34001KT 300V020 CAVOK 11/09 Q1020","updated":"2025-09-21T04:20:14Z"}
