{"icao":"KORD","metar":"KORD 152251Z 20011G21KT 10SM CLR 24/10 A2982 RMK AO2 SLP096 T02390100","updated":"2026-05-15T23:00:34Z"}
