{"icao":"KORD","metar":"KORD 171551Z 01005KT 10SM FEW300 26/17 A3011 RMK AO2 SLP192 T02560167 $","updated":"2025-09-17T16:22:03Z"}
