{"icao":"LPOV","metar":"LPOV 181300Z 24008KT 210V280 CAVOK 24/15 Q1016","updated":"2025-10-18T13:21:26Z"}
