{"icao":"LPPD","metar":"LPPD 182200Z 01013KT 9999 -SHRA SCT007 SCT012 17/15 Q1023","updated":"2025-11-18T22:18:17Z"}
