{"icao":"KJFK","metar":"KJFK 131851Z 17009KT 10SM BKN250 07/M03 A2998 RMK AO2 SLP150 T00671033 $","updated":"2026-01-13T19:19:03Z"}
