{"icao":"LPPS","metar":"LPPS 180700Z 34004KT 310V030 9999 FEW014 SCT030 13/12 Q1025","updated":"2026-02-18T07:12:50Z"}
