{"icao":"LPOV","metar":"LPOV 281600Z 36020KT CAVOK 14/08 Q1025","updated":"2026-02-28T16:25:01Z"}
