{"icao":"KORD","metar":"KORD 240951Z 03005KT 10SM BKN230 00/M03 A3030 RMK AO2 SLP265 T00001033","updated":"2025-12-24T10:20:49Z"}
