{"icao":"LPFR","metar":"LPFR 312200Z 33003KT 280V080 9999 FEW025 SCT048 14/12 Q1021","updated":"2026-01-31T22:20:56Z"}
