{"icao":"LPMA","metar":"LPMA 162000Z 09007KT 020V130 9999 SCT014 17/13 Q1029","updated":"2026-02-16T20:29:31Z"}
