{"icao":"LPAZ","metar":"LPAZ 051600Z 03013KT 360V070 9999 FEW028 19/10 Q1025","updated":"2026-05-05T16:23:24Z"}
