{"icao":"LPBJ","metar":"LPBJ 052200Z 17003KT CAVOK 16/03 Q1020","updated":"2026-04-05T22:29:19Z"}
