{"icao":"LPAZ","metar":"LPAZ 102030Z 21019KT 1600 BR VV002 17/17 Q1014","updated":"2026-02-10T20:42:59Z"}
