{"icao":"KJFK","metar":"KJFK 241751Z 16004KT 10SM FEW035 SCT055 BKN180 OVC250 24/19 A3003 RMK AO2 SLP169 T02390194 10256 20217 58008 $","updated":"2025-09-24T18:23:53Z"}
