{"icao":"LPMR","metar":"LPMR 261000Z 02008KT 350V070 CAVOK 15/04 Q1018","updated":"2026-03-26T11:05:25Z"}
