{"icao":"LPPD","metar":"LPPD 251900Z 31005KT 270V020 9999 FEW025 15/10 Q1028","updated":"2026-02-25T19:06:11Z"}
