{"icao":"LPBJ","metar":"LPBJ 251300Z 19013KT CAVOK 32/07 Q1021","updated":"2026-05-25T13:58:00Z"}
