{"icao":"KJFK","metar":"KJFK 180851Z 28005KT 10SM BKN250 01/M01 A3030 RMK SLP259 T00111011 53031 ","updated":"2025-12-18T09:26:05Z"}
