{"icao":"LPMA","metar":"LPMA 021400Z 03011KT 9999 SCT014 23/19 Q1021","updated":"2025-10-02T14:17:16Z"}
