{"icao":"LPPD","metar":"LPPD 111430Z 01010KT 340V090 9999 FEW022 BKN045 15/05 Q1032","updated":"2026-04-11T14:36:00Z"}
