{"icao":"LPAZ","metar":"LPAZ 080900Z 23019KT 5000 BR FEW004 BKN009 17/16 Q1016","updated":"2026-02-08T09:28:27Z"}
