{"icao":"LPMA","metar":"LPMA 221230Z 35014KT 310V030 9999 SCT015 BKN033 24/18 Q1020","updated":"2026-06-22T12:48:52Z"}
