{"icao":"LPFR","metar":"LPFR 220530Z 04008KT CAVOK 12/06 Q1026","updated":"2026-02-22T05:50:32Z"}
