{"icao":"LPMT","metar":"LPMT 281500Z 19006KT 150V250 9999 SCT025 FEW028CB BKN042 21/18 Q1010","updated":"2025-10-28T15:20:14Z"}
