{"icao":"LPMR","metar":"LPMR 181100Z 33004KT 290V020 CAVOK 21/13 Q1017","updated":"2026-04-18T11:33:08Z"}
