{"icao":"LPPS","metar":"LPPS 091300Z 06011KT 020V090 9999 FEW015 24/17 Q1024","updated":"2025-10-09T13:29:08Z"}
