{"icao":"LPLA","metar":"LPLA 291400Z 24013G23KT 200V270 9999 FEW025 20/13 Q1015","updated":"2025-10-29T14:18:50Z"}
