{"icao":"LPAZ","metar":"LPAZ 210630Z 18010KT 9999 BKN043 16/13 Q1024","updated":"2026-02-21T06:40:03Z"}
