{"icao":"LPAR","metar":"LPAR 031500Z 27004KT 220V330 CAVOK 20/11 Q1021","updated":"2025-11-03T15:19:29Z"}
