{"icao":"KJFK","metar":"KJFK 252151Z 03018G24KT 1SM R04R/5000V5500FT PL BR VV010 M08/M09 A3000 RMK AO2 PK WND 04026/2139 SNE47 PRESFR SLP157 P0007 T10781089 $","updated":"2026-01-25T22:19:15Z"}
