{"icao":"KLAX","metar":"KLAX 270653Z 27009KT 10SM FEW095 SCT110 14/09 A3001 RMK AO2 SLP161 T01390094 $","updated":"2025-12-27T07:17:53Z"}
