{"icao":"KORD","metar":"KORD 281051Z 36005KT 10SM CLR M03/M11 A3059 RMK AO2 SLP366 T10331111","updated":"2026-03-28T11:27:51Z"}
