{"icao":"LPOV","metar":"LPOV 090600Z 01003KT 320V060 2000 BR SCT003 BKN006 15/15 Q1020","updated":"2025-10-09T06:27:32Z"}
