{"icao":"LPPS","metar":"LPPS 101600Z 36010KT 9999 FEW015 18/11 Q1026","updated":"2025-12-10T16:27:08Z"}
