{"icao":"KJFK","metar":"KJFK 031351Z 10009KT 10SM FEW028 OVC041 02/M03 A3057 RMK AO2 SLP352 VCSH SW-NW T00171028","updated":"2026-03-03T13:59:24Z"}
