{"icao":"LPLA","metar":"LPLA 281900Z 31014KT 9999 FEW025 BKN035 17/10 Q1021","updated":"2025-10-28T19:14:54Z"}
