{"icao":"KORD","metar":"KORD 231651Z 17013G20KT 10SM SCT046 SCT250 25/13 A2986 RMK AO2 SLP108 T02500133","updated":"2026-04-23T17:18:33Z"}
