{"icao":"LPSJ","metar":"LPSJ 020700Z 14009KT 110V170 9999 FEW008 BKN012 19/18 Q1029","updated":"2026-07-02T07:30:09Z"}
