{"icao":"LPPS","metar":"LPPS 021300Z 12008KT 090V170 9999 FEW014 23/19 Q1024","updated":"2025-11-02T13:21:31Z"}
