{"icao":"LPPD","metar":"LPPD 220730Z 02019G29KT 9999 FEW016 BKN030 14/11 Q1018","updated":"2026-03-22T07:37:28Z"}
