{"icao":"LPPS","metar":"LPPS 061900Z 03011KT 360V070 9999 SCT015 14/08 Q1029","updated":"2026-01-06T19:16:37Z"}
