{"icao":"LPBJ","metar":"LPBJ 160800Z 15003KT CAVOK 17/09 Q1016","updated":"2025-10-16T08:25:23Z"}
