{"icao":"LPPD","metar":"LPPD 190600Z 34008KT 270V050 9999 SCT007 BKN011 16/14 Q1022","updated":"2025-11-19T06:28:25Z"}
