{"icao":"LPPR","metar":"LPPR 161130Z 10009KT CAVOK 19/08 Q1021","updated":"2026-03-16T11:45:02Z"}
