{"icao":"LPPT","metar":"LPPT 210100Z 22011KT 9000 -DZ SCT004 BKN008 19/18 Q1014","updated":"2025-10-21T01:21:47Z"}
