{"icao":"LPHR","metar":"LPHR 011900Z 03004KT 9999 FEW022 BKN043 17/09 Q1022","updated":"2025-11-01T19:12:37Z"}
