{"icao":"LPPS","metar":"LPPS 022300Z 26016KT 9999 SCT014 FEW018CB SCT030 17/13 Q0998","updated":"2026-01-02T23:18:04Z"}
