{"icao":"LPPS","metar":"LPPS 172230Z 06012KT 9999 SCT014 SCT030 16/12 Q1019","updated":"2026-04-17T22:53:56Z"}
