{"icao":"LPAZ","metar":"LPAZ 072030Z 34017KT 9999 FEW024 SCT045 14/07 Q1032","updated":"2026-04-07T20:45:38Z"}
