{"icao":"LPLA","metar":"LPLA 081326Z 22030G43KT 3000 RA SCT012 BKN016 FEW020CB 20/17 Q0987","updated":"2025-12-08T13:33:54Z"}
