{"icao":"KORD","metar":"KORD 060500Z 01003KT 4SM BR BKN005 OVC017 07/06 A3005 RMK AO2 T00670056","updated":"2026-03-06T05:43:31Z"}
