{"icao":"LPMA","metar":"LPMA 051030Z 01013G28KT 340V040 8000 2500NE -RADZ BKN014 17/14 Q1025","updated":"2026-03-05T10:37:37Z"}
