{"icao":"LPMR","metar":"LPMR 010300Z 31003KT 7000 FEW006 17/17 Q1020","updated":"2026-07-01T03:41:02Z"}
