{"icao":"LPMR","metar":"LPMR 280600Z 30018G31KT 7000 -RA OVC003 17/16 Q1008","updated":"2025-09-28T06:24:23Z"}
