{"icao":"LPAR","metar":"LPAR 101600Z 36016KT 320V030 9999 FEW025 15/07 Q1020","updated":"2026-03-10T17:00:44Z"}
