{"icao":"LPLA","metar":"LPLA 301200Z 17005KT 9000 -DZ SCT006 SCT013 BKN015 23/21 Q1020","updated":"2025-09-30T12:38:27Z"}
