{"icao":"LPFR","metar":"LPFR 191600Z 33014KT CAVOK 16/01 Q1019","updated":"2026-01-19T16:27:50Z"}
