{"icao":"LPFR","metar":"LPFR 041100Z 22006KT CAVOK 25/10 Q1022","updated":"2025-10-04T11:12:36Z"}
