{"icao":"LPMA","metar":"LPMA 301930Z 02022G34KT 9999 FEW015 17/11 Q1023","updated":"2026-03-30T19:58:19Z"}
