{"icao":"LPPR","metar":"LPPR 211230Z 25003KT 180V340 CAVOK 16/09 Q1030","updated":"2026-02-21T12:44:02Z"}
