{"icao":"LPBJ","metar":"LPBJ 311800Z 36008KT CAVOK 24/08 Q1022","updated":"2026-03-31T19:01:33Z"}
