{"icao":"LPAR","metar":"LPAR 241700Z 29012KT 8000 SCT009 BKN020 18/16 Q1016","updated":"2025-11-25T05:18:52Z"}
