{"icao":"KJFK","metar":"KJFK 271151Z 25013KT 10SM SCT055 BKN230 06/M04 A2993 RMK AO2 SLP134 70004 T00561039 10078 20056 53016","updated":"2025-11-27T12:39:58Z"}
