{"icao":"LPOV","metar":"LPOV 130900Z 31019KT 9999 BKN016 FEW020CB 12/09 Q1000 RETSRAGS","updated":"2026-02-13T09:42:06Z"}
