{"icao":"LPOV","metar":"LPOV 140700Z 35002KT 9999 BKN015 12/12 Q1016","updated":"2026-05-14T09:33:04Z"}
