{"icao":"KORD","metar":"KORD 241351Z 31006KT 10SM BKN100 BKN170 OVC250 M23/M30 A3071 RMK AO2 SLP421 T12281300","updated":"2026-01-24T14:19:08Z"}
