{"icao":"KORD","metar":"KORD 022251Z 30008G14KT 10SM BKN070 BKN090 13/M03 A3001 RMK AO2 SLP164 T01331028","updated":"2026-05-02T23:41:03Z"}
