{"icao":"LPBJ","metar":"LPBJ 250900Z 08004KT CAVOK 14/11 Q1021","updated":"2026-03-25T09:52:26Z"}
