{"icao":"KJFK","metar":"KJFK 071324Z 24008KT 1/4SM R04R/1200V1800FT FG VV002 03/03 A2970 RMK AO2 T00330033 $","updated":"2026-01-07T13:39:05Z"}
