{"icao":"KLAX","metar":"KLAX 290953Z 09004KT 9SM FEW003 17/16 A3001 RMK AO2 SLP160 T01670156 $","updated":"2025-10-29T10:20:40Z"}
