{"icao":"KORD","metar":"KORD 170951Z 17003KT 10SM FEW100 BKN250 06/02 A2993 RMK AO2 SLP136 T00610022 $","updated":"2026-02-17T10:43:36Z"}
