{"icao":"LPOV","metar":"LPOV 150400Z 35011KT CAVOK 11/09 Q1018","updated":"2026-03-15T05:04:21Z"}
