{"icao":"KORD","metar":"KORD 091756Z 33013G26KT 9SM FEW022 BKN048 OVC060 00/M05 A3008 RMK AO2 PK WND 34026/1753 SNE56 P0000 T00001050 $","updated":"2025-11-09T18:23:06Z"}
