{"icao":"KJFK","metar":"KJFK 021251Z 34004KT 10SM FEW090 FEW250 08/02 A3030 RMK AO2 SLP261 T00830022 $","updated":"2025-11-02T13:21:31Z"}
