{"icao":"LPPR","metar":"LPPR 061700Z 36012KT CAVOK 14/05 Q1018","updated":"2026-03-06T17:33:30Z"}
