{"icao":"KORD","metar":"KORD 240351Z 14003KT 10SM SCT150 BKN250 M06/M11 A3028 RMK AO2 SLP265 T10561106","updated":"2026-02-24T04:50:29Z"}
