{"icao":"LPMA","metar":"LPMA 302030Z 02024KT 9999 SCT015 16/11 Q1024","updated":"2026-03-30T20:54:21Z"}
