{"icao":"LPPR","metar":"LPPR 131700Z 06003KT CAVOK 16/11 Q1022","updated":"2025-12-13T17:16:08Z"}
