{"icao":"KLAX","metar":"KLAX 150353Z 09006KT 5SM -RA BR BKN006 BKN047 OVC075 17/17 A2994 RMK AO2 SLP139 P0012 T01720167 $","updated":"2025-11-15T04:20:52Z"}
