{"icao":"LPLA","metar":"LPLA 181935Z 16004KT 9999 FEW015 SCT022 BKN030 16/15 Q1013","updated":"2026-04-18T19:39:55Z"}
