{"icao":"KJFK","metar":"KJFK 090251Z 34013KT 10SM CLR 16/04 A3022 RMK AO2 SLP233 T01560044 53025","updated":"2025-10-09T03:35:48Z"}
