{"icao":"LPBJ","metar":"LPBJ 022300Z 32006KT CAVOK 13/08 Q1021","updated":"2026-04-02T23:34:01Z"}
