{"icao":"LPPS","metar":"LPPS 091200Z 36009KT 330V040 9999 FEW015 23/11 Q1023","updated":"2025-11-09T12:33:53Z"}
