{"icao":"KORD","metar":"KORD 131951Z 27027G46KT 10SM SCT050 08/M05 A2969 RMK AO2 PK WND 28047/1910 SLP057 T00831050 $","updated":"2026-03-13T20:33:18Z"}
