{"icao":"LPPD","metar":"LPPD 052000Z 01008KT 340V050 9999 FEW022 BKN045 15/09 Q1027","updated":"2026-05-05T20:06:12Z"}
