{"icao":"LPBJ","metar":"LPBJ 080800Z VRB02KT 9999 FEW002 BKN015 03/03 Q1033","updated":"2026-01-08T08:29:25Z"}
