{"icao":"LPMT","metar":"LPMT 270500Z 01003KT CAVOK 10/10 Q1023","updated":"2026-02-27T05:51:40Z"}
