{"icao":"KORD","metar":"KORD 012251Z 22012G22KT 10SM FEW045 BKN300 34/20 A2994 RMK AO2 SLP132 T03390200","updated":"2026-07-01T23:14:10Z"}
