{"icao":"KLAX","metar":"KLAX 290353Z 00000KT 10SM BKN250 16/11 A3016 RMK AO2 SLP214 T01610106","updated":"2026-01-29T04:08:25Z"}
