{"icao":"KORD","metar":"KORD 020251Z 35009KT 330V090 10SM FEW024 BKN060 OVC075 07/04 A3014 RMK AO2 SLP210 60000 T00670039 51010 $","updated":"2025-11-02T03:14:06Z"}
