{"icao":"LPBJ","metar":"LPBJ 272300Z 22006KT CAVOK 16/14 Q1010","updated":"2026-04-27T23:54:39Z"}
