{"icao":"LPPD","metar":"LPPD 082000Z 24017KT 5000 BR SCT002 BKN007 17/16 Q1014","updated":"2026-02-08T20:26:28Z"}
