{"icao":"LPHR","metar":"LPHR 190030Z 29005KT 250V310 9999 FEW010 SCT013 16/14 Q1020","updated":"2026-05-19T04:58:51Z"}
