{"icao":"LPMR","metar":"LPMR 260500Z 16004KT 140V200 3000 BR NSC 02/02 Q1013","updated":"2025-12-26T05:20:50Z"}
