{"icao":"LPMT","metar":"LPMT 030600Z VRB01KT CAVOK 09/09 Q1023","updated":"2025-11-03T06:29:07Z"}
