{"icao":"KJFK","metar":"KJFK 191551Z 33019G31KT 10SM FEW027 FEW034 OVC046 11/06 A2984 RMK PK WND 32034/1527 SLP106 T01110061 ","updated":"2026-04-19T16:38:37Z"}
