{"icao":"KORD","metar":"KORD 171451Z 26006KT 10SM BKN250 02/M01 A2997 RMK AO2 SLP154 T00171011 51036","updated":"2025-12-17T15:22:17Z"}
