{"icao":"KJFK","metar":"KJFK 020251Z 18005KT 10SM SCT250 25/22 A2997 RMK SLP148 T02500217 53001 $ ","updated":"2026-07-02T03:27:28Z"}
