{"icao":"KJFK","metar":"KJFK 011151Z 19008KT 10SM FEW047 FEW095 SCT250 24/17 A3002 RMK SLP164 T02440172 10244 20222 50003 $ ","updated":"2026-07-01T12:05:57Z"}
