{"icao":"LPPT","metar":"LPPT 170630Z 00000KT 9999 BKN022 12/11 Q1028","updated":"2026-02-17T07:02:14Z"}
