{"icao":"LPFR","metar":"LPFR 121530Z 11008KT 9999 FEW025 20/11 Q1023","updated":"2026-03-12T15:57:46Z"}
