{"icao":"LPOV","metar":"LPOV 201800Z 17007KT 6000 -RA SCT012 BKN016 BKN035 12/12 Q1014","updated":"2026-01-20T21:19:40Z"}
