{"icao":"KJFK","metar":"KJFK 030351Z 22007KT 10SM FEW200 BKN250 11/08 A3029 RMK AO2 SLP255 T01110083 $","updated":"2025-11-03T04:27:32Z"}
