{"icao":"LPPR","metar":"LPPR 030830Z 02003KT 340V080 CAVOK 13/07 Q1024","updated":"2026-04-03T08:52:36Z"}
