{"icao":"LPPT","metar":"LPPT 311930Z 34010KT 300V020 CAVOK 21/11 Q1019","updated":"2026-05-31T19:37:27Z"}
