{"icao":"LPPS","metar":"LPPS 271200Z 34011KT 290V020 9999 FEW015 22/12 Q1022","updated":"2026-05-27T12:19:17Z"}
