{"icao":"LPPD","metar":"LPPD 051730Z 29027KT 9999 SCT020 FEW025TCU 13/06 Q1007","updated":"2026-02-05T17:45:46Z"}
