{"icao":"LPFR","metar":"LPFR 082130Z 02006KT 010V130 CAVOK 13/08 Q1018","updated":"2026-04-08T21:39:30Z"}
