{"icao":"LPMR","metar":"LPMR 230500Z 15001KT CAVOK 08/07 Q1018","updated":"2025-09-23T05:16:44Z"}
