{"icao":"LPFL","metar":"LPFL 092100Z VRB12G26KT 9000 FEW008 BKN010 18/14 Q1003","updated":"2026-02-09T22:34:25Z"}
