{"icao":"LPFL","metar":"LPFL 031400Z 19009KT 140V310 9999 FEW010 BKN015 25/21 Q1020","updated":"2025-10-03T14:16:45Z"}
