{"icao":"LPCS","metar":"LPCS 201330Z 35007KT 320V030 CAVOK 16/06 Q1029","updated":"2026-02-20T14:00:37Z"}
