{"icao":"KJFK","metar":"KJFK 162251Z 18015KT 10SM FEW065 BKN250 18/12 A2975 RMK AO2 SLP072 T01830122","updated":"2026-04-16T23:39:02Z"}
