{"icao":"LPPT","metar":"LPPT 082100Z 23005KT 210V270 5000 -RA BR FEW002 BKN004 14/14 Q1011 RERA","updated":"2026-02-08T21:25:29Z"}
