{"icao":"LPBJ","metar":"LPBJ 082100Z 02003KT CAVOK 12/08 Q1023","updated":"2025-11-08T21:14:03Z"}
