{"icao":"LPFL","metar":"LPFL 201600Z 24013G26KT 160V280 9999 FEW007 24/19 Q1009","updated":"2025-10-20T16:22:27Z"}
