{"icao":"LPAZ","metar":"LPAZ 161900Z 32003KT 260V360 9999 FEW028 16/11 Q1025","updated":"2025-11-16T19:13:56Z"}
