{"icao":"LPBJ","metar":"LPBJ 072200Z 28006KT CAVOK 13/06 Q1011","updated":"2026-05-07T23:01:03Z"}
