{"icao":"KJFK","metar":"KJFK 290651Z 32011KT 10SM FEW250 M09/M17 A3004 RMK SLP170 T10941172 $ ","updated":"2026-01-29T07:38:34Z"}
