{"icao":"LPPR","metar":"LPPR 040800Z 12008KT CAVOK 17/10 Q1014","updated":"2025-11-04T08:26:17Z"}
