{"icao":"LPPD","metar":"LPPD 150230Z 21015KT 9999 FEW014 21/18 Q1007","updated":"2025-10-15T03:03:40Z"}
