{"icao":"KLAX","metar":"KLAX 161453Z 10004KT 9SM OVC011 18/15 A3000 RMK AO2 SLP155 T01780150 53010 $","updated":"2026-06-16T15:09:02Z"}
