{"icao":"KJFK","metar":"KJFK 120418Z 23015G21KT 2SM +TSRA SCT039CB BKN090 OVC110 10/09 A2969 RMK AO2 RAB05 TSB05 FRQ LTGICCG OHD TS OHD MOV NE P0005 T01000094","updated":"2026-03-12T04:46:08Z"}
