{"icao":"LPAR","metar":"LPAR 091200Z 36011KT CAVOK 25/11 Q1019","updated":"2026-06-09T12:35:27Z"}
