{"icao":"LPPT","metar":"LPPT 231130Z 09003KT 360V140 CAVOK 16/10 Q1025","updated":"2026-02-23T11:38:34Z"}
