{"icao":"LPPT","metar":"LPPT 022000Z 30012G24KT 250V340 6000 SHRA SCT012 FEW020CB BKN030 11/09 Q1018","updated":"2025-12-02T20:23:13Z"}
