{"icao":"KORD","metar":"KORD 141451Z 02006KT 10SM OVC025 17/14 A3033 RMK AO2 SLP269 T01720139 50011 $","updated":"2025-10-14T15:20:39Z"}
