{"icao":"LPPS","metar":"LPPS 051100Z 01009KT 340V050 9999 SCT013 19/15 Q1017","updated":"2026-04-05T11:28:31Z"}
