{"icao":"LPHR","metar":"LPHR 220630Z 06013KT 020V080 9999 FEW014 14/08 Q1019","updated":"2026-03-22T06:50:36Z"}
