{"icao":"LPPS","metar":"LPPS 141600Z 03014KT 7000 SCT012 BKN030 16/14 Q1023","updated":"2026-03-14T16:30:23Z"}
