{"icao":"LPMA","metar":"LPMA 070700Z 28003KT 230V320 CAVOK 17/13 Q1020","updated":"2025-11-07T07:17:58Z"}
