{"icao":"LPMA","metar":"LPMA 241300Z 04012KT 360V060 9999 FEW016 21/14 Q1025","updated":"2025-11-24T13:32:39Z"}
