{"icao":"KORD","metar":"KORD 190925Z 28019G28KT 1SM R10L/P6000FT -SN BLSN BKN015 OVC029 M12/M15 A2989 RMK AO2 PK WND 28028/0925 P0000 T11171150 $","updated":"2026-01-19T09:32:58Z"}
