{"icao":"LPCS","metar":"LPCS 040930Z 25003KT 220V300 3000 RADZ BR FEW002 SCT005 BKN010 13/13 Q0998","updated":"2026-02-04T09:42:03Z"}
