{"icao":"KJFK","metar":"KJFK 170951Z 29017G29KT 10SM FEW060 03/M09 A2963 RMK AO2 PK WND 26033/0852 SLP032 T00281089 $","updated":"2025-11-17T10:21:24Z"}
