{"icao":"LPPR","metar":"LPPR 130600Z 00000KT CAVOK 17/12 Q1015","updated":"2025-10-13T06:28:26Z"}
