{"icao":"LPPD","metar":"LPPD 111400Z 26009KT 230V290 9999 FEW020 22/18 Q1020","updated":"2025-10-11T14:13:33Z"}
