{"icao":"LPPR","metar":"LPPR 090500Z 31005KT 280V340 9999 FEW020 12/08 Q1026","updated":"2026-01-09T05:23:59Z"}
