{"icao":"LPSJ","metar":"LPSJ 301500Z 15009KT 120V180 9999 FEW010 23/18 Q1031","updated":"2026-06-30T15:25:17Z"}
