{"icao":"KJFK","metar":"KJFK 210851Z 25006KT 10SM FEW120 BKN170 BKN250 19/13 A2983 RMK AO2 SLP101 T01890128 55003 $","updated":"2026-06-21T08:56:25Z"}
