{"icao":"LPMA","metar":"LPMA 020530Z 36012KT 320V020 9999 FEW013 19/16 Q1024","updated":"2026-06-02T05:47:10Z"}
