{"icao":"LPLA","metar":"LPLA 261200Z 36005KT 330V050 8000 BKN007 BKN014 14/11 Q1026","updated":"2025-12-26T12:39:26Z"}
