{"icao":"LPPT","metar":"LPPT 050930Z 32007KT 280V010 9999 BKN016 13/10 Q1017","updated":"2026-03-05T09:41:15Z"}
