{"icao":"LPPT","metar":"LPPT 021100Z 14010KT 8000 FEW012 BKN022 13/11 Q1011","updated":"2026-03-02T11:30:52Z"}
