{"icao":"LPPT","metar":"LPPT 202100Z 35014KT 9999 FEW020 18/13 Q1021","updated":"2025-09-20T21:13:27Z"}
