{"icao":"KLAX","metar":"KLAX 210653Z 21003KT 9SM BKN250 14/12 A3008 RMK AO2 SLP184 T01390122","updated":"2026-01-21T07:27:37Z"}
