{"icao":"LPCS","metar":"LPCS 110930Z 24014KT 220V280 0800 R17/1200D FG VV002 15/15 Q1018","updated":"2026-02-11T10:01:32Z"}
