{"icao":"LPMR","metar":"LPMR 281400Z 36008KT 310V030 9999 SCT026 15/09 Q1022","updated":"2025-11-28T14:18:59Z"}
