{"icao":"LPFL","metar":"LPFL 031730Z 10006KT 040V180 9999 BKN020 16/11 Q1024","updated":"2026-05-03T17:45:10Z"}
