{"icao":"LPST","metar":"LPST 181400Z 24015KT 9999 -RA SCT008 BKN014 BKN040 15/13 Q1019","updated":"2026-02-18T14:41:49Z"}
