{"icao":"LPAZ","metar":"LPAZ 181900Z 32012KT 9999 BKN003 16/14 Q1028","updated":"2026-01-18T19:15:23Z"}
