{"icao":"LPHR","metar":"LPHR 201000Z 26014KT 7000 FEW004 SCT007 BKN012 22/22 Q1015","updated":"2025-10-20T10:20:21Z"}
