{"icao":"LPCS","metar":"LPCS 101400Z 23007KT 190V300 9999 SCT016 20/16 Q1018","updated":"2025-11-10T14:18:45Z"}
