{"icao":"KJFK","metar":"KJFK 092251Z 31006KT 10SM FEW120 FEW210 BKN250 M01/M14 A3020 RMK AO2 SLP225 T10111144 $","updated":"2026-02-09T23:35:04Z"}
