{"icao":"KJFK","metar":"KJFK 010851Z 29018G29KT 10SM FEW060 11/M02 A2978 RMK AO2 PK WND 31033/0820 SLP083 T01061022 53026 $","updated":"2025-11-01T09:16:53Z"}
