{"icao":"KORD","metar":"KORD 041451Z 00000KT 10SM FEW034 BKN250 M05/M13 A3019 RMK AO2 SLP234 T10501128 50018 $","updated":"2026-01-04T15:18:20Z"}
