{"icao":"LPCS","metar":"LPCS 121230Z 22005KT 170V260 9999 FEW020 17/12 Q1026","updated":"2026-03-12T12:57:14Z"}
