{"icao":"KLAX","metar":"KLAX 080353Z 26004KT 10SM CLR 16/12 A3014 RMK AO2 SLP206 T01560122 $","updated":"2025-12-08T04:32:46Z"}
