{"icao":"KJFK","metar":"KJFK 230851Z 01010KT 10SM -RA FEW012 BKN047 OVC055 09/08 A2972 RMK AO2 WSHFT 0754 RAB19 SLP064 P0000 60000 T00940083 58001 $","updated":"2026-03-23T08:54:43Z"}
