{"icao":"LPHR","metar":"LPHR 271400Z 25032G43KT 7000 -RA SCT012 BKN020 15/15 Q1005","updated":"2026-01-27T14:28:23Z"}
