{"icao":"LPPR","metar":"LPPR 281500Z 05003KT 360V110 CAVOK 16/07 Q1014","updated":"2025-12-28T15:18:36Z"}
