{"icao":"KLAX","metar":"KLAX 110436Z 26014KT 10SM SCT015 BKN043 BKN055 17/13 A2997 RMK AO2 T01670133 $","updated":"2026-04-11T04:53:54Z"}
