{"icao":"KLAX","metar":"KLAX 261053Z 06003KT 10SM CLR 15/04 A3006 RMK AO2 SLP177 T01500039","updated":"2025-11-26T11:16:59Z"}
