{"icao":"LPPT","metar":"LPPT 170730Z 04004KT 9999 FEW010 12/10 Q1019","updated":"2026-04-17T07:44:23Z"}
