{"icao":"LPMA","metar":"LPMA 190600Z 03013G24KT 330V060 9999 BKN015 17/13 Q1023","updated":"2025-12-19T06:30:32Z"}
