{"icao":"KJFK","metar":"KJFK 251751Z 18010KT 10SM FEW023 BKN065 BKN130 OVC180 12/07 A3018 RMK AO2 SLP220 T01220072 10122 20078 58025","updated":"2025-11-25T18:29:05Z"}
