{"icao":"LPHR","metar":"LPHR 282300Z 01006KT 350V060 9999 FEW017 13/08 Q1029","updated":"2025-11-28T23:17:01Z"}
