{"icao":"LPMR","metar":"LPMR 100600Z 17004KT 2000 BR FEW003 SCT040 06/06 Q1029","updated":"2026-01-10T07:18:09Z"}
