{"icao":"LPPT","metar":"LPPT 230200Z 32005KT 290V350 CAVOK 13/11 Q1013","updated":"2026-04-23T02:31:58Z"}
