{"icao":"LPFR","metar":"LPFR 231900Z 25015KT CAVOK 17/12 Q1014","updated":"2026-04-23T19:05:58Z"}
