{"icao":"LPPR","metar":"LPPR 151330Z 22010KT 190V250 9999 FEW007 BKN018 BKN040 14/12 Q1028","updated":"2026-02-15T13:43:30Z"}
