{"icao":"LPCS","metar":"LPCS 011930Z 01016KT CAVOK 25/15 Q1017","updated":"2026-07-01T19:51:53Z"}
