{"icao":"LPPR","metar":"LPPR 011000Z 10004KT 060V150 CAVOK 25/13 Q1022","updated":"2025-10-01T10:18:29Z"}
