{"icao":"LPMR","metar":"LPMR 030700Z 15004KT 8000 FEW004 05/05 Q1021","updated":"2025-12-03T07:20:29Z"}
