{"icao":"KJFK","metar":"KJFK 282151Z 16007KT 10SM SCT130 BKN160 OVC250 14/03 A3009 RMK SLP190 VIRGA E T01390028 ","updated":"2026-04-28T21:57:12Z"}
