{"icao":"LPBJ","metar":"LPBJ 090700Z 27005KT 4500 VCFG FEW002 BKN040 08/08 Q1023","updated":"2026-03-09T07:04:47Z"}
