{"icao":"LPPR","metar":"LPPR 090330Z VRB01KT 0300 R35/0325N FG VV001 14/13 Q1020","updated":"2025-10-09T03:35:11Z"}
