{"icao":"KJFK","metar":"KJFK 220851Z 10004KT 10SM BKN050 BKN100 OVC120 06/03 A2998 RMK AO2 SLP151 60000 T00560028 56004 $","updated":"2026-03-22T09:31:34Z"}
