{"icao":"KJFK","metar":"KJFK 200151Z 15005KT 10SM FEW070 FEW085 SCT230 02/M01 A3021 RMK AO2 SLP231 T00221006","updated":"2026-03-20T02:01:10Z"}
