{"icao":"LPAZ","metar":"LPAZ 092330Z 33013KT 9999 FEW023 14/10 Q1017","updated":"2026-05-09T23:45:56Z"}
