{"icao":"LPFL","metar":"LPFL 201600Z 34016G26KT 280V010 9999 FEW022 BKN035 15/07 Q1021","updated":"2026-04-20T16:07:31Z"}
