{"icao":"LPPS","metar":"LPPS 261430Z 02024KT 9999 SCT015 17/11 Q1023","updated":"2026-02-26T14:44:52Z"}
