{"icao":"LPPT","metar":"LPPT 181500Z 17006KT 120V200 CAVOK 27/12 Q1015","updated":"2025-10-18T15:15:23Z"}
