{"icao":"LPMA","metar":"LPMA 271900Z 23010KT 210V270 9999 SCT013 FEW015TCU 22/19 Q1015","updated":"2025-10-27T19:14:15Z"}
