{"icao":"KJFK","metar":"KJFK 061651Z 29010G24KT 10SM FEW060 FEW250 11/M04 A3005 RMK AO2 SLP174 T01111044","updated":"2026-04-06T17:42:44Z"}
