{"icao":"KJFK","metar":"KJFK 301251Z 27020G30KT 10SM FEW042 BKN060 M01/M12 A2967 RMK AO2 PK WND 28030/1250 SLP046 T10111122 $","updated":"2025-12-30T13:35:03Z"}
