{"icao":"LPHR","metar":"LPHR 182200Z 04008KT 360V090 9000 VCSH SCT006 BKN025 17/14 Q1026","updated":"2025-11-18T22:18:32Z"}
