{"icao":"LPPD","metar":"LPPD 140700Z 36004KT 320V030 9999 SCT016 15/11 Q1031","updated":"2026-03-14T07:33:45Z"}
