{"icao":"LPCS","metar":"LPCS 180930Z 23010KT 9000 -DZ SCT006 BKN014 13/12 Q1021","updated":"2026-02-18T09:45:44Z"}
