{"icao":"KJFK","metar":"KJFK 221251Z COR 17012KT 10SM FEW025 SCT055 OVC090 08/04 A3016 RMK SLP211 VCSH NW T00830044 ","updated":"2026-04-22T13:24:45Z"}
