{"icao":"KJFK","metar":"KJFK 251602Z 05014G23KT 1/2SM R04R/1800V2200FT SN FZFG VV005 M09/M11 A3040 RMK AO2 PRESFR P0000 T10941111 $","updated":"2026-01-25T16:24:37Z"}
