{"icao":"LPOV","metar":"LPOV 092300Z 21002KT CAVOK 15/14 Q1020","updated":"2025-10-09T23:15:27Z"}
