{"icao":"LPST","metar":"LPST 200700Z 00000KT 8000 FEW014 BKN024 15/15 Q1015","updated":"2025-10-20T07:18:36Z"}
