{"icao":"KLAX","metar":"KLAX 290853Z 09003KT 9SM FEW003 17/16 A3001 RMK AO2 SLP160 T01670161 58005 $","updated":"2025-10-29T09:19:47Z"}
