{"icao":"LPMA","metar":"LPMA 171130Z 01011KT 330V060 9999 SCT016 19/13 Q1019","updated":"2026-04-17T11:51:33Z"}
