{"icao":"LPBJ","metar":"LPBJ 021317Z 28016G26KT 240V310 7000 -SHRA SCT020CB BKN032 11/06 Q1002 WS ALL RWY","updated":"2026-02-02T14:03:35Z"}
