{"icao":"LPPS","metar":"LPPS 270100Z 31019KT 9999 SCT015 16/11 Q1015","updated":"2025-12-27T01:26:58Z"}
