{"icao":"KORD","metar":"KORD 251951Z 32005KT 10SM BKN050 24/11 A2990 RMK AO2 SLP122 T02390111","updated":"2025-09-25T20:19:39Z"}
