{"icao":"LPMT","metar":"LPMT 221700Z 22013G24KT 9000 -RA SCT005 BKN011 BKN018 14/14 Q1004 RERA","updated":"2026-01-22T17:27:20Z"}
