{"icao":"KORD","metar":"KORD 241051Z 00000KT 10SM CLR 02/M01 A3025 RMK AO2 SLP249 T00171011","updated":"2025-10-24T11:16:03Z"}
