{"icao":"LPPD","metar":"LPPD 262300Z 03010KT 360V060 9999 FEW018 BKN025 14/08 Q1029","updated":"2026-03-26T23:31:35Z"}
