{"icao":"LPLA","metar":"LPLA 041700Z 22011KT 190V250 9999 FEW009 24/17 Q1025","updated":"2026-06-04T17:45:57Z"}
