{"icao":"LPCS","metar":"LPCS 261600Z 21013KT 9000 FEW004 BKN010 15/15 Q1010","updated":"2026-01-26T16:32:48Z"}
