{"icao":"KJFK","metar":"KJFK 051451Z 17003KT 10SM CLR 24/16 A3031 RMK AO2 SLP265 T02390161 50008","updated":"2025-10-05T15:15:16Z"}
