{"icao":"LPPT","metar":"LPPT 101030Z 09004KT 010V160 9999 FEW010 19/15 Q1014","updated":"2026-04-10T10:52:43Z"}
