{"icao":"LPAZ","metar":"LPAZ 111100Z 03008KT 360V060 9999 FEW013 SCT020 BKN027 14/11 Q1033","updated":"2026-03-11T11:32:24Z"}
