{"icao":"LPFR","metar":"LPFR 281500Z 14004KT 100V160 CAVOK 18/05 Q1021","updated":"2025-11-28T15:19:04Z"}
