{"icao":"KJFK","metar":"KJFK 030051Z 21010KT 10SM BKN250 13/08 A3028 RMK AO2 SLP252 T01280083 $","updated":"2025-11-03T01:26:15Z"}
