{"icao":"LPOV","metar":"LPOV 211000Z 25008KT 210V280 9000 FEW002 SCT006 BKN020 14/14 Q1003","updated":"2026-01-21T10:27:30Z"}
