{"icao":"LPPT","metar":"LPPT 041100Z 34005KT 310V010 9999 FEW015 16/14 Q1018","updated":"2025-11-04T11:16:40Z"}
