{"icao":"KJFK","metar":"KJFK 122251Z 30013KT 10SM FEW250 01/M10 A3011 RMK AO2 SLP194 T00061100","updated":"2025-12-12T23:18:23Z"}
