{"icao":"LPFR","metar":"LPFR 210700Z 02008KT CAVOK 12/05 Q1027","updated":"2026-02-21T07:30:47Z"}
