{"icao":"LPBJ","metar":"LPBJ 200800Z 34003KT CAVOK 05/04 Q1030","updated":"2026-02-20T08:38:35Z"}
