{"icao":"LPHR","metar":"LPHR 271830Z 05010KT 020V080 9999 FEW018 17/10 Q1030","updated":"2026-03-27T18:54:26Z"}
