{"icao":"KLAX","metar":"KLAX 201453Z 05007KT 10SM SCT015 BKN043 BKN120 BKN250 11/08 A3005 RMK AO2 SLP173 T01110083 53005 $","updated":"2025-11-20T15:20:13Z"}
