{"icao":"LPOV","metar":"LPOV 160900Z 12002KT CAVOK 16/10 Q1021","updated":"2026-03-16T10:05:22Z"}
