{"icao":"LPFR","metar":"LPFR 160730Z 09004KT 050V120 CAVOK 19/11 Q1019","updated":"2026-04-16T07:44:03Z"}
