{"icao":"LPHR","metar":"LPHR 051000Z 14010KT 9999 FEW012 BKN050 22/19 Q1023","updated":"2025-10-05T10:16:25Z"}
