{"icao":"LPBJ","metar":"LPBJ 181100Z 06006KT CAVOK 15/10 Q1019","updated":"2025-11-18T11:17:29Z"}
