{"icao":"LPMA","metar":"LPMA 171700Z 34009KT 290V090 9999 SCT015 20/11 Q1023","updated":"2025-11-17T17:17:47Z"}
