{"icao":"LPLA","metar":"LPLA 030400Z 25010KT 220V290 9999 FEW028 17/12 Q1015","updated":"2025-11-03T04:27:28Z"}
