{"icao":"KJFK","metar":"KJFK 051251Z 35008KT 10SM FEW250 M07/M12 A3014 RMK AO2 SLP204 T10671117 PNO $","updated":"2026-02-05T13:00:02Z"}
