{"icao":"LPPR","metar":"LPPR 202030Z VRB03KT CAVOK 15/12 Q1009","updated":"2026-04-20T20:43:28Z"}
