{"icao":"LPAZ","metar":"LPAZ 200600Z 06009KT 030V090 9999 SCT025 BKN045 17/12 Q1025","updated":"2025-11-20T06:27:30Z"}
