{"icao":"KORD","metar":"KORD 142351Z 10010KT 10SM SCT300 17/M02 A2999 RMK AO2 SLP156 T01671017 10194 20167 58014","updated":"2026-05-14T23:56:54Z"}
