{"icao":"LPPD","metar":"LPPD 021300Z 31013G26KT 280V350 9999 -SHRA FEW023 FEW025TCU SCT030 14/09 Q1004 WS ALL RWY","updated":"2026-01-02T13:31:36Z"}
