{"icao":"LPAZ","metar":"LPAZ 271330Z 25024KT 9000 FEW016 BKN030 16/13 Q1011","updated":"2026-01-27T13:45:45Z"}
