{"icao":"LPAZ","metar":"LPAZ 162000Z 33016KT 9999 FEW020 SCT030 BKN038 14/11 Q1033","updated":"2026-01-16T20:20:48Z"}
