{"icao":"LPFR","metar":"LPFR 071400Z 12008KT CAVOK 25/15 Q1020","updated":"2025-10-07T14:18:13Z"}
