{"icao":"LPST","metar":"LPST 211600Z 36012KT CAVOK 14/03 Q1026","updated":"2025-11-21T16:23:36Z"}
