{"icao":"KORD","metar":"KORD 142151Z 20005KT 10SM FEW300 19/09 A2986 RMK AO2 SLP111 T01890094 $","updated":"2025-11-14T22:17:25Z"}
