{"icao":"LPMA","metar":"LPMA 081800Z 02012KT 360V060 9999 BKN015 SCT030 15/08 Q1026","updated":"2026-03-08T18:32:52Z"}
