{"icao":"KORD","metar":"KORD 281351Z 09009KT 10SM FEW018 BKN240 10/06 A3013 RMK AO2 SLP203 T01000056","updated":"2025-10-28T14:18:47Z"}
