{"icao":"LPFL","metar":"LPFL 171100Z 33007KT 300V360 9999 VCSH FEW008 SCT012 21/19 Q1023","updated":"2025-11-17T11:16:53Z"}
