{"icao":"LPFR","metar":"LPFR 160200Z 36006KT CAVOK 17/11 Q1019","updated":"2026-04-16T02:33:40Z"}
