{"icao":"KJFK","metar":"KJFK 082151Z 36008KT 10SM FEW055 BKN075 BKN090 16/03 A2987 RMK AO2 SLP113 T01610028","updated":"2026-05-08T22:03:22Z"}
