{"icao":"LPOV","metar":"LPOV 072100Z 15002KT 110V170 CAVOK 06/06 Q1030","updated":"2026-01-07T21:18:41Z"}
