{"icao":"LPFR","metar":"LPFR 151000Z 23004KT 170V260 CAVOK 25/17 Q1020","updated":"2025-09-15T10:18:29Z"}
