{"icao":"LPFR","metar":"LPFR 211500Z 30014KT 270V330 9999 -SHRA FEW015 FEW020TCU BKN035 12/08 Q1009","updated":"2025-12-21T15:18:02Z"}
