{"icao":"KORD","metar":"KORD 281251Z 30008KT 10SM FEW030 M06/M10 A3033 RMK AO2 SLP282 T10611100","updated":"2025-11-28T13:29:21Z"}
