{"icao":"LPBJ","metar":"LPBJ 221800Z 04003KT CAVOK 10/M00 Q1028","updated":"2025-11-22T18:24:32Z"}
