{"icao":"KLAX","metar":"KLAX 071753Z 25009KT 10SM FEW020 OVC029 21/12 A2985 RMK AO2 SLP106 T02060122 10206 20178 51005 $","updated":"2026-06-07T18:02:54Z"}
