{"icao":"LPPT","metar":"LPPT 170230Z 35004KT 330V040 CAVOK 19/04 Q1020","updated":"2025-09-17T02:54:23Z"}
