{"icao":"KJFK","metar":"KJFK 220551Z 06004KT 10SM SCT250 12/09 A3020 RMK AO2 SLP228 T01170094 10156 20117 56009 $","updated":"2025-09-22T06:27:52Z"}
