{"icao":"LPPR","metar":"LPPR 020330Z 11014KT 9999 SCT048 13/07 Q1004","updated":"2026-01-02T03:38:47Z"}
