{"icao":"KORD","metar":"KORD 310751Z 29005KT 10SM FEW190 BKN250 06/01 A2981 RMK AO2 SLP096 T00560011 $","updated":"2025-10-31T08:23:36Z"}
