{"icao":"LPMA","metar":"LPMA 281600Z 02016G26KT 340V040 9999 BKN015 16/09 Q1025","updated":"2026-02-28T16:25:33Z"}
