{"icao":"LPOV","metar":"LPOV 120900Z 16020G34KT 130V190 9999 FEW018 SCT048 19/13 Q1001","updated":"2025-11-12T09:20:12Z"}
