{"icao":"LPPT","metar":"LPPT 262200Z 32005KT CAVOK 11/06 Q1025","updated":"2025-11-26T22:18:03Z"}
