{"icao":"LPFL","metar":"LPFL 230830Z 21003KT 140V270 9999 FEW020 BKN035 14/07 Q1025","updated":"2026-03-23T08:54:31Z"}
