{"icao":"LPAR","metar":"LPAR 311400Z 06009KT 030V090 CAVOK 25/09 Q1024","updated":"2026-03-31T15:00:09Z"}
