{"icao":"LPMT","metar":"LPMT 251000Z 24008KT 210V270 9999 FEW005 SCT008 BKN020 21/20 Q1014","updated":"2025-10-25T10:16:47Z"}
