{"icao":"LPMT","metar":"LPMT 070300Z 34009KT CAVOK 11/08 Q1018","updated":"2026-03-07T03:59:48Z"}
