{"icao":"LPBJ","metar":"LPBJ 191400Z 34010KT 310V010 9999 SCT041 14/04 Q1027","updated":"2026-02-19T14:48:14Z"}
