{"icao":"LPOV","metar":"LPOV 130700Z 16005KT 9999 SCT023 09/09 Q1020","updated":"2026-04-13T08:01:00Z"}
