{"icao":"LPPR","metar":"LPPR 141900Z 33009KT 300V010 8000 BKN006 BKN012 13/12 Q1015","updated":"2026-03-14T19:25:24Z"}
