{"icao":"LPPD","metar":"LPPD 051130Z 04011KT 010V070 9999 FEW020 BKN035 15/10 Q1027","updated":"2026-05-05T12:00:07Z"}
