{"icao":"KORD","metar":"KORD 161051Z 17008KT 10SM BKN038 OVC045 16/14 A2972 RMK AO2 RAB0955E51 SLP061 P0009 T01560139 $","updated":"2026-04-16T11:01:20Z"}
