{"icao":"LPPR","metar":"LPPR 221800Z 22013KT 190V250 4000 -RA BR BKN003 14/14 Q0996","updated":"2026-01-22T18:31:16Z"}
