{"icao":"LPFR","metar":"LPFR 290130Z VRB01KT CAVOK 08/07 Q1016","updated":"2025-12-29T01:46:17Z"}
