{"icao":"LPPI","metar":"LPPI 192030Z 23016KT 9999 FEW014 20/16 Q1009","updated":"2026-06-19T23:03:25Z"}
