{"icao":"LPPR","metar":"LPPR 021600Z 10008KT 060V120 9999 FEW020 BKN035 15/11 Q1002","updated":"2026-01-02T16:24:15Z"}
