{"icao":"LPMT","metar":"LPMT 190900Z 21005KT 170V240 9999 FEW013 SCT030 22/18 Q1016","updated":"2025-10-19T09:16:01Z"}
