{"icao":"KJFK","metar":"KJFK 071051Z 26005KT 9SM SCT250 M01/M03 A3007 RMK AO2 SLP183 T10061028 $","updated":"2025-12-07T11:14:25Z"}
