{"icao":"LPMA","metar":"LPMA 211230Z 15005KT 120V180 9999 FEW016 19/13 Q1021","updated":"2026-01-21T12:48:22Z"}
