{"icao":"KORD","metar":"KORD 091251Z 25019G33KT 10SM -RA OVC012 06/03 A2958 RMK AO2 PK WND 24037/1229 RAB43 PRESRR SLP019 P0000 T00560033","updated":"2026-01-09T13:36:42Z"}
