{"icao":"LPFR","metar":"LPFR 222000Z 36003KT 330V030 9999 FEW035 16/12 Q1011","updated":"2026-03-22T20:26:15Z"}
