{"icao":"KORD","metar":"KORD 081851Z 07009KT 10SM FEW012 OVC027 07/02 A2985 RMK AO2 SLP110 T00720017 $","updated":"2025-11-08T19:13:24Z"}
