{"icao":"LPHR","metar":"LPHR 300800Z 29010KT 9999 FEW006 SCT009 BKN035 17/15 Q1028","updated":"2025-11-30T08:22:25Z"}
