{"icao":"LPPR","metar":"LPPR 161400Z 29005KT 270V330 9000 NSC 19/16 Q1014","updated":"2025-10-16T14:18:26Z"}
