{"icao":"LPHR","metar":"LPHR 061100Z 22025KT 9000 VCSH FEW010 BKN013 20/18 Q1010","updated":"2025-12-06T11:14:33Z"}
