{"icao":"LPBJ","metar":"LPBJ 202200Z 27008KT 9999 SCT020 19/16 Q1016","updated":"2025-10-20T22:16:06Z"}
