{"icao":"KJFK","metar":"KJFK 010551Z 28017G31KT 10SM FEW060 12/M02 A2970 RMK AO2 PK WND 29033/0537 SLP057 T01171017 10133 20117 53030 $","updated":"2025-11-01T06:24:45Z"}
