{"icao":"KJFK","metar":"KJFK 302251Z 19014KT 10SM FEW060 FEW140 BKN250 26/17 A3002 RMK SLP165 T02560172 $ ","updated":"2026-06-30T23:10:39Z"}
