{"icao":"KJFK","metar":"KJFK 132051Z 23017G26KT 10SM FEW048 SCT150 BKN250 24/12 A2994 RMK AO2 PK WND 24028/2000 SLP137 T02390122 56022","updated":"2026-04-13T20:54:35Z"}
