{"icao":"LPBJ","metar":"LPBJ 021200Z 27021G32KT 9000 -SHRA SCT020CB SCT032 12/05 Q1002 RESHRA","updated":"2026-02-02T12:57:11Z"}
