{"icao":"LPMR","metar":"LPMR 160300Z 36007KT 9999 FEW008 OVC012 17/15 Q1017","updated":"2026-06-16T03:58:05Z"}
