{"icao":"LPMR","metar":"LPMR 161000Z VRB01KT 4000 BR FEW004 18/15 Q1015","updated":"2025-10-16T10:20:06Z"}
