{"icao":"LPHR","metar":"LPHR 221500Z 30020KT 9999 SCT020 SCT040 15/07 Q1019","updated":"2026-01-22T15:29:41Z"}
