{"icao":"LPMA","metar":"LPMA 220200Z 04016KT 010V080 8000 -SHRA BKN013 FEW018CB 16/14 Q0998","updated":"2026-03-22T02:06:59Z"}
