{"icao":"LPAZ","metar":"LPAZ 031300Z 33016KT 9999 FEW009 BKN040 17/14 Q1009","updated":"2026-01-03T13:27:46Z"}
