{"icao":"KJFK","metar":"KJFK 262251Z 21011KT 10SM FEW060 FEW100 SCT250 23/19 A2985 RMK AO2 SLP107 T02280189 $","updated":"2025-09-26T23:15:46Z"}
