{"icao":"KLAX","metar":"KLAX 261453Z 00000KT 10SM FEW120 BKN160 BKN250 12/01 A3025 RMK AO2 SLP243 T01170011 53009 $","updated":"2026-01-26T15:28:22Z"}
