{"icao":"LPLA","metar":"LPLA 210300Z 11003KT 020V150 9999 FEW025 SCT040 19/12 Q1028","updated":"2025-09-21T03:06:01Z"}
