{"icao":"KJFK","metar":"KJFK 021351Z 03010KT 10SM FEW190 BKN250 M04/M17 A3069 RMK AO2 SLP391 T10391172 VISNO W $","updated":"2026-03-02T14:00:37Z"}
