{"icao":"LPPS","metar":"LPPS 221800Z 29017KT 9999 FEW014 18/14 Q1017","updated":"2026-01-22T18:31:54Z"}
