{"icao":"LPLA","metar":"LPLA 032200Z 12003KT 080V140 9999 SCT020 SCT030 17/15 Q1027","updated":"2025-12-03T22:19:17Z"}
