{"icao":"KJFK","metar":"KJFK 291051Z 00000KT 8SM SCT250 21/19 A3006 RMK SLP179 T02060189 $ ","updated":"2026-06-29T10:55:33Z"}
