{"icao":"LPMR","metar":"LPMR 202300Z 13005KT CAVOK 19/10 Q1006","updated":"2026-04-20T23:40:42Z"}
