{"icao":"LPMA","metar":"LPMA 150500Z 32007KT 270V010 9999 BKN015 15/08 Q1024","updated":"2026-01-15T05:24:50Z"}
