{"icao":"KJFK","metar":"KJFK 242251Z 16009KT 10SM FEW070 SCT140 BKN250 11/06 A2986 RMK SLP112 T01060056 $ ","updated":"2026-04-24T23:37:38Z"}
