{"icao":"KJFK","metar":"KJFK 240651Z 24008KT 5SM -RA BR SCT044 BKN060 BKN090 BKN250 22/20 A3000 RMK AO2 RAB49 SLP157 P0000 T02170200 $","updated":"2025-09-24T07:17:15Z"}
