{"icao":"KJFK","metar":"KJFK 180751Z 23007KT 1/4SM R04R/1000V1200FT FG VV002 01/01 A3005 RMK AO2 SLP174 T00060006 $","updated":"2026-02-18T08:42:22Z"}
