{"icao":"LPLA","metar":"LPLA 092000Z 36013KT 8000 -SHRA SCT020 FEW023CB SCT040 14/11 Q1019","updated":"2026-05-09T20:55:22Z"}
