{"icao":"LPHR","metar":"LPHR 201830Z VRB06KT 9000 VCSH SCT012 BKN025 16/10 Q1013","updated":"2026-03-20T18:48:36Z"}
