{"icao":"LPPD","metar":"LPPD 232100Z 21005KT 9999 FEW003 BKN005 22/21 Q1017","updated":"2025-10-23T21:15:28Z"}
