{"icao":"LPPR","metar":"LPPR 170600Z 13003KT 080V170 5000 BR NSC 13/12 Q1014","updated":"2025-10-17T06:26:24Z"}
