{"icao":"LPPT","metar":"LPPT 241130Z 16004KT 090V240 9999 FEW024 20/13 Q1018","updated":"2026-04-24T11:55:26Z"}
