{"icao":"LPPT","metar":"LPPT 220700Z 33006KT 280V010 CAVOK 13/06 Q1020","updated":"2025-09-22T07:18:23Z"}
