{"icao":"LPMA","metar":"LPMA 300900Z 36007KT 320V020 9999 SCT015 19/12 Q1023","updated":"2025-11-30T09:17:49Z"}
