{"icao":"LPMA","metar":"LPMA 100830Z 27004KT CAVOK 16/12 Q1024","updated":"2026-02-10T08:54:18Z"}
