{"icao":"LPPR","metar":"LPPR 020930Z 27009G19KT 240V330 9000 -SHRA SCT015 FEW018CB BKN030 09/06 Q0993 RESHRA","updated":"2026-02-02T09:47:44Z"}
