{"icao":"KJFK","metar":"KJFK 162051Z 06013KT 10SM FEW045 FEW120 BKN190 BKN230 22/08 A3019 RMK AO2 SLP224 T02220078 55006 $","updated":"2025-09-16T21:15:11Z"}
