{"icao":"LPST","metar":"LPST 251000Z 33006KT 7000 SCT006 BKN014 FEW016TCU 13/12 Q1016","updated":"2026-02-25T10:50:20Z"}
