{"icao":"LPMT","metar":"LPMT 021300Z 27005KT 250V310 CAVOK 26/14 Q1020","updated":"2025-10-02T13:25:14Z"}
