{"icao":"KORD","metar":"KORD 202051Z 15004KT 10SM FEW055 BKN110 BKN160 OVC250 23/18 A3003 RMK AO2 SLP166 60000 T02330183 56014","updated":"2025-09-20T21:13:30Z"}
