{"icao":"LPPR","metar":"LPPR 120900Z 11011KT CAVOK 22/10 Q1018","updated":"2025-10-12T09:15:37Z"}
