{"icao":"LPMR","metar":"LPMR 051900Z 33004KT CAVOK 16/13 Q1019","updated":"2025-10-05T19:12:34Z"}
