{"icao":"LPFR","metar":"LPFR 131830Z 29018KT 9999 FEW022 13/09 Q1012","updated":"2026-02-13T18:46:58Z"}
