{"icao":"LPCS","metar":"LPCS 260900Z 24014KT 8000 FEW002 BKN007 15/15 Q1014","updated":"2026-01-26T09:32:56Z"}
