{"icao":"LPLA","metar":"LPLA 211008Z 19015G25KT 3000 RADZ BR BKN008 BKN012 17/15 Q1021","updated":"2026-02-21T10:24:29Z"}
