{"icao":"LPHR","metar":"LPHR 210630Z 05008KT 020V090 8000 -SHRA SCT011 BKN020 13/11 Q1016","updated":"2026-03-21T06:40:59Z"}
