{"icao":"LPPR","metar":"LPPR 072200Z 18003KT 120V230 CAVOK 11/09 Q1019","updated":"2026-03-07T22:21:38Z"}
