{"icao":"LPMA","metar":"LPMA 152000Z 33005KT 260V360 9999 FEW015 20/13 Q1017","updated":"2025-11-15T20:18:19Z"}
