{"icao":"LPPD","metar":"LPPD 300900Z 30007KT 270V330 9999 FEW020 18/14 Q1009","updated":"2025-10-30T09:19:51Z"}
