{"icao":"LPLA","metar":"LPLA 072200Z 12003KT 9999 FEW015 20/18 Q1025","updated":"2025-10-07T22:16:21Z"}
