{"icao":"LPPT","metar":"LPPT 130430Z 34005KT CAVOK 17/13 Q1020"}
