{"icao":"LPPR","metar":"LPPR 241600Z 33010KT CAVOK 22/09 Q1017","updated":"2025-09-24T16:22:39Z"}
