{"icao":"KJFK","metar":"KJFK 302051Z 21010KT 10SM FEW033 BKN055 BKN075 14/10 A2974 RMK SLP069 T01390100 55005 ","updated":"2026-04-30T20:58:49Z"}
