{"icao":"KORD","metar":"KORD 072151Z 01007KT 10SM -TSRA BKN048CB BKN065 BKN250 11/04 A2984 RMK AO2 PK WND 25030/2110 SLP107 OCNL LTGICCG E-S TS E-S MOV SE P0001 T01060039","updated":"2026-05-07T21:56:34Z"}
