{"icao":"LPFL","metar":"LPFL 051130Z VRB04KT 9999 FEW035 BKN040 16/07 Q1030","updated":"2026-05-05T12:00:09Z"}
