{"icao":"LPCS","metar":"LPCS 161500Z 35014KT CAVOK 20/11 Q1020","updated":"2026-04-16T15:24:23Z"}
