{"icao":"LPBJ","metar":"LPBJ 261700Z 09003KT 9999 FEW030 22/15 Q1018","updated":"2025-10-26T17:14:03Z"}
