{"icao":"KJFK","metar":"KJFK 040751Z 25012KT 10SM SCT250 02/M03 A3004 RMK AO2 SLP173 T00221028","updated":"2025-12-04T08:27:50Z"}
