{"icao":"LPPS","metar":"LPPS 302300Z 04012G25KT 360V070 9999 SCT014 BKN030 21/16 Q1023","updated":"2026-06-30T23:10:39Z"}
