{"icao":"LPPR","metar":"LPPR 081700Z 31008KT CAVOK 18/15 Q1021","updated":"2025-10-08T17:15:23Z"}
