{"icao":"KJFK","metar":"KJFK 020451Z 08009G17KT 7SM -RA OVC018 11/09 A3027 RMK AO2 SLP250 P0005 T01110089 402560100 $","updated":"2026-04-02T05:01:31Z"}
