{"icao":"LPPT","metar":"LPPT 272200Z 20003KT 140V220 9999 FEW030 19/16 Q1019","updated":"2025-10-27T22:16:16Z"}
