{"icao":"LPPR","metar":"LPPR 042200Z 35005KT 320V020 7000 BKN002 16/16 Q1024","updated":"2025-10-04T22:14:24Z"}
