{"icao":"LPAR","metar":"LPAR 081500Z 27007KT 230V310 9999 SCT020 BKN030 14/11 Q1031","updated":"2026-01-08T15:24:37Z"}
