{"icao":"LPPR","metar":"LPPR 050900Z 18018KT 3500 TSRA BR SCT013 FEW020CB BKN027 16/15 Q1004 RESHRA","updated":"2025-11-05T09:20:35Z"}
