{"icao":"LPOV","metar":"LPOV 301200Z 22022KT 1500 TSRA BR SCT011 SCT012CB BKN025 14/13 Q1007","updated":"2026-01-30T12:53:02Z"}
