{"icao":"LPPD","metar":"LPPD 111900Z 31012KT 9999 FEW022 FEW025CB 15/08 Q1003","updated":"2025-11-11T19:14:57Z"}
