{"icao":"KJFK","metar":"KJFK 021551Z VRB05KT 10SM FEW250 12/03 A3032 RMK AO2 SLP268 T01220028 $","updated":"2025-11-02T16:19:42Z"}
