{"icao":"LPCS","metar":"LPCS 100800Z 33003KT 9999 FEW014 13/13 Q1019","updated":"2025-11-10T08:27:07Z"}
