{"icao":"LPPS","metar":"LPPS 261300Z 07011KT 040V110 9999 FEW015 SCT030 20/10 Q1023","updated":"2025-11-26T13:33:54Z"}
