{"icao":"LPMT","metar":"LPMT 071600Z 19005KT 130V220 9999 SCT020 18/13 Q1020","updated":"2025-12-07T16:20:49Z"}
