{"icao":"LPOV","metar":"LPOV 181900Z VRB01KT CAVOK 19/13 Q1016","updated":"2025-10-18T19:12:48Z"}
