{"icao":"LPPS","metar":"LPPS 141100Z 01009KT 340V050 9999 SCT015 SCT030 15/10 Q1026","updated":"2026-01-14T11:20:32Z"}
