{"icao":"KORD","metar":"KORD 280951Z 36005KT 10SM SCT070 18/14 A3006 RMK AO2 SLP176 T01780139 $","updated":"2025-09-28T10:16:10Z"}
