{"icao":"LPPR","metar":"LPPR 040800Z VRB02KT 9999 SCT017 SCT022 BKN030 17/16 Q1025","updated":"2025-10-04T08:20:12Z"}
