{"icao":"KORD","metar":"KORD 082251Z 17006KT 10SM FEW075 FEW250 M04/M11 A3024 RMK AO2 SLP251 T10441111","updated":"2025-12-08T23:18:42Z"}
