{"icao":"LPMT","metar":"LPMT 140900Z 24008KT 9999 FEW030 23/17 Q1016","updated":"2026-06-14T09:31:11Z"}
