{"icao":"KJFK","metar":"KJFK 311451Z 33007KT 10SM R04R/3000VP6000FT FEW040 BKN250 M09/M16 A3019 RMK AO2 SLP224 T10891156 58001 $","updated":"2026-01-31T15:22:23Z"}
