{"icao":"LPPS","metar":"LPPS 242100Z 29008KT 9999 FEW015 15/09 Q1027","updated":"2026-01-24T21:17:23Z"}
