{"icao":"LPLA","metar":"LPLA 141500Z 24006KT 200V290 9999 FEW015 SCT022 BKN030 18/14 Q1021","updated":"2026-01-14T15:24:45Z"}
