{"icao":"LPPR","metar":"LPPR 161600Z 13006KT 9999 FEW009 SCT030 10/08 Q1012","updated":"2026-01-16T16:27:24Z"}
