{"icao":"LPAR","metar":"LPAR 311800Z 22008KT 9000 FEW009 BKN018 OVC030 20/19 Q1012","updated":"2025-11-02T07:15:52Z"}
