{"icao":"KORD","metar":"KORD 090051Z 06009KT 6SM -RA BR BKN021 OVC028 06/03 A2984 RMK AO2 SLP107 P0004 T00560033 $","updated":"2025-11-09T01:27:18Z"}
