{"icao":"LPPD","metar":"LPPD 041530Z 24029KT 4000 -SHRA BR FEW007 BKN012 16/14 Q0994","updated":"2026-02-04T15:41:13Z"}
