{"icao":"LPPT","metar":"LPPT 230000Z VRB02KT CAVOK 23/08 Q1020","updated":"2026-05-23T00:05:18Z"}
