{"icao":"LPPS","metar":"LPPS 101730Z 35022KT 5000 -DZ BR BKN010 BKN030 15/14 Q1019","updated":"2026-04-10T17:46:13Z"}
