{"icao":"LPFR","metar":"LPFR 242000Z 07007KT 9000 FEW010 15/14 Q1017","updated":"2026-02-24T20:33:49Z"}
