{"icao":"LPPR","metar":"LPPR 021400Z 29004KT 250V340 9999 FEW023 BKN045 17/12 Q1026","updated":"2025-11-02T14:14:39Z"}
