{"icao":"LPFR","metar":"LPFR 160500Z 02007KT CAVOK 23/15 Q1018","updated":"2025-09-16T05:16:18Z"}
