{"icao":"LPCS","metar":"LPCS 271000Z 06009KT CAVOK 18/12 Q1021","updated":"2025-10-27T10:21:03Z"}
