{"icao":"LPLA","metar":"LPLA 232300Z 34006KT 310V010 9999 FEW022 BKN025 13/08 Q1027","updated":"2026-03-23T23:31:22Z"}
