{"icao":"LPPT","metar":"LPPT 292000Z 32011KT CAVOK 20/11 Q1017","updated":"2025-09-29T20:17:39Z"}
