{"icao":"LPPT","metar":"LPPT 222300Z 33007KT CAVOK 11/05 Q1029","updated":"2025-11-22T23:16:41Z"}
