{"icao":"LPFR","metar":"LPFR 030800Z 32007KT CAVOK 09/06 Q1023","updated":"2025-12-03T08:27:25Z"}
