{"icao":"LPHR","metar":"LPHR 201600Z 25013KT 6000 FEW004 BKN007 23/22 Q1013","updated":"2025-10-20T16:22:27Z"}
