{"icao":"LPPT","metar":"LPPT 291330Z 22014KT 190V250 9999 SCT020 SCT026 17/11 Q1009","updated":"2026-04-29T13:53:04Z"}
