{"icao":"LPPD","metar":"LPPD 281300Z 34015KT 310V030 9999 SCT012 19/13 Q1019","updated":"2025-10-28T13:29:32Z"}
