{"icao":"LPPD","metar":"LPPD 092330Z 36017G27KT 9000 SHRA FEW018 FEW020CB BKN030 13/11 Q1018","updated":"2026-05-09T23:45:55Z"}
