{"icao":"LPPT","metar":"LPPT 220100Z 24005KT 210V270 9999 -DZ FEW010 BKN028 20/19 Q1017","updated":"2025-10-22T01:23:22Z"}
