{"icao":"KJFK","metar":"KJFK 021151Z 02003KT 10SM SCT250 06/01 A3027 RMK AO2 SLP250 T00610011 10083 20039 51017 $","updated":"2025-11-02T12:33:05Z"}
