{"icao":"LPPD","metar":"LPPD 242300Z 02003KT 340V060 9999 FEW017 BKN035 13/08 Q1023","updated":"2025-12-24T23:18:27Z"}
