{"icao":"KORD","metar":"KORD 130751Z 28005KT 10SM FEW250 04/M03 A3011 RMK AO2 SLP198 T00441028 $","updated":"2025-11-13T08:25:53Z"}
