{"icao":"LPMA","metar":"LPMA 020130Z 24008KT 210V270 9999 SCT014 FEW018TCU 17/13 Q1000","updated":"2026-01-02T01:41:17Z"}
