{"icao":"LPMR","metar":"LPMR 190300Z VRB02KT 3500 -RA BR FEW008 BKN035 12/11 Q1019","updated":"2025-12-19T03:22:45Z"}
