{"icao":"KJFK","metar":"KJFK 031751Z 17010KT 10SM BKN029 BKN042 BKN180 14/09 A3001 RMK AO2 SLP163 T01390089 10161 20094 58047 $","updated":"2025-11-03T18:27:05Z"}
