{"icao":"LPAZ","metar":"LPAZ 140700Z 23004KT 200V260 9999 FEW016 12/10 Q1032","updated":"2026-02-14T07:32:55Z"}
