{"icao":"LPOV","metar":"LPOV 051100Z 16009KT 9999 FEW014 SCT025 BKN040 17/16 Q1005","updated":"2025-11-05T11:16:15Z"}
