{"icao":"KJFK","metar":"KJFK 231551Z 26016KT 10SM FEW055 FEW120 16/04 A2993 RMK AO2 SLP136 T01560039","updated":"2025-10-23T16:23:00Z"}
