{"icao":"KJFK","metar":"KJFK 181551Z 19021KT 10SM FEW050 BKN120 OVC250 23/20 A2958 RMK AO2 PK WND 19029/1540 RAE25 SLP016 P0000 T02280200","updated":"2026-06-18T16:29:51Z"}
