{"icao":"KJFK","metar":"KJFK 261051Z 03009KT 10SM BKN016 BKN021 OVC060 06/04 A3007 RMK SLP182 T00560044 $ ","updated":"2026-04-26T11:37:55Z"}
