{"icao":"LPOV","metar":"LPOV 151800Z 34012KT CAVOK 19/16 Q1022","updated":"2025-09-15T18:24:55Z"}
