{"icao":"LPFR","metar":"LPFR 042000Z 28005KT 260V320 CAVOK 23/12 Q1020","updated":"2025-10-04T20:16:45Z"}
