{"icao":"LPPS","metar":"LPPS 161600Z 19010KT 9999 FEW011 SCT030 22/19 Q1014","updated":"2025-10-16T16:23:29Z"}
