{"icao":"LPMA","metar":"LPMA 261630Z 02016KT 340V050 9999 FEW016 20/11 Q1017","updated":"2026-04-26T16:41:07Z"}
