{"icao":"LPPR","metar":"LPPR 120930Z 20008KT 170V260 9999 SCT015 FEW020CB 17/12 Q1018","updated":"2026-05-12T09:36:43Z"}
