{"icao":"LPLA","metar":"LPLA 181225Z 31016KT 3500 -DZ BR SCT003 OVC010 16/16 Q1030","updated":"2026-01-18T12:37:46Z"}
