{"icao":"LPAZ","metar":"LPAZ 301800Z 20009KT 9999 BKN006 BKN011 23/21 Q1022","updated":"2025-09-30T18:23:18Z"}
