{"icao":"LPPS","metar":"LPPS 160800Z 23002KT 9999 FEW015 20/19 Q1016","updated":"2025-10-16T08:25:56Z"}
