{"icao":"KLAX","metar":"KLAX 012053Z 26012KT 10SM FEW045 FEW070 21/13 A2994 RMK AO2 SLP135 T02060128 56013","updated":"2026-05-01T21:52:09Z"}
