{"icao":"LPPR","metar":"LPPR 160900Z VRB02KT 3500 BR BCFG NSC 15/15 Q1016","updated":"2025-10-16T09:19:44Z"}
