{"icao":"LPCS","metar":"LPCS 221000Z 24007KT 9999 -RA FEW022 BKN040 13/11 Q1010","updated":"2026-01-22T10:26:16Z"}
