{"icao":"LPMA","metar":"LPMA 121700Z 02012KT 340V050 9999 SCT015 17/07 Q1026","updated":"2026-04-12T17:33:18Z"}
