{"icao":"LPCS","metar":"LPCS 021000Z 05003KT 330V100 CAVOK 25/15 Q1022","updated":"2025-10-02T10:17:15Z"}
