{"icao":"LPPT","metar":"LPPT 191300Z 20013KT 9999 FEW022 BKN030 23/16 Q1015","updated":"2025-10-19T13:21:24Z"}
