{"icao":"LPPR","metar":"LPPR 012000Z 00000KT 7000 FEW022 SCT030 14/14 Q1022","updated":"2025-11-01T20:17:12Z"}
