{"icao":"LPOV","metar":"LPOV 201800Z 34009KT CAVOK 18/14 Q1021","updated":"2025-09-20T18:21:25Z"}
