{"icao":"LPFL","metar":"LPFL 012100Z 35022G33KT 9999 FEW025 SCT030 12/03 Q1032","updated":"2026-03-02T06:56:14Z"}
