{"icao":"LPFR","metar":"LPFR 242230Z 07008KT CAVOK 23/12 Q1020","updated":"2026-05-24T22:56:56Z"}
