{"icao":"LPPS","metar":"LPPS 031930Z 19008KT 140V210 9999 SCT006 18/16 Q1016","updated":"2026-05-03T19:55:45Z"}
