{"icao":"LPAZ","metar":"LPAZ 311800Z 01009KT 340V040 9999 FEW029 18/13 Q1011","updated":"2025-10-31T18:26:53Z"}
