{"icao":"LPPR","metar":"LPPR 032300Z 00000KT CAVOK 11/09 Q1023","updated":"2026-04-03T23:32:12Z"}
