{"icao":"LPFL","metar":"LPFL 020730Z 10005KT 020V160 9999 SCT014 16/13 Q1020","updated":"2026-05-02T07:41:55Z"}
