{"icao":"LPMA","metar":"LPMA 011400Z 21018KT 9999 FEW015 SCT070 20/12 Q1018","updated":"2026-02-01T14:24:54Z"}
