{"icao":"LPMT","metar":"LPMT 011400Z 32003KT 280V350 CAVOK 16/10 Q1020","updated":"2026-03-01T14:22:31Z"}
