{"icao":"LPFR","metar":"LPFR 261700Z 25006KT CAVOK 23/17 Q1018","updated":"2025-09-26T17:14:49Z"}
