{"icao":"LPMA","metar":"LPMA 101230Z 06005KT 340V120 9999 FEW016 23/15 Q1021","updated":"2025-11-10T12:38:38Z"}
