{"icao":"LPFL","metar":"LPFL 061800Z VRB08G21KT 9999 SCT026 18/10 Q1015","updated":"2025-11-06T18:27:58Z"}
