{"icao":"LPPR","metar":"LPPR 071900Z 12007KT 9999 FEW021 12/08 Q1013","updated":"2026-04-07T19:17:09Z"}
