{"icao":"KJFK","metar":"KJFK 010251Z 26013KT 10SM OVC012 06/04 A3010 RMK AO2 SLP192 60000 T00560039 55001 $","updated":"2025-12-01T03:50:14Z"}
