{"icao":"LPBJ","metar":"LPBJ 091200Z 35010KT 320V020 CAVOK 27/12 Q1018","updated":"2026-06-09T12:35:27Z"}
