{"icao":"LPMT","metar":"LPMT 212300Z 03009KT CAVOK 09/05 Q1030","updated":"2025-11-21T23:16:38Z"}
