{"icao":"LPPR","metar":"LPPR 112200Z 17018KT 9999 BKN035 18/14 Q1005","updated":"2025-11-11T22:17:48Z"}
