{"icao":"KJFK","metar":"KJFK 180513Z 01005KT 4SM -DZ BR SCT005 BKN011 OVC022 18/18 A3000 RMK AO2 P0001 T01830178 $","updated":"2025-09-18T05:16:07Z"}
