{"icao":"KORD","metar":"KORD 060651Z 27003KT 10SM SCT044 BKN055 BKN100 07/04 A3013 RMK AO2 RAE08 TSE0553 SLP205 P0002 T00670039 $","updated":"2026-04-06T07:28:30Z"}
