{"icao":"LPPR","metar":"LPPR 101530Z 31008KT CAVOK 19/14 Q1012","updated":"2026-04-10T15:52:01Z"}
