{"icao":"LPFL","metar":"LPFL 151700Z 18008KT 140V200 9999 FEW023 17/12 Q1016","updated":"2025-11-15T17:13:47Z"}
