{"icao":"KORD","metar":"KORD 202051Z 26016G35KT 10SM OVC017 M01/M05 A2970 RMK AO2 PK WND 25038/2023 SLP062 60000 T10111050 53044","updated":"2026-02-20T21:23:33Z"}
