{"icao":"LPST","metar":"LPST 241400Z 26014KT 7000 BKN011 BKN028 16/15 Q1017","updated":"2025-11-24T14:19:03Z"}
