{"icao":"LPAZ","metar":"LPAZ 232130Z 20006KT 0650 R18/0650 FG VV001 18/18 Q1025","updated":"2026-05-23T21:55:18Z"}
