{"icao":"LPPR","metar":"LPPR 151800Z 03008KT 350V050 9999 -RA FEW009 11/09 Q1004","updated":"2025-12-15T18:30:13Z"}
