{"icao":"LPLA","metar":"LPLA 012213Z 30032G43KT 8000 -SHRA BKN020 10/06 Q1011","updated":"2026-02-01T22:22:52Z"}
