{"icao":"LPPT","metar":"LPPT 271600Z VRB03G16KT 9999 FEW035 24/15 Q1018","updated":"2025-10-27T16:23:59Z"}
