{"icao":"LPFL","metar":"LPFL 141500Z 33009KT 9999 SCT025 16/10 Q1009","updated":"2025-11-14T15:17:13Z"}
