{"icao":"LPAZ","metar":"LPAZ 132100Z 30008KT 9999 FEW027 14/09 Q1027","updated":"2026-01-13T21:20:24Z"}
