{"icao":"LPPR","metar":"LPPR 281900Z 34009KT CAVOK 11/08 Q1025","updated":"2026-02-28T19:19:25Z"}
