{"icao":"LPPS","metar":"LPPS 052100Z 31008KT 9999 SCT014 SCT033 20/12 Q1021","updated":"2025-11-05T21:17:38Z"}
