{"icao":"LPCS","metar":"LPCS 121130Z 24007KT 210V280 9999 FEW008 BKN018 15/13 Q1021","updated":"2026-02-12T11:38:16Z"}
