{"icao":"LPFR","metar":"LPFR 011630Z 24008KT CAVOK 19/09 Q1020","updated":"2026-04-01T16:53:18Z"}
