{"icao":"LPMA","metar":"LPMA 061930Z 26003KT 210V280 9999 FEW015 16/09 Q1020","updated":"2026-02-06T19:36:54Z"}
