{"icao":"KORD","metar":"KORD 051751Z 20010G22KT 10SM SCT300 27/11 A3008 RMK AO2 SLP179 T02720106 10272 20183 58015 $","updated":"2025-10-05T18:21:59Z"}
