{"icao":"LPAZ","metar":"LPAZ 180900Z 25013KT 9000 FEW002 BKN004 23/22 Q1016","updated":"2025-10-18T09:16:41Z"}
