{"icao":"LPFR","metar":"LPFR 050530Z 30005KT 9999 FEW030 11/08 Q1007","updated":"2026-01-05T05:34:38Z"}
