{"icao":"LPOV","metar":"LPOV 311000Z 00000KT CAVOK 07/07 Q1020","updated":"2025-12-31T10:20:54Z"}
