{"icao":"LPPS","metar":"LPPS 211230Z 34015KT 9999 SCT014 18/13 Q1020","updated":"2025-12-21T12:37:11Z"}
