{"icao":"LPPT","metar":"LPPT 302200Z 30010KT 270V330 9999 FEW016 SCT034 13/09 Q1015 WS R20","updated":"2026-01-30T22:24:09Z"}
