{"icao":"KORD","metar":"KORD 031551Z 23005KT 10SM CLR 27/16 A3020 RMK AO2 SLP224 T02720156","updated":"2025-10-03T16:20:42Z"}
