{"icao":"KJFK","metar":"KJFK 122251Z 19018G26KT 10SM FEW250 13/04 A3011 RMK AO2 PK WND 19028/2209 SLP195 T01280039","updated":"2026-05-12T22:59:07Z"}
