{"icao":"LPPS","metar":"LPPS 062100Z 03012KT 350V050 9999 FEW015 BKN030 14/04 Q1027","updated":"2026-03-06T21:28:38Z"}
