{"icao":"KORD","metar":"KORD 261451Z 16005KT 10SM FEW080 SCT250 M01/M07 A2990 RMK AO2 SLP134 T10111072 53010","updated":"2026-02-26T15:52:33Z"}
