{"icao":"KJFK","metar":"KJFK 061251Z 22005KT 10SM FEW015 19/17 A3032 RMK AO2 SLP265 T01940167","updated":"2025-10-06T13:27:35Z"}
