{"icao":"LPMR","metar":"LPMR 071200Z 29004KT 250V330 9999 FEW010 BKN020 19/15 Q1023","updated":"2025-10-07T12:37:11Z"}
