{"icao":"KJFK","metar":"KJFK 172251Z 31014G25KT 10SM FEW055 06/M08 A2989 RMK AO2 PK WND 29029/2152 SLP122 T00561083 $","updated":"2025-11-17T23:17:07Z"}
