{"icao":"LPOV","metar":"LPOV 211600Z 35010KT CAVOK 24/18 Q1017","updated":"2026-06-21T16:44:11Z"}
