{"icao":"LPOV","metar":"LPOV 021600Z 34021KT CAVOK 17/10 Q1021","updated":"2026-04-02T17:04:49Z"}
