{"icao":"LPOV","metar":"LPOV 151900Z VRB02KT 0300 FG BKN002 15/14 Q1016","updated":"2025-10-15T19:13:56Z"}
