{"icao":"LPPT","metar":"LPPT 181600Z 29011KT 250V340 9999 FEW038 18/08 Q1020","updated":"2026-05-18T16:20:49Z"}
