{"icao":"LPST","metar":"LPST 251700Z 29009KT 9999 FEW012 17/13 Q1018","updated":"2026-03-25T21:37:54Z"}
