{"icao":"KLAX","metar":"KLAX 230853Z 06004KT 10SM CLR 14/09 A2997 RMK AO2 SLP146 T01390089 51005","updated":"2025-11-23T09:17:51Z"}
