{"icao":"KJFK","metar":"KJFK 211251Z 08009KT 10SM FEW030 BKN250 18/11 A3034 RMK AO2 SLP273 T01780111 $","updated":"2025-09-21T13:20:34Z"}
