{"icao":"LPFR","metar":"LPFR 110800Z 05009KT 9999 FEW012 FEW018CB 14/12 Q1021","updated":"2025-12-11T22:19:23Z"}
