{"icao":"KJFK","metar":"KJFK 152151Z 10014G22KT 10SM SCT060 OVC080 05/01 A3036 RMK AO2 PK WND 10026/2139 SLP281 T00500006","updated":"2026-03-15T22:27:05Z"}
