{"icao":"LPCS","metar":"LPCS 252030Z 01013KT 9999 FEW012 13/12 Q1019","updated":"2026-02-25T21:33:49Z"}
