{"icao":"LPPS","metar":"LPPS 021700Z 08008KT 030V110 9999 SCT015 23/18 Q1020","updated":"2025-10-02T17:13:01Z"}
