{"icao":"LPPT","metar":"LPPT 282300Z 25021G31KT 7000 -DZ FEW004 BKN005 16/16 Q1006","updated":"2026-01-28T23:24:52Z"}
