{"icao":"LPAZ","metar":"LPAZ 121230Z 32008KT 290V020 9999 FEW030 17/09 Q1034","updated":"2025-12-12T12:40:56Z"}
