{"icao":"LPPD","metar":"LPPD 091430Z 32015KT 290V350 9999 SCT018 FEW020TCU 15/10 Q1014","updated":"2026-05-09T14:49:14Z"}
