{"icao":"LPLA","metar":"LPLA 291600Z 25011KT 220V280 9999 FEW028 20/13 Q1012","updated":"2025-10-29T16:24:38Z"}
