{"icao":"LPAR","metar":"LPAR 161400Z 36008KT 320V060 CAVOK 31/16 Q1016","updated":"2026-06-16T15:08:44Z"}
