{"icao":"KJFK","metar":"KJFK 031651Z 19009KT 10SM SCT035 BKN070 BKN180 15/07 A3005 RMK AO2 PRESFR SLP177 T01500067 $","updated":"2025-11-03T17:17:10Z"}
