{"icao":"LPFL","metar":"LPFL 231700Z 35005KT 300V090 9999 FEW030 15/07 Q1026","updated":"2026-01-23T17:24:57Z"}
