{"icao":"KORD","metar":"KORD 031051Z 32006KT 10SM OVC110 M06/M15 A3002 RMK AO2 SLP176 T10611150 $","updated":"2026-01-03T11:16:16Z"}
