{"icao":"KORD","metar":"KORD 051051Z 20007KT 10SM FEW250 01/M04 A2979 RMK AO2 SLP095 T00061044 $","updated":"2026-01-05T11:18:36Z"}
