{"icao":"KORD","metar":"KORD 102051Z 31006KT 10SM BKN024 BKN035 11/05 A3029 RMK AO2 SLP260 T01060050 51008","updated":"2026-04-10T21:36:21Z"}
