{"icao":"KORD","metar":"KORD 042251Z 17008KT 10SM BKN130 BKN210 OVC250 M01/M09 A3006 RMK AO2 SLP187 T10061089 $","updated":"2026-01-04T23:19:00Z"}
