{"icao":"KLAX","metar":"KLAX 132053Z 26005KT 8SM SCT055 BKN070 BKN140 21/16 A3002 RMK AO2 SLP164 T02060161 56016","updated":"2025-11-13T21:17:16Z"}
