{"icao":"LPPR","metar":"LPPR 241300Z 30006KT 270V330 9999 FEW022 17/12 Q1018","updated":"2026-04-24T13:22:54Z"}
