{"icao":"KJFK","metar":"KJFK 061551Z 06005KT 9SM FEW050 BKN190 OVC250 04/M01 A2998 RMK AO2 SLP152 T00391006 $","updated":"2026-01-06T16:27:41Z"}
