{"icao":"LPFR","metar":"LPFR 012100Z 20013KT 9999 SCT012 SCT018 BKN040 16/14 Q1010","updated":"2026-02-01T21:21:42Z"}
