{"icao":"KORD","metar":"KORD 100356Z 31016G25KT 10SM FEW012 FEW024 OVC060 M03/M06 A3016 RMK AO2 SNE55 P0000 T10331061 $","updated":"2025-11-10T04:26:13Z"}
