{"icao":"LPMR","metar":"LPMR 290300Z 36007KT 330V040 9999 SCT009 BKN013 17/14 Q1021","updated":"2026-05-29T03:28:52Z"}
