{"icao":"LPPR","metar":"LPPR 220530Z 01002KT 8000 NSC 05/04 Q1028","updated":"2026-02-22T05:50:33Z"}
