{"icao":"LPMT","metar":"LPMT 050800Z 21014KT 180V250 3000 +TSRA BKN012 SCT014CB BKN016 21/19 Q1006 RETSRA","updated":"2025-11-05T08:25:15Z"}
