{"icao":"KJFK","metar":"KJFK 202051Z 19013KT 10SM SCT070 SCT095 26/16 A2990 RMK AO2 SLP123 CB DSNT N TCU DSNT NE AND DSNT W T02610161 56008","updated":"2026-05-20T21:51:37Z"}
