{"icao":"LPMA","metar":"LPMA 111830Z 02016KT 6000 -RADZ BKN013 16/13 Q1023","updated":"2026-04-11T18:42:14Z"}
