{"icao":"LPMA","metar":"LPMA 240130Z 31012KT 260V010 9999 SCT016 16/06 Q1023","updated":"2026-01-24T01:39:00Z"}
