{"icao":"LPPR","metar":"LPPR 012300Z VRB01KT 9999 FEW022 SCT030 12/12 Q1022","updated":"2025-11-01T23:15:51Z"}
