{"icao":"LPFL","metar":"LPFL 241000Z VRB07KT 9999 VCSH FEW007 BKN011 19/17 Q1024","updated":"2025-11-24T10:21:57Z"}
