{"icao":"KJFK","metar":"KJFK 302151Z 11012KT 10SM BKN011 OVC036 17/16 A2949 RMK AO2 PK WND 09030/2111 RAE29 SLP986 P0004 T01670156","updated":"2025-10-30T22:17:50Z"}
