{"icao":"LPPT","metar":"LPPT 172200Z 02004KT 350V070 CAVOK 20/12 Q1016","updated":"2025-10-17T22:15:52Z"}
