{"icao":"LPBJ","metar":"LPBJ 171900Z 11001KT CAVOK 12/09 Q1022","updated":"2025-12-17T19:18:41Z"}
