{"icao":"KLAX","metar":"KLAX 290253Z 25005KT 10SM SCT007 16/14 A3000 RMK AO2 SLP159 T01560139 53008 $","updated":"2025-11-29T03:10:30Z"}
