{"icao":"LPAR","metar":"LPAR 101300Z 35006KT 9999 -SHRA FEW020 16/12 Q1021","updated":"2025-12-10T13:36:19Z"}
