{"icao":"LPMT","metar":"LPMT 081500Z 31004KT 250V350 9999 SCT045 16/09 Q1021","updated":"2026-03-08T15:22:23Z"}
