{"icao":"KORD","metar":"KORD 290451Z 00000KT 10SM BKN110 OVC250 M03/M09 A3038 RMK AO2 SLP296 T10281094 $","updated":"2025-11-29T05:18:19Z"}
