{"icao":"LPPR","metar":"LPPR 042200Z 17022G32KT 9999 FEW045 23/12 Q1007","updated":"2025-11-04T22:16:31Z"}
