{"icao":"KLAX","metar":"KLAX 141253Z 07004KT 10SM FEW018 12/10 A3009 RMK AO2 SLP189 T01170100","updated":"2026-02-14T13:42:51Z"}
