{"icao":"LPMA","metar":"LPMA 041100Z 21020KT 9999 FEW013 24/18 Q1015","updated":"2025-11-04T11:17:01Z"}
