{"icao":"LPMT","metar":"LPMT 042000Z 16006KT 130V190 9999 SCT025 21/15 Q1013","updated":"2025-11-04T20:20:53Z"}
