{"icao":"KLAX","metar":"KLAX 220906Z 21006KT 2 1/2SM BR FEW002 OVC003 19/18 A2986 RMK AO2 VIS SW-W 2 T01890178 $","updated":"2025-09-22T09:21:39Z"}
