{"icao":"LPCS","metar":"LPCS 101930Z 34007KT 310V020 9999 FEW004 16/13 Q1013","updated":"2026-04-10T19:42:14Z"}
