{"icao":"LPMR","metar":"LPMR 030200Z 02005KT 1200 BR OVC003 15/15 Q1023","updated":"2025-10-03T02:55:14Z"}
