{"icao":"LPPT","metar":"LPPT 311600Z 21013KT 5000 -RADZ BR FEW004 BKN006 19/18 Q1013 WS R20","updated":"2025-10-31T16:22:35Z"}
