{"icao":"KJFK","metar":"KJFK 090051Z 36006KT 10SM FEW070 16/04 A3017 RMK AO2 SLP217 T01610044","updated":"2025-10-09T01:18:29Z"}
