{"icao":"LPPT","metar":"LPPT 020500Z 36003KT CAVOK 13/12 Q1024","updated":"2025-11-02T05:17:07Z"}
