{"icao":"LPCS","metar":"LPCS 151000Z 27006KT 230V310 9999 FEW010 BKN018 12/11 Q1032","updated":"2026-02-15T10:25:22Z"}
