{"icao":"LPAZ","metar":"LPAZ 011600Z 05011KT 010V080 9999 FEW030 SCT042 20/10 Q1019","updated":"2025-11-01T16:19:21Z"}
