{"icao":"KLAX","metar":"KLAX 230953Z 12004KT 10SM FEW120 12/09 A2997 RMK AO2 SLP147 T01220089","updated":"2025-11-23T10:17:55Z"}
