{"icao":"LPPS","metar":"LPPS 052200Z 03013G24KT 360V070 9999 SCT015 SCT030 15/07 Q1024","updated":"2026-01-05T22:19:44Z"}
