{"icao":"LPFR","metar":"LPFR 060400Z 01002KT 9999 FEW008 12/12 Q1024","updated":"2025-12-06T04:20:44Z"}
