{"icao":"LPMA","metar":"LPMA 121030Z 01017G28KT 340V040 9999 SCT015 16/07 Q1027","updated":"2026-04-12T10:37:15Z"}
