{"icao":"KORD","metar":"KORD 280751Z 27007KT 10SM CLR M16/M21 A3023 RMK AO2 SLP254 T11611211","updated":"2026-01-28T08:30:44Z"}
