{"icao":"LPHR","metar":"LPHR 020900Z 34013G25KT 300V020 9999 VCSH FEW010 SCT022 14/09 Q1010","updated":"2026-01-02T09:23:46Z"}
