{"icao":"LPMT","metar":"LPMT 211800Z 33009KT CAVOK 27/18 Q1016","updated":"2026-06-21T18:18:45Z"}
