{"icao":"LPMA","metar":"LPMA 232330Z 01016G30KT 9999 FEW015 19/12 Q1022","updated":"2026-05-23T23:56:09Z"}
