{"icao":"LPPD","metar":"LPPD 201730Z 02017KT 340V060 9999 BKN018 FEW022TCU 15/10 Q1007","updated":"2026-03-20T17:34:27Z"}
