{"icao":"LPFR","metar":"LPFR 070500Z VRB01KT CAVOK 07/01 Q1026","updated":"2026-01-07T05:24:06Z"}
