{"icao":"KORD","metar":"KORD 292051Z 19012G20KT 10SM SCT065 BKN080 BKN250 17/M04 A3006 RMK AO2 SLP181 T01721039 56025 $","updated":"2026-03-29T21:30:32Z"}
