{"icao":"LPAZ","metar":"LPAZ 281900Z 24023KT 6000 SCT012 SCT040 17/16 Q1011","updated":"2026-01-28T19:27:00Z"}
