{"icao":"KJFK","metar":"KJFK 160851Z 14006KT 10SM SCT170 BKN250 18/14 A2988 RMK AO2 SLP117 T01780139 50004","updated":"2026-04-16T09:18:00Z"}
