{"icao":"LPCS","metar":"LPCS 210700Z 01010KT CAVOK 10/03 Q1026","updated":"2025-11-21T07:18:28Z"}
