{"icao":"LPCS","metar":"LPCS 231200Z 22005KT 180V250 9999 FEW018 SCT030 16/12 Q1027","updated":"2025-11-23T12:32:48Z"}
