{"icao":"KJFK","metar":"KJFK 261951Z 22003KT 10SM BKN090 OVC170 M03/M17 A3015 RMK AO2 SLP207 T10281167 $","updated":"2025-12-26T20:20:36Z"}
