{"icao":"LPAZ","metar":"LPAZ 261800Z 06015KT 9000 FEW010 BKN020 FEW022TCU 18/15 Q1017","updated":"2025-10-26T18:23:39Z"}
