{"icao":"LPBJ","metar":"LPBJ 100300Z 30005KT 3000 VCFG BKN004 OVC022 13/13 Q1019","updated":"2025-12-10T03:21:14Z"}
