{"icao":"LPHR","metar":"LPHR 251100Z 26007KT 230V290 9999 FEW006 SCT009 19/18 Q1027","updated":"2025-11-25T11:16:45Z"}
