{"icao":"LPMT","metar":"LPMT 270600Z 02004KT CAVOK 15/13 Q1013","updated":"2026-04-27T08:22:23Z"}
