{"icao":"KLAX","metar":"KLAX 041953Z 27007KT 8SM FEW009 SCT019 21/15 A2990 RMK AO2 SLP124 T02110150 $","updated":"2026-06-04T20:03:32Z"}
