{"icao":"LPCS","metar":"LPCS 011100Z 20005KT 140V240 CAVOK 26/14 Q1021","updated":"2025-10-01T11:15:43Z"}
