{"icao":"LPOV","metar":"LPOV 221900Z 33008KT CAVOK 15/11 Q1013","updated":"2026-04-22T20:03:58Z"}
