{"icao":"KJFK","metar":"KJFK 200751Z 04010KT 10SM CLR 18/08 A3015 RMK AO2 SLP209 T01780083 $","updated":"2025-09-20T08:20:14Z"}
