{"icao":"LPMR","metar":"LPMR 131900Z 29009KT CAVOK 24/14 Q1016","updated":"2026-06-13T20:13:43Z"}
