{"icao":"LPFR","metar":"LPFR 190530Z 10012KT 9999 -RA FEW015 SCT025 BKN038 15/14 Q1004 RERA","updated":"2026-03-19T05:57:07Z"}
