{"icao":"LPPS","metar":"LPPS 222200Z 08008KT 040V100 9999 SCT014 BKN030 23/19 Q1022","updated":"2025-10-22T22:14:32Z"}
