{"icao":"LPOV","metar":"LPOV 060800Z 01003KT CAVOK 17/11 Q1020","updated":"2025-10-06T08:23:47Z"}
