{"icao":"LPPT","metar":"LPPT 281900Z 21014KT 5000 DZ FEW003 BKN004 14/13 Q1005","updated":"2026-01-28T19:26:57Z"}
