{"icao":"KORD","metar":"KORD 101315Z 22008KT 4SM -RA BR OVC011 03/02 A2997 RMK AO2 P0001 T00330017","updated":"2026-01-10T13:28:24Z"}
