{"icao":"LPLA","metar":"LPLA 260128Z 30016KT 9999 -RA FEW012 BKN035 14/12 Q1006","updated":"2026-01-26T01:50:13Z"}
