{"icao":"LPMT","metar":"LPMT 131400Z 27008KT 240V310 9999 FEW032 26/14 Q1015","updated":"2025-10-13T14:18:37Z"}
