{"icao":"KJFK","metar":"KJFK 041151Z 27013KT 10SM FEW110 BKN250 01/M04 A3002 RMK AO2 SLP165 T00111044 10022 20006 55004","updated":"2025-12-04T12:42:20Z"}
