{"icao":"LPBJ","metar":"LPBJ 081300Z 30010KT 270V330 9999 FEW030 22/11 Q1021","updated":"2025-10-08T13:28:27Z"}
