{"icao":"LPPS","metar":"LPPS 091330Z 02018KT 9999 FEW014 FEW016TCU 17/13 Q1020","updated":"2026-04-09T13:47:43Z"}
