{"icao":"LPOV","metar":"LPOV 171400Z 20003KT 150V240 9999 FEW016 FEW020CB BKN045 11/08 Q1010","updated":"2026-01-17T14:17:51Z"}
