{"icao":"LPOV","metar":"LPOV 220600Z 30004KT 9999 FEW035 10/07 Q1007","updated":"2026-01-22T06:33:34Z"}
