{"icao":"LPFL","metar":"LPFL 181900Z 35009KT 290V010 9999 SCT028 14/09 Q1033","updated":"2026-01-18T19:15:25Z"}
