{"icao":"KLAX","metar":"KLAX 302253Z 26008KT 10SM FEW016 FEW024 SCT200 BKN260 17/11 A2995 RMK AO2 SLP140 T01670111 $","updated":"2025-11-30T23:17:20Z"}
