{"icao":"LPAZ","metar":"LPAZ 281500Z 08008KT 040V110 9999 FEW017 BKN025 16/11 Q1032","updated":"2026-03-28T15:29:26Z"}
