{"icao":"LPFL","metar":"LPFL 241930Z 17013KT 9999 FEW009 19/17 Q1018","updated":"2026-05-25T05:18:18Z"}
