{"icao":"LPBJ","metar":"LPBJ 131900Z 33008KT CAVOK 26/11 Q1020","updated":"2025-09-13T19:11:37Z"}
