{"icao":"KORD","metar":"KORD 162051Z 20017G25KT 10SM FEW250 04/M03 A2976 RMK AO2 SLP084 T00441033 56037","updated":"2025-12-16T21:19:44Z"}
