{"icao":"LPPT","metar":"LPPT 201900Z 31007KT 280V340 CAVOK 25/12 Q1020","updated":"2026-05-20T19:22:55Z"}
