{"icao":"LPPS","metar":"LPPS 162200Z 18010KT 9999 FEW014 22/18 Q1013","updated":"2025-10-16T22:13:38Z"}
