{"icao":"KJFK","metar":"KJFK 280751Z 00000KT 10SM -RA OVC075 19/18 A3000 RMK AO2 SLP160 P0003 T01940178","updated":"2025-09-28T08:19:59Z"}
