{"icao":"LPPR","metar":"LPPR 121300Z 14013KT 8000 RADZ SCT005 SCT018CB BKN035 15/14 Q1003","updated":"2025-11-12T13:32:04Z"}
