{"icao":"KORD","metar":"KORD 061851Z 24008G15KT 10SM SCT050 BKN075 BKN250 28/16 A3005 RMK AO2 SLP169 TCU DSNT N-NE T02830156 $","updated":"2025-10-06T19:14:15Z"}
