{"icao":"KORD","metar":"KORD 141651Z 07005KT 10SM BKN300 17/M01 A3009 RMK AO2 SLP191 T01721006 $","updated":"2026-05-14T16:59:29Z"}
