{"icao":"LPMT","metar":"LPMT 111900Z 36017G29KT 9999 SCT030 13/07 Q1015","updated":"2026-04-12T07:12:22Z"}
