{"icao":"LPPS","metar":"LPPS 141100Z 03012KT 9999 FEW015 BKN030 16/08 Q1032","updated":"2026-02-14T11:21:03Z"}
