{"icao":"LPPD","metar":"LPPD 270500Z 04007KT 360V070 9999 FEW018 BKN025 13/09 Q1028","updated":"2026-03-27T05:05:27Z"}
