{"icao":"KLAX","metar":"KLAX 010453Z 25003KT 10SM CLR 18/09 A3005 RMK AO2 SLP172 T01780094 $","updated":"2026-02-01T04:59:47Z"}
