{"icao":"LPBJ","metar":"LPBJ 011100Z 07006KT 020V140 9999 FEW040 27/13 Q1021","updated":"2025-10-01T11:15:44Z"}
