{"icao":"LPPT","metar":"LPPT 030230Z 32008KT CAVOK 17/13 Q1022","updated":"2025-10-03T02:55:12Z"}
