{"icao":"LPMR","metar":"LPMR 311800Z 33015KT CAVOK 21/14 Q1020","updated":"2026-05-31T19:37:29Z"}
