{"icao":"KJFK","metar":"KJFK 100751Z 28003KT 10SM BKN075 OVC095 14/13 A2968 RMK AO2 RAE43 SLP050 P0002 T01440128 $","updated":"2025-11-10T08:27:11Z"}
