{"icao":"LPMA","metar":"LPMA 260530Z 01017G27KT 340V050 9999 BKN015 15/10 Q1022","updated":"2026-02-26T05:56:35Z"}
