{"icao":"LPMA","metar":"LPMA 080500Z 34007KT 320V020 6000 -RADZ BKN013 15/13 Q1007","updated":"2026-05-08T05:29:09Z"}
