{"icao":"LPPT","metar":"LPPT 030800Z 11009KT 080V190 9999 FEW002 BKN004 13/13 Q0998","updated":"2026-01-03T08:25:24Z"}
