{"icao":"LPHR","metar":"LPHR 021500Z 24006KT 180V260 9999 FEW025 BKN040 17/08 Q1030","updated":"2025-12-02T15:21:22Z"}
