{"icao":"LPMA","metar":"LPMA 032100Z 35008KT 320V030 9999 -SHRA SCT016 17/12 Q1028","updated":"2025-12-03T21:17:34Z"}
