{"icao":"LPMA","metar":"LPMA 051730Z 02010KT 340V050 9999 SCT015 FEW016TCU 20/11 Q1010","updated":"2026-02-05T17:46:03Z"}
