{"icao":"KLAX","metar":"KLAX 221753Z VRB05KT 5SM HZ FEW012 FEW190 SCT230 BKN280 20/14 A2992 RMK AO2 SLP132 T02000139 10200 20161 50004","updated":"2026-03-22T18:35:59Z"}
