{"icao":"LPPT","metar":"LPPT 271230Z 27015KT 240V300 9999 FEW023 FEW028TCU 12/08 Q1003","updated":"2026-01-27T12:48:05Z"}
