{"icao":"LPLA","metar":"LPLA 291200Z 23006KT 200V270 9999 FEW030 17/08 Q1013","updated":"2026-01-29T12:55:10Z"}
