{"icao":"LPPD","metar":"LPPD 211400Z 01020G35KT 340V040 9999 SCT016 16/12 Q1013 WS R30","updated":"2026-03-21T14:25:33Z"}
