{"icao":"LPMT","metar":"LPMT 261900Z 34006KT CAVOK 18/10 Q1013","updated":"2026-03-26T19:53:48Z"}
