{"icao":"LPMT","metar":"LPMT 221400Z 36005KT CAVOK 13/02 Q1029","updated":"2025-11-22T14:15:22Z"}
