{"icao":"KJFK","metar":"KJFK 300551Z 28023G32KT 10SM FEW055 BKN070 00/M11 A2956 RMK AO2 PK WND 26041/0514 SLP009 T00001106 10044 21006 51017 $","updated":"2025-12-30T06:32:25Z"}
