{"icao":"KLAX","metar":"KLAX 131853Z 24008G16KT 10SM SCT035 BKN260 19/11 A3011 RMK AO2 SLP197 T01940106","updated":"2026-05-13T18:56:16Z"}
