{"icao":"KLAX","metar":"KLAX 021853Z 23011KT 10SM FEW110 SCT160 BKN250 18/13 A3001 RMK AO2 SLP162 T01780128","updated":"2026-03-02T19:35:57Z"}
