{"icao":"LPPR","metar":"LPPR 010530Z 18014KT 3500 -DZ BR OVC003 13/12 Q1012","updated":"2026-02-01T06:03:06Z"}
