{"icao":"LPPR","metar":"LPPR 300400Z 21009KT 9000 FEW020TCU FEW030 SCT040 13/11 Q1010","updated":"2026-01-30T04:10:14Z"}
