{"icao":"LPPT","metar":"LPPT 011700Z 22014KT 190V250 1500 -RADZ BR FEW001 BKN002 15/15 Q1008","updated":"2026-02-01T17:23:27Z"}
