{"icao":"LPPT","metar":"LPPT 132000Z 33016KT 9999 FEW012 20/16 Q1023","updated":"2025-09-13T20:16:12Z"}
