{"icao":"KORD","metar":"KORD 270051Z 28021G32KT 10SM OVC034 00/M07 A2999 RMK AO2 PK WND 29036/0038 SLP161 T00001072","updated":"2025-11-27T01:23:29Z"}
