{"icao":"KJFK","metar":"KJFK 150851Z 04005KT 10SM SCT250 03/M02 A2991 RMK AO2 SLP127 T00331022 58004","updated":"2025-11-15T09:17:06Z"}
