{"icao":"LPPR","metar":"LPPR 140600Z VRB02KT CAVOK 14/12 Q1017","updated":"2025-10-14T06:27:16Z"}
