{"icao":"KJFK","metar":"KJFK 282251Z 24007KT 10SM BKN016 BKN090 OVC110 01/M02 A3005 RMK AO2 SLP174 T00111017 $","updated":"2025-12-28T23:18:19Z"}
