{"icao":"LPPT","metar":"LPPT 051500Z 25018G29KT 9999 FEW018 FEW025TCU SCT034 18/11 Q1009 WS R20","updated":"2025-11-05T15:18:47Z"}
