{"icao":"LPPR","metar":"LPPR 232230Z 13006KT CAVOK 13/06 Q1021","updated":"2026-02-23T22:39:01Z"}
