{"icao":"LPBJ","metar":"LPBJ 222007Z 21011KT 2000 RADZ BR BKN005 BKN020 12/12 Q1005","updated":"2026-01-22T20:26:24Z"}
