{"icao":"LPCS","metar":"LPCS 220800Z 24006KT 4500 BR FEW001 BKN004 21/21 Q1017","updated":"2025-10-22T08:26:31Z"}
