{"icao":"LPCS","metar":"LPCS 221800Z 24015G25KT 220V280 3500 -DZ BR SCT002 BKN005 15/15 Q1004","updated":"2026-01-22T18:31:16Z"}
