{"icao":"LPBJ","metar":"LPBJ 071700Z 26006KT 9999 FEW010 SCT030 10/08 Q1015","updated":"2026-04-07T17:59:08Z"}
