{"icao":"LPOV","metar":"LPOV 260900Z VRB02KT 9999 FEW002 21/12 Q1023","updated":"2026-05-26T09:54:59Z"}
