{"icao":"KORD","metar":"KORD 141251Z 21003KT 10SM FEW250 07/00 A3000 RMK AO2 SLP160 T00670000","updated":"2025-11-14T13:29:12Z"}
