{"icao":"LPBJ","metar":"LPBJ 020100Z 27003KT 230V290 9999 -RA BKN007 BKN018 17/16 Q1022","updated":"2025-11-02T01:27:39Z"}
