{"icao":"LPMA","metar":"LPMA 042200Z 36004KT 320V020 9999 FEW015 21/15 Q1026","updated":"2025-10-04T22:14:28Z"}
