{"icao":"LPMR","metar":"LPMR 170600Z 32004KT 9999 OVC006 17/16 Q1018","updated":"2026-06-17T06:09:04Z"}
