{"icao":"LPPT","metar":"LPPT 111430Z 23019KT 5000 BR FEW002 BKN003 15/15 Q1015 WS R20","updated":"2026-02-11T14:51:55Z"}
