{"icao":"LPBJ","metar":"LPBJ 031700Z 32011KT CAVOK 29/11 Q1020","updated":"2025-10-03T17:14:38Z"}
