{"icao":"LPLA","metar":"LPLA 300400Z 33001KT 9999 FEW017 17/15 Q1031","updated":"2026-06-30T05:01:35Z"}
