{"icao":"LPCS","metar":"LPCS 271830Z 27006KT 200V310 9999 FEW014 10/09 Q1006","updated":"2026-01-27T18:37:26Z"}
