{"icao":"LPMR","metar":"LPMR 120200Z VRB01KT CAVOK 17/13 Q1017","updated":"2026-06-12T03:50:25Z"}
