{"icao":"KLAX","metar":"KLAX 270253Z 29004KT 10SM CLR 19/10 A3004 RMK AO2 SLP173 T01940100 53008 $","updated":"2025-11-27T03:10:33Z"}
