{"icao":"LPMR","metar":"LPMR 281800Z 33004KT 9999 FEW030 12/10 Q1022","updated":"2025-11-28T19:14:10Z"}
