{"icao":"LPPR","metar":"LPPR 101030Z 10009KT 070V130 CAVOK 26/11 Q1013","updated":"2026-04-10T10:52:44Z"}
