{"icao":"LPMA","metar":"LPMA 161030Z 03007KT 360V090 9999 BKN014 17/12 Q1032","updated":"2026-02-16T10:49:31Z"}
