{"icao":"KJFK","metar":"KJFK 301651Z 30015G24KT 10SM FEW050 FEW250 M10/M21 A3017 RMK AO2 PK WND 32030/1627 SLP217 T11001206 $","updated":"2026-01-30T17:32:48Z"}
