{"icao":"LPPS","metar":"LPPS 032200Z 31021KT 9999 FEW014 17/14 Q1003","updated":"2026-01-03T22:18:30Z"}
