{"icao":"LPOV","metar":"LPOV 142000Z 34004KT 2000 BR BKN002 15/15 Q1017","updated":"2025-10-14T20:19:13Z"}
