{"icao":"KLAX","metar":"KLAX 270253Z 25006KT 10SM FEW011 SCT024 OVC037 20/17 A2986 RMK AO2 SLP108 T02000167 53007 $","updated":"2025-09-27T03:26:02Z"}
