{"icao":"KJFK","metar":"KJFK 220451Z 16007KT 10SM -RA BKN048 BKN065 OVC080 08/02 A3027 RMK SLP251 P0000 T00780022 400940011 ","updated":"2026-04-22T05:24:25Z"}
