{"icao":"LPMA","metar":"LPMA 091400Z 03015KT 360V060 9999 SCT016 24/18 Q1024","updated":"2025-10-09T14:17:38Z"}
