{"icao":"KJFK","metar":"KJFK 220051Z 20015KT 10SM SCT100 BKN190 BKN250 17/12 A2984 RMK AO2 SLP103 T01720122","updated":"2025-10-22T01:23:40Z"}
