{"icao":"LPAZ","metar":"LPAZ 311500Z 24015KT 7000 FEW005 BKN022 18/17 Q1019","updated":"2026-01-31T15:22:06Z"}
