{"icao":"LPMR","metar":"LPMR 191700Z 36009KT 230V290 CAVOK 24/17 Q1018","updated":"2025-09-19T17:14:52Z"}
