{"icao":"LPPR","metar":"LPPR 302100Z VRB02KT CAVOK 17/13 Q1020","updated":"2025-09-30T21:15:03Z"}
