{"icao":"LPMA","metar":"LPMA 231230Z 04010KT 9999 FEW013 BKN015 24/19 Q1022","updated":"2025-10-23T12:38:55Z"}
