{"icao":"KLAX","metar":"KLAX 102053Z 26012G19KT 10SM FEW010 20/13 A2994 RMK AO2 SLP136 T02000133 50000","updated":"2026-05-10T21:46:47Z"}
