{"icao":"KORD","metar":"KORD 241110Z 29005KT 7SM -TSRA FEW045 BKN055CB OVC080 16/14 A2997 RMK AO2 OCNL LTGICCG NE-NW TS NE-NW MOV NE P0000 T01560144 $","updated":"2026-05-24T11:15:07Z"}
