{"icao":"LPMA","metar":"LPMA 232300Z 27003KT 230V300 9999 FEW015 16/11 Q1018","updated":"2025-12-23T23:18:12Z"}
