{"icao":"KJFK","metar":"KJFK 281951Z 33021G29KT 10SM BKN080 07/M14 A3041 RMK AO2 PK WND 33029/1951 SLP297 T00671144","updated":"2026-03-28T20:29:24Z"}
