{"icao":"LPMR","metar":"LPMR 231400Z 31010KT 9999 FEW012 20/15 Q1022","updated":"2026-05-23T14:59:22Z"}
