{"icao":"LPOV","metar":"LPOV 282200Z 18015KT 2500 -RA BR SCT003 BKN012 13/13 Q0999 RERA","updated":"2026-01-28T22:25:32Z"}
