{"icao":"LPFL","metar":"LPFL 241500Z 18012KT 150V210 9999 FEW004 SCT008 BKN012 18/17 Q1017 RERA","updated":"2025-12-24T15:20:25Z"}
