{"icao":"KORD","metar":"KORD 101951Z 33009KT 10SM SCT160 BKN250 08/00 A2987 RMK AO2 SLP118 T00830000","updated":"2026-02-10T20:43:05Z"}
