{"icao":"LPAZ","metar":"LPAZ 241630Z 17014KT 9999 FEW007 BKN049 18/15 Q1015","updated":"2026-04-24T16:54:26Z"}
