{"icao":"LPFR","metar":"LPFR 020900Z 26005KT 9999 FEW008 13/11 Q1019","updated":"2025-12-02T09:25:01Z"}
