{"icao":"LPPR","metar":"LPPR 220900Z 21009KT 190V250 4500 BR BKN002 19/19 Q1015","updated":"2025-10-22T09:20:32Z"}
