{"icao":"KORD","metar":"KORD 152251Z 06007KT 10SM BKN023 OVC048 15/09 A3020 RMK AO2 SLP226 T01500094","updated":"2025-10-15T23:16:03Z"}
