{"icao":"LPPR","metar":"LPPR 072130Z 11006KT 9999 FEW021 12/08 Q1015","updated":"2026-04-07T21:40:10Z"}
