{"icao":"LPPS","metar":"LPPS 132300Z 04016G28KT 010V070 9999 SCT014 FEW016TCU 17/13 Q1018","updated":"2025-12-13T23:17:30Z"}
