{"icao":"KJFK","metar":"KJFK 271051Z 04003KT 10SM FEW180 SCT220 BKN250 18/17 A2997 RMK AO2 SLP148 T01830167 $","updated":"2025-09-27T11:12:40Z"}
