{"icao":"KJFK","metar":"KJFK 050751Z 18006KT 10SM FEW250 12/10 A2985 RMK SLP106 T01170100 ","updated":"2026-05-05T08:07:23Z"}
