{"icao":"LPBJ","metar":"LPBJ 230900Z 10005KT CAVOK 15/12 Q1013","updated":"2026-03-23T10:01:22Z"}
