{"icao":"LPFR","metar":"LPFR 181900Z 08004KT CAVOK 22/17 Q1016","updated":"2025-10-18T19:12:46Z"}
