{"icao":"LPMA","metar":"LPMA 111700Z 01018KT 330V050 7000 -SHRA BKN013 16/13 Q1022","updated":"2026-04-11T17:30:10Z"}
