{"icao":"KORD","metar":"KORD 271451Z 07006KT 10SM BKN085 BKN250 22/17 A2999 RMK AO2 SLP152 T02170172 58005 $","updated":"2026-06-27T15:13:46Z"}
