{"icao":"LPLA","metar":"LPLA 292200Z 30017KT 4000 RA SCT007 SCT016 17/16 Q1008","updated":"2025-10-29T22:17:46Z"}
