{"icao":"LPFL","metar":"LPFL 222000Z 18010KT 140V200 9999 SCT017 BKN030 18/14 Q1027","updated":"2025-11-22T20:19:23Z"}
