{"icao":"LPOV","metar":"LPOV 011400Z 31006KT 260V340 9999 FEW015 19/11 Q1018","updated":"2026-05-01T14:53:45Z"}
