{"icao":"LPMT","metar":"LPMT 060600Z 26005KT 9999 FEW025 14/10 Q1016","updated":"2025-11-06T06:27:58Z"}
