{"icao":"LPOV","metar":"LPOV 081700Z 32003KT CAVOK 16/12 Q1022","updated":"2025-11-08T17:14:10Z"}
