{"icao":"LPAZ","metar":"LPAZ 231000Z 22013KT 9999 BKN020 23/19 Q1023","updated":"2025-09-23T10:18:31Z"}
