{"icao":"KORD","metar":"KORD 260451Z 21006KT 10SM FEW150 BKN250 16/06 A2980 RMK AO2 SLP092 T01560061","updated":"2026-03-26T05:04:47Z"}
