{"icao":"LPPR","metar":"LPPR 160430Z 24008KT 210V290 9999 BKN011 OVC019 14/12 Q1027","updated":"2026-02-16T04:57:41Z"}
