{"icao":"KJFK","metar":"KJFK 131515Z 04017G28KT 2SM -RA BR FEW008 BKN012 OVC031 15/14 A2991 RMK AO2 PK WND 03031/1454 P0002 T01500139","updated":"2025-10-13T15:18:39Z"}
