{"icao":"LPCS","metar":"LPCS 111130Z 24015KT 0600 R17/0650D -DZ FG VV002 15/15 Q1018","updated":"2026-02-11T11:43:13Z"}
