{"icao":"KJFK","metar":"KJFK 080151Z 33020G27KT 10SM FEW250 03/M11 A3045 RMK AO2 PK WND 34033/0114 SLP311 T00281111","updated":"2026-04-08T02:22:54Z"}
