{"icao":"LPFL","metar":"LPFL 181230Z 05004KT 350V120 9999 SCT016 17/12 Q1018","updated":"2026-04-18T13:00:16Z"}
