{"icao":"LPPS","metar":"LPPS 141500Z 13006KT 090V170 9999 SCT015 22/16 Q1015","updated":"2025-10-14T15:20:38Z"}
