{"icao":"LPMT","metar":"LPMT 090100Z 13002KT CAVOK 10/10 Q1022","updated":"2025-11-09T01:26:59Z"}
