{"icao":"LPLA","metar":"LPLA 241500Z 19020G31KT 9000 -RADZ SCT008 BKN014 16/15 Q1010 RE RADZ","updated":"2026-04-24T15:06:38Z"}
