{"icao":"KORD","metar":"KORD 121251Z 27008KT 10SM SCT250 04/M01 A2985 RMK AO2 SLP111 T00391011","updated":"2025-11-12T13:32:40Z"}
