{"icao":"KORD","metar":"KORD 191015Z 27013G24KT 7SM -SN BKN017 BKN026 BKN055 M13/M17 A2992 RMK AO2 DRSN P0000 T11281172 $","updated":"2026-01-19T10:27:52Z"}
