{"icao":"LPPS","metar":"LPPS 152300Z 29013KT 8000 -RADZ SCT010 SCT030 16/15 Q1024 RERA","updated":"2026-01-15T23:19:35Z"}
