{"icao":"KJFK","metar":"KJFK 161351Z 34016G24KT 10SM FEW045 SCT150 SCT250 10/01 A2996 RMK AO2 SLP146 T01000006","updated":"2025-10-16T14:18:42Z"}
