{"icao":"LPMA","metar":"LPMA 132300Z 02017KT 9999 SCT015 23/18 Q1023","updated":"2025-09-13T23:14:31Z"}
