{"icao":"LPPD","metar":"LPPD 090900Z 34011KT 310V010 9999 FEW020 FEW025TCU 13/06 Q1016","updated":"2026-05-09T09:18:00Z"}
