{"icao":"LPFR","metar":"LPFR 271900Z 26006KT CAVOK 20/13 Q1010","updated":"2026-04-27T19:18:56Z"}
