{"icao":"LPPT","metar":"LPPT 051100Z 24022G34KT 8000 VCSH BKN022 16/12 Q0996 WS R20","updated":"2026-02-05T11:33:50Z"}
