{"icao":"LPPS","metar":"LPPS 020930Z 30017G31KT 9999 -RA SCT014 FEW018TCU 14/10 Q1014","updated":"2026-02-02T09:47:48Z"}
