{"icao":"KJFK","metar":"KJFK 201251Z 28016KT 10SM FEW035 M08/M16 A3029 RMK AO2 SLP255 T10831161 $","updated":"2026-01-20T13:45:58Z"}
