{"icao":"LPFR","metar":"LPFR 151800Z 27007KT CAVOK 24/16 Q1018","updated":"2025-09-15T18:24:53Z"}
