{"icao":"LPBJ","metar":"LPBJ 121100Z 14006KT 7000 2000NE -DZRA BCFG FEW007 BKN030 12/12 Q1014 RERA","updated":"2025-12-12T11:18:23Z"}
