{"icao":"KLAX","metar":"KLAX 090453Z 16003KT 10SM FEW010 17/15 A2991 RMK AO2 SLP127 T01720150 $","updated":"2026-04-09T05:08:08Z"}
