{"icao":"LPAZ","metar":"LPAZ 271300Z 09008KT 060V120 9999 SCT020 SCT028 15/10 Q1021","updated":"2025-12-27T13:27:09Z"}
