{"icao":"LPPD","metar":"LPPD 291430Z 23011KT 9000 FEW010 SCT020 BKN030 16/14 Q1014","updated":"2026-01-29T14:49:45Z"}
