{"icao":"LPBJ","metar":"LPBJ 251500Z 29007KT 260V320 9999 SCT015 SCT030 23/16 Q1013","updated":"2025-10-25T15:15:35Z"}
