{"icao":"KJFK","metar":"KJFK 170951Z 28024G37KT 10SM FEW037 02/M08 A2967 RMK AO2 PK WND 28038/0920 SLP048 T00221083","updated":"2026-03-17T10:50:50Z"}
