{"icao":"KJFK","metar":"KJFK 241451Z 19005KT 10SM FEW033 FEW140 SCT210 BKN250 24/20 A3005 RMK AO2 SLP177 T02390200 51009","updated":"2025-09-24T15:18:52Z"}
