{"icao":"LPBJ","metar":"LPBJ 052300Z 24005KT 8000 SCT008 BKN022 14/14 Q1024","updated":"2025-12-05T23:17:36Z"}
