{"icao":"LPFL","metar":"LPFL 252000Z 16011KT 9999 FEW012 18/15 Q1026","updated":"2026-02-25T20:34:11Z"}
