{"icao":"LPCS","metar":"LPCS 081130Z 11010KT 080V150 9999 FEW025 15/08 Q1016","updated":"2026-04-08T11:53:52Z"}
