{"icao":"KJFK","metar":"KJFK 251751Z 35008KT 10SM SCT060 SCT150 SCT250 16/M01 A3033 RMK AO2 SLP272 T01561006 10156 20078 58018","updated":"2025-10-25T18:23:02Z"}
