{"icao":"LPMR","metar":"LPMR 062100Z 16004KT CAVOK 14/12 Q1017","updated":"2025-11-06T21:16:17Z"}
