{"icao":"LPAZ","metar":"LPAZ 141500Z 31007KT 2000 -DZ BR BKN003 OVC008 16/16 Q1007","updated":"2025-11-14T15:17:13Z"}
