{"icao":"LPBJ","metar":"LPBJ 290600Z 30006KT 8000 2000S BCFG SCT003 05/05 Q1018","updated":"2025-12-29T06:33:21Z"}
