{"icao":"LPHR","metar":"LPHR 021830Z 29006KT 260V320 9999 SCT015 BKN025 16/12 Q1029","updated":"2026-04-02T18:55:20Z"}
