{"icao":"LPMR","metar":"LPMR 221800Z 23010KT 7000 SCT008 BKN015 21/20 Q1017","updated":"2025-10-22T18:27:45Z"}
