{"icao":"LPMT","metar":"LPMT 181600Z 25008KT CAVOK 23/13 Q1015","updated":"2026-04-18T16:38:51Z"}
