{"icao":"LPBJ","metar":"LPBJ 032300Z VRB02KT CAVOK 14/10 Q1021","updated":"2025-11-03T23:16:05Z"}
