{"icao":"LPBJ","metar":"LPBJ 011000Z 10006KT 5000 1500N BCFG OVC003 08/08 Q1015","updated":"2026-01-01T10:21:27Z"}
