{"icao":"LPFR","metar":"LPFR 261230Z 25013KT 8000 FEW010 SCT020 BKN042 16/15 Q1017","updated":"2026-01-26T12:45:46Z"}
