{"icao":"LPHR","metar":"LPHR 271900Z 23009KT 9999 FEW018 SCT030 17/11 Q1019","updated":"2026-05-27T19:23:21Z"}
