{"icao":"LPMT","metar":"LPMT 072300Z 34006KT CAVOK 11/08 Q1020","updated":"2026-03-07T23:20:42Z"}
