{"icao":"LPBJ","metar":"LPBJ 131800Z 17017KT 7000 -RA FEW010 FEW015CB BKN020 16/15 Q1000","updated":"2025-11-13T18:26:54Z"}
