{"icao":"LPBJ","metar":"LPBJ 301300Z 32008KT 290V350 CAVOK 31/09 Q1020","updated":"2026-05-30T13:26:03Z"}
