{"icao":"LPPR","metar":"LPPR 110230Z 12007KT CAVOK 20/09 Q1021","updated":"2025-10-11T02:52:17Z"}
