{"icao":"LPLA","metar":"LPLA 300600Z 13014KT 5000 -DZ BR BKN005 BKN012 15/14 Q1012","updated":"2025-12-30T06:32:10Z"}
