{"icao":"LPMR","metar":"LPMR 071500Z 30007KT 270V330 9999 BKN007 BKN014 18/17 Q1015","updated":"2025-11-07T15:18:34Z"}
