{"icao":"LPPR","metar":"LPPR 201000Z 34010KT 4000 -DZ BR BKN004 BKN025 16/16 Q1021","updated":"2025-09-20T10:16:12Z"}
