{"icao":"LPFL","metar":"LPFL 291630Z 24016G27KT 210V330 8000 -DZ FEW015 18/12 Q1009 WS ALL RWY","updated":"2026-01-29T16:42:02Z"}
