{"icao":"LPMT","metar":"LPMT 041500Z 33010KT 300V360 9999 SCT045 21/06 Q1016","updated":"2026-05-04T16:02:09Z"}
