{"icao":"LPPD","metar":"LPPD 010130Z 34003KT 310V030 9999 FEW018 13/09 Q1003","updated":"2026-01-01T01:48:53Z"}
