{"icao":"LPPR","metar":"LPPR 140330Z 35005KT 9999 FEW018 10/10 Q1016","updated":"2026-05-14T03:38:54Z"}
