{"icao":"KORD","metar":"KORD 141551Z 22004KT 10SM OVC240 04/M02 A3003 RMK AO2 SLP174 T00391017 $","updated":"2026-02-14T16:28:17Z"}
