{"icao":"LPMA","metar":"LPMA 221230Z 36007G19KT 300V070 9999 FEW015 19/10 Q1023","updated":"2025-12-22T12:40:24Z"}
