{"icao":"LPOV","metar":"LPOV 060900Z 18013KT 8000 -SHRA FEW007 SCT020CB BKN048 09/09 Q1000 RESHRA","updated":"2026-02-06T09:41:11Z"}
