{"icao":"LPOV","metar":"LPOV 271500Z 32006KT 290V360 CAVOK 21/11 Q1020","updated":"2025-10-27T15:19:26Z"}
