{"icao":"LPPT","metar":"LPPT 170830Z 01003KT 330V100 9999 BKN020 13/11 Q1029","updated":"2026-02-17T08:42:34Z"}
