{"icao":"LPLA","metar":"LPLA 160200Z 20006KT 140V250 7000 -RA FEW007 BKN018 BKN030 20/18 Q1004","updated":"2025-10-16T03:01:54Z"}
