{"icao":"LPMA","metar":"LPMA 220400Z 02014KT 350V050 9999 SCT015 18/11 Q1025","updated":"2025-11-22T04:21:01Z"}
