{"icao":"LPLA","metar":"LPLA 112300Z 32019KT 9999 SCT040 13/07 Q1031","updated":"2025-12-11T23:18:19Z"}
