{"icao":"LPOV","metar":"LPOV 140600Z 00000KT CAVOK 06/06 Q1021","updated":"2025-12-14T06:28:23Z"}
