{"icao":"LPPR","metar":"LPPR 211500Z 30007KT 270V330 9999 FEW048 17/11 Q1009","updated":"2026-03-21T15:24:25Z"}
