{"icao":"LPCS","metar":"LPCS 131000Z 10008KT 040V140 CAVOK 28/12 Q1018","updated":"2026-06-13T10:26:42Z"}
