{"icao":"KORD","metar":"KORD 092051Z 10008KT 10SM CLR 17/03 A3038 RMK AO2 SLP288 T01720033 56023","updated":"2025-10-09T21:15:42Z"}
