{"icao":"LPMA","metar":"LPMA 232300Z 31010KT 270V360 9999 SCT016 16/03 Q1023","updated":"2026-01-23T23:20:41Z"}
