{"icao":"LPPT","metar":"LPPT 301500Z VRB03KT CAVOK 29/10 Q1018","updated":"2025-09-30T15:16:39Z"}
