{"icao":"LPBJ","metar":"LPBJ 142200Z 32011KT CAVOK 14/09 Q1013","updated":"2026-05-14T22:09:53Z"}
