{"icao":"LPLA","metar":"LPLA 181800Z 08007KT 050V110 9999 FEW025 20/10 Q1020","updated":"2026-05-18T18:50:04Z"}
