{"icao":"LPMT","metar":"LPMT 031900Z 18009KT 6000 -RA SCT016 BKN030 11/10 Q0999","updated":"2026-02-03T19:43:37Z"}
