{"icao":"LPLA","metar":"LPLA 220800Z 20011KT 160V240 9999 BKN017 BKN035 17/14 Q1022","updated":"2026-02-22T08:30:28Z"}
