{"icao":"LPPS","metar":"LPPS 081700Z 02011KT 350V050 9999 SCT014 16/08 Q1026","updated":"2026-03-08T17:21:56Z"}
