{"icao":"LPMA","metar":"LPMA 210900Z 27004KT 240V330 9999 FEW016 16/11 Q1021","updated":"2026-01-21T09:31:04Z"}
