{"icao":"LPLA","metar":"LPLA 151000Z 29003KT 9999 FEW030 20/14 Q1007","updated":"2025-10-15T10:20:02Z"}
