{"icao":"LPMA","metar":"LPMA 120100Z 33003KT 240V040 9999 FEW015 20/13 Q1018","updated":"2025-10-12T01:21:52Z"}
