{"icao":"LPBJ","metar":"LPBJ 032200Z 03007KT CAVOK 14/09 Q1013","updated":"2026-03-03T22:27:45Z"}
