{"icao":"LPLA","metar":"LPLA 262200Z 20012G24KT 150V240 9000 -RA FEW018 SCT022 18/15 Q1021","updated":"2025-11-26T22:18:08Z"}
