{"icao":"KLAX","metar":"KLAX 301853Z 26009KT 9SM FEW016 SCT027 SCT050 23/12 A3004 RMK AO2 SLP170 T02280122 $","updated":"2025-09-30T19:14:04Z"}
