{"icao":"LPMA","metar":"LPMA 170800Z 18005KT 110V220 5000 -RA DZ SCT005 BKN013 FEW015CB 21/21 Q1011","updated":"2025-10-17T08:24:46Z"}
