{"icao":"LPMA","metar":"LPMA 101930Z 01016KT 340V040 9999 FEW015 20/14 Q1020","updated":"2026-06-10T19:38:24Z"}
