{"icao":"LPPD","metar":"LPPD 201230Z 33014G26KT 300V010 9999 FEW025 BKN045 15/08 Q1031","updated":"2025-12-20T12:36:23Z"}
