{"icao":"LPFR","metar":"LPFR 241830Z 27008KT CAVOK 19/13 Q1016","updated":"2026-04-24T18:50:08Z"}
