{"icao":"KORD","metar":"KORD 170951Z 33007KT 10SM SCT250 02/M08 A3003 RMK AO2 SLP173 T00221083 $","updated":"2025-11-17T10:21:24Z"}
