{"icao":"LPPT","metar":"LPPT 311000Z VRB05G16KT CAVOK 19/09 Q1027","updated":"2026-03-31T10:09:59Z"}
