{"icao":"KJFK","metar":"KJFK 141151Z 19007KT 10SM FEW075 BKN120 BKN250 05/02 A2969 RMK AO2 SLP053 60000 T00500022 10056 20039 53001 $","updated":"2026-01-14T12:43:30Z"}
