{"icao":"LPPD","metar":"LPPD 200700Z 25011KT 6000 FEW003 BKN005 22/22 Q1016","updated":"2025-10-20T07:18:51Z"}
