{"icao":"LPHR","metar":"LPHR 081300Z 28011KT 230V300 9999 FEW016 21/14 Q1021","updated":"2025-11-08T13:22:34Z"}
