{"icao":"LPAZ","metar":"LPAZ 030830Z 33010KT 9999 SCT023 11/07 Q1029","updated":"2026-03-03T08:39:27Z"}
