{"icao":"LPPR","metar":"LPPR 011530Z 32011KT CAVOK 31/17 Q1018","updated":"2026-07-01T15:39:43Z"}
