{"icao":"LPBJ","metar":"LPBJ 221400Z 01010KT 340V050 CAVOK 24/03 Q1016","updated":"2025-09-22T14:18:34Z"}
