{"icao":"KORD","metar":"KORD 231751Z 14003KT 10SM FEW026 SCT100 BKN250 24/17 A2992 RMK AO2 SLP128 60009 T02440172 10250 20194 57007","updated":"2025-09-23T18:26:36Z"}
