{"icao":"LPMA","metar":"LPMA 281300Z 02011KT 340V050 9999 SCT016 24/16 Q1025","updated":"2025-09-28T13:20:42Z"}
