{"icao":"LPMA","metar":"LPMA 072300Z 36007KT 330V030 9999 FEW015 15/08 Q1034","updated":"2026-01-07T23:19:36Z"}
