{"icao":"LPLA","metar":"LPLA 290500Z 00000KT 9999 SCT022 BKN035 15/11 Q1019","updated":"2025-10-29T05:18:27Z"}
