{"icao":"KORD","metar":"KORD 100951Z 17005KT 10SM SCT250 10/04 A3025 RMK AO2 SLP244 T01000039","updated":"2025-10-10T10:19:34Z"}
