{"icao":"KLAX","metar":"KLAX 130653Z 26008KT 10SM OVC007 18/16 A2991 RMK AO2 SLP126 T01780156 $","updated":"2026-06-13T07:45:15Z"}
