{"icao":"LPFR","metar":"LPFR 260800Z 24012KT 9000 SCT004 SCT008 BKN015 15/15 Q1016","updated":"2026-01-26T08:31:13Z"}
