{"icao":"KJFK","metar":"KJFK 020851Z 01005KT 10SM FEW040 SCT065 12/07 A3039 RMK AO2 SLP291 T01220067 53017","updated":"2025-10-02T09:17:57Z"}
