{"icao":"LPMR","metar":"LPMR 092000Z 32003KT 9999 FEW030 11/09 Q1028","updated":"2026-01-09T20:23:11Z"}
