{"icao":"LPAZ","metar":"LPAZ 292100Z 18013KT 9999 SCT005 BKN049 19/18 Q1025","updated":"2026-05-29T21:05:41Z"}
