{"icao":"KORD","metar":"KORD 132251Z 00000KT 10SM BKN160 BKN250 26/17 A2997 RMK AO2 SLP144 T02560172 $","updated":"2025-09-13T23:14:33Z"}
