{"icao":"LPPR","metar":"LPPR 052000Z 34011KT CAVOK 07/03 Q1017","updated":"2026-01-05T20:24:08Z"}
