{"icao":"LPPS","metar":"LPPS 230800Z 05013KT 010V080 9999 SCT012 SCT030 19/15 Q1021","updated":"2025-09-23T08:22:51Z"}
