{"icao":"KJFK","metar":"KJFK 261051Z 01007KT 10SM BKN090 BKN250 09/04 A3039 RMK AO2 SLP289 T00890039","updated":"2025-10-26T11:13:18Z"}
