{"icao":"LPFL","metar":"LPFL 131630Z 18011KT 160V220 9999 FEW021 17/11 Q1027","updated":"2026-02-13T16:43:51Z"}
