{"icao":"LPLA","metar":"LPLA 131800Z 33009KT 9999 FEW015 BKN025 20/16 Q1021","updated":"2026-06-13T18:05:49Z"}
