{"icao":"LPPT","metar":"LPPT 191600Z 22013KT 5000 1500SW -DZ BR SCT004 BKN007 20/18 Q1014","updated":"2025-10-19T16:19:30Z"}
