{"icao":"LPHR","metar":"LPHR 142000Z 22011KT 170V250 9999 TS VCSH FEW010 FEW025CB SCT097 19/15 Q1003","updated":"2025-10-14T23:16:07Z"}
