{"icao":"LPBJ","metar":"LPBJ 180300Z VRB02KT 9999 FEW008 06/05 Q1008","updated":"2026-01-18T03:44:39Z"}
