{"icao":"LPOV","metar":"LPOV 030800Z VRB01KT CAVOK 06/05 Q1023","updated":"2025-11-03T08:26:05Z"}
