{"icao":"LPST","metar":"LPST 121500Z 31008KT 270V340 CAVOK 29/17 Q1018","updated":"2026-06-12T19:03:10Z"}
