{"icao":"LPPT","metar":"LPPT 241130Z 06004KT 010V130 CAVOK 18/13 Q1020","updated":"2026-03-24T11:43:29Z"}
