{"icao":"LPAR","metar":"LPAR 311500Z 22013KT 2500 -RADZ BKN005 BKN015 19/19 Q1012","updated":"2025-10-31T15:17:47Z"}
