{"icao":"KJFK","metar":"KJFK 160351Z 29019G28KT 10SM FEW055 SCT250 M04/M15 A2958 RMK AO2 PK WND 26028/0347 SLP016 T10391150 $","updated":"2026-01-16T04:39:13Z"}
