{"icao":"LPMT","metar":"LPMT 162100Z 24006KT 210V280 9999 SCT020 FEW023TCU 14/12 Q1012","updated":"2025-11-16T21:15:33Z"}
