{"icao":"LPPD","metar":"LPPD 272200Z 25030G40KT 7000 SCT012 BKN016 17/15 Q1006 WS R30","updated":"2026-01-27T22:21:41Z"}
