{"icao":"KORD","metar":"KORD 222151Z 27016G23KT 10SM SCT047 SCT250 M06/M17 A3017 RMK AO2 PK WND 25036/2103 SLP228 T10611172 $","updated":"2026-01-22T22:21:56Z"}
