{"icao":"LPBJ","metar":"LPBJ 010800Z 10005KT 9999 SCT007 OVC028 07/06 Q1014","updated":"2026-01-01T08:27:52Z"}
