{"icao":"LPPT","metar":"LPPT 130800Z 34007KT CAVOK 18/13 Q1021"}
