{"icao":"LPBJ","metar":"LPBJ 271800Z 02003KT CAVOK 13/02 Q1022","updated":"2025-11-27T18:26:20Z"}
