{"icao":"LPBJ","metar":"LPBJ 060300Z 29004KT CAVOK 01/M01 Q1017","updated":"2026-01-06T03:27:49Z"}
