{"icao":"LPHR","metar":"LPHR 052100Z 21016KT 9000 -RA SCT013 BKN030 BKN070 20/18 Q1013","updated":"2025-11-05T23:17:34Z"}
