{"icao":"LPAR","metar":"LPAR 041300Z 33011KT 300V010 9999 FEW035 17/11 Q1022","updated":"2025-12-04T13:35:35Z"}
