{"icao":"KLAX","metar":"KLAX 110453Z 13004KT 10SM FEW250 17/16 A3009 RMK AO2 SLP189 T01720156 $","updated":"2025-11-11T05:19:22Z"}
