{"icao":"KJFK","metar":"KJFK 120151Z 34014G23KT 10SM CLR 13/M04 A3037 RMK AO2 SLP282 T01331039","updated":"2026-04-12T02:30:04Z"}
