{"icao":"KJFK","metar":"KJFK 130751Z 07004KT 10SM FEW020 SCT070 17/16 A3017 RMK AO2 SLP217 T01670156 $"}
