{"icao":"KLAX","metar":"KLAX 300653Z 09004KT 10SM CLR 21/09 A2993 RMK AO2 SLP132 T02110094 $","updated":"2025-10-30T07:18:03Z"}
