{"icao":"LPLA","metar":"LPLA 251200Z 23020G30KT 200V260 9999 SCT014 BKN022 18/15 Q1014","updated":"2026-01-25T12:40:10Z"}
