{"icao":"LPBJ","metar":"LPBJ 220700Z 23006KT 5000 2000N BCFG BKN003 OVC015 19/18 Q1018","updated":"2025-10-22T07:17:36Z"}
