{"icao":"KORD","metar":"KORD 112251Z 24013G17KT 10SM BKN022 BKN250 M01/M06 A3036 RMK AO2 SLP289 T10111061 $","updated":"2026-01-11T23:18:40Z"}
