{"icao":"LPPS","metar":"LPPS 072130Z 32015G26KT 9999 FEW015 14/08 Q1025","updated":"2026-04-07T21:40:31Z"}
