{"icao":"LPBJ","metar":"LPBJ 251700Z 32008KT 9999 FEW025 18/12 Q1017","updated":"2026-02-25T17:55:43Z"}
