{"icao":"LPPR","metar":"LPPR 271330Z 34016KT 9999 FEW003 SCT025 14/09 Q1025","updated":"2026-02-27T14:00:49Z"}
