{"icao":"LPAZ","metar":"LPAZ 031100Z 25021KT 5000 BR FEW003 BKN007 17/16 Q1009","updated":"2026-02-03T11:33:20Z"}
