{"icao":"LPFL","metar":"LPFL 051630Z 31010G35KT 250V360 9999 VCSH SCT021 FEW023CB 11/05 Q1008","updated":"2026-02-05T16:45:38Z"}
