{"icao":"LPCS","metar":"LPCS 091430Z 21014KT 9999 FEW009 SCT014 FEW022CB 19/13 Q1006","updated":"2026-05-09T14:49:11Z"}
