{"icao":"LPPT","metar":"LPPT 140500Z VRB02KT CAVOK 19/10 Q1016","updated":"2025-10-14T05:16:46Z"}
