{"icao":"LPPT","metar":"LPPT 271400Z 05004KT 350V080 9999 FEW035 23/14 Q1019","updated":"2025-10-27T14:19:02Z"}
