{"icao":"LPHR","metar":"LPHR 181600Z 27015KT 5000 BR SCT001 BKN003 23/22 Q1015","updated":"2025-10-18T16:19:31Z"}
