{"icao":"LPHR","metar":"LPHR 101000Z 25020KT 9999 FEW011 SCT060 18/16 Q1017","updated":"2025-11-10T10:21:45Z"}
