{"icao":"KORD","metar":"KORD 121451Z 24011KT 10SM SCT190 BKN250 M01/M07 A3014 RMK AO2 SLP215 T10111072 50002 $","updated":"2026-01-12T15:24:37Z"}
