{"icao":"LPPS","metar":"LPPS 150700Z 06013KT 030V090 9999 FEW015 BKN030 22/16 Q1022","updated":"2025-09-15T07:18:00Z"}
