{"icao":"KLAX","metar":"KLAX 041453Z 00000KT 10SM FEW190 FEW240 SCT290 17/09 A3002 RMK AO2 SLP166 T01670094 53016 $","updated":"2026-04-04T15:30:48Z"}
