{"icao":"LPHR","metar":"LPHR 200930Z 19019KT 8000 SCT007 SCT011 BKN030 17/15 Q1019","updated":"2026-02-20T09:39:16Z"}
