{"icao":"LPMA","metar":"LPMA 051100Z 05008KT 010V080 9999 BKN025 20/09 Q1026","updated":"2025-12-05T11:17:50Z"}
