{"icao":"LPPD","metar":"LPPD 041100Z 25004KT 190V290 9999 FEW025 BKN045 15/08 Q1024","updated":"2026-04-04T11:28:18Z"}
