{"icao":"KORD","metar":"KORD 300351Z 34004KT 10SM FEW095 M14/M21 A3033 RMK AO2 SLP287 T11391206","updated":"2026-01-30T04:10:30Z"}
