{"icao":"LPPT","metar":"LPPT 110200Z 31011KT 9999 FEW008 14/13 Q1012","updated":"2026-04-11T02:07:28Z"}
