{"icao":"LPFR","metar":"LPFR 150230Z 06002KT CAVOK 19/16 Q1015","updated":"2025-10-15T03:03:23Z"}
