{"icao":"LPCS","metar":"LPCS 121700Z 17013KT 9999 FEW016 BKN033 14/12 Q1015","updated":"2026-01-12T17:22:35Z"}
