{"icao":"LPMA","metar":"LPMA 291030Z 01022KT 9999 SCT015 24/18 Q1024","updated":"2026-06-29T10:55:33Z"}
