{"icao":"LPAZ","metar":"LPAZ 211700Z 18013KT 9999 FEW022 SCT045 18/14 Q1025","updated":"2026-02-21T17:24:15Z"}
