{"icao":"LPST","metar":"LPST 021100Z 32009KT 9999 FEW025 15/08 Q1020","updated":"2025-12-02T11:18:09Z"}
