{"icao":"LPPD","metar":"LPPD 171430Z 25012KT 9999 FEW013 SCT025 18/15 Q1026","updated":"2026-05-17T14:54:47Z"}
