{"icao":"KORD","metar":"KORD 081051Z 19008KT 10SM BKN250 06/02 A2984 RMK AO2 SLP108 T00560017","updated":"2026-01-08T11:20:02Z"}
