{"icao":"LPCS","metar":"LPCS 110800Z 06011KT 030V090 CAVOK 20/12 Q1020","updated":"2025-10-11T08:20:06Z"}
