{"icao":"LPPT","metar":"LPPT 171500Z 12004KT 050V190 CAVOK 33/08 Q1019","updated":"2025-09-17T15:18:09Z"}
