{"icao":"LPAZ","metar":"LPAZ 160730Z 18013KT 9999 FEW019 BKN025 15/10 Q1029","updated":"2026-02-16T07:53:26Z"}
