{"icao":"KLAX","metar":"KLAX 222053Z 25010KT 10SM FEW240 SCT300 19/06 A3019 RMK AO2 SLP223 T01890056 58017 $","updated":"2026-02-22T21:22:57Z"}
