{"icao":"LPBJ","metar":"LPBJ 050900Z 33008KT CAVOK 05/00 Q1010","updated":"2026-01-05T09:30:32Z"}
