{"icao":"LPFR","metar":"LPFR 200700Z 31005KT CAVOK 07/06 Q1021","updated":"2026-01-20T07:26:51Z"}
