{"icao":"KORD","metar":"KORD 290331Z 27017G32KT 9SM -SN OVC009 M01/M03 A2952 RMK AO2 PK WND 25035/0254 SNB30 P0000 T10061028 $","updated":"2025-12-29T03:47:56Z"}
