{"icao":"LPPS","metar":"LPPS 250230Z 18005KT 9999 FEW012 BKN030 22/19 Q1017","updated":"2025-10-25T03:01:07Z"}
