{"icao":"LPBJ","metar":"LPBJ 111800Z 30012KT CAVOK 33/10 Q1017","updated":"2026-06-11T18:10:18Z"}
