{"icao":"KJFK","metar":"KJFK 111751Z 11013G20KT 10SM FEW021 BKN028 BKN048 OVC130 19/14 A3018 RMK AO2 SLP219 60007 T01940144 10194 20144 58019","updated":"2025-10-11T18:20:38Z"}
