{"icao":"LPMT","metar":"LPMT 230400Z VRB02KT CAVOK 09/09 Q1011","updated":"2026-03-23T05:01:42Z"}
