{"icao":"LPFR","metar":"LPFR 010500Z 01009KT CAVOK 11/05 Q1018","updated":"2025-12-01T05:26:49Z"}
