{"icao":"LPCS","metar":"LPCS 270730Z VRB01KT 9999 FEW009 12/09 Q1024","updated":"2026-02-27T07:44:37Z"}
