{"icao":"LPFR","metar":"LPFR 301100Z 23005KT 9999 FEW025 BKN045 20/15 Q1016","updated":"2025-10-30T11:15:27Z"}
