{"icao":"LPFR","metar":"LPFR 071600Z 26013KT 8000 FEW012 FEW018CB 14/11 Q1008","updated":"2026-02-07T16:28:54Z"}
