{"icao":"KORD","metar":"KORD 110951Z 24006KT 10SM BKN130 OVC250 M03/M07 A3007 RMK AO2 SLP190 T10331072","updated":"2025-11-11T10:20:34Z"}
