{"icao":"LPPR","metar":"LPPR 190200Z 00000KT CAVOK 12/11 Q1015","updated":"2026-04-19T02:34:17Z"}
