{"icao":"LPAZ","metar":"LPAZ 310330Z 23006KT 1400 R18/2000D BR BKN002 18/18 Q1026","updated":"2026-05-31T03:41:18Z"}
