{"icao":"LPCS","metar":"LPCS 041330Z 32010KT 290V350 9999 SCT028 16/10 Q1022","updated":"2025-12-04T13:35:32Z"}
