{"icao":"LPCS","metar":"LPCS 191730Z 35016KT CAVOK 23/12 Q1014","updated":"2026-06-19T17:56:33Z"}
