{"icao":"LPPS","metar":"LPPS 260700Z 02017KT 9999 SCT012 BKN030 15/11 Q1018","updated":"2026-03-26T07:06:50Z"}
