{"icao":"LPPD","metar":"LPPD 140130Z 02006KT 340V080 9999 FEW015 SCT025 15/12 Q1031","updated":"2026-03-14T01:56:32Z"}
