{"icao":"KORD","metar":"KORD 011051Z 26005KT 10SM OVC075 06/02 A2997 RMK AO2 SLP152 T00560017 $","updated":"2025-11-01T11:13:14Z"}
