{"icao":"LPAZ","metar":"LPAZ 091630Z 31011KT 290V360 9999 -SHRA SCT014 SCT027TCU 12/11 Q1014 RESHRA","updated":"2026-05-09T16:53:27Z"}
