{"icao":"KJFK","metar":"KJFK 031951Z 30014G28KT 10SM SCT080 15/M05 A2984 RMK PK WND 31031/1857 SLP104 T01501050 ","updated":"2026-05-03T20:41:51Z"}
