{"icao":"LPMT","metar":"LPMT 111300Z 15003KT 110V190 9999 FEW020 BKN032 15/11 Q1020","updated":"2025-12-11T13:37:58Z"}
