{"icao":"KORD","metar":"KORD 212051Z 27011KT 10SM BKN055 BKN095 BKN250 23/11 A2985 RMK AO2 RAB1959E08 TSE28 SLP105 P0000 60000 T02280106 58005 $","updated":"2026-04-21T21:44:31Z"}
