{"icao":"LPPR","metar":"LPPR 011000Z 13003KT 100V170 9999 SCT015 SCT040 16/14 Q1017","updated":"2025-11-01T10:17:05Z"}
