{"icao":"KLAX","metar":"KLAX 172053Z 23011KT 10SM FEW022 SCT050 BKN060 15/09 A3007 RMK AO2 SLP182 60027 T01500094 58009","updated":"2026-02-17T21:34:28Z"}
