{"icao":"LPPR","metar":"LPPR 232200Z 28011KT 230V320 9999 FEW020CB SCT040 08/03 Q0998","updated":"2026-01-23T22:17:27Z"}
