{"icao":"LPMR","metar":"LPMR 130700Z 16012KT 7000 -TSRA FEW016 SCT022CB 16/15 Q0999 RERA","updated":"2025-11-13T07:18:10Z"}
