{"icao":"KLAX","metar":"KLAX 101453Z 09004KT 10SM FEW250 14/03 A3003 RMK AO2 SLP166 T01440033 53004 $","updated":"2025-12-10T15:23:42Z"}
