{"icao":"KORD","metar":"KORD 191051Z 31012G23KT 9SM -RA FEW008 BKN012 OVC018 12/11 A2951 RMK AO2 SLP992 P0003 T01220106 $","updated":"2025-10-19T11:13:16Z"}
