{"icao":"KORD","metar":"KORD 040951Z 23003KT 10SM BKN250 05/M03 A3026 RMK AO2 SLP247 T00501033 $","updated":"2025-11-04T10:22:05Z"}
