{"icao":"LPOV","metar":"LPOV 212300Z 01005KT CAVOK 13/09 Q1023","updated":"2025-09-21T23:14:54Z"}
