{"icao":"KORD","metar":"KORD 271151Z 32012KT 10SM OVC030 M02/M08 A3016 RMK AO2 SLP221 T10171083 11006 21017 53011","updated":"2025-11-27T12:40:10Z"}
