{"icao":"LPPT","metar":"LPPT 232200Z 26006KT 9999 FEW014 BKN042 14/11 Q1024","updated":"2025-11-23T22:16:59Z"}
