{"icao":"KORD","metar":"KORD 091106Z 34014G23KT 4SM -SN BR BKN011 OVC032 01/M01 A2994 RMK AO2 P0000 T00061011 $","updated":"2025-11-09T11:13:38Z"}
