{"icao":"LPCS","metar":"LPCS 311700Z 20010KT 7000 SCT004 BKN014 19/19 Q1013","updated":"2025-10-31T17:16:51Z"}
