{"icao":"LPBJ","metar":"LPBJ 120200Z 08004KT CAVOK 17/10 Q1016","updated":"2025-10-12T03:00:56Z"}
