{"icao":"KJFK","metar":"KJFK 031851Z 19009KT 10SM FEW055 FEW250 19/09 A3031 RMK AO2 SLP262 T01940089","updated":"2025-10-03T19:13:57Z"}
