{"icao":"KORD","metar":"KORD 111651Z 30008KT 10SM FEW250 01/M07 A3022 RMK AO2 SLP241 T00111067 $","updated":"2026-02-11T17:13:45Z"}
