{"icao":"KORD","metar":"KORD 090351Z 06013KT 6SM RA BKN012 OVC019 04/02 A2985 RMK AO2 SLP113 P0009 T00440017 $","updated":"2025-11-09T04:20:58Z"}
