{"icao":"KJFK","metar":"KJFK 300051Z 20005KT 10SM BKN230 20/16 A3019 RMK AO2 SLP223 T02000156 $","updated":"2025-09-30T01:20:07Z"}
