{"icao":"LPHR","metar":"LPHR 260800Z 19009KT 160V240 9999 FEW012 BKN030 18/14 Q1023","updated":"2025-11-26T08:26:36Z"}
