{"icao":"KORD","metar":"KORD 170951Z 26007KT 10SM SCT130 BKN250 03/M01 A2982 RMK AO2 SLP102 T00331006","updated":"2025-12-17T10:22:44Z"}
