{"icao":"KJFK","metar":"KJFK 150751Z 31015G24KT 10SM FEW065 FEW250 M07/M14 A3016 RMK AO2 PK WND 33033/0701 SLP212 T10671139 $","updated":"2025-12-15T08:30:50Z"}
