{"icao":"LPCS","metar":"LPCS 300900Z 08006KT 010V120 CAVOK 22/13 Q1018","updated":"2025-09-30T09:18:49Z"}
