{"icao":"LPMR","metar":"LPMR 262200Z 33002KT 9999 FEW006 15/15 Q1017","updated":"2026-04-26T22:36:22Z"}
