{"icao":"KJFK","metar":"KJFK 011151Z 31015KT 10SM FEW032 FEW250 03/M05 A3027 RMK AO2 SLP250 70019 T00281050 10050 20028 53023 $","updated":"2025-12-01T12:40:44Z"}
