{"icao":"KLAX","metar":"KLAX 051240Z 09004KT 4SM BR FEW003 FEW008 BKN021 12/12 A3002 RMK AO2 VIS SE-S 2 1/2 T01220122 $","updated":"2026-01-05T12:44:04Z"}
