{"icao":"LPPR","metar":"LPPR 311730Z 32011KT CAVOK 21/15 Q1020","updated":"2026-05-31T17:59:53Z"}
