{"icao":"LPBJ","metar":"LPBJ 240400Z 08004KT CAVOK 15/01 Q1016","updated":"2025-09-24T04:20:35Z"}
