{"icao":"LPBJ","metar":"LPBJ 140900Z 15011KT 9999 SCT030 13/12 Q1006","updated":"2025-11-14T09:19:44Z"}
