{"icao":"LPOV","metar":"LPOV 170700Z 00000KT 5000 BR SCT006 09/09 Q1020","updated":"2026-04-17T07:44:25Z"}
