{"icao":"LPAZ","metar":"LPAZ 041330Z 25010KT 0400 R18/0450 -RADZ FG VV002 16/16 Q1025","updated":"2026-03-04T13:57:31Z"}
