{"icao":"LPHR","metar":"LPHR 152100Z 19013KT 9999 FEW017 BKN040 17/14 Q1027","updated":"2026-02-15T21:23:23Z"}
