{"icao":"LPPR","metar":"LPPR 160230Z 13002KT CAVOK 14/14 Q1021","updated":"2025-09-16T02:54:57Z"}
