{"icao":"LPLA","metar":"LPLA 160500Z VRB02KT 9999 BKN040 12/10 Q1030","updated":"2026-05-16T05:53:13Z"}
