{"icao":"LPST","metar":"LPST 171600Z 29013KT 9999 FEW014 21/17 Q1018","updated":"2026-06-17T23:23:19Z"}
