{"icao":"KLAX","metar":"KLAX 052053Z 25008KT 10SM FEW010 20/M01 A3005 RMK AO2 SLP174 FU FEW010 T02001006 58020 $","updated":"2025-12-05T21:17:21Z"}
