{"icao":"KORD","metar":"KORD 080751Z 10007KT 10SM SCT012 OVC055 M05/M08 A3035 RMK AO2 SLP289 T10501078 $","updated":"2026-02-08T08:31:56Z"}
