{"icao":"LPPR","metar":"LPPR 282200Z 20015KT 3000 RADZ BR SCT003 BKN004 OVC012 13/12 Q0998","updated":"2026-01-28T22:25:30Z"}
