{"icao":"LPPT","metar":"LPPT 232130Z 32008KT CAVOK 16/12 Q1016","updated":"2026-03-23T21:35:18Z"}
