{"icao":"LPOV","metar":"LPOV 222300Z 20010KT 170V230 9999 FEW006 OVC020 20/19 Q1017","updated":"2025-10-22T23:14:50Z"}
