{"icao":"LPHR","metar":"LPHR 252100Z 28014KT 4000 -RA BR SCT007 BKN010 15/15 Q1008 RERA","updated":"2026-01-25T21:18:27Z"}
