{"icao":"LPPT","metar":"LPPT 211630Z 30011KT CAVOK 30/15 Q1017","updated":"2026-06-21T16:44:09Z"}
