{"icao":"LPAZ","metar":"LPAZ 111000Z 36006KT 330V040 9999 FEW011 21/19 Q1021","updated":"2025-10-11T10:16:20Z"}
