{"icao":"LPFL","metar":"LPFL 251430Z 15008KT 110V170 9999 FEW020 18/12 Q1017","updated":"2026-04-25T14:40:04Z"}
