{"icao":"LPST","metar":"LPST 251700Z 34007KT 9999 FEW010 BKN030 15/13 Q1017","updated":"2026-02-25T23:27:01Z"}
