{"icao":"KLAX","metar":"KLAX 171135Z 11007KT 10SM FEW016 SCT025 BKN040 BKN200 10/09 A2995 RMK AO2 T01000089 $","updated":"2026-02-17T11:38:06Z"}
