{"icao":"LPCS","metar":"LPCS 131800Z 33010KT 300V360 9999 FEW012 21/16 Q1022","updated":"2025-09-13T18:20:39Z"}
