{"icao":"KJFK","metar":"KJFK 041151Z 27006KT 10SM CLR 16/12 A3022 RMK AO2 SLP234 T01610122 10161 20139 53007","updated":"2025-10-04T12:32:08Z"}
