{"icao":"LPFR","metar":"LPFR 040330Z 32011KT CAVOK 19/12 Q1016","updated":"2026-06-04T03:52:59Z"}
