{"icao":"LPPS","metar":"LPPS 251130Z 32013KT 9999 FEW014 SCT030 17/13 Q1020","updated":"2026-02-25T11:39:21Z"}
