{"icao":"LPMR","metar":"LPMR 162000Z 03001KT 340V090 4000 BR NSC 15/14 Q1015","updated":"2025-10-16T20:19:25Z"}
