{"icao":"KJFK","metar":"KJFK 161251Z 28013KT 10SM FEW040 SCT075 SCT100 BKN200 BKN250 13/08 A2925 RMK AO2 SLP906 T01280083 $","updated":"2025-11-16T13:23:01Z"}
