{"icao":"KORD","metar":"KORD 252051Z 21016G25KT 10SM BKN250 21/M02 A2981 RMK AO2 PK WND 20028/2007 SLP093 T02111022 57041","updated":"2026-03-25T21:38:11Z"}
