{"icao":"LPMT","metar":"LPMT 151600Z 21007KT 180V260 7000 -SHRA SCT026 BKN040 14/13 Q1007","updated":"2025-12-15T16:29:17Z"}
