{"icao":"LPFL","metar":"LPFL 290800Z 17008KT 130V210 9999 FEW012 SCT016 19/13 Q1016","updated":"2025-10-29T08:25:27Z"}
