{"icao":"KORD","metar":"KORD 250651Z 14006KT 10SM BKN130 BKN250 06/M03 A3016 RMK AO2 SLP217 T00611033","updated":"2026-03-25T07:15:20Z"}
