{"icao":"LPCS","metar":"LPCS 172000Z 36006KT CAVOK 12/10 Q1022","updated":"2025-12-17T20:22:31Z"}
