{"icao":"LPMT","metar":"LPMT 020600Z VRB03KT 9999 FEW035 13/12 Q1024","updated":"2025-11-02T06:25:55Z"}
