{"icao":"LPHR","metar":"LPHR 102000Z 22020KT 6000 -RA SCT006 BKN012 FEW014TCU 18/17 Q1016","updated":"2026-01-10T20:20:53Z"}
