{"icao":"LPCS","metar":"LPCS 141300Z 22007KT 200V260 9999 FEW035 26/11 Q1016","updated":"2025-10-14T13:28:58Z"}
