{"icao":"LPPS","metar":"LPPS 241930Z 29014KT 7000 -RA SCT005 SCT010 BKN030 16/15 Q1017","updated":"2026-02-24T19:51:50Z"}
