{"icao":"LPOV","metar":"LPOV 251500Z 26008KT 220V290 9999 FEW030 15/10 Q1012","updated":"2026-01-25T15:19:22Z"}
