{"icao":"KJFK","metar":"KJFK 080751Z 22005KT 10SM SCT023 BKN090 BKN170 13/11 A2966 RMK AO2 SLP044 T01330111","updated":"2025-11-08T08:21:57Z"}
