{"icao":"KLAX","metar":"KLAX 101353Z 00000KT 10SM FEW200 13/04 A3002 RMK AO2 SLP163 T01330044 $","updated":"2025-12-10T14:21:18Z"}
