{"icao":"LPPT","metar":"LPPT 010100Z 34004KT CAVOK 20/12 Q1019","updated":"2025-10-01T01:26:43Z"}
