{"icao":"LPLA","metar":"LPLA 060113Z 20027G45KT 180V250 9999 FEW015 SCT022 21/17 Q1010","updated":"2025-11-06T01:23:58Z"}
