{"icao":"LPAZ","metar":"LPAZ 111800Z 30020KT 9999 SCT030TCU 16/10 Q1004","updated":"2025-11-11T18:26:33Z"}
