{"icao":"LPPS","metar":"LPPS 100500Z 36007KT 9999 SCT012 SCT030 14/12 Q1031","updated":"2026-01-10T05:19:57Z"}
