{"icao":"KJFK","metar":"KJFK 232251Z 28010KT 10SM FEW050 FEW095 FEW250 09/01 A2997 RMK AO2 SLP147 T00890006","updated":"2025-11-23T23:16:37Z"}
