{"icao":"LPHR","metar":"LPHR 131700Z 30020KT 9999 VCSH FEW023 SCT030 15/11 Q1007 WS R28","updated":"2025-11-13T17:17:43Z"}
