{"icao":"LPFR","metar":"LPFR 211400Z 25020KT 9999 SCT005 BKN012 16/15 Q1008","updated":"2026-01-21T14:29:28Z"}
