{"icao":"LPPS","metar":"LPPS 092200Z 05006KT 9999 FEW015 BKN030 21/16 Q1025","updated":"2025-10-09T22:15:40Z"}
