{"icao":"LPHR","metar":"LPHR 201430Z 34013KT 280V020 9999 FEW025 SCT040 14/04 Q1020","updated":"2026-04-20T14:49:35Z"}
