{"icao":"KJFK","metar":"KJFK 231851Z 23011KT 10SM FEW041 SCT070 BKN100 BKN250 09/01 A2992 RMK AO2 SLP132 T00890006","updated":"2025-11-23T19:14:24Z"}
