{"icao":"KLAX","metar":"KLAX 010909Z 03005KT 9SM BKN019 14/11 A3002 RMK AO2 T01390111 $","updated":"2025-12-01T09:27:06Z"}
