{"icao":"LPCS","metar":"LPCS 151000Z 36019KT CAVOK 23/16 Q1022","updated":"2025-09-15T10:18:29Z"}
