{"icao":"LPMA","metar":"LPMA 171230Z 05006KT 010V120 9999 FEW014 18/12 Q1027","updated":"2026-02-17T13:00:59Z"}
