{"icao":"LPPS","metar":"LPPS 021400Z 13009KT 100V160 9999 FEW015 23/19 Q1023","updated":"2025-11-02T14:14:43Z"}
