{"icao":"LPAZ","metar":"LPAZ 031230Z 12007KT 090V150 9999 OVC030 15/09 Q1026","updated":"2026-04-03T13:01:05Z"}
