{"icao":"LPFR","metar":"LPFR 142130Z 33008KT CAVOK 17/12 Q1022","updated":"2026-04-14T21:50:53Z"}
