{"icao":"KORD","metar":"KORD 010137Z 34017G22KT 10SM OVC017 M01/M05 A2986 RMK AO2 T10111050","updated":"2026-01-01T01:49:08Z"}
