{"icao":"LPPS","metar":"LPPS 201500Z 26007KT 9999 FEW014 25/19 Q1018","updated":"2025-10-20T15:18:20Z"}
