{"icao":"LPFR","metar":"LPFR 162100Z 31008KT 9999 FEW030 10/08 Q1015","updated":"2026-01-16T21:19:37Z"}
