{"icao":"LPBJ","metar":"LPBJ 091000Z 08003KT 060V120 CAVOK 13/10 Q1022","updated":"2025-11-09T10:17:00Z"}
