{"icao":"KJFK","metar":"KJFK 071751Z 31018G23KT 10SM BKN035 BKN046 BKN200 BKN250 09/01 A2973 RMK AO2 SLP068 T00940011 10100 20028 53006 $","updated":"2026-01-07T18:31:46Z"}
