{"icao":"KORD","metar":"KORD 070851Z 19010G22KT 5SM -RA BR SCT017 BKN037 OVC075 08/06 A2957 RMK AO2 SLP015 P0011 60015 T00830061 58039 $","updated":"2025-11-07T09:19:08Z"}
