{"icao":"LPPS","metar":"LPPS 221730Z 33014KT 9999 FEW012 23/18 Q1019","updated":"2026-06-22T17:39:36Z"}
