{"icao":"LPMT","metar":"LPMT 171800Z 13004KT 060V210 9999 -SHRA SCT016 BKN030 10/06 Q1010","updated":"2026-01-17T18:26:58Z"}
