{"icao":"KLAX","metar":"KLAX 011853Z VRB04KT 10SM CLR 26/02 A3007 RMK AO2 SLP181 T02560022","updated":"2026-02-01T19:23:29Z"}
