{"icao":"LPMT","metar":"LPMT 150100Z 10002KT CAVOK 14/12 Q1016","updated":"2025-10-15T01:20:20Z"}
