{"icao":"LPPT","metar":"LPPT 070700Z 25008KT 9999 VCSH FEW008 BKN018 15/12 Q1010","updated":"2026-04-07T07:14:35Z"}
