{"icao":"LPAZ","metar":"LPAZ 011700Z 29031G42KT 9999 FEW026 BKN040 15/07 Q1010","updated":"2026-02-01T17:23:47Z"}
