{"icao":"LPPS","metar":"LPPS 101900Z 16003KT 9999 FEW015 20/15 Q1018","updated":"2025-11-10T19:15:35Z"}
