{"icao":"KJFK","metar":"KJFK 050651Z 36009KT 10SM FEW250 M04/M14 A3033 RMK AO2 SLP269 T10441144 $","updated":"2025-12-05T07:20:09Z"}
