{"icao":"KJFK","metar":"KJFK 212151Z 18017KT 10SM FEW150 FEW250 17/12 A2982 RMK AO2 SLP099 T01720117","updated":"2025-10-21T22:15:50Z"}
