{"icao":"LPLA","metar":"LPLA 150200Z 26004KT 220V290 9999 SCT040 13/08 Q1022","updated":"2026-04-15T02:27:05Z"}
