{"icao":"LPFL","metar":"LPFL 031830Z 12006KT 070V160 9999 BKN021 16/11 Q1024","updated":"2026-05-03T18:57:48Z"}
