{"icao":"LPPR","metar":"LPPR 252000Z 11005KT 080V150 7000 SCT020 11/09 Q1012","updated":"2026-01-25T20:22:33Z"}
