{"icao":"LPMT","metar":"LPMT 251800Z 33010KT 9999 FEW030 22/14 Q1014","updated":"2026-04-25T18:51:01Z"}
