{"icao":"LPST","metar":"LPST 131500Z 33009KT 9999 SCT020 16/13 Q1019","updated":"2026-05-13T16:17:35Z"}
