{"icao":"KJFK","metar":"KJFK 282151Z 19008KT 10SM FEW055 FEW090 SCT250 25/17 A2998 RMK SLP152 T02500172 ","updated":"2026-06-28T22:00:41Z"}
