{"icao":"LPMA","metar":"LPMA 241800Z 01007KT 330V040 9999 FEW015 22/13 Q1019","updated":"2025-09-24T18:23:53Z"}
