{"icao":"KLAX","metar":"KLAX 200053Z 24010KT 10SM FEW045 FEW085 22/17 A2989 RMK AO2 SLP118 T02220172","updated":"2025-09-20T01:15:45Z"}
