{"icao":"LPST","metar":"LPST 091600Z 33016KT 300V360 9999 FEW025 SCT030 11/04 Q1022","updated":"2026-03-09T16:59:34Z"}
