{"icao":"LPOV","metar":"LPOV 220500Z 02005KT CAVOK 10/08 Q1022","updated":"2025-09-22T05:17:29Z"}
