{"icao":"LPFL","metar":"LPFL 040900Z 10005KT 030V150 9999 SCT022 16/10 Q1026","updated":"2026-05-04T09:15:57Z"}
