{"icao":"LPMR","metar":"LPMR 101500Z 30012KT CAVOK 27/10 Q1011","updated":"2026-04-10T15:52:03Z"}
