{"icao":"LPMR","metar":"LPMR 231300Z 24009KT 200V270 8000 SCT020 BKN038 09/07 Q1000","updated":"2026-01-23T14:23:51Z"}
