{"icao":"KJFK","metar":"KJFK 122051Z 27015KT 10SM FEW055 BKN075 OVC110 09/M03 A2974 RMK AO2 PK WND 28027/2003 SLP072 VCSH NW T00891028 55001 $","updated":"2025-11-12T21:17:13Z"}
