{"icao":"LPMT","metar":"LPMT 070600Z 19006KT 160V220 9999 SCT020 BKN030 10/07 Q1023","updated":"2026-01-07T06:32:13Z"}
