{"icao":"LPBJ","metar":"LPBJ 100700Z 31007KT 6000 VCFG SCT004 BKN030 06/06 Q1020","updated":"2026-03-10T07:39:23Z"}
