{"icao":"LPFL","metar":"LPFL 121700Z 32009KT 270V010 9999 FEW025 15/08 Q1021","updated":"2026-01-12T17:22:39Z"}
