{"icao":"LPPR","metar":"LPPR 160230Z 00000KT 0400 R17/0750N FG VV001 14/14 Q1016","updated":"2025-10-16T03:01:50Z"}
