{"icao":"LPFL","metar":"LPFL 091900Z 21003KT 180V240 9999 VCSH SCT018 17/13 Q1023","updated":"2025-11-09T19:12:37Z"}
