{"icao":"LPCS","metar":"LPCS 261930Z 01016KT CAVOK 20/13 Q1015","updated":"2026-04-26T19:44:48Z"}
