{"icao":"LPOV","metar":"LPOV 220300Z 35008KT CAVOK 11/08 Q1022","updated":"2025-09-22T03:05:57Z"}
