{"icao":"LPMT","metar":"LPMT 251000Z 25013KT 5000 -SHRA BKN012 BKN030 14/13 Q1016 RESHRA","updated":"2026-01-25T11:16:55Z"}
