{"icao":"LPPT","metar":"LPPT 010200Z 32007KT CAVOK 10/07 Q1023","updated":"2026-03-01T02:10:12Z"}
