{"icao":"LPPT","metar":"LPPT 151030Z 33005KT 270V020 9999 FEW018 BKN025 16/12 Q1025","updated":"2026-04-15T10:57:35Z"}
