{"icao":"LPPS","metar":"LPPS 201800Z 06013KT 9999 SCT015 18/14 Q1021","updated":"2025-11-20T18:28:13Z"}
