{"icao":"LPFL","metar":"LPFL 232000Z 18016KT 160V220 9999 FEW009 17/15 Q1021","updated":"2025-12-23T20:20:51Z"}
