{"icao":"KLAX","metar":"KLAX 160653Z 10005KT 9SM CLR 14/13 A3006 RMK AO2 SLP176 T01390128","updated":"2025-12-16T07:22:13Z"}
