{"icao":"LPHR","metar":"LPHR 211800Z 34011KT 310V030 9999 FEW025 21/14 Q1022","updated":"2026-06-21T18:18:47Z"}
