{"icao":"LPLA","metar":"LPLA 271000Z 31004KT 270V350 9999 FEW032 14/08 Q1036","updated":"2026-02-27T10:36:04Z"}
