{"icao":"LPMA","metar":"LPMA 052000Z 31005KT 270V340 9999 SCT015 17/10 Q1011","updated":"2026-02-05T20:32:37Z"}
