{"icao":"LPPT","metar":"LPPT 202300Z 33010KT 300V010 CAVOK 21/16 Q1016","updated":"2026-06-20T23:06:47Z"}
