{"icao":"LPPR","metar":"LPPR 240900Z 03005KT 350V070 CAVOK 08/04 Q1012","updated":"2025-12-24T09:23:00Z"}
