{"icao":"LPPD","metar":"LPPD 211330Z 27018KT 7000 SCT003 BKN005 16/16 Q1021","updated":"2026-01-21T13:43:58Z"}
