{"icao":"LPLA","metar":"LPLA 272000Z 07005KT 360V110 9999 FEW014 SCT018 BKN025 14/11 Q1031","updated":"2026-03-27T20:37:11Z"}
