{"icao":"LPMR","metar":"LPMR 262300Z 14004KT 100V170 9999 FEW040 06/02 Q1014","updated":"2025-12-26T23:18:46Z"}
