{"icao":"LPHR","metar":"LPHR 031100Z 21008KT 9999 FEW005 BKN020 22/22 Q1022","updated":"2025-10-03T11:14:11Z"}
