{"icao":"KJFK","metar":"KJFK 171151Z 04010KT 10SM FEW021 FEW065 SCT080 BKN250 18/14 A3010 RMK AO2 SLP191 T01830144 10189 20172 58007 $","updated":"2025-09-17T12:36:34Z"}
