{"icao":"LPOV","metar":"LPOV 242000Z 31004KT CAVOK 18/17 Q1020","updated":"2026-05-25T00:03:10Z"}
