{"icao":"LPPR","metar":"LPPR 310700Z 07005KT 320V110 CAVOK 11/08 Q1029","updated":"2026-03-31T07:11:44Z"}
