{"icao":"LPFR","metar":"LPFR 241830Z 09007KT 9000 FEW010 16/15 Q1017","updated":"2026-02-24T19:00:08Z"}
