{"icao":"LPPS","metar":"LPPS 232300Z 06007KT 9999 SCT015 18/13 Q1026","updated":"2025-11-23T23:16:37Z"}
