{"icao":"LPPT","metar":"LPPT 071600Z 31006KT 270V340 9999 FEW012 SCT040 19/17 Q1015","updated":"2025-11-07T16:19:19Z"}
