{"icao":"LPLA","metar":"LPLA 081100Z 23016G26KT 200V260 9999 SCT015 SCT035 18/14 Q1030","updated":"2026-01-08T11:19:48Z"}
