{"icao":"LPBJ","metar":"LPBJ 230100Z 23001KT CAVOK 12/06 Q1026","updated":"2026-02-23T02:04:16Z"}
