{"icao":"LPPR","metar":"LPPR 300700Z VRB04G14KT CAVOK 09/00 Q1033","updated":"2026-03-30T07:25:28Z"}
