{"icao":"LPST","metar":"LPST 161600Z 30007KT CAVOK 22/11 Q1014","updated":"2025-10-16T17:15:45Z"}
