{"icao":"LPMT","metar":"LPMT 110800Z 35012KT 9999 FEW017 15/11 Q1014","updated":"2026-04-11T08:41:24Z"}
