{"icao":"LPPR","metar":"LPPR 232300Z 22008KT 180V240 9999 SCT010 BKN037 15/13 Q1019","updated":"2025-11-23T23:16:35Z"}
