{"icao":"LPCS","metar":"LPCS 101230Z 36016KT 9999 VCSH FEW012 SCT016 13/10 Q1022","updated":"2026-03-10T12:58:01Z"}
