{"icao":"LPMA","metar":"LPMA 151800Z 34008KT 300V010 9999 FEW015 21/15 Q1015","updated":"2025-11-15T18:23:40Z"}
