{"icao":"LPFL","metar":"LPFL 291700Z 17005KT 130V230 9999 FEW012 19/15 Q1028","updated":"2025-11-29T17:15:53Z"}
