{"icao":"LPMT","metar":"LPMT 261800Z 21011KT 180V240 9000 FEW016 BKN026 15/13 Q1009","updated":"2026-01-26T18:34:18Z"}
