{"icao":"LPCS","metar":"LPCS 311100Z 30010KT 250V330 9999 FEW018 15/08 Q1021","updated":"2026-01-31T11:19:43Z"}
