{"icao":"LPPR","metar":"LPPR 290600Z 18008KT 9999 SCT013 BKN023 17/15 Q1006","updated":"2025-10-29T06:28:52Z"}
