{"icao":"LPPT","metar":"LPPT 130700Z 24010KT 6000 RA FEW012 BKN032 11/10 Q1007 RERA","updated":"2026-01-13T07:23:52Z"}
