{"icao":"KLAX","metar":"KLAX 151753Z 24009KT 10SM FEW008 BKN011 21/15 A3003 RMK AO2 SLP169 T02060150 10206 20172 51008 $","updated":"2026-06-15T18:23:29Z"}
