{"icao":"LPPR","metar":"LPPR 060300Z 22010KT 170V240 1600 DZRA BR BKN002 16/15 Q1019","updated":"2025-12-06T03:08:23Z"}
