{"icao":"LPHR","metar":"LPHR 290800Z 24009KT 2000 BR BKN001 BKN003 22/22 Q1023","updated":"2025-09-29T08:25:54Z"}
