{"icao":"LPHR","metar":"LPHR 031800Z 16007KT 090V210 9000 VCSH FEW010 SCT025 16/12 Q1015","updated":"2026-01-03T18:27:13Z"}
