{"icao":"LPMR","metar":"LPMR 291500Z 34018KT CAVOK 17/02 Q1029","updated":"2026-03-29T15:31:34Z"}
