{"icao":"LPOV","metar":"LPOV 141200Z 28004KT 240V320 9999 FEW020 21/15 Q1018","updated":"2025-10-14T12:38:49Z"}
