{"icao":"LPFR","metar":"LPFR 122000Z 19012KT 160V220 9999 SCT015 FEW022CB BKN030 20/18 Q1009 RESHRA","updated":"2025-11-12T20:20:50Z"}
