{"icao":"LPPR","metar":"LPPR 251230Z 09005KT 020V160 9999 BKN048 12/05 Q1011","updated":"2025-12-25T12:39:19Z"}
