{"icao":"KORD","metar":"KORD 221351Z 22010KT 10SM FEW039 SCT250 22/17 A2991 RMK AO2 SLP123 T02170167","updated":"2025-09-22T14:18:36Z"}
