{"icao":"LPCS","metar":"LPCS 152000Z 25007KT 220V290 9999 FEW022 FEW028TCU 17/13 Q1009","updated":"2025-11-15T20:18:01Z"}
