{"icao":"KJFK","metar":"KJFK 042151Z 10019G27KT 8SM -RA BKN035 BKN150 OVC250 09/04 A3023 RMK AO2 PK WND 09038/2101 RAB08 SLP237 P0000 T00940044","updated":"2026-04-04T22:28:45Z"}
