{"icao":"LPMA","metar":"LPMA 031300Z 36014KT 320V020 9999 FEW015 22/17 Q1025","updated":"2026-06-03T13:21:01Z"}
