{"icao":"LPMA","metar":"LPMA 131900Z 30008KT 260V330 9999 SCT015 19/08 Q1007","updated":"2025-11-13T19:15:14Z"}
