{"icao":"LPMA","metar":"LPMA 260630Z 22013KT 9999 SCT015 17/09 Q1022","updated":"2026-01-26T06:35:49Z"}
