{"icao":"LPST","metar":"LPST 241600Z 25006KT 9999 SCT010 BKN015 20/19 Q1017","updated":"2025-10-26T17:14:01Z"}
