{"icao":"KORD","metar":"KORD 251251Z 18010KT 10SM FEW070 FEW150 BKN250 07/M02 A3006 RMK AO2 SLP182 T00721022","updated":"2026-03-25T13:07:51Z"}
