{"icao":"LPAZ","metar":"LPAZ 212200Z 35004KT 310V030 9999 OVC030 15/09 Q1026","updated":"2025-12-21T22:18:16Z"}
