{"icao":"LPAZ","metar":"LPAZ 011900Z 32030G40KT 9999 VCSH SCT030 SCT049 14/09 Q1002","updated":"2026-01-01T19:16:40Z"}
