{"icao":"LPPD","metar":"LPPD 281700Z 25026G40KT 7000 FEW011 SCT045 17/15 Q1008","updated":"2026-01-28T17:30:42Z"}
