{"icao":"KJFK","metar":"KJFK 080651Z 35011KT 10SM FEW250 M01/M10 A3052 RMK AO2 SLP335 T10061100","updated":"2026-04-08T07:18:07Z"}
