{"icao":"KJFK","metar":"KJFK 241851Z 14011KT 10SM FEW120 BKN250 15/05 A2982 RMK SLP096 T01500050 $ ","updated":"2026-04-24T19:52:01Z"}
