{"icao":"LPPD","metar":"LPPD 281330Z 21005KT 4000 -RADZ BR SCT003 BKN005 14/14 Q1032","updated":"2026-02-28T13:35:09Z"}
