{"icao":"KLAX","metar":"KLAX 091653Z 05004KT 10SM FEW110 SCT140 BKN180 BKN250 18/07 A3005 RMK AO2 SLP175 T01830067 $","updated":"2026-02-09T17:53:22Z"}
