{"icao":"LPMA","metar":"LPMA 261900Z 02010KT 350V050 9999 SCT016 SCT030 19/11 Q1022","updated":"2025-11-26T19:14:43Z"}
