{"icao":"LPMR","metar":"LPMR 131800Z 31005KT CAVOK 20/12 Q1016","updated":"2025-10-13T18:24:53Z"}
