{"icao":"KORD","metar":"KORD 041351Z 34004KT 10SM FEW025 BKN033 BKN230 M06/M13 A3020 RMK AO2 SLP237 T10561128 $","updated":"2026-01-04T14:17:52Z"}
