{"icao":"KJFK","metar":"KJFK 281151Z 35014KT 10SM SCT060 00/M10 A3036 RMK AO2 SLP279 T00001100 10044 20000 53036","updated":"2026-03-28T12:53:10Z"}
