{"icao":"KLAX","metar":"KLAX 020553Z 00000KT 6SM BR OVC007 16/14 A3006 RMK AO2 SLP178 T01610144 10167 20156 51008 $","updated":"2025-11-02T06:25:58Z"}
