{"icao":"LPMA","metar":"LPMA 030700Z 24009KT 9999 SCT015 SCT030 21/17 Q1021","updated":"2025-11-03T07:18:27Z"}
