{"icao":"KJFK","metar":"KJFK 250751Z 18014KT 10SM SCT160 BKN250 00/M05 A2984 RMK AO2 PRESFR SLP105 T00001050 $","updated":"2026-02-25T08:47:33Z"}
