{"icao":"LPPR","metar":"LPPR 051700Z 20009KT 7000 -SHRA FEW016 FEW024CB BKN030 14/12 Q1005","updated":"2025-11-05T17:17:26Z"}
