{"icao":"LPOV","metar":"LPOV 240700Z 22010KT 190V250 9999 -RADZ FEW006 BKN035 16/15 Q1016","updated":"2025-11-24T07:18:45Z"}
