{"icao":"LPFR","metar":"LPFR 021030Z 21005KT 160V250 9999 FEW030 20/14 Q1018","updated":"2026-05-02T10:50:14Z"}
