{"icao":"LPBJ","metar":"LPBJ 280626Z 28019G29KT 8000 -RA SCT009 BKN016 FEW030CB 12/11 Q0996 RESHRA","updated":"2026-01-28T06:34:55Z"}
