{"icao":"LPPR","metar":"LPPR 060530Z 11004KT 070V140 9999 FEW012 10/09 Q1014","updated":"2026-05-06T05:56:18Z"}
