{"icao":"LPMR","metar":"LPMR 131400Z 30011KT 270V340 9999 FEW038 30/11 Q1016","updated":"2026-06-13T14:58:51Z"}
