{"icao":"LPLA","metar":"LPLA 200400Z 35012G24KT 9999 SCT015 14/10 Q1007","updated":"2026-03-20T04:44:49Z"}
