{"icao":"LPPD","metar":"LPPD 191800Z 03011KT 350V070 9999 SCT020 SCT035 17/12 Q1023","updated":"2025-11-19T18:28:02Z"}
