{"icao":"LPMR","metar":"LPMR 201800Z 31005KT CAVOK 23/12 Q1020","updated":"2026-05-20T19:22:57Z"}
