{"icao":"LPCS","metar":"LPCS 161300Z 34012KT 310V010 9999 FEW020 21/13 Q1021","updated":"2026-04-16T13:27:38Z"}
