{"icao":"LPAZ","metar":"LPAZ 041330Z 22028KT 7000 FEW006 SCT013 17/15 Q0998","updated":"2026-02-04T14:03:49Z"}
