{"icao":"LPOV","metar":"LPOV 161000Z 15007KT 200V290 9999 SCT006 BKN014 OVC030 14/13 Q1029","updated":"2026-02-16T10:49:11Z"}
