{"icao":"LPMA","metar":"LPMA 211500Z 04018KT 020V080 9999 FEW016 19/11 Q1025","updated":"2026-02-21T15:23:35Z"}
