{"icao":"LPHR","metar":"LPHR 102300Z 12009KT 080V160 9999 FEW014 SCT030 14/08 Q1032","updated":"2026-04-11T02:07:33Z"}
