{"icao":"LPOV","metar":"LPOV 230600Z 15007KT 120V180 9999 FEW002 BKN012 11/10 Q1026","updated":"2025-11-23T06:26:38Z"}
