{"icao":"LPFR","metar":"LPFR 051100Z 25019KT 6000 FEW015 FEW020TCU 17/15 Q1001","updated":"2026-02-05T11:33:50Z"}
