{"icao":"LPPT","metar":"LPPT 251800Z 26006KT 230V290 9999 VCSH FEW008 SCT012 BKN024 14/13 Q1014","updated":"2026-01-25T18:28:33Z"}
