{"icao":"KLAX","metar":"KLAX 180053Z 26011KT 4SM BR FEW250 BKN300 16/13 A2996 RMK AO2 SLP145 T01560133 $","updated":"2025-12-18T01:25:39Z"}
