{"icao":"KJFK","metar":"KJFK 031851Z 19009KT 10SM BKN029 BKN044 OVC180 14/09 A2999 RMK AO2 SLP155 T01390089 $","updated":"2025-11-03T19:15:13Z"}
