{"icao":"LPAR","metar":"LPAR 061300Z 26016KT 9999 VCSH FEW024 FEW025TCU SCT035 15/07 Q1005","updated":"2026-02-06T14:03:15Z"}
