{"icao":"LPMR","metar":"LPMR 222200Z 24008KT 200V270 9999 BKN007 BKN025 21/19 Q1019","updated":"2025-10-22T22:14:14Z"}
