{"icao":"LPMA","metar":"LPMA 221400Z 05006KT 360V130 9999 FEW016 19/12 Q1025","updated":"2026-02-22T14:24:38Z"}
