{"icao":"LPPD","metar":"LPPD 301500Z 27010KT 250V310 9999 SCT020 SCT030 19/14 Q1026","updated":"2025-11-30T15:16:51Z"}
