{"icao":"LPFR","metar":"LPFR 131500Z 17007KT 9999 FEW020 24/19 Q1015","updated":"2025-10-13T15:18:17Z"}
