{"icao":"KORD","metar":"KORD 150051Z 01013KT 10SM BKN120 OVC150 16/11 A3031 RMK AO2 SLP263 T01560106 $","updated":"2025-10-15T01:20:35Z"}
