{"icao":"LPPT","metar":"LPPT 062300Z 20004KT 160V250 9999 FEW015 FEW020TCU 09/07 Q1011 WS R20","updated":"2026-02-06T23:24:02Z"}
