{"icao":"KJFK","metar":"KJFK 190951Z 05008KT 10SM FEW020 OVC029 02/M01 A2998 RMK AO2 SLP153 T00221011 $","updated":"2026-02-19T10:41:22Z"}
