{"icao":"KJFK","metar":"KJFK 100351Z 25010KT 9SM OVC013 11/09 A3010 RMK AO2 SLP193 T01060089 $","updated":"2026-01-10T04:33:19Z"}
