{"icao":"LPPD","metar":"LPPD 190430Z 02008KT 350V050 9999 FEW018 13/08 Q1030","updated":"2026-01-19T04:50:42Z"}
