{"icao":"LPOV","metar":"LPOV 281200Z 26013G23KT 230V290 9999 BKN040 14/09 Q1000","updated":"2026-01-28T12:48:08Z"}
