{"icao":"LPMR","metar":"LPMR 192000Z 25005KT 220V280 6000 SCT003 BKN006 19/18 Q1013","updated":"2025-10-19T20:18:22Z"}
