{"icao":"LPHR","metar":"LPHR 281500Z 12010KT 9999 FEW020 22/16 Q1027","updated":"2025-09-28T15:14:25Z"}
