{"icao":"LPPT","metar":"LPPT 021100Z 30006KT 250V340 9999 FEW025 15/09 Q1020","updated":"2025-12-02T11:18:07Z"}
