{"icao":"LPMT","metar":"LPMT 181400Z 31005KT CAVOK 26/14 Q1015","updated":"2025-10-18T14:14:24Z"}
