{"icao":"KJFK","metar":"KJFK 140651Z 31011G21KT 10SM FEW110 06/M01 A3002 RMK AO2 PK WND 30027/0631 SLP166 T00561011","updated":"2025-11-14T07:18:07Z"}
