{"icao":"LPFL","metar":"LPFL 261300Z 03011KT 350V070 9999 SCT022 19/12 Q1028","updated":"2025-10-26T13:22:18Z"}
