{"icao":"LPCS","metar":"LPCS 211830Z 29021G31KT 8000 -DZ FEW006 SCT016 BKN035 13/11 Q1006","updated":"2026-01-21T18:40:42Z"}
