{"icao":"KORD","metar":"KORD 240051Z 03012KT 10SM BKN013 OVC024 19/17 A2997 RMK AO2 SLP147 T01940167","updated":"2025-09-24T01:18:09Z"}
