{"icao":"LPCS","metar":"LPCS 051800Z 28005KT 220V320 9999 FEW008 BKN030 16/16 Q1022","updated":"2025-12-05T18:26:12Z"}
