{"icao":"LPHR","metar":"LPHR 161130Z 23006KT 9999 FEW020 17/12 Q1030","updated":"2026-05-16T11:49:36Z"}
