{"icao":"KJFK","metar":"KJFK 020151Z 02009KT 10SM FEW250 02/M10 A3042 RMK AO2 SLP301 T00171100 VISNO W $","updated":"2026-03-02T02:01:20Z"}
