{"icao":"LPOV","metar":"LPOV 260600Z 17003KT CAVOK M00/M00 Q1013","updated":"2025-12-26T06:30:44Z"}
