{"icao":"LPPR","metar":"LPPR 061600Z 22011KT 190V250 7000 BKN003 BKN015 16/15 Q1020","updated":"2025-12-06T16:21:13Z"}
