{"icao":"KJFK","metar":"KJFK 010651Z 29017G30KT 10SM FEW029 BKN250 04/M03 A3016 RMK AO2 PK WND 29031/0611 SLP212 T00441028 $","updated":"2025-12-01T07:22:29Z"}
