{"icao":"LPCS","metar":"LPCS 041900Z 16006KT 130V200 CAVOK 19/17 Q1014","updated":"2025-11-05T06:27:44Z"}
