{"icao":"LPMA","metar":"LPMA 072230Z 33010KT 250V020 9999 SCT014 14/05 Q1025","updated":"2026-04-07T22:36:34Z"}
