{"icao":"KORD","metar":"KORD 161951Z 29012G21KT 10SM FEW250 09/M10 A2991 RMK AO2 SLP129 T00891100 $","updated":"2025-11-16T20:19:13Z"}
