{"icao":"LPMA","metar":"LPMA 252200Z 28003KT 190V330 9999 FEW016 16/09 Q1025","updated":"2026-01-25T22:19:15Z"}
