{"icao":"LPPT","metar":"LPPT 111930Z 32008KT CAVOK 14/11 Q1026","updated":"2026-03-11T19:40:07Z"}
