{"icao":"LPPR","metar":"LPPR 251500Z 31007KT 280V340 CAVOK 23/06 Q1018","updated":"2025-09-25T15:18:41Z"}
