{"icao":"LPPD","metar":"LPPD 131230Z 02003KT 340V050 9999 SCT018 BKN030 20/16 Q1016","updated":"2025-10-13T12:37:19Z"}
