{"icao":"KORD","metar":"KORD 252151Z 06013KT 10SM FEW014 BKN036 OVC250 04/00 A3009 RMK AO2 SLP192 T00390000 $","updated":"2025-12-25T22:18:54Z"}
