{"icao":"LPHR","metar":"LPHR 201100Z 20019KT 6000 VCSH SCT007 SCT011 BKN030 17/15 Q1020","updated":"2026-02-20T11:31:15Z"}
