{"icao":"LPPD","metar":"LPPD 282100Z 27011KT 8000 BKN004 BKN008 16/15 Q1029","updated":"2026-02-28T21:19:19Z"}
