{"icao":"LPAR","metar":"LPAR 230900Z 29004KT 240V330 9999 BKN025 SCT040 22/19 Q1020","updated":"2025-10-23T09:19:45Z"}
