{"icao":"LPLA","metar":"LPLA 211300Z 29021KT 9000 -DZ SCT006 BKN013 BKN030 18/16 Q1020","updated":"2026-01-21T13:43:58Z"}
