{"icao":"KJFK","metar":"KJFK 091051Z 00000KT 10SM BKN020 BKN250 01/M01 A3063 RMK AO2 SLP371 T00111011","updated":"2026-04-09T10:57:34Z"}
