{"icao":"LPPS","metar":"LPPS 290700Z 32012KT 9999 SCT013 FEW018CB 21/18 Q1013","updated":"2025-10-29T07:18:02Z"}
