{"icao":"LPPR","metar":"LPPR 011500Z 25005KT 210V300 9999 SCT013 18/14 Q1018","updated":"2025-11-01T15:15:03Z"}
