{"icao":"LPPR","metar":"LPPR 291800Z 33007KT CAVOK 21/14 Q1017","updated":"2025-09-29T18:26:16Z"}
