{"icao":"LPMA","metar":"LPMA 011400Z 22028KT 9999 -SHRA FEW014 FEW015CB BKN033 18/14 Q1000","updated":"2026-01-01T14:18:55Z"}
