{"icao":"KORD","metar":"KORD 201151Z 11003KT 10SM FEW250 03/M01 A3034 RMK AO2 SLP278 70001 T00281011 10039 20006 53018","updated":"2026-04-20T12:03:17Z"}
