{"icao":"KJFK","metar":"KJFK 021751Z 33013G22KT 10SM FEW250 M01/M12 A2999 RMK SLP155 4/006 933011 T10061117 11006 21089 58010 PNO $ ","updated":"2026-02-02T18:41:57Z"}
