{"icao":"KORD","metar":"KORD 071051Z 21011G20KT 10SM SCT038 BKN046 OVC200 09/07 A2952 RMK AO2 SLP997 T00890072 $","updated":"2025-11-07T11:15:11Z"}
