{"icao":"LPCS","metar":"LPCS 081100Z 34007KT 290V020 9999 SCT018 BKN025 19/14 Q1023","updated":"2025-10-08T11:14:30Z"}
