{"icao":"LPMA","metar":"LPMA 042300Z 35011KT 300V040 9999 SCT015 14/08 Q1023","updated":"2026-03-04T23:28:21Z"}
