{"icao":"LPHR","metar":"LPHR 260630Z 26011KT 9999 SCT005 SCT009 BKN020 16/16 Q1029","updated":"2026-02-26T07:02:35Z"}
