{"icao":"LPMT","metar":"LPMT 102200Z 36004KT 9999 FEW032 18/13 Q1019","updated":"2025-10-10T22:15:21Z"}
