{"icao":"LPHR","metar":"LPHR 131900Z 19008KT 9999 FEW022 17/12 Q1031","updated":"2026-03-13T19:30:14Z"}
