{"icao":"LPAZ","metar":"LPAZ 292000Z 27016KT 3000 BR VV003 17/16 Q1016","updated":"2026-01-29T20:28:30Z"}
