{"icao":"LPMT","metar":"LPMT 050100Z 32006KT 9999 FEW035 13/11 Q1015","updated":"2026-03-05T01:59:54Z"}
