{"icao":"LPCS","metar":"LPCS 291900Z 02006KT 9999 FEW006 SCT015 18/17 Q1011","updated":"2025-10-29T23:16:48Z"}
