{"icao":"LPPR","metar":"LPPR 082100Z 16022KT 9999 FEW012 SCT027 16/13 Q1016","updated":"2025-12-08T21:16:07Z"}
