{"icao":"LPBJ","metar":"LPBJ 021700Z 27010KT 240V310 9999 FEW045 23/11 Q1015","updated":"2026-05-02T17:41:37Z"}
