{"icao":"LPPS","metar":"LPPS 061100Z 33007KT 300V010 9999 FEW014 22/10 Q1022","updated":"2025-11-06T11:16:34Z"}
