{"icao":"KORD","metar":"KORD 161951Z 32024G33KT 8SM -SN SCT027 BKN035 OVC044 M03/M09 A2968 RMK AO2 PK WND 31033/1951 SLP058 P0000 T10281094 $","updated":"2026-03-16T20:37:14Z"}
