{"icao":"LPLA","metar":"LPLA 250400Z 07003KT 020V120 9999 FEW020 15/12 Q1013","updated":"2026-04-25T05:10:42Z"}
