{"icao":"LPFR","metar":"LPFR 140100Z 23003KT CAVOK 20/16 Q1015","updated":"2025-10-14T01:18:16Z"}
