{"icao":"KJFK","metar":"KJFK 030551Z 32017G27KT 10SM FEW046 OVC070 02/M01 A2976 RMK AO2 PK WND 32029/0522 SLP077 60000 T00221011 10039 20022 51030","updated":"2025-12-03T06:31:03Z"}
