{"icao":"KLAX","metar":"KLAX 312053Z 00000KT 10SM CLR 28/01 A3007 RMK AO2 SLP181 T02830006 58031 $","updated":"2026-01-31T21:19:56Z"}
