{"icao":"LPBJ","metar":"LPBJ 161000Z 23009KT 9999 FEW008 16/14 Q1014","updated":"2025-11-16T10:17:34Z"}
