{"icao":"LPBJ","metar":"LPBJ 041100Z 31005KT 280V340 9999 FEW008 BKN020 13/12 Q1024 RERADZ","updated":"2025-12-04T11:18:04Z"}
