{"icao":"LPFR","metar":"LPFR 202200Z 29009KT 9999 SCT014 21/17 Q1016","updated":"2025-10-20T22:16:01Z"}
