{"icao":"LPBJ","metar":"LPBJ 181200Z 14009KT CAVOK 31/15 Q1021","updated":"2025-09-18T12:35:36Z"}
