{"icao":"LPAR","metar":"LPAR 271700Z 34009KT CAVOK 22/08 Q1015","updated":"2026-03-29T07:01:50Z"}
