{"icao":"LPFR","metar":"LPFR 021900Z 29006KT CAVOK 23/18 Q1020","updated":"2025-10-02T19:13:44Z"}
