{"icao":"LPCS","metar":"LPCS 130800Z 20005KT 160V230 9999 FEW006 SCT014 BKN020 12/12 Q1007","updated":"2026-01-13T08:29:21Z"}
