{"icao":"LPPR","metar":"LPPR 210500Z 28004KT 190V330 9999 SCT002 BKN030 18/18 Q1011","updated":"2025-10-21T05:17:35Z"}
