{"icao":"LPMA","metar":"LPMA 181330Z 20004KT 140V290 9999 BKN016 SCT033 19/10 Q1023","updated":"2025-12-18T13:35:35Z"}
