{"icao":"LPFL","metar":"LPFL 121000Z 33022G38KT 300V010 9999 VCSH SCT028 FEW030CB 14/07 Q1007","updated":"2025-11-12T10:20:47Z"}
