{"icao":"LPMR","metar":"LPMR 182300Z 17004KT CAVOK 19/14 Q1016","updated":"2025-10-18T23:15:32Z"}
