{"icao":"KJFK","metar":"KJFK 081151Z 31013KT 10SM SCT028 06/01 A3013 RMK AO2 SLP203 T00610006 10061 20044 53016 $","updated":"2026-01-08T12:43:08Z"}
