{"icao":"KORD","metar":"KORD 181751Z 14005KT 10SM FEW010 BKN120 OVC250 23/21 A2981 RMK AO2 SLP090 60039 T02280206 10244 20200 55005","updated":"2026-05-18T18:50:21Z"}
