{"icao":"LPMR","metar":"LPMR 070900Z 16003KT 4000 BR SCT005 BKN008 18/16 Q1023","updated":"2025-10-07T09:19:00Z"}
