{"icao":"LPFR","metar":"LPFR 251200Z 25011KT 9999 FEW020 SCT028 23/19 Q1015","updated":"2025-10-25T12:32:54Z"}
