{"icao":"KJFK","metar":"KJFK 240351Z 33018G30KT 10SM SCT250 M08/M22 A3042 RMK PK WND 32037/0300 PRESRR SLP302 T10781222 $ ","updated":"2026-01-24T04:34:07Z"}
