{"icao":"LPLA","metar":"LPLA 041600Z 22017G29KT 9999 SCT023 19/14 Q1019","updated":"2025-12-04T16:27:39Z"}
