{"icao":"LPHR","metar":"LPHR 071230Z 22006KT 9999 FEW015 23/20 Q1023","updated":"2025-10-07T12:37:13Z"}
