{"icao":"KORD","metar":"KORD 140851Z 35005KT 10SM FEW120 BKN180 M01/M07 A3012 RMK AO2 SLP207 T10111072 50011 $","updated":"2026-03-14T09:32:24Z"}
