{"icao":"LPAR","metar":"LPAR 201500Z 06007KT CAVOK 17/07 Q1028","updated":"2026-02-20T15:36:03Z"}
