{"icao":"LPPT","metar":"LPPT 160500Z 22005KT 8000 -SHRA FEW018 FEW020TCU SCT046 10/09 Q1015","updated":"2026-01-16T05:23:56Z"}
