{"icao":"LPFR","metar":"LPFR 010330Z 02009KT CAVOK 11/05 Q1018","updated":"2025-12-01T03:49:57Z"}
