{"icao":"KORD","metar":"KORD 080351Z 34006KT 10SM FEW020 BKN034 M08/M13 A3032 RMK AO2 SLP280 T10831133","updated":"2025-12-08T04:32:58Z"}
