{"icao":"KORD","metar":"KORD 180351Z 24010KT 7SM -SN FEW019 BKN049 OVC095 M09/M13 A3006 RMK AO2 SLP192 P0000 T10941133 $","updated":"2026-01-18T04:40:34Z"}
