{"icao":"KLAX","metar":"KLAX 181653Z 25005KT 8SM FEW032 FEW060 SCT080 BKN160 BKN250 24/19 A2984 RMK AO2 SLP102 T02390189","updated":"2025-09-18T17:15:46Z"}
