{"icao":"LPFL","metar":"LPFL 180700Z 03005KT 340V090 9999 SCT020 15/10 Q1018","updated":"2026-04-18T07:05:28Z"}
