{"icao":"LPPS","metar":"LPPS 111630Z 02018KT 9999 SCT012 SCT030 16/13 Q1023","updated":"2026-04-11T16:36:00Z"}
