{"icao":"LPMT","metar":"LPMT 162200Z 16005KT 9999 FEW022 14/12 Q1011","updated":"2025-11-16T22:16:39Z"}
