{"icao":"KJFK","metar":"KJFK 050951Z 34005KT 10SM BKN250 M07/M12 A3013 RMK AO2 SLP204 T10671122 PNO $","updated":"2026-02-05T10:39:04Z"}
