{"icao":"KLAX","metar":"KLAX 032053Z 25012KT 10SM FEW024 SCT036 OVC047 18/09 A2995 RMK AO2 SLP140 T01830094 57008","updated":"2026-05-03T21:40:23Z"}
