{"icao":"LPPD","metar":"LPPD 010700Z 04008KT 010V070 7000 -DZ FEW008 BKN015 13/11 Q1029","updated":"2026-04-01T07:18:46Z"}
