{"icao":"KJFK","metar":"KJFK 271451Z 01016G24KT 10SM BKN037 BKN060 OVC230 11/03 A2998 RMK AO2 WSHFT 1402 SLP150 T01110028 53049 $","updated":"2026-03-27T15:52:22Z"}
