{"icao":"LPMT","metar":"LPMT 090800Z 22008KT 190V250 5000 -RADZ BR SCT006 BKN015 14/14 Q1012","updated":"2026-02-09T08:55:29Z"}
