{"icao":"LPLA","metar":"LPLA 090400Z 10006KT 060V120 9999 BKN040 12/04 Q1034","updated":"2026-03-09T04:49:52Z"}
