{"icao":"LPBJ","metar":"LPBJ 231400Z VRB04KT CAVOK 33/07 Q1020","updated":"2026-05-23T14:59:23Z"}
