{"icao":"LPFL","metar":"LPFL 291400Z 13008KT 100V170 9999 VCSH SCT005 SCT022 16/14 Q1012","updated":"2025-12-29T14:20:51Z"}
