{"icao":"LPPD","metar":"LPPD 260500Z 26024KT 240V300 5000 -RA BR FEW006 BKN010 15/14 Q1006","updated":"2026-01-26T05:32:06Z"}
