{"icao":"LPMT","metar":"LPMT 270300Z 11003KT CAVOK 11/09 Q1018","updated":"2025-09-27T03:26:00Z"}
