{"icao":"KJFK","metar":"KJFK 041951Z 18022G28KT 10SM FEW070 FEW250 17/08 A2985 RMK PK WND 19028/1942 SLP107 T01670083 ","updated":"2026-05-04T20:13:27Z"}
