{"icao":"KLAX","metar":"KLAX 042253Z 25009KT 10SM FEW250 21/M03 A3011 RMK AO2 SLP197 T02061028 $","updated":"2025-12-04T23:18:45Z"}
