{"icao":"KLAX","metar":"KLAX 121053Z VRB04KT 8SM BKN008 OVC200 16/14 A3005 RMK AO2 SLP173 T01610144 $","updated":"2025-11-12T11:16:36Z"}
