{"icao":"KORD","metar":"KORD 281251Z 26006KT 10SM FEW022 M17/M21 A3020 RMK AO2 SLP242 T11721206","updated":"2026-01-28T13:48:27Z"}
