{"icao":"KJFK","metar":"KJFK 160151Z 11020G32KT 10SM FEW030 SCT039 BKN055 BKN140 07/03 A3024 RMK AO2 PK WND 12032/0151 SLP239 T00670033","updated":"2026-03-16T02:22:53Z"}
