{"icao":"LPPT","metar":"LPPT 080000Z 34010KT 9999 FEW016 16/13 Q1023","updated":"2026-06-08T00:05:13Z"}
