{"icao":"LPHR","metar":"LPHR 032300Z 28009KT 9999 FEW025 BKN040 15/07 Q1024","updated":"2026-04-04T04:48:48Z"}
