{"icao":"KJFK","metar":"KJFK 221551Z 09015G22KT 10SM -RA BKN011 OVC029 02/01 A3005 RMK AO2 RAB45 SLP176 P0000 T00220006 $","updated":"2026-02-22T16:28:40Z"}
