{"icao":"KJFK","metar":"KJFK 090351Z 12005KT 10SM FEW075 BKN090 BKN200 BKN250 13/07 A2990 RMK AO2 SLP123 T01330072 $","updated":"2025-11-09T04:20:58Z"}
