{"icao":"LPBJ","metar":"LPBJ 301100Z 31008KT 280V340 CAVOK 27/13 Q1021","updated":"2026-05-30T11:18:33Z"}
