{"icao":"LPHR","metar":"LPHR 182100Z 27009KT 0800 -DZ FG VV002 22/22 Q1015","updated":"2025-10-18T21:14:08Z"}
