{"icao":"LPPR","metar":"LPPR 230600Z 32006KT 290V350 9999 -RA FEW026 SCT033 16/15 Q1018","updated":"2025-10-23T06:27:14Z"}
