{"icao":"LPFL","metar":"LPFL 131230Z 19015G26KT 150V230 6000 -DZ SCT010 19/16 Q1024","updated":"2025-12-13T12:36:26Z"}
