{"icao":"LPBJ","metar":"LPBJ 120800Z 14003KT 110V170 9999 FEW005 SCT020 12/12 Q1013","updated":"2025-12-12T08:28:10Z"}
