{"icao":"LPFR","metar":"LPFR 190800Z 05006KT 330V110 CAVOK 19/10 Q1022","updated":"2026-05-19T08:33:52Z"}
