{"icao":"LPMR","metar":"LPMR 260900Z VRB01KT 6000 NSC 06/05 Q1027","updated":"2025-11-26T09:21:48Z"}
