{"icao":"LPMT","metar":"LPMT 200300Z 31005KT 9999 BKN017 19/17 Q1013","updated":"2025-10-20T04:24:00Z"}
