{"icao":"LPPT","metar":"LPPT 131200Z 36012KT CAVOK 25/11 Q1022","updated":"2025-09-13T12:31:15Z"}
