{"icao":"LPCS","metar":"LPCS 271600Z 27013KT 230V310 9999 FEW018 FEW022CB SCT038 12/06 Q1004","updated":"2026-01-27T16:28:52Z"}
