{"icao":"LPMT","metar":"LPMT 112100Z 35006KT CAVOK 25/14 Q1016","updated":"2026-06-11T21:18:48Z"}
