{"icao":"LPMT","metar":"LPMT 092100Z VRB02KT 6000 2000N SCT002 BKN007 BKN030 15/15 Q1018","updated":"2025-12-09T21:16:29Z"}
