{"icao":"LPCS","metar":"LPCS 040900Z 02010KT 9999 FEW048 14/11 Q1001","updated":"2026-01-04T09:18:31Z"}
