{"icao":"LPAZ","metar":"LPAZ 250430Z 07005KT 030V140 9999 FEW020 BKN030 14/09 Q1028","updated":"2026-03-25T04:52:24Z"}
