{"icao":"KLAX","metar":"KLAX 281653Z 08004KT 10SM FEW180 SCT240 BKN280 23/12 A2992 RMK AO2 SLP130 T02280117","updated":"2026-02-28T17:19:50Z"}
