{"icao":"KJFK","metar":"KJFK 082151Z 20011KT 10SM FEW045 SCT250 19/08 A3028 RMK AO2 SLP253 T01890083 $","updated":"2026-06-08T22:25:10Z"}
