{"icao":"LPFR","metar":"LPFR 161100Z 25003KT 180V350 9999 FEW020 14/10 Q1017","updated":"2026-01-16T11:18:40Z"}
