{"icao":"KORD","metar":"KORD 141451Z 00000KT 10SM OVC240 02/M02 A3004 RMK AO2 SLP178 T00171022 51002 $","updated":"2026-02-14T15:24:14Z"}
