{"icao":"KJFK","metar":"KJFK 111551Z 19007G17KT 150V220 9SM SCT009 SCT170 BKN250 12/08 A2994 RMK AO2 SLP137 T01170083","updated":"2026-03-11T16:50:58Z"}
