{"icao":"LPOV","metar":"LPOV 091000Z 35005KT 310V020 CAVOK 18/12 Q1019","updated":"2026-04-09T10:57:14Z"}
