{"icao":"KORD","metar":"KORD 211251Z 21008KT 10SM SCT110 08/06 A2971 RMK AO2 SLP061 VIRGA W-NW T00830056","updated":"2025-10-21T13:32:42Z"}
