{"icao":"LPAZ","metar":"LPAZ 062200Z 25030G40KT 9000 FEW013 SCT038 16/13 Q1011","updated":"2026-02-06T22:22:21Z"}
