{"icao":"LPCS","metar":"LPCS 241300Z 21007KT 170V230 9999 FEW008 22/17 Q1015","updated":"2026-06-24T13:20:56Z"}
