{"icao":"KORD","metar":"KORD 212151Z 10006KT 10SM FEW075 BKN100 OVC250 07/02 A2997 RMK AO2 SLP152 T00720022","updated":"2025-11-21T22:18:07Z"}
