{"icao":"LPCS","metar":"LPCS 212100Z 36017KT 9999 FEW020 16/10 Q1021","updated":"2025-09-21T21:14:26Z"}
