{"icao":"LPPR","metar":"LPPR 090500Z 36003KT 5000 BR NSC 11/10 Q1019","updated":"2026-04-09T05:08:06Z"}
