{"icao":"LPPT","metar":"LPPT 151500Z 27008KT 240V300 9999 FEW018 SCT035 14/10 Q1031","updated":"2026-02-15T15:24:33Z"}
