{"icao":"KLAX","metar":"KLAX 160453Z 10004KT 10SM FEW020 FEW050 OVC250 14/09 A2994 RMK AO2 SLP139 T01390089","updated":"2026-02-16T04:58:02Z"}
