{"icao":"LPMT","metar":"LPMT 051100Z 02006KT 350V050 9999 FEW020 20/13 Q1021","updated":"2025-10-05T11:12:38Z"}
