{"icao":"KORD","metar":"KORD 260751Z 10004KT 10SM BKN075 08/03 A3034 RMK AO2 SLP275 T00830028 $","updated":"2025-10-26T08:21:06Z"}
