{"icao":"KORD","metar":"KORD 021551Z 20003KT 10SM SCT250 BKN300 22/10 A3025 RMK AO2 SLP241 T02220100","updated":"2025-10-02T16:21:48Z"}
