{"icao":"LPMR","metar":"LPMR 282000Z 36010KT CAVOK 17/14 Q1016","updated":"2025-09-28T20:17:18Z"}
