{"icao":"LPPR","metar":"LPPR 271100Z 19009KT 3500 R17/1100N -RADZ BR BKN004 BKN010 12/11 Q1025","updated":"2026-02-27T11:31:04Z"}
