{"icao":"LPMA","metar":"LPMA 071000Z 03014KT 340V060 9999 SCT015 21/13 Q1024","updated":"2026-06-07T10:27:41Z"}
