{"icao":"LPMA","metar":"LPMA 051700Z 02009KT 340V070 9999 SCT016 23/15 Q1021","updated":"2025-10-05T17:13:16Z"}
