{"icao":"LPHR","metar":"LPHR 261830Z 01005KT 330V050 9999 FEW015 19/10 Q1031","updated":"2026-02-26T18:55:47Z"}
