{"icao":"KORD","metar":"KORD 241351Z 08008KT 10SM BKN011 OVC250 03/01 A3030 RMK AO2 SLP266 T00330011","updated":"2025-12-24T14:19:22Z"}
