{"icao":"LPPT","metar":"LPPT 220730Z 05006KT 020V090 CAVOK 21/12 Q1019","updated":"2026-05-22T07:42:45Z"}
