{"icao":"LPST","metar":"LPST 241200Z 19013KT 150V240 9999 FEW008 SCT014 14/11 Q1018","updated":"2026-02-24T13:03:00Z"}
