{"icao":"KLAX","metar":"KLAX 090253Z 23003KT 4SM BR OVC007 18/16 A2997 RMK AO2 SLP149 VIS W 2 T01780161 53019","updated":"2025-11-09T03:11:50Z"}
