{"icao":"KORD","metar":"KORD 171051Z 28005KT 10SM FEW230 01/M08 A3006 RMK AO2 SLP182 T00111078 $","updated":"2025-11-17T11:16:55Z"}
