{"icao":"LPMA","metar":"LPMA 091130Z 36023G33KT 310V030 9999 BKN014 FEW016TCU 17/11 Q1019 RESHRA","updated":"2026-04-09T11:56:58Z"}
