{"icao":"LPMA","metar":"LPMA 120330Z 22005KT 190V250 9999 -DZ BKN015 15/13 Q1023","updated":"2026-01-12T03:48:36Z"}
