{"icao":"KJFK","metar":"KJFK 041651Z 28016G21KT 10SM SCT090 BKN250 05/M04 A3002 RMK AO2 SLP164 T00501039","updated":"2025-12-04T17:21:43Z"}
