{"icao":"LPMA","metar":"LPMA 161500Z 36009KT 300V060 9999 BKN015 17/12 Q1026","updated":"2025-12-16T15:23:16Z"}
