{"icao":"KLAX","metar":"KLAX 040453Z 16003KT 10SM FEW250 16/12 A3011 RMK AO2 SLP192 T01560122","updated":"2025-12-04T05:19:04Z"}
