{"icao":"KJFK","metar":"KJFK 180551Z 35004KT 10SM FEW200 FEW250 10/02 A2999 RMK AO2 SLP155 T01000022 10144 20094 55000","updated":"2025-10-18T06:24:19Z"}
