{"icao":"LPPD","metar":"LPPD 191500Z 01016G29KT 340V050 9999 FEW020 BKN035 17/12 Q1023","updated":"2025-11-19T15:20:01Z"}
