{"icao":"LPPD","metar":"LPPD 210800Z 02015G29KT 350V060 9999 VCSH FEW012 SCT017 BKN035 14/11 Q1011 WS R30","updated":"2026-03-21T08:31:36Z"}
