{"icao":"LPPT","metar":"LPPT 212100Z 27009KT 210V340 9999 FEW015 FEW020TCU 13/09 Q1007","updated":"2026-01-21T21:27:03Z"}
