{"icao":"LPMA","metar":"LPMA 151800Z 02008KT 300V080 9999 SCT015 18/10 Q1022","updated":"2026-05-15T18:21:38Z"}
