{"icao":"LPFR","metar":"LPFR 190930Z 10009KT CAVOK 21/09 Q1016","updated":"2026-04-19T09:45:23Z"}
