{"icao":"LPFL","metar":"LPFL 211400Z 10005KT 060V150 9999 FEW020 SCT036 16/10 Q1021","updated":"2026-02-21T14:24:56Z"}
