{"icao":"LPBJ","metar":"LPBJ 211900Z 02008KT CAVOK 09/01 Q1027","updated":"2025-11-21T19:15:38Z"}
