{"icao":"LPPT","metar":"LPPT 090530Z 23008KT 200V280 9999 -RA FEW008 FEW020TCU 12/11 Q1003","updated":"2026-05-09T05:47:13Z"}
