{"icao":"KORD","metar":"KORD 091551Z 23013G21KT 10SM SCT018 BKN250 M01/M04 A2973 RMK AO2 SLP075 T10061044","updated":"2025-12-09T16:26:51Z"}
