{"icao":"LPPR","metar":"LPPR 181000Z VRB03KT CAVOK 06/03 Q1014","updated":"2026-01-18T10:19:54Z"}
