{"icao":"KLAX","metar":"KLAX 260253Z 24005KT 10SM CLR 17/14 A3004 RMK AO2 SLP174 T01720144 53006","updated":"2025-11-26T03:13:53Z"}
