{"icao":"LPPT","metar":"LPPT 141900Z 32005KT 290V350 9999 FEW015 BKN045 12/10 Q1022","updated":"2026-01-14T19:18:26Z"}
