{"icao":"LPOV","metar":"LPOV 141500Z 33013KT 300V360 9999 FEW030 23/18 Q1023","updated":"2025-09-14T15:14:28Z"}
