{"icao":"KORD","metar":"KORD 021751Z VRB05KT 10SM BKN250 04/M09 A3036 RMK AO2 SLP289 T00441089 10044 21044 58018 $","updated":"2026-03-02T18:45:06Z"}
