{"icao":"LPPR","metar":"LPPR 170500Z VRB02KT 7000 FEW009 BKN040 12/12 Q1011","updated":"2025-11-17T05:19:16Z"}
