{"icao":"LPPS","metar":"LPPS 272230Z 36012KT 9999 SCT015 BKN030 16/10 Q1018","updated":"2026-04-27T22:50:49Z"}
