{"icao":"KJFK","metar":"KJFK 051942Z 05008KT 2SM -RA BR OVC007 06/05 A3023 RMK AO2 SFC VIS 3 RAB42 P0000 T00560050","updated":"2026-03-05T19:50:43Z"}
