{"icao":"LPPS","metar":"LPPS 180700Z 06009KT 030V090 9999 SCT014 BKN030 15/12 Q1017","updated":"2026-04-18T07:05:29Z"}
