{"icao":"LPPR","metar":"LPPR 261500Z 31008KT CAVOK 19/11 Q1020","updated":"2025-10-26T15:15:51Z"}
