{"icao":"KLAX","metar":"KLAX 021053Z 25004KT 2SM BR OVC005 15/14 A3004 RMK AO2 SLP172 VIS W 1 T01500139 $","updated":"2025-11-02T11:12:59Z"}
