{"icao":"LPCS","metar":"LPCS 131330Z 27009KT 230V300 9999 VCSH FEW018 SCT035 15/13 Q1010","updated":"2026-01-13T13:39:54Z"}
