{"icao":"KLAX","metar":"KLAX 051909Z 25009KT 10SM SCT009 OVC011 19/15 A2989 RMK AO2 T01940150 $","updated":"2026-06-05T19:52:36Z"}
