{"icao":"LPHR","metar":"LPHR 071200Z 28017KT 9000 VCSH SCT006 BKN009 20/18 Q1028","updated":"2026-06-07T12:19:40Z"}
