{"icao":"LPLA","metar":"LPLA 150100Z 21010KT 9999 FEW02 19/15 Q1004","updated":"2025-10-15T01:20:22Z"}
