{"icao":"LPBJ","metar":"LPBJ 061200Z 25008KT 9999 SCT028 BKN038 14/12 Q1020","updated":"2025-11-06T12:38:20Z"}
