{"icao":"KJFK","metar":"KJFK 020051Z 01011G18KT 10SM CLR 17/05 A3026 RMK AO2 SLP246 T01720050","updated":"2025-10-02T01:17:03Z"}
