{"icao":"LPFR","metar":"LPFR 290600Z 31002KT CAVOK 08/07 Q1020","updated":"2025-11-29T06:26:47Z"}
