{"icao":"LPMT","metar":"LPMT 092300Z 15003KT CAVOK 14/12 Q1020","updated":"2025-11-09T23:15:50Z"}
