{"icao":"KLAX","metar":"KLAX 270653Z 10005KT 10SM FEW250 19/14 A3000 RMK AO2 SLP154 T01890139","updated":"2026-02-27T07:44:58Z"}
