{"icao":"LPMA","metar":"LPMA 140600Z 30003KT 260V320 9999 FEW015 19/16 Q1016","updated":"2025-10-14T06:27:36Z"}
