{"icao":"LPOV","metar":"LPOV 270700Z VRB01KT CAVOK 20/17 Q1019","updated":"2026-05-27T08:01:54Z"}
