{"icao":"LPPD","metar":"LPPD 292000Z 27005KT 9999 FEW018 BKN030 16/15 Q1028","updated":"2025-11-29T20:19:53Z"}
