{"icao":"LPBJ","metar":"LPBJ 282100Z 31010KT 9999 FEW028 SCT035 19/15 Q1015","updated":"2025-09-28T21:14:06Z"}
