{"icao":"LPPS","metar":"LPPS 021100Z 29017KT 9999 SCT014 16/09 Q1015","updated":"2026-02-02T11:34:19Z"}
