{"icao":"LPAZ","metar":"LPAZ 160700Z 14020KT 7000 -SHRA SCT006 BKN016 FEW020TCU 20/20 Q1003","updated":"2025-10-16T07:17:50Z"}
