{"icao":"LPMR","metar":"LPMR 051500Z 35013KT CAVOK 20/13 Q1020","updated":"2025-10-05T15:14:58Z"}
