{"icao":"LPAZ","metar":"LPAZ 070130Z 11004KT 9999 BKN040 13/07 Q1035","updated":"2026-01-07T01:40:25Z"}
