{"icao":"KORD","metar":"KORD 060051Z 12005KT 10SM BKN210 OVC250 02/M01 A2979 RMK AO2 SLP094 T00221006","updated":"2026-01-06T01:40:50Z"}
