{"icao":"LPPS","metar":"LPPS 291300Z 34009KT 9999 SCT015 20/13 Q1023","updated":"2025-11-29T13:25:15Z"}
