{"icao":"LPOV","metar":"LPOV 280200Z 01004KT CAVOK 07/06 Q1026","updated":"2026-02-28T03:53:27Z"}
