{"icao":"LPMR","metar":"LPMR 181600Z 34008KT CAVOK 17/10 Q1018","updated":"2025-11-18T16:25:49Z"}
