{"icao":"LPMA","metar":"LPMA 200800Z 34009KT 300V010 9999 FEW015 15/08 Q1026","updated":"2026-01-20T08:30:24Z"}
