{"icao":"KORD","metar":"KORD 271551Z 06009KT 10SM FEW150 FEW300 27/14 A3000 RMK AO2 SLP154 T02670139","updated":"2026-05-27T16:35:59Z"}
