{"icao":"LPPR","metar":"LPPR 120600Z 17026KT 9999 SCT040 17/12 Q1001","updated":"2025-11-12T06:28:29Z"}
