{"icao":"LPST","metar":"LPST 061500Z 17017KT 9999 -RA FEW035 SCT045 19/13 Q1015","updated":"2026-04-06T15:44:11Z"}
