{"icao":"LPMT","metar":"LPMT 041300Z 01009KT CAVOK 18/12 Q1013","updated":"2026-03-04T13:57:30Z"}
