{"icao":"LPMA","metar":"LPMA 210800Z 28005KT 260V350 9999 FEW015 15/10 Q1021","updated":"2026-01-21T08:30:36Z"}
