{"icao":"LPMT","metar":"LPMT 250500Z VRB02KT 9999 BKN008 BKN030 14/14 Q1014","updated":"2026-02-25T05:59:26Z"}
