{"icao":"KJFK","metar":"KJFK 090951Z 00000KT 10SM FEW250 06/03 A3000 RMK AO2 SLP159 T00560028 $","updated":"2026-03-09T10:43:46Z"}
