{"icao":"LPMA","metar":"LPMA 270600Z 35008KT 310V020 9999 SCT015 SCT030 18/11 Q1021","updated":"2025-11-27T06:30:32Z"}
