{"icao":"LPMR","metar":"LPMR 050900Z 02011KT CAVOK 05/M05 Q1014","updated":"2026-01-05T09:30:32Z"}
