{"icao":"LPPT","metar":"LPPT 290600Z 24007KT 210V270 9000 BKN010 14/13 Q1007","updated":"2026-04-29T06:21:40Z"}
