{"icao":"LPMR","metar":"LPMR 270800Z 15004KT CAVOK 14/08 Q1021","updated":"2025-10-27T09:21:58Z"}
