{"icao":"LPBJ","metar":"LPBJ 140200Z 29006KT CAVOK 17/11 Q1016","updated":"2025-10-14T02:59:19Z"}
