{"icao":"LPAR","metar":"LPAR 261300Z 26013KT 8000 -DZRA SCT009 BKN016 BKN030 17/14 Q1012","updated":"2026-01-26T13:43:12Z"}
