{"icao":"LPSJ","metar":"LPSJ 191500Z 27006KT 230V310 9999 FEW010 BKN020 20/18 Q1009","updated":"2026-06-19T15:12:16Z"}
