{"icao":"KJFK","metar":"KJFK 121851Z 23016KT 10SM SCT050 SCT130 BKN250 33/21 A2970 RMK AO2 SLP057 T03330206 $","updated":"2026-06-12T19:03:49Z"}
