{"icao":"LPOV","metar":"LPOV 271800Z 35015KT 9999 FEW030 13/02 Q1025","updated":"2026-02-27T18:40:51Z"}
