{"icao":"LPMT","metar":"LPMT 070800Z 22006KT 190V250 9999 -RA SCT016 BKN040 15/13 Q1011","updated":"2026-04-07T09:00:38Z"}
