{"icao":"LPPR","metar":"LPPR 021230Z 08011KT 030V120 CAVOK 35/04 Q1020","updated":"2026-07-02T12:56:08Z"}
