{"icao":"LPLA","metar":"LPLA 120833Z 27009KT 6000 -SHRA FEW015 BKN020 16/12 Q1014","updated":"2026-02-12T08:44:13Z"}
