{"icao":"KLAX","metar":"KLAX 272253Z 25012KT 10SM FEW200 FEW250 19/01 A3020 RMK AO2 SLP226 T01890011 $","updated":"2026-01-27T23:20:43Z"}
