{"icao":"KJFK","metar":"KJFK 111817Z 28022G36KT 8SM -SN SCT049 BKN065 04/M08 A2971 RMK AO2 PK WND 27036/1809 SNB17 P0000 T00441078 $","updated":"2025-11-11T18:26:37Z"}
