{"icao":"LPAZ","metar":"LPAZ 271230Z 22010KT 9999 FEW020 20/14 Q1023","updated":"2025-11-27T12:39:53Z"}
