{"icao":"LPPS","metar":"LPPS 100800Z 36007KT 9999 FEW015 BKN030 21/13 Q1023","updated":"2025-10-10T08:23:19Z"}
