{"icao":"KLAX","metar":"KLAX 150053Z 25007KT 10SM FEW009 16/13 A3005 RMK AO2 SLP174 T01560133","updated":"2025-12-15T01:41:59Z"}
