{"icao":"LPAR","metar":"LPAR 111000Z 06006KT 030V090 CAVOK 14/10 Q1027","updated":"2026-03-11T10:37:36Z"}
