{"icao":"LPPS","metar":"LPPS 180800Z 29006KT 9999 FEW014 BKN030 18/11 Q1024","updated":"2025-12-18T08:28:22Z"}
