{"icao":"LPFR","metar":"LPFR 152300Z 02004KT 340V080 CAVOK 27/14 Q1018","updated":"2025-09-15T23:14:33Z"}
