{"icao":"KORD","metar":"KORD 220451Z 21013G22KT 10SM SCT250 21/07 A2960 RMK AO2 SLP019 T02110072","updated":"2026-03-22T05:52:58Z"}
