{"icao":"LPFR","metar":"LPFR 240830Z 07007KT 0500 R28/0900N FG OVC001 12/12 Q1021","updated":"2026-02-24T08:46:01Z"}
