{"icao":"LPPI","metar":"LPPI 202000Z 28009KT 9999 FEW016 SCT040 19/14 Q1012","updated":"2026-06-21T04:04:40Z"}
