{"icao":"LPLA","metar":"LPLA 291600Z 12012KT 9999 FEW022 BKN030 15/09 Q1034","updated":"2026-03-29T16:33:35Z"}
