{"icao":"LPAZ","metar":"LPAZ 150800Z 19009KT 9999 OVC033 15/11 Q1031","updated":"2026-02-15T08:31:50Z"}
