{"icao":"LPAR","metar":"LPAR 121000Z 05008KT 4000 -RADZ BKN008 SCT025 13/12 Q1013","updated":"2025-12-12T17:18:11Z"}
