{"icao":"LPAZ","metar":"LPAZ 252000Z 18010KT 9999 FEW021 21/17 Q1014","updated":"2025-09-25T20:19:37Z"}
