{"icao":"LPPR","metar":"LPPR 220130Z 33009G22KT 300V360 9999 SCT028 BKN038 11/07 Q1005","updated":"2026-01-22T01:44:08Z"}
