{"icao":"LPPS","metar":"LPPS 062030Z 28013KT 9999 FEW015 16/11 Q1016","updated":"2026-04-06T20:36:36Z"}
