{"icao":"LPPT","metar":"LPPT 100400Z 33007KT CAVOK 19/13 Q1019","updated":"2025-10-10T04:20:53Z"}
