{"icao":"LPOV","metar":"LPOV 210900Z 20013KT 170V230 CAVOK 20/13 Q1003","updated":"2026-04-21T09:24:21Z"}
