{"icao":"LPFL","metar":"LPFL 070900Z 25012G25KT 190V300 9999 VCSH FEW020 16/11 Q1008","updated":"2025-12-07T09:17:49Z"}
