{"icao":"KLAX","metar":"KLAX 110253Z 25013KT 10SM SCT140 BKN230 20/15 A2981 RMK AO2 SLP093 T02000150 53004 $","updated":"2025-10-11T03:25:10Z"}
