{"icao":"LPPR","metar":"LPPR 132100Z 31005KT 9999 BKN006 BKN035 13/12 Q1019","updated":"2026-03-13T21:31:38Z"}
