{"icao":"LPFR","metar":"LPFR 240530Z 07006KT 0900 R10/1200D FG VV001 12/12 Q1021","updated":"2026-02-24T05:57:28Z"}
