{"icao":"LPPR","metar":"LPPR 171930Z 33007KT CAVOK 13/11 Q1019","updated":"2026-04-17T20:00:15Z"}
