{"icao":"KJFK","metar":"KJFK 290451Z 00000KT 10SM FEW250 20/19 A3003 RMK SLP169 T02000189 $ ","updated":"2026-06-29T05:49:17Z"}
