{"icao":"LPMA","metar":"LPMA 262300Z 35012KT 320V020 9999 SCT015 21/17 Q1021","updated":"2026-06-26T23:05:54Z"}
