{"icao":"LPHR","metar":"LPHR 021100Z 24007KT 9999 SCT004 SCT011 23/22 Q1020","updated":"2025-10-02T11:13:39Z"}
