{"icao":"KJFK","metar":"KJFK 250051Z 13005KT 6SM -RA BR BKN005 OVC011 22/21 A3005 RMK AO2 RAB50 SLP174 P0000 T02170206 $","updated":"2025-09-25T01:18:54Z"}
