{"icao":"LPFR","metar":"LPFR 131300Z 07014KT CAVOK 19/10 Q1016","updated":"2025-12-13T13:25:52Z"}
