{"icao":"LPFL","metar":"LPFL 131600Z 05005KT 020V090 9999 FEW020 21/15 Q1021","updated":"2026-06-13T16:22:05Z"}
