{"icao":"LPPR","metar":"LPPR 141500Z 31009KT 9999 SCT020 14/09 Q1019","updated":"2026-01-14T15:24:42Z"}
