{"icao":"LPOV","metar":"LPOV 210500Z 05002KT 9999 MIFG NSC 04/04 Q1029","updated":"2026-02-21T05:40:11Z"}
