{"icao":"LPFR","metar":"LPFR 181700Z 21003KT 150V260 9999 FEW020 BKN030 16/12 Q1022","updated":"2025-12-18T17:21:56Z"}
