{"icao":"LPBJ","metar":"LPBJ 142100Z 31012KT 6000 -DZ BKN007 OVC018 14/12 Q1016","updated":"2026-03-14T21:25:26Z"}
