{"icao":"LPOV","metar":"LPOV 041400Z 32011KT CAVOK 20/12 Q1022","updated":"2026-04-04T14:32:07Z"}
