{"icao":"KORD","metar":"KORD 271951Z 29014G24KT 10SM SCT036 M11/M19 A3014 RMK AO2 SLP220 T11061194","updated":"2026-01-27T20:22:06Z"}
