{"icao":"LPOV","metar":"LPOV 060100Z 35020G30KT 9999 FEW035 10/05 Q1019","updated":"2026-03-06T02:00:08Z"}
