{"icao":"LPFL","metar":"LPFL 181700Z 33007KT 300V010 9999 SCT028 15/09 Q1032","updated":"2026-01-18T17:17:09Z"}
