{"icao":"LPFL","metar":"LPFL 091900Z 19011KT 160V230 9999 SCT017 FEW020TCU 22/17 Q1017","updated":"2025-10-09T19:14:39Z"}
