{"icao":"LPPS","metar":"LPPS 251730Z 02020KT 9999 SCT013 SCT030 16/13 Q1018","updated":"2026-03-25T17:58:00Z"}
