{"icao":"KLAX","metar":"KLAX 170853Z 01003KT 10SM FEW250 18/14 A2992 RMK AO2 SLP130 T01780144 58005 $","updated":"2026-03-17T09:54:45Z"}
