{"icao":"LPBJ","metar":"LPBJ 052300Z 30018KT 9999 FEW015 08/06 Q1017","updated":"2026-03-05T23:50:08Z"}
