{"icao":"LPHR","metar":"LPHR 130700Z 36006KT 9999 FEW014 12/09 Q1024","updated":"2026-01-13T07:23:57Z"}
