{"icao":"KLAX","metar":"KLAX 291053Z 27004KT 10SM FEW010 19/17 A2998 RMK AO2 SLP148 T01890167 $","updated":"2025-09-29T11:14:38Z"}
