{"icao":"KORD","metar":"KORD 081051Z 13007KT 10SM FEW012 BKN100 OVC140 M05/M08 A3030 RMK AO2 SLP272 T10501078 $","updated":"2026-02-08T11:21:33Z"}
