{"icao":"LPPS","metar":"LPPS 160700Z 06006KT 040V110 9999 FEW014 BKN030 15/12 Q1018","updated":"2026-03-16T07:15:22Z"}
