{"icao":"LPFR","metar":"LPFR 171930Z 08004KT 050V120 CAVOK 22/11 Q1016","updated":"2026-04-17T20:00:08Z"}
