{"icao":"LPLA","metar":"LPLA 230700Z 19009KT 170V230 9999 SCT016 22/18 Q1014","updated":"2025-10-23T07:18:27Z"}
