{"icao":"LPPS","metar":"LPPS 302300Z 05010KT 020V080 9999 SCT015 SCT030 21/16 Q1022","updated":"2025-09-30T23:16:10Z"}
