{"icao":"LPPR","metar":"LPPR 110700Z 11007KT CAVOK 19/09 Q1022","updated":"2025-10-11T07:15:00Z"}
