{"icao":"LPFR","metar":"LPFR 081900Z 32012KT CAVOK 20/12 Q1020","updated":"2025-10-08T19:13:33Z"}
