{"icao":"KJFK","metar":"KJFK 180251Z 35008KT 10SM FEW200 13/02 A2999 RMK AO2 SLP156 T01280017 51011","updated":"2025-10-18T03:27:19Z"}
