{"icao":"LPPR","metar":"LPPR 300900Z 01005KT 310V070 CAVOK 08/05 Q1020","updated":"2025-11-30T09:17:28Z"}
