{"icao":"LPLA","metar":"LPLA 121100Z 23013KT 190V250 9999 FEW022 15/10 Q1030","updated":"2026-04-12T11:32:52Z"}
