{"icao":"LPMA","metar":"LPMA 220630Z 04014KT 350V080 9999 BKN013 FEW018CB 17/14 Q0999","updated":"2026-03-22T06:50:38Z"}
