{"icao":"LPCS","metar":"LPCS 151700Z 35024KT 9999 FEW008 22/18 Q1020 WS R35","updated":"2025-09-15T17:14:55Z"}
