{"icao":"KORD","metar":"KORD 152151Z 30014G25KT 10SM FEW060 FEW160 FEW250 20/05 A2954 RMK AO2 PK WND 28031/2105 SLP002 T02000050 $","updated":"2025-11-15T22:14:23Z"}
