{"icao":"KLAX","metar":"KLAX 041018Z 00000KT 6SM BR OVC009 16/14 A3008 RMK AO2 T01560144 $","updated":"2025-11-04T10:22:03Z"}
