{"icao":"LPCS","metar":"LPCS 121900Z 36006KT CAVOK 22/12 Q1016","updated":"2025-10-12T19:12:43Z"}
