{"icao":"KORD","metar":"KORD 051351Z 21006KT 10SM BKN060 OVC075 M06/M11 A3007 RMK AO2 SLP195 T10611111","updated":"2026-02-05T14:08:24Z"}
