{"icao":"LPCS","metar":"LPCS 051230Z 36023G36KT 330V030 9999 FEW025 10/01 Q1014","updated":"2026-01-05T12:43:42Z"}
