{"icao":"LPBJ","metar":"LPBJ 190900Z 18008KT CAVOK 18/15 Q1017","updated":"2025-10-19T09:16:02Z"}
