{"icao":"LPHR","metar":"LPHR 121730Z 29022G32KT 9999 FEW025 16/09 Q1020","updated":"2026-02-12T17:57:12Z"}
