{"icao":"LPBJ","metar":"LPBJ 210704Z 24009KT 6000 -DZ VCFG OVC004 19/18 Q1015","updated":"2025-10-21T07:18:30Z"}
