{"icao":"KORD","metar":"KORD 011451Z 22004KT 10SM FEW250 M09/M13 A3029 RMK AO2 SLP270 I3000 T10941133 55006","updated":"2026-02-01T15:23:37Z"}
