{"icao":"LPFL","metar":"LPFL 151900Z 18016G27KT 160V220 9999 FEW016 SCT030 18/14 Q1022","updated":"2026-02-15T19:24:02Z"}
