{"icao":"LPPT","metar":"LPPT 211830Z 27008KT 230V320 9999 FEW010 SCT018 BKN034 14/09 Q1006","updated":"2026-01-21T18:40:40Z"}
