{"icao":"LPPS","metar":"LPPS 040900Z 05008KT 360V080 9999 FEW015 22/17 Q1027","updated":"2025-10-04T09:16:01Z"}
