{"icao":"LPFR","metar":"LPFR 242100Z 03006KT CAVOK 10/05 Q1008","updated":"2025-12-24T21:17:27Z"}
