{"icao":"LPST","metar":"LPST 171500Z 30008KT 9999 FEW015 21/14 Q1017","updated":"2026-04-17T15:59:24Z"}
