{"icao":"LPFL","metar":"LPFL 181630Z 35023KT 9999 -RA SCT015 BKN025 11/07 Q1018","updated":"2026-03-18T16:57:55Z"}
