{"icao":"LPMR","metar":"LPMR 251600Z 29008KT 260V330 9999 FEW020 15/10 Q1014","updated":"2026-01-25T16:24:19Z"}
