{"icao":"LPMA","metar":"LPMA 180800Z 01022G37KT 340V050 9999 BKN013 FEW018TCU 16/11 Q1016","updated":"2026-01-18T08:25:29Z"}
