{"icao":"LPLA","metar":"LPLA 201200Z 06007KT 010V100 9999 SCT025 BKN045 20/12 Q1030","updated":"2025-09-20T12:32:32Z"}
