{"icao":"LPAZ","metar":"LPAZ 241400Z 04008KT 010V080 9999 FEW015 BKN036 16/11 Q1022","updated":"2025-12-24T14:19:06Z"}
