{"icao":"LPMA","metar":"LPMA 141500Z 03011KT 290V070 9999 FEW015 SCT030 17/09 Q1025","updated":"2026-01-14T15:24:58Z"}
