{"icao":"LPFL","metar":"LPFL 071330Z 20017G28KT 160V250 9000 -RA FEW010 SCT016 18/14 Q1009","updated":"2026-02-07T13:42:35Z"}
