{"icao":"LPPS","metar":"LPPS 161600Z 34013KT 9999 SCT015 SCT030 21/14 Q1020","updated":"2025-11-16T16:20:20Z"}
