{"icao":"LPAR","metar":"LPAR 301200Z 04004KT 020V080 0150 FG VV/// 07/07 Q1022","updated":"2025-12-30T12:41:31Z"}
