{"icao":"LPFR","metar":"LPFR 211600Z 34015KT CAVOK 28/04 Q1016","updated":"2025-09-21T16:18:55Z"}
