{"icao":"LPBJ","metar":"LPBJ 262100Z 11005KT CAVOK 06/02 Q1014","updated":"2025-12-26T21:17:01Z"}
