{"icao":"LPAZ","metar":"LPAZ 221600Z 21009KT 0900 R18/1000 FG VV002 18/18 Q1021","updated":"2026-05-22T16:24:08Z"}
