{"icao":"LPOV","metar":"LPOV 172300Z 01004KT 340V060 9999 BKN005 17/17 Q1019","updated":"2026-06-18T03:50:55Z"}
