{"icao":"LPAZ","metar":"LPAZ 110500Z 29021KT 9999 FEW010 SCT016 18/12 Q1006","updated":"2025-11-11T05:19:06Z"}
