{"icao":"LPPT","metar":"LPPT 090800Z 18017KT 3500 RA FEW012 BKN015 16/15 Q1016","updated":"2025-12-09T08:27:56Z"}
