{"icao":"KORD","metar":"KORD 171051Z 21004KT 10SM BKN180 BKN250 16/11 A2965 RMK AO2 SLP037 T01560106 $","updated":"2026-06-17T11:45:53Z"}
