{"icao":"LPPD","metar":"LPPD 010530Z 21027KT 6000 -RA SCT004 BKN006 17/16 Q1008","updated":"2026-02-01T06:03:10Z"}
