{"icao":"LPPD","metar":"LPPD 250430Z 31006KT 280V350 9999 FEW017 SCT030 18/14 Q1021","updated":"2026-06-25T05:03:34Z"}
