{"icao":"KJFK","metar":"KJFK 090551Z 00000KT 10SM FEW090 SCT190 SCT250 11/10 A2990 RMK AO2 SLP126 T01110100 10150 20106 51005 $","updated":"2025-11-09T06:25:47Z"}
