{"icao":"KJFK","metar":"KJFK 271751Z 28016G26KT 10SM SCT055 BKN210 BKN250 08/M06 A2990 RMK AO2 PK WND 27027/1700 SLP126 T00831056 10089 20056 56013","updated":"2025-11-27T18:26:54Z"}
