{"icao":"KJFK","metar":"KJFK 191251Z 26013KT 10SM FEW025 FEW055 SCT140 M05/M08 A2994 RMK AO2 SLP138 T10501083 $","updated":"2026-01-19T13:44:22Z"}
