{"icao":"LPPT","metar":"LPPT 161130Z 35013KT 310V030 9999 FEW040 19/06 Q1018","updated":"2026-05-16T11:49:33Z"}
