{"icao":"LPMA","metar":"LPMA 300230Z 36008KT 320V050 9999 FEW015 18/12 Q1025","updated":"2026-05-30T02:55:17Z"}
