{"icao":"LPST","metar":"LPST 090900Z 25009KT 2000 -RADZ BR OVC003 15/14 Q1013","updated":"2026-02-09T10:01:45Z"}
