{"icao":"LPHR","metar":"LPHR 241900Z 21005KT 9999 FEW030 21/15 Q1021","updated":"2025-09-24T19:14:35Z"}
