{"icao":"LPPT","metar":"LPPT 070900Z 22019G32KT 190V260 8000 -RA SCT006 FEW018CB SCT030 13/12 Q1002 RERA WS R20","updated":"2026-02-07T09:29:29Z"}
