{"icao":"LPMR","metar":"LPMR 130700Z VRB01KT CAVOK 14/13 Q1022"}
