{"icao":"KORD","metar":"KORD 010451Z 03016KT 10SM BKN018 M02/M07 A3030 RMK AO2 SLP267 T10221072 $","updated":"2026-03-01T05:51:11Z"}
