{"icao":"LPBJ","metar":"LPBJ 182300Z 28005KT CAVOK 24/11 Q1020","updated":"2025-09-18T23:15:51Z"}
