{"icao":"LPMT","metar":"LPMT 221100Z 28005KT 240V340 9999 FEW025 18/08 Q1014","updated":"2026-04-22T11:17:25Z"}
