{"icao":"LPPR","metar":"LPPR 152300Z 36004KT CAVOK 15/14 Q1022","updated":"2025-09-15T23:14:33Z"}
