{"icao":"LPOV","metar":"LPOV 012300Z 18005KT 8000 MIFG NSC 08/08 Q1016","updated":"2026-03-01T23:22:01Z"}
