{"icao":"LPMR","metar":"LPMR 210600Z VRB01KT CAVOK 03/02 Q1026","updated":"2025-11-21T06:29:09Z"}
