{"icao":"KLAX","metar":"KLAX 300553Z 01004KT 10SM CLR 18/02 A3020 RMK AO2 SLP225 T01830017 10250 20178 51020 $","updated":"2026-01-30T06:46:27Z"}
