{"icao":"LPOV","metar":"LPOV 261700Z 34008KT 7000 2000N PRFG SCT002 13/12 Q1024","updated":"2026-02-26T17:56:28Z"}
