{"icao":"LPPR","metar":"LPPR 181200Z 24006KT 200V320 9000 4500W BCFG BKN006 18/16 Q1017","updated":"2026-06-18T12:24:03Z"}
