{"icao":"KORD","metar":"KORD 122251Z 21011G17KT 10SM SCT110 OVC250 07/M07 A3001 RMK AO2 SLP166 T00671067 $","updated":"2026-03-12T23:27:15Z"}
