{"icao":"LPFL","metar":"LPFL 240700Z 25005KT 9999 FEW016 18/13 Q1024","updated":"2025-09-24T07:17:14Z"}
