{"icao":"LPPR","metar":"LPPR 051230Z 36006KT 310V040 CAVOK 08/M01 Q1017","updated":"2026-01-05T12:43:42Z"}
