{"icao":"LPMA","metar":"LPMA 071500Z 02010KT 330V060 9999 FEW015 25/17 Q1024","updated":"2025-10-07T15:19:10Z"}
