{"icao":"KORD","metar":"KORD 270351Z 29013G25KT 10SM OVC035 M01/M08 A3005 RMK AO2 PK WND 28026/0328 SLP182 T10061078","updated":"2025-11-27T04:23:08Z"}
