{"icao":"LPPR","metar":"LPPR 131300Z 28006KT 230V320 9999 FEW020 22/15 Q1022","updated":"2025-09-13T13:18:40Z"}
