{"icao":"LPMR","metar":"LPMR 201600Z 23007KT 210V270 9999 SCT025 BKN035 21/16 Q1014","updated":"2025-10-20T16:22:11Z"}
