{"icao":"LPFR","metar":"LPFR 021900Z 26003KT 9999 FEW025 13/09 Q1019","updated":"2025-12-02T19:18:02Z"}
