{"icao":"LPOV","metar":"LPOV 070100Z 01008KT CAVOK 09/04 Q1019","updated":"2026-03-07T01:52:20Z"}
