{"icao":"LPMT","metar":"LPMT 131300Z 27009KT 9999 SCT030 20/13 Q1019","updated":"2026-05-13T13:09:57Z"}
