{"icao":"LPPR","metar":"LPPR 101930Z 33006KT 8000 SCT006 14/13 Q1012","updated":"2026-04-10T19:42:13Z"}
