{"icao":"LPMT","metar":"LPMT 230700Z 29009KT 9999 FEW016 09/08 Q1004","updated":"2026-01-23T07:24:25Z"}
