{"icao":"LPAZ","metar":"LPAZ 221100Z VRB06KT 9999 SCT034 23/14 Q1025","updated":"2025-09-22T11:15:21Z"}
