{"icao":"LPMT","metar":"LPMT 201900Z 35011KT CAVOK 12/06 Q1022","updated":"2025-11-20T19:15:06Z"}
