{"icao":"KLAX","metar":"KLAX 232053Z 26012KT 10SM FEW120 FEW160 SCT180 BKN250 21/07 A3013 RMK AO2 SLP204 T02060072 58013 $","updated":"2026-02-23T21:42:55Z"}
