{"icao":"KORD","metar":"KORD 291951Z 13011KT 1/4SM R10L/2600V3000FT +SN FZFG VV007 M02/M03 A3011 RMK AO2 SLP205 SNINCR 1/5 P0005 T10221033 $","updated":"2025-11-29T20:20:22Z"}
