{"icao":"LPMA","metar":"LPMA 131800Z 36027G42KT 330V030 9999 SHRA SCT015 FEW018TCU 16/12 Q1015","updated":"2025-12-13T18:25:03Z"}
