{"icao":"KORD","metar":"KORD 070551Z 26009KT 7SM OVC006 03/02 A2976 RMK AO2 SLP083 60000 T00330022 10050 20033 400720011 51014","updated":"2026-01-07T06:32:29Z"}
