{"icao":"LPBJ","metar":"LPBJ 141700Z 22013KT 9999 SCT038 15/12 Q1006","updated":"2025-11-14T17:16:43Z"}
