{"icao":"LPFR","metar":"LPFR 071500Z 05007KT 9999 FEW008 12/11 Q1025","updated":"2026-01-07T15:23:57Z"}
