{"icao":"LPPR","metar":"LPPR 091530Z 28004KT 220V320 9999 FEW012 FEW025CB BKN040 09/07 Q1018","updated":"2026-03-09T15:57:09Z"}
