{"icao":"LPPD","metar":"LPPD 221500Z 03013KT 350V060 9999 SCT020 BKN030 15/10 Q1019","updated":"2026-03-22T15:24:55Z"}
