{"icao":"LPPR","metar":"LPPR 262200Z 19031G43KT 5000 -RADZ BR BKN006 14/13 Q0997","updated":"2026-01-26T22:20:39Z"}
