{"icao":"LPLA","metar":"LPLA 021400Z 34004KT 250V050 9999 SCT020 25/20 Q1020","updated":"2025-10-02T14:17:15Z"}
