{"icao":"KORD","metar":"KORD 230751Z 34004KT 10SM CLR 14/08 A3014 RMK AO2 SLP202 T01390083 $","updated":"2026-06-23T08:33:40Z"}
