{"icao":"LPPT","metar":"LPPT 050330Z 34012KT 9999 FEW042 10/04 Q1009","updated":"2026-01-05T03:54:17Z"}
