{"icao":"KORD","metar":"KORD 031051Z 23012G21KT 10SM BKN130 BKN180 07/01 A3003 RMK AO2 SLP170 T00670006 $","updated":"2025-11-03T11:15:34Z"}
