{"icao":"LPFR","metar":"LPFR 191500Z 12006KT 9999 SCT014 23/19 Q1015","updated":"2025-10-19T15:15:28Z"}
