{"icao":"LPPT","metar":"LPPT 201630Z 10011KT 6000 SHRA FEW006 BKN018 FEW020TCU 14/13 Q1006","updated":"2026-03-20T16:41:24Z"}
