{"icao":"LPFR","metar":"LPFR 040530Z 25024KT 4200 1000E R28/1200D -RA BR FEW003 OVC006 16/15 Q1000","updated":"2026-02-04T05:47:27Z"}
