{"icao":"LPMA","metar":"LPMA 130600Z 01019G32KT 290V050 9999 BKN015 FEW018CB 16/07 Q1018","updated":"2025-12-13T06:28:32Z"}
