{"icao":"KJFK","metar":"KJFK 061051Z 20011KT 10SM SCT150 SCT190 BKN250 13/12 A2985 RMK AO2 SLP107 T01280117 $","updated":"2026-05-06T11:05:14Z"}
