{"icao":"KLAX","metar":"KLAX 130853Z 00000KT 10SM FEW016 19/17 A2991 RMK AO2 SLP124 T01940167 56001 $","updated":"2025-09-13T09:15:33Z"}
