{"icao":"LPCS","metar":"LPCS 151300Z 35021KT CAVOK 26/17 Q1021","updated":"2025-09-15T13:26:21Z"}
