{"icao":"KORD","metar":"KORD 091651Z 27007G18KT 10SM FEW070 FEW110 SCT250 18/02 A3014 RMK AO2 SLP206 T01830017","updated":"2026-04-09T17:06:23Z"}
