{"icao":"LPBJ","metar":"LPBJ 292300Z 29004KT CAVOK 19/13 Q1017","updated":"2025-09-29T23:15:45Z"}
