{"icao":"KJFK","metar":"KJFK 051651Z 22006KT 10SM CLR 26/16 A3031 RMK AO2 SLP262 T02560156","updated":"2025-10-05T17:13:17Z"}
