{"icao":"LPCS","metar":"LPCS 211600Z 24006KT 200V290 9999 FEW022 18/11 Q1008","updated":"2026-03-21T16:28:07Z"}
