{"icao":"LPMT","metar":"LPMT 072100Z 34010KT CAVOK 19/11 Q1021","updated":"2026-06-07T22:02:17Z"}
