{"icao":"LPCS","metar":"LPCS 201900Z 36014KT CAVOK 12/08 Q1028","updated":"2026-02-20T23:27:28Z"}
