{"icao":"KJFK","metar":"KJFK 130651Z 05004KT 10SM FEW020 SCT070 17/16 A3018 RMK AO2 SLP220 T01670156 $"}
