{"icao":"LPFL","metar":"LPFL 110730Z 24011G21KT 180V290 9999 SCT020 15/10 Q1009","updated":"2026-02-11T07:58:48Z"}
