{"icao":"LPPR","metar":"LPPR 130600Z 12012KT 7000 RA FEW015 FEW020CB SCT040 15/14 Q0999","updated":"2025-11-13T06:28:45Z"}
