{"icao":"LPMT","metar":"LPMT 291700Z 33011KT CAVOK 28/18 Q1019","updated":"2026-06-29T17:35:07Z"}
