{"icao":"LPPR","metar":"LPPR 200930Z 10005KT 080V150 7000 RA FEW012 FEW018CB BKN045 14/13 Q1010","updated":"2026-03-20T09:39:12Z"}
