{"icao":"LPLA","metar":"LPLA 171800Z 22020G30KT 9999 FEW015 24/19 Q1013","updated":"2025-09-17T18:24:28Z"}
