{"icao":"LPPR","metar":"LPPR 210100Z 23008KT 200V280 0700 R17/1000D -RADZ FG VV001 18/18 Q1011","updated":"2025-10-21T01:21:48Z"}
