{"icao":"KJFK","metar":"KJFK 301551Z 10023G39KT 5SM -RA BR BKN009 OVC015 14/13 A2970 RMK AO2 PK WND 10044/1535 SLP057 P0001 T01440133","updated":"2025-10-30T16:23:31Z"}
