{"icao":"LPMT","metar":"LPMT 151500Z 26008KT CAVOK 25/13 Q1015","updated":"2025-10-15T15:17:37Z"}
