{"icao":"KLAX","metar":"KLAX 191853Z 26008KT 10SM CLR 27/17 A3005 RMK AO2 SLP172 T02720167 $","updated":"2026-03-19T18:57:32Z"}
