{"icao":"LPMA","metar":"LPMA 101630Z 03010KT 360V070 9999 SCT016 19/10 Q1015","updated":"2026-05-10T16:54:48Z"}
