{"icao":"LPFR","metar":"LPFR 022200Z 23003KT 9999 FEW018 BKN030 15/14 Q1009","updated":"2026-03-02T22:25:11Z"}
