{"icao":"LPFR","metar":"LPFR 031000Z 15004KT CAVOK 25/16 Q1022","updated":"2025-10-03T10:17:47Z"}
