{"icao":"LPFR","metar":"LPFR 060130Z 24011KT 9999 FEW020 15/12 Q1006","updated":"2026-02-06T01:58:29Z"}
