{"icao":"LPOV","metar":"LPOV 140600Z VRB01KT 9000 NSC 11/10 Q1018","updated":"2025-10-14T06:27:17Z"}
