{"icao":"LPBJ","metar":"LPBJ 091800Z 31007KT 9999 FEW035 12/07 Q1028","updated":"2026-01-09T18:30:50Z"}
