{"icao":"LPPR","metar":"LPPR 021630Z 23004KT 200V260 9999 SCT030 16/10 Q1008","updated":"2026-03-02T16:43:21Z"}
