{"icao":"LPMR","metar":"LPMR 280800Z 01005KT 9999 FEW025 BKN045 10/07 Q1012","updated":"2025-12-28T09:18:55Z"}
