{"icao":"LPFL","metar":"LPFL 091030Z 13004KT 080V170 9999 FEW020 BKN038 14/06 Q1035","updated":"2026-03-09T10:43:45Z"}
