{"icao":"LPAZ","metar":"LPAZ 260130Z 22025KT 9000 SCT013 BKN020 18/16 Q1012","updated":"2026-01-26T01:50:13Z"}
