{"icao":"LPCS","metar":"LPCS 151100Z VRB02KT 5000 -RA SCT003 BKN020 14/14 Q1006","updated":"2025-11-15T11:13:25Z"}
