{"icao":"LPOV","metar":"LPOV 201500Z 13003KT 090V170 9999 FEW025 17/13 Q1009","updated":"2026-03-20T15:41:04Z"}
