{"icao":"LPPR","metar":"LPPR 160400Z 23010KT 200V270 9999 SHRA FEW015 SCT020CB 15/13 Q1006","updated":"2025-11-16T04:24:23Z"}
