{"icao":"KORD","metar":"KORD 081706Z 03009KT 10SM FEW012 OVC027 08/02 A2988 RMK AO2 T00780022 $","updated":"2025-11-08T17:15:05Z"}
