{"icao":"LPBJ","metar":"LPBJ 050400Z 23026G36KT 8000 -RADZ BKN006 OVC012 15/14 Q0995","updated":"2026-02-05T04:20:34Z"}
