{"icao":"LPMR","metar":"LPMR 241800Z 32012G22KT 290V350 9999 SCT022 BKN035 11/06 Q1014","updated":"2026-01-24T18:28:36Z"}
