{"icao":"LPCS","metar":"LPCS 100900Z 00000KT 9999 FEW014 17/16 Q1020","updated":"2025-11-10T09:22:27Z"}
