{"icao":"LPBJ","metar":"LPBJ 211200Z 02013KT CAVOK 13/01 Q1026","updated":"2025-11-21T12:37:08Z"}
