{"icao":"KLAX","metar":"KLAX 080453Z 07004KT 10SM CLR 18/16 A2989 RMK AO2 SLP122 T01830156 $","updated":"2025-11-08T05:17:00Z"}
