{"icao":"LPBJ","metar":"LPBJ 272300Z 28006KT CAVOK 20/11 Q1019","updated":"2026-05-27T23:15:40Z"}
