{"icao":"LPFR","metar":"LPFR 061830Z 33008KT 300V360 9999 FEW025 SCT040 13/06 Q1016","updated":"2026-03-06T18:42:46Z"}
