{"icao":"KJFK","metar":"KJFK 220051Z 32015G21KT 10SM SCT250 00/M13 A3031 RMK AO2 PK WND 32030/2354 SLP262 T00001128 $","updated":"2025-12-22T01:42:49Z"}
