{"icao":"KORD","metar":"KORD 101651Z 03013G22KT 10SM OVC006 05/02 A2992 RMK AO2 SLP132 T00500022","updated":"2026-03-10T17:00:47Z"}
