{"icao":"LPFL","metar":"LPFL 281500Z VRB11G29KT 9999 -RA FEW012 FEW015CB 17/13 Q1001 RERA","updated":"2026-01-28T15:30:59Z"}
