{"icao":"LPMR","metar":"LPMR 231400Z 32011KT 280V350 CAVOK 23/07 Q1018","updated":"2025-09-23T14:17:36Z"}
