{"icao":"LPOV","metar":"LPOV 281900Z 33005KT 9999 FEW025 20/15 Q1007","updated":"2026-04-29T06:21:42Z"}
