{"icao":"LPPT","metar":"LPPT 081330Z 21013KT 9999 -RA FEW025 SCT037 13/10 Q1015","updated":"2026-02-08T13:42:59Z"}
