{"icao":"LPOV","metar":"LPOV 031700Z 20003KT CAVOK 17/13 Q1020","updated":"2025-11-03T17:16:36Z"}
