{"icao":"LPAR","metar":"LPAR 301600Z 27017G29KT 240V310 9999 BKN020 17/11 Q1011","updated":"2026-02-01T19:23:11Z"}
