{"icao":"LPMR","metar":"LPMR 211600Z 26009KT 230V300 9999 SCT007 BKN018 21/19 Q1014","updated":"2025-10-21T19:15:04Z"}
