{"icao":"LPMR","metar":"LPMR 061500Z 35009KT 300V010 9999 FEW020 SCT035 16/12 Q1017","updated":"2025-11-06T15:20:18Z"}
