{"icao":"LPBJ","metar":"LPBJ 221000Z 10006KT CAVOK 14/08 Q1029","updated":"2026-02-22T10:23:16Z"}
