{"icao":"LPPT","metar":"LPPT 131430Z 30011KT 9999 SCT034 16/08 Q1022 WS R02","updated":"2026-04-13T14:46:47Z"}
