{"icao":"LPOV","metar":"LPOV 061500Z 16015KT CAVOK 27/06 Q1013","updated":"2026-04-06T15:44:11Z"}
