{"icao":"LPBJ","metar":"LPBJ 252100Z 01002KT CAVOK 16/09 Q1016","updated":"2026-03-25T21:37:56Z"}
