{"icao":"LPMA","metar":"LPMA 262230Z 02012KT 340V050 9999 FEW016 17/12 Q1019","updated":"2026-04-26T22:36:24Z"}
