{"icao":"LPPR","metar":"LPPR 141100Z 12011G21KT CAVOK 14/08 Q1021","updated":"2025-12-14T11:15:46Z"}
