{"icao":"LPPT","metar":"LPPT 181100Z VRB04KT 8000 FEW004 SCT007 BKN011 10/10 Q1022","updated":"2025-12-18T11:18:16Z"}
