{"icao":"LPPT","metar":"LPPT 031430Z 26009KT 210V300 9999 FEW034 19/11 Q1014","updated":"2026-05-03T14:47:13Z"}
