{"icao":"LPPR","metar":"LPPR 082200Z VRB02KT 9000 NSC 15/14 Q1021","updated":"2025-10-08T22:16:02Z"}
