{"icao":"LPHR","metar":"LPHR 270000Z 03006KT 360V060 9999 FEW015 BKN030 14/09 Q1030","updated":"2026-03-27T02:12:44Z"}
