{"icao":"KORD","metar":"KORD 082051Z 17008KT 5SM -RA BR SCT018 BKN050 OVC085 12/10 A2965 RMK AO2 PK WND 17026/2015 RAE00B17 SLP042 P0000 60000 T01220100 55017","updated":"2026-01-08T21:20:02Z"}
