{"icao":"LPPS","metar":"LPPS 041400Z 03008KT 010V070 9999 FEW015 BKN030 18/12 Q1026","updated":"2025-12-04T14:20:39Z"}
