{"icao":"LPBJ","metar":"LPBJ 231300Z 30008KT 250V330 9999 FEW025 BKN032 25/17 Q1020","updated":"2025-10-23T13:30:36Z"}
