{"icao":"LPFL","metar":"LPFL 131600Z 24015G27KT 170V290 9999 -DZ FEW008 SCT012 20/16 Q1021","updated":"2025-12-13T16:22:15Z"}
