{"icao":"KORD","metar":"KORD 111751Z 31010KT 10SM BKN028 00/M07 A3032 RMK AO2 SLP277 60000 T00001072 10000 21044 50016 $","updated":"2026-01-11T18:27:49Z"}
