{"icao":"LPPT","metar":"LPPT 270730Z 31003KT 270V360 9999 BKN012 12/10 Q1024","updated":"2026-02-27T07:44:36Z"}
