{"icao":"LPCS","metar":"LPCS 011230Z 17004KT 110V250 CAVOK 16/06 Q1021","updated":"2025-12-01T12:40:27Z"}
