{"icao":"KJFK","metar":"KJFK 300551Z 00000KT 10SM OVC250 20/13 A3014 RMK AO2 SLP206 T02000133 10206 20189 56010 $","updated":"2025-09-30T06:27:22Z"}
