{"icao":"LPPR","metar":"LPPR 271030Z 18009KT 3300 R17/1100U -DZRA BR BKN004 BKN010 12/11 Q1025","updated":"2026-02-27T10:36:01Z"}
