{"icao":"LPMA","metar":"LPMA 022230Z VRB01KT 9999 SCT015 18/14 Q1020","updated":"2026-05-02T22:39:29Z"}
