{"icao":"LPMT","metar":"LPMT 250700Z 34004KT 310V010 CAVOK 15/12 Q1016","updated":"2026-04-25T07:13:40Z"}
