{"icao":"LPPS","metar":"LPPS 220800Z 07009KT 040V100 9999 VCSH SCT008 FEW018CB 15/13 Q1001","updated":"2026-03-22T08:33:16Z"}
