{"icao":"LPMA","metar":"LPMA 042300Z 35004KT 280V060 9999 FEW015 17/09 Q1019","updated":"2026-04-04T23:30:26Z"}
