{"icao":"LPPR","metar":"LPPR 160400Z 36009KT 9999 FEW020 10/08 Q1006","updated":"2025-12-16T04:34:16Z"}
