{"icao":"LPPR","metar":"LPPR 170800Z 04004KT 010V080 5000 BR SCT002 SCT038 12/11 Q1013","updated":"2025-11-17T08:27:13Z"}
