{"icao":"KJFK","metar":"KJFK 142051Z 31020G27KT 10SM FEW075 FEW250 11/M09 A3008 RMK AO2 PK WND 32035/2003 SLP186 T01111089 53030","updated":"2026-03-14T21:25:41Z"}
