{"icao":"LPMR","metar":"LPMR 021400Z 35004KT 280V040 9999 FEW012 21/16 Q1021","updated":"2025-10-02T15:17:44Z"}
