{"icao":"LPCS","metar":"LPCS 201900Z 35011KT 9999 FEW020 11/06 Q1023","updated":"2025-11-20T19:15:03Z"}
