{"icao":"LPFL","metar":"LPFL 161600Z 30003KT 230V030 9999 BKN038 15/07 Q1035","updated":"2026-01-16T16:27:43Z"}
