{"icao":"LPAR","metar":"LPAR 230900Z 06006KT 030V090 CAVOK 11/10 Q1025","updated":"2026-02-23T09:54:05Z"}
