{"icao":"KORD","metar":"KORD 271651Z 29018G25KT 10SM SCT040 M11/M20 A3010 RMK AO2 PK WND 27027/1638 SLP206 T11061200","updated":"2026-01-27T17:26:45Z"}
