{"icao":"LPHR","metar":"LPHR 072000Z 19017KT 9999 FEW016 BKN040 17/14 Q1030","updated":"2026-01-07T20:24:09Z"}
