{"icao":"LPPR","metar":"LPPR 310200Z 01009KT CAVOK 13/09 Q1029","updated":"2026-03-31T02:12:55Z"}
