{"icao":"KJFK","metar":"KJFK 060251Z 00000KT 10SM FEW250 19/15 A2994 RMK AO2 SLP139 T01940150 50003 $","updated":"2026-06-06T02:58:47Z"}
