{"icao":"LPST","metar":"LPST 281100Z 35008KT 330V030 9999 BKN025 14/09 Q1024","updated":"2025-11-28T11:16:26Z"}
