{"icao":"KORD","metar":"KORD 092151Z 25003KT 10SM BKN023 07/02 A3011 RMK AO2 SLP198 T00670017","updated":"2026-01-09T22:20:19Z"}
