{"icao":"KJFK","metar":"KJFK 012251Z 18018G24KT 10SM FEW060 SCT080 SCT250 12/07 A2986 RMK SLP113 T01170067 ","updated":"2026-05-01T23:50:57Z"}
