{"icao":"KLAX","metar":"KLAX 012153Z 27012KT 5SM HZ BKN008 17/14 A3001 RMK AO2 SLP159 VIS W 3 T01720139 $","updated":"2025-11-01T22:15:43Z"}
