{"icao":"LPFR","metar":"LPFR 182000Z 34008KT CAVOK 09/04 Q1015","updated":"2026-01-18T20:21:35Z"}
