{"icao":"KORD","metar":"KORD 170551Z 17006KT 10SM FEW250 15/04 A3002 RMK AO2 SLP163 T01500044 10172 20150 402060133 56013","updated":"2025-10-17T06:26:58Z"}
