{"icao":"KORD","metar":"KORD 091233Z 20005KT 4SM R10L/6000VP6000FT -RA BR BKN005 BKN023 OVC036 22/22 A2994 RMK AO2 RAB28 P0000 T02220217","updated":"2026-06-09T12:35:46Z"}
