{"icao":"KJFK","metar":"KJFK 291551Z 04012KT 10SM BKN029 BKN039 BKN250 11/06 A3016 RMK AO2 SLP211 T01110056","updated":"2025-10-29T16:24:51Z"}
