{"icao":"KJFK","metar":"KJFK 031251Z 10007KT 10SM FEW028 OVC043 02/M03 A3059 RMK AO2 SLP359 T00171028","updated":"2026-03-03T12:56:02Z"}
