{"icao":"LPAR","metar":"LPAR 120900Z VRB01KT 7000 SCT020 14/13 Q1021","updated":"2026-02-12T09:48:42Z"}
