{"icao":"LPPS","metar":"LPPS 070900Z 02003KT 330V070 9999 -DZ SCT014 SCT025 21/19 Q1025","updated":"2025-10-07T09:19:18Z"}
