{"icao":"LPPR","metar":"LPPR 311730Z 34005KT CAVOK 21/12 Q1024","updated":"2026-03-31T17:55:36Z"}
