{"icao":"LPPD","metar":"LPPD 081900Z 24016KT 2500 1400NW -DZ BR SCT001 BKN006 17/16 Q1014","updated":"2026-02-08T19:23:43Z"}
