{"icao":"LPPD","metar":"LPPD 261630Z 14010KT 110V170 9999 FEW007 BKN012 17/15 Q1022","updated":"2026-04-26T16:40:50Z"}
