{"icao":"LPPT","metar":"LPPT 262300Z 31005KT CAVOK 11/06 Q1025","updated":"2025-11-26T23:17:04Z"}
