{"icao":"KJFK","metar":"KJFK 051251Z 13004KT 1 1/2SM BR BKN003 OVC009 09/09 A2987 RMK AO2 SFC VIS 2 SLP113 T00940089","updated":"2026-04-05T12:55:33Z"}
