{"icao":"KJFK","metar":"KJFK 160951Z 03010KT 5SM -SN BR BKN012 OVC025 M01/M02 A3007 RMK AO2 SLP182 P0001 T10061017 $","updated":"2026-02-16T10:49:43Z"}
