{"icao":"KJFK","metar":"KJFK 092151Z 22007KT 10SM FEW050 BKN150 BKN190 BKN250 M01/M12 A3010 RMK AO2 SLP191 T10111117","updated":"2025-12-09T22:19:26Z"}
