{"icao":"KJFK","metar":"KJFK 231651Z 14005KT 10SM -RA FEW011 BKN028 OVC065 04/02 A3014 RMK AO2 SNE10 SLP206 P0002 T00390022 $","updated":"2025-12-23T17:19:48Z"}
