{"icao":"LPOV","metar":"LPOV 042100Z 13003KT 9999 FEW026 SCT040 10/09 Q1019","updated":"2025-12-04T22:16:24Z"}
