{"icao":"LPST","metar":"LPST 041600Z 16016KT CAVOK 20/15 Q1013","updated":"2025-11-04T16:22:05Z"}
