{"icao":"KORD","metar":"KORD 200651Z 20003KT 5SM BR OVC009 06/04 A3013 RMK AO2 SLP207 T00610039","updated":"2025-11-20T07:18:21Z"}
