{"icao":"LPMT","metar":"LPMT 121900Z 34007KT CAVOK 28/16 Q1016","updated":"2026-06-12T21:42:00Z"}
