{"icao":"LPAZ","metar":"LPAZ 062030Z 30010KT 6000 SCT003 BKN007 19/19 Q1026","updated":"2026-06-06T21:02:40Z"}
