{"icao":"LPPT","metar":"LPPT 210700Z 34014KT CAVOK 15/11 Q1021","updated":"2025-09-21T07:14:09Z"}
