{"icao":"LPAR","metar":"LPAR 151100Z 09003KT 040V130 9999 FEW020 11/09 Q1013","updated":"2025-12-15T11:17:52Z"}
