{"icao":"LPAZ","metar":"LPAZ 121130Z 03012KT 360V060 9999 SCT025 17/10 Q1025","updated":"2026-05-12T11:54:28Z"}
