{"icao":"LPHR","metar":"LPHR 251300Z 24023KT 9999 SCT013 BKN050 18/16 Q1013","updated":"2026-01-25T13:31:29Z"}
