{"icao":"LPPT","metar":"LPPT 221500Z VRB04KT CAVOK 14/M01 Q1029","updated":"2025-11-22T15:16:13Z"}
