{"icao":"KORD","metar":"KORD 140851Z 28004KT 10SM SCT120 BKN150 21/19 A2978 RMK AO2 SLP080 60000 T02060194 57015 $","updated":"2026-06-14T09:31:28Z"}
