{"icao":"KLAX","metar":"KLAX 042053Z 18008KT 10SM FEW009 BKN018 OVC075 16/13 A3001 RMK AO2 SLP161 T01610133 58017","updated":"2026-01-04T21:18:01Z"}
