{"icao":"LPLA","metar":"LPLA 240800Z 30020G30KT 9999 SCT025 BKN035 14/10 Q1010","updated":"2026-02-24T08:46:19Z"}
