{"icao":"LPFL","metar":"LPFL 250700Z 18013KT 150V210 9999 SCT018 22/17 Q1012","updated":"2025-09-25T07:17:43Z"}
