{"icao":"LPBJ","metar":"LPBJ 311700Z 28008KT 9999 FEW035 14/08 Q1021","updated":"2026-01-31T17:22:17Z"}
