{"icao":"LPMA","metar":"LPMA 200330Z 34007KT 290V020 9999 FEW015 16/10 Q1027","updated":"2026-01-20T03:42:54Z"}
