{"icao":"KJFK","metar":"KJFK 210851Z 01007KT 10SM FEW070 02/M08 A3036 RMK SLP280 T00171083 53003 ","updated":"2026-04-21T09:24:23Z"}
