{"icao":"LPAZ","metar":"LPAZ 310530Z 23015KT 8000 FEW005 BKN041 17/16 Q1019","updated":"2026-01-31T05:37:34Z"}
