{"icao":"LPMT","metar":"LPMT 252300Z 36011KT 7000 -RADZ FEW012 BKN030 17/15 Q1015","updated":"2025-10-25T23:15:19Z"}
