{"icao":"LPHR","metar":"LPHR 231130Z 18003KT 150V230 9999 FEW018 BKN030 15/09 Q1025","updated":"2026-03-23T11:41:56Z"}
