{"icao":"KORD","metar":"KORD 161116Z 21006KT 7SM FEW004 BKN210 04/02 A2993 RMK AO2 T00390022","updated":"2026-02-16T11:39:20Z"}
