{"icao":"LPSJ","metar":"LPSJ 241030Z 28003KT 220V340 2300 -DZ BR BKN002 BKN007 20/20 Q1021","updated":"2026-06-24T10:47:43Z"}
