{"icao":"KORD","metar":"KORD 011451Z 28005KT 10SM BKN075 07/02 A3004 RMK AO2 SLP175 T00720022 53018 $","updated":"2025-11-01T15:15:07Z"}
