{"icao":"LPAR","metar":"LPAR 301000Z 05004KT 010V090 9999 SCT015 BKN045 17/13 Q1017","updated":"2026-04-30T10:54:02Z"}
