{"icao":"KJFK","metar":"KJFK 211451Z 36012KT 9SM -RA BKN060 OVC090 15/11 A3021 RMK AO2 RAB10 SLP230 P0000 60000 T01500106 53019","updated":"2026-05-21T15:21:35Z"}
