{"icao":"LPAZ","metar":"LPAZ 222330Z 26024KT 9999 FEW016 BKN022 14/12 Q1004","updated":"2026-04-22T23:43:53Z"}
