{"icao":"LPPD","metar":"LPPD 201830Z 19010KT 9999 FEW012 BKN048 16/14 Q1022","updated":"2026-02-20T18:45:03Z"}
