{"icao":"LPPT","metar":"LPPT 120830Z 27007KT 8000 FEW012 13/12 Q1021","updated":"2026-02-12T08:43:52Z"}
