{"icao":"LPPS","metar":"LPPS 211130Z 17008KT 130V200 9999 FEW015 24/18 Q1021","updated":"2026-06-21T11:45:58Z"}
