{"icao":"LPOV","metar":"LPOV 140700Z VRB01KT 5000 BR OVC005 18/18 Q1023","updated":"2025-09-14T07:14:46Z"}
