{"icao":"LPFL","metar":"LPFL 291500Z 15010KT 110V170 9999 FEW019 SCT035 16/10 Q1033","updated":"2026-03-29T15:31:37Z"}
