{"icao":"KLAX","metar":"KLAX 122053Z 26010KT 10SM FEW230 FEW280 22/12 A2972 RMK AO2 SLP061 T02170122 58016 $","updated":"2025-10-12T21:14:35Z"}
