{"icao":"LPBJ","metar":"LPBJ 211100Z 02016KT CAVOK 12/00 Q1026","updated":"2025-11-21T11:15:48Z"}
