{"icao":"KJFK","metar":"KJFK 041051Z 34009KT 8SM -SN BKN055 OVC075 M03/M08 A3003 RMK AO2 SLP167 P0000 T10281083 $","updated":"2026-01-04T11:16:08Z"}
