{"icao":"KJFK","metar":"KJFK 161251Z 18014KT 1/4SM R04R/1800V2000FT -DZ FG VV002 09/08 A2978 RMK AO2 SLP085 P0001 T00890083","updated":"2026-03-16T13:09:32Z"}
