{"icao":"LPBJ","metar":"LPBJ 282000Z 29009KT 9999 FEW028 BKN032 BKN040 19/16 Q1014","updated":"2025-09-28T20:17:19Z"}
