{"icao":"LPPS","metar":"LPPS 250830Z 32011KT 9999 SCT014 FEW016TCU SCT030 15/12 Q1019","updated":"2026-02-25T08:47:32Z"}
