{"icao":"LPOV","metar":"LPOV 051400Z 31008KT 260V340 9999 FEW020 SCT030 18/13 Q1017","updated":"2026-05-05T14:18:36Z"}
