{"icao":"LPFL","metar":"LPFL 011600Z 34021G31KT 310V010 9999 SCT024 15/09 Q1012","updated":"2026-01-01T16:25:39Z"}
