{"icao":"KLAX","metar":"KLAX 200753Z 07005KT 10SM CLR 16/13 A2997 RMK AO2 SLP145 T01610133 402170161","updated":"2026-06-20T08:53:18Z"}
