{"icao":"LPPD","metar":"LPPD 012300Z 03005KT 010V070 9999 FEW020 16/09 Q1023","updated":"2025-11-01T23:15:53Z"}
