{"icao":"LPPS","metar":"LPPS 151000Z 32010KT 9999 SCT014 SCT030 15/11 Q1026","updated":"2026-01-15T10:23:37Z"}
