{"icao":"LPPD","metar":"LPPD 020900Z 33015KT 300V360 8000 SHRA SCT018 FEW022CB 13/09 Q1004 WS ALL RWY","updated":"2026-01-02T09:23:44Z"}
