{"icao":"LPMT","metar":"LPMT 301400Z 19008KT 160V220 9999 FEW030 21/15 Q1013","updated":"2025-10-30T14:18:58Z"}
