{"icao":"KORD","metar":"KORD 211851Z 25016G25KT 10SM OVC023 M03/M08 A2989 RMK AO2 PK WND 26029/1805 SLP132 T10281078 $","updated":"2026-01-21T19:25:28Z"}
