{"icao":"KJFK","metar":"KJFK 260751Z 24008KT 10SM FEW015 BKN035 BKN055 12/11 A2990 RMK AO2 SLP123 T01220111","updated":"2025-11-26T08:26:39Z"}
