{"icao":"LPMT","metar":"LPMT 270500Z 24009KT 190V260 9000 FEW007 BKN030 14/13 Q1000","updated":"2026-01-27T05:25:44Z"}
