{"icao":"KLAX","metar":"KLAX 250253Z 26008KT 10SM CLR 14/10 A2995 RMK AO2 SLP142 T01390100 51021 $","updated":"2026-01-25T03:53:03Z"}
