{"icao":"LPLA","metar":"LPLA 041200Z 26016KT 230V300 8000 -RA FEW012 SCT020 FEW022CB 16/12 Q0994 RERA","updated":"2026-02-04T12:56:48Z"}
