{"icao":"LPFR","metar":"LPFR 261500Z 24013KT 8000 SCT010 BKN040 16/15 Q1016","updated":"2026-01-26T15:27:45Z"}
