{"icao":"LPMA","metar":"LPMA 261000Z 19003KT 140V250 9999 FEW015 18/10 Q1020","updated":"2025-12-26T10:20:39Z"}
