{"icao":"KJFK","metar":"KJFK 040851Z 29018G25KT 10SM CLR 09/01 A2998 RMK AO2 PK WND 29027/0801 SLP152 T00940011 52025 $","updated":"2025-11-04T09:20:31Z"}
