{"icao":"LPBJ","metar":"LPBJ 182000Z 28009KT CAVOK 16/10 Q1021","updated":"2026-05-18T20:23:08Z"}
