{"icao":"LPFR","metar":"LPFR 232300Z 00000KT CAVOK 12/09 Q1025","updated":"2025-11-23T23:16:34Z"}
