{"icao":"LPMT","metar":"LPMT 250900Z 18013KT 9999 BKN018 22/18 Q1015","updated":"2026-06-25T09:18:35Z"}
