{"icao":"LPAZ","metar":"LPAZ 281800Z 23008KT 5000 -DZ BR FEW004 BKN006 15/14 Q1030","updated":"2026-02-28T18:31:33Z"}
