{"icao":"LPAR","metar":"LPAR 131400Z 12006KT 080V170 9999 FEW045 30/11 Q1014","updated":"2025-10-13T14:18:38Z"}
