{"icao":"KORD","metar":"KORD 211051Z 28007KT 10SM OVC018 M03/M08 A3002 RMK AO2 SLP175 T10331078 $","updated":"2026-02-21T11:20:58Z"}
