{"icao":"LPAZ","metar":"LPAZ 221900Z 17019KT 9999 FEW008 SCT015 BKN038 22/21 Q1013","updated":"2025-10-22T19:13:45Z"}
