{"icao":"LPMR","metar":"LPMR 180300Z 35006KT 9999 OVC009 17/16 Q1017","updated":"2026-06-18T03:50:58Z"}
