{"icao":"KLAX","metar":"KLAX 232053Z 12011KT 7SM -RA FEW018 BKN036 OVC043 17/14 A2997 RMK AO2 RAB15E30B47 SLP147 P0000 60000 T01670139 58014 $","updated":"2025-12-23T21:18:30Z"}
