{"icao":"LPMR","metar":"LPMR 091100Z 14004KT CAVOK 15/09 Q1022","updated":"2025-11-09T12:33:21Z"}
