{"icao":"LPBJ","metar":"LPBJ 260600Z 30002KT 8000 VCFG BKN006 SCT020 18/17 Q1016","updated":"2025-10-26T06:25:04Z"}
