{"icao":"LPFR","metar":"LPFR 010500Z 04006KT CAVOK 17/05 Q1019","updated":"2026-04-01T05:22:32Z"}
