{"icao":"LPPT","metar":"LPPT 191100Z 02008KT 340V040 9999 FEW038 BKN045 15/09 Q1018","updated":"2025-11-19T11:16:23Z"}
