{"icao":"KLAX","metar":"KLAX 162253Z 26015KT 10SM R25L/5500VP6000FT FEW015 SCT036 SCT220 19/13 A2986 RMK AO2 SLP112 T01940128","updated":"2026-05-16T23:51:40Z"}
