{"icao":"LPBJ","metar":"LPBJ 100400Z 23002KT 2000 PRFG SCT004 05/05 Q1029","updated":"2026-01-10T04:32:38Z"}
