{"icao":"LPPS","metar":"LPPS 312300Z 22010KT 9999 FEW015 22/16 Q1016","updated":"2025-10-31T23:16:29Z"}
