{"icao":"KORD","metar":"KORD 031451Z 35003KT 10SM FEW030 FEW095 M07/M12 A3020 RMK AO2 SLP238 T10671122 53010","updated":"2026-02-03T15:49:29Z"}
