{"icao":"KORD","metar":"KORD 181251Z 17006KT 9SM BKN100 BKN120 OVC150 17/16 A2968 RMK AO2 RAE11 SLP047 P0001 T01670156 $","updated":"2025-10-18T13:21:42Z"}
