{"icao":"LPMR","metar":"LPMR 040400Z 15007KT CAVOK 14/10 Q1017","updated":"2025-11-04T04:20:47Z"}
