{"icao":"LPFR","metar":"LPFR 010200Z 23005KT 9999 SCT015 SCT032 15/13 Q1020","updated":"2026-02-01T02:12:19Z"}
