{"icao":"LPAR","metar":"LPAR 131000Z 06005KT 030V140 CAVOK 23/13 Q1016","updated":"2025-10-13T10:20:59Z"}
