{"icao":"LPOV","metar":"LPOV 210000Z 08004KT CAVOK 20/11 Q1005","updated":"2026-04-21T07:47:51Z"}
