{"icao":"LPMT","metar":"LPMT 181400Z 23014KT 7000 FEW009 SCT012 BKN018 16/14 Q1019","updated":"2026-02-18T14:41:50Z"}
