{"icao":"LPST","metar":"LPST 031700Z 20003KT CAVOK 17/10 Q1021","updated":"2025-11-04T07:18:23Z"}
