{"icao":"LPMR","metar":"LPMR 172200Z VRB01KT CAVOK 15/14 Q1016","updated":"2025-10-17T22:15:55Z"}
