{"icao":"LPPR","metar":"LPPR 201730Z 30003KT CAVOK 20/10 Q1010","updated":"2026-04-20T17:56:15Z"}
