{"icao":"LPFR","metar":"LPFR 190700Z 35005KT 310V010 CAVOK 11/09 Q1017","updated":"2025-11-19T07:18:34Z"}
