{"icao":"LPMA","metar":"LPMA 201400Z 16005KT 100V190 9999 SCT016 18/08 Q1025","updated":"2026-01-20T14:29:47Z"}
