{"icao":"LPMT","metar":"LPMT 090300Z 25009KT 8000 -RA SCT006 BKN015 BKN025 13/13 Q1028","updated":"2026-01-09T03:38:26Z"}
