{"icao":"LPBJ","metar":"LPBJ 030900Z 08007KT 9999 FEW020 13/09 Q1011","updated":"2026-03-03T09:40:09Z"}
