{"icao":"LPPT","metar":"LPPT 230430Z 32011KT CAVOK 20/11 Q1020","updated":"2026-05-23T04:39:07Z"}
