{"icao":"LPCS","metar":"LPCS 271900Z 01011KT 9999 FEW018 13/09 Q1024","updated":"2025-11-27T19:14:46Z"}
