{"icao":"LPFR","metar":"LPFR 080100Z 29002KT CAVOK 19/15 Q1021","updated":"2025-10-08T01:17:39Z"}
