{"icao":"LPAZ","metar":"LPAZ 100300Z 13002KT 9999 FEW020 14/12 Q1023","updated":"2025-11-10T03:17:47Z"}
