{"icao":"LPPR","metar":"LPPR 232000Z 36005KT CAVOK 16/10 Q1019","updated":"2025-09-23T20:18:55Z"}
