{"icao":"LPBJ","metar":"LPBJ 231300Z VRB04KT CAVOK 32/08 Q1020","updated":"2026-05-23T13:22:01Z"}
