{"icao":"LPFR","metar":"LPFR 172300Z 04006KT CAVOK 21/16 Q1015","updated":"2025-10-17T23:15:17Z"}
