{"icao":"LPFR","metar":"LPFR 190900Z 33009KT CAVOK 09/03 Q1019","updated":"2026-01-19T09:32:52Z"}
