{"icao":"LPFL","metar":"LPFL 221100Z 33014G24KT 290V360 9999 SCT020 13/05 Q1019","updated":"2026-01-22T11:22:07Z"}
