{"icao":"LPFL","metar":"LPFL 251300Z 01011KT 350V050 9999 BKN030 16/08 Q1026","updated":"2025-12-25T13:31:03Z"}
