{"icao":"LPMR","metar":"LPMR 081300Z 13007KT 070V170 9999 BKN025 18/05 Q1018","updated":"2026-04-08T13:17:53Z"}
