{"icao":"LPPD","metar":"LPPD 031630Z 04014KT 010V080 9999 FEW025 17/09 Q1022","updated":"2026-05-03T16:49:16Z"}
