{"icao":"KJFK","metar":"KJFK 030451Z 09009KT 4SM -DZ BR BKN007 OVC016 05/04 A3044 RMK AO2 VIS 2 1/2 W SLP307 P0000 T00500044 401110050","updated":"2026-04-03T05:03:45Z"}
