{"icao":"LPBJ","metar":"LPBJ 120700Z 14010KT 9999 FEW023 15/14 Q1008","updated":"2025-11-12T07:18:18Z"}
