{"icao":"LPAZ","metar":"LPAZ 200130Z 04015G26KT 9999 FEW012 SCT020 13/11 Q0999","updated":"2026-03-20T02:00:54Z"}
