{"icao":"LPFL","metar":"LPFL 271930Z 02006KT 350V060 9999 FEW023 BKN038 18/13 Q1028","updated":"2026-06-27T21:01:43Z"}
