{"icao":"LPPT","metar":"LPPT 101630Z 33014KT 290V350 CAVOK 26/10 Q1016","updated":"2026-06-10T16:56:20Z"}
