{"icao":"LPAZ","metar":"LPAZ 261230Z 27032G43KT 8000 FEW017 SCT030 17/13 Q1007","updated":"2026-01-26T12:45:49Z"}
