{"icao":"LPPS","metar":"LPPS 221100Z 07020KT 040V100 9999 VCSH SCT013 FEW018CB 15/13 Q1003","updated":"2026-03-22T11:22:26Z"}
