{"icao":"LPBJ","metar":"LPBJ 271400Z 27020G31KT 9999 VCSH FEW016 SCT025 FEW027CB 13/07 Q1004 WS ALL RWY","updated":"2026-01-27T14:28:21Z"}
