{"icao":"LPBJ","metar":"LPBJ 191500Z 21010KT 6000 -RA FEW008 BKN028 FEW030CB 14/13 Q1007","updated":"2026-03-19T15:53:28Z"}
