{"icao":"LPBJ","metar":"LPBJ 260200Z VRB01KT CAVOK 14/14 Q1015","updated":"2026-04-26T02:37:40Z"}
