{"icao":"LPLA","metar":"LPLA 080500Z 23027G44KT 8000 -RA SCT006 BKN013 BKN020 20/17 Q0993 RERA","updated":"2025-12-08T05:21:09Z"}
