{"icao":"LPLA","metar":"LPLA 031700Z 05005KT 320V100 9999 FEW018 SCT030 19/13 Q1025","updated":"2026-03-03T17:41:46Z"}
