{"icao":"KORD","metar":"KORD 041051Z 36008KT 10SM OVC034 M04/M12 A3014 RMK AO2 SLP215 T10441122 $","updated":"2026-01-04T11:16:09Z"}
