{"icao":"LPMR","metar":"LPMR 230100Z 14003KT CAVOK 06/04 Q1028","updated":"2025-11-23T01:43:01Z"}
