{"icao":"LPMR","metar":"LPMR 010800Z 18002KT CAVOK 14/12 Q1021","updated":"2025-10-01T08:23:40Z"}
