{"icao":"LPPD","metar":"LPPD 031530Z 03014KT 010V070 9999 FEW025 17/08 Q1022","updated":"2026-05-03T15:45:28Z"}
