{"icao":"LPFR","metar":"LPFR 300500Z 05010KT CAVOK 12/M02 Q1027","updated":"2026-03-30T05:22:48Z"}
