{"icao":"LPCS","metar":"LPCS 151500Z 21016KT 5000 -RADZ BKN003 13/13 Q1015","updated":"2026-01-15T15:24:10Z"}
