{"icao":"LPFR","metar":"LPFR 101500Z 12006KT 9999 FEW025 24/16 Q1018","updated":"2025-10-10T15:17:41Z"}
