{"icao":"LPPR","metar":"LPPR 280300Z 06014KT 4500 RA BR BKN012 FEW020CB OVC024 18/17 Q1003","updated":"2025-09-28T03:06:41Z"}
