{"icao":"LPOV","metar":"LPOV 271300Z 19013KT 130V190 9999 -RA FEW045 19/14 Q1013","updated":"2025-09-27T13:19:52Z"}
