{"icao":"LPCS","metar":"LPCS 231100Z 28008KT 240V300 9999 FEW010 FEW025TCU BKN035 10/10 Q1004","updated":"2026-01-23T11:19:35Z"}
