{"icao":"LPPS","metar":"LPPS 141600Z 04009KT 340V080 9999 FEW015 17/08 Q1031","updated":"2026-02-14T16:28:16Z"}
