{"icao":"LPCS","metar":"LPCS 201600Z 22006KT 190V250 CAVOK 29/12 Q1020","updated":"2026-05-20T16:23:57Z"}
