{"icao":"LPPR","metar":"LPPR 061400Z VRB04KT CAVOK 29/12 Q1019","updated":"2025-10-06T14:17:28Z"}
