{"icao":"LPOV","metar":"LPOV 251000Z 26008KT 9999 -SHRA SCT022 SCT040 13/11 Q1013","updated":"2026-01-25T10:20:38Z"}
