{"icao":"LPPS","metar":"LPPS 171000Z 09011KT 060V120 9999 FEW014 23/18 Q1021","updated":"2025-09-17T10:18:27Z"}
