{"icao":"KORD","metar":"KORD 252304Z 32010KT 9SM OVC033 M12/M17 A3010 RMK AO2 SNE04 P0000 T11171167 $","updated":"2026-01-25T23:18:59Z"}
