{"icao":"LPBJ","metar":"LPBJ 252300Z 32003KT CAVOK 07/06 Q1013","updated":"2025-12-25T23:18:32Z"}
