{"icao":"LPAZ","metar":"LPAZ 170100Z 12004KT 100V160 9999 FEW025 SCT030 14/11 Q1026","updated":"2025-11-17T01:24:57Z"}
