{"icao":"LPLA","metar":"LPLA 161300Z 23012KT 210V270 9999 SCT017 SCT040 19/13 Q1019","updated":"2026-04-16T13:27:41Z"}
