{"icao":"LPPR","metar":"LPPR 240900Z 09004KT 040V120 9999 FEW024 BKN030 16/14 Q1017","updated":"2025-10-24T09:19:39Z"}
