{"icao":"KJFK","metar":"KJFK 300851Z 31015G24KT 10SM FEW042 FEW250 M11/M20 A3015 RMK PK WND 30027/0839 SLP210 T11111200 50001 $ ","updated":"2026-01-30T09:37:01Z"}
