{"icao":"LPPT","metar":"LPPT 302300Z 29009G21KT 260V320 9999 FEW032 13/08 Q1016 WS R20","updated":"2026-01-30T23:23:57Z"}
