{"icao":"LPMT","metar":"LPMT 190300Z 30005KT 270V330 9999 FEW032 11/08 Q1024","updated":"2026-02-19T05:57:35Z"}
