{"icao":"LPMA","metar":"LPMA 132330Z 01010KT 310V050 9999 SCT016 15/07 Q1026","updated":"2026-04-13T23:40:55Z"}
