{"icao":"LPFR","metar":"LPFR 232300Z 01005KT CAVOK 17/12 Q1015","updated":"2026-03-23T23:31:02Z"}
