{"icao":"LPPT","metar":"LPPT 090700Z 34009KT 300V020 9999 BKN009 17/15 Q1020","updated":"2025-10-09T07:17:07Z"}
