{"icao":"LPPT","metar":"LPPT 100400Z 31006KT 270V010 9999 -SHRA FEW020 FEW024TCU SCT030 09/07 Q1021","updated":"2026-03-10T04:08:58Z"}
