{"icao":"LPPR","metar":"LPPR 210600Z 36006KT CAVOK 10/09 Q1021","updated":"2025-09-21T06:24:26Z"}
