{"icao":"LPST","metar":"LPST 241600Z 26008KT 220V290 CAVOK 25/06 Q1016","updated":"2025-09-25T02:59:53Z"}
