{"icao":"KLAX","metar":"KLAX 011253Z 09008KT 4SM -RA BR FEW002 BKN004 OVC007 14/14 A2998 RMK AO2 SLP151 P0008 T01440139 $","updated":"2026-01-01T13:32:37Z"}
