{"icao":"LPPR","metar":"LPPR 061630Z 22012KT 180V260 9999 FEW020CB SCT040 12/07 Q1002","updated":"2026-02-06T16:41:57Z"}
