{"icao":"LPMR","metar":"LPMR 131500Z 33009KT 300V360 9999 FEW035 25/12 Q1015","updated":"2025-10-13T15:18:20Z"}
