{"icao":"LPAZ","metar":"LPAZ 261500Z 36009KT 330V030 9999 SCT010 BKN014 17/14 Q1022","updated":"2025-12-26T15:19:32Z"}
