{"icao":"LPPD","metar":"LPPD 241700Z 03006KT 360V070 9999 FEW016 BKN035 15/10 Q1022","updated":"2025-12-24T17:16:14Z"}
