{"icao":"KORD","metar":"KORD 302051Z 32010KT 10SM BKN028 BKN032 M01/M06 A3027 RMK AO2 SLP259 T10061061 53043 $","updated":"2025-11-30T21:16:14Z"}
