{"icao":"LPCS","metar":"LPCS 251230Z 02010KT 9999 FEW010 22/14 Q1016","updated":"2026-04-25T13:01:28Z"}
