{"icao":"LPMA","metar":"LPMA 010130Z 21031G41KT 9999 BKN013 19/16 Q1006","updated":"2026-01-01T01:49:06Z"}
