{"icao":"LPPS","metar":"LPPS 122200Z 05012KT 020V080 9999 FEW015 BKN030 15/07 Q1028","updated":"2026-04-12T22:32:55Z"}
