{"icao":"LPPR","metar":"LPPR 301800Z 18015KT 9999 BKN040 18/13 Q1010","updated":"2025-10-30T18:26:35Z"}
