{"icao":"LPPS","metar":"LPPS 240630Z 04009KT 360V080 9999 FEW014 BKN030 17/14 Q1021","updated":"2026-05-24T06:58:09Z"}
