{"icao":"KORD","metar":"KORD 280551Z 09006KT 10SM CLR 09/03 A3014 RMK AO2 SLP209 T00890028 10122 20089 401390072 50000","updated":"2025-10-28T06:28:29Z"}
