{"icao":"LPLA","metar":"LPLA 281300Z 07007KT 040V110 9999 SCT018 OVC025 15/10 Q1034","updated":"2026-03-28T13:50:34Z"}
