{"icao":"LPMT","metar":"LPMT 190100Z 16004KT CAVOK 19/18 Q1016","updated":"2025-10-19T01:28:43Z"}
