{"icao":"LPCS","metar":"LPCS 151800Z 36020G31KT 9999 FEW008 20/17 Q1020 WS R35","updated":"2025-09-15T18:24:54Z"}
