{"icao":"LPPS","metar":"LPPS 290300Z 30016KT 9999 SCT013 FEW018TCU 22/18 Q1011","updated":"2025-10-29T03:14:28Z"}
