{"icao":"LPPS","metar":"LPPS 130730Z 35005KT 330V050 9999 FEW015 17/13 Q1022","updated":"2026-05-13T07:48:06Z"}
