{"icao":"LPMR","metar":"LPMR 211100Z 18012KT 9999 FEW030 23/13 Q1004","updated":"2026-04-21T11:04:59Z"}
