{"icao":"KORD","metar":"KORD 211651Z 19010KT 10SM FEW036 BKN250 25/18 A2994 RMK AO2 SLP134 T02500178 $","updated":"2025-09-21T17:13:53Z"}
