{"icao":"LPCS","metar":"LPCS 031700Z 07006KT 040V110 9999 VCSH FEW012 SCT018 FEW024CB 15/15 Q0997","updated":"2026-01-03T17:16:17Z"}
