{"icao":"LPLA","metar":"LPLA 260600Z VRB02KT 5000 BR BKN002 BKN0005 14/14 Q1025","updated":"2025-12-26T06:31:01Z"}
