{"icao":"LPMA","metar":"LPMA 270800Z 33008KT 290V010 9999 -SHRA SCT015 14/10 Q1015","updated":"2025-12-27T08:25:30Z"}
