{"icao":"LPMR","metar":"LPMR 312300Z 14005KT CAVOK 09/06 Q1017","updated":"2025-12-31T23:18:46Z"}
