{"icao":"LPAZ","metar":"LPAZ 240900Z 16005KT 120V190 9999 FEW014 18/17 Q1025","updated":"2026-05-24T09:23:11Z"}
