{"icao":"LPFR","metar":"LPFR 030530Z 34003KT 300V040 9999 FEW025 14/13 Q1015","updated":"2026-05-03T05:57:40Z"}
