{"icao":"LPMR","metar":"LPMR 270400Z 14005KT CAVOK 04/M01 Q1012","updated":"2025-12-27T04:31:21Z"}
