{"icao":"LPPT","metar":"LPPT 210900Z 24012KT 210V280 9999 SCT008 BKN025 21/20 Q1015","updated":"2025-10-21T09:19:35Z"}
