{"icao":"LPBJ","metar":"LPBJ 051837Z 26014KT 6000 -SHRA SCT020CB BKN025 13/12 Q1002 RESHRA","updated":"2026-02-05T18:45:15Z"}
