{"icao":"KLAX","metar":"KLAX 300053Z 26010KT 10SM CLR 23/13 A2992 RMK AO2 SLP130 T02280128 $","updated":"2025-10-30T01:25:07Z"}
