{"icao":"LPPD","metar":"LPPD 191030Z 17010KT 9999 FEW008 15/14 Q1024","updated":"2026-02-19T10:41:20Z"}
