{"icao":"LPBJ","metar":"LPBJ 170500Z 29006KT 0600 FG NSC 05/05 Q1014","updated":"2026-01-17T05:19:43Z"}
