{"icao":"LPFL","metar":"LPFL 011730Z 09005KT 040V150 9999 FEW016 17/12 Q1018","updated":"2026-05-01T18:03:17Z"}
