{"icao":"LPLA","metar":"LPLA 111000Z 36009KT 320V070 9999 BKN020 SCT035 15/11 Q1022","updated":"2026-05-11T10:37:12Z"}
