{"icao":"LPMT","metar":"LPMT 210900Z 03008KT CAVOK 10/08 Q1030","updated":"2026-02-21T09:28:25Z"}
