{"icao":"LPLA","metar":"LPLA 291000Z 08015KT 4500 -RADZ BR SCT003 BKN006 14/14 Q1012","updated":"2025-12-29T10:21:58Z"}
