{"icao":"LPHR","metar":"LPHR 192000Z 28013KT 6000 FEW003 BKN005 23/22 Q1015","updated":"2025-10-19T20:18:24Z"}
