{"icao":"LPMR","metar":"LPMR 280500Z 28015KT 240V310 5000 -RA OVC003 17/16 Q1007","updated":"2025-09-28T05:16:07Z"}
