{"icao":"LPBJ","metar":"LPBJ 261000Z 05009KT CAVOK 11/05 Q1025","updated":"2025-11-26T10:21:28Z"}
