{"icao":"LPBJ","metar":"LPBJ 031800Z 02008KT CAVOK 24/05 Q1021","updated":"2026-04-03T18:44:42Z"}
