{"icao":"LPBJ","metar":"LPBJ 300735Z 21008KT 1500 BR BKN002 BKN005 10/10 Q1014","updated":"2026-01-30T07:38:53Z"}
