{"icao":"KJFK","metar":"KJFK 070251Z 35008KT 10SM SCT230 07/M04 A3018 RMK AO2 SLP219 T00671039 51012 $","updated":"2025-11-07T03:09:50Z"}
