{"icao":"LPLA","metar":"LPLA 251500Z 23026G39KT 8000 -DZ SCT008 SCT013 BKN022 18/16 Q1010","updated":"2026-01-25T15:19:24Z"}
