{"icao":"LPPD","metar":"LPPD 311300Z 34008KT 310V010 9999 FEW020 19/11 Q1010","updated":"2025-10-31T13:28:28Z"}
