{"icao":"KJFK","metar":"KJFK 252251Z 17019G29KT 10SM FEW060 SCT130 BKN190 BKN250 07/M03 A3024 RMK AO2 PK WND 17031/2229 SLP240 T00671028 $","updated":"2026-03-25T23:33:55Z"}
