{"icao":"LPLA","metar":"LPLA 051900Z 24011KT 210V280 9999 -SHRA SCT015 BKN020 19/16 Q1016","updated":"2025-12-05T19:15:23Z"}
