{"icao":"LPLA","metar":"LPLA 160823Z 17012KT 9999 FEW008 SCT017 15/13 Q1025","updated":"2026-02-16T08:45:46Z"}
