{"icao":"KORD","metar":"KORD 060451Z 28004KT 10SM FEW250 06/M03 A3021 RMK AO2 SLP231 T00611033","updated":"2025-11-06T05:18:51Z"}
