{"icao":"LPPR","metar":"LPPR 091130Z 22011KT 2000 -DZ BR OVC002 14/14 Q1009","updated":"2026-02-09T11:42:39Z"}
