{"icao":"LPPT","metar":"LPPT 031000Z 34006KT 300V020 CAVOK 21/14 Q1024","updated":"2025-10-03T10:17:46Z"}
