{"icao":"KJFK","metar":"KJFK 101451Z 11009KT 10SM SCT050 15/04 A3051 RMK AO2 SLP332 T01500039 58004","updated":"2025-10-10T15:18:18Z"}
