{"icao":"LPCS","metar":"LPCS 210900Z 36013G24KT 330V030 9999 SCT022 19/13 Q1021","updated":"2025-09-21T09:15:26Z"}
