{"icao":"KLAX","metar":"KLAX 040653Z VRB04KT 10SM SCT240 SCT290 19/12 A3004 RMK AO2 SLP168 T01890122 $","updated":"2026-04-04T07:01:05Z"}
