{"icao":"LPBJ","metar":"LPBJ 071600Z 30011KT 270V340 CAVOK 31/12 Q1018","updated":"2026-06-07T16:13:33Z"}
