{"icao":"LPAZ","metar":"LPAZ 101600Z 19022KT 9999 SCT016 19/16 Q1019","updated":"2025-12-10T16:26:53Z"}
