{"icao":"KJFK","metar":"KJFK 060851Z 30020G28KT 10SM FEW050 SCT100 10/M01 A2984 RMK AO2 PK WND 32035/0810 SLP105 T01001006 51045","updated":"2025-11-06T09:20:26Z"}
