{"icao":"LPBJ","metar":"LPBJ 220800Z 25005KT 9000 VCFG FEW023 04/03 Q1013","updated":"2025-12-22T08:28:51Z"}
