{"icao":"KLAX","metar":"KLAX 181053Z 27026G38KT 10SM -RA FEW016 SCT025 BKN045 OVC200 12/09 A2987 RMK AO2 PK WND 28046/1008 RAE35B51 SLP112 CB DSNT E-SE P0002 T01220089","updated":"2026-02-18T11:37:48Z"}
