{"icao":"LPPR","metar":"LPPR 042300Z 04006KT 9999 SCT043 10/02 Q1010","updated":"2026-01-04T23:18:42Z"}
