{"icao":"KORD","metar":"KORD 242151Z 04014KT 10SM SCT024 BKN032 BKN250 21/14 A2999 RMK AO2 SLP152 T02110139","updated":"2025-09-24T22:16:05Z"}
