{"icao":"LPAZ","metar":"LPAZ 191730Z 20017KT 6000 BKN002 21/21 Q1011","updated":"2026-06-19T17:59:20Z"}
