{"icao":"LPPD","metar":"LPPD 281500Z 10026G38KT 2500 -RA BR FEW004 SCT008 FEW025TCU BKN040 12/11 Q1010","updated":"2025-12-28T15:18:52Z"}
