{"icao":"LPMR","metar":"LPMR 220100Z 36005KT CAVOK 13/08 Q1022","updated":"2025-09-22T01:23:55Z"}
