{"icao":"LPHR","metar":"LPHR 241500Z 15006KT 9999 FEW030 22/15 Q1022","updated":"2025-09-24T15:18:38Z"}
