{"icao":"KLAX","metar":"KLAX 301501Z 28005KT 8SM FEW007 BKN019 BKN040 19/16 A3001 RMK AO2 T01940156 $","updated":"2025-09-30T15:16:44Z"}
