{"icao":"LPMA","metar":"LPMA 211630Z 05007KT 350V110 9999 FEW015 SCT030 24/19 Q1020","updated":"2026-06-21T16:44:27Z"}
