{"icao":"LPPR","metar":"LPPR 101630Z 33007KT 300V360 CAVOK 19/14 Q1012","updated":"2026-04-10T16:49:38Z"}
