{"icao":"LPPR","metar":"LPPR 291700Z 33010KT CAVOK 23/13 Q1016","updated":"2025-09-29T17:15:59Z"}
