{"icao":"KLAX","metar":"KLAX 242153Z 26013G20KT 10SM FEW013 FEW026 SCT065 21/14 A2999 RMK AO2 SLP152 T02110144 $","updated":"2026-06-24T22:15:22Z"}
