{"icao":"KJFK","metar":"KJFK 191951Z 17016G25KT 10SM FEW030 BKN250 20/16 A2991 RMK AO2 PK WND 18027/1856 SLP128 T02000161 $","updated":"2025-10-19T20:18:37Z"}
