{"icao":"KORD","metar":"KORD 260351Z 32003KT 10SM FEW120 BKN180 OVC250 M01/M13 A2983 RMK AO2 SLP108 T10111128","updated":"2026-02-26T04:23:02Z"}
