{"icao":"LPBJ","metar":"LPBJ 101000Z 27003KT 210V340 CAVOK 19/12 Q1014","updated":"2026-04-10T10:52:48Z"}
