{"icao":"LPMT","metar":"LPMT 111400Z 23017KT 8000 OVC006 15/15 Q1016","updated":"2026-02-11T14:51:57Z"}
