{"icao":"LPST","metar":"LPST 170800Z 34004KT 9999 FEW009 13/12 Q1014","updated":"2025-11-17T08:27:13Z"}
