{"icao":"LPPS","metar":"LPPS 201830Z 30008KT 9999 FEW015 16/10 Q1024","updated":"2026-01-20T18:35:39Z"}
