{"icao":"KJFK","metar":"KJFK 041251Z 30018G25KT 10SM FEW040 11/01 A3007 RMK AO2 PK WND 28030/1155 SLP180 T01060006 $","updated":"2025-11-04T13:32:35Z"}
