{"icao":"LPMA","metar":"LPMA 271100Z 06004KT 010V110 9999 FEW015 25/18 Q1022","updated":"2025-09-27T11:12:40Z"}
