{"icao":"LPPR","metar":"LPPR 301930Z 34013KT CAVOK 21/16 Q1020","updated":"2026-06-30T19:54:01Z"}
