{"icao":"LPGR","metar":"LPGR 300900Z 10005KT 070V130 9999 FEW016 21/17 Q1031","updated":"2026-06-30T09:32:13Z"}
