{"icao":"KLAX","metar":"KLAX 150453Z 09008KT 10SM BKN050 15/12 A2997 RMK AO2 SLP148 T01500122 $","updated":"2025-10-15T05:17:34Z"}
