{"icao":"KORD","metar":"KORD 241651Z 19012G27KT 10SM SCT210 OVC250 M01/M12 A2973 RMK AO2 PK WND 19032/1605 SLP078 T10111117","updated":"2026-02-24T17:08:36Z"}
