{"icao":"LPFR","metar":"LPFR 122300Z 34017KT CAVOK 13/03 Q1020","updated":"2026-04-12T23:33:26Z"}
