{"icao":"LPMA","metar":"LPMA 221930Z 35005KT 240V030 9999 FEW015 17/10 Q1011","updated":"2026-04-22T20:04:02Z"}
