{"icao":"KORD","metar":"KORD 090851Z 00000KT 10SM FEW040 08/06 A3044 RMK AO2 SLP311 T00780056 53007 $","updated":"2025-10-09T09:18:49Z"}
