{"icao":"LPPD","metar":"LPPD 101700Z 20025G36KT 2500 -RA BR SCT016 BKN030 18/16 Q1017","updated":"2025-12-10T17:21:01Z"}
