{"icao":"LPMT","metar":"LPMT 070900Z 22008KT 190V250 9999 VCSH FEW018 BKN032 19/16 Q1016","updated":"2025-11-07T09:19:05Z"}
