{"icao":"KJFK","metar":"KJFK 100951Z 01009KT 1/4SM R04R/P6000FT BR OVC003 11/11 A2989 RMK AO2 SFC VIS 6 SLP121 T01060106 $","updated":"2026-05-10T10:13:39Z"}
