{"icao":"LPLA","metar":"LPLA 112100Z 24003KT 190V290 9999 FEW025 14/08 Q1014","updated":"2026-01-11T21:17:50Z"}
