{"icao":"LPST","metar":"LPST 191000Z 36004KT 300V040 9999 SCT025 12/07 Q1028","updated":"2026-02-19T10:41:19Z"}
