{"icao":"LPFL","metar":"LPFL 291100Z 18011KT 140V280 9999 FEW010 BKN015 19/15 Q1014","updated":"2025-10-29T11:16:22Z"}
