{"icao":"LPPR","metar":"LPPR 221600Z 34007KT 290V010 CAVOK 15/10 Q1027","updated":"2026-02-22T16:28:04Z"}
