{"icao":"LPMA","metar":"LPMA 021300Z 03011KT 350V070 9999 BKN014 SCT030 23/19 Q1022","updated":"2025-10-02T13:25:29Z"}
