{"icao":"LPMR","metar":"LPMR 181600Z 31008KT 280V340 CAVOK 21/12 Q1016","updated":"2026-04-18T16:38:51Z"}
