{"icao":"LPAR","metar":"LPAR 031500Z 34009KT CAVOK 27/12 Q1021","updated":"2025-10-03T15:17:04Z"}
