{"icao":"KORD","metar":"KORD 160451Z 21011KT 10SM BKN060 BKN075 OVC100 M04/M13 A2971 RMK AO2 SLP072 T10441128 $","updated":"2026-01-16T05:24:35Z"}
