{"icao":"KORD","metar":"KORD 230451Z 00000KT 10SM FEW250 11/02 A2995 RMK AO2 SLP141 T01110022","updated":"2026-04-23T05:29:05Z"}
