{"icao":"LPPS","metar":"LPPS 231800Z 02010KT 350V050 9999 SCT015 21/11 Q1020","updated":"2025-09-23T18:26:35Z"}
