{"icao":"LPCS","metar":"LPCS 151900Z 36022KT 9999 FEW012 19/16 Q1020 WS R35","updated":"2025-09-15T19:13:37Z"}
