{"icao":"LPPR","metar":"LPPR 021330Z 27008KT 180V350 9999 SCT025 SCT032 15/08 Q1015","updated":"2025-12-02T13:35:39Z"}
