{"icao":"LPLA","metar":"LPLA 041200Z 29019KT 9999 FEW022TCU SCT040 17/11 Q1005","updated":"2025-11-04T12:41:07Z"}
