{"icao":"LPMA","metar":"LPMA 051100Z 02013KT 350V070 9999 SCT015 16/09 Q1020","updated":"2026-01-05T11:18:34Z"}
