{"icao":"LPMA","metar":"LPMA 021530Z VRB12KT 9000 -DZ SCT015 FEW016CB 14/06 Q1017","updated":"2026-03-02T15:40:46Z"}
