{"icao":"LPBJ","metar":"LPBJ 220700Z 16006KT 8000 -RA BKN035 12/12 Q1010","updated":"2026-03-22T07:37:15Z"}
