{"icao":"KJFK","metar":"KJFK 051151Z 18006KT 10SM FEW065 SCT130 SCT250 15/11 A2987 RMK SLP116 CB DSNT N MOV NE T01500111 10150 20111 51009 ","updated":"2026-05-05T12:00:21Z"}
