{"icao":"LPPR","metar":"LPPR 282200Z VRB01KT CAVOK 08/06 Q1025","updated":"2026-02-28T22:20:50Z"}
