{"icao":"LPMR","metar":"LPMR 270300Z 14002KT 4000 BR NSC 05/04 Q1025","updated":"2025-11-27T03:10:02Z"}
