{"icao":"LPMT","metar":"LPMT 301100Z 22007KT 190V260 9999 FEW030 SCT045 21/13 Q1014","updated":"2025-10-30T11:15:29Z"}
