{"icao":"LPPS","metar":"LPPS 052330Z 04015KT 010V070 9999 SCT015 BKN030 14/06 Q1029","updated":"2026-03-05T23:50:10Z"}
