{"icao":"LPFL","metar":"LPFL 191030Z 33019KT 3500 RA BR SCT008 BKN015 13/12 Q1016","updated":"2026-04-19T10:37:36Z"}
