{"icao":"KORD","metar":"KORD 070851Z 25004KT 10SM SCT250 03/M03 A2997 RMK AO2 SLP152 T00331033 56004","updated":"2026-05-07T09:30:36Z"}
