{"icao":"LPAZ","metar":"LPAZ 231730Z 20008KT 0350 R18/0375N FG VV001 18/18 Q1025","updated":"2026-05-23T17:59:27Z"}
