{"icao":"LPPD","metar":"LPPD 260600Z 04017G29KT 020V080 9999 FEW018 SCT030 18/11 Q1019","updated":"2025-10-26T06:25:05Z"}
