{"icao":"KORD","metar":"KORD 301451Z 24008G20KT 10SM FEW022 FEW300 30/24 A2992 RMK AO2 SLP127 T03000239 58002","updated":"2026-06-30T15:25:19Z"}
