{"icao":"LPCS","metar":"LPCS 101100Z 05007KT CAVOK 25/11 Q1021","updated":"2025-10-10T11:15:17Z"}
