{"icao":"LPOV","metar":"LPOV 201400Z 21008KT 180V250 9999 FEW020 BKN030 20/17 Q1013","updated":"2025-10-20T14:17:40Z"}
