{"icao":"LPBJ","metar":"LPBJ 050900Z 33011KT CAVOK 18/08 Q1017","updated":"2026-06-05T09:44:21Z"}
