{"icao":"LPPS","metar":"LPPS 031900Z 07009KT 030V110 9999 SCT015 22/18 Q1024","updated":"2025-10-03T19:13:57Z"}
