{"icao":"LPAZ","metar":"LPAZ 072100Z 23015KT 8000 -RA FEW004 SCT049 17/16 Q1017","updated":"2026-02-07T21:25:40Z"}
