{"icao":"LPPS","metar":"LPPS 041230Z 01012KT 9999 FEW014 19/14 Q1020","updated":"2026-04-04T12:53:47Z"}
