{"icao":"LPFR","metar":"LPFR 161600Z 10011KT CAVOK 21/06 Q1017","updated":"2026-03-16T16:11:02Z"}
