{"icao":"LPAZ","metar":"LPAZ 261900Z 23005KT 6000 -DZ SCT002 BKN006 16/15 Q1024 REDZ","updated":"2025-11-26T19:14:30Z"}
