{"icao":"LPHR","metar":"LPHR 121130Z 27022KT 8000 VCSH SCT014 BKN030 15/11 Q1016","updated":"2026-02-12T11:38:33Z"}
