{"icao":"LPLA","metar":"LPLA 110500Z 29017G32KT 7000 -SHRA FEW024 SCT030 16/12 Q1004 WS ALL RWY","updated":"2025-11-11T05:19:06Z"}
