{"icao":"LPPR","metar":"LPPR 011200Z 32009KT CAVOK 29/17 Q1020","updated":"2026-07-01T12:05:36Z"}
