{"icao":"LPPT","metar":"LPPT 091500Z 33008KT 290V350 CAVOK 23/15 Q1019","updated":"2025-10-09T15:29:13Z"}
