{"icao":"LPPT","metar":"LPPT 191930Z 32012KT CAVOK 23/12 Q1014","updated":"2026-06-19T19:48:43Z"}
