{"icao":"LPPS","metar":"LPPS 220900Z 07018KT 9999 SCT013 FEW018CB 15/13 Q1001","updated":"2026-03-22T09:31:22Z"}
