{"icao":"LPAR","metar":"LPAR 081500Z 12010KT 070V140 9999 SCT025 17/07 Q1017","updated":"2026-04-08T15:08:20Z"}
