{"icao":"KORD","metar":"KORD 091851Z 26013G23KT 10SM BKN110 BKN130 22/00 A2963 RMK AO2 SLP032 T02220000","updated":"2026-05-09T18:59:31Z"}
