{"icao":"LPMA","metar":"LPMA 141000Z 02019KT 9999 SCT015 24/18 Q1024","updated":"2025-09-14T10:15:08Z"}
