{"icao":"LPPT","metar":"LPPT 211230Z 01019KT CAVOK 14/02 Q1027","updated":"2025-11-21T12:37:04Z"}
