{"icao":"KJFK","metar":"KJFK 252151Z 10013G22KT 5SM -RA BR SCT008 BKN014 OVC048 06/04 A3003 RMK SLP169 P0007 T00560039 ","updated":"2026-04-25T22:36:02Z"}
