{"icao":"LPHR","metar":"LPHR 201930Z 03013G23KT 310V110 9999 SCT012 BKN025 15/10 Q1013","updated":"2026-03-20T19:36:12Z"}
