{"icao":"LPAZ","metar":"LPAZ 030900Z 16006KT 9999 FEW006 SCT013 22/21 Q1023","updated":"2025-10-03T09:17:35Z"}
