{"icao":"LPLA","metar":"LPLA 252100Z 21003KT 150V280 9999 FEW015 BKN023 16/12 Q1028","updated":"2026-02-25T21:33:51Z"}
