{"icao":"LPPD","metar":"LPPD 211400Z 34008KT 310V020 9999 FEW020 BKN030 15/10 Q1026","updated":"2025-12-21T14:17:13Z"}
