{"icao":"LPPD","metar":"LPPD 201400Z 23012KT 9000 FEW005 SCT010 BKN025 24/22 Q1016","updated":"2025-10-20T14:17:42Z"}
