{"icao":"LPAZ","metar":"LPAZ 242030Z 17014KT 9000 BKN004 17/16 Q1015","updated":"2026-04-24T20:45:45Z"}
