{"icao":"KJFK","metar":"KJFK 062151Z 19004KT 10SM FEW043 SCT070 BKN085 BKN250 M02/M07 A2963 RMK AO2 SLP034 T10171072 $","updated":"2026-02-06T22:22:25Z"}
