{"icao":"KJFK","metar":"KJFK 061451Z 04012KT 10SM OVC012 04/02 A3035 RMK AO2 SLP277 T00440022 51016","updated":"2026-03-06T15:35:56Z"}
