{"icao":"KJFK","metar":"KJFK 252051Z 12012KT 2 1/2SM -RA BR FEW008 BKN016 OVC065 06/04 A3004 RMK SFC VIS 4 SLP172 P0021 60046 T00560044 58007 ","updated":"2026-04-25T21:35:25Z"}
