{"icao":"KORD","metar":"KORD 251210Z 00000KT 1 1/2SM -DZ BR OVC004 08/08 A2977 RMK AO2 RAE1155DZB1155 P0000 T00830078","updated":"2025-11-25T12:40:01Z"}
