{"icao":"KJFK","metar":"KJFK 091051Z 18010KT 10SM BKN080 OVC100 13/08 A2991 RMK AO2 SLP129 T01280078 $","updated":"2026-05-09T11:50:46Z"}
