{"icao":"LPPS","metar":"LPPS 121600Z 26011KT 9999 FEW015 19/13 Q1016","updated":"2026-01-12T16:25:43Z"}
