{"icao":"LPPT","metar":"LPPT 020800Z 16015KT 130V190 9999 -RA FEW002 BKN010 FEW020CB 15/14 Q1002 RERA","updated":"2026-01-02T08:28:01Z"}
