{"icao":"LPMR","metar":"LPMR 051400Z 26014KT 8000 -TSRA SCT022 SCT024CB BKN032 15/12 Q1007 RETSRAGS","updated":"2025-11-05T14:19:02Z"}
