{"icao":"KORD","metar":"KORD 281251Z 36008KT 10SM BKN110 BKN200 OVC250 01/M11 A3005 RMK AO2 SLP180 VIRGA W-N T00061106 $","updated":"2026-02-28T13:35:25Z"}
