{"icao":"LPBJ","metar":"LPBJ 290900Z VRB02KT 7000 VCFG FEW009 BKN030 07/07 Q1020","updated":"2025-11-29T09:18:16Z"}
