{"icao":"KJFK","metar":"KJFK 311551Z 27013KT 10SM FEW050 BKN250 M01/M11 A2986 RMK AO2 SLP109 T10061111 $","updated":"2025-12-31T16:25:02Z"}
