{"icao":"KJFK","metar":"KJFK 141651Z 35017G24KT 2SM -SN BR BKN014 BKN021 OVC046 M02/M03 A2994 RMK AO2 PK WND 35026/1555 SFC VIS 4 VIS 1 3/4 W SLP139 P0000 T10221033 $","updated":"2025-12-14T17:16:03Z"}
