{"icao":"LPLA","metar":"LPLA 281400Z 09009KT 050V140 9999 SCT035 21/12 Q1029","updated":"2026-06-28T14:46:57Z"}
