{"icao":"LPPS","metar":"LPPS 120700Z 18006KT 7000 -DZ SCT004 BKN010 15/14 Q1021","updated":"2026-01-12T07:26:32Z"}
