{"icao":"LPPS","metar":"LPPS 292230Z 24003KT 220V280 9999 SCT015 BKN030 17/12 Q1015","updated":"2026-04-29T22:55:50Z"}
