{"icao":"LPPT","metar":"LPPT 040530Z 28009KT 250V320 7000 RA FEW008 SCT012 BKN016 FEW020TCU 14/14 Q0996 RERA","updated":"2026-02-04T05:47:26Z"}
