{"icao":"LPPD","metar":"LPPD 010430Z 21023G33KT 6000 -RA SCT004 BKN006 16/16 Q1009","updated":"2026-02-01T04:59:44Z"}
