{"icao":"LPAR","metar":"LPAR 151500Z VRB02KT 7000 FEW008 SCT025 12/11 Q1008","updated":"2025-12-15T15:23:27Z"}
