{"icao":"LPOV","metar":"LPOV 091100Z 32005KT 270V010 8000 3000N FEW001 17/14 Q1021","updated":"2025-10-09T12:37:18Z"}
