{"icao":"KORD","metar":"KORD 080851Z 24014G21KT 10SM BKN012 01/M02 A2992 RMK AO2 SLP134 T00111022 58010","updated":"2026-03-08T09:28:01Z"}
