{"icao":"LPHR","metar":"LPHR 130730Z 31005KT 280V350 9999 FEW009 15/11 Q1030","updated":"2026-03-13T07:43:28Z"}
