{"icao":"LPFL","metar":"LPFL 131800Z 14003KT 050V200 9999 FEW019 18/13 Q1031","updated":"2026-03-14T04:12:17Z"}
