{"icao":"LPMT","metar":"LPMT 160200Z VRB02KT CAVOK 09/08 Q1020","updated":"2026-03-16T02:22:23Z"}
