{"icao":"LPMA","metar":"LPMA 021100Z VRB05KT 9999 FEW015 FEW018CB 18/07 Q1015","updated":"2026-02-02T11:34:19Z"}
