{"icao":"LPCS","metar":"LPCS 261400Z 21006KT 170V240 9999 FEW017 21/15 Q1018","updated":"2025-10-26T14:14:55Z"}
