{"icao":"LPPS","metar":"LPPS 261730Z 02021KT 9999 SCT015 16/11 Q1023","updated":"2026-02-26T17:56:32Z"}
