{"icao":"LPOV","metar":"LPOV 152100Z 35007KT CAVOK 12/12 Q1021","updated":"2026-03-15T21:26:25Z"}
