{"icao":"KORD","metar":"KORD 111951Z 32016G24KT 10SM SCT017 BKN024 OVC041 02/M02 A2987 RMK AO2 PRESRR SLP120 T00171017","updated":"2026-03-11T20:32:52Z"}
