{"icao":"LPHR","metar":"LPHR 100830Z 06004KT 030V120 9999 BKN022 14/10 Q1034","updated":"2026-03-10T08:40:16Z"}
