{"icao":"LPAZ","metar":"LPAZ 021130Z 08009KT 9999 FEW022 17/12 Q1019","updated":"2026-05-02T11:43:20Z"}
