{"icao":"KORD","metar":"KORD 012251Z 25003KT 10SM FEW044 SCT050 OVC065 09/01 A3009 RMK AO2 SLP193 T00890006 $","updated":"2025-11-01T23:15:56Z"}
