{"icao":"KLAX","metar":"KLAX 100853Z 00000KT 10SM FEW080 SCT200 18/16 A2989 RMK AO2 SLP118 T01830156 58010 $","updated":"2025-10-10T09:19:19Z"}
