{"icao":"LPMA","metar":"LPMA 202300Z 03015KT 9999 VCSH BKN015 FEW016TCU 18/14 Q1023","updated":"2025-11-20T23:17:31Z"}
