{"icao":"KORD","metar":"KORD 190100Z 28015G24KT 10SM BKN022 BKN170 OVC250 00/M04 A2944 RMK AO2 T00001039","updated":"2025-12-19T01:28:37Z"}
