{"icao":"KJFK","metar":"KJFK 260851Z 05010KT 10SM -RA FEW010 OVC036 06/04 A3005 RMK SLP174 P0000 60002 T00560039 55003 $ ","updated":"2026-04-26T08:59:13Z"}
