{"icao":"LPPR","metar":"LPPR 031100Z 11008KT 050V130 9999 FEW048 16/09 Q1001","updated":"2026-01-03T11:15:58Z"}
