{"icao":"LPMT","metar":"LPMT 041400Z 33010KT 300V360 9999 FEW040 23/11 Q1018","updated":"2026-06-04T14:56:43Z"}
