{"icao":"LPAZ","metar":"LPAZ 182200Z 13010KT 9999 FEW008 16/15 Q1016","updated":"2026-04-18T22:33:32Z"}
