{"icao":"LPCS","metar":"LPCS 071100Z 24019G32KT 9000 FEW009 SCT017 BKN021 15/15 Q1002","updated":"2026-02-07T11:20:27Z"}
