{"icao":"KORD","metar":"KORD 300251Z 34009KT 10SM FEW027 SCT035 BKN048 09/06 A3000 RMK AO2 SLP161 T00940061 57003","updated":"2025-10-30T03:10:27Z"}
