{"icao":"LPMA","metar":"LPMA 061600Z 05007KT 010V080 9999 SCT013 SCT030 24/18 Q1021","updated":"2025-10-06T16:21:27Z"}
