{"icao":"LPFR","metar":"LPFR 230900Z 36003KT 290V050 CAVOK 12/02 Q1027","updated":"2025-11-23T09:17:30Z"}
