{"icao":"LPFR","metar":"LPFR 260800Z 29005KT CAVOK 07/05 Q1014","updated":"2025-12-26T08:26:32Z"}
