{"icao":"LPFL","metar":"LPFL 231430Z 22015G32KT 160V280 9999 FEW023 18/10 Q1001 WS ALL RWY","updated":"2026-02-23T14:43:50Z"}
