{"icao":"KJFK","metar":"KJFK 182251Z 04008KT 1 1/4SM -RA BR OVC005 02/02 A2977 RMK AO2 SFC VIS 4 RAB13 SLP082 P0000 T00220022 $","updated":"2026-02-18T23:28:42Z"}
