{"icao":"KORD","metar":"KORD 081451Z 14011KT 10SM FEW012 FEW060 FEW100 M05/M09 A3034 RMK AO2 SLP284 T10501089 51007 $","updated":"2026-02-08T15:25:15Z"}
