{"icao":"KORD","metar":"KORD 111951Z 27012KT 10SM BKN028 01/M07 A3034 RMK AO2 SLP284 T00061067 $","updated":"2026-01-11T20:22:00Z"}
