{"icao":"KLAX","metar":"KLAX 150726Z 21004KT 10SM FEW016 BKN022 BKN250 14/11 A3006 RMK AO2 T01440106 $","updated":"2026-02-15T07:37:03Z"}
