{"icao":"LPPS","metar":"LPPS 261130Z 01014KT 9999 SCT015 19/12 Q1019","updated":"2026-04-26T11:37:55Z"}
