{"icao":"LPCS","metar":"LPCS 221600Z 35025KT CAVOK 20/08 Q1018","updated":"2025-09-22T16:22:29Z"}
