{"icao":"KORD","metar":"KORD 292051Z 30017G28KT 10SM -SN BKN028 M05/M12 A3006 RMK AO2 PK WND 29029/2000 SLP191 P0000 60000 T10501117 53032","updated":"2025-12-29T21:18:22Z"}
