{"icao":"LPFL","metar":"LPFL 190600Z 20008KT 140V250 9999 FEW014 BKN020 21/18 Q1006","updated":"2026-06-19T06:17:08Z"}
