{"icao":"KLAX","metar":"KLAX 120753Z 15005KT 10SM SCT025 BKN036 OVC055 17/12 A2997 RMK AO2 RAB42E51 SLP146 P0000 T01670117 402060150 $","updated":"2026-04-12T08:46:40Z"}
