{"icao":"LPBJ","metar":"LPBJ 250500Z 28006KT CAVOK 11/10 Q1016","updated":"2026-04-25T05:10:38Z"}
