{"icao":"LPMR","metar":"LPMR 220800Z 03006KT CAVOK 12/07 Q1022","updated":"2025-09-22T08:24:37Z"}
