{"icao":"KORD","metar":"KORD 281951Z 21011G17KT 10SM FEW170 SCT250 07/M08 A3049 RMK AO2 SLP330 T00721078","updated":"2026-03-28T20:29:36Z"}
