{"icao":"LPMT","metar":"LPMT 122300Z 35008KT CAVOK 24/14 Q1018","updated":"2026-06-12T23:14:53Z"}
