{"icao":"LPFR","metar":"LPFR 302000Z 10003KT 010V110 CAVOK 19/17 Q1016","updated":"2025-10-30T20:19:51Z"}
