{"icao":"LPMA","metar":"LPMA 312000Z 24003KT 210V300 9999 SCT013 18/16 Q1024","updated":"2026-01-31T20:24:06Z"}
