{"icao":"LPAZ","metar":"LPAZ 311500Z 35012KT 9999 FEW022 SCT030 20/13 Q1010","updated":"2025-10-31T15:17:48Z"}
