{"icao":"LPHR","metar":"LPHR 170930Z 32010KT 280V350 9999 SCT016 11/05 Q1018","updated":"2026-03-17T09:54:32Z"}
