{"icao":"LPMA","metar":"LPMA 191300Z 04012KT 9999 SCT015 19/14 Q1018","updated":"2025-11-19T13:31:09Z"}
