{"icao":"LPPS","metar":"LPPS 220600Z 31012KT 9999 SCT008 17/15 Q1018","updated":"2026-01-22T06:34:07Z"}
