{"icao":"LPMR","metar":"LPMR 260800Z 16005KT 5000 BR FEW040 02/01 Q1014","updated":"2025-12-26T08:26:33Z"}
