{"icao":"KORD","metar":"KORD 050751Z 33011G20KT 10SM BKN110 OVC150 14/00 A2962 RMK AO2 SLP026 T01390000","updated":"2026-05-05T08:07:23Z"}
