{"icao":"KJFK","metar":"KJFK 251751Z 04018G28KT 1/4SM R04R/1200V1400FT +SN FZFG VV004 M09/M11 A3025 RMK AO2 PK WND 03028/1747 PRESFR SLP243 SNINCR 1/6 DRSN 4/006 933004 P0012 60043 T10941111 11089 21111 58076 $","updated":"2026-01-25T18:29:07Z"}
