{"icao":"LPAZ","metar":"LPAZ 301900Z 30008KT 280V340 9999 FEW015 BKN019 18/14 Q1027","updated":"2025-11-30T19:14:24Z"}
