{"icao":"LPOV","metar":"LPOV 170600Z 12003KT 100V160 2000 BR OVC002 15/15 Q1018","updated":"2026-06-17T06:09:02Z"}
