{"icao":"KORD","metar":"KORD 030851Z 00000KT 10SM FEW060 SCT110 M08/M11 A3015 RMK AO2 SLP222 T10781106 58005","updated":"2026-02-03T09:39:27Z"}
