{"icao":"KJFK","metar":"KJFK 100451Z 23019G24KT 10SM FEW075 FEW110 BKN250 02/M04 A2994 RMK AO2 PK WND 22026/0410 SLP137 T00171039 400221078","updated":"2025-12-10T05:20:46Z"}
