{"icao":"LPMA","metar":"LPMA 171600Z 04005KT 330V080 9999 SCT013 24/21 Q1011","updated":"2025-10-17T16:21:51Z"}
