{"icao":"KJFK","metar":"KJFK 142251Z 32017G23KT 10SM FEW075 FEW250 09/M09 A3018 RMK AO2 PK WND 31029/2155 SLP218 T00891089","updated":"2026-03-14T23:26:59Z"}
