{"icao":"LPFL","metar":"LPFL 152000Z 19017G27KT 9999 FEW016 17/13 Q1022","updated":"2026-02-15T20:25:06Z"}
