{"icao":"LPHR","metar":"LPHR 161430Z 25010KT 9999 FEW013 18/13 Q1019","updated":"2026-03-16T14:58:16Z"}
