{"icao":"KLAX","metar":"KLAX 032053Z 13012KT 10SM FEW008 SCT021 OVC036 17/13 A2997 RMK AO2 SLP149 60000 T01720128 58029 $","updated":"2026-01-03T21:17:18Z"}
