{"icao":"LPFR","metar":"LPFR 272030Z 32013KT CAVOK 26/15 Q1018","updated":"2026-06-27T21:01:24Z"}
