{"icao":"LPFL","metar":"LPFL 292000Z VRB02KT 9999 FEW011 22/19 Q1020","updated":"2025-09-29T23:15:47Z"}
