{"icao":"LPFR","metar":"LPFR 180700Z 01006KT 260V040 9999 FEW020 07/05 Q1008","updated":"2026-01-18T07:18:57Z"}
