{"icao":"LPCS","metar":"LPCS 162130Z 01015KT CAVOK 14/08 Q1020","updated":"2026-04-16T22:38:19Z"}
