{"icao":"LPPT","metar":"LPPT 100500Z 04006KT CAVOK 16/13 Q1012","updated":"2026-04-10T05:23:48Z"}
