{"icao":"LPLA","metar":"LPLA 122200Z 32029G41KT 9999 SCT025 14/09 Q1003","updated":"2025-11-12T22:17:49Z"}
