{"icao":"KJFK","metar":"KJFK 151451Z 30003KT 10SM FEW060 BKN130 BKN250 07/M03 A2987 RMK AO2 SLP114 T00721028 58013","updated":"2025-11-15T15:17:11Z"}
