{"icao":"KJFK","metar":"KJFK 200651Z 29018G27KT 10SM FEW060 SCT250 M05/M16 A3015 RMK AO2 PK WND 30028/0639 SLP209 T10501156 $","updated":"2026-01-20T07:26:56Z"}
