{"icao":"LPMR","metar":"LPMR 091300Z 33016KT CAVOK 19/12 Q1016","updated":"2026-04-09T13:47:28Z"}
