{"icao":"KJFK","metar":"KJFK 111351Z 33014G22KT 10SM FEW041 FEW250 13/03 A3023 RMK AO2 SLP238 T01330028","updated":"2026-04-11T14:36:14Z"}
