{"icao":"LPLA","metar":"LPLA 061800Z 23008KT 160V250 9999 FEW010 BKN018 24/20 Q1017","updated":"2025-10-06T18:26:05Z"}
