{"icao":"LPFL","metar":"LPFL 301700Z 19007KT 130V220 9999 FEW012 24/18 Q1017","updated":"2025-09-30T17:15:54Z"}
