{"icao":"LPOV","metar":"LPOV 080400Z VRB01KT 9999 MIFG BKN030 13/12 Q1022","updated":"2025-10-08T04:20:25Z"}
