{"icao":"LPPR","metar":"LPPR 251300Z 31007KT 280V350 CAVOK 20/10 Q1020","updated":"2026-03-25T13:07:29Z"}
