{"icao":"KLAX","metar":"KLAX 191453Z 12005KT 6SM -RA BR FEW015 BKN038 OVC050 09/06 A3000 RMK AO2 RAB00 SLP158 P0002 60002 T00890061 58002","updated":"2026-02-19T15:47:23Z"}
