{"icao":"LPHR","metar":"LPHR 031400Z 25025G35KT 8000 SCT006 SCT075 18/17 Q1002","updated":"2026-02-03T14:06:24Z"}
