{"icao":"LPPR","metar":"LPPR 111600Z 20012KT 9999 FEW015 18/14 Q1013","updated":"2026-05-11T16:31:53Z"}
