{"icao":"LPPR","metar":"LPPR 081900Z VRB01KT CAVOK 12/11 Q1023","updated":"2025-11-08T19:13:03Z"}
