{"icao":"LPOV","metar":"LPOV 041000Z 31003KT CAVOK 19/11 Q1023","updated":"2026-04-04T10:31:50Z"}
