{"icao":"LPPT","metar":"LPPT 301430Z 06009KT 010V090 CAVOK 20/01 Q1028","updated":"2026-03-30T15:01:50Z"}
