{"icao":"LPOV","metar":"LPOV 112200Z 36007KT 9999 BKN007 BKN009 13/12 Q1028","updated":"2026-03-11T22:25:11Z"}
