{"icao":"KJFK","metar":"KJFK 120651Z 04004KT 10SM CLR 07/M03 A3044 RMK AO2 SLP308 T00671033","updated":"2026-04-12T07:12:26Z"}
