{"icao":"LPPR","metar":"LPPR 181100Z 21010KT CAVOK 22/14 Q1017","updated":"2025-10-18T11:13:10Z"}
