{"icao":"LPPR","metar":"LPPR 131300Z 28005KT 250V340 CAVOK 24/13 Q1016","updated":"2025-10-13T13:28:42Z"}
