{"icao":"LPAZ","metar":"LPAZ 151600Z 04011KT 360V070 9000 VCSH FEW006 BKN014 17/13 Q1026","updated":"2026-03-15T16:31:39Z"}
