{"icao":"LPPT","metar":"LPPT 090600Z 28008KT 250V340 5000 -RA BR FEW005 BKN008 14/14 Q1027","updated":"2026-01-09T06:32:26Z"}
