{"icao":"LPFR","metar":"LPFR 140900Z 04012KT CAVOK 15/08 Q1017","updated":"2025-12-14T09:18:38Z"}
