{"icao":"LPPD","metar":"LPPD 141500Z 22010KT 9999 FEW022 BKN035 16/10 Q1031","updated":"2026-02-14T15:24:00Z"}
