{"icao":"KORD","metar":"KORD 090907Z 34013G25KT 9SM -SN BKN010 BKN029 OVC050 01/M01 A2989 RMK AO2 P0000 T00111006 $","updated":"2025-11-09T09:16:21Z"}
