{"icao":"LPMR","metar":"LPMR 270500Z 17008KT CAVOK 03/M00 Q1012","updated":"2025-12-27T05:19:47Z"}
