{"icao":"LPST","metar":"LPST 011000Z 07010KT 020V100 CAVOK 19/04 Q1023","updated":"2026-04-01T10:54:23Z"}
