{"icao":"LPMT","metar":"LPMT 261300Z 36007KT 320V030 CAVOK 14/08 Q1025","updated":"2025-11-26T13:33:36Z"}
