{"icao":"LPHR","metar":"LPHR 190600Z 29010KT 6000 VCSH SCT003 BKN006 BKN011 22/22 Q1015","updated":"2025-10-19T06:25:24Z"}
