{"icao":"LPMR","metar":"LPMR 240900Z 16003KT 7000 OVC010 18/16 Q1021","updated":"2026-05-24T09:23:08Z"}
