{"icao":"LPPD","metar":"LPPD 071630Z 34014KT 310V010 9999 FEW030 SCT040 16/07 Q1032","updated":"2026-04-07T16:57:16Z"}
