{"icao":"LPPS","metar":"LPPS 121700Z 33008KT 290V010 9999 FEW015 19/13 Q1022","updated":"2026-05-12T17:09:11Z"}
