{"icao":"LPMT","metar":"LPMT 081200Z 04005KT 9999 FEW025 19/13 Q1023","updated":"2025-11-08T12:33:08Z"}
