{"icao":"KJFK","metar":"KJFK 181051Z 06006KT 10SM BKN250 01/M02 A3029 RMK SLP256 T00111022 ","updated":"2025-12-18T11:18:33Z"}
