{"icao":"LPMA","metar":"LPMA 080430Z 03010KT 9999 SCT015 14/07 Q1024","updated":"2026-03-08T04:41:38Z"}
