{"icao":"LPPT","metar":"LPPT 201630Z 08006KT CAVOK 16/07 Q1028","updated":"2026-02-20T16:37:09Z"}
