{"icao":"LPAZ","metar":"LPAZ 190130Z 16009KT 9999 FEW017 SCT032 14/11 Q1027","updated":"2026-02-19T02:04:01Z"}
