{"icao":"KJFK","metar":"KJFK 111707Z 28024G36KT 10SM BKN046 BKN055 BKN120 04/M07 A2971 RMK AO2 PK WND 28040/1655 SNE07 VCSH N-E P0000 T00391067 $","updated":"2025-11-11T17:16:51Z"}
