{"icao":"LPLA","metar":"LPLA 161700Z 31019KT 9999 FEW025 BKN035 16/11 Q1033","updated":"2026-01-16T17:23:39Z"}
