{"icao":"KORD","metar":"KORD 060351Z 10003KT 5SM BR OVC004 07/06 A3004 RMK AO2 SLP177 T00670056","updated":"2026-03-06T04:15:47Z"}
