{"icao":"LPPS","metar":"LPPS 202000Z 07009KT 030V100 9999 SCT014 23/19 Q1020","updated":"2025-09-20T20:16:30Z"}
