{"icao":"LPBJ","metar":"LPBJ 142200Z 19012KT 9999 FEW030 13/11 Q1009","updated":"2025-11-14T22:17:23Z"}
