{"icao":"LPFL","metar":"LPFL 021730Z 17010KT 9999 FEW038 14/07 Q1030","updated":"2026-03-02T17:43:47Z"}
