{"icao":"LPMT","metar":"LPMT 272100Z 36011KT 9999 FEW025 12/07 Q1025","updated":"2026-02-27T21:27:57Z"}
