{"icao":"LPHR","metar":"LPHR 291230Z 15003KT 110V220 9999 FEW012 SCT025 19/16 Q1030","updated":"2025-11-29T12:35:25Z"}
