{"icao":"LPMT","metar":"LPMT 021100Z 36004KT 310V050 CAVOK 19/10 Q1021","updated":"2026-04-02T11:43:05Z"}
