{"icao":"LPMT","metar":"LPMT 281400Z 18005KT 160V230 8000 3000W -RA FEW018 SCT025 FEW028CB BKN038 20/19 Q1011 RERA","updated":"2025-10-28T14:18:45Z"}
