{"icao":"LPBJ","metar":"LPBJ 161300Z 16008KT CAVOK 27/14 Q1014","updated":"2025-10-16T13:29:40Z"}
