{"icao":"KORD","metar":"KORD 262251Z 23010G19KT 10SM FEW250 M14/M22 A3018 RMK AO2 SLP237 T11391217","updated":"2026-01-26T23:21:11Z"}
