{"icao":"LPPT","metar":"LPPT 190130Z 07004KT 010V110 CAVOK 08/06 Q1018","updated":"2026-01-19T01:46:25Z"}
