{"icao":"LPCS","metar":"LPCS 201330Z 36015KT 9999 FEW010 29/17 Q1015","updated":"2026-06-20T13:59:29Z"}
