{"icao":"LPHR","metar":"LPHR 011330Z 33014G27KT 290V360 9999 FEW014 SCT035 15/09 Q1027","updated":"2026-03-01T13:37:33Z"}
