{"icao":"KORD","metar":"KORD 221751Z 11006KT 10SM FEW026 FEW250 21/14 A2995 RMK AO2 SLP141 T02110139 10211 20156 58001","updated":"2026-04-22T18:03:16Z"}
