{"icao":"KORD","metar":"KORD 071851Z 00000KT 10SM FEW030 FEW150 SCT250 M05/M18 A3041 RMK AO2 SLP309 T10501183 $","updated":"2026-02-07T19:23:19Z"}
