{"icao":"KJFK","metar":"KJFK 060351Z 28021G33KT 10SM -RA SCT048 BKN080 OVC110 16/08 A2962 RMK AO2 PK WND 27039/0306 RAB0258E22B42 SLP030 P0000 T01610078","updated":"2025-11-06T04:25:30Z"}
