{"icao":"KORD","metar":"KORD 211251Z 21009KT 10SM SCT180 BKN250 13/04 A2997 RMK AO2 SLP149 T01280044 $","updated":"2026-04-21T13:24:22Z"}
