{"icao":"LPPD","metar":"LPPD 301100Z 19007KT 0050 R30/0175 -DZ FG VV000 18/17 Q1025","updated":"2026-05-30T11:18:46Z"}
