{"icao":"KLAX","metar":"KLAX 020853Z 27003KT 4SM BR OVC006 16/14 A3005 RMK AO2 SLP175 T01560144 58003 $","updated":"2025-11-02T09:16:16Z"}
