{"icao":"LPOV","metar":"LPOV 141100Z 31005KT 220V350 9999 BKN004 SCT016 18/18 Q1016","updated":"2026-06-14T11:55:59Z"}
