{"icao":"LPFL","metar":"LPFL 140800Z 18009KT 160V230 9999 FEW018 16/12 Q1026","updated":"2026-02-14T08:30:46Z"}
