{"icao":"KORD","metar":"KORD 231651Z 31009KT 10SM FEW024 SCT250 M22/M33 A3070 RMK AO2 SLP417 T12221333","updated":"2026-01-23T17:25:12Z"}
