{"icao":"LPPR","metar":"LPPR 121930Z 33004KT 9999 FEW015 12/09 Q1026","updated":"2026-03-12T19:41:10Z"}
