{"icao":"LPPR","metar":"LPPR 170700Z VRB04KT 8000 FEW002 BKN040 13/12 Q1012","updated":"2025-11-17T07:18:51Z"}
