{"icao":"LPMA","metar":"LPMA 270900Z 34014KT 310V010 8000 VCSH SCT015 15/10 Q1015","updated":"2025-12-27T09:19:01Z"}
