{"icao":"LPFR","metar":"LPFR 221100Z 08010KT 9999 FEW020 17/12 Q1011","updated":"2026-03-22T11:22:08Z"}
