{"icao":"LPLA","metar":"LPLA 201700Z 17018KT 7000 FEW017 SCT030 18/13 Q1019","updated":"2026-02-20T17:36:14Z"}
