{"icao":"KJFK","metar":"KJFK 141151Z 36015KT 10SM BKN012 OVC025 12/11 A3002 RMK AO2 SLP167 60000 70012 T01220106 10133 20122 53013","updated":"2025-10-14T12:39:08Z"}
