{"icao":"LPPT","metar":"LPPT 112300Z 32004KT CAVOK 22/10 Q1018","updated":"2025-10-11T23:15:27Z"}
