{"icao":"LPPT","metar":"LPPT 210400Z 35002KT CAVOK 08/06 Q1028","updated":"2026-02-21T04:06:15Z"}
