{"icao":"LPMR","metar":"LPMR 221000Z 26006KT 220V310 CAVOK 28/13 Q1021","updated":"2026-05-22T10:48:50Z"}
