{"icao":"LPBJ","metar":"LPBJ 032100Z 32012KT CAVOK 23/14 Q1019","updated":"2026-06-03T21:47:18Z"}
