{"icao":"LPPD","metar":"LPPD 112300Z 31009KT 270V350 9999 -SHRA SCT022 FEW025TCU 14/08 Q1004","updated":"2025-11-11T23:16:35Z"}
