{"icao":"LPOV","metar":"LPOV 280400Z VRB01KT 9999 FEW025 SCT035 14/12 Q1016","updated":"2025-10-28T04:20:56Z"}
