{"icao":"KJFK","metar":"KJFK 301751Z 11024G36KT 2SM RA BR OVC006 16/14 A2959 RMK AO2 PK WND 10042/1701 SFC VIS 3 SLP020 P0006 60018 T01560144 10156 20133 58053","updated":"2025-10-30T18:27:11Z"}
