{"icao":"LPPR","metar":"LPPR 131000Z 19009KT 9999 FEW055CB 27/13 Q1018","updated":"2026-06-13T10:26:42Z"}
