{"icao":"KLAX","metar":"KLAX 010653Z 09004KT 10SM SCT018 14/11 A3002 RMK AO2 SLP164 T01390111 $","updated":"2025-12-01T07:22:29Z"}
