{"icao":"LPFR","metar":"LPFR 070800Z 28005KT CAVOK 11/07 Q1017","updated":"2026-03-07T08:29:32Z"}
