{"icao":"KLAX","metar":"KLAX 041053Z 36005KT 10SM FEW250 13/01 A3010 RMK AO2 SLP189 T01330006","updated":"2025-12-04T11:18:08Z"}
