{"icao":"LPMR","metar":"LPMR 250500Z 26008KT 8000 -TSRA FEW012 BKN015 FEW016CB BKN030 14/12 Q1013","updated":"2026-01-25T05:27:22Z"}
