{"icao":"LPPS","metar":"LPPS 192100Z 08003KT 040V100 9999 FEW015 18/12 Q1018","updated":"2025-11-19T21:14:36Z"}
