{"icao":"LPFL","metar":"LPFL 141800Z 23004KT 150V270 9000 4000N -DZ BKN006 OVC028 21/20 Q1027","updated":"2025-09-15T01:23:16Z"}
