{"icao":"LPPR","metar":"LPPR 240400Z 27008KT 230V330 9999 -RA FEW013 OVC018 14/13 Q1016 RERA","updated":"2025-11-24T04:32:31Z"}
