{"icao":"KORD","metar":"KORD 011851Z 21011G22KT 10SM FEW050 FEW300 34/19 A2996 RMK AO2 SLP139 T03390194","updated":"2026-07-01T19:51:57Z"}
