{"icao":"LPAZ","metar":"LPAZ 071230Z 29006KT 260V320 9999 FEW022 20/13 Q1023","updated":"2025-11-07T12:37:03Z"}
