{"icao":"LPFL","metar":"LPFL 282100Z VRB07G20KT 9999 FEW010 17/15 Q1028","updated":"2026-03-01T05:50:58Z"}
