{"icao":"LPAZ","metar":"LPAZ 011300Z 05011KT 020V080 9999 BKN045 19/11 Q1020","updated":"2025-11-01T13:22:28Z"}
