{"icao":"LPCS","metar":"LPCS 281030Z 04007KT 010V080 9999 FEW004 21/14 Q1009","updated":"2026-04-28T11:04:06Z"}
