{"icao":"KJFK","metar":"KJFK 090151Z 14005KT 10SM SCT110 BKN130 12/07 A2993 RMK AO2 SLP133 T01220072","updated":"2026-05-09T02:43:49Z"}
