{"icao":"KORD","metar":"KORD 242151Z 10009KT 10SM SCT300 12/M01 A3027 RMK AO2 SLP254 T01171011 $","updated":"2025-10-24T22:16:59Z"}
