{"icao":"LPMA","metar":"LPMA 150700Z 24006KT 210V280 9999 SCT015 21/15 Q1015","updated":"2025-10-15T07:18:32Z"}
