{"icao":"LPST","metar":"LPST 041500Z 32011KT 290V350 9999 FEW028 17/09 Q1017","updated":"2026-05-04T16:02:06Z"}
