{"icao":"LPAR","metar":"LPAR 041100Z 18006KT 140V220 4000 -RADZ BR BKN007 OVC030 14/13 Q0997","updated":"2026-02-04T11:31:54Z"}
