{"icao":"LPPD","metar":"LPPD 231730Z 22005KT 160V250 9999 FEW011 BKN045 19/17 Q1024","updated":"2026-05-23T17:59:26Z"}
