{"icao":"LPOV","metar":"LPOV 142100Z 36004KT 0300 FG BKN001 15/15 Q1017","updated":"2025-10-14T21:15:03Z"}
