{"icao":"KLAX","metar":"KLAX 241253Z 07004KT 10SM FEW010 SCT016 SCT170 BKN250 15/12 A2990 RMK AO2 SLP124 T01500117 $","updated":"2026-04-24T13:23:12Z"}
