{"icao":"LPLA","metar":"LPLA 210319Z 28019KT 9000 -RA FEW008 BKN015 BKN030 17/15 Q1021","updated":"2026-01-21T03:42:44Z"}
