{"icao":"LPAZ","metar":"LPAZ 270300Z 12006KT 9999 FEW018 14/13 Q1023","updated":"2025-11-27T03:10:04Z"}
