{"icao":"KORD","metar":"KORD 221806Z 33015G22KT 10SM BKN031 BKN065 BKN150 M03/M12 A3026 RMK AO2 T10331117 $","updated":"2026-02-22T18:33:59Z"}
