{"icao":"LPMT","metar":"LPMT 311000Z 35010KT CAVOK 23/15 Q1020","updated":"2026-05-31T10:14:10Z"}
