{"icao":"LPPR","metar":"LPPR 250700Z 00000KT 9000 4000N VCFG FEW004 12/12 Q1018","updated":"2026-04-25T07:13:38Z"}
