{"icao":"LPFL","metar":"LPFL 291730Z 34003KT 9999 FEW014 BKN036 24/19 Q1029","updated":"2026-06-29T17:35:08Z"}
