{"icao":"LPPT","metar":"LPPT 210200Z 06006KT 030V090 CAVOK 19/10 Q1003","updated":"2026-04-21T02:30:30Z"}
