{"icao":"LPLA","metar":"LPLA 201100Z 32022KT 9999 BKN040 15/07 Q1031","updated":"2025-12-20T11:15:05Z"}
