{"icao":"LPMT","metar":"LPMT 251500Z 21011KT 9999 BKN024 24/18 Q1016","updated":"2026-06-25T15:38:31Z"}
