{"icao":"LPFR","metar":"LPFR 141230Z 08010KT CAVOK 19/08 Q1016","updated":"2025-12-14T12:36:35Z"}
