{"icao":"LPPT","metar":"LPPT 211800Z 03006KT CAVOK 18/10 Q1027","updated":"2026-02-21T18:33:11Z"}
