{"icao":"KJFK","metar":"KJFK 011051Z 36020G30KT 10SM BKN025 M11/M17 A2986 RMK AO2 PK WND 36030/1042 SLP111 T11111172 $","updated":"2026-02-01T11:20:17Z"}
