{"icao":"LPPR","metar":"LPPR 171130Z 30006KT 270V350 9000 FEW015 17/12 Q1020","updated":"2026-04-17T11:51:16Z"}
