{"icao":"LPPS","metar":"LPPS 230500Z 35004KT 320V020 9999 SCT014 SCT030 18/16 Q1020","updated":"2025-09-23T05:17:00Z"}
