{"icao":"LPLA","metar":"LPLA 152100Z 30006KT 270V350 9999 FEW025 BKN040 15/09 Q1032","updated":"2026-05-15T21:58:16Z"}
