{"icao":"LPBJ","metar":"LPBJ 221500Z VRB02KT CAVOK 22/06 Q1026","updated":"2026-02-22T15:23:32Z"}
