{"icao":"LPOV","metar":"LPOV 262100Z VRB01KT CAVOK 15/11 Q1020","updated":"2025-10-26T21:15:07Z"}
