{"icao":"LPFR","metar":"LPFR 110830Z 25010KT 1500 -DZ BR OVC002 15/15 Q1020","updated":"2026-02-11T08:59:33Z"}
