{"icao":"LPHR","metar":"LPHR 130900Z 33008KT 290V010 9999 -SHRA SCT025 SCT040 15/10 Q1008","updated":"2025-11-13T09:20:28Z"}
