{"icao":"LPPR","metar":"LPPR 042300Z 34005KT 8000 FEW004 SCT006 15/15 Q1023","updated":"2025-10-04T23:15:03Z"}
