{"icao":"LPPR","metar":"LPPR 282100Z 36004KT CAVOK 09/07 Q1025","updated":"2026-02-28T21:19:17Z"}
