{"icao":"KORD","metar":"KORD 181851Z 27013G27KT 240V310 10SM FEW039 FEW250 09/M01 A2991 RMK AO2 PK WND 25027/1845 SLP127 T00941011 $","updated":"2026-04-18T19:40:10Z"}
