{"icao":"KLAX","metar":"KLAX 210415Z 25008KT 10SM SCT008 20/18 A2993 RMK AO2 T02000178","updated":"2025-09-21T04:20:34Z"}
