{"icao":"LPPT","metar":"LPPT 140900Z 33006KT 290V020 CAVOK 24/14 Q1017","updated":"2026-06-14T09:31:08Z"}
