{"icao":"KORD","metar":"KORD 180351Z 15004KT 10SM BKN110 BKN140 06/M02 A3007 RMK AO2 SLP187 T00561017","updated":"2025-11-18T04:23:00Z"}
