{"icao":"LPPS","metar":"LPPS 110530Z 03011KT 350V060 9999 SCT014 14/10 Q1026","updated":"2026-03-11T05:47:23Z"}
