{"icao":"LPFR","metar":"LPFR 202300Z 24002KT CAVOK 10/08 Q1027","updated":"2026-02-20T23:27:27Z"}
