{"icao":"LPMA","metar":"LPMA 180900Z 22003KT 130V260 9999 SCT015 23/18 Q1015","updated":"2025-10-18T09:16:43Z"}
