{"icao":"LPLA","metar":"LPLA 050000Z 12004KT 070V150 9999 FEW015 18/16 Q1024","updated":"2026-06-05T00:05:33Z"}
