{"icao":"KJFK","metar":"KJFK 100251Z 04007KT 10SM CLR 09/M01 A3051 RMK AO2 SLP330 T00941006 51012","updated":"2025-10-10T02:59:34Z"}
