{"icao":"LPBJ","metar":"LPBJ 151600Z VRB02KT CAVOK 29/10 Q1015","updated":"2025-10-15T16:19:23Z"}
