{"icao":"LPHR","metar":"LPHR 161600Z 26008KT 220V320 9999 FEW020 22/17 Q1007","updated":"2025-10-16T16:23:27Z"}
