{"icao":"KLAX","metar":"KLAX 262253Z 28005KT 10SM FEW250 26/06 A3002 RMK AO2 SLP163 T02610056 $","updated":"2025-11-26T23:17:42Z"}
