{"icao":"LPOV","metar":"LPOV 221000Z 31009KT 6000 SCT003 BKN012 20/19 Q1016","updated":"2025-10-22T10:20:05Z"}
