{"icao":"KORD","metar":"KORD 131151Z 27005KT 10SM FEW250 02/M03 A3015 RMK AO2 SLP215 T00221028 10056 20022 53014 $","updated":"2025-11-13T12:40:21Z"}
