{"icao":"KORD","metar":"KORD 130551Z 16005KT 10SM FEW180 FEW250 14/09 A2999 RMK AO2 SLP154 T01440089 10167 20139 402060089 53006 $","updated":"2025-10-13T06:28:44Z"}
