{"icao":"LPMA","metar":"LPMA 271900Z 34011KT 290V020 9999 SCT015 17/11 Q1016","updated":"2026-04-27T19:19:14Z"}
