{"icao":"KJFK","metar":"KJFK 150751Z 03003KT 10SM BKN110 BKN250 19/17 A3014 RMK AO2 SLP207 T01890172 $","updated":"2025-09-15T08:23:41Z"}
