{"icao":"LPMR","metar":"LPMR 310100Z 15002KT 2000 BR SCT003 05/05 Q1020","updated":"2025-12-31T01:39:22Z"}
