{"icao":"LPMT","metar":"LPMT 241300Z 28012KT 9999 FEW030 24/18 Q1014","updated":"2026-06-24T13:20:59Z"}
