{"icao":"LPCS","metar":"LPCS 021600Z 01012KT CAVOK 25/12 Q1020","updated":"2025-10-02T16:21:12Z"}
