{"icao":"LPPT","metar":"LPPT 301930Z 32014KT 290V350 9999 FEW015 23/16 Q1020 NOSIG","updated":"2026-06-30T19:54:00Z"}
