{"icao":"KJFK","metar":"KJFK 241051Z 29009KT 10SM FEW035 08/03 A3008 RMK AO2 SLP186 T00830033","updated":"2025-10-24T11:16:02Z"}
