{"icao":"LPAR","metar":"LPAR 241300Z 26011KT 5000 -RA SCT008 BKN020 17/15 Q1018","updated":"2025-11-24T13:32:25Z"}
