{"icao":"LPOV","metar":"LPOV 261100Z 16006KT 9999 FEW020 FEW025CB SCT048 10/04 Q1014","updated":"2025-12-26T11:17:36Z"}
