{"icao":"LPST","metar":"LPST 272300Z 35012KT 9999 FEW030 11/06 Q1026","updated":"2026-02-27T23:22:57Z"}
