{"icao":"LPPR","metar":"LPPR 272100Z VRB03KT CAVOK 14/10 Q1020","updated":"2025-10-27T21:15:38Z"}
