{"icao":"LPMT","metar":"LPMT 090400Z 02009KT CAVOK 12/08 Q1018","updated":"2026-04-09T05:08:07Z"}
