{"icao":"LPFL","metar":"LPFL 271000Z 03013KT 360V060 9999 SCT024 BKN049 18/13 Q1024","updated":"2025-10-27T10:21:23Z"}
