{"icao":"KLAX","metar":"KLAX 251819Z VRB04KT 4SM BR OVC010 17/15 A3006 RMK AO2 T01720150 $","updated":"2025-10-25T18:23:03Z"}
