{"icao":"KJFK","metar":"KJFK 171651Z 29018G37KT 10SM BKN060 06/M07 A2976 RMK AO2 PK WND 29045/1556 SLP076 T00611072 $","updated":"2025-11-17T17:17:47Z"}
