{"icao":"LPHR","metar":"LPHR 260300Z 16019KT 5000 -RADZ BR SCT003 BKN007 22/22 Q0991 RERA","updated":"2025-09-26T03:34:31Z"}
