{"icao":"KJFK","metar":"KJFK 252051Z 19014KT 10SM SCT008 SCT011 BKN100 BKN250 23/21 A2976 RMK AO2 SLP076 60000 T02330211 56029 $","updated":"2025-09-25T21:15:06Z"}
