{"icao":"LPPS","metar":"LPPS 271700Z 03014KT 360V060 9999 BKN015 17/13 Q1026","updated":"2026-02-27T17:34:01Z"}
