{"icao":"KLAX","metar":"KLAX 102133Z 25010KT 10SM SCT014 BKN045 BKN100 19/13 A2996 RMK AO2 T01890133","updated":"2026-04-10T21:36:20Z"}
