{"icao":"LPPR","metar":"LPPR 172000Z 35007KT CAVOK 13/10 Q1018","updated":"2025-11-17T20:21:36Z"}
