{"icao":"LPLA","metar":"LPLA 081500Z 31020KT 9999 FEW017 SCT045 17/13 Q1035","updated":"2026-04-08T15:08:22Z"}
