{"icao":"LPPR","metar":"LPPR 231930Z 28003KT 240V320 CAVOK 23/18 Q1012","updated":"2026-06-23T20:01:32Z"}
