{"icao":"LPFR","metar":"LPFR 070900Z 25010KT CAVOK 17/10 Q1011","updated":"2026-05-07T09:30:02Z"}
