{"icao":"KLAX","metar":"KLAX 081253Z 00000KT 10SM FEW012 11/08 A3001 RMK AO2 SLP162 T01060078 $","updated":"2026-01-08T13:39:39Z"}
