{"icao":"LPMA","metar":"LPMA 271030Z 03011KT 340V070 9999 FEW015 20/11 Q1017","updated":"2026-04-27T11:02:50Z"}
