{"icao":"LPMA","metar":"LPMA 091730Z 01022G35KT 9999 FEW015 21/13 Q1022","updated":"2026-06-09T18:03:16Z"}
