{"icao":"LPFR","metar":"LPFR 270230Z 14003KT CAVOK 18/12 Q1018","updated":"2025-09-27T02:52:36Z"}
