{"icao":"LPPT","metar":"LPPT 091900Z 32008KT CAVOK 19/13 Q1013","updated":"2026-04-09T19:04:32Z"}
