{"icao":"LPPD","metar":"LPPD 242200Z 24020KT 8000 FEW006 SCT010 BKN030 16/15 Q1020","updated":"2026-01-24T22:18:41Z"}
