{"icao":"KORD","metar":"KORD 071411Z 23009KT 1 3/4SM BR OVC002 01/00 A2990 RMK AO2 T00060000","updated":"2026-01-07T14:22:53Z"}
