{"icao":"LPPT","metar":"LPPT 190900Z 07004KT 350V160 CAVOK 21/16 Q1019","updated":"2025-09-19T09:18:42Z"}
