{"icao":"LPAZ","metar":"LPAZ 202000Z 03021KT 8000 FEW009 SCT015 BKN049 13/12 Q1007","updated":"2026-03-20T20:31:15Z"}
