{"icao":"KORD","metar":"KORD 021951Z 30007KT 10SM FEW020 SCT250 M05/M14 A2993 RMK AO2 SLP147 T10501144","updated":"2026-01-02T20:21:25Z"}
