{"icao":"LPMT","metar":"LPMT 291200Z 24017G27KT 2500 -RADZ BR SCT004 BKN007 16/16 Q1009","updated":"2026-01-29T12:55:09Z"}
