{"icao":"LPMR","metar":"LPMR 072200Z VRB02KT 6000 2000S BCFG NSC 06/05 Q1030","updated":"2026-01-07T22:19:52Z"}
