{"icao":"LPFR","metar":"LPFR 150730Z 33008KT 300V360 9999 FEW024 14/09 Q1016","updated":"2026-03-15T07:43:35Z"}
