{"icao":"KJFK","metar":"KJFK 280751Z 04004KT 10SM FEW008 FEW250 M02/M02 A3013 RMK AO2 SLP203 T10171022","updated":"2026-02-28T08:27:46Z"}
