{"icao":"KORD","metar":"KORD 071404Z 35011KT 2 1/2SM -RA BR FEW008 OVC018 14/13 A3007 RMK AO2 P0000 T01390128","updated":"2025-10-07T14:18:19Z"}
