{"icao":"KJFK","metar":"KJFK 231951Z 31012G22KT 10SM FEW070 BKN250 23/02 A2984 RMK PK WND 33028/1857 SLP105 T02330017 ","updated":"2026-04-23T20:51:30Z"}
