{"icao":"LPMT","metar":"LPMT 031600Z 34008KT CAVOK 27/13 Q1021","updated":"2025-10-03T16:20:39Z"}
