{"icao":"KORD","metar":"KORD 131051Z 20022G39KT 10SM FEW070 SCT250 07/M02 A2938 RMK AO2 PK WND 19039/1049 SLP952 T00671017 $","updated":"2026-03-13T11:30:26Z"}
