{"icao":"LPOV","metar":"LPOV 191800Z 20008KT 160V230 2000 -RADZ BR BKN006 SCT018 18/18 Q1012","updated":"2025-10-19T18:22:42Z"}
