{"icao":"LPMR","metar":"LPMR 161000Z 19006KT 170V230 9999 SCT018 FEW020CB 16/14 Q1011","updated":"2025-11-16T10:17:33Z"}
