{"icao":"KORD","metar":"KORD 190851Z 23005KT 10SM CLR 03/M03 A3008 RMK AO2 SLP190 T00281028 53004 $","updated":"2026-04-19T09:45:58Z"}
