{"icao":"LPCS","metar":"LPCS 270700Z 05011KT CAVOK 13/M01 Q1016","updated":"2026-03-27T07:05:10Z"}
