{"icao":"LPPD","metar":"LPPD 282000Z 26009KT 3000 SHRA BR BKN003 BKN007 16/15 Q1028","updated":"2026-02-28T20:24:13Z"}
