{"icao":"KORD","metar":"KORD 122251Z 27009G21KT 10SM FEW250 SCT300 11/M03 A2997 RMK AO2 PK WND 28026/2205 SLP151 T01111028","updated":"2025-11-12T23:18:14Z"}
