{"icao":"LPPT","metar":"LPPT 010800Z 32012KT CAVOK 22/17 Q1019 NOSIG","updated":"2026-07-01T08:11:00Z"}
