{"icao":"LPPT","metar":"LPPT 200100Z 33009KT CAVOK 11/07 Q1019","updated":"2025-11-20T01:22:24Z"}
