{"icao":"LPHR","metar":"LPHR 271700Z 12017KT 8000 RA SCT010 BKN025 14/12 Q1017","updated":"2025-12-27T17:16:05Z"}
