{"icao":"LPHR","metar":"LPHR 032300Z 26019KT 9000 -RA FEW010 BKN013 17/15 Q1000","updated":"2026-02-03T23:26:45Z"}
