{"icao":"KJFK","metar":"KJFK 041851Z 19006KT 10SM FEW050 SCT120 BKN150 BKN220 07/03 A3025 RMK AO2 SLP243 VCSH SE T00670033","updated":"2026-03-04T19:37:13Z"}
