{"icao":"LPPT","metar":"LPPT 030530Z 23007KT 9999 FEW020 FEW025TCU 09/08 Q1001","updated":"2026-02-03T05:50:06Z"}
