{"icao":"LPAR","metar":"LPAR 301300Z 22012KT 9999 SCT020 BKN035 21/14 Q1014","updated":"2025-10-30T13:29:33Z"}
