{"icao":"KLAX","metar":"KLAX 271853Z 26011KT 10SM FEW160 SCT180 SCT250 27/14 A2999 RMK AO2 SLP153 T02670144","updated":"2026-02-27T19:32:07Z"}
