{"icao":"KORD","metar":"KORD 181651Z 09008KT 9SM OVC011 05/03 A2997 RMK AO2 DZB01E44 SLP154 P0000 T00500033","updated":"2025-11-18T17:18:20Z"}
