{"icao":"LPBJ","metar":"LPBJ 130700Z 16017KT 9999 FEW024 SCT031 18/15 Q1003","updated":"2025-11-13T07:18:10Z"}
