{"icao":"LPPS","metar":"LPPS 072200Z 05008KT 360V080 9999 SCT014 21/18 Q1026","updated":"2025-10-07T22:16:36Z"}
