{"icao":"LPFR","metar":"LPFR 070700Z 24004KT CAVOK 11/07 Q1016","updated":"2026-03-07T07:27:24Z"}
