{"icao":"LPFR","metar":"LPFR 101500Z 01007KT 9999 FEW015 17/11 Q1018","updated":"2025-12-10T15:23:20Z"}
