{"icao":"LPMA","metar":"LPMA 171230Z 35010KT 300V020 9999 BKN015 SCT030 19/13 Q1026","updated":"2025-12-17T12:42:09Z"}
