{"icao":"LPMT","metar":"LPMT 180300Z 33005KT CAVOK 13/09 Q1019","updated":"2026-05-18T03:51:55Z"}
