{"icao":"LPBJ","metar":"LPBJ 271100Z VRB05KT CAVOK 26/13 Q1020","updated":"2026-06-27T11:25:36Z"}
