{"icao":"KJFK","metar":"KJFK 010851Z 36020KT 10SM FEW180 SCT250 M11/M17 A2989 RMK AO2 PK WND 01031/0828 SLP121 T11111172 56029 $","updated":"2026-02-01T09:29:19Z"}
