{"icao":"KJFK","metar":"KJFK 292051Z 11012KT 10SM SCT010 SCT110 BKN200 OVC250 10/07 A2991 RMK SLP127 T01000072 58023 ","updated":"2026-04-29T21:03:09Z"}
