{"icao":"KJFK","metar":"KJFK 310751Z 32009KT 10SM SCT250 M12/M19 A3019 RMK AO2 SLP224 T11221189 $","updated":"2026-01-31T08:29:23Z"}
