{"icao":"LPPD","metar":"LPPD 211330Z 19010KT 9999 FEW009 BKN048 17/15 Q1025","updated":"2026-02-21T13:40:45Z"}
