{"icao":"LPMT","metar":"LPMT 011300Z 32006KT CAVOK 28/13 Q1020","updated":"2025-10-01T13:27:56Z"}
