{"icao":"LPPT","metar":"LPPT 291100Z 21005KT 9999 FEW032 BKN038 15/10 Q1020","updated":"2025-11-29T11:14:27Z"}
