{"icao":"LPPS","metar":"LPPS 180500Z 06008KT 020V080 9999 SCT014 SCT030 15/12 Q1017","updated":"2026-04-18T05:05:11Z"}
