{"icao":"LPAZ","metar":"LPAZ 140630Z 03010KT 9999 SCT017 14/11 Q1028","updated":"2026-05-14T06:45:00Z"}
