{"icao":"LPGR","metar":"LPGR 141130Z 24016KT 9999 SCT015 21/16 Q1021","updated":"2026-06-14T14:04:14Z"}
