{"icao":"KJFK","metar":"KJFK 171151Z 20010KT 10SM FEW037 BKN110 BKN230 03/M07 A3007 RMK AO2 SLP183 T00331067 10039 20017 58005 $","updated":"2026-01-17T12:37:42Z"}
