{"icao":"LPMR","metar":"LPMR 042300Z 29001KT 6000 NSC 13/13 Q1023","updated":"2026-04-04T23:30:07Z"}
