{"icao":"LPPT","metar":"LPPT 211930Z 33005KT CAVOK 26/15 Q1019","updated":"2026-05-21T19:55:55Z"}
