{"icao":"KJFK","metar":"KJFK 182251Z 13010KT 10SM OVC009 11/09 A2999 RMK SLP155 T01060089 ","updated":"2026-04-18T23:33:47Z"}
