{"icao":"LPMT","metar":"LPMT 201700Z 33009KT CAVOK 31/17 Q1013","updated":"2026-06-20T17:24:57Z"}
