{"icao":"LPOV","metar":"LPOV 271000Z 16014KT CAVOK 19/07 Q1015","updated":"2025-09-27T10:15:42Z"}
