{"icao":"LPHR","metar":"LPHR 261230Z 14006KT 9999 FEW008 BKN012 BKN020 17/15 Q1020","updated":"2026-04-26T13:04:20Z"}
