{"icao":"LPAR","metar":"LPAR 161200Z 15004KT 100V190 CAVOK 26/11 Q1014","updated":"2025-10-16T12:38:41Z"}
