{"icao":"LPPS","metar":"LPPS 081600Z 29018KT 9999 FEW011 19/16 Q1023","updated":"2026-02-08T16:29:42Z"}
