{"icao":"KJFK","metar":"KJFK 140951Z 01015KT 10SM OVC013 13/10 A3000 RMK AO2 SLP159 T01280100","updated":"2025-10-14T10:19:14Z"}
