{"icao":"LPOV","metar":"LPOV 181400Z 24006KT 180V280 CAVOK 23/15 Q1016","updated":"2025-10-18T14:14:23Z"}
