{"icao":"LPOV","metar":"LPOV 121600Z 31008KT 260V340 9999 FEW015 18/15 Q1018","updated":"2026-05-12T17:09:08Z"}
