{"icao":"LPOV","metar":"LPOV 031100Z 25007KT 6000 -SHRA FEW005 SCT018 FEW024CB BKN035 15/15 Q1014 RESHRA","updated":"2026-05-03T11:40:44Z"}
