{"icao":"LPBJ","metar":"LPBJ 080800Z 31004KT 0100 FG VV003 11/11 Q1021","updated":"2025-11-08T08:21:37Z"}
