{"icao":"LPFR","metar":"LPFR 210530Z 01003KT 340V040 CAVOK 10/06 Q1026","updated":"2026-02-21T05:40:07Z"}
