{"icao":"LPPT","metar":"LPPT 241600Z 05007KT 9999 FEW022 SCT036 12/08 Q1009","updated":"2025-12-24T16:24:01Z"}
