{"icao":"LPLA","metar":"LPLA 311700Z 23011KT 9999 FEW015 SCT023 19/15 Q1014","updated":"2026-01-31T17:22:21Z"}
