{"icao":"LPPT","metar":"LPPT 241230Z 31009KT 280V350 9999 FEW018 BKN030 12/07 Q1012","updated":"2026-01-24T12:38:34Z"}
