{"icao":"LPHR","metar":"LPHR 192200Z 27012KT 6000 FEW003 BKN005 22/22 Q1016","updated":"2025-10-19T22:16:02Z"}
