{"icao":"LPPS","metar":"LPPS 020100Z 02008KT 340V050 9999 SCT012 SCT030 21/18 Q1021","updated":"2025-10-02T01:17:03Z"}
