{"icao":"LPBJ","metar":"LPBJ 171900Z 23004KT 9999 FEW035 08/06 Q1009","updated":"2026-01-17T19:14:11Z"}
