{"icao":"LPOV","metar":"LPOV 081400Z 32010KT 9999 FEW016 14/10 Q1022","updated":"2026-03-08T14:23:48Z"}
