{"icao":"LPCS","metar":"LPCS 151700Z 02004KT 9999 FEW045 25/09 Q1015","updated":"2025-10-15T17:16:10Z"}
