{"icao":"LPMT","metar":"LPMT 101100Z 02008KT CAVOK 24/12 Q1021","updated":"2025-10-10T11:15:19Z"}
