{"icao":"LPMR","metar":"LPMR 210900Z 23005KT 3000 BR BKN005 OVC016 20/19 Q1014","updated":"2025-10-21T09:19:39Z"}
