{"icao":"LPPD","metar":"LPPD 221230Z 18011KT 9999 SCT007 SCT012 BKN030 23/21 Q1015","updated":"2025-10-22T12:39:02Z"}
