{"icao":"LPFR","metar":"LPFR 181830Z 12003KT 090V150 9999 FEW002 18/15 Q1016","updated":"2026-04-18T18:49:50Z"}
