{"icao":"KORD","metar":"KORD 310651Z 20015G22KT 10SM BKN250 20/14 A2976 RMK AO2 SLP071 T02000139 $","updated":"2026-03-31T07:12:02Z"}
