{"icao":"LPPD","metar":"LPPD 121400Z 02013KT 350V060 9999 FEW025 SCT040 18/11 Q1026","updated":"2026-05-12T14:21:57Z"}
