{"icao":"KORD","metar":"KORD 061551Z 31004KT 10SM OVC027 M01/M06 A2993 RMK AO2 SLP144 T10111061","updated":"2025-12-06T16:21:31Z"}
