{"icao":"LPPS","metar":"LPPS 051700Z 10008KT 060V120 9999 SCT014 19/14 Q1015","updated":"2026-04-05T17:29:27Z"}
