{"icao":"LPPT","metar":"LPPT 280600Z 28012G23KT 250V310 6000 DZ FEW006 SCT008 BKN010 18/17 Q1012","updated":"2025-09-28T06:24:21Z"}
