{"icao":"LPST","metar":"LPST 181100Z 21012KT 180V240 9999 FEW008 BKN012 BKN035 14/12 Q1021","updated":"2026-02-18T11:37:13Z"}
