{"icao":"LPLA","metar":"LPLA 120600Z 22020G34KT 190V250 9999 FEW014 BKN020 17/14 Q1013","updated":"2026-02-12T06:04:56Z"}
