{"icao":"LPLA","metar":"LPLA 281800Z 07006KT 020V110 9999 FEW020 BKN030 15/10 Q1034","updated":"2026-03-28T18:39:01Z"}
