{"icao":"LPPS","metar":"LPPS 182200Z 33009KT 9999 BKN008 22/21 Q1018","updated":"2025-10-18T22:15:43Z"}
