{"icao":"KJFK","metar":"KJFK 241251Z 27007KT 10SM FEW038 FEW250 10/04 A3012 RMK AO2 SLP198 T01000039","updated":"2025-10-24T13:29:24Z"}
