{"icao":"LPPR","metar":"LPPR 231900Z 35007KT 330V030 9999 FEW040 22/17 Q1020","updated":"2026-05-23T19:23:14Z"}
