{"icao":"LPFR","metar":"LPFR 190700Z 02004KT 330V030 CAVOK 09/08 Q1026","updated":"2026-02-19T07:07:18Z"}
