{"icao":"LPBJ","metar":"LPBJ 240400Z 28002KT 250V310 0800 FG OVC002 18/18 Q1019","updated":"2025-10-24T04:21:07Z"}
