{"icao":"LPFR","metar":"LPFR 061030Z 27014KT 9000 TS FEW018 FEW025CB SCT030 13/11 Q1008","updated":"2026-02-06T10:37:37Z"}
