{"icao":"KJFK","metar":"KJFK 262051Z 03008KT 10SM FEW070 SCT100 SCT250 14/01 A3034 RMK AO2 SLP272 T01440006 56014","updated":"2025-10-26T21:15:23Z"}
