{"icao":"LPPS","metar":"LPPS 150100Z 05008KT 360V090 9999 SCT015 BKN030 22/18 Q1023","updated":"2025-09-15T01:23:16Z"}
