{"icao":"LPAZ","metar":"LPAZ 100430Z 22017KT 3600 BR FEW001 BKN004 17/17 Q1014","updated":"2026-02-10T05:02:29Z"}
