{"icao":"KLAX","metar":"KLAX 250453Z 23004KT 10SM FEW007 20/18 A2996 RMK AO2 SLP144 T02000183 $","updated":"2025-09-25T05:17:34Z"}
