{"icao":"LPOV","metar":"LPOV 280800Z 05006KT 020V090 9999 FEW025 SCT045 10/05 Q1014","updated":"2025-12-28T09:18:54Z"}
