{"icao":"LPFR","metar":"LPFR 191000Z 09009KT CAVOK 23/17 Q1017","updated":"2025-10-19T10:16:37Z"}
