{"icao":"LPPR","metar":"LPPR 010330Z 11011KT CAVOK 08/02 Q1014","updated":"2026-01-01T03:49:06Z"}
