{"icao":"LPCS","metar":"LPCS 050830Z 36009KT 330V030 9999 BKN018 13/10 Q1016","updated":"2026-03-05T08:39:44Z"}
