{"icao":"LPPT","metar":"LPPT 060600Z 03005KT 350V070 CAVOK 17/12 Q1018","updated":"2025-10-06T06:27:16Z"}
