{"icao":"LPOV","metar":"LPOV 021400Z 24006KT 210V270 9999 SCT018 FEW022CB 13/10 Q1016","updated":"2025-12-02T14:20:42Z"}
