{"icao":"LPBJ","metar":"LPBJ 280400Z 25002KT 200V290 CAVOK 05/03 Q1022","updated":"2025-11-28T04:22:29Z"}
