{"icao":"KJFK","metar":"KJFK 071051Z 34003KT 1/4SM R04R/P6000FT BR OVC003 03/03 A2965 RMK AO2 SFC VIS 2 SLP041 T00330033 $","updated":"2026-01-07T11:19:29Z"}
