{"icao":"LPMT","metar":"LPMT 210800Z 21009KT 160V240 3000 -RA BR FEW007 SCT009 BKN015 15/15 Q1008","updated":"2026-01-21T08:30:19Z"}
