{"icao":"LPHR","metar":"LPHR 131500Z 24007KT 9999 FEW025 21/13 Q1015","updated":"2025-10-13T15:18:36Z"}
