{"icao":"LPPS","metar":"LPPS 042300Z 27016KT 240V300 9999 FEW014 19/13 Q1008","updated":"2026-02-04T23:26:04Z"}
