{"icao":"KJFK","metar":"KJFK 141551Z 23010KT 10SM BKN045 BKN095 OVC250 01/M05 A3010 RMK AO2 SLP193 T00061050 $","updated":"2026-02-14T16:28:16Z"}
