{"icao":"KORD","metar":"KORD 012251Z 19009KT 10SM FEW100 FEW250 M03/M11 A3013 RMK AO2 SLP214 T10281111","updated":"2026-02-01T23:23:25Z"}
