{"icao":"LPMR","metar":"LPMR 161300Z 26011KT 220V290 9999 FEW024 17/11 Q1010","updated":"2025-11-16T13:22:42Z"}
