{"icao":"KORD","metar":"KORD 241451Z VRB03KT 10SM BKN100 BKN170 OVC250 M22/M29 A3069 RMK AO2 SLP415 T12171289 58009","updated":"2026-01-24T15:19:10Z"}
