{"icao":"LPFL","metar":"LPFL 171230Z 20016G27KT 170V240 9999 VCSH FEW009 SCT016 24/21 Q1007","updated":"2025-10-17T12:37:08Z"}
