{"icao":"KORD","metar":"KORD 190951Z 01003KT 10SM SCT120 BKN200 05/M07 A2963 RMK AO2 SLP035 T00501067 $","updated":"2026-02-19T10:41:23Z"}
