{"icao":"LPFL","metar":"LPFL 191900Z 01008KT 340V040 9999 BKN029 16/10 Q1030","updated":"2025-11-19T19:15:17Z"}
