{"icao":"KJFK","metar":"KJFK 270951Z 00000KT 10SM FEW250 M03/M06 A3005 RMK AO2 SLP174 T10281061 $","updated":"2026-02-27T10:36:05Z"}
