{"icao":"KJFK","metar":"KJFK 031351Z 32012G18KT 10SM SCT027 SCT075 SCT250 02/M04 A3004 RMK AO2 PRESRR SLP172 T00171044","updated":"2025-12-03T14:20:39Z"}
