{"icao":"LPBJ","metar":"LPBJ 191200Z 33006KT 300V360 9999 FEW025 11/06 Q1020","updated":"2026-01-19T12:47:13Z"}
