{"icao":"LPAR","metar":"LPAR 191200Z 01009KT 330V050 9999 FEW022 15/07 Q1021","updated":"2026-01-19T12:47:14Z"}
