{"icao":"KLAX","metar":"KLAX 201153Z 14005KT 10SM FEW016 BKN044 BKN250 11/09 A3003 RMK AO2 SLP168 T01110089 10139 20111 58002 $","updated":"2025-11-20T12:38:43Z"}
