{"icao":"LPCS","metar":"LPCS 260930Z 10010KT 050V120 CAVOK 26/11 Q1022","updated":"2026-05-26T09:54:40Z"}
