{"icao":"LPCS","metar":"LPCS 031830Z 18011KT 8000 -RA SCT006 BKN013 BKN030 11/11 Q0999","updated":"2026-02-03T18:55:01Z"}
