{"icao":"LPAZ","metar":"LPAZ 260200Z 05005KT 010V080 9999 FEW018 BKN026 14/09 Q1028","updated":"2026-03-26T02:11:43Z"}
