{"icao":"KJFK","metar":"KJFK 171751Z 23011KT 10SM SCT055 BKN250 03/M02 A2988 RMK AO2 SLP117 4/002 933003 T00331022 10033 20000 58031 $","updated":"2025-12-17T18:30:48Z"}
