{"icao":"LPMA","metar":"LPMA 241700Z 05004KT 330V100 9999 FEW015 20/12 Q1015","updated":"2026-02-24T17:08:35Z"}
