{"icao":"KLAX","metar":"KLAX 121853Z 26010KT 10SM FEW010 FEW045 23/17 A2987 RMK AO2 SLP114 T02280167","updated":"2026-06-12T19:04:01Z"}
