{"icao":"LPMT","metar":"LPMT 170700Z VRB02KT CAVOK 14/13 Q1013","updated":"2025-10-17T07:17:41Z"}
