{"icao":"KJFK","metar":"KJFK 182251Z 08004KT 10SM FEW036 FEW140 BKN250 06/05 A3019 RMK AO2 SLP223 T00610050","updated":"2025-12-18T23:19:05Z"}
