{"icao":"KJFK","metar":"KJFK 131451Z 21012KT 10SM FEW047 SCT250 26/16 A2991 RMK SLP129 T02610156 52011 $ ","updated":"2026-06-13T14:59:22Z"}
