{"icao":"KLAX","metar":"KLAX 031653Z 28009KT 8SM FEW006 SCT015 BKN022 21/16 A3001 RMK AO2 SLP160 T02110161 $","updated":"2025-10-03T17:14:58Z"}
