{"icao":"LPLA","metar":"LPLA 241800Z 32028KT 9999 SCT025 14/09 Q1018","updated":"2026-02-24T19:00:27Z"}
