{"icao":"KJFK","metar":"KJFK 190251Z 34013KT 6SM -SN BR FEW012 OVC046 00/M01 A2982 RMK AO2 SLP099 P0000 60008 T00001011 58008 $","updated":"2026-01-19T03:49:30Z"}
