{"icao":"LPPR","metar":"LPPR 181330Z 31009KT 270V340 CAVOK 20/12 Q1017","updated":"2026-04-18T14:03:25Z"}
