{"icao":"LPMA","metar":"LPMA 071900Z 02008KT 320V050 9999 SCT015 23/18 Q1024","updated":"2025-10-07T19:13:45Z"}
