{"icao":"LPAR","metar":"LPAR 011300Z 05007KT CAVOK 22/05 Q1023","updated":"2026-04-01T13:19:20Z"}
