{"icao":"LPFR","metar":"LPFR 090930Z 25011KT 2000 -DZ BR SCT002 BKN005 15/15 Q1016","updated":"2026-02-09T10:01:42Z"}
