{"icao":"KLAX","metar":"KLAX 050453Z 23005KT 10SM CLR 18/15 A2982 RMK AO2 SLP095 T01830150 $","updated":"2025-10-05T05:16:02Z"}
