{"icao":"LPHR","metar":"LPHR 242000Z VRB03KT 9999 FEW012 20/14 Q1021","updated":"2026-06-24T22:15:21Z"}
