{"icao":"KLAX","metar":"KLAX 191253Z VRB03KT 10SM FEW012 FEW020 SCT250 11/07 A3003 RMK AO2 SLP166 T01110067 $","updated":"2025-11-19T13:31:09Z"}
