{"icao":"LPCS","metar":"LPCS 051800Z 36014KT 9999 FEW018 09/03 Q1015","updated":"2026-01-05T18:31:04Z"}
