{"icao":"LPPS","metar":"LPPS 282300Z 28013KT 9999 SCT014 FEW018CB 21/19 Q1011","updated":"2025-10-28T23:16:51Z"}
