{"icao":"LPAZ","metar":"LPAZ 061900Z 20012KT 9999 FEW002 SCT007 23/22 Q1020","updated":"2025-10-06T19:13:57Z"}
