{"icao":"LPFR","metar":"LPFR 291600Z 24009KT 9999 FEW040 22/17 Q1014","updated":"2025-09-29T16:17:58Z"}
