{"icao":"LPPT","metar":"LPPT 021730Z 26005KT 230V290 9999 VCTS FEW016 FEW020CB SCT023 14/11 Q1007","updated":"2026-03-02T17:43:43Z"}
