{"icao":"LPPR","metar":"LPPR 070800Z 21007KT 190V270 9999 -RADZ BKN002 17/16 Q1012","updated":"2025-11-07T08:24:49Z"}
