{"icao":"LPBJ","metar":"LPBJ 142200Z 32009KT CAVOK 09/06 Q1029","updated":"2026-02-14T22:21:48Z"}
