{"icao":"LPLA","metar":"LPLA 231600Z 23008KT 190V260 9999 FEW023 25/18 Q1015","updated":"2025-10-23T16:22:46Z"}
