{"icao":"KLAX","metar":"KLAX 011853Z 32003KT 7SM FEW190 SCT280 18/10 A3006 RMK AO2 SLP180 T01830100 $","updated":"2025-12-01T19:20:36Z"}
