{"icao":"LPPR","metar":"LPPR 131500Z 32007KT CAVOK 23/13 Q1016","updated":"2025-10-13T15:18:18Z"}
