{"icao":"LPHR","metar":"LPHR 080800Z 17019KT 9000 SCT006 SCT011 BKN040 22/21 Q1022","updated":"2025-10-08T08:24:20Z"}
