{"icao":"LPPS","metar":"LPPS 231400Z 11011KT 080V140 9999 SCT015 20/13 Q1025","updated":"2025-11-23T14:15:42Z"}
