{"icao":"LPAR","metar":"LPAR 231400Z 33005KT 300V010 9999 SCT020 FEW022TCU SCT040 15/12 Q1010","updated":"2025-12-23T14:20:02Z"}
