{"icao":"LPPR","metar":"LPPR 252230Z 24004KT CAVOK 15/13 Q1017","updated":"2026-04-25T22:35:27Z"}
