{"icao":"LPPS","metar":"LPPS 050500Z 03005KT 340V070 9999 FEW015 BKN030 20/13 Q1024","updated":"2025-10-05T05:15:50Z"}
