{"icao":"KJFK","metar":"KJFK 012051Z 31020G30KT 10SM FEW060 FEW250 M03/M18 A2982 RMK AO2 PK WND 30032/2036 SLP097 T10331183 53018 $","updated":"2026-01-01T21:18:40Z"}
