{"icao":"LPMT","metar":"LPMT 240400Z 19006KT 150V240 9999 BKN015 13/11 Q1019","updated":"2026-02-24T04:50:25Z"}
