{"icao":"KLAX","metar":"KLAX 221053Z 11003KT 10SM FEW011 FEW030 BKN090 BKN150 16/14 A2999 RMK AO2 SLP154 T01560144","updated":"2025-10-22T11:16:28Z"}
