{"icao":"KLAX","metar":"KLAX 282053Z 27007KT 10SM FEW200 FEW290 24/14 A2991 RMK AO2 SLP127 T02440144 58005","updated":"2026-02-28T21:19:21Z"}
