{"icao":"LPFR","metar":"LPFR 150600Z 22014KT 9999 FEW012 BKN045 19/15 Q1010","updated":"2025-11-15T06:25:27Z"}
