{"icao":"LPBJ","metar":"LPBJ 291200Z 05007KT 010V090 9999 SCT035 23/15 Q1016","updated":"2025-09-29T12:37:43Z"}
