{"icao":"LPHR","metar":"LPHR 081200Z 29010KT 250V310 9999 FEW014 20/11 Q1020","updated":"2025-11-08T12:33:10Z"}
