{"icao":"LPCS","metar":"LPCS 012130Z 01012KT CAVOK 21/13 Q1020","updated":"2025-10-02T01:16:42Z"}
