{"icao":"LPFL","metar":"LPFL 031030Z 21011KT 170V290 9999 SCT011 17/14 Q1026","updated":"2026-03-03T10:37:33Z"}
