{"icao":"LPPT","metar":"LPPT 241000Z 08005KT 040V120 9999 FEW018 FEW020TCU 10/08 Q1010","updated":"2025-12-24T10:20:31Z"}
