{"icao":"KORD","metar":"KORD 131651Z 25004KT 10SM BKN250 09/M03 A3019 RMK AO2 SLP228 T00941028","updated":"2025-11-13T17:17:45Z"}
