{"icao":"LPMT","metar":"LPMT 221000Z VRB02KT CAVOK 26/10 Q1020","updated":"2026-05-22T10:48:51Z"}
