{"icao":"LPAZ","metar":"LPAZ 260830Z 13003KT 100V170 1500 0600S R18/1400U PRFG BKN002 15/15 Q1021","updated":"2026-04-26T08:59:11Z"}
