{"icao":"LPPD","metar":"LPPD 111230Z 36011KT 330V040 9999 FEW022 BKN045 15/05 Q1033","updated":"2026-04-11T12:55:32Z"}
