{"icao":"LPMA","metar":"LPMA 042000Z 32004KT 280V350 9999 BKN016 17/10 Q1026","updated":"2025-12-04T20:22:08Z"}
