{"icao":"LPBJ","metar":"LPBJ 012200Z 14018KT 9999 OVC009 13/12 Q1009","updated":"2026-01-01T22:18:47Z"}
