{"icao":"LPPT","metar":"LPPT 201800Z 24007KT 220V280 9999 FEW015 SCT032 12/10 Q1014","updated":"2025-12-20T18:24:29Z"}
