{"icao":"KJFK","metar":"KJFK 060651Z 31025G37KT 10SM FEW095 SCT130 12/00 A2977 RMK AO2 PK WND 31037/0620 SLP081 T01170000","updated":"2025-11-06T07:18:26Z"}
