{"icao":"LPCS","metar":"LPCS 130700Z 17010KT 9999 -RA VCTS FEW005 FEW015CB BKN020 17/17 Q0999","updated":"2025-11-13T07:18:09Z"}
