{"icao":"LPMR","metar":"LPMR 070600Z 14002KT 0800 FG OVC002 15/14 Q1021","updated":"2025-10-07T06:26:44Z"}
