{"icao":"KJFK","metar":"KJFK 150951Z 24008KT 10SM FEW047 BKN130 BKN200 05/02 A2936 RMK AO2 SLP941 T00500022 $","updated":"2026-01-15T10:23:38Z"}
