{"icao":"KJFK","metar":"KJFK 040851Z 23006KT 8SM BKN120 BKN250 10/09 A3011 RMK AO2 SLP194 T01000089 56003","updated":"2026-04-04T09:36:15Z"}
