{"icao":"LPMT","metar":"LPMT 070800Z 20012KT 6000 -SHRA FEW010 SCT015 BKN020 13/13 Q1004","updated":"2026-02-07T08:30:04Z"}
