{"icao":"LPPT","metar":"LPPT 181300Z 06005G18KT 360V130 CAVOK 17/10 Q1019","updated":"2025-11-18T13:30:56Z"}
