{"icao":"LPMA","metar":"LPMA 240830Z 32005KT 9999 FEW015 15/12 Q1019","updated":"2026-02-24T08:46:21Z"}
