{"icao":"LPPD","metar":"LPPD 162300Z 36007KT 330V040 9999 SCT009 SCT014 BKN035 14/13 Q1016","updated":"2026-03-16T23:30:43Z"}
