{"icao":"LPPD","metar":"LPPD 130900Z 32012KT 9999 FEW016 FEW018CB 13/10 Q1004","updated":"2025-11-13T09:20:27Z"}
