{"icao":"LPPS","metar":"LPPS 301900Z 02010KT 9999 SCT015 SCT030 21/15 Q1021","updated":"2025-09-30T19:14:03Z"}
