{"icao":"LPPT","metar":"LPPT 031230Z 32008KT 290V350 9999 FEW030 15/07 Q1024","updated":"2025-12-03T12:41:01Z"}
