{"icao":"KJFK","metar":"KJFK 041851Z 35011KT 10SM CLR M01/M12 A3020 RMK AO2 SLP226 T10061122 PNO $","updated":"2026-02-04T19:37:21Z"}
