{"icao":"KORD","metar":"KORD 061451Z 00000KT 10SM FEW150 SCT250 08/M02 A3023 RMK AO2 SLP240 T00831017 53000","updated":"2025-11-06T15:20:21Z"}
