{"icao":"LPPR","metar":"LPPR 180900Z 14005KT 080V180 CAVOK 21/13 Q1020","updated":"2025-09-18T09:18:26Z"}
