{"icao":"LPMA","metar":"LPMA 291600Z 35014KT 320V020 9999 SCT015 20/17 Q1016","updated":"2025-10-29T16:24:51Z"}
