{"icao":"LPBJ","metar":"LPBJ 101500Z 30003KT 260V350 9999 FEW025 SCT030 19/11 Q1018","updated":"2025-11-10T15:20:51Z"}
