{"icao":"KORD","metar":"KORD 051751Z 29015G21KT 10SM FEW032 08/M04 A3016 RMK AO2 SLP216 T00831039 10083 20028 51013 $","updated":"2026-04-05T18:42:02Z"}
