{"icao":"LPOV","metar":"LPOV 221600Z 20012KT 170V230 9000 FEW006 BKN016 20/19 Q1015","updated":"2025-10-22T16:24:11Z"}
