{"icao":"LPPD","metar":"LPPD 150100Z 33006KT 9999 FEW020 13/07 Q1011","updated":"2025-11-15T01:21:45Z"}
