{"icao":"KJFK","metar":"KJFK 101251Z 00000KT 6SM R04R/1200V1600FT BR FEW002 FEW250 06/06 A3005 RMK AO2 SLP177 VIS SE-SW 1 1/2 W 2 T00560056","updated":"2026-03-10T12:58:36Z"}
