{"icao":"KORD","metar":"KORD 270551Z 23013G24KT 10SM SCT110 M12/M18 A2998 RMK AO2 PK WND 21029/0520 SLP169 PRESENT WX DRSN 4/003 T11221183 11122 21150 411221178 56027","updated":"2026-01-27T06:34:19Z"}
