{"icao":"KORD","metar":"KORD 100926Z 22011KT 8SM SCT008 SCT250 16/14 A2975 RMK AO2 T01560144 $","updated":"2026-03-10T09:41:51Z"}
