{"icao":"KJFK","metar":"KJFK 302051Z 29015KT 10SM FEW055 FEW250 M08/M20 A3014 RMK AO2 SLP204 T10781200 55006 $","updated":"2026-01-30T21:27:16Z"}
