{"icao":"LPPT","metar":"LPPT 280700Z 13008G19KT 100V170 6000 FEW001 BKN004 18/17 Q1015","updated":"2025-10-28T07:17:28Z"}
