{"icao":"LPBJ","metar":"LPBJ 080900Z 29009KT 9999 FEW003 SCT005 14/13 Q1023","updated":"2025-10-08T09:19:09Z"}
