{"icao":"LPCS","metar":"LPCS 100900Z 02002KT 9999 FEW018 10/10 Q1030","updated":"2026-01-10T09:19:10Z"}
