{"icao":"LPPT","metar":"LPPT 290100Z 29002KT 9999 FEW030 11/10 Q1021","updated":"2025-11-29T01:22:20Z"}
