{"icao":"LPMT","metar":"LPMT 292000Z 23006KT 200V260 9999 SCT020 SCT028 15/12 Q1016","updated":"2025-11-29T20:19:51Z"}
