{"icao":"LPMA","metar":"LPMA 122000Z 34003KT 280V030 9999 SCT015 17/11 Q1023","updated":"2026-02-12T20:33:38Z"}
