{"icao":"LPPR","metar":"LPPR 052100Z 01007KT CAVOK 06/02 Q1018","updated":"2026-01-05T21:19:37Z"}
