{"icao":"LPFR","metar":"LPFR 282300Z 19010KT 9999 FEW008 SCT048 21/18 Q1010","updated":"2025-10-28T23:16:33Z"}
