{"icao":"LPLA","metar":"LPLA 221000Z 19015KT 150V210 9999 BKN014 SCT020CB BKN022 23/21 Q1012","updated":"2025-10-22T10:20:08Z"}
