{"icao":"LPPD","metar":"LPPD 271700Z 05006KT 4000 RA BR SCT003 BKN005 16/15 Q1022","updated":"2025-11-27T17:15:30Z"}
