{"icao":"LPFR","metar":"LPFR 211400Z 31008KT 270V340 9999 VCSH FEW015 FEW020TCU BKN025 12/08 Q1009","updated":"2025-12-21T14:17:10Z"}
