{"icao":"LPMA","metar":"LPMA 280730Z 01010KT 320V050 9999 SCT015 22/17 Q1023","updated":"2026-06-28T07:49:43Z"}
