{"icao":"LPMA","metar":"LPMA 020930Z 35031G44KT 9000 VCSH FEW008 SCT015 15/10 Q1015","updated":"2026-03-02T09:48:18Z"}
