{"icao":"LPMR","metar":"LPMR 141000Z VRB01KT 2000 BR SCT016 11/11 Q1020","updated":"2026-01-14T10:24:02Z"}
