{"icao":"KJFK","metar":"KJFK 111551Z 28021G31KT 10SM SCT042 BKN060 BKN120 BKN220 03/M07 A2974 RMK AO2 PK WND 25033/1541 SNB35E48 SLP069 VCSH E-SE AND NW-N P0000 T00331067 $","updated":"2025-11-11T16:24:11Z"}
