{"icao":"KJFK","metar":"KJFK 121751Z 26014KT 10SM SCT060 BKN075 08/M02 A2975 RMK AO2 SLP072 T00831017 10083 20044 58027 $","updated":"2025-11-12T18:26:28Z"}
