{"icao":"LPFR","metar":"LPFR 261800Z 24003KT 210V270 9999 TS FEW010 FEW020CB 22/19 Q1018","updated":"2025-10-26T18:23:35Z"}
