{"icao":"LPMR","metar":"LPMR 071300Z 29006KT 260V330 9999 SCT015 BKN025 20/14 Q1023","updated":"2025-10-07T14:18:15Z"}
