{"icao":"LPLA","metar":"LPLA 170700Z 20014KT 170V230 9999 -RA FEW015 SCT022 BKN030 22/19 Q1017","updated":"2025-09-17T07:16:28Z"}
