{"icao":"LPAZ","metar":"LPAZ 231500Z 21005KT 180V250 9999 FEW020 BKN030 19/13 Q1028","updated":"2025-11-23T15:16:37Z"}
