{"icao":"LPSJ","metar":"LPSJ 121200Z 14006KT 100V190 9999 FEW014 SCT030 21/18 Q1022","updated":"2026-06-12T12:17:33Z"}
