{"icao":"LPST","metar":"LPST 060800Z 27009KT 230V310 9999 -SHRA FEW008 BKN012 FEW015CB 10/09 Q1002","updated":"2026-02-06T08:39:39Z"}
