{"icao":"LPOV","metar":"LPOV 100700Z 16007KT 9999 FEW006 BKN016 14/13 Q1018","updated":"2025-11-10T07:18:17Z"}
