{"icao":"KJFK","metar":"KJFK 230351Z 26013KT 10SM BKN090 BKN160 BKN250 03/M07 A3042 RMK AO2 SLP300 T00281067 $","updated":"2025-12-23T04:36:26Z"}
