{"icao":"KLAX","metar":"KLAX 020853Z 14003KT 10SM FEW003 13/08 A3005 RMK AO2 SLP174 T01330083 55002 $","updated":"2025-12-02T09:25:19Z"}
