{"icao":"LPAZ","metar":"LPAZ 170230Z 32004KT CAVOK 13/10 Q1028","updated":"2026-05-17T02:56:08Z"}
