{"icao":"KORD","metar":"KORD 041125Z 03008KT 2SM BR OVC004 01/M01 A3019 RMK AO2 T00061006 $","updated":"2026-03-04T11:29:02Z"}
