{"icao":"LPLA","metar":"LPLA 080800Z 22020G31KT 190V250 9999 FEW015 SCT022 17/14 Q1029","updated":"2026-01-08T08:29:27Z"}
