{"icao":"LPAZ","metar":"LPAZ 202100Z 24013KT 9000 SCT003 BKN005 23/22 Q1018","updated":"2025-10-20T21:16:25Z"}
