{"icao":"LPFR","metar":"LPFR 010600Z 06010KT 9999 SCT005 BKN010 13/11 Q1013","updated":"2026-01-01T06:31:56Z"}
