{"icao":"LPPS","metar":"LPPS 022130Z 02012KT 350V050 9999 FEW015 BKN030 19/14 Q1026","updated":"2026-06-02T21:46:55Z"}
