{"icao":"LPPT","metar":"LPPT 152100Z 32008KT CAVOK 22/07 Q1016","updated":"2025-10-15T21:15:43Z"}
