{"icao":"KORD","metar":"KORD 081251Z 12007KT 10SM SCT013 SCT100 BKN160 M06/M09 A3033 RMK AO2 SLP281 T10611089 $","updated":"2026-02-08T13:43:05Z"}
