{"icao":"KORD","metar":"KORD 070151Z 36022G31KT 10SM FEW030 SCT047 M02/M08 A3012 RMK AO2 PK WND 36031/0151 SLP207 T10221078 $","updated":"2026-02-07T01:54:55Z"}
