{"icao":"KLAX","metar":"KLAX 040253Z 26008KT 10SM BKN009 17/14 A2990 RMK AO2 SLP125 T01670139 55001 $","updated":"2026-06-04T03:53:34Z"}
