{"icao":"KORD","metar":"KORD 051751Z 26009KT 10SM FEW090 FEW170 OVC250 13/M04 A2979 RMK AO2 SLP086 60002 T01281044 10139 20083 53004","updated":"2026-05-05T18:09:35Z"}
