{"icao":"KLAX","metar":"KLAX 061953Z 05004KT 10SM FEW010 FEW060 SCT120 BKN180 17/11 A3004 RMK AO2 SLP172 T01670111 $","updated":"2026-01-06T20:23:03Z"}
