{"icao":"LPMA","metar":"LPMA 161600Z 35008KT 260V040 9999 SCT015 18/10 Q1025","updated":"2026-01-16T16:27:44Z"}
