{"icao":"LPLA","metar":"LPLA 272200Z 19005KT 150V220 9999 FEW022 14/10 Q1034","updated":"2026-02-27T22:21:30Z"}
