{"icao":"LPPR","metar":"LPPR 271830Z 33011KT CAVOK 12/07 Q1025","updated":"2026-02-27T18:40:49Z"}
