{"icao":"LPPR","metar":"LPPR 030800Z 11007KT 060V160 9999 BKN045 15/09 Q1000","updated":"2026-01-03T08:25:25Z"}
