{"icao":"LPFR","metar":"LPFR 010900Z 22009KT 9999 FEW020 SCT049 22/17 Q1019","updated":"2025-11-01T09:16:49Z"}
