{"icao":"KORD","metar":"KORD 280551Z 31006KT 10SM CLR 21/11 A3001 RMK AO2 SLP155 T02060111 10272 20200 403060172 53017 $","updated":"2025-09-28T06:24:27Z"}
