{"icao":"LPFL","metar":"LPFL 081400Z 32016G34KT 280V360 9999 FEW016 SCT022 14/06 Q0998","updated":"2025-12-08T14:20:54Z"}
