{"icao":"LPBJ","metar":"LPBJ 121400Z 08003KT 050V120 9999 SCT038 26/11 Q1016","updated":"2025-10-12T14:14:13Z"}
