{"icao":"LPAZ","metar":"LPAZ 062200Z 20011KT 9999 SCT006 BKN017 23/22 Q1021","updated":"2025-10-06T22:15:47Z"}
