{"icao":"KORD","metar":"KORD 222151Z 20010G17KT 10SM BKN095 BKN250 08/02 A2998 RMK AO2 SLP157 T00830022","updated":"2025-11-22T22:17:07Z"}
