{"icao":"LPCS","metar":"LPCS 151400Z 26011KT 230V290 9999 FEW014 19/14 Q1006","updated":"2025-11-15T14:15:26Z"}
