{"icao":"KORD","metar":"KORD 212317Z 29009KT 4SM -SN BKN025 OVC032 M03/M07 A3014 RMK AO2 SNB08 P0000 T10281072 $","updated":"2026-02-21T23:22:25Z"}
