{"icao":"LPBJ","metar":"LPBJ 181900Z 34007KT 300V360 9999 FEW030 15/07 Q1018","updated":"2025-11-18T19:15:38Z"}
