{"icao":"LPLA","metar":"LPLA 060200Z 00000KT 9999 FEW035 14/12 Q1025","updated":"2026-06-06T02:58:43Z"}
