{"icao":"LPOV","metar":"LPOV 251800Z 36007KT CAVOK 21/07 Q1017","updated":"2025-09-25T18:26:14Z"}
