{"icao":"KORD","metar":"KORD 240751Z 17004KT 10SM SCT250 02/M02 A3014 RMK AO2 SLP210 T00221017","updated":"2025-11-24T08:27:51Z"}
