{"icao":"LPMR","metar":"LPMR 021400Z 29010KT 250V330 9999 SCT020 15/07 Q1017","updated":"2025-12-02T14:20:42Z"}
