{"icao":"LPPD","metar":"LPPD 050300Z 10005KT 040V140 9999 FEW014 21/18 Q1026","updated":"2025-10-05T03:06:07Z"}
