{"icao":"KJFK","metar":"KJFK 200251Z 28021G32KT 10SM FEW065 M01/M11 A3007 RMK AO2 PK WND 29032/0248 SLP182 T10111111 53016 $","updated":"2026-01-20T03:42:55Z"}
