{"icao":"LPPR","metar":"LPPR 041130Z 34009KT 300V020 9999 FEW015 SCT035 19/11 Q1019","updated":"2026-06-04T11:51:27Z"}
