{"icao":"LPPT","metar":"LPPT 260500Z 35009KT CAVOK 11/07 Q1024","updated":"2025-11-26T05:18:10Z"}
