{"icao":"KLAX","metar":"KLAX 111253Z 11003KT 10SM CLR 13/06 A3000 RMK AO2 SLP157 T01280061 $","updated":"2025-12-11T13:38:12Z"}
