{"icao":"LPAZ","metar":"LPAZ 140900Z 18007KT 9999 FEW018 20/18 Q1010","updated":"2025-10-14T09:20:04Z"}
