{"icao":"KLAX","metar":"KLAX 100253Z 24004KT 10SM CLR 14/04 A3035 RMK AO2 SLP277 T01390044 53010 $","updated":"2026-01-10T03:22:46Z"}
