{"icao":"LPFR","metar":"LPFR 282000Z 31013KT CAVOK 29/17 Q1018","updated":"2026-06-28T20:11:39Z"}
