{"icao":"LPHR","metar":"LPHR 272000Z 24005KT 9999 SCT018 16/12 Q1034","updated":"2026-02-27T20:26:39Z"}
