{"icao":"LPLA","metar":"LPLA 271500Z 36013KT 330V040 9999 FEW020 19/14 Q1018","updated":"2025-10-27T15:19:29Z"}
