{"icao":"LPLA","metar":"LPLA 251414Z 24024G38KT 9000 -RA SCT013 BKN022 18/15 Q1011","updated":"2026-01-25T14:18:02Z"}
