{"icao":"LPBJ","metar":"LPBJ 192000Z 11009KT 8000 -RA FEW006 BKN045 13/12 Q1007","updated":"2026-03-19T20:36:04Z"}
