{"icao":"LPAZ","metar":"LPAZ 080900Z 21025KT 8000 SCT009 BKN015 20/19 Q1001","updated":"2025-12-08T09:27:11Z"}
