{"icao":"KLAX","metar":"KLAX 191553Z 00000KT 10SM FEW006 SCT070 BKN140 BKN200 13/04 A3003 RMK AO2 SLP167 T01280044 $","updated":"2026-01-19T16:27:55Z"}
