{"icao":"LPMT","metar":"LPMT 060600Z 19004KT 160V220 9999 BKN030 11/10 Q1002","updated":"2026-02-06T06:53:29Z"}
