{"icao":"LPAZ","metar":"LPAZ 082300Z 17009KT 9999 FEW009 BKN020 22/21 Q1026","updated":"2025-10-08T23:15:32Z"}
