{"icao":"LPPR","metar":"LPPR 071230Z 30008KT 270V330 CAVOK 13/06 Q1019","updated":"2026-03-07T12:43:47Z"}
