{"icao":"LPHR","metar":"LPHR 121800Z 32010KT 290V350 9999 FEW016 SCT030 15/09 Q1020","updated":"2026-01-12T18:31:35Z"}
