{"icao":"LPFR","metar":"LPFR 141000Z 24008KT CAVOK 26/16 Q1020","updated":"2025-09-14T10:15:03Z"}
