{"icao":"LPFL","metar":"LPFL 271700Z 17014KT 6000 -DZ BKN010 FEW012TCU 16/14 Q1032","updated":"2026-02-27T17:34:00Z"}
