{"icao":"LPBJ","metar":"LPBJ 082300Z 23006KT 9999 OVC024 10/09 Q1031","updated":"2026-01-08T23:17:28Z"}
