{"icao":"KJFK","metar":"KJFK 111544Z 18012G17KT 10SM FEW009 SCT170 BKN250 12/08 A2993 RMK AO2 T01170083","updated":"2026-03-11T15:47:28Z"}
