{"icao":"LPPR","metar":"LPPR 071400Z 30005KT 260V010 9999 FEW020 12/08 Q1026","updated":"2026-01-07T14:22:35Z"}
