{"icao":"LPCS","metar":"LPCS 271200Z 17009KT 130V220 CAVOK 30/09 Q1019","updated":"2026-05-27T12:19:00Z"}
