{"icao":"KJFK","metar":"KJFK 181251Z 30015G21KT 10SM FEW070 FEW250 04/M07 A3016 RMK AO2 SLP211 T00391067 $","updated":"2025-11-18T13:31:33Z"}
