{"icao":"LPFR","metar":"LPFR 210100Z 01005KT CAVOK 12/06 Q1022","updated":"2025-11-21T01:23:07Z"}
