{"icao":"LPHR","metar":"LPHR 021300Z 24007KT 9999 FEW003 SCT007 23/22 Q1020","updated":"2025-10-02T13:25:28Z"}
