{"icao":"LPMR","metar":"LPMR 211100Z 36020KT 9999 FEW020 20/05 Q1022","updated":"2025-09-21T11:12:36Z"}
