{"icao":"LPPT","metar":"LPPT 151700Z 21016KT 1500 0900SW R20/1400U RADZ BR FEW003 BKN004 FEW020CB 13/13 Q1014","updated":"2026-01-15T17:30:45Z"}
