{"icao":"LPMA","metar":"LPMA 172100Z 30006KT 270V340 9999 SCT015 16/10 Q1018","updated":"2026-01-17T21:17:06Z"}
