{"icao":"KLAX","metar":"KLAX 072053Z 26008KT 10SM FEW018 FEW025 21/14 A2987 RMK AO2 SLP113 T02110144 58012 $","updated":"2025-10-07T21:14:49Z"}
