{"icao":"KLAX","metar":"KLAX 131653Z 10015G20KT 10SM FEW025 SCT030 BKN043 20/11 A2977 RMK AO2 SLP081 T02000111 $","updated":"2025-10-13T17:15:34Z"}
