{"icao":"LPPD","metar":"LPPD 242000Z 33013KT 300V360 9999 SCT022 14/08 Q1019","updated":"2026-02-24T20:33:51Z"}
