{"icao":"KJFK","metar":"KJFK 011111Z 25015KT 5SM -SN FEW028 OVC041 02/M03 A2956 RMK AO2 SNB10 VIS SW-NW 2 P0000 T00221033 $","updated":"2026-01-01T11:17:39Z"}
