{"icao":"KLAX","metar":"KLAX 232253Z 13009G20KT 10SM OVC017 16/13 A2995 RMK AO2 SLP141 T01560128 $","updated":"2025-12-23T23:18:13Z"}
