{"icao":"KORD","metar":"KORD 121651Z 28010G21KT 10SM FEW250 10/M03 A2993 RMK AO2 SLP138 T01001033","updated":"2025-11-12T17:17:55Z"}
