{"icao":"LPPT","metar":"LPPT 032100Z 24004KT CAVOK 15/10 Q1021","updated":"2025-11-03T21:16:34Z"}
