{"icao":"LPHR","metar":"LPHR 091730Z 35011KT 290V100 9999 FEW014 SCT030 16/09 Q1019","updated":"2026-05-09T17:50:18Z"}
