{"icao":"LPBJ","metar":"LPBJ 112100Z 32016KT CAVOK 11/07 Q1014","updated":"2026-04-11T21:31:01Z"}
