{"icao":"KJFK","metar":"KJFK 271551Z 27018G29KT 10SM FEW055 BKN230 07/M06 A2991 RMK AO2 PK WND 28029/1546 SLP128 T00721056","updated":"2025-11-27T16:23:37Z"}
