{"icao":"KORD","metar":"KORD 191551Z 09007KT 10SM SCT140 SCT250 28/15 A3002 RMK AO2 SLP160 T02830150","updated":"2025-09-19T16:20:43Z"}
