{"icao":"LPHR","metar":"LPHR 092000Z 28011KT 9999 SCT022 18/14 Q1024","updated":"2025-11-09T20:17:53Z"}
