{"icao":"KORD","metar":"KORD 111451Z 30011G18KT 10SM -SN OVC032 M03/M08 A3028 RMK AO2 SNB48 SLP261 P0000 60000 T10281078 53040 $","updated":"2026-01-11T15:19:09Z"}
