{"icao":"LPFL","metar":"LPFL 272100Z 19008KT 150V290 9999 VCSH FEW009 SCT012 FEW013TCU 18/15 Q1031","updated":"2026-02-28T03:53:29Z"}
