{"icao":"LPLA","metar":"LPLA 111600Z 02008KT 330V060 9999 SCT045 14/06 Q1033","updated":"2026-04-11T16:35:46Z"}
