{"icao":"LPOV","metar":"LPOV 211300Z 21009KT 170V240 2500 -DZRA BR BKN005 SCT018 BKN030 19/18 Q1012","updated":"2025-10-21T14:17:02Z"}
