{"icao":"LPPD","metar":"LPPD 200500Z 06010KT 030V100 9999 FEW016 SCT035 16/12 Q1026","updated":"2025-11-20T05:18:39Z"}
