{"icao":"LPPT","metar":"LPPT 151000Z 21007KT 5000 -RADZ SCT006 FEW020TCU SCT045 14/14 Q1007 RERA","updated":"2025-11-15T10:17:16Z"}
