{"icao":"KJFK","metar":"KJFK 190751Z 00000KT 10SM SCT250 11/10 A3002 RMK AO2 SLP167 T01110100 $","updated":"2025-10-19T08:21:00Z"}
