{"icao":"KORD","metar":"KORD 140051Z 24013G20KT 10SM FEW038 07/02 A2954 RMK AO2 SLP007 T00670017 $","updated":"2026-01-14T01:47:21Z"}
