{"icao":"LPPR","metar":"LPPR 260900Z 21013KT 3000 RADZ BR BKN003 14/14 Q1007","updated":"2026-01-26T09:32:56Z"}
