{"icao":"KORD","metar":"KORD 221451Z 16009KT 10SM BKN120 OVC250 03/M08 A3029 RMK AO2 SLP263 T00281083 58017","updated":"2025-12-22T15:21:21Z"}
