{"icao":"LPPT","metar":"LPPT 260130Z 33008KT CAVOK 12/11 Q1021","updated":"2026-02-26T01:58:36Z"}
