{"icao":"LPPI","metar":"LPPI 111800Z 08003KT 030V120 9999 VCSH FEW014 BKN025 19/16 Q1024","updated":"2026-06-11T18:10:19Z"}
