{"icao":"LPPS","metar":"LPPS 161900Z 06011KT 030V090 9999 FEW015 BKN030 16/11 Q1020","updated":"2026-04-16T19:10:59Z"}
