{"icao":"LPMT","metar":"LPMT 221700Z 27009KT CAVOK 18/11 Q1012","updated":"2026-04-22T18:03:00Z"}
