{"icao":"LPHR","metar":"LPHR 272200Z 26026G36KT 7000 -DZ SCT005 SCT009 BKN016 17/16 Q1004","updated":"2026-01-27T22:21:54Z"}
