{"icao":"LPPR","metar":"LPPR 150230Z 11003KT 9000 4200N VCFG NSC 14/13 Q1016","updated":"2025-10-15T03:03:23Z"}
