{"icao":"KORD","metar":"KORD 151851Z 25005KT 10SM CLR 13/02 A2988 RMK AO2 SLP120 T01330017","updated":"2026-02-15T19:24:05Z"}
