{"icao":"LPAZ","metar":"LPAZ 222200Z 09007KT 9999 FEW020 SCT031 14/13 Q1031","updated":"2025-11-22T22:17:03Z"}
