{"icao":"LPPT","metar":"LPPT 070900Z 33009KT 9999 FEW025 11/10 Q1024","updated":"2026-01-07T09:26:49Z"}
