{"icao":"LPPR","metar":"LPPR 052300Z 34009KT CAVOK 06/02 Q1019","updated":"2026-01-05T23:18:54Z"}
