{"icao":"LPBJ","metar":"LPBJ 110600Z 09007KT CAVOK 16/12 Q1020","updated":"2025-10-11T06:23:21Z"}
