{"icao":"LPLA","metar":"LPLA 311300Z 03002KT 340V100 9999 FEW012 SCT020 18/16 Q1015","updated":"2026-01-31T13:40:01Z"}
