{"icao":"LPPD","metar":"LPPD 121130Z 02013KT 340V050 9999 FEW025 17/10 Q1026","updated":"2026-05-12T11:54:25Z"}
