{"icao":"LPFR","metar":"LPFR 211900Z 08006KT 040V100 9999 FEW015 16/13 Q1008","updated":"2026-03-21T19:22:35Z"}
