{"icao":"LPAZ","metar":"LPAZ 070230Z 23011KT 9999 -RA FEW013 14/11 Q1015","updated":"2026-05-07T02:45:08Z"}
