{"icao":"LPFL","metar":"LPFL 241500Z 02005KT 350V050 9999 FEW016CB 22/18 Q1018","updated":"2025-10-24T15:19:09Z"}
