{"icao":"KJFK","metar":"KJFK 200351Z 02009KT 10SM CLR 22/09 A3010 RMK AO2 SLP191 T02170094 $","updated":"2025-09-20T04:19:46Z"}
