{"icao":"LPMA","metar":"LPMA 142100Z 30005KT 240V020 9999 FEW015 21/13 Q1014","updated":"2025-11-14T21:16:40Z"}
