{"icao":"KJFK","metar":"KJFK 292051Z 19020G30KT 10SM FEW130 FEW250 08/M01 A3043 RMK AO2 PK WND 18034/2038 SLP305 T00831006 56033 $","updated":"2026-03-29T21:30:31Z"}
