{"icao":"LPMA","metar":"LPMA 151130Z 02013KT 350V060 9999 SCT015 SCT030 17/09 Q1023","updated":"2026-05-15T11:55:12Z"}
