{"icao":"LPFL","metar":"LPFL 131300Z 18011KT 150V250 9999 SCT016 24/19 Q1024","updated":"2025-09-13T13:18:43Z"}
