{"icao":"KJFK","metar":"KJFK 241251Z 35013G24KT 10SM FEW050 BKN200 M12/M23 A3061 RMK AO2 SLP366 T11221228 $","updated":"2026-01-24T13:29:44Z"}
