{"icao":"LPHR","metar":"LPHR 121200Z 30015KT 270V340 9999 FEW014 BKN030 20/16 Q1018","updated":"2025-10-12T12:32:25Z"}
