{"icao":"LPOV","metar":"LPOV 261600Z 19020KT 6000 BKN009 BKN014 15/14 Q1006","updated":"2026-01-26T16:32:49Z"}
