{"icao":"LPMR","metar":"LPMR 062300Z 26006KT 190V250 9999 FEW015 OVC042 16/13 Q1023","updated":"2025-12-06T23:16:50Z"}
