{"icao":"LPMR","metar":"LPMR 010500Z 33008KT 9999 SCT007 BKN012 17/16 Q1019","updated":"2026-06-01T06:01:02Z"}
