{"icao":"LPST","metar":"LPST 210700Z VRB01KT CAVOK 16/15 Q1020","updated":"2026-05-21T07:50:11Z"}
