{"icao":"LPFR","metar":"LPFR 131230Z 27021KT 9999 FEW015 FEW018TCU 14/09 Q1010","updated":"2026-02-13T12:56:56Z"}
