{"icao":"KORD","metar":"KORD 042251Z 14010KT 10SM FEW250 15/M02 A3001 RMK AO2 SLP163 T01501017 $","updated":"2025-11-04T23:17:26Z"}
