{"icao":"LPPD","metar":"LPPD 182130Z 22010KT 0100 R30/0550D -DZ FG VV001 17/16 Q1021","updated":"2026-05-18T22:07:10Z"}
