{"icao":"KJFK","metar":"KJFK 111251Z 17005KT 10SM FEW065 FEW120 SCT250 10/07 A2996 RMK AO2 SLP145 T01000067","updated":"2026-03-11T12:57:35Z"}
