{"icao":"LPMT","metar":"LPMT 271300Z 25011KT 220V280 9999 FEW030 26/17 Q1020","updated":"2026-06-27T13:39:15Z"}
