{"icao":"LPOV","metar":"LPOV 230900Z 21003KT 140V270 9999 FEW045 16/12 Q1014","updated":"2026-04-23T09:26:18Z"}
