{"icao":"LPCS","metar":"LPCS 271400Z 16012KT 2000 -RADZ BR FEW002 SCT006 BKN010 17/17 Q1016 RERA","updated":"2025-09-27T14:14:16Z"}
