{"icao":"LPLA","metar":"LPLA 080500Z 33021KT 9000 -SHRA SCT016 BKN020 14/12 Q1011","updated":"2026-05-08T05:29:09Z"}
