{"icao":"KJFK","metar":"KJFK 131251Z 33007KT 10SM FEW250 M05/M11 A3017 RMK AO2 SLP216 T10501111 $","updated":"2026-02-13T12:57:33Z"}
