{"icao":"LPBJ","metar":"LPBJ 080500Z 29007KT CAVOK 13/12 Q1022","updated":"2025-10-08T05:17:21Z"}
