{"icao":"LPFL","metar":"LPFL 231230Z 17014KT 140V200 9999 FEW020TCU 21/16 Q1013","updated":"2025-10-23T12:38:55Z"}
