{"icao":"LPPD","metar":"LPPD 030900Z 11003KT 070V150 9999 FEW007 SCT012 BKN035 22/21 Q1023","updated":"2025-10-03T09:17:34Z"}
