{"icao":"LPPT","metar":"LPPT 031000Z 11008KT 070V150 2000 RADZ BKN002 13/13 Q0998","updated":"2026-01-03T10:19:28Z"}
