{"icao":"LPMT","metar":"LPMT 181900Z 34008KT CAVOK 26/14 Q1013","updated":"2026-06-18T19:26:54Z"}
