{"icao":"LPOV","metar":"LPOV 201300Z 22008KT 180V260 9999 FEW009 SCT015 BKN030 20/17 Q1014","updated":"2025-10-20T13:28:10Z"}
