{"icao":"KORD","metar":"KORD 172351Z 19018G30KT 10SM SCT055 SCT160 BKN250 28/16 A2981 RMK AO2 PK WND 18030/2347 SLP090 T02830156 10306 20278 53004","updated":"2026-05-18T00:04:26Z"}
