{"icao":"LPLA","metar":"LPLA 270300Z 15009KT 120V190 8000 -RA SCT015 BKN035 18/16 Q1020","updated":"2025-11-27T03:10:04Z"}
