{"icao":"LPST","metar":"LPST 280800Z 13011KT 6000 BKN008 BKN012 19/17 Q1014","updated":"2025-10-28T08:24:52Z"}
