{"icao":"KJFK","metar":"KJFK 012151Z 36007KT 10SM FEW065 BKN250 04/M10 A3031 RMK AO2 SLP263 T00441100 $","updated":"2025-12-01T22:17:10Z"}
