{"icao":"LPMR","metar":"LPMR 290900Z VRB03KT CAVOK 18/13 Q1018","updated":"2025-09-29T09:20:36Z"}
