{"icao":"LPMT","metar":"LPMT 100400Z 31004KT 9999 FEW040 09/09 Q1029","updated":"2026-01-10T04:32:38Z"}
