{"icao":"LPMT","metar":"LPMT 141100Z 33011KT 290V350 9999 FEW030 SCT040 14/06 Q1027","updated":"2026-02-14T11:21:01Z"}
