{"icao":"LPPD","metar":"LPPD 271600Z 03020G31KT 8000 SCT014 BKN030 18/15 Q1013","updated":"2025-10-27T16:24:02Z"}
