{"icao":"LPST","metar":"LPST 051200Z 32009KT 290V360 9999 SCT018 BKN030 13/09 Q1018","updated":"2026-03-05T12:57:44Z"}
