{"icao":"LPPT","metar":"LPPT 091100Z 18021KT 3500 RADZ BR SCT004 BKN006 16/16 Q1016","updated":"2025-12-09T11:18:13Z"}
