{"icao":"KLAX","metar":"KLAX 192253Z 26008KT 1SM R25L/P6000FT BR BCFG FEW000 SCT002 BKN280 16/14 A2998 RMK AO2 SLP152 VIS NE-SE 2 1/2 SW-NW 3/4 FG FEW000 SCT V BKN T01610144","updated":"2025-12-19T23:18:39Z"}
