{"icao":"LPCS","metar":"LPCS 061100Z 24005KT 210V270 9999 FEW014 BKN030 17/16 Q1025","updated":"2025-12-06T11:14:15Z"}
