{"icao":"LPOV","metar":"LPOV 111800Z 35011KT CAVOK 20/13 Q1018","updated":"2025-10-11T18:20:36Z"}
