{"icao":"LPFR","metar":"LPFR 121830Z 27009KT 9999 FEW025 16/11 Q1023","updated":"2026-03-12T18:52:23Z"}
