{"icao":"LPPR","metar":"LPPR 301600Z 30005KT 260V330 9999 FEW025 12/09 Q1021","updated":"2025-12-30T16:25:59Z"}
