{"icao":"LPMA","metar":"LPMA 231430Z 01016G29KT 300V050 9999 FEW013 24/16 Q1021","updated":"2026-05-23T14:59:40Z"}
