{"icao":"LPFR","metar":"LPFR 071230Z 24033G45KT 3000 R28/1200N RA BR FEW008 SCT015 SCT020CB BKN025 13/13 Q1009","updated":"2026-02-07T12:45:36Z"}
