{"icao":"KLAX","metar":"KLAX 261423Z 32008G18KT 10SM FEW012 BKN024 BKN042 14/08 A2992 RMK AO2 T01390083 $","updated":"2026-04-26T14:41:16Z"}
