{"icao":"LPOV","metar":"LPOV 121200Z 26009KT CAVOK 32/12 Q1019","updated":"2026-06-12T12:17:18Z"}
