{"icao":"LPAZ","metar":"LPAZ 242130Z 04009KT 010V080 9999 FEW022 BKN028 14/09 Q1028","updated":"2026-03-24T21:36:39Z"}
