{"icao":"LPLA","metar":"LPLA 041109Z 34023KT 4000 -RADZ BR BKN007 OVC014 14/13 Q1026","updated":"2026-03-04T11:28:59Z"}
