{"icao":"LPFR","metar":"LPFR 211230Z 10013KT CAVOK 18/08 Q1028","updated":"2026-02-21T12:44:01Z"}
