{"icao":"KLAX","metar":"KLAX 182253Z 25011KT 10SM SCT250 22/14 A2991 RMK AO2 SLP128 T02170139 $","updated":"2026-04-18T23:33:48Z"}
