{"icao":"KJFK","metar":"KJFK 151951Z 32012KT 10SM BKN049 BKN060 18/07 A2990 RMK AO2 SLP123 T01830072","updated":"2026-05-15T20:16:04Z"}
