{"icao":"LPMA","metar":"LPMA 140500Z 36010KT 330V050 9999 BKN015 16/07 Q1023","updated":"2026-01-14T05:23:31Z"}
