{"icao":"KLAX","metar":"KLAX 280453Z 12004KT 10SM SCT250 17/10 A3004 RMK AO2 SLP170 T01720100 $","updated":"2025-11-28T05:19:33Z"}
