{"icao":"LPPS","metar":"LPPS 240900Z VRB02KT 9999 SCT015 18/14 Q1026","updated":"2025-11-24T09:23:05Z"}
