{"icao":"LPFR","metar":"LPFR 211900Z 34011KT CAVOK 24/03 Q1017","updated":"2025-09-21T19:12:27Z"}
