{"icao":"LPPR","metar":"LPPR 162100Z VRB02KT 8000 VCSH FEW020CB SCT025 07/07 Q1014","updated":"2026-01-16T21:19:38Z"}
