{"icao":"LPOV","metar":"LPOV 292300Z 22010KT 190V250 9999 FEW030 14/11 Q1012","updated":"2026-01-29T23:25:10Z"}
