{"icao":"LPOV","metar":"LPOV 031500Z 33010KT 300V360 9999 3000N FEW001 SCT006 18/15 Q1023","updated":"2025-10-03T15:17:03Z"}
