{"icao":"LPOV","metar":"LPOV 182000Z 19002KT 150V220 CAVOK 18/14 Q1016","updated":"2025-10-18T20:17:37Z"}
