{"icao":"LPAZ","metar":"LPAZ 210500Z 23013KT 9999 SCT005 BKN011 23/22 Q1016","updated":"2025-10-21T05:17:36Z"}
