{"icao":"LPFL","metar":"LPFL 041300Z 33017G29KT 280V360 9999 FEW021 16/06 Q1009","updated":"2025-11-04T13:32:34Z"}
