{"icao":"LPPR","metar":"LPPR 110730Z 19016KT 3000 R17/1200U -RADZ BR BKN002 14/14 Q1010","updated":"2026-02-11T07:58:30Z"}
