{"icao":"LPPT","metar":"LPPT 110500Z 33007KT CAVOK 20/10 Q1017","updated":"2026-06-11T05:26:32Z"}
