{"icao":"LPCS","metar":"LPCS 241300Z 21008KT 190V260 9999 FEW030 19/12 Q1020","updated":"2026-03-24T13:09:23Z"}
