{"icao":"LPOV","metar":"LPOV 312100Z 17010KT 7000 -RA SCT020 18/17 Q1011","updated":"2025-10-31T21:15:03Z"}
