{"icao":"LPFR","metar":"LPFR 271800Z 20005KT 9999 FEW014 FEW020CB BKN025 13/11 Q1005","updated":"2025-12-27T18:26:46Z"}
