{"icao":"LPPT","metar":"LPPT 120130Z 20009KT 3000 -DZ BR FEW002 BKN006 12/12 Q1023","updated":"2026-01-12T01:45:36Z"}
