{"icao":"LPPT","metar":"LPPT 050400Z 27011KT 6000 -DZRA FEW006 SCT008 BKN012 16/16 Q1020","updated":"2025-12-05T04:28:35Z"}
