{"icao":"LPPD","metar":"LPPD 181000Z 33010KT 9999 FEW014 BKN025 15/12 Q1029","updated":"2026-01-18T10:19:56Z"}
