{"icao":"LPFR","metar":"LPFR 282300Z 34006KT CAVOK 11/07 Q1021","updated":"2025-11-28T23:16:42Z"}
