{"icao":"LPST","metar":"LPST 130800Z 34008KT 9999 BKN013 11/09 Q1024","updated":"2026-03-13T08:38:05Z"}
