{"icao":"LPPD","metar":"LPPD 130600Z 31012KT 9999 SCT020 FEW022CB 14/10 Q1003","updated":"2025-11-13T06:29:01Z"}
