{"icao":"LPPR","metar":"LPPR 241500Z 30006KT 270V340 CAVOK 23/08 Q1018","updated":"2025-09-24T15:18:17Z"}
