{"icao":"LPAZ","metar":"LPAZ 230900Z 21012KT 9999 FEW020 BKN026 22/18 Q1022","updated":"2025-09-23T09:18:58Z"}
