{"icao":"KLAX","metar":"KLAX 221053Z 00000KT 10SM FEW035 FEW120 13/08 A2995 RMK AO2 SLP140 T01280083 $","updated":"2025-11-22T11:13:21Z"}
