{"icao":"LPLA","metar":"LPLA 281501Z 20034G49KT 9999 FEW014 20/15 Q1015","updated":"2026-05-28T15:50:18Z"}
