{"icao":"LPCS","metar":"LPCS 311400Z 26007KT 210V300 9999 FEW020 15/09 Q1020","updated":"2026-01-31T14:22:34Z"}
