{"icao":"LPPR","metar":"LPPR 022300Z VRB02KT 4500 BR VCFG SCT003 BKN005 15/15 Q1023","updated":"2025-10-02T23:15:22Z"}
