{"icao":"LPBJ","metar":"LPBJ 050700Z 26009KT 6000 -DZ OVC004 15/14 Q1021","updated":"2025-12-05T07:19:54Z"}
