{"icao":"LPCS","metar":"LPCS 270800Z 26011KT 9999 VCSH FEW009 SCT014 BKN040 12/12 Q1001","updated":"2026-01-27T08:31:57Z"}
