{"icao":"LPPS","metar":"LPPS 181300Z 25009KT 9999 SCT004 SCT008 23/21 Q1016","updated":"2025-10-18T13:21:41Z"}
