{"icao":"KORD","metar":"KORD 282251Z 21012G20KT 10SM BKN120 BKN250 09/M06 A3037 RMK AO2 SLP289 T00891061","updated":"2026-03-28T23:29:59Z"}
