{"icao":"LPPS","metar":"LPPS 041230Z 22020KT 9999 FEW015 25/19 Q1014","updated":"2025-11-04T12:41:22Z"}
