{"icao":"LPMT","metar":"LPMT 252300Z 34008KT 9999 FEW015 14/12 Q1020","updated":"2026-02-25T23:27:02Z"}
