{"icao":"LPPT","metar":"LPPT 032200Z 32008KT CAVOK 19/05 Q1023","updated":"2026-04-03T22:31:53Z"}
