{"icao":"KORD","metar":"KORD 120751Z 36003KT 10SM FEW027 BKN095 M05/M09 A3005 RMK AO2 SLP186 T10501094","updated":"2025-12-12T08:28:26Z"}
