{"icao":"LPFR","metar":"LPFR 020530Z 04005KT 010V090 CAVOK 16/10 Q1017","updated":"2026-05-02T05:35:28Z"}
