{"icao":"LPOV","metar":"LPOV 241900Z 17007KT 9999 FEW012 BKN027 14/12 Q1014","updated":"2026-02-24T19:51:46Z"}
