{"icao":"LPBJ","metar":"LPBJ 062000Z 31012KT CAVOK 24/14 Q1018","updated":"2026-06-06T21:02:38Z"}
