{"icao":"KORD","metar":"KORD 071016Z 21008KT 10SM SCT018 BKN042 OVC050 09/07 A2953 RMK AO2 T00890072 $","updated":"2025-11-07T10:20:34Z"}
