{"icao":"LPPD","metar":"LPPD 011100Z 04008KT 360V070 9999 FEW025 BKN045 17/08 Q1021","updated":"2025-11-01T11:13:11Z"}
