{"icao":"LPHR","metar":"LPHR 121000Z 31018G30KT 9999 VCSH SCT018 SCT035 14/08 Q1015","updated":"2026-01-12T10:24:22Z"}
