{"icao":"LPPS","metar":"LPPS 171130Z 36009KT 320V040 9999 FEW015 22/16 Q1022","updated":"2026-06-17T11:45:52Z"}
