{"icao":"KLAX","metar":"KLAX 200853Z 23005KT 9SM BKN008 20/18 A2994 RMK AO2 SLP136 T02000183 50004","updated":"2025-09-20T09:16:22Z"}
