{"icao":"LPFL","metar":"LPFL 171430Z 02006KT 350V050 9999 FEW030 16/06 Q1020","updated":"2026-04-17T14:53:58Z"}
