{"icao":"LPPS","metar":"LPPS 170800Z 34020KT 9999 SCT015 15/09 Q1022","updated":"2026-01-17T08:25:41Z"}
