{"icao":"LPMA","metar":"LPMA 111000Z 01010KT 280V070 9999 SCT015 16/12 Q1023","updated":"2026-04-11T10:32:44Z"}
