{"icao":"KLAX","metar":"KLAX 141953Z 23007KT 190V260 10SM FEW020 23/17 A2988 RMK AO2 SLP117 T02330167 $","updated":"2025-09-14T20:16:52Z"}
