{"icao":"LPMT","metar":"LPMT 121800Z 34010KT CAVOK 30/16 Q1015","updated":"2026-06-12T19:03:27Z"}
