{"icao":"KJFK","metar":"KJFK 020951Z 20007KT 9SM FEW060 SCT250 24/22 A2998 RMK SLP151 T02440228 ","updated":"2026-07-02T10:37:38Z"}
