{"icao":"LPMT","metar":"LPMT 220400Z 30006KT 260V330 9999 SCT020 12/08 Q1009","updated":"2026-01-22T04:46:55Z"}
