{"icao":"LPST","metar":"LPST 311200Z 20017KT 9999 SCT009 BKN012 20/17 Q1013","updated":"2025-10-31T12:37:48Z"}
