{"icao":"LPMT","metar":"LPMT 170900Z 04004KT 360V070 CAVOK 17/13 Q1015","updated":"2025-10-17T09:19:36Z"}
