{"icao":"LPPD","metar":"LPPD 130500Z 32013G25KT 280V350 9999 FEW030 SCT037 14/09 Q1003","updated":"2025-11-13T05:18:52Z"}
