{"icao":"KORD","metar":"KORD 200851Z 21007KT 10SM FEW150 SCT250 07/03 A2983 RMK AO2 SLP101 T00720033 56033 $","updated":"2026-03-20T09:39:30Z"}
