{"icao":"LPFL","metar":"LPFL 160900Z 20019G30KT 160V240 9999 FEW017 SCT030 18/13 Q1020","updated":"2025-12-16T09:25:14Z"}
