{"icao":"KLAX","metar":"KLAX 272053Z 26007KT 10SM FEW160 SCT180 SCT250 26/12 A2994 RMK AO2 SLP138 T02610117 58016","updated":"2026-02-27T21:27:59Z"}
