{"icao":"LPAZ","metar":"LPAZ 271230Z 04011KT 010V070 9999 FEW017 BKN022 15/10 Q1029","updated":"2026-03-27T13:04:14Z"}
