{"icao":"LPMR","metar":"LPMR 230000Z 26006KT CAVOK 20/11 Q1020","updated":"2026-05-23T00:05:20Z"}
