{"icao":"LPFR","metar":"LPFR 151500Z 11008KT CAVOK 24/18 Q1015","updated":"2025-10-15T15:17:33Z"}
