{"icao":"LPOV","metar":"LPOV 031000Z 15013KT 7000 -SHRA SCT018 FEW020CB SCT030 10/09 Q0999","updated":"2026-02-03T10:38:23Z"}
