{"icao":"LPFL","metar":"LPFL 111430Z 14007KT 090V180 9999 FEW034 15/06 Q1033","updated":"2026-04-11T14:36:01Z"}
