{"icao":"KORD","metar":"KORD 211451Z 21006KT 10SM FEW046 SCT065 BKN120 BKN250 22/18 A2996 RMK AO2 SLP141 T02170183 58001 $","updated":"2025-09-21T15:15:04Z"}
