{"icao":"KJFK","metar":"KJFK 240551Z 23004KT 10SM FEW049 SCT060 BKN085 BKN250 22/19 A2999 RMK AO2 RAB25E29 SLP155 P0000 60000 T02220194 10222 20217 58003 $","updated":"2025-09-24T06:26:55Z"}
