{"icao":"KORD","metar":"KORD 281451Z 35010KT 10SM FEW085 BKN100 BKN200 OVC250 01/M12 A3013 RMK AO2 SLP205 T00111117 53032 $","updated":"2026-02-28T15:20:45Z"}
