{"icao":"KLAX","metar":"KLAX 061953Z 20003KT 10SM CLR 21/03 A3004 RMK AO2 SLP171 T02060028 $","updated":"2025-12-06T20:19:38Z"}
