{"icao":"LPHR","metar":"LPHR 271400Z 04021G31KT 010V070 9999 VCSH SCT014 FEW018TCU SCT035 19/13 Q1018","updated":"2025-10-27T14:19:06Z"}
