{"icao":"KJFK","metar":"KJFK 011951Z 20008KT 10SM FEW060 SCT070 BKN100 BKN250 21/12 A3004 RMK AO2 SLP173 T02060117","updated":"2026-04-01T20:00:03Z"}
