{"icao":"LPOV","metar":"LPOV 261200Z 24005KT 200V290 9999 FEW025 20/15 Q1020","updated":"2025-10-26T12:33:26Z"}
