{"icao":"LPBJ","metar":"LPBJ 041400Z 30016KT 280V340 CAVOK 25/10 Q1016","updated":"2026-06-04T14:56:44Z"}
