{"icao":"LPBJ","metar":"LPBJ 090500Z 28005KT 7000 VCFG SCT002 BKN035 08/08 Q1022","updated":"2026-03-09T05:56:23Z"}
