{"icao":"LPLA","metar":"LPLA 222200Z 21014KT 9999 FEW018 22/19 Q1012","updated":"2025-10-22T22:14:29Z"}
