{"icao":"KORD","metar":"KORD 100956Z 34018G27KT 1 1/2SM -SN BLSN BR BKN019 BKN032 OVC050 M03/M06 A3016 RMK AO2 P0000 T10331061 $","updated":"2025-11-10T10:21:46Z"}
