{"icao":"LPLA","metar":"LPLA 150700Z 06005KT 6000 -SHRA SCT012 BKN020 21/20 Q1026","updated":"2025-09-15T07:17:47Z"}
