{"icao":"LPMA","metar":"LPMA 250700Z 36008KT 330V030 9999 BKN014 17/10 Q1018","updated":"2026-04-25T07:13:43Z"}
