{"icao":"LPAZ","metar":"LPAZ 041100Z 28019KT 9000 VCSH FEW008 FEW024TCU SCT042 18/16 Q1008","updated":"2025-11-04T11:16:46Z"}
