{"icao":"LPMT","metar":"LPMT 041800Z 26006KT 230V310 CAVOK 21/10 Q1020","updated":"2026-04-04T18:40:13Z"}
