{"icao":"LPHR","metar":"LPHR 071130Z 31011KT 270V010 9999 FEW030 BKN035 15/07 Q1032","updated":"2026-04-07T11:52:47Z"}
