{"icao":"LPMR","metar":"LPMR 181600Z 30011KT 290V100 9999 FEW028 17/09 Q1021","updated":"2026-05-18T16:20:51Z"}
