{"icao":"KORD","metar":"KORD 261258Z 09007KT 3SM BR OVC004 09/08 A3007 RMK AO2 T00890078","updated":"2026-04-26T13:04:36Z"}
