{"icao":"LPBJ","metar":"LPBJ 311600Z 31009KT 270V330 CAVOK 33/10 Q1017","updated":"2026-05-31T16:06:17Z"}
