{"icao":"LPPS","metar":"LPPS 311230Z 28006KT 240V310 9999 FEW014 19/13 Q1025","updated":"2026-01-31T12:44:37Z"}
