{"icao":"LPPR","metar":"LPPR 180700Z 11009KT 070V130 CAVOK 18/12 Q1016","updated":"2025-10-18T07:15:41Z"}
