{"icao":"LPLA","metar":"LPLA 161800Z 22012KT 190V260 9999 FEW023 24/18 Q1020","updated":"2025-09-16T18:25:20Z"}
