{"icao":"LPMT","metar":"LPMT 142100Z 34011G21KT 320V030 9999 SCT015 BKN020 15/12 Q1017","updated":"2026-03-14T21:25:25Z"}
