{"icao":"LPBJ","metar":"LPBJ 222300Z 20003KT CAVOK 06/02 Q1029","updated":"2025-11-22T23:16:46Z"}
