{"icao":"LPBJ","metar":"LPBJ 222200Z 23015KT 6000 -DZRA BKN008 BKN015 14/13 Q1004","updated":"2026-01-22T22:21:25Z"}
