{"icao":"LPMA","metar":"LPMA 300130Z 26005KT 9999 FEW015 17/14 Q1023","updated":"2026-01-30T01:56:31Z"}
