{"icao":"KLAX","metar":"KLAX 250453Z 24013KT 10SM CLR 16/11 A2997 RMK AO2 SLP148 T01610111 $","updated":"2026-05-25T05:18:31Z"}
