{"icao":"LPFL","metar":"LPFL 221300Z 18011KT 160V220 9999 SCT016 BKN030 18/14 Q1021","updated":"2025-12-22T13:33:15Z"}
