{"icao":"LPFR","metar":"LPFR 072100Z 33010KT CAVOK 21/15 Q1021","updated":"2025-10-07T21:14:44Z"}
