{"icao":"LPFR","metar":"LPFR 270700Z 25021KT 6000 -RA SCT004 SCT015 FEW020CB 15/15 Q1004 RERA","updated":"2026-01-27T07:26:25Z"}
