{"icao":"LPAR","metar":"LPAR 261300Z VRB02KT CAVOK 33/12 Q1021","updated":"2026-05-27T03:39:24Z"}
