{"icao":"KORD","metar":"KORD 181951Z 24012G20KT 9SM -RA FEW012 BKN049 OVC070 09/07 A2931 RMK AO2 PK WND 16037/1852 SLP926 P0009 T00890067","updated":"2025-12-18T20:19:39Z"}
