{"icao":"LPPT","metar":"LPPT 271230Z 07006KT 340V130 9999 FEW035 21/13 Q1020","updated":"2025-10-27T12:39:13Z"}
