{"icao":"LPOV","metar":"LPOV 241100Z 27008KT 230V290 9999 SCT009 BKN015 19/17 Q1021","updated":"2026-05-24T11:15:05Z"}
