{"icao":"LPCS","metar":"LPCS 010830Z 04011G21KT 360V090 CAVOK 17/03 Q1023","updated":"2026-04-01T09:02:15Z"}
