{"icao":"LPOV","metar":"LPOV 111600Z 16013KT 130V190 9999 BKN025 19/13 Q1007","updated":"2025-11-11T16:23:35Z"}
