{"icao":"LPMA","metar":"LPMA 041500Z 03010KT 350V070 9999 SCT015 24/16 Q1026","updated":"2025-10-04T15:14:26Z"}
