{"icao":"LPFL","metar":"LPFL 181600Z 33007KT 290V010 9999 SCT026 15/06 Q1028","updated":"2025-12-18T16:28:45Z"}
