{"icao":"LPFL","metar":"LPFL 040900Z 00000KT 9999 FEW012 SCT017 14/11 Q1023","updated":"2026-01-04T09:18:34Z"}
