{"icao":"LPLA","metar":"LPLA 122000Z 32029KT 9999 SCT025 15/08 Q1003","updated":"2025-11-12T20:21:08Z"}
