{"icao":"LPPS","metar":"LPPS 260800Z VRB03KT 9999 FEW012 22/21 Q1015","updated":"2025-10-26T08:21:05Z"}
