{"icao":"LPPT","metar":"LPPT 151330Z 11003KT 060V210 5000 RA FEW004 SCT010 FEW018CB 12/11 Q1010","updated":"2025-12-15T13:39:32Z"}
