{"icao":"LPPR","metar":"LPPR 181230Z 24009KT 200V270 9000 SCT004 FEW020CB BKN025 13/12 Q1016 RESHRA","updated":"2026-02-18T13:01:40Z"}
