{"icao":"KORD","metar":"KORD 012151Z 08013G17KT 10SM FEW030 FEW120 SCT180 BKN250 M01/M15 A3046 RMK AO2 SLP322 T10111150 $","updated":"2026-03-01T22:22:27Z"}
