{"icao":"LPST","metar":"LPST 111500Z 32009KT 290V360 9999 FEW025 18/11 Q1025","updated":"2026-03-11T15:47:10Z"}
