{"icao":"KLAX","metar":"KLAX 231553Z 11004KT 4SM BR FEW008 SCT013 BKN085 13/12 A2993 RMK AO2 SLP132 T01330122 $","updated":"2026-01-23T16:28:43Z"}
