{"icao":"LPMA","metar":"LPMA 141700Z 02019KT 9999 FEW016 25/18 Q1022","updated":"2025-09-14T17:12:43Z"}
