{"icao":"KORD","metar":"KORD 250951Z 14003KT 10SM SCT250 03/00 A3033 RMK AO2 SLP275 T00280000 $","updated":"2025-10-25T10:17:01Z"}
