{"icao":"LPLA","metar":"LPLA 190400Z 33008KT 9999 BKN030 14/07 Q1032","updated":"2026-01-19T04:50:43Z"}
