{"icao":"LPMA","metar":"LPMA 241000Z 01011KT 330V050 9999 FEW016 20/14 Q1026","updated":"2025-11-24T10:21:58Z"}
