{"icao":"LPBJ","metar":"LPBJ 131300Z 05010KT CAVOK 16/10 Q1019","updated":"2025-12-13T13:25:56Z"}
