{"icao":"LPPT","metar":"LPPT 032200Z 26017G27KT 3500 -RA SCT002 BKN004 15/15 Q0994","updated":"2026-02-03T22:28:24Z"}
