{"icao":"LPCS","metar":"LPCS 011030Z 05011KT 020V090 CAVOK 20/02 Q1024","updated":"2026-04-01T10:54:23Z"}
