{"icao":"LPMA","metar":"LPMA 051230Z 01019G33KT 340V050 9999 FEW018 17/07 Q1020","updated":"2026-01-05T12:44:02Z"}
