{"icao":"LPAR","metar":"LPAR 201400Z 31007KT 280V350 9999 SCT030 25/14 Q1014","updated":"2025-10-20T14:17:41Z"}
