{"icao":"KLAX","metar":"KLAX 151410Z 21011G23KT 8SM -RA FEW006 SCT013 OVC037 18/16 A2980 RMK AO2 RAB04 P0000 T01780156 $","updated":"2025-11-15T14:15:59Z"}
