{"icao":"KJFK","metar":"KJFK 090551Z 33019KT 10SM CLR M12/M19 A3026 RMK AO2 SLP245 4/005 T11171194 11089 21117 51011 $","updated":"2026-02-09T06:10:13Z"}
