{"icao":"LPMA","metar":"LPMA 040830Z 22019KT 190V260 9999 FEW015 18/13 Q1012","updated":"2026-02-04T08:40:05Z"}
