{"icao":"LPPS","metar":"LPPS 102030Z 34017KT 9999 SCT012 BKN030 16/13 Q1020","updated":"2026-04-10T20:35:03Z"}
