{"icao":"LPMT","metar":"LPMT 041400Z 33006KT 290V010 CAVOK 26/12 Q1021","updated":"2026-04-04T14:32:09Z"}
