{"icao":"LPMR","metar":"LPMR 280600Z 14002KT 9999 FEW030 04/03 Q1024","updated":"2025-11-28T06:29:30Z"}
