{"icao":"KJFK","metar":"KJFK 222051Z 18007KT 10SM FEW030 BKN044 BKN250 21/15 A3007 RMK AO2 SLP183 T02060150 56019 $","updated":"2025-09-22T21:14:49Z"}
