{"icao":"KLAX","metar":"KLAX 270153Z 28011KT 10SM FEW015 FEW250 17/15 A2989 RMK AO2 SLP119 T01720150","updated":"2026-03-27T02:12:58Z"}
