{"icao":"LPMT","metar":"LPMT 111200Z 20003KT 170V250 9999 FEW018 BKN030 14/11 Q1021","updated":"2025-12-11T12:42:40Z"}
