{"icao":"LPPT","metar":"LPPT 081130Z 12009KT 080V150 9999 SCT022 14/09 Q1017","updated":"2026-04-08T11:53:51Z"}
