{"icao":"LPCS","metar":"LPCS 212000Z 28008KT 240V320 9999 SCT004 SCT008 20/20 Q1016","updated":"2025-10-21T20:20:37Z"}
