{"icao":"LPPD","metar":"LPPD 041600Z 26009KT 9999 FEW025 BKN045 15/09 Q1023","updated":"2026-04-04T16:34:22Z"}
