{"icao":"KLAX","metar":"KLAX 241253Z 09005KT 10SM BKN250 12/09 A3005 RMK AO2 SLP174 T01220089","updated":"2026-02-24T13:03:22Z"}
