{"icao":"KJFK","metar":"KJFK 060851Z 24005KT 10SM SCT250 20/16 A2991 RMK AO2 SLP127 T02000156 58006 $","updated":"2026-06-06T09:24:50Z"}
