{"icao":"KJFK","metar":"KJFK 061351Z 06005KT 9SM SCT050 BKN160 OVC250 02/M01 A2999 RMK AO2 SLP156 T00171006 $","updated":"2026-01-06T14:21:35Z"}
