{"icao":"LPPR","metar":"LPPR 190700Z 19012KT 9999 BKN007 19/17 Q1013","updated":"2025-10-19T07:15:06Z"}
