{"icao":"KJFK","metar":"KJFK 301551Z 21015G25KT 10SM -RA FEW026 BKN039 OVC055 08/06 A3027 RMK AO2 PK WND 20028/1458 RAB29 SLP249 P0000 T00830056 $","updated":"2025-11-30T16:21:59Z"}
