{"icao":"LPLA","metar":"LPLA 281400Z 31009KT 9000 FEW015 BKN020 BKN030 19/16 Q1030","updated":"2026-02-28T14:20:45Z"}
