{"icao":"LPPS","metar":"LPPS 110800Z 05003KT 020V080 9999 FEW015 BKN030 21/12 Q1020","updated":"2025-10-11T08:20:26Z"}
