{"icao":"LPFR","metar":"LPFR 011700Z 22013KT 9999 FEW012 SCT018 16/15 Q1012","updated":"2026-02-01T17:23:28Z"}
