{"icao":"LPPT","metar":"LPPT 100900Z 09004KT 050V130 9999 FEW002 16/16 Q1020","updated":"2025-11-10T09:22:25Z"}
