{"icao":"LPMA","metar":"LPMA 151400Z 16004KT 120V240 9999 FEW015 SCT030 18/12 Q1025","updated":"2026-01-15T14:23:48Z"}
