{"icao":"KLAX","metar":"KLAX 092053Z 25010G18KT 10SM FEW032 SCT120 BKN160 BKN240 21/15 A2995 RMK AO2 SLP141 T02060150 58005 $","updated":"2026-04-09T21:43:56Z"}
