{"icao":"LPAZ","metar":"LPAZ 272200Z 10008KT CAVOK 13/08 Q1020","updated":"2025-12-27T22:17:49Z"}
