{"icao":"LPPR","metar":"LPPR 071100Z 03003KT 330V100 CAVOK 13/05 Q1020","updated":"2026-03-07T11:18:44Z"}
