{"icao":"LPMT","metar":"LPMT 031500Z 25007KT CAVOK 19/12 Q1021","updated":"2025-11-03T15:19:29Z"}
