{"icao":"LPCS","metar":"LPCS 011300Z 23006KT 210V270 9999 FEW015 SCT023 20/17 Q1018","updated":"2025-11-01T13:22:10Z"}
