{"icao":"LPMA","metar":"LPMA 232030Z 36003KT 240V030 9999 SCT015 18/13 Q1015","updated":"2026-04-23T20:51:29Z"}
