{"icao":"LPMT","metar":"LPMT 021400Z 30004KT 240V350 9999 SCT025 FEW030TCU 15/10 Q1018","updated":"2025-12-02T14:20:42Z"}
