{"icao":"LPPT","metar":"LPPT 032300Z VRB02KT CAVOK 15/07 Q1023","updated":"2026-04-03T23:32:11Z"}
