{"icao":"LPMR","metar":"LPMR 230600Z VRB01KT 9000 FEW020 10/10 Q1010","updated":"2025-12-23T06:31:54Z"}
