{"icao":"KJFK","metar":"KJFK 211751Z 13010KT 10SM FEW040 FEW200 BKN250 20/09 A3029 RMK AO2 SLP257 T02000089 10211 20150 58016 $","updated":"2025-09-21T18:22:23Z"}
