{"icao":"LPMT","metar":"LPMT 290600Z 24003KT 9999 BKN040 11/11 Q1020","updated":"2025-11-29T06:26:50Z"}
