{"icao":"LPFR","metar":"LPFR 150200Z 35010KT CAVOK 16/11 Q1021","updated":"2026-04-15T02:27:01Z"}
