{"icao":"KJFK","metar":"KJFK 260851Z 17010KT 10SM FEW075 OVC100 07/05 A3003 RMK AO2 SLP169 60000 T00670050 56031 $","updated":"2026-03-26T08:54:20Z"}
