{"icao":"LPMR","metar":"LPMR 180800Z 20004KT 170V230 CAVOK 18/12 Q1016","updated":"2025-10-18T08:21:01Z"}
