{"icao":"KORD","metar":"KORD 270451Z 23018G28KT 8SM BKN095 M13/M19 A3000 RMK AO2 PK WND 22033/0405 PRESFR SLP175 T11281189","updated":"2026-01-27T05:26:03Z"}
