{"icao":"LPFL","metar":"LPFL 270900Z 02013KT 350V050 9999 VCSH SCT023 SCT049 17/12 Q1024","updated":"2025-10-27T09:22:01Z"}
