{"icao":"KORD","metar":"KORD 190751Z 26014G27KT 10SM -SN FEW022 BKN029 OVC090 M09/M14 A2959 RMK AO2 PK WND 28029/0715 SLP026 P0000 T10891144","updated":"2025-12-19T08:28:01Z"}
