{"icao":"KJFK","metar":"KJFK 161151Z 27008KT 10SM SCT075 SCT100 BKN190 BKN250 12/09 A2923 RMK AO2 SLP898 60002 70005 T01170089 10122 20094 53012 $","updated":"2025-11-16T12:34:20Z"}
