{"icao":"LPAR","metar":"LPAR 271300Z 08006KT 010V130 CAVOK 15/05 Q1024","updated":"2025-11-27T13:30:40Z"}
