{"icao":"KLAX","metar":"KLAX 122253Z 24015KT 10SM FEW008 SCT044 22/17 A2984 RMK AO2 SLP102 T02170167","updated":"2026-06-12T23:15:25Z"}
