{"icao":"LPMR","metar":"LPMR 220300Z 02003KT CAVOK 12/07 Q1021","updated":"2025-09-22T03:05:57Z"}
