{"icao":"LPFR","metar":"LPFR 101430Z 25013KT 3000 -DZ BR OVC002 16/15 Q1019","updated":"2026-02-10T14:56:57Z"}
