{"icao":"LPLA","metar":"LPLA 201100Z 36014KT 340V040 9999 FEW017 SCT023 15/10 Q1011","updated":"2026-03-20T11:30:49Z"}
