{"icao":"LPPS","metar":"LPPS 110930Z 04008KT 010V080 9999 SCT015 BKN030 15/11 Q1027","updated":"2026-03-11T09:40:53Z"}
