{"icao":"LPPT","metar":"LPPT 220400Z 36004KT CAVOK 08/01 Q1030","updated":"2025-11-22T04:20:43Z"}
