{"icao":"LPAR","metar":"LPAR 311000Z 20016KT 9999 FEW009 SCT015 BKN045 20/18 Q1012","updated":"2025-10-31T10:19:23Z"}
