{"icao":"LPPS","metar":"LPPS 280700Z 36013KT 9999 FEW014 21/14 Q1024","updated":"2025-09-28T07:14:24Z"}
