{"icao":"KORD","metar":"KORD 080251Z 19011KT 10SM CLR 06/03 A2986 RMK AO2 SLP118 T00610028 56002","updated":"2026-01-08T03:29:15Z"}
