{"icao":"LPAZ","metar":"LPAZ 091930Z 35014KT 9999 FEW022 FEW027TCU 15/09 Q1015","updated":"2026-05-09T19:59:19Z"}
