{"icao":"LPMA","metar":"LPMA 162200Z 35011KT 280V020 9999 SCT015 17/12 Q1027","updated":"2025-12-16T22:18:46Z"}
