{"icao":"KORD","metar":"KORD 131351Z 25028G44KT 10SM OVC034 03/M03 A2946 RMK AO2 PK WND 25044/1351 SLP980 T00331033 $","updated":"2026-03-13T14:00:33Z"}
