{"icao":"LPAR","metar":"LPAR 291000Z 02004KT 350V060 9999 BKN015 19/17 Q1007","updated":"2025-10-29T10:20:24Z"}
