{"icao":"LPPS","metar":"LPPS 012000Z 31008KT 9999 FEW015 BKN030 14/08 Q1021","updated":"2026-03-01T20:25:59Z"}
