{"icao":"KORD","metar":"KORD 132151Z 17003KT 10SM SCT150 SCT250 25/17 A2997 RMK AO2 SLP144 T02500172 $","updated":"2025-09-13T22:14:25Z"}
