{"icao":"LPFR","metar":"LPFR 061000Z 28005KT 250V330 9999 FEW020 18/11 Q1020","updated":"2025-11-06T10:20:51Z"}
