{"icao":"LPPR","metar":"LPPR 010430Z 11010KT CAVOK 08/04 Q1020","updated":"2025-12-01T04:48:31Z"}
