{"icao":"LPMA","metar":"LPMA 210600Z VRB05KT 9999 FEW008 SCT013 22/21 Q1018","updated":"2025-10-21T06:27:40Z"}
