{"icao":"LPOV","metar":"LPOV 170700Z 00000KT 0100 FG FEW001 11/11 Q1014","updated":"2025-10-17T07:17:39Z"}
