{"icao":"KJFK","metar":"KJFK 290651Z 03014KT 10SM OVC050 10/04 A3015 RMK AO2 SLP209 T01000044","updated":"2025-10-29T07:18:02Z"}
