{"icao":"LPOV","metar":"LPOV 170600Z 22002KT 3000 BR SCT008 BKN015 13/13 Q1027","updated":"2026-02-17T07:02:17Z"}
