{"icao":"LPAZ","metar":"LPAZ 290800Z 34009KT 9999 BKN030 14/09 Q1028","updated":"2025-11-29T08:23:22Z"}
