{"icao":"LPPR","metar":"LPPR 191000Z 11007KT 060V130 9000 -RA SCT025 BKN040 07/05 Q1020","updated":"2026-01-19T10:27:17Z"}
