{"icao":"KJFK","metar":"KJFK 171951Z 33008KT 10SM FEW140 FEW250 18/01 A2993 RMK AO2 SLP136 T01780006","updated":"2025-10-17T20:19:50Z"}
