{"icao":"LPMR","metar":"LPMR 172300Z VRB01KT CAVOK 12/11 Q1018","updated":"2025-11-17T23:17:04Z"}
