{"icao":"LPHR","metar":"LPHR 191800Z 30020KT 6000 -SHRA SCT018 BKN040 15/13 Q1029","updated":"2025-12-19T18:28:26Z"}
