{"icao":"LPPS","metar":"LPPS 201130Z 29017KT 9999 FEW010 19/15 Q1004","updated":"2026-04-20T12:03:16Z"}
