{"icao":"LPPS","metar":"LPPS 171530Z 36010KT 330V040 9999 FEW015 18/11 Q1024","updated":"2026-05-17T15:58:05Z"}
