{"icao":"LPBJ","metar":"LPBJ 242000Z 30011KT CAVOK 18/12 Q1017","updated":"2026-04-24T20:45:44Z"}
