{"icao":"LPPR","metar":"LPPR 151400Z 27004KT 230V300 9999 FEW025 24/14 Q1016","updated":"2025-10-15T14:18:49Z"}
