{"icao":"LPBJ","metar":"LPBJ 110900Z 07009KT CAVOK 20/13 Q1021","updated":"2025-10-11T09:15:39Z"}
