{"icao":"LPFR","metar":"LPFR 082330Z 32013KT CAVOK 23/15 Q1018","updated":"2026-06-09T00:03:54Z"}
