{"icao":"LPLA","metar":"LPLA 140900Z 28006KT 9999 FEW025 BKN035 14/09 Q1007","updated":"2025-11-14T09:19:45Z"}
