{"icao":"LPLA","metar":"LPLA 202300Z 25008KT 9999 FEW015 23/19 Q1014","updated":"2025-10-20T23:15:57Z"}
