{"icao":"LPPS","metar":"LPPS 030930Z 34021G37KT 9999 SHRA SCT015 FEW018CB SCT030 13/08 Q1017","updated":"2026-03-03T09:40:23Z"}
