{"icao":"KLAX","metar":"KLAX 280353Z 32003KT 10SM CLR 14/07 A3009 RMK AO2 SLP189 T01390072 $","updated":"2025-12-28T04:43:36Z"}
