{"icao":"LPCS","metar":"LPCS 010900Z 00000KT CAVOK 13/08 Q1022","updated":"2026-03-01T09:28:36Z"}
