{"icao":"LPCS","metar":"LPCS 181500Z 23006KT 180V250 CAVOK 27/11 Q1020","updated":"2025-09-18T15:18:08Z"}
