{"icao":"LPBJ","metar":"LPBJ 282000Z 36007KT CAVOK 11/06 Q1022","updated":"2026-02-28T20:24:12Z"}
