{"icao":"KJFK","metar":"KJFK 250051Z 35008KT 10SM FEW150 BKN200 BKN250 M08/M23 A3068 RMK AO2 SLP387 T10831233 $","updated":"2026-01-25T01:50:48Z"}
