{"icao":"KORD","metar":"KORD 050519Z 03007KT 1/8SM R10L/1400V1600FT FG VV001 04/03 A3000 RMK AO2 T00390033 $","updated":"2026-03-05T05:46:44Z"}
