{"icao":"LPPD","metar":"LPPD 022300Z 02008KT 350V050 9999 SCT022 BKN030 13/09 Q1029","updated":"2026-04-02T23:34:02Z"}
