{"icao":"LPMA","metar":"LPMA 271400Z 03011KT 360V060 9999 SCT016 21/11 Q1022","updated":"2025-11-27T14:19:07Z"}
