{"icao":"LPFR","metar":"LPFR 271900Z 33008KT CAVOK 17/12 Q1021","updated":"2026-02-27T19:32:02Z"}
