{"icao":"LPHR","metar":"LPHR 211230Z 27018KT 4000 -RADZ BR SCT002 BKN004 17/17 Q1022","updated":"2026-01-21T12:48:08Z"}
