{"icao":"LPLA","metar":"LPLA 010300Z 36005KT 330V050 9999 FEW022 SCT040 16/08 Q1018","updated":"2025-11-01T03:10:28Z"}
