{"icao":"KLAX","metar":"KLAX 180853Z 07003KT 10SM CLR 18/M01 A3011 RMK AO2 SLP193 T01781011 50001 $","updated":"2026-01-18T09:20:15Z"}
