{"icao":"KORD","metar":"KORD 210451Z 17009KT 10SM BKN250 10/M02 A3009 RMK AO2 SLP193 T01001022 $","updated":"2026-04-21T05:26:19Z"}
