{"icao":"LPFL","metar":"LPFL 072000Z 19017G29KT 160V240 9999 SCT018 SCT038 20/16 Q1014","updated":"2025-11-07T20:18:33Z"}
