{"icao":"LPFL","metar":"LPFL 021500Z 18009KT 100V230 9999 FEW009 SCT017 25/21 Q1016","updated":"2025-10-02T15:17:59Z"}
