{"icao":"LPFR","metar":"LPFR 081030Z 24010KT CAVOK 24/14 Q1020","updated":"2026-06-08T10:50:41Z"}
