{"icao":"LPAZ","metar":"LPAZ 192100Z 28012KT 7000 BKN003 23/22 Q1018","updated":"2025-10-19T21:14:37Z"}
