{"icao":"LPMT","metar":"LPMT 151700Z 21012KT 180V240 2000 -DZRA BR BKN008 OVC020 14/14 Q1014","updated":"2026-01-15T17:30:51Z"}
