{"icao":"LPPS","metar":"LPPS 080700Z 01009KT 9999 SCT014 SCT030 20/17 Q1021","updated":"2025-11-08T07:16:28Z"}
