{"icao":"KJFK","metar":"KJFK 011758Z 13016G23KT 10SM SCT060 SCT250 18/11 A3003 RMK AO2 WSHFT 1738 T01830111 $","updated":"2026-06-01T18:36:52Z"}
