{"icao":"LPPT","metar":"LPPT 051100Z 34008KT 300V010 9999 FEW020 20/13 Q1021","updated":"2025-10-05T11:12:36Z"}
