{"icao":"LPPT","metar":"LPPT 230600Z 01006KT 350V060 CAVOK 15/05 Q1017","updated":"2025-09-23T06:26:51Z"}
