{"icao":"LPMR","metar":"LPMR 131300Z 34008KT 290V010 9999 SCT022 20/11 Q1019","updated":"2026-05-13T13:09:57Z"}
