{"icao":"KJFK","metar":"KJFK 200351Z 29023G38KT 10SM BKN050 BKN100 00/M11 A2985 RMK AO2 PK WND 31038/0347 SLP106 T00001111 $","updated":"2025-12-20T04:25:22Z"}
