{"icao":"KJFK","metar":"KJFK 052051Z 17007KT 10SM CLR 24/17 A3026 RMK AO2 SLP246 T02440167 58010","updated":"2025-10-05T21:14:23Z"}
