{"icao":"LPFR","metar":"LPFR 291500Z 22006KT 180V250 CAVOK 23/18 Q1020","updated":"2026-05-29T15:24:52Z"}
