{"icao":"LPPR","metar":"LPPR 102130Z 33010KT 8000 OVC005 13/12 Q1014","updated":"2026-04-10T21:35:46Z"}
