{"icao":"LPLA","metar":"LPLA 210700Z 31009KT 7000 -RA SCT015 BKN035 14/12 Q1012","updated":"2026-05-21T07:50:28Z"}
