{"icao":"LPAR","metar":"LPAR 181600Z 30009KT 260V330 CAVOK 31/13 Q1014","updated":"2026-06-18T16:29:33Z"}
