{"icao":"KORD","metar":"KORD 030151Z 07005KT 10SM CLR 02/M07 A3026 RMK AO2 SLP256 T00171067 $","updated":"2026-03-03T02:03:17Z"}
