{"icao":"LPBJ","metar":"LPBJ 221900Z 05003KT CAVOK 09/M00 Q1028","updated":"2025-11-22T19:13:43Z"}
