{"icao":"LPMR","metar":"LPMR 231400Z 36006KT 320V020 9999 BKN042 20/13 Q1019","updated":"2025-10-23T14:18:42Z"}
