{"icao":"LPPI","metar":"LPPI 260900Z 29005KT 260V350 9999 FEW020 SCT032 18/11 Q1026","updated":"2026-06-26T09:22:53Z"}
