{"icao":"LPPR","metar":"LPPR 271100Z 17014KT 9999 FEW024 20/10 Q1015","updated":"2025-09-27T11:12:36Z"}
