{"icao":"LPFL","metar":"LPFL 062000Z VRB06KT 9999 FEW026 17/08 Q1016","updated":"2025-11-06T20:20:39Z"}
