{"icao":"LPPR","metar":"LPPR 071000Z 12015KT 5000 RA BR SCT020 FEW025CB BKN040 09/07 Q0996","updated":"2026-02-07T10:23:56Z"}
