{"icao":"KJFK","metar":"KJFK 220951Z 29009KT 10SM CLR M02/M11 A3045 RMK AO2 SLP310 T10221106 $","updated":"2025-12-22T10:21:57Z"}
