{"icao":"LPPD","metar":"LPPD 012200Z 33024G38KT 300V360 9999 FEW020 FEW022TCU BKN035 14/08 Q1001 WS R30","updated":"2026-01-01T22:18:48Z"}
