{"icao":"KJFK","metar":"KJFK 261851Z 21007KT 10SM FEW031 FEW150 SCT210 BKN250 25/19 A3003 RMK SLP168 T02500194 ","updated":"2026-06-26T19:44:31Z"}
