{"icao":"LPMA","metar":"LPMA 211730Z 11003KT 050V160 9999 FEW016 19/14 Q1018","updated":"2026-01-21T17:53:07Z"}
