{"icao":"LPAZ","metar":"LPAZ 262100Z 04009KT 010V070 9999 BKN022 14/09 Q1028","updated":"2026-03-26T21:30:17Z"}
