{"icao":"LPFL","metar":"LPFL 221000Z 32015G28KT 280V360 9999 SCT020 13/04 Q1018","updated":"2026-01-22T10:26:35Z"}
