{"icao":"LPCS","metar":"LPCS 271800Z 23003KT 9999 FEW022 19/16 Q1019","updated":"2025-10-27T18:26:56Z"}
