{"icao":"LPOV","metar":"LPOV 150200Z VRB01KT 1200 BR BKN004 13/12 Q1017","updated":"2025-10-15T03:03:25Z"}
