{"icao":"LPPD","metar":"LPPD 010600Z 26005KT 240V300 9999 FEW018 15/11 Q1003","updated":"2026-01-01T06:32:13Z"}
