{"icao":"LPHR","metar":"LPHR 030700Z 32007KT 9999 SCT014 SCT027 14/11 Q1011","updated":"2026-01-03T07:18:14Z"}
