{"icao":"KORD","metar":"KORD 100051Z 17007KT 6SM -RA BR BKN041 OVC050 02/M01 A2954 RMK AO2 RAB2353 SLP010 P0001 T00171006","updated":"2025-12-10T01:28:21Z"}
