{"icao":"LPMT","metar":"LPMT 112100Z 36007KT CAVOK 13/11 Q1026","updated":"2026-03-11T21:31:55Z"}
