{"icao":"LPAZ","metar":"LPAZ 180400Z 32011KT 9999 FEW005 BKN015 18/17 Q1025","updated":"2025-11-18T04:22:42Z"}
