{"icao":"KJFK","metar":"KJFK 070451Z 26010KT 7SM -SN SCT018 BKN044 OVC075 M03/M06 A2959 RMK AO2 SLP021 P0000 T10281056 410061078 $","updated":"2026-02-07T05:41:13Z"}
