{"icao":"LPAR","metar":"LPAR 131200Z 05011KT CAVOK 16/11 Q1021","updated":"2025-12-13T12:36:24Z"}
