{"icao":"LPHR","metar":"LPHR 311230Z 31010KT 260V330 9999 FEW020 SCT037 19/11 Q1011","updated":"2025-10-31T12:38:04Z"}
