{"icao":"LPPR","metar":"LPPR 280600Z 11011KT 9999 FEW040 16/08 Q1015","updated":"2025-10-28T06:28:26Z"}
