{"icao":"LPPS","metar":"LPPS 231900Z 31021G33KT 9999 FEW015 16/08 Q1020","updated":"2026-01-23T19:23:32Z"}
