{"icao":"LPMR","metar":"LPMR 271600Z 26014KT 230V290 9999 FEW012 SCT015 FEW018TCU 13/04 Q1002","updated":"2026-01-27T16:28:55Z"}
