{"icao":"KJFK","metar":"KJFK 220551Z 00000KT 10SM FEW075 FEW100 SCT250 19/17 A2998 RMK SLP153 T01890172 10222 20189 50002 $ ","updated":"2026-06-22T06:28:10Z"}
