{"icao":"LPOV","metar":"LPOV 211600Z 06003KT 030V110 9999 -SHRA SCT012 SCT020CB BKN026 07/06 Q1008 RESHRA","updated":"2025-12-21T16:21:59Z"}
