{"icao":"LPPR","metar":"LPPR 262300Z 05003KT 020V110 CAVOK 13/08 Q1021","updated":"2025-10-26T23:16:06Z"}
