{"icao":"LPPT","metar":"LPPT 270900Z 06011KT 010V080 CAVOK 05/02 Q1010","updated":"2025-12-27T09:18:56Z"}
