{"icao":"LPHR","metar":"LPHR 142230Z 28014KT 9999 SCT016 14/08 Q1022","updated":"2026-04-14T22:48:39Z"}
