{"icao":"KLAX","metar":"KLAX 081453Z VRB03KT 7SM OVC012 17/14 A3002 RMK AO2 SLP163 T01670139 51009","updated":"2026-05-08T15:20:52Z"}
