{"icao":"LPPR","metar":"LPPR 191200Z 19013KT 5000 DZRA BR OVC005 16/15 Q1023","updated":"2026-05-19T12:08:21Z"}
