{"icao":"LPPS","metar":"LPPS 161230Z 17006KT 120V200 9999 FEW012 23/20 Q1015","updated":"2025-10-16T12:38:43Z"}
