{"icao":"LPFL","metar":"LPFL 092000Z 15005KT 110V180 9999 BKN010 17/16 Q1019","updated":"2026-01-09T20:23:14Z"}
