{"icao":"KORD","metar":"KORD 260051Z 23006KT 10SM BKN010 OVC019 10/08 A2974 RMK AO2 SLP072 T01000078","updated":"2025-11-26T01:24:44Z"}
