{"icao":"LPPT","metar":"LPPT 191230Z 35012KT 9999 FEW025 14/08 Q1021","updated":"2026-01-19T12:47:11Z"}
