{"icao":"LPCS","metar":"LPCS 211100Z 15007KT 110V180 CAVOK 27/11 Q1021","updated":"2026-05-21T11:21:40Z"}
