{"icao":"LPMR","metar":"LPMR 280700Z 15006KT 9999 FEW014 SCT030 17/11 Q1015","updated":"2025-10-28T07:17:30Z"}
