{"icao":"LPAR","metar":"LPAR 041200Z 30009KT 250V330 3000 -RADZ BR BKN007 BKN015 OVC030 14/14 Q0998","updated":"2026-02-04T12:56:48Z"}
