{"icao":"LPMA","metar":"LPMA 110100Z 34005KT 290V010 9999 SCT015 BKN030 21/13 Q1021","updated":"2025-10-11T01:15:55Z"}
