{"icao":"LPOV","metar":"LPOV 280700Z VRB02KT CAVOK 04/04 Q1026","updated":"2026-02-28T07:25:32Z"}
