{"icao":"LPPD","metar":"LPPD 280700Z 01019G31KT 9999 SCT017 FEW020TCU SCT030 17/14 Q1015","updated":"2025-10-28T07:17:32Z"}
