{"icao":"LPBJ","metar":"LPBJ 140500Z VRB01KT 0400 FG VV002 05/05 Q1018","updated":"2026-01-14T05:23:28Z"}
