{"icao":"LPOV","metar":"LPOV 191900Z 32004KT 9999 FEW003 15/14 Q1015","updated":"2026-04-19T20:36:11Z"}
