{"icao":"LPBJ","metar":"LPBJ 171500Z 25006KT 230V300 9999 BKN035 11/04 Q1010","updated":"2026-01-17T15:18:22Z"}
