{"icao":"LPPD","metar":"LPPD 161300Z 26007KT 9999 FEW022 BKN035 18/11 Q1024","updated":"2025-11-16T13:22:55Z"}
