{"icao":"LPOV","metar":"LPOV 240000Z 17001KT CAVOK 10/07 Q1020","updated":"2026-02-24T02:00:31Z"}
