{"icao":"KORD","metar":"KORD 280351Z 28010KT 10SM FEW250 11/M03 A2979 RMK AO2 SLP089 T01111028 $","updated":"2026-02-28T03:53:31Z"}
