{"icao":"LPOV","metar":"LPOV 170600Z 12004KT 5000 -RA BR FEW004 SCT012 FEW020CB BKN030 05/05 Q1012","updated":"2026-01-17T06:29:06Z"}
