{"icao":"LPST","metar":"LPST 161100Z 36007KT 330V030 9999 -SHRA FEW007 BKN015 FEW020CB 09/08 Q1015","updated":"2026-01-16T11:18:41Z"}
