{"icao":"LPOV","metar":"LPOV 221900Z 34017KT CAVOK 16/11 Q1019","updated":"2025-09-22T19:14:04Z"}
