{"icao":"LPFL","metar":"LPFL 270830Z 35006KT 5000 -DZ FEW004 BKN007 14/13 Q1031","updated":"2026-03-27T08:51:44Z"}
