{"icao":"LPBJ","metar":"LPBJ 011100Z 12008KT 8000 VCFG OVC003 10/09 Q1014","updated":"2026-01-01T11:17:22Z"}
