{"icao":"LPBJ","metar":"LPBJ 160300Z 32006KT CAVOK 16/14 Q1020","updated":"2025-09-16T03:27:50Z"}
