{"icao":"LPOV","metar":"LPOV 251300Z 35004KT 330V030 9999 -RA SCT030 16/13 Q1014","updated":"2025-10-25T13:21:35Z"}
