{"icao":"LPBJ","metar":"LPBJ 021300Z 01009KT 330V040 CAVOK 20/07 Q1025","updated":"2025-11-02T13:21:29Z"}
