{"icao":"KORD","metar":"KORD 282051Z 08010KT 10SM FEW035 FEW150 SCT200 BKN250 13/04 A3004 RMK AO2 SLP175 T01330044 58011","updated":"2025-10-28T21:16:51Z"}
