{"icao":"LPLA","metar":"LPLA 031200Z 13003KT 100V200 9999 FEW022 BKN030 14/10 Q1026","updated":"2026-04-03T13:01:05Z"}
