{"icao":"LPPS","metar":"LPPS 291830Z 05018KT 9999 FEW014 18/12 Q1025","updated":"2026-03-29T18:46:06Z"}
