{"icao":"KJFK","metar":"KJFK 110851Z 27006KT 10SM SCT033 SCT250 10/07 A3010 RMK AO2 SLP191 T01000067 55004","updated":"2026-04-11T09:38:57Z"}
