{"icao":"LPPT","metar":"LPPT 101600Z 35009KT 310V010 9999 FEW030 16/10 Q1021","updated":"2025-12-10T16:26:34Z"}
