{"icao":"LPPD","metar":"LPPD 131100Z 31014KT 280V350 8000 -SHRA FEW018 FEW022CB SCT030 15/10 Q1006","updated":"2025-11-13T11:16:56Z"}
