{"icao":"LPBJ","metar":"LPBJ 182200Z 24001KT CAVOK 19/12 Q1017","updated":"2025-10-18T22:15:28Z"}
