{"icao":"LPPT","metar":"LPPT 211330Z 25015G25KT 2000 -RADZ BR FEW004 BKN008 16/14 Q1005","updated":"2026-01-21T13:43:55Z"}
