{"icao":"LPFL","metar":"LPFL 241630Z 16011KT 4000 -DZ BR BKN003 BKN008 19/18 Q1019","updated":"2026-05-24T16:59:08Z"}
