{"icao":"LPFL","metar":"LPFL 091830Z 25005KT 190V310 9999 FEW012 SCT045 18/11 Q1033","updated":"2026-04-10T05:24:08Z"}
