{"icao":"KLAX","metar":"KLAX 240653Z 00000KT 8SM BKN008 16/14 A2998 RMK AO2 SLP148 T01610144","updated":"2026-03-24T07:15:53Z"}
