{"icao":"KLAX","metar":"KLAX 051328Z 25004KT 10SM FEW015 OVC030 17/11 A3019 RMK AO2 T01670111 $","updated":"2025-11-05T13:31:28Z"}
