{"icao":"KJFK","metar":"KJFK 250951Z 18015KT 10SM BKN060 OVC100 02/M02 A2977 RMK AO2 SLP080 T00171017 $","updated":"2026-02-25T10:50:24Z"}
