{"icao":"LPMA","metar":"LPMA 042000Z 01011KT 330V050 9999 -SHRA BKN015 FEW018TCU 17/12 Q1012","updated":"2026-01-04T20:21:21Z"}
