{"icao":"LPPS","metar":"LPPS 022000Z 06008KT 020V100 9999 FEW015 21/17 Q1021","updated":"2025-10-02T20:19:12Z"}
