{"icao":"LPFL","metar":"LPFL 071100Z 27007G17KT 220V360 3000 SHRA FEW012 SCT018 FEW020TCU 16/11 Q1008","updated":"2025-12-07T11:14:12Z"}
