{"icao":"LPAZ","metar":"LPAZ 221800Z 31023KT 9999 FEW022 15/09 Q1019","updated":"2026-01-22T18:31:36Z"}
