{"icao":"KORD","metar":"KORD 240251Z 09008KT 10SM BKN250 13/11 A3000 RMK AO2 SLP158 T01330106 53003","updated":"2026-05-24T03:38:49Z"}
