{"icao":"KORD","metar":"KORD 252251Z 03011G21KT 10SM FEW007 BKN250 11/06 A3000 RMK AO2 SLP162 T01060056","updated":"2026-04-25T23:36:43Z"}
