{"icao":"LPPS","metar":"LPPS 151700Z 05009KT 010V070 9999 -DZ SCT012 BKN030 16/14 Q1020","updated":"2026-03-15T17:26:52Z"}
