{"icao":"LPMA","metar":"LPMA 271700Z 36016G26KT 330V050 9999 FEW015 18/11 Q1026","updated":"2026-02-27T17:34:01Z"}
