{"icao":"KJFK","metar":"KJFK 052251Z 03007KT 10SM OVC028 M01/M08 A3010 RMK AO2 SLP193 T10111083 $","updated":"2025-12-05T23:17:51Z"}
