{"icao":"LPLA","metar":"LPLA 162018Z 18013G24KT 150V220 8000 -DZRA SCT006 SCT011 BKN015 16/14 Q1022","updated":"2026-02-16T20:29:16Z"}
