{"icao":"LPPT","metar":"LPPT 301200Z 31009KT 280V340 CAVOK 27/18 Q1021 NOSIG","updated":"2026-06-30T12:06:46Z"}
