{"icao":"KJFK","metar":"KJFK 261251Z 21006KT 2SM BR SCT003 OVC011 12/12 A2985 RMK AO2 SFC VIS 4 SLP108 T01220117","updated":"2025-11-26T13:33:55Z"}
