{"icao":"LPLA","metar":"LPLA 102300Z 36004KT 330V030 7000 -DZ BKN006 BKN012 18/17 Q1029","updated":"2026-06-11T00:13:57Z"}
