{"icao":"KJFK","metar":"KJFK 280451Z 29017G26KT 10SM FEW250 M08/M16 A3008 RMK AO2 PK WND 28027/0408 SLP184 T10831161 410561094 $","updated":"2026-01-28T05:27:34Z"}
