{"icao":"LPLA","metar":"LPLA 080300Z 20025G39KT 8000 -RA FEW006 BKN015 BKN020 19/16 Q0996","updated":"2025-12-08T03:20:59Z"}
