{"icao":"LPOV","metar":"LPOV 301400Z 23009KT 9999 FEW014 16/13 Q1006","updated":"2026-01-30T14:34:41Z"}
