{"icao":"LPPR","metar":"LPPR 141130Z 01015KT 340V050 9999 FEW020 SCT040 18/07 Q1016","updated":"2026-05-14T11:51:04Z"}
