{"icao":"LPPS","metar":"LPPS 270730Z 01015KT 9999 BKN014 15/12 Q1027","updated":"2026-02-27T07:44:57Z"}
