{"icao":"LPPT","metar":"LPPT 130730Z 06004KT 030V140 CAVOK 24/17 Q1018","updated":"2026-06-13T07:44:39Z"}
