{"icao":"LPMR","metar":"LPMR 151200Z 20009KT 8000 -RA SCT012 FEW018CB OVC028 14/13 Q1005","updated":"2025-11-15T12:33:59Z"}
