{"icao":"LPLA","metar":"LPLA 070100Z 29020KT 8000 -RA FEW020 SCT030 14/12 Q1009","updated":"2026-02-07T01:54:51Z"}
