{"icao":"LPBJ","metar":"LPBJ 180800Z 08003KT CAVOK 15/12 Q1017","updated":"2026-04-18T08:49:42Z"}
