{"icao":"KJFK","metar":"KJFK 271251Z 09003KT 10SM SCT180 BKN250 19/17 A3000 RMK AO2 SLP157 T01940167 $","updated":"2025-09-27T13:19:55Z"}
