{"icao":"KORD","metar":"KORD 300951Z 34007KT 10SM FEW030 06/03 A2992 RMK AO2 SLP132 T00560033 $","updated":"2025-10-30T10:20:00Z"}
