{"icao":"LPPS","metar":"LPPS 120500Z 30017KT 7000 -RA SCT007 BKN010 16/15 Q1004","updated":"2025-11-12T05:19:08Z"}
