{"icao":"LPLA","metar":"LPLA 130900Z VRB02KT 9999 FEW035 16/12 Q1017","updated":"2025-10-13T09:21:08Z"}
