{"icao":"LPMA","metar":"LPMA 201030Z 04008KT 360V070 9999 FEW013 20/15 Q1004","updated":"2026-04-20T10:46:59Z"}
