{"icao":"LPMA","metar":"LPMA 130300Z 29009KT 260V320 9999 FEW015 16/06 Q1015","updated":"2026-01-13T03:26:50Z"}
