{"icao":"KJFK","metar":"KJFK 261251Z 31013KT 10SM FEW140 BKN250 04/M02 A2990 RMK AO2 SLP124 T00391017 $","updated":"2026-02-26T13:03:22Z"}
