{"icao":"KORD","metar":"KORD 171251Z 30009KT 10SM FEW030 M10/M16 A3010 RMK AO2 SLP205 T11001156","updated":"2026-03-17T13:09:49Z"}
