{"icao":"LPMR","metar":"LPMR 100800Z 15005KT 5000 BR SCT007 SCT023 14/13 Q1019","updated":"2025-11-10T08:27:08Z"}
