{"icao":"LPLA","metar":"LPLA 151500Z 01006KT 320V070 9999 FEW005 BKN037 17/14 Q1029","updated":"2026-03-15T15:28:04Z"}
