{"icao":"LPMR","metar":"LPMR 041600Z 30004KT 260V330 9000 SCT020 15/10 Q1021","updated":"2025-12-04T16:27:37Z"}
