{"icao":"LPPS","metar":"LPPS 231430Z 08018KT 9999 FEW006 SCT010 FEW016TCU 18/15 Q1012","updated":"2026-03-23T14:53:26Z"}
