{"icao":"LPAZ","metar":"LPAZ 250500Z 21011KT 4000 BR BKN002 17/16 Q1015","updated":"2026-04-25T05:10:41Z"}
