{"icao":"KORD","metar":"KORD 251751Z 14006KT 10SM FEW040 FEW110 BKN150 BKN250 12/02 A3036 RMK AO2 SLP286 VIRGA N T01220022 10128 20033 58009 $","updated":"2025-10-25T18:23:03Z"}
