{"icao":"LPGR","metar":"LPGR 240730Z 24007KT 6000 SCT006 BKN010 20/19 Q1020","updated":"2026-06-24T07:39:06Z"}
