{"icao":"LPMR","metar":"LPMR 031400Z 28007KT 240V300 CAVOK 18/11 Q1021","updated":"2025-11-03T14:18:41Z"}
