{"icao":"KJFK","metar":"KJFK 051351Z 10003KT 10SM FEW250 23/17 A3032 RMK AO2 SLP266 T02280167","updated":"2025-10-05T14:13:59Z"}
