{"icao":"KLAX","metar":"KLAX 090953Z 07003KT 10SM CLR 13/09 A3008 RMK AO2 SLP183 T01330094 $","updated":"2026-02-09T10:02:19Z"}
