{"icao":"KJFK","metar":"KJFK 142151Z 21007KT 10SM FEW060 FEW110 SCT250 18/11 A2983 RMK AO2 SLP102 T01830106","updated":"2026-04-14T22:50:05Z"}
