{"icao":"KORD","metar":"KORD 092151Z 30017G31KT 10SM SCT090 SCT130 BKN250 22/01 A2965 RMK AO2 PK WND 27033/2058 SLP038 T02220006","updated":"2026-05-09T22:41:54Z"}
