{"icao":"LPMT","metar":"LPMT 080200Z 34006KT CAVOK 17/13 Q1022","updated":"2025-10-08T02:56:15Z"}
