{"icao":"LPFR","metar":"LPFR 231600Z 27016KT CAVOK 24/20 Q1018","updated":"2025-10-23T16:22:42Z"}
