{"icao":"KORD","metar":"KORD 021751Z 07011KT 10SM FEW300 23/04 A3034 RMK AO2 SLP271 T02330039 10233 20150 50002","updated":"2026-06-02T18:38:05Z"}
