{"icao":"LPFR","metar":"LPFR 210100Z 29005KT 5000 -DZ BR BKN004 BKN008 20/20 Q1016","updated":"2025-10-21T01:21:48Z"}
