{"icao":"LPMA","metar":"LPMA 292230Z 32005KT 290V360 9999 FEW015 17/10 Q1015","updated":"2026-04-29T22:55:49Z"}
