{"icao":"KORD","metar":"KORD 110751Z 33007KT 10SM OVC031 M03/M09 A2996 RMK AO2 SLP153 T10331094","updated":"2025-12-11T08:28:50Z"}
