{"icao":"KLAX","metar":"KLAX 230653Z 19003KT 2 1/2SM BR FEW002 FEW003 BKN005 16/14 A2990 RMK AO2 SLP125 T01560144","updated":"2026-03-23T07:08:33Z"}
