{"icao":"KJFK","metar":"KJFK 140651Z 00000KT 3/4SM R04R/6000VP6000FT -SN BR BKN004 BKN014 OVC024 00/00 A2999 RMK AO2 SLP156 P0003 T00000000","updated":"2025-12-14T07:17:56Z"}
