{"icao":"LPPR","metar":"LPPR 051000Z 26006KT 230V310 8000 -RADZ BKN006 16/15 Q1018","updated":"2025-12-05T10:20:35Z"}
