{"icao":"KJFK","metar":"KJFK 171051Z 27007KT 10SM FEW110 BKN250 19/13 A3000 RMK AO2 SLP158 T01890133 $","updated":"2026-05-17T11:04:32Z"}
