{"icao":"LPFR","metar":"LPFR 120900Z 09007KT CAVOK 24/16 Q1016","updated":"2025-10-12T09:15:37Z"}
