{"icao":"LPPS","metar":"LPPS 090300Z 02003KT 350V060 9999 SCT015 19/14 Q1022","updated":"2025-11-09T03:11:49Z"}
