{"icao":"LPBJ","metar":"LPBJ 220800Z 22008KT 7000 2500N BCFG SCT003 BKN010 19/19 Q1019","updated":"2025-10-22T08:26:33Z"}
