{"icao":"LPBJ","metar":"LPBJ 062300Z 20006KT CAVOK 11/09 Q1019","updated":"2025-11-06T23:16:43Z"}
