{"icao":"LPPT","metar":"LPPT 021830Z 22009KT 9999 FEW032 18/14 Q1015","updated":"2026-05-02T18:57:05Z"}
