{"icao":"LPPD","metar":"LPPD 050400Z 33007KT 9999 FEW020 15/08 Q1015","updated":"2025-11-05T04:21:27Z"}
