{"icao":"KLAX","metar":"KLAX 092253Z 26012KT 8SM FEW005 19/16 A3002 RMK AO2 SLP166 T01940156 $","updated":"2025-11-09T23:16:22Z"}
