{"icao":"LPPD","metar":"LPPD 171400Z 21005KT 3000 -RA BR FEW007 BKN010 BKN025 18/17 Q1024 RERA","updated":"2025-11-17T14:18:48Z"}
