{"icao":"LPPR","metar":"LPPR 271800Z 35004KT CAVOK 11/08 Q1024","updated":"2025-11-27T18:26:17Z"}
