{"icao":"KORD","metar":"KORD 141951Z 28010KT 10SM FEW020 FEW250 M13/M21 A3060 RMK AO2 SLP380 T11281211","updated":"2025-12-14T20:20:25Z"}
