{"icao":"KJFK","metar":"KJFK 080651Z 23007KT 10SM BKN023 BKN045 OVC090 14/11 A2968 RMK AO2 SLP049 T01440111","updated":"2025-11-08T07:16:29Z"}
