{"icao":"LPPT","metar":"LPPT 101100Z 26003KT 220V310 9999 FEW030 BKN034 13/10 Q1031","updated":"2026-01-10T11:15:52Z"}
