{"icao":"LPPS","metar":"LPPS 160800Z 35020KT 9999 SCT015 17/10 Q1025","updated":"2025-12-16T08:28:36Z"}
