{"icao":"LPHR","metar":"LPHR 101430Z 21011KT 7000 SCT005 BKN009 BKN030 18/16 Q1008","updated":"2026-02-10T14:57:00Z"}
