{"icao":"LPPR","metar":"LPPR 242000Z 24007G18KT 190V280 7000 SHRA FEW020CB BKN030 11/08 Q1012","updated":"2026-01-24T20:20:24Z"}
