{"icao":"LPMT","metar":"LPMT 102000Z 25012KT 5000 -RADZ BR SCT003 BKN006 15/15 Q1017","updated":"2026-02-10T20:42:45Z"}
