{"icao":"LPMA","metar":"LPMA 010600Z 36009KT 330V030 9999 SCT015 20/16 Q1021","updated":"2025-10-01T06:27:03Z"}
