{"icao":"KJFK","metar":"KJFK 311751Z 20009KT 10SM FEW055 SCT120 BKN250 18/09 A3000 RMK AO2 SLP157 T01830094 10200 20133 58009","updated":"2026-03-31T17:55:54Z"}
