{"icao":"LPMT","metar":"LPMT 280400Z 12006KT 9999 FEW012 SCT035 18/18 Q1015","updated":"2025-10-28T04:20:58Z"}
