{"icao":"LPFR","metar":"LPFR 201600Z 19004KT 150V230 CAVOK 27/08 Q1020","updated":"2026-05-20T16:23:57Z"}
