{"icao":"KLAX","metar":"KLAX 261511Z 27008KT 10SM FEW013 SCT024 BKN044 14/09 A2992 RMK AO2 T01440089 $","updated":"2026-04-26T15:40:07Z"}
