{"icao":"KLAX","metar":"KLAX 292053Z 27008KT 10SM FEW019 BKN032 BKN038 22/14 A2991 RMK AO2 SLP127 T02170139 58006 $","updated":"2026-06-29T21:25:14Z"}
