{"icao":"KJFK","metar":"KJFK 190651Z 16013KT 10SM FEW050 FEW065 OVC110 11/09 A2990 RMK AO2 SLP125 P0001 T01110094","updated":"2025-12-19T07:20:39Z"}
