{"icao":"LPAZ","metar":"LPAZ 150430Z 04009KT 360V080 9999 FEW012 BKN023 15/12 Q1028","updated":"2026-03-15T05:04:23Z"}
