{"icao":"KLAX","metar":"KLAX 050053Z 26013KT 10SM FEW030 21/15 A2982 RMK AO2 SLP095 T02060150 $","updated":"2025-10-05T01:24:54Z"}
