{"icao":"KLAX","metar":"KLAX 271153Z 07005KT 10SM SCT250 16/02 A3004 RMK AO2 SLP171 T01560022 10211 20144 58003 $","updated":"2025-11-27T12:40:09Z"}
