{"icao":"LPFL","metar":"LPFL 261800Z 02010KT 9999 FEW024 SCT038 18/12 Q1026","updated":"2025-10-27T07:18:06Z"}
