{"icao":"LPOV","metar":"LPOV 280600Z 08010G22KT 9000 -RA FEW016 FEW020CB 07/06 Q0988","updated":"2026-01-28T06:34:54Z"}
