{"icao":"LPST","metar":"LPST 281300Z 34009KT 310V030 9999 BKN027 14/08 Q1023","updated":"2025-11-28T13:29:19Z"}
