{"icao":"KLAX","metar":"KLAX 131853Z VRB03KT 2 1/2SM HZ BKN009 BKN280 16/12 A3005 RMK AO2 SLP176 VIS SW-W 1 3/4 T01560122 $","updated":"2025-12-13T19:14:25Z"}
