{"icao":"LPPS","metar":"LPPS 041530Z 35018KT 9999 SCT014 17/12 Q1020","updated":"2026-03-04T15:39:26Z"}
