{"icao":"LPMR","metar":"LPMR 252200Z 01002KT CAVOK 10/08 Q1025","updated":"2025-11-25T22:18:24Z"}
