{"icao":"LPPT","metar":"LPPT 171100Z 33010KT 300V360 9999 4000W -SHRA FEW016 BKN022 FEW025CB 17/13 Q1015","updated":"2025-11-17T11:16:35Z"}
