{"icao":"LPCS","metar":"LPCS 060800Z 05003KT 020V100 CAVOK 19/13 Q1019","updated":"2025-10-06T08:23:45Z"}
