{"icao":"KORD","metar":"KORD 090351Z 22023G29KT 10SM -RA SCT015 BKN055 BKN085 BKN250 16/14 A2939 RMK AO2 RAE09B28 SLP952 T01560139 PNO $","updated":"2026-01-09T04:39:13Z"}
