{"icao":"KORD","metar":"KORD 081314Z 07006KT 10SM FEW013 BKN022 OVC028 07/04 A2986 RMK AO2 T00720039 $","updated":"2025-11-08T13:22:50Z"}
