{"icao":"LPPR","metar":"LPPR 051600Z 34008KT 310V010 CAVOK 22/11 Q1020","updated":"2025-10-05T16:18:40Z"}
