{"icao":"LPMR","metar":"LPMR 122100Z 35004KT CAVOK 19/10 Q1016","updated":"2025-10-12T21:14:19Z"}
