{"icao":"LPFR","metar":"LPFR 010700Z 09003KT 030V120 CAVOK 19/15 Q1019","updated":"2025-10-01T07:17:56Z"}
