{"icao":"LPPT","metar":"LPPT 101530Z 23008KT CAVOK 23/14 Q1012","updated":"2026-04-10T15:52:00Z"}
