{"icao":"LPPT","metar":"LPPT 070100Z 22007KT 9999 FEW022 17/13 Q1017","updated":"2025-11-07T01:23:35Z"}
