{"icao":"KORD","metar":"KORD 131851Z 22014G21KT 10SM FEW250 10/M02 A3009 RMK AO2 SLP193 T01001017","updated":"2026-02-13T19:40:47Z"}
