{"icao":"KJFK","metar":"KJFK 181551Z 30014G24KT 10SM FEW080 BKN200 BKN250 07/M06 A3016 RMK AO2 SLP214 T00671061 $","updated":"2025-11-18T16:25:50Z"}
