{"icao":"KJFK","metar":"KJFK 210815Z 19004KT 8SM FEW012 BKN060 BKN090 07/06 A2974 RMK AO2 T00670061","updated":"2026-03-21T08:31:51Z"}
