{"icao":"LPPR","metar":"LPPR 280730Z 01005KT 340V100 CAVOK 10/07 Q1024","updated":"2026-03-28T07:49:00Z"}
