{"icao":"KJFK","metar":"KJFK 021551Z 03004KT 10SM SCT027 BKN039 BKN085 OVC250 13/06 A2989 ","updated":"2026-05-02T16:44:27Z"}
