{"icao":"LPBJ","metar":"LPBJ 060600Z 28003KT 220V320 CAVOK 13/10 Q1019","updated":"2026-06-06T06:34:07Z"}
