{"icao":"LPPS","metar":"LPPS 202300Z 06012KT 9999 SCT015 18/13 Q1024","updated":"2025-11-20T23:17:31Z"}
