{"icao":"LPLA","metar":"LPLA 020900Z 30027G39KT 9999 FEW020 SCT035 12/07 Q1013","updated":"2026-02-02T09:47:46Z"}
