{"icao":"LPFR","metar":"LPFR 282000Z 16010KT 9999 SCT012 21/19 Q1011","updated":"2025-10-28T20:21:00Z"}
