{"icao":"KJFK","metar":"KJFK 290451Z 31010KT 10SM SCT250 M09/M17 A3004 RMK SLP171 T10941172 410561094 $ ","updated":"2026-01-29T05:42:00Z"}
