{"icao":"LPPR","metar":"LPPR 051830Z 35006KT CAVOK 19/06 Q1019","updated":"2026-04-05T18:41:28Z"}
