{"icao":"LPMT","metar":"LPMT 292300Z 17006KT 9000 -RA FEW012 SCT016 BKN020 14/14 Q1015","updated":"2025-11-29T23:16:57Z"}
