{"icao":"LPLA","metar":"LPLA 060700Z 23018G31KT 8000 -RADZ SCT009 BKN015 21/19 Q1010 RERA","updated":"2025-11-06T07:18:10Z"}
