{"icao":"LPMA","metar":"LPMA 101130Z 03006KT 340V070 9999 FEW015 18/08 Q1016","updated":"2026-05-10T11:50:22Z"}
