{"icao":"KJFK","metar":"KJFK 050451Z 19006KT 10SM FEW250 12/10 A2987 RMK SLP113 T01220100 401890100 ","updated":"2026-05-05T05:41:50Z"}
