{"icao":"LPCS","metar":"LPCS 201900Z 04007KT 360V060 CAVOK 23/07 Q1007","updated":"2026-04-20T19:08:12Z"}
