{"icao":"LPCS","metar":"LPCS 021930Z 01018KT 9999 FEW012 14/09 Q1021","updated":"2026-04-02T19:50:19Z"}
