{"icao":"LPPD","metar":"LPPD 260400Z 04019G30KT 010V070 9999 FEW018 SCT030 18/11 Q1019","updated":"2025-10-26T04:20:08Z"}
