{"icao":"LPPD","metar":"LPPD 082000Z 31003KT 280V010 9999 FEW020 18/09 Q1022","updated":"2025-11-08T20:17:43Z"}
