{"icao":"LPPT","metar":"LPPT 021830Z 31012KT CAVOK 17/08 Q1020","updated":"2026-04-02T18:55:00Z"}
