{"icao":"KLAX","metar":"KLAX 170953Z 00000KT 10SM FEW280 16/03 A3003 RMK AO2 SLP166 T01560033","updated":"2026-01-17T10:20:02Z"}
