{"icao":"KORD","metar":"KORD 161851Z 22020G30KT 10SM FEW200 SCT250 17/06 A2988 RMK AO2 PK WND 24030/1844 SLP120 T01670061","updated":"2026-02-16T19:32:12Z"}
