{"icao":"KJFK","metar":"KJFK 160051Z 19015KT 10SM BKN039 OVC047 11/06 A2950 RMK AO2 SLP990 OCNL LTGIC DSNT W CB DSNT W T01110061","updated":"2025-11-16T01:37:08Z"}
