{"icao":"LPFR","metar":"LPFR 022200Z 31006KT CAVOK 22/16 Q1020","updated":"2025-10-02T22:15:36Z"}
