{"icao":"LPCS","metar":"LPCS 311430Z 36020KT CAVOK 25/12 Q1019 WS R35","updated":"2026-05-31T14:42:52Z"}
