{"icao":"LPCS","metar":"LPCS 102000Z 01020KT CAVOK 20/10 Q1017","updated":"2026-06-10T22:02:01Z"}
