{"icao":"LPPD","metar":"LPPD 310700Z 07005KT 040V100 9999 SCT018 12/09 Q1030","updated":"2026-03-31T07:11:47Z"}
