{"icao":"LPPI","metar":"LPPI 241600Z VRB05KT 9999 FEW004 SCT013 BKN025 19/16 Q1021","updated":"2026-06-24T16:20:23Z"}
