{"icao":"KORD","metar":"KORD 061419Z 12006KT 2SM BR BKN003 OVC033 09/08 A2995 RMK AO2 T00890083","updated":"2026-03-06T14:36:53Z"}
