{"icao":"LPMR","metar":"LPMR 311500Z 15007KT CAVOK 16/06 Q1017","updated":"2025-12-31T15:19:48Z"}
