{"icao":"LPFL","metar":"LPFL 030830Z 24004KT 220V280 9999 FEW021 BKN030 13/07 Q1026","updated":"2026-04-03T08:52:38Z"}
