{"icao":"LPPR","metar":"LPPR 272000Z 36006KT 340V060 CAVOK 10/07 Q1025","updated":"2025-11-27T20:18:21Z"}
