{"icao":"LPPR","metar":"LPPR 120130Z 34006KT 310V010 9999 BKN007 12/11 Q1028","updated":"2026-03-12T02:01:04Z"}
