{"icao":"LPPT","metar":"LPPT 112300Z 20011KT 9999 FEW008 BKN024 13/12 Q1025","updated":"2026-01-11T23:18:17Z"}
