{"icao":"LPFR","metar":"LPFR 112100Z 25019KT 3000 -DZ BR OVC004 15/15 Q1021","updated":"2026-02-11T21:32:37Z"}
