{"icao":"LPPS","metar":"LPPS 070500Z 04004KT 350V110 9000 -RADZ SCT010 BKN030 20/19 Q1023","updated":"2025-10-07T05:16:42Z"}
