{"icao":"KLAX","metar":"KLAX 271453Z 03005KT 10SM FEW160 FEW250 10/M05 A3025 RMK AO2 SLP240 T01001050 53008 $","updated":"2026-01-27T15:29:54Z"}
