{"icao":"KORD","metar":"KORD 300551Z 23004KT 10SM CLR 05/04 A3002 RMK AO2 SLP168 60000 T00500039 10083 20050 401390050 55001","updated":"2026-04-30T05:58:08Z"}
