{"icao":"KORD","metar":"KORD 051651Z 21006KT 10SM SCT029 BKN048 OVC250 24/19 A2989 RMK AO2 RAB33E49 SLP116 P0001 T02390194","updated":"2026-06-05T17:53:11Z"}
