{"icao":"KJFK","metar":"KJFK 201551Z 26018KT 10SM BKN025 BKN039 BKN250 15/09 A2978 RMK AO2 PK WND 24028/1522 RAB24E34 SLP085 P0000 T01500094 $","updated":"2025-10-20T16:22:41Z"}
