{"icao":"LPLA","metar":"LPLA 100800Z 35015KT 9999 FEW017 SCT023 14/11 Q1021","updated":"2026-05-10T08:52:21Z"}
