{"icao":"LPMR","metar":"LPMR 270100Z 34004KT 2000 BR BKN005 15/15 Q1016","updated":"2026-04-27T02:39:52Z"}
