{"icao":"LPAZ","metar":"LPAZ 182100Z 36023KT 9000 -SHRA FEW024 FEW028TCU BKN032 09/05 Q1005","updated":"2026-03-18T21:33:07Z"}
