{"icao":"LPPR","metar":"LPPR 261230Z 20016KT 7000 -RA FEW004 BKN007 15/14 Q1007","updated":"2026-01-26T12:45:46Z"}
