{"icao":"LPPS","metar":"LPPS 131630Z 03010KT 350V070 9999 FEW015 BKN030 16/11 Q1024","updated":"2026-03-13T16:38:35Z"}
