{"icao":"LPPR","metar":"LPPR 300900Z 11009KT CAVOK 07/05 Q1022","updated":"2025-12-30T09:24:16Z"}
