{"icao":"KJFK","metar":"KJFK 280851Z 32007KT 10SM FEW250 M06/M08 A3023 RMK AO2 SLP235 T10561078 50002 $","updated":"2025-12-28T09:19:25Z"}
