{"icao":"KJFK","metar":"KJFK 180351Z 31018G28KT 10SM FEW065 05/M08 A3000 RMK AO2 PK WND 29029/0334 SLP158 T00501078 $","updated":"2025-11-18T04:22:59Z"}
