{"icao":"LPMA","metar":"LPMA 020530Z 26003KT 9999 SCT015 13/09 Q1016","updated":"2026-03-02T05:51:36Z"}
