{"icao":"LPPS","metar":"LPPS 011430Z 36010KT 340V040 9999 FEW014 19/14 Q1023","updated":"2026-04-01T15:02:51Z"}
