{"icao":"LPMT","metar":"LPMT 200100Z 02003KT 9999 FEW035 07/07 Q1030","updated":"2026-02-20T01:59:35Z"}
