{"icao":"LPAZ","metar":"LPAZ 170100Z 32016KT 9999 SCT016 BKN034 14/11 Q1033","updated":"2026-01-17T01:28:28Z"}
