{"icao":"LPPD","metar":"LPPD 252200Z 12003KT 9999 FEW011 18/16 Q1023","updated":"2026-05-25T22:06:58Z"}
