{"icao":"KJFK","metar":"KJFK 010051Z 06005KT 10SM FEW100 BKN250 21/15 A3006 RMK AO2 SLP178 T02060150 $","updated":"2025-10-01T01:27:02Z"}
