{"icao":"KJFK","metar":"KJFK 021551Z 00000KT 10SM FEW190 BKN230 M02/M18 A3071 RMK AO2 SLP398 T10221178","updated":"2026-03-02T16:43:41Z"}
