{"icao":"KJFK","metar":"KJFK 220051Z 07006KT 10SM SCT250 15/09 A3023 RMK AO2 SLP235 T01500094 $","updated":"2025-09-22T01:24:10Z"}
