{"icao":"KJFK","metar":"KJFK 251051Z 25008KT 10SM FEW170 BKN230 03/M01 A3040 RMK AO2 SLP294 T00281011 $","updated":"2026-03-25T11:40:38Z"}
