{"icao":"KORD","metar":"KORD 051551Z 32009KT 10SM FEW085 SCT200 BKN250 12/M02 A2978 RMK AO2 SLP084 T01221022","updated":"2026-05-05T16:23:29Z"}
