{"icao":"KJFK","metar":"KJFK 151351Z 25016KT 10SM BKN022 BKN050 OVC095 06/01 A2942 RMK AO2 SLP963 T00560011 $","updated":"2026-01-15T14:23:48Z"}
