{"icao":"LPFR","metar":"LPFR 011030Z 09008KT 040V130 CAVOK 20/04 Q1021","updated":"2026-04-01T10:54:22Z"}
