{"icao":"KJFK","metar":"KJFK 221151Z 12008KT 10SM FEW043 FEW120 SCT200 BKN250 21/17 A3002 RMK SLP165 T02060172 10206 20178 52005 ","updated":"2026-06-22T12:48:53Z"}
