{"icao":"LPMR","metar":"LPMR 112200Z VRB01KT CAVOK 18/10 Q1019","updated":"2025-10-11T22:14:36Z"}
