{"icao":"LPLA","metar":"LPLA 112300Z VRB01KT 9999 BKN045 11/07 Q1033","updated":"2026-04-11T23:32:22Z"}
