{"icao":"LPPS","metar":"LPPS 241130Z 36011KT 330V040 9999 FEW015 19/12 Q1019","updated":"2026-04-24T11:55:44Z"}
