{"icao":"LPBJ","metar":"LPBJ 091000Z 32004KT 210V360 9999 BKN009 17/14 Q1021","updated":"2025-10-09T10:19:05Z"}
