{"icao":"LPBJ","metar":"LPBJ 302100Z 02010KT CAVOK 10/05 Q1019","updated":"2025-11-30T21:16:13Z"}
