{"icao":"LPPS","metar":"LPPS 161100Z 15008KT 110V180 9999 FEW014 23/19 Q1015","updated":"2025-10-16T11:15:31Z"}
