{"icao":"LPFL","metar":"LPFL 021400Z 18012G22KT 150V210 9999 FEW028 20/12 Q1019","updated":"2025-11-02T14:14:42Z"}
