{"icao":"LPMA","metar":"LPMA 231700Z 02008KT 350V050 9999 SCT015 BKN030 24/18 Q1020","updated":"2025-10-23T17:16:03Z"}
