{"icao":"LPCS","metar":"LPCS 031100Z 07010KT 020V110 CAVOK 16/10 Q1012","updated":"2026-03-03T11:31:10Z"}
