{"icao":"LPPR","metar":"LPPR 252200Z 21003KT 180V250 8000 SCT023 BKN030 11/10 Q1012","updated":"2026-01-25T22:19:11Z"}
