{"icao":"LPMA","metar":"LPMA 180130Z 34020G39KT 290V020 9999 -SHRA BKN015 18/13 Q1013","updated":"2026-01-18T01:48:04Z"}
