{"icao":"LPFR","metar":"LPFR 301300Z 20007KT 170V230 CAVOK 25/15 Q1020","updated":"2026-05-30T13:25:59Z"}
