{"icao":"KJFK","metar":"KJFK 140451Z 24006KT 10SM SCT250 22/18 A2989 RMK AO2 SLP121 T02220178 402940211 $","updated":"2026-06-14T05:47:21Z"}
