{"icao":"LPBJ","metar":"LPBJ 171000Z 32006KT 9999 FEW006 14/12 Q1015","updated":"2025-11-17T10:21:22Z"}
