{"icao":"KJFK","metar":"KJFK 031451Z 11008KT 9SM -PLRA OVC038 02/M02 A3057 RMK AO2 RAB1359PLB09 SLP351 P0001 60001 T00171017 58002","updated":"2026-03-03T14:55:59Z"}
