{"icao":"LPPR","metar":"LPPR 071700Z 19011KT 3300 -RADZ BCFG FEW002 BKN004 OVC012 12/11 Q0991","updated":"2026-02-07T17:24:14Z"}
