{"icao":"KJFK","metar":"KJFK 171451Z 24013KT 10SM BKN045 BKN075 OVC160 04/M07 A3010 RMK AO2 SLP191 T00441067 50008 $","updated":"2026-01-17T15:18:37Z"}
