{"icao":"LPPD","metar":"LPPD 141800Z 33009KT 9999 FEW020 16/09 Q1007","updated":"2025-11-14T18:26:34Z"}
