{"icao":"LPFR","metar":"LPFR 241900Z 02009KT 330V030 9999 FEW048 11/06 Q1007","updated":"2025-12-24T19:14:52Z"}
