{"icao":"LPPS","metar":"LPPS 041230Z 34015KT 9999 SCT014 18/15 Q1009","updated":"2026-01-04T12:38:26Z"}
