{"icao":"KJFK","metar":"KJFK 020451Z 04005KT 10SM BKN250 00/M07 A3028 RMK AO2 SLP253 T00001072 400671006 $","updated":"2025-12-02T05:19:02Z"}
