{"icao":"LPBJ","metar":"LPBJ 122000Z 15010KT 9999 OVC032 12/09 Q1016","updated":"2026-01-12T20:23:45Z"}
