{"icao":"KJFK","metar":"KJFK 140351Z 03021G29KT 10SM FEW008 OVC011 13/12 A2997 RMK AO2 PK WND 04029/0338 SLP149 T01330117","updated":"2025-10-14T04:21:24Z"}
