{"icao":"LPPS","metar":"LPPS 111500Z 35005KT 310V040 9999 FEW015 SCT030 17/12 Q1025","updated":"2026-01-11T15:18:57Z"}
