{"icao":"LPMT","metar":"LPMT 261400Z 03009KT CAVOK 19/12 Q1023","updated":"2026-02-26T14:44:49Z"}
