{"icao":"LPAR","metar":"LPAR 081100Z 18006KT 130V220 9999 VCSH SCT028 19/11 Q1010","updated":"2026-05-08T11:12:44Z"}
