{"icao":"KJFK","metar":"KJFK 052051Z 20015KT 10SM FEW180 BKN240 16/10 A2971 RMK AO2 PK WND 18028/2010 SLP062 T01560100 56054 $","updated":"2025-11-05T21:17:39Z"}
