{"icao":"KJFK","metar":"KJFK 231519Z 34030G43KT 1/4SM R04R/1800V2400FT -SN BLSN BR VV008 M02/M02 A2947 RMK AO2 PK WND 34046/1506 SFC VIS 3/4 P0001 T10171022 $","updated":"2026-02-23T15:44:03Z"}
