{"icao":"LPCS","metar":"LPCS 171400Z 34011KT 310V010 9999 VCSH FEW016 FEW020TCU SCT024 17/13 Q1014","updated":"2025-11-17T14:18:46Z"}
