{"icao":"LPOV","metar":"LPOV 291300Z 24005KT 190V280 9999 SCT015 FEW018CB SCT035 18/16 Q1007","updated":"2026-04-29T13:53:05Z"}
