{"icao":"LPPS","metar":"LPPS 151900Z 06010KT 020V080 9999 SCT010 BKN030 15/14 Q1020 RERA","updated":"2026-03-15T19:26:56Z"}
