{"icao":"LPFR","metar":"LPFR 261700Z 23009KT 9000 FEW012 BKN035 16/15 Q1015","updated":"2026-01-26T17:28:19Z"}
