{"icao":"LPAZ","metar":"LPAZ 021830Z 07009KT 040V100 9999 SCT022 16/10 Q1028","updated":"2026-04-02T18:55:19Z"}
