{"icao":"LPPT","metar":"LPPT 290700Z 32008KT 9999 FEW002 16/14 Q1016","updated":"2025-09-29T07:17:58Z"}
