{"icao":"LPPD","metar":"LPPD 290500Z 34005KT 9999 FEW020 BKN035 16/10 Q1019","updated":"2025-10-29T05:18:26Z"}
