{"icao":"LPMR","metar":"LPMR 232300Z 12001KT CAVOK 12/12 Q1017","updated":"2026-03-23T23:31:06Z"}
