{"icao":"LPCS","metar":"LPCS 201700Z 23007KT 200V270 9999 FEW010 BKN014 20/17 Q1015","updated":"2025-10-20T17:15:53Z"}
