{"icao":"LPMR","metar":"LPMR 241400Z 24008KT 210V270 2000 -DZRA BKN006 OVC016 20/19 Q1016","updated":"2025-10-24T14:18:34Z"}
