{"icao":"LPMT","metar":"LPMT 312000Z 20005KT 170V240 9999 VCSH FEW016 BKN035 14/12 Q1019","updated":"2026-01-31T20:24:03Z"}
