{"icao":"LPMR","metar":"LPMR 031200Z 33008KT 300V360 9999 FEW015 19/14 Q1024","updated":"2025-10-03T12:35:11Z"}
