{"icao":"LPPT","metar":"LPPT 080800Z 30004KT 240V330 9999 FEW012 BKN036 17/15 Q1023","updated":"2025-10-08T08:24:01Z"}
