{"icao":"KORD","metar":"KORD 031127Z 10007KT 10SM SCT029 BKN065 OVC120 01/M03 A3011 RMK AO2 RAE20 P0001 T00111033 $","updated":"2026-03-03T11:31:46Z"}
