{"icao":"LPAZ","metar":"LPAZ 261200Z 33012KT 300V360 9999 BKN038 22/12 Q1025","updated":"2026-06-26T12:09:34Z"}
