{"icao":"LPFL","metar":"LPFL 171800Z VRB03KT 9999 -DZ FEW008 BKN014 21/18 Q1013","updated":"2026-06-17T18:14:07Z"}
