{"icao":"LPBJ","metar":"LPBJ 060500Z 21006KT CAVOK 10/09 Q1017","updated":"2025-11-06T05:18:48Z"}
