{"icao":"KLAX","metar":"KLAX 151353Z 00000KT 10SM FEW014 FEW035 SCT050 13/10 A3001 RMK AO2 SLP159 T01280100 $","updated":"2025-10-15T14:19:06Z"}
