{"icao":"LPAR","metar":"LPAR 201300Z 10009KT 060V120 9999 SCT025 BKN030 16/13 Q1008","updated":"2026-03-20T14:02:17Z"}
