{"icao":"KJFK","metar":"KJFK 160051Z 28018G27KT 10SM FEW050 FEW250 M02/M14 A2955 RMK AO2 PK WND 29029/0020 SLP006 T10221144 $","updated":"2026-01-16T01:42:11Z"}
