{"icao":"LPPR","metar":"LPPR 121000Z 10012KT 060V120 CAVOK 24/11 Q1018","updated":"2025-10-12T10:16:33Z"}
