{"icao":"LPPR","metar":"LPPR 042100Z 34005KT 9000 NSC 12/11 Q1022","updated":"2026-04-04T21:29:58Z"}
