{"icao":"LPPT","metar":"LPPT 300700Z 00000KT 0400 R02/0800 FG VV001 04/04 Q1021","updated":"2025-12-30T07:21:36Z"}
