{"icao":"LPOV","metar":"LPOV 112300Z VRB02KT CAVOK 15/13 Q1018","updated":"2025-10-11T23:15:30Z"}
