{"icao":"LPMA","metar":"LPMA 141230Z 23016KT 200V260 9999 SCT015 22/13 Q1012","updated":"2025-11-14T12:38:12Z"}
