{"icao":"LPPD","metar":"LPPD 021900Z 31013KT 290V350 9999 VCSH FEW016 FEW020TCU BKN030 14/10 Q1004","updated":"2026-01-02T19:13:11Z"}
