{"icao":"LPOV","metar":"LPOV 090200Z 15003KT 110V200 5000 BR OVC006 15/15 Q1020","updated":"2025-10-09T02:58:22Z"}
