{"icao":"LPFR","metar":"LPFR 250930Z 16005KT 130V200 CAVOK 20/15 Q1016","updated":"2026-04-25T09:51:10Z"}
