{"icao":"LPFR","metar":"LPFR 132100Z 28003KT 250V310 CAVOK 21/18 Q1015","updated":"2025-10-13T21:15:13Z"}
