{"icao":"LPLA","metar":"LPLA 200800Z 30003KT 240V340 9999 FEW016 20/15 Q1009","updated":"2026-06-20T08:53:14Z"}
