{"icao":"LPOV","metar":"LPOV 201500Z 27009KT 9999 FEW015 BKN035 13/08 Q1013","updated":"2025-12-20T15:17:30Z"}
