{"icao":"LPAZ","metar":"LPAZ 030900Z 31010KT 280V340 9000 SCT002 BKN013 20/19 Q1014","updated":"2025-11-03T09:22:15Z"}
