{"icao":"KJFK","metar":"KJFK 311551Z 24014KT 10SM FEW080 FEW200 BKN250 20/07 A3002 RMK AO2 SLP165 T02000067 $","updated":"2026-05-31T16:06:32Z"}
