{"icao":"LPPT","metar":"LPPT 020500Z 14011G21KT 9000 -RA SCT004 BKN014 FEW020TCU 13/13 Q1002 RERA","updated":"2026-01-02T05:24:20Z"}
