{"icao":"LPLA","metar":"LPLA 061000Z 20005KT 160V240 9999 FEW012 SCT040 22/19 Q1018","updated":"2025-10-06T10:20:03Z"}
