{"icao":"LPPR","metar":"LPPR 231300Z VRB03KT CAVOK 22/06 Q1014","updated":"2026-03-23T13:04:46Z"}
