{"icao":"LPBJ","metar":"LPBJ 200500Z 16002KT 080V210 CAVOK 04/03 Q1028","updated":"2026-02-20T05:52:28Z"}
