{"icao":"LPPT","metar":"LPPT 262130Z 31009KT CAVOK 20/13 Q1015","updated":"2026-04-26T21:36:35Z"}
