{"icao":"KLAX","metar":"KLAX 142053Z 07009KT 7SM FEW009 OVC035 17/16 A2995 RMK AO2 RAB1955E12B28E37 SLP141 P0000 60095 T01720156 58022 $","updated":"2025-11-14T21:16:41Z"}
