{"icao":"KJFK","metar":"KJFK 170351Z 21015KT 10SM FEW070 BKN090 01/M09 A3010 RMK AO2 SLP193 T00061094 $","updated":"2026-01-17T04:31:43Z"}
