{"icao":"KORD","metar":"KORD 040251Z 26006KT 10SM FEW250 10/M05 A3022 RMK AO2 SLP236 T01001050 51011 $","updated":"2025-11-04T03:09:18Z"}
