{"icao":"LPLA","metar":"LPLA 051100Z 15013KT 9999 SCT018 22/19 Q1024","updated":"2025-10-05T11:12:39Z"}
