{"icao":"LPHR","metar":"LPHR 180830Z 02008KT 9999 FEW020 11/07 Q1025","updated":"2026-02-18T08:42:21Z"}
