{"icao":"LPPT","metar":"LPPT 271100Z 06007KT 350V100 9999 FEW045 19/12 Q1021","updated":"2025-10-27T11:15:59Z"}
