{"icao":"LPPT","metar":"LPPT 222000Z 25013G23KT 210V280 3000 -RADZ BR BKN004 15/15 Q1003 RERA","updated":"2026-01-22T20:26:20Z"}
