{"icao":"LPMT","metar":"LPMT 080100Z 35006KT CAVOK 17/13 Q1022","updated":"2025-10-08T01:17:43Z"}
