{"icao":"LPMR","metar":"LPMR 091400Z 32012KT 290V350 9999 SCT030 14/07 Q1028","updated":"2026-01-09T14:23:18Z"}
