{"icao":"KLAX","metar":"KLAX 231353Z 25005KT 6SM BR FEW006 SCT025 BKN120 BKN160 19/18 A2984 RMK AO2 SLP101 T01890178 $","updated":"2025-09-23T14:17:54Z"}
