{"icao":"LPPD","metar":"LPPD 311000Z 24016KT 4000 BR BKN004 BKN008 16/16 Q1018","updated":"2026-01-31T10:23:18Z"}
