{"icao":"LPFL","metar":"LPFL 131200Z 20007KT 160V240 9999 SCT016 24/19 Q1024","updated":"2025-09-13T12:31:33Z"}
