{"icao":"LPLA","metar":"LPLA 211100Z 21007G17KT 150V280 7000 -RADZ SCT008 BKN012 BKN020 17/16 Q1022 RERADZ","updated":"2026-02-21T11:20:54Z"}
