{"icao":"LPMR","metar":"LPMR 190100Z VRB01KT 5000 -RA BR FEW006 BKN040 13/12 Q1019","updated":"2025-12-19T01:28:21Z"}
