{"icao":"LPST","metar":"LPST 151100Z 32006KT 280V020 9999 FEW011 BKN015 15/11 Q1025","updated":"2026-04-15T11:57:54Z"}
