{"icao":"LPMA","metar":"LPMA 182000Z 26003KT 220V300 9999 FEW006 BKN013 21/20 Q1017","updated":"2025-10-18T20:17:53Z"}
