{"icao":"LPFL","metar":"LPFL 241700Z VRB05KT 9999 FEW015 17/14 Q1016","updated":"2026-01-24T17:17:06Z"}
