{"icao":"KLAX","metar":"KLAX 242253Z 25009KT 10SM FEW250 21/14 A2997 RMK AO2 SLP149 T02060144","updated":"2026-03-24T23:31:11Z"}
