{"icao":"LPFR","metar":"LPFR 141100Z 24007KT CAVOK 26/17 Q1020","updated":"2025-09-14T11:11:40Z"}
