{"icao":"LPCS","metar":"LPCS 210600Z 36004KT 310V070 9999 FEW014 15/13 Q1020","updated":"2025-09-21T06:24:27Z"}
