{"icao":"LPMA","metar":"LPMA 311100Z 21018KT 170V230 9999 SCT015 FEW018CB 20/15 Q1017","updated":"2025-12-31T11:18:07Z"}
