{"icao":"LPHR","metar":"LPHR 011000Z 32003KT 270V030 9999 FEW025 BKN045 16/09 Q1021","updated":"2025-11-01T10:17:07Z"}
