{"icao":"LPMT","metar":"LPMT 160300Z 33004KT 310V020 CAVOK 17/14 Q1015","updated":"2026-06-16T03:58:05Z"}
