{"icao":"LPBJ","metar":"LPBJ 240500Z 22002KT 8000 VCFG BKN003 BKN012 18/18 Q1018","updated":"2025-10-24T05:17:11Z"}
