{"icao":"LPCS","metar":"LPCS 241400Z 26012KT 230V290 9999 FEW006 SCT010 BKN018 17/17 Q1017","updated":"2025-11-24T14:19:02Z"}
