{"icao":"LPMT","metar":"LPMT 211800Z 35008KT CAVOK 13/05 Q1027","updated":"2025-11-21T18:25:16Z"}
