{"icao":"LPFR","metar":"LPFR 020600Z 02004KT CAVOK 20/16 Q1019","updated":"2025-10-02T06:26:04Z"}
