{"icao":"LPFR","metar":"LPFR 240300Z 35004KT 9999 FEW025 SCT032 12/10 Q1023","updated":"2025-11-24T03:22:34Z"}
