{"icao":"KORD","metar":"KORD 282151Z 02019KT 10SM BKN018 OVC026 M02/M07 A3020 RMK AO2 SLP232 T10171067 $","updated":"2026-02-28T22:20:54Z"}
