{"icao":"LPMA","metar":"LPMA 311200Z 02017KT 9999 FEW015 23/14 Q1023","updated":"2026-05-31T12:10:38Z"}
