{"icao":"KJFK","metar":"KJFK 200951Z 30014G22KT 10SM SCT050 SCT250 M01/M10 A3008 RMK AO2 SLP185 T10061100 $","updated":"2025-12-20T10:18:56Z"}
