{"icao":"LPHR","metar":"LPHR 050630Z 30017KT 8000 -SHRA SCT015 FEW018TCU BKN030 11/08 Q1001","updated":"2026-02-05T06:57:42Z"}
