{"icao":"LPCS","metar":"LPCS 081700Z 24006KT 210V280 9999 VCSH FEW004 SCT012 BKN022 13/12 Q1031","updated":"2026-01-08T17:25:27Z"}
