{"icao":"LPFL","metar":"LPFL 221830Z 10004KT 050V140 9999 FEW020 18/12 Q1019","updated":"2026-05-22T18:52:49Z"}
