{"icao":"LPOV","metar":"LPOV 030300Z VRB01KT CAVOK 07/07 Q1024","updated":"2025-11-03T03:15:51Z"}
