{"icao":"LPCS","metar":"LPCS 231430Z 17009KT CAVOK 20/03 Q1022","updated":"2026-02-23T14:43:47Z"}
