{"icao":"LPMR","metar":"LPMR 011800Z 33004KT 9999 FEW016 17/14 Q1020","updated":"2025-11-01T18:22:28Z"}
