{"icao":"LPPR","metar":"LPPR 051900Z 20012KT 4000 -RADZ BR BKN004 BKN011 16/15 Q1019","updated":"2025-12-05T19:15:18Z"}
