{"icao":"KLAX","metar":"KLAX 300853Z 01003KT 10SM CLR 18/M02 A3021 RMK AO2 SLP227 T01781017 $","updated":"2026-01-30T09:37:01Z"}
