{"icao":"LPFL","metar":"LPFL 151400Z VRB07KT 9999 FEW016 26/20 Q1025","updated":"2025-09-15T14:18:17Z"}
