{"icao":"LPPR","metar":"LPPR 171430Z 22008KT 190V260 9999 SCT007 BKN015 BKN040 14/12 Q1025","updated":"2026-02-17T14:42:41Z"}
