{"icao":"LPCS","metar":"LPCS 130900Z 01011KT CAVOK 21/13 Q1022","updated":"2025-09-13T09:15:17Z"}
