{"icao":"LPAZ","metar":"LPAZ 161400Z 31015KT 9999 SCT028 SCT040 16/09 Q1033","updated":"2026-01-16T14:22:10Z"}
