{"icao":"KJFK","metar":"KJFK 221951Z 17014G21KT 10SM SCT013 SCT065 OVC090 22/19 A2994 RMK RAB02E39 SLP138 VCSH W-NW P0000 T02170194 ","updated":"2026-06-22T20:45:41Z"}
