{"icao":"LPMA","metar":"LPMA 131630Z 36014KT 300V050 9999 SCT016 19/10 Q1025","updated":"2026-02-13T16:43:51Z"}
