{"icao":"LPMT","metar":"LPMT 221800Z 01003KT CAVOK 08/03 Q1028","updated":"2025-11-22T18:24:32Z"}
