{"icao":"LPPR","metar":"LPPR 161000Z 31009KT 280V350 9999 FEW030 16/08 Q1019","updated":"2026-05-16T10:13:07Z"}
