{"icao":"LPHR","metar":"LPHR 281300Z 06018G28KT 030V120 9999 SCT015 BKN030 16/13 Q1008","updated":"2025-12-28T13:28:43Z"}
