{"icao":"LPFL","metar":"LPFL 220900Z 32016G31KT 260V360 9999 SCT018 14/07 Q1018","updated":"2026-01-22T09:31:15Z"}
