{"icao":"LPPT","metar":"LPPT 260630Z 32006KT 9999 FEW030 11/11 Q1023","updated":"2026-02-26T07:02:32Z"}
