{"icao":"KLAX","metar":"KLAX 190753Z 33004KT 9SM FEW012 FEW250 17/14 A2995 RMK AO2 SLP139 T01720139 402170144","updated":"2026-05-19T08:33:56Z"}
