{"icao":"LPMR","metar":"LPMR 221300Z 01005KT 340V040 CAVOK 14/01 Q1030","updated":"2025-11-22T13:22:17Z"}
