{"icao":"KJFK","metar":"KJFK 181351Z 00000KT 10SM FEW018 SCT085 22/17 A3000 RMK AO2 SLP157 T02170167","updated":"2025-09-18T14:17:35Z"}
