{"icao":"LPMA","metar":"LPMA 241430Z 03010KT 360V100 9999 FEW015 21/13 Q1016","updated":"2026-02-24T14:48:23Z"}
