{"icao":"LPFL","metar":"LPFL 111700Z 25015G27KT 200V310 9999 FEW020 SCT030 16/08 Q1013","updated":"2026-01-11T17:16:40Z"}
