{"icao":"LPPR","metar":"LPPR 042300Z 34003KT CAVOK 11/10 Q1023","updated":"2026-04-04T23:30:04Z"}
