{"icao":"KLAX","metar":"KLAX 232153Z 24012KT 10SM FEW009 BKN110 BKN150 23/18 A2983 RMK AO2 SLP098 T02330183 $","updated":"2025-09-23T22:15:48Z"}
