{"icao":"LPMT","metar":"LPMT 172000Z 35005KT CAVOK 14/13 Q1017","updated":"2025-11-17T20:21:37Z"}
