{"icao":"LPMR","metar":"LPMR 011100Z 05004KT CAVOK 19/04 Q1025","updated":"2026-04-01T11:52:09Z"}
