{"icao":"KJFK","metar":"KJFK 280351Z 29015KT 10SM FEW250 M08/M16 A3007 RMK AO2 PK WND 29033/0311 SLP181 T10781161 $","updated":"2026-01-28T04:42:35Z"}
