{"icao":"LPBJ","metar":"LPBJ 191500Z 15008KT 100V190 CAVOK 27/06 Q1014","updated":"2026-04-19T15:36:13Z"}
