{"icao":"KORD","metar":"KORD 030651Z 23010G19KT 10SM BKN180 07/00 A3008 RMK AO2 SLP189 T00720000 $","updated":"2025-11-03T07:18:28Z"}
