{"icao":"KJFK","metar":"KJFK 082051Z 34005KT 10SM SCT250 09/M01 A3022 RMK AO2 SLP233 T00941006 53006 $","updated":"2026-01-08T21:20:01Z"}
