{"icao":"LPHR","metar":"LPHR 041430Z 24008KT 9999 BKN010 19/17 Q1028","updated":"2026-06-04T14:57:13Z"}
