{"icao":"LPBJ","metar":"LPBJ 092200Z 30008KT CAVOK 19/07 Q1017","updated":"2026-06-09T22:23:05Z"}
