{"icao":"LPPR","metar":"LPPR 291030Z 29006KT 270V330 CAVOK 23/16 Q1022","updated":"2026-06-29T10:55:16Z"}
