{"icao":"LPMR","metar":"LPMR 091100Z 32006KT 270V360 4000 BR FEW010 SCT015 19/15 Q1021","updated":"2025-10-09T12:37:19Z"}
