{"icao":"LPFL","metar":"LPFL 231530Z 20013KT 170V280 9999 SCT023 17/10 Q1000 WS ALL RWY","updated":"2026-02-23T15:44:02Z"}
