{"icao":"LPPD","metar":"LPPD 210400Z 03006KT 360V060 9999 FEW020 19/13 Q1027","updated":"2025-09-21T04:20:30Z"}
