{"icao":"KORD","metar":"KORD 050551Z 19007KT 10SM CLR 22/13 A3006 RMK AO2 SLP174 T02220128 10272 20222 403110200 58001 $","updated":"2025-10-05T06:23:59Z"}
