{"icao":"LPAR","metar":"LPAR 191200Z 02008KT 350V050 9999 SCT040 15/06 Q1029","updated":"2026-02-19T13:02:51Z"}
