{"icao":"LPMR","metar":"LPMR 311000Z 16004KT CAVOK 08/06 Q1020","updated":"2025-12-31T10:20:54Z"}
