{"icao":"LPMT","metar":"LPMT 222000Z 32005KT CAVOK 10/04 Q1029","updated":"2025-11-22T20:19:06Z"}
