{"icao":"KJFK","metar":"KJFK 041751Z 31016G26KT 10SM FEW065 FEW250 16/M03 A3004 RMK AO2 PK WND 33029/1705 SLP172 T01561033 10156 20100 58014 $","updated":"2025-11-04T18:27:25Z"}
