{"icao":"LPBJ","metar":"LPBJ 261700Z 36009KT CAVOK 23/08 Q1022","updated":"2026-02-26T17:56:29Z"}
