{"icao":"LPHR","metar":"LPHR 280630Z 26023KT 8000 FEW005 BKN008 18/16 Q1004","updated":"2026-01-28T06:34:56Z"}
