{"icao":"LPFR","metar":"LPFR 080300Z 32006KT CAVOK 18/15 Q1021","updated":"2025-10-08T03:30:24Z"}
