{"icao":"KORD","metar":"KORD 140951Z 31014KT 10SM CLR M18/M24 A3043 RMK AO2 SLP322 T11831244","updated":"2025-12-14T10:19:10Z"}
