{"icao":"LPHR","metar":"LPHR 270900Z 16008KT 100V220 9999 FEW012 20/15 Q1023","updated":"2026-06-27T09:27:05Z"}
