{"icao":"LPOV","metar":"LPOV 260700Z 17004KT 130V210 0600 FG OVC002 15/15 Q1017","updated":"2026-04-26T07:27:04Z"}
