{"icao":"LPMT","metar":"LPMT 100800Z 33007KT 310V010 9999 VCSH FEW025 BKN035 11/09 Q1021","updated":"2026-03-10T08:40:14Z"}
