{"icao":"LPHR","metar":"LPHR 151900Z 13004KT 100V160 9999 FEW014 BKN035 16/13 Q1027","updated":"2026-03-15T19:26:43Z"}
