{"icao":"LPLA","metar":"LPLA 131500Z 32011KT 9999 FEW025 17/10 Q1030","updated":"2026-02-13T15:40:39Z"}
