{"icao":"KJFK","metar":"KJFK 222051Z 35007KT 10SM FEW030 BKN046 BKN200 11/04 A2988 RMK AO2 SLP118 T01060039 53006","updated":"2025-11-22T21:15:32Z"}
