{"icao":"LPMR","metar":"LPMR 101900Z 20004KT 9999 FEW022 SCT035 11/09 Q1028","updated":"2026-01-10T20:20:50Z"}
