{"icao":"KLAX","metar":"KLAX 141853Z 26009KT 10SM FEW015 OVC024 18/12 A3005 RMK AO2 SLP174 T01830122","updated":"2026-05-14T18:59:19Z"}
