{"icao":"LPMR","metar":"LPMR 292000Z 33009KT 7000 OVC007 18/17 Q1022","updated":"2026-05-29T21:05:37Z"}
