{"icao":"LPFR","metar":"LPFR 182300Z 04006KT CAVOK 17/13 Q1016","updated":"2026-04-18T23:33:11Z"}
