{"icao":"LPAZ","metar":"LPAZ 031500Z 17008KT 130V210 9999 SCT013 25/21 Q1024","updated":"2025-10-03T15:17:04Z"}
