{"icao":"LPHR","metar":"LPHR 010700Z 06008KT 020V080 9999 FEW020 BKN030 14/09 Q1030","updated":"2026-04-01T07:18:47Z"}
