{"icao":"KORD","metar":"KORD 051051Z 19006KT 10SM CLR 19/13 A3010 RMK AO2 SLP188 T01890128 $","updated":"2025-10-05T11:12:41Z"}
