{"icao":"LPMA","metar":"LPMA 271330Z 20006KT 150V260 9999 SCT015 20/12 Q1017","updated":"2026-04-27T13:50:37Z"}
