{"icao":"LPFR","metar":"LPFR 122000Z 29004KT CAVOK 16/11 Q1023","updated":"2026-03-12T20:33:24Z"}
