{"icao":"LPMT","metar":"LPMT 160500Z 24003KT 9999 -SHRA BKN020 11/11 Q1015","updated":"2026-01-16T05:24:13Z"}
