{"icao":"LPMR","metar":"LPMR 091700Z 34021KT CAVOK 19/11 Q1020","updated":"2026-06-09T18:02:58Z"}
