{"icao":"LPST","metar":"LPST 261700Z 33011KT CAVOK 19/10 Q1014","updated":"2026-03-27T02:12:26Z"}
