{"icao":"LPPR","metar":"LPPR 251600Z 32005KT 250V350 CAVOK 22/15 Q1022","updated":"2026-05-25T16:26:02Z"}
