{"icao":"LPFL","metar":"LPFL 081300Z 17013G25KT 150V210 9999 FEW008 SCT016 FEW017CB 24/22 Q1016","updated":"2025-10-08T13:28:33Z"}
