{"icao":"LPMR","metar":"LPMR 230200Z 30009KT 7000 SCT020 BKN030 11/06 Q1004","updated":"2026-01-23T05:26:26Z"}
