{"icao":"KJFK","metar":"KJFK 012151Z 02006KT 10SM FEW050 FEW090 05/M08 A3028 RMK AO2 SLP251 T00501078 VISNO W $","updated":"2026-03-01T22:22:27Z"}
