{"icao":"LPOV","metar":"LPOV 231900Z 21003KT 9000 MIFG NSC 14/10 Q1021","updated":"2026-02-23T19:18:12Z"}
