{"icao":"KJFK","metar":"KJFK 190651Z 24005KT 10SM OVC060 07/M01 A3018 RMK AO2 SLP218 T00671006 $","updated":"2025-11-19T07:18:51Z"}
