{"icao":"KORD","metar":"KORD 211551Z 18006KT 8SM BKN100 OVC250 13/06 A2991 RMK AO2 SLP129 T01280056","updated":"2026-03-21T16:28:24Z"}
