{"icao":"LPMT","metar":"LPMT 272200Z 24014KT 9999 -RA FEW015 SCT030 12/09 Q1005","updated":"2026-01-27T22:21:40Z"}
