{"icao":"KJFK","metar":"KJFK 140851Z 00000KT 1/2SM R04R/2800V3500FT SN FG VV004 00/00 A2995 RMK AO2 SLP143 P0006 60012 T00000000 57018","updated":"2025-12-14T09:19:00Z"}
