{"icao":"LPMT","metar":"LPMT 151100Z 01003KT 320V100 CAVOK 21/14 Q1017","updated":"2025-10-15T11:15:07Z"}
