{"icao":"LPPT","metar":"LPPT 271830Z 34017KT 9999 FEW020 13/08 Q1024","updated":"2026-02-27T18:40:47Z"}
