{"icao":"KLAX","metar":"KLAX 192053Z 27010KT 10SM CLR 25/16 A3001 RMK AO2 SLP161 T02500161 58017","updated":"2026-03-19T21:34:09Z"}
