{"icao":"LPBJ","metar":"LPBJ 032200Z 28006KT CAVOK 16/07 Q1023","updated":"2026-04-03T22:32:14Z"}
