{"icao":"KJFK","metar":"KJFK 111951Z 09015G21KT 10SM FEW014 BKN019 BKN085 BKN150 BKN250 19/14 A3016 RMK AO2 RAB1854E07 SLP213 P0000 T01890144","updated":"2025-10-11T20:16:50Z"}
