{"icao":"LPMA","metar":"LPMA 141500Z 04012KT 010V070 9999 SCT023 17/11 Q1024","updated":"2026-04-14T15:11:41Z"}
