{"icao":"LPLA","metar":"LPLA 112000Z 31026KT 9999 FEW025 BKN040 15/07 Q1003","updated":"2025-11-11T20:20:03Z"}
