{"icao":"LPPS","metar":"LPPS 220300Z 05008KT 010V100 9999 SCT015 SCT030 21/14 Q1021","updated":"2025-09-22T03:05:59Z"}
