{"icao":"LPMA","metar":"LPMA 111400Z 01017KT 330V050 9999 FEW014 24/15 Q1020","updated":"2026-06-11T14:34:15Z"}
