{"icao":"KORD","metar":"KORD 230151Z 36019KT 10SM SCT022 BKN110 01/M04 A3004 RMK AO2 PK WND 01029/0138 SLP179 T00061044","updated":"2026-03-23T02:08:22Z"}
