{"icao":"LPFR","metar":"LPFR 130230Z 31010KT CAVOK 11/06 Q1020","updated":"2026-04-13T02:34:41Z"}
