{"icao":"KJFK","metar":"KJFK 160158Z 09011KT 10SM -SN BKN039 OVC050 02/M02 A3011 RMK AO2 SNB58 P0000 T00171022 $","updated":"2026-02-16T02:03:51Z"}
