{"icao":"KJFK","metar":"KJFK 300851Z 19010KT 10SM BKN150 BKN190 BKN250 06/04 A3027 RMK AO2 SLP251 T00560044 56027 $","updated":"2026-03-30T09:10:37Z"}
