{"icao":"LPLA","metar":"LPLA 230500Z 24005KT 210V270 9999 FEW025 16/13 Q1023","updated":"2025-12-23T05:22:49Z"}
