{"icao":"LPMT","metar":"LPMT 132000Z 02006KT CAVOK 21/13 Q1016","updated":"2025-10-13T20:19:21Z"}
