{"icao":"LPMR","metar":"LPMR 180700Z 17003KT CAVOK 13/11 Q1016","updated":"2025-10-18T07:15:43Z"}
