{"icao":"LPFR","metar":"LPFR 160800Z 06008KT 030V120 CAVOK 21/17 Q1015","updated":"2025-10-16T08:25:19Z"}
