{"icao":"LPFR","metar":"LPFR 031230Z 12009KT CAVOK 23/08 Q1021","updated":"2026-04-03T13:01:01Z"}
