{"icao":"LPMT","metar":"LPMT 261300Z 36012KT CAVOK 20/09 Q1015","updated":"2026-03-26T13:12:53Z"}
