{"icao":"KLAX","metar":"KLAX 161253Z 08003KT 1/16SM R25L/0800V1000FT FG VV001 12/12 A3007 RMK AO2 SLP179 T01170117","updated":"2025-12-16T13:37:47Z"}
