{"icao":"KORD","metar":"KORD 080451Z 02009KT 10SM BKN020 BKN044 OVC065 09/07 A2970 RMK AO2 SLP059 T00940072 $","updated":"2025-11-08T05:17:00Z"}
