{"icao":"LPPS","metar":"LPPS 141500Z 07009KT 040V100 9999 FEW015 BKN030 17/11 Q1025","updated":"2026-04-14T15:11:53Z"}
