{"icao":"LPPD","metar":"LPPD 200800Z 02007KT 350V050 9999 FEW025 18/11 Q1027","updated":"2025-09-20T08:20:13Z"}
