{"icao":"KLAX","metar":"KLAX 302253Z 26010KT 10SM FEW020 OVC250 19/14 A2998 RMK AO2 SLP151 T01890139","updated":"2026-03-30T23:33:47Z"}
