{"icao":"LPMR","metar":"LPMR 050400Z 27004KT 240V310 9999 FEW020 SCT040 15/14 Q1019","updated":"2025-12-05T04:28:39Z"}
