{"icao":"LPFR","metar":"LPFR 290430Z 36004KT 340V080 CAVOK 08/06 Q1017","updated":"2025-12-29T04:47:53Z"}
