{"icao":"LPMT","metar":"LPMT 120600Z 16007KT 9999 SCT010 BKN020 BKN030 12/12 Q1021","updated":"2026-01-12T06:34:55Z"}
