{"icao":"LPFR","metar":"LPFR 272030Z 28005KT 250V330 CAVOK 15/10 Q1015","updated":"2026-03-27T20:37:07Z"}
