{"icao":"LPPR","metar":"LPPR 150800Z 18014KT 9999 VCSH SCT012 FEW025CB 14/12 Q1002","updated":"2025-11-15T08:21:10Z"}
