{"icao":"KORD","metar":"KORD 122151Z 21011G18KT 10SM FEW170 OVC250 07/M06 A3004 RMK AO2 SLP177 T00671061 $","updated":"2026-03-12T22:24:18Z"}
