{"icao":"LPBJ","metar":"LPBJ 150800Z 18007KT 9999 SCT025 14/13 Q1009","updated":"2025-11-15T08:21:12Z"}
