{"icao":"LPPS","metar":"LPPS 281830Z 01007KT 330V030 9999 SCT015 SCT030 20/16 Q1024","updated":"2026-05-28T18:34:52Z"}
