{"icao":"KJFK","metar":"KJFK 041851Z 10025G35KT 10SM BKN038 BKN140 BKN250 14/07 A3023 RMK AO2 PK WND 12037/1841 SLP235 T01390067","updated":"2026-04-04T19:30:11Z"}
