{"icao":"KORD","metar":"KORD 102026Z 03015KT 10SM OVC009 04/02 A2982 RMK AO2 T00440017","updated":"2026-03-10T20:32:26Z"}
