{"icao":"LPOV","metar":"LPOV 202200Z 18009KT 2000 RADZ BR BKN002 BKN011 18/17 Q1012 REDZRA","updated":"2025-10-20T22:16:04Z"}
