{"icao":"LPFL","metar":"LPFL 040900Z 32012G22KT 280V350 9999 SCT017 FEW020CB 13/09 Q1006 RETS","updated":"2025-11-04T09:20:31Z"}
