{"icao":"LPLA","metar":"LPLA 262000Z 35005KT 9999 FEW022 BKN025 15/10 Q1030","updated":"2026-03-26T20:34:46Z"}
