{"icao":"KLAX","metar":"KLAX 141053Z 17003KT 6SM BR OVC008 14/13 A3004 RMK AO2 SLP173 T01440133 $","updated":"2025-12-14T11:16:03Z"}
