{"icao":"LPFR","metar":"LPFR 101600Z 20006KT 9999 FEW030 23/17 Q1018","updated":"2025-10-10T16:21:16Z"}
