{"icao":"KJFK","metar":"KJFK 171551Z 24008KT 9SM -SN SCT032 BKN060 OVC080 04/M06 A3005 RMK AO2 SNB30 PRESFR SLP175 P0000 T00391056 $","updated":"2026-01-17T16:21:53Z"}
