{"icao":"LPOV","metar":"LPOV 111000Z 16010KT 130V190 9999 OVC006 12/12 Q1025","updated":"2026-01-11T11:16:42Z"}
