{"icao":"LPBJ","metar":"LPBJ 241400Z 18013KT CAVOK 33/07 Q1020","updated":"2026-05-24T15:02:10Z"}
