{"icao":"LPMT","metar":"LPMT 071200Z 36006KT 290V050 CAVOK 27/15 Q1020","updated":"2026-06-07T14:50:35Z"}
