{"icao":"LPAZ","metar":"LPAZ 082100Z 25008KT 220V280 9999 FEW012 SCT019 BKN030 16/14 Q1033","updated":"2026-01-08T21:19:47Z"}
