{"icao":"KJFK","metar":"KJFK 031551Z 21009KT 10SM FEW050 SCT250 19/08 A3038 RMK AO2 SLP285 T01940078","updated":"2025-10-03T16:20:42Z"}
