{"icao":"LPHR","metar":"LPHR 051930Z 12008KT 9999 FEW035 BKN046 13/06 Q1035","updated":"2026-03-05T19:50:42Z"}
