{"icao":"LPFR","metar":"LPFR 030800Z 03004KT 340V050 CAVOK 24/13 Q1021","updated":"2025-10-03T08:21:59Z"}
