{"icao":"LPMA","metar":"LPMA 161300Z 36006KT 300V070 9999 SCT018 22/12 Q1021","updated":"2025-11-16T13:23:00Z"}
