{"icao":"LPAZ","metar":"LPAZ 041000Z 03013KT 9999 VCSH FEW015 BKN018 14/12 Q1018","updated":"2026-01-04T10:19:32Z"}
