{"icao":"LPMT","metar":"LPMT 252000Z 36009KT 320V030 CAVOK 13/08 Q1024","updated":"2025-11-25T20:21:13Z"}
