{"icao":"LPPS","metar":"LPPS 220500Z 08018KT 9999 SCT014 SCT030 18/10 Q1026","updated":"2025-11-22T05:17:15Z"}
