{"icao":"LPAZ","metar":"LPAZ 061230Z 07006KT 040V100 9999 BKN049 16/06 Q1034","updated":"2026-01-06T12:42:26Z"}
