{"icao":"LPPT","metar":"LPPT 021330Z 28004KT 210V330 9999 FEW020 FEW025TCU SCT032 13/10 Q1018","updated":"2025-12-02T13:35:39Z"}
