{"icao":"LPPT","metar":"LPPT 291100Z 24014KT 1800 DZRA BR FEW002 BKN004 16/16 Q1009 WS R20","updated":"2026-01-29T11:29:43Z"}
