{"icao":"LPPD","metar":"LPPD 250800Z VRB02KT 9999 FEW010 14/12 Q1027","updated":"2025-11-25T08:27:00Z"}
