{"icao":"LPFR","metar":"LPFR 022200Z 30007KT CAVOK 18/11 Q1019","updated":"2026-04-02T22:30:01Z"}
