{"icao":"LPMA","metar":"LPMA 251230Z 05007KT 010V090 9999 SCT015 25/15 Q1021","updated":"2025-09-25T12:37:18Z"}
