{"icao":"LPMA","metar":"LPMA 302000Z 26009KT 9999 FEW016 20/12 Q1016","updated":"2025-10-30T20:20:26Z"}
