{"icao":"KORD","metar":"KORD 260751Z 25021G32KT 10SM OVC031 03/M02 A2971 RMK AO2 PK WND 22042/0710 SLP063 T00331022","updated":"2025-11-26T08:26:51Z"}
