{"icao":"LPMA","metar":"LPMA 090430Z 36008KT 310V030 9999 BKN015 SCT030 14/04 Q1026","updated":"2026-03-09T04:50:05Z"}
