{"icao":"KLAX","metar":"KLAX 090853Z 05005KT 10SM FEW011 SCT250 17/14 A2992 RMK AO2 SLP130 T01670144 $","updated":"2026-04-09T09:06:11Z"}
