{"icao":"LPLA","metar":"LPLA 261800Z 34014KT 9000 -SHRA SCT008 BKN015 20/18 Q1017","updated":"2025-09-26T18:22:53Z"}
