{"icao":"LPST","metar":"LPST 110800Z 25019G29KT 0500 -DZ FG OVC002 15/14 Q1016","updated":"2026-02-11T08:59:33Z"}
