{"icao":"KJFK","metar":"KJFK 030751Z 36014KT 10SM BKN100 OVC250 09/M03 A2984 RMK SLP104 T00891028 ","updated":"2026-05-03T08:06:53Z"}
