{"icao":"KJFK","metar":"KJFK 120751Z 29021G30KT 10SM FEW050 00/M09 A3008 RMK AO2 PK WND 30030/0746 SLP185 T00001089","updated":"2026-01-12T08:31:17Z"}
