{"icao":"LPMA","metar":"LPMA 192100Z 02007KT 340V080 9999 FEW013 SCT070 24/21 Q1020","updated":"2025-09-19T21:14:39Z"}
