{"icao":"LPPR","metar":"LPPR 031400Z 31007KT 270V340 9000 FEW006 18/15 Q1023","updated":"2025-10-03T14:16:28Z"}
