{"icao":"LPBJ","metar":"LPBJ 302200Z 27014KT 9999 BKN023 13/10 Q1015","updated":"2026-01-30T22:24:13Z"}
