{"icao":"LPPT","metar":"LPPT 060700Z 06007KT 360V100 CAVOK 14/08 Q1016","updated":"2026-04-06T07:27:53Z"}
