{"icao":"LPPT","metar":"LPPT 210500Z 21013KT 190V250 3000 -RA FEW003 SCT004 BKN007 13/13 Q1009","updated":"2026-01-21T05:27:14Z"}
