{"icao":"KLAX","metar":"KLAX 201653Z 00000KT 10SM FEW017 SCT150 BKN250 18/04 A3009 RMK AO2 SLP188 T01780044 $","updated":"2026-01-20T17:28:16Z"}
