{"icao":"LPMT","metar":"LPMT 102300Z 01006KT 9999 FEW032 20/14 Q1019","updated":"2025-10-10T23:15:12Z"}
