{"icao":"LPCS","metar":"LPCS 311500Z 22007KT 190V250 9999 FEW025 SCT030 15/11 Q1020","updated":"2026-01-31T15:21:48Z"}
