{"icao":"KLAX","metar":"KLAX 260953Z 06003KT 10SM CLR 16/04 A3006 RMK AO2 SLP178 T01610044","updated":"2025-11-26T10:21:44Z"}
