{"icao":"LPPD","metar":"LPPD 181900Z 32007KT 9999 FEW025 13/07 Q1028","updated":"2025-12-18T19:16:42Z"}
