{"icao":"LPMR","metar":"LPMR 030700Z 13002KT 9999 SCT015 BKN030 13/13 Q1014","updated":"2026-05-03T08:06:51Z"}
