{"icao":"KORD","metar":"KORD 171951Z 17018G28KT 10SM SCT047 BKN250 26/16 A2973 RMK AO2 PK WND 19029/1940 PRESFR SLP067 T02560161 $","updated":"2026-04-17T20:09:31Z"}
