{"icao":"LPHR","metar":"LPHR 251030Z 17003KT 150V220 9999 VCSH FEW001 SCT009 BKN015 16/15 Q1015","updated":"2026-04-25T10:42:02Z"}
