{"icao":"LPPR","metar":"LPPR 280900Z 11008KT 9999 BKN036 BKN044 18/09 Q1015","updated":"2025-10-28T09:19:44Z"}
