{"icao":"LPPT","metar":"LPPT 142030Z 35011KT 310V020 9999 SCT024 14/10 Q1014","updated":"2026-05-14T20:39:46Z"}
