{"icao":"LPBJ","metar":"LPBJ 141500Z 34010KT 300V010 CAVOK 32/14 Q1019","updated":"2025-09-14T15:14:28Z"}
