{"icao":"LPOV","metar":"LPOV 250700Z 11002KT CAVOK 06/06 Q1021","updated":"2026-03-25T07:14:59Z"}
