{"icao":"LPMA","metar":"LPMA 111400Z 02014KT 350V070 9999 SCT015 SCT030 24/14 Q1019","updated":"2025-10-11T14:13:35Z"}
