{"icao":"LPOV","metar":"LPOV 021500Z 35020G30KT CAVOK 17/11 Q1021","updated":"2026-04-02T15:59:32Z"}
