{"icao":"LPMA","metar":"LPMA 261230Z 02024G37KT 350V050 9999 SCT015 FEW018CB 17/09 Q1023","updated":"2026-02-26T13:03:21Z"}
