{"icao":"LPFR","metar":"LPFR 161300Z 12008KT CAVOK 23/12 Q1019","updated":"2026-04-16T13:27:37Z"}
