{"icao":"LPOV","metar":"LPOV 191700Z 29001KT 230V310 9999 FEW045 17/11 Q1006","updated":"2026-03-19T17:52:54Z"}
