{"icao":"LPOV","metar":"LPOV 271200Z 35010KT CAVOK 20/04 Q1019","updated":"2026-03-27T13:03:58Z"}
