{"icao":"LPMR","metar":"LPMR 240100Z 18006KT 9999 FEW008 BKN040 13/12 Q1021","updated":"2025-11-24T01:38:46Z"}
