{"icao":"LPPD","metar":"LPPD 181300Z 27014KT 9999 SCT014 18/16 Q1025","updated":"2025-11-18T13:31:15Z"}
