{"icao":"LPFL","metar":"LPFL 151800Z 20009G20KT 120V260 9999 VCSH SCT022 FEW023TCU 21/15 Q1001","updated":"2025-10-15T23:15:49Z"}
