{"icao":"LPPD","metar":"LPPD 011600Z 34018KT 310V010 9999 SCT017 BKN030 15/11 Q1023","updated":"2026-03-01T16:26:43Z"}
