{"icao":"LPCS","metar":"LPCS 082000Z 34013KT 290V010 9999 FEW012 17/15 Q1021","updated":"2025-10-09T05:17:17Z"}
