{"icao":"LPMR","metar":"LPMR 140800Z VRB01KT CAVOK 06/06 Q1020","updated":"2025-12-14T08:24:10Z"}
