{"icao":"LPFL","metar":"LPFL 171030Z 02006KT 360V060 9999 SCT030 SCT045 14/06 Q1020","updated":"2026-04-17T10:54:16Z"}
