{"icao":"LPCS","metar":"LPCS 062130Z 36005KT 330V030 9999 FEW025 SCT045 09/05 Q1025","updated":"2026-01-07T05:24:07Z"}
