{"icao":"LPFR","metar":"LPFR 290700Z 33003KT 250V040 CAVOK 07/06 Q1017","updated":"2025-12-29T07:24:51Z"}
