{"icao":"LPFL","metar":"LPFL 051930Z 18012G22KT 140V240 9999 FEW009 SCT013 FEW018CB 23/20 Q1016","updated":"2025-10-06T08:24:06Z"}
