{"icao":"LPLA","metar":"LPLA 092200Z 31012KT 9999 FEW012 BKN022 19/17 Q1030","updated":"2026-06-09T22:23:06Z"}
