{"icao":"LPOV","metar":"LPOV 140700Z VRB01KT 9000 MIFG NSC 10/10 Q1017","updated":"2025-10-14T07:18:13Z"}
