{"icao":"LPOV","metar":"LPOV 231900Z 32003KT 9999 FEW008 15/14 Q1014","updated":"2026-04-23T20:51:09Z"}
