{"icao":"LPPR","metar":"LPPR 041930Z 34015KT CAVOK 16/10 Q1019","updated":"2026-06-04T20:03:26Z"}
