{"icao":"KORD","metar":"KORD 051351Z 21010KT 10SM BKN046 OVC200 M09/M13 A2998 RMK AO2 SLP165 T10941128","updated":"2025-12-05T14:20:09Z"}
