{"icao":"LPMA","metar":"LPMA 080130Z 36007KT 9999 SCT015 16/09 Q1033","updated":"2026-01-08T01:41:17Z"}
