{"icao":"LPMR","metar":"LPMR 080600Z VRB01KT 3000 BR SCT002 SCT012 BKN045 13/13 Q1022","updated":"2025-10-08T06:27:09Z"}
