{"icao":"LPPS","metar":"LPPS 131830Z 01010KT 340V040 9999 SCT015 18/13 Q1021","updated":"2026-05-13T18:56:15Z"}
