{"icao":"LPPS","metar":"LPPS 080400Z 06008KT 9999 SCT014 21/17 Q1025","updated":"2025-10-08T04:20:27Z"}
