{"icao":"LPPT","metar":"LPPT 131500Z 33014KT 300V360 CAVOK 26/13 Q1021","updated":"2025-09-13T15:13:53Z"}
