{"icao":"KJFK","metar":"KJFK 182351Z 19019KT 10SM FEW250 20/16 A3009 RMK AO2 PK WND 18028/2311 SLP187 T02000156 10261 20200 56017","updated":"2026-05-19T00:04:57Z"}
