{"icao":"KJFK","metar":"KJFK 231251Z 35029G42KT 1/4SM R04R/2000V2400FT SN BLSN FZFG VV008 M02/M03 A2947 RMK AO2 PK WND 36045/1233 SFC VIS 1/2 SLP978 SNINCR 1/16 P0001 T10171028 $","updated":"2026-02-23T13:01:34Z"}
