{"icao":"LPBJ","metar":"LPBJ 120900Z 12005KT 7000 2000NW -RA BCFG FEW005 SCT022 12/12 Q1013","updated":"2025-12-12T09:23:33Z"}
