{"icao":"LPLA","metar":"LPLA 271800Z 36011KT 9000 -DZRA SCT009 BKN015 OVC023 15/13 Q1024","updated":"2025-11-27T18:26:38Z"}
