{"icao":"LPOV","metar":"LPOV 151200Z 32003KT CAVOK 24/15 Q1017","updated":"2025-10-15T12:38:40Z"}
