{"icao":"LPPS","metar":"LPPS 021100Z 25017KT 9999 SCT014 SCT030 17/12 Q0999","updated":"2026-01-02T11:17:43Z"}
