{"icao":"KLAX","metar":"KLAX 271753Z 00000KT 10SM FEW160 FEW180 SCT250 28/10 A2999 RMK AO2 SLP153 T02830100 10283 20150 50007","updated":"2026-02-27T18:41:25Z"}
