{"icao":"KLAX","metar":"KLAX 261817Z 26006KT 4SM HZ SCT012 OVC015 18/14 A3005 RMK AO2 VIS SW-NW 2 1/2 T01780139 $","updated":"2025-10-26T18:23:53Z"}
