{"icao":"LPBJ","metar":"LPBJ 092300Z 28005KT CAVOK 07/06 Q1029","updated":"2026-01-09T23:18:50Z"}
