{"icao":"LPPS","metar":"LPPS 080200Z 28014KT 9999 FEW010 17/15 Q1022","updated":"2026-02-08T02:28:35Z"}
