{"icao":"LPMA","metar":"LPMA 300600Z 01007KT 310V050 9999 SCT015 18/11 Q1025","updated":"2026-05-30T06:23:11Z"}
