{"icao":"LPBJ","metar":"LPBJ 110700Z 29009KT 2000 BCFG OVC004 13/13 Q1012","updated":"2026-04-11T07:13:04Z"}
