{"icao":"LPPT","metar":"LPPT 030500Z 31007KT CAVOK 15/13 Q1021","updated":"2025-10-03T05:16:49Z"}
