{"icao":"KORD","metar":"KORD 240851Z 00000KT 10SM BKN075 BKN110 OVC250 15/13 A2996 RMK AO2 SLP144 T01500128 56010","updated":"2026-05-24T09:23:40Z"}
