{"icao":"KLAX","metar":"KLAX 291553Z 06005KT 10SM FEW250 15/M03 A3019 RMK AO2 SLP222 T01501028","updated":"2026-01-29T16:42:04Z"}
