{"icao":"LPPT","metar":"LPPT 262200Z 36006KT CAVOK 18/13 Q1019","updated":"2025-10-26T22:16:20Z"}
