{"icao":"KLAX","metar":"KLAX 230253Z 26010KT 10SM BKN008 BKN150 20/18 A2980 RMK AO2 SLP091 T02000178 53001 $","updated":"2025-09-23T03:31:16Z"}
