{"icao":"LPPT","metar":"LPPT 171800Z 32008KT CAVOK 23/13 Q1014","updated":"2025-10-17T18:23:05Z"}
