{"icao":"LPFL","metar":"LPFL 071630Z 34018G30KT 9999 SCT022 16/09 Q1015","updated":"2026-05-07T16:48:32Z"}
