{"icao":"LPAR","metar":"LPAR 271000Z 36005KT 340V050 9999 FEW012 14/11 Q1025","updated":"2026-02-27T10:36:03Z"}
