{"icao":"LPPS","metar":"LPPS 060830Z 29018KT 9999 15/09 Q1017","updated":"2026-02-06T08:39:58Z"}
