{"icao":"LPOV","metar":"LPOV 142300Z VRB01KT 0200 FG BKN001 14/14 Q1017","updated":"2025-10-14T23:15:50Z"}
