{"icao":"KORD","metar":"KORD 281851Z 03012KT 10SM FEW025 SCT070 BKN200 OVC250 01/M07 A3016 RMK AO2 SLP219 T00111067 $","updated":"2026-02-28T19:19:44Z"}
