{"icao":"KJFK","metar":"KJFK 311851Z 00000KT 10SM FEW034 SCT190 BKN250 M06/M14 A3012 RMK AO2 SLP199 T10611144 $","updated":"2026-01-31T19:19:46Z"}
