{"icao":"LPPD","metar":"LPPD 300130Z 00000KT 6000 SCT003 BKN005 14/14 Q1013","updated":"2025-12-30T01:38:55Z"}
