{"icao":"KORD","metar":"KORD 030551Z 29004KT 10SM FEW030 BKN110 M06/M09 A3017 RMK AO2 SLP226 4/002 60000 T10561094 11033 21061 410281061 50005","updated":"2026-02-03T06:50:23Z"}
