{"icao":"LPHR","metar":"LPHR 101500Z 25007KT 220V280 9999 FEW013 23/20 Q1021","updated":"2025-10-10T15:18:01Z"}
