{"icao":"LPPT","metar":"LPPT 262130Z 25006KT CAVOK 26/08 Q1020","updated":"2026-05-26T21:43:28Z"}
