{"icao":"KJFK","metar":"KJFK 290451Z 28016G24KT 10SM FEW065 02/M07 A3019 RMK PK WND 28030/0433 SLP223 T00171072 400670006 ","updated":"2025-11-29T05:18:19Z"}
