{"icao":"LPMT","metar":"LPMT 081600Z 20007KT 150V230 6000 -RA SCT015 BKN025 13/10 Q1013","updated":"2026-02-08T16:29:27Z"}
