{"icao":"KLAX","metar":"KLAX 120628Z 10003KT 3SM BCFG BR FEW000 FEW001 SCT002 16/15 A3001 RMK AO2 VIS 1V6 FG FEW000 FG BANK S-W-N T01560150 $","updated":"2025-12-12T06:31:32Z"}
