{"icao":"LPAR","metar":"LPAR 101700Z 25013KT 3000 -DZRA BR SCT009 BKN013 BKN020 17/16 Q1015","updated":"2026-02-10T21:40:29Z"}
