{"icao":"LPHR","metar":"LPHR 012100Z 33017G31KT 9999 SCT025 15/09 Q1009","updated":"2026-01-01T22:18:49Z"}
