{"icao":"LPMR","metar":"LPMR 111500Z 12004KT 070V180 9999 FEW020 28/11 Q1018","updated":"2025-10-11T15:14:45Z"}
