{"icao":"KJFK","metar":"KJFK 141951Z 18015G23KT 10SM FEW060 SCT250 22/11 A2989 RMK AO2 SLP120 T02170111","updated":"2026-04-14T20:52:47Z"}
