{"icao":"LPAZ","metar":"LPAZ 211230Z 22012KT 8000 FEW005 SCT020 BKN030 24/23 Q1018","updated":"2025-10-21T12:38:59Z"}
