{"icao":"LPPD","metar":"LPPD 302030Z 16003KT 0100 R30/0100N FG VV000 18/18 Q1026","updated":"2026-05-30T20:54:31Z"}
