{"icao":"LPBJ","metar":"LPBJ 070200Z 36001KT 320V050 CAVOK 18/15 Q1021","updated":"2025-10-07T02:56:12Z"}
