{"icao":"LPFL","metar":"LPFL 231600Z 14008KT 110V170 9999 FEW008 SCT018 BKN030 21/18 Q1022","updated":"2026-05-23T16:07:19Z"}
