{"icao":"LPST","metar":"LPST 031100Z 15006KT CAVOK 16/11 Q1023","updated":"2025-11-03T11:15:30Z"}
