{"icao":"LPPT","metar":"LPPT 220600Z 01004KT CAVOK 07/01 Q1030","updated":"2025-11-22T06:25:23Z"}
