{"icao":"LPAR","metar":"LPAR 121500Z 06005KT 030V090 9999 FEW035 36/15 Q1016","updated":"2026-06-14T09:31:12Z"}
