{"icao":"KLAX","metar":"KLAX 191653Z 12004KT 10SM FEW240 SCT290 22/09 A3005 RMK AO2 SLP175 T02170094 $","updated":"2025-10-19T17:14:28Z"}
