{"icao":"KJFK","metar":"KJFK 172151Z 31021G34KT 10SM FEW055 06/M08 A2986 RMK AO2 PK WND 29035/2108 SLP110 T00561083 $","updated":"2025-11-17T22:17:36Z"}
