{"icao":"LPMA","metar":"LPMA 200830Z 04010KT 9999 BKN025 16/09 Q1027","updated":"2026-02-20T08:38:37Z"}
