{"icao":"LPHR","metar":"LPHR 261000Z 28030G42KT 9999 SCT012 SCT035 BKN070 14/07 Q1004","updated":"2026-01-26T10:25:26Z"}
