{"icao":"LPOV","metar":"LPOV 090800Z 35005KT 310V020 5000 -RADZ BR FEW006 BKN030 10/10 Q1020 RERADZ","updated":"2026-03-09T08:42:05Z"}
