{"icao":"LPPD","metar":"LPPD 312200Z 35010KT 320V020 9999 FEW020 16/09 Q1015","updated":"2025-10-31T22:16:52Z"}
