{"icao":"LPST","metar":"LPST 200900Z 26003KT 220V310 9999 FEW014 SCT034 18/16 Q1015","updated":"2025-10-20T09:20:54Z"}
