{"icao":"LPMT","metar":"LPMT 262000Z 35009KT CAVOK 21/14 Q1014","updated":"2026-04-26T20:36:49Z"}
