{"icao":"LPCS","metar":"LPCS 071400Z 29005KT 240V310 2000 RADZ BR FEW002 BKN005 18/18 Q1015","updated":"2025-11-07T14:18:21Z"}
