{"icao":"LPPD","metar":"LPPD 081500Z 02016G27KT 350V060 9999 FEW030 14/07 Q1028","updated":"2026-03-08T15:22:36Z"}
