{"icao":"KJFK","metar":"KJFK 311151Z 26016KT 10SM FEW042 SCT120 BKN220 M02/M11 A2985 RMK AO2 SLP108 T10221111 11022 21028 53011 $","updated":"2025-12-31T12:40:49Z"}
