{"icao":"LPPR","metar":"LPPR 102030Z 21008KT 9000 SCT006 SCT009 BKN015 15/14 Q1014","updated":"2026-02-10T20:42:42Z"}
