{"icao":"LPOV","metar":"LPOV 231300Z 16008KT 4000 -DZ BR BKN007 BKN015 13/13 Q1024","updated":"2025-11-23T13:22:23Z"}
