{"icao":"KORD","metar":"KORD 160051Z 19009KT 10SM FEW110 SCT140 BKN170 BKN250 M06/M13 A2977 RMK AO2 SLP094 T10561128 $","updated":"2026-01-16T01:42:12Z"}
