{"icao":"LPMA","metar":"LPMA 131000Z 05008KT 010V070 9999 FEW015 23/16 Q1018","updated":"2025-10-13T10:21:13Z"}
