{"icao":"LPFR","metar":"LPFR 171230Z 12010KT CAVOK 27/19 Q1020","updated":"2025-09-17T12:36:17Z"}
