{"icao":"KJFK","metar":"KJFK 030851Z 31012KT 10SM FEW050 M04/M15 A2993 RMK AO2 SLP133 T10391150 51012 $","updated":"2026-01-03T09:19:20Z"}
