{"icao":"KORD","metar":"KORD 151351Z 24004KT 6SM HZ FEW120 02/M01 A2992 RMK AO2 SLP138 T00221011 $","updated":"2026-02-15T14:26:44Z"}
