{"icao":"LPOV","metar":"LPOV 051500Z 32009KT CAVOK 18/10 Q1018","updated":"2026-06-05T15:51:49Z"}
