{"icao":"LPMR","metar":"LPMR 271200Z 12005KT 080V200 CAVOK 34/13 Q1018","updated":"2026-05-27T12:19:02Z"}
