{"icao":"LPPR","metar":"LPPR 121430Z 20009KT 4500 BR BKN012 BKN020 14/12 Q1016","updated":"2026-02-12T14:45:36Z"}
