{"icao":"LPMA","metar":"LPMA 180330Z 35020G38KT 280V020 9999 BKN015 FEW018TCU 18/12 Q1013","updated":"2026-01-18T03:44:55Z"}
