{"icao":"LPPT","metar":"LPPT 041500Z 34016KT 310V010 9999 FEW030 25/15 Q1022","updated":"2025-10-04T15:14:22Z"}
