{"icao":"LPBJ","metar":"LPBJ 141300Z 31014KT 280V340 9999 BKN028 16/08 Q1018","updated":"2026-03-14T13:44:20Z"}
