{"icao":"LPMA","metar":"LPMA 220900Z 01014KT 340V050 9999 SCT015 19/09 Q1026","updated":"2025-11-22T09:17:25Z"}
