{"icao":"LPPT","metar":"LPPT 221700Z 04004KT 320V070 CAVOK 13/M01 Q1028","updated":"2025-11-22T17:14:34Z"}
