{"icao":"KJFK","metar":"KJFK 021951Z 02018G28KT 3SM -RA BR BKN007 BKN012 OVC042 04/03 A2966 RMK AO2 PK WND 02028/1942 SFC VIS 4 SLP044 P0013 T00440033 $","updated":"2025-12-02T20:23:32Z"}
