{"icao":"KLAX","metar":"KLAX 100853Z 00000KT 1/8SM R25L/0700V0800FT FG BKN001 15/15 A3011 RMK AO2 SLP193 T01500150 58005 $","updated":"2025-11-10T09:23:00Z"}
