{"icao":"KJFK","metar":"KJFK 070551Z 04003KT 10SM OVC010 03/01 A3039 RMK AO2 SLP291 T00280011 10039 20028 56013","updated":"2026-03-07T06:39:07Z"}
