{"icao":"LPPT","metar":"LPPT 010730Z 25008KT 3000 -DZRA BR SCT002 BKN004 15/15 Q1014","updated":"2026-02-01T07:35:58Z"}
