{"icao":"LPMA","metar":"LPMA 240700Z 33009KT 240V020 9999 FEW016 15/06 Q1024","updated":"2026-01-24T07:18:52Z"}
