{"icao":"LPOV","metar":"LPOV 181700Z 17013KT 8000 -RA FEW008 BKN016 14/12 Q1016","updated":"2025-12-18T17:21:57Z"}
