{"icao":"LPCS","metar":"LPCS 160800Z 35024G38KT 9999 -RA FEW018 FEW025CB BKN040 11/09 Q1010 RESHRA","updated":"2025-12-16T08:28:33Z"}
