{"icao":"KORD","metar":"KORD 182251Z 25016G27KT 10SM FEW300 16/M14 A2955 RMK AO2 PK WND 23033/2154 SLP007 T01611139","updated":"2026-02-18T23:28:43Z"}
