{"icao":"LPMA","metar":"LPMA 071630Z 35012G23KT 260V030 9999 SCT014 16/04 Q1023","updated":"2026-04-07T16:57:20Z"}
