{"icao":"LPMA","metar":"LPMA 282100Z 34006KT 310V010 9999 FEW015 21/17 Q1010","updated":"2025-10-28T21:16:50Z"}
