{"icao":"LPPR","metar":"LPPR 181900Z 18002KT CAVOK 19/13 Q1016","updated":"2025-10-18T19:12:47Z"}
