{"icao":"LPBJ","metar":"LPBJ 150100Z 30006KT CAVOK 18/10 Q1017","updated":"2025-10-15T01:20:20Z"}
