{"icao":"KJFK","metar":"KJFK 010851Z 32014KT 10SM FEW090 SCT250 09/M01 A2988 RMK SLP118 T00891006 51007 ","updated":"2026-05-01T08:59:17Z"}
