{"icao":"LPFR","metar":"LPFR 180100Z 00000KT CAVOK 13/12 Q1016","updated":"2025-11-18T01:23:51Z"}
