{"icao":"LPFR","metar":"LPFR 180430Z 02004KT 9999 SCT040 08/05 Q1007","updated":"2026-01-18T04:40:12Z"}
