{"icao":"LPFL","metar":"LPFL 091800Z 18008KT 150V220 9999 VCSH SCT017 FEW020TCU 22/18 Q1017","updated":"2025-10-09T18:25:36Z"}
