{"icao":"LPOV","metar":"LPOV 181000Z 14009KT 110V170 8000 -SHRA FEW015 SCT040 17/11 Q1005","updated":"2026-03-18T10:51:29Z"}
