{"icao":"LPMT","metar":"LPMT 021600Z 33007KT CAVOK 28/14 Q1019","updated":"2025-10-02T16:21:15Z"}
