{"icao":"KJFK","metar":"KJFK 110951Z 27017G23KT 10SM BKN047 02/M07 A2971 RMK AO2 PK WND 28026/0901 SLP060 T00171067 $","updated":"2025-11-11T10:20:34Z"}
