{"icao":"LPOV","metar":"LPOV 211400Z 34016KT 300V360 9999 SCT030 19/12 Q1022","updated":"2025-09-21T14:13:54Z"}
