{"icao":"LPFR","metar":"LPFR 271800Z 30005KT CAVOK 15/08 Q1022","updated":"2025-11-27T18:26:16Z"}
