{"icao":"LPBJ","metar":"LPBJ 051328Z 29012KT 9000 SCT010 BKN019 BKN030 17/15 Q1022","updated":"2025-12-05T13:31:02Z"}
