{"icao":"KORD","metar":"KORD 080351Z 00000KT 10SM CLR 12/08 A3021 RMK AO2 SLP231 T01170083 $","updated":"2025-10-08T04:20:28Z"}
