{"icao":"KORD","metar":"KORD 221751Z 21008KT 10SM FEW045 BKN140 BKN250 27/16 A2987 RMK AO2 SLP111 T02670161 10267 20189 58012","updated":"2025-09-22T18:24:14Z"}
