{"icao":"LPAR","metar":"LPAR 221500Z 21012KT 4000 -RA BR SCT009 BKN020 BKN035 13/12 Q1005","updated":"2026-01-22T15:29:40Z"}
