{"icao":"LPPS","metar":"LPPS 011230Z 20026KT 9999 SCT012 19/15 Q1002","updated":"2026-01-01T12:40:34Z"}
