{"icao":"KORD","metar":"KORD 181251Z 25013G20KT 10SM FEW018 FEW100 M14/M18 A3004 RMK AO2 SLP188 T11391183 $","updated":"2026-01-18T13:27:41Z"}
