{"icao":"KJFK","metar":"KJFK 221151Z 05003KT 10SM FEW050 SCT250 14/11 A3017 RMK AO2 SLP217 T01440111 10144 20111 58001 $","updated":"2025-09-22T12:36:49Z"}
