{"icao":"KORD","metar":"KORD 140051Z 10007KT 10SM SCT160 BKN250 23/18 A2999 RMK AO2 SLP150 T02280178 $","updated":"2025-09-14T01:23:08Z"}
