{"icao":"LPPT","metar":"LPPT 181600Z 31009KT CAVOK 29/13 Q1014","updated":"2026-06-18T16:29:16Z"}
