{"icao":"LPMA","metar":"LPMA 130800Z 01016KT 340V040 9999 FEW015 23/16 Q1022"}
