{"icao":"LPFR","metar":"LPFR 182100Z 03005KT CAVOK 21/17 Q1017","updated":"2025-10-18T21:14:06Z"}
