{"icao":"LPLA","metar":"LPLA 170800Z 26004KT 210V320 9999 FEW025 SCT040 16/10 Q1025","updated":"2026-05-17T09:03:42Z"}
