{"icao":"LPFR","metar":"LPFR 120830Z 01003KT 340V080 CAVOK 15/09 Q1025","updated":"2026-03-12T08:40:32Z"}
