{"icao":"LPOV","metar":"LPOV 020700Z 24013G23KT 210V270 9999 SCT015 FEW020CB BKN035 11/09 Q0992","updated":"2026-02-02T07:48:25Z"}
