{"icao":"LPAR","metar":"LPAR 221000Z 05007KT CAVOK 09/03 Q1031","updated":"2025-11-22T10:17:47Z"}
