{"icao":"LPLA","metar":"LPLA 152300Z 24007KT 180V290 9999 SCT016 21/18 Q1019","updated":"2026-06-15T23:43:41Z"}
