{"icao":"KORD","metar":"KORD 260851Z 30007KT 10SM FEW032 BKN047 BKN080 M17/M24 A3020 RMK AO2 SLP244 T11721244 50007 $","updated":"2026-01-26T09:33:15Z"}
