{"icao":"LPPT","metar":"LPPT 161230Z 12004KT 050V190 CAVOK 27/09 Q1014","updated":"2025-10-16T12:38:38Z"}
