{"icao":"KORD","metar":"KORD 242151Z 20015G28KT 10SM SCT110 OVC250 02/M09 A2950 RMK AO2 PK WND 20033/2115 SLP996 VIRGA T00171089","updated":"2026-02-24T22:32:32Z"}
