{"icao":"LPPR","metar":"LPPR 171000Z VRB01KT 6000 NSC 19/14 Q1015","updated":"2025-10-17T10:19:01Z"}
