{"icao":"KORD","metar":"KORD 191151Z 05009KT 10SM OVC016 06/02 A3018 RMK AO2 SLP226 70009 T00560022 10061 20056 51015 $","updated":"2025-11-19T12:39:53Z"}
