{"icao":"LPAZ","metar":"LPAZ 111830Z 05014KT 010V080 9999 FEW013 FEW025TCU BKN045 15/12 Q1019","updated":"2026-05-11T18:57:22Z"}
