{"icao":"LPPD","metar":"LPPD 020730Z 35009KT 320V020 9999 FEW020 BKN040 11/04 Q1029","updated":"2026-03-02T07:49:33Z"}
