{"icao":"LPCS","metar":"LPCS 150700Z 36003KT CAVOK 15/10 Q1016","updated":"2025-10-15T07:18:28Z"}
