{"icao":"LPBJ","metar":"LPBJ 200827Z 30005KT 5000 0800S BCFG FEW005 05/05 Q1020","updated":"2026-01-20T08:30:22Z"}
