{"icao":"KLAX","metar":"KLAX 062053Z 25009KT 10SM SCT027 SCT140 BKN250 22/14 A2986 RMK AO2 SLP110 T02170139 58006 $","updated":"2026-06-06T21:02:54Z"}
