{"icao":"KJFK","metar":"KJFK 070951Z 30012KT 5SM -SN SCT026 BKN040 OVC055 M02/M06 A2954 RMK AO2 SLP003 P0000 T10221056 $","updated":"2026-02-07T10:24:00Z"}
