{"icao":"KLAX","metar":"KLAX 291653Z 36005KT 10SM CLR 29/M01 A3002 RMK AO2 SLP163 T02891006 $","updated":"2025-10-29T17:17:42Z"}
