{"icao":"LPPS","metar":"LPPS 301900Z 02011KT 9999 SCT015 18/11 Q1022","updated":"2025-11-30T19:14:37Z"}
