{"icao":"LPPR","metar":"LPPR 230000Z 06007KT 030V110 9999 TS FEW020 FEW025CB 20/13 Q1020","updated":"2026-05-23T00:05:18Z"}
