{"icao":"KORD","metar":"KORD 021051Z 13005KT 10SM BKN250 15/08 A3024 RMK AO2 SLP237 T01500078","updated":"2025-10-02T11:13:53Z"}
