{"icao":"LPMR","metar":"LPMR 010700Z 12001KT CAVOK 12/11 Q1021","updated":"2025-10-01T07:17:57Z"}
