{"icao":"LPHR","metar":"LPHR 271630Z 07014KT 9999 FEW018 18/10 Q1030","updated":"2026-03-27T16:53:35Z"}
