{"icao":"LPAR","metar":"LPAR 011000Z 05013KT CAVOK 18/05 Q1024","updated":"2026-04-01T10:54:24Z"}
