{"icao":"KJFK","metar":"KJFK 191851Z 24016KT 10SM FEW023 SCT039 BKN050 11/09 A2935 RMK AO2 RAE24 SLP939 P0001 T01060089","updated":"2025-12-19T19:16:04Z"}
