{"icao":"LPPT","metar":"LPPT 200130Z 12007KT 100V160 9999 SCT005 13/13 Q1006","updated":"2026-03-20T02:00:35Z"}
