{"icao":"KORD","metar":"KORD 131258Z 09014G25KT 3SM -TSRA BR FEW041 BKN055CB OVC090 18/17 A3008 RMK AO2 WSHFT 1238 FRQ LTGICCG OHD TS OHD MOV SE P0001 T01780167 $","updated":"2025-09-13T13:18:44Z"}
