{"icao":"LPBJ","metar":"LPBJ 231500Z 16007KT 130V190 CAVOK 23/06 Q1023","updated":"2026-02-23T15:44:00Z"}
