{"icao":"LPMT","metar":"LPMT 282200Z VRB02KT CAVOK 10/07 Q1023","updated":"2026-02-28T22:20:52Z"}
