{"icao":"LPMT","metar":"LPMT 020600Z 12004KT 070V140 9999 SCT008 SCT018 BKN040 11/11 Q1012","updated":"2026-03-02T06:56:12Z"}
