{"icao":"LPLA","metar":"LPLA 091524Z 19018G32KT 160V220 7000 -SHRA FEW008 BKN016 22/18 Q1020","updated":"2025-10-09T15:29:16Z"}
