{"icao":"LPOV","metar":"LPOV 020100Z VRB02KT 9999 MIFG FEW003 11/10 Q1023","updated":"2025-11-02T01:27:38Z"}
