{"icao":"KLAX","metar":"KLAX 070253Z 26003KT 10SM CLR 16/13 A3005 RMK AO2 SLP175 T01560128 51012 $","updated":"2025-12-07T03:26:07Z"}
