{"icao":"LPPR","metar":"LPPR 222230Z VRB02KT 9000 NSC 20/18 Q1016","updated":"2026-06-22T22:45:53Z"}
