{"icao":"LPST","metar":"LPST 201100Z 02011KT 350V050 CAVOK 12/06 Q1031","updated":"2026-02-20T11:30:56Z"}
