{"icao":"KLAX","metar":"KLAX 121053Z 00000KT 10SM FEW250 11/00 A3021 RMK AO2 SLP227 T01110000 $","updated":"2026-01-12T11:20:02Z"}
