{"icao":"LPCS","metar":"LPCS 021300Z 20010KT 170V240 9999 SCT009 SCT017 18/15 Q1017","updated":"2026-05-02T13:08:04Z"}
