{"icao":"LPPR","metar":"LPPR 241130Z 07004KT 020V150 CAVOK 21/07 Q1021","updated":"2026-03-24T11:43:30Z"}
