{"icao":"LPPS","metar":"LPPS 250930Z 06015KT 020V100 9999 SCT012 17/13 Q1020","updated":"2026-03-25T09:52:42Z"}
