{"icao":"LPFL","metar":"LPFL 211300Z 21018G32KT 170V270 9999 VCSH SCT014 24/18 Q1009","updated":"2025-10-21T13:32:29Z"}
