{"icao":"LPBJ","metar":"LPBJ 151800Z 02010KT CAVOK 19/07 Q1017","updated":"2026-03-15T18:37:16Z"}
