{"icao":"KJFK","metar":"KJFK 130951Z 28012G20KT 10SM BKN080 09/01 A2985 RMK AO2 SLP107 T00940006","updated":"2025-11-13T10:21:01Z"}
