{"icao":"LPOV","metar":"LPOV 291500Z 33010KT 290V350 9999 BKN010 20/17 Q1022","updated":"2026-05-29T15:24:53Z"}
