{"icao":"KORD","metar":"KORD 110616Z 31016G24KT 10SM -SN SCT029 OVC041 M04/M10 A3002 RMK AO2 P0000 T10441100","updated":"2026-01-11T06:30:30Z"}
