{"icao":"LPMT","metar":"LPMT 081000Z 31008KT 280V340 9999 FEW014 SCT025 BKN038 19/14 Q1023","updated":"2025-10-08T11:14:31Z"}
