{"icao":"LPPT","metar":"LPPT 231430Z 32009KT 290V350 CAVOK 26/17 Q1021","updated":"2026-05-23T14:59:18Z"}
