{"icao":"KORD","metar":"KORD 271451Z 14008KT 4SM BR OVC007 03/02 A3003 RMK AO2 SLP176 T00330017 53011 $","updated":"2025-12-27T15:18:23Z"}
