{"icao":"KJFK","metar":"KJFK 032051Z 17013KT 10SM FEW250 24/06 A3017 RMK AO2 SLP215 T02390056 56010 $","updated":"2026-06-03T21:47:21Z"}
