{"icao":"LPMA","metar":"LPMA 130700Z 36020G35KT 300V030 9999 BKN015 FEW018CB 16/07 Q1019","updated":"2025-12-13T07:20:19Z"}
