{"icao":"LPPR","metar":"LPPR 031130Z 29006KT CAVOK 19/10 Q1024","updated":"2026-04-03T11:36:32Z"}
