{"icao":"LPPS","metar":"LPPS 112200Z 22015KT 9999 FEW015 21/17 Q1007","updated":"2025-11-11T22:17:52Z"}
