{"icao":"KLAX","metar":"KLAX 231553Z 00000KT 1 3/4SM BR OVC009 17/14 A2995 RMK AO2 SLP141 T01670144","updated":"2026-03-23T15:58:50Z"}
