{"icao":"LPMR","metar":"LPMR 031200Z 33005KT CAVOK 22/12 Q1023","updated":"2026-04-03T13:01:03Z"}
