{"icao":"KORD","metar":"KORD 180951Z 12009KT 10SM SCT050 OVC060 04/02 A3003 RMK AO2 RAE50 SLP171 P0001 T00440017","updated":"2025-11-18T10:21:41Z"}
