{"icao":"LPMA","metar":"LPMA 171700Z 35010KT 320V030 9999 SCT015 17/09 Q1019","updated":"2026-01-17T17:16:20Z"}
