{"icao":"LPFL","metar":"LPFL 161100Z 20015KT 150V250 9999 FEW010 SCT014 24/19 Q1019","updated":"2025-09-16T11:14:20Z"}
