{"icao":"KLAX","metar":"KLAX 161653Z 00000KT 10SM CLR 18/07 A2996 RMK AO2 SLP143 T01830067 $","updated":"2025-10-16T17:16:06Z"}
