{"icao":"KJFK","metar":"KJFK 101351Z 22015KT 10SM SCT018 BKN120 BKN250 03/M02 A2975 RMK AO2 SLP073 T00281017","updated":"2025-12-10T14:21:18Z"}
