{"icao":"KORD","metar":"KORD 021251Z 34006KT 10SM SCT021 BKN030 BKN060 27/23 A3005 RMK AO2 SLP170 T02720228","updated":"2026-07-02T12:56:46Z"}
