{"icao":"LPFR","metar":"LPFR 210700Z 28010KT 9999 FEW012 SCT048 13/10 Q1010","updated":"2025-12-21T07:17:54Z"}
