{"icao":"LPPD","metar":"LPPD 100200Z 22021KT 4000 BR SCT005 BKN009 17/16 Q1012","updated":"2026-02-10T02:23:33Z"}
