{"icao":"LPPD","metar":"LPPD 231230Z 30015G27KT 270V350 9999 FEW025 14/07 Q1024","updated":"2026-01-23T12:44:04Z"}
