{"icao":"LPFR","metar":"LPFR 130800Z 04005KT 010V070 9999 FEW025 20/13 Q1015","updated":"2025-10-13T08:25:51Z"}
