{"icao":"LPPR","metar":"LPPR 190130Z VRB01KT CAVOK 06/05 Q1018","updated":"2026-01-19T01:46:26Z"}
