{"icao":"KORD","metar":"KORD 192251Z 27007G15KT 10SM FEW070 14/01 A2980 RMK AO2 PK WND 29026/2201 SLP090 T01390011 $","updated":"2025-10-19T23:16:04Z"}
