{"icao":"KLAX","metar":"KLAX 221233Z 21003KT 10SM FEW009 BKN011 17/14 A2989 RMK AO2 T01670144 $","updated":"2026-06-22T12:48:53Z"}
