{"icao":"LPMA","metar":"LPMA 121230Z 02015G29KT 350V050 9999 SCT015 BKN030 16/07 Q1027","updated":"2026-04-12T12:59:15Z"}
