{"icao":"KJFK","metar":"KJFK 050251Z 26007KT 10SM FEW250 12/M02 A3015 RMK AO2 SLP211 T01171017 53011 $","updated":"2025-11-05T03:10:09Z"}
