{"icao":"KORD","metar":"KORD 101051Z 19006KT 10SM SCT140 BKN250 11/04 A3024 RMK AO2 SLP242 T01060039","updated":"2025-10-10T11:15:38Z"}
