{"icao":"LPMA","metar":"LPMA 190800Z 34009KT 310V010 9999 SCT015 17/13 Q1019","updated":"2025-11-19T08:25:25Z"}
