{"icao":"LPPS","metar":"LPPS 022300Z 36024G41KT 9000 SHRA FEW015 FEW018CB 12/06 Q1019","updated":"2026-03-02T23:24:19Z"}
