{"icao":"LPCS","metar":"LPCS 080600Z 33008KT 9999 FEW016 SCT028 17/15 Q1022","updated":"2025-10-08T06:27:06Z"}
