{"icao":"LPLA","metar":"LPLA 061300Z 21027G44KT 170V240 9999 FEW007 BKN012 BKN020 20/17 Q1009","updated":"2025-12-06T13:25:31Z"}
