{"icao":"LPMR","metar":"LPMR 070300Z 16003KT 7000 -RA SCT028 BKN035 06/05 Q1024","updated":"2026-01-07T03:28:06Z"}
