{"icao":"LPPR","metar":"LPPR 012130Z VRB02KT CAVOK 15/12 Q1019","updated":"2026-05-01T21:51:47Z"}
