{"icao":"LPMT","metar":"LPMT 070300Z 16003KT 140V200 9999 FEW028 BKN048 14/14 Q1023","updated":"2025-12-07T03:25:52Z"}
