{"icao":"LPFR","metar":"LPFR 010430Z 06009KT 9999 FEW008 BKN023 13/10 Q1014","updated":"2026-01-01T04:46:48Z"}
