{"icao":"LPPS","metar":"LPPS 290800Z 02012KT 350V050 9999 SCT015 BKN030 21/14 Q1022","updated":"2025-09-29T08:25:55Z"}
