{"icao":"LPPS","metar":"LPPS 221100Z 06017KT 9999 FEW015 SCT030 19/11 Q1027","updated":"2025-11-22T11:13:21Z"}
