{"icao":"LPOV","metar":"LPOV 031500Z 33009KT CAVOK 18/09 Q1023","updated":"2026-04-03T16:39:06Z"}
