{"icao":"LPAZ","metar":"LPAZ 221830Z 20008KT 7000 FEW001 BKN002 19/18 Q1021","updated":"2026-05-22T18:52:47Z"}
