{"icao":"LPPT","metar":"LPPT 041900Z 34014KT 310V010 9999 SCT012 19/16 Q1022","updated":"2025-10-04T19:11:48Z"}
