{"icao":"LPFR","metar":"LPFR 121700Z 32020KT CAVOK 19/04 Q1016","updated":"2026-04-12T17:33:01Z"}
