{"icao":"LPHR","metar":"LPHR 021400Z 19008KT 9999 SCT035 20/12 Q1021","updated":"2025-11-02T14:14:42Z"}
