{"icao":"LPAZ","metar":"LPAZ 171400Z 24006KT 210V270 9999 FEW020 23/18 Q1014","updated":"2025-10-17T14:17:25Z"}
