{"icao":"LPBJ","metar":"LPBJ 041100Z 33011KT 9999 FEW030 22/11 Q1018","updated":"2026-06-04T11:51:42Z"}
