{"icao":"KJFK","metar":"KJFK 090951Z 14007KT 4SM BR SCT008 SCT090 SCT190 SCT250 13/12 A2989 RMK AO2 SLP120 T01280122 $","updated":"2025-11-09T10:17:20Z"}
