{"icao":"LPPS","metar":"LPPS 090700Z 05009KT 350V080 9999 FEW015 BKN030 22/17 Q1024","updated":"2025-10-09T07:17:43Z"}
