{"icao":"LPFL","metar":"LPFL 231600Z 17012KT 9999 FEW022 FEW023TCU 21/16 Q1012","updated":"2025-10-23T16:22:47Z"}
