{"icao":"LPPR","metar":"LPPR 010800Z 15003KT 070V220 CAVOK 07/05 Q1022","updated":"2026-03-01T08:29:11Z"}
