{"icao":"LPHR","metar":"LPHR 290000Z 04009KT 9999 FEW015 BKN030 14/11 Q1035","updated":"2026-03-29T02:23:03Z"}
