{"icao":"LPCS","metar":"LPCS 021700Z 28007KT 240V310 9999 -SHRA SCT016 FEW023CB 14/10 Q1017","updated":"2025-12-02T17:20:58Z"}
