{"icao":"LPFR","metar":"LPFR 112300Z 03004KT 280V050 CAVOK 09/08 Q1026","updated":"2026-01-11T23:18:18Z"}
