{"icao":"LPST","metar":"LPST 071500Z 32005KT 290V360 9999 SCT009 BKN012 17/16 Q1015","updated":"2025-11-07T15:18:34Z"}
