{"icao":"LPPR","metar":"LPPR 150600Z 17016KT 9999 -TSRA SCT013 BKN017 SCT025CB 15/12 Q1002","updated":"2025-11-15T06:25:27Z"}
