{"icao":"LPFR","metar":"LPFR 181930Z 24014KT 9999 SCT016 BKN026 15/13 Q1022","updated":"2026-02-18T19:47:13Z"}
