{"icao":"LPBJ","metar":"LPBJ 131910Z 19018KT 5000 -RA FEW015CB SCT020 14/13 Q1001 RERA","updated":"2025-11-13T19:14:57Z"}
