{"icao":"KLAX","metar":"KLAX 302053Z 02009KT 10SM -RA SCT065 OVC100 21/03 A3008 RMK AO2 RAB52 SLP185 P0000 60000 T02060028 56026 $","updated":"2025-12-30T21:19:10Z"}
