{"icao":"LPPT","metar":"LPPT 061530Z 28009KT 240V320 9999 VCSH FEW020 FEW025CB SCT035 12/08 Q1006 RESHRA","updated":"2026-02-06T15:38:19Z"}
