{"icao":"LPCS","metar":"LPCS 031130Z 22005KT 180V240 CAVOK 20/12 Q1023","updated":"2026-04-03T11:36:33Z"}
