{"icao":"KORD","metar":"KORD 081251Z 18009KT 10SM BKN170 OVC250 07/02 A2983 RMK AO2 SLP104 T00720017","updated":"2026-01-08T13:39:39Z"}
