{"icao":"LPLA","metar":"LPLA 270100Z 20011KT 130V240 9999 FEW015 18/15 Q1020","updated":"2025-11-27T01:23:15Z"}
