{"icao":"LPCS","metar":"LPCS 131730Z 30008KT 260V330 9999 FEW015 SCT025 15/08 Q1022","updated":"2026-04-13T17:58:27Z"}
