{"icao":"LPHR","metar":"LPHR 011730Z 07008KT 040V120 9999 FEW020 19/10 Q1016","updated":"2026-05-01T18:03:17Z"}
