{"icao":"LPMA","metar":"LPMA 291000Z 36007KT 310V030 9999 FEW016 19/09 Q1023","updated":"2025-11-29T10:18:34Z"}
