{"icao":"LPPT","metar":"LPPT 160700Z 03006KT CAVOK 11/09 Q1020","updated":"2026-03-16T07:14:59Z"}
