{"icao":"LPST","metar":"LPST 101400Z 26017KT 2000 BR BKN002 BKN010 15/15 Q1016","updated":"2026-02-10T14:56:57Z"}
