{"icao":"LPST","metar":"LPST 121700Z 19008KT 9999 FEW018 15/12 Q1017","updated":"2026-02-12T21:32:01Z"}
