{"icao":"LPPS","metar":"LPPS 191600Z 06007KT 020V100 9999 SCT015 SCT030 19/13 Q1023","updated":"2026-05-19T16:17:42Z"}
