{"icao":"LPLA","metar":"LPLA 102200Z 29017KT 9999 FEW018 SCT025 17/14 Q1006 RERA","updated":"2025-11-10T22:18:33Z"}
