{"icao":"KLAX","metar":"KLAX 021653Z 03008KT 10SM BKN048 BKN055 OVC270 16/12 A3007 RMK AO2 SLP183 T01560117 $","updated":"2026-01-02T17:17:01Z"}
