{"icao":"KJFK","metar":"KJFK 011351Z 32018G37KT 10SM FEW043 FEW100 M04/M12 A2971 RMK AO2 PK WND 31037/1347 SLP059 T10391122 $","updated":"2026-01-01T14:18:55Z"}
