{"icao":"LPMT","metar":"LPMT 052100Z 27004KT 230V290 9999 FEW015 15/11 Q1014","updated":"2025-11-05T21:17:07Z"}
