{"icao":"LPPD","metar":"LPPD 232300Z 01006KT 340V040 9999 FEW018 SCT035 15/12 Q1024","updated":"2025-12-23T23:17:58Z"}
