{"icao":"KORD","metar":"KORD 221051Z 00000KT 10SM FEW025 01/M02 A3005 RMK AO2 SLP180 T00111022","updated":"2025-11-22T11:13:21Z"}
