{"icao":"LPMA","metar":"LPMA 012000Z 21020KT 9999 SCT015 18/12 Q1013","updated":"2026-02-01T20:25:55Z"}
