{"icao":"KLAX","metar":"KLAX 101953Z 24010KT 10SM FEW045 SCT100 SCT160 BKN220 22/14 A2985 RMK AO2 SLP107 T02220144 $","updated":"2025-10-10T20:18:54Z"}
