{"icao":"LPFR","metar":"LPFR 261300Z 04010KT CAVOK 18/04 Q1023","updated":"2025-11-26T13:33:33Z"}
