{"icao":"LPMR","metar":"LPMR 260700Z 00000KT 2000 BR OVC007 14/14 Q1017","updated":"2026-04-26T07:27:04Z"}
