{"icao":"LPMT","metar":"LPMT 190500Z 02009KT 6000 -RA FEW025 12/12 Q1018","updated":"2025-12-19T07:20:22Z"}
