{"icao":"LPPR","metar":"LPPR 241900Z VRB02KT 8000 RA FEW011 SCT020 BKN045 16/13 Q1015 RERA","updated":"2025-10-24T19:14:22Z"}
