{"icao":"LPPD","metar":"LPPD 021530Z 07010KT 010V110 9999 SCT020 SCT035 17/13 Q1019","updated":"2026-05-02T15:43:37Z"}
