{"icao":"KLAX","metar":"KLAX 080753Z 33007KT 300V360 10SM CLR 16/04 A2999 RMK AO2 SLP155 T01560039 401780106 $","updated":"2026-01-08T08:29:29Z"}
