{"icao":"LPPR","metar":"LPPR 121900Z 02007KT 360V070 9999 -RA FEW012 SCT035 11/10 Q1017","updated":"2025-12-12T19:16:29Z"}
