{"icao":"KORD","metar":"KORD 071551Z 32007KT 10SM FEW030 FEW250 M08/M15 A3044 RMK AO2 SLP320 T10781150 $","updated":"2026-02-07T16:29:30Z"}
