{"icao":"LPPR","metar":"LPPR 200700Z 16005KT 9999 FEW010 BKN040 16/15 Q1013","updated":"2025-10-20T07:18:34Z"}
