{"icao":"KORD","metar":"KORD 081451Z 17010KT 10SM BKN210 BKN250 09/02 A2981 RMK AO2 SLP098 T00890022 58008","updated":"2026-01-08T15:25:06Z"}
