{"icao":"LPAR","metar":"LPAR 270900Z 36004KT 340V040 9999 FEW009 13/10 Q1025","updated":"2026-02-27T09:39:28Z"}
