{"icao":"LPMT","metar":"LPMT 241900Z 29007KT 250V320 9999 FEW030 SCT040 12/06 Q1016","updated":"2026-01-24T19:15:52Z"}
