{"icao":"LPPT","metar":"LPPT 150330Z 02003KT 350V050 CAVOK 10/08 Q1014","updated":"2025-12-15T03:40:18Z"}
