{"icao":"LPBJ","metar":"LPBJ 100500Z 19003KT 6000 VCFG FEW003 09/09 Q1020","updated":"2025-11-10T05:18:56Z"}
