{"icao":"LPMR","metar":"LPMR 190900Z VRB01KT 8000 FEW007 14/13 Q1016","updated":"2026-04-19T09:45:27Z"}
