{"icao":"KJFK","metar":"KJFK 230251Z 35010KT 10SM SCT250 07/M03 A3003 RMK AO2 SLP167 T00671033 51014","updated":"2025-11-23T03:26:37Z"}
