{"icao":"LPMT","metar":"LPMT 261600Z 03008KT CAVOK 16/06 Q1024","updated":"2025-11-26T16:24:40Z"}
