{"icao":"KORD","metar":"KORD 221851Z 33013G24KT 10SM BKN031 BKN065 M04/M12 A3026 RMK AO2 SLP256 T10391117 $","updated":"2026-02-22T19:23:46Z"}
