{"icao":"LPOV","metar":"LPOV 060300Z VRB01KT CAVOK 12/09 Q1018","updated":"2025-10-06T04:20:49Z"}
