{"icao":"LPPR","metar":"LPPR 140130Z 34017G27KT 9999 FEW025 SCT030 10/03 Q1017","updated":"2026-02-14T01:56:51Z"}
