{"icao":"LPAZ","metar":"LPAZ 301430Z 25006KT 6000 FEW007 17/16 Q1021","updated":"2026-01-30T14:34:43Z"}
