{"icao":"KJFK","metar":"KJFK 150751Z 20006KT 10SM FEW055 OVC120 06/03 A2938 RMK AO2 SLP947 T00560033 $","updated":"2026-01-15T08:29:45Z"}
