{"icao":"LPMT","metar":"LPMT 061100Z 01009KT 330V050 9999 FEW030 SCT040 20/09 Q1014","updated":"2026-05-06T11:05:12Z"}
