{"icao":"KORD","metar":"KORD 160951Z 21006KT 10SM FEW070 SCT150 BKN250 18/13 A2977 RMK AO2 SLP078 T01830133","updated":"2026-05-16T10:13:13Z"}
