{"icao":"LPOV","metar":"LPOV 281400Z 33014KT CAVOK 15/08 Q1025","updated":"2026-02-28T14:20:28Z"}
