{"icao":"LPMR","metar":"LPMR 151600Z 24008KT 9999 SCT012 BKN030 17/12 Q1005","updated":"2025-11-15T16:19:53Z"}
