{"icao":"LPPR","metar":"LPPR 292000Z 08003KT 030V120 8000 NSC 07/07 Q1020","updated":"2025-12-29T20:22:27Z"}
