{"icao":"LPMR","metar":"LPMR 271000Z 14008KT CAVOK 08/02 Q1012","updated":"2025-12-27T10:18:47Z"}
