{"icao":"LPPD","metar":"LPPD 151230Z 14007KT 100V190 9999 FEW023 23/19 Q1027","updated":"2025-09-15T12:36:19Z"}
