{"icao":"LPAZ","metar":"LPAZ 190900Z 24011KT 3500 BR FEW001 BKN002 23/22 Q1018","updated":"2025-10-19T09:16:15Z"}
