{"icao":"LPPS","metar":"LPPS 181100Z 10010KT 050V120 9999 SCT014 SCT030 17/12 Q1018","updated":"2026-04-18T11:33:26Z"}
