{"icao":"KLAX","metar":"KLAX 102253Z 25008KT 10SM CLR 23/04 A2998 RMK AO2 SLP151 T02330039 $","updated":"2025-12-10T23:17:01Z"}
