{"icao":"LPST","metar":"LPST 221000Z 36012KT 330V030 CAVOK 17/07 Q1021","updated":"2025-09-22T10:19:58Z"}
