{"icao":"KORD","metar":"KORD 091512Z 33013G27KT 10SM FEW024 OVC055 00/M04 A3004 RMK AO2 PK WND 32027/1507 SNE1456 P0000 T00001039 $","updated":"2025-11-09T15:15:47Z"}
