{"icao":"LPAR","metar":"LPAR 121200Z 26009KT 8000 -RA FEW015 SCT022 16/13 Q1006 RERA","updated":"2025-11-12T12:39:17Z"}
