{"icao":"LPCS","metar":"LPCS 110900Z 06011KT CAVOK 21/13 Q1020","updated":"2025-10-11T09:15:37Z"}
