{"icao":"KLAX","metar":"KLAX 202253Z 26015KT 10SM CLR 20/12 A2997 RMK AO2 SLP150 T02000122 $","updated":"2026-04-20T23:40:58Z"}
