{"icao":"LPAR","metar":"LPAR 031100Z 05011KT CAVOK 16/11 Q1013","updated":"2026-03-03T11:31:26Z"}
