{"icao":"LPCS","metar":"LPCS 271900Z 35020KT 9999 FEW015 12/07 Q1024","updated":"2026-02-27T22:21:27Z"}
