{"icao":"LPCS","metar":"LPCS 231430Z VRB02KT 9999 FEW030 22/13 Q1014","updated":"2026-03-23T14:53:09Z"}
