{"icao":"LPHR","metar":"LPHR 031930Z 26018KT 9000 -RA SCT012 BKN020 BKN070 17/16 Q1000","updated":"2026-02-03T19:43:39Z"}
