{"icao":"LPPT","metar":"LPPT 301630Z 27019G34KT 240V300 9999 FEW018 SCT024 15/11 Q1011 WS R20","updated":"2026-01-30T16:37:44Z"}
