{"icao":"LPCS","metar":"LPCS 302130Z 01012KT CAVOK 22/13 Q1019","updated":"2025-09-30T23:15:49Z"}
