{"icao":"LPPS","metar":"LPPS 271630Z 31013KT 9999 FEW016 20/13 Q1021","updated":"2026-05-27T16:35:47Z"}
