{"icao":"LPFR","metar":"LPFR 100830Z 26009KT 9000 BKN004 15/15 Q1020","updated":"2026-02-10T08:54:13Z"}
