{"icao":"LPPS","metar":"LPPS 240500Z 35015KT 9000 -RADZ SCT014 SCT030 15/14 Q1015","updated":"2025-12-24T05:23:03Z"}
