{"icao":"LPAR","metar":"LPAR 261000Z 26016KT 8000 VCSH FEW009 BKN018 17/13 Q1013","updated":"2026-01-26T10:25:21Z"}
