{"icao":"LPMR","metar":"LPMR 022300Z 16003KT CAVOK 10/09 Q1025","updated":"2025-11-02T23:15:33Z"}
