{"icao":"LPMA","metar":"LPMA 021930Z 34015KT 280V020 9999 SCT015 14/03 Q1018","updated":"2026-03-02T19:35:56Z"}
