{"icao":"LPMA","metar":"LPMA 191930Z 03013KT 9999 SCT016 BKN060 20/14 Q1009","updated":"2026-04-19T19:40:22Z"}
