{"icao":"LPFR","metar":"LPFR 142200Z 31005KT CAVOK 20/18 Q1016","updated":"2026-06-14T22:06:54Z"}
