{"icao":"LPST","metar":"LPST 081600Z 23006KT 200V260 9999 FEW014 BKN016 13/11 Q1030","updated":"2026-01-08T16:28:40Z"}
