{"icao":"LPMR","metar":"LPMR 020500Z 34004KT 3000 -DZ BR SCT004 BKN006 17/17 Q1020","updated":"2026-06-02T05:47:07Z"}
