{"icao":"LPMT","metar":"LPMT 241500Z 26015KT 6000 SCT012 BKN020 17/16 Q1016","updated":"2025-11-24T15:21:20Z"}
