{"icao":"KJFK","metar":"KJFK 120851Z 05016G26KT 10SM SCT065 BKN080 BKN110 BKN140 BKN250 17/12 A3006 RMK AO2 PK WND 04026/0846 SLP180 T01670122 56014","updated":"2025-10-12T09:15:54Z"}
