{"icao":"LPPD","metar":"LPPD 060900Z 22021KT 4500 -RADZ BR FEW006 BKN014 20/19 Q1013","updated":"2025-11-06T09:20:22Z"}
