{"icao":"KORD","metar":"KORD 052151Z 01006KT 4SM BR OVC010 09/07 A2999 RMK AO2 SLP159 T00940072","updated":"2026-03-05T22:30:08Z"}
