{"icao":"LPPS","metar":"LPPS 181800Z 12008KT 9999 FEW012 23/20 Q1018","updated":"2025-09-18T18:25:46Z"}
