{"icao":"LPMT","metar":"LPMT 302300Z 17007KT 9999 FEW015 18/16 Q1013","updated":"2025-10-30T23:16:18Z"}
