{"icao":"LPPS","metar":"LPPS 121400Z 24008KT 200V260 9999 FEW014 FEW016TCU 21/15 Q1004","updated":"2025-11-12T14:19:21Z"}
