{"icao":"LPCS","metar":"LPCS 081100Z 23008KT 190V280 9999 SCT027 15/10 Q1016","updated":"2026-02-08T11:21:28Z"}
