{"icao":"LPFR","metar":"LPFR 241130Z 10011KT 9000 BKN006 16/14 Q1021","updated":"2026-02-24T11:39:18Z"}
