{"icao":"LPMR","metar":"LPMR 151600Z 29006KT 7000 FEW008 17/14 Q1016","updated":"2025-10-15T16:19:23Z"}
