{"icao":"KJFK","metar":"KJFK 072151Z 16006KT 1/4SM R04R/2600V4000FT -DZ FG OVC003 06/05 A3000 RMK AO2 SFC VIS 1/2 DZB46 SLP159 P0000 T00560050","updated":"2026-03-07T22:21:43Z"}
