{"icao":"LPAZ","metar":"LPAZ 222200Z 22015KT 9999 FEW012 SCT015 BKN025 23/21 Q1016","updated":"2025-10-22T22:14:29Z"}
