{"icao":"LPPR","metar":"LPPR 130430Z VRB02KT CAVOK 13/12 Q1021"}
