{"icao":"LPPD","metar":"LPPD 042000Z 26027G37KT 8000 FEW015 SCT030 14/11 Q0995","updated":"2026-02-04T20:33:13Z"}
