{"icao":"LPPS","metar":"LPPS 011800Z 26017KT 9999 FEW012 18/14 Q1001","updated":"2026-01-01T18:29:04Z"}
