{"icao":"LPFR","metar":"LPFR 121900Z 22006KT 0900 R28/1100U FG VV002 15/15 Q1017","updated":"2026-02-12T19:08:17Z"}
