{"icao":"KLAX","metar":"KLAX 122053Z 24014KT 10SM SCT065 SCT075 BKN095 20/04 A3000 RMK AO2 SLP156 60000 T02000039 58002 $","updated":"2026-04-12T21:33:38Z"}
