{"icao":"LPFR","metar":"LPFR 082200Z 36005KT CAVOK 16/09 Q1022","updated":"2025-11-08T22:15:08Z"}
