{"icao":"LPPT","metar":"LPPT 211500Z 01012KT CAVOK 15/01 Q1026","updated":"2025-11-21T15:17:10Z"}
