{"icao":"LPPR","metar":"LPPR 160230Z 36009KT CAVOK 10/06 Q1018","updated":"2026-05-16T02:47:19Z"}
