{"icao":"LPFR","metar":"LPFR 172330Z 02006KT CAVOK 18/10 Q1017","updated":"2026-04-17T23:38:10Z"}
