{"icao":"LPPT","metar":"LPPT 092230Z 21012KT 9999 FEW016 14/11 Q1009","updated":"2026-05-09T22:41:18Z"}
