{"icao":"LPFR","metar":"LPFR 090600Z 28004KT CAVOK 16/13 Q1019","updated":"2025-10-09T06:27:31Z"}
