{"icao":"LPPT","metar":"LPPT 102000Z 24003KT 220V280 9999 FEW010 16/15 Q1018","updated":"2025-11-10T20:21:34Z"}
