{"icao":"KLAX","metar":"KLAX 080053Z 26007KT 10SM FEW250 17/12 A3011 RMK AO2 SLP197 T01670122 $","updated":"2025-12-08T01:27:13Z"}
