{"icao":"KJFK","metar":"KJFK 172151Z 20005KT 8SM BKN250 03/01 A3009 RMK AO2 SLP189 T00330011 $","updated":"2026-02-17T22:29:52Z"}
