{"icao":"LPBJ","metar":"LPBJ 271900Z 34006KT 9999 BKN022 14/12 Q1023","updated":"2026-02-27T19:32:04Z"}
