{"icao":"LPPT","metar":"LPPT 251000Z 36009KT 330V030 9999 FEW035 13/08 Q1023","updated":"2025-11-25T10:22:17Z"}
