{"icao":"LPFR","metar":"LPFR 151600Z 21010KT CAVOK 17/12 Q1016","updated":"2026-03-15T16:31:21Z"}
