{"icao":"LPAZ","metar":"LPAZ 262000Z 14007KT 8000 -DZ SCT004 BKN016 16/15 Q1024","updated":"2025-11-26T20:20:30Z"}
