{"icao":"KJFK","metar":"KJFK 101351Z 32008KT 10SM BKN016 BKN100 OVC160 13/11 A2968 RMK AO2 SLP050 T01330106","updated":"2025-11-10T14:18:48Z"}
