{"icao":"LPAZ","metar":"LPAZ 102030Z 01012KT 9999 SCT016 15/11 Q1017","updated":"2026-05-10T20:43:53Z"}
