{"icao":"LPAZ","metar":"LPAZ 231430Z 20025KT 4500 BR FEW005 BKN013 17/15 Q1014","updated":"2026-02-23T14:43:50Z"}
