{"icao":"LPPT","metar":"LPPT 061830Z 33016KT CAVOK 11/07 Q1018 WS R02","updated":"2026-03-06T18:42:45Z"}
