{"icao":"LPAZ","metar":"LPAZ 162000Z 32017KT 9999 FEW017 21/17 Q1009","updated":"2025-10-16T20:19:26Z"}
