{"icao":"LPMA","metar":"LPMA 281800Z 36009KT 290V080 9999 FEW016 23/15 Q1023","updated":"2025-09-28T18:21:39Z"}
