{"icao":"LPPD","metar":"LPPD 140600Z 31008KT 270V350 9999 FEW022 SCT030 16/10 Q1007","updated":"2025-11-14T06:28:40Z"}
