{"icao":"KORD","metar":"KORD 231051Z 35010KT 10SM OVC028 M01/M06 A3028 RMK AO2 SLP262 T10111061","updated":"2026-03-23T11:41:58Z"}
