{"icao":"LPPT","metar":"LPPT 130730Z VRB01KT 9999 FEW008 16/14 Q1020","updated":"2026-05-13T07:48:01Z"}
