{"icao":"LPCS","metar":"LPCS 251300Z 06003KT 030V100 9999 SCT018 BKN032 11/06 Q1010","updated":"2025-12-25T13:30:59Z"}
