{"icao":"KJFK","metar":"KJFK 102051Z 16007KT 10SM SCT055 BKN120 OVC140 00/M07 A3000 RMK AO2 SLP159 60000 T00001067 58029 $","updated":"2026-02-10T21:40:31Z"}
