{"icao":"LPMR","metar":"LPMR 211200Z 25006KT 220V290 7000 SCT006 SCT012 OVC022 21/20 Q1014","updated":"2025-10-21T12:38:45Z"}
