{"icao":"KJFK","metar":"KJFK 222251Z 05008KT 10SM FEW050 BKN170 BKN250 11/08 A2970 RMK AO2 SLP058 T01110083 $","updated":"2026-03-22T23:26:41Z"}
