{"icao":"KJFK","metar":"KJFK 170651Z 20016KT 10SM SCT080 BKN100 BKN250 03/M07 A3009 RMK AO2 SLP188 T00331067 $","updated":"2026-01-17T07:18:05Z"}
