{"icao":"LPFR","metar":"LPFR 102300Z 04005KT 9999 FEW022 BKN046 14/12 Q1021","updated":"2025-12-10T23:16:39Z"}
