{"icao":"LPMR","metar":"LPMR 142200Z 14002KT CAVOK 10/09 Q1017","updated":"2025-12-14T22:17:02Z"}
