{"icao":"LPPR","metar":"LPPR 081700Z 30003KT 260V330 9999 FEW020 15/11 Q1022","updated":"2025-11-08T17:14:08Z"}
