{"icao":"LPPR","metar":"LPPR 151800Z 26002KT CAVOK 17/15 Q1016","updated":"2025-10-15T18:26:52Z"}
