{"icao":"LPPT","metar":"LPPT 301600Z 07004KT 020V120 9999 FEW010 12/10 Q1020","updated":"2025-12-30T16:25:59Z"}
