{"icao":"LPLA","metar":"LPLA 140500Z 32007KT CAVOK 13/11 Q1031","updated":"2026-03-14T05:43:26Z"}
