{"icao":"KORD","metar":"KORD 040251Z 30004KT 10SM OVC037 M04/M12 A3007 RMK AO2 SLP191 T10391117 51008 $","updated":"2026-01-04T03:50:08Z"}
