{"icao":"LPFL","metar":"LPFL 281800Z 25012G23KT 220V300 9999 VCSH FEW015 SCT049 13/07 Q1008","updated":"2026-04-28T18:15:50Z"}
