{"icao":"LPBJ","metar":"LPBJ 072100Z 30009KT CAVOK 23/11 Q1020","updated":"2026-06-07T22:02:17Z"}
