{"icao":"LPPD","metar":"LPPD 260930Z 03005KT 350V070 8000 -SHRA FEW007 SCT014 BKN030 14/12 Q1029","updated":"2026-03-26T10:00:28Z"}
