{"icao":"LPHR","metar":"LPHR 052000Z 13009KT 9999 FEW020 BKN040 15/10 Q1030","updated":"2026-01-05T20:24:26Z"}
