{"icao":"LPMT","metar":"LPMT 071000Z 11006KT 9999 FEW015 SCT035 10/10 Q1024","updated":"2026-01-07T10:23:10Z"}
