{"icao":"KORD","metar":"KORD 171051Z 25005KT 10SM CLR 03/M01 A2985 RMK AO2 SLP112 T00281011","updated":"2025-12-17T11:19:32Z"}
