{"icao":"LPMT","metar":"LPMT 221300Z 35004KT CAVOK 13/04 Q1030","updated":"2025-11-22T13:22:18Z"}
