{"icao":"LPCS","metar":"LPCS 181330Z 19007KT 160V230 CAVOK 25/09 Q1016","updated":"2026-04-18T14:03:25Z"}
