{"icao":"LPCS","metar":"LPCS 131200Z 16008KT 110V200 CAVOK 29/10 Q1018","updated":"2026-06-13T12:23:15Z"}
