{"icao":"LPPD","metar":"LPPD 080800Z 23017KT 8000 FEW004 BKN007 17/16 Q1013","updated":"2026-02-08T08:31:37Z"}
