{"icao":"LPMA","metar":"LPMA 120700Z 35016KT 320V020 9999 SCT015 SCT030 14/06 Q1025","updated":"2026-04-12T07:12:25Z"}
