{"icao":"LPFL","metar":"LPFL 021000Z 17008KT 140V210 9999 BKN033 18/11 Q1020","updated":"2025-11-02T10:17:10Z"}
