{"icao":"LPPD","metar":"LPPD 041100Z 11005KT 080V140 9999 FEW015 23/20 Q1028","updated":"2025-10-04T11:12:39Z"}
