{"icao":"LPBJ","metar":"LPBJ 050400Z 16019G30KT 9999 FEW030 18/16 Q1011","updated":"2025-11-05T04:21:26Z"}
