{"icao":"LPPD","metar":"LPPD 091700Z 16009KT 130V190 9999 FEW014 SCT035 22/20 Q1023","updated":"2025-10-09T17:16:03Z"}
