{"icao":"LPCS","metar":"LPCS 081000Z 32010KT 280V350 9999 BKN020 19/14 Q1023","updated":"2025-10-08T10:18:11Z"}
