{"icao":"KORD","metar":"KORD 220551Z 20006KT 10SM SCT050 BKN170 OVC250 21/17 A2987 RMK AO2 SLP109 60000 T02060167 10228 20206 402830194 55003 $","updated":"2025-09-22T06:27:52Z"}
