{"icao":"LPPT","metar":"LPPT 071600Z 30009KT 270V350 9999 FEW030 23/15 Q1021","updated":"2025-10-07T16:21:28Z"}
