{"icao":"KJFK","metar":"KJFK 051851Z 20010KT 10SM -SN SCT055 BKN095 BKN120 BKN250 01/M07 A3016 RMK AO2 SNB50 SLP212 P0000 T00111067 $","updated":"2026-01-05T19:19:46Z"}
