{"icao":"KJFK","metar":"KJFK 100951Z 34008KT 10SM BKN230 BKN250 08/04 A3018 RMK AO2 SLP219 T00780044 $","updated":"2026-01-10T10:19:55Z"}
