{"icao":"KLAX","metar":"KLAX 171049Z 09006KT 10SM FEW012 SCT018 14/12 A2992 RMK AO2","updated":"2026-04-17T10:54:29Z"}
