{"icao":"LPBJ","metar":"LPBJ 240300Z 23007KT 9999 BKN032 13/10 Q1022","updated":"2025-11-24T03:22:38Z"}
