{"icao":"LPLA","metar":"LPLA 250200Z 36007KT 9999 -SHRA BKN018 BKN035 20/16 Q1018","updated":"2025-10-25T03:00:53Z"}
