{"icao":"LPBJ","metar":"LPBJ 182300Z 18002KT 150V210 CAVOK 18/12 Q1017","updated":"2025-10-18T23:15:32Z"}
