{"icao":"LPMT","metar":"LPMT 081500Z 32009KT 9999 FEW030 SCT042 22/13 Q1021","updated":"2025-10-08T15:19:00Z"}
