{"icao":"LPPS","metar":"LPPS 170900Z 19009KT 8000 -RA SCT003 BKN006 BKN010 22/21 Q1012","updated":"2025-10-17T09:19:54Z"}
