{"icao":"LPBJ","metar":"LPBJ 121803Z 30011KT 4000 +RADZ BKN006 FEW014CB OVC020 15/14 Q1008","updated":"2025-11-12T18:26:26Z"}
