{"icao":"KORD","metar":"KORD 091215Z 34016KT 2 1/2SM -SN BR BKN011 OVC025 00/M02 A2997 RMK AO2 P0000 T00001017 $","updated":"2025-11-09T12:33:55Z"}
