{"icao":"LPMT","metar":"LPMT 260400Z 36003KT CAVOK 06/06 Q1024","updated":"2025-11-26T04:25:20Z"}
