{"icao":"LPCS","metar":"LPCS 271300Z 06013KT 020V090 9999 FEW025 09/04 Q1007","updated":"2025-12-27T13:27:06Z"}
