{"icao":"LPLA","metar":"LPLA 030600Z VRB01KT CAVOK 11/06 Q1028","updated":"2026-03-03T06:50:52Z"}
