{"icao":"LPAR","metar":"LPAR 271000Z 09003KT 020V190 CAVOK 23/15 Q1014","updated":"2026-04-27T11:02:32Z"}
