{"icao":"LPOV","metar":"LPOV 142200Z 36016KT CAVOK 14/10 Q1014","updated":"2026-05-14T22:09:50Z"}
