{"icao":"KJFK","metar":"KJFK 030451Z 00000KT 10SM SCT250 12/09 A3045 RMK AO2 SLP311 T01170094 402220111","updated":"2025-10-03T05:16:54Z"}
