{"icao":"LPCS","metar":"LPCS 061800Z 36007KT 9999 FEW016 09/03 Q1024","updated":"2026-01-06T18:30:16Z"}
