{"icao":"KJFK","metar":"KJFK 220751Z 03004KT 10SM FEW045 SCT250 12/09 A3018 RMK AO2 SLP219 T01220094 $","updated":"2025-09-22T08:24:39Z"}
