{"icao":"LPCS","metar":"LPCS 241500Z 22006KT 160V260 CAVOK 27/05 Q1016","updated":"2025-09-24T15:18:18Z"}
