{"icao":"LPCS","metar":"LPCS 012000Z 01008KT 9999 FEW014 17/15 Q1021","updated":"2025-11-01T20:17:12Z"}
