{"icao":"KORD","metar":"KORD 211800Z 26016G23KT 10SM BKN023 M02/M08 A2990 RMK AO2 T10221078 $","updated":"2026-01-21T18:41:18Z"}
