{"icao":"LPBJ","metar":"LPBJ 011700Z 02009KT CAVOK 22/06 Q1020","updated":"2026-04-01T17:50:24Z"}
