{"icao":"LPLA","metar":"LPLA 241600Z 25012KT 220V290 9999 FEW017 SCT040 23/17 Q1022","updated":"2026-05-24T16:59:07Z"}
