{"icao":"KJFK","metar":"KJFK 190651Z 10006KT 3/4SM R04R/5000VP6000 BR OVC002 08/08 A2988 RMK SLP118 T00830083 ","updated":"2026-04-19T07:17:41Z"}
