{"icao":"LPAR","metar":"LPAR 081500Z 09003KT 030V170 9999 FEW025 19/12 Q1021","updated":"2025-11-08T15:16:03Z"}
