{"icao":"LPCS","metar":"LPCS 031700Z 01013KT 9999 FEW014 20/14 Q1022","updated":"2025-10-03T17:14:23Z"}
