{"icao":"LPAR","metar":"LPAR 182000Z 34005KT 300V040 CAVOK 23/11 Q1014","updated":"2026-06-18T22:06:36Z"}
