{"icao":"LPPR","metar":"LPPR 261500Z 24009KT 200V270 9999 FEW015 SCT040 23/19 Q1018","updated":"2026-06-26T15:22:00Z"}
