{"icao":"KLAX","metar":"KLAX 090453Z 24009KT 10SM CLR 18/14 A2990 RMK AO2 SLP124 T01830144 $","updated":"2025-10-09T05:17:37Z"}
