{"icao":"LPOV","metar":"LPOV 040900Z 18008KT 150V220 CAVOK 16/11 Q1015","updated":"2025-11-04T09:20:29Z"}
