{"icao":"LPPT","metar":"LPPT 221600Z 35016KT CAVOK 21/05 Q1018","updated":"2025-09-22T16:22:28Z"}
