{"icao":"LPAR","metar":"LPAR 291400Z 07006KT 020V130 9999 FEW038 27/13 Q1015","updated":"2025-09-29T14:18:11Z"}
