{"icao":"KJFK","metar":"KJFK 140251Z 23004KT 10SM -SN BKN040 BKN055 OVC080 02/M02 A3003 RMK AO2 SNB44 SLP170 P0000 60000 T00221022 56016","updated":"2025-12-14T03:28:00Z"}
