{"icao":"LPCS","metar":"LPCS 130800Z 36012KT 9999 FEW014 19/15 Q1021"}
