{"icao":"LPPR","metar":"LPPR 251300Z 26007KT 210V330 9999 FEW020 BKN030 14/09 Q1012","updated":"2026-01-25T13:31:09Z"}
