{"icao":"LPOV","metar":"LPOV 180700Z VRB01KT CAVOK 12/11 Q1015","updated":"2025-10-18T07:15:42Z"}
