{"icao":"LPPT","metar":"LPPT 262000Z 21022KT 9999 FEW016 15/13 Q1007","updated":"2026-01-26T20:26:33Z"}
