{"icao":"LPFL","metar":"LPFL 270800Z 26017G29KT 190V340 9999 BKN016 14/09 Q1006","updated":"2026-01-27T08:32:15Z"}
