{"icao":"LPMT","metar":"LPMT 011100Z 01006KT 340V040 CAVOK 25/14 Q1021","updated":"2025-10-01T11:15:44Z"}
