{"icao":"LPCS","metar":"LPCS 270900Z 21006KT 170V230 9999 FEW012 22/18 Q1020","updated":"2026-06-27T09:27:03Z"}
