{"icao":"LPPT","metar":"LPPT 172200Z 13008KT 110V170 7000 RA FEW002 BKN006 FEW018TCU 14/13 Q1007","updated":"2026-03-17T22:31:42Z"}
