{"icao":"LPPS","metar":"LPPS 281100Z 05007KT 010V070 9999 SCT015 BKN030 19/13 Q1024","updated":"2025-11-28T11:16:42Z"}
