{"icao":"LPPT","metar":"LPPT 291500Z 31009KT 280V350 CAVOK 28/15 Q1020","updated":"2026-05-29T15:24:52Z"}
