{"icao":"KJFK","metar":"KJFK 211051Z 22004KT 7SM BKN038 BKN055 02/01 A2986 RMK AO2 SLP111 T00170006 $","updated":"2026-02-21T11:20:57Z"}
