{"icao":"LPMR","metar":"LPMR 120200Z 17004KT CAVOK 15/11 Q1017","updated":"2025-10-12T03:00:56Z"}
