{"icao":"KJFK","metar":"KJFK 281251Z 26015G27KT 10SM FEW055 SCT110 02/M06 A2992 RMK AO2 PK WND 25027/1247 SLP132 T00171061","updated":"2025-11-28T13:29:21Z"}
