{"icao":"LPCS","metar":"LPCS 221400Z 35022KT CAVOK 21/07 Q1018","updated":"2025-09-22T14:18:33Z"}
