{"icao":"KORD","metar":"KORD 081851Z 12005KT 10SM SCT065 BKN250 19/03 A2976 RMK AO2 SLP078 T01890033","updated":"2026-05-08T19:15:06Z"}
