{"icao":"LPLA","metar":"LPLA 281200Z 33018KT 7000 -SHRA SCT020 BKN035 17/12 Q1021","updated":"2025-10-28T12:37:42Z"}
