{"icao":"LPBJ","metar":"LPBJ 201500Z 30006KT 260V350 CAVOK 36/11 Q1013","updated":"2026-06-20T15:49:10Z"}
