{"icao":"LPPD","metar":"LPPD 012300Z 04007KT 010V070 9999 FEW020 19/16 Q1031","updated":"2026-07-01T23:13:39Z"}
