{"icao":"LPOV","metar":"LPOV 312000Z 18009KT 9000 -RA SCT014 18/17 Q1011","updated":"2025-10-31T20:20:03Z"}
