{"icao":"LPMR","metar":"LPMR 281700Z 14010KT 4000 -RA BR FEW015 BKN040 17/16 Q1010","updated":"2025-10-28T17:17:30Z"}
