{"icao":"LPST","metar":"LPST 210900Z 24012KT 2500 -RADZ BR OVC007 15/14 Q1007","updated":"2026-01-21T09:31:00Z"}
