{"icao":"LPCS","metar":"LPCS 031600Z 02015KT 9999 FEW014 21/14 Q1022","updated":"2025-10-03T16:20:38Z"}
