{"icao":"LPST","metar":"LPST 061100Z 36023G36KT 9999 BKN025 11/05 Q1020","updated":"2026-03-06T11:27:32Z"}
