{"icao":"LPAZ","metar":"LPAZ 252200Z 17012KT 9999 FEW019 21/18 Q1014","updated":"2025-09-25T22:14:11Z"}
