{"icao":"KORD","metar":"KORD 241551Z 25006KT 10SM FEW047 BKN065 OVC085 22/14 A3005 RMK AO2 RAB43E50 SLP173 VCSH N P0000 T02170144 $","updated":"2026-06-24T16:20:37Z"}
