{"icao":"LPPT","metar":"LPPT 100830Z 23014KT 1500 DZRA BR FEW001 BKN002 FEW018TCU 15/15 Q1016 RERA","updated":"2026-02-10T08:54:13Z"}
