{"icao":"LPAZ","metar":"LPAZ 071600Z 24010KT 9000 SCT013 17/15 Q1015","updated":"2026-02-07T16:29:13Z"}
