{"icao":"KORD","metar":"KORD 211051Z 19006KT 10SM OVC070 M02/M09 A2991 RMK AO2 SLP137 T10221094 $","updated":"2026-01-21T11:22:59Z"}
