{"icao":"LPAZ","metar":"LPAZ 230000Z 20010KT 0350 R18/M0050 FG VV001 18/17 Q1023","updated":"2026-05-23T00:05:22Z"}
