{"icao":"LPPS","metar":"LPPS 151230Z 29010KT 250V320 9999 SCT014 SCT030 17/11 Q1026","updated":"2026-01-15T12:43:50Z"}
