{"icao":"KJFK","metar":"KJFK 242251Z 35009KT 10SM SCT200 BKN250 M08/M23 A3066 RMK AO2 SLP381 T10831233 $","updated":"2026-01-24T23:18:59Z"}
