{"icao":"LPFL","metar":"LPFL 251300Z 02014KT 9999 VCSH SCT019 FEW022TCU 19/14 Q1025","updated":"2025-10-25T13:21:39Z"}
