{"icao":"LPMT","metar":"LPMT 270600Z 33005KT CAVOK 12/10 Q1024","updated":"2026-02-27T06:52:21Z"}
