{"icao":"LPFR","metar":"LPFR 021000Z 05005KT 020V080 9999 FEW016 22/16 Q1024","updated":"2025-11-02T10:16:48Z"}
