{"icao":"LPPD","metar":"LPPD 251930Z 15005KT 120V210 9999 FEW014 18/15 Q1018","updated":"2026-04-25T19:42:21Z"}
