{"icao":"LPFL","metar":"LPFL 231600Z 34009KT 310V040 9999 FEW028 SCT038 15/07 Q1026","updated":"2026-01-23T16:28:42Z"}
