{"icao":"LPPT","metar":"LPPT 092100Z 27003KT 1200 R20/1400D BR BCFG FEW003 SCT018 14/14 Q1018","updated":"2025-12-09T21:16:25Z"}
