{"icao":"LPHR","metar":"LPHR 041800Z 06012KT 020V100 9999 FEW015 15/08 Q1024","updated":"2026-01-04T18:27:40Z"}
