{"icao":"LPMR","metar":"LPMR 200500Z 29002KT 5000 BR BKN007 17/17 Q1019","updated":"2025-09-20T06:23:51Z"}
