{"icao":"KLAX","metar":"KLAX 111053Z 03003KT 10SM CLR 11/M04 A3025 RMK AO2 SLP243 T01111039 $","updated":"2026-01-11T11:16:59Z"}
