{"icao":"KJFK","metar":"KJFK 240751Z 26010KT 10SM CLR 09/04 A3005 RMK AO2 SLP176 T00940039","updated":"2025-10-24T08:24:00Z"}
