{"icao":"LPPT","metar":"LPPT 240800Z 04008KT CAVOK 19/04 Q1018","updated":"2025-09-24T08:23:24Z"}
