{"icao":"LPBJ","metar":"LPBJ 171500Z 31009KT 280V350 9999 SCT045 21/08 Q1017","updated":"2026-05-17T15:57:45Z"}
