{"icao":"LPMT","metar":"LPMT 121700Z 19009KT 150V210 9999 FEW025 BKN035 15/10 Q1015","updated":"2026-01-12T17:22:36Z"}
