{"icao":"LPAR","metar":"LPAR 121200Z VRB04KT CAVOK 33/14 Q1018","updated":"2026-06-12T12:17:32Z"}
