{"icao":"LPPD","metar":"LPPD 300630Z 26013KT 8000 SCT006 BKN012 15/15 Q1018","updated":"2026-01-30T06:46:25Z"}
