{"icao":"LPAZ","metar":"LPAZ 020830Z 36014KT 340V040 9999 FEW032 BKN044 12/05 Q1028","updated":"2026-03-02T08:42:39Z"}
