{"icao":"LPPS","metar":"LPPS 111300Z 25009KT 220V280 9999 FEW015 BKN030 19/12 Q1026","updated":"2026-02-11T13:07:18Z"}
