{"icao":"LPPD","metar":"LPPD 190700Z 01007KT 9999 FEW018 12/08 Q1030","updated":"2026-01-19T07:27:53Z"}
