{"icao":"LPFL","metar":"LPFL 031700Z 25012G26KT 180V310 9999 SCT018 20/14 Q1007","updated":"2025-11-03T17:16:55Z"}
