{"icao":"KORD","metar":"KORD 261851Z 26024G40KT 10SM OVC033 01/M07 A2979 RMK AO2 PK WND 26040/1832 SNB12E37 SLP093 P0000 T00111067","updated":"2025-11-26T19:14:44Z"}
