{"icao":"KLAX","metar":"KLAX 081303Z 32004KT 9SM FEW009 OVC014 17/14 A2989 RMK AO2 T01720144 $","updated":"2025-10-08T13:28:48Z"}
