{"icao":"LPMA","metar":"LPMA 170830Z 03008KT 330V120 9999 BKN015 16/12 Q1024","updated":"2026-05-17T09:03:43Z"}
