{"icao":"LPBJ","metar":"LPBJ 122000Z 10004KT 7000 -RA FEW014CB SCT022 OVC035 14/14 Q1008 RETSRA","updated":"2025-11-12T20:20:54Z"}
