{"icao":"LPMT","metar":"LPMT 250700Z 25009KT 210V290 9999 SCT020 14/13 Q1015","updated":"2026-01-25T07:20:23Z"}
