{"icao":"LPBJ","metar":"LPBJ 160700Z 20007KT 9999 SCT015 12/11 Q1013","updated":"2025-11-16T07:17:05Z"}
