{"icao":"LPOV","metar":"LPOV 282300Z 01003KT CAVOK 07/07 Q1024","updated":"2026-02-28T23:20:26Z"}
