{"icao":"LPPT","metar":"LPPT 260130Z 23007KT 7000 SCT004 BKN006 12/12 Q1014","updated":"2026-01-26T01:50:09Z"}
