{"icao":"KJFK","metar":"KJFK 021712Z 08007KT 4SM -RA BR BKN011 OVC019 07/07 A2982 RMK AO2 PRESFR P0003 T00720067 $","updated":"2025-12-02T17:21:18Z"}
