{"icao":"KJFK","metar":"KJFK 291351Z 25005KT 10SM FEW250 26/18 A3010 RMK SLP194 T02560183 ","updated":"2026-06-29T14:46:58Z"}
