{"icao":"KJFK","metar":"KJFK 241951Z 28010KT 10SM FEW075 29/09 A2994 RMK SLP138 T02890089 ","updated":"2026-06-24T20:47:10Z"}
