{"icao":"LPCS","metar":"LPCS 190600Z 17003KT 9999 FEW014 19/11 Q1018","updated":"2025-09-19T06:26:19Z"}
