{"icao":"LPPR","metar":"LPPR 210300Z 01004KT CAVOK 12/10 Q1021","updated":"2025-09-21T03:05:44Z"}
