{"icao":"LPPT","metar":"LPPT 280300Z VRB02KT CAVOK 09/07 Q1023","updated":"2025-11-28T03:09:53Z"}
