{"icao":"LPPR","metar":"LPPR 172200Z 01003KT 330V030 6000 NSC 04/04 Q1010","updated":"2026-01-17T22:18:18Z"}
