{"icao":"LPPR","metar":"LPPR 131800Z 16014KT 9999 FEW020 BKN035 18/14 Q0995","updated":"2025-11-13T18:26:53Z"}
