{"icao":"KJFK","metar":"KJFK 121351Z 02010KT 10SM CLR 14/M01 A3020 RMK AO2 SLP227 T01391006","updated":"2026-05-12T14:22:13Z"}
