{"icao":"LPAZ","metar":"LPAZ 031030Z 07005KT 040V100 9999 OVC028 15/09 Q1026","updated":"2026-04-03T10:41:46Z"}
