{"icao":"LPLA","metar":"LPLA 191900Z 234010KT 9999 VCSH FEW006 BKN022 24/21 Q1015","updated":"2025-10-19T19:13:13Z"}
