{"icao":"LPCS","metar":"LPCS 111700Z 33007KT CAVOK 25/13 Q1017","updated":"2025-10-11T17:12:54Z"}
