{"icao":"LPOV","metar":"LPOV 100600Z 17012KT 9999 -SHRA FEW018 SCT020CB 11/11 Q1007","updated":"2026-05-10T06:10:45Z"}
