{"icao":"LPHR","metar":"LPHR 241930Z 14006KT 3000 -DZ BR SCT001 BKN002 18/17 Q1021","updated":"2026-05-24T20:03:31Z"}
