{"icao":"KORD","metar":"KORD 040751Z 21005KT 10SM CLR 21/15 A3011 RMK AO2 SLP190 T02060150 $","updated":"2025-10-04T08:20:15Z"}
