{"icao":"KJFK","metar":"KJFK 271451Z 02011KT 10SM FEW080 FEW250 12/01 A3040 RMK AO2 SLP292 T01170006 55003","updated":"2025-10-27T15:19:42Z"}
