{"icao":"KJFK","metar":"KJFK 121351Z 32021G30KT 10SM SCT019 OVC049 08/04 A2972 RMK AO2 PK WND 32037/1254 SLP063 VCSH SW-NW T00830044","updated":"2026-03-12T14:04:40Z"}
