{"icao":"LPMA","metar":"LPMA 201800Z 36009KT 330V030 9999 SCT016 19/12 Q1021","updated":"2025-11-20T18:28:12Z"}
