{"icao":"KORD","metar":"KORD 191151Z 19015G25KT 10SM FEW022 FEW070 BKN180 OVC250 21/17 A2984 RMK AO2 RAE1056 SLP100 P0000 60000 70039 T02060167 10211 20189 55010","updated":"2026-05-19T12:08:58Z"}
