{"icao":"LPMR","metar":"LPMR 230400Z 24010KT 180V290 9999 FEW012 18/15 Q1021","updated":"2026-05-23T04:39:09Z"}
