{"icao":"KORD","metar":"KORD 310651Z 00000KT 10SM BKN250 13/07 A3013 RMK AO2 SLP202 T01330072 $","updated":"2026-05-31T07:44:45Z"}
