{"icao":"LPST","metar":"LPST 100800Z 06007KT 020V090 CAVOK 20/10 Q1020","updated":"2025-10-10T08:23:01Z"}
