{"icao":"KLAX","metar":"KLAX 110153Z 27010KT 10SM FEW020 FEW250 16/11 A3014 RMK AO2 SLP204 T01560111 $","updated":"2026-03-11T02:20:17Z"}
