{"icao":"LPMR","metar":"LPMR 170600Z 16002KT 5000 BR SCT020 SCT030 05/04 Q1013","updated":"2026-01-17T06:29:07Z"}
