{"icao":"LPFL","metar":"LPFL 111700Z 32019G32KT 300V360 9999 VCSH SCT028 FEW030TCU 15/08 Q1008","updated":"2025-11-11T17:16:50Z"}
