{"icao":"LPPR","metar":"LPPR 060500Z 11011KT CAVOK 19/06 Q1019","updated":"2025-10-06T05:16:58Z"}
