{"icao":"LPFR","metar":"LPFR 301900Z 12003KT CAVOK 19/16 Q1015","updated":"2025-10-30T19:14:15Z"}
