{"icao":"LPPT","metar":"LPPT 291700Z 31009KT 280V340 CAVOK 24/14 Q1015","updated":"2025-09-29T17:15:58Z"}
