{"icao":"LPFL","metar":"LPFL 271600Z 23019G36KT 160V300 1500 RADZ SCT008 BKN010 FEW012TCU 18/15 Q1000","updated":"2026-01-27T16:29:13Z"}
