{"icao":"LPMT","metar":"LPMT 140500Z 20004KT 160V230 CAVOK 19/16 Q1015","updated":"2026-06-14T05:47:03Z"}
