{"icao":"LPPR","metar":"LPPR 181030Z VRB02KT CAVOK 22/15 Q1017","updated":"2026-04-18T10:38:53Z"}
