{"icao":"KLAX","metar":"KLAX 081353Z 00000KT 10SM CLR 18/M06 A2992 RMK AO2 SLP129 T01781061 $","updated":"2026-03-08T14:24:19Z"}
