{"icao":"LPFR","metar":"LPFR 222100Z 32010KT CAVOK 19/08 Q1015","updated":"2025-09-22T21:14:46Z"}
