{"icao":"LPCS","metar":"LPCS 301900Z 16009KT 9999 FEW005 SCT030 18/18 Q1013","updated":"2025-10-31T03:09:24Z"}
