{"icao":"LPMA","metar":"LPMA 290530Z 34006KT 9999 FEW015 16/13 Q1020","updated":"2026-01-29T05:42:00Z"}
