{"icao":"KORD","metar":"KORD 260551Z 13006KT 10SM BKN070 BKN090 11/03 A3033 RMK AO2 SLP273 T01060033 10111 20106 401330022 58004 $","updated":"2025-10-26T06:25:20Z"}
