{"icao":"LPBJ","metar":"LPBJ 142000Z 31014KT CAVOK 10/05 Q1028","updated":"2026-02-14T20:24:54Z"}
