{"icao":"LPOV","metar":"LPOV 031200Z 05010KT 010V070 9999 FEW030 19/01 Q1015","updated":"2026-03-03T12:55:29Z"}
