{"icao":"LPMA","metar":"LPMA 101300Z 35015G25KT 300V030 9000 4000NE -SHRA BKN015 FEW018TCU 17/14 Q1019","updated":"2026-04-10T13:07:17Z"}
