{"icao":"KLAX","metar":"KLAX 280453Z 00000KT 10SM SCT220 21/12 A2989 RMK AO2 SLP118 T02110122","updated":"2026-02-28T05:32:23Z"}
