{"icao":"LPOV","metar":"LPOV 091300Z 18006KT 150V230 CAVOK 18/11 Q1020","updated":"2025-11-09T14:14:13Z"}
