{"icao":"LPLA","metar":"LPLA 180300Z 30011KT 5000 -RADZ BR SCT004 BKN007 BKN014 17/16 Q1025","updated":"2025-11-18T03:11:26Z"}
