{"icao":"LPPT","metar":"LPPT 181300Z 06008KT 9999 FEW025 09/06 Q1013","updated":"2026-01-18T13:27:36Z"}
