{"icao":"KLAX","metar":"KLAX 101053Z 26007KT 9SM FEW005 OVC008 14/13 A2998 RMK AO2 SLP150 T01440128 $","updated":"2026-03-10T11:32:22Z"}
