{"icao":"LPBJ","metar":"LPBJ 101300Z 31007KT 280V350 9999 FEW020 23/13 Q1013","updated":"2026-04-10T13:07:14Z"}
