{"icao":"LPPR","metar":"LPPR 260500Z 12009KT CAVOK 04/02 Q1012","updated":"2025-12-26T05:20:48Z"}
