{"icao":"LPPT","metar":"LPPT 131900Z 19020KT 7000 RA SCT008 SCT012 FEW025CB 15/14 Q0997","updated":"2025-11-13T19:14:52Z"}
