{"icao":"LPBJ","metar":"LPBJ 062200Z 32010KT CAVOK 20/14 Q1019","updated":"2026-06-06T23:03:29Z"}
