{"icao":"LPMR","metar":"LPMR 261800Z 27008KT 9999 FEW020 BKN045 22/17 Q1018","updated":"2026-06-26T19:44:28Z"}
