{"icao":"LPPR","metar":"LPPR 281230Z 05005KT 020V080 CAVOK 13/06 Q1015","updated":"2025-12-28T12:38:04Z"}
