{"icao":"LPOV","metar":"LPOV 131100Z 04006KT CAVOK 16/10 Q1023","updated":"2025-12-13T11:14:41Z"}
