{"icao":"LPCS","metar":"LPCS 181600Z 30013KT 260V330 9999 FEW020 18/08 Q1021","updated":"2026-05-18T16:20:50Z"}
