{"icao":"LPAZ","metar":"LPAZ 042100Z 13006KT CAVOK 20/18 Q1028","updated":"2025-10-04T21:13:43Z"}
