{"icao":"KORD","metar":"KORD 181751Z 08010KT 10SM OVC011 06/03 A2996 RMK AO2 SLP148 60009 T00560033 10056 20044 58008","updated":"2025-11-18T18:28:13Z"}
