{"icao":"LPCS","metar":"LPCS 222100Z 27011KT 230V300 9999 SCT004 BKN008 15/15 Q1003","updated":"2026-01-22T21:21:24Z"}
