{"icao":"KORD","metar":"KORD 191451Z 26015G26KT 10SM FEW060 SCT080 BKN250 08/M07 A3010 RMK AO2 PK WND 29026/1447 SLP198 T00781072 53006 $","updated":"2026-04-19T15:36:18Z"}
