{"icao":"LPFL","metar":"LPFL 190930Z 34021KT 9000 4400N -RA SCT006 BKN010 16/13 Q1016","updated":"2026-04-19T09:45:43Z"}
