{"icao":"LPFR","metar":"LPFR 202130Z 31004KT 290V350 CAVOK 21/07 Q1021","updated":"2026-05-20T21:51:19Z"}
