{"icao":"LPPD","metar":"LPPD 162300Z 20010KT 9999 FEW016 23/20 Q1022","updated":"2025-09-16T23:12:57Z"}
