{"icao":"LPPS","metar":"LPPS 122000Z 23016KT 8000 -DZ SCT014 17/14 Q1015","updated":"2026-01-12T20:24:03Z"}
