{"icao":"LPMR","metar":"LPMR 280900Z 14011KT 5000 -RA FEW012 SCT030 17/12 Q1015","updated":"2025-10-28T09:19:47Z"}
