{"icao":"KJFK","metar":"KJFK 062251Z 04006KT 10SM OVC017 04/01 A3042 RMK AO2 SLP300 T00390006","updated":"2026-03-06T23:26:11Z"}
