{"icao":"LPPT","metar":"LPPT 031900Z 25004KT CAVOK 16/10 Q1021","updated":"2025-11-03T19:14:37Z"}
