{"icao":"LPOV","metar":"LPOV 150800Z 16003KT 8000 MIFG NSC 12/11 Q1017","updated":"2025-10-15T08:25:10Z"}
