{"icao":"LPBJ","metar":"LPBJ 231500Z 04006KT 010V110 CAVOK 27/M00 Q1016","updated":"2025-09-23T15:18:06Z"}
