{"icao":"LPBJ","metar":"LPBJ 261600Z 16009KT 120V200 CAVOK 35/07 Q1020","updated":"2026-05-26T16:41:00Z"}
