{"icao":"LPPT","metar":"LPPT 281130Z 30005KT 230V020 CAVOK 29/12 Q1019","updated":"2026-05-28T11:37:32Z"}
