{"icao":"LPAR","metar":"LPAR 270900Z 28009KT 240V320 9999 -RA FEW009 SCT015 BKN030 12/09 Q1001","updated":"2026-01-27T09:31:41Z"}
