{"icao":"LPPR","metar":"LPPR 251800Z 01006KT CAVOK 12/09 Q1024","updated":"2025-11-25T18:29:00Z"}
