{"icao":"LPPT","metar":"LPPT 181700Z 02010KT 360V060 9999 FEW034 11/05 Q1015","updated":"2026-01-18T17:16:50Z"}
