{"icao":"LPPT","metar":"LPPT 170930Z 05008KT 010V100 CAVOK 13/07 Q1012","updated":"2026-03-17T09:54:27Z"}
