{"icao":"KJFK","metar":"KJFK 110851Z 27004KT 2SM BR BKN005 BKN010 OVC080 06/05 A2977 RMK AO2 SFC VIS 3 RAB12E21 SLP080 P0000 60000 T00610050 50010","updated":"2026-01-11T09:19:55Z"}
