{"icao":"KORD","metar":"KORD 010451Z 31010KT 10SM BKN025 M08/M12 A3038 RMK AO2 SLP300 T10781122","updated":"2026-02-01T04:59:47Z"}
