{"icao":"LPMT","metar":"LPMT 302300Z 36007KT CAVOK 12/06 Q1021","updated":"2025-11-30T23:17:05Z"}
