{"icao":"LPAR","metar":"LPAR 211000Z 23008KT 2500 -DZRA BR BKN007 BKN015 15/15 Q1007 RERADZ","updated":"2026-01-21T10:27:32Z"}
