{"icao":"LPMA","metar":"LPMA 011400Z 03011KT 340V060 9999 SCT015 25/16 Q1021","updated":"2025-10-01T14:17:58Z"}
