{"icao":"KJFK","metar":"KJFK 170351Z 24007KT 10SM FEW038 SCT200 BKN250 M01/M03 A3019 RMK AO2 SLP224 T10061033 $","updated":"2026-02-17T04:50:57Z"}
