{"icao":"LPPS","metar":"LPPS 282130Z 03011KT 360V060 9999 SCT013 BKN030 22/18 Q1025","updated":"2026-06-28T22:00:40Z"}
