{"icao":"LPMR","metar":"LPMR 202200Z 05003KT CAVOK 09/03 Q1025","updated":"2025-11-20T22:17:01Z"}
