{"icao":"KORD","metar":"KORD 052303Z 09003KT 5SM BR BKN012 BKN036 BKN150 09/07 A2999 RMK AO2 T00940072","updated":"2026-03-05T23:50:11Z"}
