{"icao":"LPPT","metar":"LPPT 010800Z 06008KT 9999 SCT030 07/07 Q1013","updated":"2026-01-01T08:27:48Z"}
