{"icao":"KJFK","metar":"KJFK 141051Z 24008KT 10SM BKN035 BKN055 BKN075 BKN250 M02/M06 A3013 RMK AO2 SNE34 SLP204 P0000 T10221061 $","updated":"2026-02-14T11:21:03Z"}
