{"icao":"KJFK","metar":"KJFK 040751Z 01004KT 10SM BKN090 BKN120 OVC160 M02/M11 A3001 RMK AO2 SLP160 T10221106 $","updated":"2026-01-04T08:26:31Z"}
