{"icao":"LPFL","metar":"LPFL 261600Z 03009KT 9999 SCT023 20/12 Q1027","updated":"2025-10-26T16:20:13Z"}
