{"icao":"KJFK","metar":"KJFK 300951Z 01004KT 10SM BKN250 18/15 A3010 RMK AO2 SLP194 T01830150 $","updated":"2025-09-30T10:18:29Z"}
