{"icao":"KJFK","metar":"KJFK 081451Z 02011KT 10SM FEW250 04/M10 A3065 RMK AO2 SLP377 T00441100 52006","updated":"2026-04-08T15:08:35Z"}
