{"icao":"LPMA","metar":"LPMA 221500Z 02012KT 350V050 9999 FEW007 BKN012 FEW018CB 17/13 Q1004","updated":"2026-03-22T15:24:56Z"}
