{"icao":"LPMT","metar":"LPMT 290600Z 23017KT 8000 BKN006 BKN015 15/15 Q1007","updated":"2026-01-29T06:44:28Z"}
