{"icao":"LPMR","metar":"LPMR 140900Z VRB02KT CAVOK 16/11 Q1018","updated":"2025-10-14T09:19:49Z"}
