{"icao":"LPPS","metar":"LPPS 261200Z 21014KT 9999 FEW012 26/20 Q1016","updated":"2025-10-26T12:33:45Z"}
