{"icao":"LPMA","metar":"LPMA 250700Z 34007KT 300V360 9999 FEW015 17/12 Q1024","updated":"2025-11-25T07:18:58Z"}
