{"icao":"LPHR","metar":"LPHR 220630Z 18008KT 9999 SCT006 BKN012 17/16 Q1020","updated":"2026-02-22T06:45:47Z"}
