{"icao":"LPPR","metar":"LPPR 201600Z 19009KT 5000 RADZ BR SCT007 BKN015 OVC036 11/11 Q1014","updated":"2026-01-20T16:34:29Z"}
