{"icao":"LPPD","metar":"LPPD 050900Z 01003KT 9999 FEW025 BKN045 13/09 Q1028","updated":"2026-01-05T09:30:33Z"}
