{"icao":"LPPR","metar":"LPPR 221830Z 32004KT 270V360 CAVOK 14/11 Q1012","updated":"2026-03-22T18:35:42Z"}
