{"icao":"LPBJ","metar":"LPBJ 071700Z 32013KT CAVOK 31/11 Q1018","updated":"2026-06-07T18:02:23Z"}
