{"icao":"KORD","metar":"KORD 200451Z 27006KT 10SM BKN100 M16/M22 A3031 RMK AO2 SLP282 T11561217 $","updated":"2026-01-20T05:27:44Z"}
