{"icao":"LPFL","metar":"LPFL 131600Z VRB03KT 9000 -RA SCT017 FEW025CB SCT032 18/15 Q1013","updated":"2025-10-13T16:22:06Z"}
