{"icao":"KORD","metar":"KORD 181210Z 18016G29KT 3SM -DZ BR OVC005 07/06 A2953 RMK AO2 PK WND 18031/1158 DZB05 P0000 T00670061","updated":"2025-12-18T12:42:56Z"}
