{"icao":"LPMA","metar":"LPMA 301330Z VRB04KT 9999 FEW015 20/16 Q1018","updated":"2025-12-30T13:35:02Z"}
