{"icao":"LPPS","metar":"LPPS 061300Z 12009KT 100V170 9999 SCT014 22/17 Q1022","updated":"2025-10-06T13:27:35Z"}
