{"icao":"LPPD","metar":"LPPD 250500Z 25005KT 0500 R30/0800N FG VV000 16/15 Q1014","updated":"2026-04-25T05:10:40Z"}
