{"icao":"LPFL","metar":"LPFL 101230Z 35007G17KT 300V050 9999 FEW023 22/14 Q1021","updated":"2025-10-10T12:36:41Z"}
