{"icao":"LPST","metar":"LPST 050900Z 36013KT 330V030 9999 FEW022 17/10 Q1019","updated":"2026-06-05T09:44:20Z"}
