{"icao":"KJFK","metar":"KJFK 231751Z 08007KT 10SM -RA BKN070 OVC090 14/03 A3047 RMK AO2 SLP318 P0000 60000 T01390033 10144 20128 51004","updated":"2026-05-23T17:59:40Z"}
