{"icao":"LPLA","metar":"LPLA 280100Z 09006KT 060V120 9999 OVC025 14/08 Q1032","updated":"2026-03-28T02:03:56Z"}
