{"icao":"LPPT","metar":"LPPT 062200Z 36005KT 300V020 9999 FEW044 08/04 Q1025","updated":"2026-01-06T22:19:44Z"}
