{"icao":"LPMR","metar":"LPMR 130800Z 15012KT 9000 -TSRA FEW016 FEW022CB SCT028 16/14 Q0999","updated":"2025-11-13T08:25:20Z"}
