{"icao":"LPFR","metar":"LPFR 250830Z 16004KT CAVOK 19/14 Q1016","updated":"2026-04-25T08:51:23Z"}
