{"icao":"KJFK","metar":"KJFK 302151Z 23006KT 10SM OVC010 05/04 A3009 RMK AO2 DZB2059E30 SLP189 P0001 T00500039 $","updated":"2025-11-30T22:17:30Z"}
