{"icao":"LPFR","metar":"LPFR 112100Z 10005KT CAVOK 25/17 Q1017","updated":"2026-06-11T21:17:52Z"}
