{"icao":"LPLA","metar":"LPLA 271900Z 26025G35KT 220V280 9999 SCT014 BKN020 18/14 Q1001","updated":"2026-01-27T19:25:09Z"}
