{"icao":"LPBJ","metar":"LPBJ 231900Z 15007KT CAVOK 18/09 Q1022","updated":"2026-02-23T19:18:14Z"}
