{"icao":"LPPT","metar":"LPPT 111230Z 21009KT 2000 -RADZ BR FEW003 BKN006 14/14 Q1027","updated":"2026-01-11T12:38:43Z"}
