{"icao":"LPFR","metar":"LPFR 172200Z 28003KT 240V020 CAVOK 14/12 Q1016","updated":"2025-11-17T22:17:33Z"}
