{"icao":"LPST","metar":"LPST 161000Z VRB02KT CAVOK 22/11 Q1015","updated":"2025-10-16T10:20:04Z"}
