{"icao":"LPMR","metar":"LPMR 171500Z 32007KT 290V350 CAVOK 23/13 Q1014","updated":"2025-10-17T15:17:58Z"}
