{"icao":"LPPS","metar":"LPPS 030700Z 04005KT 360V070 9999 FEW015 16/08 Q1027","updated":"2025-12-03T07:20:47Z"}
