{"icao":"LPMA","metar":"LPMA 031400Z 05006KT 350V140 9999 FEW015 20/11 Q1014","updated":"2026-02-03T14:06:25Z"}
