{"icao":"LPPS","metar":"LPPS 311130Z 10015KT 9999 FEW015 18/12 Q1025","updated":"2026-03-31T11:48:44Z"}
