{"icao":"KORD","metar":"KORD 022051Z 34004KT 10SM FEW150 BKN250 M04/M15 A2994 RMK AO2 SLP149 T10441150 55004 $","updated":"2026-01-02T21:15:26Z"}
