{"icao":"LPLA","metar":"LPLA 151100Z 35006KT 320V020 9999 SCT025 BKN040 16/10 Q1032","updated":"2026-05-15T11:54:59Z"}
