{"icao":"KORD","metar":"KORD 101251Z 36011KT 5SM -DZ BR OVC006 07/06 A3017 RMK AO2 RAE19DZB26 SLP217 P0001 T00670056","updated":"2026-04-10T13:07:18Z"}
