{"icao":"LPFL","metar":"LPFL 060900Z 31005KT 270V340 9999 FEW014 20/17 Q1016","updated":"2025-10-06T09:21:04Z"}
