{"icao":"LPBJ","metar":"LPBJ 042200Z 31008KT CAVOK 13/07 Q1018","updated":"2026-05-04T23:01:24Z"}
