{"icao":"LPAR","metar":"LPAR 281900Z 01009KT 270V050 9999 FEW022 23/16 Q1022","updated":"2026-06-28T22:00:23Z"}
