{"icao":"LPPD","metar":"LPPD 271830Z 01005KT 310V030 9999 FEW025 SCT030 15/09 Q1034","updated":"2026-02-27T18:41:06Z"}
