{"icao":"LPPR","metar":"LPPR 262200Z 11008KT 070V130 CAVOK 07/00 Q1014","updated":"2025-12-26T22:18:51Z"}
