{"icao":"LPLA","metar":"LPLA 061300Z 21008KT 150V240 9999 FEW016 24/18 Q1018","updated":"2025-10-06T13:27:34Z"}
