{"icao":"KORD","metar":"KORD 031651Z 20012G24KT 10SM BKN075 BKN200 BKN250 12/05 A2989 RMK AO2 PK WND 23027/1553 RAB1552E31 SLP122 P0000 T01170050 $","updated":"2026-05-03T17:45:11Z"}
