{"icao":"LPPT","metar":"LPPT 062200Z 25008KT 220V280 9999 FEW015 FEW020CB SCT036 09/07 Q1011 RESHRA WS R20","updated":"2026-02-06T22:22:02Z"}
