{"icao":"LPPR","metar":"LPPR 170900Z 03005KT 360V120 7000 BKN003 BKN005 12/12 Q1014","updated":"2025-11-17T09:23:38Z"}
