{"icao":"KJFK","metar":"KJFK 120251Z 00000KT 10SM FEW075 FEW250 11/06 A3010 RMK AO2 SLP192 T01060061 52010 $","updated":"2026-05-12T03:31:32Z"}
