{"icao":"LPPD","metar":"LPPD 251130Z 35009KT 9999 FEW025 SCT035 15/09 Q1028","updated":"2026-02-25T11:39:19Z"}
