{"icao":"LPLA","metar":"LPLA 240400Z 36007KT 330V030 9999 BKN025 13/08 Q1026","updated":"2026-03-24T04:25:06Z"}
