{"icao":"LPLA","metar":"LPLA 172000Z 36009KT 330V030 9999 BKN006 BKN015 14/13 Q1018","updated":"2026-04-17T20:05:36Z"}
