{"icao":"KLAX","metar":"KLAX 120314Z 30009KT 10SM BKN009 BKN250 19/17 A2984 RMK AO2 T01890167","updated":"2026-06-12T03:50:41Z"}
