{"icao":"KJFK","metar":"KJFK 271351Z 27015KT 10SM SCT050 BKN230 07/M04 A2994 RMK AO2 SLP138 T00671044","updated":"2025-11-27T14:19:08Z"}
