{"icao":"KORD","metar":"KORD 080151Z 10006KT 10SM BKN100 OVC200 M06/M13 A3035 RMK AO2 SLP290 T10561133 $","updated":"2026-02-08T02:28:51Z"}
