{"icao":"LPFR","metar":"LPFR 221500Z 24013KT 9999 FEW010 SCT045 24/21 Q1018","updated":"2025-10-22T15:18:22Z"}
