{"icao":"KLAX","metar":"KLAX 010053Z 06009KT 10SM OVC039 15/13 A2997 RMK AO2 RAE22 SLP146 P0000 T01500128 $","updated":"2026-01-01T01:49:07Z"}
