{"icao":"LPMT","metar":"LPMT 292200Z VRB02KT 9000 -RA FEW012 SCT016 BKN020 14/14 Q1016","updated":"2025-11-29T22:17:07Z"}
