{"icao":"KLAX","metar":"KLAX 180814Z 08005KT 10SM FEW012 SCT022 BKN028 12/11 A2991 RMK AO2 T01170106 $","updated":"2025-11-18T08:25:38Z"}
