{"icao":"LPFR","metar":"LPFR 041300Z 01011KT 340V050 9999 FEW020 19/11 Q0998","updated":"2026-01-04T13:28:32Z"}
