{"icao":"KLAX","metar":"KLAX 082253Z 27007KT 10SM CLR 22/09 A3007 RMK AO2 SLP182 T02170094 $","updated":"2025-12-08T23:18:42Z"}
