{"icao":"KLAX","metar":"KLAX 141853Z 00000KT 7SM BKN018 23/17 A2989 RMK AO2 SLP121 T02280167 $","updated":"2025-09-14T19:11:46Z"}
