{"icao":"KLAX","metar":"KLAX 012253Z 25013KT 10SM FEW015 FEW060 SCT250 19/11 A2997 RMK AO2 SLP148 T01940106 $","updated":"2026-04-01T23:34:54Z"}
