{"icao":"KJFK","metar":"KJFK 131751Z 29015KT 10SM FEW033 SCT049CB BKN090 BKN220 07/02 A2987 RMK AO2 PK WND 29039/1723 RAE44 SLP115 CB E MOV SE VCSH E-SE AND SW P0002 60002 T00720017 10100 20067 55001","updated":"2025-11-13T18:26:57Z"}
