{"icao":"KJFK","metar":"KJFK 111951Z 29016G31KT 10SM SCT065 02/M13 A2969 RMK AO2 PK WND 30032/1855 SLP054 VIRGA NW T00221133 $","updated":"2025-12-11T20:22:46Z"}
