{"icao":"LPAR","metar":"LPAR 281000Z 16005KT 130V200 9999 FEW015 21/15 Q1009","updated":"2026-04-28T11:04:08Z"}
