{"icao":"LPPR","metar":"LPPR 170600Z 05003KT 330V140 9999 FEW007 10/10 Q1021","updated":"2025-09-17T06:26:48Z"}
