{"icao":"LPAZ","metar":"LPAZ 270230Z 29008KT 9999 FEW024 18/14 Q1024","updated":"2026-06-27T02:56:32Z"}
