{"icao":"LPAZ","metar":"LPAZ 250600Z 04007KT 9999 FEW022 19/17 Q1014","updated":"2025-10-25T06:23:54Z"}
