{"icao":"KJFK","metar":"KJFK 211951Z 23009KT 10SM SCT026 OVC250 11/06 A2998 RMK AO2 SLP151 T01060056","updated":"2025-11-21T20:21:40Z"}
