{"icao":"LPPD","metar":"LPPD 011030Z 04011KT 010V080 9999 FEW009 SCT025 15/11 Q1030","updated":"2026-04-01T10:54:25Z"}
