{"icao":"LPPD","metar":"LPPD 211100Z 22012KT 9999 FEW007 BKN011 16/14 Q1015","updated":"2026-05-21T11:21:43Z"}
