{"icao":"LPMA","metar":"LPMA 171600Z 03013KT 9999 FEW015 24/19 Q1019","updated":"2025-09-17T16:22:02Z"}
