{"icao":"LPOV","metar":"LPOV 171000Z VRB01KT 3000 BR SCT001 15/14 Q1016","updated":"2025-10-17T10:19:02Z"}
