{"icao":"KLAX","metar":"KLAX 012253Z 26013KT 10SM FEW150 FEW250 21/08 A2998 RMK AO2 SLP152 T02110078","updated":"2026-02-01T23:23:24Z"}
