{"icao":"KLAX","metar":"KLAX 050653Z 24005KT 9SM OVC011 14/12 A2994 RMK AO2 SLP138 T01390122","updated":"2026-03-05T07:41:10Z"}
