{"icao":"KORD","metar":"KORD 241851Z 18006KT 10SM OVC180 10/04 A3000 RMK AO2 SLP163 T01000039","updated":"2025-11-24T19:13:38Z"}
