{"icao":"KJFK","metar":"KJFK 220451Z 21010KT 10SM FEW043 OVC100 03/M04 A3015 RMK SLP209 T00331039 400331089 $ ","updated":"2026-01-22T05:27:23Z"}
