{"icao":"KORD","metar":"KORD 180836Z 18014G24KT 8SM BKN015 OVC023 11/09 A2950 RMK AO2 T01110089 $","updated":"2026-02-18T08:42:22Z"}
