{"icao":"LPCS","metar":"LPCS 060700Z 06007KT 040V100 9999 FEW035 15/07 Q1016","updated":"2026-04-06T07:27:55Z"}
