{"icao":"LPPR","metar":"LPPR 280700Z 07004KT 010V130 CAVOK 05/04 Q1026","updated":"2026-02-28T07:25:32Z"}
