{"icao":"LPLA","metar":"LPLA 121700Z 23016KT 200V260 9999 FEW015 17/12 Q1027","updated":"2026-04-12T17:33:05Z"}
