{"icao":"LPFR","metar":"LPFR 132000Z VRB02KT CAVOK 22/18 Q1016","updated":"2026-06-13T20:13:42Z"}
