{"icao":"LPFR","metar":"LPFR 241100Z 22006KT CAVOK 24/17 Q1019","updated":"2025-10-24T11:15:40Z"}
