{"icao":"KJFK","metar":"KJFK 040951Z 29011KT 10SM FEW250 09/01 A3000 RMK AO2 PK WND 29026/0900 SLP159 T00890006 $","updated":"2025-11-04T10:22:03Z"}
