{"icao":"LPLA","metar":"LPLA 190400Z 29005KT 9999 FEW018 SCT025 BKN035 17/16 Q1018","updated":"2025-09-19T04:21:01Z"}
