{"icao":"LPFR","metar":"LPFR 231900Z 31010KT CAVOK 24/17 Q1018","updated":"2025-10-24T06:26:04Z"}
