{"icao":"KORD","metar":"KORD 210751Z 25010KT 10SM FEW090 FEW250 10/07 A2974 RMK AO2 SLP070 T01000067 $","updated":"2025-10-21T08:25:52Z"}
