{"icao":"KJFK","metar":"KJFK 070751Z 02006KT 1/2SM R04R/3500V5000FT BR VV003 03/03 A2966 RMK AO2 SFC VIS 3/4 DZE0659 SLP044 P0000 T00330033 $","updated":"2026-01-07T08:29:17Z"}
