{"icao":"KJFK","metar":"KJFK 212251Z 10007KT 10SM FEW050 BKN150 BKN190 BKN250 12/03 A2995 RMK AO2 SLP141 T01170033","updated":"2026-03-21T23:23:32Z"}
