{"icao":"LPHR","metar":"LPHR 052030Z 12012KT 9999 SCT035 BKN046 13/05 Q1035","updated":"2026-03-05T20:35:43Z"}
