{"icao":"LPPR","metar":"LPPR 031900Z 05006KT 030V090 CAVOK 14/09 Q1001","updated":"2026-01-03T19:14:20Z"}
