{"icao":"LPOV","metar":"LPOV 220600Z 13002KT 0500 FG VV002 10/10 Q1011","updated":"2026-03-22T06:50:19Z"}
