{"icao":"LPFR","metar":"LPFR 061230Z 34010KT CAVOK 12/M02 Q1021","updated":"2026-01-06T12:42:08Z"}
