{"icao":"KORD","metar":"KORD 161500Z 23008KT 5SM BR FEW003 BKN210 06/05 A2994 RMK AO2 T00610050","updated":"2026-02-16T15:39:12Z"}
