{"icao":"LPPR","metar":"LPPR 241300Z 24006KT 170V290 9999 FEW009 BKN013 23/19 Q1014","updated":"2026-06-24T13:20:55Z"}
