{"icao":"KJFK","metar":"KJFK 021851Z 21010KT 10SM FEW050 SCT250 14/04 A3025 RMK AO2 SLP244 T01390039 $","updated":"2025-11-02T19:12:32Z"}
