{"icao":"LPHR","metar":"LPHR 011700Z 28029G40KT 250V310 7000 -SHRA SCT018 FEW023TCU BKN040 11/06 Q1010 WS R28","updated":"2026-02-01T17:23:49Z"}
