{"icao":"LPCS","metar":"LPCS 231300Z 25006KT 210V290 9999 FEW015 SCT020 BKN035 24/19 Q1020","updated":"2025-10-23T13:30:34Z"}
