{"icao":"LPMT","metar":"LPMT 032200Z 33007KT 300V360 9999 FEW025 15/10 Q1016","updated":"2026-05-03T23:42:45Z"}
