{"icao":"KLAX","metar":"KLAX 021053Z 00000KT 10SM FEW008 SCT180 BKN250 14/13 A2996 RMK AO2 SLP142 T01440133","updated":"2026-03-02T11:31:30Z"}
