{"icao":"LPFL","metar":"LPFL 060800Z 27012G23KT 220V320 9999 FEW018 20/14 Q1007","updated":"2025-11-06T08:25:35Z"}
