{"icao":"KLAX","metar":"KLAX 081412Z 00000KT 2 1/2SM BR OVC004 16/15 A2991 RMK AO2 VIS SW-NW 1 1/2 T01560150 $","updated":"2025-11-08T14:15:19Z"}
