{"icao":"KJFK","metar":"KJFK 210751Z 29009KT 10SM CLR M07/M18 A3054 RMK SLP342 T10721183 ","updated":"2026-01-21T08:30:37Z"}
