{"icao":"LPMT","metar":"LPMT 201600Z 25008KT 9999 FEW032 22/17 Q1014","updated":"2025-10-20T17:15:56Z"}
