{"icao":"LPPD","metar":"LPPD 211100Z 03008KT 9999 FEW027 BKN040 16/09 Q1032","updated":"2025-11-21T11:15:48Z"}
