{"icao":"LPPT","metar":"LPPT 030600Z 32007KT CAVOK 16/13 Q1021","updated":"2025-10-03T06:25:46Z"}
