{"icao":"KJFK","metar":"KJFK 132051Z 18012KT 10SM FEW045 FEW090 FEW250 22/15 A3006 RMK AO2 SLP179 T02220150 56019 $","updated":"2025-09-13T21:13:42Z"}
