{"icao":"LPHR","metar":"LPHR 261730Z 12012KT 9999 FEW012 18/16 Q1019","updated":"2026-04-26T17:37:15Z"}
