{"icao":"LPLA","metar":"LPLA 282000Z 29011KT 9999 FEW013 SCT020 16/14 Q1028","updated":"2026-02-28T20:24:15Z"}
