{"icao":"LPMA","metar":"LPMA 030530Z 27004KT 230V310 9999 SCT015 14/07 Q1015","updated":"2026-02-03T05:50:41Z"}
