{"icao":"KJFK","metar":"KJFK 031510Z 09011KT 10SM -RA BKN037 OVC075 02/M02 A3055 RMK AO2 PLE10 P0001 T00171017","updated":"2026-03-03T15:47:07Z"}
