{"icao":"KJFK","metar":"KJFK 092051Z 10010KT 6SM -RA BR BKN006 BKN025 OVC050 15/14 A2971 RMK AO2 SLP061 P0014 60017 T01500144 56024 $","updated":"2025-11-09T21:15:28Z"}
