{"icao":"LPOV","metar":"LPOV 301900Z 36005KT CAVOK 15/12 Q1028","updated":"2026-03-31T02:12:56Z"}
