{"icao":"LPPT","metar":"LPPT 270800Z 08003KT 050V110 CAVOK 20/14 Q1014","updated":"2026-04-27T08:22:18Z"}
