{"icao":"LPAZ","metar":"LPAZ 132130Z 21015KT 9999 FEW020 15/12 Q1023","updated":"2026-04-13T21:48:04Z"}
