{"icao":"LPPR","metar":"LPPR 170130Z 11007KT CAVOK 14/08 Q1015","updated":"2026-03-17T02:01:33Z"}
