{"icao":"LPBJ","metar":"LPBJ 152300Z 25009KT 5000 BCFG SCT004 SCT012 12/11 Q1016","updated":"2026-01-15T23:19:33Z"}
