{"icao":"LPAZ","metar":"LPAZ 011030Z 28007KT 9999 FEW020 16/12 Q1015","updated":"2026-05-01T10:39:54Z"}
