{"icao":"LPMT","metar":"LPMT 172000Z 34010KT 310V010 9999 FEW040 16/10 Q1019","updated":"2026-05-17T20:49:45Z"}
