{"icao":"LPMA","metar":"LPMA 072000Z 01022KT 9999 FEW016 19/13 Q1023","updated":"2026-06-07T20:10:10Z"}
