{"icao":"LPPR","metar":"LPPR 121500Z 17018KT 9999 FEW025 BKN030 14/10 Q1013","updated":"2026-01-12T15:24:20Z"}
