{"icao":"LPPS","metar":"LPPS 030800Z 06009KT 030V090 9999 SCT015 21/18 Q1023","updated":"2025-10-03T08:22:03Z"}
