{"icao":"KLAX","metar":"KLAX 271953Z 24009KT 8SM FEW009 FEW018 21/14 A2997 RMK AO2 SLP146 T02060144 $","updated":"2025-10-27T20:18:18Z"}
