{"icao":"LPAR","metar":"LPAR 010800Z 05004KT 020V080 CAVOK 18/14 Q1020","updated":"2025-10-01T08:23:53Z"}
