{"icao":"KJFK","metar":"KJFK 171251Z 20010KT 5SM BR OVC009 01/00 A3018 RMK AO2 SLP220 CIG 008V010 T00110000 $","updated":"2026-02-17T13:00:59Z"}
