{"icao":"LPAR","metar":"LPAR 271300Z 35006KT 300V030 9999 BKN020 17/14 Q1024","updated":"2026-02-27T14:01:06Z"}
