{"icao":"LPPT","metar":"LPPT 272300Z 23016KT 6000 DZ FEW006 SCT008 BKN010 19/18 Q1013","updated":"2025-09-27T23:14:42Z"}
