{"icao":"LPAZ","metar":"LPAZ 141600Z 26006KT 230V300 9999 FEW020 25/19 Q1026","updated":"2025-09-14T16:17:58Z"}
