{"icao":"LPPD","metar":"LPPD 082000Z 28025G35KT 9999 FEW025 SCT035 16/10 Q1006","updated":"2025-12-08T20:21:47Z"}
