{"icao":"LPPS","metar":"LPPS 151000Z 02009KT 8000 SCT008 BKN030 16/14 Q1022","updated":"2026-03-15T10:27:57Z"}
