{"icao":"LPPR","metar":"LPPR 011600Z 29004KT 260V340 9999 SCT012 17/12 Q1019","updated":"2025-11-01T16:19:18Z"}
