{"icao":"KLAX","metar":"KLAX 240453Z 23005KT 10SM FEW008 18/16 A3000 RMK AO2 SLP157 T01780156","updated":"2025-10-24T05:17:40Z"}
