{"icao":"KLAX","metar":"KLAX 271053Z 13006KT 10SM FEW010 OVC017 20/17 A2987 RMK AO2 SLP112 T02000167 $","updated":"2025-09-27T11:12:40Z"}
