{"icao":"LPPS","metar":"LPPS 171600Z 31017KT 9999 FEW015 17/11 Q1019","updated":"2026-01-17T16:21:52Z"}
