{"icao":"LPCS","metar":"LPCS 211400Z 35024KT CAVOK 21/08 Q1021","updated":"2025-09-21T14:13:53Z"}
