{"icao":"LPSJ","metar":"LPSJ 021030Z 14011KT 110V170 9999 FEW008 BKN012 20/18 Q1029","updated":"2026-07-02T10:37:20Z"}
