{"icao":"LPFL","metar":"LPFL 111830Z 20011KT 140V260 9999 SCT016 17/12 Q1012","updated":"2026-02-11T19:01:29Z"}
