{"icao":"KORD","metar":"KORD 302051Z 22013G27KT 10SM FEW055 SCT300 27/12 A2976 RMK AO2 PK WND 19027/1959 SLP076 T02670117 56031","updated":"2026-03-30T21:40:57Z"}
