{"icao":"KJFK","metar":"KJFK 301651Z 24012KT 10SM -RA BKN034 OVC046 06/04 A3023 RMK AO2 SLP236 P0002 T00610039 $","updated":"2025-11-30T17:15:42Z"}
