{"icao":"KORD","metar":"KORD 311751Z 13008KT 10SM FEW200 BKN250 22/08 A3008 RMK AO2 SLP183 T02170083 10217 20144 58013 $","updated":"2026-05-31T18:00:12Z"}
