{"icao":"LPOV","metar":"LPOV 190400Z 17009KT 140V200 9999 SCT040 20/15 Q1014","updated":"2025-10-19T04:21:17Z"}
