{"icao":"LPOV","metar":"LPOV 022100Z 36009KT 0900 +TSRA FEW011 SCT020CB 12/11 Q1010","updated":"2026-03-02T21:31:53Z"}
