{"icao":"LPBJ","metar":"LPBJ 060900Z 17014KT CAVOK 22/16 Q1021","updated":"2025-10-06T09:21:02Z"}
