{"icao":"LPMR","metar":"LPMR 282000Z 26002KT 7000 SCT004 OVC007 16/15 Q1008","updated":"2026-04-28T21:56:52Z"}
