{"icao":"LPMR","metar":"LPMR 091700Z 16002KT 7000 FEW012 14/14 Q1016","updated":"2025-12-09T17:19:15Z"}
