{"icao":"LPMT","metar":"LPMT 271300Z 01006KT CAVOK 15/06 Q1024","updated":"2025-11-27T13:30:40Z"}
