{"icao":"KJFK","metar":"KJFK 250951Z 18009KT 7SM -RA BKN007 BKN031 OVC050 22/21 A2996 RMK AO2 SLP144 P0022 T02220211 $","updated":"2025-09-25T10:19:08Z"}
