{"icao":"LPFR","metar":"LPFR 142100Z 02007KT CAVOK 14/10 Q1015","updated":"2025-12-14T21:16:46Z"}
