{"icao":"LPMA","metar":"LPMA 272200Z 33006KT CAVOK 16/11 Q1018","updated":"2026-01-27T22:21:55Z"}
