{"icao":"LPPT","metar":"LPPT 182200Z 29006KT 260V330 9999 -RA FEW020 BKN038 12/09 Q1023","updated":"2026-02-18T22:31:14Z"}
