{"icao":"LPBJ","metar":"LPBJ 151400Z 23004KT 190V290 CAVOK 29/11 Q1016","updated":"2025-10-15T14:18:51Z"}
