{"icao":"KORD","metar":"KORD 062051Z 28008KT 5SM BR BKN010 OVC017 06/03 A2962 RMK AO2 SLP033 T00560028 53017","updated":"2026-01-06T21:20:04Z"}
