{"icao":"LPAZ","metar":"LPAZ 011830Z 32007KT 290V030 9999 BKN009 21/17 Q1029","updated":"2026-06-01T18:36:38Z"}
