{"icao":"KLAX","metar":"KLAX 072253Z 25012KT 10SM FEW015 21/14 A2986 RMK AO2 SLP108 T02060144 $","updated":"2025-10-07T23:16:14Z"}
