{"icao":"LPMT","metar":"LPMT 281400Z 33014KT 9999 SCT022 22/16 Q1013","updated":"2025-09-28T14:13:44Z"}
