{"icao":"LPPD","metar":"LPPD 050100Z 33008KT 9999 FEW018 15/07 Q1014","updated":"2025-11-05T01:24:17Z"}
