{"icao":"KORD","metar":"KORD 041551Z 22007KT 10SM BKN110 BKN250 11/M03 A3026 RMK AO2 SLP248 VIRGA OHD T01061033","updated":"2025-11-04T16:22:09Z"}
