{"icao":"LPGR","metar":"LPGR 241900Z 34009KT 9999 FEW015 BKN026 19/14 Q1021","updated":"2026-06-25T00:10:44Z"}
