{"icao":"LPPS","metar":"LPPS 130730Z 05011KT 010V080 9999 SCT015 BKN030 15/11 Q1024","updated":"2026-03-13T07:43:41Z"}
