{"icao":"KJFK","metar":"KJFK 032051Z VRB03KT 10SM FEW021 BKN041 BKN080 BKN160 13/09 A2992 RMK AO2 RAE39 SLP130 P0000 60000 T01280089 58033 $","updated":"2025-11-03T21:16:56Z"}
