{"icao":"LPPR","metar":"LPPR 241230Z 30008KT 260V330 9999 SCT007 BKN014 BKN030 16/16 Q1013","updated":"2025-11-24T12:39:36Z"}
