{"icao":"LPPT","metar":"LPPT 231900Z 30007KT 270V340 9999 FEW020 16/11 Q1014","updated":"2026-04-23T19:05:57Z"}
