{"icao":"LPPR","metar":"LPPR 291700Z 32009KT 280V350 9999 FEW015 SCT040 17/14 Q1009","updated":"2025-10-29T17:17:25Z"}
