{"icao":"LPMA","metar":"LPMA 270830Z 36008KT 300V040 9999 VCSH BKN015 15/11 Q1018","updated":"2026-03-27T08:51:45Z"}
