{"icao":"KORD","metar":"KORD 222051Z 20004KT 10SM SCT043 SCT120 BKN250 27/16 A2982 RMK AO2 SLP092 T02720161 56018","updated":"2025-09-22T21:14:49Z"}
