{"icao":"LPMR","metar":"LPMR 020900Z 02001KT 9999 FEW006 SCT022 13/11 Q1022","updated":"2026-04-02T10:00:59Z"}
