{"icao":"LPCS","metar":"LPCS 181430Z 23012KT 4500 -DZ BR BKN004 15/14 Q1019","updated":"2026-02-18T14:41:49Z"}
