{"icao":"LPFR","metar":"LPFR 040930Z 08010G21KT CAVOK 20/07 Q1023","updated":"2026-04-04T09:35:57Z"}
