{"icao":"LPCS","metar":"LPCS 252000Z 01008KT CAVOK 21/13 Q1021","updated":"2026-05-25T20:21:31Z"}
