{"icao":"KORD","metar":"KORD 292214Z 13012KT 1 1/2SM -SN BR SCT007 OVC015 M02/M03 A3001 RMK AO2 P0001 T10221033 $","updated":"2025-11-29T22:17:23Z"}
