{"icao":"LPPD","metar":"LPPD 050800Z 32008KT 280V350 9999 FEW020 BKN030 15/10 Q1017","updated":"2025-11-05T08:25:16Z"}
