{"icao":"LPPT","metar":"LPPT 101000Z 05012G22KT 350V080 CAVOK 22/10 Q1021","updated":"2025-10-10T10:19:14Z"}
