{"icao":"LPMR","metar":"LPMR 101800Z 36005KT CAVOK 12/11 Q1022","updated":"2025-12-10T18:28:37Z"}
