{"icao":"KJFK","metar":"KJFK 140951Z 24004KT 10SM SCT080 SCT250 18/16 A3002 RMK AO2 SLP165 T01780161 $","updated":"2025-09-14T10:15:08Z"}
