{"icao":"LPCS","metar":"LPCS 201730Z VRB02KT CAVOK 23/07 Q1009","updated":"2026-04-20T17:56:15Z"}
