{"icao":"LPPR","metar":"LPPR 120600Z 25004KT 200V290 9999 FEW020 12/09 Q1017","updated":"2026-02-12T06:04:53Z"}
