{"icao":"LPAZ","metar":"LPAZ 251600Z 17008KT 130V210 9999 SCT015 21/17 Q1023","updated":"2026-05-25T16:26:20Z"}
