{"icao":"KLAX","metar":"KLAX 262053Z 25009KT 6SM HZ SCT010 SCT280 18/14 A3002 RMK AO2 SLP165 T01830139 58010 $","updated":"2025-10-26T21:15:23Z"}
