{"icao":"KJFK","metar":"KJFK 300951Z 28014G28KT 10SM BKN060 OVC075 M01/M12 A2959 RMK AO2 PK WND 29034/0855 SLP021 T10061122 $","updated":"2025-12-30T10:22:21Z"}
