{"icao":"LPFR","metar":"LPFR 290300Z 31003KT 290V350 CAVOK 08/07 Q1020","updated":"2025-11-29T03:10:08Z"}
