{"icao":"LPOV","metar":"LPOV 251700Z VRB02KT 9999 -RA SCT035 16/15 Q1015","updated":"2025-10-25T17:13:46Z"}
