{"icao":"LPAZ","metar":"LPAZ 212300Z 02015G25KT 350V060 9999 SCT013 SCT037 15/12 Q1015","updated":"2026-03-21T23:23:19Z"}
