{"icao":"LPMR","metar":"LPMR 091400Z 32008KT 3500 BR SCT007 18/15 Q1020","updated":"2025-10-09T14:17:36Z"}
