{"icao":"KJFK","metar":"KJFK 140551Z 31015G24KT 10SM BKN100 07/M02 A3001 RMK AO2 SLP163 T00671017 10089 20067 53002","updated":"2025-11-14T06:28:42Z"}
