{"icao":"LPPD","metar":"LPPD 061900Z 31009KT 280V340 9999 FEW015 20/17 Q1015","updated":"2025-11-06T19:14:59Z"}
