{"icao":"KJFK","metar":"KJFK 270251Z 21003KT 10SM SCT190 BKN250 17/15 A3001 RMK AO2 SLP163 T01670150 58009 $","updated":"2026-05-27T03:39:42Z"}
