{"icao":"LPPD","metar":"LPPD 190700Z 17013KT 9999 SCT012 BKN025 14/12 Q1024","updated":"2026-02-19T07:07:22Z"}
