{"icao":"LPPR","metar":"LPPR 301800Z 36005KT CAVOK 10/06 Q1021","updated":"2025-11-30T18:25:31Z"}
