{"icao":"LPMA","metar":"LPMA 300800Z 26006KT 230V290 9999 FEW015 17/11 Q1022","updated":"2025-11-30T08:22:27Z"}
