{"icao":"KJFK","metar":"KJFK 160851Z 31017G30KT 10SM FEW048 FEW250 M06/M15 A2965 RMK AO2 PK WND 29036/0819 SLP041 T10561150 53030 $","updated":"2026-01-16T09:26:23Z"}
