{"icao":"KORD","metar":"KORD 032251Z 05006KT 8SM BKN015 BKN029 BKN250 03/M01 A3012 RMK AO2 SLP206 T00331006","updated":"2026-03-03T23:25:51Z"}
