{"icao":"LPMT","metar":"LPMT 100500Z 36003KT 330V080 9999 -RADZ FEW012 BKN020 15/15 Q1018","updated":"2025-11-10T05:18:56Z"}
