{"icao":"KORD","metar":"KORD 171551Z 21013G22KT 10SM FEW070 SCT130 BKN250 18/09 A2995 RMK AO2 SLP139 T01830089","updated":"2025-10-17T16:22:04Z"}
