{"icao":"LPCS","metar":"LPCS 291900Z 29006KT 250V320 9999 FEW004 SCT012 14/14 Q1014","updated":"2026-01-29T19:29:20Z"}
