{"icao":"LPOV","metar":"LPOV 301000Z 02006KT CAVOK 10/06 Q1021","updated":"2025-11-30T10:18:15Z"}
