{"icao":"LPBJ","metar":"LPBJ 241000Z 15013KT CAVOK 15/10 Q1020","updated":"2026-02-24T10:47:46Z"}
