{"icao":"LPFR","metar":"LPFR 162130Z 02003KT 320V040 CAVOK 18/12 Q1018","updated":"2026-04-16T21:41:33Z"}
