{"icao":"LPOV","metar":"LPOV 112100Z VRB01KT CAVOK 16/12 Q1019","updated":"2025-10-11T21:13:43Z"}
