{"icao":"LPMA","metar":"LPMA 120930Z 16004KT 110V220 9999 SCT015 19/13 Q1022","updated":"2026-05-12T09:37:05Z"}
