{"icao":"KLAX","metar":"KLAX 030253Z 16007KT 3SM -RA BR SCT005 BKN009 OVC017 17/16 A3005 RMK AO2 DZE05RAB05 SLP174 P0004 60004 T01720161 51014","updated":"2026-01-03T03:21:13Z"}
