{"icao":"LPBJ","metar":"LPBJ 170800Z 01003KT 340V040 9999 OVC010 11/10 Q1029","updated":"2026-02-17T08:42:36Z"}
