{"icao":"KJFK","metar":"KJFK 260951Z 36006KT 10SM BKN090 BKN250 08/04 A3037 RMK AO2 SLP285 T00830039","updated":"2025-10-26T10:17:12Z"}
