{"icao":"LPFR","metar":"LPFR 080000Z 03004KT 350V070 CAVOK 24/13 Q1019","updated":"2026-06-08T00:05:13Z"}
