{"icao":"LPLA","metar":"LPLA 021800Z 09011KT 050V110 9999 SCT017 SCT030 16/12 Q1021","updated":"2026-05-02T18:57:25Z"}
