{"icao":"KORD","metar":"KORD 071651Z 22006KT 5SM BR OVC004 01/00 A2993 RMK AO2 SLP139 T00110000","updated":"2026-01-07T17:25:04Z"}
