{"icao":"KJFK","metar":"KJFK 141906Z 33017G27KT 9SM FEW015 SCT032 BKN060 BKN250 M02/M07 A2993 RMK AO2 PK WND 34027/1906 SNE04 DRSN P0000 T10221067 $","updated":"2025-12-14T19:14:46Z"}
