{"icao":"KORD","metar":"KORD 010620Z 03016KT 10SM BKN025 M03/M09 A3031 RMK AO2 T10281089 $","updated":"2026-03-01T06:43:45Z"}
