{"icao":"LPAZ","metar":"LPAZ 120630Z 06003KT 340V100 9999 FEW015 BKN039 12/11 Q1030","updated":"2026-03-12T06:53:50Z"}
