{"icao":"KJFK","metar":"KJFK 172251Z 36011KT 10SM FEW050 FEW065 SCT100 SCT150 24/12 A2990 RMK AO2 SLP123 T02440117","updated":"2026-04-17T23:39:46Z"}
