{"icao":"LPPR","metar":"LPPR 220300Z 21008KT 180V250 4000 BR BKN002 18/18 Q1014","updated":"2025-10-22T03:09:35Z"}
