{"icao":"LPAZ","metar":"LPAZ 092200Z 08004KT 9999 FEW032 09/06 Q1035","updated":"2026-03-09T22:27:28Z"}
