{"icao":"LPOV","metar":"LPOV 231800Z 30013KT 270V330 9999 -SHRA FEW020 FEW022CB BKN040 09/05 Q0997","updated":"2026-01-23T22:17:29Z"}
