{"icao":"KORD","metar":"KORD 250651Z 00000KT 10SM FEW250 03/01 A3032 RMK AO2 SLP271 T00330011 $","updated":"2025-10-25T07:16:32Z"}
