{"icao":"KLAX","metar":"KLAX 161753Z 27006KT 1SM R25L/P6000FT BCFG BR SCT000 SCT005 BKN250 18/15 A3000 RMK AO2 SLP158 VIS 1/2V1 1/2 VIS E-S 1 VIS SW-N 1/2 FG SCT000 SCT005 V BKN T01830150 10183 20139 50004 $","updated":"2026-03-16T17:58:39Z"}
