{"icao":"LPLA","metar":"LPLA 070800Z 28007KT 230V300 9999 SCT040 16/09 Q1010","updated":"2025-12-07T08:22:34Z"}
