{"icao":"LPPR","metar":"LPPR 191500Z 20008KT 170V250 CAVOK 27/12 Q1018","updated":"2025-09-19T15:17:24Z"}
