{"icao":"LPLA","metar":"LPLA 091100Z 16010KT 100V190 9999 FEW010 SCT016 17/14 Q1028","updated":"2026-01-09T11:18:14Z"}
