{"icao":"LPMA","metar":"LPMA 280130Z 01015KT 330V050 9999 BKN014 16/12 Q1028","updated":"2026-02-28T01:49:00Z"}
