{"icao":"LPMA","metar":"LPMA 210100Z 36014KT 320V030 9999 BKN015 FEW016TCU 18/13 Q1023 RESHRA","updated":"2025-11-21T01:23:10Z"}
