{"icao":"LPMA","metar":"LPMA 100200Z 35004KT 320V020 9999 FEW015 16/13 Q1023","updated":"2026-02-10T02:23:50Z"}
