{"icao":"LPMR","metar":"LPMR 300100Z VRB01KT CAVOK 13/13 Q1012","updated":"2025-10-30T01:25:04Z"}
