{"icao":"LPPD","metar":"LPPD 110430Z 22023KT 8000 -SHRA BKN014 17/15 Q1018","updated":"2026-01-11T04:46:27Z"}
