{"icao":"LPMR","metar":"LPMR 011600Z 32007KT CAVOK 23/13 Q1020","updated":"2025-10-01T16:22:06Z"}
