{"icao":"KORD","metar":"KORD 301051Z 31005KT 10SM OVC100 M13/M19 A3031 RMK AO2 SLP280 T11281194","updated":"2026-01-30T11:26:56Z"}
