{"icao":"KORD","metar":"KORD 030051Z 13006KT 10SM FEW250 23/13 A3019 RMK AO2 SLP221 T02280128","updated":"2025-10-03T01:16:33Z"}
