{"icao":"LPFL","metar":"LPFL 081600Z VRB03KT 2500 -RADZ SCT002 BKN006 15/15 Q1028 REDZ","updated":"2026-01-08T16:28:44Z"}
