{"icao":"LPLA","metar":"LPLA 201600Z 09007KT 050V120 9999 FEW025 SCT045 21/09 Q1029","updated":"2025-09-20T16:18:42Z"}
