{"icao":"LPMA","metar":"LPMA 241830Z 21005KT 190V250 9999 SCT015 23/19 Q1017","updated":"2026-06-24T18:50:03Z"}
