{"icao":"LPBJ","metar":"LPBJ 100600Z 20009KT 9999 FEW018 SCT040 13/11 Q1011","updated":"2026-05-10T06:10:47Z"}
