{"icao":"LPFR","metar":"LPFR 250700Z 03004KT 350V050 CAVOK 17/12 Q1016","updated":"2026-04-25T07:13:38Z"}
