{"icao":"KORD","metar":"KORD 131851Z 27022G44KT 10SM SCT050 08/M05 A2965 RMK AO2 PK WND 25046/1757 SLP043 T00781050 $","updated":"2026-03-13T19:30:29Z"}
