{"icao":"LPMR","metar":"LPMR 242100Z 23001KT CAVOK 17/16 Q1020","updated":"2026-05-24T21:55:45Z"}
