{"icao":"KLAX","metar":"KLAX 021453Z 09003KT 6SM BR SCT004 BKN150 BKN220 14/14 A2998 RMK AO2 SLP149 T01440139 53009","updated":"2026-03-02T15:40:48Z"}
