{"icao":"LPPR","metar":"LPPR 221900Z 15005KT 9999 BKN030 11/07 Q1028","updated":"2025-11-22T19:13:41Z"}
