{"icao":"LPFR","metar":"LPFR 201100Z 07005G15KT 010V160 CAVOK 17/05 Q1029","updated":"2026-02-20T11:30:54Z"}
