{"icao":"LPFR","metar":"LPFR 182300Z 32003KT 290V360 CAVOK 08/03 Q1016","updated":"2026-01-18T23:18:33Z"}
