{"icao":"LPPD","metar":"LPPD 112030Z 22009KT 8000 FEW007 16/14 Q1019","updated":"2026-02-11T20:37:30Z"}
