{"icao":"LPMA","metar":"LPMA 072300Z 03003KT 350V050 9999 -RA BKN013 20/19 Q1021","updated":"2025-11-07T23:16:22Z"}
