{"icao":"LPOV","metar":"LPOV 301700Z 22008KT 190V260 9999 SCT020 SCT030 18/13 Q1017","updated":"2026-04-30T17:19:10Z"}
