{"icao":"LPMA","metar":"LPMA 111500Z 21017KT 170V230 9999 SCT015 22/15 Q1010","updated":"2025-11-11T15:19:38Z"}
