{"icao":"LPFL","metar":"LPFL 231300Z 25010KT 200V330 9999 FEW018 21/14 Q1026","updated":"2025-11-23T13:22:26Z"}
