{"icao":"LPPR","metar":"LPPR 091700Z 19008KT 4900 BR BKN005 15/14 Q1015","updated":"2025-12-09T17:19:14Z"}
