{"icao":"LPPR","metar":"LPPR 280400Z 11003KT 080V160 8000 NSC 06/05 Q1024","updated":"2025-11-28T04:22:27Z"}
