{"icao":"LPPR","metar":"LPPR 201100Z 17018KT 8000 -RA FEW021 BKN028 BKN035 11/08 Q1014","updated":"2025-12-20T11:15:01Z"}
