{"icao":"LPFR","metar":"LPFR 280630Z 23030G43KT 8000 SCT008 BKN012 15/14 Q1000","updated":"2026-01-28T06:34:53Z"}
