{"icao":"LPOV","metar":"LPOV 261300Z 20018KT 4000 BR FEW004 BKN009 BKN014 15/15 Q1008","updated":"2026-01-26T13:42:57Z"}
