{"icao":"KLAX","metar":"KLAX 121140Z 00000KT 4SM BR SCT002 OVC005 14/13 A2994 RMK AO2 VIS SW-N 2 1/2 T01390128 $","updated":"2026-05-12T11:55:02Z"}
