{"icao":"LPPR","metar":"LPPR 011700Z 11012KT 9999 FEW040 11/06 Q1008","updated":"2026-01-01T17:18:11Z"}
