{"icao":"KORD","metar":"KORD 092251Z 20013G24KT 10SM FEW045 22/11 A2968 RMK AO2 PK WND 18026/2224 SLP049 T02170111 $","updated":"2026-03-09T23:26:49Z"}
