{"icao":"LPMT","metar":"LPMT 141500Z 27008KT 9999 FEW045 27/13 Q1015","updated":"2025-10-14T15:20:08Z"}
