{"icao":"LPBJ","metar":"LPBJ 070300Z 28004KT CAVOK 03/01 Q1025","updated":"2026-01-07T03:28:08Z"}
