{"icao":"LPMT","metar":"LPMT 072100Z 34009KT CAVOK 12/08 Q1019","updated":"2026-03-07T21:20:00Z"}
