{"icao":"LPPS","metar":"LPPS 271900Z 33014KT 9999 FEW015 BKN030 16/10 Q1017","updated":"2026-04-27T19:19:15Z"}
