{"icao":"LPPS","metar":"LPPS 130830Z 06005KT 340V110 9999 FEW015 BKN030 22/17 Q1023","updated":"2025-09-13T08:57:01Z"}
