{"icao":"LPPT","metar":"LPPT 091000Z 30004KT 250V340 9999 FEW012 13/10 Q1029","updated":"2026-01-09T10:21:31Z"}
