{"icao":"KLAX","metar":"KLAX 240253Z 25006KT 10SM BKN007 20/18 A2987 RMK AO2 SLP112 T02000183 51017 $","updated":"2025-09-24T02:57:47Z"}
