{"icao":"LPFR","metar":"LPFR 121330Z 10009KT 9000 FEW003 SCT025 13/11 Q1020","updated":"2026-01-12T13:41:11Z"}
