{"icao":"KORD","metar":"KORD 310951Z 30009KT 10SM FEW190 SCT250 06/02 A2982 RMK AO2 SLP099 T00560017 $","updated":"2025-10-31T10:19:57Z"}
