{"icao":"KJFK","metar":"KJFK 030851Z 04004KT 10SM OVC050 M01/M05 A3060 RMK AO2 SLP363 T10111050 56015","updated":"2026-03-03T09:40:24Z"}
