{"icao":"KJFK","metar":"KJFK 090451Z 11004KT 10SM FEW075 SCT090 BKN190 BKN250 13/11 A2990 RMK AO2 SLP124 T01280106 401940111 $","updated":"2025-11-09T05:16:53Z"}
