{"icao":"KJFK","metar":"KJFK 222151Z 18008KT 10SM FEW030 BKN042 BKN250 20/14 A3006 RMK AO2 SLP179 T02000144 $","updated":"2025-09-22T22:16:08Z"}
