{"icao":"KJFK","metar":"KJFK 061251Z 21007KT 10SM SCT075 BKN220 BKN250 23/16 A2992 RMK AO2 SLP130 T02330161 $","updated":"2026-06-06T13:39:50Z"}
