{"icao":"LPMT","metar":"LPMT 140700Z 34008KT 9999 FEW025 15/11 Q1016","updated":"2026-05-14T09:33:05Z"}
