{"icao":"LPHR","metar":"LPHR 201530Z 20018KT 6000 SCT014 SCT025 BKN060 17/15 Q1018","updated":"2026-02-20T15:36:24Z"}
