{"icao":"LPPD","metar":"LPPD 042000Z 30016KT 9999 FEW018 FEW025TCU 16/08 Q1010","updated":"2025-11-04T20:20:54Z"}
