{"icao":"KORD","metar":"KORD 250551Z 02005KT 10SM OVC010 06/02 A3005 RMK AO2 SLP180 60000 T00560017 10078 20050 400941011 56003","updated":"2025-12-25T06:31:43Z"}
