{"icao":"LPOV","metar":"LPOV 300300Z VRB01KT CAVOK 11/11 Q1012","updated":"2025-10-30T04:20:44Z"}
