{"icao":"LPPT","metar":"LPPT 230700Z 02007KT CAVOK 15/05 Q1018","updated":"2025-09-23T07:17:25Z"}
