{"icao":"LPMR","metar":"LPMR 270200Z 00000KT 0200 FG VV001 18/18 Q1018","updated":"2026-06-27T02:56:16Z"}
