{"icao":"KLAX","metar":"KLAX 091653Z 00000KT 10SM FEW140 FEW250 20/03 A3009 RMK AO2 SLP186 T02000033 $","updated":"2025-12-09T17:19:16Z"}
