{"icao":"KORD","metar":"KORD 021651Z 29009G16KT 10SM SCT065 11/M05 A3010 RMK AO2 SLP196 T01061050 $","updated":"2026-05-02T17:41:40Z"}
