{"icao":"KJFK","metar":"KJFK 261851Z 34009KT 10SM FEW055 SCT085 BKN250 15/01 A3036 RMK AO2 SLP279 T01500006","updated":"2025-10-26T19:13:58Z"}
