{"icao":"LPPS","metar":"LPPS 211000Z 01010KT 9999 SCT011 BKN030 23/21 Q1020","updated":"2025-10-21T10:19:13Z"}
