{"icao":"LPMA","metar":"LPMA 200700Z 33007KT 270V010 9999 SCT016 14/10 Q1025","updated":"2025-12-20T07:17:05Z"}
