{"icao":"KLAX","metar":"KLAX 071953Z 23009G16KT 10SM FEW012 FEW026 21/13 A2983 RMK AO2 SLP101 T02110128 $","updated":"2026-06-07T20:10:11Z"}
