{"icao":"LPFL","metar":"LPFL 260930Z 19006KT 160V220 9999 FEW013 BKN028 15/12 Q1030","updated":"2026-03-26T10:00:55Z"}
