{"icao":"LPOV","metar":"LPOV 202100Z 09002KT CAVOK 14/13 Q1009","updated":"2026-04-20T21:44:30Z"}
