{"icao":"KJFK","metar":"KJFK 160151Z 18004KT 10SM FEW060 BKN250 17/12 A2989 RMK AO2 SLP121 OCNL LTGIC DSNT N CB DSNT N T01670122","updated":"2026-04-16T02:33:58Z"}
