{"icao":"LPMR","metar":"LPMR 061600Z 32015KT 290V350 9999 FEW025 18/10 Q1012","updated":"2026-05-06T16:26:02Z"}
