{"icao":"KJFK","metar":"KJFK 192251Z 15014KT 10SM FEW016 SCT180 BKN250 18/16 A2986 RMK AO2 SLP111 T01830156 $","updated":"2025-10-19T23:15:52Z"}
