{"icao":"KLAX","metar":"KLAX 301853Z 26010KT 10SM FEW011 FEW140 20/12 A2990 RMK AO2 SLP124 T02000117","updated":"2026-04-30T19:19:03Z"}
