{"icao":"LPPD","metar":"LPPD 191500Z 02018KT 350V050 9999 FEW025 22/11 Q1022","updated":"2025-09-19T15:17:26Z"}
