{"icao":"LPST","metar":"LPST 041600Z 31012KT 290V350 9999 FEW030 17/09 Q1017","updated":"2026-05-04T21:58:39Z"}
