{"icao":"LPGR","metar":"LPGR 271330Z 35015KT 9999 FEW015 SCT029 19/15 Q1025","updated":"2026-06-27T13:39:41Z"}
