{"icao":"KJFK","metar":"KJFK 211151Z 05006KT 10SM FEW030 BKN250 15/12 A3033 RMK AO2 SLP271 T01500117 10150 20128 53009 $","updated":"2025-09-21T12:32:11Z"}
