{"icao":"LPFR","metar":"LPFR 290800Z 33004KT 290V350 9999 FEW025 18/15 Q1015","updated":"2025-09-29T08:25:50Z"}
