{"icao":"LPMR","metar":"LPMR 050700Z 01007KT 9999 OVC006 15/14 Q1022","updated":"2025-10-05T07:14:28Z"}
