{"icao":"LPFL","metar":"LPFL 291000Z 17006KT 9999 FEW007 23/21 Q1022","updated":"2025-09-29T10:19:59Z"}
