{"icao":"KJFK","metar":"KJFK 141651Z 18006KT 10SM BKN100 BKN200 07/03 A2966 RMK AO2 SLP042 T00720028 $","updated":"2026-01-14T17:25:58Z"}
