{"icao":"LPAZ","metar":"LPAZ 252300Z 33003KT 290V350 CAVOK 12/10 Q1030","updated":"2026-02-25T23:27:03Z"}
