{"icao":"LPCS","metar":"LPCS 151030Z 33010KT 300V360 9999 VCSH FEW012 BKN026 16/12 Q1025","updated":"2026-04-15T10:57:37Z"}
