{"icao":"LPMA","metar":"LPMA 101130Z 35014G24KT 310V020 9999 VCSH BKN015 FEW018TCU 16/12 Q1019","updated":"2026-04-10T11:47:32Z"}
