{"icao":"LPLA","metar":"LPLA 011500Z 35007KT 310V020 9999 SCT018 BKN025 17/14 Q1017","updated":"2026-05-01T15:56:14Z"}
