{"icao":"LPPR","metar":"LPPR 100230Z 09011KT CAVOK 21/09 Q1021","updated":"2025-10-10T02:59:14Z"}
