{"icao":"LPOV","metar":"LPOV 040100Z 36008KT 9999 OVC006 16/16 Q1025","updated":"2025-10-04T01:14:32Z"}
