{"icao":"LPPT","metar":"LPPT 250230Z 33004KT CAVOK 19/03 Q1017","updated":"2025-09-25T02:59:52Z"}
