{"icao":"LPPR","metar":"LPPR 032200Z 14007KT CAVOK 15/12 Q1020","updated":"2025-11-03T22:17:44Z"}
