{"icao":"KJFK","metar":"KJFK 261951Z 19009KT 10SM FEW050 FEW170 BKN250 04/M03 A2987 RMK AO2 SLP116 T00391028 $","updated":"2026-02-26T20:36:20Z"}
