{"icao":"LPPS","metar":"LPPS 041400Z 09009KT 060V120 9999 SCT015 23/15 Q1026","updated":"2025-10-04T14:14:03Z"}
