{"icao":"LPFL","metar":"LPFL 152100Z 19006KT 160V260 9999 FEW021 16/09 Q1026","updated":"2025-12-16T07:21:59Z"}
