{"icao":"LPHR","metar":"LPHR 241300Z 08004KT 030V140 9999 BKN007 BKN012 19/16 Q1023","updated":"2026-05-24T13:23:12Z"}
