{"icao":"LPAZ","metar":"LPAZ 301100Z 20008KT 8000 BKN004 20/19 Q1026","updated":"2026-05-30T11:18:47Z"}
