{"icao":"LPPR","metar":"LPPR 041800Z 21006KT 190V260 1300 R17/P2000 DZ BR OVC002 17/17 Q1023","updated":"2025-10-04T18:21:40Z"}
