{"icao":"LPMT","metar":"LPMT 081200Z 31006KT 270V340 9999 FEW018 SCT028 BKN042 20/15 Q1022","updated":"2025-10-08T12:37:28Z"}
