{"icao":"KJFK","metar":"KJFK 262251Z 20019KT 10SM SCT100 BKN250 12/07 A2974 RMK AO2 PK WND 19027/2246 SLP069 T01220072 $","updated":"2026-03-26T23:31:36Z"}
