{"icao":"LPPR","metar":"LPPR 131630Z 22009KT 2000 -RADZ BR BKN002 OVC005 13/13 Q1020","updated":"2026-03-13T16:38:30Z"}
