{"icao":"KLAX","metar":"KLAX 070953Z 00000KT 8SM SCT250 15/12 A3016 RMK AO2 SLP211 T01500122 $","updated":"2026-02-07T10:24:00Z"}
