{"icao":"LPOV","metar":"LPOV 181600Z 25005KT 200V300 CAVOK 22/14 Q1016","updated":"2025-10-18T16:19:28Z"}
