{"icao":"LPMA","metar":"LPMA 141400Z 01017G28KT 330V050 9999 SCT016 20/12 Q1018","updated":"2025-12-14T14:17:00Z"}
