{"icao":"KORD","metar":"KORD 222051Z 02023G36KT 10SM -RA BKN015 BKN032 OVC080 02/M01 A2993 RMK AO2 PK WND 01036/2045 SLP136 RAB1954 P0000 60000 T00171011 51026","updated":"2026-03-22T21:25:06Z"}
