{"icao":"LPMR","metar":"LPMR 040700Z 02005KT 9999 FEW045 12/09 Q1001","updated":"2026-01-04T07:20:08Z"}
