{"icao":"LPPT","metar":"LPPT 231600Z 31011KT 280V340 CAVOK 23/17 Q1021","updated":"2026-05-23T16:07:13Z"}
