{"icao":"LPLA","metar":"LPLA 271800Z 17008KT 9999 FEW025 15/09 Q1034","updated":"2026-02-27T18:41:08Z"}
