{"icao":"KORD","metar":"KORD 200051Z 21008KT 10SM BKN120 BKN170 BKN250 M07/M13 A3004 RMK AO2 SLP184 T10721133","updated":"2025-12-20T01:24:50Z"}
