{"icao":"KORD","metar":"KORD 090851Z 22014G23KT 10SM CLR 10/02 A2972 RMK AO2 SLP064 T01000017 58016 $","updated":"2026-03-09T09:50:35Z"}
