{"icao":"KLAX","metar":"KLAX 060453Z 06003KT 10SM CLR 14/10 A3006 RMK AO2 SLP179 T01440100 $","updated":"2025-12-06T05:18:19Z"}
