{"icao":"LPFR","metar":"LPFR 162200Z 30004KT 9999 SCT025 13/10 Q1031","updated":"2026-02-16T22:26:58Z"}
