{"icao":"LPLA","metar":"LPLA 270900Z 31013KT 7000 -DZ FEW005 SCT008 BKN016 18/17 Q1023","updated":"2026-06-27T09:27:05Z"}
