{"icao":"LPAZ","metar":"LPAZ 172100Z 24007KT 9999 FEW003 SCT007 BKN011 19/18 Q1025","updated":"2025-11-17T21:17:05Z"}
