{"icao":"LPPD","metar":"LPPD 231900Z 22004KT 190V260 9999 SCT010 FEW018TCU 22/21 Q1017","updated":"2025-10-23T19:14:17Z"}
