{"icao":"LPFL","metar":"LPFL 301100Z 19007G17KT 140V240 9999 FEW024 BKN037 18/11 Q1027","updated":"2025-11-30T11:14:28Z"}
