{"icao":"LPPT","metar":"LPPT 170830Z 06006KT 020V100 CAVOK 11/07 Q1012","updated":"2026-03-17T08:52:38Z"}
