{"icao":"LPCS","metar":"LPCS 121500Z 21007KT 180V240 9999 FEW045 27/13 Q1015","updated":"2025-10-12T15:15:18Z"}
