{"icao":"LPFR","metar":"LPFR 020800Z 04003KT 360V080 9999 FEW010 19/18 Q1023","updated":"2025-11-02T08:19:46Z"}
