{"icao":"LPMA","metar":"LPMA 240500Z 33010KT 270V010 9999 FEW016 15/05 Q1023","updated":"2026-01-24T05:20:24Z"}
