{"icao":"LPPD","metar":"LPPD 111900Z 01007KT 340V060 9999 FEW025 SCT040 13/07 Q1032","updated":"2026-04-11T19:33:46Z"}
