{"icao":"LPBJ","metar":"LPBJ 120800Z 33016KT CAVOK 10/02 Q1016","updated":"2026-04-12T08:46:22Z"}
