{"icao":"LPMR","metar":"LPMR 031700Z 34012KT 9999 OVC008 16/15 Q1023","updated":"2025-10-03T17:14:25Z"}
