{"icao":"LPMT","metar":"LPMT 181800Z 30007KT CAVOK 18/08 Q1020","updated":"2026-05-18T18:49:48Z"}
