{"icao":"LPAZ","metar":"LPAZ 031430Z 06014KT 020V080 9999 FEW021 SCT028 BKN044 17/12 Q1021","updated":"2026-05-03T14:47:31Z"}
