{"icao":"LPMA","metar":"LPMA 191530Z 04012KT 9999 SCT018 18/11 Q1026","updated":"2026-02-19T15:47:22Z"}
