{"icao":"LPAZ","metar":"LPAZ 081500Z 17010KT 9999 FEW010 25/22 Q1025","updated":"2025-10-08T15:19:01Z"}
