{"icao":"LPAR","metar":"LPAR 120900Z 15006KT 100V180 6000 -TSRA SCT018 SCT020CB BKN024 14/12 Q1018 RERA","updated":"2026-05-12T09:36:48Z"}
