{"icao":"KJFK","metar":"KJFK 200451Z 02012KT 10SM CLR 21/08 A3011 RMK AO2 SLP197 T02060078 403000189 $","updated":"2025-09-20T05:15:55Z"}
