{"icao":"LPCS","metar":"LPCS 041700Z 29008KT 250V310 CAVOK 21/04 Q1021","updated":"2026-04-04T17:28:10Z"}
