{"icao":"LPPT","metar":"LPPT 052300Z 30005KT 260V330 CAVOK 16/12 Q1020","updated":"2026-06-05T23:07:02Z"}
