{"icao":"LPMR","metar":"LPMR 282300Z 15003KT 4000 BR NSC 07/06 Q1017","updated":"2025-12-28T23:18:03Z"}
