{"icao":"KLAX","metar":"KLAX 261753Z 27012KT 10SM SCT024 SCT050 17/08 A2995 RMK AO2 SLP142 T01720083 10172 20133 51011 $","updated":"2026-04-26T18:52:55Z"}
