{"icao":"LPFR","metar":"LPFR 111600Z 22008KT 9999 FEW025 20/13 Q1016","updated":"2026-05-11T16:31:53Z"}
