{"icao":"LPOV","metar":"LPOV 062300Z 18003KT CAVOK 15/12 Q1020","updated":"2025-10-06T23:15:41Z"}
