{"icao":"LPPR","metar":"LPPR 282300Z 33005KT 290V350 9999 OVC008 17/15 Q1022","updated":"2026-05-28T23:14:13Z"}
