{"icao":"LPMT","metar":"LPMT 230900Z 29005KT 250V330 9999 FEW025 16/10 Q1014","updated":"2026-04-23T09:26:19Z"}
