{"icao":"KLAX","metar":"KLAX 312053Z 07005KT 7SM -RA SCT070 OVC090 16/12 A3001 RMK AO2 SLP161 P0002 60002 T01610122 58010 $","updated":"2025-12-31T21:17:42Z"}
