{"icao":"KJFK","metar":"KJFK 170851Z 22011KT 10SM SCT250 M01/M05 A3007 RMK AO2 SLP182 T10061050 58025 $","updated":"2025-12-17T09:27:00Z"}
