{"icao":"LPPT","metar":"LPPT 211230Z 04009KT CAVOK 15/08 Q1030","updated":"2026-02-21T12:44:01Z"}
