{"icao":"LPFL","metar":"LPFL 201400Z 22014G27KT 150V280 9999 FEW012 24/19 Q1010","updated":"2025-10-20T14:17:43Z"}
