{"icao":"LPFR","metar":"LPFR 300700Z 36003KT 310V050 9999 FEW020 BKN030 12/11 Q1015","updated":"2025-11-30T07:16:21Z"}
