{"icao":"LPLA","metar":"LPLA 170600Z 19018KT 8000 -RA SCT007 SCT010 BKN015 16/15 Q1018","updated":"2026-02-17T07:02:35Z"}
