{"icao":"KORD","metar":"KORD 162151Z 24009G18KT 10SM SCT027 OVC038 02/M03 A2955 RMK AO2 SLP013 T00221028 $","updated":"2026-01-16T22:20:10Z"}
