{"icao":"LPPR","metar":"LPPR 011800Z 11012KT 060V130 9999 FEW040 11/06 Q1008","updated":"2026-01-01T18:28:43Z"}
