{"icao":"LPMT","metar":"LPMT 161300Z 33010KT 290V350 9999 FEW025 21/07 Q1017","updated":"2026-05-16T13:19:02Z"}
