{"icao":"LPHR","metar":"LPHR 261500Z 28033G52KT 250V310 9000 VCSH SCT014 SCT035 11/08 Q1004","updated":"2026-01-26T15:28:06Z"}
