{"icao":"KLAX","metar":"KLAX 061453Z 00000KT 10SM FEW012 OVC018 18/14 A2986 RMK AO2 SLP110 T01830139 51010 $","updated":"2026-06-06T15:13:48Z"}
