{"icao":"LPPT","metar":"LPPT 181630Z 23008KT 210V280 CAVOK 26/10 Q1015","updated":"2026-04-18T16:38:47Z"}
