{"icao":"LPFL","metar":"LPFL 191100Z 16007KT 100V220 9999 4500SE VCFG FEW000 BKN008 24/22 Q1014","updated":"2025-10-19T11:13:14Z"}
