{"icao":"KORD","metar":"KORD 010751Z 21010KT 10SM CLR 27/23 A2995 RMK AO2 SLP134 T02720233 $","updated":"2026-07-01T08:11:24Z"}
