{"icao":"LPMA","metar":"LPMA 252300Z 27003KT 230V300 9999 SCT015 20/15 Q1021","updated":"2025-09-25T23:15:43Z"}
