{"icao":"KORD","metar":"KORD 061651Z 22011KT 10SM FEW060 FEW250 27/16 A3008 RMK AO2 SLP181 T02670161 $","updated":"2025-10-06T17:16:10Z"}
