{"icao":"LPPD","metar":"LPPD 191300Z 28015KT 6000 SCT005 BKN011 22/22 Q1017","updated":"2025-10-19T13:21:29Z"}
