{"icao":"LPHR","metar":"LPHR 071400Z 20008KT 180V240 9999 SCT004 BKN007 BKN011 15/15 Q1013","updated":"2026-02-07T14:24:33Z"}
