{"icao":"LPMA","metar":"LPMA 281900Z 31004KT 270V330 9999 BKN015 21/17 Q1010","updated":"2025-10-28T19:15:11Z"}
