{"icao":"LPPT","metar":"LPPT 092200Z 26002KT 9999 FEW015 09/08 Q1030","updated":"2026-01-09T22:20:00Z"}
