{"icao":"KLAX","metar":"KLAX 300053Z 26015KT 10SM FEW020 FEW050 21/15 A2994 RMK AO2 SLP138 T02110150 $","updated":"2025-09-30T01:20:08Z"}
