{"icao":"KJFK","metar":"KJFK 181809Z 02008KT 2SM -SN BR BKN005 OVC018 01/01 A2995 RMK AO2 SFC VIS 3 P0000 T00110006 $","updated":"2026-01-18T18:26:41Z"}
