{"icao":"LPPS","metar":"LPPS 131400Z 13008KT 090V180 9999 FEW015 23/16 Q1017","updated":"2025-10-13T14:18:56Z"}
