{"icao":"LPAZ","metar":"LPAZ 261600Z 28034G44KT 9000 FEW024 15/09 Q1006","updated":"2026-01-26T16:33:05Z"}
