{"icao":"KLAX","metar":"KLAX 090653Z 32007KT 10SM CLR 12/M04 A3017 RMK AO2 SLP216 T01221044 $","updated":"2026-01-09T07:24:58Z"}
