{"icao":"LPPD","metar":"LPPD 092130Z 02012KT 340V050 9999 SCT014 14/11 Q1032","updated":"2026-04-09T21:43:39Z"}
