{"icao":"KORD","metar":"KORD 310951Z 31010KT 9SM FEW024 BKN036 OVC080 M11/M14 A3038 RMK AO2 SNE36 SLP300 P0000 T11061144","updated":"2026-01-31T10:23:21Z"}
