{"icao":"LPPS","metar":"LPPS 210900Z 07016G26KT 020V090 9999 FEW015 SCT030 18/11 Q1025","updated":"2025-11-21T09:19:35Z"}
