{"icao":"LPPS","metar":"LPPS 261800Z 25004KT 200V290 9999 SCT015 19/11 Q1017","updated":"2026-01-26T18:34:20Z"}
