{"icao":"KORD","metar":"KORD 061051Z 26006KT 10SM OVC039 M03/M06 A2981 RMK AO2 SLP102 T10281056","updated":"2025-12-06T11:14:48Z"}
