{"icao":"LPFL","metar":"LPFL 121100Z 36003KT 320V060 9999 FEW010 BKN014 17/14 Q1029","updated":"2026-03-12T11:30:27Z"}
