{"icao":"KORD","metar":"KORD 210051Z 27012G21KT 10SM FEW250 03/M11 A2993 RMK AO2 PK WND 28026/0017 SLP142 T00281111","updated":"2025-12-21T01:43:25Z"}
