{"icao":"LPBJ","metar":"LPBJ 260500Z 27004KT CAVOK 05/04 Q1023","updated":"2025-11-26T05:18:15Z"}
