{"icao":"LPHR","metar":"LPHR 082100Z VRB02KT 9999 SCT006 SCT011 BKN025 17/17 Q1030","updated":"2026-01-09T03:38:30Z"}
