{"icao":"LPAZ","metar":"LPAZ 272200Z 26032G42KT 9000 FEW015 BKN020 17/15 Q1009","updated":"2026-01-27T22:21:41Z"}
