{"icao":"LPPR","metar":"LPPR 180800Z VRB02KT 9000 NSC 02/00 Q1014","updated":"2026-01-18T08:25:25Z"}
