{"icao":"KJFK","metar":"KJFK 171051Z 28017G23KT 10SM FEW065 03/M08 A2965 RMK AO2 PK WND 28032/1007 SLP040 T00281083 $","updated":"2025-11-17T11:16:54Z"}
