{"icao":"LPPT","metar":"LPPT 100130Z 32008KT 280V350 6000 -SHRA FEW020TCU SCT024 SCT035 09/07 Q1021","updated":"2026-03-10T01:54:45Z"}
