{"icao":"KORD","metar":"KORD 230851Z 35009KT 10SM FEW020 BKN032 M02/M05 A3023 RMK AO2 SLP245 T10171050 51024","updated":"2026-03-23T08:54:44Z"}
