{"icao":"LPPS","metar":"LPPS 281230Z 02013KT 9999 FEW015 BKN030 15/08 Q1028","updated":"2026-02-28T12:42:32Z"}
