{"icao":"LPOV","metar":"LPOV 210300Z 36001KT CAVOK 11/09 Q1020","updated":"2025-09-21T03:05:46Z"}
