{"icao":"LPAZ","metar":"LPAZ 011230Z 27016KT 9000 SCT002 BKN004 16/16 Q1025","updated":"2026-03-01T12:45:42Z"}
