{"icao":"LPAZ","metar":"LPAZ 132100Z 01004KT 9999 FEW024 12/10 Q1032","updated":"2026-02-13T21:33:47Z"}
