{"icao":"KORD","metar":"KORD 011451Z 10010KT 10SM FEW020 BKN250 22/13 A3022 RMK AO2 SLP231 T02170133 51009","updated":"2025-10-01T15:18:05Z"}
