{"icao":"LPPD","metar":"LPPD 272200Z 01014KT 8000 -RADZ SCT007 SCT045 16/14 Q1023","updated":"2025-11-27T22:17:17Z"}
