{"icao":"LPPR","metar":"LPPR 211800Z 21008KT 180V240 9000 BKN012 BKN020 17/14 Q1005","updated":"2026-04-21T18:06:40Z"}
