{"icao":"LPLA","metar":"LPLA 012100Z 07006KT 350V120 7000 -DZ SCT007 BKN014 BKN030 13/12 Q1032","updated":"2026-04-01T21:42:45Z"}
