{"icao":"LPBJ","metar":"LPBJ 110600Z 18007KT 9999 FEW020 SCT032 12/11 Q1014","updated":"2026-05-11T06:45:33Z"}
