{"icao":"LPPS","metar":"LPPS 151900Z 28010KT 9999 SCT014 BKN030 17/13 Q1024","updated":"2026-01-15T19:23:34Z"}
