{"icao":"LPPR","metar":"LPPR 200500Z 01008KT CAVOK 08/04 Q1020","updated":"2025-11-20T05:18:37Z"}
