{"icao":"LPFR","metar":"LPFR 271230Z 06017KT 7000 R10/1100N -RA VCTS FEW006 SCT012 FEW018CB BKN020 10/09 Q1006 RERA","updated":"2025-12-27T12:37:18Z"}
