{"icao":"LPMA","metar":"LPMA 151300Z 03020G34KT 9999 FEW016 25/17 Q1022","updated":"2025-09-15T13:26:25Z"}
