{"icao":"LPFL","metar":"LPFL 301900Z VRB03KT 9999 SCT025 17/11 Q1007","updated":"2025-10-30T19:14:37Z"}
