{"icao":"LPOV","metar":"LPOV 141200Z 16011KT 4000 SHRA BR SCT010 SCT018CB BKN035 12/11 Q1002 RESHRA","updated":"2025-11-14T12:38:09Z"}
