{"icao":"KJFK","metar":"KJFK 260751Z 36006KT 10SM BKN085 BKN250 09/03 A3035 RMK AO2 SLP277 T00940028","updated":"2025-10-26T08:21:05Z"}
