{"icao":"LPCS","metar":"LPCS 022230Z 01019KT 9999 FEW011 13/10 Q1021","updated":"2026-04-03T05:03:28Z"}
