{"icao":"LPFL","metar":"LPFL 261930Z 18007KT 140V270 9999 4900N -DZ SCT009 BKN045 21/19 Q1023","updated":"2026-06-26T21:17:08Z"}
