{"icao":"LPPR","metar":"LPPR 071200Z 32011KT 280V340 CAVOK 19/13 Q1021","updated":"2026-06-07T12:19:20Z"}
