{"icao":"LPBJ","metar":"LPBJ 292100Z 28007KT CAVOK 24/13 Q1020","updated":"2026-05-29T21:05:38Z"}
