{"icao":"LPHR","metar":"LPHR 181700Z 27012KT 4000 BR SCT001 BKN003 23/22 Q1015","updated":"2025-10-18T17:13:15Z"}
