{"icao":"LPMR","metar":"LPMR 232300Z 10002KT 7000 SCT006 OVC012 16/15 Q1019","updated":"2025-10-23T23:15:48Z"}
