{"icao":"KJFK","metar":"KJFK 120151Z 21011KT 9SM VCFG FEW005 SCT110 BKN130 BKN250 09/08 A2972 RMK AO2 SLP064 VCFG E-S T00890078","updated":"2026-03-12T02:01:08Z"}
