{"icao":"LPAZ","metar":"LPAZ 011400Z 28015KT 9000 BKN002 16/16 Q1024","updated":"2026-03-01T14:22:45Z"}
