{"icao":"LPMT","metar":"LPMT 010100Z 06005KT 9999 FEW030 08/07 Q1015","updated":"2026-01-01T01:48:51Z"}
