{"icao":"KORD","metar":"KORD 132151Z 20005KT 10SM BKN130 BKN250 11/M02 A3014 RMK AO2 SLP209 T01111017","updated":"2025-11-13T22:18:04Z"}
