{"icao":"LPBJ","metar":"LPBJ 211200Z 20015KT 3000 DZRA BR BKN005 BKN010 13/13 Q1008","updated":"2026-01-21T12:48:03Z"}
