{"icao":"KJFK","metar":"KJFK 260051Z 34013G24KT 10SM SCT250 02/M11 A3006 RMK AO2 PK WND 32026/0006 SLP180 T00171106 $","updated":"2025-12-26T01:38:24Z"}
