{"icao":"KLAX","metar":"KLAX 112053Z 24010KT 10SM FEW025 23/17 A2986 RMK AO2 SLP111 T02280167 58001","updated":"2026-06-11T21:24:09Z"}
