{"icao":"LPFR","metar":"LPFR 280400Z 08005KT 9999 SCT012 20/19 Q1017","updated":"2025-10-28T04:20:54Z"}
