{"icao":"LPMT","metar":"LPMT 031000Z 26008KT 230V290 9999 -SHRA FEW025 SCT030 FEW035CB 11/08 Q1003","updated":"2026-02-03T10:38:24Z"}
