{"icao":"KORD","metar":"KORD 011251Z 11005KT 10SM FEW200 BKN250 18/14 A3020 RMK AO2 SLP225 T01830139","updated":"2025-10-01T13:28:26Z"}
