{"icao":"LPST","metar":"LPST 191200Z 34008KT 310V010 9999 FEW015 13/07 Q1021","updated":"2026-01-19T12:47:12Z"}
