{"icao":"KORD","metar":"KORD 201151Z 11003KT 10SM FEW060 SCT130 BKN250 19/17 A3006 RMK AO2 SLP173 OCNL LTGIC DSNT W CB DSNT W MOV NE 60011 70011 T01940172 10222 20189 53005","updated":"2025-09-20T12:32:33Z"}
