{"icao":"LPLA","metar":"LPLA 011110Z 29032G54KT 4000 SHRA SCT024 FEW025CB BKN035 14/09 Q1005","updated":"2026-02-01T11:20:03Z"}
