{"icao":"LPMA","metar":"LPMA 262300Z 01007KT 9999 SCT015 16/08 Q1016","updated":"2025-12-26T23:19:05Z"}
