{"icao":"LPST","metar":"LPST 261500Z 19008KT 160V220 9999 FEW025 23/16 Q1019","updated":"2026-06-26T15:22:01Z"}
