{"icao":"LPMA","metar":"LPMA 101000Z 36009KT 320V040 9999 SCT015 SCT030 23/15 Q1023","updated":"2025-10-10T10:19:33Z"}
