{"icao":"LPFL","metar":"LPFL 151330Z 34010G24KT 280V010 9999 VCSH FEW019 SCT037 15/06 Q1030","updated":"2026-01-15T13:38:34Z"}
