{"icao":"LPPT","metar":"LPPT 290900Z 26007KT 230V300 9999 FEW016 SCT026 BKN046 16/12 Q1008","updated":"2026-04-29T09:07:49Z"}
