{"icao":"LPPT","metar":"LPPT 182200Z VRB02KT CAVOK 24/11 Q1020","updated":"2025-09-18T22:13:53Z"}
