{"icao":"LPOV","metar":"LPOV 311700Z 34016KT CAVOK 20/16 Q1020","updated":"2026-05-31T17:59:54Z"}
