{"icao":"LPLA","metar":"LPLA 221700Z 17013KT 9999 SCT012 BKN017 BKN035 21/20 Q1010","updated":"2025-10-22T17:17:03Z"}
