{"icao":"LPMA","metar":"LPMA 030330Z 35018KT 310V020 9999 SCT015 FEW018CB 13/05 Q1017","updated":"2026-03-03T04:44:37Z"}
