{"icao":"LPMT","metar":"LPMT 031200Z 01007KT CAVOK 21/13 Q1023","updated":"2026-04-03T13:01:03Z"}
