{"icao":"LPBJ","metar":"LPBJ 101700Z 11003KT 9999 SCT030 SCT038 18/12 Q1018","updated":"2025-11-10T17:16:52Z"}
