{"icao":"LPMT","metar":"LPMT 011600Z 27009KT 240V300 9999 FEW030 28/14 Q1018","updated":"2025-10-01T16:22:06Z"}
