{"icao":"LPFL","metar":"LPFL 181000Z VRB02KT 9999 SCT018 SCT035 20/15 Q1016","updated":"2025-09-18T10:18:33Z"}
