{"icao":"LPBJ","metar":"LPBJ 072300Z 30007KT CAVOK 17/14 Q1022","updated":"2025-10-07T23:15:54Z"}
