{"icao":"LPAZ","metar":"LPAZ 161500Z 32016KT 9999 SCT024 SCT038 16/10 Q1033","updated":"2026-01-16T15:22:33Z"}
