{"icao":"LPLA","metar":"LPLA 091000Z 16014KT 120V180 9999 SCT015 SCT030 16/14 Q1028","updated":"2026-01-09T10:21:50Z"}
