{"icao":"LPPT","metar":"LPPT 162200Z 07004G14KT 330V100 CAVOK 16/08 Q1017","updated":"2026-03-16T22:31:23Z"}
