{"icao":"KORD","metar":"KORD 161651Z 23010KT 10SM FEW021 FEW100 SCT250 24/16 A2988 RMK AO2 SLP116 T02440156","updated":"2026-05-16T17:02:18Z"}
