{"icao":"KORD","metar":"KORD 311651Z 30010G18KT 10SM FEW030 FEW250 11/02 A2988 RMK AO2 SLP119 T01060017 $","updated":"2025-10-31T17:16:54Z"}
