{"icao":"LPMA","metar":"LPMA 262100Z 01012G24KT 330V060 9999 BKN015 16/11 Q1026","updated":"2026-02-26T21:31:20Z"}
