{"icao":"LPBJ","metar":"LPBJ 201800Z 02007KT CAVOK 16/07 Q1027","updated":"2026-02-20T18:45:02Z"}
