{"icao":"KJFK","metar":"KJFK 040951Z 34008KT 9SM -SN BKN060 OVC080 M02/M10 A3001 RMK AO2 SNB43 SLP160 P0000 T10221100 $","updated":"2026-01-04T10:19:36Z"}
