{"icao":"KJFK","metar":"KJFK 280851Z 36003KT 9SM FEW008 SCT250 M01/M02 A3014 RMK AO2 SLP205 T10111017 58002","updated":"2026-02-28T09:25:14Z"}
