{"icao":"KLAX","metar":"KLAX 012053Z 26009KT 10SM FEW220 FEW270 22/15 A2997 RMK AO2 SLP148 T02170150 58006","updated":"2026-03-01T21:21:17Z"}
