{"icao":"KORD","metar":"KORD 180951Z 18017G27KT 9SM BKN018 BKN026 OVC033 11/09 A2946 RMK AO2 PK WND 18027/0942 RAB31E46 SLP976 P0000 T01110089 $","updated":"2026-02-18T10:42:32Z"}
