{"icao":"KORD","metar":"KORD 220108Z 20005KT 9SM FEW025 SCT033 OVC047 M03/M06 A2989 RMK AO2 SNE08 P0000 T10281056 $","updated":"2026-01-22T01:44:42Z"}
