{"icao":"LPHR","metar":"LPHR 251400Z 24025KT 9000 -RA SCT012 BKN050 18/16 Q1012","updated":"2026-01-25T14:18:03Z"}
