{"icao":"LPOV","metar":"LPOV 110700Z 14001KT 6000 NSC 07/07 Q1026","updated":"2026-03-11T07:42:08Z"}
