{"icao":"LPPR","metar":"LPPR 092200Z 07006KT CAVOK 21/14 Q1021","updated":"2025-10-09T22:15:36Z"}
