{"icao":"LPPD","metar":"LPPD 191830Z 36031G46KT 9999 VCSH SCT015 SCT025CB 14/12 Q0998","updated":"2026-03-19T18:57:15Z"}
