{"icao":"LPMT","metar":"LPMT 032100Z 02004KT CAVOK 17/11 Q1022","updated":"2026-04-03T21:32:28Z"}
