{"icao":"LPMT","metar":"LPMT 090800Z 18013KT 9000 4000N -RA FEW018 SCT025 17/14 Q1016","updated":"2025-12-09T08:27:58Z"}
