{"icao":"KJFK","metar":"KJFK 060251Z 19010KT 10SM CLR 21/16 A3029 RMK AO2 SLP257 T02060161 53010","updated":"2025-10-06T03:00:32Z"}
