{"icao":"KJFK","metar":"KJFK 260151Z 20008KT 10SM SCT060 BKN100 02/M01 A2973 RMK AO2 SLP067 T00221006 $","updated":"2026-02-26T01:58:40Z"}
