{"icao":"KJFK","metar":"KJFK 050651Z 31010KT 10SM FEW050 M01/M10 A3020 RMK AO2 SLP224 T10111100 $","updated":"2026-01-05T07:27:34Z"}
