{"icao":"LPPS","metar":"LPPS 212200Z 09011KT 8000 SHRA SCT012 FEW018TCU 15/14 Q1000","updated":"2026-03-21T22:23:08Z"}
