{"icao":"KORD","metar":"KORD 070851Z 03011KT 10SM SCT031 SCT250 M01/M08 A3043 RMK AO2 SLP310 T10111078 53013 $","updated":"2026-04-07T09:00:54Z"}
