{"icao":"LPFL","metar":"LPFL 281230Z 29012KT 250V020 9999 FEW010 SCT015 19/15 Q1030","updated":"2026-02-28T12:42:31Z"}
