{"icao":"KORD","metar":"KORD 220751Z 19008KT 10SM BKN070 OVC095 01/M08 A3038 RMK AO2 SLP296 T00111078","updated":"2025-12-22T08:29:07Z"}
