{"icao":"LPLA","metar":"LPLA 041400Z 05004KT 360V120 9999 SCT023 BKN035 16/12 Q1023","updated":"2026-04-04T14:32:26Z"}
