{"icao":"LPPD","metar":"LPPD 162300Z VRB02KT 9999 SCT020 17/13 Q1025","updated":"2025-11-16T23:16:07Z"}
