{"icao":"LPPT","metar":"LPPT 261000Z 04005KT 010V090 CAVOK 13/07 Q1026","updated":"2025-11-26T10:21:26Z"}
