{"icao":"LPMT","metar":"LPMT 092000Z 34005KT 300V360 CAVOK 19/14 Q1019","updated":"2025-10-09T20:19:40Z"}
