{"icao":"LPFL","metar":"LPFL 161230Z 01005KT 300V050 9999 SCT025 22/13 Q1006","updated":"2025-10-16T12:38:42Z"}
