{"icao":"LPAR","metar":"LPAR 021700Z 16003KT 110V210 8000 -RA FEW018 FEW022TCU BKN030 15/12 Q1007 RESHRA","updated":"2026-03-03T05:48:02Z"}
