{"icao":"LPHR","metar":"LPHR 160700Z 34008KT 9999 FEW015 SCT033 13/07 Q1033","updated":"2026-01-16T07:23:46Z"}
