{"icao":"LPPT","metar":"LPPT 060130Z 36010KT 9999 FEW030 07/05 Q1018","updated":"2026-01-06T01:40:47Z"}
