{"icao":"LPAZ","metar":"LPAZ 240800Z 02010KT 9999 FEW014 19/16 Q1021","updated":"2025-09-24T08:23:42Z"}
