{"icao":"LPST","metar":"LPST 200800Z VRB01KT CAVOK 03/02 Q1030","updated":"2026-02-20T08:38:34Z"}
