{"icao":"LPFL","metar":"LPFL 220800Z 32021G32KT 290V350 9999 SCT018 14/07 Q1017","updated":"2026-01-22T08:30:44Z"}
