{"icao":"LPFL","metar":"LPFL 202100Z 26018G33KT 220V310 9999 FEW017 18/14 Q1021","updated":"2026-01-21T05:27:18Z"}
