{"icao":"LPPT","metar":"LPPT 051230Z 24021KT 8000 SCT018 BKN024 16/13 Q0997 WS R20","updated":"2026-02-05T12:59:27Z"}
