{"icao":"LPBJ","metar":"LPBJ 111400Z 31015KT CAVOK 20/12 Q1012","updated":"2026-04-11T14:35:59Z"}
