{"icao":"LPMA","metar":"LPMA 011600Z 01011KT 350V050 9999 BKN015 24/15 Q1021","updated":"2025-10-01T16:22:08Z"}
