{"icao":"LPFL","metar":"LPFL 181800Z 16007KT 110V190 9999 VCSH FEW010 SCT016 FEW018TCU 24/22 Q1013","updated":"2025-10-19T05:17:25Z"}
