{"icao":"LPAZ","metar":"LPAZ 201400Z 05014KT 010V080 9999 FEW034 23/13 Q1027","updated":"2025-09-20T14:14:19Z"}
