{"icao":"LPPT","metar":"LPPT 161900Z 28007KT 250V310 9999 FEW018 FEW023CB 15/12 Q1011","updated":"2025-11-16T19:13:53Z"}
