{"icao":"LPPR","metar":"LPPR 012200Z 11012KT 070V130 9999 SCT042 12/07 Q1007","updated":"2026-01-01T22:18:45Z"}
