{"icao":"KORD","metar":"KORD 150151Z 22004KT 10SM OVC210 06/M01 A2996 RMK AO2 SLP150 T00561006 $","updated":"2026-02-15T02:07:48Z"}
