{"icao":"LPST","metar":"LPST 231500Z 29009KT 260V330 9999 FEW025 17/11 Q1014","updated":"2026-04-23T15:51:18Z"}
