{"icao":"LPAZ","metar":"LPAZ 081230Z 23016KT 1800 BR BKN002 17/17 Q1017","updated":"2026-02-08T12:47:24Z"}
