{"icao":"LPPT","metar":"LPPT 071700Z 32007KT 290V350 9999 VCSH SCT012 SCT020 18/16 Q1015","updated":"2025-11-07T17:16:18Z"}
