{"icao":"LPFL","metar":"LPFL 091500Z 19014G29KT 150V230 5000 -DZ FEW008 BKN010 19/16 Q1017","updated":"2026-01-09T15:22:37Z"}
