{"icao":"LPMA","metar":"LPMA 300800Z 01009KT 330V050 9999 SCT016 22/13 Q1021","updated":"2025-09-30T08:25:23Z"}
