{"icao":"LPAZ","metar":"LPAZ 012000Z 34023KT 9999 FEW023 BKN036 13/07 Q1025","updated":"2026-03-01T20:25:56Z"}
