{"icao":"LPPS","metar":"LPPS 191800Z 30009KT 9999 SCT004 SCT030 23/22 Q1018","updated":"2025-10-19T18:22:43Z"}
