{"icao":"LPPD","metar":"LPPD 131630Z 36013KT 330V030 9999 FEW020 16/12 Q1030","updated":"2026-03-13T16:38:33Z"}
