{"icao":"LPMR","metar":"LPMR 071300Z 34010KT 9999 FEW018 13/07 Q1026","updated":"2026-01-07T13:38:35Z"}
