{"icao":"LPOV","metar":"LPOV 091800Z 35009KT 9999 FEW020 19/14 Q1019","updated":"2025-10-09T18:25:33Z"}
