{"icao":"LPMA","metar":"LPMA 060800Z 32006KT 270V360 9999 FEW016 SCT033 19/12 Q1020","updated":"2025-11-06T08:25:36Z"}
