{"icao":"LPMR","metar":"LPMR 051500Z 32011KT CAVOK 20/09 Q1018","updated":"2026-06-05T15:51:50Z"}
