{"icao":"LPPR","metar":"LPPR 191700Z 20003KT 170V230 CAVOK 23/15 Q1018","updated":"2025-09-19T17:14:51Z"}
