{"icao":"LPPT","metar":"LPPT 252300Z 34014KT CAVOK 11/08 Q1025","updated":"2025-11-25T23:16:57Z"}
