{"icao":"LPFR","metar":"LPFR 271630Z VRB06KT CAVOK 20/05 Q1020","updated":"2026-02-27T16:39:01Z"}
