{"icao":"LPLA","metar":"LPLA 010900Z 32020KT 9000 FEW015 BKN025 BKN035 16/11 Q1026","updated":"2025-12-01T09:26:53Z"}
