{"icao":"LPPT","metar":"LPPT 022230Z 25004KT 220V280 9999 FEW012 SCT015 15/13 Q1016","updated":"2026-05-02T22:39:25Z"}
