{"icao":"LPOV","metar":"LPOV 131200Z 31019KT 280V340 8000 -SHRA SCT020 FEW024CB 14/09 Q1004","updated":"2026-02-13T12:56:59Z"}
