{"icao":"LPAR","metar":"LPAR 021500Z 29016G26KT 230V320 9999 SCT020 FEW022CB 13/07 Q0999","updated":"2026-02-02T15:36:50Z"}
