{"icao":"LPPD","metar":"LPPD 281400Z 04009KT 360V070 9999 FEW018 BKN030 15/10 Q1033","updated":"2026-03-28T14:30:49Z"}
