{"icao":"LPPT","metar":"LPPT 080830Z 11009KT 090V160 9999 SCT008 10/09 Q1016","updated":"2026-04-08T08:59:28Z"}
