{"icao":"KJFK","metar":"KJFK 031451Z 23008KT 10SM FEW045 BKN250 18/08 A3039 RMK AO2 SLP292 T01780078 58007","updated":"2025-10-03T15:17:06Z"}
