{"icao":"KLAX","metar":"KLAX 041353Z 03005KT 4SM BR FEW007 OVC010 16/14 A3009 RMK AO2 SLP188 VIS SE AND NW-N 2 1/2 T01610139 $","updated":"2025-11-04T14:19:20Z"}
