{"icao":"KJFK","metar":"KJFK 110651Z 18008KT 10SM BKN030 BKN042 16/11 A3027 RMK AO2 SLP251 T01610106","updated":"2025-10-11T07:15:17Z"}
