{"icao":"LPFR","metar":"LPFR 061030Z 09009KT CAVOK 19/11 Q1019","updated":"2026-04-06T10:54:54Z"}
