{"icao":"LPPS","metar":"LPPS 091100Z 02010KT 9999 FEW015 BKN030 22/11 Q1023","updated":"2025-11-09T11:13:36Z"}
