{"icao":"LPPD","metar":"LPPD 142000Z 34014KT 310V010 9999 FEW016 16/12 Q1022","updated":"2025-12-14T20:20:11Z"}
