{"icao":"LPPD","metar":"LPPD 261700Z 04015KT 010V070 3000 -SHRA SCT016 FEW020TCU BKN030 17/14 Q1019","updated":"2025-10-26T17:14:04Z"}
