{"icao":"LPLA","metar":"LPLA 271200Z 24016KT 210V290 9999 FEW016 SCT035 15/10 Q1006","updated":"2026-01-27T12:48:09Z"}
