{"icao":"LPPS","metar":"LPPS 030530Z 13003KT 100V160 9999 FEW015 17/14 Q1017","updated":"2026-05-03T05:58:16Z"}
