{"icao":"LPPT","metar":"LPPT 170700Z 33011KT CAVOK 11/09 Q1021","updated":"2025-12-17T07:21:24Z"}
