{"icao":"LPLA","metar":"LPLA 150300Z 26003KT 240V310 9999 FEW017 BKN025 BKN038 13/11 Q1032","updated":"2026-05-15T03:46:51Z"}
