{"icao":"LPAZ","metar":"LPAZ 241300Z 19014KT 9999 FEW009 19/15 Q1016","updated":"2026-04-24T13:22:58Z"}
