{"icao":"KJFK","metar":"KJFK 101126Z 23006KT 10SM BKN010 BKN250 06/04 A3040 RMK AO2 T00610039","updated":"2026-04-10T11:47:44Z"}
