{"icao":"LPLA","metar":"LPLA 242100Z 36007KT 330V030 9999 SCT016 20/17 Q1018","updated":"2025-10-24T21:15:33Z"}
