{"icao":"KJFK","metar":"KJFK 101251Z 18008KT 10SM FEW042 SCT090 OVC250 20/16 A2998 RMK AO2 SLP151 T02000161 $","updated":"2026-06-10T13:34:12Z"}
