{"icao":"KORD","metar":"KORD 262251Z 22005KT 10SM SCT060 BKN250 05/M07 A2985 RMK AO2 SLP116 T00501067","updated":"2026-02-26T23:28:43Z"}
