{"icao":"LPFL","metar":"LPFL 071400Z 17018G28KT 140V200 9999 FEW018 17/14 Q1027","updated":"2026-01-07T14:22:51Z"}
