{"icao":"LPPT","metar":"LPPT 041600Z 19006KT 150V220 CAVOK 21/16 Q1014","updated":"2025-11-04T16:22:05Z"}
