{"icao":"LPFR","metar":"LPFR 291100Z 02004KT 330V140 9999 FEW003 BKN040 19/18 Q1006","updated":"2025-10-29T11:16:02Z"}
