{"icao":"LPPT","metar":"LPPT 251130Z 08007G18KT 040V110 CAVOK 19/10 Q1020","updated":"2026-03-25T11:40:14Z"}
