{"icao":"LPBJ","metar":"LPBJ 141800Z 26003KT CAVOK 27/09 Q1016","updated":"2025-10-14T18:26:18Z"}
