{"icao":"LPMR","metar":"LPMR 231100Z 34005KT 7000 FEW008 14/13 Q1014","updated":"2026-03-23T11:41:53Z"}
