{"icao":"KORD","metar":"KORD 230112Z 19006KT 10SM OVC024 06/M04 A3002 RMK AO2 T00611044","updated":"2025-12-23T01:38:47Z"}
