{"icao":"LPPT","metar":"LPPT 011700Z 09008KT 070V150 9000 BKN006 13/13 Q1007","updated":"2026-01-01T17:18:10Z"}
