{"icao":"LPPT","metar":"LPPT 181330Z 21005KT 100V270 CAVOK 25/11 Q1016","updated":"2026-04-18T14:03:24Z"}
