{"icao":"LPOV","metar":"LPOV 021300Z 18012KT 150V210 9999 BKN022 SCT032 20/14 Q1016","updated":"2026-05-02T13:08:04Z"}
