{"icao":"KJFK","metar":"KJFK 241551Z 31028G41KT 10SM FEW050 FEW250 07/M05 A3008 RMK AO2 PK WND 31041/1550 SLP186 T00721050 $","updated":"2025-12-24T16:24:19Z"}
