{"icao":"LPLA","metar":"LPLA 292000Z 31006KT 9999 FEW025 SCT035 14/09 Q1005","updated":"2026-04-29T21:03:06Z"}
