{"icao":"LPPT","metar":"LPPT 061230Z 23008KT 200V270 9999 SCT010 BKN044 17/15 Q1024","updated":"2025-12-06T12:35:47Z"}
