{"icao":"LPPS","metar":"LPPS 021430Z 27009KT 230V310 9999 FEW015 20/14 Q1020","updated":"2026-05-02T14:44:56Z"}
