{"icao":"LPPT","metar":"LPPT 312100Z 20009KT 5000 -DZRA BR SCT006 SCT010 BKN014 13/12 Q1019","updated":"2026-01-31T21:19:52Z"}
