{"icao":"KJFK","metar":"KJFK 200451Z 31012KT 10SM FEW250 22/09 A2975 RMK AO2 SLP075 T02170094 402890217 $","updated":"2026-06-20T05:12:29Z"}
