{"icao":"KJFK","metar":"KJFK 182204Z 13010KT 10SM OVC009 12/09 A3001 RMK T01220089 ","updated":"2026-04-18T22:33:46Z"}
