{"icao":"LPPD","metar":"LPPD 032230Z 05010KT 030V090 9999 FEW020 15/10 Q1023","updated":"2026-05-03T22:39:22Z"}
