{"icao":"LPFR","metar":"LPFR 050400Z 02005KT CAVOK 19/15 Q1018","updated":"2025-10-05T04:19:11Z"}
