{"icao":"LPPD","metar":"LPPD 032000Z 24020KT 6000 -SHRA FEW005 BKN010 17/16 Q1003","updated":"2026-02-03T20:34:28Z"}
