{"icao":"LPST","metar":"LPST 231700Z 18009KT CAVOK 18/05 Q1022","updated":"2026-02-23T20:42:35Z"}
