{"icao":"LPMR","metar":"LPMR 201100Z 24005KT 9999 FEW015 BKN030 20/14 Q1015","updated":"2025-10-20T11:15:41Z"}
