{"icao":"KLAX","metar":"KLAX 110453Z 22003KT 10SM SCT130 19/14 A2981 RMK AO2 SLP093 T01940144 $","updated":"2025-10-11T05:16:03Z"}
