{"icao":"KJFK","metar":"KJFK 071751Z 18013KT 10SM SCT045 SCT170 BKN250 23/19 A3012 RMK AO2 SLP199 T02330189 10250 20194 58022","updated":"2025-10-07T18:26:37Z"}
