{"icao":"LPLA","metar":"LPLA 282100Z 17008KT 140V200 7000 3400SW -RA FEW007 SCT018 BKN040 16/14 Q1010","updated":"2026-04-28T21:56:58Z"}
