{"icao":"LPFR","metar":"LPFR 050500Z 16010KT 9999 FEW015 21/19 Q1012","updated":"2025-11-05T05:18:48Z"}
