{"icao":"KLAX","metar":"KLAX 162053Z 25011KT 10SM FEW010 FEW037 SCT100 BKN160 20/11 A2992 RMK AO2 SLP131 T02000106 58013","updated":"2026-04-16T21:41:51Z"}
