{"icao":"LPLA","metar":"LPLA 271700Z 26027G44KT 8000 -RA FEW010 BKN020 BKN030 17/14 Q1001","updated":"2026-01-27T17:26:32Z"}
