{"icao":"LPAZ","metar":"LPAZ 041430Z 01009KT 330V050 9999 SCT011 22/17 Q1028","updated":"2026-06-04T14:56:57Z"}
