{"icao":"LPOV","metar":"LPOV 251700Z 35008KT CAVOK 21/07 Q1018","updated":"2025-09-25T17:15:09Z"}
