{"icao":"LPOV","metar":"LPOV 041900Z 19013KT 9999 FEW005 BKN008 BKN012 14/13 Q0994","updated":"2026-02-04T19:37:18Z"}
