{"icao":"LPCS","metar":"LPCS 111430Z 36024G35KT 9999 SCT023 15/08 Q1015 WS R35","updated":"2026-04-11T14:35:57Z"}
