{"icao":"KJFK","metar":"KJFK 111351Z 27009KT 10SM FEW011 FEW070 BKN095 BKN170 07/04 A2983 RMK AO2 SLP099 T00670044","updated":"2026-01-11T14:18:16Z"}
