{"icao":"LPOV","metar":"LPOV 290600Z VRB02KT CAVOK 04/04 Q1018","updated":"2025-12-29T06:33:19Z"}
