{"icao":"LPST","metar":"LPST 241500Z 25007KT 230V290 4000 -DZ BR BKN012 BKN018 21/19 Q1017","updated":"2025-10-24T15:19:05Z"}
