{"icao":"LPMR","metar":"LPMR 162300Z 25004KT 8000 FEW025 07/06 Q1014","updated":"2026-01-16T23:18:49Z"}
