{"icao":"LPPS","metar":"LPPS 131600Z 33016KT 9999 FEW015 BKN030 22/15 Q1021","updated":"2026-06-13T16:22:06Z"}
