{"icao":"LPPD","metar":"LPPD 231600Z 36015KT 9999 FEW018 22/16 Q1022","updated":"2025-09-23T16:21:48Z"}
