{"icao":"LPOV","metar":"LPOV 201500Z 33011KT 9999 FEW018 BKN030 19/14 Q1021","updated":"2025-09-20T15:14:55Z"}
