{"icao":"KORD","metar":"KORD 141951Z 31013G22KT 10SM SCT039 OVC050 19/09 A2989 RMK AO2 PK WND 32026/1910 SLP118 T01890094 $","updated":"2026-06-14T20:16:24Z"}
