{"icao":"LPMR","metar":"LPMR 131700Z 02007KT CAVOK 16/11 Q1021","updated":"2025-12-13T17:16:11Z"}
