{"icao":"LPAR","metar":"LPAR 090900Z 29002KT 6000 -DZ BKN007 SCT014 12/10 Q1023","updated":"2026-03-09T09:50:32Z"}
