{"icao":"KORD","metar":"KORD 102051Z 31010KT 10SM BKN170 BKN250 08/M01 A2989 RMK AO2 SLP125 T00781011 53006","updated":"2026-02-10T21:40:32Z"}
