{"icao":"LPAR","metar":"LPAR 141000Z 18005KT 150V220 9999 FEW018 BKN025 17/13 Q1024","updated":"2026-04-14T11:01:15Z"}
