{"icao":"LPHR","metar":"LPHR 161300Z 11008KT 9999 FEW006 SCT011 BKN020 17/16 Q1023","updated":"2025-11-16T13:22:58Z"}
