{"icao":"KORD","metar":"KORD 120151Z 09006KT 10SM SCT055 BKN070 OVC090 09/01 A3020 RMK AO2 SLP230 T00890006 $","updated":"2026-04-12T02:30:16Z"}
