{"icao":"KORD","metar":"KORD 201351Z 23011KT 10SM FEW160 OVC250 12/06 A2976 RMK AO2 SLP080 T01220056","updated":"2026-03-20T14:02:36Z"}
