{"icao":"LPPR","metar":"LPPR 311330Z 24006KT 200V270 9999 VCSH FEW020 BKN040 13/09 Q1018","updated":"2026-01-31T13:39:43Z"}
