{"icao":"KJFK","metar":"KJFK 230451Z 17005KT 2SM BR BKN005 OVC009 21/21 A2988 RMK RAB10E44 TSE01 SLP118 P0003 T02110206 402330178 $ ","updated":"2026-06-23T04:59:11Z"}
