{"icao":"LPPR","metar":"LPPR 270230Z 13002KT CAVOK 14/13 Q1015","updated":"2026-04-27T02:39:49Z"}
