{"icao":"LPBJ","metar":"LPBJ 100400Z 30009KT 4500 BCFG FEW003 SCT025 06/06 Q1019","updated":"2026-03-10T04:09:04Z"}
