{"icao":"KORD","metar":"KORD 090751Z 21010KT 10SM FEW250 12/09 A2964 RMK AO2 SLP036 T01170094","updated":"2026-05-09T07:54:10Z"}
