{"icao":"LPPT","metar":"LPPT 161700Z 30007KT CAVOK 24/09 Q1013","updated":"2025-10-16T17:15:43Z"}
