{"icao":"LPFL","metar":"LPFL 011400Z 19004KT 110V250 9999 FEW045 18/07 Q1022","updated":"2025-11-01T14:14:31Z"}
