{"icao":"KORD","metar":"KORD 211851Z 25018G29KT 10SM BKN065 OVC100 11/01 A2969 RMK AO2 PK WND 25032/1802 RAB11E21 SLP056 P0000 T01110011","updated":"2025-10-21T19:15:20Z"}
