{"icao":"LPPT","metar":"LPPT 061900Z 27007KT CAVOK 22/17 Q1020","updated":"2025-10-06T19:13:37Z"}
