{"icao":"LPPT","metar":"LPPT 201200Z 33009KT 300V360 9999 -SHRA FEW030 FEW038TCU 24/16 Q1020","updated":"2025-09-20T12:32:29Z"}
