{"icao":"LPMT","metar":"LPMT 021800Z 24004KT 160V270 7000 -SHRA FEW020TCU BKN022 13/12 Q1007 RESHRA","updated":"2026-03-02T18:44:49Z"}
