{"icao":"LPAR","metar":"LPAR 241400Z 22007KT 170V320 9999 SCT028 24/13 Q1017","updated":"2026-04-24T15:06:37Z"}
