{"icao":"LPPS","metar":"LPPS 121300Z 26007KT 230V300 9999 FEW014 BKN030 17/11 Q1025","updated":"2026-02-12T13:04:52Z"}
