{"icao":"LPOV","metar":"LPOV 192200Z 13002KT CAVOK 06/06 Q1030","updated":"2026-02-19T22:30:06Z"}
