{"icao":"KJFK","metar":"KJFK 170051Z 25012KT 10SM BKN250 M01/M09 A3019 RMK AO2 SLP223 T10111094 $","updated":"2025-12-17T01:24:39Z"}
