{"icao":"LPAR","metar":"LPAR 241100Z 17005KT 130V210 9999 SCT025 21/13 Q1018","updated":"2026-04-24T11:55:29Z"}
