{"icao":"LPAZ","metar":"LPAZ 230400Z 09006KT CAVOK 13/12 Q1029","updated":"2025-11-23T04:31:42Z"}
