{"icao":"LPFL","metar":"LPFL 172000Z 27003KT 240V320 9999 FEW022 SCT049 21/15 Q1014","updated":"2025-09-17T22:14:53Z"}
