{"icao":"LPMA","metar":"LPMA 030930Z 28004KT 250V310 9999 FEW015 16/08 Q1016","updated":"2026-02-03T09:39:27Z"}
