{"icao":"LPMR","metar":"LPMR 201400Z 25010KT 220V280 9999 SCT025 21/15 Q1014","updated":"2025-10-20T14:17:41Z"}
