{"icao":"LPPT","metar":"LPPT 221000Z 25010KT 220V280 9999 FEW012 SCT015 23/19 Q1019","updated":"2025-10-22T10:20:03Z"}
