{"icao":"LPLA","metar":"LPLA 260400Z VRB01KT 3000 BR BKN002 BKN005 14/14 Q1025","updated":"2025-12-26T04:33:32Z"}
