{"icao":"LPLA","metar":"LPLA 141800Z 24011KT 210V270 9000 -RA SCT015 BKN022 BKN028 17/15 Q1020","updated":"2026-01-14T18:31:53Z"}
