{"icao":"LPPT","metar":"LPPT 280700Z 29014G24KT 6000 VCSH FEW007 BKN010 18/16 Q1013","updated":"2025-09-28T07:14:19Z"}
