{"icao":"LPBJ","metar":"LPBJ 041500Z 27009KT 3000 -DZRA BR FEW007 OVC012 14/14 Q0999","updated":"2026-02-04T15:41:01Z"}
