{"icao":"LPMT","metar":"LPMT 212200Z 10002KT CAVOK 18/12 Q1019","updated":"2026-05-21T23:02:06Z"}
