{"icao":"LPMT","metar":"LPMT 231200Z 01004KT 330V050 CAVOK 16/12 Q1024","updated":"2026-02-23T13:01:31Z"}
