{"icao":"LPPR","metar":"LPPR 012100Z 00000KT 8000 FEW022 SCT030 14/13 Q1021","updated":"2025-11-01T21:13:50Z"}
