{"icao":"LPOV","metar":"LPOV 271200Z 25014KT 230V290 9999 FEW022 SCT040 12/06 Q0999","updated":"2026-01-27T12:48:07Z"}
