{"icao":"KJFK","metar":"KJFK 140851Z 23006KT 10SM FEW065 SCT100 BKN250 18/16 A3002 RMK AO2 SLP164 T01830161 56010 $","updated":"2025-09-14T09:15:49Z"}
