{"icao":"KJFK","metar":"KJFK 241451Z 05008KT 10SM FEW100 SCT170 BKN250 16/02 A2984 RMK SLP104 T01610017 50005 $ ","updated":"2026-04-24T15:06:39Z"}
