{"icao":"LPFR","metar":"LPFR 040930Z 03004KT 330V100 9999 FEW010 SCT027 14/11 Q1012","updated":"2026-03-04T09:38:57Z"}
