{"icao":"LPAZ","metar":"LPAZ 221700Z 15014KT 9999 FEW007 SCT049 23/22 Q1014","updated":"2025-10-22T17:17:03Z"}
