{"icao":"LPMT","metar":"LPMT 232000Z 22006KT CAVOK 14/11 Q1022","updated":"2026-02-23T20:42:37Z"}
