{"icao":"KJFK","metar":"KJFK 121651Z 03006KT 10SM FEW065 16/M02 A3016 RMK AO2 SLP212 T01611022","updated":"2026-05-12T17:09:11Z"}
