{"icao":"LPFL","metar":"LPFL 291230Z 20014G25KT 170V250 9999 -SHRA SCT011 BKN015 20/16 Q1013","updated":"2025-10-29T12:39:31Z"}
