{"icao":"KORD","metar":"KORD 041151Z 34007KT 10SM FEW250 M13/M19 A3035 RMK AO2 SLP289 4/005 70003 T11331189 11083 21133 53014","updated":"2025-12-04T12:42:21Z"}
