{"icao":"KORD","metar":"KORD 141851Z 21007KT 10SM FEW250 18/07 A2990 RMK AO2 SLP125 T01780067 $","updated":"2025-11-14T19:14:37Z"}
