{"icao":"KORD","metar":"KORD 040151Z 03007KT 7SM OVC011 02/M01 A3015 RMK AO2 SLP217 T00221011","updated":"2026-03-04T01:57:20Z"}
