{"icao":"LPPD","metar":"LPPD 281830Z 20015KT 9999 FEW016 18/15 Q1020","updated":"2026-05-28T18:34:50Z"}
