{"icao":"LPBJ","metar":"LPBJ 192100Z 29007KT CAVOK 18/11 Q1016","updated":"2026-04-19T21:34:32Z"}
