{"icao":"KJFK","metar":"KJFK 232151Z 01011KT 10SM -RA FEW020 FEW065 BKN100 OVC130 21/16 A2985 RMK RAB45 SLP108 P0000 T02060161 ","updated":"2026-06-23T22:11:24Z"}
