{"icao":"LPMT","metar":"LPMT 081700Z 22005KT 180V250 9999 FEW015 BKN030 13/12 Q1030","updated":"2026-01-08T17:25:27Z"}
