{"icao":"LPOV","metar":"LPOV 131800Z 32012KT 310V010 9999 FEW020 17/12 Q1018","updated":"2026-05-13T20:44:06Z"}
