{"icao":"LPPR","metar":"LPPR 150700Z 27008G31KT 220V310 6000 TSRA FEW007 BKN016 SCT025CB 11/10 Q1003 RERA","updated":"2025-11-15T07:15:31Z"}
