{"icao":"LPMA","metar":"LPMA 151400Z 35014KT 330V030 9999 SCT013 BKN023 19/13 Q1020","updated":"2026-03-15T14:28:46Z"}
