{"icao":"LPCS","metar":"LPCS 271000Z 08008KT 050V110 CAVOK 06/03 Q1010","updated":"2025-12-27T10:18:45Z"}
