{"icao":"LPMA","metar":"LPMA 171100Z 04005KT 360V060 9999 BKN013 FEW015CB 23/20 Q1012","updated":"2025-10-17T11:14:49Z"}
