{"icao":"LPMA","metar":"LPMA 121000Z 05005KT 020V080 9999 SCT015 21/16 Q1019","updated":"2025-10-12T10:16:38Z"}
