{"icao":"LPAR","metar":"LPAR 171600Z 01007KT 340V050 CAVOK 27/13 Q1016","updated":"2026-04-19T05:27:46Z"}
