{"icao":"LPMT","metar":"LPMT 091700Z 25011KT 4000 -RADZ BR BKN006 BKN016 15/15 Q1013","updated":"2026-02-09T17:52:47Z"}
