{"icao":"KORD","metar":"KORD 192251Z 26013G23KT 10SM FEW060 BKN180 BKN250 24/09 A2996 RMK AO2 SLP143 T02390089 $","updated":"2026-06-19T23:03:43Z"}
