{"icao":"LPMA","metar":"LPMA 171430Z 04015KT 360V060 9999 SCT016 20/11 Q1024","updated":"2026-05-17T14:54:52Z"}
