{"icao":"LPOV","metar":"LPOV 042000Z 15016KT 120V180 9999 FEW040 22/12 Q1009","updated":"2025-11-04T20:20:52Z"}
