{"icao":"LPPD","metar":"LPPD 270330Z 28030KT 9999 FEW020 FEW025CB SCT040 13/07 Q1009","updated":"2026-01-27T03:46:44Z"}
