{"icao":"LPMR","metar":"LPMR 291500Z 21006KT 9999 BKN035 16/09 Q1015","updated":"2025-11-29T15:16:57Z"}
