{"icao":"LPMA","metar":"LPMA 131400Z 08005KT 360V130 9999 SCT015 21/11 Q1003","updated":"2025-11-13T14:19:11Z"}
