{"icao":"LPPD","metar":"LPPD 150500Z 34012G22KT 300V020 9999 FEW018 14/10 Q1023","updated":"2026-01-15T05:24:47Z"}
