{"icao":"KORD","metar":"KORD 080151Z 20003KT 10SM FEW070 13/02 A2982 RMK AO2 SLP099 T01280022","updated":"2026-05-08T02:49:01Z"}
