{"icao":"LPST","metar":"LPST 290900Z 25019KT 7000 BKN004 BKN014 15/15 Q1009","updated":"2026-01-29T09:40:45Z"}
