{"icao":"LPPS","metar":"LPPS 101300Z 12007KT 070V170 9999 FEW015 SCT030 17/12 Q1031","updated":"2026-01-10T13:28:23Z"}
