{"icao":"LPMA","metar":"LPMA 051400Z 35011KT 320V020 9999 SCT016 24/13 Q1018","updated":"2025-11-05T14:19:05Z"}
