{"icao":"LPMT","metar":"LPMT 071800Z 32008KT CAVOK 20/15 Q1021","updated":"2025-10-07T18:26:05Z"}
