{"icao":"LPPR","metar":"LPPR 080600Z 13009KT 8000 -DZRA BKN005 BKN011 08/07 Q1030","updated":"2026-01-08T06:33:07Z"}
