{"icao":"LPOV","metar":"LPOV 212000Z 34017KT CAVOK 15/12 Q1022","updated":"2025-09-21T21:14:27Z"}
