{"icao":"LPOV","metar":"LPOV 140900Z 17004KT 7000 BKN006 BKN012 14/14 Q1023","updated":"2026-04-14T09:16:13Z"}
