{"icao":"LPPT","metar":"LPPT 242030Z 23008KT 210V270 9999 FEW014 21/17 Q1014","updated":"2026-06-24T20:47:05Z"}
