{"icao":"LPHR","metar":"LPHR 031100Z VRB04KT 9000 VCSH FEW007 SCT012 15/13 Q1013","updated":"2026-01-03T11:16:03Z"}
