{"icao":"LPMT","metar":"LPMT 210600Z 20011KT 170V230 5000 -RA BR FEW007 SCT009 BKN020 14/14 Q1009","updated":"2026-01-21T06:34:46Z"}
