{"icao":"KJFK","metar":"KJFK 101033Z 19003KT 9SM R04R/1800V3000FT MIFG FEW002 FEW250 05/04 A3003 RMK AO2 MIFG E-SE T00500044 $","updated":"2026-03-10T10:38:11Z"}
