{"icao":"LPLA","metar":"LPLA 152300Z 00000KT 9999 FEW030 12/09 Q1021","updated":"2025-11-15T23:16:02Z"}
