{"icao":"LPPR","metar":"LPPR 151100Z 17022KT 5000 -RA BR FEW008 BKN011 OVC017 11/09 Q1014","updated":"2026-01-15T11:19:18Z"}
