{"icao":"KJFK","metar":"KJFK 152051Z 04013KT 10SM FEW043 SCT055 SCT160 SCT250 19/11 A2989 RMK AO2 SLP121 T01890106 55006","updated":"2025-10-15T21:15:46Z"}
