{"icao":"LPMT","metar":"LPMT 041200Z 35005KT 320V030 CAVOK 22/13 Q1022","updated":"2026-04-04T12:53:17Z"}
