{"icao":"LPOV","metar":"LPOV 011600Z 34018KT CAVOK 18/08 Q1023","updated":"2026-04-01T16:53:19Z"}
