{"icao":"KORD","metar":"KORD 061351Z 00000KT 6SM BR BKN055 OVC075 04/02 A2955 RMK AO2 SLP011 T00390017","updated":"2026-01-06T14:21:39Z"}
