{"icao":"KJFK","metar":"KJFK 301151Z 28020G27KT 10SM FEW042 BKN055 M01/M12 A2965 RMK AO2 PK WND 30032/1127 SLP040 70005 T10061117 10000 21006 53027 $","updated":"2025-12-30T12:41:45Z"}
