{"icao":"LPPS","metar":"LPPS 230700Z 05006KT 020V080 9999 SCT014 BKN030 22/18 Q1021","updated":"2025-10-23T07:18:30Z"}
