{"icao":"LPPR","metar":"LPPR 291400Z 23006KT 9999 FEW027 14/08 Q1019","updated":"2025-12-29T14:20:32Z"}
