{"icao":"KORD","metar":"KORD 161451Z 33014G20KT 10SM CLR 04/M09 A2995 RMK AO2 SLP143 T00441094 53025 $","updated":"2025-11-16T15:17:01Z"}
