{"icao":"KJFK","metar":"KJFK 190651Z 05006KT 5SM BR OVC021 02/02 A2993 RMK AO2 DZE49 SLP133 P0000 T00220017 $","updated":"2026-02-19T07:07:37Z"}
