{"icao":"LPPR","metar":"LPPR 270500Z 06004KT CAVOK 08/04 Q1019","updated":"2026-03-27T05:05:26Z"}
