{"icao":"LPBJ","metar":"LPBJ 072200Z 20005KT 9999 4000N BCFG FEW003 06/05 Q1030","updated":"2026-01-07T22:19:52Z"}
