{"icao":"LPHR","metar":"LPHR 201200Z 24017KT 9999 FEW018 17/13 Q1010","updated":"2026-05-20T12:22:37Z"}
