{"icao":"LPOV","metar":"LPOV 151300Z 29005KT 250V320 9999 FEW030 23/14 Q1016","updated":"2025-10-15T13:30:45Z"}
