{"icao":"KLAX","metar":"KLAX 052053Z 33015G27KT 10SM FEW060 23/00 A2992 RMK AO2 PK WND 32030/2030 SLP131 T02280000 58012","updated":"2026-03-05T21:33:23Z"}
