{"icao":"KORD","metar":"KORD 212251Z 25015G25KT 10SM -RA FEW027 BKN034 OVC047 08/04 A2971 RMK AO2 SLP063 P0000 T00830044","updated":"2025-10-21T23:17:17Z"}
