{"icao":"KLAX","metar":"KLAX 250953Z 32004KT 10SM FEW015 16/11 A2997 RMK AO2 SLP146 T01560111 $","updated":"2026-05-25T10:02:20Z"}
