{"icao":"LPPT","metar":"LPPT 011200Z 31006KT 230V020 CAVOK 30/16 Q1019 NOSIG","updated":"2026-07-01T12:05:35Z"}
