{"icao":"LPHR","metar":"LPHR 061300Z 32013KT 280V010 9999 VCSH SCT020 12/06 Q1021 RESHRA","updated":"2026-04-06T13:07:13Z"}
