{"icao":"LPPI","metar":"LPPI 251530Z 34006KT 270V030 9999 VCSH FEW015 BKN040 19/13 Q1025","updated":"2026-06-25T15:38:33Z"}
