{"icao":"LPMT","metar":"LPMT 252200Z 20009KT 9999 FEW012 BKN020 21/19 Q1018","updated":"2026-06-25T22:19:50Z"}
