{"icao":"LPPS","metar":"LPPS 270100Z 04006KT 360V070 9999 SCT015 BKN030 18/11 Q1023","updated":"2025-11-27T01:23:28Z"}
