{"icao":"LPMT","metar":"LPMT 050900Z 36009KT 320V040 9999 FEW030 19/10 Q1018","updated":"2026-06-05T09:44:20Z"}
