{"icao":"LPLA","metar":"LPLA 041033Z 25017KT 7000 3000SW -RA FEW007 SCT018 BKN030 16/13 Q0994","updated":"2026-02-04T10:36:50Z"}
