{"icao":"LPPR","metar":"LPPR 050930Z VRB04KT CAVOK 18/09 Q1018","updated":"2026-06-05T09:44:19Z"}
