{"icao":"LPPR","metar":"LPPR 231530Z 32005KT 280V350 9999 FEW040 27/19 Q1012","updated":"2026-06-23T15:46:09Z"}
