{"icao":"LPST","metar":"LPST 191500Z 19010KT 150V220 CAVOK 28/17 Q1019","updated":"2025-09-19T16:20:26Z"}
