{"icao":"LPFL","metar":"LPFL 261900Z 31012G27KT 220V030 9999 FEW017 SCT020 FEW022CB 10/00 Q1006 RESHRA","updated":"2026-01-26T19:22:32Z"}
