{"icao":"LPPD","metar":"LPPD 041230Z 02011KT 350V060 9999 FEW020 FEW022TCU 15/11 Q1021","updated":"2026-01-04T12:38:13Z"}
