{"icao":"LPPT","metar":"LPPT 060900Z 07008KT 040V100 CAVOK 20/10 Q1020","updated":"2025-10-06T09:21:00Z"}
