{"icao":"LPFR","metar":"LPFR 280900Z 03005KT CAVOK 14/03 Q1023","updated":"2025-11-28T09:19:45Z"}
