{"icao":"KORD","metar":"KORD 282301Z 02022G27KT 10SM SCT021 BKN039 OVC100 M02/M08 A3022 RMK AO2 PK WND 02027/2252 T10221078 $","updated":"2026-02-28T23:20:47Z"}
