{"icao":"KORD","metar":"KORD 161051Z 09006KT 10SM BKN050 14/09 A3021 RMK AO2 SLP230 T01440094 $","updated":"2025-10-16T11:15:32Z"}
