{"icao":"LPCS","metar":"LPCS 281230Z 35012KT 320V020 9999 FEW025 15/09 Q1023","updated":"2025-11-28T12:38:29Z"}
