{"icao":"KLAX","metar":"KLAX 161453Z 09012KT 9SM -RA FEW029 BKN042 OVC055 14/09 A2980 RMK AO2 RAB50 SLP089 P0000 60000 T01390089 58016 $","updated":"2026-02-16T15:39:11Z"}
