{"icao":"KORD","metar":"KORD 230315Z 20005KT 10SM OVC025 06/M03 A3001 RMK AO2 T00611033","updated":"2025-12-23T03:25:31Z"}
