{"icao":"LPPS","metar":"LPPS 120600Z 01006KT 9999 FEW014 19/16 Q1017","updated":"2025-10-12T06:23:45Z"}
