{"icao":"KJFK","metar":"KJFK 231551Z 04011KT 6SM -DZ BR FEW008 BKN012 OVC018 06/04 A2984 RMK AO2 SLP105 BKN V SCT P0000 T00560039","updated":"2026-03-23T15:58:50Z"}
