{"icao":"KORD","metar":"KORD 101551Z 03016KT 9SM OVC006 04/03 A2990 RMK AO2 SLP126 T00440028","updated":"2026-03-10T15:58:29Z"}
