{"icao":"LPFR","metar":"LPFR 011530Z 25010KT CAVOK 29/18 Q1016","updated":"2026-07-01T15:39:43Z"}
