{"icao":"LPFR","metar":"LPFR 171100Z 28005KT 9999 FEW018 FEW025CB 12/07 Q1015","updated":"2026-01-17T11:15:58Z"}
