{"icao":"LPBJ","metar":"LPBJ 201100Z 14009KT CAVOK 25/06 Q1012","updated":"2026-04-20T12:02:47Z"}
