{"icao":"LPMT","metar":"LPMT 041900Z 35011KT 9999 FEW020 20/17 Q1022","updated":"2025-10-04T19:11:50Z"}
