{"icao":"LPPD","metar":"LPPD 032200Z 27010KT 9999 FEW018 18/14 Q1028","updated":"2025-12-03T22:19:16Z"}
