{"icao":"LPAZ","metar":"LPAZ 260530Z 30012KT 9999 FEW008 SCT014 14/13 Q1030","updated":"2026-02-26T05:56:21Z"}
