{"icao":"KORD","metar":"KORD 021751Z 33006KT 10SM FEW020 FEW250 M06/M14 A2996 RMK AO2 SLP154 T10611139 11061 21078 50002","updated":"2026-01-02T18:29:27Z"}
