{"icao":"KJFK","metar":"KJFK 051651Z 21011KT 10SM FEW200 BKN250 30/09 A2999 RMK AO2 SLP154 T03000094 $","updated":"2026-06-05T17:53:09Z"}
