{"icao":"LPOV","metar":"LPOV 301100Z 34013KT CAVOK 23/17 Q1022","updated":"2026-06-30T12:06:47Z"}
