{"icao":"LPMA","metar":"LPMA 051600Z 02012KT 9000 -RA SCT007 BKN013 16/15 Q1017","updated":"2026-05-05T16:23:27Z"}
