{"icao":"LPLA","metar":"LPLA 080200Z 23021G33KT 190V250 9999 FEW020 BKN025 20/15 Q1017","updated":"2025-11-08T03:00:54Z"}
