{"icao":"KORD","metar":"KORD 231651Z 31008G15KT 10SM SCT030 09/01 A3011 RMK AO2 SLP200 T00890006","updated":"2025-10-23T17:16:04Z"}
