{"icao":"LPFL","metar":"LPFL 190800Z 18020G34KT 160V220 9999 FEW010 SCT013 BKN038 17/14 Q1009","updated":"2026-05-19T08:33:56Z"}
