{"icao":"LPFL","metar":"LPFL 182000Z 32009KT 300V360 9999 FEW028 SCT049 19/12 Q1018","updated":"2025-09-19T02:58:55Z"}
