{"icao":"LPFL","metar":"LPFL 250700Z 29004KT 260V330 9999 FEW015 BKN022 14/11 Q1014","updated":"2026-04-25T07:13:42Z"}
