{"icao":"LPPR","metar":"LPPR 250600Z 04001KT CAVOK 06/05 Q1021","updated":"2025-11-25T06:29:51Z"}
