{"icao":"KJFK","metar":"KJFK 011051Z 29013G21KT 10SM SCT250 03/M05 A3025 RMK AO2 SLP241 T00281050 $","updated":"2025-12-01T11:17:33Z"}
