{"icao":"LPPT","metar":"LPPT 102100Z 33006KT 300V010 CAVOK 22/12 Q1020","updated":"2025-10-10T21:14:26Z"}
