{"icao":"LPMR","metar":"LPMR 240500Z 10001KT 7000 NSC 09/09 Q1018","updated":"2026-03-24T05:58:45Z"}
