{"icao":"LPFR","metar":"LPFR 081100Z 35010KT 320V020 9999 FEW025 20/11 Q1022","updated":"2025-11-08T11:13:16Z"}
