{"icao":"KJFK","metar":"KJFK 132151Z 04020G28KT 10SM BKN013 OVC028 14/13 A2992 RMK AO2 PK WND 03031/2055 RAE24 SLP130 P0000 T01440133","updated":"2025-10-13T22:16:38Z"}
