{"icao":"KLAX","metar":"KLAX 071253Z 27007KT 10SM OVC010 17/15 A2985 RMK AO2 SLP105 T01720150 $","updated":"2025-10-07T13:28:16Z"}
