{"icao":"KORD","metar":"KORD 220851Z 17007KT 10SM SCT080 OVC100 01/M07 A3037 RMK AO2 SLP290 T00061072 58007","updated":"2025-12-22T09:27:41Z"}
