{"icao":"KJFK","metar":"KJFK 201951Z 18028G37KT 10SM FEW045 BKN250 08/02 A2987 RMK AO2 PK WND 18037/1922 SLP113 T00830017","updated":"2026-03-20T20:31:19Z"}
