{"icao":"LPMR","metar":"LPMR 031400Z 32009KT CAVOK 22/09 Q1023","updated":"2026-04-03T15:37:35Z"}
