{"icao":"LPPR","metar":"LPPR 051030Z 26005KT 210V350 9999 FEW020 FEW025TCU SCT030 BKN043 16/11 Q1017","updated":"2026-05-05T10:44:44Z"}
