{"icao":"KORD","metar":"KORD 191651Z 29009G21KT 10SM FEW019 SCT025 BKN080 OVC200 11/08 A2969 RMK AO2 RAE14 SLP054 P0000 T01060078 $","updated":"2025-10-19T17:14:29Z"}
