{"icao":"LPFL","metar":"LPFL 051230Z 32014G26KT 230V350 9999 VCSH BKN025TCU 12/03 Q1007","updated":"2026-02-05T12:59:48Z"}
