{"icao":"LPBJ","metar":"LPBJ 161600Z 27011KT 9999 SCT025 FEW027CB 17/11 Q1012","updated":"2025-11-16T16:20:04Z"}
