{"icao":"LPPR","metar":"LPPR 170500Z 00000KT 4000 BR NSC 12/12 Q1014","updated":"2025-10-17T05:17:02Z"}
