{"icao":"LPBJ","metar":"LPBJ 130700Z 29007KT 0100 FG VV001 07/07 Q1023","updated":"2026-03-13T07:43:26Z"}
