{"icao":"LPLA","metar":"LPLA 071600Z 19007KT 160V230 6000 -RADZ SCT008 BKN015 16/14 Q1012","updated":"2026-02-07T16:29:13Z"}
