{"icao":"LPCS","metar":"LPCS 281700Z 12003KT 090V150 9999 VCSH FEW004 SCT012 FEW018CB 17/17 Q1010","updated":"2025-10-28T17:17:29Z"}
