{"icao":"LPBJ","metar":"LPBJ 242100Z 19003KT 130V250 CAVOK 19/04 Q1017","updated":"2025-09-24T21:15:04Z"}
