{"icao":"LPOV","metar":"LPOV 170900Z 18007KT 5000 BR SCT003 BKN020 14/14 Q1027","updated":"2026-02-17T09:46:52Z"}
