{"icao":"LPPD","metar":"LPPD 191100Z 36034G50KT 9999 FEW011 FEW018CB BKN025 14/12 Q0999","updated":"2026-03-19T11:34:19Z"}
