{"icao":"LPMA","metar":"LPMA 011300Z 04013KT 360V080 9999 FEW015 21/13 Q1023","updated":"2026-04-01T13:19:37Z"}
