{"icao":"LPST","metar":"LPST 131300Z 31020KT 9999 SCT018 FEW030CB 13/09 Q1008","updated":"2026-02-13T14:03:04Z"}
