{"icao":"LPPR","metar":"LPPR 130500Z 07003KT CAVOK 11/09 Q1021","updated":"2025-12-13T05:19:24Z"}
