{"icao":"LPBJ","metar":"LPBJ 211300Z 26015KT 9000 3000N -RA BKN020 BKN040 23/19 Q1016","updated":"2025-10-21T13:32:27Z"}
