{"icao":"LPHR","metar":"LPHR 091600Z 28013KT 250V310 9999 FEW025 20/14 Q1024","updated":"2025-11-09T16:20:01Z"}
