{"icao":"LPPD","metar":"LPPD 270400Z 01010KT 9999 FEW016 18/15 Q1021","updated":"2025-09-27T04:20:11Z"}
