{"icao":"LPAZ","metar":"LPAZ 051030Z 05009KT 010V080 9999 FEW027 17/08 Q1026","updated":"2026-05-05T10:44:49Z"}
