{"icao":"LPBJ","metar":"LPBJ 040500Z 04007KT CAVOK 11/08 Q1011","updated":"2026-03-04T05:42:27Z"}
