{"icao":"LPPT","metar":"LPPT 181900Z 25010KT CAVOK 22/15 Q1016","updated":"2025-10-18T19:12:46Z"}
