{"icao":"KLAX","metar":"KLAX 031953Z 27006KT 10SM FEW009 23/12 A3018 RMK AO2 SLP219 T02330122 $","updated":"2026-02-03T20:34:30Z"}
