{"icao":"LPOV","metar":"LPOV 190800Z 34011KT 9999 SCT022 11/05 Q1025","updated":"2026-02-19T08:41:31Z"}
