{"icao":"LPMT","metar":"LPMT 271600Z 02005KT CAVOK 16/06 Q1022","updated":"2025-11-27T16:23:21Z"}
