{"icao":"KJFK","metar":"KJFK 041651Z 30016G29KT 10SM FEW060 FEW250 15/M02 A3006 RMK AO2 PK WND 31033/1626 SLP179 T01501022 $","updated":"2025-11-04T17:13:39Z"}
