{"icao":"LPPD","metar":"LPPD 160430Z 33009KT 9999 FEW020 BKN040 14/07 Q1031","updated":"2026-01-16T04:38:58Z"}
