{"icao":"LPPD","metar":"LPPD 231300Z 36017KT 9999 FEW010 SCT035 22/17 Q1022","updated":"2025-09-23T13:27:03Z"}
