{"icao":"KJFK","metar":"KJFK 242051Z 29010KT 10SM SCT050 BKN080 BKN250 14/02 A3012 RMK AO2 SLP198 T01440017 53006","updated":"2025-10-24T21:15:48Z"}
