{"icao":"KORD","metar":"KORD 180951Z 00000KT 10SM FEW250 17/15 A3004 RMK AO2 SLP169 T01670150 $","updated":"2025-09-18T10:18:36Z"}
