{"icao":"LPMT","metar":"LPMT 102300Z 21009KT 180V240 9999 FEW012 BKN025 15/14 Q1011","updated":"2026-05-10T23:51:06Z"}
