{"icao":"LPMT","metar":"LPMT 112100Z 26008KT 230V290 9999 BKN005 BKN015 15/15 Q1019","updated":"2026-02-11T21:32:41Z"}
