{"icao":"LPAZ","metar":"LPAZ 180500Z 21009KT 9999 BKN014 23/20 Q1017","updated":"2025-09-18T05:16:06Z"}
