{"icao":"LPMT","metar":"LPMT 300800Z 21005KT 170V250 7000 SCT020 BKN045 13/12 Q1013","updated":"2026-01-30T08:37:16Z"}
