{"icao":"KLAX","metar":"KLAX 021853Z 09006KT 10SM SCT043 BKN050 OVC060 18/13 A3009 RMK AO2 SLP188 T01780133 $","updated":"2026-01-02T19:13:16Z"}
