{"icao":"LPPT","metar":"LPPT 101300Z 24016KT 5000 -DZ BR BKN004 16/16 Q1016 REDZ","updated":"2026-02-10T13:10:46Z"}
