{"icao":"LPFR","metar":"LPFR 261930Z 26014KT CAVOK 23/18 Q1017","updated":"2026-06-26T19:44:27Z"}
