{"icao":"LPMR","metar":"LPMR 290600Z 07001KT CAVOK 07/06 Q1028","updated":"2026-03-29T07:01:49Z"}
