{"icao":"LPHR","metar":"LPHR 301900Z 10007KT 040V150 9999 FEW016 BKN030 15/12 Q1009","updated":"2026-04-30T19:18:42Z"}
