{"icao":"KJFK","metar":"KJFK 181851Z 17011KT 10SM SCT160 SCT250 01/M13 A3042 RMK AO2 SLP300 T00111128","updated":"2026-03-18T19:48:21Z"}
