{"icao":"LPOV","metar":"LPOV 032300Z 06003KT 6000 2000S PRFG NSC 11/11 Q1015","updated":"2026-03-03T23:25:47Z"}
