{"icao":"LPHR","metar":"LPHR 311200Z 27008KT 0600 FG VV001 19/19 Q1025","updated":"2026-05-31T12:10:37Z"}
