{"icao":"KORD","metar":"KORD 190451Z 02009KT 10SM OVC009 06/04 A3010 RMK AO2 SLP198 T00560039","updated":"2025-11-19T05:19:06Z"}
