{"icao":"LPFL","metar":"LPFL 201900Z 32009KT 220V360 9999 SCT018 BKN030 14/07 Q1019","updated":"2026-04-20T19:08:28Z"}
