{"icao":"LPAR","metar":"LPAR 210800Z 25007KT 6000 2900N -RA FEW004 BKN013 21/21 Q1014","updated":"2025-10-21T08:25:36Z"}
