{"icao":"LPPR","metar":"LPPR 082000Z 11003KT CAVOK 12/11 Q1023","updated":"2025-11-08T20:17:26Z"}
