{"icao":"LPMT","metar":"LPMT 040800Z 02011KT 9999 FEW035 13/11 Q1000","updated":"2026-01-04T08:26:02Z"}
