{"icao":"KORD","metar":"KORD 142151Z 21020G27KT 10SM SCT039 BKN050 BKN150 BKN250 27/18 A2971 RMK AO2 PK WND 19027/2133 SLP057 T02670183","updated":"2026-04-14T22:50:31Z"}
