{"icao":"LPMT","metar":"LPMT 231600Z 33010KT 9999 FEW028 26/18 Q1020","updated":"2026-05-23T16:07:16Z"}
