{"icao":"LPPS","metar":"LPPS 131200Z 03008KT 340V090 9999 FEW015 BKN030 25/19 Q1024","updated":"2025-09-13T12:31:35Z"}
