{"icao":"KORD","metar":"KORD 231451Z 33010KT 10SM FEW022 SCT250 M24/M33 A3064 RMK AO2 PK WND 33026/1421 SLP395 T12391333 53038","updated":"2026-01-23T15:24:50Z"}
