{"icao":"LPAR","metar":"LPAR 071300Z 24014KT 9000 4000W -RA BR SCT015 BKN028 19/17 Q1015","updated":"2025-11-07T13:26:50Z"}
