{"icao":"KLAX","metar":"KLAX 010553Z 18003KT 10SM FEW012 SCT016 16/13 A2992 RMK AO2 SLP131 T01610133 10183 20156 51014","updated":"2026-05-01T06:15:38Z"}
