{"icao":"KORD","metar":"KORD 120351Z 11012KT 10SM BKN029 15/09 A3007 RMK AO2 SLP182 T01500089","updated":"2025-10-12T04:20:22Z"}
