{"icao":"LPMA","metar":"LPMA 102330Z 36004KT 340V060 9999 SCT013 18/15 Q1025","updated":"2026-02-10T23:36:53Z"}
