{"icao":"LPOV","metar":"LPOV 061500Z 30005KT CAVOK 26/12 Q1019","updated":"2025-10-06T15:17:59Z"}
