{"icao":"LPMA","metar":"LPMA 211700Z 03009KT 360V070 9999 SCT013 24/19 Q1019","updated":"2025-10-21T17:16:52Z"}
