{"icao":"LPMA","metar":"LPMA 021230Z 23013KT 180V270 9999 -SHRA BKN014 16/13 Q0998","updated":"2026-01-02T12:39:38Z"}
