{"icao":"LPAZ","metar":"LPAZ 311200Z 29007KT 260V320 8000 SCT003 BKN015 20/20 Q1027","updated":"2026-05-31T12:10:37Z"}
