{"icao":"LPPT","metar":"LPPT 210430Z 19012KT 3000 RA BR SCT003 BKN007 12/12 Q1010","updated":"2026-01-21T04:42:21Z"}
