{"icao":"KLAX","metar":"KLAX 010453Z 22003KT 6SM BR FEW005 SCT008 17/16 A3000 RMK AO2 SLP157 T01720156 $","updated":"2025-11-01T05:16:35Z"}
