{"icao":"LPFL","metar":"LPFL 040730Z 21012G25KT 140V260 9999 SCT020 FEW022TCU 16/11 Q0992","updated":"2026-02-04T07:42:52Z"}
