{"icao":"LPMT","metar":"LPMT 240800Z 26011KT 3000 -RADZ SCT008 SCT015 BKN022 15/14 Q1020","updated":"2025-11-24T08:27:17Z"}
