{"icao":"LPPT","metar":"LPPT 271630Z 34011KT CAVOK 20/09 Q1016","updated":"2026-03-27T16:53:30Z"}
