{"icao":"LPPR","metar":"LPPR 222330Z 28003KT 9000 NSC 19/18 Q1015","updated":"2026-06-23T00:04:04Z"}
