{"icao":"LPMT","metar":"LPMT 070000Z 13006KT 9999 FEW045 16/14 Q1012","updated":"2026-04-07T02:13:53Z"}
