{"icao":"KLAX","metar":"KLAX 311053Z 00000KT 4SM BR OVC005 17/16 A2994 RMK AO2 SLP138 T01670156 $","updated":"2025-10-31T11:15:34Z"}
