{"icao":"LPOV","metar":"LPOV 242300Z 36003KT CAVOK 10/07 Q1019","updated":"2025-11-25T03:13:36Z"}
