{"icao":"KJFK","metar":"KJFK 191551Z 20007KT 10SM BKN075 OVC250 03/M06 A3032 RMK AO2 SLP267 T00281061","updated":"2026-03-19T15:53:43Z"}
