{"icao":"LPMA","metar":"LPMA 211630Z 20007KT 160V230 9999 FEW016 20/15 Q1018","updated":"2026-01-21T16:43:21Z"}
