{"icao":"LPPR","metar":"LPPR 021930Z 24006KT 210V270 9999 BKN012 FEW025CB 17/14 Q1014","updated":"2026-05-02T19:54:52Z"}
