{"icao":"LPPR","metar":"LPPR 072000Z 22003KT 9999 FEW015 17/16 Q1023","updated":"2025-10-07T20:18:59Z"}
