{"icao":"LPPD","metar":"LPPD 192000Z 03009KT 360V080 9999 FEW025 20/12 Q1025","updated":"2025-09-19T20:18:36Z"}
