{"icao":"LPLA","metar":"LPLA 292000Z 22023G36KT 9999 FEW025 20/14 Q1008","updated":"2025-10-29T20:20:47Z"}
