{"icao":"KLAX","metar":"KLAX 261653Z 26013KT 10SM SCT029 SCT050 16/10 A2994 RMK AO2 SLP139 T01610100 $","updated":"2026-04-26T17:37:17Z"}
