{"icao":"LPFL","metar":"LPFL 291300Z 15003KT 120V180 9999 FEW015 SCT030 19/16 Q1030","updated":"2025-11-29T13:25:15Z"}
