{"icao":"LPCS","metar":"LPCS 031100Z 10009KT 060V130 9999 SCT004 SCT010 FEW020TCU 14/14 Q0998","updated":"2026-01-03T11:15:59Z"}
