{"icao":"LPMR","metar":"LPMR 142100Z 35009KT 8000 FEW005 19/18 Q1023","updated":"2025-09-14T21:14:05Z"}
