{"icao":"LPAZ","metar":"LPAZ 080600Z 20014KT 9999 FEW014 15/13 Q1032","updated":"2026-01-08T06:33:24Z"}
