{"icao":"LPAZ","metar":"LPAZ 220300Z 21013KT 9999 SCT004 BKN010 23/22 Q1017","updated":"2025-10-22T03:09:52Z"}
