{"icao":"KORD","metar":"KORD 032251Z 08008KT 10SM BKN250 27/06 A3020 RMK AO2 SLP223 T02670056","updated":"2026-06-03T23:41:56Z"}
