{"icao":"LPCS","metar":"LPCS 291400Z 25005KT 200V280 9999 FEW018 SCT040 17/10 Q1017","updated":"2025-11-29T14:15:58Z"}
