{"icao":"LPAZ","metar":"LPAZ 110130Z 21023KT 9999 BKN013 18/15 Q1022","updated":"2026-01-11T01:49:04Z"}
