{"icao":"LPCS","metar":"LPCS 161900Z 29005KT 250V320 9999 FEW014 14/13 Q1031","updated":"2026-02-16T19:31:36Z"}
