{"icao":"LPFR","metar":"LPFR 121830Z 10012KT CAVOK 25/15 Q1017","updated":"2026-06-12T19:02:54Z"}
