{"icao":"KORD","metar":"KORD 042051Z 21013G19KT 10SM FEW070 31/13 A3003 RMK AO2 SLP165 T03060128 56020 $","updated":"2025-10-04T21:13:45Z"}
