{"icao":"LPMR","metar":"LPMR 230400Z 16002KT CAVOK 09/07 Q1018","updated":"2025-09-23T04:20:38Z"}
