{"icao":"LPPD","metar":"LPPD 020200Z 05010KT 020V080 9999 FEW012 BKN020 13/11 Q1030","updated":"2026-04-02T02:09:13Z"}
