{"icao":"LPPT","metar":"LPPT 050630Z VRB02KT CAVOK 12/07 Q1020","updated":"2026-04-05T07:04:09Z"}
