{"icao":"LPFL","metar":"LPFL 050630Z 18016G28KT 150V230 9999 -SHRA FEW010 BKN012 16/13 Q1014","updated":"2026-04-05T07:04:12Z"}
