{"icao":"LPPT","metar":"LPPT 251100Z 25009KT 220V290 9999 FEW008 SCT015 22/19 Q1014","updated":"2025-10-25T11:12:55Z"}
