{"icao":"LPOV","metar":"LPOV 220300Z 21008KT 170V240 4000 BR BKN004 BKN016 19/19 Q1014","updated":"2025-10-22T03:09:37Z"}
