{"icao":"KORD","metar":"KORD 151551Z 10004KT 10SM CLR 26/15 A3019 RMK AO2 SLP218 T02560150 $","updated":"2025-09-15T16:21:33Z"}
