{"icao":"KJFK","metar":"KJFK 281451Z 04017G26KT 10SM SCT028 BKN250 11/04 A3033 RMK AO2 PK WND 06026/1442 SLP270 SCT V BKN T01110044 58004","updated":"2025-10-28T15:20:29Z"}
