{"icao":"LPMT","metar":"LPMT 240800Z 04008KT CAVOK 13/09 Q1019","updated":"2026-03-24T08:52:07Z"}
