{"icao":"LPPS","metar":"LPPS 181500Z 28009KT 260V320 9999 SCT010 25/21 Q1015","updated":"2025-10-18T15:15:45Z"}
