{"icao":"LPPT","metar":"LPPT 280300Z 27014KT 240V310 7000 DZ FEW004 SCT008 BKN010 18/17 Q1012","updated":"2025-09-28T03:06:40Z"}
