{"icao":"LPLA","metar":"LPLA 041300Z 06009KT 040V100 9999 FEW030 SCT040 17/08 Q1026","updated":"2026-05-04T13:57:11Z"}
