{"icao":"LPHR","metar":"LPHR 141800Z VRB04KT 9999 SCT030 17/09 Q1009","updated":"2025-11-14T18:26:35Z"}
