{"icao":"LPFL","metar":"LPFL 080900Z 15012KT 090V180 9999 -RA BKN005 FEW012CB 21/20 Q1017","updated":"2025-10-08T09:19:10Z"}
