{"icao":"LPPR","metar":"LPPR 041430Z 31014KT 280V350 9999 SCT020 19/12 Q1019","updated":"2026-06-04T14:56:40Z"}
