{"icao":"LPAR","metar":"LPAR 161100Z 32008KT 270V360 9999 FEW025 BKN035 16/10 Q1032","updated":"2026-02-16T11:39:02Z"}
