{"icao":"KORD","metar":"KORD 110851Z 30013G24KT 10SM SCT035 BKN044 M06/M12 A3008 RMK AO2 SNE25 SLP195 P0000 60000 T10561122 53025","updated":"2026-01-11T09:19:56Z"}
