{"icao":"LPPT","metar":"LPPT 151230Z 18005KT 090V260 CAVOK 27/12 Q1017","updated":"2025-10-15T12:38:38Z"}
