{"icao":"LPPD","metar":"LPPD 232230Z 24017KT 9999 FEW015 BKN040 16/13 Q1010","updated":"2026-02-23T22:39:03Z"}
