{"icao":"LPBJ","metar":"LPBJ 261100Z 10004KT 040V150 9999 FEW025 23/15 Q1016","updated":"2026-04-26T11:37:52Z"}
