{"icao":"KORD","metar":"KORD 141951Z 09012KT 10SM CLR 27/18 A3004 RMK AO2 SLP167 T02720178 $","updated":"2025-09-14T20:16:52Z"}
