{"icao":"KLAX","metar":"KLAX 240253Z 25007KT 10SM SCT010 14/12 A2989 RMK AO2 SLP120 T01440122 53002 $","updated":"2026-01-24T03:25:30Z"}
