{"icao":"LPPS","metar":"LPPS 110800Z 35003KT 280V020 9999 FEW013 13/12 Q1027","updated":"2026-01-11T08:25:44Z"}
