{"icao":"KLAX","metar":"KLAX 221609Z 11006KT 3SM HZ BKN012 BKN220 OVC280 18/14 A2994 RMK AO2 T01780139","updated":"2026-03-22T16:29:27Z"}
