{"icao":"LPPR","metar":"LPPR 202100Z 18015KT 4000 RA BKN003 17/17 Q1011","updated":"2025-10-20T21:16:21Z"}
