{"icao":"LPFR","metar":"LPFR 040500Z 35003KT 320V020 CAVOK 19/14 Q1020","updated":"2025-10-04T05:15:23Z"}
