{"icao":"LPBJ","metar":"LPBJ 281600Z 15012KT 9999 FEW030CB 25/14 Q1007","updated":"2026-04-28T16:49:45Z"}
