{"icao":"LPHR","metar":"LPHR 310000Z 28014KT 6000 -RA SCT003 BKN006 BKN011 17/17 Q1015 RERA","updated":"2026-01-31T01:52:48Z"}
