{"icao":"LPFR","metar":"LPFR 221500Z 24009KT CAVOK 19/11 Q1013","updated":"2026-04-22T15:11:28Z"}
