{"icao":"LPBJ","metar":"LPBJ 261000Z 01004KT 240V040 9999 FEW007 BKN028 19/17 Q1018","updated":"2025-10-26T10:16:57Z"}
