{"icao":"LPMT","metar":"LPMT 271200Z 34004KT 310V050 9999 BKN020 15/11 Q1025","updated":"2026-02-27T12:56:44Z"}
