{"icao":"LPFR","metar":"LPFR 071230Z 11010KT CAVOK 26/15 Q1021","updated":"2025-10-07T12:37:10Z"}
