{"icao":"LPAZ","metar":"LPAZ 281400Z 15011KT 110V200 9999 FEW026 SCT042 24/14 Q1029","updated":"2025-09-28T14:13:59Z"}
