{"icao":"LPMA","metar":"LPMA 110600Z 35005KT 310V020 9999 SCT015 BKN030 21/14 Q1020","updated":"2025-10-11T06:23:36Z"}
