{"icao":"LPOV","metar":"LPOV 211300Z 33015G25KT 300V360 9999 SCT030 19/12 Q1022","updated":"2025-09-21T13:20:32Z"}
