{"icao":"LPMA","metar":"LPMA 271700Z 03016KT 350V050 9999 FEW018 24/17 Q1022","updated":"2026-06-27T17:08:01Z"}
