{"icao":"LPHR","metar":"LPHR 282100Z 34007KT 300V010 9999 FEW020 15/08 Q1029","updated":"2025-11-28T21:16:09Z"}
