{"icao":"LPMT","metar":"LPMT 151200Z 28003KT 240V310 CAVOK 23/15 Q1017","updated":"2025-10-15T12:38:41Z"}
