{"icao":"LPHR","metar":"LPHR 130730Z 04008KT 360V070 9999 -SHRA SCT014 SCT050 14/11 Q1029","updated":"2026-05-13T07:48:05Z"}
