{"icao":"KJFK","metar":"KJFK 290951Z 29012KT 10SM CLR 01/M07 A3033 RMK AO2 SLP269 T00061072 $","updated":"2025-11-29T10:18:46Z"}
