{"icao":"KJFK","metar":"KJFK 141451Z 19006KT 10SM BKN110 OVC230 06/03 A2971 RMK AO2 SLP060 T00610028 51007 $","updated":"2026-01-14T15:24:58Z"}
