{"icao":"LPPT","metar":"LPPT 252100Z 32006KT CAVOK 09/05 Q1013","updated":"2025-12-25T21:17:31Z"}
