{"icao":"LPPR","metar":"LPPR 302000Z 04003KT 330V060 CAVOK 08/06 Q1021","updated":"2025-11-30T20:19:50Z"}
