{"icao":"LPFR","metar":"LPFR 260400Z 27009KT 9999 -RADZ FEW012 SCT020 BKN030 19/18 Q1015","updated":"2025-10-26T04:19:52Z"}
