{"icao":"LPBJ","metar":"LPBJ 071700Z 31006KT CAVOK 27/15 Q1020","updated":"2025-10-07T17:15:21Z"}
