{"icao":"KLAX","metar":"KLAX 142053Z 24009KT 10SM FEW020 23/17 A2985 RMK AO2 SLP108 T02330172 58017 $","updated":"2025-09-14T21:14:22Z"}
