{"icao":"LPAZ","metar":"LPAZ 242300Z 06005KT 9999 FEW026 BKN034 14/08 Q1023","updated":"2025-12-24T23:18:28Z"}
