{"icao":"KORD","metar":"KORD 271951Z 31016G25KT 10SM BKN042 M01/M09 A3020 RMK AO2 SLP236 T10061094","updated":"2025-11-27T20:18:38Z"}
