{"icao":"LPMR","metar":"LPMR 051300Z 32008KT 290V350 CAVOK 21/15 Q1020","updated":"2025-10-05T13:20:01Z"}
