{"icao":"LPOV","metar":"LPOV 231800Z 22002KT 160V270 8000 -RA FEW008 BKN020 15/13 Q1019","updated":"2025-10-23T18:26:25Z"}
