{"icao":"LPHR","metar":"LPHR 290000Z 28015KT 8000 -RA SCT006 SCT012 BKN080 16/15 Q1007 RERA","updated":"2026-01-29T05:41:59Z"}
