{"icao":"LPPR","metar":"LPPR 032000Z 14007KT CAVOK 16/11 Q1020","updated":"2025-11-03T20:20:33Z"}
