{"icao":"LPFR","metar":"LPFR 240700Z 30005KT CAVOK 08/05 Q1008","updated":"2025-12-24T07:22:27Z"}
