{"icao":"LPPS","metar":"LPPS 131800Z 13004KT 100V170 9999 FEW015 21/16 Q1017","updated":"2025-10-13T18:24:57Z"}
