{"icao":"LPPT","metar":"LPPT 060130Z 33018KT 9999 FEW020 09/05 Q1019 WS R02","updated":"2026-03-06T02:00:05Z"}
