{"icao":"LPBJ","metar":"LPBJ 210100Z 01008KT CAVOK 07/04 Q1023","updated":"2025-11-21T01:23:08Z"}
