{"icao":"KORD","metar":"KORD 021651Z 34009KT 10SM FEW020 FEW250 M07/M14 A2996 RMK AO2 SLP156 T10671139","updated":"2026-01-02T17:17:01Z"}
