{"icao":"LPPR","metar":"LPPR 281400Z 35004KT 310V080 9999 BKN021 14/09 Q1022","updated":"2025-11-28T14:18:58Z"}
