{"icao":"LPMT","metar":"LPMT 091400Z 34008KT 300V010 9999 SCT040 16/08 Q1028","updated":"2026-01-09T14:23:18Z"}
