{"icao":"LPLA","metar":"LPLA 101400Z 21013KT 180V250 9999 SCT022 19/15 Q1013","updated":"2025-11-10T14:18:47Z"}
