{"icao":"LPFR","metar":"LPFR 080500Z 35004KT CAVOK 18/14 Q1020","updated":"2025-10-08T05:17:19Z"}
