{"icao":"LPOV","metar":"LPOV 250900Z 16012KT 140V200 9999 SCT017 23/18 Q1014","updated":"2026-06-25T09:18:33Z"}
