{"icao":"LPPD","metar":"LPPD 272000Z 25032KT 8000 BKN016 BKN030 16/14 Q1006 WS R30","updated":"2026-01-27T20:21:50Z"}
