{"icao":"LPFL","metar":"LPFL 060900Z 18014G24KT 150V210 9999 FEW022 16/11 Q1029","updated":"2026-01-06T09:25:09Z"}
