{"icao":"KORD","metar":"KORD 080851Z 32005KT 10SM FEW070 12/06 A3026 RMK AO2 SLP247 T01170056 51014 $","updated":"2025-10-08T09:19:11Z"}
