{"icao":"LPAR","metar":"LPAR 271600Z 02012KT 350V050 9999 BKN020 16/12 Q1024","updated":"2026-02-27T16:39:07Z"}
