{"icao":"LPPT","metar":"LPPT 081100Z 31008KT 270V340 9000 -DZ SCT014 BKN020 18/14 Q1023","updated":"2025-10-08T11:14:29Z"}
