{"icao":"LPMT","metar":"LPMT 282300Z 33007KT 310V010 CAVOK 18/14 Q1020","updated":"2026-05-28T23:14:15Z"}
