{"icao":"LPLA","metar":"LPLA 161000Z 33018KT 9999 FEW023 BKN035 14/09 Q1033","updated":"2026-01-16T10:22:41Z"}
