{"icao":"KLAX","metar":"KLAX 282253Z 26007KT 10SM BKN250 19/04 A3016 RMK AO2 SLP212 T01940044","updated":"2026-01-28T23:24:58Z"}
