{"icao":"LPHR","metar":"LPHR 271700Z 25028G41KT 7000 SCT012 BKN020 17/15 Q1003","updated":"2026-01-27T17:26:32Z"}
