{"icao":"LPOV","metar":"LPOV 261800Z 33005KT CAVOK 16/13 Q1020","updated":"2025-10-26T18:23:36Z"}
