{"icao":"LPHR","metar":"LPHR 051030Z 31016KT 9999 SCT015 FEW018TCU SCT030 10/08 Q1004","updated":"2026-02-05T10:39:02Z"}
