{"icao":"LPPR","metar":"LPPR 110430Z 36007KT 330V040 9999 SCT015 12/11 Q1015","updated":"2026-04-11T04:53:20Z"}
