{"icao":"LPPT","metar":"LPPT 290900Z VRB02KT 9999 BKN036 13/10 Q1020","updated":"2025-11-29T09:18:11Z"}
