{"icao":"KLAX","metar":"KLAX 212253Z 20014KT 10SM FEW029 FEW055 21/13 A3004 RMK AO2 SLP170 T02060128 $","updated":"2026-04-21T23:33:39Z"}
