{"icao":"LPMA","metar":"LPMA 021000Z 02021G33KT 350V050 9999 FEW012 23/16 Q1025","updated":"2026-06-02T10:20:44Z"}
