{"icao":"LPCS","metar":"LPCS 211830Z 02008KT 9999 FEW018 17/12 Q1008","updated":"2026-03-21T18:34:46Z"}
