{"icao":"LPST","metar":"LPST 301800Z 33013KT 9999 FEW012 18/15 Q1022","updated":"2026-05-31T17:59:54Z"}
