{"icao":"LPFR","metar":"LPFR 270500Z 21026G37KT 5000 -RA BR SCT006 SCT015 15/14 Q1005","updated":"2026-01-27T05:25:41Z"}
