{"icao":"LPPT","metar":"LPPT 072300Z 31004KT 280V340 9999 FEW045 16/13 Q1019","updated":"2025-11-07T23:15:47Z"}
