{"icao":"LPPD","metar":"LPPD 261930Z 27005KT 240V310 9999 FEW018 17/13 Q1031 WS R30","updated":"2026-02-26T19:42:49Z"}
