{"icao":"LPPR","metar":"LPPR 180730Z 12006KT CAVOK 15/10 Q1004","updated":"2026-03-18T07:51:22Z"}
