{"icao":"KORD","metar":"KORD 220951Z 31013G19KT 10SM -SN SCT029 OVC038 M04/M11 A3016 RMK AO2 SLP221 P0000 T10441106 $","updated":"2026-02-22T10:23:33Z"}
