{"icao":"LPMR","metar":"LPMR 071400Z 36012KT 9999 FEW018 13/08 Q1026","updated":"2026-01-07T14:22:36Z"}
