{"icao":"LPLA","metar":"LPLA 251100Z 01005KT 9999 FEW007 SCT016 BKN025 16/15 Q1016","updated":"2026-04-25T11:36:54Z"}
