{"icao":"KORD","metar":"KORD 052051Z 21011G22KT 10SM FEW033 BKN043 OVC080 M01/M07 A2984 RMK AO2 SLP113 60000 T10061067 55035","updated":"2026-02-05T21:27:41Z"}
