{"icao":"LPMR","metar":"LPMR 130900Z 35007KT CAVOK 18/13 Q1022","updated":"2025-09-13T09:34:12Z"}
