{"icao":"KJFK","metar":"KJFK 011951Z 02011KT 10SM FEW055 FEW250 21/04 A3016 RMK AO2 SLP212 T02060039","updated":"2025-10-01T20:19:49Z"}
