{"icao":"LPPT","metar":"LPPT 221900Z 32011KT CAVOK 16/09 Q1018","updated":"2025-09-22T19:14:03Z"}
