{"icao":"LPLA","metar":"LPLA 210500Z 09006KT 060V140 9999 FEW018 SCT040 15/12 Q1031","updated":"2025-11-21T05:18:40Z"}
