{"icao":"LPLA","metar":"LPLA 131700Z 03005KT 350V050 9999 SCT030 20/11 Q1015","updated":"2025-10-13T17:15:20Z"}
