{"icao":"KLAX","metar":"KLAX 050453Z 26003KT 10SM BKN011 14/12 A2995 RMK AO2 SLP139 T01390117","updated":"2026-03-05T05:46:43Z"}
