{"icao":"LPFL","metar":"LPFL 211630Z 27013G27KT 190V330 9999 FEW008 BKN010 19/15 Q1017 WS ALL RWY","updated":"2026-01-21T16:43:08Z"}
