{"icao":"KJFK","metar":"KJFK 301851Z 29014KT 10SM FEW055 FEW250 M08/M20 A3014 RMK AO2 SLP205 T10831200 $","updated":"2026-01-30T19:30:42Z"}
