{"icao":"LPFR","metar":"LPFR 021400Z 14018KT 9999 FEW020 SCT045 18/14 Q1003","updated":"2026-01-02T14:19:13Z"}
