{"icao":"KLAX","metar":"KLAX 271853Z 24007KT 210V270 4SM HZ FEW015 SCT160 BKN250 21/14 A2998 RMK AO2 SLP150 T02060144","updated":"2026-03-27T19:40:23Z"}
