{"icao":"LPCS","metar":"LPCS 041700Z 15006KT CAVOK 20/16 Q1013","updated":"2025-11-04T17:13:36Z"}
