{"icao":"KLAX","metar":"KLAX 181753Z 06006KT 10SM CLR 26/06 A3002 RMK AO2 SLP163 T02560056 10256 20144 50008 $","updated":"2025-10-18T18:22:32Z"}
