{"icao":"LPFR","metar":"LPFR 072000Z 05004KT 360V130 CAVOK 15/12 Q1018","updated":"2026-03-07T20:24:13Z"}
