{"icao":"KLAX","metar":"KLAX 011616Z 00000KT 1 3/4SM BR OVC005 16/15 A3008 RMK AO2 T01610150 $","updated":"2025-11-01T16:19:23Z"}
