{"icao":"LPPD","metar":"LPPD 271000Z 26025KT 9999 FEW020 FEW025TCU BKN030 15/11 Q1010","updated":"2026-01-27T10:26:51Z"}
