{"icao":"LPMT","metar":"LPMT 202100Z 01009KT CAVOK 11/06 Q1023","updated":"2025-11-20T21:17:13Z"}
