{"icao":"LPHR","metar":"LPHR 170900Z 31012KT 280V350 9999 FEW014 BKN025 15/09 Q1032","updated":"2026-01-17T09:19:14Z"}
