{"icao":"LPPR","metar":"LPPR 211230Z 17007KT 140V200 9999 -SHRA FEW018 SCT024 BKN045 08/05 Q1007","updated":"2025-12-21T12:36:55Z"}
