{"icao":"LPPR","metar":"LPPR 081900Z 22010KT 190V260 4000 DZRA BR SCT010 BKN026 13/12 Q1026","updated":"2026-01-08T19:18:57Z"}
