{"icao":"LPPT","metar":"LPPT 291230Z 28005KT 240V330 9999 FEW030 BKN038 16/09 Q1018","updated":"2025-11-29T12:35:20Z"}
