{"icao":"LPPR","metar":"LPPR 210300Z 11004KT 070V150 9999 FEW018 BKN033 07/05 Q1006","updated":"2025-12-21T03:27:57Z"}
