{"icao":"LPMR","metar":"LPMR 170100Z 12002KT 0500 FG VV001 12/12 Q1014","updated":"2025-10-17T01:19:42Z"}
