{"icao":"KORD","metar":"KORD 031851Z 02007KT 10SM FEW028 M02/M11 A3021 RMK AO2 SLP240 T10221111","updated":"2026-02-03T18:55:34Z"}
