{"icao":"KJFK","metar":"KJFK 012251Z 34013G21KT 10SM SCT200 BKN250 M06/M15 A2981 RMK AO2 SLP093 T10561150 PNO $","updated":"2026-02-01T23:23:24Z"}
