{"icao":"LPBJ","metar":"LPBJ 062200Z 24003KT 210V290 CAVOK 04/M01 Q1024","updated":"2026-01-06T22:19:49Z"}
