{"icao":"KORD","metar":"KORD 040851Z 30007KT 10SM OVC035 M04/M13 A3012 RMK AO2 SLP208 T10391128 53010 $","updated":"2026-01-04T09:18:47Z"}
