{"icao":"LPMR","metar":"LPMR 262000Z 35007KT CAVOK 15/09 Q1016","updated":"2026-03-26T20:34:31Z"}
