{"icao":"KORD","metar":"KORD 091051Z 21009KT 10SM SCT110 BKN250 12/09 A2962 RMK AO2 SLP027 T01220094","updated":"2026-05-09T10:56:14Z"}
