{"icao":"LPPD","metar":"LPPD 061830Z 33012KT 300V360 9999 FEW025 12/03 Q1021","updated":"2026-04-06T18:57:23Z"}
