{"icao":"KORD","metar":"KORD 071051Z 22010KT 10SM -RA SCT040 OVC090 16/14 A2971 RMK AO2 RAE08B29E39B42 SLP058 P0001 T01560144","updated":"2026-03-07T11:18:48Z"}
