{"icao":"KLAX","metar":"KLAX 152153Z 26010KT 10SM FEW280 FEW330 26/08 A2996 RMK AO2 SLP146 T02560078 $","updated":"2026-01-15T22:20:28Z"}
