{"icao":"LPFL","metar":"LPFL 261700Z 03010KT 360V060 9999 FEW024 19/12 Q1026","updated":"2025-10-26T17:14:05Z"}
