{"icao":"LPPS","metar":"LPPS 060600Z VRB02KT 6000 -RADZ SCT005 BKN010 20/19 Q1021","updated":"2025-10-06T06:27:20Z"}
