{"icao":"LPPS","metar":"LPPS 031300Z 07012KT 9999 FEW015 24/18 Q1024","updated":"2025-10-03T13:24:28Z"}
