{"icao":"LPMT","metar":"LPMT 251600Z 26012KT CAVOK 27/14 Q1020","updated":"2026-05-25T16:26:06Z"}
