{"icao":"LPLA","metar":"LPLA 032223Z 24019G29KT 9000 -RA FEW014 SCT020 17/14 Q0999","updated":"2026-02-03T22:28:28Z"}
