{"icao":"LPPD","metar":"LPPD 161500Z 25006KT 220V290 9999 FEW022 18/11 Q1023","updated":"2025-11-16T15:16:42Z"}
