{"icao":"LPPS","metar":"LPPS 282100Z 03012KT 9999 FEW015 BKN030 21/14 Q1024","updated":"2025-09-28T21:14:09Z"}
