{"icao":"LPAR","metar":"LPAR 201600Z 28007KT 240V320 9999 FEW035 24/15 Q1014","updated":"2025-10-20T22:16:06Z"}
