{"icao":"LPHR","metar":"LPHR 202130Z 31011KT 9999 FEW016 SCT030 13/09 Q1017","updated":"2026-04-20T21:44:47Z"}
