{"icao":"KJFK","metar":"KJFK 171051Z 28021G30KT 10SM SCT046 BKN220 02/M07 A2971 RMK AO2 PK WND 29034/1004 SLP061 T00171067","updated":"2026-03-17T11:42:29Z"}
