{"icao":"LPCS","metar":"LPCS 142000Z 35010KT 9999 FEW010 14/11 Q1023","updated":"2026-04-14T21:50:54Z"}
