{"icao":"LPLA","metar":"LPLA 190200Z 29008KT 9999 SCT025 BKN035 18/14 Q1018","updated":"2025-09-19T02:58:54Z"}
