{"icao":"LPFR","metar":"LPFR 092130Z 01010KT 9999 -RA FEW020 16/13 Q1013","updated":"2026-04-09T21:43:22Z"}
