{"icao":"LPPR","metar":"LPPR 171300Z 28006KT 7000 NSC 21/14 Q1015","updated":"2025-10-17T13:26:40Z"}
