{"icao":"KORD","metar":"KORD 062051Z 28014G20KT 10SM BKN055 10/M02 A3019 RMK AO2 SLP226 T01001022 58012 $","updated":"2026-04-06T21:36:36Z"}
