{"icao":"KLAX","metar":"KLAX 271606Z 10006KT 4SM HZ FEW009 BKN017 18/14 A3001 RMK AO2 T01780139 $","updated":"2025-10-27T16:24:15Z"}
