{"icao":"LPCS","metar":"LPCS 151300Z 23007KT CAVOK 26/12 Q1016","updated":"2025-10-15T13:30:45Z"}
