{"icao":"LPLA","metar":"LPLA 021700Z 08011KT 040V110 9999 SCT018 17/12 Q1021","updated":"2026-05-02T17:41:38Z"}
