{"icao":"LPPD","metar":"LPPD 200600Z 25012KT 6000 FEW003 BKN005 22/22 Q1016","updated":"2025-10-20T06:28:23Z"}
