{"icao":"LPAZ","metar":"LPAZ 220300Z 21009KT 9999 FEW012 BKN040 17/16 Q1018","updated":"2026-05-22T03:32:47Z"}
