{"icao":"LPPS","metar":"LPPS 301400Z 01013KT 9999 SCT015 19/12 Q1022","updated":"2025-11-30T14:16:34Z"}
