{"icao":"KORD","metar":"KORD 172251Z 00000KT 10SM SCT070 BKN130 BKN250 07/M08 A3006 RMK AO2 SLP182 T00721078","updated":"2025-11-17T23:17:07Z"}
