{"icao":"LPOV","metar":"LPOV 061500Z 22005KT 180V270 8000 -SHRA SCT025 FEW026TCU SCT045 15/13 Q1016","updated":"2025-11-06T15:20:18Z"}
