{"icao":"KJFK","metar":"KJFK 140451Z 24006KT 10SM FEW095 FEW150 SCT250 17/12 A3000 RMK AO2 SLP160 T01720122 402390078","updated":"2026-04-14T05:22:27Z"}
