{"icao":"LPHR","metar":"LPHR 181500Z 27014KT 5000 BR SCT001 BKN003 23/22 Q1015","updated":"2025-10-18T15:15:43Z"}
