{"icao":"LPMR","metar":"LPMR 260800Z 03005KT CAVOK 12/04 Q1018","updated":"2026-03-26T08:54:18Z"}
