{"icao":"KORD","metar":"KORD 311951Z 34012KT 10SM FEW021 BKN027 BKN038 M04/M09 A3038 RMK AO2 SNE41 SLP300 P0000 T10391094","updated":"2026-01-31T20:24:07Z"}
