{"icao":"LPPT","metar":"LPPT 031600Z 22004KT 180V240 CAVOK 18/10 Q1021","updated":"2025-11-03T16:21:00Z"}
