{"icao":"LPPR","metar":"LPPR 031730Z 34007KT CAVOK 18/11 Q1014","updated":"2026-03-03T17:41:43Z"}
