{"icao":"LPOV","metar":"LPOV 141000Z 31006KT 270V340 9999 BKN008 20/19 Q1024","updated":"2025-09-14T10:15:05Z"}
