{"icao":"LPPD","metar":"LPPD 041330Z 23029KT 7000 SCT014 BKN040 17/14 Q0996","updated":"2026-02-04T14:03:49Z"}
