{"icao":"LPMT","metar":"LPMT 031200Z 35005KT 310V030 CAVOK 16/12 Q1023","updated":"2025-11-03T12:38:51Z"}
