{"icao":"LPMT","metar":"LPMT 230100Z 35003KT CAVOK 09/09 Q1025","updated":"2026-02-23T02:04:16Z"}
