{"icao":"KORD","metar":"KORD 061841Z 32010G20KT 10SM BKN025 OVC038 03/M03 A2986 RMK AO2 T00281028 $","updated":"2026-02-06T18:50:08Z"}
