{"icao":"LPLA","metar":"LPLA 311700Z 09007KT 9999 BKN025 15/09 Q1030","updated":"2026-03-31T17:55:40Z"}
