{"icao":"KLAX","metar":"KLAX 270553Z 28007KT 10SM FEW018 FEW095 BKN110 14/10 A3002 RMK AO2 SLP164 60007 T01440100 10150 20139 53006 $","updated":"2025-12-27T06:29:40Z"}
