{"icao":"KLAX","metar":"KLAX 241653Z 24004KT 10SM BKN016 OVC020 17/12 A3004 RMK AO2 SLP172 T01670122 $","updated":"2026-05-24T16:59:11Z"}
