{"icao":"KORD","metar":"KORD 121851Z 21008KT 10SM FEW080 BKN110 OVC250 22/06 A2992 RMK AO2 SLP133 VCSH NE T02170056 $","updated":"2026-05-12T19:49:10Z"}
