{"icao":"LPFL","metar":"LPFL 121000Z 33018G36KT 280V010 9999 SCT028 13/06 Q1017","updated":"2026-01-12T10:24:22Z"}
