{"icao":"LPOV","metar":"LPOV 191500Z 19016G26KT 2000 -RA BR FEW006 BKN018 19/18 Q1011 RERA","updated":"2025-10-19T15:15:30Z"}
