{"icao":"KORD","metar":"KORD 071651Z 35007KT 10SM FEW030 FEW250 M07/M14 A3044 RMK AO2 SLP321 T10671144 $","updated":"2026-02-07T17:24:30Z"}
