{"icao":"KORD","metar":"KORD 130737Z 19019G35KT 9SM -RA BKN024 OVC045 04/01 A2963 RMK AO2 PK WND 20046/0652 PRESFR P0004 T00440011 $","updated":"2026-03-13T07:43:42Z"}
