{"icao":"LPBJ","metar":"LPBJ 281500Z 31005KT 260V350 CAVOK 17/07 Q1021","updated":"2025-11-28T15:19:06Z"}
