{"icao":"LPCS","metar":"LPCS 221230Z 27007KT 240V310 9999 VCSH FEW003 SCT008 BKN012 22/20 Q1019","updated":"2025-10-22T12:38:59Z"}
