{"icao":"LPPT","metar":"LPPT 201830Z 23007KT 9999 FEW016 13/10 Q1017","updated":"2026-01-20T18:35:34Z"}
