{"icao":"LPFR","metar":"LPFR 281230Z 06012KT 9000 -RA FEW012 FEW018CB BKN040 12/10 Q1010","updated":"2025-12-28T12:38:04Z"}
