{"icao":"LPFR","metar":"LPFR 130830Z 35007KT 310V020 CAVOK 27/13 Q1018"}
