{"icao":"LPMR","metar":"LPMR 020300Z 16003KT 2000 BR SCT004 11/11 Q1023","updated":"2025-11-02T03:14:03Z"}
