{"icao":"LPMA","metar":"LPMA 270600Z 35008KT 260V020 9999 FEW015 15/10 Q1014","updated":"2025-12-27T06:29:39Z"}
