{"icao":"LPPT","metar":"LPPT 120400Z 36005KT CAVOK 19/10 Q1016","updated":"2025-10-12T04:20:00Z"}
