{"icao":"LPST","metar":"LPST 171000Z 16005KT CAVOK 25/11 Q1015","updated":"2025-10-17T10:19:01Z"}
