{"icao":"LPMA","metar":"LPMA 142330Z 01012G22KT 290V050 9999 SCT015 17/11 Q1022","updated":"2026-05-14T23:56:54Z"}
