{"icao":"KORD","metar":"KORD 061851Z 16007KT 10SM FEW200 BKN250 14/M04 A3008 RMK AO2 SLP189 T01391044","updated":"2025-11-06T19:15:18Z"}
