{"icao":"KJFK","metar":"KJFK 030651Z 25004KT 10SM FEW180 BKN250 09/07 A3025 RMK AO2 SLP244 T00940072 $","updated":"2025-11-03T07:18:28Z"}
