{"icao":"LPFR","metar":"LPFR 160700Z 33006KT 300V360 9999 FEW018 FEW020CB 14/13 Q1013","updated":"2025-11-16T07:16:48Z"}
