{"icao":"LPPR","metar":"LPPR 240400Z 11011KT CAVOK 18/05 Q1018","updated":"2025-09-24T04:20:33Z"}
