{"icao":"KJFK","metar":"KJFK 201051Z 03009KT 10SM FEW200 16/08 A3020 RMK AO2 SLP227 T01610078 $","updated":"2025-09-20T11:12:41Z"}
