{"icao":"LPPD","metar":"LPPD 270600Z 20007KT 9999 FEW018 18/14 Q1022","updated":"2025-11-27T06:30:18Z"}
