{"icao":"LPPS","metar":"LPPS 122200Z 28014G37KT 260V330 9999 SCT014 SCT030 17/15 Q1015","updated":"2026-01-12T22:17:50Z"}
