{"icao":"LPOV","metar":"LPOV 202100Z 17009KT 140V200 4000 -RADZ BR SCT004 BKN012 17/17 Q1012","updated":"2025-10-20T21:16:22Z"}
