{"icao":"LPAZ","metar":"LPAZ 141300Z 19013KT 9999 SCT019 BKN049 22/18 Q1009","updated":"2025-10-14T13:29:01Z"}
