{"icao":"LPBJ","metar":"LPBJ 130200Z 30010KT CAVOK 08/05 Q1020","updated":"2026-04-13T02:34:44Z"}
