{"icao":"LPHR","metar":"LPHR 231900Z 13008KT 9999 FEW016 17/15 Q1024","updated":"2025-12-23T19:16:54Z"}
