{"icao":"LPPT","metar":"LPPT 101730Z 24014KT 3000 DZRA BR FEW002 BKN005 16/16 Q1016","updated":"2026-02-10T18:00:15Z"}
