{"icao":"KJFK","metar":"KJFK 071351Z 32028G39KT 10SM FEW035 BKN065 BKN095 M09/M19 A2967 RMK AO2 PK WND 32044/1324 SLP048 T10891194 $","updated":"2026-02-07T14:24:34Z"}
