{"icao":"LPFL","metar":"LPFL 221230Z 17010KT 120V220 9999 FEW012 SCT016 18/14 Q1021","updated":"2025-12-22T12:40:23Z"}
