{"icao":"LPCS","metar":"LPCS 040700Z 30006KT 270V330 4500 -DZRA BR FEW002 SCT006 BKN010 14/14 Q1021","updated":"2025-12-04T07:19:55Z"}
