{"icao":"KLAX","metar":"KLAX 061453Z 09006KT 10SM FEW010 FEW025 SCT075 BKN160 12/10 A3010 RMK AO2 SLP189 T01170100 53009 $","updated":"2026-01-06T15:22:02Z"}
