{"icao":"LPAR","metar":"LPAR 161400Z 05006KT 360V100 CAVOK 22/10 Q1019","updated":"2026-03-16T14:58:14Z"}
