{"icao":"LPFR","metar":"LPFR 252000Z 30003KT 260V360 CAVOK 12/04 Q1022","updated":"2025-11-25T20:21:09Z"}
