{"icao":"KJFK","metar":"KJFK 282051Z 23011KT 10SM FEW040 BKN150 OVC250 M06/M14 A3005 RMK AO2 SLP174 T10611144 56020 $","updated":"2026-01-28T21:28:17Z"}
