{"icao":"KORD","metar":"KORD 130951Z 32004KT 10SM BKN049 BKN070 12/08 A2985 RMK AO2 SLP109 T01220078 $","updated":"2026-05-13T10:26:01Z"}
