{"icao":"LPHR","metar":"LPHR 300900Z 28010KT 9999 -SHRA SCT009 SCT020 BKN035 17/15 Q1028","updated":"2025-11-30T09:17:48Z"}
