{"icao":"LPAZ","metar":"LPAZ 112300Z 07004KT 9999 FEW023 BKN042 12/07 Q1033","updated":"2026-04-11T23:32:22Z"}
