{"icao":"KJFK","metar":"KJFK 141951Z 16004KT 10SM FEW075 BKN110 BKN190 OVC250 08/02 A2959 RMK AO2 SLP021 T00780022 $","updated":"2026-01-14T20:20:25Z"}
