{"icao":"KLAX","metar":"KLAX 021053Z 27012KT 10SM FEW012 SCT021 BKN050 BKN250 16/12 A2996 RMK AO2 SLP144 T01560122 $","updated":"2026-04-02T11:43:09Z"}
