{"icao":"LPPS","metar":"LPPS 011200Z 19016KT 9999 FEW015 24/18 Q1018","updated":"2025-11-01T12:33:08Z"}
