{"icao":"KORD","metar":"KORD 301951Z 22011G21KT 10SM FEW033 BKN300 34/24 A2989 RMK AO2 PK WND 22027/1936 SLP115 T03390239 $","updated":"2026-06-30T19:54:37Z"}
