{"icao":"LPMR","metar":"LPMR 220600Z 33004KT 8000 BKN008 SCT012 19/18 Q1017","updated":"2026-06-22T06:27:38Z"}
