{"icao":"LPPR","metar":"LPPR 080100Z 00000KT 9000 FEW020 BKN033 16/15 Q1023","updated":"2025-10-08T01:17:40Z"}
