{"icao":"LPPR","metar":"LPPR 010300Z 17008KT 9999 -RA FEW008 SCT035 15/14 Q1012","updated":"2025-11-01T03:10:11Z"}
