{"icao":"LPFR","metar":"LPFR 060300Z 32009KT CAVOK 08/M03 Q1017","updated":"2026-01-06T03:27:47Z"}
