{"icao":"LPMA","metar":"LPMA 031530Z 20017KT 160V230 9999 VCSH SCT013 19/15 Q1016","updated":"2026-05-03T15:45:32Z"}
