{"icao":"LPOV","metar":"LPOV 031300Z 05013KT 020V080 9999 FEW030 20/M04 Q1014","updated":"2026-03-03T13:59:20Z"}
