{"icao":"KLAX","metar":"KLAX 130253Z 25005KT 4SM BR BKN006 BKN220 14/13 A3000 RMK AO2 SLP159 T01440133 53009 $","updated":"2025-12-13T03:15:03Z"}
