{"icao":"LPBJ","metar":"LPBJ 251900Z 24008KT 8000 -DZ OVC005 13/13 Q1015","updated":"2026-01-25T19:15:48Z"}
