{"icao":"LPFR","metar":"LPFR 091500Z 21003KT 160V280 CAVOK 19/10 Q1019","updated":"2025-11-09T15:15:28Z"}
