{"icao":"LPHR","metar":"LPHR 300900Z 26009KT 0200 -DZ FG VV001 21/21 Q1019","updated":"2025-09-30T09:18:52Z"}
