{"icao":"LPMA","metar":"LPMA 100300Z 02011KT 340V060 9999 SCT016 18/12 Q1023","updated":"2025-12-10T03:21:28Z"}
