{"icao":"LPAR","metar":"LPAR 071600Z 31011KT 280V340 9999 FEW030 20/06 Q1010","updated":"2026-05-08T05:29:08Z"}
