{"icao":"LPMR","metar":"LPMR 191100Z 36007KT 9999 FEW018 12/08 Q1021","updated":"2025-12-19T11:17:21Z"}
