{"icao":"KJFK","metar":"KJFK 221351Z 09015KT 10SM -RA OVC008 02/01 A3008 RMK AO2 SLP185 P0001 T00170011 $","updated":"2026-02-22T14:24:38Z"}
