{"icao":"LPLA","metar":"LPLA 142200Z 33008KT 9999 FEW013 OVC022 16/13 Q1032","updated":"2026-03-14T22:25:02Z"}
