{"icao":"LPMA","metar":"LPMA 270400Z 01009KT 340V040 9999 SCT016 SCT030 18/11 Q1022","updated":"2025-11-27T04:22:56Z"}
