{"icao":"LPOV","metar":"LPOV 201900Z 35010KT CAVOK 12/07 Q1030","updated":"2026-02-20T19:35:41Z"}
