{"icao":"KLAX","metar":"KLAX 151653Z 04008KT 10SM FEW020 FEW300 20/02 A3006 RMK AO2 SLP178 FU FEW020 T02000017","updated":"2026-01-15T17:31:23Z"}
