{"icao":"LPCS","metar":"LPCS 151000Z 17006KT 6000 -RA FEW005 SCT012 FEW022TCU 14/14 Q1006 RESHRA","updated":"2025-11-15T10:17:16Z"}
