{"icao":"KLAX","metar":"KLAX 250253Z 22008G16KT 10SM SCT005 20/18 A2994 RMK AO2 SLP135 T02000183 53003 $","updated":"2025-09-25T02:59:56Z"}
