{"icao":"LPPR","metar":"LPPR 182200Z 14004KT 100V160 CAVOK 20/12 Q1015","updated":"2025-10-18T22:15:26Z"}
