{"icao":"LPOV","metar":"LPOV 081200Z 32007KT 280V350 9999 FEW014 BKN030 19/16 Q1022","updated":"2025-10-08T12:37:27Z"}
