{"icao":"LPLA","metar":"LPLA 222314Z 31012KT 3000 -DZ BR SCT003 BKN005 20/19 Q1027","updated":"2026-06-23T00:04:06Z"}
