{"icao":"LPPS","metar":"LPPS 022230Z 03011KT 350V060 9999 FEW015 SCT030 19/14 Q1027","updated":"2026-06-03T18:21:31Z"}
