{"icao":"LPPR","metar":"LPPR 291500Z 31008KT 230V340 9999 SCT008 BKN011 20/17 Q1022","updated":"2026-05-29T15:24:52Z"}
