{"icao":"LPPR","metar":"LPPR 211800Z 23008KT 190V270 6000 BKN003 BKN017 19/18 Q1012","updated":"2025-10-21T18:25:37Z"}
