{"icao":"LPMT","metar":"LPMT 021600Z 14014KT 7000 RA SCT012 SCT020 BKN030 15/14 Q0999","updated":"2026-01-02T16:24:16Z"}
