{"icao":"LPLA","metar":"LPLA 292300Z 15008KT 120V190 9999 FEW010 SCT015 22/21 Q1022","updated":"2025-09-29T23:15:46Z"}
