{"icao":"LPMA","metar":"LPMA 150330Z 29003KT 250V360 9999 SCT016 17/12 Q1020","updated":"2025-12-15T03:40:36Z"}
