{"icao":"KJFK","metar":"KJFK 031251Z 27006KT 10SM FEW085 FEW120 FEW250 M07/M12 A3018 RMK AO2 SLP220 T10671117 PNO $","updated":"2026-02-03T12:57:31Z"}
