{"icao":"KORD","metar":"KORD 020903Z 29004KT 2SM BR BKN010 M06/M07 A2996 RMK AO2 T10611072","updated":"2025-12-02T09:25:19Z"}
