{"icao":"LPCS","metar":"LPCS 151700Z 28007KT 240V320 9999 FEW006 SCT013 BKN022 14/12 Q1031","updated":"2026-02-15T17:24:06Z"}
