{"icao":"KLAX","metar":"KLAX 170653Z 26004KT 10SM FEW015 SCT035 BKN046 BKN200 11/09 A2992 RMK AO2 RAB0557E21 SLP132 SHRA NE P0002 T01110094 $","updated":"2026-02-17T07:02:51Z"}
