{"icao":"KJFK","metar":"KJFK 121051Z 30018G27KT 10SM FEW050 00/M09 A3016 RMK AO2 PK WND 30028/1003 SLP211 T00001094","updated":"2026-01-12T11:19:50Z"}
