{"icao":"LPPS","metar":"LPPS 051900Z 04013G23KT 360V070 9999 SCT015 15/08 Q1022","updated":"2026-01-05T19:19:46Z"}
