{"icao":"KLAX","metar":"KLAX 110832Z 29007KT 10SM SCT012 SCT024 BKN045 16/14 A2997 RMK AO2 T01610139 $","updated":"2026-04-11T08:41:55Z"}
