{"icao":"KJFK","metar":"KJFK 141351Z 36014KT 10SM BKN012 BKN029 13/11 A3004 RMK AO2 DZE19 SLP172 P0000 T01330111","updated":"2025-10-14T14:18:32Z"}
