{"icao":"LPAZ","metar":"LPAZ 061630Z 33027KT 9999 SCT033 13/04 Q1019","updated":"2026-04-06T16:45:03Z"}
