{"icao":"LPPR","metar":"LPPR 090100Z 11008KT CAVOK 11/10 Q1022","updated":"2025-11-09T01:26:56Z"}
