{"icao":"LPPS","metar":"LPPS 031900Z 15012KT 9999 SCT015 21/18 Q1019","updated":"2025-11-03T19:15:12Z"}
