{"icao":"LPMT","metar":"LPMT 022100Z 02011KT 9000 FEW004 BKN028 13/13 Q1008","updated":"2026-03-02T21:31:55Z"}
