{"icao":"LPPT","metar":"LPPT 030930Z 25007KT 220V280 9999 FEW025 FEW030TCU 09/08 Q1003 RESHRA","updated":"2026-02-03T09:39:22Z"}
