{"icao":"KLAX","metar":"KLAX 150053Z 21005KT 10SM FEW030 FEW060 17/09 A2993 RMK AO2 SLP132 T01670089 $","updated":"2025-10-15T01:20:35Z"}
