{"icao":"LPMT","metar":"LPMT 252300Z 35007KT CAVOK 17/11 Q1016","updated":"2026-04-25T23:36:39Z"}
