{"icao":"LPOV","metar":"LPOV 090800Z 16018KT 5000 -RA BR FEW007 SCT012 BKN025 14/13 Q1013 RERA","updated":"2025-12-09T08:27:57Z"}
