{"icao":"KJFK","metar":"KJFK 300551Z 25012KT 10SM BKN100 BKN130 18/12 A2968 RMK AO2 SLP050 60000 T01830122 10206 20172 58015 $","updated":"2026-05-30T06:23:12Z"}
