{"icao":"LPAZ","metar":"LPAZ 161100Z 20008KT 9999 FEW006 SCT012 23/21 Q1003","updated":"2025-10-16T11:15:18Z"}
