{"icao":"LPLA","metar":"LPLA 180900Z 32014KT 6000 -DZ SCT005 BKN010 18/18 Q1015","updated":"2025-09-18T09:18:28Z"}
