{"icao":"LPAR","metar":"LPAR 171600Z 32011KT 290V350 CAVOK 32/16 Q1015","updated":"2026-06-17T23:30:30Z"}
