{"icao":"LPHR","metar":"LPHR 302000Z 24004KT 9999 FEW006 BKN025 22/21 Q1019","updated":"2025-09-30T22:15:54Z"}
