{"icao":"LPLA","metar":"LPLA 131800Z 10005KT 050V120 9999 SCT030 20/11 Q1014","updated":"2025-10-13T18:24:55Z"}
