{"icao":"LPBJ","metar":"LPBJ 240600Z 06003KT CAVOK 17/15 Q1020","updated":"2026-05-24T06:57:52Z"}
