{"icao":"LPAZ","metar":"LPAZ 201530Z 02026G36KT 9000 VCSH FEW016 FEW022TCU BKN024 16/11 Q1004","updated":"2026-03-20T15:41:07Z"}
