{"icao":"LPPR","metar":"LPPR 281030Z 25006KT 200V280 9999 FEW025 22/17 Q1009","updated":"2026-04-28T11:04:06Z"}
