{"icao":"KJFK","metar":"KJFK 211651Z 11009KT 10SM FEW040 FEW200 BKN250 19/09 A3032 RMK AO2 SLP267 T01940089 $","updated":"2025-09-21T17:13:52Z"}
