{"icao":"LPPR","metar":"LPPR 130800Z VRB02KT CAVOK 18/13 Q1016","updated":"2025-10-13T08:25:51Z"}
