{"icao":"LPMR","metar":"LPMR 081900Z 33008KT 280V360 9999 SCT008 BKN015 17/16 Q1022","updated":"2025-10-08T19:13:37Z"}
