{"icao":"KORD","metar":"KORD 101351Z 08004KT 10SM CLR 12/M04 A3007 RMK AO2 SLP184 T01171033 $","updated":"2026-05-10T14:51:18Z"}
