{"icao":"LPFR","metar":"LPFR 141400Z 19007KT 160V220 9999 FEW025 16/10 Q1020","updated":"2026-01-14T14:24:04Z"}
