{"icao":"KJFK","metar":"KJFK 120427Z 30016G29KT 3SM -SN FEW007 BKN033 OVC055 M02/M07 A2987 RMK AO2 PK WND 30029/0423 SNB18 P0000 T10221072 $","updated":"2025-12-12T04:32:43Z"}
