{"icao":"LPBJ","metar":"LPBJ 131400Z 15012KT CAVOK 33/08 Q1017","updated":"2026-06-13T14:58:52Z"}
