{"icao":"LPMT","metar":"LPMT 101700Z 23005KT 9999 FEW025 SCT035 14/10 Q1028","updated":"2026-01-10T17:16:48Z"}
