{"icao":"KLAX","metar":"KLAX 220253Z 27012KT 10SM FEW007 BKN150 20/18 A2987 RMK AO2 SLP112 T02000178 55000","updated":"2025-09-22T03:05:59Z"}
