{"icao":"LPFR","metar":"LPFR 161800Z 27003KT 240V310 9999 -SHRA FEW015 FEW020CB SCT032 11/10 Q1014","updated":"2026-01-16T18:30:39Z"}
