{"icao":"KJFK","metar":"KJFK 231151Z 18004KT 1SM R04R/P6000FT BR BKN004 BKN009 OVC014 21/19 A2984 RMK SFC VIS 6 SLP105 70028 T02060194 10211 20194 53005 $ ","updated":"2026-06-23T12:05:11Z"}
