{"icao":"LPAR","metar":"LPAR 160900Z 04011KT CAVOK 14/08 Q1020","updated":"2026-03-16T10:05:36Z"}
