{"icao":"LPST","metar":"LPST 200900Z VRB01KT CAVOK 09/07 Q1031","updated":"2026-02-20T09:38:57Z"}
