{"icao":"LPPT","metar":"LPPT 051500Z 35014G25KT 300V020 9999 FEW038 10/M00 Q1014","updated":"2026-01-05T15:22:35Z"}
