{"icao":"LPAZ","metar":"LPAZ 041700Z 28004KT 240V310 9999 OVC048 16/08 Q1023","updated":"2026-04-04T17:28:28Z"}
