{"icao":"LPPS","metar":"LPPS 191000Z 01015KT 9999 SCT015 17/11 Q1026","updated":"2025-12-19T10:22:01Z"}
