{"icao":"KORD","metar":"KORD 071506Z 22017G33KT 10SM BKN015 BKN150 OVC210 16/13 A2967 RMK AO2 PK WND 21033/1457 T01610128","updated":"2026-03-07T15:22:03Z"}
