{"icao":"KLAX","metar":"KLAX 102253Z 26016KT 10SM FEW095 SCT130 BKN220 BKN280 22/14 A2980 RMK AO2 SLP090 T02220144 $","updated":"2025-10-10T23:15:47Z"}
