{"icao":"LPPD","metar":"LPPD 132200Z 20005KT 9999 SCT017 20/16 Q1014","updated":"2025-10-13T22:16:33Z"}
