{"icao":"LPPT","metar":"LPPT 041730Z 34020KT 9999 FEW036 20/10 Q1018 WS R02","updated":"2026-06-04T17:45:55Z"}
