{"icao":"LPFR","metar":"LPFR 201230Z 23006KT 200V260 CAVOK 15/08 Q1028","updated":"2026-02-20T12:56:00Z"}
