{"icao":"LPBJ","metar":"LPBJ 042200Z 23008KT CAVOK 10/09 Q1022","updated":"2025-12-04T22:16:25Z"}
