{"icao":"KJFK","metar":"KJFK 201113Z 08011KT 10SM BKN028 OVC065 03/01 A2990 RMK AO2 T00330011 $","updated":"2026-02-20T11:31:30Z"}
