{"icao":"KORD","metar":"KORD 061651Z 34010G18KT 10SM SCT014 OVC018 02/M02 A2981 RMK AO2 SLP102 T00171017 $","updated":"2026-02-06T17:40:27Z"}
