{"icao":"LPHR","metar":"LPHR 191500Z 23004KT 200V260 9999 FEW030 16/10 Q1031","updated":"2026-01-19T15:25:32Z"}
