{"icao":"LPMR","metar":"LPMR 150800Z 20003KT 5000 BR FEW002 12/12 Q1017","updated":"2025-10-15T08:25:11Z"}
