{"icao":"LPFR","metar":"LPFR 041600Z 10011KT CAVOK 23/03 Q1020","updated":"2026-04-04T16:34:06Z"}
