{"icao":"LPCS","metar":"LPCS 140800Z VRB02KT CAVOK 19/12 Q1017","updated":"2025-10-14T08:22:03Z"}
