{"icao":"LPPR","metar":"LPPR 160500Z 30008KT 270V340 6000 SHRA FEW011 SCT017CB BKN030 09/08 Q1013","updated":"2026-01-16T05:23:58Z"}
