{"icao":"LPMT","metar":"LPMT 162200Z 33008KT CAVOK 21/15 Q1016","updated":"2026-06-16T22:09:42Z"}
