{"icao":"KORD","metar":"KORD 260451Z 18008KT 10SM BKN250 22/09 A3005 RMK AO2 SLP171 T02170094 $","updated":"2026-05-26T05:02:36Z"}
