{"icao":"LPMT","metar":"LPMT 290800Z 25018G28KT 4000 -RA BR BKN006 BKN015 16/16 Q1008","updated":"2026-01-29T08:37:40Z"}
