{"icao":"KORD","metar":"KORD 241951Z 18007KT 10SM OVC160 10/04 A2999 RMK AO2 SLP158 T01000044","updated":"2025-11-24T20:21:59Z"}
