{"icao":"KJFK","metar":"KJFK 161951Z 18018KT 10SM FEW250 20/10 A2999 RMK AO2 PK WND 17028/1941 SLP154 T02000100","updated":"2026-05-16T20:43:22Z"}
