{"icao":"KLAX","metar":"KLAX 302053Z 25011KT 10SM FEW019 BKN160 OVC250 21/14 A3001 RMK AO2 SLP163 T02060144 56011","updated":"2026-03-30T21:40:57Z"}
