{"icao":"KJFK","metar":"KJFK 040351Z 25010KT 10SM FEW250 17/12 A3024 RMK AO2 SLP241 T01670122","updated":"2025-10-04T04:19:55Z"}
