{"icao":"LPPS","metar":"LPPS 111230Z 02005KT 9999 SCT013 16/12 Q1027","updated":"2026-01-11T12:39:06Z"}
