{"icao":"LPPR","metar":"LPPR 200600Z 17003KT 130V200 1200 0400S R17/P2000 BR BCFG VV002 17/17 Q1019","updated":"2025-09-20T06:23:50Z"}
