{"icao":"KORD","metar":"KORD 030751Z 10005KT 10SM BKN160 02/M07 A3019 RMK AO2 SLP230 T00221072 $","updated":"2026-03-03T08:39:45Z"}
