{"icao":"LPPR","metar":"LPPR 161800Z 27003KT 210V360 9999 -SHRA SCT011 FEW022CB BKN027 15/14 Q1007 RESHRA","updated":"2025-11-16T18:24:08Z"}
