{"icao":"KORD","metar":"KORD 142006Z 34015G24KT 8SM -SN SCT012 BKN023 BKN050 M07/M13 A2988 RMK AO2 P0000 T10721128 $","updated":"2026-01-14T20:20:37Z"}
