{"icao":"KORD","metar":"KORD 250906Z 17003KT 2SM RA BR OVC012 08/07 A2982 RMK AO2 P0006 T00830072","updated":"2025-11-25T09:23:02Z"}
