{"icao":"KJFK","metar":"KJFK 031951Z 28008KT 10SM BKN049 BKN250 00/M08 A3014 RMK AO2 SLP207 T00001083 PNO $","updated":"2026-02-03T20:34:29Z"}
