{"icao":"LPPT","metar":"LPPT 051930Z 24013KT 9999 SCT025 FEW030CB 13/10 Q1001 WS R20","updated":"2026-02-05T19:35:47Z"}
