{"icao":"LPAZ","metar":"LPAZ 230600Z 19005KT 130V210 9999 FEW010 BKN028 16/13 Q1029","updated":"2025-11-23T06:26:39Z"}
