{"icao":"LPOV","metar":"LPOV 301300Z 30007KT 250V340 CAVOK 22/13 Q1019","updated":"2025-09-30T13:27:43Z"}
