{"icao":"LPMT","metar":"LPMT 092200Z 21009KT 150V240 9999 FEW020 16/11 Q1009","updated":"2026-05-09T22:41:23Z"}
