{"icao":"LPOV","metar":"LPOV 121200Z 20007KT 150V240 5000 RA BR BKN008 BKN012 15/14 Q1004","updated":"2025-11-12T12:39:14Z"}
