{"icao":"KORD","metar":"KORD 150451Z 03011KT 10SM FEW017 OVC060 16/12 A3028 RMK AO2 SLP252 T01560117 $","updated":"2025-10-15T05:17:34Z"}
