{"icao":"KLAX","metar":"KLAX 051853Z 34015G30KT 10SM FEW050 21/00 A2997 RMK AO2 PK WND 32033/1801 SLP147 T02060000","updated":"2026-03-05T19:50:43Z"}
