{"icao":"LPFR","metar":"LPFR 140900Z 16005KT 9999 FEW020 BKN026 22/15 Q1017","updated":"2026-06-14T09:31:08Z"}
