{"icao":"LPMT","metar":"LPMT 312300Z 03010KT CAVOK 16/10 Q1023","updated":"2026-03-31T23:33:14Z"}
