{"icao":"LPMA","metar":"LPMA 130700Z 35012KT 9999 FEW015 17/07 Q1022","updated":"2026-02-13T07:08:44Z"}
