{"icao":"KLAX","metar":"KLAX 301353Z 03008KT 10SM SCT150 BKN200 17/M03 A3007 RMK AO2 SLP179 T01721033 $","updated":"2025-12-30T14:20:21Z"}
