{"icao":"KORD","metar":"KORD 121751Z 12003KT 10SM OVC075 02/M06 A3029 RMK AO2 SLP264 T00171056 10022 21044 50001","updated":"2026-02-12T17:57:14Z"}
