{"icao":"LPCS","metar":"LPCS 291430Z 28011KT 240V310 3500 -DZRA BR FEW002 BKN004 15/15 Q1010","updated":"2026-01-29T14:49:41Z"}
