{"icao":"KORD","metar":"KORD 060151Z 20007KT 10SM OVC028 M02/M06 A2980 RMK AO2 SLP102 T10171061 $","updated":"2026-02-06T01:58:48Z"}
