{"icao":"LPMA","metar":"LPMA 202300Z 23003KT 9999 SCT015 23/21 Q1019","updated":"2025-10-20T23:15:58Z"}
