{"icao":"LPMR","metar":"LPMR 261500Z 27012KT 9999 SCT030 25/16 Q1018","updated":"2026-06-26T15:22:02Z"}
