{"icao":"LPPR","metar":"LPPR 210300Z 00000KT CAVOK 05/03 Q1026","updated":"2025-11-21T03:09:16Z"}
