{"icao":"LPHR","metar":"LPHR 231630Z 25024G36KT 9000 SCT013 SCT030 17/13 Q1005","updated":"2026-02-23T16:56:16Z"}
