{"icao":"LPBJ","metar":"LPBJ 042200Z 24005KT CAVOK 15/10 Q1022","updated":"2026-04-04T22:28:12Z"}
