{"icao":"KJFK","metar":"KJFK 281651Z 27019G29KT 10SM FEW050 SCT110 SCT250 06/M08 A2993 RMK AO2 PK WND 27032/1616 SLP135 T00561078 $","updated":"2025-11-28T17:16:24Z"}
