{"icao":"KLAX","metar":"KLAX 070153Z 25011KT 10SM FEW010 18/13 A2998 RMK AO2 SLP150 T01780133 $","updated":"2026-04-07T02:14:24Z"}
