{"icao":"KJFK","metar":"KJFK 071051Z 33010KT 10SM FEW017 BKN070 BKN220 11/07 A2983 RMK AO2 RAE26 SLP102 P0000 T01060072","updated":"2026-05-07T11:45:39Z"}
