{"icao":"KJFK","metar":"KJFK 311051Z 21006KT 10SM FEW043 SCT075 BKN090 BKN250 10/08 A3006 RMK AO2 SLP179 T01000078","updated":"2026-03-31T11:48:45Z"}
