{"icao":"LPMA","metar":"LPMA 310330Z 01014G25KT 310V030 9999 FEW015 20/04 Q1023","updated":"2026-05-31T03:41:34Z"}
