{"icao":"LPPR","metar":"LPPR 301700Z 26013G26KT 190V310 8000 -SHRA SCT012 FEW020CB BKN045 12/09 Q1005 RERA","updated":"2026-01-30T17:32:13Z"}
