{"icao":"LPBJ","metar":"LPBJ 041500Z 32007KT 280V010 CAVOK 28/10 Q1021","updated":"2025-10-04T15:14:24Z"}
