{"icao":"KORD","metar":"KORD 212151Z 20006KT 10SM SCT040TCU BKN085 BKN120 BKN250 27/18 A2985 RMK AO2 LTG DSNT N AND NE AND S SLP104 TCU OHD T02720178 $","updated":"2025-09-21T22:15:22Z"}
