{"icao":"LPOV","metar":"LPOV 161000Z 01008KT 340V040 CAVOK 17/05 Q1019","updated":"2026-05-16T10:13:08Z"}
