{"icao":"LPPS","metar":"LPPS 271900Z 02010KT 350V050 9999 FEW015 22/16 Q1023","updated":"2026-06-27T19:18:26Z"}
