{"icao":"LPPD","metar":"LPPD 311700Z 24015KT 2000 1200NW -DZ BR SCT002 BKN003 17/16 Q1016","updated":"2026-01-31T17:22:19Z"}
