{"icao":"LPPD","metar":"LPPD 281000Z 03009KT 360V070 9999 FEW020 BKN040 20/14 Q1028","updated":"2026-06-28T10:25:49Z"}
