{"icao":"LPBJ","metar":"LPBJ 192200Z 20003KT 160V220 CAVOK 23/17 Q1020","updated":"2025-09-19T22:16:00Z"}
