{"icao":"LPMA","metar":"LPMA 160700Z 02009KT 9999 VCSH BKN015 15/12 Q1017","updated":"2026-03-16T07:15:21Z"}
