{"icao":"LPMA","metar":"LPMA 052300Z 15004KT 040V200 9999 FEW014 20/16 Q1023","updated":"2026-06-05T23:07:20Z"}
