{"icao":"LPBJ","metar":"LPBJ 300100Z 18007KT 8000 VCFG FEW005 SCT020 11/11 Q1016","updated":"2025-11-30T01:42:24Z"}
