{"icao":"LPCS","metar":"LPCS 250930Z VRB04KT 6000 SHRA FEW002 BKN005 14/13 Q1016","updated":"2026-02-25T09:53:12Z"}
