{"icao":"LPST","metar":"LPST 271600Z 28007KT 250V320 CAVOK 26/12 Q1018","updated":"2026-05-27T19:23:03Z"}
