{"icao":"KORD","metar":"KORD 230751Z 29013G21KT 10SM FEW025 BKN220 M17/M25 A3037 RMK AO2 PK WND 30027/0719 SLP300 T11721250 $","updated":"2026-01-23T08:29:32Z"}
