{"icao":"LPPS","metar":"LPPS 101530Z 35021G32KT 6000 SCT008 SCT030 16/14 Q1018","updated":"2026-04-10T15:52:18Z"}
