{"icao":"LPMT","metar":"LPMT 271800Z 25007KT 9999 SCT036 20/17 Q1018","updated":"2025-10-27T18:26:59Z"}
