{"icao":"LPLA","metar":"LPLA 211600Z 12006KT 090V150 9999 BKN035 17/08 Q1032","updated":"2025-11-21T16:23:53Z"}
