{"icao":"LPPT","metar":"LPPT 180700Z VRB02KT CAVOK 19/14 Q1020","updated":"2025-09-18T07:16:25Z"}
