{"icao":"LPMR","metar":"LPMR 252300Z VRB01KT CAVOK 09/08 Q1025","updated":"2025-11-25T23:16:58Z"}
