{"icao":"LPAZ","metar":"LPAZ 222100Z 04012G23KT 360V070 9999 FEW021 BKN030 14/10 Q1020","updated":"2026-03-22T21:24:53Z"}
