{"icao":"LPBJ","metar":"LPBJ 291000Z 30005KT 250V350 CAVOK 26/15 Q1021","updated":"2026-06-29T10:55:18Z"}
