{"icao":"LPHR","metar":"LPHR 230900Z 28004KT 240V310 9999 FEW012 21/19 Q1014","updated":"2025-10-23T09:19:47Z"}
