{"icao":"LPBJ","metar":"LPBJ 101700Z 25018KT 9999 SCT040 19/08 Q1012","updated":"2026-05-10T17:51:06Z"}
