{"icao":"KLAX","metar":"KLAX 181853Z 26015G25KT 10SM FEW031 FEW046 SCT075 SCT240 14/01 A3006 RMK AO2 SLP177 T01390011","updated":"2026-02-18T19:47:18Z"}
