{"icao":"KJFK","metar":"KJFK 021951Z 27011KT 10SM SCT046 BKN065 BKN120 M01/M11 A2975 RMK AO2 SLP072 T10111111 $","updated":"2026-01-02T20:21:25Z"}
