{"icao":"KJFK","metar":"KJFK 221851Z 35008KT 10SM FEW018 SCT028 BKN034 10/05 A2986 RMK AO2 SLP109 T01000050","updated":"2025-11-22T19:13:58Z"}
