{"icao":"KJFK","metar":"KJFK 090451Z 35011KT 10SM FEW170 SCT250 M06/M20 A3030 RMK AO2 SLP258 T10561200 400391056 $","updated":"2025-12-09T05:19:08Z"}
