{"icao":"LPMA","metar":"LPMA 030800Z 33013G26KT 270V020 9999 SCT015 FEW018CB 16/10 Q0998","updated":"2026-01-03T08:25:46Z"}
