{"icao":"LPLA","metar":"LPLA 291300Z 17009KT 150V210 9999 SCT025 16/09 Q1005","updated":"2026-04-29T13:53:07Z"}
