{"icao":"LPOV","metar":"LPOV 271000Z 28006KT 9999 FEW004 19/16 Q1015","updated":"2026-04-27T11:02:29Z"}
