{"icao":"LPOV","metar":"LPOV 081400Z 23011KT 9999 SCT025 19/09 Q1009","updated":"2026-05-08T15:20:18Z"}
