{"icao":"LPMA","metar":"LPMA 221400Z 02008KT 330V060 9999 FEW015 19/10 Q1022","updated":"2025-12-22T14:20:06Z"}
