{"icao":"KORD","metar":"KORD 130513Z 22010KT 5SM -RA BR BKN009 BKN021 OVC030 16/15 A2977 RMK AO2 P0002 T01610150 $","updated":"2026-04-13T05:40:52Z"}
