{"icao":"KJFK","metar":"KJFK 231651Z 24006KT 10SM BKN049 BKN120 BKN250 08/01 A2997 RMK AO2 SLP149 T00780011","updated":"2025-11-23T17:15:01Z"}
