{"icao":"LPAR","metar":"LPAR 261200Z 05007KT 020V090 CAVOK 14/06 Q1026","updated":"2025-11-26T12:40:32Z"}
