{"icao":"LPBJ","metar":"LPBJ 180900Z 08005KT CAVOK 19/14 Q1018","updated":"2025-10-18T09:16:40Z"}
