{"icao":"LPPR","metar":"LPPR 192300Z 00000KT 7000 -RADZ FEW002 SCT006 BKN025 17/16 Q1013","updated":"2025-10-19T23:15:31Z"}
