{"icao":"LPPT","metar":"LPPT 040300Z 25009KT 9999 FEW036 13/12 Q1022","updated":"2025-12-04T03:17:55Z"}
