{"icao":"LPPR","metar":"LPPR 181000Z 26004KT 230V330 CAVOK 20/15 Q1021","updated":"2025-09-18T10:18:15Z"}
