{"icao":"LPCS","metar":"LPCS 230800Z 03008KT CAVOK 17/05 Q1018","updated":"2025-09-23T08:22:49Z"}
