{"icao":"KJFK","metar":"KJFK 180551Z 29005KT 6SM BR BKN170 BKN250 00/M01 A3010 RMK AO2 SLP194 T00001011 10011 21022 58010 $","updated":"2026-01-18T06:29:41Z"}
