{"icao":"KLAX","metar":"KLAX 200053Z 25005KT 10SM FEW250 17/12 A2996 RMK AO2 SLP146 T01670122 $","updated":"2026-01-20T01:41:44Z"}
