{"icao":"KORD","metar":"KORD 040651Z 30005KT 10SM BKN250 07/M04 A3024 RMK AO2 SLP241 T00671039 $","updated":"2025-11-04T07:18:27Z"}
