{"icao":"LPPT","metar":"LPPT 071000Z 33010KT 290V350 9999 FEW028 13/08 Q1019","updated":"2026-03-07T10:22:11Z"}
