{"icao":"KJFK","metar":"KJFK 270751Z 05011KT 1 1/2SM -SN BR BKN006 BKN010 OVC017 M01/M02 A2989 RMK AO2 TWR VIS 2 SLP119 SNINCR 1/4 P0003 T10111017 $","updated":"2025-12-27T08:25:42Z"}
