{"icao":"LPAR","metar":"LPAR 070900Z 24007KT 8000 VCSH FEW017 BKN030 18/16 Q1016","updated":"2025-11-07T09:19:05Z"}
