{"icao":"LPFR","metar":"LPFR 231700Z 26017KT CAVOK 23/20 Q1018","updated":"2025-10-23T17:15:46Z"}
