{"icao":"LPPS","metar":"LPPS 300800Z 01010KT 9999 FEW015 BKN030 21/14 Q1021","updated":"2025-09-30T08:25:24Z"}
