{"icao":"KORD","metar":"KORD 030751Z 25003KT 10SM FEW030 BKN110 M06/M10 A3017 RMK AO2 SLP225 T10611100","updated":"2026-02-03T08:35:17Z"}
