{"icao":"KORD","metar":"KORD 231351Z 25008KT 10SM BKN250 03/00 A3001 RMK AO2 SLP167 T00330000","updated":"2025-12-23T14:20:31Z"}
