{"icao":"LPPD","metar":"LPPD 170000Z 20006KT 9999 FEW003 BKN005 20/19 Q1020","updated":"2026-06-17T00:14:34Z"}
