{"icao":"KORD","metar":"KORD 090651Z 00000KT 10SM FEW040 11/06 A3043 RMK AO2 SLP305 T01110056 $","updated":"2025-10-09T07:17:45Z"}
