{"icao":"LPPD","metar":"LPPD 022000Z 02009KT 360V060 9999 FEW018 BKN030 14/09 Q1029","updated":"2026-04-02T20:33:55Z"}
