{"icao":"LPPR","metar":"LPPR 070700Z 02003KT 340V080 CAVOK 05/02 Q1019","updated":"2026-03-07T07:27:25Z"}
