{"icao":"LPLA","metar":"LPLA 162300Z 20003KT 160V230 9999 FEW030 SCT040 15/11 Q1028","updated":"2026-05-16T23:51:37Z"}
