{"icao":"LPPD","metar":"LPPD 271330Z 13008KT 080V150 9999 FEW025 17/09 Q1035","updated":"2026-02-27T14:01:07Z"}
