{"icao":"LPFR","metar":"LPFR 041000Z 09010KT CAVOK 20/06 Q1023","updated":"2026-04-04T10:31:48Z"}
