{"icao":"KLAX","metar":"KLAX 232253Z 25013KT 10SM FEW095 FEW250 21/10 A2992 RMK AO2 SLP130 T02060100 $","updated":"2026-04-23T23:43:27Z"}
