{"icao":"LPPS","metar":"LPPS 100400Z 31003KT 9999 SCT015 20/14 Q1021","updated":"2025-11-10T04:26:13Z"}
