{"icao":"LPAR","metar":"LPAR 141400Z 35013KT 320V030 9999 SCT030 14/05 Q1027","updated":"2026-02-14T14:25:29Z"}
