{"icao":"LPMA","metar":"LPMA 271700Z 03010KT 340V060 9999 SCT016 19/12 Q1021","updated":"2025-11-27T17:15:44Z"}
