{"icao":"LPPS","metar":"LPPS 030230Z 07008KT 9999 SCT015 21/18 Q1023","updated":"2025-10-03T02:55:16Z"}
