{"icao":"KJFK","metar":"KJFK 191551Z 33009KT 10SM FEW050 SCT180 28/14 A2998 RMK AO2 SLP153 T02780139 $","updated":"2025-09-19T16:20:42Z"}
