{"icao":"KORD","metar":"KORD 291651Z 35006KT 10SM FEW030 SCT250 M11/M20 A3032 RMK AO2 SLP281 T11111200","updated":"2026-01-29T17:36:04Z"}
