{"icao":"LPAZ","metar":"LPAZ 300900Z 17009KT 9999 FEW016 SCT048 22/19 Q1023","updated":"2025-09-30T09:18:51Z"}
