{"icao":"KORD","metar":"KORD 091551Z 14008KT 10SM FEW040 15/04 A3049 RMK AO2 SLP325 T01500039","updated":"2025-10-09T16:23:43Z"}
