{"icao":"LPHR","metar":"LPHR 141300Z 33003KT 260V010 9999 SCT013 FEW015CB SCT035 BKN080 19/14 Q1005","updated":"2025-10-14T13:29:02Z"}
