{"icao":"LPMA","metar":"LPMA 062000Z 34005KT 310V010 9999 FEW015 BKN025 17/12 Q1024","updated":"2025-12-06T20:19:37Z"}
