{"icao":"KLAX","metar":"KLAX 101653Z 00000KT 10SM FEW009 OVC023 16/11 A3010 RMK AO2 SLP191 T01560111 $","updated":"2026-03-10T17:00:47Z"}
