{"icao":"LPMA","metar":"LPMA 010700Z 22010KT 9999 SCT015 21/16 Q1015","updated":"2025-11-01T07:15:55Z"}
