{"icao":"LPCS","metar":"LPCS 111100Z 09009KT 050V120 CAVOK 24/14 Q1020","updated":"2025-10-11T11:12:49Z"}
