{"icao":"LPPR","metar":"LPPR 301330Z 28007KT 220V330 8000 SCT020 BKN046 15/10 Q1005","updated":"2026-01-30T13:55:00Z"}
