{"icao":"LPPD","metar":"LPPD 081330Z 24016KT 1800 0900NW PRFG SCT000 BKN200 17/16 Q1015","updated":"2026-02-08T13:43:02Z"}
