{"icao":"LPMA","metar":"LPMA 042200Z 01011KT 310V050 9999 BKN015 FEW018TCU 17/12 Q1013","updated":"2026-01-04T22:19:08Z"}
