{"icao":"LPPR","metar":"LPPR 281000Z 03007KT 340V060 CAVOK 10/05 Q1028","updated":"2026-02-28T10:21:44Z"}
