{"icao":"LPPT","metar":"LPPT 210230Z 22009KT 9000 -DZ BKN003 19/19 Q1014","updated":"2025-10-21T03:04:25Z"}
