{"icao":"KJFK","metar":"KJFK 091151Z 36013KT 10SM FEW032 11/05 A3040 RMK AO2 SLP295 70012 T01110050 10139 20111 52028","updated":"2025-10-09T12:37:53Z"}
