{"icao":"KORD","metar":"KORD 070651Z 18010KT 10SM CLR 17/15 A2975 RMK AO2 SLP075 T01670150","updated":"2026-03-07T07:27:29Z"}
