{"icao":"LPBJ","metar":"LPBJ 231600Z 19007KT CAVOK 23/08 Q1022","updated":"2026-02-23T16:56:11Z"}
