{"icao":"LPLA","metar":"LPLA 121900Z 29025KT 9999 FEW025 15/07 Q1020","updated":"2026-02-12T19:08:37Z"}
