{"icao":"LPMT","metar":"LPMT 231000Z 25007KT 200V290 9999 VCSH FEW020 FEW025CB SCT032 11/09 Q1003","updated":"2026-01-23T11:19:36Z"}
