{"icao":"LPAZ","metar":"LPAZ 282330Z 15016KT 9000 -RA FEW005 SCT019 BKN031 16/15 Q1013","updated":"2026-04-28T23:58:10Z"}
