{"icao":"LPMR","metar":"LPMR 061400Z 29009KT CAVOK 26/11 Q1019","updated":"2025-10-06T14:17:29Z"}
