{"icao":"KORD","metar":"KORD 100551Z 32018G27KT 10SM -SN FEW016 OVC050 M02/M08 A3013 RMK AO2 PK WND 33029/0525 SNB0459 SLP210 VIS E-SE 2 P0000 60002 T10221083 11011 21033 400391033 56019 $","updated":"2025-11-10T06:31:01Z"}
