{"icao":"LPMA","metar":"LPMA 152200Z 02012KT 350V050 9999 SCT016 16/12 Q1032","updated":"2026-02-15T22:22:23Z"}
