{"icao":"LPLA","metar":"LPLA 211100Z 30010KT 6000 -RA SCT016 SCT030 14/13 Q1013","updated":"2026-05-21T11:21:44Z"}
