{"icao":"LPFR","metar":"LPFR 302300Z 02010KT CAVOK 13/07 Q1018","updated":"2025-11-30T23:17:02Z"}
