{"icao":"LPPR","metar":"LPPR 021330Z 19011KT 9999 FEW020 16/10 Q1009","updated":"2026-03-02T14:00:33Z"}
