{"icao":"LPCS","metar":"LPCS 172000Z 01013KT CAVOK 18/11 Q1016","updated":"2026-04-17T22:40:00Z"}
