{"icao":"KORD","metar":"KORD 231551Z 31005KT 10SM FEW200 09/01 A3016 RMK AO2 SLP214 T00890006","updated":"2025-11-23T16:21:24Z"}
