{"icao":"LPFL","metar":"LPFL 012000Z 16003KT 080V200 9999 FEW010 24/19 Q1018","updated":"2025-10-01T21:15:26Z"}
