{"icao":"LPHR","metar":"LPHR 260800Z 05014G30KT 020V080 9999 FEW016 SCT035 18/11 Q1023","updated":"2025-10-26T08:21:04Z"}
