{"icao":"LPHR","metar":"LPHR 262200Z 29033G55KT 250V310 9999 FEW020 SCT035 11/05 Q1008","updated":"2026-01-26T22:20:56Z"}
