{"icao":"LPPD","metar":"LPPD 020800Z 33015G26KT 300V360 9999 SCT018 FEW022CB 13/09 Q1004 WS ALL RWY","updated":"2026-01-02T08:28:05Z"}
