{"icao":"LPMT","metar":"LPMT 171200Z 27003KT 220V310 9999 FEW020 BKN030 15/10 Q1028","updated":"2026-02-17T13:00:56Z"}
