{"icao":"LPOV","metar":"LPOV 231100Z 30012KT 250V330 7000 -TSRA SCT020 FEW024CB BKN035 09/07 Q0999 RERA","updated":"2026-01-23T12:44:01Z"}
