{"icao":"LPFR","metar":"LPFR 080400Z 32005KT CAVOK 18/14 Q1021","updated":"2025-10-08T04:20:24Z"}
