{"icao":"LPMA","metar":"LPMA 180200Z 01004KT 320V030 9000 -SHRA BKN013 FEW018CB 14/12 Q1002 RERA","updated":"2026-03-18T02:05:42Z"}
