{"icao":"LPAR","metar":"LPAR 311700Z 22009KT 9000 VCSH BKN018 BKN030 20/19 Q1012","updated":"2025-10-31T17:16:53Z"}
