{"icao":"LPAR","metar":"LPAR 160900Z 10004KT 040V150 CAVOK 17/13 Q1021","updated":"2026-04-16T09:17:39Z"}
