{"icao":"LPLA","metar":"LPLA 132100Z 32008KT 9999 FEW023 SCT035 19/16 Q1021","updated":"2026-06-13T22:02:37Z"}
