{"icao":"LPFR","metar":"LPFR 050130Z 27006KT CAVOK 12/09 Q1006","updated":"2026-01-05T01:49:08Z"}
