{"icao":"LPBJ","metar":"LPBJ 191100Z 21008KT 180V240 CAVOK 23/15 Q1017","updated":"2025-10-19T11:13:00Z"}
