{"icao":"KJFK","metar":"KJFK 270251Z 36006KT 10SM FEW250 09/01 A3039 RMK AO2 SLP289 T00890006 50003","updated":"2025-10-27T03:18:43Z"}
