{"icao":"LPMA","metar":"LPMA 201700Z 29003KT 230V350 9999 SCT016 17/07 Q1024","updated":"2026-01-20T17:28:16Z"}
