{"icao":"LPBJ","metar":"LPBJ 272100Z VRB01KT CAVOK 09/03 Q1023","updated":"2025-11-27T21:16:39Z"}
