{"icao":"KORD","metar":"KORD 091751Z 13008KT 10SM FEW044 17/04 A3045 RMK AO2 SLP311 T01720039 10172 20078 58014","updated":"2025-10-09T18:25:37Z"}
