{"icao":"KORD","metar":"KORD 170051Z 25014G36KT 10SM SCT038 BKN085 BKN120 OVC250 01/M06 A2963 RMK AO2 PK WND 24036/0045 GSB01E09SNE15 TSB2352E09 SLP040 P0002 T00111061 $","updated":"2026-01-17T01:28:33Z"}
