{"icao":"LPOV","metar":"LPOV 030600Z VRB02KT CAVOK 07/07 Q1023","updated":"2025-11-03T06:29:05Z"}
