{"icao":"LPPD","metar":"LPPD 092300Z 20011KT 9999 FEW010 SCT018 17/15 Q1027","updated":"2026-01-09T23:18:51Z"}
