{"icao":"LPCS","metar":"LPCS 110730Z 25012KT 220V280 0800 -DZ FG VV002 15/15 Q1017","updated":"2026-02-11T07:58:30Z"}
