{"icao":"LPBJ","metar":"LPBJ 022300Z 30008KT CAVOK 17/10 Q1021","updated":"2026-06-02T23:43:47Z"}
