{"icao":"KJFK","metar":"KJFK 151151Z 25011KT 10SM -RA FEW046 BKN070 OVC100 06/03 A2938 RMK AO2 RAB36 SLP948 P0000 60000 T00560028 10061 20044 53005 $","updated":"2026-01-15T12:44:02Z"}
