{"icao":"LPOV","metar":"LPOV 041400Z 15012KT 120V180 CAVOK 22/12 Q1012","updated":"2025-11-04T14:19:02Z"}
