{"icao":"LPPD","metar":"LPPD 102230Z 22016KT 4000 BR SCT003 BKN005 17/16 Q1012","updated":"2026-02-10T22:37:57Z"}
