{"icao":"LPCS","metar":"LPCS 161300Z 26010G20KT 240V300 9999 SCT022 FEW025CB 18/13 Q1012","updated":"2025-11-16T13:22:40Z"}
