{"icao":"KJFK","metar":"KJFK 100451Z 19004KT 1/4SM R04R/2400V3500FT BR OVC002 14/14 A2971 RMK AO2 SFC VIS 1 1/2 SLP061 T01440144 401670100 $","updated":"2025-11-10T05:18:59Z"}
