{"icao":"LPOV","metar":"LPOV 281200Z 08004KT 040V110 9999 -RA FEW020 FEW022TCU SCT032 BKN040 18/16 Q1013","updated":"2025-10-28T12:37:39Z"}
