{"icao":"LPCS","metar":"LPCS 200730Z 12003KT 080V140 9000 4000NW VCSH FEW006 SCT012 BKN018 13/12 Q1007","updated":"2026-03-20T07:44:30Z"}
