{"icao":"LPHR","metar":"LPHR 131400Z 26010KT 9999 FEW016 SCT032 17/12 Q1025","updated":"2026-01-13T14:24:22Z"}
