{"icao":"KLAX","metar":"KLAX 041753Z VRB03KT 10SM FEW190 FEW280 19/M02 A3021 RMK AO2 SLP228 T01941022 10194 20128 52020 $","updated":"2025-12-04T18:31:02Z"}
