{"icao":"LPPR","metar":"LPPR 161000Z 23013KT 9999 VCSH SCT017 SCT020CB 15/12 Q1008","updated":"2025-11-16T10:17:32Z"}
