{"icao":"LPFL","metar":"LPFL 181230Z 16013KT 9999 FEW028 16/10 Q1024","updated":"2026-02-18T13:01:43Z"}
