{"icao":"LPPD","metar":"LPPD 091600Z 15007KT 130V190 9999 SCT014 22/21 Q1023","updated":"2025-10-09T16:23:21Z"}
