{"icao":"LPBJ","metar":"LPBJ 251400Z 27019KT 9999 SCT024 15/10 Q1015","updated":"2026-01-25T14:18:01Z"}
