{"icao":"KORD","metar":"KORD 272251Z 29011G17KT 10SM FEW035 M11/M20 A3023 RMK AO2 SLP250 T11111200","updated":"2026-01-27T23:20:43Z"}
