{"icao":"LPMA","metar":"LPMA 181200Z 15005KT 110V190 9999 FEW015 BKN025 22/17 Q1021","updated":"2026-06-18T12:24:20Z"}
