{"icao":"LPFR","metar":"LPFR 221900Z 01007KT CAVOK 14/01 Q1027","updated":"2025-11-22T19:13:41Z"}
