{"icao":"LPAR","metar":"LPAR 030900Z 23004KT 200V260 9999 FEW020 09/08 Q1002","updated":"2026-02-03T09:39:24Z"}
