{"icao":"LPBJ","metar":"LPBJ 311200Z 09006KT 8000 2100N VCFG FEW005 09/09 Q1019","updated":"2025-12-31T12:40:34Z"}
