{"icao":"LPLA","metar":"LPLA 012008Z 02005KT 290V100 7000 -DZ SCT007 BKN014 BKN030 14/12 Q1032","updated":"2026-04-01T20:56:11Z"}
