{"icao":"LPMR","metar":"LPMR 190700Z 17004KT CAVOK 02/02 Q1020","updated":"2026-01-19T07:27:51Z"}
