{"icao":"LPPT","metar":"LPPT 280330Z 21040G59KT 2000 RA BR FEW005 BKN007 FEW015TCU 13/13 Q0991","updated":"2026-01-28T03:43:47Z"}
