{"icao":"LPFL","metar":"LPFL 240730Z 34011G22KT 300V010 9999 FEW011 BKN016 19/16 Q1021","updated":"2026-06-24T07:39:06Z"}
