{"icao":"LPST","metar":"LPST 091100Z 26014KT 3000 -RADZ BR OVC004 15/14 Q1013","updated":"2026-02-09T11:42:40Z"}
