{"icao":"KLAX","metar":"KLAX 071053Z 00000KT 8SM CLR 12/08 A3008 RMK AO2 SLP185 T01170083 $","updated":"2025-12-07T11:14:25Z"}
