{"icao":"LPOV","metar":"LPOV 081700Z 31006KT 280V360 9999 FEW030 19/07 Q1007","updated":"2026-05-08T17:15:18Z"}
