{"icao":"LPPT","metar":"LPPT 091400Z 33007KT 290V010 CAVOK 22/15 Q1019","updated":"2025-10-09T14:17:34Z"}
