{"icao":"LPPT","metar":"LPPT 161900Z 31009KT CAVOK 23/07 Q1014","updated":"2025-10-16T19:12:38Z"}
