{"icao":"LPOV","metar":"LPOV 111500Z 16018G29KT 9999 SCT030 20/12 Q1007","updated":"2025-11-11T15:19:35Z"}
