{"icao":"LPBJ","metar":"LPBJ 131100Z 32004KT 260V030 9999 SCT003 10/10 Q1023","updated":"2026-03-13T11:30:21Z"}
