{"icao":"LPPR","metar":"LPPR 201200Z 29006KT 270V330 CAVOK 20/13 Q1023","updated":"2026-05-20T12:22:33Z"}
