{"icao":"KORD","metar":"KORD 242051Z 18007KT 10SM BKN120 OVC170 10/05 A2997 RMK AO2 SLP154 T01000050 56021","updated":"2025-11-24T21:18:05Z"}
