{"icao":"KJFK","metar":"KJFK 181551Z 04005KT 1 1/2SM R04R/5000VP6000FT -SN BR FEW004 BKN011 OVC019 01/00 A3005 RMK AO2 SLP176 P0000 T00060000 $","updated":"2026-01-18T16:23:22Z"}
