{"icao":"LPAR","metar":"LPAR 091700Z 27006KT 230V310 6000 -DZRA SCT009 BKN015 BKN025 17/16 Q1012","updated":"2026-02-10T02:23:32Z"}
