{"icao":"LPFL","metar":"LPFL 042000Z 31009G24KT 230V040 9999 FEW030 15/07 Q1014","updated":"2025-11-04T20:20:55Z"}
