{"icao":"LPBJ","metar":"LPBJ 070500Z 08001KT CAVOK 16/15 Q1021","updated":"2025-10-07T05:16:40Z"}
