{"icao":"KLAX","metar":"KLAX 071353Z 09005KT 7SM FEW250 13/12 A3017 RMK AO2 SLP214 T01330122 $","updated":"2026-02-07T14:24:34Z"}
