{"icao":"LPHR","metar":"LPHR 201230Z 27023KT 9999 FEW006 SCT012 BKN022 18/16 Q1025","updated":"2026-01-20T12:48:03Z"}
