{"icao":"LPHR","metar":"LPHR 031230Z 22006KT 9999 FEW005 BKN020 23/22 Q1022","updated":"2025-10-03T12:35:13Z"}
