{"icao":"LPPD","metar":"LPPD 282300Z 28012KT 9999 SCT005 BKN011 16/15 Q1029","updated":"2026-02-28T23:20:41Z"}
