{"icao":"LPPS","metar":"LPPS 302000Z 02010KT 9999 SCT015 17/10 Q1022","updated":"2025-11-30T20:20:27Z"}
