{"icao":"LPHR","metar":"LPHR 251530Z 28011KT 9999 VCSH BKN008 BKN015 16/15 Q1027","updated":"2026-02-25T16:01:11Z"}
