{"icao":"LPFR","metar":"LPFR 112000Z 33016KT CAVOK 17/11 Q1012","updated":"2026-04-11T20:31:49Z"}
