{"icao":"LPCS","metar":"LPCS 170830Z 28004KT 250V320 9999 FEW012 BKN020 13/09 Q1029","updated":"2026-02-17T08:42:35Z"}
