{"icao":"KJFK","metar":"KJFK 080451Z 33026G35KT 10SM FEW050 SCT090 BKN250 M14/M23 A3005 RMK AO2 PK WND 33036/0440 SLP174 T11441233 410221144 $","updated":"2026-02-08T05:02:19Z"}
