{"icao":"LPPT","metar":"LPPT 110100Z 05005KT CAVOK 21/11 Q1020","updated":"2025-10-11T01:15:33Z"}
