{"icao":"KORD","metar":"KORD 280251Z 30011G18KT 10SM FEW065 M02/M11 A3025 RMK AO2 PK WND 30026/0210 SLP251 T10221106 53005","updated":"2025-11-28T03:10:11Z"}
