{"icao":"LPAZ","metar":"LPAZ 300900Z 19008KT 6000 SCT001 BKN003 19/18 Q1026","updated":"2026-05-30T09:13:12Z"}
