{"icao":"KJFK","metar":"KJFK 062051Z 29015G27KT 10SM SCT070 SCT250 12/M04 A3008 RMK AO2 PK WND 31029/1953 SLP187 T01171044 53012 $","updated":"2025-11-06T21:16:20Z"}
