{"icao":"LPMR","metar":"LPMR 061300Z 02011KT 9999 FEW020 10/M00 Q1024","updated":"2026-01-06T13:36:30Z"}
