{"icao":"LPHR","metar":"LPHR 250830Z 28003KT 220V310 9999 -SHRA FEW005 SCT009 BKN014 15/14 Q1015","updated":"2026-04-25T08:51:44Z"}
