{"icao":"LPLA","metar":"LPLA 222300Z 36006KT 330V040 9999 BKN030 14/09 Q1024","updated":"2026-03-22T23:26:28Z"}
