{"icao":"LPMA","metar":"LPMA 171830Z 04004KT 360V100 9999 BKN013 17/12 Q1025","updated":"2026-02-17T18:56:35Z"}
