{"icao":"LPMA","metar":"LPMA 271230Z 21022KT 9999 SCT012 24/22 Q1016","updated":"2025-10-27T12:39:30Z"}
