{"icao":"LPMR","metar":"LPMR 172100Z 33006KT 8000 SCT010 17/17 Q1019","updated":"2026-06-17T21:09:29Z"}
