{"icao":"KORD","metar":"KORD 191251Z 31016G32KT 6SM -RA BR BKN014 BKN018 OVC023 10/08 A2959 RMK AO2 PK WND 30032/1244 SLP018 P0006 T01000078 $","updated":"2025-10-19T13:21:44Z"}
