{"icao":"LPCS","metar":"LPCS 021000Z 16015KT 9999 FEW006 BKN024 16/15 Q1002","updated":"2026-01-02T10:20:17Z"}
