{"icao":"KJFK","metar":"KJFK 031751Z 20009KT 10SM SCT008 OVC011 10/07 A3023 RMK AO2 SLP238 T01000072 10100 20061 58023","updated":"2026-04-03T18:45:00Z"}
