{"icao":"LPBJ","metar":"LPBJ 080400Z 29006KT 9999 FEW040 08/06 Q1013","updated":"2026-02-08T05:01:58Z"}
