{"icao":"LPMT","metar":"LPMT 301300Z 34008KT 310V030 CAVOK 17/05 Q1029","updated":"2026-03-30T13:16:34Z"}
