{"icao":"KLAX","metar":"KLAX 310653Z 00000KT 10SM FEW007 18/14 A2994 RMK AO2 SLP134 T01830144 $","updated":"2025-10-31T07:17:10Z"}
