{"icao":"LPMA","metar":"LPMA 121830Z 01017KT 9999 SCT016 17/11 Q1023","updated":"2026-03-12T18:52:40Z"}
