{"icao":"LPOV","metar":"LPOV 201500Z 33013KT CAVOK 14/07 Q1030","updated":"2026-02-20T15:36:02Z"}
