{"icao":"LPPS","metar":"LPPS 051730Z 34011KT 9999 FEW015 21/15 Q1022","updated":"2026-06-05T17:52:58Z"}
