{"icao":"KJFK","metar":"KJFK 201151Z 36005KT 10SM FEW037 BKN250 02/M02 A3026 RMK AO2 SLP246 70018 T00221022 10033 20017 51008 $","updated":"2025-11-20T12:38:27Z"}
