{"icao":"KJFK","metar":"KJFK 240051Z 26010KT 10SM BKN060 13/03 A3001 RMK AO2 SLP161 T01330028","updated":"2025-10-24T01:17:50Z"}
