{"icao":"KORD","metar":"KORD 182151Z 21009KT 10SM CLR 08/M01 A2997 RMK AO2 SLP154 T00781011 $","updated":"2026-03-18T22:31:15Z"}
