{"icao":"LPPD","metar":"LPPD 261100Z 26028G38KT 8000 -SHRA BKN014 FEW020CB 15/12 Q1005","updated":"2026-01-26T11:19:58Z"}
