{"icao":"LPMT","metar":"LPMT 070800Z 21007KT 180V240 9999 VCSH FEW018 BKN030 18/15 Q1016","updated":"2025-11-07T08:24:53Z"}
