{"icao":"KJFK","metar":"KJFK 150151Z 19006KT 10SM FEW090 BKN170 BKN250 18/12 A2988 RMK AO2 SLP116 T01780117","updated":"2026-04-15T02:27:18Z"}
