{"icao":"LPOV","metar":"LPOV 171700Z 23006KT 190V250 9999 FEW014 BKN038 14/12 Q1024","updated":"2026-02-17T17:54:34Z"}
