{"icao":"LPLA","metar":"LPLA 140500Z 29012KT 260V330 6000 -RADZ SCT009 BKN016 16/14 Q1014","updated":"2026-04-14T05:22:12Z"}
