{"icao":"LPFL","metar":"LPFL 070900Z 18004KT 150V230 9999 FEW030 15/10 Q1019","updated":"2025-11-07T09:19:07Z"}
