{"icao":"LPPD","metar":"LPPD 242030Z 03013KT 010V070 9999 FEW020 SCT030 14/09 Q1029","updated":"2026-03-24T20:40:09Z"}
