{"icao":"LPHR","metar":"LPHR 201030Z 36013KT 330V030 9999 VCSH SCT028 13/05 Q1021","updated":"2026-04-20T10:46:47Z"}
