{"icao":"LPST","metar":"LPST 091600Z 34010KT 300V030 9999 FEW015 19/13 Q1014","updated":"2026-04-09T19:04:34Z"}
