{"icao":"LPHR","metar":"LPHR 161800Z 31006KT 280V350 9999 VCSH SCT016 BKN030 15/11 Q1034","updated":"2026-01-16T18:31:00Z"}
