{"icao":"LPFR","metar":"LPFR 220230Z 06010KT CAVOK 12/01 Q1027","updated":"2025-11-22T03:02:48Z"}
