{"icao":"LPFL","metar":"LPFL 151230Z 20015G26KT 160V220 8000 -SHRA FEW016 SCT025 FEW026TCU BKN049 17/15 Q1002 RESHRA","updated":"2025-10-15T12:38:55Z"}
