{"icao":"LPPR","metar":"LPPR 281600Z 33004KT 9999 SCT018 BKN030 14/10 Q1022","updated":"2025-11-28T16:23:21Z"}
