{"icao":"LPPR","metar":"LPPR 200400Z 01009KT CAVOK 09/04 Q1020","updated":"2025-11-20T04:20:40Z"}
