{"icao":"LPAZ","metar":"LPAZ 091600Z 20014KT 9999 SCT025 BKN038 17/13 Q1029","updated":"2026-01-09T16:26:38Z"}
