{"icao":"LPLA","metar":"LPLA 161600Z 18019KT 9999 SCT015 BKN018 17/13 Q1022","updated":"2026-02-16T16:41:27Z"}
