{"icao":"LPMA","metar":"LPMA 281530Z 23008KT 200V260 9999 SCT015 SCT030 21/16 Q1024","updated":"2026-05-28T15:50:31Z"}
