{"icao":"KLAX","metar":"KLAX 262253Z 24009KT 10SM FEW150 FEW250 21/00 A3019 RMK AO2 SLP224 T02110000 $","updated":"2026-01-26T23:21:00Z"}
