{"icao":"LPFL","metar":"LPFL 291930Z 29010KT 250V340 9999 -RA FEW019 BKN040 13/08 Q1004","updated":"2026-04-29T23:53:52Z"}
