{"icao":"KJFK","metar":"KJFK 221451Z 03005KT 6SM BR OVC046 09/07 A2989 RMK AO2 RAE41 SLP120 P0001 60005 T00890072 53008","updated":"2025-11-22T15:16:47Z"}
