{"icao":"KJFK","metar":"KJFK 042351Z 15003KT 10SM BKN250 21/12 A3003 RMK AO2 SLP168 T02060117 10289 20200 56016 $","updated":"2026-06-05T00:05:49Z"}
