{"icao":"KORD","metar":"KORD 310651Z 32011KT 10SM FEW030 BKN120 BKN180 M12/M17 A3040 RMK AO2 SLP310 T11171172","updated":"2026-01-31T07:27:39Z"}
