{"icao":"LPPD","metar":"LPPD 090230Z 16010KT 9999 SCT007 BKN012 22/21 Q1024","updated":"2025-10-09T02:58:23Z"}
