{"icao":"LPMA","metar":"LPMA 062130Z 29005KT 9999 FEW014 16/11 Q1016","updated":"2026-04-06T21:36:35Z"}
