{"icao":"KORD","metar":"KORD 011351Z 06015KT 10SM BKN030 M03/M11 A3045 RMK AO2 SLP320 T10331106 $","updated":"2026-03-01T14:22:50Z"}
