{"icao":"KJFK","metar":"KJFK 071551Z 25007KT 8SM SCT020 BKN045 BKN200 BKN250 07/04 A2971 RMK AO2 SLP062 T00720044 $","updated":"2026-01-07T16:29:45Z"}
