{"icao":"LPMR","metar":"LPMR 252200Z 23003KT 9999 BKN025 BKN035 12/11 Q1014","updated":"2026-01-25T22:19:12Z"}
