{"icao":"LPPT","metar":"LPPT 071100Z 34011KT 300V020 9999 FEW006 SCT012 12/11 Q1025","updated":"2026-01-07T11:19:10Z"}
