{"icao":"LPLA","metar":"LPLA 160100Z 16007KT 100V210 9999 FEW015 16/13 Q1027","updated":"2026-02-16T02:03:50Z"}
