{"icao":"LPHR","metar":"LPHR 161000Z 35009G20KT 320V050 9999 FEW015 SCT030 15/07 Q1034","updated":"2026-01-16T10:22:42Z"}
