{"icao":"LPMA","metar":"LPMA 051800Z 01005KT 300V070 9999 SCT016 23/15 Q1022","updated":"2025-10-05T18:21:59Z"}
