{"icao":"LPBJ","metar":"LPBJ 250500Z 33004KT 300V360 CAVOK 14/03 Q1017","updated":"2025-09-25T05:17:14Z"}
