{"icao":"KLAX","metar":"KLAX 161853Z 24004KT 10SM SCT017 BKN026 OVC036 17/13 A3001 RMK AO2 SLP160 T01670128 $","updated":"2025-11-16T19:13:57Z"}
