{"icao":"KLAX","metar":"KLAX 291453Z 02004KT 10SM CLR 20/02 A3000 RMK AO2 SLP158 T02000017 53004 $","updated":"2025-10-29T15:20:36Z"}
