{"icao":"LPBJ","metar":"LPBJ 271800Z 16007KT 9999 FEW025 22/17 Q1019","updated":"2025-10-27T18:27:00Z"}
