{"icao":"LPBJ","metar":"LPBJ 230700Z 08002KT CAVOK 12/03 Q1016","updated":"2025-09-23T07:17:28Z"}
