{"icao":"LPFL","metar":"LPFL 011500Z 17005KT 110V250 9999 FEW035 18/08 Q1021","updated":"2025-11-01T15:15:05Z"}
