{"icao":"LPMR","metar":"LPMR 151000Z 11001KT 6000 SCT005 BKN009 14/13 Q1025","updated":"2026-04-15T10:57:39Z"}
