{"icao":"LPPS","metar":"LPPS 061630Z 29016KT 9999 SCT015 18/12 Q1016","updated":"2026-04-06T16:45:04Z"}
