{"icao":"LPBJ","metar":"LPBJ 111019Z 21010KT 170V240 9999 FEW020 SCT026 19/12 Q1016","updated":"2026-05-11T10:37:12Z"}
