{"icao":"KJFK","metar":"KJFK 190251Z 06003KT 10SM SCT100 BKN250 06/M04 A3018 RMK AO2 SLP218 T00561039 53006 $","updated":"2025-11-19T03:10:47Z"}
