{"icao":"LPLA","metar":"LPLA 090900Z 26005KT 190V280 9999 FEW025 SCT035 16/13 Q1024","updated":"2025-11-09T09:16:19Z"}
