{"icao":"LPPT","metar":"LPPT 251100Z 25014KT 220V280 9999 VCSH FEW014 SCT018 FEW020TCU 15/12 Q1016","updated":"2026-01-25T11:16:53Z"}
