{"icao":"LPPT","metar":"LPPT 221700Z 22020G30KT 1200 R20/P2000 -RADZ BR SCT002 BKN004 14/14 Q1004 RERA","updated":"2026-01-22T17:27:15Z"}
