{"icao":"KJFK","metar":"KJFK 262151Z 21012KT 10SM SCT060 SCT100 SCT250 24/19 A2982 RMK AO2 SLP098 T02440189 $","updated":"2025-09-26T22:15:51Z"}
