{"icao":"LPST","metar":"LPST 160800Z 30006KT 3000 BR BKN003 16/15 Q1021","updated":"2025-09-16T08:23:45Z"}
