{"icao":"LPPS","metar":"LPPS 220400Z 08014KT 040V100 9999 SCT014 BKN030 18/09 Q1025","updated":"2025-11-22T04:21:01Z"}
