{"icao":"LPPT","metar":"LPPT 261300Z 05013KT 020V080 CAVOK 20/05 Q1016","updated":"2026-03-26T13:12:51Z"}
