{"icao":"LPPS","metar":"LPPS 252100Z 02014KT 9999 FEW014 SCT030 15/10 Q1021","updated":"2026-02-25T21:33:52Z"}
