{"icao":"LPMA","metar":"LPMA 231100Z 21005KT 180V250 9999 FEW015 19/10 Q1023","updated":"2025-12-23T11:18:00Z"}
