{"icao":"LPMA","metar":"LPMA 251400Z 01013KT 330V040 9999 FEW015 22/14 Q1023","updated":"2025-11-25T14:19:07Z"}
