{"icao":"KORD","metar":"KORD 300951Z 26015G25KT 3SM -SN BR FEW008 BKN014 OVC019 M01/M03 A2978 RMK AO2 PK WND 25028/0936 SLP093 DRSN P0000 T10111033 $","updated":"2025-11-30T10:18:52Z"}
