{"icao":"KLAX","metar":"KLAX 131453Z 07004KT 10SM FEW200 10/06 A2999 RMK AO2 SLP153 T01000061 53010","updated":"2026-02-13T15:40:43Z"}
