{"icao":"KJFK","metar":"KJFK 111951Z 29025G35KT 10SM BKN060 BKN075 05/M07 A2971 RMK AO2 PK WND 28039/1928 SLP060 VCSH SW-NE T00501067 $","updated":"2025-11-11T20:20:04Z"}
