{"icao":"LPPS","metar":"LPPS 021500Z 11013KT 080V140 9999 SCT015 24/18 Q1020","updated":"2025-10-02T15:18:01Z"}
