{"icao":"LPLA","metar":"LPLA 052200Z 13001KT 080V180 9999 FEW030 BKN040 11/07 Q1032","updated":"2026-01-05T22:19:40Z"}
