{"icao":"KLAX","metar":"KLAX 261453Z 10004KT 8SM MIFG FEW010 FEW180 SCT250 14/13 A3007 RMK AO2 SLP183 FG BANK E T01440128 51012","updated":"2026-02-26T15:52:33Z"}
