{"icao":"LPSJ","metar":"LPSJ 201100Z 28008KT 240V310 9999 FEW010 SCT025 18/16 Q1010","updated":"2026-06-20T11:16:46Z"}
