{"icao":"LPCS","metar":"LPCS 251500Z 25008KT 220V300 3000 -SHRA BR SCT006 BKN014 FEW020CB 14/14 Q1015","updated":"2026-01-25T15:19:21Z"}
