{"icao":"LPPD","metar":"LPPD 181700Z 28015KT 9999 FEW014 SCT020 18/16 Q1023","updated":"2025-11-18T17:18:06Z"}
