{"icao":"LPBJ","metar":"LPBJ 301200Z 23005KT 180V290 9999 SCT040 19/07 Q1017","updated":"2026-04-30T12:14:01Z"}
