{"icao":"LPLA","metar":"LPLA 022300Z 29009KT 250V320 9999 FEW011 BKN020 20/18 Q1031","updated":"2026-06-02T23:44:01Z"}
