{"icao":"LPMA","metar":"LPMA 310900Z 24008KT 210V280 9999 SCT015 19/12 Q1016","updated":"2025-12-31T09:23:39Z"}
