{"icao":"LPMT","metar":"LPMT 011400Z 23011KT 1600 -RADZ BR BKN003 SCT018 15/15 Q1011","updated":"2026-02-01T14:24:39Z"}
