{"icao":"LPPR","metar":"LPPR 270230Z 21003KT 170V260 6000 SCT002 OVC004 19/18 Q1018","updated":"2026-06-27T02:56:13Z"}
