{"icao":"LPPT","metar":"LPPT 011500Z VRB04KT CAVOK 29/10 Q1020","updated":"2025-10-01T15:17:26Z"}
