{"icao":"LPLA","metar":"LPLA 190200Z 31004KT 9999 BKN030 14/13 Q1014","updated":"2026-04-19T02:34:36Z"}
