{"icao":"LPMT","metar":"LPMT 101300Z 35007KT 310V030 CAVOK 26/14 Q1019","updated":"2025-10-10T13:26:37Z"}
