{"icao":"LPMT","metar":"LPMT 311400Z 01010KT CAVOK 29/13 Q1019","updated":"2026-05-31T14:42:54Z"}
