{"icao":"KJFK","metar":"KJFK 151651Z 06008KT 030V110 10SM SCT050 SCT250 26/13 A3024 RMK AO2 SLP240 T02610133 $","updated":"2025-09-15T17:14:57Z"}
