{"icao":"LPMT","metar":"LPMT 052100Z 32009KT 290V350 CAVOK 17/10 Q1019","updated":"2026-06-05T21:24:02Z"}
