{"icao":"LPPR","metar":"LPPR 290600Z 13009KT 4500 -RADZ BR SCT003 BKN025 11/10 Q1018","updated":"2025-11-29T06:26:47Z"}
