{"icao":"LPBJ","metar":"LPBJ 110400Z 30006KT 0900 FG VV002 13/13 Q1012","updated":"2026-04-11T04:53:24Z"}
