{"icao":"LPMA","metar":"LPMA 170230Z 36010KT 320V040 9999 BKN015 16/11 Q1023","updated":"2026-05-17T02:56:10Z"}
