{"icao":"LPHR","metar":"LPHR 261600Z 28026G37KT 9999 SCT016 SCT035 12/07 Q1004","updated":"2026-01-26T16:33:06Z"}
