{"icao":"KJFK","metar":"KJFK 071451Z 24011KT 1/2SM R04R/P6000FT BR FEW002 SCT045 SCT200 05/04 A2972 RMK AO2 SFC VIS 4 SLP062 T00500044 51009 $","updated":"2026-01-07T15:24:19Z"}
