{"icao":"LPCS","metar":"LPCS 181000Z 07003KT 040V100 9999 FEW040 26/06 Q1020","updated":"2025-09-18T10:18:16Z"}
