{"icao":"LPAZ","metar":"LPAZ 261500Z 31014KT 9999 FEW028 BKN036 21/13 Q1024","updated":"2026-06-26T15:22:17Z"}
