{"icao":"LPPT","metar":"LPPT 251300Z VRB04KT CAVOK 27/02 Q1018","updated":"2025-09-25T13:27:58Z"}
