{"icao":"KORD","metar":"KORD 041051Z 01005KT 10SM OVC021 M07/M12 A3034 RMK AO2 SLP285 T10721117","updated":"2026-02-04T11:31:57Z"}
