{"icao":"LPFL","metar":"LPFL 231130Z 20009G19KT 150V270 9999 VCSH FEW020 FEW022TCU 16/10 Q1002","updated":"2026-02-23T11:39:13Z"}
