{"icao":"LPFL","metar":"LPFL 210900Z 33015G31KT 230V020 9999 SCT016 15/09 Q1009","updated":"2026-04-21T09:24:22Z"}
