{"icao":"LPCS","metar":"LPCS 121030Z 25007KT 210V300 9999 FEW006 BKN016 15/13 Q1021","updated":"2026-02-12T10:43:32Z"}
