{"icao":"LPST","metar":"LPST 181000Z 22008KT 190V250 9999 FEW008 BKN012 BKN035 13/11 Q1021","updated":"2026-02-18T10:42:29Z"}
