{"icao":"LPBJ","metar":"LPBJ 180100Z 01007KT CAVOK 10/09 Q1017","updated":"2025-11-18T01:23:55Z"}
