{"icao":"LPPR","metar":"LPPR 101500Z VRB04KT CAVOK 27/10 Q1021","updated":"2025-10-10T15:17:41Z"}
