{"icao":"LPPD","metar":"LPPD 050930Z 26019KT 7000 SCT005 BKN014 18/18 Q1023","updated":"2026-06-05T09:44:21Z"}
