{"icao":"LPAZ","metar":"LPAZ 091700Z 17013KT 9999 SCT014 SCT026 24/21 Q1023","updated":"2025-10-09T17:16:03Z"}
