{"icao":"KORD","metar":"KORD 121051Z 00000KT 10SM FEW029 09/07 A3004 RMK AO2 SLP172 T00940072 $","updated":"2025-10-12T11:13:14Z"}
