{"icao":"LPFL","metar":"LPFL 011400Z 34022G34KT 310V010 9999 SCT028 14/07 Q1029","updated":"2026-03-01T14:22:46Z"}
