{"icao":"LPPR","metar":"LPPR 011130Z 01005KT 340V080 CAVOK 21/06 Q1026","updated":"2026-04-01T11:52:07Z"}
