{"icao":"KORD","metar":"KORD 032002Z 24007KT 1 3/4SM -SN BR FEW008 OVC019 M02/M04 A2998 RMK AO2 P0000 T10171039","updated":"2025-12-03T20:23:11Z"}
