{"icao":"LPPS","metar":"LPPS 180930Z 33005KT 280V350 9999 FEW012 17/14 Q1026","updated":"2026-02-18T09:46:19Z"}
