{"icao":"KLAX","metar":"KLAX 110053Z 28005KT 10SM SCT250 19/M01 A3027 RMK AO2 SLP252 T01891011 $","updated":"2026-01-11T01:49:17Z"}
