{"icao":"LPCS","metar":"LPCS 232230Z 01015KT CAVOK 18/07 Q1018","updated":"2025-09-24T03:33:35Z"}
