{"icao":"LPBJ","metar":"LPBJ 181600Z 30010KT 250V340 9999 FEW040 22/09 Q1019","updated":"2026-05-18T16:20:51Z"}
