{"icao":"KJFK","metar":"KJFK 070251Z 34005KT 1/2SM R04R/P6000FT -DZ BR OVC003 04/03 A2975 RMK AO2 SFC VIS 2 RAE20DZB20 SLP075 P0001 60003 T00390033 58022 $","updated":"2026-01-07T03:28:36Z"}
