{"icao":"LPPD","metar":"LPPD 061330Z 00000KT 2000 DZ BR SCT001 BKN003 18/17 Q1025","updated":"2026-06-06T13:39:33Z"}
