{"icao":"LPPD","metar":"LPPD 251600Z 23018G28KT 8000 FEW007 BKN012 17/15 Q1014","updated":"2026-01-25T16:24:32Z"}
