{"icao":"LPMR","metar":"LPMR 300900Z 34009KT 7000 OVC006 20/18 Q1022","updated":"2026-06-30T09:31:54Z"}
