{"icao":"KLAX","metar":"KLAX 071653Z 09003KT 6SM HZ FEW010 FEW280 16/12 A3020 RMK AO2 SLP295 T01610122 $","updated":"2026-02-07T17:24:19Z"}
