{"icao":"LPCS","metar":"LPCS 131230Z 27004KT 220V350 9999 FEW018 SCT030 15/13 Q1009","updated":"2026-01-13T12:44:12Z"}
