{"icao":"LPAZ","metar":"LPAZ 102330Z 22019KT 1400 R18/1500D BR VV002 17/17 Q1014","updated":"2026-02-10T23:36:40Z"}
