{"icao":"KJFK","metar":"KJFK 080651Z 32021G30KT 10SM FEW090 SCT250 M15/M23 A3009 RMK AO2 PK WND 32033/0641 SLP187 T11501233 $","updated":"2026-02-08T07:37:42Z"}
