{"icao":"LPBJ","metar":"LPBJ 181200Z 25013KT 9999 SCT020 BKN040 14/09 Q1022","updated":"2026-02-18T13:01:41Z"}
