{"icao":"LPPR","metar":"LPPR 082000Z 22012KT 4000 RADZ BR BKN005 BKN007 13/12 Q1026","updated":"2026-01-08T20:23:49Z"}
