{"icao":"LPPR","metar":"LPPR 282000Z 35005KT CAVOK 10/07 Q1025","updated":"2026-02-28T20:24:10Z"}
