{"icao":"LPCS","metar":"LPCS 091230Z 35025G35KT 9999 FEW016 21/12 Q1019","updated":"2026-06-09T12:35:24Z"}
