{"icao":"LPAR","metar":"LPAR 271000Z 05010KT 9999 FEW018 SCT040 19/10 Q1021","updated":"2025-10-27T10:21:08Z"}
