{"icao":"LPSJ","metar":"LPSJ 011200Z 15007KT 120V180 9999 FEW012 SCT020 22/17 Q1032","updated":"2026-07-01T12:05:41Z"}
