{"icao":"LPPR","metar":"LPPR 210430Z 17022KT 9000 RA BKN004 BKN009 11/11 Q1004","updated":"2026-01-21T04:42:23Z"}
