{"icao":"LPPT","metar":"LPPT 051800Z 27009KT 240V300 9999 -RA FEW008 BKN012 16/15 Q1022","updated":"2025-12-05T18:26:11Z"}
