{"icao":"LPMA","metar":"LPMA 011800Z 20022KT 9999 FEW015 19/11 Q1014","updated":"2026-02-01T18:33:41Z"}
