{"icao":"LPPD","metar":"LPPD 311700Z 27003KT 240V310 9999 FEW014 FEW018TCU 16/13 Q1001","updated":"2025-12-31T17:17:42Z"}
