{"icao":"LPST","metar":"LPST 281500Z 35010KT 320V020 9999 SCT027 14/08 Q1022","updated":"2025-11-28T15:19:05Z"}
