{"icao":"LPST","metar":"LPST 101200Z 04003KT 280V080 CAVOK 26/11 Q1021","updated":"2025-10-10T12:36:38Z"}
