{"icao":"LPBJ","metar":"LPBJ 250700Z VRB01KT 8000 3000NW VCFG FEW003 09/09 Q1020","updated":"2026-03-25T07:15:01Z"}
