{"icao":"LPBJ","metar":"LPBJ 020411Z 25017KT 6000 RA SCT008 BKN012 09/09 Q0999 RERA","updated":"2026-02-02T04:55:52Z"}
