{"icao":"KLAX","metar":"KLAX 190253Z 26004KT 10SM FEW250 17/10 A3002 RMK AO2 SLP165 T01670100 56003","updated":"2026-01-19T03:49:31Z"}
