{"icao":"LPBJ","metar":"LPBJ 291800Z 34002KT 9999 FEW025 11/09 Q1019","updated":"2025-12-29T18:29:10Z"}
