{"icao":"LPBJ","metar":"LPBJ 291700Z 26010KT 230V290 9999 SCT042 19/09 Q1010","updated":"2026-04-29T17:26:56Z"}
