{"icao":"LPAZ","metar":"LPAZ 140630Z 02006KT 350V050 9999 SCT013 14/12 Q1030","updated":"2026-03-14T06:43:53Z"}
