{"icao":"KJFK","metar":"KJFK 311051Z 26018G26KT 10SM FEW032 FEW065 11/08 A2932 RMK AO2 PK WND 26026/1047 SLP929 T01110078","updated":"2025-10-31T11:15:34Z"}
