{"icao":"KJFK","metar":"KJFK 051251Z 14004KT 6SM -RA BR SCT016 BKN029 OVC080 04/04 A3023 RMK AO2 SLP237 P0001 T00440039 $","updated":"2026-03-05T12:58:19Z"}
