{"icao":"LPMA","metar":"LPMA 110800Z 29005KT 240V320 9999 FEW016 15/09 Q1023","updated":"2025-12-11T08:28:37Z"}
