{"icao":"KLAX","metar":"KLAX 010653Z 00000KT 10SM CLR 18/09 A3005 RMK AO2 SLP173 T01830089 $","updated":"2026-02-01T07:36:20Z"}
