{"icao":"LPFR","metar":"LPFR 171800Z 08004KT CAVOK 23/17 Q1014","updated":"2025-10-17T18:23:05Z"}
