{"icao":"LPFR","metar":"LPFR 280630Z 34003KT 300V020 CAVOK 10/06 Q1022","updated":"2026-02-28T06:36:46Z"}
