{"icao":"LPPS","metar":"LPPS 252200Z 04005KT 9999 SCT015 19/15 Q1024","updated":"2025-11-25T22:18:26Z"}
