{"icao":"KJFK","metar":"KJFK 140851Z 30010G21KT 10SM FEW120 05/M02 A3005 RMK AO2 SLP174 T00501017 53011","updated":"2025-11-14T09:19:46Z"}
