{"icao":"LPMT","metar":"LPMT 050100Z 34004KT 310V010 9999 FEW020 12/10 Q1007","updated":"2026-01-05T01:49:10Z"}
