{"icao":"LPST","metar":"LPST 050800Z 23027G38KT 8000 -SHRA SCT008 FEW012CB 20/18 Q1005","updated":"2025-11-05T08:25:13Z"}
