{"icao":"KLAX","metar":"KLAX 092053Z 23012G20KT 10SM FEW025 22/14 A2990 RMK AO2 SLP124 T02170144 58004","updated":"2026-06-09T20:57:59Z"}
