{"icao":"LPPR","metar":"LPPR 280530Z 02005KT 340V070 9999 FEW025 15/11 Q1009","updated":"2026-04-28T05:58:08Z"}
