{"icao":"KJFK","metar":"KJFK 200351Z 06008KT 10SM BKN026 OVC037 03/M01 A3003 RMK AO2 SLP168 T00281006 $","updated":"2026-02-20T04:21:44Z"}
