{"icao":"LPPD","metar":"LPPD 170500Z VRB02KT 9999 FEW020 17/15 Q1011","updated":"2025-10-17T05:17:05Z"}
