{"icao":"LPMA","metar":"LPMA 241100Z 02010KT 350V050 9999 FEW016 20/14 Q1027","updated":"2025-11-24T11:16:37Z"}
