{"icao":"LPPT","metar":"LPPT 272130Z 30006KT 270V340 CAVOK 21/13 Q1019","updated":"2026-05-27T21:53:03Z"}
