{"icao":"LPPT","metar":"LPPT 051030Z 23023G34KT 8000 -SHRA SCT020 SCT025 15/12 Q0996 WS R20","updated":"2026-02-05T10:38:45Z"}
