{"icao":"LPMA","metar":"LPMA 081400Z 03014KT 9999 SCT015 SCT030 16/06 Q1026","updated":"2026-03-08T14:24:07Z"}
