{"icao":"KJFK","metar":"KJFK 211151Z 00000KT 10SM OVC028 06/03 A3011 RMK AO2 SLP196 T00610028 10067 20044 53000 $","updated":"2025-11-21T12:37:23Z"}
