{"icao":"LPAR","metar":"LPAR 261700Z 04007KT CAVOK 16/05 Q1024","updated":"2025-11-26T19:14:29Z"}
