{"icao":"LPMR","metar":"LPMR 291900Z 16008KT 8000 -RA SCT009 BKN025 12/11 Q1015","updated":"2025-11-29T19:14:14Z"}
