{"icao":"KORD","metar":"KORD 091851Z 25012G20KT 10SM SCT015 SCT220 OVC250 01/M02 A2966 RMK AO2 SLP051 T00111022","updated":"2025-12-09T19:14:47Z"}
