{"icao":"LPHR","metar":"LPHR 091800Z 20022KT 5000 -RADZ BR SCT003 BKN006 17/17 Q1023","updated":"2026-01-09T18:30:51Z"}
