{"icao":"LPPD","metar":"LPPD 261500Z 02024G38KT 350V050 9999 VCSH SCT018 FEW023TCU SCT030 18/14 Q1019","updated":"2025-10-26T15:16:08Z"}
