{"icao":"KLAX","metar":"KLAX 280553Z 00000KT 10SM CLR 17/16 A2995 RMK AO2 SLP139 T01720156 10194 20172 51006 $","updated":"2025-10-28T06:28:29Z"}
