{"icao":"KJFK","metar":"KJFK 142251Z 18006KT 10SM FEW060 FEW110 BKN250 17/11 A2984 RMK AO2 SLP103 T01720111","updated":"2026-04-14T23:47:37Z"}
