{"icao":"LPFL","metar":"LPFL 101800Z 33014G24KT 280V360 9999 SCT025 13/08 Q1015","updated":"2025-12-12T08:28:24Z"}
