{"icao":"KLAX","metar":"KLAX 252253Z 26010KT 10SM FEW250 21/11 A3003 RMK AO2 SLP167 T02060111","updated":"2025-11-25T23:17:00Z"}
