{"icao":"LPMT","metar":"LPMT 061300Z 27008KT 230V300 CAVOK 25/15 Q1020","updated":"2025-10-06T13:27:32Z"}
