{"icao":"KORD","metar":"KORD 150951Z 07009KT 10SM BKN110 03/M03 A2967 RMK AO2 DZB02E10RAB10E16 PRESFR SLP053 P0000 T00331028 $","updated":"2026-03-15T10:27:58Z"}
