{"icao":"KLAX","metar":"KLAX 030853Z 11004KT 10SM FEW011 13/12 A3001 RMK AO2 SLP158 T01330122 53009","updated":"2026-03-03T09:40:24Z"}
