{"icao":"LPBJ","metar":"LPBJ 041000Z 23010KT 1400 RADZ BR BKN006 BKN018 13/12 Q1023","updated":"2025-12-04T10:23:23Z"}
