{"icao":"LPMA","metar":"LPMA 110800Z 31004KT 250V360 9999 FEW015 BKN030 21/13 Q1020","updated":"2025-10-11T08:20:26Z"}
