{"icao":"LPOV","metar":"LPOV 151800Z VRB03KT 0500 FG BKN002 15/14 Q1016","updated":"2025-10-15T18:26:52Z"}
