{"icao":"LPCS","metar":"LPCS 271100Z 32007KT 290V360 9999 FEW008 SCT015 15/12 Q1025","updated":"2026-02-27T11:31:04Z"}
