{"icao":"LPCS","metar":"LPCS 282130Z 02005KT 9999 FEW016 12/10 Q1022","updated":"2025-11-29T05:18:02Z"}
