{"icao":"LPPT","metar":"LPPT 221630Z 22018KT 1600 -RADZ BR SCT004 BKN006 13/13 Q1004 RERA WS R","updated":"2026-01-22T16:34:35Z"}
