{"icao":"KLAX","metar":"KLAX 051853Z 27010KT 9SM FEW025 OVC037 19/11 A3023 RMK AO2 SLP237 T01890106 $","updated":"2025-11-05T19:14:38Z"}
