{"icao":"LPPI","metar":"LPPI 201700Z 30009KT 250V020 9999 FEW018 SCT030 19/16 Q1011","updated":"2026-06-20T17:25:00Z"}
