{"icao":"LPPR","metar":"LPPR 052130Z 33005KT 300V360 9999 FEW018 13/10 Q1017","updated":"2026-05-05T21:59:44Z"}
