{"icao":"LPPD","metar":"LPPD 181400Z 34011KT 290V030 9999 FEW014 18/15 Q1028","updated":"2026-01-18T14:17:23Z"}
