{"icao":"LPFR","metar":"LPFR 250600Z 35006KT CAVOK 07/05 Q1009","updated":"2025-12-25T06:31:26Z"}
