{"icao":"LPBJ","metar":"LPBJ 130600Z 16015KT 9999 FEW028 SCT035 18/15 Q1003","updated":"2025-11-13T06:28:48Z"}
