{"icao":"LPOV","metar":"LPOV 201500Z 16009KT 8000 -SHRA FEW012 SCT016 BKN024 11/11 Q1015","updated":"2026-01-20T15:29:18Z"}
