{"icao":"LPAZ","metar":"LPAZ 221500Z 32022KT 9999 FEW020 BKN033 17/11 Q1017","updated":"2026-01-22T15:29:41Z"}
