{"icao":"LPMT","metar":"LPMT 251900Z 36010KT 330V030 9999 FEW030 SCT045 20/11 Q1015","updated":"2026-04-25T19:42:19Z"}
