{"icao":"LPLA","metar":"LPLA 051100Z 23007KT 190V250 9999 FEW025 17/09 Q1017","updated":"2025-11-05T11:16:18Z"}
