{"icao":"LPMR","metar":"LPMR 090800Z 18001KT CAVOK 11/08 Q1019","updated":"2026-04-09T09:05:55Z"}
