{"icao":"LPPD","metar":"LPPD 151600Z 32011KT 290V350 9999 FEW025 17/08 Q1016","updated":"2025-11-15T16:19:54Z"}
