{"icao":"LPMR","metar":"LPMR 161700Z 30004KT 270V360 7000 FEW008 17/15 Q1014","updated":"2025-10-16T17:15:47Z"}
