{"icao":"LPBJ","metar":"LPBJ 200800Z 26004KT CAVOK 06/04 Q1019","updated":"2025-12-20T08:24:10Z"}
