{"icao":"KJFK","metar":"KJFK 300051Z 06008KT 10SM BKN041 BKN120 OVC140 12/07 A3012 RMK AO2 SLP200 T01170067","updated":"2025-10-30T01:25:06Z"}
