{"icao":"LPMA","metar":"LPMA 071300Z 04011KT 350V060 9999 FEW014 26/18 Q1025","updated":"2025-10-07T13:28:15Z"}
