{"icao":"LPMT","metar":"LPMT 270700Z 33004KT CAVOK 11/10 Q1024","updated":"2026-02-27T07:44:40Z"}
