{"icao":"LPMA","metar":"LPMA 110400Z 34005KT 250V020 9999 SCT015 BKN030 21/14 Q1020","updated":"2025-10-11T04:19:41Z"}
