{"icao":"LPBJ","metar":"LPBJ 160700Z 27006KT 9999 FEW005 BKN025 11/09 Q1031","updated":"2026-02-16T07:53:23Z"}
