{"icao":"KJFK","metar":"KJFK 270951Z 31011KT 10SM SCT090 SCT110 BKN180 16/11 A2974 RMK AO2 PRESRR SLP072 T01560111 $","updated":"2026-03-27T10:48:13Z"}
