{"icao":"LPPS","metar":"LPPS 021300Z 30007KT 240V360 9999 FEW015 20/13 Q1020","updated":"2026-05-02T13:08:08Z"}
