{"icao":"LPMT","metar":"LPMT 221800Z 23015KT 3000 -RA BR BKN007 BKN011 BKN018 15/15 Q1003","updated":"2026-01-22T18:31:19Z"}
