{"icao":"LPPT","metar":"LPPT 242100Z 24007KT 9999 FEW030 11/07 Q1016","updated":"2026-01-24T21:17:19Z"}
