{"icao":"LPFL","metar":"LPFL 101500Z 23006KT 180V310 9999 FEW025 22/14 Q1020","updated":"2025-10-10T15:18:01Z"}
