{"icao":"LPPD","metar":"LPPD 261430Z 03009KT 350V070 9999 FEW016 BKN030 16/11 Q1029","updated":"2026-03-26T15:02:28Z"}
