{"icao":"KLAX","metar":"KLAX 122253Z 24009KT 10SM FEW024 FEW027 19/13 A3002 RMK AO2 SLP165 T01890128","updated":"2026-05-12T22:59:07Z"}
