{"icao":"LPMR","metar":"LPMR 011500Z 22008KT CAVOK 16/04 Q1018","updated":"2025-12-01T15:20:25Z"}
