{"icao":"LPBJ","metar":"LPBJ 241300Z 12005KT 010V160 9999 FEW025 21/09 Q1017","updated":"2026-04-24T13:22:56Z"}
