{"icao":"KJFK","metar":"KJFK 240851Z 33015G28KT 10SM FEW250 M12/M23 A3052 RMK PK WND 33031/0813 SLP333 T11171233 50017 $ ","updated":"2026-01-24T09:19:40Z"}
