{"icao":"KLAX","metar":"KLAX 151253Z 08003KT 10SM 13/03 A3002 RMK AO2 SLP163 T01330033 $","updated":"2026-01-15T13:38:47Z"}
