{"icao":"LPHR","metar":"LPHR 121700Z 07010KT 9999 FEW023 SCT035 16/11 Q1028","updated":"2026-05-12T17:09:10Z"}
