{"icao":"LPFR","metar":"LPFR 290600Z 18014KT 7000 -RA FEW008 SCT012 FEW020CB 20/18 Q1006","updated":"2025-10-29T06:28:51Z"}
