{"icao":"LPPR","metar":"LPPR 261900Z 18024G34KT 5000 -RADZ BR BKN007 BKN012 14/13 Q1002","updated":"2026-01-26T19:22:14Z"}
