{"icao":"LPFR","metar":"LPFR 071300Z 26015KT 5000 -SHRA BR SCT012 FEW020TCU BKN025 14/13 Q1015","updated":"2026-04-07T13:16:20Z"}
