{"icao":"LPCS","metar":"LPCS 110830Z 25012KT 0800 R17/1300U FG VV002 15/15 Q1017","updated":"2026-02-11T08:59:33Z"}
