{"icao":"LPFL","metar":"LPFL 180800Z 36010KT 330V030 9999 FEW018 16/12 Q1029","updated":"2025-11-18T08:25:36Z"}
