{"icao":"KORD","metar":"KORD 132251Z 24016G25KT 10SM FEW250 07/02 A2952 RMK AO2 PK WND 24028/2154 SLP000 T00720017 $","updated":"2026-01-13T23:19:00Z"}
