{"icao":"KJFK","metar":"KJFK 121251Z 05018G34KT 10SM -RA FEW030 FEW060 SCT110 BKN150 OVC250 16/09 A3008 RMK AO2 PK WND 04034/1244 SLP184 P0000 T01560094","updated":"2025-10-12T13:20:55Z"}
