{"icao":"KORD","metar":"KORD 211851Z 20011G17KT 10SM FEW110 FEW250 19/04 A2981 RMK AO2 SLP093 T01890039","updated":"2026-03-21T19:22:54Z"}
