{"icao":"LPMA","metar":"LPMA 250930Z 02011KT 340V060 9999 SCT016 19/11 Q1018","updated":"2026-04-25T09:51:14Z"}
