{"icao":"LPST","metar":"LPST 211700Z 30016KT 7000 FEW008 BKN020 14/10 Q1005","updated":"2026-01-22T05:27:20Z"}
