{"icao":"LPPT","metar":"LPPT 052000Z 24012KT 210V270 9999 FEW016 SCT020 FEW025CB 13/11 Q1001 WS R20","updated":"2026-02-05T20:32:01Z"}
