{"icao":"LPPR","metar":"LPPR 232030Z 00000KT CAVOK 16/08 Q1017","updated":"2026-03-23T20:36:29Z"}
