{"icao":"KLAX","metar":"KLAX 251453Z 24009KT 10SM SCT019 BKN029 BKN045 BKN200 16/10 A2992 RMK AO2 SLP128 T01560100 53010","updated":"2026-04-25T15:38:18Z"}
