{"icao":"LPPD","metar":"LPPD 022330Z 05012KT 020V080 9999 -SHRA FEW015 BKN035 15/12 Q1021","updated":"2026-05-02T23:41:01Z"}
