{"icao":"LPMR","metar":"LPMR 250700Z 15004KT CAVOK 05/04 Q1009","updated":"2025-12-25T07:20:48Z"}
