{"icao":"LPOV","metar":"LPOV 291200Z 17007KT 9000 FEW004 SCT030 14/14 Q1006","updated":"2026-01-29T12:55:08Z"}
