{"icao":"KORD","metar":"KORD 312051Z 08008KT 10SM FEW150 SCT190 BKN300 23/07 A3000 RMK AO2 SLP159 T02280072 56024 $","updated":"2026-05-31T20:58:32Z"}
