{"icao":"LPBJ","metar":"LPBJ 302100Z 31009KT CAVOK 24/11 Q1020","updated":"2026-05-30T22:01:26Z"}
