{"icao":"LPPR","metar":"LPPR 072100Z 32007KT 280V350 9999 FEW024 16/13 Q1017","updated":"2025-11-07T21:13:20Z"}
