{"icao":"KJFK","metar":"KJFK 281751Z 35015G23KT 10SM SCT075 05/M14 A3044 RMK AO2 SLP306 T00501139 10056 20000 58004","updated":"2026-03-28T18:39:16Z"}
