{"icao":"KJFK","metar":"KJFK 302151Z 27021G31KT 10SM BKN070 BKN250 M01/M14 A2970 RMK AO2 PK WND 28035/2115 SLP058 VIRGA NW T10061139 $","updated":"2025-12-30T22:18:39Z"}
