{"icao":"KJFK","metar":"KJFK 241751Z 15013KT 10SM FEW120 SCT250 15/05 A2982 RMK SLP096 T01500050 10189 20106 56008 $ ","updated":"2026-04-24T18:50:28Z"}
