{"icao":"LPFR","metar":"LPFR 060230Z 10005KT CAVOK 19/18 Q1017","updated":"2025-10-06T03:00:29Z"}
