{"icao":"LPMA","metar":"LPMA 300430Z 02015G26KT 320V050 9999 SCT014 21/15 Q1022","updated":"2026-06-30T05:01:49Z"}
