{"icao":"LPPT","metar":"LPPT 150800Z 05003KT 340V120 CAVOK 18/12 Q1017","updated":"2025-10-15T08:25:09Z"}
