{"icao":"KLAX","metar":"KLAX 110853Z 00000KT 10SM CLR 14/09 A3001 RMK AO2 SLP158 T01440089 58007 $","updated":"2025-12-11T09:25:26Z"}
