{"icao":"KORD","metar":"KORD 031251Z 26009KT 10SM OVC013 08/05 A3001 RMK AO2 SLP162 T00780050","updated":"2026-04-03T13:01:19Z"}
