{"icao":"LPHR","metar":"LPHR 111530Z 23010KT 9999 FEW009 SCT013 BKN030 16/13 Q1032","updated":"2026-03-11T15:47:26Z"}
