{"icao":"LPMA","metar":"LPMA 101830Z 35018G31KT 320V030 9999 SCT013 FEW015TCU 16/12 Q1018","updated":"2026-04-10T18:51:07Z"}
