{"icao":"LPPR","metar":"LPPR 171430Z 32009KT 290V350 CAVOK 17/11 Q1019","updated":"2026-04-17T14:53:56Z"}
