{"icao":"LPFL","metar":"LPFL 271100Z 20019G35KT 160V240 5000 SHRA FEW011 BKN014 15/12 Q1003","updated":"2026-01-27T11:21:51Z"}
