{"icao":"LPPT","metar":"LPPT 100700Z 06004G15KT 330V100 CAVOK 16/14 Q1012","updated":"2026-04-10T07:25:48Z"}
