{"icao":"LPMT","metar":"LPMT 221500Z 20009KT 170V230 4000 -RA BR FEW007 SCT015 BKN025 13/13 Q1006 RERA","updated":"2026-01-22T15:29:40Z"}
