{"icao":"LPMA","metar":"LPMA 141800Z 01012KT 330V040 9999 SCT016 18/12 Q1019","updated":"2025-12-14T18:26:39Z"}
