{"icao":"KLAX","metar":"KLAX 231653Z 09006KT 10SM FEW120 17/11 A3007 RMK AO2 SLP181 T01670106","updated":"2025-11-23T17:15:01Z"}
