{"icao":"LPBJ","metar":"LPBJ 151500Z VRB03KT CAVOK 29/10 Q1015","updated":"2025-10-15T15:17:37Z"}
