{"icao":"LPFR","metar":"LPFR 030800Z VRB02KT 9999 FEW022 17/12 Q1016","updated":"2026-05-03T08:06:49Z"}
