{"icao":"LPPT","metar":"LPPT 150530Z 27004KT 8000 FEW014 SCT018 BKN024 10/09 Q1030","updated":"2026-02-15T05:55:05Z"}
