{"icao":"LPHR","metar":"LPHR 020800Z 34012G23KT 280V020 9999 -SHRA FEW010 SCT025 14/10 Q1010","updated":"2026-01-02T08:28:18Z"}
