{"icao":"LPPR","metar":"LPPR 141230Z 34011KT 300V010 9999 BKN032 13/07 Q1026","updated":"2026-02-14T12:44:35Z"}
