{"icao":"LPHR","metar":"LPHR 140000Z 22011KT 9999 FEW025 16/11 Q1031","updated":"2026-02-14T05:43:02Z"}
