{"icao":"KLAX","metar":"KLAX 181053Z 33003KT 10SM FEW015 FEW050 SCT100 BKN140 OVC180 21/19 A2984 RMK AO2 SLP103 CB DSNT NW T02110194","updated":"2025-09-18T11:13:47Z"}
