{"icao":"KORD","metar":"KORD 061251Z 31007KT 6SM -SN BR BKN013 OVC028 00/M02 A2964 RMK AO2 SNE41B51 SLP045 P0000 T00001017 $","updated":"2026-02-06T12:56:52Z"}
