{"icao":"LPCS","metar":"LPCS 131400Z 05011KT 020V080 CAVOK 17/12 Q1019","updated":"2025-12-13T14:16:48Z"}
