{"icao":"LPPT","metar":"LPPT 110230Z 22011KT 180V240 9999 FEW009 SCT012 15/13 Q1011","updated":"2026-05-11T02:58:30Z"}
