{"icao":"KJFK","metar":"KJFK 161451Z 28019G27KT 10SM FEW055 M03/M14 A2988 RMK AO2 PK WND 28032/1407 SLP117 T10281144 51034 $","updated":"2026-01-16T15:22:35Z"}
