{"icao":"LPFL","metar":"LPFL 081100Z 03005KT 360V070 9999 FEW005 SCT015 16/15 Q1029","updated":"2026-01-08T11:19:49Z"}
