{"icao":"LPFL","metar":"LPFL 281330Z VRB07G20KT 9999 FEW009 19/13 Q1030","updated":"2026-02-28T13:35:22Z"}
