{"icao":"LPAZ","metar":"LPAZ 080500Z 22020KT 9999 BKN014 19/17 Q1003","updated":"2025-12-08T05:21:08Z"}
