{"icao":"LPHR","metar":"LPHR 120700Z 30017KT 9000 VCSH SCT016 FEW020CB BKN040 14/10 Q1003 RETS","updated":"2025-11-12T07:18:19Z"}
