{"icao":"KORD","metar":"KORD 141951Z 23003KT 9SM BKN240 11/M01 A2997 RMK AO2 SLP150 T01061011 $","updated":"2026-02-14T20:25:46Z"}
