{"icao":"KJFK","metar":"KJFK 241951Z 06008KT 4SM BR BKN008 OVC011 14/13 A3026 RMK AO2 SLP246 P0001 T01440133 $","updated":"2026-05-24T20:03:32Z"}
