{"icao":"KJFK","metar":"KJFK 200451Z 36006KT 10SM SCT250 03/M02 A3025 RMK AO2 SLP244 T00331017 400780033 $","updated":"2025-11-20T05:18:41Z"}
