{"icao":"LPCS","metar":"LPCS 260930Z 05011KT 020V080 CAVOK 18/06 Q1016","updated":"2026-03-26T10:00:08Z"}
