{"icao":"KJFK","metar":"KJFK 020351Z 02005KT 10SM CLR 14/06 A3031 RMK AO2 SLP263 T01390061","updated":"2025-10-02T04:19:59Z"}
