{"icao":"LPPD","metar":"LPPD 090930Z 04005KT 010V070 9999 FEW030 12/05 Q1035","updated":"2026-03-09T09:50:32Z"}
