{"icao":"LPHR","metar":"LPHR 161600Z 26011KT 9999 SCT014 BKN033 17/13 Q1017","updated":"2026-03-16T16:11:04Z"}
