{"icao":"KLAX","metar":"KLAX 241235Z 13016G30KT 2SM R25L/4000VP6000FT +RA BR BKN011 BKN020 OVC028 17/16 A2983 RMK AO2 PK WND 14030/1233 VIS 1 1/2V4 P0016 T01720161 $","updated":"2025-12-24T12:40:19Z"}
