{"icao":"LPPR","metar":"LPPR 131900Z 23003KT 200V270 9999 BKN020 19/16 Q1023","updated":"2025-09-13T19:11:36Z"}
