{"icao":"LPMT","metar":"LPMT 170100Z 15009KT 120V190 4500 RA FEW016 FEW018CB SCT024 BKN030 14/14 Q1010","updated":"2025-11-17T01:24:56Z"}
