{"icao":"LPST","metar":"LPST 191100Z 15014KT 9999 SCT015 BKN040 15/12 Q1006","updated":"2026-03-19T11:34:18Z"}
