{"icao":"LPPT","metar":"LPPT 080600Z 30003KT 9999 BKN026 10/07 Q1031","updated":"2026-01-08T06:33:06Z"}
