{"icao":"LPPD","metar":"LPPD 161700Z 33011KT 290V360 9999 FEW022 23/17 Q1007","updated":"2025-10-16T17:15:49Z"}
