{"icao":"KLAX","metar":"KLAX 150853Z 15003KT 10SM FEW016 SCT022 BKN250 13/10 A3006 RMK AO2 SLP177 T01330100 55002 $","updated":"2026-02-15T09:29:56Z"}
