{"icao":"LPPR","metar":"LPPR 131800Z 24005KT 200V270 9999 FEW028 BKN035 20/16 Q1022","updated":"2025-09-13T18:20:39Z"}
