{"icao":"LPFR","metar":"LPFR 192300Z 32005KT 9999 FEW035 11/07 Q1017","updated":"2025-11-19T23:17:07Z"}
