{"icao":"LPOV","metar":"LPOV 102100Z 20007KT 7000 SCT004 BKN010 15/15 Q1015","updated":"2026-02-10T21:40:28Z"}
