{"icao":"KLAX","metar":"KLAX 292353Z 25012KT 10SM FEW030 21/14 A2988 RMK AO2 SLP115 T02110139 10228 20189 56012 $","updated":"2026-06-30T00:03:13Z"}
