{"icao":"LPPT","metar":"LPPT 191930Z 32010KT CAVOK 20/11 Q1015","updated":"2026-04-19T19:40:04Z"}
