{"icao":"LPLA","metar":"LPLA 232200Z 35007KT 330V040 9999 SCT040 19/12 Q1024","updated":"2025-09-23T22:15:47Z"}
