{"icao":"LPOV","metar":"LPOV 301200Z 01011KT CAVOK 13/06 Q1020","updated":"2025-11-30T12:35:22Z"}
