{"icao":"LPFR","metar":"LPFR 262030Z 31005KT CAVOK 14/11 Q1024","updated":"2026-02-26T20:35:43Z"}
