{"icao":"LPPR","metar":"LPPR 302200Z 30013G23KT 9999 FEW020CB BKN038 12/05 Q1010 WS R35","updated":"2026-01-30T22:24:10Z"}
