{"icao":"LPAZ","metar":"LPAZ 282300Z 24019KT 7000 SCT015 BKN033 18/16 Q1012","updated":"2026-01-28T23:24:56Z"}
