{"icao":"KORD","metar":"KORD 030351Z 22012G26KT 10SM FEW130 BKN160 08/M01 A3009 RMK AO2 PK WND 23027/0312 SLP192 T00831006 $","updated":"2025-11-03T04:27:33Z"}
