{"icao":"LPCS","metar":"LPCS 221100Z 08006KT 040V120 CAVOK 13/00 Q1031","updated":"2025-11-22T11:13:19Z"}
