{"icao":"LPMA","metar":"LPMA 031430Z 20014KT 9999 SCT013 19/16 Q1016","updated":"2026-05-03T14:47:34Z"}
