{"icao":"KORD","metar":"KORD 170951Z 26015G24KT 10SM FEW050 SCT110 M09/M17 A2978 RMK AO2 SLP095 T10941167 $","updated":"2026-01-17T10:20:03Z"}
