{"icao":"LPMT","metar":"LPMT 161700Z 31003KT 270V340 9999 FEW018 FEW020TCU 10/08 Q1013","updated":"2026-01-16T17:23:20Z"}
