{"icao":"LPLA","metar":"LPLA 051500Z 31015KT 9999 SCT020 19/14 Q1024","updated":"2026-06-05T15:51:52Z"}
