{"icao":"LPPD","metar":"LPPD 011500Z 34014KT 310V010 9999 VCSH FEW009 SCT015 BKN025 17/12 Q1023","updated":"2026-03-01T15:22:24Z"}
