{"icao":"KJFK","metar":"KJFK 080351Z 21013G19KT 10SM BKN060 BKN250 21/18 A3003 RMK AO2 SLP168 T02110178","updated":"2025-10-08T04:20:28Z"}
