{"icao":"LPPS","metar":"LPPS 070130Z 27017KT 9999 FEW014 17/11 Q1021","updated":"2026-02-07T01:54:53Z"}
