{"icao":"LPMA","metar":"LPMA 241400Z 20007KT 170V230 9999 FEW015 19/09 Q1026","updated":"2026-01-24T14:18:55Z"}
