{"icao":"LPMT","metar":"LPMT 011400Z 32006KT 280V340 CAVOK 22/07 Q1022","updated":"2026-04-01T15:02:33Z"}
