{"icao":"LPBJ","metar":"LPBJ 262300Z 09004KT CAVOK 05/01 Q1014","updated":"2025-12-26T23:18:46Z"}
