{"icao":"LPFL","metar":"LPFL 090800Z 19010KT 140V250 9999 SCT017 22/17 Q1016","updated":"2025-10-09T08:23:36Z"}
