{"icao":"LPLA","metar":"LPLA 032300Z 08008KT 050V110 9999 FEW023 15/09 Q1025","updated":"2026-05-03T23:42:46Z"}
