{"icao":"LPBJ","metar":"LPBJ 220600Z 30006KT CAVOK 09/06 Q1018","updated":"2025-09-22T06:27:50Z"}
