{"icao":"LPPR","metar":"LPPR 292000Z 34011KT 9999 VCSH SCT007 BKN011 13/12 Q1015","updated":"2025-11-29T20:19:49Z"}
