{"icao":"LPFR","metar":"LPFR 162200Z 03005KT CAVOK 21/18 Q1014","updated":"2025-10-16T22:13:21Z"}
