{"icao":"LPPR","metar":"LPPR 131600Z 06004KT 030V110 CAVOK 19/11 Q1022","updated":"2025-12-13T16:22:11Z"}
