{"icao":"LPPS","metar":"LPPS 110230Z 24005KT 9999 FEW015 16/12 Q1015","updated":"2026-05-11T02:58:34Z"}
