{"icao":"LPFR","metar":"LPFR 060700Z 33005KT CAVOK 13/10 Q1018","updated":"2025-11-06T07:17:50Z"}
