{"icao":"KORD","metar":"KORD 271851Z 31014G19KT 10SM FEW046 06/M06 A3039 RMK AO2 SLP297 T00561061","updated":"2026-03-27T18:54:28Z"}
