{"icao":"LPPS","metar":"LPPS 130400Z 04011KT 020V080 9999 SCT015 15/11 Q1024","updated":"2026-03-13T04:18:54Z"}
