{"icao":"LPBJ","metar":"LPBJ 190100Z 28006KT 9999 FEW028 09/09 Q1024","updated":"2026-02-19T02:03:58Z"}
