{"icao":"LPPR","metar":"LPPR 191400Z 20015KT 1400 R17/1200N RADZ BR BKN003 18/17 Q1011","updated":"2025-10-19T14:14:37Z"}
