{"icao":"KJFK","metar":"KJFK 290051Z 04019G24KT 10SM BKN050 12/04 A3021 RMK AO2 PK WND 04027/0035 SLP228 T01170039","updated":"2025-10-29T01:25:44Z"}
