{"icao":"LPMA","metar":"LPMA 081000Z 03013KT 9999 FEW015 17/11 Q1034","updated":"2026-01-08T10:23:16Z"}
