{"icao":"KORD","metar":"KORD 221351Z 04018KT 10SM FEW150 BKN190 BKN250 06/01 A2971 RMK AO2 PK WND 02035/1303 SLP061 T00560011","updated":"2026-03-22T14:27:26Z"}
