{"icao":"LPPS","metar":"LPPS 021900Z 06006KT 010V130 9999 SCT014 22/17 Q1021","updated":"2025-10-02T19:13:48Z"}
