{"icao":"LPPT","metar":"LPPT 160800Z VRB01KT CAVOK 22/08 Q1015","updated":"2025-10-16T08:25:19Z"}
