{"icao":"LPPT","metar":"LPPT 240900Z 03005KT 310V120 9999 FEW010 21/15 Q1021","updated":"2026-05-24T09:23:06Z"}
