{"icao":"LPMT","metar":"LPMT 250900Z 36003KT 290V070 CAVOK 18/12 Q1017","updated":"2026-04-25T09:51:12Z"}
