{"icao":"LPPT","metar":"LPPT 291800Z 31009KT 290V350 CAVOK 22/14 Q1016","updated":"2025-09-29T18:26:15Z"}
