{"icao":"LPPR","metar":"LPPR 110330Z 16011KT 5000 -DZRA BR BKN004 11/10 Q1025","updated":"2026-01-11T03:49:04Z"}
