{"icao":"LPPT","metar":"LPPT 062230Z 32011KT 300V010 CAVOK 13/10 Q1012","updated":"2026-05-06T22:52:07Z"}
