{"icao":"KLAX","metar":"KLAX 042053Z 27010KT 10SM FEW160 FEW250 21/M03 A3015 RMK AO2 SLP209 T02111028 58018 $","updated":"2025-12-04T21:18:43Z"}
