{"icao":"LPMA","metar":"LPMA 042200Z 23018KT 190V260 9999 FEW015 19/12 Q1008","updated":"2026-02-04T22:26:34Z"}
