{"icao":"LPPR","metar":"LPPR 301000Z 10012KT CAVOK 22/12 Q1019","updated":"2025-09-30T10:18:24Z"}
