{"icao":"LPPT","metar":"LPPT 281300Z 18011KT 9000 RA FEW025 SCT030 FEW035CB 21/18 Q1012","updated":"2025-10-28T13:29:14Z"}
