{"icao":"LPMR","metar":"LPMR 012300Z 13017G27KT 9999 BKN015 13/11 Q1006","updated":"2026-01-01T23:18:54Z"}
