{"icao":"KLAX","metar":"KLAX 031453Z 00000KT 7SM BCFG FEW000 SCT009 13/11 A3019 RMK AO2 SLP223 FG FEW000 FG BANK SW T01280111 53005 $","updated":"2026-02-03T15:49:18Z"}
