{"icao":"KORD","metar":"KORD 190951Z 27017G30KT 10SM -SN SCT021 BKN027 OVC055 M10/M14 A2962 RMK AO2 PK WND 27031/0940 SLP040 P0000 T11001144","updated":"2025-12-19T10:22:14Z"}
