{"icao":"LPPT","metar":"LPPT 100600Z 26004KT 9999 FEW014 BKN036 10/09 Q1029","updated":"2026-01-10T06:29:12Z"}
