{"icao":"LPOV","metar":"LPOV 290700Z 23009KT 200V260 3000 -DZ BR BKN005 BKN014 15/15 Q1003","updated":"2026-01-29T07:38:30Z"}
