{"icao":"LPAR","metar":"LPAR 301200Z 26015G34KT 230V300 9999 FEW020 17/11 Q1012","updated":"2026-01-30T12:53:03Z"}
