{"icao":"LPLA","metar":"LPLA 131000Z 32013KT 9999 SCT032 14/09 Q1030","updated":"2026-02-13T10:38:19Z"}
