{"icao":"KORD","metar":"KORD 111551Z 05010KT 10SM SCT031 SCT300 18/08 A3017 RMK AO2 SLP215 T01780078","updated":"2025-10-11T16:19:00Z"}
