{"icao":"LPAR","metar":"LPAR 161700Z 06007KT 040V110 CAVOK 23/09 Q1017","updated":"2026-03-16T20:36:58Z"}
