{"icao":"LPPR","metar":"LPPR 181530Z 30010KT 270V330 9999 FEW015 SCT025 14/09 Q1016","updated":"2026-02-18T15:50:58Z"}
