{"icao":"LPLA","metar":"LPLA 102100Z 35012KT 9999 FEW011 SCT017 14/12 Q1021","updated":"2026-05-10T21:46:33Z"}
