{"icao":"LPFR","metar":"LPFR 281530Z 16007KT 120V180 CAVOK 22/18 Q1019","updated":"2026-05-28T15:50:13Z"}
