{"icao":"LPOV","metar":"LPOV 200100Z 19002KT 140V250 9999 FEW040 16/14 Q1020","updated":"2025-09-20T01:15:27Z"}
