{"icao":"LPOV","metar":"LPOV 141300Z 26005KT 220V310 9999 FEW009 17/15 Q1023","updated":"2026-04-14T13:23:04Z"}
