{"icao":"LPPS","metar":"LPPS 151230Z 06013KT 030V090 9999 FEW015 17/11 Q1033","updated":"2026-02-15T12:48:47Z"}
