{"icao":"LPPS","metar":"LPPS 132030Z 34015KT 9999 FEW015 15/09 Q1028","updated":"2026-02-13T20:36:42Z"}
