{"icao":"LPBJ","metar":"LPBJ 032313Z 25017KT 2000 DZRA BR BKN006 OVC014 14/14 Q0996","updated":"2026-02-03T23:26:44Z"}
