{"icao":"LPFR","metar":"LPFR 281500Z 13006KT 9000 -RA FEW015 SCT030 21/20 Q1012","updated":"2025-10-28T15:20:12Z"}
