{"icao":"LPLA","metar":"LPLA 222209Z 31011KT 3000 -DZ BR SCT003 BKN006 20/19 Q1027","updated":"2026-06-22T22:45:56Z"}
