{"icao":"KJFK","metar":"KJFK 111851Z 28020G33KT 10SM SCT065 02/M13 A2968 RMK AO2 PK WND 29033/1844 SLP050 T00221133 $","updated":"2025-12-11T19:19:11Z"}
