{"icao":"LPMT","metar":"LPMT 190100Z 33003KT CAVOK 12/11 Q1018","updated":"2025-11-19T01:23:31Z"}
