{"icao":"LPPS","metar":"LPPS 022200Z 33022KT 9999 VCSH FEW015 FEW018CB 13/08 Q1019","updated":"2026-03-02T22:25:28Z"}
