{"icao":"LPBJ","metar":"LPBJ 070400Z 28005KT CAVOK 03/01 Q1025","updated":"2026-01-07T04:39:19Z"}
