{"icao":"KORD","metar":"KORD 060551Z 11004KT 10SM FEW100 OVC230 02/00 A2969 RMK AO2 SLP060 T00170000 10039 20017 400720000 58024","updated":"2026-01-06T06:33:25Z"}
