{"icao":"LPFR","metar":"LPFR 271730Z 27008KT CAVOK 17/10 Q1014","updated":"2026-03-27T17:48:57Z"}
