{"icao":"LPLA","metar":"LPLA 021600Z 20007KT 160V240 9999 FEW028 SCT035 20/12 Q1020","updated":"2025-11-02T16:19:41Z"}
