{"icao":"LPFR","metar":"LPFR 240130Z 08003KT 050V110 9999 BKN002 11/10 Q1022","updated":"2026-02-24T02:00:30Z"}
