{"icao":"KLAX","metar":"KLAX 092253Z 21005KT 10SM FEW190 17/M02 A3031 RMK AO2 SLP262 T01671017 $","updated":"2026-01-09T23:19:05Z"}
