{"icao":"LPPT","metar":"LPPT 200300Z 32003KT 270V020 9999 FEW010 19/18 Q1019","updated":"2025-09-20T03:25:54Z"}
