{"icao":"KORD","metar":"KORD 201251Z 26009KT 10SM FEW020 M16/M21 A3035 RMK AO2 SLP293 T11611206 $","updated":"2026-01-20T13:45:58Z"}
