{"icao":"LPAZ","metar":"LPAZ 271400Z 04014KT 010V080 9999 FEW026 SCT040 23/14 Q1025","updated":"2025-09-27T14:14:18Z"}
