{"icao":"KJFK","metar":"KJFK 200551Z 21006KT 10SM BKN060 BKN250 03/M02 A3019 RMK AO2 SLP224 T00331017 10039 20011 56004","updated":"2026-03-20T06:54:04Z"}
