{"icao":"LPOV","metar":"LPOV 181800Z VRB01KT CAVOK 19/14 Q1016","updated":"2025-10-18T18:22:12Z"}
