{"icao":"KLAX","metar":"KLAX 030453Z 00000KT 8SM BKN010 16/14 A3005 RMK AO2 SLP176 T01610144 $","updated":"2025-11-03T05:18:59Z"}
