{"icao":"LPFL","metar":"LPFL 260830Z 18006KT 150V210 9999 FEW012 SCT025 16/12 Q1018","updated":"2026-04-26T08:59:12Z"}
