{"icao":"LPMA","metar":"LPMA 031830Z 34003KT 300V030 9999 FEW015 19/13 Q1012","updated":"2026-02-03T18:55:21Z"}
