{"icao":"KJFK","metar":"KJFK 280851Z 36013KT 10SM FEW070 02/M09 A3025 RMK AO2 SLP243 T00171089 53021","updated":"2026-03-28T09:36:12Z"}
