{"icao":"LPAR","metar":"LPAR 221500Z 31006KT 280V350 9999 FEW025 BKN045 14/07 Q1013","updated":"2025-12-22T15:20:42Z"}
