{"icao":"LPMT","metar":"LPMT 210100Z 20007KT 8000 -RA FEW015 SCT030 13/12 Q1014","updated":"2026-01-21T01:44:25Z"}
