{"icao":"LPLA","metar":"LPLA 222200Z 28014KT 9000 -SHRA SCT025 SCT035 13/09 Q1000","updated":"2026-04-22T22:45:37Z"}
