{"icao":"LPMA","metar":"LPMA 270700Z 36008KT 330V030 9999 SCT015 SCT030 18/11 Q1022","updated":"2025-11-27T07:19:45Z"}
