{"icao":"KORD","metar":"KORD 170651Z 25017G23KT 10SM BKN170 OVC250 04/M01 A2973 RMK AO2 SLP072 T00391011","updated":"2025-12-17T07:21:58Z"}
