{"icao":"KORD","metar":"KORD 191330Z 28016G28KT 6SM BLSN SCT018 M18/M23 A3007 RMK AO2 PK WND 27031/1255 T11781233 $","updated":"2026-01-19T13:44:23Z"}
