{"icao":"LPMA","metar":"LPMA 132100Z 35008KT 280V050 9999 FEW016 16/08 Q1028","updated":"2026-02-13T21:33:48Z"}
