{"icao":"LPFL","metar":"LPFL 191500Z 02008KT 350V050 9999 FEW022 BKN027 17/11 Q1029","updated":"2025-11-19T15:20:02Z"}
