{"icao":"LPPS","metar":"LPPS 141700Z 04011KT 360V070 9999 SCT012 BKN030 16/14 Q1023","updated":"2026-03-14T17:25:45Z"}
