{"icao":"LPFL","metar":"LPFL 051930Z 16006KT 110V190 9999 SCT021 18/13 Q1025","updated":"2026-06-05T19:52:22Z"}
