{"icao":"KJFK","metar":"KJFK 110351Z 31020G28KT 10SM BKN033 03/M05 A2971 RMK AO2 PK WND 31028/0346 SLP060 T00281050","updated":"2025-11-11T04:23:28Z"}
