{"icao":"LPMA","metar":"LPMA 191300Z 21007KT 170V230 9999 SCT014 25/21 Q1019","updated":"2025-10-19T13:21:43Z"}
