{"icao":"KORD","metar":"KORD 071151Z 36012KT 7SM -RA OVC006 15/14 A3003 RMK AO2 SLP167 P0006 60095 70132 T01500144 10172 20150 53006 $","updated":"2025-10-07T12:37:14Z"}
