{"icao":"LPBJ","metar":"LPBJ 060200Z 27003KT CAVOK 17/12 Q1018","updated":"2025-10-06T03:00:30Z"}
