{"icao":"KORD","metar":"KORD 170651Z 20006KT 10SM OVC100 10/03 A2995 RMK AO2 SLP141 T01000033 $","updated":"2026-02-17T07:02:52Z"}
