{"icao":"LPMA","metar":"LPMA 070600Z 33003KT 290V010 9999 FEW016 18/13 Q1019","updated":"2025-11-07T06:27:46Z"}
