{"icao":"LPMR","metar":"LPMR 130300Z 14005KT 080V200 2000 SHRA SCT022 FEW025CB BKN032 16/15 Q1002 RERA","updated":"2025-11-13T03:13:37Z"}
