{"icao":"LPLA","metar":"LPLA 281900Z 09007KT 060V120 9999 SCT020 BKN030 15/10 Q1034","updated":"2026-03-28T19:28:40Z"}
