{"icao":"LPAZ","metar":"LPAZ 300400Z 34009KT 9999 FEW010 BKN020 18/16 Q1028","updated":"2025-11-30T04:32:56Z"}
