{"icao":"LPFL","metar":"LPFL 191600Z 33004KT 260V010 9999 SCT023 16/10 Q1030","updated":"2026-01-19T16:27:54Z"}
