{"icao":"LPST","metar":"LPST 100800Z 25014KT 4000 -RA BR BKN003 BKN012 15/15 Q1016","updated":"2026-02-10T08:54:14Z"}
