{"icao":"LPPR","metar":"LPPR 160330Z 14004KT 110V180 9000 OVC003 16/15 Q1016","updated":"2026-06-16T03:58:03Z"}
