{"icao":"LPMR","metar":"LPMR 141900Z 16005KT 9999 TS SCT016 FEW020CB SCT030 13/12 Q1004","updated":"2025-11-14T19:14:33Z"}
