{"icao":"LPMT","metar":"LPMT 120900Z VRB02KT 8000 -RADZ BKN006 SCT020 13/13 Q1012","updated":"2025-12-12T09:23:33Z"}
