{"icao":"LPPR","metar":"LPPR 111200Z 09008KT 060V140 CAVOK 26/12 Q1021","updated":"2025-10-11T12:31:42Z"}
