{"icao":"LPHR","metar":"LPHR 200830Z 19016KT 9000 SCT007 SCT011 BKN030 17/15 Q1019","updated":"2026-02-20T08:38:37Z"}
