{"icao":"LPPR","metar":"LPPR 221230Z 22004KT 160V310 9999 FEW012 23/19 Q1017","updated":"2026-06-22T12:48:35Z"}
