{"icao":"LPLA","metar":"LPLA 032100Z 15004KT 130V190 9999 SCT025 BKN035 14/10 Q1023","updated":"2026-04-03T21:32:44Z"}
