{"icao":"KORD","metar":"KORD 201628Z 26014G34KT 10SM OVC017 01/M03 A2950 RMK AO2 PK WND 27034/1552 SNE27 P0000 T00061033","updated":"2026-02-20T16:37:14Z"}
