{"icao":"KORD","metar":"KORD 272151Z 33013G20KT 10SM BKN060 07/M08 A3038 RMK AO2 PK WND 31030/2140 SLP292 T00671083","updated":"2026-03-27T22:30:36Z"}
