{"icao":"KJFK","metar":"KJFK 051351Z 08008KT 10SM FEW050 FEW095 SCT180 SCT210 M06/M17 A3035 RMK AO2 SLP275 T10611172 $","updated":"2025-12-05T14:20:08Z"}
