{"icao":"LPPT","metar":"LPPT 030800Z 05005KT 020V080 9999 FEW006 12/11 Q1024","updated":"2025-11-03T08:26:03Z"}
