{"icao":"KJFK","metar":"KJFK 221851Z 06013KT 1 1/2SM -SN BR BKN009 OVC014 01/M01 A3000 RMK AO2 PK WND 09026/1755 SFC VIS 1 3/4 RAE46 SLP158 P0000 T00061006 $","updated":"2026-02-22T19:23:45Z"}
