{"icao":"LPMR","metar":"LPMR 220000Z 13004KT CAVOK 19/13 Q1019","updated":"2026-05-22T03:32:46Z"}
