{"icao":"LPAZ","metar":"LPAZ 131830Z 03011KT 360V060 9999 FEW022 17/09 Q1027","updated":"2026-05-13T18:55:59Z"}
