{"icao":"LPMT","metar":"LPMT 221600Z 04003KT CAVOK 15/M01 Q1028","updated":"2025-11-22T16:20:50Z"}
