{"icao":"KJFK","metar":"KJFK 191851Z 03006KT 10SM BKN019 BKN075 07/03 A3016 RMK AO2 SLP213 T00720028 $","updated":"2025-11-19T19:15:30Z"}
