{"icao":"LPPR","metar":"LPPR 191700Z 30003KT 280V360 9999 3000W BCFG SCT003 FEW020TCU 15/13 Q1015","updated":"2026-04-19T17:34:02Z"}
