{"icao":"KLAX","metar":"KLAX 201853Z 14005KT 10SM BKN027 BKN032 BKN055 16/10 A3004 RMK AO2 SLP171 T01560100 $","updated":"2025-11-20T19:15:37Z"}
