{"icao":"LPBJ","metar":"LPBJ 142300Z 23004KT 220V280 CAVOK 18/10 Q1017","updated":"2025-10-14T23:15:52Z"}
