{"icao":"LPLA","metar":"LPLA 120600Z 35005KT 310V020 9999 SCT022 BKN040 14/10 Q1026","updated":"2026-05-12T06:35:17Z"}
