{"icao":"LPMT","metar":"LPMT 130700Z 05003KT 360V080 9999 FEW006 14/13 Q1019","updated":"2026-05-13T07:48:03Z"}
