{"icao":"LPBJ","metar":"LPBJ 150300Z 30008KT CAVOK 11/09 Q1012","updated":"2026-05-15T03:46:37Z"}
