{"icao":"KJFK","metar":"KJFK 010451Z 21018G25KT 10SM SCT047 BKN070 OVC085 01/M07 A2967 RMK AO2 SLP048 T00111067 400111028 $","updated":"2026-01-01T05:26:09Z"}
