{"icao":"LPMA","metar":"LPMA 240230Z 33006KT 290V020 9999 SCT015 20/12 Q1020","updated":"2025-09-24T02:57:46Z"}
