{"icao":"LPFL","metar":"LPFL 250900Z 18006KT 130V230 9999 VCSH BKN009 19/17 Q1025","updated":"2025-11-25T09:22:40Z"}
