{"icao":"KORD","metar":"KORD 292351Z 02009KT 10SM FEW018 SCT029 BKN080 08/04 A2998 RMK AO2 SLP154 60000 T00780039 10117 20078 53008","updated":"2026-04-29T23:53:53Z"}
