{"icao":"KLAX","metar":"KLAX 230553Z 20005KT 6SM BR FEW003 OVC006 19/18 A2983 RMK AO2 SLP100 T01940178 10217 20189 53009 $","updated":"2025-09-23T06:27:13Z"}
