{"icao":"LPPT","metar":"LPPT 301630Z 04009KT 350V080 CAVOK 21/02 Q1027","updated":"2026-03-30T16:54:07Z"}
