{"icao":"LPMR","metar":"LPMR 250900Z 27008KT 230V300 7000 FEW009 SCT015 FEW020CB BKN035 13/12 Q1014","updated":"2026-01-25T09:20:18Z"}
