{"icao":"KLAX","metar":"KLAX 092053Z 27012KT 10SM FEW025 FEW180 SCT250 20/13 A2990 RMK AO2 SLP123 T02000128 58014 $","updated":"2026-03-09T21:31:48Z"}
