{"icao":"LPPS","metar":"LPPS 021630Z 29022KT 9999 FEW015 17/09 Q1014","updated":"2026-02-02T16:38:03Z"}
