{"icao":"LPMR","metar":"LPMR 241000Z 24009KT 210V280 1500 RADZ OVC007 16/15 Q1017","updated":"2025-11-24T10:21:42Z"}
