{"icao":"LPPD","metar":"LPPD 130530Z 22014KT 9999 SCT015 BKN030 15/13 Q1025","updated":"2026-04-13T05:40:34Z"}
