{"icao":"KJFK","metar":"KJFK 230451Z 26011KT 10SM BKN090 BKN180 OVC250 03/M06 A3040 RMK AO2 SLP293 T00281061 400391033 $","updated":"2025-12-23T05:23:02Z"}
