{"icao":"LPBJ","metar":"LPBJ 230900Z VRB03KT CAVOK 27/10 Q1022","updated":"2026-05-23T09:50:42Z"}
