{"icao":"LPPR","metar":"LPPR 250600Z 05004KT 020V090 9999 -RA BKN047 14/14 Q1014","updated":"2025-10-25T06:23:52Z"}
