{"icao":"LPPT","metar":"LPPT 051600Z 32005KT 260V360 CAVOK 25/15 Q1018","updated":"2025-10-05T16:18:39Z"}
