{"icao":"LPMR","metar":"LPMR 040300Z 24010KT 210V270 9999 FEW009 BKN018 BKN030 15/13 Q1020","updated":"2025-12-04T03:17:59Z"}
