{"icao":"LPMA","metar":"LPMA 142200Z 33004KT 290V020 9999 FEW015 19/14 Q1014","updated":"2025-11-14T22:17:25Z"}
