{"icao":"LPPR","metar":"LPPR 232100Z 29012KT 240V330 9999 FEW020CB BKN030 09/01 Q0998","updated":"2026-01-23T21:19:54Z"}
