{"icao":"LPAZ","metar":"LPAZ 070530Z 27022KT 7000 FEW006 BKN012 16/14 Q1013","updated":"2026-02-07T05:40:50Z"}
