{"icao":"LPBJ","metar":"LPBJ 192200Z 30005KT CAVOK 16/10 Q1016","updated":"2026-04-19T22:33:55Z"}
