{"icao":"LPPD","metar":"LPPD 281230Z 34015KT 310V020 9999 SCT012 19/13 Q1019","updated":"2025-10-28T12:37:41Z"}
