{"icao":"KJFK","metar":"KJFK 010951Z 28013G21KT 10SM FEW060 10/M02 A2982 RMK AO2 PK WND 29028/0928 SLP097 T01001017 $","updated":"2025-11-01T10:17:08Z"}
