{"icao":"LPPR","metar":"LPPR 151600Z 32009KT CAVOK 16/11 Q1020","updated":"2026-03-15T16:31:22Z"}
