{"icao":"LPMA","metar":"LPMA 021230Z 18007KT 110V230 9999 FEW015 24/20 Q1018","updated":"2026-07-02T12:56:43Z"}
