{"icao":"LPFR","metar":"LPFR 081700Z 30017KT CAVOK 23/13 Q1019","updated":"2025-10-08T17:15:23Z"}
