{"icao":"KORD","metar":"KORD 071307Z 34007KT 10SM FEW009 OVC014 14/13 A3006 RMK AO2 RAE02 P0000 T01390128","updated":"2025-10-07T13:28:16Z"}
