{"icao":"LPPT","metar":"LPPT 301400Z 07005KT 350V120 9000 FEW002 10/10 Q1020","updated":"2025-12-30T14:20:02Z"}
