{"icao":"LPMT","metar":"LPMT 302300Z 34008KT 310V010 9999 FEW020 17/14 Q1021","updated":"2026-05-30T23:08:32Z"}
