{"icao":"LPOV","metar":"LPOV 151300Z 35020KT CAVOK 15/10 Q1020","updated":"2026-03-15T13:46:21Z"}
