{"icao":"LPST","metar":"LPST 171100Z 12013KT CAVOK 16/06 Q1010","updated":"2026-03-17T11:42:08Z"}
