{"icao":"KORD","metar":"KORD 081951Z 18014G22KT 10SM -RA OVC019 13/09 A2967 RMK AO2 PK WND 18026/1908 RAB47 SLP048 P0000 T01280089","updated":"2026-01-08T20:24:07Z"}
