{"icao":"LPLA","metar":"LPLA 152200Z 15008KT 090V200 9999 FEW015 16/12 Q1027","updated":"2026-02-15T22:22:22Z"}
