{"icao":"LPMT","metar":"LPMT 061800Z 26007KT CAVOK 21/18 Q1019","updated":"2025-10-06T19:13:42Z"}
