{"icao":"LPPR","metar":"LPPR 120100Z 09004KT CAVOK 20/10 Q1018","updated":"2025-10-12T01:21:47Z"}
