{"icao":"KLAX","metar":"KLAX 062053Z 25010KT 9SM FEW012 FEW028 22/15 A2982 RMK AO2 SLP095 T02170150 58012 $","updated":"2025-10-06T21:14:57Z"}
