{"icao":"KORD","metar":"KORD 071951Z 27014G25KT 10SM BKN018 BKN034 BKN055 09/04 A2974 RMK AO2 PK WND 26030/1937 SLP072 T00890044","updated":"2026-03-07T20:24:17Z"}
