{"icao":"LPBJ","metar":"LPBJ 091900Z 30008KT CAVOK 22/15 Q1019","updated":"2025-10-09T19:14:37Z"}
