{"icao":"LPCS","metar":"LPCS 171400Z 21006KT 160V260 CAVOK 31/07 Q1020","updated":"2025-09-17T14:16:32Z"}
