{"icao":"KJFK","metar":"KJFK 302251Z 19008KT 10SM FEW070 BKN090 BKN120 BKN140 BKN250 12/07 A3009 RMK AO2 SLP188 VCSH N T01170067","updated":"2026-03-30T23:33:47Z"}
