{"icao":"LPFR","metar":"LPFR 191700Z 11007KT CAVOK 20/14 Q1014","updated":"2026-04-19T17:34:02Z"}
