{"icao":"LPPR","metar":"LPPR 041830Z VRB01KT CAVOK 17/12 Q1021","updated":"2026-04-04T18:40:12Z"}
