{"icao":"LPPT","metar":"LPPT 271800Z 05015KT 9999 -RA FEW020TCU BKN022 09/07 Q1006 RERA","updated":"2025-12-27T18:26:45Z"}
