{"icao":"LPOV","metar":"LPOV 101100Z 18015KT 9999 FEW025 18/11 Q1009","updated":"2026-05-10T11:50:19Z"}
