{"icao":"LPMT","metar":"LPMT 031100Z 26008KT 220V290 9999 FEW020 SCT035 20/12 Q1015","updated":"2026-05-03T11:40:44Z"}
