{"icao":"LPMA","metar":"LPMA 021700Z 04009KT 010V080 9999 SCT015 23/18 Q1021","updated":"2025-10-02T17:13:01Z"}
