{"icao":"LPMR","metar":"LPMR 140500Z 13003KT CAVOK 07/06 Q1020","updated":"2025-12-14T05:18:30Z"}
