{"icao":"LPCS","metar":"LPCS 031000Z 11009KT 080V150 4000 SHRA BR FEW003 BKN009 FEW020TCU 14/14 Q0998","updated":"2026-01-03T10:19:29Z"}
