{"icao":"LPMA","metar":"LPMA 171300Z 35011G24KT 320V020 9999 SCT015 FEW018TCU 21/12 Q1023","updated":"2025-11-17T13:30:49Z"}
