{"icao":"LPHR","metar":"LPHR 270800Z 04009KT 010V070 9999 FEW016 FEW018TCU SCT030 17/13 Q1020","updated":"2025-10-27T08:25:46Z"}
