{"icao":"KORD","metar":"KORD 260458Z 26018G28KT 10SM -RA BKN035 OVC045 06/02 A2972 RMK AO2 PK WND 26028/0458 P0000 T00560017","updated":"2025-11-26T05:18:46Z"}
