{"icao":"LPMT","metar":"LPMT 080900Z VRB02KT 9999 BKN028 09/08 Q1032","updated":"2026-01-08T09:27:20Z"}
