{"icao":"KORD","metar":"KORD 181951Z 23012G19KT 10SM SCT030 BKN100 BKN250 M09/M16 A2992 RMK AO2 SLP145 T10891161 $","updated":"2026-01-18T20:21:57Z"}
