{"icao":"LPPR","metar":"LPPR 220730Z 00000KT CAVOK 20/15 Q1019","updated":"2026-05-22T07:42:47Z"}
