{"icao":"LPMA","metar":"LPMA 201130Z 05006KT 020V120 9999 FEW013 21/14 Q1004","updated":"2026-04-20T12:03:04Z"}
