{"icao":"LPPS","metar":"LPPS 021930Z 34021KT 9999 FEW015 FEW018TCU 13/05 Q1018","updated":"2026-03-02T19:35:57Z"}
