{"icao":"LPMA","metar":"LPMA 280330Z 01006KT 320V030 9999 SCT015 21/16 Q1023","updated":"2026-06-28T03:39:39Z"}
