{"icao":"LPPT","metar":"LPPT 290600Z 07004KT 9000 2500SE -RA FEW002 BKN004 FEW018TCU 16/16 Q1006","updated":"2025-10-29T06:28:50Z"}
