{"icao":"LPPR","metar":"LPPR 050130Z 32003KT 270V350 9999 SCT009 BKN010 12/10 Q1015","updated":"2026-03-05T01:59:49Z"}
