{"icao":"LPPT","metar":"LPPT 232300Z 26009KT 9999 -DZ FEW010 BKN012 14/12 Q1024","updated":"2025-11-23T23:16:34Z"}
