{"icao":"LPCS","metar":"LPCS 300800Z 00000KT 9999 FEW014 SCT030 16/16 Q1014","updated":"2025-10-30T08:23:58Z"}
