{"icao":"LPFL","metar":"LPFL 201930Z VRB07KT 9999 FEW023 16/09 Q1010","updated":"2026-05-20T23:12:17Z"}
