{"icao":"LPPR","metar":"LPPR 061830Z 24009KT 210V320 8000 -SHRA FEW020CB BKN040 11/06 Q1003","updated":"2026-02-06T18:49:31Z"}
