{"icao":"LPHR","metar":"LPHR 161300Z 26010KT 9999 FEW018 SCT060 22/17 Q1007","updated":"2025-10-16T13:29:42Z"}
