{"icao":"KJFK","metar":"KJFK 201951Z 33017G25KT 10SM SCT060 BKN085 11/M06 A3015 RMK PK WND 30027/1941 SLP209 VIRGA S-SW T01111056 ","updated":"2026-04-20T20:43:51Z"}
