{"icao":"LPMT","metar":"LPMT 181900Z 24007KT CAVOK 20/12 Q1014","updated":"2026-04-18T19:39:52Z"}
