{"icao":"LPHR","metar":"LPHR 141400Z 04009KT 010V090 9999 FEW018 SCT035 17/10 Q1031","updated":"2026-05-14T14:08:03Z"}
