{"icao":"LPMT","metar":"LPMT 160900Z 03011KT CAVOK 13/10 Q1020","updated":"2026-03-16T10:05:24Z"}
