{"icao":"KLAX","metar":"KLAX 101253Z 30004KT 1/16SM R25L/1600V2600FT FG VV001 15/15 A3011 RMK AO2 SLP195 T01500150 $","updated":"2025-11-10T13:30:49Z"}
