{"icao":"LPPR","metar":"LPPR 192300Z 00000KT 6000 MIFG FEW004 05/05 Q1021","updated":"2026-01-19T23:19:17Z"}
