{"icao":"KORD","metar":"KORD 242151Z 13005KT 10SM SCT050 BKN190 OVC250 07/M02 A3012 RMK AO2 SLP205 T00721017 $","updated":"2025-12-24T22:18:47Z"}
