{"icao":"LPLA","metar":"LPLA 291400Z 05007KT 020V080 9999 FEW035 21/14 Q1030","updated":"2026-06-29T14:46:53Z"}
