{"icao":"KORD","metar":"KORD 121351Z 30003KT 10SM FEW030 SCT250 M06/M09 A3012 RMK AO2 SLP210 T10611094","updated":"2025-12-12T14:18:25Z"}
