{"icao":"LPPR","metar":"LPPR 161400Z 25004KT 210V280 4000 -SHRA FEW010 FEW020CB BKN040 09/08 Q1012","updated":"2026-01-16T14:22:08Z"}
