{"icao":"LPPR","metar":"LPPR 251200Z 19016KT 9999 FEW024 23/17 Q1015","updated":"2026-06-25T12:19:04Z"}
