{"icao":"LPPT","metar":"LPPT 011300Z 14004KT 080V240 9999 SCT014 BKN020 19/16 Q1018","updated":"2025-11-01T13:22:08Z"}
