{"icao":"LPFL","metar":"LPFL 011600Z 33018G40KT 250V030 9999 -SHRA SCT017 SCT023CB 10/06 Q1011 RESHGS","updated":"2026-02-01T16:28:24Z"}
