{"icao":"LPST","metar":"LPST 271000Z 07011KT 040V100 CAVOK 16/01 Q1018","updated":"2026-03-27T10:47:52Z"}
