{"icao":"LPCS","metar":"LPCS 151100Z 36015KT CAVOK 26/14 Q1021","updated":"2025-09-15T11:14:12Z"}
