{"icao":"KJFK","metar":"KJFK 270551Z 02005KT 10SM FEW250 07/02 A3038 RMK AO2 SLP288 T00670017 10111 20061 58001","updated":"2025-10-27T06:30:22Z"}
