{"icao":"LPOV","metar":"LPOV 081500Z 35004KT 290V020 9000 FEW026 14/12 Q1019","updated":"2026-04-08T15:08:19Z"}
