{"icao":"LPFR","metar":"LPFR 092330Z 24004KT CAVOK 16/13 Q1014","updated":"2026-04-09T23:36:16Z"}
