{"icao":"KJFK","metar":"KJFK 250451Z 05010KT 10SM BKN150 BKN250 M09/M22 A3068 RMK AO2 SLP388 T10941222 410781122 $","updated":"2026-01-25T05:27:24Z"}
