{"icao":"LPFL","metar":"LPFL 160800Z 18012KT 120V240 9999 FEW011 SCT014 23/19 Q1019","updated":"2025-09-16T08:23:48Z"}
