{"icao":"LPAZ","metar":"LPAZ 211300Z 22012KT 9000 FEW005 SCT020 BKN025 24/22 Q1018","updated":"2025-10-21T13:32:28Z"}
