{"icao":"LPPD","metar":"LPPD 011400Z 19005KT 140V220 9999 FEW012 23/21 Q1022","updated":"2025-10-01T14:17:57Z"}
