{"icao":"KJFK","metar":"KJFK 041251Z 28005KT 10SM CLR 17/12 A3023 RMK AO2 SLP237 T01720122","updated":"2025-10-04T13:20:13Z"}
