{"icao":"LPAZ","metar":"LPAZ 161300Z 29005KT 210V320 9999 FEW030 19/11 Q1024","updated":"2025-11-16T13:22:56Z"}
