{"icao":"LPBJ","metar":"LPBJ 300400Z 28007KT 6000 VCFG FEW005 SCT020 11/10 Q1015","updated":"2025-11-30T04:32:42Z"}
