{"icao":"LPCS","metar":"LPCS 240700Z 26010KT 220V290 8000 -RADZ SCT008 BKN018 15/14 Q1020","updated":"2025-11-24T07:18:45Z"}
