{"icao":"LPMA","metar":"LPMA 262100Z 21012KT 170V250 9999 -RA BKN016 18/13 Q1017","updated":"2026-01-26T21:23:00Z"}
