{"icao":"LPPT","metar":"LPPT 050500Z 27010KT 6000 -DZRA FEW006 SCT010 BKN012 16/16 Q1020","updated":"2025-12-05T05:18:45Z"}
