{"icao":"LPHR","metar":"LPHR 031900Z 25013KT 9999 FEW008 BKN012 20/19 Q1009","updated":"2025-11-03T19:14:59Z"}
