{"icao":"LPST","metar":"LPST 201400Z 29007KT 230V360 9999 BKN025 21/15 Q1015","updated":"2025-10-20T14:17:40Z"}
