{"icao":"LPPT","metar":"LPPT 091100Z 31012KT 280V350 9999 FEW020 SCT035 12/07 Q1023","updated":"2026-03-09T11:33:31Z"}
