{"icao":"LPFR","metar":"LPFR 251600Z 33013KT CAVOK 18/01 Q1020","updated":"2025-11-25T16:26:12Z"}
