{"icao":"KJFK","metar":"KJFK 200451Z 16020G34KT 10SM FEW047 SCT065 BKN085 BKN250 19/17 A2978 RMK AO2 PK WND 16034/0442 SLP084 T01940167 402110100 $","updated":"2025-10-20T05:19:06Z"}
