{"icao":"KJFK","metar":"KJFK 211751Z 02009KT 10SM -RA FEW015 SCT055 OVC100 15/13 A3024 RMK AO2 SLP240 P0001 60006 T01500128 10178 20133 51009","updated":"2026-05-21T17:56:40Z"}
