{"icao":"LPPT","metar":"LPPT 152000Z 32014KT 9999 FEW015 19/15 Q1021","updated":"2025-09-15T20:18:39Z"}
