{"icao":"LPAZ","metar":"LPAZ 181100Z 21008KT 9999 FEW013 SCT030 BKN043 25/21 Q1018","updated":"2025-09-18T11:13:45Z"}
