{"icao":"LPPS","metar":"LPPS 152000Z 07010G20KT 040V100 9999 FEW015 15/12 Q1031","updated":"2026-02-15T20:25:07Z"}
