{"icao":"LPCS","metar":"LPCS 161430Z 07007KT 030V140 CAVOK 22/08 Q1018","updated":"2026-03-16T14:58:12Z"}
