{"icao":"LPLA","metar":"LPLA 250400Z 26011KT 210V290 9999 FEW015 SCT025 17/14 Q1016","updated":"2026-01-25T04:51:14Z"}
