{"icao":"LPPT","metar":"LPPT 161430Z 28008KT 250V310 9999 FEW022 BKN026 16/10 Q1031","updated":"2026-02-16T14:39:34Z"}
