{"icao":"KLAX","metar":"KLAX 141704Z 26011KT 3SM -RA BR FEW009 SCT027 OVC034 13/11 A2986 RMK AO2 P0002 T01330111 $","updated":"2025-10-14T17:15:34Z"}
