{"icao":"LPMT","metar":"LPMT 270800Z 24011KT 8000 FEW016 BKN040 12/11 Q1000","updated":"2026-01-27T08:31:59Z"}
