{"icao":"LPAZ","metar":"LPAZ 100400Z 09004KT 060V120 9999 BKN032 11/06 Q1034","updated":"2026-03-10T04:09:18Z"}
