{"icao":"KJFK","metar":"KJFK 092100Z 21009KT 10SM FEW007 SCT015 BKN042 OVC250 13/12 A2986 RMK AO2 T01330117 $","updated":"2026-05-09T21:41:27Z"}
