{"icao":"KJFK","metar":"KJFK 081213Z 27012KT 6SM -RA BR SCT014 BKN028 OVC043 18/17 A2992 RMK AO2 PK WND 32026/1155 WSHFT 1141 P0003 T01830167","updated":"2025-10-08T12:37:30Z"}
