{"icao":"LPPT","metar":"LPPT 202300Z 36012KT CAVOK 10/03 Q1024","updated":"2025-11-20T23:17:09Z"}
