{"icao":"LPPT","metar":"LPPT 280500Z 35018KT CAVOK 10/06 Q1025","updated":"2026-02-28T05:31:48Z"}
