{"icao":"LPPT","metar":"LPPT 111000Z 06010G21KT 020V100 CAVOK 21/13 Q1021","updated":"2025-10-11T10:16:15Z"}
