{"icao":"KLAX","metar":"KLAX 301453Z VRB03KT 10SM CLR 15/M01 A3022 RMK AO2 SLP232 T01501011 53008 $","updated":"2026-01-30T15:33:02Z"}
