{"icao":"LPBJ","metar":"LPBJ 141400Z 32009KT 280V030 9999 SCT030 23/09 Q1012","updated":"2026-05-14T14:07:50Z"}
