{"icao":"LPPD","metar":"LPPD 262100Z 28008KT 9999 FEW025 18/13 Q1024","updated":"2026-06-26T21:17:07Z"}
