{"icao":"LPMR","metar":"LPMR 230900Z 36006KT 9999 SCT007 BKN035 18/17 Q1021","updated":"2025-10-23T09:19:44Z"}
