{"icao":"LPCS","metar":"LPCS 031400Z 11008KT 050V140 9999 FEW010 BKN018 16/14 Q0996","updated":"2026-01-03T14:17:23Z"}
