{"icao":"LPMA","metar":"LPMA 052100Z 04003KT 360V080 9999 SCT014 BKN030 17/15 Q1015","updated":"2026-04-05T21:30:29Z"}
