{"icao":"KLAX","metar":"KLAX 292253Z 26009KT 10SM CLR 29/02 A2992 RMK AO2 SLP130 T02940017 $","updated":"2025-10-29T23:16:53Z"}
