{"icao":"LPPR","metar":"LPPR 112330Z 13005KT 090V150 9000 -SHRA FEW014 FEW020TCU BKN035 16/13 Q1015","updated":"2026-05-11T23:56:38Z"}
