{"icao":"LPOV","metar":"LPOV 282300Z 18016G27KT 1200 -RADZ BR BKN005 BKN012 13/13 Q1000","updated":"2026-01-28T23:24:54Z"}
