{"icao":"LPLA","metar":"LPLA 311100Z 13006KT 100V160 9999 OVC022 14/10 Q1032","updated":"2026-03-31T11:48:31Z"}
