{"icao":"LPBJ","metar":"LPBJ 112200Z 16010KT CAVOK 14/11 Q1009","updated":"2025-11-11T22:17:49Z"}
