{"icao":"LPPR","metar":"LPPR 250300Z 36003KT CAVOK 08/06 Q1020","updated":"2025-11-25T03:13:35Z"}
