{"icao":"LPAR","metar":"LPAR 161700Z 30007KT 270V330 9999 BKN035 16/10 Q1030","updated":"2026-02-17T08:42:36Z"}
