{"icao":"LPMR","metar":"LPMR 201500Z 26009KT 230V300 9999 FEW025 BKN035 21/15 Q1014","updated":"2025-10-20T15:18:05Z"}
