{"icao":"LPAR","metar":"LPAR 151600Z 36007KT 330V070 CAVOK 21/10 Q1023","updated":"2026-04-15T22:39:36Z"}
