{"icao":"LPMA","metar":"LPMA 142030Z 01009G19KT 330V060 9999 SCT015 FEW016TCU 17/11 Q1021","updated":"2026-05-14T20:40:20Z"}
