{"icao":"KJFK","metar":"KJFK 030451Z 32011KT 10SM FEW220 M03/M13 A3012 RMK SLP199 T10331128 400171100 PNO $ ","updated":"2026-02-03T05:50:42Z"}
