{"icao":"LPPS","metar":"LPPS 222030Z 02010KT 9999 FEW010 18/15 Q1022","updated":"2026-05-22T20:42:09Z"}
