{"icao":"KJFK","metar":"KJFK 221451Z 15012KT 10SM FEW025 BKN041 OVC070 09/05 A3013 RMK RAE09 SLP203 VCSH SE-SW P0001 60001 T00890050 56014 ","updated":"2026-04-22T15:12:02Z"}
