{"icao":"LPST","metar":"LPST 140900Z 35005KT 320V020 9999 FEW009 SCT015 15/13 Q1024","updated":"2026-04-14T09:16:12Z"}
