{"icao":"LPOV","metar":"LPOV 281500Z 15010KT 120V200 9999 FEW018 BKN038 22/16 Q1010","updated":"2025-10-28T15:20:13Z"}
