{"icao":"LPOV","metar":"LPOV 061400Z 31006KT CAVOK 26/12 Q1019","updated":"2025-10-06T14:17:29Z"}
