{"icao":"KORD","metar":"KORD 190851Z 00000KT 10SM SCT120 OVC250 01/M02 A3004 RMK AO2 SLP177 T00111017 56003 $","updated":"2026-03-19T09:41:49Z"}
