{"icao":"LPLA","metar":"LPLA 241800Z 27017G30KT 240V300 9999 -RA FEW015 18/14 Q1017","updated":"2026-01-24T18:28:38Z"}
