{"icao":"KORD","metar":"KORD 091851Z 21012KT 10SM CLR 21/06 A2969 RMK AO2 SLP054 T02060056 $","updated":"2026-03-09T19:39:36Z"}
