{"icao":"LPPR","metar":"LPPR 090900Z 36003KT 330V040 4500 BR FEW001 15/15 Q1021","updated":"2025-10-09T09:18:30Z"}
