{"icao":"LPPR","metar":"LPPR 202300Z 34005KT CAVOK 14/12 Q1021","updated":"2025-09-20T23:14:46Z"}
