{"icao":"LPOV","metar":"LPOV 202300Z 09005KT CAVOK 20/10 Q1006","updated":"2026-04-21T05:26:02Z"}
