{"icao":"LPFL","metar":"LPFL 251600Z 18010KT 150V210 9999 FEW015 21/15 Q1024","updated":"2025-11-25T16:26:33Z"}
