{"icao":"LPPS","metar":"LPPS 022030Z 31004KT 280V350 9999 FEW015 18/14 Q1019","updated":"2026-05-02T20:40:00Z"}
