{"icao":"LPFL","metar":"LPFL 141900Z 23003KT 180V270 9999 -SHRA SCT017 17/13 Q1001","updated":"2025-10-14T21:15:20Z"}
