{"icao":"LPPS","metar":"LPPS 291900Z 01013KT 9999 FEW015 21/13 Q1021","updated":"2025-09-29T19:14:04Z"}
