{"icao":"LPMR","metar":"LPMR 262100Z 22001KT CAVOK 24/13 Q1019","updated":"2026-05-26T21:43:32Z"}
