{"icao":"KLAX","metar":"KLAX 260753Z 16003KT 7SM SCT010 16/13 A3002 RMK AO2 SLP163 T01560133 402000144 $","updated":"2025-10-26T08:21:06Z"}
