{"icao":"LPFL","metar":"LPFL 131030Z 18016G30KT 140V220 9999 SCT010 BKN014 18/14 Q1016","updated":"2026-04-13T10:43:56Z"}
