{"icao":"LPPT","metar":"LPPT 220800Z 25004KT 220V280 9999 FEW025 11/08 Q1010","updated":"2026-01-22T08:30:40Z"}
