{"icao":"LPMA","metar":"LPMA 010800Z 36006KT 330V030 9999 BKN015 18/09 Q1023","updated":"2025-12-01T08:29:47Z"}
