{"icao":"LPPR","metar":"LPPR 060130Z 36003KT 310V020 CAVOK 05/01 Q1020","updated":"2026-01-06T01:40:48Z"}
