{"icao":"KJFK","metar":"KJFK 022109Z 01014KT 3SM -RA BR SCT007 BKN016 OVC033 04/03 A2964 RMK AO2 SFC VIS 6 BKN V SCT P0002 T00440033 $","updated":"2025-12-02T21:18:50Z"}
