{"icao":"LPCS","metar":"LPCS 102100Z VRB01KT 9999 FEW008 SCT018 16/16 Q1017","updated":"2025-11-11T06:28:17Z"}
