{"icao":"KJFK","metar":"KJFK 250451Z 32009KT 10SM SCT065 SCT100 11/03 A3024 RMK AO2 SLP239 T01060033 401610083","updated":"2025-10-25T05:16:32Z"}
