{"icao":"KORD","metar":"KORD 240951Z 33008KT 10SM FEW120 SCT250 M23/M31 A3072 RMK AO2 SLP423 T12281306","updated":"2026-01-24T10:20:46Z"}
