{"icao":"LPAZ","metar":"LPAZ 081600Z 23016KT 0400 R18/0375N FG VV001 17/17 Q1015","updated":"2026-02-08T16:29:29Z"}
