{"icao":"KORD","metar":"KORD 291151Z 00000KT 10SM CLR 17/14 A3022 RMK AO2 SLP231 T01720144 10194 20167 53010 $","updated":"2025-09-29T12:37:45Z"}
