{"icao":"LPLA","metar":"LPLA 211300Z 12013KT 9999 -SHRA SCT025 BKN035 21/17 Q1028","updated":"2025-09-21T13:20:33Z"}
