{"icao":"KORD","metar":"KORD 181351Z 24011KT 10SM FEW018 FEW250 M14/M19 A3004 RMK AO2 SLP189 T11441189 $","updated":"2026-01-18T14:17:37Z"}
