{"icao":"LPST","metar":"LPST 171600Z 31007KT 290V350 9999 FEW015 21/14 Q1017","updated":"2026-04-17T22:41:13Z"}
