{"icao":"LPLA","metar":"LPLA 231900Z 26013G23KT 8000 -SHRA FEW016 SCT025 BKN035 17/12 Q1005","updated":"2026-02-23T19:18:28Z"}
