{"icao":"LPFL","metar":"LPFL 271400Z 15016KT 4500 -RA SCT005 BKN007 15/14 Q1015","updated":"2025-12-27T14:17:37Z"}
