{"icao":"KORD","metar":"KORD 162151Z 23013KT 10SM FEW150 BKN300 18/05 A2987 RMK AO2 SLP117 T01830050","updated":"2026-02-16T22:27:36Z"}
