{"icao":"LPPR","metar":"LPPR 260930Z 28003KT 210V360 9999 VCFG FEW003 18/16 Q1018","updated":"2026-04-26T10:00:47Z"}
