{"icao":"LPPD","metar":"LPPD 171800Z 22008KT 9999 SCT003 BKN005 19/18 Q1023","updated":"2025-11-17T18:27:19Z"}
