{"icao":"LPMR","metar":"LPMR 251300Z 29010KT 260V320 CAVOK 25/15 Q1021","updated":"2026-05-25T13:57:59Z"}
