{"icao":"LPFR","metar":"LPFR 050530Z 22024KT 8000 -RA SCT020 BKN030 16/14 Q0999","updated":"2026-02-05T05:54:15Z"}
