{"icao":"LPOV","metar":"LPOV 041800Z 26002KT 220V300 1200 -DZ BR BKN005 BKN018 19/18 Q1023","updated":"2025-10-04T18:21:41Z"}
