{"icao":"KLAX","metar":"KLAX 191053Z 08004KT 10SM FEW012 17/16 A3002 RMK AO2 SLP161 T01720156 $","updated":"2026-03-19T11:34:22Z"}
