{"icao":"KLAX","metar":"KLAX 141953Z 23010KT 7SM SCT009 BKN017 OVC050 14/12 A2989 RMK AO2 RAE49 SLP120 BKN V SCT P0001 T01440117 $","updated":"2025-10-14T20:19:44Z"}
