{"icao":"LPPR","metar":"LPPR 121030Z 21007KT 190V250 8000 FEW017 SCT022 14/11 Q1019","updated":"2026-02-12T10:43:32Z"}
