{"icao":"KJFK","metar":"KJFK 220151Z 04004KT 10SM BKN040 OVC055 06/M01 A3010 RMK AO2 SLP192 T00561011 $","updated":"2026-02-22T02:03:53Z"}
