{"icao":"LPAZ","metar":"LPAZ 090600Z 22016KT 3200 BR FEW002 BKN003 17/17 Q1015","updated":"2026-02-09T06:10:12Z"}
