{"icao":"LPMT","metar":"LPMT 312100Z 35007KT CAVOK 18/10 Q1022","updated":"2026-03-31T21:37:29Z"}
