{"icao":"LPPR","metar":"LPPR 091230Z 30011KT 9999 FEW020 FEW025CB BKN046 11/07 Q1020","updated":"2026-03-09T13:00:24Z"}
