{"icao":"LPFR","metar":"LPFR 220500Z 03004KT 9999 SCT007 18/17 Q1018","updated":"2025-10-22T05:17:58Z"}
