{"icao":"LPLA","metar":"LPLA 281800Z 12025G35KT 3000 RADZ BR SCT006 BKN012 BKN018 13/12 Q1010 RERA","updated":"2025-12-28T18:27:48Z"}
