{"icao":"KORD","metar":"KORD 180851Z 00000KT 10SM FEW250 17/15 A3004 RMK AO2 SLP167 T01720150 50001 $","updated":"2025-09-18T09:18:29Z"}
