{"icao":"LPPS","metar":"LPPS 121100Z 22005KT 190V270 9999 FEW012 17/14 Q1021","updated":"2026-01-12T11:19:49Z"}
