{"icao":"LPLA","metar":"LPLA 122000Z 16004KT 120V220 9000 -DZ FEW007 SCT012 BKN025 15/13 Q1027","updated":"2026-04-12T20:34:45Z"}
