{"icao":"KLAX","metar":"KLAX 290819Z 04005KT 4SM BR SCT009 15/13 A3001 RMK AO2 VIS 2 1/2 RWY24 T01500128 $","updated":"2025-11-29T08:23:36Z"}
