{"icao":"LPST","metar":"LPST 231400Z 17012KT CAVOK 21/07 Q1023","updated":"2026-02-23T14:43:47Z"}
