{"icao":"LPFR","metar":"LPFR 290600Z 01004KT CAVOK 07/06 Q1017","updated":"2025-12-29T06:33:17Z"}
