{"icao":"LPPT","metar":"LPPT 042000Z 33014KT 9999 FEW010 12/10 Q1005","updated":"2026-01-04T20:21:18Z"}
