{"icao":"LPST","metar":"LPST 271100Z 28015KT 250V310 9999 BKN015 FEW018CB 11/10 Q1002","updated":"2026-01-27T11:21:48Z"}
