{"icao":"LPMT","metar":"LPMT 291900Z 34006KT 310V010 9999 FEW018 18/16 Q1010","updated":"2025-10-29T19:14:08Z"}
