{"icao":"LPFL","metar":"LPFL 031500Z 24015G30KT 200V290 9999 FEW017 23/14 Q1008","updated":"2025-11-03T15:19:43Z"}
