{"icao":"LPPT","metar":"LPPT 101800Z 32008KT 9999 FEW045 25/12 Q1019","updated":"2025-10-10T18:25:08Z"}
