{"icao":"LPHR","metar":"LPHR 301500Z 29013KT 250V310 9999 FEW020 17/11 Q1008","updated":"2026-04-30T15:08:38Z"}
