{"icao":"LPBJ","metar":"LPBJ 021600Z 25007KT 220V280 9999 SCT045 22/10 Q1015","updated":"2026-05-02T16:43:58Z"}
