{"icao":"LPPT","metar":"LPPT 060400Z 33016G32KT 9999 FEW032 10/05 Q1018 WS R02","updated":"2026-03-06T04:15:27Z"}
