{"icao":"LPBJ","metar":"LPBJ 062100Z 23006KT 9999 FEW023 08/07 Q1011","updated":"2026-02-06T21:28:52Z"}
