{"icao":"KORD","metar":"KORD 281651Z 24008KT 10SM BKN170 BKN250 03/M11 A3060 RMK AO2 SLP369 T00331111","updated":"2026-03-28T17:27:31Z"}
