{"icao":"LPMR","metar":"LPMR 181500Z 35008KT 310V020 9999 FEW025 17/11 Q1018","updated":"2025-11-18T15:20:54Z"}
