{"icao":"LPPT","metar":"LPPT 291900Z 33004KT 9999 FEW012 17/15 Q1011","updated":"2025-10-29T19:14:06Z"}
