{"icao":"LPFR","metar":"LPFR 192200Z 23003KT CAVOK 18/16 Q1021","updated":"2026-05-19T22:14:48Z"}
