{"icao":"KJFK","metar":"KJFK 012151Z 04009KT 10SM FEW055 FEW250 20/04 A3017 RMK AO2 SLP215 T02000044","updated":"2025-10-01T22:16:26Z"}
