{"icao":"KORD","metar":"KORD 102051Z 22008KT 10SM SCT027 BKN040 OVC065 19/09 A3006 RMK AO2 SLP180 T01890089 56021","updated":"2025-10-10T21:14:43Z"}
