{"icao":"KORD","metar":"KORD 012251Z 23004KT 10SM BKN050 M08/M16 A2992 RMK AO2 SLP143 T10781156 $","updated":"2026-01-01T23:18:58Z"}
