{"icao":"LPLA","metar":"LPLA 011300Z 01005KT 340V050 9999 BKN045 17/06 Q1022","updated":"2025-11-01T13:22:29Z"}
