{"icao":"LPFR","metar":"LPFR 270700Z VRB02KT CAVOK 11/01 Q1022","updated":"2025-11-27T07:19:40Z"}
