{"icao":"LPPR","metar":"LPPR 300700Z 36006KT CAVOK 07/04 Q1019","updated":"2025-11-30T07:16:22Z"}
