{"icao":"KJFK","metar":"KJFK 021651Z 22007KT 10SM FEW250 14/03 A3031 RMK AO2 SLP262 T01390033 $","updated":"2025-11-02T17:14:42Z"}
