{"icao":"LPFR","metar":"LPFR 302300Z 23004KT CAVOK 12/07 Q1026","updated":"2026-03-30T23:33:24Z"}
