{"icao":"LPMR","metar":"LPMR 150400Z 15005KT CAVOK 11/08 Q1014","updated":"2025-12-15T06:33:44Z"}
