{"icao":"LPST","metar":"LPST 311700Z 20009KT 6000 BKN009 SCT012 19/18 Q1012","updated":"2025-11-03T04:27:12Z"}
