{"icao":"LPCS","metar":"LPCS 152030Z 28005KT 240V320 9999 FEW006 SCT016 BKN032 13/12 Q1032","updated":"2026-02-15T23:25:04Z"}
