{"icao":"LPMA","metar":"LPMA 101900Z 05005KT 010V080 9999 SCT014 18/15 Q1024","updated":"2026-02-10T19:20:33Z"}
