{"icao":"LPBJ","metar":"LPBJ 052100Z 31004KT CAVOK 20/12 Q1019","updated":"2025-10-05T21:13:54Z"}
