{"icao":"LPFR","metar":"LPFR 172030Z 06003KT 010V080 CAVOK 22/10 Q1016","updated":"2026-04-17T20:58:48Z"}
