{"icao":"LPPS","metar":"LPPS 051230Z 36013KT 330V030 9999 SCT015 21/15 Q1024","updated":"2026-06-05T12:36:02Z"}
