{"icao":"LPLA","metar":"LPLA 241800Z 23006KT 200V260 9999 FEW015 18/14 Q1026","updated":"2025-11-24T18:28:11Z"}
