{"icao":"LPHR","metar":"LPHR 021430Z 08014KT 050V130 9999 FEW020 SCT040 19/13 Q1020","updated":"2026-05-02T14:44:54Z"}
