{"icao":"LPPT","metar":"LPPT 202300Z 36004KT CAVOK 19/12 Q1021","updated":"2026-05-20T23:11:42Z"}
