{"icao":"KJFK","metar":"KJFK 041551Z 06006KT 10SM SCT120 SCT170 BKN250 20/12 A3021 RMK AO2 SLP231 T02000117","updated":"2026-04-04T16:34:42Z"}
