{"icao":"LPST","metar":"LPST 120800Z 17022KT 9000 FEW008 BKN012 18/16 Q1003","updated":"2025-11-12T08:26:20Z"}
