{"icao":"LPPD","metar":"LPPD 172300Z 31006KT 270V330 9999 FEW020 14/10 Q1024","updated":"2026-02-17T23:27:08Z"}
