{"icao":"LPPT","metar":"LPPT 110400Z 15003KT 120V200 0400 R20/0900 FG SCT000 BKN004 15/15 Q1015","updated":"2025-11-11T04:23:08Z"}
