{"icao":"LPMT","metar":"LPMT 171700Z 26008KT CAVOK 23/15 Q1013","updated":"2025-10-17T17:15:10Z"}
