{"icao":"LPPR","metar":"LPPR 260430Z 00000KT 0400 R17/0700 FG VV001 15/15 Q1022","updated":"2026-05-26T05:02:02Z"}
