{"icao":"LPCS","metar":"LPCS 280730Z 36011KT 340V040 9999 FEW010 21/17 Q1022","updated":"2026-06-28T07:49:26Z"}
