{"icao":"LPPD","metar":"LPPD 122100Z 29020KT 9999 SCT025 15/11 Q1022","updated":"2026-02-12T21:32:17Z"}
