{"icao":"LPMT","metar":"LPMT 311500Z 19011KT 5000 -RA BR SCT012 BKN015 OVC035 20/18 Q1012","updated":"2025-10-31T15:17:46Z"}
