{"icao":"LPMT","metar":"LPMT 291500Z 23007KT 9999 FEW035 BKN042 16/11 Q1016","updated":"2025-11-29T15:16:58Z"}
