{"icao":"LPMA","metar":"LPMA 252230Z 36011KT 320V050 9999 FEW016 17/11 Q1019","updated":"2026-04-25T22:36:01Z"}
