{"icao":"LPMR","metar":"LPMR 271500Z 32013KT CAVOK 18/06 Q1017","updated":"2026-03-27T15:52:06Z"}
