{"icao":"LPMR","metar":"LPMR 180600Z VRB02KT 0500 FG SCT001 BKN003 01/00 Q1011","updated":"2026-01-18T06:29:38Z"}
