{"icao":"LPFR","metar":"LPFR 271500Z 23009KT 9999 FEW025 25/18 Q1019","updated":"2026-06-27T15:13:42Z"}
