{"icao":"LPFL","metar":"LPFL 041700Z 20024G40KT 170V230 9999 FEW012 SCT016 20/15 Q1015","updated":"2025-12-04T17:21:31Z"}
