{"icao":"LPPS","metar":"LPPS 040400Z 04007KT 010V080 9999 SCT015 21/17 Q1026","updated":"2025-10-04T04:19:54Z"}
