{"icao":"LPCS","metar":"LPCS 201230Z 36008KT CAVOK 15/06 Q1030","updated":"2026-02-20T12:56:01Z"}
