{"icao":"LPCS","metar":"LPCS 291230Z 21006KT 170V240 9999 FEW018 BKN040 16/11 Q1019","updated":"2025-11-29T12:35:21Z"}
