{"icao":"KLAX","metar":"KLAX 100453Z 26006KT 10SM FEW010 BKN250 17/15 A2996 RMK AO2 SLP144 T01720150 $","updated":"2026-04-10T05:24:22Z"}
