{"icao":"LPPR","metar":"LPPR 061330Z 23012KT 210V270 9999 FEW020CB SCT030 14/07 Q1001","updated":"2026-02-06T14:03:13Z"}
