{"icao":"LPCS","metar":"LPCS 151630Z 33019KT 310V010 9999 FEW016 SCT025 18/11 Q1016","updated":"2026-05-15T16:49:53Z"}
