{"icao":"LPPD","metar":"LPPD 140800Z VRB02KT 9999 SCT018 21/19 Q1026","updated":"2025-09-14T08:19:58Z"}
