{"icao":"LPOV","metar":"LPOV 200700Z 14001KT CAVOK 03/03 Q1031","updated":"2026-02-20T07:47:25Z"}
