{"icao":"LPPR","metar":"LPPR 290730Z 26006KT 200V310 3500 RADZ BR BKN002 BKN005 14/14 Q1002","updated":"2026-01-29T07:38:30Z"}
