{"icao":"LPMA","metar":"LPMA 091230Z 01014KT 340V050 9999 SCT016 25/18 Q1024","updated":"2025-10-09T12:37:52Z"}
