{"icao":"KJFK","metar":"KJFK 231251Z 05006KT 10SM FEW065 BKN090 OVC110 13/04 A3047 RMK AO2 DZE50 SLP317 P0000 T01330044","updated":"2026-05-23T13:22:02Z"}
