{"icao":"KJFK","metar":"KJFK 300451Z 19015KT 10SM BKN150 BKN250 06/03 A3037 RMK AO2 SLP283 T00610033 400941017 $","updated":"2026-03-30T05:23:06Z"}
