{"icao":"KORD","metar":"KORD 061351Z 21011KT 10SM FEW042 SCT050 22/16 A3009 RMK AO2 SLP183 T02220156 $","updated":"2025-10-06T14:17:32Z"}
