{"icao":"LPST","metar":"LPST 290800Z 18001KT 120V220 CAVOK 02/02 Q1019","updated":"2025-12-29T08:30:00Z"}
