{"icao":"LPMT","metar":"LPMT 080700Z 13004KT 9999 BKN025 09/09 Q1032","updated":"2026-01-08T08:29:25Z"}
