{"icao":"LPGR","metar":"LPGR 221730Z 28007KT 9999 -DZ FEW003 BKN010 21/19 Q1026","updated":"2026-06-22T17:39:23Z"}
