{"icao":"LPMA","metar":"LPMA 100900Z 32003KT 270V030 9999 SCT016 BKN033 21/13 Q1022","updated":"2025-11-10T09:22:47Z"}
