{"icao":"KORD","metar":"KORD 220751Z 27015G24KT 10SM CLR M08/M16 A3005 RMK AO2 PK WND 25031/0729 SLP187 T10781156 $","updated":"2026-01-22T08:30:45Z"}
