{"icao":"LPMT","metar":"LPMT 272000Z 22013KT 180V260 6000 -RADZ FEW009 BKN015 BKN035 20/18 Q1014","updated":"2025-09-27T20:17:19Z"}
