{"icao":"LPBJ","metar":"LPBJ 261400Z 05006KT 020V080 9999 FEW030 16/04 Q1023","updated":"2025-11-26T14:19:26Z"}
