{"icao":"KJFK","metar":"KJFK 202151Z 19027G35KT 10SM FEW050 BKN100 BKN200 07/02 A2981 RMK AO2 PK WND 19039/2110 SLP095 T00720017","updated":"2026-03-20T22:27:24Z"}
