{"icao":"LPOV","metar":"LPOV 291400Z 15007KT 120V180 8000 -RADZ SCT008 BKN022 BKN035 13/12 Q1015 RERADZ","updated":"2025-11-29T14:15:59Z"}
