{"icao":"KJFK","metar":"KJFK 311851Z 27026G40KT 10SM BKN055 BKN070 14/02 A2941 RMK AO2 PK WND 27040/1803 SLP959 T01390017 $","updated":"2025-10-31T19:13:18Z"}
