{"icao":"LPPD","metar":"LPPD 251030Z 17003KT 140V210 9999 FEW006 SCT012 BKN040 16/16 Q1017","updated":"2026-04-25T10:41:49Z"}
