{"icao":"LPPS","metar":"LPPS 011000Z 25005KT CAVOK 18/13 Q1021","updated":"2026-02-01T10:24:25Z"}
