{"icao":"LPMT","metar":"LPMT 212000Z 29004KT 270V330 9999 FEW025 09/05 Q1010","updated":"2025-12-21T20:20:16Z"}
