{"icao":"LPMA","metar":"LPMA 072000Z 33003KT 260V010 9999 FEW015 17/12 Q1022","updated":"2026-02-07T20:25:08Z"}
