{"icao":"LPMT","metar":"LPMT 251900Z 34007KT CAVOK 23/06 Q1016","updated":"2025-09-25T20:19:36Z"}
