{"icao":"LPMA","metar":"LPMA 202100Z 02011KT 9999 BKN016 16/10 Q1027","updated":"2026-02-20T21:23:20Z"}
