{"icao":"LPMR","metar":"LPMR 061100Z 14012KT 100V160 CAVOK 26/10 Q1020","updated":"2025-10-06T11:14:45Z"}
