{"icao":"LPPT","metar":"LPPT 182000Z VRB02KT CAVOK 27/08 Q1019","updated":"2025-09-18T20:19:29Z"}
