{"icao":"LPMT","metar":"LPMT 201400Z 25009KT 9999 FEW028 BKN040 15/10 Q1018","updated":"2026-01-20T14:29:44Z"}
