{"icao":"KJFK","metar":"KJFK 291451Z 31005KT 10SM FEW050 FEW170 FEW250 21/07 A2997 RMK AO2 SLP148 T02110072 58009 $","updated":"2026-05-29T15:25:10Z"}
