{"icao":"KJFK","metar":"KJFK 111451Z 31013G23KT 10SM FEW040 BKN100 BKN200 07/01 A2982 RMK AO2 SLP097 T00720011 56002","updated":"2026-01-11T15:18:57Z"}
