{"icao":"LPAZ","metar":"LPAZ 030930Z 06013KT 040V100 9999 FEW014 BKN021 16/13 Q1020","updated":"2026-05-03T10:02:49Z"}
