{"icao":"KORD","metar":"KORD 111151Z 22006KT 10SM BKN095 OVC130 M03/M07 A3003 RMK AO2 SLP177 T10281072 11028 21039 56021","updated":"2025-11-11T12:38:42Z"}
