{"icao":"KJFK","metar":"KJFK 160251Z 35012KT 10SM FEW060 BKN160 13/05 A2997 RMK AO2 SLP147 T01280050 50008","updated":"2025-10-16T03:02:07Z"}
