{"icao":"LPMT","metar":"LPMT 271200Z 19008KT 160V230 9999 BKN018 21/16 Q1018","updated":"2025-09-27T12:31:47Z"}
