{"icao":"KJFK","metar":"KJFK 190751Z 22003KT 10SM OVC060 06/00 A3016 RMK AO2 SLP212 T00610000 $","updated":"2025-11-19T08:25:25Z"}
