{"icao":"LPCS","metar":"LPCS 271700Z 26011KT 9999 VCSH FEW018 FEW022CB SCT038 13/07 Q1004","updated":"2026-01-27T17:26:29Z"}
