{"icao":"LPPD","metar":"LPPD 171130Z 20017KT 1500 -SHRA BR BKN003 BKN007 16/15 Q1021","updated":"2026-02-17T11:38:04Z"}
