{"icao":"LPPR","metar":"LPPR 261400Z 20019G29KT 6000 -RADZ BKN007 BKN011 15/14 Q1006","updated":"2026-01-26T14:27:28Z"}
