{"icao":"LPHR","metar":"LPHR 222200Z 30019G29KT 9999 VCSH SCT025 SCT035 14/08 Q1021","updated":"2026-01-22T22:21:41Z"}
