{"icao":"LPFR","metar":"LPFR 140800Z 32012KT CAVOK 11/03 Q1023","updated":"2026-02-14T08:30:42Z"}
