{"icao":"LPST","metar":"LPST 171000Z 34005KT 9999 SCT018 FEW020CB 15/13 Q1015","updated":"2025-11-17T10:21:21Z"}
