{"icao":"LPST","metar":"LPST 230900Z 30007KT 4000 BR BKN006 BKN012 20/19 Q1021","updated":"2025-10-23T09:19:43Z"}
