{"icao":"LPLA","metar":"LPLA 030503Z 20005KT 9999 BKN036 15/09 Q1028","updated":"2025-12-03T05:19:01Z"}
