{"icao":"LPPS","metar":"LPPS 180830Z 02008KT 360V060 9999 FEW014 21/16 Q1020","updated":"2026-06-18T08:45:21Z"}
