{"icao":"LPPR","metar":"LPPR 271600Z 29009KT 260V330 9999 SCT015 FEW020CB BKN040 11/05 Q0999","updated":"2026-01-27T16:28:52Z"}
