{"icao":"KLAX","metar":"KLAX 260353Z 26005KT 10SM BKN150 BKN250 15/12 A3021 RMK AO2 SLP230 T01500122 $","updated":"2026-01-26T04:55:34Z"}
