{"icao":"LPMT","metar":"LPMT 231300Z 24011KT 9999 4000N VCSH FEW015 FEW025CB SCT035 12/09 Q1002 RETS","updated":"2026-01-23T14:23:52Z"}
