{"icao":"LPCS","metar":"LPCS 261300Z 21007KT 180V240 9999 FEW016 21/15 Q1018","updated":"2025-10-26T13:22:14Z"}
