{"icao":"LPHR","metar":"LPHR 222200Z 19009KT 160V220 9999 SCT012 SCT030 18/14 Q1029","updated":"2025-11-22T22:17:04Z"}
