{"icao":"KLAX","metar":"KLAX 260453Z 06004KT 10SM CLR 18/11 A3007 RMK AO2 SLP180 T01780111","updated":"2025-11-26T05:18:45Z"}
