{"icao":"LPBJ","metar":"LPBJ 170100Z 19005KT CAVOK 16/13 Q1015","updated":"2025-10-17T01:19:43Z"}
