{"icao":"KORD","metar":"KORD 180651Z 19013G22KT 8SM -RA OVC012 11/09 A2957 RMK AO2 SLP015 P0001 T01060089 $","updated":"2026-02-18T07:12:52Z"}
