{"icao":"LPMR","metar":"LPMR 170200Z 36002KT 6000 FEW007 12/12 Q1020","updated":"2026-04-17T02:29:31Z"}
