{"icao":"LPCS","metar":"LPCS 201900Z 25005KT 220V280 9999 -DZ FEW006 BKN013 19/19 Q1015","updated":"2025-10-20T19:14:49Z"}
