{"icao":"LPPS","metar":"LPPS 080500Z 03006KT 010V080 9999 FEW012 20/16 Q1021","updated":"2025-11-08T05:16:59Z"}
