{"icao":"LPPT","metar":"LPPT 130800Z 17015KT 6000 -RA VCTS FEW003 BKN006 FEW016CB 16/16 Q1000 RETS","updated":"2025-11-13T08:25:15Z"}
