{"icao":"LPAZ","metar":"LPAZ 211500Z 08012G28KT 040V120 9999 SCT040 23/12 Q1027","updated":"2025-09-21T15:15:03Z"}
