{"icao":"LPAR","metar":"LPAR 130900Z 07003KT 020V130 CAVOK 21/14 Q1016","updated":"2025-10-13T09:21:06Z"}
