{"icao":"LPMT","metar":"LPMT 111000Z 11005KT 2500 -DZ BR SCT006 BKN015 11/11 Q1027","updated":"2026-01-11T11:16:43Z"}
