{"icao":"LPAZ","metar":"LPAZ 211400Z 02021KT 9999 SCT014 SCT020 16/12 Q1012","updated":"2026-03-21T14:25:34Z"}
