{"icao":"LPPS","metar":"LPPS 280700Z 07007KT 9999 SCT015 SCT030 18/13 Q1022","updated":"2025-11-28T07:18:51Z"}
