{"icao":"LPMR","metar":"LPMR 300400Z 11005KT CAVOK 09/03 Q1030","updated":"2026-03-30T05:22:50Z"}
