{"icao":"LPPT","metar":"LPPT 250430Z 33003KT 300V360 CAVOK 13/06 Q1020","updated":"2026-03-25T04:52:20Z"}
