{"icao":"KLAX","metar":"KLAX 070853Z 27006KT 10SM SCT012 18/15 A2986 RMK AO2 SLP109 T01780150 55003 $","updated":"2025-10-07T09:19:19Z"}
