{"icao":"LPPT","metar":"LPPT 180300Z 32006KT CAVOK 13/10 Q1018","updated":"2025-11-18T03:11:07Z"}
