{"icao":"LPOV","metar":"LPOV 092000Z 35020KT CAVOK 15/12 Q1020","updated":"2026-06-10T05:16:05Z"}
