{"icao":"LPPR","metar":"LPPR 121730Z 19013KT 4500 -RADZ BR SCT005 BKN008 FEW015TCU 13/12 Q1013","updated":"2026-02-12T17:57:09Z"}
