{"icao":"LPPD","metar":"LPPD 271000Z 03020G33KT 360V060 9999 -SHRA FEW008 SCT015 FEW020TCU 18/15 Q1015","updated":"2025-10-27T10:21:20Z"}
