{"icao":"LPPS","metar":"LPPS 232100Z 07007KT 9999 SCT014 BKN030 23/19 Q1021","updated":"2025-10-23T21:15:42Z"}
