{"icao":"LPBJ","metar":"LPBJ 230400Z 33003KT CAVOK 12/07 Q1016","updated":"2025-09-23T04:20:39Z"}
