{"icao":"LPCS","metar":"LPCS 292100Z 01016KT 9999 FEW016 19/12 Q1017","updated":"2025-09-29T21:14:54Z"}
