{"icao":"LPMT","metar":"LPMT 300500Z 34008KT 300V020 9999 FEW025 13/09 Q1017","updated":"2025-11-30T05:17:58Z"}
