{"icao":"LPBJ","metar":"LPBJ 150800Z 15004KT 120V180 0200 FG VV002 08/08 Q1020","updated":"2026-01-15T08:29:29Z"}
