{"icao":"KJFK","metar":"KJFK 070151Z 09005KT 10SM SCT075 08/02 A3011 RMK AO2 SLP194 T00780017","updated":"2026-04-07T02:14:12Z"}
