{"icao":"LPCS","metar":"LPCS 041630Z 26018KT 230V290 4000 BR SCT002 BKN004 15/15 Q0998","updated":"2026-02-04T16:45:23Z"}
