{"icao":"LPPD","metar":"LPPD 041800Z 01009KT 330V050 9999 FEW016 BKN030 14/11 Q1022","updated":"2026-01-04T18:27:27Z"}
