{"icao":"LPMA","metar":"LPMA 300600Z 01006KT 320V050 9999 SCT015 16/11 Q1022","updated":"2025-11-30T06:28:16Z"}
