{"icao":"KJFK","metar":"KJFK 021951Z 18007KT 10SM FEW140 BKN230 M02/M13 A3064 RMK AO2 SLP375 T10171133","updated":"2026-03-02T20:36:41Z"}
