{"icao":"KORD","metar":"KORD 270851Z 02005KT 10SM BKN047 OVC055 17/15 A2999 RMK AO2 SLP154 T01670150 56009 $","updated":"2026-06-27T09:27:07Z"}
