{"icao":"KJFK","metar":"KJFK 220451Z 08004KT 10SM SCT120 BKN250 07/M01 A2998 RMK AO2 SLP152 T00671011 401440044","updated":"2026-03-22T05:52:58Z"}
