{"icao":"LPAZ","metar":"LPAZ 041300Z 03011KT 360V060 9999 FEW020 SCT025 17/11 Q1020","updated":"2026-01-04T13:28:36Z"}
