{"icao":"KJFK","metar":"KJFK 050951Z 04011KT 10SM SCT180 BKN220 M06/M17 A3034 RMK AO2 SLP275 T10561172 $","updated":"2025-12-05T10:20:57Z"}
