{"icao":"LPHR","metar":"LPHR 060600Z 00000KT 9999 FEW005 SCT011 BKN030 21/21 Q1016","updated":"2025-10-06T06:27:20Z"}
