{"icao":"LPMA","metar":"LPMA 251800Z 23005KT 9999 SCT015 SCT060 23/20 Q1014","updated":"2025-10-25T18:23:02Z"}
