{"icao":"LPPD","metar":"LPPD 021400Z 19007KT 160V220 9999 FEW015 23/20 Q1021","updated":"2025-10-02T14:17:15Z"}
