{"icao":"LPOV","metar":"LPOV 251400Z 34014KT 9999 FEW025 19/14 Q1016","updated":"2026-04-25T14:40:02Z"}
