{"icao":"LPFR","metar":"LPFR 031300Z 18010KT 9000 SCT014 FEW018CB SCT020 16/13 Q0998","updated":"2026-01-03T13:27:42Z"}
