{"icao":"KORD","metar":"KORD 151251Z 23010KT 10SM FEW250 16/08 A2997 RMK AO2 SLP148 T01610083","updated":"2026-06-15T13:11:28Z"}
