{"icao":"LPAZ","metar":"LPAZ 030930Z 09004KT 050V110 9999 OVC030 14/09 Q1026","updated":"2026-04-03T09:52:20Z"}
