{"icao":"LPOV","metar":"LPOV 250900Z 25004KT 210V290 4000 BR SCT003 OVC005 18/18 Q1022","updated":"2026-05-25T10:02:03Z"}
