{"icao":"KORD","metar":"KORD 050051Z 15010KT 10SM BKN140 OVC250 M01/M08 A3000 RMK AO2 SLP167 T10061078 $","updated":"2026-01-05T01:49:26Z"}
