{"icao":"LPMT","metar":"LPMT 201200Z 21005KT 170V250 9999 FEW030 14/09 Q1020","updated":"2026-01-20T12:47:48Z"}
