{"icao":"KORD","metar":"KORD 172051Z 24008KT 10SM OVC250 M06/M18 A3016 RMK AO2 SLP224 T10561178 58007","updated":"2026-03-17T21:36:18Z"}
