{"icao":"KLAX","metar":"KLAX 221053Z 00000KT 5SM BR OVC009 16/14 A2988 RMK AO2 SLP117 T01610144","updated":"2026-03-22T11:22:26Z"}
