{"icao":"KORD","metar":"KORD 150651Z 06009KT 10SM OVC080 02/M03 A2984 RMK AO2 DZB36E43 SLP110 P0000 T00221028 $","updated":"2026-03-15T06:55:35Z"}
