{"icao":"KJFK","metar":"KJFK 200351Z 16017G32KT 10SM FEW022 SCT045 BKN180 BKN250 19/16 A2982 RMK AO2 PK WND 17032/0349 SLP098 T01940161 $","updated":"2025-10-20T04:24:14Z"}
