{"icao":"LPPR","metar":"LPPR 082200Z 18018KT 2700 DZRA BR BKN004 FEW018CB 11/10 Q1007","updated":"2026-02-08T22:25:37Z"}
