{"icao":"LPMT","metar":"LPMT 281300Z 33018G29KT 9999 SCT018 BKN022 22/16 Q1013","updated":"2025-09-28T13:20:25Z"}
