{"icao":"LPMR","metar":"LPMR 162100Z 15006KT 7000 FEW008 BKN018 FEW020CB 13/13 Q1010","updated":"2025-11-16T21:15:33Z"}
