{"icao":"LPBJ","metar":"LPBJ 040600Z 31006KT 0600 FG VV001 11/11 Q1022","updated":"2025-10-04T06:23:25Z"}
