{"icao":"KLAX","metar":"KLAX 012253Z 26006KT 10SM FEW030 FEW055 SCT120 17/14 A3006 RMK AO2 SLP180 T01720139 $","updated":"2026-01-01T23:18:58Z"}
