{"icao":"KORD","metar":"KORD 040851Z 34010KT 10SM FEW250 M11/M17 A3031 RMK AO2 SLP274 T11061172 51025","updated":"2025-12-04T09:23:26Z"}
