{"icao":"LPPT","metar":"LPPT 062100Z 26005KT 210V300 9999 SHRA FEW015 SCT020CB SCT030 09/07 Q1010 RESHRA RETS WS R20","updated":"2026-02-06T21:28:49Z"}
