{"icao":"LPPR","metar":"LPPR 200300Z 20004KT 5000 BR BKN003 17/17 Q1019","updated":"2025-09-20T03:25:55Z"}
