{"icao":"LPMT","metar":"LPMT 232000Z 26010KT 9999 SCT020 FEW025CB SCT030 08/06 Q1003","updated":"2026-01-23T20:24:39Z"}
