{"icao":"LPGR","metar":"LPGR 181700Z 27007KT 230V320 9999 FEW014 21/17 Q1014","updated":"2026-06-19T06:17:08Z"}
