{"icao":"LPPD","metar":"LPPD 170900Z 36008KT 320V030 9999 FEW025 BKN030 14/09 Q1031","updated":"2026-01-17T09:19:13Z"}
