{"icao":"LPLA","metar":"LPLA 141000Z 19006KT 140V270 9999 FEW014 SCT035 19/16 Q1021","updated":"2025-12-14T10:18:54Z"}
