{"icao":"LPOV","metar":"LPOV 140900Z 08009KT 9000 -TSRA FEW028 SCT040CB 21/18 Q1015","updated":"2026-06-14T09:31:10Z"}
