{"icao":"LPMA","metar":"LPMA 051400Z 03013KT 4000 +RA BR SCT005 BKN012 16/16 Q1018","updated":"2026-05-05T14:18:39Z"}
