{"icao":"KJFK","metar":"KJFK 292251Z 05011KT 10SM FEW030 OVC042 12/06 A3012 RMK AO2 SLP198 T01170061","updated":"2025-10-29T23:16:52Z"}
