{"icao":"KJFK","metar":"KJFK 210651Z 08003KT 10SM OVC039 04/02 A3014 RMK AO2 SLP206 T00440017 $","updated":"2025-11-21T07:18:44Z"}
