{"icao":"LPMT","metar":"LPMT 251700Z 33010KT 9999 FEW030 FEW032TCU SCT045 24/15 Q1014","updated":"2026-04-25T17:35:45Z"}
