{"icao":"LPPD","metar":"LPPD 070300Z 28006KT 6000 SCT008 BKN012 17/15 Q1011","updated":"2025-12-07T03:25:53Z"}
