{"icao":"LPMT","metar":"LPMT 231400Z 36003KT 310V050 CAVOK 20/13 Q1022","updated":"2026-02-23T14:43:48Z"}
