{"icao":"LPPT","metar":"LPPT 091930Z 26010KT 8000 -DZ FEW002 BKN004 16/16 Q1015","updated":"2026-02-09T20:03:24Z"}
