{"icao":"LPPD","metar":"LPPD 141700Z 23012KT 9999 FEW009 BKN037 17/14 Q1023","updated":"2026-01-14T17:25:44Z"}
