{"icao":"KLAX","metar":"KLAX 131753Z 34003KT 10SM CLR 21/01 A3021 RMK AO2 SLP228 T02060006 10206 20083 51007 $","updated":"2026-01-13T18:30:09Z"}
