{"icao":"LPPS","metar":"LPPS 261500Z 35009KT 310V020 9999 SCT014 SCT030 23/18 Q1020","updated":"2026-06-26T15:22:21Z"}
