{"icao":"LPMR","metar":"LPMR 211000Z 03003KT 340V080 CAVOK 09/04 Q1028","updated":"2025-11-21T10:19:41Z"}
