{"icao":"LPMR","metar":"LPMR 022300Z 24003KT 9999 SCT030 14/14 Q1015","updated":"2026-05-02T23:41:00Z"}
