{"icao":"LPLA","metar":"LPLA 140100Z 20007KT 9999 FEW015 SCT030 17/16 Q1024 WIND RWY15 20008KT PK 22017/01 RH91 BLU","updated":"2025-12-14T01:43:08Z"}
