{"icao":"LPMR","metar":"LPMR 060800Z 13007KT CAVOK 17/07 Q1016","updated":"2026-04-06T09:07:06Z"}
