{"icao":"LPPT","metar":"LPPT 200530Z 05003KT 320V090 CAVOK 12/10 Q1012","updated":"2026-04-20T05:39:35Z"}
