{"icao":"LPMA","metar":"LPMA 201100Z 11005KT 020V140 9999 SCT015 26/21 Q1021","updated":"2025-09-20T11:12:40Z"}
