{"icao":"LPFL","metar":"LPFL 281930Z VRB02KT 9999 -RA BKN040 13/08 Q1008","updated":"2026-04-28T23:58:13Z"}
