{"icao":"LPPR","metar":"LPPR 201000Z 01009KT 340V040 CAVOK 10/03 Q1023","updated":"2025-11-20T10:20:08Z"}
