{"icao":"LPFR","metar":"LPFR 092200Z 33011KT CAVOK 25/10 Q1015","updated":"2026-06-09T22:23:02Z"}
