{"icao":"LPMT","metar":"LPMT 111600Z 18012KT 9999 FEW018 SCT028 20/15 Q1010","updated":"2025-11-11T16:23:37Z"}
