{"icao":"LPMA","metar":"LPMA 041130Z 13005KT 110V190 9999 BKN010 20/18 Q1017","updated":"2026-05-04T11:47:12Z"}
