{"icao":"LPCS","metar":"LPCS 081400Z 32010KT 290V350 9999 SCT016 SCT028 19/14 Q1022","updated":"2025-10-08T14:17:56Z"}
