{"icao":"KORD","metar":"KORD 282051Z 03016KT 10SM BKN020 OVC070 M01/M06 A3018 RMK AO2 SNE31 SLP226 P0000 60000 T10111061 53002 $","updated":"2026-02-28T21:19:21Z"}
