{"icao":"LPBJ","metar":"LPBJ 241100Z 15013KT CAVOK 17/10 Q1020","updated":"2026-02-24T11:39:20Z"}
