{"icao":"KORD","metar":"KORD 180151Z 14011KT 8SM -RA FEW020 OVC080 10/08 A2969 RMK AO2 RAB11 SLP056 P0001 T01000078 $","updated":"2026-02-18T02:05:21Z"}
