{"icao":"LPFR","metar":"LPFR 190100Z 09007KT CAVOK 21/18 Q1016","updated":"2025-10-19T01:28:40Z"}
