{"icao":"KJFK","metar":"KJFK 120851Z 01004KT 10SM CLR 06/M02 A3048 RMK AO2 SLP322 T00561022 53017","updated":"2026-04-12T09:43:20Z"}
