{"icao":"LPFL","metar":"LPFL 272000Z 26013KT 210V330 4500 DZRA FEW010 BKN013 FEW015TCU 19/16 Q1001","updated":"2026-01-27T20:22:04Z"}
