{"icao":"KLAX","metar":"KLAX 120353Z 08005KT 10SM CLR 18/01 A3019 RMK AO2 SLP223 T01780006 $","updated":"2026-01-12T04:49:35Z"}
