{"icao":"LPFR","metar":"LPFR 231430Z 10015KT CAVOK 28/13 Q1020","updated":"2026-05-23T14:59:18Z"}
