{"icao":"KLAX","metar":"KLAX 251853Z 25007KT 6SM HZ FEW006 OVC008 21/17 A3001 RMK AO2 SLP159 T02060172 $","updated":"2025-09-25T19:14:58Z"}
