{"icao":"LPLA","metar":"LPLA 092000Z 32008KT 9999 FEW007 SCT014 BKN020 16/14 Q1033","updated":"2026-04-09T20:49:58Z"}
