{"icao":"LPHR","metar":"LPHR 212000Z 30014KT 9999 FEW025 20/14 Q1023","updated":"2026-06-21T22:14:04Z"}
