{"icao":"LPMA","metar":"LPMA 051700Z 01019G31KT 9999 SCT015 FEW018CB 16/08 Q1021","updated":"2026-01-05T17:21:51Z"}
