{"icao":"LPFR","metar":"LPFR 162030Z 31011KT 9999 FEW030 20/07 Q1016","updated":"2026-05-16T20:43:18Z"}
