{"icao":"LPPS","metar":"LPPS 180530Z 34003KT 300V360 9999 FEW014 12/10 Q1024","updated":"2026-02-18T06:00:17Z"}
