{"icao":"LPPS","metar":"LPPS 210130Z 09009KT 060V120 9999 FEW015 BKN030 15/10 Q1027","updated":"2026-02-21T01:54:14Z"}
