{"icao":"KORD","metar":"KORD 140351Z 26007KT 10SM BKN037 06/01 A2957 RMK AO2 SLP017 T00610006 $","updated":"2026-01-14T04:45:35Z"}
