{"icao":"LPLA","metar":"LPLA 051800Z 18007KT 130V200 9999 SCT015 SCT022 23/19 Q1021","updated":"2025-10-05T18:21:58Z"}
