{"icao":"KORD","metar":"KORD 070351Z 19011G22KT 10SM SCT055 OVC200 12/M02 A2978 RMK AO2 SLP086 T01221017 $","updated":"2025-11-07T04:20:53Z"}
