{"icao":"LPCS","metar":"LPCS 191900Z 34010KT 9999 FEW010 11/10 Q1021","updated":"2026-01-19T19:18:10Z"}
