{"icao":"LPPR","metar":"LPPR 081600Z 21011KT 6000 -DZRA BKN005 BKN010 13/12 Q1027","updated":"2026-01-08T16:28:39Z"}
