{"icao":"LPMR","metar":"LPMR 142300Z 34001KT 9999 SCT006 14/13 Q1024","updated":"2026-04-14T23:42:01Z"}
