{"icao":"LPBJ","metar":"LPBJ 280800Z 25011KT 4000 1500S -RA SCT010 BKN012 17/16 Q1014 RERA","updated":"2025-09-28T08:19:43Z"}
