{"icao":"LPPR","metar":"LPPR 081300Z 29006KT 260V320 9999 SCT022 18/14 Q1021","updated":"2025-10-08T13:28:12Z"}
