{"icao":"LPHR","metar":"LPHR 261800Z 29028G40KT 9000 VCSH SCT015 BKN030 11/08 Q1005","updated":"2026-01-26T18:34:20Z"}
