{"icao":"LPFR","metar":"LPFR 012330Z 03005KT CAVOK 18/10 Q1019","updated":"2026-05-01T23:50:53Z"}
