{"icao":"KORD","metar":"KORD 171251Z 33003KT 10SM FEW070 FEW220 00/M08 A3008 RMK AO2 SLP192 T00001078 $","updated":"2025-11-17T13:30:49Z"}
