{"icao":"LPCS","metar":"LPCS 281600Z 34018KT 300V010 9999 FEW015 25/16 Q1021","updated":"2026-06-28T16:08:32Z"}
