{"icao":"LPHR","metar":"LPHR 101630Z 18005KT 140V210 9999 FEW018 BKN023 16/11 Q1033","updated":"2026-03-10T17:00:46Z"}
