{"icao":"LPAR","metar":"LPAR 051200Z 03011KT CAVOK 23/07 Q1018","updated":"2026-06-05T12:35:44Z"}
