{"icao":"LPMA","metar":"LPMA 130700Z 28006KT 250V320 9999 SCT015 15/08 Q1016","updated":"2026-01-13T07:24:09Z"}
