{"icao":"KORD","metar":"KORD 060251Z 18007KT 10SM CLR 22/10 A3003 RMK AO2 SLP164 T02220100 53005 $","updated":"2025-10-06T03:00:33Z"}
