{"icao":"KLAX","metar":"KLAX 051653Z 08004KT 10SM CLR 16/M01 A3011 RMK AO2 SLP195 T01561011 $","updated":"2025-12-05T17:18:27Z"}
