{"icao":"LPBJ","metar":"LPBJ 132200Z 30019KT 9999 -SHRA FEW014 FEW020CB BKN026 10/08 Q1013","updated":"2026-02-13T22:31:48Z"}
