{"icao":"KJFK","metar":"KJFK 070851Z 33014G20KT 10SM BKN042 OVC060 11/08 A2981 RMK AO2 RAE20 SLP094 P0000 60017 T01060078 51006","updated":"2026-05-07T09:30:35Z"}
