{"icao":"LPPT","metar":"LPPT 030930Z 27006KT 240V300 9999 SCT022 BKN036 16/12 Q1015","updated":"2026-05-03T10:02:31Z"}
