{"icao":"LPAZ","metar":"LPAZ 020200Z 06008KT 9999 FEW014 BKN020 14/10 Q1029","updated":"2026-04-02T02:09:14Z"}
