{"icao":"LPPR","metar":"LPPR 040800Z 07005KT CAVOK 12/08 Q1002","updated":"2026-01-04T08:25:58Z"}
