{"icao":"LPHR","metar":"LPHR 161300Z 24015KT 9999 SCT012 BKN025 17/14 Q1019","updated":"2026-04-16T13:27:42Z"}
