{"icao":"LPFL","metar":"LPFL 281330Z 26012G26KT 190V310 9999 FEW010 BKN013 19/15 Q1002","updated":"2026-01-28T13:48:12Z"}
