{"icao":"LPMT","metar":"LPMT 011000Z 04006KT 350V070 CAVOK 12/08 Q1022","updated":"2026-03-01T10:23:38Z"}
