{"icao":"LPMA","metar":"LPMA 281800Z 23015KT 190V290 9999 VCSH BKN015 FEW016TCU 22/18 Q1009","updated":"2025-10-28T18:28:18Z"}
