{"icao":"LPPR","metar":"LPPR 240300Z 10012KT CAVOK 18/05 Q1018","updated":"2025-09-24T03:33:35Z"}
