{"icao":"LPFR","metar":"LPFR 280800Z 26015KT 9999 FEW015 20/17 Q1016","updated":"2025-09-28T08:19:40Z"}
