{"icao":"KORD","metar":"KORD 181451Z 29013G19KT 10SM FEW024 SCT120 SCT220 BKN250 07/01 A2982 RMK AO2 SLP097 T00670006 51029 $","updated":"2026-04-18T15:36:22Z"}
