{"icao":"LPPS","metar":"LPPS 091630Z 03013KT 360V070 9999 SCT014 BKN030 15/12 Q1027","updated":"2026-03-09T16:59:53Z"}
