{"icao":"LPMA","metar":"LPMA 281100Z 03006KT 340V070 9999 FEW014 20/13 Q1018","updated":"2026-01-28T11:22:00Z"}
