{"icao":"LPMA","metar":"LPMA 011930Z VRB07KT 9999 FEW015 24/15 Q1018","updated":"2026-07-01T19:51:56Z"}
