{"icao":"LPPT","metar":"LPPT 022000Z 31006KT CAVOK 15/10 Q1025","updated":"2025-11-02T20:17:31Z"}
