{"icao":"LPAR","metar":"LPAR 251200Z 02004KT 350V070 9999 FEW013 BKN024 22/19 Q1013","updated":"2025-10-25T12:32:57Z"}
