{"icao":"LPPR","metar":"LPPR 050800Z 02007KT CAVOK 04/M01 Q1015","updated":"2026-01-05T08:31:44Z"}
