{"icao":"LPMA","metar":"LPMA 030800Z 22010KT 9999 SCT014 SCT030 19/13 Q1017","updated":"2026-05-03T08:06:53Z"}
