{"icao":"LPMT","metar":"LPMT 041000Z 36005KT 310V050 9999 FEW030 SCT045 18/10 Q1017","updated":"2026-05-04T11:46:56Z"}
