{"icao":"LPFR","metar":"LPFR 180500Z 01007KT CAVOK 15/10 Q1016","updated":"2025-11-18T05:18:17Z"}
