{"icao":"LPPD","metar":"LPPD 121330Z 30019G31KT 9999 FEW016 16/09 Q1015","updated":"2026-01-12T13:41:16Z"}
