{"icao":"KORD","metar":"KORD 251900Z 33011KT 3/4SM R10L/4500V5500FT -SN BKN017 OVC027 M11/M13 A3006 RMK AO2 P0000 T11061133 $","updated":"2026-01-25T19:16:18Z"}
