{"icao":"KORD","metar":"KORD 051551Z 19011G21KT 10SM SCT300 26/12 A3011 RMK AO2 SLP190 T02560117 $","updated":"2025-10-05T16:18:45Z"}
