{"icao":"KORD","metar":"KORD 301451Z 36012G19KT 10SM SCT034 SCT250 10/05 A2992 RMK AO2 SLP134 T01000050 51003 $","updated":"2025-10-30T15:20:04Z"}
