{"icao":"LPMA","metar":"LPMA 282100Z 02008KT 350V050 9999 BKN016 SCT030 19/13 Q1023","updated":"2025-11-28T21:16:11Z"}
