{"icao":"LPLA","metar":"LPLA 100914Z 20022G38KT 170V230 4500 -RADZ BR SCT005 BKN012 18/16 Q1021","updated":"2026-01-10T09:19:13Z"}
