{"icao":"LPMR","metar":"LPMR 282100Z 13005KT 090V150 5000 -RA FEW015 SCT045 16/15 Q1009 RERA","updated":"2025-10-28T21:16:35Z"}
