{"icao":"LPFL","metar":"LPFL 021830Z 22008KT 180V280 9999 FEW038 14/07 Q1030","updated":"2026-03-02T18:45:04Z"}
