{"icao":"LPAZ","metar":"LPAZ 260630Z 31010KT 9999 FEW004 SCT007 BKN012 14/13 Q1030","updated":"2026-02-26T07:02:35Z"}
