{"icao":"LPPD","metar":"LPPD 210800Z 28020KT 8000 FEW004 BKN006 16/15 Q1021","updated":"2026-01-21T08:30:21Z"}
