{"icao":"LPPR","metar":"LPPR 210900Z 23010G20KT 190V280 1400 1200S R17/P2000 RADZ BCFG BKN002 BKN005 13/13 Q1002","updated":"2026-01-21T09:31:00Z"}
