{"icao":"KJFK","metar":"KJFK 171751Z 31026G33KT 10SM SCT055 07/M07 A2976 RMK AO2 PK WND 29042/1707 SLP076 T00721072 10072 20028 50006 $","updated":"2025-11-17T18:27:37Z"}
