{"icao":"LPMA","metar":"LPMA 220430Z 04012KT 9999 BKN013 FEW018CB 17/14 Q0998","updated":"2026-03-22T04:50:42Z"}
