{"icao":"LPFL","metar":"LPFL 281900Z 16010KT 9999 FEW005 BKN008 21/19 Q1023","updated":"2025-09-28T19:12:09Z"}
