{"icao":"KORD","metar":"KORD 021851Z 24011KT 7SM OVC009 M08/M10 A3000 RMK AO2 SLP170 T10781100","updated":"2025-12-02T19:18:22Z"}
