{"icao":"KLAX","metar":"KLAX 161816Z 12006KT 1 1/2SM BCFG BR BKN002 13/13 A3011 RMK AO2 VIS SW-W 3/4 T01280128","updated":"2025-12-16T18:30:48Z"}
