{"icao":"LPCS","metar":"LPCS 191500Z 20009KT 180V240 2000 -DZRA BR SCT001 BKN003 20/19 Q1014","updated":"2025-10-19T15:15:29Z"}
