{"icao":"LPPD","metar":"LPPD 202000Z 24015KT 8000 SCT004 BKN030 22/21 Q1016","updated":"2025-10-20T20:20:58Z"}
