{"icao":"LPMA","metar":"LPMA 051500Z 35015KT 310V030 9999 VCSH BKN015 FEW018CB 16/10 Q1020","updated":"2026-01-05T15:22:52Z"}
