{"icao":"KJFK","metar":"KJFK 101651Z 22006KT 10SM FEW008 SCT012 SCT040 BKN250 16/13 A2994 RMK AO2 SLP137 T01610128 $","updated":"2026-05-10T16:54:49Z"}
