{"icao":"LPFR","metar":"LPFR 080500Z 10006KT 9999 FEW020 SCT040 11/08 Q1016","updated":"2026-04-08T05:09:39Z"}
