{"icao":"LPMA","metar":"LPMA 282200Z 31003KT 280V360 9999 FEW015 21/17 Q1011","updated":"2025-10-28T22:17:36Z"}
