{"icao":"LPMA","metar":"LPMA 090900Z 09004KT 030V120 9999 FEW015 19/12 Q1012","updated":"2026-05-09T09:18:01Z"}
