{"icao":"LPMR","metar":"LPMR 201300Z 25009KT 210V280 9999 SCT020 BKN030 21/15 Q1014","updated":"2025-10-20T13:28:10Z"}
