{"icao":"LPOV","metar":"LPOV 111800Z 22011KT 7000 FEW008 SCT012 BKN018 15/15 Q1012","updated":"2026-02-11T19:01:26Z"}
