{"icao":"LPPT","metar":"LPPT 250200Z VRB04KT CAVOK 13/09 Q1021","updated":"2026-03-25T02:05:36Z"}
