{"icao":"LPAR","metar":"LPAR 151700Z 23006KT 3000 RADZ BR SCT008 SCT015 BKN025 13/12 Q1007","updated":"2025-12-16T01:38:38Z"}
