{"icao":"LPLA","metar":"LPLA 030700Z 33017KT 9999 FEW009 SCT013 BKN022 14/13 Q1009","updated":"2026-01-03T07:18:13Z"}
