{"icao":"LPMR","metar":"LPMR 090200Z 11001KT CAVOK 07/06 Q1020","updated":"2026-04-09T02:08:29Z"}
