{"icao":"LPPD","metar":"LPPD 290700Z 34007KT 9999 SCT018 BKN035 16/13 Q1019","updated":"2025-10-29T07:17:48Z"}
