{"icao":"LPAZ","metar":"LPAZ 181000Z 26013KT 9000 FEW002 SCT004 BKN025 23/22 Q1016","updated":"2025-10-18T10:16:33Z"}
