{"icao":"LPFR","metar":"LPFR 180330Z 03006KT CAVOK 24/16 Q1015","updated":"2026-06-18T03:50:21Z"}
