{"icao":"LPST","metar":"LPST 031500Z 19006KT 160V220 CAVOK 18/10 Q1021","updated":"2025-11-03T15:19:27Z"}
