{"icao":"LPPT","metar":"LPPT 251100Z 06006KT 350V120 CAVOK 23/05 Q1018","updated":"2025-09-25T11:15:15Z"}
