{"icao":"KORD","metar":"KORD 292051Z 13013G21KT 1/4SM R10L/2200V2600FT +SN FZFG VV006 M02/M03 A3007 RMK AO2 SLP190 SNINCR 1/6 P0008 60020 T10221033 56049 $","updated":"2025-11-29T21:16:07Z"}
