{"icao":"KJFK","metar":"KJFK 230351Z 35009KT 10SM SCT250 05/M03 A3003 RMK AO2 SLP168 T00501028","updated":"2025-11-23T04:31:46Z"}
