{"icao":"LPOV","metar":"LPOV 210700Z 17018KT 5000 -RADZ BR BKN005 FEW012CB BKN014 12/12 Q1003 RESHRA","updated":"2026-01-21T07:27:19Z"}
