{"icao":"LPPT","metar":"LPPT 281000Z 36012KT 310V030 9999 SCT028 25/16 Q1022","updated":"2026-06-28T10:25:46Z"}
