{"icao":"LPMT","metar":"LPMT 242100Z 21007KT 180V240 9999 FEW020 SCT025 15/13 Q1015","updated":"2026-02-24T21:33:19Z"}
