{"icao":"LPHR","metar":"LPHR 061230Z 27021KT 7000 -RA SCT008 BKN012 FEW016TCU BKN030 15/14 Q1009","updated":"2026-02-06T12:56:51Z"}
