{"icao":"LPOV","metar":"LPOV 241900Z VRB02KT 9999 FEW008 SCT020 16/15 Q1015","updated":"2025-10-24T19:14:23Z"}
