{"icao":"LPBJ","metar":"LPBJ 250900Z 03003KT 340V080 9999 VCFG FEW002 16/12 Q1017","updated":"2026-04-25T09:51:12Z"}
