{"icao":"LPPS","metar":"LPPS 121030Z 03014KT 360V060 9999 FEW015 BKN030 15/06 Q1028","updated":"2026-04-12T10:37:27Z"}
