{"icao":"LPAZ","metar":"LPAZ 201000Z 06011KT 010V080 9999 SCT026 22/12 Q1027","updated":"2025-09-20T10:16:28Z"}
