{"icao":"KJFK","metar":"KJFK 082051Z 28010KT 10SM SCT055 SCT250 18/04 A2979 RMK AO2 SLP089 T01830044 53012 $","updated":"2025-11-08T21:14:06Z"}
