{"icao":"LPOV","metar":"LPOV 220800Z 20008KT 170V230 2000 BR BKN003 BKN012 19/19 Q1014","updated":"2025-10-22T08:26:32Z"}
