{"icao":"KORD","metar":"KORD 151451Z 20003KT 10SM -RA OVC100 17/15 A2976 RMK AO2 RAB00E19B44 SLP074 P0000 60006 T01720150 56014","updated":"2026-04-15T15:04:20Z"}
