{"icao":"LPPT","metar":"LPPT 170500Z 05003KT 020V080 9999 SCT004 12/12 Q1011","updated":"2025-11-17T05:19:15Z"}
