{"icao":"KLAX","metar":"KLAX 251653Z 00000KT 4SM BR OVC005 19/18 A3002 RMK AO2 SLP163 VIS S-NW 2 1/2 T01940178 $","updated":"2025-09-25T17:15:12Z"}
