{"icao":"LPPT","metar":"LPPT 190100Z 30004KT CAVOK 12/10 Q1018","updated":"2025-11-19T01:23:26Z"}
