{"icao":"KORD","metar":"KORD 060551Z 23009KT 10SM FEW027 BKN037 OVC070 M03/M08 A2976 RMK AO2 SLP087 4/004 T10281078 11022 21033 410111128 56003","updated":"2025-12-06T06:27:00Z"}
