{"icao":"LPPS","metar":"LPPS 191500Z 11007KT 070V170 9999 FEW015 20/12 Q1017","updated":"2025-11-19T15:20:03Z"}
