{"icao":"LPCS","metar":"LPCS 290930Z 03011KT CAVOK 16/M00 Q1029","updated":"2026-03-29T09:35:14Z"}
