{"icao":"LPMT","metar":"LPMT 011500Z 26004KT 220V300 9999 FEW040 17/10 Q1019","updated":"2026-03-01T15:22:10Z"}
