{"icao":"LPFR","metar":"LPFR 190600Z 08006KT CAVOK 21/18 Q1016","updated":"2025-10-19T06:25:05Z"}
