{"icao":"LPPS","metar":"LPPS 081800Z 04008KT 010V070 9999 SCT015 SCT030 21/16 Q1022","updated":"2025-11-08T18:23:35Z"}
