{"icao":"LPMA","metar":"LPMA 030300Z 34007KT 270V020 9999 BKN015 17/09 Q1026","updated":"2025-12-03T03:16:25Z"}
