{"icao":"KORD","metar":"KORD 131851Z 17003KT 10SM BKN065 OVC250 19/11 A3008 RMK AO2 SLP186 T01940106 $","updated":"2025-10-13T19:13:26Z"}
