{"icao":"LPST","metar":"LPST 230700Z 30005KT 3000 BR BKN005 20/19 Q1020","updated":"2025-10-23T07:18:10Z"}
