{"icao":"LPAR","metar":"LPAR 201600Z 06007KT CAVOK 18/06 Q1028","updated":"2026-02-20T16:37:11Z"}
