{"icao":"LPPS","metar":"LPPS 061430Z 02016KT 9999 FEW015 BKN030 15/06 Q1028","updated":"2026-03-06T14:36:52Z"}
