{"icao":"LPPD","metar":"LPPD 072330Z 31005KT 280V350 9999 FEW025 BKN035 14/09 Q1034","updated":"2026-04-07T23:35:26Z"}
