{"icao":"LPAR","metar":"LPAR 051600Z 36020G30KT 340V050 CAVOK 10/M00 Q1014","updated":"2026-01-05T16:26:24Z"}
