{"icao":"KLAX","metar":"KLAX 180953Z 00000KT 10SM FEW012 FEW025 SCT040 12/11 A2990 RMK AO2 SLP124 T01170106 $","updated":"2025-11-18T10:21:41Z"}
