{"icao":"LPBJ","metar":"LPBJ 211500Z 05004KT 360V120 CAVOK 21/04 Q1028","updated":"2026-02-21T15:23:18Z"}
