{"icao":"KJFK","metar":"KJFK 190051Z 09003KT 10SM BKN100 BKN120 BKN250 07/M04 A3016 RMK AO2 SLP213 T00671044 $","updated":"2025-11-19T01:23:49Z"}
