{"icao":"LPAZ","metar":"LPAZ 211500Z 29015KT 9000 FEW004 BKN006 17/16 Q1021","updated":"2026-01-21T15:30:35Z"}
