{"icao":"KLAX","metar":"KLAX 311353Z 01007KT 10SM FEW090 BKN110 OVC200 19/03 A3001 RMK AO2 SLP161 T01890033 $","updated":"2025-12-31T14:19:24Z"}
