{"icao":"KJFK","metar":"KJFK 260251Z 01013KT 10SM FEW055 SCT250 00/M13 A3013 RMK AO2 SLP201 T00001133 51036 $","updated":"2025-12-26T03:23:47Z"}
