{"icao":"LPOV","metar":"LPOV 222200Z 20010KT 160V240 9999 BKN006 20/19 Q1017","updated":"2025-10-22T22:14:13Z"}
