{"icao":"LPST","metar":"LPST 271000Z 33007KT 9999 FEW011 13/11 Q1025","updated":"2026-02-27T10:36:02Z"}
