{"icao":"KJFK","metar":"KJFK 181451Z VRB03KT 10SM FEW027 SCT085 23/16 A2999 RMK AO2 SLP155 T02280156 58004","updated":"2025-09-18T15:18:10Z"}
