{"icao":"LPFL","metar":"LPFL 151600Z VRB10G21KT 2500 +DZ SCT008 BKN013 22/20 Q1016 WS R18","updated":"2026-06-15T21:40:57Z"}
