{"icao":"LPPS","metar":"LPPS 211800Z 06014G24KT 020V090 9999 SCT014 SCT030 18/11 Q1025","updated":"2025-11-21T18:25:46Z"}
