{"icao":"LPHR","metar":"LPHR 012000Z 33017G31KT 300V010 9999 SCT025 15/07 Q1009","updated":"2026-01-01T20:22:24Z"}
