{"icao":"LPPD","metar":"LPPD 111100Z 03010KT 350V060 9999 FEW022 BKN045 14/07 Q1032","updated":"2026-04-11T11:29:07Z"}
