{"icao":"KORD","metar":"KORD 240451Z 33009KT 10SM SCT250 M22/M32 A3074 RMK AO2 SLP433 T12221317","updated":"2026-01-24T05:20:24Z"}
