{"icao":"LPMT","metar":"LPMT 091900Z 23003KT 200V260 CAVOK 16/12 Q1020","updated":"2025-11-09T19:12:35Z"}
