{"icao":"LPPT","metar":"LPPT 220130Z 01004KT CAVOK 13/07 Q1028","updated":"2026-02-22T02:03:16Z"}
