{"icao":"LPPT","metar":"LPPT 112300Z 28009KT 240V300 9999 SCT015 BKN022 15/13 Q1019","updated":"2026-02-11T23:30:40Z"}
