{"icao":"LPMR","metar":"LPMR 260800Z VRB02KT 0500 FG OVC001 13/12 Q1018","updated":"2025-10-26T08:20:50Z"}
