{"icao":"KLAX","metar":"KLAX 250853Z 18004KT 10SM FEW012 SCT220 BKN280 15/12 A2988 RMK AO2 SLP114 T01500117 58007 $","updated":"2026-04-25T09:51:14Z"}
