{"icao":"LPCS","metar":"LPCS 090730Z 24006KT 210V270 2000 -DZ BR SCT002 BKN003 15/15 Q1013","updated":"2026-02-09T07:56:09Z"}
