{"icao":"LPLA","metar":"LPLA 092100Z 19024G39KT 9999 BKN12 BKN020 BKN030 17/15 Q1023 RM K WIND RWY15 19027G38KT PK 20040/29 RH88 GRN","updated":"2026-01-09T21:20:08Z"}
