{"icao":"LPPR","metar":"LPPR 240630Z 19006KT 3000 BCFG SCT001 16/16 Q1020","updated":"2026-05-24T06:57:48Z"}
