{"icao":"KLAX","metar":"KLAX 291453Z VRB04KT 10SM CLR 08/02 A3015 RMK AO2 SLP208 T00830022 53007 $","updated":"2025-12-29T15:21:24Z"}
