{"icao":"LPPS","metar":"LPPS 080500Z 27014KT 7000 -RADZ BKN013 14/13 Q1008","updated":"2026-05-08T05:29:10Z"}
