{"icao":"LPFL","metar":"LPFL 180930Z 05005KT 360V120 9999 -SHRA FEW009 SCT012 BKN045 15/12 Q1018","updated":"2026-04-18T09:47:08Z"}
