{"icao":"LPHR","metar":"LPHR 251600Z 26008KT 220V290 9999 SCT011 20/17 Q1026","updated":"2025-11-25T16:26:32Z"}
