{"icao":"KLAX","metar":"KLAX 081453Z 04003KT 10SM FEW010 FEW022 10/06 A3004 RMK AO2 SLP169 T01000061 53009 $","updated":"2026-01-08T15:25:06Z"}
