{"icao":"LPAZ","metar":"LPAZ 192300Z 06014G24KT 030V090 9999 FEW014 SCT024 17/12 Q1024","updated":"2025-11-19T23:17:25Z"}
