{"icao":"LPBJ","metar":"LPBJ 100300Z 25002KT 210V290 CAVOK 15/14 Q1019","updated":"2025-10-10T03:35:49Z"}
