{"icao":"KJFK","metar":"KJFK 191551Z 18007KT 10SM FEW250 26/18 A3008 RMK AO2 SLP184 T02560178","updated":"2026-05-19T16:17:42Z"}
