{"icao":"LPPS","metar":"LPPS 192100Z 05010KT 020V080 9999 FEW015 BKN030 16/09 Q1028","updated":"2026-02-19T21:30:34Z"}
