{"icao":"LPPT","metar":"LPPT 022200Z 31007KT 280V350 CAVOK 13/09 Q1022","updated":"2026-04-02T22:30:01Z"}
