{"icao":"LPBJ","metar":"LPBJ 020800Z 29005KT 0300 FG VV002 09/08 Q1018","updated":"2025-12-02T08:28:12Z"}
