{"icao":"KORD","metar":"KORD 030851Z 11007KT 10SM BKN013 BKN065 OVC150 02/M07 A3016 RMK AO2 SLP219 T00221072 56015 $","updated":"2026-03-03T09:40:24Z"}
