{"icao":"KLAX","metar":"KLAX 290253Z 26007KT 10SM CLR 21/15 A2997 RMK AO2 SLP148 T02060150 53001 $","updated":"2025-09-29T03:03:10Z"}
