{"icao":"KJFK","metar":"KJFK 272251Z 28016G23KT 10SM FEW045 FEW120 SCT180 BKN250 05/M07 A2993 RMK AO2 SLP134 T00501072","updated":"2025-11-27T23:17:03Z"}
