{"icao":"LPCS","metar":"LPCS 171400Z 21007KT 160V250 CAVOK 25/14 Q1014","updated":"2025-10-17T14:17:21Z"}
