{"icao":"LPMT","metar":"LPMT 180200Z 17004KT CAVOK 17/14 Q1015","updated":"2025-10-18T02:53:39Z"}
