{"icao":"LPPD","metar":"LPPD 041330Z 35017KT 8000 2000SE -DZ BR SCT005 BKN010 16/14 Q1025","updated":"2026-03-04T13:57:31Z"}
