{"icao":"LPLA","metar":"LPLA 200500Z 19018G30KT 9999 FEW012 SCT018 17/14 Q1019","updated":"2026-02-20T05:52:29Z"}
