{"icao":"KORD","metar":"KORD 120451Z 09006KT 10SM FEW029 13/08 A3006 RMK AO2 SLP179 T01330083","updated":"2025-10-12T05:15:49Z"}
