{"icao":"LPFR","metar":"LPFR 211100Z 21018KT 8000 -RADZ SCT006 BKN012 15/14 Q1012","updated":"2026-01-21T11:22:37Z"}
