{"icao":"LPFR","metar":"LPFR 231500Z 22007KT 190V250 CAVOK 23/06 Q1015","updated":"2025-09-23T15:18:05Z"}
