{"icao":"LPAZ","metar":"LPAZ 260800Z 26021KT 7000 FEW002 SCT015 BKN020 16/16 Q1007","updated":"2026-01-26T08:31:16Z"}
