{"icao":"KORD","metar":"KORD 301851Z 21011G21KT 10SM FEW300 25/11 A2982 RMK AO2 SLP095 T02500111","updated":"2026-03-30T18:59:02Z"}
