{"icao":"LPFR","metar":"LPFR 310830Z 03008KT CAVOK 20/06 Q1024","updated":"2026-03-31T08:58:03Z"}
