{"icao":"KLAX","metar":"KLAX 261553Z 20006KT 10SM SCT026 OVC042 17/11 A2988 RMK AO2 SLP118 SCT V BKN T01720111 $","updated":"2026-05-26T16:41:16Z"}
