{"icao":"KORD","metar":"KORD 250451Z 03011KT 10SM BKN008 BKN045 BKN250 10/08 A2986 RMK AO2 SLP110 T01000083","updated":"2026-04-25T05:10:59Z"}
