{"icao":"LPBJ","metar":"LPBJ 122300Z 28006KT CAVOK 18/13 Q1016","updated":"2025-10-12T23:14:40Z"}
