{"icao":"LPPD","metar":"LPPD 070500Z 16005KT 120V200 9999 FEW025 BKN040 15/07 Q1034","updated":"2026-01-07T05:24:10Z"}
