{"icao":"LPAZ","metar":"LPAZ 152000Z 02006KT 350V050 9999 FEW027 BKN040 15/09 Q1031","updated":"2026-05-15T20:16:00Z"}
