{"icao":"LPMR","metar":"LPMR 252200Z 31006KT 9999 FEW020 15/15 Q1017","updated":"2026-04-25T22:35:30Z"}
