{"icao":"LPMA","metar":"LPMA 260700Z 01013KT 330V030 9999 BKN015 16/12 Q1018","updated":"2026-03-26T07:06:50Z"}
