{"icao":"KLAX","metar":"KLAX 042253Z 24014KT 10SM FEW030 22/14 A2984 RMK AO2 SLP102 T02220144 $","updated":"2025-10-04T23:15:39Z"}
