{"icao":"LPMR","metar":"LPMR 090600Z 11001KT CAVOK 09/07 Q1019","updated":"2026-04-09T07:20:23Z"}
