{"icao":"LPPD","metar":"LPPD 130930Z 30004KT 260V320 9999 FEW022 14/09 Q1029","updated":"2026-02-13T09:42:20Z"}
