{"icao":"LPMR","metar":"LPMR 270200Z 16005KT 4000 BR SCT002 BKN006 12/11 Q1019","updated":"2025-09-27T02:52:39Z"}
