{"icao":"LPFR","metar":"LPFR 150500Z 31002KT CAVOK 07/07 Q1020","updated":"2026-01-15T05:24:44Z"}
