{"icao":"LPFR","metar":"LPFR 051300Z 16005KT 140V200 CAVOK 24/19 Q1018","updated":"2025-10-05T13:19:57Z"}
