{"icao":"KJFK","metar":"KJFK 261551Z 06015G21KT 10SM FEW020 BKN039 BKN049 09/03 A3013 RMK SLP203 T00940028 $ ","updated":"2026-04-26T16:41:08Z"}
