{"icao":"LPFL","metar":"LPFL 190930Z VRB06KT 8000 -RA FEW011 SCT015 BKN022 17/12 Q1015","updated":"2026-02-19T09:43:13Z"}
