{"icao":"KJFK","metar":"KJFK 090651Z 00000KT 10SM SCT250 08/04 A2999 RMK AO2 SLP154 T00780044 $","updated":"2026-03-09T07:05:05Z"}
