{"icao":"LPPT","metar":"LPPT 142100Z 33014KT CAVOK 20/16 Q1022","updated":"2025-09-14T21:14:01Z"}
