{"icao":"LPCS","metar":"LPCS 271100Z 10004KT 040V130 CAVOK 15/05 Q1025","updated":"2025-11-27T11:16:46Z"}
