{"icao":"LPAZ","metar":"LPAZ 250000Z 32013KT 9999 SCT002 BKN010 20/19 Q1021","updated":"2026-06-25T00:10:43Z"}
