{"icao":"KORD","metar":"KORD 100951Z 00000KT 7SM SCT050 21/19 A2981 RMK AO2 SLP089 T02060194 $","updated":"2026-06-10T09:56:59Z"}
