{"icao":"KJFK","metar":"KJFK 311051Z 32007KT 10SM BKN250 M12/M18 A3018 RMK AO2 SLP219 T11221183 $","updated":"2026-01-31T11:20:18Z"}
