{"icao":"LPST","metar":"LPST 241100Z 27009KT 240V310 9999 SCT012 BKN018 21/19 Q1018","updated":"2025-10-24T11:15:42Z"}
