{"icao":"LPFR","metar":"LPFR 120500Z 31011KT 290V360 CAVOK 11/03 Q1014","updated":"2026-04-12T05:22:16Z"}
