{"icao":"KJFK","metar":"KJFK 262051Z 06013KT 10SM FEW040 FEW080 SCT180 14/03 A3013 RMK SLP201 T01390028 55000 $ ","updated":"2026-04-26T21:36:52Z"}
