{"icao":"LPCS","metar":"LPCS 050930Z 23020G32KT 9999 VCSH FEW016 SCT020 FEW024TCU 15/14 Q0994","updated":"2026-02-05T09:42:26Z"}
