{"icao":"LPMT","metar":"LPMT 140500Z 14001KT CAVOK 12/12 Q1015","updated":"2025-10-14T05:16:49Z"}
