{"icao":"KORD","metar":"KORD 041951Z 22012G21KT 10SM SCT060 31/13 A3005 RMK AO2 SLP171 T03060133 $","updated":"2025-10-04T20:17:22Z"}
