{"icao":"LPLA","metar":"LPLA 060900Z 21009KT 130V240 9999 FEW009 SCT040 22/19 Q1018","updated":"2025-10-06T09:21:03Z"}
