{"icao":"LPCS","metar":"LPCS 262100Z 01013KT CAVOK 15/08 Q1015","updated":"2026-03-26T21:30:14Z"}
