{"icao":"LPFR","metar":"LPFR 070130Z 28003KT 9999 SCT035 09/07 Q1015","updated":"2026-02-07T01:54:35Z"}
