{"icao":"KORD","metar":"KORD 041051Z 22003KT 10SM FEW200 BKN300 18/09 A3016 RMK AO2 SLP209 T01830089 $","updated":"2026-06-04T11:52:01Z"}
