{"icao":"LPCS","metar":"LPCS 161400Z 32009KT 290V350 9999 -SHRA FEW010 FEW025CB SCT040 11/10 Q1013","updated":"2026-01-16T14:22:08Z"}
