{"icao":"LPPS","metar":"LPPS 061430Z 29014KT 9999 SCT014 BKN030 19/12 Q1015","updated":"2026-04-06T14:45:03Z"}
