{"icao":"LPPS","metar":"LPPS 052300Z 04011KT 360V070 9999 SCT015 SCT030 15/08 Q1025","updated":"2026-01-05T23:19:11Z"}
