{"icao":"KLAX","metar":"KLAX 091253Z 04004KT 10SM CLR 15/02 A3005 RMK AO2 SLP173 T01500022 $","updated":"2025-12-09T13:35:09Z"}
