{"icao":"LPHR","metar":"LPHR 092000Z 21011KT 9999 FEW018 SCT038 17/08 Q1022","updated":"2025-12-09T20:19:37Z"}
