{"icao":"LPMA","metar":"LPMA 040130Z 35017G29KT 320V030 9999 BKN015 FEW018CB 15/11 Q1017","updated":"2026-03-04T01:57:18Z"}
