{"icao":"LPHR","metar":"LPHR 021700Z 23005KT 190V260 9999 FEW020 BKN035 19/12 Q1020","updated":"2025-11-02T17:14:27Z"}
