{"icao":"LPFR","metar":"LPFR 221700Z 25015KT 9000 -RADZ SCT016 BKN028 15/12 Q1009","updated":"2026-01-22T17:27:16Z"}
