{"icao":"KORD","metar":"KORD 240651Z 28004KT 10SM CLR 03/00 A3019 RMK AO2 SLP228 T00330000","updated":"2025-10-24T07:17:57Z"}
