{"icao":"LPMT","metar":"LPMT 252300Z 21007KT 9999 SCT012 BKN022 21/18 Q1018","updated":"2026-06-26T00:07:03Z"}
