{"icao":"LPPS","metar":"LPPS 231700Z 36007KT 340V050 9999 FEW015 BKN030 23/19 Q1021","updated":"2025-10-23T17:16:03Z"}
