{"icao":"LPAR","metar":"LPAR 031600Z 34009KT CAVOK 26/11 Q1021","updated":"2025-10-05T16:18:43Z"}
