{"icao":"LPFR","metar":"LPFR 141700Z 26004KT 9999 VCSH FEW020 FEW022TCU 15/11 Q1020","updated":"2026-01-14T17:25:41Z"}
