{"icao":"LPMR","metar":"LPMR 261100Z 04006KT CAVOK 12/06 Q1027","updated":"2025-11-26T11:16:42Z"}
