{"icao":"LPMR","metar":"LPMR 271200Z 15012KT CAVOK 21/13 Q1016","updated":"2025-09-27T12:31:47Z"}
