{"icao":"KORD","metar":"KORD 220151Z 27006KT 3SM -SN BR BKN025 OVC034 M03/M06 A3016 RMK AO2 SLP222 P0000 T10331056 $","updated":"2026-02-22T02:03:54Z"}
