{"icao":"LPFR","metar":"LPFR 220800Z 30002KT 9999 FEW030 12/09 Q1012","updated":"2026-01-22T08:30:40Z"}
