{"icao":"LPPT","metar":"LPPT 230900Z 30007KT 270V340 9999 FEW014 BKN040 22/18 Q1021","updated":"2025-10-23T09:19:42Z"}
