{"icao":"LPAR","metar":"LPAR 091200Z 20016KT 3000 RA BR BKN009 OVC018 16/16 Q1015","updated":"2025-12-09T12:41:18Z"}
