{"icao":"LPAZ","metar":"LPAZ 200900Z 22011KT 6000 -DZ BKN002 16/15 Q1013","updated":"2026-05-20T09:30:01Z"}
