{"icao":"LPLA","metar":"LPLA 240800Z 01006KT 330V040 9999 BKN025 13/08 Q1028","updated":"2026-03-24T08:52:09Z"}
