{"icao":"LPFL","metar":"LPFL 061330Z VRB08G19KT 8000 DZ FEW004 SCT013 22/18 Q1023","updated":"2026-06-06T13:39:36Z"}
