{"icao":"LPFR","metar":"LPFR 221900Z 11004KT 9999 FEW015 FEW020CB 16/12 Q1010","updated":"2026-03-22T19:24:15Z"}
