{"icao":"LPPR","metar":"LPPR 041200Z 26005KT 220V360 9999 SCT012 BKN015 21/16 Q1025","updated":"2025-10-04T12:31:33Z"}
