{"icao":"KJFK","metar":"KJFK 240851Z 30015G22KT 10SM SCT120 BKN250 M02/M08 A2982 RMK AO2 SLP099 T10171078 53015 $","updated":"2026-02-24T09:52:00Z"}
