{"icao":"KJFK","metar":"KJFK 122251Z 25008KT 10SM BKN050 OVC080 10/M02 A2975 RMK AO2 SLP075 T01001017 $","updated":"2025-11-12T23:18:13Z"}
