{"icao":"LPMR","metar":"LPMR 051100Z 01014KT CAVOK 07/M05 Q1016","updated":"2026-01-05T11:18:19Z"}
