{"icao":"LPST","metar":"LPST 070700Z VRB01KT 5000 BR SCT005 BKN020 17/15 Q1022","updated":"2025-10-07T07:17:13Z"}
