{"icao":"LPFR","metar":"LPFR 150600Z 27006KT CAVOK 18/15 Q1015","updated":"2026-06-15T06:21:39Z"}
