{"icao":"LPBJ","metar":"LPBJ 120500Z 07002KT CAVOK 08/06 Q1025","updated":"2026-03-12T05:50:12Z"}
