{"icao":"LPPT","metar":"LPPT 271500Z 05004KT 340V090 9999 FEW035 24/14 Q1018","updated":"2025-10-27T15:19:24Z"}
