{"icao":"LPPS","metar":"LPPS 191800Z 01010KT 9999 SCT014 SCT030 16/09 Q1026","updated":"2025-12-19T18:28:28Z"}
