{"icao":"KORD","metar":"KORD 151322Z 06009KT 7SM -RA FEW011 OVC018 13/12 A3027 RMK AO2 P0005 T01330117","updated":"2025-10-15T13:30:47Z"}
