{"icao":"LPPR","metar":"LPPR 120930Z 22005KT 200V260 5000 BR FEW018 SCT024 13/10 Q1019","updated":"2026-02-12T09:48:40Z"}
