{"icao":"LPHR","metar":"LPHR 100930Z 25013KT 9000 FEW007 SCT011 17/16 Q1010","updated":"2026-02-10T09:59:38Z"}
