{"icao":"LPAZ","metar":"LPAZ 190930Z 35032G45KT 8000 VCSH SCT015 BKN028 15/11 Q0996","updated":"2026-03-19T09:41:35Z"}
