{"icao":"KJFK","metar":"KJFK 190851Z 00000KT 10SM FEW250 12/11 A3001 RMK AO2 SLP161 T01220111 58012 $","updated":"2025-10-19T09:16:31Z"}
