{"icao":"LPPR","metar":"LPPR 211600Z 33006KT CAVOK 15/09 Q1029","updated":"2026-02-21T16:27:26Z"}
