{"icao":"LPFL","metar":"LPFL 071800Z 19015G33KT 130V230 9999 SCT018 SCT038 20/16 Q1015","updated":"2025-11-07T18:25:57Z"}
