{"icao":"LPAZ","metar":"LPAZ 300130Z 28013KT 4800 BR SCT004 BKN010 16/16 Q1018","updated":"2026-01-30T01:56:30Z"}
