{"icao":"LPMA","metar":"LPMA 302200Z 02010KT 9999 SCT015 18/10 Q1023","updated":"2025-11-30T22:17:30Z"}
