{"icao":"LPPR","metar":"LPPR 090400Z 11010KT CAVOK 10/09 Q1021","updated":"2025-11-09T04:20:39Z"}
