{"icao":"LPAZ","metar":"LPAZ 220200Z 23023KT 9999 SCT018 SCT048 16/12 Q1000","updated":"2026-04-22T02:28:49Z"}
