{"icao":"LPMT","metar":"LPMT 070800Z 35009KT CAVOK 11/08 Q1018","updated":"2026-03-07T08:29:36Z"}
