{"icao":"LPCS","metar":"LPCS 071000Z 25018G28KT 8000 FEW005 SCT013 BKN024 14/14 Q1002 RESHRA","updated":"2026-02-07T10:23:56Z"}
