{"icao":"LPPR","metar":"LPPR 051600Z 21010KT 180V250 4500 -DZRA BR BKN003 BKN011 16/15 Q1018 REDZ","updated":"2025-12-05T16:24:32Z"}
