{"icao":"LPPD","metar":"LPPD 062230Z 29008KT 2000 -DZ BR SCT001 BKN002 18/18 Q1026","updated":"2026-06-06T23:04:03Z"}
