{"icao":"KORD","metar":"KORD 151251Z 10006KT 10SM FEW100 BKN140 OVC250 04/M02 A2952 RMK AO2 PRESFR SLP000 T00441022 $","updated":"2026-03-15T13:46:37Z"}
