{"icao":"LPST","metar":"LPST 031200Z 29010KT 260V320 9999 FEW012 21/14 Q1024","updated":"2025-10-03T12:35:10Z"}
