{"icao":"KORD","metar":"KORD 220551Z 21014G24KT 10SM FEW150 FEW250 21/08 A2958 RMK AO2 SLP012 T02060083 10239 20206 402500050 58014","updated":"2026-03-22T06:50:40Z"}
