{"icao":"LPMA","metar":"LPMA 222200Z 03016KT 360V060 9999 BKN015 FEW018CB 16/12 Q1007","updated":"2026-03-22T22:23:56Z"}
