{"icao":"LPAZ","metar":"LPAZ 141500Z 20010KT 9999 FEW022 BKN030 16/09 Q1032","updated":"2026-02-14T15:24:00Z"}
