{"icao":"LPBJ","metar":"LPBJ 011300Z 31004KT 240V010 9999 FEW030 22/10 Q1018","updated":"2026-05-01T13:42:31Z"}
