{"icao":"KLAX","metar":"KLAX 061053Z 16005KT 10SM SCT013 OVC017 18/14 A2984 RMK AO2 SLP101 T01830139 $","updated":"2026-06-06T11:24:43Z"}
