{"icao":"KORD","metar":"KORD 220851Z 26005KT 10SM SCT250 19/18 A2986 RMK AO2 SLP107 T01940178 58002 $","updated":"2025-09-22T09:21:39Z"}
