{"icao":"KJFK","metar":"KJFK 051351Z 23003KT 10SM FEW045 BKN120 BKN250 M01/M07 A3025 RMK AO2 SLP242 T10061067 $","updated":"2026-01-05T14:23:34Z"}
