{"icao":"LPFL","metar":"LPFL 071700Z 19005KT 150V220 9999 FEW030 23/15 Q1021","updated":"2025-10-07T17:15:23Z"}
