{"icao":"KLAX","metar":"KLAX 270453Z 20003KT 10SM BKN017 BKN022 OVC039 20/17 A2990 RMK AO2 SLP121 T02000172 $","updated":"2025-09-27T05:16:35Z"}
