{"icao":"LPLA","metar":"LPLA 011100Z 34023KT 9000 -SHRA SCT014 SCT020 BKN030 14/12 Q1006","updated":"2026-01-01T11:17:36Z"}
