{"icao":"LPOV","metar":"LPOV 231600Z 23011KT 200V260 9999 SCT008 BKN015 15/13 Q1022 REDZ","updated":"2025-11-23T16:21:07Z"}
