{"icao":"LPAR","metar":"LPAR 261600Z 26007KT CAVOK 28/06 Q1017","updated":"2025-09-27T13:19:53Z"}
