{"icao":"LPMR","metar":"LPMR 271400Z 27012G22KT 240V300 9999 VCSH FEW015 BKN023 BKN035 12/04 Q1001","updated":"2026-01-27T14:28:21Z"}
