{"icao":"KLAX","metar":"KLAX 100353Z 28008KT 10SM FEW015 16/14 A2994 RMK AO2 SLP135 T01560139 $","updated":"2026-03-10T04:09:36Z"}
