{"icao":"LPAZ","metar":"LPAZ 100400Z 23005KT 190V250 9999 FEW022 BKN049 17/15 Q1023","updated":"2025-11-10T04:26:11Z"}
