{"icao":"LPMA","metar":"LPMA 181300Z 02018G32KT 290V050 9999 SCT015 17/08 Q1019","updated":"2026-01-18T13:27:40Z"}
