{"icao":"LPMA","metar":"LPMA 291100Z 01011KT 330V050 9999 SCT015 SCT030 22/16 Q1023","updated":"2025-09-29T11:14:37Z"}
