{"icao":"LPPR","metar":"LPPR 050900Z 03006KT 360V060 CAVOK 04/M01 Q1016","updated":"2026-01-05T09:30:30Z"}
