{"icao":"LPHR","metar":"LPHR 102100Z 24022KT 2000 +RA BR SCT004 BKN007 BKN011 SCT013TCU 17/17 Q1016","updated":"2026-01-11T06:30:17Z"}
