{"icao":"LPPD","metar":"LPPD 260300Z 04016G27KT 9999 FEW018 FEW020TCU 18/12 Q1019","updated":"2025-10-26T03:08:43Z"}
