{"icao":"LPHR","metar":"LPHR 040630Z 27014KT 8000 -SHRA SCT003 BKN007 17/16 Q1023","updated":"2026-03-04T06:44:48Z"}
