{"icao":"LPBJ","metar":"LPBJ 310500Z VRB01KT CAVOK 09/05 Q1025","updated":"2026-03-31T05:07:52Z"}
