{"icao":"LPMA","metar":"LPMA 100800Z 01009G20KT 320V060 9999 SCT015 BKN030 21/16 Q1023","updated":"2025-10-10T08:23:18Z"}
