{"icao":"LPHR","metar":"LPHR 260900Z 06010G20KT 020V110 9999 FEW016 SCT035 18/11 Q1024","updated":"2025-10-26T09:16:21Z"}
