{"icao":"KJFK","metar":"KJFK 261651Z 34008KT 4SM R04R/6000VP6000FT -SN BR BKN014 OVC023 M06/M08 A2978 RMK AO2 SNB51 SLP083 P0000 T10611083 $","updated":"2026-01-26T17:28:39Z"}
