{"icao":"LPPR","metar":"LPPR 260130Z 00000KT 5000 0550N BCFG FEW004 09/09 Q1022","updated":"2026-02-26T01:58:37Z"}
