{"icao":"LPMT","metar":"LPMT 181600Z VRB01KT 9999 FEW035 19/11 Q1018","updated":"2025-11-18T16:25:49Z"}
