{"icao":"LPFR","metar":"LPFR 020730Z 07006KT 040V100 9999 FEW012 BKN018 13/09 Q1012","updated":"2026-03-02T07:49:30Z"}
