{"icao":"LPPR","metar":"LPPR 142200Z 12009KT CAVOK 12/07 Q1017","updated":"2025-12-14T22:17:00Z"}
