{"icao":"LPMT","metar":"LPMT 092200Z VRB03KT 4500 BR SCT006 BKN018 BKN030 15/15 Q1018 RMK GRN","updated":"2025-12-09T22:19:10Z"}
