{"icao":"LPMA","metar":"LPMA 110200Z 36013G24KT 320V030 9999 BKN015 14/10 Q1027","updated":"2026-03-11T02:19:33Z"}
