{"icao":"KORD","metar":"KORD 072251Z 27013G22KT 10SM OVC015 06/03 A2984 RMK AO2 SLP106 T00610028","updated":"2026-03-07T23:20:57Z"}
