{"icao":"LPOV","metar":"LPOV 281700Z 20009KT 4000 BR SCT014 BKN022 14/11 Q1003","updated":"2026-01-28T17:30:41Z"}
