{"icao":"LPOV","metar":"LPOV 090100Z 15005KT 130V190 2000 BR BKN004 15/15 Q1021","updated":"2025-10-09T01:18:26Z"}
