{"icao":"LPPD","metar":"LPPD 030100Z 32013KT 300V360 9999 FEW008 FEW020TCU 15/11 Q1007","updated":"2026-01-03T01:26:18Z"}
