{"icao":"LPPD","metar":"LPPD 172300Z 34008KT 300V030 9999 FEW017 SCT025 14/12 Q1029","updated":"2026-01-17T23:18:10Z"}
