{"icao":"LPHR","metar":"LPHR 221930Z 29022KT 9999 FEW014 15/09 Q1000","updated":"2026-04-22T20:04:01Z"}
