{"icao":"KORD","metar":"KORD 180051Z 11003KT 10SM BKN140 BKN160 BKN250 06/M04 A3006 RMK AO2 SLP186 T00561039","updated":"2025-11-18T01:24:25Z"}
