{"icao":"KLAX","metar":"KLAX 262053Z 25012KT 10SM FEW014 FEW045 SCT060 21/13 A2997 RMK AO2 SLP146 T02110128 52000","updated":"2026-06-26T21:17:09Z"}
