{"icao":"LPMA","metar":"LPMA 180600Z 36007KT 320V020 9999 SCT015 FEW016TCU 18/14 Q1022","updated":"2025-11-18T06:28:08Z"}
