{"icao":"LPFR","metar":"LPFR 091400Z 24009KT 9999 FEW030 21/16 Q1018","updated":"2025-10-09T14:17:34Z"}
