{"icao":"KJFK","metar":"KJFK 130951Z 26008KT 10SM BKN150 BKN200 M02/M08 A3015 RMK AO2 SLP208 T10221078","updated":"2025-12-13T10:18:37Z"}
