{"icao":"LPAZ","metar":"LPAZ 260630Z 23020KT 2500 RA BR SCT006 BKN011 17/16 Q1007","updated":"2026-01-26T06:35:46Z"}
