{"icao":"LPST","metar":"LPST 081100Z 16014KT 130V190 9999 SCT025 17/11 Q1009","updated":"2026-05-08T11:12:43Z"}
