{"icao":"LPFR","metar":"LPFR 161900Z 25006KT CAVOK 24/17 Q1015","updated":"2026-06-16T19:33:20Z"}
