{"icao":"LPMA","metar":"LPMA 261500Z 24004KT 150V310 9999 -SHRA BKN013 21/18 Q1020","updated":"2026-06-26T15:22:20Z"}
