{"icao":"LPMR","metar":"LPMR 041500Z 28012KT CAVOK 24/10 Q1021","updated":"2026-04-04T15:30:32Z"}
