{"icao":"LPMA","metar":"LPMA 092130Z 01005KT 290V060 9999 FEW015 17/11 Q1015","updated":"2026-05-09T21:41:27Z"}
