{"icao":"LPAZ","metar":"LPAZ 100000Z 33004KT 9999 FEW013 BKN035 17/17 Q1030","updated":"2026-06-10T00:11:47Z"}
