{"icao":"LPPT","metar":"LPPT 260800Z 23015KT 7000 VCSH FEW004 BKN006 15/15 Q1013","updated":"2026-01-26T08:31:13Z"}
