{"icao":"LPLA","metar":"LPLA 270405Z 31003KT 260V350 8000 -RA BKN015 BKN030 18/16 Q1020","updated":"2025-11-27T04:22:55Z"}
