{"icao":"LPPT","metar":"LPPT 161900Z 32010KT CAVOK 17/12 Q1019","updated":"2026-04-16T19:10:54Z"}
