{"icao":"LPPD","metar":"LPPD 271500Z 24026G38KT 8000 FEW018 FEW020TCU BKN040 16/13 Q1007","updated":"2026-01-27T15:29:38Z"}
