{"icao":"LPBJ","metar":"LPBJ 050500Z 31007KT CAVOK 11/08 Q1017","updated":"2026-06-05T05:15:03Z"}
