{"icao":"LPPD","metar":"LPPD 251700Z 22006KT 190V260 9999 FEW009 SCT018 19/16 Q1026","updated":"2025-11-25T17:18:51Z"}
