{"icao":"LPPD","metar":"LPPD 111230Z 30025G42KT 9999 -SHRA FEW025 FEW027TCU 16/10 Q1005","updated":"2025-11-11T12:38:28Z"}
