{"icao":"LPFR","metar":"LPFR 231200Z 18006KT 150V220 9999 FEW007 SCT010 25/21 Q1013","updated":"2026-06-23T12:05:07Z"}
