{"icao":"KLAX","metar":"KLAX 170453Z 04007KT 10SM BKN034 BKN050 14/13 A2999 RMK AO2 SLP153 T01440133 $","updated":"2025-11-17T05:19:37Z"}
