{"icao":"LPFR","metar":"LPFR 080130Z 04005KT CAVOK 06/05 Q1031","updated":"2026-01-08T01:41:00Z"}
