{"icao":"LPCS","metar":"LPCS 192130Z 10008KT 9999 -RA FEW008 SCT035 14/12 Q1006","updated":"2026-03-20T02:00:37Z"}
