{"icao":"LPPR","metar":"LPPR 160830Z 27007KT 230V350 3500 -RADZ BR SCT003 BKN005 14/13 Q1028","updated":"2026-02-16T08:45:26Z"}
