{"icao":"LPPT","metar":"LPPT 222330Z 30005KT 280V340 CAVOK 13/11 Q1014","updated":"2026-04-22T23:43:35Z"}
