{"icao":"KORD","metar":"KORD 152321Z 02016KT 1 1/2SM R10L/4500VP6000FT +TSRA BR BKN006 OVC031CB 02/01 A2930 RMK AO2 WSHFT 2247 OCNL LTGICCG OHD TS OHD MOV NE P0019 T00220011 $","updated":"2026-03-15T23:27:44Z"}
