{"icao":"LPMA","metar":"LPMA 270400Z 34021G32KT 300V010 9999 BKN015 16/10 Q1024","updated":"2026-02-27T04:18:44Z"}
