{"icao":"LPPR","metar":"LPPR 051200Z 29006KT 260V340 CAVOK 20/12 Q1022","updated":"2025-10-05T12:31:57Z"}
