{"icao":"LPFR","metar":"LPFR 051500Z 25015KT 9999 VCSH FEW015 SCT030 21/16 Q1012","updated":"2025-11-05T15:18:48Z"}
