{"icao":"KJFK","metar":"KJFK 011751Z 22013KT 10SM FEW060 FEW250 15/02 A2989 RMK SLP120 T01500017 10156 20106 58014 ","updated":"2026-05-01T18:03:18Z"}
