{"icao":"LPPD","metar":"LPPD 110500Z 02010KT 340V040 9999 FEW014 BKN030 17/15 Q1026","updated":"2026-06-11T05:26:37Z"}
