{"icao":"LPPR","metar":"LPPR 201400Z 18013KT 9000 -RA SCT007 BKN012 OVC017 11/10 Q1016 RERA","updated":"2026-01-20T14:29:42Z"}
