{"icao":"LPBJ","metar":"LPBJ 012300Z 23004KT 8000 VCFG FEW006 10/08 Q1018","updated":"2026-03-01T23:22:03Z"}
