{"icao":"KJFK","metar":"KJFK 172351Z 19006KT 10SM SCT250 17/13 A3006 RMK AO2 SLP178 T01670133 10294 20167 53007 $","updated":"2026-05-18T00:04:15Z"}
