{"icao":"LPFR","metar":"LPFR 271030Z 29004KT CAVOK 18/12 Q1024","updated":"2026-02-27T10:36:01Z"}
