{"icao":"KORD","metar":"KORD 161051Z 33011G22KT 10SM CLR 04/M10 A2985 RMK AO2 SLP110 T00441100 $","updated":"2025-11-16T11:13:25Z"}
