{"icao":"KORD","metar":"KORD 141651Z 09006KT 10SM CLR 26/18 A3004 RMK AO2 SLP169 T02610178 $","updated":"2025-09-14T17:12:43Z"}
