{"icao":"LPHR","metar":"LPHR 242000Z 19006KT 150V230 9999 SCT025 20/15 Q1020","updated":"2025-09-24T23:16:10Z"}
