{"icao":"LPMT","metar":"LPMT 251600Z 31005KT 260V350 CAVOK 22/13 Q1017","updated":"2026-03-25T16:14:06Z"}
