{"icao":"KORD","metar":"KORD 122251Z 25015G25KT 10SM SCT065 26/12 A2990 RMK AO2 SLP121 T02610117 $","updated":"2026-06-12T23:15:26Z"}
