{"icao":"KORD","metar":"KORD 121651Z 31010G16KT 10SM FEW038 04/M06 A3017 RMK AO2 SLP223 T00441056 $","updated":"2026-03-12T17:02:53Z"}
