{"icao":"LPHR","metar":"LPHR 111500Z 31024G36KT 9000 VCSH SCT018 FEW020CB 17/08 Q1005 WS R28","updated":"2025-11-11T15:19:37Z"}
