{"icao":"KJFK","metar":"KJFK 032051Z 29008KT 10SM BKN047 BKN250 01/M09 A3015 RMK AO2 SLP207 T00061089 55007 PNO $","updated":"2026-02-03T21:33:03Z"}
