{"icao":"LPLA","metar":"LPLA 291100Z 20007KT 170V260 9999 FEW025 16/09 Q1006","updated":"2026-04-29T11:27:28Z"}
