{"icao":"LPCS","metar":"LPCS 052130Z 03009KT CAVOK 18/09 Q1019","updated":"2026-04-05T23:32:18Z"}
