{"icao":"KJFK","metar":"KJFK 142051Z 31017G26KT 10SM BKN040 M03/M09 A2997 RMK AO2 PK WND 31027/2039 SLP149 DRSN 60000 T10281094 53015 $","updated":"2025-12-14T21:17:04Z"}
