{"icao":"LPPT","metar":"LPPT 281230Z 36016KT 9999 FEW032 15/05 Q1025","updated":"2026-02-28T12:42:28Z"}
