{"icao":"LPFL","metar":"LPFL 101600Z VRB05KT 9999 FEW023 22/14 Q1020","updated":"2025-10-10T16:21:36Z"}
