{"icao":"LPPT","metar":"LPPT 302300Z 32006KT CAVOK 21/12 Q1019","updated":"2025-09-30T23:15:47Z"}
