{"icao":"LPPR","metar":"LPPR 052200Z 00000KT CAVOK 14/07 Q1019","updated":"2026-04-05T22:29:16Z"}
