{"icao":"KORD","metar":"KORD 091951Z 20008KT 10SM FEW200 OVC250 02/M08 A3003 RMK AO2 SLP178 T00221083","updated":"2026-02-09T20:03:28Z"}
