{"icao":"LPPT","metar":"LPPT 180800Z 03005KT CAVOK 16/13 Q1017","updated":"2025-10-18T08:20:58Z"}
