{"icao":"LPHR","metar":"LPHR 181900Z 07006KT 030V100 9999 FEW010 BKN020 17/15 Q1025","updated":"2025-11-18T19:15:40Z"}
