{"icao":"LPMA","metar":"LPMA 160600Z 29002KT 9999 SCT015 20/18 Q1015","updated":"2025-10-16T06:27:17Z"}
