{"icao":"LPOV","metar":"LPOV 021500Z 23008KT 210V270 9999 FEW015 FEW020CB SCT024 11/09 Q0995 RETS RESHRA","updated":"2026-02-02T15:36:36Z"}
