{"icao":"LPFR","metar":"LPFR 280500Z 07005KT 9999 FEW008 SCT015 20/19 Q1016","updated":"2025-10-28T05:18:22Z"}
