{"icao":"LPMA","metar":"LPMA 182200Z 34004KT 290V020 9999 SCT015 FEW016TCU 18/14 Q1022","updated":"2025-11-18T22:18:34Z"}
