{"icao":"LPAZ","metar":"LPAZ 070400Z 28020KT 8000 FEW008 SCT049 15/14 Q1013","updated":"2026-02-07T04:07:28Z"}
