{"icao":"KORD","metar":"KORD 292051Z 07008KT 10SM FEW070 30/14 A3016 RMK AO2 SLP209 T03000139 56015","updated":"2025-09-29T21:14:58Z"}
