{"icao":"KJFK","metar":"KJFK 310851Z 26015KT 10SM FEW023 11/08 A2929 RMK AO2 SLP919 T01110083 56008","updated":"2025-10-31T09:19:56Z"}
