{"icao":"LPLA","metar":"LPLA 090700Z 32003KT 7000 -RA FEW004 SCT006 BKN015 15/14 Q1035","updated":"2026-04-09T07:20:26Z"}
