{"icao":"LPPS","metar":"LPPS 242030Z 04004KT 9999 FEW015 16/12 Q1020","updated":"2026-04-24T20:45:59Z"}
