{"icao":"LPAZ","metar":"LPAZ 081830Z 23013KT 0300 R18/0150N FG VV001 17/17 Q1016","updated":"2026-02-08T18:35:44Z"}
