{"icao":"LPMT","metar":"LPMT 082200Z 04005KT CAVOK 12/09 Q1019","updated":"2026-04-08T22:37:17Z"}
