{"icao":"LPHR","metar":"LPHR 262000Z 18012KT 9000 -RADZ SCT006 SCT010 BKN020 19/18 Q1020","updated":"2025-11-26T20:20:30Z"}
