{"icao":"LPPR","metar":"LPPR 052300Z 09006KT CAVOK 19/11 Q1020","updated":"2025-10-05T23:13:36Z"}
