{"icao":"LPPD","metar":"LPPD 050630Z 21005KT 9999 FEW020 14/09 Q1020","updated":"2026-04-05T07:04:11Z"}
