{"icao":"LPMT","metar":"LPMT 161600Z 36006KT CAVOK 23/12 Q1017","updated":"2026-03-16T16:11:03Z"}
