{"icao":"LPLA","metar":"LPLA 211300Z 29026G36KT 9000 -SHRA SCT020 SCT035 14/12 Q1004","updated":"2026-04-21T13:24:07Z"}
