{"icao":"LPBJ","metar":"LPBJ 281000Z 16010KT 120V190 CAVOK 22/14 Q1010","updated":"2026-04-28T11:04:08Z"}
