{"icao":"KLAX","metar":"KLAX 141353Z VRB04KT 9SM FEW018 12/09 A3010 RMK AO2 SLP192 T01220089","updated":"2026-02-14T14:26:16Z"}
