{"icao":"KORD","metar":"KORD 031651Z 28004KT 10SM OVC085 M06/M15 A3009 RMK AO2 SLP199 T10561150 $","updated":"2026-01-03T17:16:50Z"}
