{"icao":"LPMA","metar":"LPMA 120400Z 34014G27KT 290V020 9999 SCT015 17/09 Q1020","updated":"2025-12-12T04:32:42Z"}
