{"icao":"LPPR","metar":"LPPR 300230Z 21004KT 180V250 9999 BKN005 17/16 Q1021","updated":"2026-05-30T02:55:12Z"}
