{"icao":"KJFK","metar":"KJFK 042151Z 30013G24KT 10SM FEW070 FEW250 14/M06 A3008 RMK AO2 PK WND 32029/2052 SLP187 T01441056 $","updated":"2025-11-04T22:16:35Z"}
