{"icao":"LPLA","metar":"LPLA 292100Z 22026G42KT 7000 -RA FEW022 20/15 Q1008","updated":"2025-10-29T21:16:50Z"}
