{"icao":"KLAX","metar":"KLAX 130853Z VRB03KT 10SM FEW200 BKN250 14/07 A2999 RMK AO2 SLP155 T01440072 58016","updated":"2026-02-13T09:42:26Z"}
