{"icao":"KLAX","metar":"KLAX 280753Z VRB03KT 10SM CLR 13/04 A3011 RMK AO2 SLP195 T01280044 401610089 $","updated":"2025-12-28T08:25:51Z"}
