{"icao":"LPHR","metar":"LPHR 260930Z 08006KT 050V110 9999 SCT013 BKN025 17/13 Q1020","updated":"2026-04-26T10:01:09Z"}
