{"icao":"LPPI","metar":"LPPI 251800Z 01007KT 320V050 9999 FEW015 BKN045 20/13 Q1025","updated":"2026-06-25T18:07:58Z"}
