{"icao":"LPPD","metar":"LPPD 261830Z 29012KT 270V330 9999 FEW018 17/15 Q1030","updated":"2026-02-26T18:55:47Z"}
