{"icao":"LPCS","metar":"LPCS 282130Z 34021KT 9999 FEW010 17/16 Q1016","updated":"2025-09-29T01:20:10Z"}
