{"icao":"LPPS","metar":"LPPS 290400Z 02013KT 9999 FEW015 BKN030 21/14 Q1023","updated":"2025-09-29T04:22:15Z"}
