{"icao":"LPMT","metar":"LPMT 241300Z 24013KT 9999 SCT015 BKN024 18/15 Q1018","updated":"2025-11-24T13:32:24Z"}
