{"icao":"KJFK","metar":"KJFK 150251Z 18016KT 10SM BKN060 OVC080 06/03 A2949 RMK AO2 RAE45 SLP985 P0000 60000 T00610033 58009 $","updated":"2026-01-15T03:40:02Z"}
