{"icao":"LPMA","metar":"LPMA 111530Z 04008KT 350V080 9999 SCT015 20/13 Q1024","updated":"2026-02-11T15:59:55Z"}
