{"icao":"LPAZ","metar":"LPAZ 011730Z 32007KT 9999 FEW024 18/12 Q1016","updated":"2026-05-01T18:03:16Z"}
