{"icao":"KJFK","metar":"KJFK 180251Z 25005KT 7SM FEW010 SCT140 BKN170 BKN250 00/M01 A3014 RMK AO2 SLP204 T00001011 53005 $","updated":"2026-01-18T03:44:56Z"}
