{"icao":"LPMR","metar":"LPMR 060700Z 12004KT CAVOK 01/M01 Q1022","updated":"2026-01-06T07:24:32Z"}
