{"icao":"LPCS","metar":"LPCS 151500Z 25006KT 210V290 CAVOK 26/08 Q1016","updated":"2025-10-15T15:17:34Z"}
