{"icao":"LPMA","metar":"LPMA 132200Z 32005KT 9999 FEW016 20/16 Q1017","updated":"2025-10-13T22:16:37Z"}
