{"icao":"KLAX","metar":"KLAX 180153Z 20017G23KT 10SM FEW028 BKN044 BKN060 14/08 A3001 RMK AO2 SLP162 T01440078","updated":"2026-02-18T02:05:21Z"}
