{"icao":"KORD","metar":"KORD 300751Z 35004KT 8SM CLR 18/17 A3017 RMK AO2 SLP211 T01830167","updated":"2025-09-30T08:25:25Z"}
