{"icao":"LPMR","metar":"LPMR 100400Z 16003KT 2000 BR FEW020 06/06 Q1029","updated":"2026-01-10T04:32:37Z"}
