{"icao":"LPOV","metar":"LPOV 050900Z 22018KT 2000 TSRA BR SCT016 SCT018CB BKN021 14/13 Q0988","updated":"2026-02-05T09:42:27Z"}
