{"icao":"LPFL","metar":"LPFL 210900Z 21017G29KT 180V260 9999 FEW012 SCT016 23/19 Q1008","updated":"2025-10-21T09:19:56Z"}
