{"icao":"LPBJ","metar":"LPBJ 091500Z 27005KT 230V360 CAVOK 25/13 Q1019","updated":"2025-10-09T15:29:15Z"}
