{"icao":"LPFR","metar":"LPFR 120800Z 17014KT 9999 SCT015 20/17 Q1008","updated":"2025-11-12T08:26:18Z"}
