{"icao":"KJFK","metar":"KJFK 080351Z 29011G19KT 10SM SCT043 BKN120 04/M03 A3005 RMK AO2 SLP174 T00391033 $","updated":"2025-12-08T04:32:45Z"}
