{"icao":"LPFR","metar":"LPFR 130400Z 10006KT CAVOK 13/10 Q1021","updated":"2026-03-13T04:18:48Z"}
