{"icao":"LPPR","metar":"LPPR 020730Z 17012KT 9999 BKN022 12/09 Q1010","updated":"2026-03-02T07:49:30Z"}
