{"icao":"KORD","metar":"KORD 290451Z 33008KT 10SM CLR M13/M19 A3024 RMK AO2 SLP256 T11281189","updated":"2026-01-29T05:42:00Z"}
