{"icao":"KORD","metar":"KORD 110451Z 36009KT 10SM FEW040 14/12 A3011 RMK AO2 SLP197 T01440117","updated":"2025-10-11T05:16:03Z"}
