{"icao":"KORD","metar":"KORD 100351Z 20015G29KT 7SM -RA FEW012 BKN040 OVC050 03/01 A2936 RMK AO2 PK WND 19029/0344 SLP949 P0003 T00280006","updated":"2025-12-10T04:32:26Z"}
