{"icao":"LPLA","metar":"LPLA 071400Z 17008KT 9000 -RA FEW008 SCT015 15/12 Q1013","updated":"2026-02-07T14:24:32Z"}
