{"icao":"LPLA","metar":"LPLA 032100Z 26005KT 220V290 9999 FEW016 SCT020 BKN030 18/15 Q1027","updated":"2025-12-03T21:17:33Z"}
