{"icao":"LPAZ","metar":"LPAZ 040730Z 23020KT 9999 FEW012 17/15 Q1001","updated":"2026-02-04T07:42:50Z"}
