{"icao":"LPBJ","metar":"LPBJ 112100Z 14007KT CAVOK 13/08 Q1010","updated":"2025-11-11T21:16:20Z"}
