{"icao":"KORD","metar":"KORD 062251Z 18009G16KT 10SM SCT021 OVC027 00/M06 A2993 RMK AO2 SLP144 T00001056","updated":"2025-12-06T23:16:52Z"}
