{"icao":"LPPR","metar":"LPPR 041700Z 31008KT CAVOK 19/08 Q1021","updated":"2026-04-04T17:28:10Z"}
