{"icao":"LPAZ","metar":"LPAZ 240400Z 27015KT 9999 FEW025 14/07 Q1026","updated":"2026-01-24T04:34:06Z"}
