{"icao":"LPPT","metar":"LPPT 211800Z 33004KT 9999 FEW016 FEW020CB 08/05 Q1009","updated":"2025-12-21T18:26:35Z"}
