{"icao":"LPLA","metar":"LPLA 081500Z 26012KT 220V300 7000 -RADZ SCT010 SCT017 20/16 Q1029","updated":"2026-01-08T15:24:51Z"}
