{"icao":"LPMA","metar":"LPMA 080500Z VRB05G15KT 9999 BKN014 13/07 Q1022","updated":"2026-04-08T05:09:56Z"}
