{"icao":"LPLA","metar":"LPLA 190500Z 34009KT 9999 FEW025 BKN035 18/15 Q1018","updated":"2025-09-19T05:16:14Z"}
