{"icao":"LPBJ","metar":"LPBJ 270900Z 07014KT CAVOK 13/03 Q1016","updated":"2026-03-27T09:53:21Z"}
