{"icao":"LPOV","metar":"LPOV 071900Z 32028G46KT 7000 -RA BKN018 OVC028 11/09 Q0995","updated":"2026-02-07T19:22:46Z"}
