{"icao":"LPBJ","metar":"LPBJ 261100Z 31004KT 250V050 CAVOK 26/03 Q1020","updated":"2025-09-26T11:14:09Z"}
