{"icao":"LPPD","metar":"LPPD 270230Z 35007KT 270V020 9999 FEW016 18/16 Q1021","updated":"2025-09-27T02:52:41Z"}
