{"icao":"LPMA","metar":"LPMA 281400Z 22017G28KT 8000 VCSH BKN015 FEW016TCU 23/18 Q1010","updated":"2025-10-28T14:18:46Z"}
