{"icao":"KLAX","metar":"KLAX 271253Z 28008KT 10SM FEW012 FEW020 BKN070 15/08 A2997 RMK AO2 SLP148 T01500083 $","updated":"2026-04-27T13:50:38Z"}
