{"icao":"LPPR","metar":"LPPR 040700Z 10003KT 050V120 9999 FEW014 BKN026 17/15 Q1024","updated":"2025-10-04T07:14:32Z"}
