{"icao":"KJFK","metar":"KJFK 081351Z 06010KT 10SM FEW050 FEW250 22/08 A3027 RMK AO2 SLP250 T02170083 $","updated":"2026-06-08T14:47:03Z"}
