{"icao":"KJFK","metar":"KJFK 200551Z 29014G27KT 10SM BKN050 M01/M11 A2993 RMK AO2 PK WND 30038/0505 SLP136 T10061106 10033 21006 51048 $","updated":"2025-12-20T06:29:14Z"}
