{"icao":"KLAX","metar":"KLAX 051053Z 00000KT 10SM OVC018 16/13 A3014 RMK AO2 SLP206 T01610133 $","updated":"2025-11-05T11:16:19Z"}
