{"icao":"LPAR","metar":"LPAR 031100Z 05005KT 010V080 CAVOK 14/12 Q1023","updated":"2025-11-03T11:15:31Z"}
