{"icao":"LPFL","metar":"LPFL 151900Z 19013KT 160V240 9999 SCT019 16/11 Q1018","updated":"2026-04-15T19:15:55Z"}
