{"icao":"LPFL","metar":"LPFL 101400Z 24014G31KT 150V310 9999 -SHRA FEW012 SCT015 20/17 Q1009","updated":"2025-11-10T14:18:47Z"}
