{"icao":"LPMR","metar":"LPMR 092200Z 31004KT 6000 NSC 14/13 Q1014","updated":"2026-04-09T22:39:13Z"}
