{"icao":"LPFR","metar":"LPFR 101730Z 25013KT 1500 -DZ BR SCT002 BKN005 15/15 Q1020","updated":"2026-02-10T18:00:15Z"}
