{"icao":"LPPT","metar":"LPPT 221500Z 21016KT 1800 -RADZ BR FEW004 BKN006 12/12 Q1005","updated":"2026-01-22T15:29:38Z"}
