{"icao":"LPBJ","metar":"LPBJ 290800Z 29006KT 0200 FG FEW003 14/14 Q1016","updated":"2025-09-29T08:25:52Z"}
