{"icao":"LPMT","metar":"LPMT 180100Z VRB02KT CAVOK 16/13 Q1015","updated":"2025-10-18T01:16:02Z"}
