{"icao":"LPPD","metar":"LPPD 102230Z 34010KT 310V010 9999 FEW015 SCT035 15/12 Q1030","updated":"2026-04-10T22:35:44Z"}
