{"icao":"LPPD","metar":"LPPD 251900Z VRB04KT 9999 FEW007 SCT015 18/16 Q1027","updated":"2025-11-25T19:16:36Z"}
