{"icao":"KJFK","metar":"KJFK 070135Z 04006KT 1/2SM R04R/P6000FT -RA BR OVC006 04/03 A2979 RMK AO2 SFC VIS 2 1/2 RAB34 P0000 T00390033 $","updated":"2026-01-07T01:40:39Z"}
