{"icao":"KJFK","metar":"KJFK 170551Z 25017G26KT 10SM -RA BKN047 OVC060 08/05 A2943 RMK AO2 PK WND 27043/0501 WSHFT 0438 SLP964 P0002 60004 T00780050 10106 20078 53024","updated":"2026-03-17T05:58:06Z"}
