{"icao":"LPMA","metar":"LPMA 201700Z VRB02KT 9999 FEW016 17/09 Q1023","updated":"2025-12-20T17:15:21Z"}
