{"icao":"LPMA","metar":"LPMA 171130Z 04004KT 360V090 9999 FEW014 18/12 Q1027","updated":"2026-02-17T11:38:06Z"}
