{"icao":"LPLA","metar":"LPLA 011800Z 32034KT 9999 VCSH BKN025 FEW027TCU SCT035 14/08 Q1004","updated":"2026-01-01T18:29:01Z"}
