{"icao":"LPCS","metar":"LPCS 271000Z VRB02KT CAVOK 15/05 Q1025","updated":"2025-11-27T10:21:22Z"}
