{"icao":"KJFK","metar":"KJFK 132151Z 23010KT 10SM FEW250 01/M06 A3013 RMK AO2 SLP202 T00061061 $","updated":"2026-02-13T22:31:51Z"}
