{"icao":"LPPS","metar":"LPPS 290100Z 30013KT 9999 SCT010 FEW018TCU 21/19 Q1011","updated":"2025-10-29T01:25:44Z"}
