{"icao":"KJFK","metar":"KJFK 091951Z 19016G24KT 10SM FEW017 SCT046 BKN065 BKN130 OVC250 13/12 A2987 RMK AO2 RAE07 SLP114 P0002 T01330117 $","updated":"2026-05-09T19:59:21Z"}
