{"icao":"LPPR","metar":"LPPR 181930Z 09004KT 050V130 9999 FEW030 18/09 Q1004","updated":"2026-03-18T19:48:03Z"}
