{"icao":"LPPT","metar":"LPPT 111000Z 34016G26KT 310V010 9999 FEW014 BKN016 15/12 Q1015 WS R02","updated":"2026-04-11T10:32:37Z"}
