{"icao":"LPLA","metar":"LPLA 172300Z 23015KT 9999 FEW008 BKN014 23/21 Q1011","updated":"2025-10-17T23:15:21Z"}
