{"icao":"LPPR","metar":"LPPR 112030Z 19006KT 9999 FEW015 FEW020TCU SCT036 16/13 Q1014","updated":"2026-05-11T20:46:57Z"}
