{"icao":"LPPD","metar":"LPPD 220900Z 26023KT 8000 FEW004 BKN007 16/15 Q1015","updated":"2026-01-22T09:31:14Z"}
