{"icao":"LPFL","metar":"LPFL 111230Z 15006KT 110V180 9999 FEW033 16/07 Q1034","updated":"2026-04-11T12:55:33Z"}
