{"icao":"LPPS","metar":"LPPS 132100Z 03019G30KT 010V080 9999 SCT014 FEW016TCU 17/14 Q1018","updated":"2025-12-13T21:16:31Z"}
