{"icao":"LPBJ","metar":"LPBJ 232200Z 27006KT CAVOK 14/11 Q1015","updated":"2026-04-23T22:41:55Z"}
