{"icao":"LPAZ","metar":"LPAZ 201900Z 34019KT 9999 SCT037 14/03 Q1015","updated":"2026-04-20T19:08:16Z"}
