{"icao":"LPST","metar":"LPST 151300Z 34008KT 310V010 9999 BKN024 16/11 Q1024","updated":"2026-04-15T13:52:54Z"}
