{"icao":"LPPS","metar":"LPPS 090930Z 03010KT 360V060 9999 SCT015 BKN030 15/08 Q1029","updated":"2026-03-09T09:50:34Z"}
