{"icao":"KLAX","metar":"KLAX 222053Z 28007KT 10SM SCT018 BKN150 BKN210 17/12 A2996 RMK AO2 SLP146 T01670122 58018 $","updated":"2026-01-22T21:21:28Z"}
