{"icao":"LPOV","metar":"LPOV 101300Z 27005KT 220V330 CAVOK 23/11 Q1021","updated":"2025-10-10T13:26:37Z"}
