{"icao":"KORD","metar":"KORD 131051Z 20003KT 10SM BKN180 BKN250 13/08 A3002 RMK AO2 SLP166 T01330083 $","updated":"2025-10-13T11:15:43Z"}
