{"icao":"KLAX","metar":"KLAX 240653Z 11004KT 10SM FEW250 15/11 A3009 RMK AO2 SLP187 T01500106","updated":"2026-02-24T07:07:33Z"}
