{"icao":"LPPT","metar":"LPPT 201230Z VRB07G18KT CAVOK 15/07 Q1030","updated":"2026-02-20T12:55:59Z"}
