{"icao":"LPLA","metar":"LPLA 030300Z 32009KT 9999 FEW008 BKN017 21/18 Q1029","updated":"2026-06-03T03:57:43Z"}
