{"icao":"LPMT","metar":"LPMT 211100Z 01011KT CAVOK 15/05 Q1028","updated":"2025-11-21T11:15:47Z"}
