{"icao":"KORD","metar":"KORD 071851Z 36007KT 10SM SCT024 BKN030 BKN043 17/12 A3010 RMK AO2 RAE1752 SLP191 P0000 T01670122","updated":"2025-10-07T19:13:46Z"}
