{"icao":"LPFL","metar":"LPFL 131000Z 03003KT 310V070 9999 FEW020 20/15 Q1020","updated":"2026-06-13T10:26:59Z"}
