{"icao":"KLAX","metar":"KLAX 291353Z 03005KT 10SM CLR 22/00 A2999 RMK AO2 SLP153 T02170000 $","updated":"2025-10-29T14:19:04Z"}
