{"icao":"KORD","metar":"KORD 191251Z 27015G27KT 10SM FEW026 M12/M18 A2975 RMK AO2 PK WND 29029/1212 SLP083 T11221183","updated":"2025-12-19T13:32:11Z"}
