{"icao":"LPAZ","metar":"LPAZ 201800Z 05013KT 020V090 9999 FEW034 22/12 Q1027","updated":"2025-09-20T18:21:39Z"}
