{"icao":"LPFR","metar":"LPFR 091230Z 21008KT CAVOK 24/17 Q1015","updated":"2026-06-09T12:35:23Z"}
