{"icao":"LPMT","metar":"LPMT 291900Z 27009KT 9999 FEW015 14/13 Q1013","updated":"2026-01-29T19:29:21Z"}
