{"icao":"LPPD","metar":"LPPD 110630Z 24016KT 6000 FEW006 SCT012 16/15 Q1013","updated":"2026-02-11T06:59:25Z"}
