{"icao":"LPCS","metar":"LPCS 021100Z 31009KT 270V350 9999 FEW025 15/09 Q1020","updated":"2025-12-02T11:18:08Z"}
