{"icao":"LPBJ","metar":"LPBJ 270200Z 28005KT 9999 FEW030 17/16 Q1019","updated":"2026-06-27T02:56:18Z"}
