{"icao":"LPBJ","metar":"LPBJ 210500Z 35008KT CAVOK 07/02 Q1024","updated":"2025-11-21T05:18:38Z"}
