{"icao":"LPPT","metar":"LPPT 010900Z 36007KT 9999 FEW004 SCT025 BKN044 16/16 Q1017","updated":"2025-11-01T09:16:49Z"}
