{"icao":"LPMT","metar":"LPMT 041400Z 28007KT 260V330 9999 SCT030 17/10 Q1022","updated":"2025-12-04T14:20:09Z"}
