{"icao":"LPPD","metar":"LPPD 020730Z 29024KT 8000 SHRA SCT022 13/08 Q1013","updated":"2026-02-02T07:48:40Z"}
