{"icao":"LPPS","metar":"LPPS 151400Z 06011KT 030V090 9999 SCT015 SCT030 25/17 Q1023","updated":"2025-09-15T14:18:17Z"}
