{"icao":"LPFR","metar":"LPFR 050900Z 21004KT CAVOK 23/17 Q1019","updated":"2025-10-05T09:15:08Z"}
