{"icao":"KORD","metar":"KORD 150651Z 16005KT 10SM BKN170 OVC250 13/01 A2997 RMK AO2 SLP148 T01280006","updated":"2026-05-15T06:54:07Z"}
