{"icao":"LPOV","metar":"LPOV 071000Z 34013KT CAVOK 18/14 Q1021","updated":"2026-06-07T10:27:36Z"}
