{"icao":"LPFL","metar":"LPFL 160800Z 17010KT 140V200 8000 -DZ SCT006 BKN010 18/17 Q1018","updated":"2025-11-16T08:22:03Z"}
