{"icao":"LPPT","metar":"LPPT 150630Z 26003KT 9999 FEW018 BKN026 10/09 Q1030","updated":"2026-02-15T06:50:46Z"}
