{"icao":"LPOV","metar":"LPOV 061000Z 16006KT CAVOK 25/10 Q1015","updated":"2026-04-06T10:54:56Z"}
