{"icao":"LPMA","metar":"LPMA 042200Z 36016G26KT 330V030 9999 -DZ BKN013 19/17 Q1023","updated":"2026-06-04T22:19:48Z"}
