{"icao":"LPLA","metar":"LPLA 211400Z 23017G27KT 9999 FEW022 26/20 Q1012","updated":"2025-10-21T14:17:18Z"}
