{"icao":"LPBJ","metar":"LPBJ 161100Z 21007KT 9999 FEW005 SCT022 10/09 Q1016","updated":"2026-01-16T11:18:42Z"}
