{"icao":"KORD","metar":"KORD 181451Z 23009G18KT 10SM FEW018 FEW250 M14/M19 A3004 RMK AO2 SLP185 T11391194 58002 $","updated":"2026-01-18T15:18:03Z"}
