{"icao":"LPST","metar":"LPST 131500Z 17016KT 6000 -SHRA BKN005 BKN015 FEW025CB 18/16 Q0996","updated":"2025-11-13T15:21:14Z"}
