{"icao":"LPMR","metar":"LPMR 151100Z VRB01KT CAVOK 25/13 Q1017","updated":"2025-10-15T11:15:07Z"}
