{"icao":"LPMR","metar":"LPMR 302200Z 11001KT CAVOK 07/05 Q1022","updated":"2025-11-30T22:17:15Z"}
