{"icao":"LPLA","metar":"LPLA 050900Z 29013G23KT 9999 FEW020 SCT025CB 10/07 Q1001","updated":"2026-02-05T09:42:30Z"}
