{"icao":"LPHR","metar":"LPHR 011300Z 07011KT 040V110 9999 FEW024 BKN030 17/10 Q1032","updated":"2026-04-01T13:19:22Z"}
