{"icao":"LPCS","metar":"LPCS 101030Z 25013KT 0250 R17/0700N -DZ FG VV002 15/15 Q1017","updated":"2026-02-10T11:04:10Z"}
