{"icao":"KORD","metar":"KORD 210951Z 20008KT 10SM SCT055 OVC070 M03/M09 A2994 RMK AO2 SLP149 T10281089 $","updated":"2026-01-21T10:28:01Z"}
