{"icao":"LPST","metar":"LPST 051700Z 26017KT 9999 SCT018 BKN025 15/11 Q0998","updated":"2026-02-05T21:27:23Z"}
