{"icao":"LPPD","metar":"LPPD 101300Z 23012KT 0300 R30/1400D FG VV001 17/16 Q1014","updated":"2026-02-10T13:11:04Z"}
