{"icao":"LPPD","metar":"LPPD 022130Z 05008KT 010V080 9999 SCT025 BKN030 14/09 Q1029","updated":"2026-04-02T21:36:17Z"}
