{"icao":"KLAX","metar":"KLAX 120453Z 24005KT 10SM CLR 15/13 A3020 RMK AO2 SLP226 T01500133 $","updated":"2026-03-12T05:50:28Z"}
