{"icao":"KORD","metar":"KORD 151951Z VRB03KT 10SM CLR 15/01 A2987 RMK AO2 SLP117 T01500006","updated":"2026-02-15T20:25:08Z"}
