{"icao":"LPPR","metar":"LPPR 121830Z 32005KT 280V360 9999 FEW015 13/09 Q1026","updated":"2026-03-12T18:52:23Z"}
