{"icao":"LPMR","metar":"LPMR 302100Z 32007KT 9000 NSC 18/17 Q1022","updated":"2026-06-30T21:26:53Z"}
