{"icao":"KLAX","metar":"KLAX 221253Z 12004KT 9SM FEW009 OVC016 17/12 A2984 RMK AO2 SLP102 T01670122 $","updated":"2026-05-22T13:30:24Z"}
