{"icao":"LPPR","metar":"LPPR 260900Z 17006KT CAVOK 18/07 Q1019","updated":"2025-09-26T09:19:27Z"}
