{"icao":"LPPD","metar":"LPPD 302200Z 29008KT 9999 FEW016 FEW020TCU SCT030 19/14 Q1008","updated":"2025-10-30T22:17:33Z"}
