{"icao":"LPMT","metar":"LPMT 302200Z 01009KT CAVOK 13/06 Q1021","updated":"2025-11-30T22:17:15Z"}
