{"icao":"LPPR","metar":"LPPR 170400Z 11005KT 080V140 1400 0800S R17/P2000 PRFG VV001 04/04 Q1013","updated":"2026-01-17T04:31:08Z"}
