{"icao":"LPMA","metar":"LPMA 161700Z 03013KT 360V060 9999 SCT016 18/11 Q1019","updated":"2026-04-16T17:12:54Z"}
