{"icao":"KJFK","metar":"KJFK 050251Z 33018G27KT 10SM FEW250 M03/M16 A3026 RMK AO2 PK WND 33037/0232 PRESRR SLP247 T10331161 51034 $","updated":"2025-12-05T03:17:50Z"}
