{"icao":"LPAR","metar":"LPAR 281200Z 28012KT 230V330 9999 SCT018 15/09 Q1004","updated":"2026-01-28T12:48:09Z"}
