{"icao":"KJFK","metar":"KJFK 070451Z 03007KT 1/2SM R04R/P6000FT -DZ BR OVC003 04/03 A2970 RMK AO2 SFC VIS 2 SLP056 P0000 T00390033 400561006 $","updated":"2026-01-07T05:24:24Z"}
