{"icao":"KJFK","metar":"KJFK 022251Z 07009KT 9SM OVC012 06/04 A3046 RMK AO2 SLP315 T00610039","updated":"2026-04-02T23:34:17Z"}
