{"icao":"LPFL","metar":"LPFL 291500Z 21020G35KT 170V270 2000 +RA BKN014 SCT015CB 20/17 Q1009","updated":"2025-10-29T15:20:23Z"}
