{"icao":"KJFK","metar":"KJFK 161951Z 35020G30KT 10SM CLR 16/M06 A2987 RMK AO2 PK WND 34030/1949 SLP115 T01611056","updated":"2025-10-16T20:19:27Z"}
