{"icao":"LPPS","metar":"LPPS 301000Z 01011KT 9999 SCT015 SCT030 22/13 Q1022","updated":"2025-09-30T10:18:28Z"}
