{"icao":"KLAX","metar":"KLAX 031253Z 00000KT 8SM BCFG FEW000 FEW004 SCT008 13/11 A3018 RMK AO2 SLP218 VIS S 2 FG FEW000 T01280111 $","updated":"2026-02-03T12:57:31Z"}
