{"icao":"LPPD","metar":"LPPD 141600Z 25014KT 0900 R30/2000D DZ FG VV001 17/17 Q1020","updated":"2025-12-14T16:22:14Z"}
