{"icao":"LPPT","metar":"LPPT 161530Z 28008KT 250V310 9999 BKN022 15/11 Q1031","updated":"2026-02-16T15:39:06Z"}
