{"icao":"LPFL","metar":"LPFL 161100Z 20017G27KT 170V240 7000 -SHRA SCT014 BKN030 18/14 Q1021","updated":"2025-12-16T11:18:26Z"}
