{"icao":"LPCS","metar":"LPCS 120800Z 08003KT 020V140 CAVOK 25/15 Q1019","updated":"2026-06-12T08:23:39Z"}
