{"icao":"LPMA","metar":"LPMA 132100Z 02020KT 9999 SCT015 23/18 Q1022","updated":"2025-09-13T21:13:41Z"}
