{"icao":"LPPD","metar":"LPPD 291230Z 24012KT 8000 FEW009 16/15 Q1015","updated":"2026-01-29T12:55:10Z"}
