{"icao":"KORD","metar":"KORD 280951Z 30008KT 10SM CLR M06/M09 A3029 RMK AO2 SLP265 T10561094","updated":"2025-11-28T10:20:48Z"}
