{"icao":"LPPR","metar":"LPPR 170200Z VRB02KT 8000 FEW007 10/10 Q1020","updated":"2026-04-17T02:29:31Z"}
