{"icao":"KJFK","metar":"KJFK 130451Z 23007KT 10SM FEW250 01/M05 A3014 RMK AO2 SLP205 T00061050 400500000 $","updated":"2026-01-13T05:24:45Z"}
