{"icao":"LPPD","metar":"LPPD 102030Z 36016KT 9999 VCSH FEW009 SCT035 15/13 Q1028","updated":"2026-04-10T20:34:48Z"}
