{"icao":"KLAX","metar":"KLAX 080553Z 27007KT 10SM BKN015 18/14 A2991 RMK AO2 SLP125 T01780144 10200 20178 51009 $","updated":"2025-10-08T06:27:42Z"}
