{"icao":"LPLA","metar":"LPLA 072000Z 19003KT 9999 FEW015 21/19 Q1024","updated":"2025-10-07T20:19:19Z"}
