{"icao":"LPBJ","metar":"LPBJ 221400Z 12005KT 090V150 CAVOK 21/05 Q1027","updated":"2026-02-22T14:24:36Z"}
