{"icao":"KJFK","metar":"KJFK 312151Z 20010KT 10SM FEW060 SCT120 BKN230 14/09 A2992 RMK AO2 SLP130 T01390089","updated":"2026-03-31T22:33:23Z"}
