{"icao":"LPBJ","metar":"LPBJ 051114Z 30006KT 6000 OVC007 11/10 Q1017","updated":"2026-03-05T11:32:29Z"}
