{"icao":"LPMT","metar":"LPMT 130800Z 28021G32KT 250V310 9999 -SHRA FEW022CB SCT025 13/09 Q1005","updated":"2026-02-13T08:40:31Z"}
