{"icao":"LPFL","metar":"LPFL 062000Z 18012KT 150V210 9999 FEW019 BKN040 17/13 Q1030","updated":"2026-01-06T20:22:49Z"}
