{"icao":"KJFK","metar":"KJFK 210351Z 02004KT 10SM BKN007 02/02 A2969 RMK AO2 SLP055 T00220017 $","updated":"2026-02-21T04:06:20Z"}
