{"icao":"KORD","metar":"KORD 051951Z 28005KT 10SM FEW090 BKN160 OVC250 13/M06 A2979 RMK AO2 SLP086 T01331056","updated":"2026-05-05T20:06:15Z"}
