{"icao":"LPFL","metar":"LPFL 271900Z 19008KT 130V260 9999 -SHRA FEW008 BKN010 FEW012TCU 16/15 Q1031","updated":"2026-02-27T19:32:06Z"}
