{"icao":"LPHR","metar":"LPHR 281700Z 24028G38KT 3500 -SHRA BR SCT006 BKN009 18/17 Q1003","updated":"2026-01-28T17:30:45Z"}
