{"icao":"LPLA","metar":"LPLA 210800Z 29019KT 9000 -RADZ SCT006 BKN014 17/16 Q1020","updated":"2026-01-21T08:30:33Z"}
