{"icao":"LPFR","metar":"LPFR 102030Z 26012KT CAVOK 16/15 Q1013","updated":"2026-04-10T20:34:45Z"}
