{"icao":"KJFK","metar":"KJFK 200651Z 07006KT 10SM SCT048 BKN060 02/M01 A2999 RMK AO2 SLP156 T00171006 $","updated":"2026-02-20T06:54:49Z"}
