{"icao":"LPHR","metar":"LPHR 241130Z 31026G44KT 9000 -SHRA SCT015 SCT030 15/10 Q1015","updated":"2026-02-24T11:39:21Z"}
