{"icao":"LPCS","metar":"LPCS 081000Z 11010KT 070V140 9999 SCT023 13/08 Q1016","updated":"2026-04-08T10:14:29Z"}
