{"icao":"LPOV","metar":"LPOV 071900Z 12006KT 090V150 9999 FEW018 SCT040 12/09 Q1013","updated":"2026-04-07T19:17:10Z"}
