{"icao":"KJFK","metar":"KJFK 242351Z 04009KT 10SM -RA BKN006 OVC019 14/13 A3021 RMK AO2 DZE31RAB47 SLP229 P0000 60017 T01390128 10144 20139 56014 $","updated":"2026-05-25T00:03:26Z"}
