{"icao":"KLAX","metar":"KLAX 020653Z 25008KT 10SM FEW012 BKN015 18/14 A2994 RMK AO2 SLP136 T01780144 $","updated":"2026-07-02T07:30:26Z"}
