{"icao":"LPLA","metar":"LPLA 131400Z 32011KT 9999 FEW022 BKN025 23/17 Q1021","updated":"2026-06-13T14:59:07Z"}
