{"icao":"KJFK","metar":"KJFK 021051Z 04005KT 10SM FEW035 BKN043 BKN220 02/M04 A3011 RMK AO2 SLP194 T00221044 $","updated":"2025-12-02T11:18:29Z"}
