{"icao":"LPAZ","metar":"LPAZ 112200Z 20006KT 8000 FEW004 SCT006 16/15 Q1021","updated":"2026-02-11T22:28:19Z"}
