{"icao":"LPAZ","metar":"LPAZ 232230Z 22004KT 0350 R18/M0050 FG VV001 18/18 Q1025","updated":"2026-05-23T22:51:39Z"}
