{"icao":"LPMT","metar":"LPMT 111300Z 21006KT 160V250 9000 FEW009 BKN015 BKN025 15/13 Q1026","updated":"2026-01-11T13:28:53Z"}
