{"icao":"LPPT","metar":"LPPT 062000Z 27004KT 240V300 CAVOK 21/16 Q1020","updated":"2025-10-06T20:19:00Z"}
