{"icao":"KORD","metar":"KORD 191838Z 30009KT 10SM -TSRA BKN033CB BKN046 BKN060 BKN250 05/01 A3013 RMK AO2 PK WND 31027/1808 RAB05 TSB35 OCNL LTGIC OHD TS OHD MOV SE P0001 T00500011 $","updated":"2026-04-19T18:49:58Z"}
