{"icao":"KLAX","metar":"KLAX 210053Z 26012KT 10SM CLR 20/15 A3000 RMK AO2 SLP157 T02000150","updated":"2025-10-21T01:22:05Z"}
