{"icao":"LPMR","metar":"LPMR 211400Z 27012KT 9999 SCT007 BKN028 15/12 Q1004","updated":"2026-01-21T14:29:32Z"}
