{"icao":"KJFK","metar":"KJFK 200451Z 33005KT 10SM FEW060 FEW085 05/M01 A3011 RMK SLP197 T00501011 401220050 ","updated":"2026-04-20T05:39:53Z"}
