{"icao":"LPLA","metar":"LPLA 290900Z 26004KT 180V320 9999 FEW025 14/08 Q1012","updated":"2026-01-29T09:41:02Z"}
