{"icao":"LPBJ","metar":"LPBJ 242100Z 01002KT 9999 FEW035 16/11 Q1021","updated":"2026-03-24T21:36:38Z"}
