{"icao":"LPMA","metar":"LPMA 060700Z VRB02KT 9999 SCT015 15/10 Q1014","updated":"2026-04-06T07:28:28Z"}
