{"icao":"KORD","metar":"KORD 272151Z 30008G19KT 10SM FEW035 M11/M19 A3020 RMK AO2 SLP240 T11061194","updated":"2026-01-27T22:21:56Z"}
