{"icao":"LPCS","metar":"LPCS 040700Z 11007KT 070V140 CAVOK 15/13 Q1016","updated":"2025-11-04T07:18:23Z"}
