{"icao":"LPLA","metar":"LPLA 231500Z 33015KT 9999 FEW025 SCT030 BKN040 21/14 Q1024","updated":"2025-09-23T15:18:07Z"}
