{"icao":"LPPR","metar":"LPPR 300130Z VRB02KT 6000 NSC 06/05 Q1021","updated":"2025-12-30T01:38:51Z"}
