{"icao":"LPMT","metar":"LPMT 112100Z 19006KT 150V210 9999 FEW007 BKN020 BKN035 13/13 Q1025","updated":"2026-01-11T21:17:35Z"}
