{"icao":"LPMA","metar":"LPMA 141600Z 35007KT 280V050 9999 FEW015 SCT030 17/09 Q1025","updated":"2026-01-14T16:28:56Z"}
