{"icao":"KJFK","metar":"KJFK 181951Z 17015KT 10SM FEW060 FEW250 24/17 A3015 RMK AO2 SLP209 T02440167","updated":"2026-05-18T20:23:38Z"}
