{"icao":"KJFK","metar":"KJFK 042051Z 10024G36KT 10SM BKN036 BKN150 OVC250 11/06 A3025 RMK AO2 PK WND 11037/2005 SLP243 VCSH W T01060056 53016","updated":"2026-04-04T21:30:15Z"}
