{"icao":"LPPD","metar":"LPPD 030300Z 32013KT 300V360 9999 SCT018 15/11 Q1006","updated":"2026-01-03T03:20:58Z"}
