{"icao":"LPMR","metar":"LPMR 130400Z 15013KT 9999 -RA FEW010 BKN022 12/10 Q1006","updated":"2026-01-13T04:39:00Z"}
