{"icao":"LPMA","metar":"LPMA 042130Z 06003KT 010V110 9999 VCSH BKN008 19/17 Q1017","updated":"2026-05-04T21:58:42Z"}
