{"icao":"LPPR","metar":"LPPR 021830Z 33005KT 290V360 9999 FEW008 SCT040 12/11 Q1009","updated":"2026-03-02T18:44:47Z"}
