{"icao":"KJFK","metar":"KJFK 072051Z 31020G33KT 10SM FEW075 SCT250 09/M12 A3025 RMK AO2 PK WND 34035/2015 SLP243 T00941122 53026","updated":"2026-04-07T21:40:31Z"}
