{"icao":"LPBJ","metar":"LPBJ 270700Z 10007KT CAVOK 02/01 Q1010","updated":"2025-12-27T07:17:37Z"}
