{"icao":"KLAX","metar":"KLAX 151053Z 00000KT 10SM CLR 14/04 A3004 RMK AO2 SLP172 T01440044 $","updated":"2026-01-15T11:19:39Z"}
