{"icao":"LPLA","metar":"LPLA 160500Z 21013KT 9999 FEW017 SCT040 15/11 Q1019","updated":"2026-04-16T05:29:31Z"}
