{"icao":"LPMR","metar":"LPMR 231300Z 29008G18KT 260V340 9999 FEW012 22/16 Q1022","updated":"2026-05-23T13:22:01Z"}
