{"icao":"LPMA","metar":"LPMA 292000Z 21016KT 9999 -DZ SCT015 17/15 Q1017","updated":"2025-12-29T20:22:47Z"}
