{"icao":"LPHR","metar":"LPHR 290900Z 26008KT 8000 FEW001 BKN003 22/22 Q1023","updated":"2025-09-29T09:20:52Z"}
