{"icao":"LPHR","metar":"LPHR 152200Z 19014KT 9999 FEW017 BKN040 17/14 Q1027","updated":"2026-02-15T22:22:22Z"}
