{"icao":"KORD","metar":"KORD 231951Z 05006KT 10SM FEW019 FEW060 SCT250 21/14 A2996 RMK AO2 SLP145 T02110139","updated":"2026-05-23T20:50:22Z"}
