{"icao":"LPLA","metar":"LPLA 101400Z 30019KT 9999 FEW018 SCT025 BKN040 19/14 Q1029","updated":"2026-04-10T14:46:35Z"}
