{"icao":"LPMT","metar":"LPMT 221400Z 33007KT 300V360 9999 SCT035 19/14 Q1011","updated":"2026-03-22T14:26:54Z"}
