{"icao":"LPPD","metar":"LPPD 132200Z 02010KT 350V050 9999 FEW018 BKN030 15/11 Q1029","updated":"2026-05-13T22:09:53Z"}
