{"icao":"LPOV","metar":"LPOV 202000Z 18009KT 7000 -RADZ SCT004 BKN014 BKN030 18/17 Q1013","updated":"2025-10-20T20:20:44Z"}
