{"icao":"LPPR","metar":"LPPR 031600Z 19007KT CAVOK 17/11 Q1021","updated":"2025-11-03T16:21:00Z"}
