{"icao":"LPBJ","metar":"LPBJ 040700Z 27009KT 250V310 4000 -RADZ BKN006 OVC014 14/13 Q0998","updated":"2026-02-04T07:42:36Z"}
