{"icao":"LPPR","metar":"LPPR 282200Z 13003KT 090V160 9999 FEW014 SCT020 BKN044 12/11 Q1022","updated":"2025-11-28T22:16:59Z"}
