{"icao":"LPMA","metar":"LPMA 170100Z 29005KT 230V010 9999 SCT015 16/08 Q1025","updated":"2026-01-17T01:28:31Z"}
