{"icao":"LPAZ","metar":"LPAZ 231300Z 26018KT 9999 FEW025 17/09 Q1008","updated":"2026-04-23T13:26:24Z"}
