{"icao":"LPFL","metar":"LPFL 121500Z 35008KT 300V040 9999 FEW032 20/09 Q1019","updated":"2025-10-12T15:15:36Z"}
