{"icao":"LPPR","metar":"LPPR 031230Z 18006KT 150V210 9999 FEW040 19/11 Q1022","updated":"2025-11-03T12:38:50Z"}
