{"icao":"LPLA","metar":"LPLA 181600Z 33014KT 7000 FEW005 SCT009 BKN012 18/17 Q1024","updated":"2025-11-18T16:25:50Z"}
