{"icao":"KLAX","metar":"KLAX 210353Z 24005KT 10SM CLR 18/17 A3004 RMK AO2 SLP169 T01830167","updated":"2025-10-21T04:21:44Z"}
