{"icao":"LPMT","metar":"LPMT 061400Z 19012KT 9999 FEW045 23/11 Q1015","updated":"2026-04-06T14:44:48Z"}
