{"icao":"KORD","metar":"KORD 080651Z 34005KT 10SM OVC032 M08/M12 A3032 RMK AO2 SNE17 SLP279 P0000 T10781122","updated":"2025-12-08T07:23:07Z"}
