{"icao":"KLAX","metar":"KLAX 030153Z 25007KT 10SM FEW010 16/14 A3010 RMK AO2 SLP193 T01610144 $","updated":"2026-02-03T02:02:51Z"}
