{"icao":"LPFR","metar":"LPFR 231100Z 23010KT 9999 FEW030 18/12 Q1015","updated":"2026-04-23T11:06:19Z"}
