{"icao":"LPFL","metar":"LPFL 061700Z 35004KT 330V040 9999 FEW020 22/17 Q1015","updated":"2025-10-06T17:16:08Z"}
