{"icao":"KORD","metar":"KORD 241051Z 18007KT 10SM BKN150 M06/M11 A3007 RMK AO2 SLP191 T10611111","updated":"2026-02-24T11:39:22Z"}
