{"icao":"LPFL","metar":"LPFL 222330Z 17013KT 9000 -DZ FEW007 BKN009 17/16 Q1020","updated":"2025-12-23T06:32:11Z"}
