{"icao":"LPPD","metar":"LPPD 230900Z 26003KT 230V290 9999 FEW016 BKN035 16/14 Q1029","updated":"2025-11-23T09:17:35Z"}
