{"icao":"KLAX","metar":"KLAX 160053Z 11012KT 9SM -RA SCT012 BKN028 OVC060 15/13 A2981 RMK AO2 RAB21 SLP094 P0000 T01500133 $","updated":"2025-11-16T01:37:08Z"}
