{"icao":"LPMT","metar":"LPMT 272200Z 33006KT CAVOK 19/14 Q1010","updated":"2026-04-27T22:50:46Z"}
