{"icao":"LPOV","metar":"LPOV 211700Z 34017G29KT 310V010 9999 FEW030 18/12 Q1021","updated":"2025-09-21T17:13:34Z"}
