{"icao":"LPBJ","metar":"LPBJ 141000Z 06003KT 0300 FG NSC 07/07 Q1020","updated":"2026-01-14T10:24:03Z"}
