{"icao":"LPHR","metar":"LPHR 271230Z 25024KT 7000 -RA SCT012 BKN025 15/14 Q1007","updated":"2026-01-27T12:48:10Z"}
