{"icao":"KORD","metar":"KORD 021251Z 31004KT 10SM FEW250 06/M01 A3011 RMK AO2 SLP202 T00561011 $","updated":"2026-05-02T13:08:20Z"}
