{"icao":"LPBJ","metar":"LPBJ 151300Z 28005KT 250V340 CAVOK 31/16 Q1020","updated":"2025-09-15T13:26:23Z"}
