{"icao":"LPCS","metar":"LPCS 041730Z 36012KT 9999 FEW010 15/11 Q1013","updated":"2026-03-04T17:37:07Z"}
