{"icao":"LPBJ","metar":"LPBJ 270700Z 07009KT CAVOK 09/04 Q1016","updated":"2026-03-27T07:05:12Z"}
