{"icao":"KLAX","metar":"KLAX 201453Z 10004KT 10SM FEW015 SCT100 SCT250 13/02 A3006 RMK AO2 SLP179 T01330022 53010 $","updated":"2026-01-20T15:29:21Z"}
