{"icao":"KLAX","metar":"KLAX 212153Z 24006KT 10SM FEW007 FEW095 SCT130 BKN180 BKN220 25/18 A2989 RMK AO2 SLP120 T02500178","updated":"2025-09-21T22:15:11Z"}
