{"icao":"LPMA","metar":"LPMA 130730Z 36008KT 330V040 9999 SCT015 15/07 Q1026","updated":"2026-04-13T08:01:18Z"}
