{"icao":"LPPD","metar":"LPPD 061100Z 22017KT 4000 -RADZ BR SCT003 BKN005 20/19 Q1014","updated":"2025-11-06T11:16:33Z"}
