{"icao":"LPMT","metar":"LPMT 031900Z 03008KT CAVOK 16/11 Q1012","updated":"2026-03-03T19:37:56Z"}
