{"icao":"LPOV","metar":"LPOV 251600Z 34008KT CAVOK 23/07 Q1018","updated":"2025-09-25T16:21:51Z"}
