{"icao":"LPAR","metar":"LPAR 111300Z 24015KT 6000 BKN013 BKN020 17/15 Q1016","updated":"2026-02-11T13:07:16Z"}
