{"icao":"LPPR","metar":"LPPR 102000Z 07004KT 020V110 CAVOK 18/12 Q1021","updated":"2025-10-10T20:18:36Z"}
