{"icao":"LPPR","metar":"LPPR 271900Z 34010KT CAVOK 12/07 Q1026","updated":"2026-02-27T19:32:03Z"}
