{"icao":"KJFK","metar":"KJFK 041551Z 33007KT 10SM SCT025 SCT045 BKN100 M01/M08 A3009 RMK AO2 SLP189 T10061078 $","updated":"2026-01-04T16:23:41Z"}
