{"icao":"LPPT","metar":"LPPT 010400Z 33004KT CAVOK 19/12 Q1019","updated":"2025-10-01T04:20:33Z"}
