{"icao":"LPFR","metar":"LPFR 081230Z 22008KT 9999 FEW020 16/11 Q1021","updated":"2026-03-08T12:46:00Z"}
