{"icao":"LPPT","metar":"LPPT 211900Z 27012G22KT 230V310 9000 -DZ FEW008 BKN010 13/10 Q1006","updated":"2026-01-21T19:25:24Z"}
