{"icao":"LPMT","metar":"LPMT 240900Z 25012KT 8000 -RADZ SCT007 SCT015 BKN022 15/15 Q1020","updated":"2025-11-24T09:23:02Z"}
