{"icao":"KJFK","metar":"KJFK 091151Z 23013KT 10SM FEW120 SCT250 18/08 A3029 RMK AO2 SLP255 T01830083 10183 20150 50003 $","updated":"2026-06-09T12:35:45Z"}
