{"icao":"LPCS","metar":"LPCS 281500Z 16012G26KT 100V240 6000 -SHRA FEW004 SCT010 SCT018CB 19/18 Q1010","updated":"2025-10-28T15:20:12Z"}
