{"icao":"LPFR","metar":"LPFR 300900Z 32006KT 280V360 9999 FEW020 BKN048 13/09 Q1017","updated":"2025-11-30T09:17:28Z"}
