{"icao":"LPST","metar":"LPST 131500Z 31017KT 9999 BKN018 FEW030CB 13/09 Q1009","updated":"2026-02-13T15:40:23Z"}
