{"icao":"LPAR","metar":"LPAR 261100Z 06007KT 040V100 CAVOK 16/13 Q1025","updated":"2026-02-26T11:38:42Z"}
