{"icao":"LPBJ","metar":"LPBJ 181813Z 28015KT 8000 SCT007 OVC015 13/12 Q1020","updated":"2026-02-18T18:53:14Z"}
