{"icao":"LPFL","metar":"LPFL 301300Z 19011KT 130V240 9999 SCT035 19/12 Q1026","updated":"2025-11-30T13:25:11Z"}
