{"icao":"LPAZ","metar":"LPAZ 271900Z 04009KT 020V080 9999 FEW024 20/13 Q1026","updated":"2025-09-27T19:12:46Z"}
