{"icao":"LPLA","metar":"LPLA 201900Z 16012KT 110V200 7000 FEW015 17/13 Q1019","updated":"2026-02-20T19:35:56Z"}
