{"icao":"KJFK","metar":"KJFK 161151Z 34011KT 10SM FEW040 SCT170 SCT250 09/02 A2996 RMK AO2 SLP146 T00890022 10111 20078 53001","updated":"2025-10-16T12:38:55Z"}
