{"icao":"LPPR","metar":"LPPR 112300Z 29006KT 260V330 9999 FEW015 BKN030 14/10 Q1015","updated":"2026-02-11T23:30:41Z"}
