{"icao":"LPLA","metar":"LPLA 200504Z 09008KT 050V120 9999 FEW020 SCT035 17/11 Q1028","updated":"2025-11-20T05:18:40Z"}
