{"icao":"LPPS","metar":"LPPS 091930Z 03013KT 9999 SCT014 14/07 Q1028","updated":"2026-03-09T19:39:36Z"}
