{"icao":"LPLA","metar":"LPLA 020400Z 30021G36KT 9999 SCT020 11/06 Q1012","updated":"2026-02-02T04:56:25Z"}
