{"icao":"LPMT","metar":"LPMT 201000Z 04007KT CAVOK 11/07 Q1031","updated":"2026-02-20T10:35:59Z"}
