{"icao":"KJFK","metar":"KJFK 171120Z 24009KT 8SM BKN014 OVC021 01/M01 A3018 RMK AO2 T00111006 $","updated":"2026-02-17T11:38:06Z"}
