{"icao":"LPLA","metar":"LPLA 171600Z 22018G30KT 190V250 9999 FEW023 24/19 Q1015","updated":"2025-09-17T16:22:02Z"}
