{"icao":"LPCS","metar":"LPCS 290700Z 05004KT 020V080 6000 SCT003 SCT012 FEW018TCU 17/17 Q1006","updated":"2025-10-29T07:17:45Z"}
