{"icao":"KJFK","metar":"KJFK 061951Z 18013KT 10SM FEW250 23/17 A3025 RMK AO2 SLP243 T02280172","updated":"2025-10-06T20:19:23Z"}
