{"icao":"LPLA","metar":"LPLA 011500Z 21010KT 170V270 9999 FEW014 26/20 Q1020","updated":"2025-10-01T15:17:47Z"}
