{"icao":"KJFK","metar":"KJFK 270851Z 29013G22KT 10SM CLR 06/M06 A2988 RMK AO2 PK WND 30028/0836 SLP118 T00611056 51024","updated":"2025-11-27T09:21:25Z"}
