{"icao":"LPOV","metar":"LPOV 090600Z 16019G30KT 4000 RA FEW007 BKN030 15/12 Q1012","updated":"2025-12-09T06:30:47Z"}
