{"icao":"LPOV","metar":"LPOV 271400Z 33010KT CAVOK 15/08 Q1024","updated":"2025-11-27T14:18:34Z"}
