{"icao":"KJFK","metar":"KJFK 070851Z 00000KT 9SM OVC009 03/02 A3033 RMK AO2 SLP272 T00280017 58019","updated":"2026-03-07T09:27:24Z"}
