{"icao":"LPMR","metar":"LPMR 191900Z 29005KT CAVOK 18/13 Q1015","updated":"2026-04-19T19:40:06Z"}
