{"icao":"LPCS","metar":"LPCS 132130Z 35010KT 9999 FEW012 15/13 Q1019","updated":"2026-05-13T23:56:35Z"}
