{"icao":"LPMA","metar":"LPMA 131800Z 03004KT 340V120 9999 SCT016 22/16 Q1017","updated":"2025-10-13T18:24:57Z"}
