{"icao":"LPAZ","metar":"LPAZ 030830Z 25024KT 7000 FEW004 BKN007 17/16 Q1009","updated":"2026-02-03T08:34:59Z"}
