{"icao":"LPMA","metar":"LPMA 281900Z 16003KT 120V220 9999 SCT014 19/14 Q1019","updated":"2026-01-28T19:27:01Z"}
