{"icao":"LPPS","metar":"LPPS 180400Z 02009KT 9999 SCT014 18/14 Q1022","updated":"2025-11-18T04:22:58Z"}
