{"icao":"KJFK","metar":"KJFK 272051Z 33009KT 10SM FEW055 FEW250 12/00 A3031 RMK AO2 SLP263 T01220000 56010","updated":"2025-10-27T21:15:56Z"}
