{"icao":"LPHR","metar":"LPHR 250800Z 25022KT 9000 FEW008 BKN013 18/16 Q1015","updated":"2026-01-25T08:26:33Z"}
