{"icao":"LPPD","metar":"LPPD 011600Z 22006KT 190V280 9999 FEW017 23/21 Q1021","updated":"2025-10-01T16:22:06Z"}
