{"icao":"LPPT","metar":"LPPT 292300Z 31015KT 280V340 9999 FEW010 17/15 Q1021","updated":"2026-05-29T23:10:26Z"}
