{"icao":"LPPT","metar":"LPPT 280500Z 27018G30KT 240V300 8000 FEW008 SCT022 12/10 Q0994","updated":"2026-01-28T05:26:57Z"}
