{"icao":"KORD","metar":"KORD 271851Z 24009KT 10SM FEW070 SCT250 29/11 A2991 RMK AO2 SLP122 T02940111 $","updated":"2025-09-27T19:13:04Z"}
