{"icao":"LPPD","metar":"LPPD 281000Z 25023KT 2500 -DZ BR SCT004 BKN007 17/15 Q1008","updated":"2026-01-28T10:27:05Z"}
