{"icao":"KJFK","metar":"KJFK 212051Z 12010KT 10SM FEW050 BKN250 19/09 A3027 RMK AO2 SLP248 T01940089 58009 $","updated":"2025-09-21T21:14:29Z"}
