{"icao":"LPLA","metar":"LPLA 100600Z 05003KT 350V130 9999 FEW015 SCT022 21/18 Q1021","updated":"2025-10-10T06:27:19Z"}
