{"icao":"LPOV","metar":"LPOV 272300Z 35003KT 9999 FEW045 13/11 Q1018","updated":"2025-10-27T23:15:57Z"}
