{"icao":"LPMA","metar":"LPMA 092100Z 36007KT 9999 BKN012 15/12 Q1032","updated":"2026-01-09T21:20:26Z"}
