{"icao":"LPAZ","metar":"LPAZ 270400Z 11006KT 9999 FEW018 14/13 Q1022","updated":"2025-11-27T04:22:54Z"}
