{"icao":"LPAZ","metar":"LPAZ 211400Z 28014KT 9000 FEW004 BKN007 17/16 Q1022","updated":"2026-01-21T14:29:48Z"}
