{"icao":"LPPT","metar":"LPPT 292230Z 32014KT 290V350 9999 FEW012 19/16 Q1021","updated":"2026-06-29T22:55:17Z"}
