{"icao":"LPPS","metar":"LPPS 061400Z 12007KT 080V150 9999 SCT014 23/18 Q1022","updated":"2025-10-06T14:17:32Z"}
