{"icao":"LPAR","metar":"LPAR 141100Z 34013KT 310V010 9999 SCT025 14/07 Q1027","updated":"2026-02-14T11:21:01Z"}
