{"icao":"LPCS","metar":"LPCS 231530Z 25010KT 220V300 9999 FEW022 18/10 Q1014 WS R35","updated":"2026-04-23T15:51:18Z"}
