{"icao":"LPMA","metar":"LPMA 241000Z 36004KT 270V080 9999 SCT015 SCT030 22/11 Q1021","updated":"2025-09-24T10:18:28Z"}
