{"icao":"LPPD","metar":"LPPD 141500Z 23007KT 9999 -RA FEW008 SCT011 FEW018CB 18/16 Q1007","updated":"2025-10-14T15:20:22Z"}
