{"icao":"LPPT","metar":"LPPT 012230Z 32013KT CAVOK 15/06 Q1022","updated":"2026-04-01T22:35:45Z"}
