{"icao":"LPSJ","metar":"LPSJ 261730Z 25008KT 220V280 9999 FEW018 21/15 Q1024","updated":"2026-06-26T17:45:44Z"}
