{"icao":"LPPT","metar":"LPPT 101800Z 21004KT 9999 FEW012 17/15 Q1018","updated":"2025-11-10T18:26:50Z"}
