{"icao":"LPCS","metar":"LPCS 032000Z 08007KT 040V110 9999 FEW008 BKN015 14/14 Q0998","updated":"2026-01-03T20:20:52Z"}
