{"icao":"LPHR","metar":"LPHR 071900Z 31009KT 270V340 9999 SCT017 BKN030 15/09 Q1034","updated":"2026-04-07T19:17:14Z"}
