{"icao":"LPLA","metar":"LPLA 142300Z 34009KT 9999 FEW015 OVC022 16/13 Q1032","updated":"2026-03-14T23:26:45Z"}
