{"icao":"LPBJ","metar":"LPBJ 121300Z 10006KT 9999 -RA FEW007 BKN035 13/12 Q1012","updated":"2025-12-12T13:33:31Z"}
