{"icao":"LPHR","metar":"LPHR 261730Z 28014KT 9999 FEW020 21/16 Q1024","updated":"2026-06-26T17:45:45Z"}
