{"icao":"LPAR","metar":"LPAR 171300Z 31010KT 290V350 9999 -SHRA FEW020CB BKN025 18/12 Q1014","updated":"2025-11-17T13:30:47Z"}
