{"icao":"KORD","metar":"KORD 101251Z 34016G22KT 10SM BKN055 M04/M07 A3022 RMK AO2 SNE09 SLP244 P0000 T10391072 $","updated":"2025-11-10T13:30:50Z"}
