{"icao":"LPMR","metar":"LPMR 242300Z 20004KT 9999 FEW009 BKN022 18/18 Q1016","updated":"2025-10-24T23:15:57Z"}
