{"icao":"LPPR","metar":"LPPR 051900Z 03005KT 350V070 CAVOK 19/13 Q1020","updated":"2025-10-05T19:12:32Z"}
