{"icao":"LPHR","metar":"LPHR 081400Z 05024G35KT 9999 FEW016 14/06 Q1029","updated":"2026-03-08T14:24:05Z"}
