{"icao":"LPPT","metar":"LPPT 192100Z 25007KT 220V280 8000 -DZ SCT006 BKN010 20/19 Q1015","updated":"2025-10-19T21:14:33Z"}
