{"icao":"LPPR","metar":"LPPR 111600Z 19014KT 3000 -DZRA BR SCT003 BKN005 14/13 Q1023","updated":"2026-01-11T16:23:07Z"}
