{"icao":"KORD","metar":"KORD 061051Z 30003KT 10SM FEW110 BKN200 06/M02 A2988 RMK AO2 SLP121 T00611017 $","updated":"2026-05-06T11:05:15Z"}
