{"icao":"LPPD","metar":"LPPD 040800Z 02003KT 9999 FEW011 SCT049 21/19 Q1027","updated":"2025-10-04T08:20:14Z"}
