{"icao":"LPPR","metar":"LPPR 301030Z VRB02KT CAVOK 15/02 Q1033","updated":"2026-03-30T11:00:29Z"}
