{"icao":"KJFK","metar":"KJFK 042151Z 19007KT 10SM BKN250 22/16 A3018 RMK AO2 SLP220 T02170161","updated":"2025-10-04T22:14:28Z"}
