{"icao":"LPBJ","metar":"LPBJ 260900Z 03004KT CAVOK 08/05 Q1025","updated":"2025-11-26T09:21:49Z"}
