{"icao":"KLAX","metar":"KLAX 040653Z 09004KT 10SM CLR 18/14 A2992 RMK AO2 SLP130 T01830144 $","updated":"2025-10-04T07:14:35Z"}
