{"icao":"KLAX","metar":"KLAX 181053Z 05004KT 2 1/2SM BR FEW001 FEW004 12/12 A2995 RMK AO2 SLP140 VIS 2V3 T01220117 $","updated":"2025-12-18T11:18:34Z"}
