{"icao":"LPFL","metar":"LPFL 111800Z VRB12G24KT 9999 FEW020 SCT028 16/09 Q1013","updated":"2026-01-12T03:48:35Z"}
