{"icao":"LPBJ","metar":"LPBJ 262200Z 07003KT CAVOK 18/15 Q1019","updated":"2025-10-26T22:16:23Z"}
