{"icao":"LPPD","metar":"LPPD 232000Z 01013KT 340V040 9999 FEW018 20/16 Q1022","updated":"2025-09-23T20:18:56Z"}
