{"icao":"LPOV","metar":"LPOV 232000Z 14002KT CAVOK 12/09 Q1021","updated":"2026-02-23T20:42:36Z"}
