{"icao":"LPHR","metar":"LPHR 021230Z 33011KT 260V020 9999 FEW025 16/08 Q1011","updated":"2026-01-02T12:39:36Z"}
