{"icao":"LPBJ","metar":"LPBJ 070600Z 08002KT 060V120 9999 4000NW VCFG FEW003 15/14 Q1021","updated":"2025-10-07T06:26:45Z"}
