{"icao":"KORD","metar":"KORD 162151Z 32019G30KT 9SM -SN SCT027 BKN034 BKN043 M02/M09 A2975 RMK AO2 PK WND 31032/2120 SLP081 P0000 T10221094 $","updated":"2026-03-16T22:31:41Z"}
