{"icao":"KJFK","metar":"KJFK 230851Z 23008KT 10SM SCT035 SCT250 19/17 A3002 RMK AO2 SLP166 T01890172 58008 $","updated":"2025-09-23T09:18:59Z"}
