{"icao":"LPPS","metar":"LPPS 061900Z 01005KT 7000 -SHRA FEW005 BKN011 20/19 Q1022","updated":"2025-10-06T19:14:14Z"}
