{"icao":"LPOV","metar":"LPOV 150500Z 14004KT 110V170 9999 FEW015 SCT030 11/11 Q1023","updated":"2026-04-15T05:22:32Z"}
