{"icao":"LPPS","metar":"LPPS 131400Z 33017G28KT 9999 SCT014 FEW018CB 18/10 Q1018","updated":"2026-01-13T14:24:34Z"}
