{"icao":"LPMA","metar":"LPMA 290400Z 02013G24KT 330V040 9999 SCT015 21/16 Q1023","updated":"2025-09-29T04:22:14Z"}
