{"icao":"LPFR","metar":"LPFR 070600Z 03005KT CAVOK 14/11 Q1018","updated":"2025-11-07T06:27:43Z"}
