{"icao":"KORD","metar":"KORD 230451Z 01015KT 10SM FEW021 00/M05 A3012 RMK AO2 PK WND 01026/0417 SLP206 T00001050","updated":"2026-03-23T05:01:58Z"}
