{"icao":"LPPS","metar":"LPPS 151330Z 04008KT 360V080 7000 SCT011 BKN030 16/15 Q1021","updated":"2026-03-15T13:46:36Z"}
