{"icao":"KORD","metar":"KORD 021825Z 29007KT 6SM -SN BKN016 OVC026 M03/M07 A3008 RMK AO2 P0000 T10281067","updated":"2026-02-02T18:42:08Z"}
