{"icao":"LPBJ","metar":"LPBJ 302300Z 10003KT CAVOK 06/05 Q1021","updated":"2025-12-30T23:18:07Z"}
