{"icao":"KORD","metar":"KORD 070809Z 22016G28KT 10SM BKN020 BKN032 OVC075 18/16 A2977 RMK AO2 PK WND 23028/0806 T01830156","updated":"2026-03-07T08:29:56Z"}
