{"icao":"LPBJ","metar":"LPBJ 221200Z 19004KT 130V280 CAVOK 29/19 Q1017","updated":"2026-06-22T12:48:37Z"}
