{"icao":"LPPD","metar":"LPPD 270700Z 02019KT 350V050 9999 FEW018 18/13 Q1015","updated":"2025-10-27T07:18:05Z"}
