{"icao":"LPPS","metar":"LPPS 262130Z 32005KT 9999 FEW015 17/13 Q1020","updated":"2026-05-26T21:44:02Z"}
