{"icao":"KJFK","metar":"KJFK 242151Z 30010KT 10SM FEW080 FEW250 28/09 A2994 RMK SLP139 T02830089 ","updated":"2026-06-24T22:15:22Z"}
