{"icao":"LPPR","metar":"LPPR 031230Z 28004KT 250V310 7000 FEW006 18/14 Q1024","updated":"2025-10-03T12:35:10Z"}
