{"icao":"LPPR","metar":"LPPR 211230Z 29005KT 240V330 CAVOK 18/10 Q1010","updated":"2026-03-21T12:45:50Z"}
