{"icao":"LPOV","metar":"LPOV 261000Z 19015KT 3000 BR BKN004 BKN009 15/15 Q1008","updated":"2026-01-26T10:25:07Z"}
