{"icao":"LPFL","metar":"LPFL 190800Z 32009KT 290V360 9999 SCT030 19/11 Q1022","updated":"2025-09-19T08:23:02Z"}
