{"icao":"LPST","metar":"LPST 181500Z 33009KT 9999 FEW018 17/11 Q1018","updated":"2025-11-18T15:20:53Z"}
