{"icao":"LPAZ","metar":"LPAZ 131300Z 03011KT 350V060 9999 SCT015 BKN049 18/11 Q1027","updated":"2026-05-13T13:09:58Z"}
