{"icao":"LPLA","metar":"LPLA 200400Z VRB02KT 9999 FEW015 SCT030 23/21 Q1014","updated":"2025-10-20T04:24:01Z"}
