{"icao":"LPMA","metar":"LPMA 101630Z 02021KT 9999 FEW015 22/14 Q1020","updated":"2026-06-10T16:56:43Z"}
