{"icao":"LPMT","metar":"LPMT 150400Z 12002KT CAVOK 13/11 Q1015","updated":"2025-10-15T04:20:59Z"}
