{"icao":"LPPR","metar":"LPPR 141400Z 13007KT 6000 -SHRA FEW020CB BKN030 12/11 Q0999","updated":"2025-11-14T14:18:06Z"}
