{"icao":"KJFK","metar":"KJFK 012251Z 34006KT 10SM BKN250 04/M10 A3033 RMK AO2 SLP269 T00391100 $","updated":"2025-12-01T23:18:11Z"}
