{"icao":"LPOV","metar":"LPOV 251000Z 32006KT 280V350 CAVOK 18/14 Q1017","updated":"2026-04-25T10:41:46Z"}
