{"icao":"LPPS","metar":"LPPS 281500Z 25007KT 210V310 9999 FEW015 25/16 Q1009","updated":"2025-10-28T15:20:29Z"}
