{"icao":"KJFK","metar":"KJFK 171551Z 30021G31KT 10SM BKN060 06/M07 A2975 RMK AO2 PK WND 30037/1530 SLP074 T00561072 $","updated":"2025-11-17T16:25:59Z"}
