{"icao":"LPFL","metar":"LPFL 221500Z 19012KT 150V250 9999 FEW017 19/13 Q1019","updated":"2025-12-22T15:20:58Z"}
