{"icao":"KORD","metar":"KORD 040351Z 31006KT 10SM OVC039 M04/M12 A3008 RMK AO2 SLP196 T10391122 $","updated":"2026-01-04T04:48:09Z"}
