{"icao":"LPBJ","metar":"LPBJ 100900Z 34008KT 310V010 CAVOK 23/08 Q1018","updated":"2026-06-10T09:56:43Z"}
