{"icao":"LPMA","metar":"LPMA 221600Z 03019KT 9999 SCT015 20/12 Q1024","updated":"2025-11-22T16:21:05Z"}
