{"icao":"LPST","metar":"LPST 021700Z 31009KT 9000 SCT005 BKN012 BKN030 12/11 Q1007","updated":"2026-03-03T05:48:01Z"}
