{"icao":"LPMT","metar":"LPMT 101400Z 24011KT 2000 -RADZ BR SCT002 BKN004 15/15 Q1016","updated":"2026-02-10T14:56:58Z"}
