{"icao":"LPPR","metar":"LPPR 252330Z 33003KT 5000 BR SCT002 15/15 Q1022","updated":"2026-05-26T00:03:49Z"}
