{"icao":"LPPT","metar":"LPPT 161000Z 35013KT 320V020 9999 FEW020 18/08 Q1018","updated":"2026-05-16T10:13:07Z"}
