{"icao":"LPAZ","metar":"LPAZ 261230Z 12007KT 070V150 9999 FEW020 19/16 Q1025","updated":"2025-11-26T12:40:45Z"}
