{"icao":"LPBJ","metar":"LPBJ 262200Z 06004KT CAVOK 09/04 Q1024","updated":"2025-11-26T22:18:07Z"}
