{"icao":"LPAZ","metar":"LPAZ 250900Z 24019KT 8000 FEW010 SCT012 17/16 Q1020","updated":"2026-01-25T09:20:19Z"}
