{"icao":"LPPR","metar":"LPPR 230500Z 04005KT CAVOK 10/06 Q1019","updated":"2025-09-23T05:16:41Z"}
