{"icao":"LPMR","metar":"LPMR 201400Z 20004KT 8000 FEW018 13/11 Q1017","updated":"2026-01-20T14:29:43Z"}
