{"icao":"LPPT","metar":"LPPT 122200Z 14007KT 110V170 9999 FEW006 BKN040 15/15 Q1005","updated":"2025-11-12T22:17:45Z"}
