{"icao":"KJFK","metar":"KJFK 220551Z 03006KT 10SM FEW049 SCT060 SCT250 02/M01 A3011 RMK AO2 SLP195 T00221011 10061 20022 50000 $","updated":"2026-02-22T06:45:50Z"}
