{"icao":"LPFR","metar":"LPFR 071000Z 11010KT CAVOK 26/18 Q1019","updated":"2026-06-07T10:27:34Z"}
