{"icao":"KORD","metar":"KORD 200251Z 04009KT 10SM FEW075 BKN150 OVC250 24/18 A3001 RMK AO2 SLP157 T02440178 50007","updated":"2025-09-20T03:25:58Z"}
