{"icao":"KORD","metar":"KORD 051451Z 21006KT 10SM BKN030 BKN042 BKN070 OVC250 22/18 A2991 RMK AO2 RAE34 SLP124 P0003 60003 T02170183 50002","updated":"2026-06-05T15:52:05Z"}
