{"icao":"KLAX","metar":"KLAX 161853Z 25009KT 10SM FEW022 FEW037 21/13 A2992 RMK AO2 SLP130 T02060128","updated":"2026-05-16T19:01:51Z"}
