{"icao":"LPMT","metar":"LPMT 141200Z 18009KT 150V210 9999 FEW020 SCT030 15/13 Q1003","updated":"2025-11-14T12:38:10Z"}
