{"icao":"LPHR","metar":"LPHR 141000Z 22003KT 200V270 9999 FEW015 16/12 Q1032","updated":"2026-03-14T10:26:44Z"}
