{"icao":"KJFK","metar":"KJFK 232051Z 18009KT 10SM SCT050 BKN150 BKN250 24/20 A2997 RMK AO2 SLP147 T02390200 58009 $","updated":"2025-09-23T21:15:15Z"}
