{"icao":"LPBJ","metar":"LPBJ 050000Z 32010KT CAVOK 15/09 Q1017","updated":"2026-06-05T00:05:19Z"}
