{"icao":"LPMA","metar":"LPMA 240800Z 34005KT 310V020 9999 FEW013 BKN016 23/16 Q1020","updated":"2025-10-24T08:24:00Z"}
