{"icao":"LPAR","metar":"LPAR 271400Z 30014KT 270V330 9999 SCT020 FEW022CB BKN030 10/07 Q1003 RESHRA","updated":"2026-01-27T14:28:21Z"}
