{"icao":"LPFR","metar":"LPFR 241800Z 30007KT 260V330 9999 FEW022 SCT040 12/08 Q1016","updated":"2026-01-24T18:28:33Z"}
