{"icao":"LPPR","metar":"LPPR 261400Z 04006KT 340V100 CAVOK 20/11 Q1020","updated":"2025-10-26T14:14:55Z"}
