{"icao":"LPMR","metar":"LPMR 011700Z 32010KT CAVOK 26/16 Q1017","updated":"2026-07-01T17:53:20Z"}
