{"icao":"LPPS","metar":"LPPS 101600Z 27004KT 240V310 9999 SCT015 BKN030 21/15 Q1019","updated":"2025-11-10T16:25:25Z"}
