{"icao":"LPMA","metar":"LPMA 190630Z 25010KT 9999 BKN013 FEW018CB 10/04 Q0994","updated":"2026-03-19T07:03:39Z"}
