{"icao":"KJFK","metar":"KJFK 051451Z 10003KT 10SM FEW045 BKN100 BKN250 M01/M07 A3026 RMK AO2 SLP245 T10061067 53003 $","updated":"2026-01-05T15:22:53Z"}
