{"icao":"LPLA","metar":"LPLA 142300Z 21014KT 9999 FEW018 SCT020CB BKN040 20/16 Q1004 RM K WIND RWY15 20011KT PK 22022/54 RH76 CB E-SE-NW BLU","updated":"2025-10-14T23:16:06Z"}
