{"icao":"LPPR","metar":"LPPR 051030Z 33005KT 290V010 9999 FEW013 SCT041 13/10 Q1017","updated":"2026-03-05T10:37:33Z"}
