{"icao":"LPMR","metar":"LPMR 010800Z 14013KT CAVOK 09/06 Q1012","updated":"2026-01-01T08:27:51Z"}
