{"icao":"LPOV","metar":"LPOV 281100Z 26007KT 220V290 9999 BKN040 13/11 Q0999","updated":"2026-01-28T11:21:56Z"}
