{"icao":"KORD","metar":"KORD 021304Z 34008KT 10SM FEW020 SCT031 M07/M13 A2992 RMK AO2 VIRGA T10721133 $","updated":"2026-01-02T13:31:51Z"}
