{"icao":"LPST","metar":"LPST 181300Z 16022KT 9999 SCT020 17/12 Q1002","updated":"2026-03-18T13:09:07Z"}
