{"icao":"LPPT","metar":"LPPT 021700Z 33015KT CAVOK 19/06 Q1020","updated":"2026-04-02T17:04:48Z"}
