{"icao":"LPMR","metar":"LPMR 120700Z 16018KT 9999 SCT020 17/13 Q1002","updated":"2025-11-12T07:18:17Z"}
