{"icao":"LPPR","metar":"LPPR 051400Z 35008KT CAVOK 10/M00 Q1015","updated":"2026-01-05T14:23:17Z"}
