{"icao":"LPAR","metar":"LPAR 151100Z 09003KT 020V140 CAVOK 22/14 Q1017","updated":"2025-10-15T11:15:08Z"}
