{"icao":"LPOV","metar":"LPOV 121200Z 20010KT 170V230 9999 SCT016 15/11 Q1018","updated":"2026-02-12T13:04:48Z"}
