{"icao":"LPPD","metar":"LPPD 081900Z 36017KT 330V030 9999 BKN012 FEW014TCU 16/13 Q1033 WS R30","updated":"2026-04-08T19:14:11Z"}
