{"icao":"LPPR","metar":"LPPR 242300Z 21009KT 6000 SHRA BKN013 FEW015CB BKN018 11/10 Q1010","updated":"2026-01-24T23:18:38Z"}
