{"icao":"LPPR","metar":"LPPR 130830Z 10004KT 070V140 CAVOK 18/12 Q1022"}
