{"icao":"LPOV","metar":"LPOV 120700Z VRB02KT CAVOK 13/10 Q1017","updated":"2025-10-12T07:15:23Z"}
