{"icao":"KLAX","metar":"KLAX 111653Z VRB03KT 10SM CLR 21/14 A2981 RMK AO2 SLP094 T02110144 $","updated":"2025-10-11T17:13:27Z"}
