{"icao":"LPAR","metar":"LPAR 171600Z 01007KT 340V040 9999 VCSH FEW020TCU SCT025 16/12 Q1014","updated":"2025-11-17T16:25:40Z"}
