{"icao":"LPOV","metar":"LPOV 181400Z 24007KT 7000 FEW007 SCT014 14/14 Q1016","updated":"2026-02-18T14:41:50Z"}
