{"icao":"LPBJ","metar":"LPBJ 220400Z 09005KT CAVOK 05/01 Q1028","updated":"2025-11-22T04:20:46Z"}
