{"icao":"KJFK","metar":"KJFK 280051Z 00000KT 10SM FEW090 BKN110 OVC160 21/17 A2999 RMK AO2 SLP155 T02110172","updated":"2025-09-28T01:25:38Z"}
