{"icao":"LPAR","metar":"LPAR 251300Z 08004KT 030V150 CAVOK 29/02 Q1017","updated":"2025-09-25T13:28:04Z"}
