{"icao":"LPMR","metar":"LPMR 221700Z 32003KT CAVOK 12/03 Q1029","updated":"2025-11-22T17:14:38Z"}
