{"icao":"LPFL","metar":"LPFL 201230Z 19013G24KT 140V230 9999 FEW016 18/12 Q1013","updated":"2026-02-20T12:56:22Z"}
