{"icao":"LPFR","metar":"LPFR 181400Z 10012KT CAVOK 24/15 Q1016","updated":"2025-10-18T14:14:20Z"}
