{"icao":"LPBJ","metar":"LPBJ 120500Z 14011KT 9999 FEW010 SCT023 15/14 Q1008","updated":"2025-11-12T05:19:06Z"}
