{"icao":"LPFL","metar":"LPFL 041000Z 32013G25KT 260V030 9999 SCT018 15/09 Q1006","updated":"2025-11-04T10:21:48Z"}
