{"icao":"LPST","metar":"LPST 151000Z 35010KT CAVOK 22/16 Q1022","updated":"2025-09-15T10:18:29Z"}
