{"icao":"KJFK","metar":"KJFK 050651Z 01006KT 10SM FEW200 BKN250 M05/M11 A3016 RMK AO2 SLP212 T10501111 PNO $","updated":"2026-02-05T07:51:43Z"}
