{"icao":"LPFR","metar":"LPFR 052000Z 25015KT 9000 FEW018 FEW022CB SCT030 15/13 Q1005","updated":"2026-02-05T20:32:02Z"}
