{"icao":"LPPS","metar":"LPPS 070600Z 01005KT 9999 SCT012 SCT030 19/18 Q1023","updated":"2025-10-07T06:27:00Z"}
