{"icao":"LPHR","metar":"LPHR 051800Z 06012KT 020V090 9999 FEW020 BKN045 17/09 Q1028","updated":"2026-05-05T18:09:34Z"}
