{"icao":"LPMA","metar":"LPMA 061830Z 36004KT 310V060 9999 FEW015 17/09 Q1020","updated":"2026-02-06T18:50:05Z"}
