{"icao":"KLAX","metar":"KLAX 140453Z 20003KT 10SM BKN010 15/13 A3004 RMK AO2 SLP172 T01500133 $","updated":"2025-12-14T05:18:45Z"}
