{"icao":"KORD","metar":"KORD 071413Z 35015KT 2 1/2SM -SN BR SCT008 BKN014 OVC020 M03/M05 A3006 RMK AO2 P0000 T10331050","updated":"2025-12-07T14:16:31Z"}
