{"icao":"KLAX","metar":"KLAX 130353Z 00000KT 10SM SCT150 18/15 A3005 RMK AO2 SLP174 T01780150 $","updated":"2025-11-13T04:24:00Z"}
