{"icao":"LPBJ","metar":"LPBJ 311400Z 21003KT 9999 FEW030 23/13 Q1015","updated":"2025-10-31T14:18:21Z"}
