{"icao":"LPAZ","metar":"LPAZ 111830Z 03010KT 360V060 9999 FEW026 BKN049 14/08 Q1031","updated":"2026-04-11T18:42:13Z"}
