{"icao":"LPPT","metar":"LPPT 081600Z 32015KT 9999 FEW030 SCT035 19/11 Q1021","updated":"2025-10-08T16:21:57Z"}
