{"icao":"KLAX","metar":"KLAX 140653Z 25006KT 10SM FEW015 15/11 A3007 RMK AO2 SLP182 T01500106 $","updated":"2026-04-14T07:43:20Z"}
