{"icao":"LPPS","metar":"LPPS 201530Z 09014KT 060V130 9999 FEW015 BKN030 17/10 Q1026","updated":"2026-02-20T15:36:25Z"}
