{"icao":"LPBJ","metar":"LPBJ 070500Z 18010KT 9999 FEW006 SCT025 08/07 Q1012","updated":"2026-02-07T05:40:36Z"}
