{"icao":"LPMT","metar":"LPMT 041800Z 24014G24KT 210V270 5000 -RADZ BR SCT007 BKN012 15/15 Q0997","updated":"2026-02-04T18:49:10Z"}
