{"icao":"LPHR","metar":"LPHR 111700Z 13008KT 9999 FEW022 SCT040 16/08 Q1032","updated":"2026-04-11T17:30:08Z"}
