{"icao":"LPMT","metar":"LPMT 281200Z 36013KT CAVOK 15/07 Q1025","updated":"2026-02-28T12:42:30Z"}
