{"icao":"KORD","metar":"KORD 010151Z 31008KT 10SM BKN027 M07/M11 A3039 RMK AO2 SLP302 T10671111","updated":"2026-02-01T02:12:57Z"}
