{"icao":"LPMA","metar":"LPMA 122130Z 36006KT 320V020 9999 SCT015 BKN030 20/15 Q1020","updated":"2026-06-12T21:42:34Z"}
