{"icao":"LPFL","metar":"LPFL 091330Z 17013KT 130V200 9000 -RA SCT008 SCT016 18/16 Q1019","updated":"2026-01-09T13:36:42Z"}
