{"icao":"KJFK","metar":"KJFK 160751Z 30017G27KT 10SM FEW045 FEW250 M06/M15 A2962 RMK AO2 PK WND 29035/0714 SLP030 T10561150 $","updated":"2026-01-16T08:28:45Z"}
