{"icao":"LPMA","metar":"LPMA 062300Z 33004KT 280V010 9999 FEW014 16/10 Q1017","updated":"2026-04-06T23:34:28Z"}
