{"icao":"LPMR","metar":"LPMR 271000Z 21006KT 190V250 9999 FEW012 SCT030 11/07 Q0999","updated":"2026-01-27T10:26:50Z"}
