{"icao":"LPMR","metar":"LPMR 210200Z VRB01KT CAVOK 07/03 Q1025","updated":"2025-11-21T03:09:18Z"}
