{"icao":"LPFL","metar":"LPFL 161800Z 20021G32KT 160V230 9999 SCT009 20/17 Q1017","updated":"2025-12-16T18:30:31Z"}
