{"icao":"KORD","metar":"KORD 301951Z 35010G15KT 10SM FEW045 SCT250 14/02 A2982 RMK AO2 SLP101 T01390022 $","updated":"2025-10-30T20:20:29Z"}
