{"icao":"LPBJ","metar":"LPBJ 010600Z 08003KT CAVOK 15/12 Q1020","updated":"2025-10-01T06:27:01Z"}
