{"icao":"LPPT","metar":"LPPT 152230Z 36008KT 330V030 9999 FEW018 13/10 Q1017","updated":"2026-05-15T23:00:30Z"}
