{"icao":"KJFK","metar":"KJFK 170551Z 21006KT 10SM BKN110 BKN150 BKN250 17/12 A2994 RMK AO2 SLP138 T01670117 10183 20150 56003","updated":"2026-05-17T06:24:18Z"}
