{"icao":"LPLA","metar":"LPLA 211900Z 11007KT 060V200 9999 FEW015 SCT020 BKN030 17/15 Q1021","updated":"2026-02-21T19:22:55Z"}
