{"icao":"LPAZ","metar":"LPAZ 221630Z 26028KT 9999 FEW024 BKN029 15/09 Q1002","updated":"2026-04-22T16:57:41Z"}
