{"icao":"LPOV","metar":"LPOV 150600Z VRB01KT 7000 FEW008 11/11 Q1016","updated":"2025-10-15T06:26:59Z"}
