{"icao":"LPFL","metar":"LPFL 132030Z 17008KT 090V210 9999 FEW019 16/11 Q1028","updated":"2026-02-13T20:36:42Z"}
