{"icao":"KLAX","metar":"KLAX 011053Z 00000KT 10SM FEW008 SCT011 BKN015 19/17 A3000 RMK AO2 SLP157 T01890172 $","updated":"2025-10-01T11:15:47Z"}
