{"icao":"LPMA","metar":"LPMA 071800Z 19004KT 150V230 9999 SCT015 22/17 Q1020","updated":"2025-11-07T18:25:58Z"}
