{"icao":"LPPS","metar":"LPPS 121530Z 28012KT 9999 FEW015 SCT030 18/12 Q1022","updated":"2026-02-12T15:52:12Z"}
