{"icao":"LPFR","metar":"LPFR 181100Z 09012KT CAVOK 24/14 Q1017","updated":"2025-10-18T11:13:09Z"}
