{"icao":"LPPT","metar":"LPPT 180900Z 06005G20KT 340V110 CAVOK 18/14 Q1018","updated":"2025-10-18T09:16:37Z"}
