{"icao":"KJFK","metar":"KJFK 102151Z 19008KT 10SM FEW034 BKN047 OVC060 23/19 A2982 RMK AO2 SLP097 T02280194 $","updated":"2026-06-10T22:05:48Z"}
