{"icao":"KLAX","metar":"KLAX 080753Z 00000KT 10SM FEW180 17/11 A3016 RMK AO2 SLP209 T01720111 402170122 $","updated":"2026-02-08T08:31:55Z"}
