{"icao":"LPHR","metar":"LPHR 012200Z 01003KT 300V030 9999 FEW018 BKN035 15/09 Q1031","updated":"2025-12-01T22:16:57Z"}
