{"icao":"LPCS","metar":"LPCS 291700Z 22004KT 180V240 9999 FEW020 BKN030 15/11 Q1016","updated":"2025-11-29T17:15:37Z"}
