{"icao":"KLAX","metar":"KLAX 210253Z 07007KT 2SM RA BR FEW006 BKN014 OVC022 12/12 A2991 RMK AO2 SLP128 P0018 60022 T01220117 56014 $","updated":"2025-11-21T03:09:34Z"}
