{"icao":"LPFR","metar":"LPFR 091400Z 26015KT 9999 -DZ BKN005 OVC010 15/14 Q1028","updated":"2026-01-09T14:23:16Z"}
