{"icao":"KJFK","metar":"KJFK 191251Z 04007KT 7SM -RA FEW017 SCT034 OVC045 04/02 A3018 RMK AO2 SLP220 P0005 T00390022 $","updated":"2025-11-19T13:31:09Z"}
