{"icao":"LPCS","metar":"LPCS 191530Z 20008KT 180V240 CAVOK 21/12 Q1015","updated":"2026-04-19T15:36:11Z"}
