{"icao":"KORD","metar":"KORD 140651Z 21019G29KT 10SM FEW050 BKN250 22/17 A2973 RMK AO2 PK WND 20032/0616 SLP064 T02170167","updated":"2026-04-14T07:43:20Z"}
