{"icao":"LPLA","metar":"LPLA 172200Z 21020G31KT 9000 -RA FEW012 BKN016 23/21 Q1015","updated":"2025-09-17T22:14:53Z"}
