{"icao":"KJFK","metar":"KJFK 270851Z 28003KT 10SM FEW045 FEW100 SCT250 16/12 A2967 RMK AO2 SLP047 60000 T01610122 52001 $","updated":"2026-03-27T09:53:36Z"}
