{"icao":"LPFL","metar":"LPFL 221630Z 32016G29KT 280V360 9999 SCT028 16/07 Q1002 WS R36","updated":"2026-04-22T16:57:42Z"}
