{"icao":"LPPD","metar":"LPPD 051100Z 04004KT 9999 FEW025 BKN045 14/07 Q1030","updated":"2026-01-05T11:18:21Z"}
