{"icao":"LPHR","metar":"LPHR 171700Z VRB03KT 9999 FEW010 20/18 Q1023","updated":"2025-11-17T17:17:46Z"}
