{"icao":"LPPS","metar":"LPPS 071700Z 05005KT 360V080 9999 SCT015 SCT030 16/09 Q1033","updated":"2026-01-07T17:25:03Z"}
