{"icao":"LPPT","metar":"LPPT 011800Z 31005KT 270V340 9999 BKN015 18/16 Q1020","updated":"2025-11-01T18:22:26Z"}
