{"icao":"LPMT","metar":"LPMT 201900Z 10002KT CAVOK 21/11 Q1007","updated":"2026-04-20T19:08:14Z"}
