{"icao":"LPMA","metar":"LPMA 281400Z 21005KT 190V260 9999 SCT015 19/08 Q1018","updated":"2025-12-28T14:17:59Z"}
