{"icao":"LPPT","metar":"LPPT 310300Z 05003KT 4000 BR BCFG FEW001 06/06 Q1019","updated":"2025-12-31T03:25:42Z"}
