{"icao":"LPFR","metar":"LPFR 311930Z 26007KT CAVOK 25/20 Q1015","updated":"2026-05-31T19:37:27Z"}
