{"icao":"LPMA","metar":"LPMA 081030Z 01025KT 340V040 9999 FEW016 23/13 Q1025","updated":"2026-06-08T10:51:21Z"}
