{"icao":"LPFR","metar":"LPFR 310500Z 17005KT CAVOK 19/16 Q1015","updated":"2025-10-31T05:18:48Z"}
