{"icao":"LPAZ","metar":"LPAZ 241300Z 15008KT 120V180 9999 FEW025 21/16 Q1024","updated":"2026-05-24T13:23:11Z"}
