{"icao":"KLAX","metar":"KLAX 131553Z VRB03KT 1 1/4SM BR OVC005 13/12 A3005 RMK AO2 SLP174 VIS SW-W 3/4 T01330122 $","updated":"2025-12-13T16:22:28Z"}
