{"icao":"LPPR","metar":"LPPR 030700Z VRB02KT 1400 0900NW R17/1800D PRFG OVC002 14/13 Q1023","updated":"2025-10-03T07:16:46Z"}
