{"icao":"LPBJ","metar":"LPBJ 271500Z 03011KT 360V080 CAVOK 20/06 Q1015","updated":"2026-03-27T15:52:07Z"}
