{"icao":"KJFK","metar":"KJFK 150951Z 35005KT 10SM SCT250 03/M02 A2991 RMK AO2 SLP129 T00281017","updated":"2025-11-15T10:17:20Z"}
