{"icao":"LPBJ","metar":"LPBJ 040700Z 32005KT 4000 1800NW BCFG BKN003 BKN005 12/12 Q1023","updated":"2025-10-04T07:14:33Z"}
