{"icao":"LPMR","metar":"LPMR 092200Z 33003KT 9999 FEW030 11/07 Q1029","updated":"2026-01-09T22:20:03Z"}
