{"icao":"LPPS","metar":"LPPS 050830Z 05005KT 010V080 9999 SCT012 17/14 Q1018","updated":"2026-04-05T08:41:21Z"}
