{"icao":"LPAZ","metar":"LPAZ 311300Z 35010KT 9999 FEW020 20/15 Q1010","updated":"2025-10-31T13:28:29Z"}
