{"icao":"LPPS","metar":"LPPS 271000Z 19014KT 9000 VCSH FEW010 FEW015CB SCT030 23/20 Q1017","updated":"2025-10-27T10:21:25Z"}
