{"icao":"LPPD","metar":"LPPD 302300Z 23012KT 9000 SCT006 BKN035 16/16 Q1019","updated":"2026-01-30T23:24:00Z"}
