{"icao":"LPPD","metar":"LPPD 291030Z 13005KT 090V170 9999 FEW025 21/17 Q1029","updated":"2026-06-29T10:55:19Z"}
