{"icao":"LPLA","metar":"LPLA 051200Z 23021KT 9000 -RA FEW015 SCT018 BKN040 19/17 Q1018","updated":"2025-12-05T12:39:42Z"}
