{"icao":"KJFK","metar":"KJFK 151051Z 35006KT 10SM FEW018 FEW065 SCT210 BKN250 14/12 A2999 RMK AO2 SLP155 T01390117 $","updated":"2025-10-15T11:15:26Z"}
