{"icao":"LPAZ","metar":"LPAZ 201000Z 28016KT 9999 VCSH FEW008 SCT014 BKN022 16/13 Q1027","updated":"2026-01-20T10:26:29Z"}
