{"icao":"LPPD","metar":"LPPD 261500Z 28017KT 9999 FEW025 BKN035 19/12 Q1024","updated":"2026-06-26T15:22:16Z"}
