{"icao":"LPCS","metar":"LPCS 201700Z 36020KT 9999 FEW006 26/15 Q1014","updated":"2026-06-20T17:24:55Z"}
