{"icao":"LPHR","metar":"LPHR 171500Z 29010KT 9999 SCT009 20/19 Q1023","updated":"2025-11-17T15:20:40Z"}
