{"icao":"LPPR","metar":"LPPR 061900Z 19011KT 8000 -RA FEW008 BKN017 16/14 Q1021","updated":"2025-12-06T19:13:54Z"}
