{"icao":"LPMT","metar":"LPMT 031200Z VRB04KT CAVOK 25/15 Q1023","updated":"2025-10-03T12:35:11Z"}
