{"icao":"LPPD","metar":"LPPD 182200Z 13009KT 9999 FEW008 SCT012 BKN035 16/15 Q1015","updated":"2026-04-18T22:33:32Z"}
