{"icao":"LPMR","metar":"LPMR 202200Z 22009KT 5000 BR BKN008 BKN020 19/18 Q1014","updated":"2025-10-20T22:16:05Z"}
