{"icao":"LPFR","metar":"LPFR 192000Z 35004KT CAVOK 13/06 Q1028","updated":"2026-02-19T20:30:34Z"}
