{"icao":"LPFR","metar":"LPFR 292100Z 26013KT 4000 -DZRA BR BKN004 BKN012 16/15 Q1016 RERA","updated":"2026-01-29T21:25:45Z"}
