{"icao":"KORD","metar":"KORD 031851Z VRB03KT 10SM FEW020 FEW200 BKN250 13/06 A3007 RMK AO2 SLP182 T01330056","updated":"2026-04-03T19:37:43Z"}
