{"icao":"KORD","metar":"KORD 180951Z 18012G18KT 7SM -SN BKN015 BKN033 OVC042 M04/M07 A3004 RMK AO2 SLP182 P0000 T10441072 $","updated":"2026-03-18T09:53:46Z"}
