{"icao":"LPPR","metar":"LPPR 262000Z 18023G33KT 5000 -RADZ BR BKN007 BKN012 14/13 Q1000 RERA","updated":"2026-01-26T20:26:34Z"}
