{"icao":"KORD","metar":"KORD 182251Z 25006KT 10SM FEW250 08/M01 A2997 RMK AO2 SLP156 T00781011 $","updated":"2026-03-18T23:29:38Z"}
