{"icao":"LPCS","metar":"LPCS 271600Z 23007KT 9999 FEW022 24/16 Q1018","updated":"2025-10-27T16:23:59Z"}
