{"icao":"LPPR","metar":"LPPR 010430Z VRB02KT CAVOK 06/04 Q1022","updated":"2026-03-01T04:52:05Z"}
