{"icao":"LPST","metar":"LPST 011400Z 32009KT 290V350 CAVOK 21/07 Q1023","updated":"2026-04-01T15:02:30Z"}
