{"icao":"LPCS","metar":"LPCS 131530Z 31022G34KT 9999 VCSH FEW014 FEW022TCU SCT030 11/10 Q1009","updated":"2026-02-13T15:40:23Z"}
