{"icao":"LPPD","metar":"LPPD 281400Z 25023KT 8000 FEW012 SCT040 18/15 Q1008","updated":"2026-01-28T14:28:34Z"}
