{"icao":"KJFK","metar":"KJFK 261351Z 05016KT 10SM BKN019 OVC030 07/03 A3012 RMK SLP198 T00720033 $ ","updated":"2026-04-26T14:41:16Z"}
