{"icao":"LPHR","metar":"LPHR 230800Z 23012KT 9999 FEW020 BKN035 19/12 Q1027","updated":"2025-11-23T08:22:48Z"}
