{"icao":"LPPR","metar":"LPPR 092200Z 16011KT 9999 FEW023 BKN027 16/13 Q1018","updated":"2025-11-09T22:15:42Z"}
