{"icao":"KORD","metar":"KORD 151451Z 08010KT 9SM -DZ OVC009 13/12 A3027 RMK AO2 RAB12E22DZB48 SLP248 P0000 60007 T01330117 50000","updated":"2025-10-15T15:18:09Z"}
