{"icao":"KLAX","metar":"KLAX 090853Z 05006KT 10SM CLR 11/M01 A3021 RMK AO2 SLP227 T01061011 51017 $","updated":"2026-01-09T09:27:10Z"}
