{"icao":"LPST","metar":"LPST 201100Z 13010KT 100V160 CAVOK 23/13 Q1011","updated":"2026-04-20T12:02:44Z"}
