{"icao":"LPPT","metar":"LPPT 091100Z 31010KT 280V340 9999 BKN015 18/15 Q1021","updated":"2025-10-09T11:14:53Z"}
