{"icao":"LPMT","metar":"LPMT 201600Z 09012KT 4000 -DZRA SCT010 BKN022 16/13 Q1006 RMK WIND PK 09017/53 BKN060 GRN","updated":"2026-03-20T16:41:27Z"}
