{"icao":"LPPD","metar":"LPPD 010430Z 29009KT 9999 FEW018 14/11 Q1003","updated":"2026-01-01T04:46:51Z"}
