{"icao":"LPPS","metar":"LPPS 042000Z 15004KT 120V190 9999 FEW004 SCT010 19/17 Q1017","updated":"2026-05-04T20:13:26Z"}
