{"icao":"LPBJ","metar":"LPBJ 011600Z 13003KT 060V180 9999 SCT035 18/10 Q1018","updated":"2026-03-01T16:26:31Z"}
