{"icao":"KJFK","metar":"KJFK 050851Z 00000KT 10SM FEW250 17/16 A3024 RMK AO2 SLP241 T01670156 53006","updated":"2025-10-05T09:15:45Z"}
