{"icao":"LPPS","metar":"LPPS 220800Z 09007KT 060V130 9999 SCT015 SCT030 16/11 Q1025","updated":"2026-02-22T08:30:48Z"}
