{"icao":"KJFK","metar":"KJFK 040651Z 16006KT 8SM BKN120 BKN250 10/09 A3010 RMK AO2 SLP194 T01000094","updated":"2026-04-04T07:01:05Z"}
