{"icao":"LPAZ","metar":"LPAZ 041800Z 04011KT 010V070 9999 SCT022 BKN049 16/11 Q1023","updated":"2026-05-04T18:13:17Z"}
