{"icao":"LPPR","metar":"LPPR 241100Z 09003KT 010V160 9999 FEW011 SCT034 19/15 Q1016","updated":"2025-10-24T11:15:41Z"}
