{"icao":"LPPR","metar":"LPPR 200800Z 20006KT 3000 -RA BR FEW006 BKN020 16/15 Q1013","updated":"2025-10-20T08:24:46Z"}
