{"icao":"LPPT","metar":"LPPT 150500Z 06002KT CAVOK 17/11 Q1016","updated":"2025-10-15T05:17:16Z"}
