{"icao":"LPFR","metar":"LPFR 301100Z 20008KT 170V230 CAVOK 24/17 Q1020","updated":"2026-05-30T11:18:29Z"}
