{"icao":"KORD","metar":"KORD 151359Z 07009KT 10SM SCT009 BKN016 OVC023 13/12 A3028 RMK AO2 T01330117","updated":"2025-10-15T14:19:07Z"}
