{"icao":"KORD","metar":"KORD 230951Z 33010KT 10SM -SN SCT028 BKN039 M07/M12 A3040 RMK AO2 SNB49 SLP305 P0000 T10721117 $","updated":"2026-02-23T09:54:25Z"}
