{"icao":"KLAX","metar":"KLAX 071853Z 04015G23KT 10SM FEW120 23/M06 A3005 RMK AO2 PK WND 04031/1804 SLP175 T02331056 $","updated":"2026-03-07T19:20:49Z"}
