{"icao":"LPHR","metar":"LPHR 280800Z 07009KT 040V100 9999 FEW020 SCT035 20/15 Q1027","updated":"2025-09-28T08:19:57Z"}
