{"icao":"KLAX","metar":"KLAX 280153Z 23010KT 10SM FEW020 FEW060 16/08 A3001 RMK AO2 SLP160 T01610083","updated":"2026-04-28T02:47:24Z"}
