{"icao":"LPMT","metar":"LPMT 030700Z 04003KT CAVOK 08/08 Q1023","updated":"2025-11-03T07:18:12Z"}
