{"icao":"LPPT","metar":"LPPT 190300Z 27004KT 9999 FEW015 11/10 Q1017","updated":"2025-11-19T03:10:29Z"}
