{"icao":"KLAX","metar":"KLAX 200118Z 25004KT 4SM BR BCFG FEW000 FEW003 SCT250 15/14 A2999 RMK AO2 VIS W-N 1 1/2 FG FEW000 FG BANK W-N T01500139","updated":"2025-12-20T01:24:49Z"}
