{"icao":"LPLA","metar":"LPLA 181500Z 13012KT 9000 SCT006 SCT012 BKN016 17/16 Q1015","updated":"2026-04-18T15:36:07Z"}
