{"icao":"LPBJ","metar":"LPBJ 070300Z 29006KT CAVOK 14/12 Q1019","updated":"2026-06-07T03:45:50Z"}
