{"icao":"LPBJ","metar":"LPBJ 091300Z 22015KT 190V250 9999 FEW020 SCT030 20/08 Q1007","updated":"2026-05-09T13:14:39Z"}
