{"icao":"LPPT","metar":"LPPT 151700Z 24011KT 220V280 9999 FEW028 FEW030CB 17/12 Q1008","updated":"2025-11-15T17:13:44Z"}
