{"icao":"LPBJ","metar":"LPBJ 101300Z 23004KT 180V280 9999 FEW020 SCT023 20/13 Q1019","updated":"2025-11-10T13:30:19Z"}
