{"icao":"LPAZ","metar":"LPAZ 080530Z 34005KT 310V010 9999 SCT003 BKN025 19/18 Q1031","updated":"2026-06-08T05:48:31Z"}
