{"icao":"KJFK","metar":"KJFK 181651Z 03005KT 1 1/2SM -SN BR FEW004 OVC010 01/00 A3001 RMK AO2 SFC VIS 2 PRESFR SLP162 P0000 T00060000 $","updated":"2026-01-18T17:17:12Z"}
