{"icao":"KORD","metar":"KORD 180151Z 16009KT 8SM -TSRA BKN049CB BKN070 BKN100 OVC130 23/18 A2962 RMK AO2 PK WND 18028/0054 SLP027 FRQ LTGICCG OHD RAB31 TSB31 TS OHD MOV NE P0001 T02330183 $","updated":"2026-04-18T02:17:12Z"}
