{"icao":"LPMT","metar":"LPMT 131900Z 25009KT CAVOK 23/18 Q1016","updated":"2026-06-13T20:13:44Z"}
