{"icao":"KORD","metar":"KORD 211451Z 16005KT 9SM BKN120 BKN250 12/05 A2992 RMK AO2 SLP134 T01170050 58000","updated":"2026-03-21T15:24:43Z"}
