{"icao":"LPAR","metar":"LPAR 161500Z 34006KT 290V020 CAVOK 25/11 Q1019","updated":"2026-04-16T15:24:26Z"}
