{"icao":"LPMR","metar":"LPMR 191300Z 35008KT 9999 FEW017 BKN045 13/07 Q1021","updated":"2026-01-19T13:43:50Z"}
