{"icao":"LPFL","metar":"LPFL 011730Z 12006KT 090V150 9999 FEW010 SCT015 BKN028 22/18 Q1031","updated":"2026-07-01T17:53:37Z"}
