{"icao":"LPFL","metar":"LPFL 251500Z 17013G24KT 150V210 9999 VCSH SCT017 BKN026 23/19 Q1008","updated":"2025-09-25T15:18:45Z"}
