{"icao":"LPAR","metar":"LPAR 281000Z 16009KT 9999 FEW015 BKN025 22/19 Q1014","updated":"2025-10-28T10:20:30Z"}
