{"icao":"KJFK","metar":"KJFK 110251Z 26006KT 10SM BKN065 BKN085 OVC110 16/13 A3000 RMK AO2 SLP157 60000 T01610133 50012 $","updated":"2026-05-11T02:58:34Z"}
