{"icao":"LPPR","metar":"LPPR 031630Z 30009KT 270V340 9999 BKN018 16/11 Q1013","updated":"2026-05-03T16:49:12Z"}
