{"icao":"KORD","metar":"KORD 252051Z 09008KT 10SM BKN070 OVC090 12/03 A3033 RMK AO2 SLP276 T01170028 55010 $","updated":"2025-10-25T21:15:05Z"}
