{"icao":"LPAZ","metar":"LPAZ 261600Z 06016G26KT 030V090 9999 FEW011 BKN015 FEW025TCU 18/16 Q1017","updated":"2025-10-26T16:20:12Z"}
