{"icao":"LPCS","metar":"LPCS 030830Z 01005KT 340V060 CAVOK 14/10 Q1022","updated":"2026-04-03T08:52:36Z"}
