{"icao":"LPAR","metar":"LPAR 221100Z 17006KT 130V210 9999 SCT030 18/10 Q1015","updated":"2026-04-22T11:17:26Z"}
