{"icao":"LPFR","metar":"LPFR 181000Z 04008KT CAVOK 18/10 Q1019","updated":"2025-11-18T10:21:36Z"}
