{"icao":"LPCS","metar":"LPCS 221800Z 36016KT CAVOK 18/10 Q1018","updated":"2025-09-22T18:24:11Z"}
