{"icao":"LPPT","metar":"LPPT 230800Z 04009KT 360V080 CAVOK 17/04 Q1019","updated":"2025-09-23T08:22:48Z"}
