{"icao":"LPST","metar":"LPST 261600Z 27008KT CAVOK 18/14 Q1023","updated":"2026-02-26T16:57:00Z"}
