{"icao":"LPMA","metar":"LPMA 230700Z 01017G29KT 330V040 9999 FEW015 18/14 Q1022","updated":"2026-05-23T07:30:20Z"}
