{"icao":"LPMR","metar":"LPMR 110300Z 16008KT 9999 FEW020 16/14 Q1014","updated":"2025-11-11T03:12:30Z"}
