{"icao":"LPFR","metar":"LPFR 051630Z 25018KT 7000 FEW025 16/13 Q1003","updated":"2026-02-05T16:45:35Z"}
