{"icao":"LPLA","metar":"LPLA 210700Z 29022KT 7000 -RA FEW018 SCT025 12/10 Q1008","updated":"2026-04-21T07:47:55Z"}
