{"icao":"LPPD","metar":"LPPD 210500Z 23011KT 7000 SCT006 SCT011 BKN030 22/22 Q1014","updated":"2025-10-21T05:17:36Z"}
