{"icao":"LPPS","metar":"LPPS 232200Z 03011KT 360V060 9999 FEW015 21/12 Q1021","updated":"2025-09-23T22:15:48Z"}
