{"icao":"LPLA","metar":"LPLA 220700Z 15009KT 7000 0900SE -DZ PRFG SCT003 16/16 Q1015","updated":"2026-05-22T07:42:54Z"}
