{"icao":"LPFR","metar":"LPFR 050500Z 30008KT CAVOK 16/08 Q1015","updated":"2026-06-05T05:14:59Z"}
