{"icao":"LPMA","metar":"LPMA 151600Z 11003KT 070V140 9999 FEW015 BKN025 17/11 Q1024","updated":"2026-01-15T16:33:57Z"}
