{"icao":"LPMA","metar":"LPMA 020500Z 01012KT 310V030 8000 -SHRA BKN015 FEW018CB 15/12 Q0997 RESHRA","updated":"2026-01-02T05:24:37Z"}
