{"icao":"KORD","metar":"KORD 192251Z 33011G21KT 10SM SCT060 BKN085 BKN250 08/M04 A3013 RMK AO2 SLP209 VIRGA T00831039 $","updated":"2026-04-19T23:34:52Z"}
