{"icao":"KLAX","metar":"KLAX 301653Z 27006KT 8SM FEW020 SCT025 BKN045 21/15 A3004 RMK AO2 SLP172 T02060150 $","updated":"2025-09-30T17:16:09Z"}
