{"icao":"KJFK","metar":"KJFK 141151Z 30009KT 10SM FEW032 FEW110 05/M01 A3010 RMK AO2 SLP192 70002 T00501011 10067 20044 53018","updated":"2025-11-14T12:38:13Z"}
