{"icao":"LPMA","metar":"LPMA 162200Z 11007KT 060V150 9999 SCT014 17/13 Q1029","updated":"2026-02-16T22:27:33Z"}
