{"icao":"LPPR","metar":"LPPR 140700Z VRB03KT 5000 BR BKN002 BKN012 18/18 Q1023","updated":"2025-09-14T07:14:44Z"}
