{"icao":"KJFK","metar":"KJFK 050551Z 28010KT 10SM SCT048 M01/M08 A3019 RMK AO2 SLP222 BKN V SCT T10061083 11006 21017 53003 $","updated":"2026-01-05T06:37:38Z"}
