{"icao":"LPMA","metar":"LPMA 120430Z 26003KT 200V310 9999 BKN015 15/13 Q1022","updated":"2026-01-12T04:49:34Z"}
