{"icao":"KJFK","metar":"KJFK 101851Z 33017KT 5SM +RA BR FEW013 BKN022 BKN120 10/09 A2956 RMK AO2 SLP011 VIS E-S 2 1/2 P0002 T01000089","updated":"2025-11-10T19:15:35Z"}
