{"icao":"LPMA","metar":"LPMA 140530Z 29008KT 250V050 9999 FEW015 18/14 Q1021","updated":"2026-06-14T05:47:20Z"}
