{"icao":"LPBJ","metar":"LPBJ 120400Z 09003KT CAVOK 09/06 Q1025","updated":"2026-03-12T04:45:39Z"}
