{"icao":"LPFR","metar":"LPFR 161900Z 07005KT CAVOK 18/06 Q1016","updated":"2026-03-16T19:15:30Z"}
