{"icao":"LPFR","metar":"LPFR 220000Z 16004KT CAVOK 22/21 Q1017","updated":"2026-06-22T00:10:16Z"}
