{"icao":"LPPD","metar":"LPPD 061100Z 23007KT 4000 BR SCT002 BKN005 17/16 Q1025","updated":"2026-06-06T11:24:29Z"}
