{"icao":"LPPR","metar":"LPPR 140630Z 36005KT 340V050 9999 FEW012 10/09 Q1017","updated":"2026-05-14T06:44:43Z"}
