{"icao":"LPFL","metar":"LPFL 281230Z 23016G30KT 140V310 9000 -RA FEW007 BKN011 19/16 Q1001","updated":"2026-01-28T12:48:10Z"}
