{"icao":"LPPS","metar":"LPPS 221900Z 07008KT 9999 FEW015 21/14 Q1021","updated":"2025-09-22T19:14:06Z"}
