{"icao":"LPFR","metar":"LPFR 250300Z 28003KT CAVOK 06/04 Q1008","updated":"2025-12-25T03:25:17Z"}
