{"icao":"KJFK","metar":"KJFK 221651Z 18014KT 10SM BKN005 OVC015 08/07 A2980 RMK AO2 DZE43 SLP090 P0000 T00830067 $","updated":"2026-03-22T17:24:08Z"}
