{"icao":"LPPR","metar":"LPPR 260500Z 18016KT 4000 RA BR BKN004 13/12 Q1008","updated":"2026-01-26T05:32:02Z"}
