{"icao":"LPHR","metar":"LPHR 101000Z 27006KT 1200 -RADZ BR SCT001 BKN003 16/16 Q1021","updated":"2026-01-10T10:19:54Z"}
