{"icao":"LPFR","metar":"LPFR 221400Z 08006KT CAVOK 17/M02 Q1027","updated":"2025-11-22T14:15:20Z"}
