{"icao":"LPMA","metar":"LPMA 030300Z 33005KT 270V010 9999 SCT015 15/11 Q0996","updated":"2026-01-03T03:21:12Z"}
