{"icao":"LPOV","metar":"LPOV 122000Z 33002KT CAVOK 19/06 Q1016","updated":"2025-10-12T20:17:52Z"}
