{"icao":"LPLA","metar":"LPLA 071100Z 18011KT 9999 FEW030 BKN040 16/09 Q1033","updated":"2026-01-07T11:19:15Z"}
