{"icao":"KJFK","metar":"KJFK 311851Z 19015KT 10SM FEW080 SCT090 BKN190 BKN250 20/09 A2994 RMK AO2 SLP137 T02000089 $","updated":"2026-05-31T19:37:45Z"}
