{"icao":"KLAX","metar":"KLAX 081253Z 00000KT 10SM CLR 14/07 A3015 RMK AO2 SLP206 T01390067 $","updated":"2026-02-08T13:43:05Z"}
