{"icao":"LPFL","metar":"LPFL 282000Z 22011G22KT 170V270 5000 -RA SCT015 FEW016CB 18/14 Q1009 RERA WS R18","updated":"2026-05-28T23:14:17Z"}
