{"icao":"LPPS","metar":"LPPS 162330Z 05009KT 020V080 9999 SCT015 SCT030 16/10 Q1021","updated":"2026-04-16T23:39:02Z"}
