{"icao":"LPCS","metar":"LPCS 051730Z 25017G27KT 9999 FEW016 SCT025 15/13 Q0999","updated":"2026-02-05T17:45:29Z"}
