{"icao":"LPPD","metar":"LPPD 061700Z 29014KT 2000 -DZ BR SCT001 BKN003 18/18 Q1024","updated":"2026-06-06T17:12:01Z"}
