{"icao":"LPPR","metar":"LPPR 130830Z 30015G27KT 270V330 9999 VCSH FEW015 BKN020 FEW022CB 13/09 Q0998","updated":"2026-02-13T08:40:27Z"}
