{"icao":"LPPR","metar":"LPPR 070200Z 13007KT CAVOK 16/13 Q1011","updated":"2026-04-07T02:13:50Z"}
