{"icao":"LPFR","metar":"LPFR 261900Z 02004KT CAVOK 14/07 Q1023","updated":"2025-11-26T19:14:26Z"}
