{"icao":"LPFR","metar":"LPFR 292230Z 29009KT CAVOK 17/10 Q1014","updated":"2026-04-29T22:55:11Z"}
