{"icao":"KORD","metar":"KORD 090551Z 20013G25KT 10SM FEW240 11/03 A2977 RMK AO2 PK WND 21028/0508 SLP082 T01060033 10156 20106 401670006 50001 $","updated":"2026-03-09T05:56:26Z"}
