{"icao":"LPPR","metar":"LPPR 010600Z 14003KT 110V180 9000 -RA FEW006 SCT012 BKN035 14/14 Q1014 RERA","updated":"2025-11-01T06:24:25Z"}
