{"icao":"LPAZ","metar":"LPAZ 300630Z 26011KT 8000 FEW004 16/15 Q1019","updated":"2026-01-30T06:46:25Z"}
