{"icao":"LPOV","metar":"LPOV 241500Z 34007KT 9999 SCT014 SCT030 11/09 Q1010","updated":"2026-01-24T15:19:06Z"}
