{"icao":"LPOV","metar":"LPOV 110800Z 18004KT 9999 FEW020 07/07 Q1020","updated":"2025-12-11T08:28:18Z"}
