{"icao":"LPAR","metar":"LPAR 071500Z 30003KT 240V360 7000 VCSH SCT015 BKN028 19/17 Q1015","updated":"2025-11-07T15:18:35Z"}
