{"icao":"LPCS","metar":"LPCS 210700Z 36012KT CAVOK 15/12 Q1021","updated":"2025-09-21T07:14:10Z"}
