{"icao":"LPFL","metar":"LPFL 272000Z 18007KT 140V230 3500 -RADZ FEW008 SCT010 FEW013TCU 17/15 Q1031","updated":"2026-02-27T20:26:40Z"}
