{"icao":"LPPS","metar":"LPPS 290000Z 05012KT 020V080 9999 FEW012 21/17 Q1025","updated":"2026-06-29T00:07:30Z"}
