{"icao":"LPMT","metar":"LPMT 180500Z VRB03KT CAVOK 14/11 Q1015","updated":"2025-10-18T05:15:55Z"}
