{"icao":"LPPR","metar":"LPPR 140800Z 36001KT 7000 -RADZ FEW007 SCT012 BKN015 11/10 Q1017","updated":"2026-03-14T08:33:53Z"}
