{"icao":"LPAZ","metar":"LPAZ 291800Z 19012KT 9999 FEW009 20/18 Q1024","updated":"2026-05-29T18:30:43Z"}
