{"icao":"LPMR","metar":"LPMR 070800Z VRB02KT 4000 BR SCT003 BKN008 16/16 Q1022","updated":"2025-10-07T08:23:47Z"}
