{"icao":"KLAX","metar":"KLAX 230853Z 25006KT 10SM FEW015 BKN090 14/13 A2994 RMK AO2 SLP139 T01440128 58007 $","updated":"2026-01-23T09:28:43Z"}
