{"icao":"LPMA","metar":"LPMA 020600Z 30008KT 240V360 9999 BKN015 FEW018CB 15/11 Q0997","updated":"2026-01-02T06:31:42Z"}
