{"icao":"LPPR","metar":"LPPR 260800Z 34004KT CAVOK 06/05 Q1027","updated":"2025-11-26T08:26:17Z"}
