{"icao":"KJFK","metar":"KJFK 020951Z 02006KT 10SM FEW037 FEW055 12/07 A3041 RMK AO2 SLP297 T01220067","updated":"2025-10-02T10:17:33Z"}
