{"icao":"LPAZ","metar":"LPAZ 051400Z 03013KT 360V060 9999 FEW020 18/10 Q1026","updated":"2026-05-05T14:18:38Z"}
