{"icao":"LPPD","metar":"LPPD 110430Z 23018KT 5000 BR SCT004 BKN007 16/16 Q1012","updated":"2026-02-11T05:01:35Z"}
