{"icao":"KORD","metar":"KORD 260551Z 31010KT 10SM FEW032 BKN047 M14/M23 A3018 RMK AO2 SLP235 4/004 60000 T11441228 11122 21144 411001150 51013 $","updated":"2026-01-26T06:36:02Z"}
