{"icao":"LPPD","metar":"LPPD 270830Z 01008KT 9999 FEW018 13/07 Q1034","updated":"2026-02-27T08:38:49Z"}
