{"icao":"LPPD","metar":"LPPD 051500Z 24010KT 9999 FEW020 18/11 Q1018","updated":"2025-11-05T15:19:06Z"}
