{"icao":"KLAX","metar":"KLAX 142015Z 08011KT 8SM BKN011 OVC038 17/15 A2997 RMK AO2 RAB1955E12 BKN V SCT P0000 T01670150 $","updated":"2025-11-14T20:20:32Z"}
