{"icao":"LPLA","metar":"LPLA 280400Z 35015KT 9999 SCT022 BKN030 18/11 Q1018","updated":"2025-10-28T04:21:13Z"}
