{"icao":"KORD","metar":"KORD 160751Z 23006KT 10SM FEW150 BKN220 04/M02 A2994 RMK AO2 SLP139 T00441022","updated":"2026-02-16T08:46:03Z"}
