{"icao":"LPMA","metar":"LPMA 152130Z 36005KT 280V080 9999 SCT016 17/11 Q1023","updated":"2026-05-15T21:58:31Z"}
