{"icao":"KLAX","metar":"KLAX 041217Z 00000KT 9SM BKN009 BKN019 OVC075 14/13 A3001 RMK AO2 T01390128","updated":"2026-01-04T12:38:27Z"}
