{"icao":"LPLA","metar":"LPLA 050800Z VRB01KT 9999 FEW020 SCT030 10/09 Q1029","updated":"2026-01-05T08:31:48Z"}
