{"icao":"LPLA","metar":"LPLA 030110Z 25018KT 8000 -RA FEW013 SCT035 17/14 Q1007 RERA","updated":"2026-02-03T02:02:50Z"}
