{"icao":"LPPT","metar":"LPPT 171000Z 07004KT 040V100 CAVOK 21/13 Q1015","updated":"2025-10-17T10:19:00Z"}
