{"icao":"LPMA","metar":"LPMA 041130Z 01011KT 300V030 9999 FEW013 23/18 Q1023","updated":"2026-06-04T11:51:59Z"}
