{"icao":"LPLA","metar":"LPLA 031900Z 24010KT 210V270 9999 FEW014 17/15 Q1026","updated":"2025-12-03T19:17:03Z"}
