{"icao":"LPAZ","metar":"LPAZ 042000Z 06009KT 9999 SCT022 BKN049 15/10 Q1023","updated":"2026-05-04T20:13:12Z"}
