{"icao":"LPPR","metar":"LPPR 021330Z 23012KT 190V260 8000 -SHRA FEW015 FEW018TCU BKN030 12/06 Q0993","updated":"2026-02-02T14:03:33Z"}
