{"icao":"LPOV","metar":"LPOV 011900Z 32007KT CAVOK 17/11 Q1018","updated":"2026-05-01T22:48:41Z"}
