{"icao":"LPCS","metar":"LPCS 151130Z 34008KT 300V010 9999 FEW016 BKN022 16/11 Q1025","updated":"2026-04-15T11:57:54Z"}
