{"icao":"LPMA","metar":"LPMA 072000Z 01011KT 340V040 9999 SCT015 23/18 Q1025","updated":"2025-10-07T20:19:33Z"}
