{"icao":"LPMR","metar":"LPMR 241400Z 26012KT 230V310 1500 RADZ BR OVC004 17/16 Q1014","updated":"2025-11-24T14:19:04Z"}
