{"icao":"LPMT","metar":"LPMT 081600Z 34011KT CAVOK 26/15 Q1021","updated":"2026-06-08T17:50:51Z"}
