{"icao":"LPMR","metar":"LPMR 241300Z 27008KT 240V310 CAVOK 22/15 Q1020","updated":"2026-05-24T13:22:56Z"}
