{"icao":"LPPD","metar":"LPPD 212000Z 02015G25KT 340V060 9999 BKN016 FEW018TCU 14/11 Q1015 WS R30","updated":"2026-03-21T20:25:25Z"}
