{"icao":"KJFK","metar":"KJFK 131351Z 19008KT 10SM SCT019 BKN160 12/09 A3012 RMK AO2 SLP200 T01170094","updated":"2026-04-13T14:47:10Z"}
