{"icao":"KJFK","metar":"KJFK 060451Z 36006KT 10SM SCT023 BKN035 OVC050 01/M03 A3000 RMK AO2 SLP157 T00111028 400111067 $","updated":"2025-12-06T05:18:19Z"}
