{"icao":"KLAX","metar":"KLAX 011353Z 10003KT 9SM FEW030 SCT250 14/12 A2996 RMK AO2 SLP143 T01390122","updated":"2026-03-01T14:22:49Z"}
