{"icao":"KLAX","metar":"KLAX 180253Z 27007KT 8SM FEW050 16/13 A2974 RMK AO2 SLP071 T01610128 53001","updated":"2026-05-18T03:51:59Z"}
