{"icao":"LPAZ","metar":"LPAZ 171600Z 22011KT 5000 -RA FEW003 SCT008 BKN022 18/17 Q1025","updated":"2025-11-17T16:25:43Z"}
