{"icao":"LPPS","metar":"LPPS 192200Z 08021KT 9999 FEW015 19/13 Q1007","updated":"2026-04-19T22:33:58Z"}
