{"icao":"LPLA","metar":"LPLA 080100Z 20011G23KT 170V240 9999 FEW015 BKN022 16/13 Q1030","updated":"2026-01-08T01:41:04Z"}
