{"icao":"LPFL","metar":"LPFL 011900Z 17005KT 120V210 9999 FEW009 24/20 Q1018","updated":"2025-10-01T19:14:02Z"}
