{"icao":"LPBJ","metar":"LPBJ 191900Z 33005KT CAVOK 11/05 Q1028","updated":"2026-02-19T19:37:36Z"}
