{"icao":"LPOV","metar":"LPOV 030900Z 16007KT 9999 SCT007 SCT020 BKN032 15/15 Q1014","updated":"2026-05-03T10:02:34Z"}
