{"icao":"LPFL","metar":"LPFL 191530Z VRB06KT 9999 FEW018 19/11 Q1016","updated":"2026-02-19T15:47:09Z"}
