{"icao":"KJFK","metar":"KJFK 052251Z 20013KT 10SM FEW060 BKN210 BKN250 16/09 A2966 RMK AO2 SLP045 T01560094","updated":"2025-11-05T23:17:37Z"}
