{"icao":"KLAX","metar":"KLAX 021053Z 24005KT 7SM OVC007 15/13 A2993 RMK AO2 SLP133 T01500133","updated":"2026-05-02T11:43:25Z"}
