{"icao":"LPPT","metar":"LPPT 091800Z 33010KT CAVOK 20/14 Q1019","updated":"2025-10-09T18:25:32Z"}
