{"icao":"LPCS","metar":"LPCS 041000Z 02010KT CAVOK 14/11 Q1002","updated":"2026-01-04T10:19:15Z"}
