{"icao":"KLAX","metar":"KLAX 060853Z 01003KT 10SM CLR 18/16 A2981 RMK AO2 SLP090 T01780156 58003 $","updated":"2025-10-06T09:21:05Z"}
