{"icao":"LPFR","metar":"LPFR 270400Z 02006KT CAVOK 10/08 Q1022","updated":"2026-02-27T04:18:12Z"}
