{"icao":"KORD","metar":"KORD 092251Z 29016G26KT 10SM FEW090 SCT150 SCT250 22/01 A2968 RMK AO2 PK WND 30027/2235 SLP047 T02220011","updated":"2026-05-09T23:46:11Z"}
