{"icao":"LPBJ","metar":"LPBJ 252000Z 32004KT CAVOK 09/04 Q1023","updated":"2025-11-25T20:21:14Z"}
