{"icao":"LPPT","metar":"LPPT 301800Z 33009KT 9999 FEW020 12/06 Q1019","updated":"2025-11-30T18:25:30Z"}
