{"icao":"LPPS","metar":"LPPS 101930Z 02014KT 9999 SCT015 19/15 Q1021","updated":"2026-06-10T19:38:38Z"}
