{"icao":"KLAX","metar":"KLAX 302053Z 24003KT 10SM SCT280 28/M02 A3016 RMK AO2 SLP212 T02781017 58030 $","updated":"2026-01-30T21:27:17Z"}
