{"icao":"LPLA","metar":"LPLA 222100Z 21014G29KT 180V240 9999 FEW020 22/19 Q1012","updated":"2025-10-22T21:13:26Z"}
