{"icao":"LPFR","metar":"LPFR 181930Z VRB01KT CAVOK 17/16 Q1015","updated":"2026-04-18T19:39:50Z"}
