{"icao":"LPFR","metar":"LPFR 071800Z 06003KT 010V110 9999 FEW025 13/10 Q1027","updated":"2026-01-07T18:31:12Z"}
