{"icao":"LPPD","metar":"LPPD 021300Z 20006KT 9999 FEW015 23/20 Q1022","updated":"2025-10-02T13:25:15Z"}
