{"icao":"LPPD","metar":"LPPD 081230Z 24019KT 0300 R30/0175N FG VV000 17/16 Q1014","updated":"2026-02-08T12:47:24Z"}
