{"icao":"LPMA","metar":"LPMA 290500Z 36012KT 9999 SCT015 21/15 Q1022","updated":"2025-09-29T05:17:51Z"}
