{"icao":"LPST","metar":"LPST 241100Z 17017G27KT 9999 FEW008 SCT014 14/11 Q1018","updated":"2026-02-24T11:39:19Z"}
