{"icao":"LPPS","metar":"LPPS 280830Z 02013KT 350V050 9999 BKN014 15/11 Q1023","updated":"2026-03-28T08:37:28Z"}
