{"icao":"KORD","metar":"KORD 230351Z 18005KT 10SM OVC025 06/M03 A2999 RMK AO2 SLP158 T00611033","updated":"2025-12-23T04:36:26Z"}
