{"icao":"LPOV","metar":"LPOV 080400Z 33012KT 9999 SCT030 BKN040 11/06 Q1010","updated":"2026-02-08T05:01:44Z"}
