{"icao":"LPFL","metar":"LPFL 212000Z 23005KT 150V300 9999 FEW022 15/10 Q1024","updated":"2025-12-21T20:20:32Z"}
