{"icao":"LPAZ","metar":"LPAZ 281600Z 07009KT 030V110 9999 FEW017 BKN020 16/11 Q1032","updated":"2026-03-28T16:32:46Z"}
