{"icao":"LPPT","metar":"LPPT 022200Z 13011KT 9999 -RA SCT024 13/12 Q0999","updated":"2026-01-02T22:18:54Z"}
