{"icao":"LPPR","metar":"LPPR 291330Z 15006KT 9999 FEW030 15/07 Q1019","updated":"2025-12-29T13:36:08Z"}
