{"icao":"KJFK","metar":"KJFK 192051Z 17018G25KT 10SM FEW015 SCT180 BKN250 19/16 A2989 RMK AO2 PK WND 17028/2038 SLP120 T01940161 58017 $","updated":"2025-10-19T21:14:50Z"}
