{"icao":"KLAX","metar":"KLAX 252053Z 27005KT 5SM HZ SCT011 OVC016 18/14 A3002 RMK AO2 SLP163 T01830144 58015 $","updated":"2025-10-25T21:15:05Z"}
