{"icao":"LPMT","metar":"LPMT 020900Z 16017KT 8000 -RA FEW015 SCT025 BKN040 16/13 Q1002 RERA","updated":"2026-01-02T09:23:31Z"}
