{"icao":"LPCS","metar":"LPCS 051100Z 28008KT 250V310 5000 -DZ BR FEW004 SCT008 BKN014 17/17 Q1023","updated":"2025-12-05T11:17:45Z"}
