{"icao":"KJFK","metar":"KJFK 261351Z 33009KT 10SM BKN012 BKN015 OVC025 M06/M08 A2981 RMK AO2 SLP095 T10611083 $","updated":"2026-01-26T14:27:48Z"}
