{"icao":"LPMR","metar":"LPMR 131400Z 32008KT 9999 FEW032 25/13 Q1015","updated":"2025-10-13T14:18:37Z"}
