{"icao":"LPMT","metar":"LPMT 220100Z 29011KT 260V320 9999 SCT030 14/07 Q1009","updated":"2026-01-22T01:44:11Z"}
