{"icao":"LPPT","metar":"LPPT 201300Z 33009KT 270V010 9999 FEW014 FEW032CB 25/18 Q1020","updated":"2025-09-20T13:20:48Z"}
