{"icao":"LPMT","metar":"LPMT 050900Z 36005KT 310V020 9999 BKN018 14/11 Q1016","updated":"2026-03-05T09:41:17Z"}
