{"icao":"KLAX","metar":"KLAX 010753Z 28007KT 10SM BKN016 OVC038 18/14 A2991 RMK AO2 SLP127 T01780144 402170178 $","updated":"2026-07-01T08:11:24Z"}
