{"icao":"KORD","metar":"KORD 231251Z 32010G18KT 10SM FEW022 FEW250 M23/M31 A3056 RMK AO2 SLP367 T12281306","updated":"2026-01-23T13:41:36Z"}
