{"icao":"LPPS","metar":"LPPS 191700Z 31011KT 9999 SCT006 SCT030 23/21 Q1018","updated":"2025-10-19T17:14:16Z"}
