{"icao":"KJFK","metar":"KJFK 181351Z 13014KT 10SM FEW009 FEW020 SCT250 15/10 A3007 RMK AO2 SLP184 T01500100","updated":"2026-04-18T14:03:42Z"}
