{"icao":"KJFK","metar":"KJFK 281751Z 01015G28KT 10SM SCT065 BKN110 BKN190 21/09 A2985 RMK AO2 PK WND 34035/1734 SLP107 VCSH E AND S T02060094 10250 20206 55002 $","updated":"2026-05-28T18:34:52Z"}
