{"icao":"KLAX","metar":"KLAX 140910Z 24005KT 10SM OVC014 20/17 A2987 RMK AO2 T02000172 $","updated":"2025-09-14T09:15:50Z"}
