{"icao":"LPLA","metar":"LPLA 111900Z VRB04KT 9999 SCT045 14/06 Q1033","updated":"2026-04-11T19:33:48Z"}
