{"icao":"LPCS","metar":"LPCS 150600Z 36010KT 9999 FEW007 17/15 Q1016","updated":"2026-06-15T06:21:40Z"}
