{"icao":"LPPS","metar":"LPPS 221600Z 06017KT 030V090 9999 SCT015 19/11 Q1025","updated":"2025-11-22T16:21:06Z"}
