{"icao":"KORD","metar":"KORD 201051Z 19013G23KT 10SM OVC180 M01/M08 A2973 RMK AO2 SLP077 T10061078","updated":"2025-12-20T11:15:19Z"}
