{"icao":"KLAX","metar":"KLAX 070853Z 25004KT 10SM BKN250 14/12 A3017 RMK AO2 SLP213 T01440122 50001 $","updated":"2026-02-07T09:30:04Z"}
