{"icao":"LPAZ","metar":"LPAZ 151100Z 24009KT 9999 SCT020 23/18 Q1010","updated":"2025-10-15T11:15:21Z"}
