{"icao":"LPCS","metar":"LPCS 192000Z 33003KT 300V020 CAVOK 18/10 Q1015","updated":"2026-04-19T20:36:10Z"}
