{"icao":"LPMR","metar":"LPMR 282300Z VRB01KT CAVOK 12/08 Q1027","updated":"2026-03-28T23:29:28Z"}
