{"icao":"LPPS","metar":"LPPS 280100Z 02009KT 9999 SCT014 22/18 Q1024","updated":"2025-09-28T01:25:38Z"}
