{"icao":"LPOV","metar":"LPOV 120900Z 01004KT 340V070 9999 OVC010 12/11 Q1028","updated":"2026-03-12T09:40:57Z"}
