{"icao":"LPPD","metar":"LPPD 141800Z 35007KT 310V010 9999 FEW008 SCT025 17/15 Q1021","updated":"2025-12-14T18:26:37Z"}
