{"icao":"KLAX","metar":"KLAX 060553Z 17003KT 10SM FEW020 FEW150 16/12 A3003 RMK AO2 SLP169 T01560117 10178 20156 51019","updated":"2026-05-06T05:56:54Z"}
