{"icao":"LPPS","metar":"LPPS 042100Z 35016KT 9999 FEW014 14/10 Q1023","updated":"2026-03-04T21:32:59Z"}
