{"icao":"KORD","metar":"KORD 201651Z 26009KT 10SM FEW025 FEW250 M11/M19 A3037 RMK AO2 SLP300 T11111194 $","updated":"2026-01-20T17:28:16Z"}
