{"icao":"LPBJ","metar":"LPBJ 171600Z 07004KT 020V140 CAVOK 28/11 Q1016","updated":"2026-04-17T17:01:45Z"}
