{"icao":"KORD","metar":"KORD 182151Z 00000KT 10SM SCT042 BKN110 BKN200 OVC250 22/17 A2963 RMK AO2 SLP029 T02170167 $","updated":"2025-10-18T22:15:44Z"}
