{"icao":"LPMR","metar":"LPMR 161600Z 28006KT 240V300 8000 -SHRA SCT018 FEW020CB BKN045 14/13 Q1009 RESHRA","updated":"2025-11-16T16:20:03Z"}
