{"icao":"LPPR","metar":"LPPR 171130Z 28005KT 230V330 9999 FEW003 21/16 Q1018","updated":"2026-06-17T11:45:49Z"}
