{"icao":"KORD","metar":"KORD 080651Z 34007KT 10SM BKN023 OVC038 08/05 A2975 RMK AO2 SLP075 T00830050 $","updated":"2025-11-08T07:16:30Z"}
