{"icao":"KJFK","metar":"KJFK 072251Z 19019G27KT 10SM FEW045 BKN190 BKN250 22/18 A3006 RMK AO2 PK WND 19029/2224 SLP180 T02170183","updated":"2025-10-07T23:16:14Z"}
