{"icao":"KJFK","metar":"KJFK 221451Z 09014G22KT 10SM BKN009 OVC018 02/01 A3006 RMK AO2 RAE47 SLP179 P0001 60002 T00220011 58010 $","updated":"2026-02-22T15:23:35Z"}
