{"icao":"LPHR","metar":"LPHR 250930Z VRB02KT 7000 3000W DZ SCT003 BKN006 15/15 Q1015","updated":"2026-04-25T09:51:13Z"}
