{"icao":"KORD","metar":"KORD 200151Z 05011KT 10SM OVC014 04/01 A2949 RMK AO2 RAE13 SLP991 P0000 T00440011 $","updated":"2026-02-20T02:00:07Z"}
