{"icao":"LPMR","metar":"LPMR 250500Z 32001KT 1300 BR OVC002 15/15 Q1021","updated":"2026-05-25T05:18:15Z"}
