{"icao":"LPOV","metar":"LPOV 051700Z 29007KT 240V310 CAVOK 18/09 Q1018","updated":"2026-06-05T17:52:37Z"}
