{"icao":"LPLA","metar":"LPLA 282000Z 28025G35KT 8000 -RA SCT015 BKN020 BKN030 18/15 Q1005","updated":"2026-01-28T20:29:32Z"}
