{"icao":"KJFK","metar":"KJFK 261451Z 36007KT 10SM FEW030 FEW070 BKN095 BKN250 13/03 A3041 RMK AO2 SLP298 T01280033 50003","updated":"2025-10-26T15:16:25Z"}
