{"icao":"LPHR","metar":"LPHR 231900Z 24009KT 9999 FEW025 19/14 Q1026","updated":"2025-11-23T19:14:22Z"}
