{"icao":"KORD","metar":"KORD 112051Z 06011KT 10SM BKN037 17/09 A3011 RMK AO2 SLP195 T01720094 56013","updated":"2025-10-11T21:14:15Z"}
