{"icao":"LPPS","metar":"LPPS 021900Z 13005KT 100V160 9999 FEW015 21/18 Q1024","updated":"2025-11-02T19:12:32Z"}
