{"icao":"LPAZ","metar":"LPAZ 141500Z 29008KT 270V330 9999 FEW020 25/19 Q1027","updated":"2025-09-14T15:14:29Z"}
