{"icao":"LPMT","metar":"LPMT 021800Z 13014KT 4000 RA BR SCT012 BKN020 14/14 Q0999 RETS","updated":"2026-01-02T19:12:57Z"}
