{"icao":"LPOV","metar":"LPOV 011400Z 29005KT 250V330 FEW018 18/15 Q1018","updated":"2025-11-01T14:14:28Z"}
