{"icao":"LPPS","metar":"LPPS 231200Z 10012KT 070V130 9999 BKN015 20/13 Q1027","updated":"2025-11-23T12:33:04Z"}
