{"icao":"LPMA","metar":"LPMA 282230Z 34007KT 290V020 9999 SCT015 BKN033 17/09 Q1015","updated":"2026-04-28T22:57:19Z"}
