{"icao":"LPPS","metar":"LPPS 131900Z 35019KT 9999 FEW015 15/08 Q1020","updated":"2026-01-13T19:19:03Z"}
