{"icao":"LPST","metar":"LPST 041200Z 06007KT 020V090 CAVOK 17/08 Q1014","updated":"2026-03-04T12:54:26Z"}
