{"icao":"LPFL","metar":"LPFL 251030Z 18005KT 150V210 9999 OVC029 14/08 Q1031","updated":"2026-03-25T10:47:44Z"}
