{"icao":"LPMA","metar":"LPMA 272000Z 22010KT 190V250 9999 SCT013 FEW015TCU 22/20 Q1015","updated":"2025-10-27T20:18:05Z"}
