{"icao":"LPAZ","metar":"LPAZ 232100Z 01009KT 9999 FEW010 BKN014 20/19 Q1022","updated":"2025-09-23T21:15:02Z"}
