{"icao":"KLAX","metar":"KLAX 010453Z 06010KT 2 1/2SM -RA BR FEW006 OVC016 14/13 A3001 RMK AO2 RAE21B41 SLP161 P0002 T01390128 $","updated":"2026-01-01T05:26:09Z"}
