{"icao":"LPMT","metar":"LPMT 252200Z 04004KT CAVOK 19/15 Q1022","updated":"2026-05-26T00:03:52Z"}
