{"icao":"LPFR","metar":"LPFR 280900Z 28031G42KT 2000 R28/0900 RA BR FEW006 SCT009 BKN012 15/15 Q1004","updated":"2026-01-28T09:32:42Z"}
