{"icao":"LPMA","metar":"LPMA 272300Z 02017KT 340V040 9999 -RADZ BKN014 16/13 Q1028","updated":"2026-02-27T23:23:15Z"}
