{"icao":"LPFR","metar":"LPFR 271800Z 26010KT CAVOK 20/17 Q1018","updated":"2025-09-27T18:21:49Z"}
