{"icao":"LPFR","metar":"LPFR 080430Z 33003KT 9999 FEW025 10/09 Q1014","updated":"2026-02-08T05:01:42Z"}
