{"icao":"LPMR","metar":"LPMR 291600Z 30007KT 270V330 9999 FEW020 15/09 Q1019","updated":"2025-12-29T16:24:45Z"}
