{"icao":"LPPD","metar":"LPPD 032200Z 23014KT 9999 FEW006 BKN010 19/18 Q1010","updated":"2025-11-03T22:17:48Z"}
