{"icao":"KORD","metar":"KORD 042351Z 19010G20KT 10SM FEW200 BKN250 29/11 A2996 RMK AO2 SLP140 T02940106 10306 20283 55016","updated":"2026-06-05T00:05:49Z"}
