{"icao":"KJFK","metar":"KJFK 270751Z 02006KT 10SM SCT250 19/16 A2993 RMK AO2 SLP134 T01940161 $","updated":"2025-09-27T08:20:02Z"}
