{"icao":"LPST","metar":"LPST 081500Z 33013KT 9999 SCT018 19/14 Q1022","updated":"2025-10-08T15:18:59Z"}
