{"icao":"LPFR","metar":"LPFR 222000Z 01008KT CAVOK 12/01 Q1027","updated":"2025-11-22T20:19:03Z"}
