{"icao":"KJFK","metar":"KJFK 260451Z 20019KT 9SM SCT007 OVC024 14/13 A2991 RMK AO2 PK WND 17030/0416 RAE26 SLP128 P0003 T01390128 401390044","updated":"2025-11-26T05:18:45Z"}
