{"icao":"LPHR","metar":"LPHR 271100Z 09006KT 060V120 9999 FEW020 BKN080 16/10 Q1035","updated":"2026-02-27T11:31:22Z"}
