{"icao":"LPCS","metar":"LPCS 110800Z 21006KT 170V240 9999 2500NW FEW001 BKN010 13/13 Q1027","updated":"2026-01-11T08:25:28Z"}
