{"icao":"KJFK","metar":"KJFK 301151Z 01003KT 10SM BKN041 BKN150 BKN250 02/M04 A3036 RMK AO2 SLP279 T00221039 10028 20000 56026 $","updated":"2025-11-30T12:35:38Z"}
