{"icao":"KJFK","metar":"KJFK 050351Z 21003KT 10SM OVC042 04/02 A3027 RMK AO2 SLP249 T00440017","updated":"2026-03-05T04:19:14Z"}
