{"icao":"KJFK","metar":"KJFK 071351Z 25007KT 1/2SM R04R/2400V5000FT BR FEW002 BKN045 BKN200 03/03 A2970 RMK AO2 SFC VIS 3 SLP057 T00330033 $","updated":"2026-01-07T14:22:53Z"}
