{"icao":"LPPT","metar":"LPPT 052000Z 32010KT CAVOK 19/13 Q1019","updated":"2025-10-05T20:17:22Z"}
