{"icao":"LPAR","metar":"LPAR 200900Z 08004KT 360V160 9999 FEW018 BKN022 14/12 Q1008","updated":"2026-03-20T09:39:14Z"}
