{"icao":"LPMR","metar":"LPMR 170800Z 14003KT 110V170 5000 BR NSC 12/12 Q1014","updated":"2025-10-17T08:24:28Z"}
