{"icao":"LPBJ","metar":"LPBJ 311400Z 29008KT 240V320 9999 SCT032 15/08 Q1021","updated":"2026-01-31T14:22:35Z"}
