{"icao":"LPST","metar":"LPST 272000Z 34009KT 9999 FEW015 11/07 Q1025","updated":"2026-02-27T20:26:20Z"}
