{"icao":"LPFR","metar":"LPFR 072000Z 27006KT CAVOK 21/17 Q1021","updated":"2025-10-07T20:18:59Z"}
