{"icao":"LPHR","metar":"LPHR 141100Z 28019G29KT 250V310 9999 TS SCT013 SCT015CB SCT035 16/15 Q1006 RETSRA","updated":"2025-10-14T11:14:59Z"}
