{"icao":"LPPR","metar":"LPPR 090130Z VRB02KT 9999 FEW018 SCT030 10/07 Q1022","updated":"2026-03-09T02:02:40Z"}
