{"icao":"KLAX","metar":"KLAX 062253Z 26015KT 10SM FEW012 21/15 A2980 RMK AO2 SLP088 T02110150 $","updated":"2025-10-06T23:15:44Z"}
