{"icao":"LPPR","metar":"LPPR 222200Z 28014G24KT 230V320 8000 VCSH FEW017 FEW020TCU BKN040 13/06 Q0999","updated":"2026-01-22T22:21:21Z"}
