{"icao":"LPMR","metar":"LPMR 262100Z 34004KT CAVOK 15/11 Q1020","updated":"2025-10-26T21:15:07Z"}
