{"icao":"LPBJ","metar":"LPBJ 191400Z 15004KT 120V190 CAVOK 28/19 Q1020","updated":"2025-09-19T14:16:47Z"}
