{"icao":"LPFR","metar":"LPFR 192030Z 26005KT CAVOK 18/15 Q1020","updated":"2026-05-19T20:47:24Z"}
