{"icao":"LPAZ","metar":"LPAZ 200100Z 27011KT 9000 FEW003 SCT007 BKN022 23/22 Q1018","updated":"2025-10-20T01:25:44Z"}
