{"icao":"LPMA","metar":"LPMA 281000Z 02019KT 9999 FEW015 17/10 Q1023","updated":"2026-03-28T10:30:45Z"}
