{"icao":"KLAX","metar":"KLAX 222253Z 28004KT 5SM HZ FEW009 SCT250 18/13 A2994 RMK AO2 SLP138 T01780133 $","updated":"2025-12-22T23:18:22Z"}
