{"icao":"KJFK","metar":"KJFK 111951Z 35014G22KT 10SM FEW065 17/M02 A3023 RMK AO2 SLP235 T01721022","updated":"2026-04-11T20:32:07Z"}
