{"icao":"LPMA","metar":"LPMA 220900Z 36011KT 330V030 9999 SCT013 FEW018CB 21/15 Q1021","updated":"2025-09-22T09:21:38Z"}
