{"icao":"LPPD","metar":"LPPD 161600Z 22010KT 190V320 9999 FEW018 24/19 Q1022","updated":"2025-09-16T16:21:39Z"}
