{"icao":"LPST","metar":"LPST 261500Z 22014KT 190V250 9000 BKN008 BKN016 FEW025TCU 15/13 Q1011","updated":"2026-01-26T15:27:47Z"}
