{"icao":"LPBJ","metar":"LPBJ 142200Z 27003KT 8000 2000SW BCFG SCT021 10/09 Q1021","updated":"2026-01-14T22:20:47Z"}
