{"icao":"LPPR","metar":"LPPR 292230Z 00000KT CAVOK 19/17 Q1021","updated":"2026-06-29T22:55:18Z"}
