{"icao":"KJFK","metar":"KJFK 180351Z 04005KT 3SM -RA BR SCT009 BKN015 OVC035 18/18 A3001 RMK AO2 SLP162 P0000 T01830178 $","updated":"2025-09-18T04:21:03Z"}
