{"icao":"LPHR","metar":"LPHR 220900Z 15003KT 110V220 6000 -RA SCT003 BKN010 BKN013CB 20/19 Q1011","updated":"2025-10-22T09:20:51Z"}
