{"icao":"LPAR","metar":"LPAR 281500Z 34008KT 300V020 9999 FEW028 16/08 Q1021","updated":"2025-11-28T15:19:07Z"}
