{"icao":"LPPD","metar":"LPPD 180700Z 35007KT 310V020 9999 VCSH SCT011 SCT025 14/12 Q1027","updated":"2026-01-18T07:19:00Z"}
