{"icao":"KORD","metar":"KORD 290351Z 10017G25KT 10SM OVC050 11/03 A3005 RMK AO2 PK WND 11026/0331 SLP176 T01110028","updated":"2025-10-29T04:25:21Z"}
