{"icao":"LPOV","metar":"LPOV 281300Z 26011KT 230V290 9999 SCT030 15/09 Q1001","updated":"2026-01-28T13:47:52Z"}
