{"icao":"LPFR","metar":"LPFR 012300Z 21014KT 9999 FEW012 SCT020 BKN040 16/14 Q1008","updated":"2026-02-01T23:23:20Z"}
