{"icao":"LPST","metar":"LPST 171600Z 36005KT 330V040 9999 FEW020 FEW025CB 15/13 Q1014","updated":"2025-11-17T16:25:25Z"}
