{"icao":"LPPR","metar":"LPPR 301700Z 33002KT 9000 FEW025 11/08 Q1021","updated":"2025-12-30T17:19:06Z"}
