{"icao":"LPFR","metar":"LPFR 161130Z 08016KT CAVOK 20/04 Q1019","updated":"2026-03-16T11:45:02Z"}
