{"icao":"LPAZ","metar":"LPAZ 282000Z 07008KT 040V120 9999 FEW018 BKN022 14/10 Q1032","updated":"2026-03-28T20:29:19Z"}
