{"icao":"LPCS","metar":"LPCS 301230Z 35024KT 9999 FEW018 15/06 Q1018","updated":"2025-11-30T12:35:21Z"}
