{"icao":"KORD","metar":"KORD 271851Z 30013G24KT 10SM BKN039 01/M09 A3020 RMK AO2 PK WND 30028/1805 SLP235 T00061094","updated":"2025-11-27T19:15:02Z"}
