{"icao":"LPMT","metar":"LPMT 112100Z 20009KT 170V230 9999 FEW025 18/14 Q1008","updated":"2025-11-11T21:16:19Z"}
