{"icao":"KJFK","metar":"KJFK 271751Z VRB03KT 10SM FEW055 13/M01 A3034 RMK AO2 SLP273 T01281006 10133 20061 58019","updated":"2025-10-27T18:27:29Z"}
