{"icao":"LPPT","metar":"LPPT 230800Z VRB02G12KT CAVOK 22/17 Q1014","updated":"2026-06-23T08:33:01Z"}
