{"icao":"KORD","metar":"KORD 141951Z 16006KT 10SM SCT300 19/M01 A3005 RMK AO2 SLP176 T01891006","updated":"2026-05-14T20:40:23Z"}
