{"icao":"LPHR","metar":"LPHR 011400Z 03005KT 330V100 9999 BKN045 18/07 Q1022","updated":"2025-11-01T14:14:30Z"}
