{"icao":"LPPT","metar":"LPPT 270900Z 04012KT 020V080 9999 FEW045 16/10 Q1021","updated":"2025-10-27T09:21:55Z"}
