{"icao":"KJFK","metar":"KJFK 070951Z 23010KT 10SM FEW120 19/18 A2980 RMK AO2 SLP089 T01940183 $","updated":"2026-06-07T10:27:42Z"}
