{"icao":"LPST","metar":"LPST 051600Z 26012KT 9999 -SHRA SCT015 SCT018CB 14/11 Q1010","updated":"2025-11-06T07:17:52Z"}
