{"icao":"LPPR","metar":"LPPR 130500Z 00000KT 9999 FEW004 13/12 Q1020"}
