{"icao":"KLAX","metar":"KLAX 012053Z 25010KT 5SM HZ SCT010 18/14 A3002 RMK AO2 SLP165 T01830139 58019 $","updated":"2025-11-01T21:14:26Z"}
