{"icao":"LPPR","metar":"LPPR 201700Z 32011KT 290V350 9999 FEW030 19/12 Q1020","updated":"2025-09-20T17:12:33Z"}
