{"icao":"KJFK","metar":"KJFK 171751Z 22013KT 1/2SM R04R/P6000FT -SN FEW007 OVC013 02/M01 A3003 RMK AO2 SFC VIS 2 RAB34E50SNB1658 SLP169 P0000 60000 T00171011 10044 20017 56022 $","updated":"2026-01-17T18:27:16Z"}
