{"icao":"LPHR","metar":"LPHR 060630Z 22010KT 180V240 9999 -SHRA SCT025 BKN048 13/09 Q1032","updated":"2026-03-06T06:45:58Z"}
