{"icao":"LPMA","metar":"LPMA 190000Z 31004KT 280V360 9999 FEW015 20/15 Q1019","updated":"2026-06-19T00:25:19Z"}
