{"icao":"LPFR","metar":"LPFR 160700Z 05009G19KT 030V100 CAVOK 15/06 Q1018","updated":"2026-03-16T07:15:00Z"}
