{"icao":"KORD","metar":"KORD 212357Z 09009KT 6SM -RA BR BKN010 BKN026 OVC080 16/14 A2985 RMK AO2 P0002 T01560139 $","updated":"2026-06-22T00:10:53Z"}
