{"icao":"LPMR","metar":"LPMR 051600Z 32012KT 280V360 9999 FEW025 18/10 Q1016","updated":"2026-05-05T16:23:10Z"}
