{"icao":"LPPT","metar":"LPPT 152130Z 33009KT 290V350 9999 FEW010 18/15 Q1016","updated":"2026-06-15T21:40:52Z"}
