{"icao":"LPPD","metar":"LPPD 181400Z 21010KT 9999 FEW014 SCT030 25/21 Q1016","updated":"2025-09-18T14:17:34Z"}
