{"icao":"LPCS","metar":"LPCS 021230Z 27012KT 240V300 8000 SHRA FEW012 FEW025CB SCT038 10/09 Q1000","updated":"2026-02-02T12:57:10Z"}
