{"icao":"LPFL","metar":"LPFL 091530Z 35017KT 9999 VCSH FEW027 BKN035 16/07 Q1024","updated":"2026-05-09T15:51:00Z"}
