{"icao":"LPHR","metar":"LPHR 281230Z 25027G37KT 8000 BKN012 18/16 Q1005","updated":"2026-01-28T12:48:10Z"}
