{"icao":"LPPR","metar":"LPPR 040130Z 24011KT 210V280 7000 SCT009 BKN016 14/13 Q0988","updated":"2026-02-04T01:57:49Z"}
