{"icao":"KORD","metar":"KORD 190351Z 04009KT 10SM OVC009 06/04 A3009 RMK AO2 SLP195 T00560039","updated":"2025-11-19T04:22:46Z"}
