{"icao":"LPLA","metar":"LPLA 180200Z 07004KT 9999 BKN008 BKN014 15/14 Q1018","updated":"2026-04-18T02:15:40Z"}
