{"icao":"LPCS","metar":"LPCS 231230Z 29006KT 260V320 9999 VCSH FEW009 BKN016 FEW018TCU 15/14 Q1011","updated":"2025-12-23T12:41:11Z"}
