{"icao":"LPPT","metar":"LPPT 120530Z 01004KT 8000 BCFG SCT003 SCT006 10/09 Q1026","updated":"2026-03-12T05:50:08Z"}
