{"icao":"LPFL","metar":"LPFL 011030Z 05005KT 330V100 9999 SCT015 17/13 Q1017","updated":"2026-05-01T10:39:56Z"}
