{"icao":"LPFR","metar":"LPFR 260700Z 31008KT CAVOK 07/04 Q1014","updated":"2025-12-26T07:20:26Z"}
