{"icao":"LPCS","metar":"LPCS 161700Z 27008KT 240V310 9999 FEW025 FEW028TCU 17/12 Q1011","updated":"2025-11-16T17:14:39Z"}
