{"icao":"KORD","metar":"KORD 221451Z 20007KT 10SM FEW040 FEW120 BKN250 23/17 A2991 RMK AO2 SLP123 T02330167 51007","updated":"2025-09-22T15:19:09Z"}
