{"icao":"LPCS","metar":"LPCS 141600Z 33009KT 310V010 9999 FEW016 14/11 Q1020","updated":"2026-01-14T16:28:51Z"}
