{"icao":"KLAX","metar":"KLAX 190053Z 23005KT 10SM FEW050 FEW080 SCT250 14/08 A2993 RMK AO2 SLP134 CB DSNT NE T01440078","updated":"2025-11-19T01:23:50Z"}
