{"icao":"LPPS","metar":"LPPS 301700Z 29015KT 1000 FG SCT004 BKN010 18/17 Q1023","updated":"2026-01-30T17:32:48Z"}
