{"icao":"KORD","metar":"KORD 280951Z 25006KT 10SM CLR M17/M21 A3020 RMK AO2 SLP243 T11671211","updated":"2026-01-28T10:27:18Z"}
