{"icao":"LPMA","metar":"LPMA 231700Z 23004KT 190V320 9999 FEW015 20/10 Q1020","updated":"2025-12-23T17:19:33Z"}
