{"icao":"LPBJ","metar":"LPBJ 071900Z 23010KT 9000 SCT008 BKN022 17/16 Q1016","updated":"2025-11-07T19:15:22Z"}
