{"icao":"LPOT","metar":"LPOT 130900Z VRB01KT 9999 BKN015 07/07 Q1021","updated":"2026-03-02T07:49:32Z"}
