{"icao":"LPFR","metar":"LPFR 150800Z 23010KT 9000 -RA FEW014 FEW018TCU SCT030 19/17 Q1010","updated":"2025-11-15T08:21:10Z"}
