{"icao":"LPPT","metar":"LPPT 172100Z 34009KT CAVOK 20/14 Q1017","updated":"2026-06-17T21:06:40Z"}
