{"icao":"LPPT","metar":"LPPT 141100Z 33008KT 300V010 9999 FEW010 SCT015 14/12 Q1020","updated":"2026-01-14T11:20:10Z"}
