{"icao":"LPOV","metar":"LPOV 170100Z VRB02KT 0500 FG SCT001 BKN004 14/14 Q1014","updated":"2025-10-17T01:19:41Z"}
