{"icao":"LPPS","metar":"LPPS 050100Z 02010KT 9999 FEW015 21/14 Q1025","updated":"2025-10-05T01:24:54Z"}
