{"icao":"KJFK","metar":"KJFK 281251Z 28009KT 10SM FEW035 M09/M16 A3019 RMK AO2 SLP221 T10941161 $","updated":"2026-01-28T13:48:26Z"}
