{"icao":"LPPD","metar":"LPPD 011700Z 27033KT 9999 FEW020 FEW025CB SCT035 14/06 Q1008","updated":"2026-02-01T17:23:46Z"}
