{"icao":"LPBJ","metar":"LPBJ 190400Z VRB01KT CAVOK 02/02 Q1017","updated":"2026-01-19T04:50:42Z"}
