{"icao":"LPPR","metar":"LPPR 122300Z 19002KT CAVOK 21/14 Q1018","updated":"2026-06-12T23:14:50Z"}
