{"icao":"KJFK","metar":"KJFK 111451Z 02006KT 10SM BKN025 BKN035 OVC130 16/14 A3023 RMK AO2 RAE30 SLP237 P0002 60007 T01560144 58003","updated":"2025-10-11T15:15:00Z"}
