{"icao":"LPMA","metar":"LPMA 291300Z 36006KT 280V060 9999 FEW016 22/11 Q1023","updated":"2025-11-29T13:25:15Z"}
