{"icao":"KORD","metar":"KORD 192251Z 09005KT 7SM OVC017 07/03 A3018 RMK AO2 SLP223 T00670033","updated":"2025-11-19T23:17:42Z"}
