{"icao":"LPFR","metar":"LPFR 171500Z 24009KT 210V270 CAVOK 28/15 Q1015","updated":"2026-06-17T15:24:34Z"}
