{"icao":"LPPT","metar":"LPPT 262200Z 05005KT 360V080 CAVOK 08/07 Q1013","updated":"2025-12-26T22:18:50Z"}
