{"icao":"LPHR","metar":"LPHR 221100Z 05007KT 9999 -RA SCT012 FEW015CB BKN080 21/19 Q1010","updated":"2025-10-22T11:16:15Z"}
