{"icao":"KORD","metar":"KORD 102151Z 21007KT 10SM BKN035 BKN045 BKN060 19/11 A3005 RMK AO2 SLP177 T01890106","updated":"2025-10-10T22:15:37Z"}
