{"icao":"LPPT","metar":"LPPT 040330Z 31007KT 290V350 9999 FEW014 SCT028 17/13 Q1019","updated":"2026-06-04T03:52:58Z"}
