{"icao":"KJFK","metar":"KJFK 201851Z 26023G31KT 10SM BKN042 BKN065 BKN250 17/07 A2979 RMK AO2 PK WND 27039/1759 SLP087 T01670072 $","updated":"2025-10-20T19:15:14Z"}
