{"icao":"LPHR","metar":"LPHR 052000Z 29023G33KT 8000 -SHRA BKN017 FEW020CB SCT035 12/07 Q1010","updated":"2026-02-05T20:32:23Z"}
