{"icao":"LPPR","metar":"LPPR 232330Z 36002KT 9000 NSC 19/17 Q1012","updated":"2026-06-23T23:55:03Z"}
