{"icao":"LPMA","metar":"LPMA 030630Z 36015G25KT 290V040 9999 SCT015 FEW018CB 13/06 Q1016","updated":"2026-03-03T06:50:54Z"}
