{"icao":"KLAX","metar":"KLAX 201253Z 00000KT 10SM FEW250 13/05 A3003 RMK AO2 SLP169 T01280050 $","updated":"2026-01-20T13:45:58Z"}
