{"icao":"LPAZ","metar":"LPAZ 190100Z 34008KT 9999 SCT010 BKN018 17/16 Q1022","updated":"2025-11-19T01:23:45Z"}
