{"icao":"LPLA","metar":"LPLA 141500Z 29021G31KT 9999 FEW025 SCT035 17/08 Q1018","updated":"2026-04-14T15:11:40Z"}
