{"icao":"KJFK","metar":"KJFK 101751Z 10006KT 10SM -RA BKN090 OVC200 06/01 A3015 RMK AO2 RAB41 SLP209 P0000 60000 T00610011 10072 20061 58028 $","updated":"2026-01-10T18:27:48Z"}
