{"icao":"LPPS","metar":"LPPS 161630Z 11017KT 9999 SCT015 17/13 Q1029","updated":"2026-02-16T16:41:44Z"}
