{"icao":"KORD","metar":"KORD 202151Z 24008KT 10SM FEW110 BKN210 BKN250 04/M04 A2985 RMK AO2 SLP115 T00391039","updated":"2025-12-20T22:17:14Z"}
