{"icao":"KORD","metar":"KORD 210651Z 03009KT 10SM BKN047 BKN150 10/03 A3027 RMK AO2 SLP250 T01000028","updated":"2026-05-21T07:50:44Z"}
