{"icao":"KLAX","metar":"KLAX 031053Z 02004KT 5SM BR FEW002 SCT004 SCT008 13/12 A3018 RMK AO2 SLP218 VIS SE 2 1/2 T01280122 $","updated":"2026-02-03T11:33:21Z"}
