{"icao":"LPOV","metar":"LPOV 311400Z 33017KT CAVOK 21/14 Q1021","updated":"2026-05-31T14:42:52Z"}
