{"icao":"KJFK","metar":"KJFK 152251Z 11012KT 10SM FEW055 FEW070 BKN250 22/14 A3023 RMK AO2 SLP236 T02170144 $","updated":"2025-09-15T23:14:50Z"}
