{"icao":"LPFR","metar":"LPFR 171300Z 10012KT CAVOK 25/11 Q1017","updated":"2026-04-17T13:16:51Z"}
