{"icao":"LPMT","metar":"LPMT 090200Z 25008KT 7000 -RADZ FEW005 SCT007 BKN015 14/14 Q1011","updated":"2026-02-09T02:06:11Z"}
