{"icao":"KORD","metar":"KORD 132051Z 14003KT 10SM FEW090 FEW150 SCT250 24/17 A2998 RMK AO2 SLP149 T02440172 56008 $","updated":"2025-09-13T21:13:54Z"}
