{"icao":"LPPR","metar":"LPPR 081830Z 17017KT 7000 -RADZ BKN008 BKN013 FEW018CB 10/09 Q1009","updated":"2026-02-08T18:35:24Z"}
