{"icao":"LPOV","metar":"LPOV 300800Z 36012KT CAVOK 08/05 Q1019","updated":"2025-11-30T08:22:08Z"}
