{"icao":"LPLA","metar":"LPLA 281821Z 25015KT 4000 -RA BR FEW008 SCT012 BKN018 18/16 Q1004","updated":"2026-01-28T18:35:50Z"}
