{"icao":"LPPT","metar":"LPPT 172300Z 33008KT CAVOK 14/12 Q1018","updated":"2025-11-17T23:17:02Z"}
