{"icao":"LPPD","metar":"LPPD 161100Z 04007KT 010V070 7000 -RA SCT005 BKN008 21/20 Q1005","updated":"2025-10-16T11:15:17Z"}
