{"icao":"LPMT","metar":"LPMT 010200Z 02010KT CAVOK 15/10 Q1023","updated":"2026-04-01T05:22:35Z"}
