{"icao":"LPPT","metar":"LPPT 210900Z 10006KT 070V130 9000 FEW002 BKN008 13/13 Q1008","updated":"2026-03-21T09:30:15Z"}
