{"icao":"LPOV","metar":"LPOV 231900Z 30006KT 270V350 9999 SCT004 19/17 Q1021","updated":"2026-05-23T19:23:15Z"}
