{"icao":"KORD","metar":"KORD 020251Z 26005KT 10SM OVC044 M07/M13 A2991 RMK AO2 SLP139 T10721128 57000 $","updated":"2026-01-02T03:39:03Z"}
