{"icao":"LPLA","metar":"LPLA 300900Z 12001KT 050V150 9999 SCT020 13/12 Q1029","updated":"2025-11-30T09:17:33Z"}
