{"icao":"LPFL","metar":"LPFL 071300Z 19012KT 150V220 9999 FEW027 20/13 Q1018","updated":"2025-11-07T13:26:51Z"}
