{"icao":"LPAZ","metar":"LPAZ 311900Z 03012KT 9999 FEW025 SCT029 17/13 Q1012","updated":"2025-10-31T19:13:01Z"}
