{"icao":"LPMT","metar":"LPMT 211300Z 25010KT 4000 -RA BR SCT009 BKN010 OVC035 21/21 Q1015","updated":"2025-10-21T13:32:27Z"}
