{"icao":"LPPS","metar":"LPPS 011100Z 25007KT 220V290 9999 FEW015 19/13 Q1021","updated":"2026-02-01T11:20:17Z"}
