{"icao":"LPFL","metar":"LPFL 082000Z VRB16G31KT 9999 SCT011 20/16 Q1005","updated":"2026-02-08T20:26:29Z"}
