{"icao":"KLAX","metar":"KLAX 212253Z 26012KT 10SM FEW010 SCT160 20/14 A2996 RMK AO2 SLP144 T02000144","updated":"2025-10-21T23:17:17Z"}
