{"icao":"KORD","metar":"KORD 281651Z 30009KT 10SM FEW030 SCT250 M02/M11 A3037 RMK AO2 SLP293 T10171111 $","updated":"2025-11-28T17:16:36Z"}
