{"icao":"LPAR","metar":"LPAR 061100Z 02010G20KT 340V060 9999 FEW020 11/03 Q1024","updated":"2026-01-06T11:18:09Z"}
