{"icao":"LPPD","metar":"LPPD 022300Z 34017KT 9999 FEW018 FEW020TCU 15/11 Q1006","updated":"2026-01-02T23:18:03Z"}
