{"icao":"LPBJ","metar":"LPBJ 202300Z 15008KT CAVOK 19/06 Q1008","updated":"2026-04-20T23:40:42Z"}
