{"icao":"LPFL","metar":"LPFL 091000Z 34007KT 290V010 9999 FEW024 18/13 Q1025","updated":"2025-11-09T10:17:17Z"}
