{"icao":"KORD","metar":"KORD 210051Z 13004KT 10SM FEW100 OVC130 M07/M15 A3020 RMK AO2 SLP240 T10671150 $","updated":"2026-01-21T01:44:28Z"}
