{"icao":"LPAR","metar":"LPAR 161000Z 13003KT 040V180 CAVOK 22/13 Q1015","updated":"2025-10-16T10:20:20Z"}
