{"icao":"LPFR","metar":"LPFR 210330Z 03003KT CAVOK 25/14 Q1013","updated":"2026-06-21T04:04:23Z"}
