{"icao":"LPAZ","metar":"LPAZ 250200Z 08009KT 040V100 9999 FEW020 BKN027 14/09 Q1028","updated":"2026-03-25T02:05:41Z"}
