{"icao":"LPFR","metar":"LPFR 231900Z 01004KT 350V050 CAVOK 14/08 Q1025","updated":"2025-11-23T19:14:02Z"}
