{"icao":"LPCS","metar":"LPCS 191330Z 32011KT 290V360 9999 FEW020 14/08 Q1021","updated":"2026-01-19T13:43:47Z"}
