{"icao":"KJFK","metar":"KJFK 230951Z 01009KT 6SM RA BR BKN010 OVC095 09/08 A2971 RMK AO2 SLP060 P0007 T00940083 $","updated":"2026-03-23T10:01:38Z"}
