{"icao":"KJFK","metar":"KJFK 080951Z 33016G24KT 10SM SCT048 BKN065 01/M11 A3014 RMK AO2 PK WND 34028/0926 SLP205 T00061111 $","updated":"2025-12-08T10:22:24Z"}
