{"icao":"LPHR","metar":"LPHR 081030Z 29009KT 9999 FEW008 SCT012 BKN030 20/18 Q1033","updated":"2026-06-08T10:51:16Z"}
