{"icao":"LPFL","metar":"LPFL 281630Z 25016G33KT 210V320 9999 SCT010 17/13 Q1001","updated":"2026-01-28T16:35:38Z"}
