{"icao":"LPPT","metar":"LPPT 072000Z 31011KT CAVOK 18/15 Q1022","updated":"2025-10-07T20:18:58Z"}
