{"icao":"LPCS","metar":"LPCS 010800Z 25007KT 0300 R17/0900U -DZ FG OVC002 15/15 Q1015","updated":"2026-02-01T08:30:56Z"}
