{"icao":"LPCS","metar":"LPCS 031700Z 31006KT 280V350 9999 FEW022 14/09 Q1023","updated":"2025-12-03T17:21:11Z"}
