{"icao":"LPAR","metar":"LPAR 161400Z 20006KT 170V240 CAVOK 28/11 Q1013","updated":"2025-10-16T14:18:28Z"}
