{"icao":"LPPS","metar":"LPPS 121130Z 29008KT 250V330 9999 FEW015 19/12 Q1022","updated":"2026-05-12T11:55:00Z"}
