{"icao":"LPHR","metar":"LPHR 241430Z 31023G33KT 9000 -SHRA SCT015 BKN030 16/10 Q1018","updated":"2026-02-24T14:48:22Z"}
