{"icao":"LPST","metar":"LPST 261300Z 28008KT CAVOK 17/14 Q1024","updated":"2026-02-26T13:03:18Z"}
