{"icao":"LPMA","metar":"LPMA 231600Z 33012KT 270V020 9999 FEW015 19/07 Q1018","updated":"2026-01-23T16:28:43Z"}
