{"icao":"LPFR","metar":"LPFR 151100Z 09010KT CAVOK 24/19 Q1017","updated":"2025-10-15T11:15:04Z"}
