{"icao":"LPPD","metar":"LPPD 250900Z 22008KT 9999 FEW025 19/14 Q1018","updated":"2025-09-25T09:18:57Z"}
