{"icao":"LPFR","metar":"LPFR 161130Z 19008KT 160V230 9999 FEW020 20/11 Q1017","updated":"2026-05-16T11:49:33Z"}
