{"icao":"KORD","metar":"KORD 291051Z 07014G20KT 10SM SCT250 09/04 A3002 RMK AO2 SLP168 T00940044","updated":"2025-10-29T11:16:36Z"}
