{"icao":"KLAX","metar":"KLAX 230653Z 22007KT 5SM BR FEW003 OVC006 19/18 A2984 RMK AO2 SLP101 T01940178 $","updated":"2025-09-23T07:17:44Z"}
