{"icao":"LPMT","metar":"LPMT 152100Z VRB02KT CAVOK 13/09 Q1020","updated":"2026-03-15T21:26:25Z"}
