{"icao":"LPOV","metar":"LPOV 111000Z 02003KT 340V060 CAVOK 24/13 Q1022","updated":"2025-10-11T10:16:17Z"}
