{"icao":"LPMA","metar":"LPMA 281800Z 35007KT 310V030 9999 BKN016 BKN033 18/10 Q1015","updated":"2026-04-28T18:15:50Z"}
