{"icao":"LPCS","metar":"LPCS 031100Z 27013KT 240V320 9999 FEW020 FEW030CB 13/10 Q1003","updated":"2026-02-03T11:33:17Z"}
