{"icao":"LPPT","metar":"LPPT 241900Z 28006KT 240V310 9999 FEW032 11/06 Q1016","updated":"2026-01-24T19:15:50Z"}
