{"icao":"KORD","metar":"KORD 292251Z 02010KT 10SM FEW014 SCT026 BKN080 08/04 A2997 RMK AO2 SLP149 T00830044","updated":"2026-04-29T22:55:51Z"}
