{"icao":"LPFL","metar":"LPFL 161000Z 33003KT 300V010 9999 FEW022 17/09 Q1030","updated":"2026-05-16T10:13:12Z"}
