{"icao":"LPMT","metar":"LPMT 181600Z 30008KT 270V330 9999 FEW030 21/08 Q1020","updated":"2026-05-18T16:20:51Z"}
