{"icao":"LPLA","metar":"LPLA 150500Z 22015G26KT 190V290 9999 FEW020 16/10 Q1026","updated":"2026-02-15T05:55:08Z"}
