{"icao":"LPAZ","metar":"LPAZ 040830Z 29006KT 270V330 9999 OVC044 15/07 Q1023","updated":"2026-04-04T08:39:19Z"}
