{"icao":"LPOV","metar":"LPOV 150600Z 01008KT CAVOK 10/07 Q1019","updated":"2026-03-15T06:55:18Z"}
