{"icao":"LPMT","metar":"LPMT 161000Z 25005KT 210V280 9999 FEW018 SCT035 15/13 Q1032","updated":"2026-02-16T10:49:13Z"}
