{"icao":"LPMT","metar":"LPMT 150200Z 33003KT CAVOK 12/11 Q1023","updated":"2026-04-15T02:27:03Z"}
