{"icao":"KJFK","metar":"KJFK 221351Z 24009KT 10SM FEW070 BKN250 04/M04 A3005 RMK SLP174 T00441044 $ ","updated":"2026-01-22T14:29:28Z"}
