{"icao":"LPPD","metar":"LPPD 251700Z 04017G29KT 360V060 9999 VCSH SCT016 SCT030 19/15 Q1018","updated":"2025-10-25T17:14:01Z"}
