{"icao":"KORD","metar":"KORD 041451Z 36010KT 10SM FEW030 FEW250 M13/M20 A3040 RMK AO2 SLP306 T11331200 51016","updated":"2025-12-04T15:22:35Z"}
