{"icao":"LPLA","metar":"LPLA 170600Z VRB01KT 9999 SCT025 14/11 Q1025","updated":"2026-05-17T06:24:02Z"}
