{"icao":"KORD","metar":"KORD 091351Z 15010KT 10SM FEW039 11/04 A3050 RMK AO2 SLP328 T01110039","updated":"2025-10-09T14:17:39Z"}
