{"icao":"LPAZ","metar":"LPAZ 061630Z 24029G39KT 9000 FEW030 BKN044 17/13 Q1011","updated":"2026-02-06T16:42:01Z"}
