{"icao":"LPOV","metar":"LPOV 262200Z 01004KT 8000 BKN004 BKN012 11/11 Q1026","updated":"2026-02-26T22:32:03Z"}
