{"icao":"LPFR","metar":"LPFR 130530Z 26023KT 9999 FEW008 SCT018 BKN035 15/13 Q1006","updated":"2026-02-13T05:58:20Z"}
