{"icao":"LPPS","metar":"LPPS 011930Z 02014KT 9999 BKN013 21/17 Q1020","updated":"2026-07-01T19:51:56Z"}
