{"icao":"KLAX","metar":"KLAX 022053Z 26008KT 10SM FEW025 SCT140 SCT160 BKN250 18/11 A3000 RMK AO2 SLP158 T01780106 58029 $","updated":"2025-12-02T21:19:01Z"}
