{"icao":"LPBJ","metar":"LPBJ 132000Z 31010KT CAVOK 24/12 Q1021","updated":"2025-09-13T20:16:15Z"}
