{"icao":"LPPS","metar":"LPPS 050830Z 27016KT 9999 SCT014 17/14 Q1008","updated":"2026-02-05T08:41:09Z"}
