{"icao":"LPMT","metar":"LPMT 110600Z 04005KT 9999 SCT015 OVC025 12/12 Q1021","updated":"2025-12-11T06:32:00Z"}
