{"icao":"LPMA","metar":"LPMA 221800Z 01008G18KT 330V060 9999 SCT015 21/16 Q1021","updated":"2025-09-22T18:24:14Z"}
