{"icao":"LPBJ","metar":"LPBJ 260400Z 09005KT CAVOK 11/10 Q1021","updated":"2026-02-26T04:22:34Z"}
