{"icao":"KLAX","metar":"KLAX 131453Z 10005KT 6SM HZ BKN055 BKN075 17/13 A3004 RMK AO2 SLP172 T01670133 53008 $","updated":"2025-11-13T15:21:18Z"}
