{"icao":"LPMA","metar":"LPMA 221100Z 03020KT 9999 SCT015 19/12 Q1026","updated":"2025-11-22T11:13:20Z"}
