{"icao":"LPCS","metar":"LPCS 262000Z 02006KT CAVOK 12/08 Q1025","updated":"2025-11-27T01:23:12Z"}
