{"icao":"LPMA","metar":"LPMA 112100Z 01003KT 9999 -SHRA BKN015 15/13 Q1026","updated":"2026-01-11T21:17:52Z"}
