{"icao":"LPOV","metar":"LPOV 021200Z 16010KT 130V190 9999 FEW025 16/10 Q1010","updated":"2026-03-02T12:56:06Z"}
