{"icao":"LPPD","metar":"LPPD 131400Z 23007KT 200V260 9999 FEW025 BKN045 24/18 Q1026","updated":"2025-09-13T14:12:54Z"}
