{"icao":"LPCS","metar":"LPCS 290900Z 05005KT 020V100 3500 BR SCT003 BKN012 17/17 Q1007","updated":"2025-10-29T09:19:15Z"}
