{"icao":"LPFL","metar":"LPFL 091000Z 19011KT 150V220 9999 FEW018 22/18 Q1016","updated":"2025-10-09T10:19:20Z"}
