{"icao":"KJFK","metar":"KJFK 090151Z 23007KT 10SM BKN250 11/06 A2991 RMK AO2 SLP127 T01110061 $","updated":"2026-03-09T02:02:45Z"}
