{"icao":"LPBJ","metar":"LPBJ 160900Z VRB01KT CAVOK 16/11 Q1021","updated":"2026-04-16T09:17:38Z"}
