{"icao":"LPLA","metar":"LPLA 080400Z 21017G29KT 9999 BKN020 17/13 Q1029","updated":"2026-01-08T04:38:17Z"}
