{"icao":"LPFL","metar":"LPFL 161300Z 17013KT 9999 -RA SCT006 SCT012 19/18 Q1019","updated":"2025-11-16T13:22:58Z"}
