{"icao":"LPMR","metar":"LPMR 230900Z 06007KT CAVOK 15/06 Q1020","updated":"2025-09-23T09:18:57Z"}
