{"icao":"LPMA","metar":"LPMA 180400Z VRB02KT 9999 SCT015 21/17 Q1013","updated":"2025-10-18T04:20:19Z"}
