{"icao":"KJFK","metar":"KJFK 080451Z 31008KT 10SM FEW033 04/01 A3000 RMK AO2 SLP158 T00440006 401110028 $","updated":"2026-01-08T05:24:07Z"}
