{"icao":"KJFK","metar":"KJFK 200951Z 25012KT 10SM SCT050 SCT100 BKN250 16/13 A2974 RMK AO2 SLP069 T01560128 $","updated":"2025-10-20T10:20:23Z"}
