{"icao":"KLAX","metar":"KLAX 141053Z 00000KT 10SM CLR 11/07 A3016 RMK AO2 SLP210 T01060067 $","updated":"2026-01-14T11:20:33Z"}
