{"icao":"LPMA","metar":"LPMA 280900Z 21007KT 160V250 9999 SCT015 22/16 Q1013","updated":"2025-10-28T09:20:05Z"}
