{"icao":"LPFR","metar":"LPFR 011700Z 14011KT 9999 SCT010 BKN030 17/15 Q1010","updated":"2026-01-01T17:18:10Z"}
