{"icao":"LPBJ","metar":"LPBJ 072300Z VRB02KT 9999 FEW040 10/09 Q1023","updated":"2025-12-07T23:16:28Z"}
