{"icao":"KORD","metar":"KORD 031851Z 22003KT 10SM BKN070 OVC090 M04/M15 A3003 RMK AO2 SLP181 T10441150 $","updated":"2026-01-03T19:14:38Z"}
