{"icao":"LPFR","metar":"LPFR 131030Z 32017KT 9999 SCT040 17/05 Q1022","updated":"2026-04-13T10:43:35Z"}
