{"icao":"LPBJ","metar":"LPBJ 090200Z VRB02KT CAVOK 09/07 Q1018","updated":"2026-04-09T02:08:30Z"}
