{"icao":"LPPD","metar":"LPPD 072200Z 17009KT 090V180 9999 FEW020 SCT045 17/15 Q1008","updated":"2025-12-07T22:16:56Z"}
