{"icao":"KLAX","metar":"KLAX 241853Z 25007KT 7SM FEW009 21/16 A3003 RMK AO2 SLP166 T02110156","updated":"2025-10-24T19:14:41Z"}
