{"icao":"LPAZ","metar":"LPAZ 280100Z 05006KT 6000 -RA FEW012 OVC035 15/14 Q1024","updated":"2025-11-28T01:22:48Z"}
