{"icao":"LPCS","metar":"LPCS 101300Z 24007KT 9999 SCT015 18/16 Q1019","updated":"2025-11-10T13:30:16Z"}
