{"icao":"LPMA","metar":"LPMA 250900Z 22009KT 130V290 9999 BKN014 22/17 Q1016","updated":"2025-10-25T09:16:08Z"}
