{"icao":"LPFR","metar":"LPFR 251030Z 08009KT CAVOK 17/14 Q1016","updated":"2026-02-25T10:50:19Z"}
