{"icao":"LPPR","metar":"LPPR 240800Z 14006KT 9999 FEW035 SCT046 05/04 Q1005","updated":"2026-01-24T08:25:34Z"}
