{"icao":"KJFK","metar":"KJFK 231351Z 00000KT 10SM BKN100 BKN250 05/M02 A3004 RMK AO2 SLP173 T00501017","updated":"2025-11-23T14:15:42Z"}
