{"icao":"LPMA","metar":"LPMA 020100Z 24006KT 9999 FEW015 21/14 Q1022","updated":"2025-11-02T01:27:41Z"}
