{"icao":"KJFK","metar":"KJFK 202251Z 33010G27KT 10SM FEW060 SCT075 08/M10 A3022 RMK PK WND 33027/2242 SLP232 T00831100 ","updated":"2026-04-20T23:40:58Z"}
