{"icao":"KJFK","metar":"KJFK 152251Z 32011KT 10SM SCT050 BKN065 19/08 A2993 RMK AO2 SLP136 T01890078","updated":"2026-05-15T23:00:34Z"}
