{"icao":"LPPS","metar":"LPPS 162230Z 05010KT 030V090 9999 SCT015 BKN030 16/11 Q1021","updated":"2026-04-16T22:38:35Z"}
