{"icao":"LPCS","metar":"LPCS 271230Z 07009KT 030V110 9999 FEW030 08/04 Q1008","updated":"2025-12-27T12:37:20Z"}
