{"icao":"KORD","metar":"KORD 190256Z 24009KT 3SM RA BR BKN014 BKN023 OVC055 18/17 A2960 RMK AO2 P0006 T01830167 $","updated":"2025-10-19T03:14:47Z"}
