{"icao":"KJFK","metar":"KJFK 291651Z 20008KT 1/8SM R04R/P6000FT -RA BR SCT000 BKN003 OVC012 07/07 A2935 RMK AO2 SFC VIS 1 1/2 SLP937 BR SCT000 P0002 T00720072 $","updated":"2025-12-29T17:17:34Z"}
