{"icao":"LPPR","metar":"LPPR 050300Z 35004KT 0500 R17/0550N FG BKN002 13/13 Q1022","updated":"2025-10-05T03:05:50Z"}
