{"icao":"LPMT","metar":"LPMT 021100Z 27015KT 9999 VCSH FEW022 FEW025CB SCT035 12/07 Q1000","updated":"2026-02-02T11:34:16Z"}
