{"icao":"KJFK","metar":"KJFK 081451Z 32020KT 10SM FEW030 FEW250 M14/M23 A3017 RMK AO2 PK WND 33027/1405 SLP217 T11391233 51010 $","updated":"2026-02-08T15:25:03Z"}
