{"icao":"LPBJ","metar":"LPBJ 162200Z VRB01KT CAVOK 19/14 Q1015","updated":"2025-10-16T22:13:24Z"}
