{"icao":"KORD","metar":"KORD 251151Z 32007KT 10SM FEW025 BKN047 BKN055 15/13 A2994 RMK AO2 SLP138 T01500133 10172 20144 50000 $","updated":"2025-09-25T12:37:19Z"}
