{"icao":"LPPR","metar":"LPPR 191230Z 08004KT 020V130 9000 FEW004 SCT045 BKN049 09/08 Q1021","updated":"2026-01-19T12:47:11Z"}
