{"icao":"KORD","metar":"KORD 051751Z 23006KT 10SM BKN250 06/M01 A2981 RMK AO2 SLP100 T00561006 10056 20000 51001","updated":"2026-01-05T18:31:42Z"}
