{"icao":"LPMR","metar":"LPMR 052100Z 20001KT CAVOK 15/12 Q1019","updated":"2025-10-05T21:13:53Z"}
