{"icao":"LPMR","metar":"LPMR 110800Z 35019KT 8000 FEW008 BKN020 14/12 Q1015","updated":"2026-04-11T08:41:23Z"}
