{"icao":"LPMR","metar":"LPMR 141100Z 18016KT 6000 -SHRA FEW018 BKN030 14/12 Q1002","updated":"2025-11-14T11:15:33Z"}
