{"icao":"LPBJ","metar":"LPBJ 012300Z 14016G26KT 9999 OVC010 13/11 Q1009","updated":"2026-01-01T23:18:55Z"}
