{"icao":"LPPS","metar":"LPPS 172100Z 03008KT 360V070 9999 SCT014 SCT030 16/12 Q1018","updated":"2026-04-17T21:14:42Z"}
