{"icao":"KJFK","metar":"KJFK 050551Z 00000KT 10SM SCT250 18/14 A3023 RMK AO2 SLP235 T01830144 10206 20178 53002","updated":"2025-10-05T06:23:58Z"}
