{"icao":"LPAZ","metar":"LPAZ 262200Z 36006KT 9999 FEW018 SCT034 20/17 Q1019","updated":"2025-09-26T22:15:47Z"}
