{"icao":"LPMR","metar":"LPMR 190100Z 16003KT CAVOK 19/15 Q1016","updated":"2025-10-19T01:28:42Z"}
