{"icao":"LPPR","metar":"LPPR 090600Z 11010KT CAVOK 09/08 Q1021","updated":"2025-11-09T06:25:11Z"}
