{"icao":"KORD","metar":"KORD 092151Z 19011G24KT 10SM FEW045 22/11 A2967 RMK AO2 PK WND 20028/2132 SLP045 T02220106 $","updated":"2026-03-09T22:27:47Z"}
