{"icao":"LPBJ","metar":"LPBJ 081500Z 31004KT 280V350 9999 OVC028 12/07 Q1032","updated":"2026-01-08T15:24:37Z"}
