{"icao":"LPMT","metar":"LPMT 280100Z 25015KT 210V280 7000 BKN015 BKN030 19/17 Q1013","updated":"2025-09-28T01:25:35Z"}
