{"icao":"LPPS","metar":"LPPS 180130Z 33025KT 9999 SCT008 BKN012 16/15 Q1014","updated":"2026-01-18T01:48:05Z"}
