{"icao":"LPPR","metar":"LPPR 040700Z 05004KT 020V080 CAVOK 10/08 Q1002","updated":"2026-01-04T07:20:06Z"}
