{"icao":"LPFR","metar":"LPFR 261100Z 18004KT 160V220 9999 FEW012 BKN025 22/19 Q1018","updated":"2025-10-26T11:12:56Z"}
