{"icao":"LPFR","metar":"LPFR 150500Z 09006KT 060V130 CAVOK 24/14 Q1017","updated":"2025-09-15T05:17:50Z"}
