{"icao":"LPPT","metar":"LPPT 171130Z 08005G15KT 030V110 CAVOK 21/13 Q1019","updated":"2026-04-17T11:51:16Z"}
