{"icao":"LPLA","metar":"LPLA 200400Z 19018G28KT 150V220 9999 -RA FEW012 SCT018 17/14 Q1020","updated":"2026-02-20T04:21:28Z"}
