{"icao":"LPCS","metar":"LPCS 221500Z 22012KT 5000 RA BR SCT004 BKN010 13/13 Q1005","updated":"2026-01-22T15:29:39Z"}
