{"icao":"LPCS","metar":"LPCS 251930Z 01020KT CAVOK 17/11 Q1015","updated":"2026-04-25T19:42:18Z"}
