{"icao":"KJFK","metar":"KJFK 282151Z 33016G24KT 270V350 10SM SCT085 06/M15 A3042 RMK AO2 PK WND 35026/2127 SLP301 T00611150","updated":"2026-03-28T22:28:12Z"}
