{"icao":"LPPS","metar":"LPPS 122000Z 05012KT 010V100 9999 BKN015 16/11 Q1024","updated":"2026-03-12T20:33:42Z"}
