{"icao":"LPMR","metar":"LPMR 201300Z VRB02KT 8000 SCT015 12/11 Q1018 RESHRA","updated":"2026-01-20T13:45:42Z"}
