{"icao":"LPCS","metar":"LPCS 231400Z 26006KT 230V310 9999 SCT020 BKN035 23/19 Q1019","updated":"2025-10-23T14:18:41Z"}
