{"icao":"LPHR","metar":"LPHR 201330Z 19016KT 6000 VCSH SCT007 SCT013 BKN060 17/15 Q1019","updated":"2026-02-20T14:00:40Z"}
