{"icao":"LPMA","metar":"LPMA 281900Z 01006KT 330V060 9999 SCT016 SCT030 19/13 Q1023","updated":"2025-11-28T19:14:25Z"}
