{"icao":"LPBJ","metar":"LPBJ 071100Z 22010KT 190V250 9999 VCSH SCT022 BKN040 19/13 Q1018","updated":"2025-11-07T11:15:08Z"}
