{"icao":"LPFL","metar":"LPFL 081900Z 14004KT 100V180 9999 BKN008 BKN013 16/14 Q1028","updated":"2026-01-08T19:19:16Z"}
