{"icao":"LPBJ","metar":"LPBJ 270300Z 19020KT 4000 -RADZ SCT007 BKN020 13/12 Q1004","updated":"2026-01-27T03:46:31Z"}
