{"icao":"LPBJ","metar":"LPBJ 021400Z 21003KT 110V260 CAVOK 31/12 Q1020","updated":"2025-10-02T14:17:14Z"}
