{"icao":"LPHR","metar":"LPHR 251200Z 32011KT 290V350 9999 SCT014 BKN030 19/12 Q1025","updated":"2026-06-25T12:19:25Z"}
