{"icao":"KLAX","metar":"KLAX 250903Z 00000KT 3/4SM R25L/P6000FT BR BKN002 OVC004 19/18 A2997 RMK AO2 VIS SW-W 1/2 T01890178 $","updated":"2025-09-25T09:19:16Z"}
