{"icao":"LPPR","metar":"LPPR 062000Z 00000KT CAVOK 19/12 Q1020","updated":"2025-10-06T20:19:01Z"}
