{"icao":"LPHR","metar":"LPHR 021430Z 26011KT 1200 -DZ BR SCT001 BKN002 19/18 Q1030","updated":"2026-06-02T14:51:22Z"}
