{"icao":"LPMR","metar":"LPMR 271200Z 13009KT CAVOK 22/11 Q1021","updated":"2025-10-27T12:39:15Z"}
