{"icao":"LPMT","metar":"LPMT 141800Z 23005KT CAVOK 22/16 Q1015","updated":"2025-10-14T18:26:18Z"}
