{"icao":"LPPS","metar":"LPPS 112100Z 02014KT 9999 SCT014 SCT030 15/11 Q1025","updated":"2026-04-11T21:31:19Z"}
