{"icao":"LPMT","metar":"LPMT 182300Z 33009KT CAVOK 19/14 Q1015 RMK BLU","updated":"2026-06-19T00:25:01Z"}
