{"icao":"LPPT","metar":"LPPT 171530Z 30010KT 270V330 9999 FEW036 19/10 Q1017","updated":"2026-05-17T15:57:28Z"}
