{"icao":"LPPR","metar":"LPPR 012000Z 00000KT CAVOK 17/14 Q1021","updated":"2025-10-01T20:19:30Z"}
