{"icao":"LPMA","metar":"LPMA 212000Z 26005KT 240V300 9999 FEW013 18/14 Q1019","updated":"2026-01-21T20:29:05Z"}
