{"icao":"LPFL","metar":"LPFL 181600Z 28007KT 190V350 9999 FEW014 21/11 Q1019","updated":"2026-05-18T16:20:52Z"}
