{"icao":"KJFK","metar":"KJFK 200751Z 17021G32KT 10SM BKN023 BKN030 19/17 A2969 RMK AO2 PK WND 17034/0702 RAB01E16 SLP054 P0000 T01940172 $","updated":"2025-10-20T08:25:03Z"}
