{"icao":"KORD","metar":"KORD 150151Z 09013KT 10SM FEW010 OVC060 02/M03 A3002 RMK AO2 SLP172 T00171028 $","updated":"2026-03-15T02:13:20Z"}
