{"icao":"KLAX","metar":"KLAX 151053Z 00000KT 10SM FEW015 FEW025 BKN250 12/10 A3004 RMK AO2 SLP169 T01170100 $","updated":"2026-02-15T11:21:36Z"}
