{"icao":"LPBJ","metar":"LPBJ 302300Z 30005KT CAVOK 25/17 Q1020","updated":"2026-06-30T23:10:36Z"}
