{"icao":"LPMA","metar":"LPMA 311500Z 10003KT 9999 BKN013 19/15 Q1024","updated":"2026-01-31T15:22:22Z"}
