{"icao":"LPPD","metar":"LPPD 312030Z 24003KT 210V270 0100 R30/0125N -DZ FG VV001 18/17 Q1027","updated":"2026-05-31T20:58:17Z"}
