{"icao":"LPPD","metar":"LPPD 302030Z 11011KT 080V140 9999 FEW018 14/10 Q1032","updated":"2026-03-30T20:54:07Z"}
