{"icao":"LPPT","metar":"LPPT 141230Z 31008KT 290V350 9999 3000SW -SHRA FEW012 SCT018TCU SCT040 13/11 Q1020","updated":"2026-01-14T12:43:12Z"}
