{"icao":"LPHR","metar":"LPHR 160900Z 24013KT 9999 SCT013 BKN030 16/13 Q1019","updated":"2026-04-16T09:17:57Z"}
