{"icao":"LPAZ","metar":"LPAZ 051400Z 31008KT 270V330 9999 FEW035 SCT049 18/12 Q1019","updated":"2025-11-05T14:19:03Z"}
