{"icao":"LPFL","metar":"LPFL 151900Z 33011KT 300V020 9999 SCT035 14/06 Q1031","updated":"2026-01-15T19:23:20Z"}
