{"icao":"LPPT","metar":"LPPT 200130Z 25004KT 9999 FEW020 SCT028 08/07 Q1021","updated":"2026-01-20T01:41:22Z"}
