{"icao":"LPFR","metar":"LPFR 220100Z 05009KT CAVOK 11/03 Q1027","updated":"2025-11-22T01:20:28Z"}
