{"icao":"LPCS","metar":"LPCS 131630Z 31006KT 270V360 9999 FEW006 BKN015 14/11 Q1021","updated":"2026-03-13T16:38:31Z"}
