{"icao":"LPCS","metar":"LPCS 042000Z 36015KT 9999 FEW010 13/12 Q1006","updated":"2026-01-04T20:21:19Z"}
