{"icao":"KLAX","metar":"KLAX 030253Z 25005KT 10SM FEW015 16/13 A2997 RMK AO2 SLP148 T01560128 55002 $","updated":"2025-12-03T03:16:26Z"}
