{"icao":"KORD","metar":"KORD 130451Z 16014G26KT 10SM BKN070 OVC080 06/M04 A2981 RMK AO2 PK WND 16026/0448 SLP097 T00611039 $","updated":"2026-03-13T05:48:20Z"}
