{"icao":"LPBJ","metar":"LPBJ 291800Z 30015KT CAVOK 31/15 Q1019","updated":"2026-05-29T18:30:42Z"}
