{"icao":"LPAR","metar":"LPAR 211000Z 25008KT 220V290 6000 -RA FEW007 BKN015 22/21 Q1015","updated":"2025-10-21T10:19:11Z"}
