{"icao":"LPFR","metar":"LPFR 110830Z 29009KT 270V330 9999 FEW020 17/14 Q1012","updated":"2026-04-11T08:41:20Z"}
