{"icao":"KLAX","metar":"KLAX 030753Z 21007KT 10SM FEW011 OVC014 16/12 A2993 RMK AO2 SLP132 T01560117 402000144","updated":"2026-05-03T08:06:53Z"}
