{"icao":"LPMA","metar":"LPMA 081330Z 02011KT 9999 SCT015 18/12 Q1033","updated":"2026-01-08T13:39:38Z"}
