{"icao":"LPCS","metar":"LPCS 270700Z 05008KT 9999 FEW045 17/11 Q1019","updated":"2025-10-27T07:18:02Z"}
