{"icao":"LPFR","metar":"LPFR 121930Z 29006KT CAVOK 16/11 Q1023","updated":"2026-03-12T19:41:09Z"}
