{"icao":"LPST","metar":"LPST 160800Z 22002KT 160V250 9999 -SHRA FEW008 SCT015 FEW020TCU FEW022CB 08/08 Q1014","updated":"2026-01-16T08:28:41Z"}
