{"icao":"KJFK","metar":"KJFK 031651Z 30008KT 10SM BKN055 BKN250 M02/M11 A3019 RMK AO2 SLP222 T10171106 PNO $","updated":"2026-02-03T17:51:46Z"}
