{"icao":"LPPS","metar":"LPPS 292100Z 05020G31KT 9999 SCT012 17/10 Q1026","updated":"2026-03-29T21:30:20Z"}
