{"icao":"LPBJ","metar":"LPBJ 270600Z 29014KT 3000 -DZRA FEW005 OVC010 12/11 Q1002 RERADZ","updated":"2026-01-27T06:33:48Z"}
