{"icao":"LPST","metar":"LPST 141300Z 31008KT 280V340 9999 BKN018 BKN045 17/13 Q1024","updated":"2026-04-14T13:23:03Z"}
