{"icao":"LPMA","metar":"LPMA 041100Z VRB07KT 9999 BKN015 FEW016CB 17/13 Q1009","updated":"2026-01-04T11:16:08Z"}
