{"icao":"LPPR","metar":"LPPR 282300Z 15007KT 9999 -RA FEW010 SCT049 16/15 Q1008","updated":"2025-10-28T23:16:34Z"}
