{"icao":"LPAZ","metar":"LPAZ 082000Z 34007KT 310V020 9999 FEW008 BKN036 21/18 Q1032","updated":"2026-06-08T20:12:13Z"}
