{"icao":"KORD","metar":"KORD 080851Z 34005KT 10SM OVC033 M08/M12 A3033 RMK AO2 SNE34 SLP283 P0000 60000 T10831117 51005","updated":"2025-12-08T09:27:28Z"}
