{"icao":"KORD","metar":"KORD 251951Z 28010G18KT 10SM FEW038 SCT200 SCT250 02/M12 A2969 RMK AO2 SLP061 T00221122","updated":"2026-02-25T20:34:12Z"}
