{"icao":"LPAR","metar":"LPAR 201000Z 27003KT 230V300 CAVOK 11/08 Q1021","updated":"2026-01-20T10:26:26Z"}
