{"icao":"KJFK","metar":"KJFK 072251Z 33023G31KT 10SM FEW075 SCT250 07/M13 A3033 RMK AO2 PK WND 33031/2245 SLP271 T00721128","updated":"2026-04-07T23:35:28Z"}
