{"icao":"LPMA","metar":"LPMA 130900Z 03006KT 350V070 9999 FEW015 22/15 Q1018","updated":"2025-10-13T09:21:20Z"}
