{"icao":"LPFL","metar":"LPFL 161700Z 20017G27KT 170V230 9999 -SHRA FEW011 BKN014 24/20 Q1016","updated":"2025-09-16T17:15:14Z"}
