{"icao":"KJFK","metar":"KJFK 232051Z 28014G22KT 10SM SCT055 SCT070 14/02 A2994 RMK AO2 SLP137 T01440022 53008","updated":"2025-10-23T21:15:42Z"}
