{"icao":"LPMA","metar":"LPMA 131900Z 02010KT 350V050 9999 SCT015 16/08 Q1025","updated":"2026-04-13T19:23:20Z"}
