{"icao":"LPMR","metar":"LPMR 160700Z 02005KT 350V050 CAVOK 13/08 Q1018","updated":"2026-05-16T08:02:23Z"}
