{"icao":"KJFK","metar":"KJFK 140451Z 19012KT 10SM BKN110 BKN170 OVC250 06/03 A2973 RMK AO2 SLP068 T00560028 400781006 $","updated":"2026-01-14T05:23:32Z"}
