{"icao":"KJFK","metar":"KJFK 162151Z 18017KT 10SM FEW060 BKN250 20/12 A2976 RMK AO2 SLP079 T02000122","updated":"2026-04-16T22:38:36Z"}
