{"icao":"KLAX","metar":"KLAX 030853Z 08005KT 10SM FEW020 BKN034 BKN250 14/12 A2997 RMK AO2 SLP147 T01390117 58005 $","updated":"2025-12-03T09:23:15Z"}
