{"icao":"KJFK","metar":"KJFK 301051Z 29021G33KT 10SM FEW040 OVC065 M01/M13 A2962 RMK AO2 PK WND 29038/1036 SLP029 T10061128 $","updated":"2025-12-30T11:18:51Z"}
