{"icao":"LPHR","metar":"LPHR 251700Z 25024G34KT 6000 -RA SCT008 SCT011 BKN035 17/16 Q1009","updated":"2026-01-25T17:17:07Z"}
