{"icao":"LPFR","metar":"LPFR 242300Z 26004KT CAVOK 20/15 Q1016","updated":"2025-09-24T23:15:53Z"}
