{"icao":"LPOV","metar":"LPOV 190700Z 14003KT 9000 MIFG FEW040 01/01 Q1020","updated":"2026-01-19T07:27:50Z"}
