{"icao":"KLAX","metar":"KLAX 040107Z 11009KT 3SM BR BKN008 OVC015 15/14 A2996 RMK AO2 VIS N 2 T01500139 $","updated":"2026-01-04T01:49:21Z"}
