{"icao":"KJFK","metar":"KJFK 080751Z 33021G28KT 10SM SCT035 BKN047 BKN055 03/M04 A3009 RMK AO2 PK WND 33028/0749 SLP189 T00331044 $","updated":"2025-12-08T08:29:43Z"}
