{"icao":"LPBJ","metar":"LPBJ 191800Z 31011KT CAVOK 25/13 Q1021","updated":"2026-05-19T18:58:47Z"}
