{"icao":"LPCS","metar":"LPCS 262100Z 02008KT CAVOK 18/15 Q1019","updated":"2025-10-26T21:15:06Z"}
