{"icao":"LPBJ","metar":"LPBJ 221800Z 10002KT CAVOK 21/06 Q1026","updated":"2026-02-22T18:33:44Z"}
