{"icao":"LPFL","metar":"LPFL 241830Z 34012KT 300V020 9999 FEW021 SCT033 20/14 Q1023","updated":"2026-06-24T18:50:03Z"}
