{"icao":"LPLA","metar":"LPLA 101300Z 23008KT 9999 FEW024 24/15 Q1022","updated":"2025-10-10T13:26:39Z"}
