{"icao":"LPST","metar":"LPST 151600Z 34015KT 9999 SCT025 16/12 Q1016","updated":"2026-05-16T21:47:23Z"}
