{"icao":"LPBJ","metar":"LPBJ 052100Z 32010KT CAVOK 15/08 Q1016","updated":"2026-05-05T21:59:46Z"}
