{"icao":"KORD","metar":"KORD 270936Z 02017KT 10SM SCT020 BKN200 00/M04 A3027 RMK AO2 PK WND 02032/0854 T00001044 $","updated":"2026-03-27T09:53:36Z"}
