{"icao":"LPFR","metar":"LPFR 090700Z 07006KT 6000 RA FEW048 12/10 Q1016","updated":"2026-04-09T07:20:21Z"}
