{"icao":"LPFR","metar":"LPFR 282000Z 34004KT CAVOK 15/06 Q1021","updated":"2026-02-28T20:24:09Z"}
