{"icao":"LPMR","metar":"LPMR 291000Z 14003KT 100V180 9999 FEW014 SCT032 19/16 Q1007","updated":"2025-10-29T10:20:23Z"}
