{"icao":"LPPS","metar":"LPPS 211330Z 29016KT 9999 SCT012 SCT030 19/16 Q1020","updated":"2026-01-21T13:43:59Z"}
