{"icao":"KLAX","metar":"KLAX 180853Z 23022G38KT 8SM -RA FEW016 SCT026CB BKN037 OVC200 14/11 A2988 RMK AO2 PK WND 21043/0843 LTG DSNT W RAB46 SLP118 CB W-NW MOV E AND CB DSNT SW P0000 60016 T01390106 58022","updated":"2026-02-18T09:46:20Z"}
