{"icao":"LPCS","metar":"LPCS 061600Z 24011KT CAVOK 24/18 Q1020","updated":"2025-10-06T16:21:24Z"}
