{"icao":"LPMA","metar":"LPMA 141330Z 03010KT 350V070 9999 SCT015 17/09 Q1026","updated":"2026-01-14T13:39:34Z"}
