{"icao":"LPPT","metar":"LPPT 212300Z 36005KT 320V080 CAVOK 09/03 Q1030","updated":"2025-11-21T23:16:36Z"}
