{"icao":"LPAR","metar":"LPAR 221300Z VRB04KT CAVOK 32/08 Q1019","updated":"2026-05-22T13:30:22Z"}
