{"icao":"LPMT","metar":"LPMT 071800Z 33006KT 290V360 9999 FEW020 SCT030 18/15 Q1016","updated":"2025-11-07T18:25:55Z"}
