{"icao":"LPPD","metar":"LPPD 020900Z VRB01KT 9999 FEW007 SCT014 21/19 Q1022","updated":"2025-10-02T09:17:55Z"}
