{"icao":"KORD","metar":"KORD 301751Z 32013G23KT 10SM BKN022 M01/M06 A3014 RMK AO2 SLP214 4/007 933007 60000 T10111056 11006 21028 51043 $","updated":"2025-11-30T18:25:48Z"}
