{"icao":"LPLA","metar":"LPLA 261226Z 29027G38KT 4500 -SHRA FEW015 SCT020 FEW022TCU BKN030 11/07 Q1004","updated":"2026-01-26T12:45:50Z"}
