{"icao":"LPPT","metar":"LPPT 230400Z VRB02KT CAVOK 08/06 Q1028","updated":"2025-11-23T04:31:23Z"}
