{"icao":"KJFK","metar":"KJFK 171651Z 22013KT 10SM BKN055 BKN100 BKN250 26/14 A2985 RMK AO2 SLP107 TCU DSNT N T02560139","updated":"2026-04-17T17:02:03Z"}
