{"icao":"LPFR","metar":"LPFR 242200Z 02005KT CAVOK 09/06 Q1008","updated":"2025-12-24T22:18:44Z"}
