{"icao":"LPFR","metar":"LPFR 091530Z 25011KT CAVOK 25/17 Q1014","updated":"2026-06-09T15:53:14Z"}
