{"icao":"LPCS","metar":"LPCS 161730Z 29008KT 250V310 9999 FEW012 15/13 Q1031","updated":"2026-02-16T17:36:22Z"}
