{"icao":"KORD","metar":"KORD 131051Z 15003KT 9SM CLR M03/M06 A3019 RMK AO2 SLP231 T10331056 $","updated":"2026-02-13T11:30:36Z"}
