{"icao":"LPMA","metar":"LPMA 051230Z 02017KT 340V050 9999 FEW014 23/15 Q1022","updated":"2026-06-05T12:36:01Z"}
