{"icao":"LPPT","metar":"LPPT 040700Z 12006KT CAVOK 14/12 Q1017","updated":"2025-11-04T07:18:22Z"}
