{"icao":"KJFK","metar":"KJFK 291951Z 27017G24KT 10SM FEW015 BKN029 BKN043 07/05 A2932 RMK AO2 PK WND 24032/1928 SLP927 BKN029 V SCT T00720050 $","updated":"2025-12-29T20:22:48Z"}
