{"icao":"LPFR","metar":"LPFR 240500Z 32005KT CAVOK 13/10 Q1015","updated":"2026-04-24T05:33:34Z"}
