{"icao":"LPHR","metar":"LPHR 271830Z 19005KT 150V210 9999 SCT018 16/12 Q1034","updated":"2026-02-27T18:41:10Z"}
