{"icao":"LPBJ","metar":"LPBJ 241700Z 34005KT 310V010 9999 FEW040 22/11 Q1019","updated":"2026-03-24T17:54:33Z"}
