{"icao":"KJFK","metar":"KJFK 140551Z 04015G27KT 10SM -RA OVC012 13/12 A2997 RMK AO2 PK WND 04028/0511 RAE16B44 SLP147 P0000 60000 T01330117 10139 20133 58003","updated":"2025-10-14T06:27:37Z"}
