{"icao":"LPLA","metar":"LPLA 010600Z 18005KT 140V210 9999 SCT014 BKN024 16/13 Q1024","updated":"2026-03-01T06:43:42Z"}
