{"icao":"KJFK","metar":"KJFK 120651Z 30019G30KT 10SM BKN055 01/M07 A2986 RMK AO2 PK WND 29030/0643 SLP112 T00111072 $","updated":"2026-02-12T07:51:10Z"}
