{"icao":"LPFR","metar":"LPFR 152000Z 23012KT 8000 -RA FEW016 BKN024 14/12 Q1018","updated":"2026-01-15T20:24:20Z"}
