{"icao":"LPPD","metar":"LPPD 130700Z 36007KT 9999 FEW018 18/15 Q1016","updated":"2025-10-13T07:18:23Z"}
