{"icao":"LPFL","metar":"LPFL 050830Z VRB02KT 9999 FEW025 BKN040 11/02 Q1036","updated":"2026-03-05T08:39:48Z"}
