{"icao":"LPHR","metar":"LPHR 271500Z 25029G39KT 7000 -RA SCT012 BKN020 16/15 Q1004","updated":"2026-01-27T15:29:51Z"}
