{"icao":"LPAR","metar":"LPAR 121000Z 25006KT 220V290 8000 BKN020 15/13 Q1021","updated":"2026-02-12T10:43:35Z"}
