{"icao":"LPMR","metar":"LPMR 251400Z 34012KT 310V010 CAVOK 15/06 Q1023","updated":"2025-11-25T14:18:52Z"}
