{"icao":"LPFR","metar":"LPFR 081700Z 19003KT 170V230 9999 FEW018 14/09 Q1032","updated":"2026-01-08T17:25:26Z"}
