{"icao":"LPBJ","metar":"LPBJ 061300Z 15008KT 090V200 9999 FEW040 29/15 Q1020","updated":"2025-10-06T13:27:33Z"}
