{"icao":"LPMT","metar":"LPMT 081800Z 23005KT 9999 SCT008 SCT013 BKN022 13/12 Q1031","updated":"2026-01-08T18:27:10Z"}
