{"icao":"LPFR","metar":"LPFR 082200Z 28011KT CAVOK 21/16 Q1018","updated":"2026-06-08T22:24:51Z"}
