{"icao":"KORD","metar":"KORD 251111Z 35010KT 2 1/2SM -SN SCT018 OVC027 M14/M17 A3021 RMK AO2 P0000 T11441172 $","updated":"2026-01-25T11:16:58Z"}
