{"icao":"LPPR","metar":"LPPR 042000Z 35008KT 6000 BKN002 BKN004 16/16 Q1024","updated":"2025-10-04T20:16:45Z"}
