{"icao":"LPPR","metar":"LPPR 130530Z 17004KT 110V220 7000 SHRA SCT015 BKN020 FEW025TCU 10/08 Q1020","updated":"2026-04-13T05:40:17Z"}
