{"icao":"LPLA","metar":"LPLA 141800Z 11006KT 9999 FEW014 FEW020CB SCT035 17/14 Q1003 RE TS","updated":"2025-10-14T18:26:32Z"}
