{"icao":"LPMA","metar":"LPMA 022100Z 35018KT 300V030 9999 SCT015 14/03 Q1018","updated":"2026-03-02T21:32:12Z"}
