{"icao":"KJFK","metar":"KJFK 061051Z 31013KT 10SM BKN047 09/01 A2992 RMK AO2 PK WND 31034/0953 SLP133 T00940006","updated":"2025-11-06T11:16:35Z"}
