{"icao":"LPMA","metar":"LPMA 021200Z 20008KT 9999 FEW015 24/19 Q1024","updated":"2025-11-02T12:33:03Z"}
