{"icao":"LPHR","metar":"LPHR 062100Z 30009KT 9999 FEW020 19/14 Q1017","updated":"2025-11-07T06:27:46Z"}
