{"icao":"LPPT","metar":"LPPT 290800Z 05005KT 8000 VCSH BKN005 FEW020TCU 16/16 Q1006","updated":"2025-10-29T08:25:22Z"}
