{"icao":"LPOV","metar":"LPOV 291900Z 29004KT CAVOK 18/14 Q1016","updated":"2025-09-29T19:14:01Z"}
