{"icao":"LPFR","metar":"LPFR 200300Z 35004KT CAVOK 11/07 Q1017","updated":"2025-11-20T03:08:26Z"}
