{"icao":"KLAX","metar":"KLAX 041053Z 00000KT 10SM FEW240 FEW290 14/13 A3000 RMK AO2 SLP156 T01390128 $","updated":"2026-04-04T11:28:35Z"}
