{"icao":"LPMR","metar":"LPMR 192200Z 25005KT 210V270 2000 -DZ BR SCT003 OVC005 19/18 Q1014","updated":"2025-10-19T22:16:01Z"}
