{"icao":"LPOV","metar":"LPOV 301400Z 34021KT CAVOK 22/17 Q1021","updated":"2026-06-30T15:25:16Z"}
