{"icao":"LPPT","metar":"LPPT 310900Z 05004KT 0150 R02/0300N FG VV001 05/05 Q1020","updated":"2025-12-31T09:23:21Z"}
