{"icao":"LPMA","metar":"LPMA 061830Z 04006KT 360V080 9999 SCT014 BKN030 18/11 Q1015","updated":"2026-04-06T18:57:36Z"}
