{"icao":"LPCR","metar":"LPCR 160900Z 25007KT 210V270 8000 -TSRA SCT005 BKN015 FEW025CB 21/20 Q1014","updated":"2026-06-16T09:30:47Z"}
