{"icao":"LPFR","metar":"LPFR 021100Z 07008G19KT 040V100 9999 SCT014 BKN018 15/11 Q1012","updated":"2026-03-02T11:30:53Z"}
