{"icao":"LPLA","metar":"LPLA 131800Z 24004KT 210V270 9999 FEW025 15/09 Q1025","updated":"2026-01-13T18:29:55Z"}
