{"icao":"LPMT","metar":"LPMT 100600Z 24009KT 2000 BR OVC003 15/15 Q1015","updated":"2026-02-10T07:02:21Z"}
