{"icao":"LPBJ","metar":"LPBJ 051000Z 02003KT 330V100 9999 FEW008 BKN015 18/16 Q1021","updated":"2025-10-05T10:16:11Z"}
