{"icao":"LPPT","metar":"LPPT 042200Z 33008KT 300V010 9999 FEW010 12/11 Q1006","updated":"2026-01-04T22:18:51Z"}
