{"icao":"LPFR","metar":"LPFR 220900Z 07008KT CAVOK 15/05 Q1027","updated":"2026-02-22T09:29:01Z"}
