{"icao":"KLAX","metar":"KLAX 112053Z 26010KT 4SM BR FEW006 SCT060 BKN160 BKN200 18/14 A3005 RMK AO2 SLP175 VIS SW-NW 1 1/2 T01780144 58018 $","updated":"2025-11-11T21:16:37Z"}
