{"icao":"LPMA","metar":"LPMA 230430Z 02007KT 320V070 9999 -SHRA SCT015 17/13 Q1016","updated":"2026-01-23T04:41:22Z"}
