{"icao":"LPFR","metar":"LPFR 192300Z 35004KT CAVOK 09/06 Q1029","updated":"2026-02-19T23:28:22Z"}
