{"icao":"LPPR","metar":"LPPR 130730Z 11006KT 060V160 CAVOK 16/12 Q1022"}
