{"icao":"KJFK","metar":"KJFK 090151Z 31015G23KT 10SM CLR M09/M19 A3021 RMK AO2 PK WND 33028/0108 SLP230 T10941194 $","updated":"2026-02-09T02:06:27Z"}
