{"icao":"LPFR","metar":"LPFR 252230Z 13006KT CAVOK 18/16 Q1015","updated":"2026-04-25T22:35:27Z"}
