{"icao":"LPPT","metar":"LPPT 061830Z 14007KT 110V170 4000 RA FEW004 BKN006 16/15 Q1016","updated":"2026-04-06T18:57:19Z"}
