{"icao":"LPBJ","metar":"LPBJ 110200Z 24006KT 4500 BCFG BKN003 13/13 Q1013","updated":"2026-04-11T02:07:31Z"}
