{"icao":"LPFR","metar":"LPFR 171300Z 10014KT CAVOK 25/17 Q1014","updated":"2025-10-17T13:26:40Z"}
