{"icao":"KJFK","metar":"KJFK 291851Z 03011KT 10SM BKN026 BKN043 BKN070 12/06 A3012 RMK AO2 SLP197 T01220061","updated":"2025-10-29T19:14:24Z"}
