{"icao":"KJFK","metar":"KJFK 280851Z 00000KT 10SM SCT018 BKN045 BKN080 BKN140 19/18 A3000 RMK AO2 RAE51 SLP159 P0002 60007 T01890183 50007","updated":"2025-09-28T09:15:53Z"}
