{"icao":"LPPR","metar":"LPPR 140500Z 00000KT CAVOK 12/11 Q1017","updated":"2025-10-14T05:16:47Z"}
