{"icao":"LPCS","metar":"LPCS 061600Z 27007KT 230V300 9999 FEW016 18/10 Q1018","updated":"2025-11-06T16:24:39Z"}
