{"icao":"LPPT","metar":"LPPT 310200Z 02008KT CAVOK 16/06 Q1027","updated":"2026-03-31T02:12:54Z"}
