{"icao":"KJFK","metar":"KJFK 161051Z 35008KT 10SM FEW035 FEW170 08/02 A2996 RMK AO2 SLP145 T00830017","updated":"2025-10-16T11:15:31Z"}
