{"icao":"LPMT","metar":"LPMT 171800Z 27004KT CAVOK 21/16 Q1013","updated":"2025-10-17T18:23:09Z"}
