{"icao":"LPCR","metar":"LPCR 241600Z 31008KT 270V350 9999 FEW020 BKN048 21/14 Q1023","updated":"2026-06-24T16:20:20Z"}
