{"icao":"LPOV","metar":"LPOV 140800Z 01009KT 9999 FEW006 10/05 Q1022","updated":"2026-02-14T08:30:43Z"}
