{"icao":"LPLA","metar":"LPLA 081400Z 24014KT 8000 -RADZ SCT010 SCT017 19/15 Q1030","updated":"2026-01-08T14:24:02Z"}
