{"icao":"KLAX","metar":"KLAX 262306Z 25015KT 1 3/4SM R25L/5000VP6000FT -RA BR FEW009 BKN022 OVC034 14/13 A3000 RMK AO2 RAB2256 VIS SW-NW 3/4 P0002 T01440133 $","updated":"2025-12-26T23:19:05Z"}
