{"icao":"LPMT","metar":"LPMT 262000Z 20014G28KT 170V230 9999 SCT030 16/12 Q1008","updated":"2026-01-26T20:26:38Z"}
