{"icao":"LPMR","metar":"LPMR 122300Z 14011KT 5000 RA BKN040 15/14 Q1005","updated":"2025-11-12T23:17:41Z"}
