{"icao":"LPCS","metar":"LPCS 280900Z 28008KT 240V310 9999 FEW016 SCT030 14/12 Q1001","updated":"2026-01-28T09:32:43Z"}
