{"icao":"LPPS","metar":"LPPS 251100Z 33011KT 300V360 9999 FEW015 21/14 Q1025","updated":"2025-11-25T11:16:58Z"}
