{"icao":"LPFL","metar":"LPFL 192100Z 19003KT 130V250 9999 FEW015 15/11 Q1018","updated":"2026-02-20T01:59:51Z"}
