{"icao":"LPMR","metar":"LPMR 200900Z 17003KT 4000 BR FEW020 05/05 Q1020","updated":"2026-01-20T09:31:33Z"}
