{"icao":"LPFR","metar":"LPFR 270500Z 07012KT CAVOK 10/06 Q1009","updated":"2025-12-27T05:19:43Z"}
