{"icao":"LPPT","metar":"LPPT 250500Z 26014KT 7000 FEW006 BKN012 13/12 Q1015","updated":"2026-01-25T05:27:20Z"}
