{"icao":"KJFK","metar":"KJFK 082151Z 31006KT 10SM SCT250 08/M01 A3024 RMK AO2 SLP241 T00831006 $","updated":"2026-01-08T22:20:33Z"}
