{"icao":"LPBJ","metar":"LPBJ 021400Z 31006KT 260V030 CAVOK 23/09 Q1020","updated":"2026-04-02T14:54:15Z"}
