{"icao":"LPLA","metar":"LPLA 181822Z 16010KT 8000 -SHRA FEW013 BKN020 16/15 Q1013","updated":"2026-04-18T18:49:55Z"}
