{"icao":"KORD","metar":"KORD 180051Z 08007KT 10SM FEW300 23/14 A3003 RMK AO2 SLP166 T02330144 $","updated":"2025-09-18T01:16:41Z"}
