{"icao":"LPAZ","metar":"LPAZ 150600Z 31015KT 9999 FEW034 SCT040 16/08 Q1013","updated":"2025-11-15T06:25:29Z"}
