{"icao":"LPMT","metar":"LPMT 100500Z 34007KT 300V010 9999 FEW020 SCT035 11/08 Q1020","updated":"2026-03-10T05:43:41Z"}
