{"icao":"LPPR","metar":"LPPR 222200Z 03009KT CAVOK 16/07 Q1020","updated":"2025-09-22T22:16:05Z"}
