{"icao":"LPPR","metar":"LPPR 080800Z 35004KT 320V030 5000 BR FEW003 BKN030 15/15 Q1022","updated":"2025-10-08T08:24:01Z"}
