{"icao":"LPMT","metar":"LPMT 211400Z 01009KT CAVOK 17/10 Q1028","updated":"2026-02-21T14:24:54Z"}
