{"icao":"LPPS","metar":"LPPS 150330Z 33006KT 280V010 9999 SCT015 BKN030 15/08 Q1025","updated":"2026-01-15T03:40:01Z"}
