{"icao":"LPPD","metar":"LPPD 140500Z 16005KT 120V180 9999 SCT018 20/16 Q1011","updated":"2025-10-14T05:16:50Z"}
