{"icao":"KORD","metar":"KORD 070451Z 18013G26KT 10SM SCT043 BKN050 BKN070 OVC200 12/M02 A2973 RMK AO2 PK WND 17028/0435 SLP069 T01221017 $","updated":"2025-11-07T05:18:01Z"}
