{"icao":"KORD","metar":"KORD 041051Z 34007KT 10SM FEW250 M13/M19 A3033 RMK AO2 SLP282 T11281189","updated":"2025-12-04T11:18:19Z"}
