{"icao":"LPPT","metar":"LPPT 051900Z 32009KT CAVOK 20/14 Q1018","updated":"2025-10-05T19:12:32Z"}
