{"icao":"KJFK","metar":"KJFK 140851Z 02019G25KT 10SM OVC012 13/11 A2999 RMK AO2 PK WND 03026/0814 SLP154 60000 T01280106 53006","updated":"2025-10-14T09:20:21Z"}
