{"icao":"KJFK","metar":"KJFK 270951Z 00000KT 10SM BKN250 18/16 A2995 RMK AO2 SLP143 T01830161 $","updated":"2025-09-27T10:16:01Z"}
