{"icao":"LPMA","metar":"LPMA 020930Z 29004KT 240V020 9999 FEW015 16/06 Q1015","updated":"2026-02-02T09:47:48Z"}
