{"icao":"LPFL","metar":"LPFL 232100Z 26014G33KT 190V350 9999 SCT020 15/08 Q1004","updated":"2026-02-24T07:07:29Z"}
