{"icao":"KLAX","metar":"KLAX 091553Z VRB03KT 5SM HZ OVC012 17/14 A2994 RMK AO2 SLP138 T01720139","updated":"2026-05-09T16:53:40Z"}
