{"icao":"KJFK","metar":"KJFK 021051Z 28010KT 9SM -SN BKN095 OVC110 M06/M11 A2983 RMK AO2 SLP099 P0000 T10561111 $","updated":"2026-01-02T11:17:43Z"}
