{"icao":"LPAZ","metar":"LPAZ 290630Z 08008KT 9999 VCSH FEW012 SCT016 BKN022 14/11 Q1032","updated":"2026-03-29T07:02:04Z"}
