{"icao":"KLAX","metar":"KLAX 130953Z 07006KT 10SM FEW011 16/14 A2972 RMK AO2 SLP062 T01610139 $","updated":"2025-10-13T10:21:14Z"}
