{"icao":"LPMA","metar":"LPMA 232100Z 36009KT 330V030 9999 FEW016 18/13 Q1026","updated":"2025-11-23T21:16:11Z"}
