{"icao":"LPCS","metar":"LPCS 061330Z 34014KT 300V360 9999 FEW016 22/14 Q1019","updated":"2026-06-06T13:39:16Z"}
