{"icao":"LPMT","metar":"LPMT 171300Z 01006KT 300V040 CAVOK 23/12 Q1017","updated":"2026-04-17T13:16:54Z"}
