{"icao":"LPPT","metar":"LPPT 170900Z 34006KT 9999 FEW010 FEW025CB 15/14 Q1014","updated":"2025-11-17T09:23:38Z"}
