{"icao":"LPBJ","metar":"LPBJ 201700Z 31009KT CAVOK 14/05 Q1019","updated":"2025-11-20T17:15:11Z"}
