{"icao":"LPPR","metar":"LPPR 041900Z 29003KT 210V330 0300 R17/0800 FG VV001 17/17 Q1023","updated":"2025-10-04T19:11:49Z"}
