{"icao":"LPPS","metar":"LPPS 121630Z 26014KT 9999 FEW015 18/12 Q1022","updated":"2026-02-12T16:57:24Z"}
