{"icao":"KJFK","metar":"KJFK 141151Z 25010KT 10SM FEW035 SCT250 04/01 A2986 RMK AO2 SLP110 T00390011 10039 20011 53020","updated":"2026-03-14T12:49:45Z"}
