{"icao":"LPCS","metar":"LPCS 271230Z 14006KT 100V170 9999 FEW022 22/16 Q1020","updated":"2025-10-27T12:39:14Z"}
