{"icao":"KJFK","metar":"KJFK 172251Z 29020G25KT 10SM BKN070 BKN250 03/M13 A3000 RMK AO2 PK WND 29031/2203 SLP157 VIRGA S T00331133","updated":"2026-03-17T23:31:24Z"}
