{"icao":"LPBJ","metar":"LPBJ 250300Z 24010KT 9999 FEW020 11/09 Q1016","updated":"2026-01-25T03:53:01Z"}
