{"icao":"LPFR","metar":"LPFR 290530Z 24015KT 7000 SCT006 BKN012 16/15 Q1012","updated":"2026-01-29T05:41:56Z"}
