{"icao":"KORD","metar":"KORD 140151Z 17015G26KT 10SM FEW170 BKN250 23/17 A2974 RMK AO2 PK WND 18026/0141 SLP068 T02330167","updated":"2026-04-14T02:28:52Z"}
