{"icao":"KJFK","metar":"KJFK 301051Z 36005KT 10SM BKN240 18/14 A3011 RMK AO2 SLP195 T01830144 $","updated":"2025-09-30T11:15:31Z"}
