{"icao":"KLAX","metar":"KLAX 130353Z 25007KT 10SM FEW250 16/13 A3004 RMK AO2 SLP170 T01610128","updated":"2026-05-13T04:41:55Z"}
