{"icao":"KLAX","metar":"KLAX 280653Z 10003KT 10SM FEW010 SCT050 19/16 A2993 RMK AO2 SLP133 T01940161 $","updated":"2025-09-28T07:14:24Z"}
