{"icao":"LPLA","metar":"LPLA 150400Z 23008KT 200V260 9999 FEW020 19/15 Q1004","updated":"2025-10-15T04:21:13Z"}
