{"icao":"LPPR","metar":"LPPR 281800Z 02009KT 350V050 9999 VCSH FEW030CB 23/11 Q1007","updated":"2026-04-28T18:15:46Z"}
