{"icao":"LPMA","metar":"LPMA 261330Z 21017G29KT 170V250 9999 SCT016 19/11 Q1020","updated":"2026-01-26T13:43:29Z"}
