{"icao":"LPPD","metar":"LPPD 011530Z 01011KT 330V050 9999 FEW025 19/09 Q1016","updated":"2026-05-01T15:56:14Z"}
