{"icao":"LPOV","metar":"LPOV 251300Z 28008KT 260V320 9999 SCT035 14/10 Q1013","updated":"2026-01-25T13:31:11Z"}
