{"icao":"LPLA","metar":"LPLA 011900Z 36003KT 9999 SCT045 17/07 Q1023","updated":"2025-11-01T19:12:36Z"}
