{"icao":"LPLA","metar":"LPLA 240900Z 36005KT 9999 SCT025 BKN036 20/13 Q1023","updated":"2025-09-24T09:18:53Z"}
