{"icao":"LPOV","metar":"LPOV 182000Z 07004KT 040V100 9999 SCT040 17/09 Q1003","updated":"2026-03-18T23:29:17Z"}
