{"icao":"KORD","metar":"KORD 121351Z 27011G19KT 10SM FEW250 05/M02 A2989 RMK AO2 SLP125 T00501017","updated":"2025-11-12T14:19:21Z"}
