{"icao":"LPHR","metar":"LPHR 161830Z 19017KT 9999 SCT012 BKN025 17/15 Q1021","updated":"2026-02-16T18:40:53Z"}
