{"icao":"LPPS","metar":"LPPS 311100Z 21015KT 9999 FEW015 24/15 Q1016","updated":"2025-10-31T11:15:33Z"}
