{"icao":"LPMR","metar":"LPMR 172300Z 35004KT CAVOK 12/09 Q1019","updated":"2026-04-17T23:39:27Z"}
