{"icao":"LPAZ","metar":"LPAZ 160700Z 03004KT 8000 -DZ FEW004 SCT016 BKN029 13/12 Q1021","updated":"2026-03-16T07:15:18Z"}
