{"icao":"LPAR","metar":"LPAR 240900Z 23008KT 9999 FEW012 BKN030 15/14 Q1019","updated":"2025-11-24T09:23:02Z"}
