{"icao":"KLAX","metar":"KLAX 260553Z 00000KT 10SM CLR 18/09 A3007 RMK AO2 SLP181 T01830089 10200 20161 51009","updated":"2025-11-26T06:29:32Z"}
