{"icao":"LPAZ","metar":"LPAZ 221230Z 03015KT 360V070 9999 FEW013 BKN036 16/12 Q1018","updated":"2026-03-22T12:49:26Z"}
