{"icao":"LPPR","metar":"LPPR 240800Z 08004KT 030V130 9999 FEW025 BKN030 15/12 Q1016","updated":"2025-10-24T08:23:58Z"}
