{"icao":"KORD","metar":"KORD 031751Z 06004KT 10SM FEW020 BKN250 12/06 A3007 RMK AO2 SLP183 T01220061 10122 20078 51007","updated":"2026-04-03T18:45:12Z"}
