{"icao":"LPBJ","metar":"LPBJ 051624Z 26016KT 6000 -SHRA SCT020CB BKN022 14/11 Q1000 RESHRA","updated":"2026-02-05T16:45:36Z"}
