{"icao":"LPAZ","metar":"LPAZ 051700Z 11005KT 080V140 9999 FEW032 BKN048 15/08 Q1029","updated":"2026-01-05T17:21:48Z"}
