{"icao":"KJFK","metar":"KJFK 200251Z 15018G26KT 10SM FEW019 SCT200 BKN250 19/16 A2985 RMK AO2 PK WND 16027/0206 SLP106 T01890156 58006 $","updated":"2025-10-20T03:14:28Z"}
