{"icao":"LPPD","metar":"LPPD 190900Z 32003KT 280V350 9999 FEW025 BKN040 14/09 Q1030","updated":"2025-12-19T09:23:19Z"}
