{"icao":"LPPS","metar":"LPPS 201330Z 09013KT 030V120 9999 FEW015 BKN030 17/10 Q1027","updated":"2026-02-20T14:00:41Z"}
