{"icao":"LPBJ","metar":"LPBJ 151300Z 30011KT 9999 OVC020 13/09 Q1032","updated":"2026-02-15T13:43:32Z"}
