{"icao":"KJFK","metar":"KJFK 081251Z 34020G28KT 10SM FEW030 FEW250 M16/M24 A3017 RMK AO2 PK WND 32028/1225 SLP215 T11561239 $","updated":"2026-02-08T13:43:05Z"}
