{"icao":"KJFK","metar":"KJFK 221351Z 01006KT 5SM -RA BR OVC041 08/07 A2988 RMK AO2 VIS 2 1/2 W SLP118 P0002 T00830072","updated":"2025-11-22T14:15:37Z"}
