{"icao":"LPMT","metar":"LPMT 100700Z VRB02KT 9999 FEW007 SCT030 15/15 Q1018","updated":"2025-11-10T07:18:17Z"}
