{"icao":"LPFR","metar":"LPFR 270430Z 21025G37KT 6000 -RA SCT008 SCT015 15/14 Q1005 RERA","updated":"2026-01-27T04:45:27Z"}
