{"icao":"KLAX","metar":"KLAX 302053Z 25009KT 10SM CLR 24/16 A2992 RMK AO2 SLP128 T02390156 58015 $","updated":"2025-10-30T21:16:27Z"}
