{"icao":"LPPT","metar":"LPPT 041100Z 03011KT CAVOK 14/10 Q1003","updated":"2026-01-04T11:15:51Z"}
