{"icao":"KJFK","metar":"KJFK 110151Z 19010KT 10SM BKN045 16/07 A3033 RMK AO2 SLP270 T01560067","updated":"2025-10-11T02:52:19Z"}
