{"icao":"LPMA","metar":"LPMA 151330Z 02012G23KT 330V060 9999 SCT015 BKN030 18/11 Q1023","updated":"2026-05-15T14:03:58Z"}
