{"icao":"LPLA","metar":"LPLA 111500Z 23010KT 9999 FEW015 BKN022 17/12 Q1031","updated":"2026-03-11T15:47:14Z"}
