{"icao":"LPBJ","metar":"LPBJ 102100Z 31008KT CAVOK 26/13 Q1016","updated":"2026-06-10T22:03:08Z"}
