{"icao":"LPPS","metar":"LPPS 231500Z 10010KT 070V130 9999 SCT015 20/13 Q1025","updated":"2025-11-23T15:16:51Z"}
