{"icao":"LPPS","metar":"LPPS 032200Z 05006KT 020V100 9999 FEW015 17/11 Q1028","updated":"2025-12-03T22:19:30Z"}
