{"icao":"LPAZ","metar":"LPAZ 160730Z 32007KT 9999 BKN038 14/06 Q1030","updated":"2026-05-16T08:02:25Z"}
