{"icao":"LPAR","metar":"LPAR 141300Z VRB03KT 9999 FEW035 28/12 Q1016","updated":"2025-10-14T13:29:00Z"}
