{"icao":"KJFK","metar":"KJFK 120051Z 28020G32KT 10SM BKN055 03/M07 A2989 RMK AO2 PK WND 30032/0051 SLP122 T00331067","updated":"2026-01-12T01:45:39Z"}
