{"icao":"KORD","metar":"KORD 051051Z 25009G18KT 10SM CLR 12/07 A2980 RMK AO2 SLP090 T01220067 $","updated":"2025-11-05T11:16:20Z"}
