{"icao":"LPFL","metar":"LPFL 091800Z 19012KT 160V220 9999 FEW030 16/08 Q1018","updated":"2025-12-10T08:27:24Z"}
