{"icao":"LPFR","metar":"LPFR 212100Z 28015KT 9000 FEW025 14/11 Q1008","updated":"2026-01-21T21:27:03Z"}
