{"icao":"LPBJ","metar":"LPBJ 011800Z 07002KT CAVOK 28/11 Q1019","updated":"2025-10-01T18:25:24Z"}
