{"icao":"KJFK","metar":"KJFK 150351Z 28009KT 10SM SCT070 SCT120 SCT250 08/M02 A2992 RMK AO2 SLP133 T00781017","updated":"2025-11-15T04:20:52Z"}
