{"icao":"LPCS","metar":"LPCS 010830Z 03003KT 320V120 9999 FEW012 17/09 Q1019","updated":"2026-05-01T08:59:12Z"}
