{"icao":"LPOV","metar":"LPOV 291800Z 35010KT CAVOK 21/13 Q1016","updated":"2025-09-29T18:26:18Z"}
