{"icao":"LPMT","metar":"LPMT 071500Z 25007KT 220V280 9999 FEW030 25/16 Q1021","updated":"2025-10-07T15:19:07Z"}
