{"icao":"KLAX","metar":"KLAX 310253Z 23006KT 10SM CLR 17/13 A2993 RMK AO2 SLP135 T01720133 55005 $","updated":"2026-05-31T03:41:37Z"}
