{"icao":"KORD","metar":"KORD 131851Z 07010KT 10SM BKN055 12/03 A3002 RMK AO2 SLP167 T01170028 $","updated":"2026-05-13T18:56:17Z"}
