{"icao":"LPAR","metar":"LPAR 141100Z 01005KT 340V060 9999 SCT025 15/11 Q1020","updated":"2026-01-14T11:20:15Z"}
