{"icao":"LPPT","metar":"LPPT 161730Z 29009KT 250V310 9999 BKN022 15/10 Q1030","updated":"2026-02-16T17:36:20Z"}
