{"icao":"KLAX","metar":"KLAX 210053Z 26009KT 10SM CLR 22/14 A2990 RMK AO2 SLP124 T02220144","updated":"2026-03-21T01:54:52Z"}
