{"icao":"LPPD","metar":"LPPD 011400Z 32011KT 290V350 9999 SCT006 BKN012 17/13 Q1023","updated":"2026-03-01T14:22:44Z"}
