{"icao":"LPBJ","metar":"LPBJ 031600Z 27009KT 240V320 CAVOK 30/12 Q1020","updated":"2025-10-03T16:20:40Z"}
