{"icao":"LPFR","metar":"LPFR 061900Z VRB02KT CAVOK 23/20 Q1019","updated":"2025-10-06T19:13:38Z"}
