{"icao":"KLAX","metar":"KLAX 010553Z 27003KT 10SM CLR 17/12 A3005 RMK AO2 SLP172 T01720117 10228 20161 52004 $","updated":"2026-02-01T06:03:26Z"}
