{"icao":"LPBJ","metar":"LPBJ 211200Z 11005KT 090V150 CAVOK 17/09 Q1029","updated":"2026-02-21T12:44:05Z"}
