{"icao":"KORD","metar":"KORD 272051Z 06013G22KT 10SM FEW030 SCT300 13/05 A3014 RMK AO2 SLP207 T01280050 56024","updated":"2025-10-27T21:15:57Z"}
