{"icao":"LPPD","metar":"LPPD 020730Z 05010KT 010V080 9999 FEW016 15/12 Q1018","updated":"2026-05-02T07:41:53Z"}
