{"icao":"LPFR","metar":"LPFR 230900Z VRB02KT 9999 FEW025 12/09 Q1007","updated":"2026-01-23T09:28:39Z"}
