{"icao":"LPAZ","metar":"LPAZ 192000Z 04016G26KT 010V070 9999 SCT019 17/13 Q1022","updated":"2025-11-19T20:18:21Z"}
