{"icao":"KLAX","metar":"KLAX 101153Z 11004KT 10SM CLR 14/04 A3002 RMK AO2 SLP162 T01440044 10189 20122 50002 $","updated":"2025-12-10T12:41:27Z"}
