{"icao":"KORD","metar":"KORD 200951Z 23017G31KT 10SM OVC012 02/00 A2931 RMK AO2 PK WND 26034/0917 SLP928 T00220000 $","updated":"2026-02-20T10:36:42Z"}
