{"icao":"LPFR","metar":"LPFR 120800Z 08012KT CAVOK 25/16 Q1018","updated":"2026-06-12T08:23:39Z"}
