{"icao":"LPLA","metar":"LPLA 032300Z 17006KT 140V210 9999 FEW022 17/15 Q1026","updated":"2025-12-03T23:16:00Z"}
