{"icao":"LPBJ","metar":"LPBJ 290400Z 24002KT 8000 VCFG SCT007 04/04 Q1020","updated":"2025-11-29T04:21:45Z"}
