{"icao":"LPMT","metar":"LPMT 210100Z 03010KT CAVOK 11/04 Q1024","updated":"2025-11-21T01:23:08Z"}
