{"icao":"KJFK","metar":"KJFK 101151Z 04005KT 10SM FEW040 08/02 A3053 RMK AO2 SLP336 T00830022 10083 20061 53008","updated":"2025-10-10T12:36:41Z"}
