{"icao":"LPPR","metar":"LPPR 092000Z 36008KT 9999 FEW018 10/07 Q1020","updated":"2026-03-09T20:33:05Z"}
