{"icao":"LPPS","metar":"LPPS 020500Z 28019G32KT 6000 +SHRA BKN013 FEW018CB 15/13 Q0998","updated":"2026-01-02T05:24:38Z"}
