{"icao":"LPST","metar":"LPST 011000Z VRB02KT CAVOK 25/13 Q1021","updated":"2025-10-01T10:18:30Z"}
