{"icao":"LPPT","metar":"LPPT 202000Z 09006KT 060V120 5000 RA BR SCT002 BKN010 14/14 Q1007","updated":"2026-03-20T20:30:56Z"}
