{"icao":"LPAR","metar":"LPAR 241600Z 27011KT 4000 -DZRA BR BKN006 BKN016 18/15 Q1016","updated":"2025-11-24T16:21:55Z"}
