{"icao":"LPMR","metar":"LPMR 011300Z 30009KT 9999 FEW028 25/14 Q1021","updated":"2025-10-01T13:27:55Z"}
