{"icao":"LPOV","metar":"LPOV 260400Z VRB02KT CAVOK 12/11 Q1016","updated":"2025-10-26T04:19:54Z"}
