{"icao":"LPCS","metar":"LPCS 261130Z 02004KT 330V080 CAVOK 19/13 Q1025","updated":"2026-02-26T11:38:41Z"}
