{"icao":"LPPD","metar":"LPPD 302100Z 20009KT 0800 R30/P2000 -RADZ FG VV001 17/16 Q1008","updated":"2025-12-30T21:18:53Z"}
