{"icao":"LPOV","metar":"LPOV 031800Z 18013KT 9999 FEW008 11/07 Q0996","updated":"2026-02-04T04:13:45Z"}
