{"icao":"LPPT","metar":"LPPT 051630Z 22008KT CAVOK 25/07 Q1019","updated":"2026-04-05T16:35:08Z"}
