{"icao":"LPHR","metar":"LPHR 140900Z 06010KT 030V090 9999 FEW016 SCT030 15/10 Q1030","updated":"2026-05-14T09:33:07Z"}
