{"icao":"LPLA","metar":"LPLA 290600Z 15013KT 8000 -RA SCT012 BKN020 21/19 Q1024","updated":"2025-09-29T06:28:33Z"}
