{"icao":"LPLA","metar":"LPLA 152000Z 10003KT 060V130 9999 FEW015 SCT022 BKN030 16/11 Q1027","updated":"2026-03-15T20:28:22Z"}
