{"icao":"LPFL","metar":"LPFL 211700Z 21014G26KT 150V280 9999 FEW012 SCT016 23/18 Q1008","updated":"2025-10-21T17:16:51Z"}
