{"icao":"LPMA","metar":"LPMA 191400Z 04006KT 010V080 9999 SCT015 20/14 Q1018","updated":"2025-11-19T14:18:53Z"}
