{"icao":"LPPD","metar":"LPPD 282100Z 24024KT 8000 FEW008 SCT011 17/16 Q1009","updated":"2026-01-28T21:28:00Z"}
