{"icao":"LPMR","metar":"LPMR 270600Z 29007G17KT 250V340 9999 -SHRA SCT020 BKN028 11/09 Q0999","updated":"2026-01-27T06:33:47Z"}
