{"icao":"LPOV","metar":"LPOV 050800Z 22015KT 9999 FEW014 BKN021 14/13 Q0987","updated":"2026-02-05T08:41:06Z"}
