{"icao":"LPAZ","metar":"LPAZ 201930Z 17013KT 9999 OVC049 16/13 Q1024","updated":"2026-02-20T19:35:56Z"}
