{"icao":"LPPT","metar":"LPPT 081030Z 32011KT 290V360 9999 FEW030 22/12 Q1023","updated":"2026-06-08T10:50:40Z"}
