{"icao":"LPMR","metar":"LPMR 201200Z 24007KT 200V290 9999 FEW015 BKN030 20/14 Q1015","updated":"2025-10-20T12:38:10Z"}
