{"icao":"KLAX","metar":"KLAX 150453Z 08005KT 10SM CLR 17/08 A3007 RMK AO2 SLP182 T01720078 $","updated":"2026-01-15T05:25:02Z"}
