{"icao":"LPFR","metar":"LPFR 141200Z 25009KT CAVOK 26/17 Q1020","updated":"2025-09-14T12:30:46Z"}
