{"icao":"LPFR","metar":"LPFR 222130Z 30009KT CAVOK 17/11 Q1013","updated":"2026-04-22T21:49:34Z"}
