{"icao":"LPAZ","metar":"LPAZ 282130Z 15013KT 9999 FEW010 SCT023 BKN035 17/15 Q1013","updated":"2026-04-28T21:56:57Z"}
