{"icao":"LPBJ","metar":"LPBJ 141900Z 30006KT CAVOK 24/10 Q1016","updated":"2025-10-14T19:13:52Z"}
