{"icao":"KJFK","metar":"KJFK 201151Z 04012KT 10SM FEW250 17/08 A3022 RMK AO2 SLP232 T01720083 10194 20161 51017 $","updated":"2025-09-20T12:32:33Z"}
