{"icao":"LPMA","metar":"LPMA 251230Z 02007KT 320V060 9999 FEW015 19/09 Q1027","updated":"2026-01-25T12:40:12Z"}
