{"icao":"LPBJ","metar":"LPBJ 070100Z VRB01KT CAVOK 18/16 Q1021","updated":"2025-10-07T01:17:41Z"}
