{"icao":"KJFK","metar":"KJFK 132251Z 32018G22KT 10SM SCT065 SCT080 09/M03 A2996 RMK AO2 PK WND 29029/2232 SLP146 T00941033","updated":"2025-11-13T23:18:01Z"}
