{"icao":"LPHR","metar":"LPHR 110930Z 04004KT 360V080 9999 FEW035 14/07 Q1033","updated":"2026-04-11T09:38:55Z"}
