{"icao":"LPHR","metar":"LPHR 201100Z 26013KT 7000 SCT006 23/22 Q1015","updated":"2025-10-20T11:15:57Z"}
