{"icao":"KORD","metar":"KORD 130551Z 17021G34KT 10SM BKN070 OVC085 06/M03 A2972 RMK AO2 PK WND 18038/0533 PRESFR SLP069 T00611033 10061 20044 400891017 58065 $","updated":"2026-03-13T06:52:19Z"}
