{"icao":"KJFK","metar":"KJFK 120651Z 26014G24KT 10SM SCT055 SCT150 BKN200 04/M05 A2992 RMK AO2 PK WND 25028/0559 SLP132 T00391050 $","updated":"2025-11-12T07:18:20Z"}
