{"icao":"LPMR","metar":"LPMR 130400Z 16002KT CAVOK 13/11 Q1015","updated":"2025-10-13T04:21:09Z"}
