{"icao":"LPPR","metar":"LPPR 230830Z 11007KT 090V210 CAVOK 11/05 Q1024","updated":"2026-02-23T08:49:46Z"}
