{"icao":"LPMA","metar":"LPMA 102200Z 36014KT 320V050 9999 SCT015 15/07 Q1028","updated":"2026-03-10T22:27:16Z"}
