{"icao":"LPHR","metar":"LPHR 312200Z 01005KT 310V030 9999 FEW020 SCT045 15/08 Q1017","updated":"2025-10-31T22:16:55Z"}
