{"icao":"LPMT","metar":"LPMT 280900Z 30011G21KT 7000 VCSH FEW015 SCT020 BKN028 20/16 Q1013","updated":"2025-09-28T09:15:35Z"}
