{"icao":"LPLA","metar":"LPLA 180100Z 24018KT 8000 -DZ SCT007 OVC012 23/22 Q1011","updated":"2025-10-18T01:16:16Z"}
