{"icao":"KJFK","metar":"KJFK 032151Z 26008KT 10SM BKN140 BKN200 OVC250 M02/M12 A2999 RMK AO2 SLP155 T10171117 $","updated":"2026-01-03T22:18:30Z"}
