{"icao":"LPMT","metar":"LPMT 120800Z 26008KT 5000 BR FEW008 SCT022 14/14 Q1020","updated":"2026-02-12T08:43:57Z"}
