{"icao":"KORD","metar":"KORD 211151Z 32004KT 10SM CLR M08/M15 A3033 RMK AO2 SLP281 T10781150 11017 21078 53026","updated":"2025-12-21T12:37:12Z"}
