{"icao":"LPMA","metar":"LPMA 122300Z 31004KT 280V010 9999 SCT015 FEW018TCU 18/12 Q1002","updated":"2025-11-12T23:18:12Z"}
