{"icao":"LPHR","metar":"LPHR 261630Z 31016KT 280V340 9999 FEW012 20/15 Q1029","updated":"2026-02-26T16:57:33Z"}
