{"icao":"LPPS","metar":"LPPS 171230Z 12006KT 9999 SCT005 BKN025 23/22 Q1012","updated":"2025-10-17T12:37:09Z"}
