{"icao":"LPMT","metar":"LPMT 061100Z 15008KT 9999 FEW040 21/10 Q1016","updated":"2026-04-06T11:47:24Z"}
