{"icao":"LPMA","metar":"LPMA 091000Z 02011KT 350V050 9999 SCT016 SCT033 23/17 Q1024","updated":"2025-10-09T10:19:22Z"}
