{"icao":"LPAZ","metar":"LPAZ 200530Z 02022G36KT 350V050 9999 -SHRA FEW017 BKN026 14/10 Q1000","updated":"2026-03-20T05:51:10Z"}
