{"icao":"LPBJ","metar":"LPBJ 290600Z 25014KT 7000 -DZ OVC004 15/15 Q1009","updated":"2026-01-29T06:44:28Z"}
