{"icao":"LPFL","metar":"LPFL 250900Z 34011KT 310V010 9999 FEW026 SCT042 18/13 Q1025","updated":"2026-06-25T09:18:52Z"}
