{"icao":"LPBJ","metar":"LPBJ 251800Z 08002KT CAVOK 21/10 Q1016","updated":"2026-03-25T19:01:09Z"}
