{"icao":"LPMA","metar":"LPMA 280700Z 32004KT 300V010 9999 SCT015 21/17 Q1013","updated":"2025-10-28T07:17:33Z"}
