{"icao":"LPPT","metar":"LPPT 170700Z 04004KT CAVOK 16/08 Q1021","updated":"2025-09-17T07:16:26Z"}
