{"icao":"LPPT","metar":"LPPT 302100Z 28012G30KT 250V310 9999 FEW014 SCT032 14/10 Q1014 WS R20","updated":"2026-01-30T21:26:40Z"}
