{"icao":"LPPS","metar":"LPPS 291400Z 02014KT 9999 FEW015 SCT030 23/12 Q1022","updated":"2025-09-29T14:18:29Z"}
