{"icao":"LPFR","metar":"LPFR 131400Z 17007KT 9999 FEW025 24/18 Q1015","updated":"2025-10-13T14:18:34Z"}
