{"icao":"KORD","metar":"KORD 131551Z 28009KT 10SM FEW020 OVC080 M12/M19 A3023 RMK AO2 SLP248 T11221189","updated":"2025-12-13T16:22:29Z"}
