{"icao":"LPPR","metar":"LPPR 061230Z 29007KT 240V330 9999 SCT020 FEW025TCU SCT040 18/09 Q1016","updated":"2025-11-06T12:38:18Z"}
