{"icao":"KJFK","metar":"KJFK 050451Z 16003KT 10SM SCT250 17/14 A3003 RMK AO2 SLP168 T01670144 402940150 $","updated":"2026-06-05T05:15:37Z"}
