{"icao":"KORD","metar":"KORD 271651Z 21012G21KT 10SM FEW100 BKN250 11/M03 A2986 RMK AO2 SLP116 T01111028","updated":"2026-02-27T17:34:02Z"}
