{"icao":"LPHR","metar":"LPHR 162100Z 20019KT 9999 SCT011 SCT025 17/15 Q1021","updated":"2026-02-16T21:28:03Z"}
