{"icao":"LPPS","metar":"LPPS 081100Z 03010KT 350V070 9999 SCT014 SCT030 22/16 Q1023","updated":"2025-11-08T11:13:21Z"}
