{"icao":"KORD","metar":"KORD 151751Z 18015G26KT 10SM FEW027 BKN036 OVC044 14/11 A2933 RMK AO2 PK WND 19026/1749 SLP934 60012 T01440106 10144 20033 58027 $","updated":"2026-03-15T18:37:32Z"}
