{"icao":"KJFK","metar":"KJFK 260751Z 01009KT 10SM OVC013 M05/M07 A2977 RMK AO2 SLP079 T10501067 $","updated":"2026-01-26T08:31:18Z"}
