{"icao":"LPPS","metar":"LPPS 052000Z 07015KT 040V110 5000 -RA BR SCT005 SCT010 15/13 Q1018","updated":"2026-05-05T20:06:14Z"}
