{"icao":"LPPR","metar":"LPPR 222100Z 00000KT 8000 NSC 11/11 Q1012","updated":"2026-03-22T21:24:49Z"}
