{"icao":"LPAZ","metar":"LPAZ 142200Z 02009KT 350V050 9999 FEW011 BKN023 15/13 Q1030","updated":"2026-03-14T22:25:02Z"}
