{"icao":"LPFR","metar":"LPFR 051100Z 10012KT CAVOK 22/02 Q1021","updated":"2026-04-05T11:28:08Z"}
