{"icao":"LPCS","metar":"LPCS 041400Z 13008KT CAVOK 19/15 Q1014","updated":"2025-11-04T14:19:01Z"}
