{"icao":"LPMT","metar":"LPMT 190700Z 05003KT 010V090 0600 FG BKN004 13/13 Q1015","updated":"2026-04-19T07:17:25Z"}
