{"icao":"LPMA","metar":"LPMA 211730Z 01013KT 330V040 9999 SCT016 BKN030 20/15 Q1019","updated":"2026-05-21T17:56:40Z"}
