{"icao":"KLAX","metar":"KLAX 141753Z 11006KT 10SM FEW230 SCT300 23/10 A2995 RMK AO2 SLP140 T02330100 10233 20133 50011 $","updated":"2026-03-14T18:37:04Z"}
