{"icao":"LPBJ","metar":"LPBJ 160400Z VRB02KT CAVOK 17/09 Q1015","updated":"2025-10-16T04:20:37Z"}
