{"icao":"LPAZ","metar":"LPAZ 031830Z 25023KT 6000 FEW006 SCT011 18/16 Q1007","updated":"2026-02-03T18:55:18Z"}
