{"icao":"LPBJ","metar":"LPBJ 191400Z 32007KT 290V350 9999 FEW025 BKN040 15/08 Q1016","updated":"2025-11-19T14:18:38Z"}
