{"icao":"LPPT","metar":"LPPT 060100Z 23005KT 9999 FEW020 FEW025TCU 12/10 Q1016","updated":"2025-11-06T01:23:52Z"}
