{"icao":"LPAR","metar":"LPAR 051300Z 27015KT 240V310 9999 VCSH SCT016 BKN026 20/13 Q1008","updated":"2025-11-05T13:31:08Z"}
