{"icao":"LPMA","metar":"LPMA 081700Z 36010KT 310V040 9999 BKN015 15/08 Q1026","updated":"2026-03-08T17:21:55Z"}
