{"icao":"LPPR","metar":"LPPR 261500Z 19017KT 5000 RADZ BR BKN007 BKN011 15/13 Q1005","updated":"2026-01-26T15:27:46Z"}
