{"icao":"KORD","metar":"KORD 292151Z 04005KT 10SM FEW250 M09/M21 A3028 RMK AO2 SLP268 T10891211","updated":"2026-01-29T22:27:01Z"}
