{"icao":"LPOV","metar":"LPOV 071200Z 27002KT 220V320 9999 SCT018 12/09 Q1026","updated":"2026-01-07T12:42:44Z"}
