{"icao":"LPMA","metar":"LPMA 012300Z 36006KT 310V030 9999 FEW015 18/11 Q1023","updated":"2025-12-01T23:18:11Z"}
