{"icao":"LPLA","metar":"LPLA 091100Z 22023G35KT 6000 -DZ SCT006 BKN010 19/17 Q1007","updated":"2026-02-09T11:42:56Z"}
