{"icao":"KJFK","metar":"KJFK 252153Z 16006KT 10SM -RA BKN008 BKN041 OVC070 11/11 A3012 RMK AO2 P0001 T01110106","updated":"2025-11-25T22:18:27Z"}
