{"icao":"KLAX","metar":"KLAX 232153Z 24008KT 200V270 10SM FEW024 FEW085 20/14 A3006 RMK AO2 SLP179 T02000144","updated":"2025-11-23T22:17:21Z"}
