{"icao":"LPHR","metar":"LPHR 091800Z 28010KT 250V310 9999 FEW023 19/14 Q1024","updated":"2025-11-09T18:23:04Z"}
