{"icao":"LPFR","metar":"LPFR 080500Z 04004KT CAVOK 06/05 Q1031","updated":"2026-01-08T05:23:49Z"}
