{"icao":"KLAX","metar":"KLAX 290953Z 00000KT 10SM FEW250 13/00 A3015 RMK AO2 SLP207 T01280000","updated":"2026-01-29T10:35:55Z"}
