{"icao":"LPLA","metar":"LPLA 141000Z 21009KT 180V250 9999 BKN035 15/08 Q1031","updated":"2026-02-14T10:25:33Z"}
