{"icao":"LPPD","metar":"LPPD 210330Z 27016KT 9999 FEW006 BKN010 16/15 Q1021","updated":"2026-01-21T03:42:39Z"}
