{"icao":"LPAZ","metar":"LPAZ 111400Z 31011KT 9999 SCT002 SCT004 BKN010 15/14 Q1018","updated":"2026-01-11T14:18:02Z"}
