{"icao":"LPST","metar":"LPST 131400Z 31009KT 280V340 9999 FEW024 27/12 Q1015","updated":"2025-10-13T14:18:35Z"}
