{"icao":"KJFK","metar":"KJFK 310951Z 32006KT 10SM FEW200 10/03 A3009 RMK AO2 SLP188 T01000033 $","updated":"2026-05-31T10:14:41Z"}
