{"icao":"KJFK","metar":"KJFK 210451Z 00000KT 10SM OVC007 03/02 A2972 RMK AO2 SLP063 T00280017 400560017 $","updated":"2026-02-21T05:40:44Z"}
