{"icao":"LPPD","metar":"LPPD 062100Z 01003KT 9999 FEW025 SCT045 13/06 Q1035","updated":"2026-01-06T21:19:49Z"}
