{"icao":"LPCS","metar":"LPCS 141500Z 25011KT 220V280 9999 FEW009 SCT020 FEW024TCU 17/12 Q1002","updated":"2025-11-14T15:17:11Z"}
