{"icao":"LPMA","metar":"LPMA 052100Z 30004KT 260V340 9999 BKN025 18/08 Q1025","updated":"2025-12-05T21:17:20Z"}
