{"icao":"LPPT","metar":"LPPT 081600Z 33011KT 290V350 9999 FEW026 15/09 Q1021","updated":"2026-03-08T16:26:36Z"}
