{"icao":"KJFK","metar":"KJFK 281451Z 27020G31KT 10SM FEW050 FEW110 FEW250 04/M07 A2993 RMK AO2 PK WND 27033/1436 SLP136 T00391072 51009","updated":"2025-11-28T15:19:22Z"}
