{"icao":"LPCS","metar":"LPCS 162200Z 28003KT 250V310 9999 FEW012 BKN019 14/13 Q1031","updated":"2026-02-16T22:27:00Z"}
