{"icao":"LPMT","metar":"LPMT 221400Z 25008KT 200V270 9999 VCSH FEW012 BKN030 22/20 Q1018","updated":"2025-10-22T14:19:48Z"}
