{"icao":"LPPT","metar":"LPPT 141230Z VRB04KT 9999 FEW042 26/12 Q1017","updated":"2025-10-14T12:38:46Z"}
