{"icao":"LPPR","metar":"LPPR 140200Z 19006KT 9999 -DZRA OVC003 12/12 Q1021","updated":"2026-04-14T02:28:34Z"}
