{"icao":"LPMT","metar":"LPMT 210800Z 23008KT 4000 BR BKN006 BKN030 20/20 Q1014","updated":"2025-10-21T08:25:36Z"}
