{"icao":"KJFK","metar":"KJFK 020751Z 01005KT 10SM FEW045 13/06 A3037 RMK AO2 SLP282 T01280061","updated":"2025-10-02T08:23:02Z"}
