{"icao":"LPPR","metar":"LPPR 032300Z 22010KT 9999 -SHRA FEW015 SCT020 BKN028 14/12 Q1019","updated":"2025-12-03T23:15:56Z"}
