{"icao":"KLAX","metar":"KLAX 302053Z 25011G20KT 10SM FEW009 SCT018 SCT045 21/14 A2995 RMK AO2 SLP142 T02060139 58004 $","updated":"2026-06-30T21:27:10Z"}
