{"icao":"LPPD","metar":"LPPD 092200Z 11004KT 9999 FEW018 19/17 Q1030","updated":"2026-06-09T22:23:05Z"}
