{"icao":"KJFK","metar":"KJFK 191751Z 02007KT 10SM BKN018 BKN075 07/03 A3016 RMK AO2 SLP213 60018 T00720028 10078 20039 58010 $","updated":"2025-11-19T18:28:05Z"}
