{"icao":"LPMT","metar":"LPMT 120100Z 17011KT 9999 FEW021 17/14 Q1006","updated":"2025-11-12T01:24:00Z"}
