{"icao":"LPST","metar":"LPST 061300Z 27016KT 9999 SCT025 FEW027CB 13/07 Q1005","updated":"2026-02-06T14:03:13Z"}
