{"icao":"LPOV","metar":"LPOV 061900Z 17010KT 9999 -RA FEW025 BKN040 16/16 Q1015","updated":"2026-04-06T20:36:20Z"}
