{"icao":"LPOV","metar":"LPOV 251600Z 33004KT 300V360 9999 -RA SCT035 16/15 Q1015","updated":"2025-10-25T16:19:44Z"}
