{"icao":"LPMR","metar":"LPMR 140500Z 29001KT 8000 SCT008 BKN018 13/13 Q1022","updated":"2026-04-14T05:21:57Z"}
