{"icao":"LPPD","metar":"LPPD 120800Z 03003KT 350V060 9999 FEW011 BKN030 18/17 Q1023","updated":"2026-06-12T08:23:42Z"}
