{"icao":"LPPT","metar":"LPPT 031000Z 07006KT 040V100 9999 FEW010 13/11 Q1024","updated":"2025-11-03T10:21:35Z"}
