{"icao":"LPMA","metar":"LPMA 261300Z 02012G24KT 340V090 9999 FEW016 20/11 Q1018","updated":"2026-04-26T13:04:34Z"}
