{"icao":"KLAX","metar":"KLAX 150620Z 00000KT 10SM BKN012 19/17 A2986 RMK AO2 T01940172 $","updated":"2025-09-15T06:28:13Z"}
