{"icao":"LPFL","metar":"LPFL 201100Z VRB03KT 9999 3000N -DZ FEW005 SCT011 BKN026 16/15 Q1032","updated":"2025-11-20T11:16:59Z"}
