{"icao":"LPMT","metar":"LPMT 250800Z 26008KT 230V310 7000 VCSH SCT015 14/13 Q1015","updated":"2026-01-25T08:26:18Z"}
