{"icao":"LPAZ","metar":"LPAZ 250830Z 33016KT 9999 FEW026 13/07 Q1026","updated":"2026-02-25T08:47:31Z"}
