{"icao":"LPPD","metar":"LPPD 252130Z 02006KT 350V050 9999 FEW016 BKN025 14/10 Q1030","updated":"2026-03-25T21:37:56Z"}
