{"icao":"LPPR","metar":"LPPR 160700Z 34003KT 0250 R17/0250 FG VV001 14/14 Q1015","updated":"2025-10-16T07:17:47Z"}
