{"icao":"LPAZ","metar":"LPAZ 060400Z 20009KT 9999 SCT010 22/20 Q1020","updated":"2025-10-06T04:20:51Z"}
