{"icao":"LPBJ","metar":"LPBJ 121500Z 12009KT 8000 2000N -RADZ SCT007 BKN020 12/11 Q1012 RERADZ","updated":"2025-12-12T15:21:15Z"}
