{"icao":"LPBJ","metar":"LPBJ 031700Z 18006KT CAVOK 22/07 Q1021","updated":"2025-11-03T17:16:50Z"}
