{"icao":"LPMA","metar":"LPMA 281000Z 36005KT 300V100 9999 SCT015 22/17 Q1025","updated":"2025-09-28T10:16:08Z"}
