{"icao":"LPPR","metar":"LPPR 141500Z 25006KT 210V310 9999 SCT010 17/13 Q1023","updated":"2026-04-14T15:11:37Z"}
