{"icao":"KLAX","metar":"KLAX 100453Z 23004KT 10SM CLR 19/16 A2986 RMK AO2 SLP107 T01940156","updated":"2026-06-10T05:16:37Z"}
