{"icao":"LPFR","metar":"LPFR 021800Z 29005KT 260V320 9999 FEW030 24/17 Q1019","updated":"2025-10-02T18:24:41Z"}
