{"icao":"LPFL","metar":"LPFL 161330Z 19022G34KT 160V230 9999 -SHRA FEW012 BKN015 19/16 Q1019","updated":"2025-12-16T13:37:34Z"}
