{"icao":"LPPT","metar":"LPPT 211930Z 28007KT 250V310 9999 FEW020 15/12 Q1007","updated":"2026-04-21T20:01:41Z"}
