{"icao":"LPAR","metar":"LPAR 161400Z 30007KT 260V340 9999 SCT025 BKN035 17/11 Q1031","updated":"2026-02-16T14:39:36Z"}
