{"icao":"LPPD","metar":"LPPD 031300Z 04016KT 360V070 9999 FEW025 17/10 Q1022","updated":"2026-05-03T13:07:19Z"}
