{"icao":"LPBJ","metar":"LPBJ 241900Z 03001KT 340V060 CAVOK 23/01 Q1015","updated":"2025-09-24T19:14:19Z"}
