{"icao":"LPLA","metar":"LPLA 171136Z 31016KT 4000 SHRA BKN020 SCT022CB BKN040 08/06 Q1017","updated":"2026-03-17T11:42:25Z"}
