{"icao":"LPFR","metar":"LPFR 150600Z 16008KT CAVOK 20/17 Q1018","updated":"2025-09-15T06:28:11Z"}
