{"icao":"LPPI","metar":"LPPI 222000Z 28003KT 240V330 9999 VCSH FEW005 BKN009 21/19 Q1027","updated":"2026-06-22T22:45:57Z"}
