{"icao":"LPFL","metar":"LPFL 191230Z 01009KT 340V060 9999 SCT030 20/13 Q1025","updated":"2025-09-19T12:36:26Z"}
