{"icao":"LPHR","metar":"LPHR 150000Z 01006KT 9999 FEW022 12/08 Q1013","updated":"2025-11-15T03:06:03Z"}
