{"icao":"LPHR","metar":"LPHR 252000Z 13015KT 9999 SCT016 BKN030 22/20 Q1009","updated":"2025-09-25T22:14:11Z"}
