{"icao":"LPMA","metar":"LPMA 291400Z 36008KT 290V060 9999 FEW016 21/12 Q1022","updated":"2025-11-29T14:16:18Z"}
