{"icao":"KLAX","metar":"KLAX 232253Z 24010KT 10SM FEW027 SCT140 SCT260 17/12 A2988 RMK AO2 SLP118 T01720117 $","updated":"2026-01-23T23:20:54Z"}
