{"icao":"LPMR","metar":"LPMR 190900Z 15001KT 9999 2000S FEW020 09/08 Q1018","updated":"2025-11-19T09:20:45Z"}
