{"icao":"LPCS","metar":"LPCS 051530Z 25017KT 9999 SCT018 SCT026 16/13 Q0998","updated":"2026-02-05T15:39:07Z"}
