{"icao":"LPPR","metar":"LPPR 290700Z VRB02KT CAVOK 15/12 Q1018","updated":"2025-09-29T07:17:59Z"}
