{"icao":"LPFL","metar":"LPFL 031230Z 17006KT 140V240 9999 FEW023 BKN032 15/09 Q1026","updated":"2026-04-03T13:01:06Z"}
