{"icao":"LPLA","metar":"LPLA 091200Z 30018KT 9999 FEW024 16/08 Q1020","updated":"2025-12-09T12:41:19Z"}
