{"icao":"LPFR","metar":"LPFR 220800Z 02003KT 330V060 9000 BKN004 20/20 Q1019","updated":"2025-10-22T08:26:30Z"}
