{"icao":"LPPD","metar":"LPPD 100700Z 17016KT 9999 FEW022 BKN035 17/12 Q1022","updated":"2025-12-10T07:21:28Z"}
