{"icao":"LPBJ","metar":"LPBJ 212300Z 30007KT CAVOK 14/08 Q1020","updated":"2025-09-21T23:14:55Z"}
