{"icao":"KJFK","metar":"KJFK 011651Z 29017G23KT 10SM BKN055 15/01 A2992 RMK AO2 PK WND 30026/1637 SLP132 T01500006 $","updated":"2025-11-01T17:13:54Z"}
