{"icao":"LPLA","metar":"LPLA 111100Z 32003KT 270V350 9999 FEW025 22/16 Q1021","updated":"2025-10-11T11:12:53Z"}
