{"icao":"LPLA","metar":"LPLA 182000Z 16002KT 090V190 9999 FEW016 19/17 Q1016","updated":"2025-09-18T20:19:31Z"}
