{"icao":"LPPS","metar":"LPPS 161700Z 03011KT 350V070 9999 FEW015 BKN030 17/12 Q1020","updated":"2026-04-16T17:12:55Z"}
