{"icao":"KLAX","metar":"KLAX 191053Z 09003KT 10SM SCT220 12/07 A3003 RMK AO2 SLP166 T01220067","updated":"2026-01-19T11:20:46Z"}
