{"icao":"LPMA","metar":"LPMA 141700Z 16006KT 100V180 9999 SCT015 22/17 Q1015","updated":"2025-10-14T17:15:33Z"}
