{"icao":"KORD","metar":"KORD 232051Z 21012G22KT 10SM SCT065 BKN300 27/12 A2976 RMK AO2 PK WND 18026/2032 SLP074 T02670117 58027","updated":"2026-04-23T21:44:05Z"}
