{"icao":"LPMR","metar":"LPMR 080500Z 17002KT 9999 SCT022 10/10 Q1020","updated":"2025-11-08T05:16:43Z"}
