{"icao":"KORD","metar":"KORD 210351Z 29016G27KT 10SM CLR M01/M11 A3007 RMK AO2 PK WND 30032/0333 SLP188 T10061111","updated":"2025-12-21T04:36:23Z"}
