{"icao":"LPMT","metar":"LPMT 151300Z 36016KT 9999 FEW025 SCT040 20/10 Q1015","updated":"2026-05-15T14:03:56Z"}
