{"icao":"LPPS","metar":"LPPS 231530Z 28007KT 240V320 9999 FEW015 21/12 Q1014","updated":"2026-04-23T15:51:36Z"}
