{"icao":"LPPD","metar":"LPPD 250100Z 01006KT 330V040 9999 FEW014 19/16 Q1016","updated":"2025-10-25T01:18:53Z"}
