{"icao":"KORD","metar":"KORD 261751Z 31011G19KT 10SM BKN011 OVC024 08/06 A2969 RMK AO2 SLP056 60002 T00780056 10083 20044 51013 $","updated":"2025-12-26T18:28:36Z"}
