{"icao":"LPLA","metar":"LPLA 302100Z 13007KT 9999 FEW015 SCT030 19/18 Q1025","updated":"2026-05-30T22:01:28Z"}
