{"icao":"LPPT","metar":"LPPT 090730Z 22007KT 7000 -RADZ FEW006 BKN010 14/14 Q1012 RERA","updated":"2026-02-09T07:56:07Z"}
