{"icao":"LPMT","metar":"LPMT 191500Z 26010KT CAVOK 21/13 Q1014","updated":"2026-04-19T15:36:13Z"}
