{"icao":"LPHR","metar":"LPHR 311300Z 35008KT 310V040 9999 FEW020 SCT037 18/10 Q1011","updated":"2025-10-31T13:28:29Z"}
