{"icao":"LPFL","metar":"LPFL 081430Z 11005KT 050V140 9999 SCT020 21/17 Q1032","updated":"2026-06-08T14:46:51Z"}
