{"icao":"LPST","metar":"LPST 131100Z 16017KT 8000 BKN006 SCT018 FEW025CB 17/15 Q1000","updated":"2025-11-13T11:16:52Z"}
