{"icao":"KLAX","metar":"KLAX 011853Z 25006KT 3SM HZ BKN011 18/14 A3007 RMK AO2 SLP181 T01830144 $","updated":"2025-11-01T19:12:52Z"}
