{"icao":"LPFL","metar":"LPFL 141230Z 18005KT 150V210 9999 FEW024 FEW026CB 17/14 Q1003","updated":"2025-10-14T12:39:06Z"}
