{"icao":"LPPR","metar":"LPPR 021300Z 20013KT 170V230 9999 SCT020 17/13 Q1016","updated":"2026-05-02T13:08:04Z"}
