{"icao":"LPAZ","metar":"LPAZ 180700Z 24014KT 9999 BKN003 23/22 Q1015","updated":"2025-10-18T07:15:44Z"}
