{"icao":"KLAX","metar":"KLAX 150253Z 10007KT 7SM -RA BKN014 OVC022 18/17 A2995 RMK AO2 SLP139 P0003 60025 T01780167 51007 $","updated":"2025-11-15T03:06:05Z"}
