{"icao":"KORD","metar":"KORD 151351Z 12007KT 10SM FEW100 BKN150 OVC250 07/M01 A2945 RMK AO2 SLP976 T00721011 $","updated":"2026-03-15T14:28:47Z"}
