{"icao":"LPOV","metar":"LPOV 212000Z 36003KT 7000 NSC 10/09 Q1029","updated":"2026-02-21T20:23:24Z"}
