{"icao":"LPPT","metar":"LPPT 090800Z VRB01KT 0200 R02/P2000 PRFG SCT001 10/10 Q1022","updated":"2025-11-09T08:20:26Z"}
