{"icao":"LPMA","metar":"LPMA 102230Z 33012G28KT 260V020 9999 FEW014 16/10 Q1020","updated":"2026-04-10T22:35:58Z"}
