{"icao":"LPMT","metar":"LPMT 100800Z 03008KT CAVOK 19/13 Q1020","updated":"2025-10-10T08:23:03Z"}
