{"icao":"LPPS","metar":"LPPS 290500Z 32013KT 9999 RA BKN010 FEW018CB 20/18 Q1011","updated":"2025-10-29T05:18:40Z"}
