{"icao":"LPAR","metar":"LPAR 221600Z 22013KT 4000 -RA BR BKN009 BKN018 13/13 Q1004","updated":"2026-01-22T16:34:38Z"}
