{"icao":"LPBJ","metar":"LPBJ 110900Z 23014KT 4000 -DZ BR OVC003 15/14 Q1019","updated":"2026-02-11T10:01:35Z"}
