{"icao":"KORD","metar":"KORD 211451Z 25007KT 10SM OVC020 M03/M07 A3009 RMK AO2 SNE00 SLP199 P0000 60000 T10281072 51014 $","updated":"2026-02-21T15:23:36Z"}
