{"icao":"LPPT","metar":"LPPT 131900Z 28006KT 230V320 9999 FEW020 SCT034 14/09 Q1022","updated":"2026-04-13T19:23:02Z"}
