{"icao":"LPBJ","metar":"LPBJ 190400Z 11005KT CAVOK 17/12 Q1016","updated":"2025-10-19T04:21:18Z"}
