{"icao":"LPFR","metar":"LPFR 050130Z 22021KT 9000 FEW016 BKN035 16/14 Q1001","updated":"2026-02-05T01:59:10Z"}
