{"icao":"KLAX","metar":"KLAX 031653Z 27005KT 10SM SCT023 OVC031 16/11 A2996 RMK AO2 SLP144 T01610106","updated":"2026-05-03T17:45:11Z"}
