{"icao":"LPMA","metar":"LPMA 050300Z 33004KT 300V360 9999 BKN016 SCT030 17/09 Q1025","updated":"2025-12-05T03:17:49Z"}
