{"icao":"KJFK","metar":"KJFK 131751Z 18011KT 10SM SCT040 SCT250 23/14 A3012 RMK AO2 SLP198 T02330139 10239 20183 56012 $","updated":"2025-09-13T18:20:43Z"}
