{"icao":"KORD","metar":"KORD 061951Z 19005KT 6SM BR FEW038 BKN100 BKN250 17/16 A2984 RMK AO2 RAE21B32E37 TSE07 SLP105 P0002 T01720156","updated":"2026-03-06T20:30:59Z"}
