{"icao":"KORD","metar":"KORD 261051Z 24025G39KT 10SM OVC021 02/M03 A2969 RMK AO2 PK WND 25039/1049 SLP056 T00171028","updated":"2025-11-26T11:16:59Z"}
