{"icao":"LPFR","metar":"LPFR 061700Z 33011KT 9999 FEW025 BKN045 14/06 Q1015","updated":"2026-03-06T17:33:29Z"}
