{"icao":"KJFK","metar":"KJFK 302051Z 19016KT 10SM FEW060 FEW170 SCT210 SCT250 27/17 A3004 RMK SLP173 T02720172 58014 $ ","updated":"2026-06-30T21:27:10Z"}
