{"icao":"LPHR","metar":"LPHR 200730Z 20017KT 4000 -RA BR SCT004 BKN006 17/16 Q1019","updated":"2026-02-20T07:47:40Z"}
