{"icao":"LPMT","metar":"LPMT 281100Z VRB03KT CAVOK 28/13 Q1019","updated":"2026-05-28T11:37:35Z"}
