{"icao":"LPOV","metar":"LPOV 201700Z 12002KT 060V170 9999 FEW025 SCT045 18/12 Q1008","updated":"2026-03-20T17:34:24Z"}
