{"icao":"LPCS","metar":"LPCS 080900Z 15007KT 120V200 9999 FEW019 16/09 Q1010","updated":"2026-05-08T09:18:37Z"}
