{"icao":"LPFL","metar":"LPFL 291700Z 14008KT 110V170 9999 FEW006 SCT008 BKN030 16/15 Q1011","updated":"2025-12-29T17:17:29Z"}
