{"icao":"LPMR","metar":"LPMR 082300Z 23007KT 3000 -DZRA BR BKN007 BKN028 13/12 Q1028","updated":"2026-01-08T23:17:28Z"}
