{"icao":"LPMA","metar":"LPMA 212200Z 02014G24KT 350V060 9999 BKN015 19/11 Q1025","updated":"2025-11-21T22:18:06Z"}
