{"icao":"KJFK","metar":"KJFK 182151Z 31008KT 10SM FEW050 BKN100 BKN130 BKN250 07/M06 A3014 RMK AO2 SLP206 T00721061 $","updated":"2025-11-18T22:18:34Z"}
