{"icao":"LPLA","metar":"LPLA 041100Z 07010KT 030V100 9999 FEW030 SCT040 16/07 Q1026","updated":"2026-05-04T11:47:10Z"}
