{"icao":"LPPR","metar":"LPPR 211700Z 01007KT 340V050 9999 FEW030 12/04 Q1029","updated":"2025-11-21T17:16:10Z"}
