{"icao":"LPFR","metar":"LPFR 240500Z 07007KT CAVOK 20/01 Q1015","updated":"2025-09-24T05:17:14Z"}
