{"icao":"LPAZ","metar":"LPAZ 160600Z 33016KT 9999 FEW025 BKN040 14/07 Q1030","updated":"2026-01-16T06:32:46Z"}
