{"icao":"LPPT","metar":"LPPT 171030Z 25003KT 200V280 9999 FEW018 BKN022 14/10 Q1028","updated":"2026-02-17T10:42:56Z"}
