{"icao":"KORD","metar":"KORD 200751Z 24003KT 10SM CLR 02/M02 A3027 RMK AO2 SLP254 T00171017 $","updated":"2026-04-20T08:04:50Z"}
