{"icao":"LPPD","metar":"LPPD 220130Z 19009KT 9999 FEW015 BKN045 16/14 Q1025","updated":"2026-02-22T02:03:35Z"}
