{"icao":"KORD","metar":"KORD 151151Z 09003KT 10SM CLR 19/14 A3016 RMK AO2 SLP211 T01890139 10206 20183 53012 $","updated":"2025-09-15T12:36:21Z"}
