{"icao":"LPHR","metar":"LPHR 280930Z 06006KT 9999 FEW016 SCT028 14/09 Q1033","updated":"2026-03-28T09:36:09Z"}
