{"icao":"LPLA","metar":"LPLA 102000Z 31024KT 8000 -RA SCT014 BKN018 16/13 Q1015","updated":"2025-12-10T20:23:12Z"}
