{"icao":"LPMA","metar":"LPMA 090800Z 21022KT 8000 SHRA BKN013 FEW018CB 19/18 Q1017","updated":"2025-12-09T08:28:14Z"}
