{"icao":"LPMA","metar":"LPMA 241130Z 01017KT 9999 SCT015 18/12 Q1018","updated":"2026-03-24T11:43:51Z"}
