{"icao":"LPMR","metar":"LPMR 231800Z 28004KT 9999 SCT020 BKN030 14/11 Q1024","updated":"2025-11-23T18:24:57Z"}
