{"icao":"LPLA","metar":"LPLA 251800Z 11006KT 080V140 9999 FEW012 17/14 Q1017","updated":"2026-04-25T18:51:02Z"}
