{"icao":"LPBJ","metar":"LPBJ 222000Z 12005KT CAVOK 15/07 Q1026","updated":"2026-02-22T20:25:42Z"}
