{"icao":"LPHR","metar":"LPHR 251530Z 33010KT 290V350 9999 VCSH SCT012 BKN035 19/14 Q1025","updated":"2026-06-25T15:38:32Z"}
