{"icao":"KJFK","metar":"KJFK 100451Z 30005KT 10SM SCT150 BKN250 M03/M13 A3019 RMK AO2 SLP224 T10281133 410061128 $","updated":"2026-02-10T05:02:31Z"}
