{"icao":"LPPS","metar":"LPPS 140600Z 05003KT 350V090 9999 FEW015 20/16 Q1016","updated":"2025-10-14T06:27:37Z"}
