{"icao":"LPPD","metar":"LPPD 250900Z 30010KT 9999 FEW025 19/13 Q1022","updated":"2026-06-25T09:18:49Z"}
