{"icao":"LPPT","metar":"LPPT 080500Z 13008KT 100V160 9999 FEW006 SCT036 09/09 Q1014","updated":"2026-04-08T05:09:39Z"}
