{"icao":"KORD","metar":"KORD 171651Z 19013KT 10SM FEW030 SCT100 BKN200 BKN250 26/18 A2988 RMK AO2 SLP112 T02560183","updated":"2026-05-17T17:03:11Z"}
