{"icao":"LPPS","metar":"LPPS 081230Z 05009KT 9999 SCT014 17/13 Q1034","updated":"2026-01-08T12:43:08Z"}
