{"icao":"KORD","metar":"KORD 151551Z 25016G24KT 10SM FEW020 SCT110 BKN150 OVC250 17/13 A2953 RMK AO2 PK WND 23028/1505 SLP998 VIRGA T01670133 $","updated":"2025-11-15T16:19:57Z"}
