{"icao":"KJFK","metar":"KJFK 141551Z 28012G19KT 10SM SCT045 SCT085 BKN250 09/M01 A3008 RMK AO2 SLP184 T00941006","updated":"2025-11-14T16:23:40Z"}
