{"icao":"LPPS","metar":"LPPS 031500Z 02010KT 350V050 9999 VCSH SCT015 19/12 Q1026","updated":"2025-12-03T15:21:20Z"}
