{"icao":"LPST","metar":"LPST 120900Z 19007KT 170V230 9999 SCT013 FEW020CB 14/14 Q1018","updated":"2026-05-12T09:36:44Z"}
