{"icao":"LPAZ","metar":"LPAZ 012100Z 08004KT 020V140 9999 BKN016 21/17 Q1029","updated":"2026-07-01T21:26:52Z"}
