{"icao":"LPLA","metar":"LPLA 181500Z 33018KT 7000 -DZ FEW005 SCT009 BKN012 18/17 Q1024","updated":"2025-11-18T15:20:56Z"}
