{"icao":"LPPR","metar":"LPPR 091100Z 13009KT CAVOK 15/10 Q1021","updated":"2025-11-09T11:13:01Z"}
