{"icao":"LPFR","metar":"LPFR 021300Z 24010KT 200V270 9999 FEW025 20/12 Q1017","updated":"2026-05-02T13:08:03Z"}
