{"icao":"LPMT","metar":"LPMT 310700Z 34010KT 9999 FEW020 19/14 Q1020","updated":"2026-05-31T07:44:15Z"}
