{"icao":"LPPD","metar":"LPPD 312100Z 33006KT 9999 FEW022 14/11 Q1003","updated":"2025-12-31T21:17:28Z"}
