{"icao":"KORD","metar":"KORD 201151Z 22005KT 10SM FEW012 06/02 A2999 RMK AO2 SLP158 70030 T00560017 10078 20050 51011 $","updated":"2025-10-20T12:38:26Z"}
