{"icao":"LPCS","metar":"LPCS 171100Z 06003KT 360V160 CAVOK 30/06 Q1021","updated":"2025-09-17T11:13:50Z"}
