{"icao":"KJFK","metar":"KJFK 161851Z 17024G33KT 1/4SM R04R/3500VP6000FT BR SCT000 OVC003 11/09 A2963 RMK AO2 PK WND 16040/1827 SFC VIS 2 SLP032 BR SCT000 T01060094","updated":"2026-03-16T19:15:46Z"}
