{"icao":"KJFK","metar":"KJFK 191951Z 10009KT 10SM OVC034 03/M02 A3006 RMK AO2 SLP180 T00331017 $","updated":"2026-02-19T20:31:11Z"}
