{"icao":"KORD","metar":"KORD 071751Z 22006KT 6SM BR OVC005 01/00 A2991 RMK AO2 SLP136 T00110000 10017 20000 50000","updated":"2026-01-07T18:31:47Z"}
