{"icao":"LPPT","metar":"LPPT 080200Z 21005KT 190V250 9999 FEW025 09/08 Q1012","updated":"2026-02-08T02:27:54Z"}
