{"icao":"LPAZ","metar":"LPAZ 301100Z 26008KT 6000 FEW004 16/16 Q1022","updated":"2026-01-30T11:26:55Z"}
