{"icao":"LPMR","metar":"LPMR 101100Z 18015KT 140V200 9999 SCT022 19/10 Q1009","updated":"2026-05-10T11:50:19Z"}
