{"icao":"LPMR","metar":"LPMR 041200Z 12003KT CAVOK 26/07 Q1022","updated":"2026-04-04T12:53:17Z"}
