{"icao":"LPAR","metar":"LPAR 300900Z VRB01KT 7000 FEW009 SCT015 BKN035 12/12 Q1012","updated":"2026-01-30T10:32:30Z"}
