{"icao":"KORD","metar":"KORD 011551Z 26006KT 10SM FEW040 SCT075 SCT250 08/02 A3005 RMK AO2 SLP180 T00780017 $","updated":"2025-11-01T16:19:23Z"}
