{"icao":"KORD","metar":"KORD 111351Z 30012G21KT 10SM BKN024 BKN033 M03/M08 A3023 RMK AO2 SLP246 T10331078 $","updated":"2026-01-11T14:18:17Z"}
