{"icao":"LPOV","metar":"LPOV 191200Z 17010KT 7000 -RA SCT020 19/18 Q1013","updated":"2025-10-19T12:32:58Z"}
