{"icao":"LPMT","metar":"LPMT 231000Z 03004KT 360V060 CAVOK 13/11 Q1025","updated":"2026-02-23T10:49:45Z"}
