{"icao":"LPBJ","metar":"LPBJ 301700Z 30011KT 270V330 CAVOK 37/16 Q1018","updated":"2026-06-30T17:51:44Z"}
