{"icao":"KLAX","metar":"KLAX 191453Z 11004KT 10SM FEW220 SCT280 17/11 A3002 RMK AO2 SLP166 T01670111 53012 $","updated":"2025-10-19T15:15:46Z"}
