{"icao":"LPFR","metar":"LPFR 010700Z 07009KT 9999 BKN005 13/12 Q1013","updated":"2026-01-01T07:21:22Z"}
