{"icao":"LPHR","metar":"LPHR 282200Z 26014KT 8000 -RA SCT006 BKN012 16/15 Q1007","updated":"2026-01-28T22:25:50Z"}
