{"icao":"KJFK","metar":"KJFK 221851Z 18003KT 10SM FEW005 SCT018 BKN150 BKN250 11/08 A2974 RMK AO2 SLP070 T01060078 $","updated":"2026-03-22T19:24:22Z"}
