{"icao":"LPBJ","metar":"LPBJ 251100Z 34011KT CAVOK 13/06 Q1022","updated":"2025-11-25T11:16:43Z"}
