{"icao":"LPMT","metar":"LPMT 301200Z 26008KT 240V300 9999 BKN046 19/10 Q1017","updated":"2026-04-30T12:14:00Z"}
