{"icao":"LPMR","metar":"LPMR 271300Z 15005KT 100V190 9999 FEW045 24/11 Q1020","updated":"2025-10-27T13:30:30Z"}
