{"icao":"KLAX","metar":"KLAX 110553Z 18005KT 10SM FEW010 FEW130 19/15 A2981 RMK AO2 SLP091 T01890150 10222 20189 58001 $","updated":"2025-10-11T06:23:37Z"}
