{"icao":"LPMR","metar":"LPMR 290800Z 24004KT 8000 FEW002 BKN007 BKN018 SCT022CB 14/14 Q1008","updated":"2026-04-29T09:07:51Z"}
