{"icao":"LPLA","metar":"LPLA 241900Z 32026KT 9999 SCT025 15/08 Q1019","updated":"2026-02-24T19:51:48Z"}
