{"icao":"LPAR","metar":"LPAR 051100Z 01011KT 9999 FEW018 OVC022 14/09 Q1018","updated":"2026-03-05T11:32:29Z"}
