{"icao":"LPPS","metar":"LPPS 180700Z 28006KT 250V320 9999 FEW014 20/18 Q1019","updated":"2025-09-18T07:16:43Z"}
