{"icao":"LPAR","metar":"LPAR 101200Z 06007KT 030V110 CAVOK 26/12 Q1020","updated":"2025-10-10T12:36:39Z"}
