{"icao":"LPMA","metar":"LPMA 221600Z 36017G27KT 320V030 9999 FEW012 22/16 Q1021","updated":"2026-05-22T16:24:21Z"}
