{"icao":"KORD","metar":"KORD 020958Z 30009KT 3SM BR BKN007 M06/M08 A2996 RMK AO2 T10611078","updated":"2025-12-02T10:22:04Z"}
