{"icao":"LPPD","metar":"LPPD 251300Z 16003KT 090V210 9999 FEW018 BKN030 15/10 Q1024","updated":"2025-12-25T13:31:02Z"}
