{"icao":"LPHR","metar":"LPHR 161730Z 20017KT 9999 SCT012 BKN025 17/15 Q1021","updated":"2026-02-16T17:36:42Z"}
