{"icao":"KJFK","metar":"KJFK 011223Z 33024G35KT 4SM -SN FEW022 BKN031 BKN095 M03/M07 A2964 RMK AO2 PK WND 33040/1213 PRESRR DRSN P0000 T10331072 $","updated":"2026-01-01T12:40:34Z"}
