{"icao":"KJFK","metar":"KJFK 011951Z 30023G31KT 10SM FEW060 M03/M17 A2979 RMK AO2 PK WND 29031/1949 SLP089 T10281172 $","updated":"2026-01-01T20:22:36Z"}
