{"icao":"LPPR","metar":"LPPR 222300Z 22011KT 7000 -DZRA BKN004 BKN010 19/19 Q1016","updated":"2025-10-22T23:14:50Z"}
