{"icao":"KLAX","metar":"KLAX 160506Z 18005KT 10SM VCTS FEW008 BKN029 OVC080 15/13 A2987 RMK AO2 RAE02 P0001 T01500133 $","updated":"2025-11-16T05:17:41Z"}
