{"icao":"LPAZ","metar":"LPAZ 241230Z 01013KT 330V060 9999 FEW022 BKN035 24/16 Q1021","updated":"2025-09-24T12:36:29Z"}
