{"icao":"LPPS","metar":"LPPS 231430Z 02015G25KT 350V050 9999 SCT012 BKN030 20/15 Q1023","updated":"2026-05-23T14:59:40Z"}
