{"icao":"KORD","metar":"KORD 192051Z 34016G26KT 10SM SCT055 BKN075 BKN090 BKN250 08/M01 A3013 RMK AO2 PK WND 36026/2045 RAB22E32 SLP206 VCSH P0000 60001 T00781006 51009 $","updated":"2026-04-19T21:34:48Z"}
