{"icao":"LPBJ","metar":"LPBJ 271100Z 07009KT 040V120 CAVOK 16/05 Q1017","updated":"2026-03-27T11:40:18Z"}
