{"icao":"LPMA","metar":"LPMA 100700Z 33005KT 300V010 9999 SCT016 20/12 Q1021","updated":"2025-11-10T07:18:20Z"}
