{"icao":"LPPT","metar":"LPPT 230500Z 27015G27KT 240V300 6000 SHRA FEW015 FEW025TCU BKN030 10/07 Q1005","updated":"2026-01-23T05:26:24Z"}
