{"icao":"LPLA","metar":"LPLA 042200Z 35015G25KT 9999 BKN025 13/06 Q1034","updated":"2026-03-04T22:29:49Z"}
