{"icao":"LPSJ","metar":"LPSJ 270900Z 36012KT 330V030 9999 FEW014 19/15 Q1024","updated":"2026-06-27T09:27:05Z"}
