{"icao":"KORD","metar":"KORD 131351Z 30008KT 10SM FEW020 OVC110 M12/M19 A3017 RMK AO2 SLP229 T11221189","updated":"2025-12-13T14:17:05Z"}
