{"icao":"LPMA","metar":"LPMA 010900Z 01010KT 9999 SCT015 BKN030 21/16 Q1022","updated":"2025-10-01T09:19:40Z"}
