{"icao":"KORD","metar":"KORD 020551Z 22012G17KT 7SM -SNGS BKN015 BKN021 OVC038 M06/M09 A3007 RMK AO2 GSB0458E11B39 SLP193 GS LGT 4/002 P0000 60000 T10561094 11039 21056 410221139 58010","updated":"2026-02-02T06:02:50Z"}
