{"icao":"LPOV","metar":"LPOV 110900Z 02003KT 350V050 CAVOK 20/12 Q1022","updated":"2025-10-11T09:15:38Z"}
