{"icao":"LPCS","metar":"LPCS 250700Z 18008KT 1500 R17/1100U -DZ BR VV003 19/19 Q1014","updated":"2025-10-25T07:15:59Z"}
