{"icao":"KORD","metar":"KORD 091851Z 30012KT 10SM BKN021 07/02 A3001 RMK AO2 SLP163 T00720017","updated":"2026-01-09T19:19:04Z"}
