{"icao":"KJFK","metar":"KJFK 260451Z 17010KT 10SM BKN095 OVC110 06/04 A3014 RMK AO2 SLP206 T00560039 400940011 $","updated":"2026-03-26T05:04:47Z"}
