{"icao":"LPFR","metar":"LPFR 041700Z 09010KT CAVOK 24/02 Q1020","updated":"2026-04-04T17:28:09Z"}
