{"icao":"KORD","metar":"KORD 301651Z 08009KT 10SM BKN250 21/07 A3010 RMK AO2 SLP191 T02110067 $","updated":"2026-05-30T17:02:19Z"}
