{"icao":"LPMA","metar":"LPMA 141400Z VRB05KT 9999 SCT015 FEW016TCU 23/14 Q1011","updated":"2025-11-14T14:18:10Z"}
