{"icao":"KORD","metar":"KORD 211551Z 25009G18KT 10SM FEW019 FEW035 M02/M08 A2991 RMK AO2 SLP137 T10221083 $","updated":"2026-01-21T16:43:23Z"}
