{"icao":"LPPT","metar":"LPPT 191530Z 33009KT 280V360 9999 SCT042 15/04 Q1027","updated":"2026-02-19T15:46:46Z"}
