{"icao":"LPMR","metar":"LPMR 100200Z 30002KT 5000 BR NSC 13/13 Q1013","updated":"2026-04-10T02:27:27Z"}
