{"icao":"LPOV","metar":"LPOV 210700Z 36013KT 7000 -SHRA FEW012 FEW016CB SCT025 BKN035 07/03 Q1007 RETSRAGS","updated":"2025-12-21T07:17:55Z"}
