{"icao":"LPPT","metar":"LPPT 091300Z 20023KT 9999 BKN022 FEW027CB 17/12 Q1005","updated":"2026-05-09T13:14:35Z"}
