{"icao":"LPCS","metar":"LPCS 221330Z 11004KT 040V160 CAVOK 22/07 Q1027","updated":"2026-02-22T13:42:04Z"}
