{"icao":"LPMA","metar":"LPMA 140530Z 01012KT 310V030 9999 FEW016 15/07 Q1029","updated":"2026-02-14T05:43:03Z"}
