{"icao":"LPBJ","metar":"LPBJ 241400Z VRB04KT CAVOK 28/M02 Q1016","updated":"2025-09-24T14:16:03Z"}
