{"icao":"LPLA","metar":"LPLA 271500Z 35008KT 320V050 9999 -RADZ BR FEW006 BKN009 BKN015 15/14 Q1023 REDZRA","updated":"2025-11-27T15:19:19Z"}
