{"icao":"LPLA","metar":"LPLA 112000Z 21007KT 160V250 9999 FEW016 SCT022 17/13 Q1017","updated":"2026-02-11T20:37:31Z"}
