{"icao":"LPSJ","metar":"LPSJ 281430Z 16007KT 130V250 9999 FEW040 22/13 Q1029","updated":"2026-06-28T14:46:56Z"}
