{"icao":"LPMT","metar":"LPMT 271700Z VRB02KT CAVOK 15/09 Q1023","updated":"2025-11-27T17:15:29Z"}
