{"icao":"LPPD","metar":"LPPD 072200Z 22015KT 7000 -RADZ FEW004 SCT015 BKN035 16/15 Q1014","updated":"2026-02-07T22:24:40Z"}
