{"icao":"LPLA","metar":"LPLA 252300Z VRB02KT 0700 -DZ FG BKN002 BKN005 14/13 Q1025","updated":"2025-12-25T23:18:46Z"}
