{"icao":"KORD","metar":"KORD 271451Z 30013G23KT 10SM BKN035 M02/M10 A3021 RMK AO2 SLP237 T10171100 51016","updated":"2025-11-27T15:19:22Z"}
