{"icao":"LPLA","metar":"LPLA 071400Z 01006KT 330V030 9999 FEW025 24/18 Q1023","updated":"2025-10-07T14:18:17Z"}
