{"icao":"LPCS","metar":"LPCS 031700Z 28006KT 230V330 CAVOK 24/08 Q1022","updated":"2026-04-03T17:33:09Z"}
