{"icao":"LPMT","metar":"LPMT 241100Z VRB03KT 9999 FEW030 20/12 Q1017","updated":"2026-04-24T11:55:29Z"}
