{"icao":"LPFL","metar":"LPFL 090730Z 21020G38KT 150V250 9999 FEW010 BKN014 20/16 Q1002","updated":"2026-02-09T07:56:30Z"}
