{"icao":"LPPT","metar":"LPPT 132200Z 33013KT 9999 FEW012 19/17 Q1023","updated":"2025-09-13T22:14:06Z"}
