{"icao":"LPAR","metar":"LPAR 311100Z 08007KT 040V110 CAVOK 21/09 Q1026","updated":"2026-03-31T11:48:30Z"}
