{"icao":"LPMA","metar":"LPMA 060200Z 00000KT 9999 FEW013 15/12 Q1015","updated":"2026-04-06T02:26:31Z"}
