{"icao":"KJFK","metar":"KJFK 112051Z 22012KT 10SM FEW050 SCT190 BKN250 33/21 A2972 RMK AO2 SLP062 CB DSNT N T03280206 58009 $","updated":"2026-06-11T21:23:52Z"}
