{"icao":"LPHR","metar":"LPHR 041900Z 31018KT 9999 SCT030 16/09 Q1011","updated":"2025-11-04T19:14:54Z"}
