{"icao":"LPFL","metar":"LPFL 051700Z 18010KT 110V230 9999 -DZ FEW019 SCT014 19/17 Q1013","updated":"2025-12-05T17:18:12Z"}
