{"icao":"LPBJ","metar":"LPBJ 061000Z 17013KT 140V200 CAVOK 25/17 Q1021","updated":"2025-10-06T10:20:00Z"}
