{"icao":"KLAX","metar":"KLAX 082340Z 26010G19KT 10SM BKN012 19/14 A2993 RMK AO2 T01890139","updated":"2026-05-08T23:55:16Z"}
