{"icao":"LPPD","metar":"LPPD 181300Z 34008KT 290V010 9999 FEW014 SCT030 17/14 Q1029","updated":"2026-01-18T13:27:39Z"}
