{"icao":"KORD","metar":"KORD 191951Z 29014G26KT 10SM SCT048 BKN150 BKN250 14/02 A2973 RMK AO2 PK WND 30031/1928 SLP067 T01440022 $","updated":"2025-10-19T20:18:38Z"}
