{"icao":"LPFR","metar":"LPFR 010400Z 10006KT CAVOK 19/16 Q1018","updated":"2025-10-01T04:20:34Z"}
