{"icao":"LPMA","metar":"LPMA 212100Z 02011KT 340V060 9999 FEW016 16/10 Q1026","updated":"2026-02-21T21:21:45Z"}
