{"icao":"LPOV","metar":"LPOV 101200Z 17009KT 9000 FEW004 BKN014 BKN040 17/16 Q1018","updated":"2025-11-10T12:38:35Z"}
