{"icao":"LPAZ","metar":"LPAZ 201230Z 17014KT 9999 OVC048 18/12 Q1025","updated":"2026-02-20T12:56:19Z"}
