{"icao":"KLAX","metar":"KLAX 071853Z 25007G16KT 9SM OVC015 19/14 A2990 RMK AO2 SLP125 T01940144 $","updated":"2025-10-07T19:13:46Z"}
