{"icao":"LPHR","metar":"LPHR 102100Z 28016KT 9999 SCT007 BKN011 18/17 Q1008","updated":"2025-11-10T22:18:34Z"}
