{"icao":"LPPR","metar":"LPPR 251230Z 31008KT 270V350 CAVOK 19/13 Q1017","updated":"2026-04-25T13:01:27Z"}
