{"icao":"LPBJ","metar":"LPBJ 010400Z 09001KT CAVOK 16/11 Q1019","updated":"2025-10-01T04:20:51Z"}
