{"icao":"LPPD","metar":"LPPD 190700Z 22009KT 0600 FG VV002 22/22 Q1016","updated":"2025-10-19T07:15:09Z"}
