{"icao":"LPMT","metar":"LPMT 041200Z 29011KT 260V320 7000 -RADZ SCT005 BKN012 14/14 Q0998","updated":"2026-02-04T12:56:48Z"}
