{"icao":"KJFK","metar":"KJFK 180751Z 25008KT 10SM BKN250 01/M01 A3026 RMK SLP246 T00061006 ","updated":"2025-12-18T08:28:23Z"}
