{"icao":"LPMT","metar":"LPMT 251000Z 34008KT 300V010 9999 FEW040 14/08 Q1023","updated":"2025-11-25T10:22:19Z"}
