{"icao":"LPPR","metar":"LPPR 111430Z 23018G31KT 3000 -RADZ BR BKN002 15/15 Q1008","updated":"2026-02-11T14:51:56Z"}
