{"icao":"LPPR","metar":"LPPR 221000Z 03010KT 350V060 CAVOK 18/08 Q1023","updated":"2025-09-22T10:19:57Z"}
