{"icao":"LPFR","metar":"LPFR 011930Z 27008KT CAVOK 28/16 Q1015","updated":"2026-07-01T19:51:52Z"}
