{"icao":"LPBJ","metar":"LPBJ 301500Z 31007KT 280V340 CAVOK 37/15 Q1018","updated":"2026-06-30T15:25:17Z"}
