{"icao":"LPFR","metar":"LPFR 170930Z 08013KT CAVOK 16/08 Q1012","updated":"2026-03-17T09:54:27Z"}
