{"icao":"LPPR","metar":"LPPR 252000Z 36004KT 7000 NSC 11/11 Q1020","updated":"2026-02-25T20:34:08Z"}
