{"icao":"LPOV","metar":"LPOV 261500Z 24010KT 9999 SCT040 24/18 Q1018","updated":"2026-06-26T15:22:01Z"}
