{"icao":"KORD","metar":"KORD 270151Z 19005KT 10SM CLR 23/13 A2988 RMK AO2 SLP113 T02330128 $","updated":"2025-09-27T02:52:58Z"}
