{"icao":"KORD","metar":"KORD 052151Z 32010G19KT 10SM BKN300 14/M03 A3010 RMK AO2 SLP193 T01391028","updated":"2025-11-05T22:17:26Z"}
