{"icao":"KORD","metar":"KORD 241551Z 19018G29KT 10SM BKN250 M02/M12 A2980 RMK AO2 PK WND 18029/1536 PRESFR SLP101 T10221122","updated":"2026-02-24T15:57:45Z"}
