{"icao":"LPMA","metar":"LPMA 082130Z 33004KT 300V020 9999 FEW015 17/11 Q1009","updated":"2026-05-08T22:03:22Z"}
