{"icao":"KORD","metar":"KORD 141051Z 28009KT 10SM SCT038 OVC047 04/M01 A2958 RMK AO2 SLP021 T00391011 $","updated":"2026-01-14T11:20:44Z"}
