{"icao":"LPMT","metar":"LPMT 151800Z 27006KT 9000 SCT010 BKN030 13/13 Q1006","updated":"2025-12-15T18:30:15Z"}
