{"icao":"LPMA","metar":"LPMA 061300Z VRB04KT 9999 SCT014 BKN030 19/12 Q1015","updated":"2026-04-06T13:07:13Z"}
