{"icao":"LPPR","metar":"LPPR 141800Z 33007KT 300V360 9999 FEW025 11/07 Q1027","updated":"2026-02-14T18:33:10Z"}
