{"icao":"LPPS","metar":"LPPS 221800Z 01005KT 340V050 9999 FEW015 18/12 Q1024","updated":"2026-02-22T18:33:47Z"}
