{"icao":"KORD","metar":"KORD 020251Z 20011G16KT 10SM CLR 30/23 A2995 RMK AO2 SLP135 T03000228 53003","updated":"2026-07-02T03:27:29Z"}
