{"icao":"LPCS","metar":"LPCS 250700Z 01007KT 340V040 CAVOK 13/05 Q1020","updated":"2026-03-25T07:14:58Z"}
