{"icao":"LPMR","metar":"LPMR 111100Z 13013KT 100V160 CAVOK 26/09 Q1021","updated":"2025-10-11T11:12:50Z"}
