{"icao":"LPOV","metar":"LPOV 251300Z 30008KT 280V350 9999 FEW007 22/18 Q1022","updated":"2026-05-25T13:57:59Z"}
