{"icao":"LPFL","metar":"LPFL 051800Z 18019G35KT 140V210 9000 4000SE -RA BKN017 FEW018TCU 20/17 Q1008","updated":"2025-11-05T18:26:48Z"}
