{"icao":"LPPT","metar":"LPPT 190800Z 21010KT 9999 FEW005 BKN007 20/18 Q1016","updated":"2025-10-19T08:20:22Z"}
