{"icao":"LPFL","metar":"LPFL 211000Z VRB04KT 9000 -DZ FEW005 BKN008 18/16 Q1021","updated":"2026-01-21T10:27:47Z"}
