{"icao":"LPPS","metar":"LPPS 192200Z 19023KT 9999 SCT014 FEW018TCU 15/10 Q0995","updated":"2026-03-19T22:27:42Z"}
