{"icao":"LPOV","metar":"LPOV 051300Z 34014KT CAVOK 20/13 Q1021","updated":"2025-10-05T13:20:00Z"}
