{"icao":"LPPT","metar":"LPPT 202300Z 05013KT 8000 -DZ FEW001 BKN002 13/13 Q1007","updated":"2026-03-20T23:27:21Z"}
