{"icao":"LPLA","metar":"LPLA 091900Z 16012KT 9999 FEW015 SCT020 21/19 Q1020","updated":"2025-10-09T19:14:38Z"}
