{"icao":"LPPD","metar":"LPPD 201230Z 23010KT 8000 SCT005 BKN010 23/22 Q1017","updated":"2025-10-20T12:38:12Z"}
