{"icao":"LPFR","metar":"LPFR 080700Z 06006KT 030V090 9999 FEW008 15/14 Q1022","updated":"2025-12-08T07:22:32Z"}
