{"icao":"LPAZ","metar":"LPAZ 272000Z 26032G43KT 8000 FEW015 BKN018 17/14 Q1009","updated":"2026-01-27T20:21:51Z"}
