{"icao":"KORD","metar":"KORD 110851Z 00000KT 10SM CLR 03/01 A3039 RMK AO2 SLP294 T00280006 53004 $","updated":"2026-04-11T09:38:58Z"}
