{"icao":"KLAX","metar":"KLAX 050653Z VRB03KT 10SM FEW014 SCT025 BKN042 14/12 A3002 RMK AO2 SLP164 T01440122","updated":"2026-01-05T07:27:34Z"}
