{"icao":"LPHR","metar":"LPHR 202000Z 26011KT 6000 FEW004 SCT006 BKN012 22/22 Q1013","updated":"2025-10-20T20:21:01Z"}
