{"icao":"KJFK","metar":"KJFK 201051Z 36005KT 10SM BKN250 03/M02 A3026 RMK AO2 SLP246 T00281017 $","updated":"2025-11-20T11:17:01Z"}
