{"icao":"LPHR","metar":"LPHR 282200Z 05007KT 9999 FEW015 BKN030 15/11 Q1035","updated":"2026-03-28T22:28:09Z"}
