{"icao":"LPPD","metar":"LPPD 290400Z 32006KT 9999 FEW022 14/08 Q1028","updated":"2025-11-29T04:21:46Z"}
