{"icao":"KJFK","metar":"KJFK 102003Z 31013KT 10SM -RA FEW009 BKN013 OVC027 09/08 A2957 RMK AO2 P0000 T00940078","updated":"2025-11-10T20:22:08Z"}
