{"icao":"LPSJ","metar":"LPSJ 131600Z 25006KT 200V340 9999 FEW018 22/16 Q1021","updated":"2026-06-13T18:05:49Z"}
