{"icao":"LPOV","metar":"LPOV 080700Z VRB01KT 7000 BKN030 14/14 Q1022","updated":"2025-10-08T07:17:04Z"}
