{"icao":"LPOV","metar":"LPOV 211400Z 21010KT 170V260 9999 SCT030 18/15 Q1004 RETS","updated":"2026-04-21T15:11:18Z"}
