{"icao":"LPMA","metar":"LPMA 161700Z 36006KT 320V030 9999 SCT016 20/12 Q1020","updated":"2025-11-16T17:15:13Z"}
