{"icao":"KORD","metar":"KORD 271151Z 26010G21KT 10SM BKN030 BKN036 M10/M14 A2992 RMK AO2 SLP145 4/003 T11001144 11100 21122 55002 $","updated":"2026-01-27T12:48:11Z"}
