{"icao":"LPPS","metar":"LPPS 211700Z 36006KT 330V040 9999 SCT014 SCT030 24/19 Q1020","updated":"2025-10-21T17:17:04Z"}
