{"icao":"KJFK","metar":"KJFK 270051Z 31016KT 10SM BKN047 M06/M13 A2989 RMK AO2 PK WND 31030/2354 SLP120 T10561133 $","updated":"2026-01-27T01:48:01Z"}
