{"icao":"KJFK","metar":"KJFK 211651Z 21011KT 10SM FEW060 FEW250 08/M08 A3036 RMK SLP280 T00781078 ","updated":"2026-04-21T16:59:48Z"}
