{"icao":"LPAZ","metar":"LPAZ 120700Z 26029KT 9999 SCT026 17/13 Q1013","updated":"2026-01-12T07:26:29Z"}
