{"icao":"LPMR","metar":"LPMR 291600Z 33007KT 290V350 9999 SCT015 BKN040 19/16 Q1009","updated":"2025-10-29T16:24:36Z"}
