{"icao":"LPPD","metar":"LPPD 072130Z 32008KT 290V350 9999 FEW025 BKN035 14/08 Q1033","updated":"2026-04-07T21:40:15Z"}
