{"icao":"LPBJ","metar":"LPBJ 041800Z 33007KT CAVOK 27/11 Q1020","updated":"2025-10-04T18:21:41Z"}
