{"icao":"LPOV","metar":"LPOV 161000Z 30001KT CAVOK 20/17 Q1022","updated":"2025-09-16T10:18:15Z"}
