{"icao":"KLAX","metar":"KLAX 212253Z 24012KT 10SM FEW007 SCT150 22/18 A2988 RMK AO2 SLP117 T02170183","updated":"2025-09-21T23:15:12Z"}
