{"icao":"LPHR","metar":"LPHR 271530Z 16009KT 9999 FEW008 BKN030 18/15 Q1017","updated":"2026-04-27T15:47:03Z"}
