{"icao":"LPHR","metar":"LPHR 182030Z 13004KT 110V190 9999 -SHRA FEW007 SCT012 BKN030 15/14 Q1024","updated":"2026-02-18T20:37:46Z"}
