{"icao":"KJFK","metar":"KJFK 012151Z 35013KT 10SM SCT220 BKN250 M05/M15 A2978 RMK AO2 PK WND 33027/2100 SLP085 T10501150 PNO $","updated":"2026-02-01T22:22:54Z"}
