{"icao":"KORD","metar":"KORD 021651Z 28006KT 6SM -SN OVC012 M03/M06 A3009 RMK AO2 SLP200 P0000 T10331061","updated":"2026-02-02T17:37:21Z"}
