{"icao":"KJFK","metar":"KJFK 261551Z 34010KT 10SM SCT130 SCT180 OVC230 M04/M17 A3027 RMK AO2 SLP248 T10391167 $","updated":"2025-12-26T16:23:11Z"}
