{"icao":"LPMT","metar":"LPMT 112000Z VRB02KT CAVOK 19/15 Q1017","updated":"2025-10-11T20:16:48Z"}
