{"icao":"LPPT","metar":"LPPT 290630Z 24019KT 5000 -RA BR SCT002 BKN005 15/15 Q1007","updated":"2026-01-29T06:44:26Z"}
