{"icao":"KJFK","metar":"KJFK 091451Z 00000KT 10SM FEW012 FEW050 FEW250 M04/M17 A3029 RMK AO2 SLP256 FU FEW012 T10441167 58005 $","updated":"2025-12-09T15:22:48Z"}
