{"icao":"KLAX","metar":"KLAX 191353Z 10004KT 10SM FEW007 SCT220 11/05 A3001 RMK AO2 SLP160 T01060050 $","updated":"2026-01-19T14:26:49Z"}
