{"icao":"LPOV","metar":"LPOV 131700Z 15009KT 9999 SCT020 BKN035 17/15 Q0995 RESHRA","updated":"2025-11-13T17:17:41Z"}
