{"icao":"LPLA","metar":"LPLA 250800Z 18009KT 150V220 9999 FEW022 SCT030 20/14 Q1015","updated":"2025-09-25T08:23:21Z"}
