{"icao":"LPMR","metar":"LPMR 051800Z 33006KT 290V360 CAVOK 18/12 Q1019","updated":"2025-10-05T18:21:56Z"}
