{"icao":"LPPR","metar":"LPPR 252100Z 35003KT 5000 BR NSC 11/10 Q1021","updated":"2026-02-25T21:33:49Z"}
