{"icao":"LPPS","metar":"LPPS 161130Z 08008KT 050V130 9999 FEW014 BKN030 16/12 Q1017","updated":"2026-03-16T11:45:07Z"}
