{"icao":"LPFL","metar":"LPFL 281600Z 16017KT 9999 FEW009 BKN030 22/19 Q1024","updated":"2025-09-28T16:18:46Z"}
