{"icao":"LPAZ","metar":"LPAZ 281100Z 02014KT 9000 FEW003 SCT005 BKN010 17/16 Q1025","updated":"2025-11-28T11:16:29Z"}
