{"icao":"LPLA","metar":"LPLA 111600Z 21005KT 180V260 9999 FEW025 15/08 Q1015","updated":"2026-01-11T16:23:24Z"}
