{"icao":"KLAX","metar":"KLAX 221712Z 20004KT 2SM BCFG BR FEW000 SCT220 BKN270 13/12 A3005 RMK AO2 VIS S 1 FG FEW000 T01280122 $","updated":"2025-12-22T17:17:53Z"}
