{"icao":"LPMT","metar":"LPMT 040700Z 11010KT CAVOK 13/12 Q1017","updated":"2025-11-04T07:18:24Z"}
