{"icao":"LPLA","metar":"LPLA 260400Z 16015KT 9999 SCT008 BKN015 17/16 Q1019","updated":"2026-05-26T05:02:20Z"}
