{"icao":"LPMT","metar":"LPMT 170700Z 01007KT CAVOK 11/09 Q1021","updated":"2025-12-17T07:21:28Z"}
