{"icao":"LPMA","metar":"LPMA 112200Z 17003KT 140V200 9999 BKN015 18/13 Q1027","updated":"2026-02-11T22:28:20Z"}
