{"icao":"KJFK","metar":"KJFK 221151Z 02007KT 6SM -RA BR BKN033 OVC043 08/07 A2986 RMK AO2 SLP112 P0009 60021 70021 T00780067 10094 20078 58003","updated":"2025-11-22T12:33:29Z"}
