{"icao":"LPPD","metar":"LPPD 172000Z 26008KT 9000 -RA SCT005 BKN014 19/18 Q1024","updated":"2025-11-17T20:21:37Z"}
