{"icao":"LPST","metar":"LPST 201100Z 36013G24KT 330V030 9999 SCT028 13/05 Q1021","updated":"2025-11-20T11:16:40Z"}
