{"icao":"LPBJ","metar":"LPBJ 260100Z 26008KT 9999 SCT006 SCT015 19/17 Q1015","updated":"2025-10-26T01:26:11Z"}
