{"icao":"LPPT","metar":"LPPT 200430Z 27003KT 9999 FEW020 08/07 Q1021","updated":"2026-01-20T04:43:05Z"}
