{"icao":"LPCS","metar":"LPCS 111330Z 35021G32KT 320V040 9999 FEW018 BKN022 15/09 Q1016","updated":"2026-04-11T13:55:53Z"}
