{"icao":"LPPD","metar":"LPPD 281900Z 33011KT 300V360 9999 FEW020 BKN035 17/09 Q1020","updated":"2025-10-28T19:14:50Z"}
