{"icao":"LPAZ","metar":"LPAZ 272100Z 10007KT CAVOK 13/08 Q1020","updated":"2025-12-27T21:16:57Z"}
