{"icao":"LPBJ","metar":"LPBJ 072200Z 28008KT CAVOK 18/14 Q1022","updated":"2025-10-07T22:16:17Z"}
