{"icao":"LPLA","metar":"LPLA 130900Z 00000KT 9999 FEW025 10/08 Q1024","updated":"2026-01-13T09:26:47Z"}
