{"icao":"KLAX","metar":"KLAX 152053Z 25014KT 10SM FEW010 FEW027 19/09 A2999 RMK AO2 SLP154 T01890094 58015 $","updated":"2025-10-15T21:15:46Z"}
