{"icao":"LPMA","metar":"LPMA 122200Z 34007KT 300V040 9999 FEW015 21/15 Q1018","updated":"2025-10-12T22:15:45Z"}
