{"icao":"KORD","metar":"KORD 232151Z 08012G18KT 10SM FEW250 04/M09 A3041 RMK AO2 SLP306 T00441094","updated":"2026-03-23T22:31:33Z"}
