{"icao":"KORD","metar":"KORD 110551Z 00000KT 10SM CLR 03/01 A3038 RMK AO2 SLP290 T00330006 10083 20033 401220028 55003 $","updated":"2026-04-11T06:00:00Z"}
