{"icao":"LPPR","metar":"LPPR 140500Z 18007KT 7000 -DZRA BKN004 BKN009 13/12 Q1021","updated":"2026-04-14T05:21:54Z"}
