{"icao":"LPPS","metar":"LPPS 271700Z 06008KT 9999 SCT015 19/12 Q1022","updated":"2025-11-27T17:15:44Z"}
