{"icao":"KORD","metar":"KORD 161913Z 32018G28KT 2 1/2SM -SN BR SCT027 BKN036 OVC047 M03/M09 A2967 RMK AO2 PK WND 31030/1854 P0000 T10331094","updated":"2026-03-16T19:15:47Z"}
