{"icao":"LPOV","metar":"LPOV 140700Z 35009KT 7000 -RA FEW007 SCT016 BKN025 11/11 Q1017","updated":"2026-03-14T07:33:30Z"}
