{"icao":"KLAX","metar":"KLAX 091453Z 12004KT 10SM FEW090 SCT140 BKN180 BKN250 13/05 A3006 RMK AO2 SLP176 T01330050 53002 $","updated":"2026-02-09T15:54:41Z"}
