{"icao":"KORD","metar":"KORD 290717Z 26018G30KT 2SM -SN BLSN BKN018 OVC026 M07/M11 A2961 RMK AO2 PK WND 26039/0700 P0000 T10721111 $","updated":"2025-12-29T07:25:09Z"}
