{"icao":"KLAX","metar":"KLAX 111253Z VRB04KT 10SM CLR 17/15 A2977 RMK AO2 SLP079 T01670150 $","updated":"2025-10-11T13:20:44Z"}
