{"icao":"LPMT","metar":"LPMT 012200Z 19006KT 160V230 9999 BKN035 13/10 Q1018","updated":"2025-12-01T22:16:55Z"}
