{"icao":"LPOV","metar":"LPOV 071500Z 22020G30KT 9999 SCT011 FEW020CB BKN021 15/10 Q0994","updated":"2026-02-07T15:23:28Z"}
