{"icao":"LPLA","metar":"LPLA 251300Z 18014G24KT 150V220 9999 SCT025 22/16 Q1014","updated":"2025-09-25T13:28:17Z"}
