{"icao":"LPMA","metar":"LPMA 021330Z 13006KT 090V180 9999 SCT015 19/07 Q1015","updated":"2026-02-02T14:03:37Z"}
