{"icao":"LPLA","metar":"LPLA 100600Z 34014KT 9000 -SHRA SCT018 BKN022 12/10 Q1020","updated":"2026-05-10T06:11:02Z"}
