{"icao":"LPBJ","metar":"LPBJ 290500Z 04003KT CAVOK 10/03 Q1026","updated":"2026-03-29T05:09:26Z"}
