{"icao":"KLAX","metar":"KLAX 210053Z 08006KT 6SM -RA BR FEW007 BKN050 OVC065 13/12 A2993 RMK AO2 RAE27B45 SLP136 P0002 T01330122 $","updated":"2025-11-21T01:23:10Z"}
