{"icao":"LPFR","metar":"LPFR 041300Z 09010KT 9999 FEW014 SCT022 21/17 Q1018","updated":"2025-11-04T13:32:32Z"}
