{"icao":"LPBJ","metar":"LPBJ 190800Z 27005KT 9999 FEW045 07/07 Q1026","updated":"2026-02-19T08:41:32Z"}
