{"icao":"LPMR","metar":"LPMR 070100Z 13003KT 100V170 9999 FEW025 BKN045 05/04 Q1025","updated":"2026-01-07T01:40:23Z"}
