{"icao":"LPPT","metar":"LPPT 021500Z 28009KT 250V310 9999 VCSH FEW020 FEW025TCU SCT030 14/08 Q1018","updated":"2025-12-02T15:21:18Z"}
