{"icao":"LPPD","metar":"LPPD 191830Z 21017KT 4000 -RA BR SCT002 BKN004 17/16 Q1015 RERA","updated":"2026-05-19T18:58:47Z"}
