{"icao":"LPPD","metar":"LPPD 220700Z 21008KT 190V250 9999 FEW006 BKN009 22/21 Q1015","updated":"2025-10-22T07:17:36Z"}
