{"icao":"LPBJ","metar":"LPBJ 071600Z 29012KT 260V330 CAVOK 21/06 Q1009","updated":"2026-05-07T16:48:16Z"}
