{"icao":"LPPR","metar":"LPPR 181000Z 12009KT CAVOK 24/13 Q1016","updated":"2025-10-18T10:16:32Z"}
