{"icao":"LPPR","metar":"LPPR 180700Z 18017KT 8000 -DZ BKN005 12/11 Q1016","updated":"2026-02-18T07:12:33Z"}
