{"icao":"LPPD","metar":"LPPD 200400Z 06009KT 030V100 9999 FEW018 16/13 Q1027","updated":"2025-11-20T04:20:56Z"}
