{"icao":"LPMR","metar":"LPMR 101700Z 34008KT CAVOK 23/11 Q1020","updated":"2025-10-10T17:15:29Z"}
