{"icao":"LPBJ","metar":"LPBJ 181300Z 12004KT 060V190 9999 FEW025 18/09 Q1018","updated":"2025-11-18T13:31:13Z"}
