{"icao":"LPPR","metar":"LPPR 041300Z 29006KT 4500 FEW006 BKN012 19/17 Q1025","updated":"2025-10-04T13:19:38Z"}
