{"icao":"LPMA","metar":"LPMA 100630Z 28004KT 9999 FEW015 15/12 Q1023","updated":"2026-02-10T07:02:52Z"}
