{"icao":"KORD","metar":"KORD 222151Z 29011G18KT 10SM OVC035 09/02 A2990 RMK AO2 PK WND 29026/2054 SLP127 T00940017","updated":"2025-10-22T22:14:45Z"}
