{"icao":"LPPR","metar":"LPPR 141330Z 30008KT 3500 -DZ BR OVC002 13/13 Q1014 RERA","updated":"2026-03-14T13:44:18Z"}
