{"icao":"KORD","metar":"KORD 130751Z 23011KT 10SM OVC012 17/16 A2979 RMK AO2 SLP085 T01720156 $","updated":"2026-04-13T08:01:20Z"}
