{"icao":"LPMT","metar":"LPMT 141000Z 21012KT 170V240 6000 -RA SCT015 SCT025 14/12 Q1004 RETS","updated":"2025-11-14T10:20:41Z"}
