{"icao":"KORD","metar":"KORD 140951Z 35005KT 6SM BR FEW050 SCT250 13/12 A3024 RMK AO2 SLP240 T01330122 $","updated":"2025-10-14T10:19:29Z"}
