{"icao":"LPAR","metar":"LPAR 301600Z 22004KT 150V280 9999 SCT022 SCT045 21/10 Q1017","updated":"2026-05-01T11:58:13Z"}
