{"icao":"KORD","metar":"KORD 290151Z 28006KT 10SM CLR M11/M18 A3020 RMK AO2 SLP241 T11111183","updated":"2026-01-29T01:56:26Z"}
