{"icao":"LPMT","metar":"LPMT 201600Z 24005KT 210V270 9999 FEW030 BKN045 14/11 Q1017","updated":"2026-01-20T16:34:31Z"}
