{"icao":"LPCS","metar":"LPCS 031230Z 27012KT 250V310 9999 FEW020 13/08 Q1004","updated":"2026-02-03T12:57:27Z"}
