{"icao":"LPPR","metar":"LPPR 252100Z 04004KT 350V060 CAVOK 09/08 Q1025","updated":"2025-11-25T21:17:15Z"}
