{"icao":"LPPT","metar":"LPPT 191530Z 23007KT 190V270 CAVOK 25/12 Q1014","updated":"2026-04-19T15:36:10Z"}
