{"icao":"LPPD","metar":"LPPD 252000Z 23019KT 9000 FEW008 SCT020 17/15 Q1013","updated":"2026-01-25T20:22:35Z"}
