{"icao":"LPHR","metar":"LPHR 140030Z 26011KT 9999 SCT009 BKN011 BKN030 18/17 Q1025","updated":"2025-12-14T04:35:05Z"}
