{"icao":"LPFL","metar":"LPFL 150600Z 17011G22KT 100V220 9999 -DZ FEW010 BKN016 20/17 Q1017","updated":"2026-06-15T06:21:57Z"}
