{"icao":"LPFL","metar":"LPFL 092100Z 16005KT 130V190 9999 BKN009 17/15 Q1019","updated":"2026-01-09T21:20:10Z"}
