{"icao":"KLAX","metar":"KLAX 290353Z 11005KT 10SM CLR 19/16 A3000 RMK AO2 SLP155 T01940161 $","updated":"2025-10-29T04:25:20Z"}
