{"icao":"LPMT","metar":"LPMT 311300Z 19013KT 170V230 9999 -SHRA SCT015 BKN020 BKN045 21/18 Q1012","updated":"2025-10-31T13:28:28Z"}
