{"icao":"LPAZ","metar":"LPAZ 072000Z 23015KT 8000 FEW004 17/16 Q1017","updated":"2026-02-07T20:25:07Z"}
