{"icao":"LPPT","metar":"LPPT 121630Z 21010KT 9999 FEW012 SCT016 15/12 Q1017","updated":"2026-02-12T16:56:49Z"}
