{"icao":"KORD","metar":"KORD 171751Z 32009KT 10SM FEW045 SCT250 M06/M16 A3018 RMK AO2 SLP231 T10561161 11056 21100 51012","updated":"2026-03-17T17:57:02Z"}
