{"icao":"LPPR","metar":"LPPR 190600Z 35003KT 310V100 6000 BKN003 BKN006 16/15 Q1015","updated":"2026-06-19T06:16:51Z"}
