{"icao":"KORD","metar":"KORD 261151Z 30009KT 10SM FEW043 BKN085 M18/M23 A3022 RMK AO2 SLP250 4/004 70006 T11781233 11144 21178 53006 $","updated":"2026-01-26T12:45:51Z"}
