{"icao":"LPMA","metar":"LPMA 121700Z 36010KT 9999 SCT015 23/15 Q1017","updated":"2025-10-12T17:13:32Z"}
