{"icao":"LPAZ","metar":"LPAZ 121900Z 33022KT 9999 VCSH SCT025 FEW030CB 14/09 Q1001","updated":"2025-11-12T19:15:31Z"}
