{"icao":"LPFR","metar":"LPFR 180230Z 07007KT CAVOK 20/17 Q1015","updated":"2025-10-18T02:53:36Z"}
