{"icao":"LPPR","metar":"LPPR 252300Z 35002KT CAVOK 08/07 Q1026","updated":"2025-11-25T23:16:57Z"}
