{"icao":"KLAX","metar":"KLAX 280353Z 00000KT 10SM SCT250 17/10 A3003 RMK AO2 SLP168 T01720100 $","updated":"2025-11-28T04:22:44Z"}
