{"icao":"KORD","metar":"KORD 262251Z 15006KT 10SM FEW200 BKN250 28/09 A2997 RMK AO2 SLP143 T02780089","updated":"2026-05-26T23:09:04Z"}
