{"icao":"LPMA","metar":"LPMA 141100Z 18005KT 140V210 9999 FEW015 23/17 Q1017","updated":"2025-10-14T11:15:11Z"}
