{"icao":"LPPR","metar":"LPPR 081100Z 12006KT 090V160 9999 FEW020 16/11 Q1023","updated":"2025-11-08T11:13:16Z"}
