{"icao":"LPHR","metar":"LPHR 212100Z 06013KT 010V100 9999 FEW014 SCT025 14/10 Q1018","updated":"2026-03-22T02:06:58Z"}
