{"icao":"LPPT","metar":"LPPT 212300Z 36005KT CAVOK 15/08 Q1029","updated":"2026-02-21T23:22:20Z"}
