{"icao":"LPLA","metar":"LPLA 261900Z 36006KT 320V030 9999 FEW022 BKN025 15/10 Q1029","updated":"2026-03-26T19:53:49Z"}
