{"icao":"LPFR","metar":"LPFR 191530Z 13015KT 4500 RA BR FEW010 SCT040 15/14 Q1006","updated":"2026-03-19T15:53:26Z"}
