{"icao":"LPMR","metar":"LPMR 010100Z 15004KT CAVOK 05/04 Q1021","updated":"2025-12-01T01:49:26Z"}
