{"icao":"LPFR","metar":"LPFR 151800Z 25008KT CAVOK 22/19 Q1014","updated":"2026-06-15T18:23:26Z"}
