{"icao":"LPPR","metar":"LPPR 181300Z 21009KT 190V250 CAVOK 23/14 Q1016","updated":"2025-10-18T13:21:25Z"}
