{"icao":"LPLA","metar":"LPLA 021300Z 10007KT 060V120 9999 SCT015 BKN025 15/11 Q1031","updated":"2026-04-02T13:11:14Z"}
