{"icao":"LPMR","metar":"LPMR 080500Z 14002KT 0300 FG VV002 13/12 Q1022","updated":"2025-10-08T05:17:20Z"}
