{"icao":"LPMR","metar":"LPMR 021400Z 14014KT 9999 FEW016 BKN030 15/12 Q1001","updated":"2026-01-02T14:19:15Z"}
