{"icao":"LPMA","metar":"LPMA 101500Z 02014KT 9999 FEW015 SCT030 24/15 Q1022","updated":"2025-10-10T15:18:02Z"}
