{"icao":"LPGR","metar":"LPGR 271100Z 36014KT 9999 FEW015 BKN033 19/15 Q1025","updated":"2026-06-27T11:25:38Z"}
