{"icao":"KJFK","metar":"KJFK 080951Z 21013KT 10SM SCT050 OVC060 22/19 A2990 RMK AO2 RAB10E19 SLP126 P0000 T02170189","updated":"2025-10-08T10:18:28Z"}
