{"icao":"LPOV","metar":"LPOV 161600Z 33003KT 280V360 8000 FEW004 19/16 Q1014","updated":"2025-10-16T16:23:10Z"}
