{"icao":"LPAZ","metar":"LPAZ 160500Z 32007KT 280V340 9999 SCT034 15/10 Q1022","updated":"2025-11-16T05:17:39Z"}
