{"icao":"LPAR","metar":"LPAR 241600Z VRB02KT CAVOK 29/M00 Q1015","updated":"2025-09-25T03:37:24Z"}
