{"icao":"KJFK","metar":"KJFK 131751Z 16015KT 10SM BKN100 BKN150 BKN250 03/M06 A3006 RMK AO2 PRESFR SLP179 T00331056 10050 20006 58039","updated":"2026-03-13T18:41:09Z"}
