{"icao":"KJFK","metar":"KJFK 301151Z 15006KT 10SM SCT007 BKN017 OVC029 09/08 A2977 RMK SLP082 SCT V BKN 60012 70040 T00890083 10089 20083 52002 ","updated":"2026-04-30T12:14:20Z"}
