{"icao":"KJFK","metar":"KJFK 081651Z 30013KT 10SM SCT040 SCT200 18/08 A2976 RMK AO2 SLP076 T01780083 $","updated":"2025-11-08T17:14:44Z"}
