{"icao":"LPPD","metar":"LPPD 281800Z 01013KT 340V040 9999 VCSH FEW016 SCT030 15/10 Q1027","updated":"2025-11-28T18:26:20Z"}
