{"icao":"LPMT","metar":"LPMT 160500Z 35012KT CAVOK 14/10 Q1016","updated":"2026-05-16T05:53:11Z"}
