{"icao":"LPBJ","metar":"LPBJ 162200Z 27007KT CAVOK 23/12 Q1020","updated":"2025-09-16T22:15:04Z"}
