{"icao":"LPLA","metar":"LPLA 271000Z 33013KT 5000 -DZ BR BKN009 BKN015 15/14 Q1023","updated":"2025-11-27T10:21:25Z"}
