{"icao":"LPPD","metar":"LPPD 181800Z 29006KT 280V350 9999 FEW006 SCT014 16/15 Q1028","updated":"2026-01-18T18:26:39Z"}
