{"icao":"KORD","metar":"KORD 221951Z 03012KT 10SM FEW037 21/12 A2995 RMK AO2 SLP139 T02110117","updated":"2026-04-22T20:04:14Z"}
