{"icao":"LPPD","metar":"LPPD 210230Z 23012KT 8000 SCT006 BKN010 23/22 Q1015","updated":"2025-10-21T03:04:29Z"}
