{"icao":"LPBJ","metar":"LPBJ 111900Z 31016KT CAVOK 15/08 Q1013","updated":"2026-04-11T19:33:34Z"}
