{"icao":"LPPS","metar":"LPPS 112000Z 04011KT 010V070 9999 SCT012 15/12 Q1025","updated":"2026-03-11T20:32:50Z"}
