{"icao":"LPMT","metar":"LPMT 140600Z 21007KT 180V240 9999 TS FEW015 FEW018CB SCT025 14/12 Q1002 RERA","updated":"2025-11-14T07:18:05Z"}
