{"icao":"LPPS","metar":"LPPS 131900Z 04007KT 360V080 9999 SCT015 BKN030 23/18 Q1023","updated":"2025-09-13T19:11:38Z"}
