{"icao":"KORD","metar":"KORD 080851Z 14005KT 10SM -RA FEW060 BKN075 OVC095 02/M03 A3030 RMK AO2 SLP267 P0001 60001 T00221033 56010 $","updated":"2026-04-08T08:59:47Z"}
