{"icao":"LPPR","metar":"LPPR 082300Z 19013KT 170V230 4500 -RADZ BR BKN004 BKN009 12/11 Q1007","updated":"2026-02-08T23:29:17Z"}
