{"icao":"LPST","metar":"LPST 111600Z 28007KT CAVOK 28/15 Q1018","updated":"2026-06-11T21:18:11Z"}
