{"icao":"LPMR","metar":"LPMR 211900Z 03005KT CAVOK 10/04 Q1029","updated":"2025-11-21T19:15:37Z"}
