{"icao":"LPMA","metar":"LPMA 050800Z 35004KT 290V030 9999 SCT016 21/13 Q1024","updated":"2025-10-05T08:20:07Z"}
