{"icao":"LPPD","metar":"LPPD 291500Z 30009KT 270V330 9999 FEW018 BKN035 17/14 Q1027","updated":"2025-11-29T15:16:59Z"}
