{"icao":"LPHR","metar":"LPHR 261200Z 07017G30KT 040V110 6000 SHRA SCT013 FEW015TCU SCT030 18/13 Q1025","updated":"2025-10-26T12:33:43Z"}
