{"icao":"LPLA","metar":"LPLA 030700Z 21005KT 170V230 9999 SCT040 13/09 Q1028","updated":"2025-12-03T07:20:44Z"}
