{"icao":"KLAX","metar":"KLAX 131653Z 10004KT 10SM FEW200 14/08 A3000 RMK AO2 SLP159 T01440083","updated":"2026-02-13T17:38:38Z"}
