{"icao":"LPMA","metar":"LPMA 162200Z 33006KT 300V360 9999 FEW016 18/11 Q1023","updated":"2025-11-16T22:16:41Z"}
