{"icao":"KORD","metar":"KORD 231751Z 32011KT 10SM SCT033 M04/M14 A3046 RMK AO2 SLP326 60000 T10441139 11039 21067 50000","updated":"2026-02-23T18:00:23Z"}
