{"icao":"LPMR","metar":"LPMR 152100Z 35009KT 330V030 9999 FEW020 14/09 Q1017","updated":"2026-05-15T21:58:00Z"}
