{"icao":"KORD","metar":"KORD 181251Z 17014G19KT 10SM -SN FEW015 BKN041 OVC060 M04/M07 A3002 RMK AO2 SNB18 SLP176 P0000 T10391072","updated":"2026-03-18T13:09:26Z"}
