{"icao":"KLAX","metar":"KLAX 161353Z 26005KT 2 1/2SM BR FEW002 SCT004 19/18 A2993 RMK AO2 SLP131 VIS 2V3 VIS NE 5 SCT V BKN T01890178","updated":"2025-09-16T14:18:25Z"}
