{"icao":"KORD","metar":"KORD 311051Z 31012KT 10SM BKN020 BKN035 OVC075 M11/M14 A3037 RMK AO2 SLP298 T11061144","updated":"2026-01-31T11:20:19Z"}
