{"icao":"LPPR","metar":"LPPR 060700Z 22009KT 190V260 1400 R17/P2000 -DZ BR OVC002 16/16 Q1020 REDZ","updated":"2025-12-06T07:16:55Z"}
