{"icao":"KLAX","metar":"KLAX 290453Z 03003KT 10SM SCT250 14/10 A3017 RMK AO2 SLP215 T01440100","updated":"2026-01-29T05:42:00Z"}
