{"icao":"LPLA","metar":"LPLA 181700Z 34014KT 7000 -DZ BKN005 BKN010 17/17 Q1025","updated":"2025-11-18T17:18:07Z"}
