{"icao":"LPMA","metar":"LPMA 280800Z 02015KT 340V050 9999 BKN014 15/07 Q1027","updated":"2026-02-28T08:27:46Z"}
