{"icao":"LPMA","metar":"LPMA 250900Z 04004KT 330V080 9999 FEW015 22/14 Q1020","updated":"2025-09-25T09:19:15Z"}
