{"icao":"LPLA","metar":"LPLA 261700Z 19013G23KT 160V220 9999 FEW024 19/13 Q1021","updated":"2025-11-26T17:17:31Z"}
