{"icao":"LPCS","metar":"LPCS 141230Z 22007KT 190V250 CAVOK 26/11 Q1017","updated":"2025-10-14T12:38:47Z"}
