{"icao":"LPLA","metar":"LPLA 011408Z 29031G45KT 9999 TS SCT024 SCT025CB 12/04 Q1007","updated":"2026-02-01T14:24:41Z"}
