{"icao":"LPCS","metar":"LPCS 291800Z 36013KT 9999 FEW010 22/14 Q1020","updated":"2026-05-29T18:30:41Z"}
