{"icao":"LPBJ","metar":"LPBJ 081500Z 30012KT 270V330 9999 SCT035 22/11 Q1020","updated":"2025-10-08T15:19:00Z"}
