{"icao":"LPLA","metar":"LPLA 220600Z 28027G49KT 9999 SCT017 SCT022 BKN028 18/14 Q1012 R MK WIND RWY15 28035G50KT PK 28050/57 RH80 BLU","updated":"2026-01-22T06:33:51Z"}
