{"icao":"LPPT","metar":"LPPT 170800Z 24005KT 9999 FEW020 FEW025TCU 07/05 Q1014","updated":"2026-01-17T08:25:05Z"}
