{"icao":"LPLA","metar":"LPLA 291800Z 09016KT 7000 -DZ BKN005 BKN007 15/14 Q1012","updated":"2025-12-29T18:29:25Z"}
