{"icao":"LPAZ","metar":"LPAZ 071230Z 26014KT 8000 FEW007 SCT032 BKN049 16/14 Q1017","updated":"2026-02-07T12:45:39Z"}
