{"icao":"LPPS","metar":"LPPS 011130Z 27008KT 250V310 9999 FEW015 20/11 Q1019","updated":"2026-05-01T11:58:28Z"}
