{"icao":"LPPT","metar":"LPPT 250900Z 23012KT 4000 -RADZ BR FEW002 BKN004 20/19 Q1015","updated":"2025-10-25T09:16:03Z"}
