{"icao":"LPPT","metar":"LPPT 012100Z 34004KT 310V020 9999 -RA FEW022 16/14 Q1021","updated":"2025-11-01T21:13:48Z"}
