{"icao":"LPPT","metar":"LPPT 042200Z 14011KT CAVOK 20/14 Q1011","updated":"2025-11-04T22:16:31Z"}
