{"icao":"LPLA","metar":"LPLA 302300Z 26003KT 210V310 9999 FEW018 15/11 Q1025","updated":"2025-11-30T23:17:06Z"}
