{"icao":"LPBJ","metar":"LPBJ 062200Z 11009KT CAVOK 15/13 Q1016","updated":"2026-04-06T22:35:01Z"}
