{"icao":"KORD","metar":"KORD 082151Z 14010KT 6SM BR FEW025 SCT070 OVC095 12/11 A2958 RMK AO2 RAE16 PRESFR SLP020 P0002 T01220106","updated":"2026-01-08T22:20:45Z"}
