{"icao":"LPPS","metar":"LPPS 280730Z 03010KT 360V060 9999 FEW012 21/18 Q1024","updated":"2026-06-28T07:49:43Z"}
