{"icao":"LPLA","metar":"LPLA 160700Z 17011KT 140V210 9999 SCT012 BKN015 BKN030 14/13 Q1025","updated":"2026-02-16T07:53:26Z"}
