{"icao":"LPLA","metar":"LPLA 231500Z 34010KT 300V360 9999 FEW014 BKN020 21/17 Q1023","updated":"2026-06-23T15:46:27Z"}
