{"icao":"KLAX","metar":"KLAX 310853Z 21005KT 10SM BKN016 OVC250 18/14 A2997 RMK AO2 SLP147 T01830139 55004","updated":"2026-03-31T09:02:26Z"}
