{"icao":"LPPD","metar":"LPPD 142200Z 02005KT 350V050 9999 FEW020 BKN045 15/10 Q1031","updated":"2026-05-14T22:10:06Z"}
