{"icao":"LPAR","metar":"LPAR 151400Z 19008KT CAVOK 27/13 Q1015","updated":"2025-10-15T14:18:51Z"}
