{"icao":"KJFK","metar":"KJFK 022051Z 34009G18KT 10SM SCT065 BKN210 BKN250 17/M01 A2981 RMK SLP094 T01671006 58020 ","updated":"2026-05-02T21:39:28Z"}
