{"icao":"LPFL","metar":"LPFL 181700Z 36013KT 340V040 9999 SCT024 17/11 Q1028","updated":"2025-11-18T17:18:07Z"}
