{"icao":"LPCS","metar":"LPCS 071600Z 35013KT 310V010 9999 FEW014 21/15 Q1022","updated":"2025-10-07T16:21:30Z"}
