{"icao":"LPMT","metar":"LPMT 032100Z 17003KT CAVOK 15/13 Q1021","updated":"2025-11-03T21:16:38Z"}
