{"icao":"LPAZ","metar":"LPAZ 280130Z 26028KT 8000 BKN012 BKN024 17/15 Q1009","updated":"2026-01-28T01:44:00Z"}
