{"icao":"LPPT","metar":"LPPT 132030Z 27006KT 240V320 9999 BKN014 13/10 Q1023","updated":"2026-04-13T20:53:52Z"}
