{"icao":"KLAX","metar":"KLAX 290653Z 11004KT 10SM FEW250 13/07 A3016 RMK AO2 SLP213 T01280072 $","updated":"2025-12-29T07:25:08Z"}
