{"icao":"KJFK","metar":"KJFK 021651Z 00000KT 10SM BKN240 M02/M17 A3069 RMK AO2 SLP390 T10221172","updated":"2026-03-02T17:43:48Z"}
