{"icao":"LPBJ","metar":"LPBJ 142200Z 22004KT CAVOK 19/10 Q1017","updated":"2025-10-14T22:16:30Z"}
