{"icao":"LPFR","metar":"LPFR 132300Z 33006KT 300V360 CAVOK 25/12 Q1020","updated":"2025-09-13T23:14:14Z"}
