{"icao":"LPAZ","metar":"LPAZ 241830Z 31021KT 9999 FEW019 SCT025 15/11 Q1018","updated":"2026-02-24T19:00:27Z"}
