{"icao":"LPPR","metar":"LPPR 150800Z 13010KT CAVOK 11/07 Q1010","updated":"2025-12-15T08:30:29Z"}
