{"icao":"KORD","metar":"KORD 172151Z 24005G15KT 10SM OVC250 M06/M16 A3015 RMK AO2 SLP221 T10561161","updated":"2026-03-17T22:32:01Z"}
