{"icao":"LPMR","metar":"LPMR 072100Z 31003KT 9999 FEW026 15/13 Q1018","updated":"2025-11-07T21:13:23Z"}
