{"icao":"LPFR","metar":"LPFR 012130Z 31007KT CAVOK 18/10 Q1019","updated":"2026-05-01T21:51:47Z"}
