{"icao":"LPLA","metar":"LPLA 120300Z 30017KT 9000 -SHRA SCT022 SCT035 13/09 Q1002","updated":"2025-11-12T03:10:52Z"}
