{"icao":"LPCS","metar":"LPCS 231700Z 27009KT 240V310 9999 FEW020 17/11 Q1014 WS R35","updated":"2026-04-23T17:18:10Z"}
