{"icao":"KORD","metar":"KORD 111851Z 05008KT 10SM BKN033 BKN300 17/09 A3013 RMK AO2 SLP201 T01720089","updated":"2025-10-11T19:12:43Z"}
