{"icao":"LPPS","metar":"LPPS 260230Z 04007KT 360V080 9999 FEW015 16/11 Q1018","updated":"2026-04-26T02:37:58Z"}
