{"icao":"KJFK","metar":"KJFK 231351Z 22012KT 10SM FEW032 FEW048 BKN250 23/16 A3004 RMK AO2 SLP172 T02280156 $","updated":"2025-09-23T14:17:53Z"}
