{"icao":"LPOV","metar":"LPOV 290700Z 16004KT 7000 MIFG SCT008 BKN030 10/09 Q1019","updated":"2025-11-29T07:16:53Z"}
