{"icao":"LPPR","metar":"LPPR 061500Z 21011KT 4000 BR BKN002 16/16 Q1020","updated":"2025-12-06T15:17:07Z"}
