{"icao":"LPPT","metar":"LPPT 171300Z 14011KT CAVOK 19/06 Q1009","updated":"2026-03-17T13:09:31Z"}
