{"icao":"LPLA","metar":"LPLA 171300Z 20014G30KT 170V230 9999 SCT017 BKN024 24/19 Q1017","updated":"2025-09-17T13:26:10Z"}
