{"icao":"LPMT","metar":"LPMT 021300Z 28006KT 260V320 9999 SCT025 FEW030TCU 16/10 Q1018","updated":"2025-12-02T13:35:41Z"}
