{"icao":"LPPS","metar":"LPPS 140130Z 35015KT 9999 SCT015 15/07 Q1023","updated":"2026-01-14T01:47:20Z"}
