{"icao":"LPPT","metar":"LPPT 171000Z 09005KT 360V130 CAVOK 23/12 Q1022","updated":"2025-09-17T10:18:22Z"}
