{"icao":"KORD","metar":"KORD 080351Z 34008KT 10SM SCT037 BKN048 BKN065 09/07 A2969 RMK AO2 RAB10E38 SLP056 P0001 T00940067 $","updated":"2025-11-08T04:20:17Z"}
