{"icao":"LPPT","metar":"LPPT 090900Z 02009KT 360V060 9999 FEW020 14/10 Q1018","updated":"2026-04-09T09:05:52Z"}
