{"icao":"KORD","metar":"KORD 071751Z 35013KT 8SM R10L/6000VP6000FT OVC014 M03/M07 A3016 RMK AO2 SLP220 4/009 933009 60004 T10331067 11017 21039 51025","updated":"2025-12-07T18:25:06Z"}
