{"icao":"LPMT","metar":"LPMT 191900Z 22007KT 180V260 9999 BKN020 21/19 Q1014","updated":"2025-10-19T19:12:58Z"}
