{"icao":"LPFR","metar":"LPFR 112330Z 23006KT 9999 FEW018 SCT025 17/14 Q1017","updated":"2026-05-11T23:56:37Z"}
