{"icao":"LPFL","metar":"LPFL 150800Z 26003KT 200V010 9999 FEW022 14/07 Q1027","updated":"2025-12-15T08:30:48Z"}
