{"icao":"LPPT","metar":"LPPT 300200Z 03014KT CAVOK 14/02 Q1029","updated":"2026-03-30T02:25:14Z"}
