{"icao":"LPPD","metar":"LPPD 250930Z 31004KT 9999 FEW025 SCT035 13/07 Q1027","updated":"2026-02-25T09:53:14Z"}
