{"icao":"LPLA","metar":"LPLA 232000Z 25015G26KT 9999 FEW025 SCT030 16/10 Q1005","updated":"2026-02-23T20:42:52Z"}
