{"icao":"LPPT","metar":"LPPT 041500Z 30008KT 270V330 9999 SCT028 16/09 Q1022","updated":"2025-12-04T15:22:16Z"}
