{"icao":"KJFK","metar":"KJFK 080859Z 32011KT 10SM OVC029 06/01 A3009 RMK AO2 T00610006 $","updated":"2026-01-08T09:27:36Z"}
