{"icao":"LPBJ","metar":"LPBJ 222200Z 23001KT CAVOK 08/00 Q1029","updated":"2025-11-22T22:16:49Z"}
