{"icao":"LPAZ","metar":"LPAZ 021400Z 10009KT 060V120 9999 FEW008 SCT011 BKN014 23/19 Q1020","updated":"2025-11-02T14:14:42Z"}
