{"icao":"KLAX","metar":"KLAX 231853Z 26008KT 3SM HZ FEW010 SCT018 22/15 A2994 RMK AO2 SLP139 T02170150","updated":"2026-03-23T19:47:56Z"}
