{"icao":"KORD","metar":"KORD 240751Z 19006KT 10SM BKN180 M06/M10 A3017 RMK AO2 SLP227 T10611100","updated":"2026-02-24T08:46:23Z"}
