{"icao":"LPSJ","metar":"LPSJ 131000Z 30006KT 250V320 9999 FEW010 BKN026 19/17 Q1021","updated":"2026-06-13T10:26:46Z"}
