{"icao":"LPHR","metar":"LPHR 171400Z 30012KT 260V330 9999 VCSH FEW016 BKN025 15/11 Q1031","updated":"2026-01-17T14:17:53Z"}
