{"icao":"LPOV","metar":"LPOV 141600Z 35007KT 320V020 CAVOK 21/14 Q1016","updated":"2025-10-14T16:22:14Z"}
