{"icao":"LPFR","metar":"LPFR 261730Z 25013KT CAVOK 23/19 Q1017","updated":"2026-06-26T17:45:42Z"}
