{"icao":"KLAX","metar":"KLAX 262053Z 25008KT 9SM FEW010 FEW140 SCT180 SCT250 22/14 A3001 RMK AO2 SLP162 T02170144 58022","updated":"2026-02-26T21:31:33Z"}
