{"icao":"LPAZ","metar":"LPAZ 261930Z 12010KT 9999 FEW012 17/16 Q1022","updated":"2026-04-26T19:44:50Z"}
