{"icao":"KORD","metar":"KORD 172151Z 18020G34KT 10SM SCT055 OVC250 27/16 A2965 RMK AO2 PK WND 19034/2149 SLP037 T02670156 $","updated":"2026-04-17T22:14:58Z"}
