{"icao":"KORD","metar":"KORD 290651Z 33008KT 10SM FEW250 M14/M21 A3025 RMK AO2 SLP259 T11441211","updated":"2026-01-29T07:38:34Z"}
