{"icao":"LPFR","metar":"LPFR 271900Z 26008KT CAVOK 20/18 Q1018","updated":"2025-09-27T19:12:27Z"}
