{"icao":"KORD","metar":"KORD 010351Z 36015KT 10SM SCT028 M06/M11 A2994 RMK AO2 PK WND 35026/0312 SLP148 T10611111","updated":"2026-01-01T04:47:06Z"}
