{"icao":"KJFK","metar":"KJFK 082151Z 32009KT 10SM FEW060 SCT250 17/04 A2982 RMK AO2 SLP096 T01720044 $","updated":"2025-11-08T22:15:12Z"}
