{"icao":"LPPT","metar":"LPPT 120630Z 21004KT 9999 FEW008 FEW025CB 15/15 Q1017","updated":"2026-05-12T06:35:13Z"}
