{"icao":"LPFR","metar":"LPFR 040800Z 25002KT CAVOK 21/11 Q1021","updated":"2025-10-04T08:20:11Z"}
