{"icao":"KORD","metar":"KORD 040851Z 22006KT 10SM FEW250 11/06 A2964 RMK AO2 SLP036 T01110056 55013 $","updated":"2026-05-04T09:16:10Z"}
