{"icao":"LPPR","metar":"LPPR 170800Z VRB01KT 5000 BR NSC 13/12 Q1015","updated":"2025-10-17T08:24:26Z"}
