{"icao":"LPPT","metar":"LPPT 061800Z 34013KT 9999 FEW024 09/03 Q1024","updated":"2026-01-06T18:30:15Z"}
