{"icao":"KORD","metar":"KORD 062251Z 22009KT 8SM FEW055 SCT120 BKN170 BKN250 18/16 A2983 RMK AO2 RAE2158 SLP101 P0000 T01830161","updated":"2026-03-06T23:26:23Z"}
