{"icao":"LPMA","metar":"LPMA 242030Z 01017G28KT 310V030 9999 SCT014 17/12 Q1018","updated":"2026-03-24T20:40:27Z"}
