{"icao":"LPPR","metar":"LPPR 300730Z 19012KT 6000 -SHRA FEW010 FEW020CB BKN025 12/11 Q1008","updated":"2026-01-30T07:38:37Z"}
