{"icao":"KJFK","metar":"KJFK 090751Z 08004KT 7SM FEW250 01/00 A3030 RMK AO2 SLP260 T00060000 $","updated":"2026-01-09T08:29:54Z"}
