{"icao":"LPCS","metar":"LPCS 071500Z 16006KT 130V210 9999 FEW018 SCT048 17/15 Q1022","updated":"2025-12-07T15:16:11Z"}
