{"icao":"LPMT","metar":"LPMT 191200Z VRB03KT CAVOK 23/11 Q1016","updated":"2026-04-19T12:59:28Z"}
