{"icao":"LPPT","metar":"LPPT 012130Z 27006KT 240V330 9999 FEW020 16/11 Q1019","updated":"2026-05-01T21:51:47Z"}
