{"icao":"LPMT","metar":"LPMT 162300Z 35013KT CAVOK 13/09 Q1017","updated":"2025-12-16T23:17:54Z"}
