{"icao":"LPMA","metar":"LPMA 060100Z 34007KT 300V020 9999 SCT018 20/10 Q1021","updated":"2025-11-06T01:24:11Z"}
