{"icao":"LPPT","metar":"LPPT 081900Z 23007KT 5000 -DZ BR FEW002 SCT004 BKN006 12/12 Q1031 REDZ","updated":"2026-01-08T19:18:56Z"}
