{"icao":"LPMR","metar":"LPMR 031500Z 26003KT 220V290 CAVOK 19/11 Q1021","updated":"2025-11-03T15:19:28Z"}
