{"icao":"KORD","metar":"KORD 012151Z 02008KT 10SM -RA FEW027 OVC060 07/00 A3005 RMK AO2 RAB48 SLP181 P0000 T00670000 $","updated":"2026-05-01T22:49:14Z"}
