{"icao":"KJFK","metar":"KJFK 042051Z 32016G19KT 10SM BKN043 00/M09 A3009 RMK AO2 SLP189 T00001094 53010 $","updated":"2026-01-04T21:18:01Z"}
