{"icao":"LPPR","metar":"LPPR 271530Z 34011KT 310V010 CAVOK 17/08 Q1018","updated":"2026-03-27T15:52:05Z"}
