{"icao":"LPLA","metar":"LPLA 211500Z 20008KT 140V250 9999 FEW015 BKN020 16/13 Q1013","updated":"2026-05-21T15:21:19Z"}
