{"icao":"LPPT","metar":"LPPT 140600Z 04011KT CAVOK 12/08 Q1018","updated":"2025-12-14T06:28:21Z"}
