{"icao":"LPPR","metar":"LPPR 122300Z 14008KT 110V170 9999 -RA FEW006 SCT011 BKN035 11/11 Q1005","updated":"2026-02-12T23:27:37Z"}
