{"icao":"KLAX","metar":"KLAX 252053Z 22012G19KT 10SM FEW022 SCT040 BKN110 BKN200 17/09 A2989 RMK AO2 PK WND 24026/1958 SLP121 T01720094 56009","updated":"2026-04-25T21:35:26Z"}
