{"icao":"LPBJ","metar":"LPBJ 271623Z 33013KT 9999 BKN018 16/12 Q1023","updated":"2026-02-27T16:39:07Z"}
