{"icao":"KJFK","metar":"KJFK 101451Z 05006KT 10SM FEW030 BKN130 OVC250 06/00 A3023 RMK AO2 SLP238 T00610000 53012 $","updated":"2026-01-10T15:18:39Z"}
