{"icao":"LPOV","metar":"LPOV 152000Z 19004KT 170V270 8000 SCT008 BKN022 12/12 Q1029","updated":"2026-02-15T20:25:03Z"}
