{"icao":"LPFR","metar":"LPFR 041230Z 09013KT 9999 FEW014 SCT020 22/18 Q1018","updated":"2025-11-04T12:40:47Z"}
