{"icao":"KLAX","metar":"KLAX 181653Z 06005KT 10SM CLR 23/07 A3002 RMK AO2 SLP164 T02280067","updated":"2025-10-18T17:13:28Z"}
