{"icao":"LPFR","metar":"LPFR 010900Z 07005KT 030V110 CAVOK 24/19 Q1020","updated":"2025-10-01T09:19:36Z"}
