{"icao":"LPPI","metar":"LPPI 291430Z 01005KT 310V060 9999 FEW032 22/15 Q1029","updated":"2026-06-29T14:46:56Z"}
