{"icao":"KORD","metar":"KORD 020251Z 09005KT 10SM OVC250 21/15 A3019 RMK AO2 SLP221 T02060150 53001","updated":"2025-10-02T02:55:57Z"}
