{"icao":"KJFK","metar":"KJFK 212151Z 24007KT 10SM OVC026 11/06 A2998 RMK AO2 SLP151 T01060061","updated":"2025-11-21T22:18:07Z"}
