{"icao":"LPMR","metar":"LPMR 021800Z 33013KT 300V360 CAVOK 15/10 Q1022","updated":"2026-04-02T18:55:04Z"}
