{"icao":"LPBJ","metar":"LPBJ 160800Z 20007KT 9999 FEW015 12/12 Q1013","updated":"2025-11-16T08:22:02Z"}
