{"icao":"LPFL","metar":"LPFL 251100Z 20015G29KT 170V250 5000 RA SCT008 BKN011 FEW018TCU 18/16 Q1009 REDZ","updated":"2026-01-25T11:16:57Z"}
