{"icao":"LPPT","metar":"LPPT 212000Z 35012KT 310V020 9999 FEW025 16/08 Q1021","updated":"2025-09-21T20:17:39Z"}
