{"icao":"LPST","metar":"LPST 181200Z 29009KT 260V320 CAVOK 24/17 Q1017","updated":"2026-06-18T12:24:03Z"}
