{"icao":"LPFR","metar":"LPFR 142000Z 29006KT CAVOK 21/18 Q1016","updated":"2025-10-14T20:19:10Z"}
