{"icao":"LPMR","metar":"LPMR 060900Z 22007KT 190V250 9999 FEW025 BKN040 17/14 Q1023","updated":"2025-12-06T09:18:02Z"}
