{"icao":"KLAX","metar":"KLAX 280753Z 24005KT 10SM FEW018 FEW022 SCT055 14/09 A2994 RMK AO2 SLP135 T01440089 401890144 $","updated":"2026-05-28T07:56:00Z"}
