{"icao":"LPFL","metar":"LPFL 131500Z 20005KT 160V250 9999 VCSH FEW017 FEW025CB SCT030 20/15 Q1013","updated":"2025-10-13T15:18:36Z"}
