{"icao":"LPHR","metar":"LPHR 062100Z 28016KT 9999 FEW015 SCT035 18/14 Q1010","updated":"2025-12-06T21:16:02Z"}
