{"icao":"LPAZ","metar":"LPAZ 280730Z 22013KT 9999 FEW024 17/12 Q1022","updated":"2026-05-28T07:55:46Z"}
