{"icao":"LPPD","metar":"LPPD 211800Z 33005KT 300V020 9999 FEW020 BKN030 15/09 Q1026","updated":"2025-12-21T18:26:36Z"}
