{"icao":"KORD","metar":"KORD 051251Z 26010KT 10SM BKN170 BKN250 11/07 A2982 RMK AO2 SLP097 T01110072 $","updated":"2025-11-05T13:31:28Z"}
