{"icao":"KORD","metar":"KORD 090551Z 03012KT 10SM -RA SCT010 BKN024 OVC048 04/02 A2985 RMK AO2 SLP113 P0003 60037 T00390017 10061 20033 400890033 51003 $","updated":"2025-11-09T06:25:49Z"}
