{"icao":"LPHR","metar":"LPHR 011400Z 33010KT 290V360 9999 FEW015 17/07 Q1029","updated":"2025-12-01T14:20:56Z"}
