{"icao":"LPBJ","metar":"LPBJ 170300Z 19009KT 8000 -RA FEW015 BKN028 13/12 Q1011","updated":"2025-11-17T03:15:08Z"}
