{"icao":"LPMR","metar":"LPMR 120400Z 18004KT CAVOK 15/11 Q1017","updated":"2025-10-12T04:20:02Z"}
