{"icao":"LPPT","metar":"LPPT 190830Z VRB02KT 9999 FEW040 BKN048 11/07 Q1027","updated":"2026-02-19T08:41:29Z"}
