{"icao":"LPFR","metar":"LPFR 281700Z 13008KT 9000 -RA FEW012 FEW018TCU SCT020 20/19 Q1012","updated":"2025-10-28T17:17:28Z"}
