{"icao":"LPPT","metar":"LPPT 040100Z 24008KT 5000 -RADZ BR FEW016 BKN023 12/11 Q1023","updated":"2025-12-04T01:26:26Z"}
