{"icao":"LPBJ","metar":"LPBJ 060800Z 10004KT CAVOK 17/12 Q1020","updated":"2025-10-06T08:24:00Z"}
