{"icao":"KLAX","metar":"KLAX 270253Z 25010KT 10SM SCT013 18/14 A2993 RMK AO2 SLP135 T01780144 55000","updated":"2026-06-27T02:56:48Z"}
