{"icao":"LPHR","metar":"LPHR 251600Z 06013KT 030V090 7000 VCSH FEW008 SCT012 18/14 Q1023","updated":"2025-12-25T16:24:18Z"}
