{"icao":"KJFK","metar":"KJFK 231251Z 00000KT 10SM SCT100 SCT250 02/M02 A3005 RMK AO2 SLP175 T00221017","updated":"2025-11-23T13:22:39Z"}
