{"icao":"LPLA","metar":"LPLA 302300Z 18004KT 150V210 9999 FEW007 20/18 Q1025","updated":"2026-05-30T23:08:47Z"}
