{"icao":"KLAX","metar":"KLAX 121253Z 10003KT 4SM BR FEW004 FEW008 SCT150 BKN220 16/14 A3005 RMK AO2 SLP174 T01560144 $","updated":"2025-11-12T13:32:40Z"}
