{"icao":"LPPS","metar":"LPPS 121400Z 34007KT 300V010 9999 FEW015 24/12 Q1018","updated":"2025-10-12T14:14:14Z"}
