{"icao":"LPBJ","metar":"LPBJ 192300Z 29006KT CAVOK 16/10 Q1016","updated":"2026-04-19T23:34:37Z"}
