{"icao":"LPBJ","metar":"LPBJ 271900Z VRB01KT CAVOK 10/02 Q1023","updated":"2025-11-27T19:14:47Z"}
