{"icao":"LPCS","metar":"LPCS 291300Z 24008KT 210V270 9999 FEW018 SCT040 16/10 Q1018","updated":"2025-11-29T13:25:13Z"}
