{"icao":"LPAR","metar":"LPAR 191500Z 36009KT 320V030 9999 SCT040 15/05 Q1028","updated":"2026-02-19T15:47:04Z"}
