{"icao":"KORD","metar":"KORD 120951Z 18012G22KT 10SM FEW120 BKN130 OVC250 16/09 A3002 RMK AO2 SLP165 T01560089 $","updated":"2026-04-12T10:37:29Z"}
