{"icao":"LPPS","metar":"LPPS 181200Z 36011KT 340V060 9999 FEW015 23/15 Q1020","updated":"2026-06-18T12:24:20Z"}
