{"icao":"KLAX","metar":"KLAX 231653Z VRB03KT 10SM FEW120 FEW160 SCT180 BKN250 18/03 A3017 RMK AO2 SLP214 T01780033 $","updated":"2026-02-23T16:56:32Z"}
