{"icao":"LPBJ","metar":"LPBJ 020600Z 15004KT CAVOK 17/12 Q1020","updated":"2025-10-02T06:26:06Z"}
