{"icao":"LPBJ","metar":"LPBJ 201200Z 09005KT 040V150 CAVOK 30/08 Q1021","updated":"2026-05-20T12:22:35Z"}
