{"icao":"KJFK","metar":"KJFK 120751Z 26014KT 10SM FEW060 SCT140 BKN220 04/M05 A2991 RMK AO2 PK WND 26027/0658 SLP129 T00391050 $","updated":"2025-11-12T08:26:40Z"}
