{"icao":"LPST","metar":"LPST 031000Z VRB02KT CAVOK 15/11 Q1023","updated":"2025-11-03T10:21:37Z"}
