{"icao":"LPBJ","metar":"LPBJ 142100Z 30010KT CAVOK 09/05 Q1029","updated":"2026-02-14T21:22:48Z"}
