{"icao":"KJFK","metar":"KJFK 141151Z 27006KT 10SM FEW090 SCT250 20/17 A3003 RMK AO2 SLP170 T02000167 10206 20172 53005 $","updated":"2025-09-14T12:30:49Z"}
