{"icao":"LPPD","metar":"LPPD 271700Z 05010KT 350V080 9999 SCT025 21/12 Q1026","updated":"2025-09-27T17:13:13Z"}
