{"icao":"KLAX","metar":"KLAX 050053Z 26010KT 10SM FEW015 17/13 A3007 RMK AO2 SLP179 T01670133 $","updated":"2025-11-05T01:24:20Z"}
