{"icao":"LPBJ","metar":"LPBJ 220700Z 09007KT CAVOK 05/01 Q1029","updated":"2025-11-22T07:16:21Z"}
