{"icao":"LPPS","metar":"LPPS 050630Z 02018KT 9999 SCT014 14/11 Q1016","updated":"2026-01-05T06:37:38Z"}
