{"icao":"LPHR","metar":"LPHR 030900Z 18005KT 140V220 9999 FEW015 BKN027 15/10 Q1026","updated":"2026-04-03T09:52:20Z"}
