{"icao":"KORD","metar":"KORD 100651Z 22016G25KT 10SM -RA SCT042 OVC055 04/01 A2927 RMK AO2 PK WND 20031/0604 RAE0555B37 SLP916 P0000 T00390006","updated":"2025-12-10T07:21:29Z"}
