{"icao":"LPAZ","metar":"LPAZ 212100Z 17009KT 9999 FEW022 BKN049 16/14 Q1026","updated":"2026-02-21T21:21:42Z"}
