{"icao":"LPPD","metar":"LPPD 120930Z 03009KT 360V070 9999 FEW022 15/09 Q1025","updated":"2026-05-12T09:37:00Z"}
