{"icao":"KORD","metar":"KORD 221051Z 23009KT 10SM FEW100 FEW250 17/13 A2990 RMK AO2 SLP120 T01670128 $","updated":"2026-04-22T11:17:44Z"}
