{"icao":"KLAX","metar":"KLAX 040153Z 26008KT 10SM FEW230 BKN290 19/14 A2997 RMK AO2 SLP149 T01890139 $","updated":"2026-04-04T02:04:08Z"}
