{"icao":"KLAX","metar":"KLAX 182353Z 25015KT 10SM FEW014 20/14 A2997 RMK AO2 SLP145 T02000144 10211 20183 56006 $","updated":"2026-06-19T00:25:32Z"}
