{"icao":"KORD","metar":"KORD 292251Z 19012G23KT 10SM FEW043 SCT200 BKN250 33/23 A2987 RMK AO2 PK WND 18026/2227 SLP108 T03280233 $","updated":"2026-06-29T22:55:34Z"}
