{"icao":"LPPR","metar":"LPPR 291230Z 29006KT 250V320 CAVOK 22/15 Q1018","updated":"2025-09-29T12:37:42Z"}
