{"icao":"KORD","metar":"KORD 180751Z 00000KT 10SM FEW250 18/15 A3004 RMK AO2 SLP168 T01780150 $","updated":"2025-09-18T08:22:08Z"}
