{"icao":"LPPR","metar":"LPPR 121330Z 17021KT 9999 FEW020 BKN040 14/10 Q1015","updated":"2026-01-12T13:41:11Z"}
