{"icao":"LPCS","metar":"LPCS 111000Z 08010KT 040V110 CAVOK 22/14 Q1020","updated":"2025-10-11T10:16:17Z"}
