{"icao":"LPPR","metar":"LPPR 110200Z 34009KT 9999 OVC011 13/11 Q1014","updated":"2026-04-11T02:07:29Z"}
