{"icao":"LPLA","metar":"LPLA 202100Z 29011KT 9999 FEW020 11/08 Q1016","updated":"2026-04-20T21:44:46Z"}
