{"icao":"KORD","metar":"KORD 020151Z 05014KT 10SM OVC022 04/00 A3014 RMK AO2 SLP213 T00390000","updated":"2026-04-02T02:09:28Z"}
