{"icao":"KJFK","metar":"KJFK 180651Z 22003KT 6SM BR FEW010 BKN120 BKN170 BKN200 BKN250 00/M02 A3010 RMK AO2 SLP194 T00001017 $","updated":"2026-01-18T07:19:01Z"}
