{"icao":"KJFK","metar":"KJFK 141351Z 32011KT 10SM FEW021 BKN120 BKN230 15/11 A2976 RMK AO2 RAE13 SLP077 P0000 T01500106","updated":"2026-05-14T14:08:05Z"}
