{"icao":"LPBJ","metar":"LPBJ 221600Z 03008KT CAVOK 14/M02 Q1028","updated":"2025-11-22T16:20:51Z"}
