{"icao":"LPPR","metar":"LPPR 221800Z 18003KT 9999 BKN032 11/06 Q1029","updated":"2025-11-22T18:24:30Z"}
