{"icao":"LPFR","metar":"LPFR 030100Z 26004KT CAVOK 20/17 Q1020","updated":"2025-10-03T01:16:29Z"}
