{"icao":"LPPS","metar":"LPPS 141330Z 34012KT 310V020 9999 FEW015 SCT035 22/16 Q1022","updated":"2026-06-14T14:04:15Z"}
