{"icao":"LPAZ","metar":"LPAZ 251400Z 04017KT 3600 -RA FEW006 SCT018 18/17 Q1016","updated":"2025-10-25T14:14:41Z"}
