{"icao":"KORD","metar":"KORD 291251Z 28005KT 10SM FEW025 SCT250 M17/M22 A3030 RMK AO2 SLP276 T11671222","updated":"2026-01-29T12:55:11Z"}
