{"icao":"LPPR","metar":"LPPR 252100Z 00000KT CAVOK 15/07 Q1018","updated":"2025-09-25T21:15:02Z"}
