{"icao":"KJFK","metar":"KJFK 272151Z 18006KT 10SM FEW045 SCT110 BKN140 OVC250 22/17 A2997 RMK AO2 SLP148 T02220172 $","updated":"2025-09-27T22:14:36Z"}
