{"icao":"KLAX","metar":"KLAX 311653Z 10005KT 8SM SCT014 BKN140 19/14 A3002 RMK AO2 SLP162 T01890144 $","updated":"2025-10-31T17:16:54Z"}
