{"icao":"LPMT","metar":"LPMT 290100Z 26014KT 8000 BKN006 BKN015 15/15 Q1007","updated":"2026-01-29T01:56:12Z"}
