{"icao":"LPFL","metar":"LPFL 021700Z 19014KT 140V240 9999 FEW012 25/20 Q1016","updated":"2025-10-02T17:13:01Z"}
