{"icao":"LPPR","metar":"LPPR 050100Z 35003KT 0300 R17/0600 FG BKN001 BKN003 15/14 Q1023","updated":"2025-10-05T01:24:51Z"}
