{"icao":"LPMR","metar":"LPMR 111300Z 21013KT 180V250 9999 FEW020 FEW022CB SCT030 19/13 Q1013","updated":"2026-05-11T23:56:39Z"}
