{"icao":"LPFL","metar":"LPFL 231230Z 23011KT 160V300 9999 SCT020 17/10 Q1002","updated":"2026-02-23T13:01:33Z"}
