{"icao":"LPLA","metar":"LPLA 122200Z 27007KT 9999 FEW022 BKN035 19/14 Q1019","updated":"2025-10-12T22:15:32Z"}
