{"icao":"LPPS","metar":"LPPS 131300Z 03011KT 340V070 9999 FEW015 BKN030 25/18 Q1023","updated":"2025-09-13T13:18:43Z"}
