{"icao":"LPBJ","metar":"LPBJ 191000Z 10011KT 9999 FEW025 SCT045 14/12 Q1006","updated":"2026-03-19T10:38:36Z"}
