{"icao":"LPPT","metar":"LPPT 121230Z 09008KT 6000 2500NW -RA FEW001 BKN008 11/11 Q1013","updated":"2025-12-12T12:40:52Z"}
