{"icao":"LPPT","metar":"LPPT 230700Z VRB01KT CAVOK 09/08 Q1027","updated":"2025-11-23T07:16:47Z"}
