{"icao":"LPPR","metar":"LPPR 171500Z 31005KT 280V360 CAVOK 21/13 Q1015","updated":"2025-10-17T15:17:55Z"}
