{"icao":"LPPR","metar":"LPPR 142030Z 34015KT 9999 FEW025 14/10 Q1014","updated":"2026-05-14T20:39:47Z"}
