{"icao":"LPMR","metar":"LPMR 310500Z 16003KT 3000 BR NSC 03/03 Q1019","updated":"2025-12-31T05:23:32Z"}
