{"icao":"LPAZ","metar":"LPAZ 181700Z 20009KT 9999 SCT013 26/21 Q1016","updated":"2025-09-18T17:15:42Z"}
