{"icao":"LPMR","metar":"LPMR 191600Z 22009KT 4000 -RA FEW008 BKN020 20/18 Q1013","updated":"2025-10-19T16:19:33Z"}
