{"icao":"KORD","metar":"KORD 251351Z 00000KT 2SM BR OVC006 09/08 A2977 RMK AO2 SLP083 T00890078","updated":"2025-11-25T14:19:08Z"}
