{"icao":"KORD","metar":"KORD 181851Z 31006G16KT 10SM BKN045 22/11 A2976 RMK AO2 SLP075 T02170111","updated":"2026-06-18T19:27:15Z"}
