{"icao":"KORD","metar":"KORD 040151Z 21009KT 10SM FEW070 17/06 A2969 RMK AO2 SLP054 T01720056 $","updated":"2026-05-04T02:45:16Z"}
