{"icao":"KLAX","metar":"KLAX 171253Z 00000KT 10SM FEW250 17/13 A2991 RMK AO2 SLP126 T01720133 $","updated":"2026-03-17T13:09:49Z"}
