{"icao":"LPHR","metar":"LPHR 142200Z 36005KT 330V050 9999 FEW022 14/09 Q1011","updated":"2025-11-14T22:17:24Z"}
