{"icao":"LPPR","metar":"LPPR 261330Z 20016KT 5000 -RADZ BR FEW004 BKN007 15/14 Q1006","updated":"2026-01-26T13:42:55Z"}
