{"icao":"LPCS","metar":"LPCS 231300Z 19006KT 160V220 9999 FEW018 BKN030 16/12 Q1026","updated":"2025-11-23T13:22:22Z"}
