{"icao":"LPMR","metar":"LPMR 261600Z 31007KT CAVOK 31/13 Q1020","updated":"2026-05-26T16:40:59Z"}
