{"icao":"LPLA","metar":"LPLA 142200Z 21014G24KT 180V240 9999 FEW022 SCT035 16/10 Q1029","updated":"2026-02-14T22:21:50Z"}
