{"icao":"LPPR","metar":"LPPR 221400Z 29005KT 260V320 CAVOK 15/09 Q1028","updated":"2026-02-22T14:24:34Z"}
