{"icao":"KJFK","metar":"KJFK 280251Z 26006KT 10SM FEW070 SCT150 BKN190 BKN250 23/17 A2976 RMK AO2 SLP078 T02330172 53003 $","updated":"2026-05-28T03:28:58Z"}
