{"icao":"LPFR","metar":"LPFR 170600Z 27021KT 9999 SCT013 17/14 Q1011","updated":"2025-11-17T06:29:16Z"}
