{"icao":"LPPS","metar":"LPPS 241300Z 04015G25KT 020V080 9999 SCT014 18/13 Q1018","updated":"2026-03-24T13:09:44Z"}
