{"icao":"LPHR","metar":"LPHR 011030Z 08008KT 040V130 9999 FEW020 SCT040 18/13 Q1015","updated":"2026-05-01T10:39:55Z"}
