{"icao":"LPMA","metar":"LPMA 150500Z 20007KT 170V230 9999 BKN015 20/16 Q1012","updated":"2025-11-15T05:17:48Z"}
