{"icao":"KLAX","metar":"KLAX 291053Z 08003KT 10SM FEW012 FEW250 13/11 A3003 RMK AO2 SLP167 T01280111 $","updated":"2026-04-29T11:27:44Z"}
