{"icao":"LPAZ","metar":"LPAZ 111400Z 30005KT 270V350 9999 FEW013 BKN025 21/16 Q1025","updated":"2026-06-11T14:34:00Z"}
