{"icao":"KLAX","metar":"KLAX 040853Z 03005KT 10SM CLR 14/11 A3015 RMK AO2 SLP209 T01440106 58004 $","updated":"2026-02-04T09:42:21Z"}
