{"icao":"LPPS","metar":"LPPS 290900Z 16008KT 130V190 9999 FEW015 16/10 Q1020","updated":"2025-12-29T09:29:04Z"}
