{"icao":"LPOV","metar":"LPOV 072300Z 15002KT CAVOK 07/07 Q1020","updated":"2026-03-07T23:20:41Z"}
