{"icao":"LPFR","metar":"LPFR 231730Z 11007KT CAVOK 16/12 Q1023","updated":"2026-02-23T18:00:19Z"}
