{"icao":"LPPS","metar":"LPPS 261200Z 27008KT 230V290 9999 FEW014 FEW016TCU 23/17 Q1021","updated":"2026-06-26T12:09:36Z"}
