{"icao":"LPFR","metar":"LPFR 160330Z VRB01KT CAVOK 20/17 Q1013","updated":"2026-06-16T03:58:03Z"}
