{"icao":"LPOV","metar":"LPOV 131000Z 15014KT 120V180 9999 -TSRA FEW004 SCT022 FEW025CB 16/14 Q1000","updated":"2025-11-13T10:20:44Z"}
