{"icao":"LPPT","metar":"LPPT 061430Z 33022KT 9999 FEW028 13/06 Q1017 WS R02","updated":"2026-03-06T14:36:33Z"}
