{"icao":"LPPD","metar":"LPPD 211500Z 22016KT 5000 BR FEW003 BKN008 BKN012 23/22 Q1015","updated":"2025-10-21T15:19:10Z"}
