{"icao":"LPAZ","metar":"LPAZ 271200Z 03012KT 350V070 9999 FEW024 BKN043 24/14 Q1025","updated":"2025-09-27T12:31:48Z"}
