{"icao":"LPPS","metar":"LPPS 280900Z 28016KT 9999 FEW009 17/15 Q1017","updated":"2026-01-28T09:32:47Z"}
