{"icao":"LPAZ","metar":"LPAZ 180530Z 34024KT 9999 SCT025 FEW031TCU 09/03 Q1011","updated":"2026-03-18T06:01:45Z"}
