{"icao":"KORD","metar":"KORD 170551Z 00000KT 10SM CLR 19/15 A3013 RMK AO2 SLP199 T01890150 10239 20183 402830172 58005 $","updated":"2025-09-17T06:26:51Z"}
