{"icao":"LPFR","metar":"LPFR 221400Z 09009KT CAVOK 20/06 Q1026","updated":"2026-02-22T14:24:34Z"}
