{"icao":"KJFK","metar":"KJFK 251851Z 17011KT 2SM BKN004 BKN007 OVC080 23/22 A2981 RMK AO2 SFC VIS 8 RAB1752E15 SLP093 P0000 T02280217 $","updated":"2025-09-25T19:14:57Z"}
