{"icao":"KJFK","metar":"KJFK 021651Z 26008KT 10SM SCT027 BKN032 BKN050 OVC250 14/06 A2988 ","updated":"2026-05-02T17:41:39Z"}
