{"icao":"KJFK","metar":"KJFK 230951Z 30013G21KT 10SM SCT250 01/M15 A3014 RMK AO2 SLP204 T00061150 $","updated":"2026-01-23T10:24:02Z"}
