{"icao":"LPMT","metar":"LPMT 021600Z 34010KT CAVOK 23/07 Q1019","updated":"2026-04-02T17:04:50Z"}
