{"icao":"KLAX","metar":"KLAX 150553Z 00000KT 10SM BKN009 16/14 A3010 RMK AO2 SLP192 T01560139 10161 20150 51012","updated":"2025-12-15T06:33:59Z"}
