{"icao":"LPCS","metar":"LPCS 011630Z 25008KT 220V310 9999 FEW018 19/11 Q1018","updated":"2026-05-01T16:58:04Z"}
