{"icao":"LPHR","metar":"LPHR 272000Z 02016G26KT 340V050 9999 -SHRA SCT015 17/13 Q1019","updated":"2025-10-27T20:18:03Z"}
