{"icao":"LPBJ","metar":"LPBJ 080600Z 31006KT 0050 FG VV002 12/12 Q1020","updated":"2025-11-08T06:25:13Z"}
