{"icao":"LPPD","metar":"LPPD 250230Z 02006KT 340V090 9999 FEW012 19/17 Q1016","updated":"2025-10-25T03:00:53Z"}
