{"icao":"LPPD","metar":"LPPD 291730Z 25013KT 0600 FG VV001 16/15 Q1013","updated":"2026-01-29T17:36:01Z"}
