{"icao":"LPPT","metar":"LPPT 072200Z 27013KT 240V300 6000 -SHRA FEW020 FEW025CB SCT040 11/07 Q1010","updated":"2026-02-07T22:24:37Z"}
