{"icao":"LPPS","metar":"LPPS 111400Z 03013KT 9999 SCT015 22/16 Q1021","updated":"2026-06-11T14:34:15Z"}
