{"icao":"LPAR","metar":"LPAR 061500Z 24006KT 210V270 9999 FEW020 BKN045 19/13 Q1022","updated":"2025-12-06T21:16:00Z"}
