{"icao":"LPMA","metar":"LPMA 081500Z 23012G22KT 200V300 9999 FEW016 20/09 Q1007","updated":"2026-05-08T15:20:50Z"}
