{"icao":"LPMR","metar":"LPMR 242200Z 19005KT 8000 -RA FEW015 BKN028 10/08 Q1014","updated":"2026-01-24T22:18:39Z"}
