{"icao":"LPOV","metar":"LPOV 061600Z 18008KT 5000 BR FEW020 OVC035 17/16 Q1021","updated":"2025-12-06T16:21:14Z"}
