{"icao":"LPBJ","metar":"LPBJ 280914Z 28014KT 6000 -RA BKN023 13/10 Q1003","updated":"2026-01-28T09:32:44Z"}
