{"icao":"LPPT","metar":"LPPT 260530Z 32006KT 250V360 9999 FEW010 15/13 Q1016","updated":"2026-04-26T05:38:01Z"}
