{"icao":"LPLA","metar":"LPLA 071200Z 36002KT 320V020 9999 FEW022 SCT040 15/10 Q1015","updated":"2026-02-07T12:45:39Z"}
