{"icao":"KLAX","metar":"KLAX 291953Z 01004KT 10SM FEW200 FEW250 22/M04 A3013 RMK AO2 SLP201 T02171044","updated":"2025-12-29T20:23:00Z"}
