{"icao":"KORD","metar":"KORD 301651Z 32011G23KT 10SM BKN020 M01/M05 A3010 RMK AO2 SNE1554 SLP201 P0000 T10061050 $","updated":"2025-11-30T17:15:43Z"}
