{"icao":"LPPT","metar":"LPPT 172200Z VRB02KT CAVOK 12/09 Q1023","updated":"2025-12-17T22:19:01Z"}
