{"icao":"LPPS","metar":"LPPS 101830Z 35020KT 7000 VCSH BKN010 BKN030 15/14 Q1019","updated":"2026-04-10T18:51:18Z"}
