{"icao":"KORD","metar":"KORD 301051Z 21008KT 10SM FEW070 FEW250 12/03 A2994 RMK AO2 SLP136 T01170033 $","updated":"2026-03-30T11:00:48Z"}
