{"icao":"LPST","metar":"LPST 081300Z 33015KT 9999 SCT015 SCT040 19/15 Q1022","updated":"2025-10-08T13:28:13Z"}
