{"icao":"LPMR","metar":"LPMR 210700Z 34005KT CAVOK 19/12 Q1020","updated":"2026-05-21T07:50:12Z"}
