{"icao":"LPCS","metar":"LPCS 262000Z 01017KT CAVOK 19/13 Q1015","updated":"2026-04-27T02:39:50Z"}
