{"icao":"LPBJ","metar":"LPBJ 140600Z 31006KT CAVOK 16/15 Q1022","updated":"2025-09-14T06:23:17Z"}
