{"icao":"LPAR","metar":"LPAR 121600Z 17004KT 140V200 9999 FEW025 20/09 Q1024","updated":"2026-03-12T17:02:38Z"}
