{"icao":"LPMA","metar":"LPMA 201100Z 15005KT 120V200 9999 SCT015 SCT033 24/21 Q1020","updated":"2025-10-20T11:15:59Z"}
