{"icao":"LPHR","metar":"LPHR 121800Z 33011KT 290V030 9999 SCT025 FEW030CB 15/08 Q1005 WS R28","updated":"2025-11-12T18:26:27Z"}
