{"icao":"LPBJ","metar":"LPBJ 240500Z 15010KT CAVOK 12/10 Q1018","updated":"2026-03-24T05:58:45Z"}
