{"icao":"LPPR","metar":"LPPR 011630Z 29006KT 240V320 CAVOK 19/11 Q1018","updated":"2026-05-01T16:58:03Z"}
