{"icao":"LPFR","metar":"LPFR 200400Z 33003KT 200V010 CAVOK 08/05 Q1028","updated":"2026-02-20T04:21:08Z"}
