{"icao":"LPPD","metar":"LPPD 280800Z 04004KT 010V070 9999 FEW025 BKN040 19/12 Q1028","updated":"2025-09-28T08:19:44Z"}
