{"icao":"LPCS","metar":"LPCS 161030Z 28009KT 240V310 9999 FEW013 SCT036 14/12 Q1032","updated":"2026-02-16T10:49:10Z"}
