{"icao":"KORD","metar":"KORD 022151Z 17005KT 10SM FEW070 BKN300 28/12 A3018 RMK AO2 SLP218 T02830122","updated":"2025-10-02T22:16:14Z"}
