{"icao":"LPPD","metar":"LPPD 070400Z 20003KT 160V220 4000 BR SCT008 BKN012 16/15 Q1010","updated":"2025-12-07T04:31:44Z"}
