{"icao":"LPLA","metar":"LPLA 240700Z 29029G42KT 8000 -SHRA SCT025 BKN035 14/10 Q1009","updated":"2026-02-24T07:07:16Z"}
