{"icao":"KORD","metar":"KORD 150751Z 21008KT 10SM BKN080 BKN200 M16/M22 A3045 RMK AO2 SLP326 T11611217","updated":"2025-12-15T08:31:02Z"}
