{"icao":"LPAZ","metar":"LPAZ 061930Z 33022KT 9999 SCT038 12/02 Q1021","updated":"2026-04-06T19:54:04Z"}
