{"icao":"KJFK","metar":"KJFK 220951Z 12008KT 10SM BKN048 BKN100 OVC120 06/02 A2996 RMK AO2 SLP143 T00560022 $","updated":"2026-03-22T10:26:14Z"}
