{"icao":"LPST","metar":"LPST 211500Z 28011KT 6000 BKN005 BKN015 21/19 Q1015","updated":"2025-10-21T15:19:07Z"}
