{"icao":"LPFR","metar":"LPFR 302100Z 02009KT CAVOK 14/07 Q1017","updated":"2025-11-30T21:16:12Z"}
