{"icao":"LPOV","metar":"LPOV 161100Z 34015KT CAVOK 17/08 Q1019","updated":"2026-05-16T11:49:35Z"}
