{"icao":"LPMA","metar":"LPMA 212100Z 27006KT 240V330 9999 FEW013 18/14 Q1019","updated":"2026-01-21T21:27:38Z"}
