{"icao":"KJFK","metar":"KJFK 081651Z 36016KT 10SM FEW018 BKN024 BKN090 BKN200 18/13 A2999 RMK AO2 PK WND 36026/1633 SLP154 T01780128","updated":"2025-10-08T17:15:27Z"}
