{"icao":"LPBJ","metar":"LPBJ 170900Z 09006KT CAVOK 21/13 Q1018","updated":"2026-04-17T09:16:04Z"}
