{"icao":"LPMR","metar":"LPMR 161600Z 33010KT CAVOK 22/15 Q1021","updated":"2025-09-16T17:14:59Z"}
