{"icao":"KORD","metar":"KORD 061025Z 07005KT 1/8SM R10L/1400V3000FT FG VV002 06/06 A3000 RMK AO2 T00610056","updated":"2026-03-06T10:33:36Z"}
