{"icao":"KORD","metar":"KORD 011751Z 24013G19KT 10SM FEW300 33/21 A2997 RMK AO2 SLP140 T03330211 10333 20272 58005","updated":"2026-07-01T17:53:52Z"}
