{"icao":"LPHR","metar":"LPHR 012100Z 27009G20KT 220V330 9999 FEW030 SCT035 13/05 Q1029","updated":"2026-03-01T21:21:15Z"}
