{"icao":"LPHR","metar":"LPHR 141700Z 21014KT 9999 SCT030 FEW033TCU SCT045 20/14 Q1003","updated":"2025-10-14T17:15:21Z"}
