{"icao":"LPMT","metar":"LPMT 240800Z VRB02KT 6000 BKN015 12/11 Q1019","updated":"2026-02-24T08:46:04Z"}
