{"icao":"LPBJ","metar":"LPBJ 110500Z 10007KT CAVOK 16/11 Q1020","updated":"2025-10-11T05:15:29Z"}
