{"icao":"KORD","metar":"KORD 121051Z 35004KT 10SM OVC026 M06/M09 A3006 RMK AO2 SLP188 T10611094","updated":"2025-12-12T11:18:26Z"}
