{"icao":"LPMA","metar":"LPMA 311900Z VRB13KT 9999 FEW008 BKN015 FEW018CB 19/16 Q1013","updated":"2025-12-31T19:15:49Z"}
