{"icao":"LPLA","metar":"LPLA 080503Z 31014KT 9999 FEW020 BKN025 14/11 Q1034","updated":"2026-04-08T05:09:43Z"}
