{"icao":"LPFL","metar":"LPFL 032000Z 21016G30KT 170V280 3000 -RA BKN015 FEW016TCU 16/13 Q0998","updated":"2026-02-03T20:34:29Z"}
