{"icao":"LPFR","metar":"LPFR 111700Z 25012KT 9000 SCT008 BKN012 15/15 Q1020","updated":"2026-02-11T17:13:23Z"}
