{"icao":"LPPT","metar":"LPPT 141400Z 34012KT 310V010 9999 VCSH SCT015 SCT020TCU 14/12 Q1020","updated":"2026-01-14T14:24:04Z"}
