{"icao":"LPMA","metar":"LPMA 071100Z 02013KT 330V050 9999 SCT016 SCT030 16/07 Q1025","updated":"2026-03-07T11:18:47Z"}
