{"icao":"LPFR","metar":"LPFR 282000Z 29011KT 9999 SCT018 20/15 Q1015","updated":"2025-09-28T20:17:16Z"}
