{"icao":"LPPR","metar":"LPPR 120830Z 02007KT 340V060 9999 FEW034 SCT042 11/04 Q1020","updated":"2026-04-12T08:46:18Z"}
