{"icao":"LPFR","metar":"LPFR 221630Z 25009KT CAVOK 19/12 Q1013","updated":"2026-04-22T16:57:37Z"}
