{"icao":"LPAZ","metar":"LPAZ 240130Z 28011KT 9999 FEW027 14/09 Q1027","updated":"2026-01-24T01:38:57Z"}
