{"icao":"LPPD","metar":"LPPD 151400Z 18006KT 130V220 9999 FEW023 24/20 Q1027","updated":"2025-09-15T14:18:16Z"}
