{"icao":"KLAX","metar":"KLAX 281853Z 27008KT 10SM FEW006 SCT190 SCT230 BKN300 18/13 A3001 RMK AO2 SLP161 CCSL DSNT NE AND E T01830133 $","updated":"2026-03-28T19:28:56Z"}
