{"icao":"LPBJ","metar":"LPBJ 051300Z 34017KT CAVOK 09/M03 Q1011","updated":"2026-01-05T13:39:40Z"}
