{"icao":"LPFR","metar":"LPFR 042000Z 30013KT CAVOK 18/07 Q1016","updated":"2026-05-04T20:13:06Z"}
