{"icao":"LPPR","metar":"LPPR 241830Z 33008KT 300V360 CAVOK 16/08 Q1021","updated":"2026-03-24T19:01:27Z"}
