{"icao":"LPAZ","metar":"LPAZ 270100Z 10005KT 9999 FEW018 BKN030 16/16 Q1024","updated":"2025-11-27T01:23:15Z"}
