{"icao":"LPMA","metar":"LPMA 011200Z 01026G38KT 330V030 9999 FEW014 26/17 Q1019","updated":"2026-07-01T12:05:56Z"}
