{"icao":"LPCS","metar":"LPCS 281400Z 34028G40KT 9999 FEW007 SCT014 19/16 Q1013","updated":"2025-09-28T14:13:41Z"}
