{"icao":"KORD","metar":"KORD 200251Z 27009KT 10SM OVC100 M15/M21 A3029 RMK AO2 SLP276 T11501211 51009 $","updated":"2026-01-20T03:42:56Z"}
