{"icao":"KJFK","metar":"KJFK 110951Z 24010KT 6SM BR SCT110 BKN250 21/21 A2978 RMK AO2 SLP084 T02110206 $","updated":"2026-06-11T10:20:40Z"}
