{"icao":"LPMA","metar":"LPMA 240630Z 01019G29KT 320V040 9999 FEW015 18/14 Q1020","updated":"2026-05-24T06:58:09Z"}
