{"icao":"LPMA","metar":"LPMA 201830Z 04012KT 9999 SCT016 SCT030 17/10 Q1026","updated":"2026-02-20T18:45:18Z"}
