{"icao":"LPMT","metar":"LPMT 140500Z 18003KT 9999 FEW030 08/08 Q1017","updated":"2026-01-14T05:23:28Z"}
