{"icao":"LPMR","metar":"LPMR 162300Z 16006KT 8000 FEW022 FEW023TCU SCT035 13/12 Q1010","updated":"2025-11-16T23:16:07Z"}
