{"icao":"LPOV","metar":"LPOV 021900Z 23008KT 9999 BKN020 FEW025TCU 17/15 Q1014","updated":"2026-05-02T21:38:56Z"}
