{"icao":"KJFK","metar":"KJFK 101751Z 19023G30KT 10SM FEW026 BKN140 OVC250 07/03 A2952 RMK AO2 PK WND 20033/1730 SLP997 T00720028 10072 20000 56062","updated":"2025-12-10T18:28:52Z"}
