{"icao":"LPPR","metar":"LPPR 072200Z 33004KT 9999 SCT023 15/12 Q1018","updated":"2025-11-07T22:16:57Z"}
