{"icao":"KORD","metar":"KORD 010951Z 24007KT 10SM OVC070 06/02 A2995 RMK AO2 SLP145 T00560017 $","updated":"2025-11-01T10:17:08Z"}
