{"icao":"LPPR","metar":"LPPR 041900Z 29003KT CAVOK 15/12 Q1021","updated":"2026-04-04T19:30:06Z"}
