{"icao":"KORD","metar":"KORD 182351Z 19013G20KT 10SM FEW090 SCT210 OVC250 23/17 A2985 RMK AO2 SLP102 T02330172 10261 20228 50008","updated":"2026-05-19T00:04:58Z"}
