{"icao":"LPGR","metar":"LPGR 241130Z 33010KT 280V360 9999 SCT004 BKN006 20/19 Q1021","updated":"2026-06-24T13:21:16Z"}
