{"icao":"LPPS","metar":"LPPS 150600Z 26003KT 220V300 CAVOK 19/15 Q1012","updated":"2025-11-15T06:25:31Z"}
