{"icao":"LPPD","metar":"LPPD 102330Z 22020KT 4500 BR SCT004 BKN006 17/16 Q1012","updated":"2026-02-10T23:36:39Z"}
