{"icao":"LPPT","metar":"LPPT 201600Z VRB02KT CAVOK 32/11 Q1020","updated":"2026-05-20T16:23:56Z"}
