{"icao":"LPCS","metar":"LPCS 091200Z 14007KT 110V170 9999 FEW018 17/12 Q1022","updated":"2025-11-09T12:33:19Z"}
