{"icao":"LPPR","metar":"LPPR 221300Z 21013KT 5000 -RADZ BR OVC003 19/19 Q1015","updated":"2025-10-22T13:31:45Z"}
