{"icao":"LPLA","metar":"LPLA 190400Z 29003KT 200V330 9999 FEW012 SCT018 22/21 Q1015","updated":"2025-10-19T04:21:19Z"}
