{"icao":"LPHR","metar":"LPHR 241500Z 25027KT 7000 SCT008 BKN012 17/15 Q1017","updated":"2026-01-24T15:19:08Z"}
