{"icao":"LPLA","metar":"LPLA 080800Z 22013G23KT 190V260 9999 FEW012 SCT018 BKN025 20/18 Q1017","updated":"2025-11-08T08:21:41Z"}
