{"icao":"LPCS","metar":"LPCS 201830Z 25006KT 210V270 9999 FEW012 SCT016 BKN045 13/12 Q1017","updated":"2026-01-20T18:35:34Z"}
