{"icao":"LPMA","metar":"LPMA 261730Z 36017G31KT 300V040 9999 BKN015 FEW018CB 16/10 Q1023","updated":"2026-02-26T17:56:32Z"}
