{"icao":"KLAX","metar":"KLAX 111853Z 07004KT 10SM FEW260 FEW300 20/M04 A3023 RMK AO2 SLP238 T02001039","updated":"2026-01-11T19:14:56Z"}
