{"icao":"KLAX","metar":"KLAX 230653Z 32005KT 10SM FEW120 18/05 A2996 RMK AO2 SLP143 T01830050","updated":"2025-11-23T07:17:06Z"}
