{"icao":"KJFK","metar":"KJFK 150051Z 01014KT 10SM SCT018 OVC029 16/12 A3005 RMK AO2 SLP175 T01560122","updated":"2025-10-15T01:20:35Z"}
