{"icao":"LPMA","metar":"LPMA 111300Z 04006KT 360V080 9999 FEW015 18/13 Q1027","updated":"2026-01-11T13:29:10Z"}
