{"icao":"LPMT","metar":"LPMT 171500Z 26008KT 9999 VCSH SCT030 13/07 Q1010","updated":"2026-01-17T15:18:21Z"}
