{"icao":"LPLA","metar":"LPLA 020900Z 32033KT 9999 SCT025 14/09 Q1006","updated":"2026-01-02T09:23:45Z"}
