{"icao":"LPPR","metar":"LPPR 241230Z VRB07G17KT CAVOK 25/04 Q1019","updated":"2025-09-24T12:36:12Z"}
