{"icao":"LPAZ","metar":"LPAZ 091300Z 22018KT 1500 BR FEW001 OVC002 18/17 Q1016","updated":"2026-02-09T13:06:31Z"}
