{"icao":"KJFK","metar":"KJFK 232051Z 33016KT 10SM SCT016 BKN055 OVC070 01/M02 A2961 RMK AO2 PK WND 34028/1953 SNE46 SLP026 P0000 60000 T00061022 51034 $","updated":"2026-02-23T21:42:55Z"}
