{"icao":"LPHR","metar":"LPHR 151100Z 09007KT 060V120 9999 FEW015 BKN030 16/12 Q1030","updated":"2026-03-15T11:24:29Z"}
