{"icao":"LPPT","metar":"LPPT 162130Z 34005KT 310V010 9999 FEW026 13/09 Q1019","updated":"2026-05-16T21:47:20Z"}
