{"icao":"LPMT","metar":"LPMT 241400Z 03011KT 9999 SCT025 12/07 Q1009","updated":"2025-12-24T14:18:52Z"}
