{"icao":"LPMT","metar":"LPMT 102200Z 25008KT 3500 -DZ BR OVC002 15/15 Q1018","updated":"2026-02-10T22:37:43Z"}
