{"icao":"KJFK","metar":"KJFK 221720Z 08011G21KT 2SM -RASN BR BKN014 BKN025 OVC030 02/00 A3003 RMK AO2 SFC VIS 4 SNB11 P0000 T00220000 $","updated":"2026-02-22T17:24:16Z"}
