{"icao":"LPMR","metar":"LPMR 142200Z 15005KT 9999 SCT016 FEW019CB BKN027 12/11 Q1005 RETSRA","updated":"2025-11-14T22:17:23Z"}
