{"icao":"KLAX","metar":"KLAX 182253Z 26022G27KT 10SM SCT050 SCT080 14/03 A2999 RMK AO2 PK WND 27028/2201 SLP156 T01390033","updated":"2026-02-18T23:28:43Z"}
