{"icao":"LPMR","metar":"LPMR 261100Z 31005KT 280V020 CAVOK 22/10 Q1020","updated":"2025-09-26T11:14:09Z"}
