{"icao":"LPFL","metar":"LPFL 231030Z 25015G27KT 150V300 9999 -RA FEW018 FEW020TCU BKN049 14/10 Q1002 RERA","updated":"2026-02-23T10:49:47Z"}
