{"icao":"LPMT","metar":"LPMT 021900Z 33006KT CAVOK 24/14 Q1020","updated":"2025-10-02T19:13:46Z"}
