{"icao":"KORD","metar":"KORD 040351Z 33014KT 10SM FEW029 M07/M13 A3019 RMK AO2 PK WND 35026/0315 SLP234 T10671128","updated":"2025-12-04T04:29:38Z"}
