{"icao":"KORD","metar":"KORD 151751Z 27008KT 10SM FEW027 FEW250 M07/M14 A2994 RMK AO2 SLP149 4/001 T10721144 11072 21106 58018 $","updated":"2026-01-15T18:35:21Z"}
