{"icao":"KJFK","metar":"KJFK 141051Z 18008KT 10SM FEW160 BKN250 05/02 A2969 RMK AO2 SLP054 T00500017 $","updated":"2026-01-14T11:20:32Z"}
