{"icao":"LPAR","metar":"LPAR 131400Z 04009KT CAVOK 18/12 Q1019","updated":"2025-12-13T14:16:50Z"}
