{"icao":"LPCS","metar":"LPCS 271100Z 08006KT 040V130 CAVOK 21/13 Q1021","updated":"2025-10-27T11:16:02Z"}
