{"icao":"LPMA","metar":"LPMA 190100Z VRB02KT 9999 FEW015 22/10 Q1018","updated":"2025-09-19T01:19:04Z"}
