{"icao":"LPMT","metar":"LPMT 280700Z 29015G25KT 260V320 5000 -RA BR FEW009 BKN013 BKN030 18/17 Q1012","updated":"2025-09-28T07:14:21Z"}
