{"icao":"LPPR","metar":"LPPR 061700Z 30003KT 260V350 CAVOK 25/12 Q1019","updated":"2025-10-06T17:15:51Z"}
