{"icao":"KJFK","metar":"KJFK 210551Z 11003KT 10SM SCT049 BKN055 04/01 A3014 RMK AO2 SLP207 T00440011 10061 20017 58012 $","updated":"2025-11-21T06:29:12Z"}
