{"icao":"LPPR","metar":"LPPR 111600Z 33009KT 300V360 CAVOK 25/12 Q1019","updated":"2025-10-11T16:18:26Z"}
