{"icao":"LPST","metar":"LPST 151400Z 32007KT 280V010 9999 SCT026 17/11 Q1024","updated":"2026-04-15T15:04:02Z"}
