{"icao":"KJFK","metar":"KJFK 301551Z 04009KT 10SM FEW160 FEW210 BKN250 24/11 A3009 RMK AO2 SLP189 T02390106","updated":"2025-09-30T16:22:40Z"}
