{"icao":"KORD","metar":"KORD 301730Z 35010KT 4SM -SN OVC022 M08/M13 A3037 RMK AO2 SNB1659 P0000 T10831133","updated":"2026-01-30T17:32:49Z"}
