{"icao":"LPFL","metar":"LPFL 221400Z 02003KT 350V050 9999 -RA FEW007 SCT022 19/17 Q1008","updated":"2025-10-22T14:20:04Z"}
