{"icao":"LPPT","metar":"LPPT 271800Z 21019KT 9999 SCT004 BKN008 19/19 Q1014 WS R20","updated":"2025-09-27T18:21:48Z"}
