{"icao":"LPPR","metar":"LPPR 030800Z 18011KT 9999 -SHRA SCT007 BKN014 FEW020CB 14/13 Q1013 RESHRA","updated":"2026-05-03T08:06:50Z"}
