{"icao":"KJFK","metar":"KJFK 190551Z 24006KT 10SM BKN065 OVC090 06/M01 A3017 RMK AO2 SLP215 T00611006 10078 20044 58003 $","updated":"2025-11-19T06:28:30Z"}
