{"icao":"LPMA","metar":"LPMA 090230Z 01015KT 9999 BKN015 22/16 Q1024","updated":"2025-10-09T02:58:25Z"}
