{"icao":"LPFR","metar":"LPFR 020600Z 28004KT 250V340 8000 -DZ BKN018 13/11 Q1017","updated":"2025-12-02T06:30:54Z"}
