{"icao":"LPFL","metar":"LPFL 292100Z 31010G20KT 250V360 9999 -SHRA SCT018 16/13 Q1009","updated":"2025-10-29T23:16:52Z"}
