{"icao":"LPCS","metar":"LPCS 221100Z 36018KT CAVOK 20/06 Q1020 WS R35","updated":"2025-09-22T11:15:18Z"}
