{"icao":"LPCS","metar":"LPCS 061230Z 17010KT 140V210 CAVOK 25/14 Q1020","updated":"2025-10-06T12:37:31Z"}
