{"icao":"LPFR","metar":"LPFR 110900Z 06010KT 040V110 CAVOK 23/15 Q1019","updated":"2025-10-11T09:15:37Z"}
