{"icao":"LPFR","metar":"LPFR 262300Z 25003KT 210V290 CAVOK 13/10 Q1024","updated":"2026-02-26T23:28:05Z"}
