{"icao":"LPST","metar":"LPST 161500Z 32010KT CAVOK 23/11 Q1014","updated":"2025-10-16T15:19:21Z"}
