{"icao":"LPBJ","metar":"LPBJ 241900Z 19011KT CAVOK 29/06 Q1020","updated":"2026-05-24T20:03:30Z"}
