{"icao":"LPLA","metar":"LPLA 022015Z 32023KT 9999 SCT015 BKN022 14/11 Q1008","updated":"2026-01-02T20:21:11Z"}
