{"icao":"LPMR","metar":"LPMR 311300Z 04008KT 350V080 CAVOK 24/06 Q1026","updated":"2026-03-31T13:15:58Z"}
