{"icao":"LPPT","metar":"LPPT 130900Z 06004KT 020V090 CAVOK 22/12 Q1016","updated":"2025-10-13T09:21:03Z"}
