{"icao":"LPPS","metar":"LPPS 071700Z 20007KT 160V220 9999 FEW015 SCT030 19/13 Q1021","updated":"2025-12-07T17:14:54Z"}
