{"icao":"LPMR","metar":"LPMR 152300Z 18004KT 6000 FEW012 13/13 Q1009","updated":"2025-11-15T23:16:01Z"}
