{"icao":"LPOV","metar":"LPOV 150900Z 16014KT 8000 -RA FEW016 BKN030 10/09 Q1015","updated":"2026-01-15T09:27:09Z"}
