{"icao":"LPFL","metar":"LPFL 231430Z 14006KT 100V180 9999 BKN032 16/08 Q1026","updated":"2026-03-23T14:53:25Z"}
