{"icao":"LPAZ","metar":"LPAZ 241100Z 25005KT 220V290 9999 FEW020 BKN025 18/13 Q1028","updated":"2025-11-24T11:16:35Z"}
