{"icao":"LPPD","metar":"LPPD 121500Z 22010KT 200V260 9999 FEW025 15/08 Q1030","updated":"2026-04-12T15:34:53Z"}
