{"icao":"LPPR","metar":"LPPR 241000Z 02004KT 270V080 9999 FEW020 18/12 Q1018","updated":"2026-04-24T10:19:37Z"}
