{"icao":"LPPR","metar":"LPPR 072300Z 13003KT CAVOK 09/07 Q1020","updated":"2026-03-07T23:20:40Z"}
