{"icao":"KLAX","metar":"KLAX 111653Z 05003KT 10SM CLR 18/06 A3004 RMK AO2 SLP169 T01830061 $","updated":"2025-12-11T17:24:29Z"}
