{"icao":"LPLA","metar":"LPLA 301700Z 15020KT 6000 -RADZ SCT004 BKN006 17/17 Q1007 RERADZ","updated":"2025-12-30T17:19:10Z"}
