{"icao":"KJFK","metar":"KJFK 170951Z 25003KT 10SM SCT050 BKN070 02/M06 A3008 RMK AO2 SLP185 T00171056 $","updated":"2026-01-17T10:20:01Z"}
