{"icao":"LPMA","metar":"LPMA 051530Z VRB07KT 9999 FEW016 22/10 Q1010","updated":"2026-02-05T15:39:27Z"}
