{"icao":"LPMA","metar":"LPMA 061230Z 13011KT 9999 FEW016 19/07 Q1019","updated":"2026-02-06T12:56:52Z"}
