{"icao":"LPOV","metar":"LPOV 130100Z 16002KT 9999 FEW018 13/09 Q1016","updated":"2025-10-13T01:23:31Z"}
