{"icao":"LPLA","metar":"LPLA 311700Z 31011KT 9999 FEW022 17/13 Q1002","updated":"2025-12-31T17:17:44Z"}
