{"icao":"LPMT","metar":"LPMT 161400Z VRB04KT 8000 2000S SHRA FEW015 SCT022 SCT025CB 10/08 Q1014","updated":"2026-01-16T14:22:09Z"}
