{"icao":"KORD","metar":"KORD 010651Z 25006KT 10SM OVC075 05/02 A2993 RMK AO2 SLP140 T00500017 $","updated":"2025-11-01T07:15:57Z"}
