{"icao":"LPHR","metar":"LPHR 021300Z 10012KT 050V120 9999 SCT023 18/12 Q1020","updated":"2026-05-02T13:08:07Z"}
