{"icao":"LPFR","metar":"LPFR 290700Z 29004KT CAVOK 09/07 Q1020","updated":"2025-11-29T07:16:52Z"}
