{"icao":"KORD","metar":"KORD 182351Z 27005KT 10SM FEW065 22/11 A2980 RMK AO2 SLP087 T02220111 10228 20206 50004","updated":"2026-06-19T00:25:33Z"}
