{"icao":"LPCS","metar":"LPCS 121100Z 07008KT 020V110 9999 FEW045 23/13 Q1017","updated":"2025-10-12T11:12:41Z"}
