{"icao":"KJFK","metar":"KJFK 010551Z 21020G26KT 10SM BKN075 OVC090 02/M06 A2964 RMK AO2 PK WND 21030/0524 SLP036 T00171056 10017 21011 58033 $","updated":"2026-01-01T06:32:18Z"}
