{"icao":"LPPD","metar":"LPPD 280700Z 25022KT 5000 BR SCT004 BKN008 17/15 Q1006","updated":"2026-01-28T07:24:53Z"}
