{"icao":"KLAX","metar":"KLAX 212053Z 07008KT 10SM FEW230 SCT280 21/00 A3013 RMK AO2 SLP203 T02060000 58012 $","updated":"2026-02-21T21:21:47Z"}
