{"icao":"KLAX","metar":"KLAX 080053Z 26012KT 10SM FEW015 FEW060 SCT150 16/12 A2991 RMK AO2 SLP128 T01560117 $","updated":"2026-01-08T01:41:18Z"}
