{"icao":"KLAX","metar":"KLAX 251253Z 10007KT 10SM FEW008 FEW012 SCT028 BKN200 14/14 A3007 RMK AO2 RAB17E26 SLP182 P0000 T01440139 $","updated":"2025-12-25T13:31:15Z"}
