{"icao":"LPMA","metar":"LPMA 281330Z 01014KT 330V060 9999 BKN015 16/08 Q1027","updated":"2026-02-28T13:35:23Z"}
