{"icao":"LPPR","metar":"LPPR 280430Z 01003KT CAVOK 05/04 Q1026","updated":"2026-02-28T04:54:09Z"}
