{"icao":"LPBJ","metar":"LPBJ 240700Z 09003KT 040V120 CAVOK 08/07 Q1020","updated":"2026-02-24T07:07:12Z"}
