{"icao":"LPPD","metar":"LPPD 241530Z 29017G28KT 270V330 9999 VCSH FEW023 15/10 Q1016","updated":"2026-02-24T15:57:25Z"}
