{"icao":"LPMT","metar":"LPMT 162000Z 31005KT 280V360 9999 FEW015 09/07 Q1015","updated":"2026-01-16T20:20:34Z"}
