{"icao":"LPOV","metar":"LPOV 311700Z 35004KT CAVOK 11/09 Q1018","updated":"2025-12-31T17:17:27Z"}
