{"icao":"LPMT","metar":"LPMT 180800Z VRB02KT CAVOK 08/08 Q1019","updated":"2025-11-18T08:25:22Z"}
