{"icao":"LPPR","metar":"LPPR 140530Z 32009KT 9000 -SHRA BKN018 BKN045 11/09 Q1017","updated":"2026-03-14T05:43:22Z"}
