{"icao":"LPPD","metar":"LPPD 310630Z 23017KT 6000 BKN005 BKN012 16/16 Q1017","updated":"2026-01-31T06:37:31Z"}
