{"icao":"LPMT","metar":"LPMT 191700Z 35007KT 9999 FEW045 14/07 Q1028","updated":"2026-02-19T17:48:54Z"}
