{"icao":"LPPD","metar":"LPPD 130500Z 07003KT 020V120 9999 FEW018 18/15 Q1016","updated":"2025-10-13T05:17:46Z"}
