{"icao":"LPCS","metar":"LPCS 251900Z 25003KT 220V290 9999 FEW010 BKN022 14/14 Q1014","updated":"2026-01-25T19:15:44Z"}
