{"icao":"LPPT","metar":"LPPT 181500Z 05008KT 020V080 9999 FEW024 SCT032 11/06 Q1013","updated":"2026-01-18T15:17:59Z"}
