{"icao":"LPBJ","metar":"LPBJ 170300Z 31006KT CAVOK 08/06 Q1017","updated":"2025-12-17T03:18:55Z"}
