{"icao":"KORD","metar":"KORD 121951Z 08005KT 10SM SCT070 BKN090 BKN250 03/M05 A3025 RMK AO2 SLP249 T00331050 $","updated":"2026-02-12T20:33:39Z"}
