{"icao":"LPBJ","metar":"LPBJ 292200Z 27005KT CAVOK 16/16 Q1013","updated":"2025-10-29T22:17:42Z"}
