{"icao":"LPMR","metar":"LPMR 151400Z 30007KT CAVOK 21/13 Q1016","updated":"2025-10-15T14:18:51Z"}
