{"icao":"LPPS","metar":"LPPS 091500Z 06010KT 030V100 9999 SCT015 23/16 Q1024","updated":"2025-10-09T15:29:17Z"}
