{"icao":"LPOV","metar":"LPOV 051800Z 34011KT CAVOK 19/05 Q1019","updated":"2026-04-05T18:41:30Z"}
