{"icao":"KJFK","metar":"KJFK 072251Z 17007KT 1/4SM R04R/2800V3500FT -DZ FG VV003 06/06 A2999 RMK AO2 SFC VIS 1/2 SLP154 P0000 T00610056","updated":"2026-03-07T23:20:45Z"}
