{"icao":"LPLA","metar":"LPLA 270600Z 29026G38KT 9999 SCT025 BKN035 13/06 Q1007","updated":"2026-01-27T06:34:03Z"}
