{"icao":"LPMT","metar":"LPMT 091000Z 05004KT 020V080 9999 FEW012 12/10 Q1023","updated":"2025-11-09T10:17:00Z"}
