{"icao":"LPBJ","metar":"LPBJ 041700Z 26020G30KT 3500 -RADZ BR SCT007 OVC014 15/14 Q0999","updated":"2026-02-04T17:43:27Z"}
