{"icao":"KORD","metar":"KORD 030851Z 21014G21KT 10SM BKN120 BKN160 OVC200 06/01 A3004 RMK AO2 SLP177 VCSH T00610006 58019 $","updated":"2025-11-03T09:22:16Z"}
