{"icao":"LPPT","metar":"LPPT 271200Z 15006KT 090V190 CAVOK 31/11 Q1019","updated":"2026-05-27T12:18:59Z"}
