{"icao":"KJFK","metar":"KJFK 220951Z 23010KT 10SM BKN070 BKN090 03/M03 A3000 RMK SLP159 T00331033 $ ","updated":"2026-01-22T10:26:37Z"}
