{"icao":"LPLA","metar":"LPLA 081600Z 36010KT 9999 FEW035 BKN048 14/05 Q1031","updated":"2026-03-08T16:26:55Z"}
