{"icao":"LPFR","metar":"LPFR 180730Z VRB02KT CAVOK 16/08 Q1020","updated":"2026-05-18T08:01:33Z"}
