{"icao":"LPOV","metar":"LPOV 230600Z 27009KT 230V300 9999 FEW013 11/01 Q1000","updated":"2026-01-23T06:33:55Z"}
