{"icao":"LPMA","metar":"LPMA 281700Z 02016KT 340V040 9999 SCT015 18/11 Q1023","updated":"2026-03-28T17:27:30Z"}
