{"icao":"LPMT","metar":"LPMT 052000Z 35003KT CAVOK 17/14 Q1018","updated":"2025-10-05T20:17:26Z"}
