{"icao":"LPHR","metar":"LPHR 271000Z 04015KT 9000 VCSH SCT013 FEW018TCU SCT033 18/14 Q1020","updated":"2025-10-27T10:21:23Z"}
