{"icao":"LPMT","metar":"LPMT 160700Z 10002KT CAVOK 16/13 Q1014","updated":"2025-10-16T08:25:23Z"}
