{"icao":"LPFR","metar":"LPFR 311600Z 24011KT 9000 FEW020 SCT030 15/12 Q1021","updated":"2026-01-31T16:26:28Z"}
