{"icao":"LPHR","metar":"LPHR 101830Z 04013G25KT 010V080 9999 SCT014 FEW020TCU BKN050 14/11 Q1022","updated":"2026-05-10T19:01:32Z"}
