{"icao":"KORD","metar":"KORD 040851Z 08003KT 1SM R10L/P6000FT BR OVC002 01/M01 A3021 RMK AO2 SLP237 T00061006 53007","updated":"2026-03-04T09:39:35Z"}
