{"icao":"LPPD","metar":"LPPD 121900Z 27006KT 230V290 9999 SCT020 21/16 Q1017","updated":"2025-10-12T19:12:45Z"}
