{"icao":"LPBJ","metar":"LPBJ 222000Z 30006KT CAVOK 28/18 Q1015","updated":"2026-06-22T20:45:39Z"}
