{"icao":"KLAX","metar":"KLAX 100053Z 27004KT 10SM FEW190 15/M02 A3033 RMK AO2 SLP269 T01501017 $","updated":"2026-01-10T01:38:24Z"}
