{"icao":"LPMA","metar":"LPMA 121400Z 34017G30KT 280V070 9999 BKN015 FEW018CB 17/06 Q1020","updated":"2025-12-12T14:18:12Z"}
