{"icao":"LPFR","metar":"LPFR 180530Z 30005KT 9999 FEW015 BKN022 12/09 Q1022","updated":"2026-02-18T05:59:41Z"}
