{"icao":"KLAX","metar":"KLAX 070053Z 20009G17KT 10SM FEW220 FEW270 19/07 A2996 RMK AO2 SLP147 T01940072 $","updated":"2026-03-07T01:52:24Z"}
