{"icao":"LPBJ","metar":"LPBJ 252000Z 29004KT CAVOK 09/07 Q1012","updated":"2025-12-25T20:21:27Z"}
