{"icao":"LPMR","metar":"LPMR 040900Z 05003KT 010V090 CAVOK 12/10 Q1002","updated":"2026-01-04T09:18:32Z"}
