{"icao":"LPFR","metar":"LPFR 120830Z 33019KT CAVOK 13/03 Q1016","updated":"2026-04-12T08:46:17Z"}
