{"icao":"LPFR","metar":"LPFR 271630Z 12011KT CAVOK 27/13 Q1017","updated":"2026-05-27T16:35:25Z"}
