{"icao":"LPMT","metar":"LPMT 121500Z 03003KT 340V090 9999 FEW028 20/09 Q1024","updated":"2026-03-12T15:57:48Z"}
