{"icao":"LPPT","metar":"LPPT 060230Z 00000KT CAVOK 17/12 Q1018","updated":"2025-10-06T03:00:28Z"}
