{"icao":"KORD","metar":"KORD 092051Z 26009G17KT 10SM BKN040 BKN075 BKN250 30/21 A2985 RMK AO2 SLP103 T03000211 56015","updated":"2026-06-09T20:58:00Z"}
