{"icao":"LPCS","metar":"LPCS 181100Z 13005KT 9999 FEW040 30/05 Q1020","updated":"2025-09-18T11:13:44Z"}
