{"icao":"LPCS","metar":"LPCS 081500Z 21010KT 9000 -RA FEW014 SCT024 12/11 Q1014","updated":"2026-02-08T15:24:43Z"}
