{"icao":"LPMA","metar":"LPMA 261030Z 01019G30KT 310V050 9999 SCT015 FEW016CB 17/09 Q1024","updated":"2026-02-26T10:44:03Z"}
