{"icao":"LPPD","metar":"LPPD 101230Z 19008KT 9999 FEW008 FEW016TCU SCT040 22/19 Q1023","updated":"2025-10-10T12:36:40Z"}
