{"icao":"KJFK","metar":"KJFK 110551Z 20006KT 10SM BKN120 BKN160 OVC250 11/06 A3011 RMK AO2 SLP196 T01060056 10106 20078 58012","updated":"2026-04-11T06:00:00Z"}
