{"icao":"LPMT","metar":"LPMT 310100Z VRB02KT 0100 FG FEW003 05/05 Q1020","updated":"2025-12-31T01:39:22Z"}
