{"icao":"KORD","metar":"KORD 200151Z 36006KT 10SM SCT075 SCT100 BKN140 OVC250 24/18 A3002 RMK AO2 SLP160 T02390183","updated":"2025-09-20T02:52:53Z"}
