{"icao":"LPBJ","metar":"LPBJ 151400Z 35012KT 9999 FEW035 19/09 Q1017","updated":"2026-03-15T14:28:32Z"}
