{"icao":"LPFL","metar":"LPFL 201100Z 33008KT 260V050 9999 SCT015 SCT030 20/14 Q1010","updated":"2026-06-20T11:16:46Z"}
