{"icao":"LPPR","metar":"LPPR 310900Z 25004KT 220V300 9000 -SHRA SCT029 SCT045 12/08 Q1017","updated":"2026-01-31T09:26:27Z"}
