{"icao":"LPPS","metar":"LPPS 252230Z 02010KT 360V060 9999 SCT015 16/12 Q1019","updated":"2026-04-25T22:36:01Z"}
