{"icao":"LPBJ","metar":"LPBJ 061600Z 36012KT CAVOK 10/M03 Q1021","updated":"2026-01-06T16:27:24Z"}
