{"icao":"LPPT","metar":"LPPT 122000Z 14009KT 110V170 9999 SCT003 15/15 Q1005","updated":"2025-11-12T20:20:49Z"}
