{"icao":"KJFK","metar":"KJFK 271227Z 02014KT 4SM BR FEW014 BKN030 OVC050 M03/M05 A2999 RMK AO2 SNE26 P0000 T10331050 $","updated":"2025-12-27T12:37:40Z"}
