{"icao":"LPMT","metar":"LPMT 030400Z 07007KT 9999 BKN036 13/13 Q1008","updated":"2026-03-03T04:44:35Z"}
