{"icao":"KLAX","metar":"KLAX 162053Z 27008KT 10SM FEW140 FEW180 23/12 A2996 RMK AO2 SLP145 T02280117 58021","updated":"2026-01-16T21:20:12Z"}
