{"icao":"KLAX","metar":"KLAX 131853Z 24008KT 10SM SCT019 BKN030 23/16 A2993 RMK AO2 SLP133 T02280161 $","updated":"2025-09-13T19:11:38Z"}
