{"icao":"LPBJ","metar":"LPBJ 010700Z 10006KT CAVOK 17/12 Q1020","updated":"2025-10-01T07:17:58Z"}
