{"icao":"KORD","metar":"KORD 070751Z 36015KT 10SM CLR M09/M18 A3030 RMK AO2 SLP270 T10891183 $","updated":"2026-02-07T08:30:07Z"}
