{"icao":"LPOV","metar":"LPOV 011000Z 07006KT 040V110 CAVOK 20/05 Q1026","updated":"2026-04-01T10:54:23Z"}
