{"icao":"LPLA","metar":"LPLA 151700Z 20014KT 170V230 9999 -SHRA SCT020 SCT025 21/16 Q1005","updated":"2025-10-15T17:16:14Z"}
