{"icao":"KJFK","metar":"KJFK 231151Z 00000KT 10SM FEW100 SCT250 01/M03 A3006 RMK AO2 SLP179 70005 T00111033 10039 20006 51008","updated":"2025-11-23T12:33:04Z"}
