{"icao":"LPAR","metar":"LPAR 061700Z 36013KT 320V020 9999 FEW025 11/00 Q1024","updated":"2026-01-07T01:40:24Z"}
