{"icao":"LPMR","metar":"LPMR 200700Z VRB01KT 1500 BR DU FEW001 BKN003 11/11 Q1012","updated":"2026-04-20T08:04:48Z"}
