{"icao":"KJFK","metar":"KJFK 300451Z 05011KT 10SM -RA BKN021 OVC027 11/08 A3005 RMK AO2 RAB31 SLP177 P0000 T01110083 401330094","updated":"2025-10-30T05:18:30Z"}
