{"icao":"KORD","metar":"KORD 170851Z 30006KT 10SM SCT250 02/M08 A3002 RMK AO2 SLP169 T00171083 53012 $","updated":"2025-11-17T09:23:42Z"}
