{"icao":"KJFK","metar":"KJFK 020951Z 28010KT 9SM -SN FEW023 OVC100 M06/M11 A2983 RMK AO2 SLP099 P0000 T10611106 $","updated":"2026-01-02T10:20:34Z"}
