{"icao":"LPPD","metar":"LPPD 021330Z 29012KT 260V320 9999 FEW020 SCT035 14/09 Q1015","updated":"2026-02-02T14:03:35Z"}
