{"icao":"KJFK","metar":"KJFK 171151Z 28015G22KT 10SM FEW065 03/M08 A2969 RMK AO2 SLP053 T00281078 10044 20028 53027 $","updated":"2025-11-17T12:38:55Z"}
