{"icao":"LPAZ","metar":"LPAZ 051330Z 04010KT 360V070 9999 FEW032 BKN048 15/09 Q1029","updated":"2026-01-05T13:39:54Z"}
