{"icao":"LPBJ","metar":"LPBJ 160900Z 19004KT 8000 1000S BCFG FEW002 SCT046 08/08 Q1015","updated":"2026-01-16T09:26:04Z"}
