{"icao":"LPFL","metar":"LPFL 051330Z 17005KT 130V190 9999 FEW022 SCT034 16/10 Q1030","updated":"2026-01-05T13:39:56Z"}
