{"icao":"LPPR","metar":"LPPR 092100Z VRB02KT CAVOK 18/15 Q1021","updated":"2025-10-09T21:15:38Z"}
