{"icao":"KORD","metar":"KORD 032209Z 04009KT 7SM BKN017 OVC038 04/M01 A3012 RMK AO2 T00391006","updated":"2026-03-03T22:27:48Z"}
