{"icao":"KJFK","metar":"KJFK 091251Z 03020G26KT 10SM FEW035 12/04 A3042 RMK AO2 PK WND 03026/1251 SLP301 T01220039","updated":"2025-10-09T13:29:08Z"}
