{"icao":"LPOV","metar":"LPOV 201700Z 33010KT 300V360 CAVOK 19/14 Q1020","updated":"2025-09-20T17:12:34Z"}
