{"icao":"KORD","metar":"KORD 192051Z 30013G24KT 10SM SCT060 BKN150 BKN250 14/01 A2975 RMK AO2 PK WND 31029/1958 SLP074 T01390011 53015 $","updated":"2025-10-19T21:14:51Z"}
