{"icao":"LPMA","metar":"LPMA 061500Z 22006KT 190V290 9999 BKN016 22/14 Q1020","updated":"2025-11-06T15:20:20Z"}
