{"icao":"KJFK","metar":"KJFK 190551Z 32008KT 10SM SCT012 BKN040 BKN060 OVC130 M01/M02 A2982 RMK AO2 SNE35 SLP098 4/001 P0000 60008 T10061022 10006 21006 58000 $","updated":"2026-01-19T06:36:50Z"}
