{"icao":"LPST","metar":"LPST 131300Z 29006KT 260V320 9999 SCT016 FEW020TCU 16/14 Q1020","updated":"2026-05-13T13:09:57Z"}
