{"icao":"LPHR","metar":"LPHR 291700Z 13018KT 9999 FEW012 SCT022 15/12 Q1033","updated":"2026-03-29T17:28:26Z"}
