{"icao":"LPPR","metar":"LPPR 242200Z 02003KT 9999 FEW047 10/07 Q1018","updated":"2025-11-24T22:17:42Z"}
