{"icao":"LPMR","metar":"LPMR 260600Z 04004KT 7000 SCT005 13/13 Q1017","updated":"2025-10-26T06:25:04Z"}
