{"icao":"LPPR","metar":"LPPR 181500Z 21009KT 180V240 CAVOK 23/14 Q1016","updated":"2025-10-18T15:15:24Z"}
