{"icao":"LPMA","metar":"LPMA 070130Z 01012KT 330V040 9999 BKN016 14/07 Q1026","updated":"2026-03-07T01:52:23Z"}
