{"icao":"KORD","metar":"KORD 060651Z 27005KT 10SM FEW250 05/M04 A3023 RMK AO2 SLP238 T00501039","updated":"2025-11-06T07:18:27Z"}
