{"icao":"LPPS","metar":"LPPS 211500Z 33016KT 9999 FEW015 18/08 Q1012","updated":"2026-04-21T15:11:34Z"}
