{"icao":"KLAX","metar":"KLAX 151134Z 00000KT 10SM FEW009 OVC015 16/13 A2996 RMK AO2 T01610133","updated":"2026-05-15T11:55:13Z"}
