{"icao":"KORD","metar":"KORD 082251Z 20024G34KT 10SM FEW080 FEW170 SCT250 22/03 A2998 RMK AO2 PK WND 18034/2227 SLP153 T02170033","updated":"2026-04-08T23:37:03Z"}
