{"icao":"KLAX","metar":"KLAX 191653Z 11005KT 10SM FEW019 FEW030 SCT180 13/08 A3008 RMK AO2 SLP185 T01330078 $","updated":"2025-11-19T17:17:44Z"}
