{"icao":"LPCS","metar":"LPCS 061430Z 16015KT 9999 -RA FEW035 19/12 Q1016","updated":"2026-04-06T14:44:46Z"}
