{"icao":"KJFK","metar":"KJFK 291351Z 05012KT 10SM FEW039 BKN045 BKN250 11/06 A3017 RMK AO2 SLP214 T01110056","updated":"2025-10-29T14:19:04Z"}
