{"icao":"LPAZ","metar":"LPAZ 271000Z 02011KT 9999 FEW020 BKN040 21/13 Q1024","updated":"2025-09-27T10:15:57Z"}
