{"icao":"LPMR","metar":"LPMR 172000Z VRB01KT CAVOK 16/14 Q1015","updated":"2025-10-17T20:19:31Z"}
