{"icao":"LPMT","metar":"LPMT 130700Z 09002KT CAVOK 12/11 Q1015","updated":"2025-10-13T07:18:22Z"}
