{"icao":"LPHR","metar":"LPHR 250800Z 05018KT 9999 FEW012 FEW013TCU BKN025 18/14 Q1018","updated":"2025-10-25T08:20:18Z"}
