{"icao":"LPBJ","metar":"LPBJ 312000Z 23005KT 9999 FEW030 12/09 Q1021","updated":"2026-01-31T20:24:03Z"}
