{"icao":"KJFK","metar":"KJFK 220851Z 20013KT 10SM BKN080 OVC095 08/03 A3020 RMK RAE08 SLP227 P0000 60000 T00830028 55007 ","updated":"2026-04-22T09:18:57Z"}
