{"icao":"KORD","metar":"KORD 290051Z 05008KT 10SM CLR 21/15 A3017 RMK AO2 SLP213 T02060150 $","updated":"2025-09-29T01:20:31Z"}
