{"icao":"LPPS","metar":"LPPS 211300Z 02008KT 340V040 9999 FEW006 SCT012 BKN030 24/20 Q1021","updated":"2025-10-21T13:32:42Z"}
