{"icao":"LPCS","metar":"LPCS 091400Z 36007KT 310V050 9999 FEW012 21/15 Q1019","updated":"2025-10-09T14:17:35Z"}
