{"icao":"LPFR","metar":"LPFR 180300Z 07007KT CAVOK 20/17 Q1015","updated":"2025-10-18T03:27:02Z"}
