{"icao":"LPPS","metar":"LPPS 020600Z 30009KT 9000 -DZ SCT010 SCT030 17/16 Q1022","updated":"2025-12-02T06:31:16Z"}
