{"icao":"LPBJ","metar":"LPBJ 301300Z 26014KT 6000 -RA SCT009 BKN020 OVC030 15/14 Q1013","updated":"2026-01-30T13:55:02Z"}
