{"icao":"LPHR","metar":"LPHR 241230Z 24024KT 9000 -RA SCT006 BKN012 16/15 Q1020","updated":"2026-01-24T12:38:38Z"}
