{"icao":"LPFR","metar":"LPFR 212300Z 28005KT 9999 FEW008 20/19 Q1018","updated":"2025-10-21T23:16:59Z"}
