{"icao":"LPMA","metar":"LPMA 061100Z 02015KT 340V040 9999 BKN015 FEW018TCU 17/09 Q1028","updated":"2026-01-06T11:18:10Z"}
