{"icao":"LPPT","metar":"LPPT 071600Z 33010KT 290V350 9999 FEW030 16/09 Q1017","updated":"2026-03-07T16:26:23Z"}
