{"icao":"LPFR","metar":"LPFR 250800Z 35006KT CAVOK 07/04 Q1009","updated":"2025-12-25T08:26:43Z"}
