{"icao":"LPBJ","metar":"LPBJ 100900Z VRB02KT CAVOK 17/12 Q1014","updated":"2026-04-10T09:07:27Z"}
