{"icao":"LPBJ","metar":"LPBJ 201300Z 27005KT 230V350 CAVOK 34/12 Q1014","updated":"2026-06-20T13:59:32Z"}
