{"icao":"LPFR","metar":"LPFR 170900Z 07010G20KT CAVOK 23/16 Q1014","updated":"2025-10-17T09:19:32Z"}
