{"icao":"LPOV","metar":"LPOV 061000Z VRB02KT CAVOK 24/12 Q1020","updated":"2025-10-06T10:19:46Z"}
