{"icao":"KORD","metar":"KORD 140851Z 34010KT 10SM TS SCT023 BKN031CB OVC040 17/13 A2982 RMK AO2 PK WND 01031/0821 WSHFT 0756 RAB46E50 TSB24 SLP096 FRQ LTGICCG OHD TS OHD MOV SE P0000 60000 T01670133 53024","updated":"2026-04-14T09:16:45Z"}
