{"icao":"LPPS","metar":"LPPS 291100Z 01012KT 330V040 9999 FEW015 20/14 Q1026","updated":"2026-05-29T11:28:02Z"}
