{"icao":"KORD","metar":"KORD 301851Z 05009KT 10SM FEW050 FEW250 27/14 A3018 RMK AO2 SLP214 T02720144","updated":"2025-09-30T19:14:04Z"}
