{"icao":"LPBJ","metar":"LPBJ 070300Z 22006KT CAVOK 12/10 Q1018","updated":"2025-11-07T03:09:18Z"}
