{"icao":"LPFL","metar":"LPFL 212000Z 19009KT 160V220 9999 FEW017 21/16 Q1024","updated":"2025-09-22T05:17:44Z"}
