{"icao":"LPOV","metar":"LPOV 011300Z 25008KT 220V280 CAVOK 18/09 Q1020","updated":"2026-03-01T13:37:30Z"}
