{"icao":"LPBJ","metar":"LPBJ 080400Z 08006KT 9999 OVC040 11/10 Q1021","updated":"2025-12-08T04:32:28Z"}
