{"icao":"LPFR","metar":"LPFR 040300Z 27005KT CAVOK 20/15 Q1020","updated":"2025-10-04T03:22:46Z"}
