{"icao":"KJFK","metar":"KJFK 021551Z 04007KT 010V070 10SM FEW050 SCT250 18/05 A3049 RMK AO2 SLP324 T01780050","updated":"2025-10-02T16:21:47Z"}
