{"icao":"LPPR","metar":"LPPR 262100Z 34005KT 9000 SCT002 BKN004 11/11 Q1025","updated":"2026-02-26T21:30:57Z"}
