{"icao":"LPHR","metar":"LPHR 171730Z 33018G32KT 310V010 9999 VCSH SCT022 11/04 Q1017","updated":"2026-03-17T17:56:49Z"}
