{"icao":"LPFR","metar":"LPFR 132200Z 03006KT CAVOK 12/10 Q1016","updated":"2026-01-13T22:20:50Z"}
