{"icao":"LPBJ","metar":"LPBJ 091900Z 29004KT 9999 FEW040 10/07 Q1028","updated":"2026-01-09T19:18:49Z"}
