{"icao":"KJFK","metar":"KJFK 290251Z 03014G24KT 10SM SCT032 BKN050 11/04 A3020 RMK AO2 PK WND 04027/0157 RAE0158 SLP226 P0000 60000 T01110039 58002","updated":"2025-10-29T03:14:28Z"}
