{"icao":"LPMA","metar":"LPMA 171000Z 33006KT 250V040 9999 SCT015 20/12 Q1024","updated":"2025-11-17T10:21:23Z"}
