{"icao":"KJFK","metar":"KJFK 130551Z 27012KT 10SM FEW085 SCT160 09/02 A2983 RMK AO2 SLP099 T00890017 10106 20083 53007","updated":"2025-11-13T06:29:18Z"}
