{"icao":"LPMA","metar":"LPMA 050700Z 04015G26KT 360V110 9999 BKN015 FEW018CB 15/10 Q1017","updated":"2026-01-05T07:27:33Z"}
