{"icao":"LPMR","metar":"LPMR 190600Z 17004KT 9999 SCT016 BKN030 19/16 Q1014","updated":"2025-10-19T06:25:08Z"}
