{"icao":"LPPS","metar":"LPPS 301230Z 03013KT 360V100 9999 SCT015 19/14 Q1023","updated":"2025-11-30T12:35:38Z"}
