{"icao":"KJFK","metar":"KJFK 102051Z 17007KT 10SM BKN044 15/05 A3040 RMK AO2 SLP292 T01500050 56018","updated":"2025-10-10T21:14:31Z"}
