{"icao":"LPPT","metar":"LPPT 210400Z 35014KT 9999 SCT020 16/12 Q1020","updated":"2025-09-21T04:20:13Z"}
