{"icao":"LPPD","metar":"LPPD 011800Z 28029G40KT 9999 VCSH FEW020 FEW025CB BKN040 14/06 Q1009","updated":"2026-02-01T18:33:26Z"}
