{"icao":"LPST","metar":"LPST 041500Z 33012KT 9999 FEW030 17/10 Q1013","updated":"2026-03-04T15:38:52Z"}
