{"icao":"LPFR","metar":"LPFR 290830Z 24016KT 6000 FEW003 BKN005 16/15 Q1013","updated":"2026-01-29T08:37:24Z"}
