{"icao":"LPBJ","metar":"LPBJ 120200Z 28008KT 9999 BKN007 14/13 Q1020","updated":"2026-02-12T02:05:38Z"}
