{"icao":"LPFR","metar":"LPFR 181230Z 05009KT 010V070 9999 FEW030 13/05 Q1011","updated":"2026-01-18T12:37:43Z"}
