{"icao":"LPST","metar":"LPST 031500Z 25008KT 9999 -RA FEW008 12/08 Q1002","updated":"2026-02-03T15:48:57Z"}
