{"icao":"LPMT","metar":"LPMT 271600Z 02007KT 350V060 CAVOK 22/07 Q1015","updated":"2026-03-27T16:53:32Z"}
