{"icao":"LPMT","metar":"LPMT 150900Z 21006KT 150V260 6000 -RA FEW025 SCT036 15/14 Q1007","updated":"2025-11-15T09:16:48Z"}
