{"icao":"KLAX","metar":"KLAX 061153Z 08005KT 10SM FEW014 SCT020 BKN060 12/11 A3007 RMK AO2 SLP180 60005 70005 T01220111 10144 20122 58002 $","updated":"2026-01-06T12:42:30Z"}
