{"icao":"KORD","metar":"KORD 100500Z 31015G25KT 10SM -SN SCT016 OVC049 M03/M07 A3014 RMK AO2 SNB0459 P0000 T10281067 $","updated":"2025-11-10T05:18:59Z"}
