{"icao":"LPAR","metar":"LPAR 050900Z 24016G30KT 9999 SCT020 16/12 Q0994","updated":"2026-02-05T09:42:28Z"}
