{"icao":"LPMA","metar":"LPMA 110700Z 25003KT 210V350 9999 FEW015 13/10 Q1027","updated":"2026-01-11T07:19:42Z"}
