{"icao":"LPPD","metar":"LPPD 030630Z 22003KT 9999 FEW005 BKN008 21/19 Q1022","updated":"2025-10-03T07:16:48Z"}
