{"icao":"LPFR","metar":"LPFR 241700Z 29016KT 9999 FEW035 13/07 Q1015","updated":"2026-01-24T17:17:02Z"}
