{"icao":"LPOV","metar":"LPOV 120100Z VRB02KT CAVOK 14/13 Q1018","updated":"2025-10-12T01:21:48Z"}
