{"icao":"KJFK","metar":"KJFK 250951Z 11008KT 10SM SCT090 BKN250 08/03 A3000 RMK SLP158 T00780033 $ ","updated":"2026-04-25T10:42:05Z"}
