{"icao":"LPPR","metar":"LPPR 080600Z 05003KT 020V120 9999 FEW007 BKN030 16/15 Q1022","updated":"2025-10-08T06:27:06Z"}
