{"icao":"LPPR","metar":"LPPR 021900Z VRB02KT 9000 VCFG SCT003 16/15 Q1022","updated":"2025-10-02T19:13:44Z"}
