{"icao":"LPMT","metar":"LPMT 221200Z 25009KT 9999 FEW008 BKN030 24/20 Q1019","updated":"2025-10-22T12:39:01Z"}
