{"icao":"LPOV","metar":"LPOV 251600Z 02005KT CAVOK 12/03 Q1011","updated":"2025-12-25T16:24:16Z"}
