{"icao":"LPFL","metar":"LPFL 221300Z 18013KT 150V210 9999 FEW017 BKN033 18/13 Q1030","updated":"2025-11-22T13:22:32Z"}
