{"icao":"KORD","metar":"KORD 230651Z 01011KT 10SM FEW020 M01/M05 A3019 RMK AO2 SLP229 T10111050","updated":"2026-03-23T07:08:33Z"}
