{"icao":"LPPR","metar":"LPPR 050730Z 32005KT 290V350 9000 FEW012 BKN017 12/10 Q1016","updated":"2026-03-05T07:40:36Z"}
