{"icao":"LPCS","metar":"LPCS 262000Z 01010KT CAVOK 18/15 Q1018","updated":"2025-10-26T20:18:46Z"}
