{"icao":"LPFL","metar":"LPFL 140800Z 31009G22KT 220V010 9999 FEW010 19/15 Q1019","updated":"2025-12-14T08:24:25Z"}
