{"icao":"LPLA","metar":"LPLA 180400Z 32015KT 9999 FEW012 SCT020 15/13 Q1028","updated":"2026-01-18T04:40:29Z"}
