{"icao":"KORD","metar":"KORD 100451Z 15006KT 10SM FEW250 11/06 A3031 RMK AO2 SLP265 T01110056","updated":"2025-10-10T05:17:54Z"}
