{"icao":"KLAX","metar":"KLAX 141853Z 24007KT 210V290 10SM FEW010 FEW030 19/10 A3011 RMK AO2 SLP196 T01940100","updated":"2026-04-14T19:13:30Z"}
