{"icao":"LPBJ","metar":"LPBJ 281100Z 27014KT 9999 SCT010 BKN012 BKN035 18/16 Q1014","updated":"2025-09-28T11:12:58Z"}
