{"icao":"LPMT","metar":"LPMT 281700Z 33012G22KT 300V360 9999 FEW020 21/16 Q1013","updated":"2025-09-28T17:13:03Z"}
