{"icao":"LPFR","metar":"LPFR 190700Z 33008KT CAVOK 06/02 Q1018","updated":"2026-01-19T07:27:47Z"}
