{"icao":"LPMT","metar":"LPMT 090500Z 26009KT 8000 -RA SCT006 SCT015 BKN025 14/14 Q1028","updated":"2026-01-09T05:24:02Z"}
