{"icao":"KJFK","metar":"KJFK 122251Z 15011KT 10SM SCT112 BKN160 BKN250 08/04 A3041 RMK AO2 SLP296 T00780044 $","updated":"2026-04-12T23:33:31Z"}
