{"icao":"KORD","metar":"KORD 300351Z 35008KT 10SM FEW023 FEW037 SCT047 08/06 A2999 RMK AO2 SLP155 T00830061","updated":"2025-10-30T04:20:48Z"}
