{"icao":"LPPR","metar":"LPPR 302300Z VRB02KT CAVOK 07/05 Q1022","updated":"2025-11-30T23:17:03Z"}
