{"icao":"LPPT","metar":"LPPT 081900Z 10006KT 050V140 9999 FEW030 16/07 Q1018","updated":"2026-04-08T19:14:07Z"}
