{"icao":"LPHR","metar":"LPHR 152030Z 23015G25KT 9000 -SHRA SCT018 SCT035 BKN070 20/18 Q1005","updated":"2025-10-15T21:15:45Z"}
