{"icao":"LPMA","metar":"LPMA 072000Z 01012KT 340V040 9999 BKN015 15/07 Q1024","updated":"2026-03-07T20:24:17Z"}
