{"icao":"LPBJ","metar":"LPBJ 260200Z 30001KT CAVOK 12/10 Q1015","updated":"2026-03-26T02:11:28Z"}
