{"icao":"LPFR","metar":"LPFR 161400Z 25013KT 9999 FEW018 FEW022CB 14/10 Q1014","updated":"2026-01-16T14:22:08Z"}
