{"icao":"KORD","metar":"KORD 231751Z 26005KT 10SM SCT250 10/02 A3005 RMK AO2 SLP179 T01000022 10100 20028 50003","updated":"2025-12-23T18:29:22Z"}
