{"icao":"LPMA","metar":"LPMA 072300Z 35013KT 320V020 9999 BKN015 12/08 Q1025","updated":"2026-03-07T23:20:45Z"}
