{"icao":"LPHR","metar":"LPHR 171600Z 31009KT 280V340 9999 SCT010 20/18 Q1023","updated":"2025-11-17T16:25:44Z"}
