{"icao":"LPPR","metar":"LPPR 100400Z 13006KT 9999 VCSH FEW018 BKN042 08/07 Q1029","updated":"2026-01-10T04:32:35Z"}
