{"icao":"LPPR","metar":"LPPR 090400Z 00000KT 0300 R17/0400N FG VV001 14/14 Q1020","updated":"2025-10-09T04:21:09Z"}
