{"icao":"LPFR","metar":"LPFR 280500Z 36007KT CAVOK 11/06 Q1022","updated":"2026-02-28T05:31:49Z"}
