{"icao":"KORD","metar":"KORD 030451Z 23009KT 10SM FEW025 FEW250 16/14 A2972 RMK AO2 LTG DSNT SE SLP063 T01610144 $","updated":"2026-04-03T05:03:45Z"}
