{"icao":"LPPR","metar":"LPPR 160800Z 36003KT 340V060 CAVOK 15/14 Q1022","updated":"2025-09-16T08:23:44Z"}
