{"icao":"LPMA","metar":"LPMA 101300Z 01020G30KT 340V040 9999 FEW015 22/13 Q1021","updated":"2026-06-10T13:34:11Z"}
