{"icao":"LPPT","metar":"LPPT 131400Z 17019KT 9999 VCSH SCT012 FEW015CB BKN020 19/16 Q0998","updated":"2025-11-13T14:18:35Z"}
