{"icao":"KORD","metar":"KORD 240251Z 21003KT 10SM CLR 05/M03 A3014 RMK AO2 SLP211 T00501033 58001","updated":"2025-11-24T03:23:10Z"}
