{"icao":"LPHR","metar":"LPHR 091430Z 24021KT 4000 -RADZ BR FEW005 BKN010 18/17 Q1008","updated":"2026-02-09T14:51:13Z"}
