{"icao":"LPAZ","metar":"LPAZ 301100Z 30006KT 9999 FEW007 BKN019 18/15 Q1029","updated":"2025-11-30T11:14:26Z"}
