{"icao":"KORD","metar":"KORD 190351Z 22012G18KT 5SM -RA BR FEW014 BKN060 OVC085 17/15 A2959 RMK AO2 LTG DSNT W AND NW SLP018 P0016 T01670150 $","updated":"2025-10-19T04:21:33Z"}
