{"icao":"LPBJ","metar":"LPBJ 242100Z 27012KT 5000 1500S -DZ BKN005 OVC012 16/15 Q1017","updated":"2025-11-24T21:17:49Z"}
