{"icao":"LPPT","metar":"LPPT 291100Z 33007KT 280V010 CAVOK 25/15 Q1021","updated":"2026-05-29T11:27:28Z"}
