{"icao":"KJFK","metar":"KJFK 260527Z 05010KT 6SM -RA BR SCT008 SCT013 OVC050 06/04 A3006 RMK P0004 T00560044 401000050 $ ","updated":"2026-04-26T05:38:23Z"}
