{"icao":"LPFL","metar":"LPFL 031400Z 25009G20KT 190V350 9999 SCT016 22/14 Q1009","updated":"2025-11-03T14:18:43Z"}
