{"icao":"KORD","metar":"KORD 052251Z 30012G16KT 10SM FEW100 BKN140 OVC250 13/M04 A2978 RMK AO2 SLP084 T01331044","updated":"2026-05-05T23:04:13Z"}
