{"icao":"KORD","metar":"KORD 292251Z 02017G23KT 10SM SCT037 BKN050 11/06 A3001 RMK AO2 PK WND 04026/2156 SLP162 T01110056","updated":"2025-10-29T23:16:53Z"}
