{"icao":"KLAX","metar":"KLAX 131233Z 07005KT 10SM FEW010 SCT018 BKN030 16/14 A2973 RMK AO2 T01610139 $","updated":"2025-10-13T12:37:24Z"}
