{"icao":"KLAX","metar":"KLAX 052253Z 26010KT 10SM BKN250 22/09 A2997 RMK AO2 SLP148 T02170089 $","updated":"2026-04-05T23:32:40Z"}
