{"icao":"LPLA","metar":"LPLA 130700Z 31003KT 250V060 9999 FEW025 SCT035 11/08 Q1023","updated":"2026-01-13T07:23:56Z"}
