{"icao":"KLAX","metar":"KLAX 141153Z 10003KT 10SM FEW200 15/11 A2989 RMK AO2 SLP119 T01500111 10194 20144 56007","updated":"2026-03-14T12:49:45Z"}
