{"icao":"LPPT","metar":"LPPT 141500Z 35010KT 310V010 9999 VCSH FEW020 FEW024TCU SCT040 14/11 Q1020","updated":"2026-01-14T15:24:41Z"}
