{"icao":"LPHR","metar":"LPHR 270900Z 02015G34KT 320V070 9999 SCT015 BKN090 17/11 Q1022","updated":"2025-11-27T09:21:22Z"}
