{"icao":"LPBJ","metar":"LPBJ 121200Z 14006KT 110V170 9999 FEW009 BKN027 12/10 Q1021","updated":"2026-01-12T12:44:53Z"}
