{"icao":"LPOV","metar":"LPOV 021200Z 07008KT 020V110 CAVOK 35/08 Q1019","updated":"2026-07-02T12:56:10Z"}
