{"icao":"LPPS","metar":"LPPS 192000Z 34010KT 9000 -DZ SCT014 SCT030 14/13 Q1027 RERA","updated":"2026-01-19T20:22:42Z"}
