{"icao":"LPMT","metar":"LPMT 052100Z 36002KT CAVOK 16/14 Q1018","updated":"2025-10-05T21:13:54Z"}
