{"icao":"LPMA","metar":"LPMA 150900Z 00000KT CAVOK 17/12 Q1020","updated":"2025-12-15T09:30:49Z"}
