{"icao":"LPPR","metar":"LPPR 111900Z 35006KT CAVOK 20/11 Q1019","updated":"2025-10-11T19:12:09Z"}
