{"icao":"LPST","metar":"LPST 301300Z 20010KT 170V240 9999 FEW025 SCT035 20/14 Q1014","updated":"2025-10-30T13:29:32Z"}
