{"icao":"LPMA","metar":"LPMA 270900Z 04006KT 350V060 9999 FEW015 23/17 Q1022","updated":"2025-09-27T09:16:01Z"}
