{"icao":"LPMR","metar":"LPMR 070300Z 16001KT 5000 BR FEW007 13/13 Q1020","updated":"2026-06-07T03:45:49Z"}
