{"icao":"LPPS","metar":"LPPS 170430Z 24003KT 9999 SCT015 BKN030 15/12 Q1010","updated":"2026-03-17T04:50:19Z"}
