{"icao":"KLAX","metar":"KLAX 171253Z 08006KT 10SM FEW012 FEW020 SCT150 14/12 A2994 RMK AO2 SLP136 T01390117","updated":"2026-04-17T13:17:10Z"}
