{"icao":"LPHR","metar":"LPHR 090930Z 23019KT 6000 FEW005 BKN007 18/17 Q1008","updated":"2026-02-09T10:02:04Z"}
