{"icao":"LPHR","metar":"LPHR 111230Z 22008KT 180V240 9999 FEW014 BKN022 16/12 Q1033","updated":"2026-03-11T12:57:34Z"}
