{"icao":"LPHR","metar":"LPHR 231730Z 22004KT 190V290 9999 FEW018 19/14 Q1023","updated":"2026-05-23T17:59:27Z"}
