{"icao":"LPMA","metar":"LPMA 050100Z 02011KT 350V060 9999 SCT016 22/15 Q1025","updated":"2025-10-05T01:24:54Z"}
