{"icao":"KORD","metar":"KORD 301251Z 08004KT 10SM FEW250 21/16 A3020 RMK AO2 SLP223 T02110156","updated":"2025-09-30T13:28:15Z"}
