{"icao":"KJFK","metar":"KJFK 181451Z 05004KT 3/4SM R04R/4000V5000FT -SN BR BKN004 OVC010 00/00 A3007 RMK AO2 SLP183 P0003 60014 T00000000 58005 $","updated":"2026-01-18T15:18:03Z"}
