{"icao":"KJFK","metar":"KJFK 042051Z 30021G29KT 10SM FEW070 FEW250 15/M06 A3006 RMK AO2 PK WND 29029/2051 SLP178 T01501056 53005 $","updated":"2025-11-04T21:17:25Z"}
