{"icao":"KJFK","metar":"KJFK 091851Z 17008KT 10SM FEW065 BKN250 M01/M10 A3014 RMK AO2 SLP206 T10061100","updated":"2025-12-09T19:14:35Z"}
