{"icao":"LPMR","metar":"LPMR 170900Z 31002KT 210V020 1400 BR OVC002 14/14 Q1022","updated":"2025-09-17T14:16:33Z"}
