{"icao":"KLAX","metar":"KLAX 061853Z 00000KT 10SM FEW012 21/12 A3013 RMK AO2 SLP202 T02060117 $","updated":"2025-11-06T19:15:17Z"}
