{"icao":"LPCS","metar":"LPCS 161800Z 36015KT CAVOK 25/14 Q1019","updated":"2025-09-16T18:25:18Z"}
