{"icao":"KORD","metar":"KORD 111251Z 30011G18KT 10SM OVC021 M04/M08 A3019 RMK AO2 SLP234 T10391083 $","updated":"2026-01-11T13:29:11Z"}
