{"icao":"LPBJ","metar":"LPBJ 061800Z 19011KT CAVOK 27/14 Q1019","updated":"2025-10-06T18:26:04Z"}
