{"icao":"LPLA","metar":"LPLA 130700Z 30011KT 9000 -RA SCT012 BKN016 15/14 Q1029","updated":"2026-03-13T07:43:28Z"}
