{"icao":"LPFR","metar":"LPFR 090800Z 29006KT 2000 BR SCT002 SCT003 10/10 Q1030","updated":"2026-01-09T08:29:15Z"}
