{"icao":"LPFL","metar":"LPFL 182100Z 33006KT 280V030 9999 SCT024 13/08 Q1034","updated":"2026-01-19T05:30:23Z"}
