{"icao":"LPHR","metar":"LPHR 051730Z 28026G36KT 9000 VCSH SCT018 FEW022CB SCT040 13/07 Q1008","updated":"2026-02-05T17:45:49Z"}
