{"icao":"LPPD","metar":"LPPD 040830Z 21008KT 9000 BKN003 BKN008 15/15 Q1024","updated":"2026-03-04T08:37:33Z"}
