{"icao":"LPFL","metar":"LPFL 041600Z 34011KT 300V010 9999 FEW008 BKN010 13/11 Q1023","updated":"2026-04-04T16:34:25Z"}
