{"icao":"LPOV","metar":"LPOV 231600Z 29002KT 240V310 9999 FEW008 BKN022 17/14 Q1020","updated":"2025-10-23T16:22:43Z"}
