{"icao":"KJFK","metar":"KJFK 060451Z 30019G33KT 10SM -RA FEW046 OVC075 14/02 A2966 RMK AO2 PK WND 30041/0401 SLP043 P0000 T01440022 401720056","updated":"2025-11-06T05:18:51Z"}
