{"icao":"LPMR","metar":"LPMR 272200Z 15001KT CAVOK 07/06 Q1025","updated":"2025-11-27T22:17:15Z"}
