{"icao":"LPPD","metar":"LPPD 160130Z 26011KT 9999 FEW025 16/10 Q1028","updated":"2025-12-16T01:38:39Z"}
