{"icao":"LPFR","metar":"LPFR 230500Z 31006KT CAVOK 12/10 Q1013","updated":"2026-04-23T05:28:47Z"}
