{"icao":"LPAZ","metar":"LPAZ 011100Z 26029KT 9000 FEW010 17/15 Q1009","updated":"2026-02-01T11:20:02Z"}
