{"icao":"LPPS","metar":"LPPS 291530Z 16007KT 120V200 9999 FEW015 BKN030 19/09 Q1013","updated":"2026-04-29T15:54:38Z"}
