{"icao":"LPPT","metar":"LPPT 282100Z 35012KT CAVOK 16/08 Q1025","updated":"2026-03-28T21:28:13Z"}
