{"icao":"LPFL","metar":"LPFL 150800Z 30007KT 250V010 9999 FEW018 13/04 Q1027","updated":"2026-01-15T08:29:43Z"}
