{"icao":"LPBJ","metar":"LPBJ 022100Z 15011KT 9999 FEW018 SCT025 14/12 Q1009","updated":"2026-03-02T21:31:55Z"}
