{"icao":"LPPS","metar":"LPPS 171500Z 34015KT 9999 FEW015 21/13 Q1023","updated":"2025-11-17T15:20:41Z"}
