{"icao":"LPHR","metar":"LPHR 270900Z 27024KT 9000 VCSH FEW010 SCT014 BKN025 14/11 Q1009","updated":"2026-01-27T09:31:48Z"}
