{"icao":"LPMT","metar":"LPMT 230900Z 24008KT 9999 VCSH FEW016 FEW020CB 10/09 Q1004","updated":"2026-01-23T09:28:40Z"}
