{"icao":"LPMT","metar":"LPMT 032300Z 03007KT 9999 SCT015 13/13 Q0999","updated":"2026-01-03T23:17:59Z"}
