{"icao":"LPLA","metar":"LPLA 141200Z 20007KT 160V260 9999 BKN035 16/10 Q1031","updated":"2026-02-14T12:44:38Z"}
