{"icao":"LPFR","metar":"LPFR 172000Z 31007KT CAVOK 15/12 Q1015","updated":"2025-11-17T20:21:36Z"}
