{"icao":"LPST","metar":"LPST 071100Z 21007KT 180V240 9999 FEW016 13/08 Q1013","updated":"2026-04-07T11:52:43Z"}
