{"icao":"LPAZ","metar":"LPAZ 061100Z 01007KT 350V050 9999 FEW028 BKN046 16/09 Q1024","updated":"2026-05-06T11:05:13Z"}
