{"icao":"LPAR","metar":"LPAR 141000Z 23013KT 4000 RA SCT013 BKN020 15/12 Q1004","updated":"2025-11-14T10:20:54Z"}
