{"icao":"LPFR","metar":"LPFR 271630Z 23007KT CAVOK 18/10 Q1014","updated":"2026-03-27T16:53:30Z"}
