{"icao":"LPPT","metar":"LPPT 051600Z 27014G24KT 230V310 9999 VCSH SCT015 FEW025CB BKN030 15/11 Q1010 RESHRA WS R20","updated":"2025-11-05T16:24:21Z"}
