{"icao":"LPCS","metar":"LPCS 121100Z 27010KT 230V310 9999 -RA FEW008 SCT016 BKN030 15/15 Q1006","updated":"2025-11-12T11:16:33Z"}
