{"icao":"LPMT","metar":"LPMT 091800Z 21011KT 170V250 9999 FEW020 FEW025TCU SCT045 17/12 Q1007","updated":"2026-05-09T19:59:18Z"}
