{"icao":"LPBJ","metar":"LPBJ 270300Z 09003KT CAVOK 06/03 Q1024","updated":"2025-11-27T03:10:02Z"}
