{"icao":"LPPR","metar":"LPPR 292200Z 26009KT 220V310 7000 FEW015 BKN026 14/11 Q1010","updated":"2026-01-29T22:26:26Z"}
