{"icao":"LPAZ","metar":"LPAZ 161630Z 31010KT 9999 FEW030 18/09 Q1029","updated":"2026-05-16T17:02:01Z"}
