{"icao":"LPST","metar":"LPST 291300Z 27018G28KT 1500 -DZ BR BKN003 BKN010 15/14 Q1010","updated":"2026-01-29T13:59:24Z"}
