{"icao":"LPOV","metar":"LPOV 140600Z 16013KT 130V190 9999 -RA SCT020 BKN030 14/12 Q0999","updated":"2025-11-14T06:28:38Z"}
