{"icao":"KLAX","metar":"KLAX 201653Z 25007KT 9SM SCT008 22/18 A3000 RMK AO2 SLP157 T02170183","updated":"2025-09-20T17:12:36Z"}
