{"icao":"LPPR","metar":"LPPR 122000Z 17018KT 9999 BKN028 14/09 Q1011","updated":"2026-01-12T20:23:42Z"}
