{"icao":"KORD","metar":"KORD 262051Z 02010KT 10SM FEW013 FEW045 OVC120 17/14 A3006 RMK AO2 SLP177 60002 T01720144 58007","updated":"2026-06-26T21:17:20Z"}
