{"icao":"LPPS","metar":"LPPS 060700Z 31007KT 9999 FEW014 BKN030 16/13 Q1014","updated":"2026-04-06T07:28:28Z"}
