{"icao":"LPPS","metar":"LPPS 041230Z 26014KT 9999 FEW014 19/16 Q1013","updated":"2026-02-04T12:56:49Z"}
