{"icao":"LPFR","metar":"LPFR 100330Z 36003KT CAVOK 17/14 Q1018","updated":"2025-10-10T03:35:45Z"}
