{"icao":"LPAZ","metar":"LPAZ 061230Z 24020G30KT 9000 FEW025 SCT036 BKN049 16/11 Q1014","updated":"2026-02-06T12:56:51Z"}
