{"icao":"LPSJ","metar":"LPSJ 141330Z 26007KT 210V300 9999 FEW025 22/16 Q1022","updated":"2026-06-14T14:04:01Z"}
