{"icao":"LPOV","metar":"LPOV 160900Z 24009KT 9999 SCT006 BKN014 OVC030 14/13 Q1028","updated":"2026-02-16T09:52:46Z"}
