{"icao":"KJFK","metar":"KJFK 311551Z 33007KT 10SM FEW040 SCT180 BKN250 M08/M15 A3019 RMK AO2 SLP221 T10831150 $","updated":"2026-01-31T16:26:47Z"}
