{"icao":"LPFL","metar":"LPFL 230830Z 25012G28KT 170V300 9999 VCSH BKN016 FEW017CB 17/12 Q1001","updated":"2026-02-23T08:50:07Z"}
