{"icao":"LPAR","metar":"LPAR 311300Z 06010KT 030V090 CAVOK 25/08 Q1025","updated":"2026-03-31T13:15:59Z"}
