{"icao":"KORD","metar":"KORD 040751Z VRB04KT 8SM OVC004 06/05 A2988 RMK AO2 SLP121 T00560050 $","updated":"2026-04-04T08:39:33Z"}
