{"icao":"LPMA","metar":"LPMA 090200Z VRB02KT 9999 FEW015 17/11 Q1023","updated":"2026-02-09T02:06:27Z"}
