{"icao":"LPMA","metar":"LPMA 011500Z 02012KT 340V050 9999 SCT015 24/16 Q1021","updated":"2025-10-01T15:18:02Z"}
