{"icao":"LPAR","metar":"LPAR 020900Z 29015KT 260V320 9999 VCSH SCT018 FEW020CB 10/06 Q0998","updated":"2026-02-02T09:47:46Z"}
