{"icao":"KJFK","metar":"KJFK 071851Z 24011KT 10SM BKN045 BKN140 BKN250 06/M04 A3007 RMK AO2 SLP181 T00561039 $","updated":"2025-12-07T19:14:20Z"}
