{"icao":"LPFR","metar":"LPFR 020130Z 03007KT CAVOK 13/11 Q1015","updated":"2026-03-02T02:01:01Z"}
