{"icao":"KJFK","metar":"KJFK 182051Z 05006KT 1/2SM R04R/1600V2400FT BR FEW000 OVC002 03/03 A2975 RMK AO2 SFC VIS 1 SLP073 BR FEW000 T00280028 58009 $","updated":"2026-02-18T21:34:10Z"}
