{"icao":"LPBJ","metar":"LPBJ 302300Z 04010KT CAVOK 10/04 Q1020","updated":"2025-11-30T23:17:05Z"}
