{"icao":"LPMA","metar":"LPMA 290230Z 36012KT 320V030 9999 SCT015 21/15 Q1023","updated":"2025-09-29T03:03:09Z"}
