{"icao":"KORD","metar":"KORD 210351Z 27007KT 230V300 7SM OVC011 08/06 A3004 RMK AO2 SLP177 T00830061","updated":"2025-11-21T04:22:13Z"}
