{"icao":"LPPD","metar":"LPPD 261630Z 02010KT 330V080 9999 FEW020 BKN030 16/10 Q1028","updated":"2026-03-26T16:59:36Z"}
