{"icao":"KORD","metar":"KORD 191451Z 31014G26KT 7SM -RA SCT016 OVC055 09/07 A2964 RMK AO2 PK WND 32026/1445 SLP038 P0008 60025 T00940072 51033 $","updated":"2025-10-19T15:15:46Z"}
