{"icao":"LPMA","metar":"LPMA 302300Z 31005KT 9999 FEW016 19/14 Q1017","updated":"2025-10-30T23:16:51Z"}
