{"icao":"LPPT","metar":"LPPT 220500Z 33011KT CAVOK 13/06 Q1020","updated":"2025-09-22T05:17:25Z"}
