{"icao":"KORD","metar":"KORD 202151Z 19007G17KT 10SM SCT180 BKN250 13/M05 A3022 RMK AO2 SLP238 T01331050 $","updated":"2026-04-20T22:41:30Z"}
