{"icao":"LPBJ","metar":"LPBJ 211600Z 10007KT 080V170 9999 FEW031 18/12 Q1008","updated":"2026-03-21T16:28:09Z"}
