{"icao":"LPAZ","metar":"LPAZ 271600Z 36019KT 9000 VCSH FEW006 BKN012 FEW026TCU 18/16 Q1011","updated":"2025-10-27T16:24:02Z"}
