{"icao":"LPST","metar":"LPST 250800Z 27003KT 240V330 CAVOK 11/08 Q1021","updated":"2026-03-25T08:50:29Z"}
