{"icao":"LPMA","metar":"LPMA 270300Z 33004KT CAVOK 20/17 Q1021","updated":"2025-09-27T03:26:02Z"}
