{"icao":"LPFL","metar":"LPFL 240900Z 13003KT 080V160 9999 SCT004 BKN020 17/16 Q1021","updated":"2026-05-24T09:23:23Z"}
