{"icao":"KLAX","metar":"KLAX 202153Z 26014KT 10SM FEW250 21/12 A3000 RMK AO2 SLP158 T02060122 $","updated":"2026-04-20T22:41:29Z"}
