{"icao":"KLAX","metar":"KLAX 141853Z 08009KT 8SM -RA BKN030 BKN036 OVC055 17/14 A3001 RMK AO2 RAB09 SLP162 P0095 T01670144 $","updated":"2025-11-14T19:14:37Z"}
