{"icao":"KORD","metar":"KORD 232251Z 05005KT 10SM FEW250 M03/M12 A3036 RMK AO2 SLP292 T10281117","updated":"2026-02-23T23:33:18Z"}
