{"icao":"LPPR","metar":"LPPR 051230Z 30008KT 270V330 CAVOK 18/08 Q1018","updated":"2026-06-05T12:35:27Z"}
