{"icao":"KJFK","metar":"KJFK 030551Z 32010KT 10SM SCT250 M03/M13 A3013 RMK SLP201 4/006 P//// T10331128 10000 21039 53006 PNO $ ","updated":"2026-02-03T06:50:23Z"}
