{"icao":"KORD","metar":"KORD 102051Z 29009G16KT 10SM BKN090 BKN250 18/M04 A3008 RMK AO2 SLP185 T01781039 58006 $","updated":"2026-05-10T21:46:48Z"}
