{"icao":"LPOV","metar":"LPOV 231600Z 24004KT 210V270 CAVOK 21/09 Q1021","updated":"2026-02-23T16:55:57Z"}
