{"icao":"KORD","metar":"KORD 232151Z 31009KT 10SM BKN055 11/M02 A3010 RMK AO2 SLP197 T01111017","updated":"2025-10-23T22:16:28Z"}
