{"icao":"LPCS","metar":"LPCS 161700Z 36014KT CAVOK 26/16 Q1019","updated":"2025-09-16T17:14:57Z"}
