{"icao":"KJFK","metar":"KJFK 112251Z 28024G34KT 10SM OVC050 05/M04 A2982 RMK AO2 PK WND 30038/2232 SLP098 T00501044 $","updated":"2025-11-11T23:16:53Z"}
