{"icao":"LPFR","metar":"LPFR 051530Z 25019KT 7000 FEW018 FEW025CB 17/13 Q1002","updated":"2026-02-05T15:39:05Z"}
