{"icao":"KLAX","metar":"KLAX 081253Z 00000KT 10SM CLR 16/M06 A2992 RMK AO2 SLP130 T01561056 $","updated":"2026-03-08T13:38:48Z"}
