{"icao":"KORD","metar":"KORD 301651Z 01012KT 10SM FEW032 FEW250 12/03 A2989 RMK AO2 SLP122 T01220033 $","updated":"2025-10-30T17:17:06Z"}
