{"icao":"KORD","metar":"KORD 200251Z 17007KT 10SM OVC110 M06/M12 A2997 RMK AO2 SLP160 T10611122 58020","updated":"2025-12-20T03:14:30Z"}
