{"icao":"LPPD","metar":"LPPD 292300Z 28004KT 1200 R30/1500U -DZ BR BKN001 BKN002 15/14 Q1013","updated":"2025-12-29T23:18:36Z"}
