{"icao":"LPMA","metar":"LPMA 131100Z 02019G33KT 330V050 9999 FEW015 26/17 Q1022","updated":"2025-09-13T11:12:20Z"}
