{"icao":"KLAX","metar":"KLAX 030406Z 18006KT 10SM BKN015 BKN031 17/16 A3005 RMK AO2 T01670156","updated":"2026-01-03T04:31:32Z"}
