{"icao":"KORD","metar":"KORD 271251Z 06006KT 10SM OVC060 19/16 A3000 RMK AO2 SLP159 T01890161 $","updated":"2026-06-27T13:39:55Z"}
