{"icao":"KJFK","metar":"KJFK 091951Z 23006KT 10SM FEW065 FEW160 BKN250 M01/M14 A3013 RMK AO2 SLP201 T10061139","updated":"2025-12-09T20:19:50Z"}
