{"icao":"LPAZ","metar":"LPAZ 251730Z 06010KT 020V110 9999 BKN022 16/10 Q1028","updated":"2026-03-25T17:57:45Z"}
