{"icao":"LPMR","metar":"LPMR 262200Z 16002KT 6000 FEW020 07/06 Q1025","updated":"2025-11-26T22:18:06Z"}
