{"icao":"LPPD","metar":"LPPD 040530Z 33004KT 300V010 9999 FEW018 BKN035 14/07 Q1022","updated":"2026-04-04T05:55:48Z"}
