{"icao":"KJFK","metar":"KJFK 120251Z 05009KT 10SM FEW030 BKN090 BKN250 16/12 A3017 RMK AO2 SLP214 T01610117 50002","updated":"2025-10-12T03:01:11Z"}
