{"icao":"LPPD","metar":"LPPD 051930Z 06006KT 020V100 9999 FEW025 BKN040 12/04 Q1035","updated":"2026-03-05T19:50:41Z"}
