{"icao":"KORD","metar":"KORD 250051Z 10005KT 10SM CLR 07/01 A3030 RMK AO2 SLP266 T00720011 $","updated":"2025-10-25T01:19:08Z"}
