{"icao":"LPCS","metar":"LPCS 010900Z 24006KT 220V290 0200 -DZ FG VV002 15/15 Q1015","updated":"2026-02-01T09:29:16Z"}
