{"icao":"KORD","metar":"KORD 040451Z 20004KT 10SM CLR 23/15 A3011 RMK AO2 SLP189 T02280150 $","updated":"2025-10-04T05:15:44Z"}
