{"icao":"LPMR","metar":"LPMR 142100Z VRB01KT 6000 SCT004 15/14 Q1017","updated":"2025-10-14T21:15:04Z"}
