{"icao":"LPPD","metar":"LPPD 300600Z 21007KT 1000 R30/P2000 BR VV001 18/17 Q1024","updated":"2026-05-30T06:22:57Z"}
