{"icao":"LPBJ","metar":"LPBJ 182000Z 25003KT 210V290 CAVOK 27/11 Q1020","updated":"2025-09-18T20:19:30Z"}
