{"icao":"LPFR","metar":"LPFR 100500Z 01004KT CAVOK 13/08 Q1019","updated":"2025-11-10T05:18:55Z"}
