{"icao":"LPHR","metar":"LPHR 160900Z 32007KT 9999 FEW015 BKN030 14/09 Q1034","updated":"2026-01-16T09:26:08Z"}
