{"icao":"LPAR","metar":"LPAR 231000Z 29005KT 170V340 9999 FEW045 19/11 Q1014","updated":"2026-04-23T11:06:22Z"}
