{"icao":"LPMT","metar":"LPMT 270200Z 02010KT 9999 BKN045 17/12 Q1019","updated":"2025-10-27T04:28:00Z"}
