{"icao":"LPPR","metar":"LPPR 201230Z 16008KT 4000 R17/1300D -SHRA FEW006 BKN018 BKN042 11/10 Q1014","updated":"2025-12-20T12:36:07Z"}
