{"icao":"LPFL","metar":"LPFL 251900Z 17007KT 9999 FEW013 18/14 Q1024","updated":"2025-11-25T19:16:40Z"}
