{"icao":"LPFR","metar":"LPFR 080600Z 32005KT CAVOK 14/12 Q1019","updated":"2025-11-08T06:24:57Z"}
