{"icao":"LPFL","metar":"LPFL 261000Z 03011KT 9999 FEW022 19/12 Q1028","updated":"2025-10-26T10:16:59Z"}
