{"icao":"LPPI","metar":"LPPI 281930Z 04004KT 360V080 9999 FEW036 21/12 Q1028","updated":"2026-06-28T20:12:01Z"}
