{"icao":"KORD","metar":"KORD 261851Z 25010G16KT 10SM CLR M14/M23 A3025 RMK AO2 SLP259 T11391233","updated":"2026-01-26T19:22:35Z"}
