{"icao":"LPPT","metar":"LPPT 150900Z 21009KT 4500 -RADZ FEW012 SCT018 FEW025TCU 14/13 Q1006 RERA","updated":"2025-11-15T09:16:45Z"}
