{"icao":"LPLA","metar":"LPLA 221300Z 33006KT 270V010 9999 FEW025 17/10 Q1023","updated":"2025-12-22T13:33:14Z"}
