{"icao":"LPST","metar":"LPST 151500Z 31006KT 280V340 CAVOK 24/08 Q1016","updated":"2025-10-15T15:17:35Z"}
