{"icao":"LPCS","metar":"LPCS 261000Z 02008KT CAVOK 20/15 Q1018","updated":"2025-10-26T10:16:55Z"}
