{"icao":"LPPS","metar":"LPPS 210500Z 34010KT 9999 SCT006 SCT030 22/22 Q1018","updated":"2025-10-21T05:17:37Z"}
