{"icao":"LPMT","metar":"LPMT 280300Z 11004KT CAVOK 08/08 Q1023","updated":"2025-11-28T03:09:55Z"}
