{"icao":"LPFL","metar":"LPFL 161000Z 28004KT 210V360 9999 FEW019 SCT035 13/08 Q1035","updated":"2026-01-16T10:22:43Z"}
