{"icao":"LPPS","metar":"LPPS 222000Z 04005KT 350V070 9999 SCT014 BKN030 23/19 Q1022","updated":"2025-10-22T20:21:47Z"}
