{"icao":"LPFR","metar":"LPFR 261000Z 29005KT CAVOK 09/05 Q1015","updated":"2025-12-26T10:20:18Z"}
