{"icao":"KJFK","metar":"KJFK 240151Z 31020G29KT 10SM FEW040 FEW100 BKN250 01/M07 A2972 RMK AO2 PK WND 33033/0127 SLP064 T00061067 $","updated":"2026-02-24T02:00:34Z"}
