{"icao":"LPBJ","metar":"LPBJ 121500Z 02003KT 310V100 9999 FEW048 21/06 Q1024","updated":"2026-03-12T15:57:48Z"}
