{"icao":"LPST","metar":"LPST 191500Z 32011KT 290V350 CAVOK 24/15 Q1015","updated":"2026-06-19T15:11:59Z"}
