{"icao":"KLAX","metar":"KLAX 090953Z 00000KT 2SM BR CLR 17/15 A3003 RMK AO2 SLP165 T01670150","updated":"2025-11-09T10:17:21Z"}
