{"icao":"LPMT","metar":"LPMT 130900Z 03006KT CAVOK 20/13 Q1016","updated":"2025-10-13T09:21:05Z"}
