{"icao":"LPLA","metar":"LPLA 291100Z 29004KT 250V330 9999 FEW025 15/09 Q1013","updated":"2026-01-29T11:30:04Z"}
