{"icao":"LPAZ","metar":"LPAZ 211230Z 07006KT 040V130 9999 FEW011 BKN022 17/13 Q1031","updated":"2025-11-21T12:37:09Z"}
