{"icao":"LPBJ","metar":"LPBJ 210300Z 35010KT CAVOK 08/03 Q1023","updated":"2025-11-21T03:09:18Z"}
