{"icao":"LPMT","metar":"LPMT 210300Z 21010KT 170V230 7000 -RA FEW009 SCT015 BKN030 12/12 Q1012","updated":"2026-01-21T03:42:26Z"}
