{"icao":"KLAX","metar":"KLAX 181553Z VRB03KT 10SM SCT250 BKN300 19/13 A2997 RMK AO2 SLP147 T01890128 $","updated":"2026-04-18T16:39:10Z"}
