{"icao":"KJFK","metar":"KJFK 140851Z 18006KT 10SM FEW085 SCT150 BKN220 04/02 A2969 RMK AO2 SLP052 60000 T00390022 58012 $","updated":"2026-01-14T09:27:55Z"}
