{"icao":"LPPS","metar":"LPPS 082200Z 06011KT 9999 SCT015 21/16 Q1026","updated":"2025-10-08T22:16:06Z"}
