{"icao":"LPFL","metar":"LPFL 132030Z 02007KT 350V050 9999 SCT017 BKN035 15/11 Q1032","updated":"2026-05-13T23:56:38Z"}
