{"icao":"LPPS","metar":"LPPS 270800Z 27012KT 9999 SCT010 16/15 Q1015 RERA","updated":"2026-01-27T08:32:17Z"}
