{"icao":"LPPT","metar":"LPPT 131100Z 23004KT 200V260 9999 VCSH FEW008 SCT020 FEW025CB 12/11 Q1010","updated":"2026-01-13T11:19:10Z"}
