{"icao":"LPPT","metar":"LPPT 311900Z 20018KT 6000 -RADZ FEW005 BKN009 19/18 Q1013","updated":"2025-10-31T19:12:40Z"}
