{"icao":"LPAZ","metar":"LPAZ 180330Z 23012KT 9999 SCT005 BKN013 21/21 Q1018","updated":"2026-06-18T03:53:16Z"}
