{"icao":"LPMR","metar":"LPMR 091600Z 33009KT 9999 FEW030 13/08 Q1028","updated":"2026-01-09T16:26:36Z"}
