{"icao":"LPMA","metar":"LPMA 201230Z 02006G18KT 330V060 9999 FEW016 18/09 Q1026","updated":"2025-12-20T12:36:27Z"}
