{"icao":"LPPT","metar":"LPPT 131800Z 32014KT 9999 FEW030 22/14 Q1022","updated":"2025-09-13T18:20:38Z"}
