{"icao":"KORD","metar":"KORD 170251Z 21015G24KT 10SM BKN140 BKN250 03/M02 A2973 RMK AO2 PK WND 22026/0236 PRESFR SLP075 T00281022 58010","updated":"2025-12-17T03:18:57Z"}
