{"icao":"LPOV","metar":"LPOV 311300Z 34016KT CAVOK 21/11 Q1026","updated":"2026-03-31T13:15:57Z"}
