{"icao":"KORD","metar":"KORD 231851Z 35009KT 10SM FEW035 FEW250 M03/M14 A3043 RMK AO2 SLP313 T10331139","updated":"2026-02-23T19:18:44Z"}
