{"icao":"LPMR","metar":"LPMR 152300Z VRB02KT 2000 BR OVC003 15/14 Q1017","updated":"2025-10-15T23:15:32Z"}
