{"icao":"LPPT","metar":"LPPT 182200Z 33007KT 300V360 CAVOK 18/11 Q1016","updated":"2026-04-18T22:33:28Z"}
