{"icao":"LPCS","metar":"LPCS 230730Z 33003KT 300V360 9999 FEW020 14/11 Q1014","updated":"2026-04-23T07:49:52Z"}
