{"icao":"LPHR","metar":"LPHR 130700Z 34007KT CAVOK 16/10 Q1016","updated":"2025-10-13T07:18:24Z"}
