{"icao":"LPAZ","metar":"LPAZ 070700Z 28013KT 7000 FEW008 15/14 Q1014","updated":"2026-02-07T07:30:45Z"}
