{"icao":"LPPR","metar":"LPPR 200400Z 12009KT CAVOK 07/05 Q1017","updated":"2025-12-20T04:25:05Z"}
