{"icao":"LPLA","metar":"LPLA 121400Z 32015KT 9999 FEW012 SCT020 BKN040 21/18 Q1018","updated":"2025-10-12T14:14:13Z"}
