{"icao":"LPFR","metar":"LPFR 170700Z 28020KT 9999 FEW015 FEW020CB 17/14 Q1011","updated":"2025-11-17T07:18:50Z"}
