{"icao":"LPAZ","metar":"LPAZ 091730Z 11007KT 060V140 9999 SCT032 15/08 Q1034","updated":"2026-03-09T17:53:41Z"}
