{"icao":"KORD","metar":"KORD 021351Z 00000KT 10SM BKN027 BKN040 BKN048 06/05 A3021 RMK AO2 RAE48 SLP234 P0001 T00610050 $","updated":"2025-11-02T14:14:44Z"}
