{"icao":"LPOV","metar":"LPOV 081800Z VRB01KT CAVOK 14/12 Q1022","updated":"2025-11-08T21:14:02Z"}
