{"icao":"LPCS","metar":"LPCS 020700Z 02003KT CAVOK 12/11 Q1024","updated":"2025-11-02T07:15:51Z"}
