{"icao":"LPPR","metar":"LPPR 261000Z 08003KT CAVOK 11/08 Q1027","updated":"2025-11-26T10:21:26Z"}
