{"icao":"KLAX","metar":"KLAX 240653Z 00000KT 10SM FEW008 BKN010 18/16 A3001 RMK AO2 SLP159 T01780156","updated":"2025-10-24T07:17:57Z"}
