{"icao":"LPST","metar":"LPST 081400Z 27012KT 6000 -DZ SCT008 BKN012 12/11 Q1031","updated":"2026-01-08T14:23:45Z"}
