{"icao":"LPAZ","metar":"LPAZ 301900Z 22005KT 0900 R18/1700D FG VV002 19/18 Q1027","updated":"2026-05-30T19:12:33Z"}
