{"icao":"LPOV","metar":"LPOV 110400Z 19011KT 8000 -DZ BKN004 BKN012 15/15 Q1014","updated":"2026-02-11T05:01:33Z"}
