{"icao":"LPBJ","metar":"LPBJ 171500Z 34003KT 270V040 9999 FEW030 28/13 Q1014","updated":"2025-10-17T15:17:59Z"}
