{"icao":"LPLA","metar":"LPLA 281600Z 15014KT 9999 SCT035 22/15 Q1027","updated":"2025-09-28T16:18:34Z"}
