{"icao":"LPCS","metar":"LPCS 150600Z 36003KT CAVOK 15/10 Q1016","updated":"2025-10-15T06:26:58Z"}
