{"icao":"LPMA","metar":"LPMA 091300Z 11003KT 080V150 9999 BKN013 19/16 Q1024","updated":"2026-02-09T13:06:32Z"}
