{"icao":"LPPS","metar":"LPPS 151000Z 26007KT 220V310 9999 SCT014 FEW018CB SCT030 21/18 Q1014","updated":"2025-11-15T10:17:20Z"}
