{"icao":"LPOV","metar":"LPOV 261600Z 34006KT 310V020 CAVOK 29/12 Q1020","updated":"2026-05-26T16:40:59Z"}
