{"icao":"LPPR","metar":"LPPR 240600Z 23008KT 200V270 9000 -RADZ FEW009 BKN022 15/14 Q1015","updated":"2025-11-24T06:29:33Z"}
