{"icao":"KJFK","metar":"KJFK 101951Z 16011KT 10SM FEW015 BKN250 10/06 A3024 RMK AO2 SLP239 T01000056","updated":"2026-04-10T20:35:03Z"}
