{"icao":"LPMA","metar":"LPMA 230600Z 02012KT 9999 FEW015 18/11 Q1025","updated":"2025-11-23T06:26:39Z"}
