{"icao":"LPMR","metar":"LPMR 061400Z 35015KT 9999 FEW020 11/00 Q1024","updated":"2026-01-06T14:21:20Z"}
