{"icao":"KJFK","metar":"KJFK 150851Z 26006KT 10SM FEW095 SCT160 BKN250 18/14 A2991 RMK AO2 SLP126 T01830139 55001","updated":"2026-04-15T09:17:48Z"}
