{"icao":"KLAX","metar":"KLAX 070553Z 16003KT 10SM FEW009 17/15 A3002 RMK AO2 SLP164 T01670150 10178 20161 50001 $","updated":"2025-11-07T06:27:47Z"}
