{"icao":"LPOV","metar":"LPOV 081900Z 33011KT 9999 OVC004 18/17 Q1022","updated":"2026-06-09T00:03:55Z"}
