{"icao":"LPPD","metar":"LPPD 252230Z 12005KT 9999 BKN014 16/15 Q1020","updated":"2026-04-25T22:35:44Z"}
