{"icao":"LPMT","metar":"LPMT 042000Z 33009KT 9999 FEW045 15/08 Q1017","updated":"2026-05-04T20:13:09Z"}
