{"icao":"LPLA","metar":"LPLA 231600Z 36006KT 310V050 9999 FEW018 SCT022 20/14 Q1024","updated":"2026-05-23T16:07:18Z"}
