{"icao":"LPPR","metar":"LPPR 271300Z 18013KT 9999 -RA FEW025 BKN042 20/11 Q1013","updated":"2025-09-27T13:19:51Z"}
