{"icao":"LPPR","metar":"LPPR 160730Z 24007KT 200V280 9000 OVC009 14/13 Q1027","updated":"2026-02-16T07:53:07Z"}
