{"icao":"LPBJ","metar":"LPBJ 172000Z 22006KT CAVOK 21/13 Q1015","updated":"2025-10-17T20:19:32Z"}
