{"icao":"LPAZ","metar":"LPAZ 190700Z 36015KT 9999 FEW006 SCT013 BKN030 17/15 Q1021","updated":"2025-11-19T07:18:38Z"}
