{"icao":"LPMA","metar":"LPMA 192200Z 25004KT 180V330 9999 FEW015 24/17 Q1020","updated":"2025-09-19T22:16:00Z"}
