{"icao":"LPPS","metar":"LPPS 232000Z 08007KT 040V120 9999 FEW015 18/13 Q1026","updated":"2025-11-23T20:20:22Z"}
