{"icao":"LPPT","metar":"LPPT 071500Z 30006KT 280V350 9999 -RA FEW008 BKN030 18/17 Q1015","updated":"2025-11-07T15:18:33Z"}
