{"icao":"KLAX","metar":"KLAX 021453Z 05004KT 10SM FEW160 FEW250 12/07 A3007 RMK AO2 SLP182 T01220067 $","updated":"2026-02-02T15:37:10Z"}
