{"icao":"LPLA","metar":"LPLA 101100Z 21020G34KT 170V240 4000 RADZ BR BKN005 BKN012 18/16 Q1021","updated":"2026-01-10T11:16:10Z"}
