{"icao":"LPHR","metar":"LPHR 121530Z 29021G33KT 9999 FEW025 17/09 Q1019","updated":"2026-02-12T15:52:09Z"}
