{"icao":"LPBJ","metar":"LPBJ 271500Z 34006KT 310V030 CAVOK 17/03 Q1022","updated":"2025-11-27T15:19:06Z"}
