{"icao":"LPOV","metar":"LPOV 280800Z 04006KT CAVOK 13/05 Q1023","updated":"2026-03-28T08:37:12Z"}
