{"icao":"LPAZ","metar":"LPAZ 152000Z 24003KT 210V280 9999 SCT022 22/18 Q1026","updated":"2025-09-15T20:18:41Z"}
