{"icao":"LPAZ","metar":"LPAZ 301000Z 28015KT 9999 FEW022 20/15 Q1010","updated":"2025-10-30T10:19:45Z"}
