{"icao":"LPST","metar":"LPST 131300Z 30010KT 9999 FEW024 27/12 Q1016","updated":"2025-10-13T13:28:43Z"}
