{"icao":"KLAX","metar":"KLAX 231453Z 21005KT 10SM OVC024 17/12 A2996 RMK AO2 SLP145 T01720122 53017","updated":"2026-05-23T14:59:52Z"}
