{"icao":"LPMT","metar":"LPMT 271800Z 21011KT 180V240 7000 FEW009 BKN015 20/19 Q1014","updated":"2025-09-27T18:21:52Z"}
