{"icao":"LPLA","metar":"LPLA 081800Z 24019G34KT 8000 -RADZ SCT007 BKN014 19/17 Q1009","updated":"2026-02-08T18:35:45Z"}
