{"icao":"KJFK","metar":"KJFK 110251Z 08008KT 4SM -RA BR BKN004 OVC010 07/07 A2980 RMK AO2 PRESFR SLP090 P0001 60021 T00720067 58050","updated":"2026-01-11T03:49:24Z"}
