{"icao":"KLAX","metar":"KLAX 281453Z 00000KT 5SM HZ CLR 17/13 A2997 RMK AO2 SLP146 T01670128 53009 $","updated":"2025-10-28T15:20:29Z"}
