{"icao":"LPMR","metar":"LPMR 061300Z VRB06KT CAVOK 30/12 Q1019","updated":"2025-10-06T13:27:32Z"}
