{"icao":"LPLA","metar":"LPLA 211200Z 21013KT 7000 -RADZ SCT008 BKN012 BKN020 18/16 Q1022","updated":"2026-02-21T12:44:18Z"}
