{"icao":"KORD","metar":"KORD 040551Z 32007KT 10SM OVC039 M04/M13 A3009 RMK AO2 SLP198 T10391128 11039 21039 410331067 51007 $","updated":"2026-01-04T06:30:21Z"}
