{"icao":"KLAX","metar":"KLAX 291853Z VRB05KT 10SM CLR 32/M02 A2999 RMK AO2 SLP154 T03221017 $","updated":"2025-10-29T19:14:24Z"}
