{"icao":"KORD","metar":"KORD 202151Z 17014G25KT 10SM FEW250 18/01 A2973 RMK AO2 PK WND 16029/2104 SLP067 T01830006","updated":"2025-10-20T22:16:36Z"}
