{"icao":"LPPR","metar":"LPPR 032100Z 18013KT 9000 -SHRA SCT007 BKN018 12/11 Q1020","updated":"2025-12-03T21:17:32Z"}
