{"icao":"LPAZ","metar":"LPAZ 281600Z 03013KT 9999 BKN012 17/15 Q1024","updated":"2025-11-28T16:23:24Z"}
