{"icao":"LPBJ","metar":"LPBJ 140700Z 11002KT CAVOK 15/11 Q1016","updated":"2025-10-14T07:18:15Z"}
