{"icao":"LPCS","metar":"LPCS 171900Z 01011KT 9999 FEW012 FEW022TCU 09/07 Q1009","updated":"2026-01-18T06:29:38Z"}
