{"icao":"LPBJ","metar":"LPBJ 122100Z 14012KT 9999 OVC040 12/09 Q1016","updated":"2026-01-12T21:19:43Z"}
