{"icao":"LPPS","metar":"LPPS 210700Z 12010KT 7000 -TSRA SCT010 FEW018CB SCT030 13/12 Q0998","updated":"2026-03-21T07:32:01Z"}
