{"icao":"LPFR","metar":"LPFR 270400Z 02006KT CAVOK 11/03 Q1022","updated":"2025-11-27T04:22:51Z"}
