{"icao":"KJFK","metar":"KJFK 111651Z 17011KT 9SM FEW008 BKN190 BKN250 12/08 A2991 RMK AO2 SLP127 T01220078","updated":"2026-03-11T17:48:15Z"}
