{"icao":"LPFR","metar":"LPFR 072000Z 27008KT CAVOK 21/17 Q1018","updated":"2026-06-07T20:10:05Z"}
