{"icao":"KJFK","metar":"KJFK 060651Z 01006KT 10SM FEW250 M06/M11 A2989 RMK AO2 SLP121 T10561111 PNO $","updated":"2026-02-06T07:46:24Z"}
