{"icao":"KJFK","metar":"KJFK 240751Z 22008KT 10SM BKN030 BKN038 OVC049 22/20 A2999 RMK AO2 RAE11 SLP156 P0004 T02170200 $","updated":"2025-09-24T08:18:49Z"}
