{"icao":"LPPD","metar":"LPPD 101600Z 21018KT 1500 BR OVC002 17/16 Q1011","updated":"2026-02-10T16:08:59Z"}
