{"icao":"LPPT","metar":"LPPT 090900Z 17016KT 4500 RA FEW004 BKN005 16/15 Q1016","updated":"2025-12-09T09:22:43Z"}
