{"icao":"LPLA","metar":"LPLA 282100Z 16008KT 9999 FEW023 SCT040 20/17 Q1027","updated":"2025-09-28T21:14:07Z"}
