{"icao":"KJFK","metar":"KJFK 111351Z 29016G27KT 10SM BKN045 BKN095 03/M08 A2974 RMK AO2 PK WND 29029/1252 SNE06 SLP069 P0000 T00281083 $","updated":"2025-11-11T14:19:44Z"}
