{"icao":"KORD","metar":"KORD 230051Z 18005KT 10SM FEW050 24/16 A2982 RMK AO2 SLP094 T02440161","updated":"2025-09-23T01:17:31Z"}
