{"icao":"LPFR","metar":"LPFR 150700Z 22010KT 9999 FEW015 FEW018CB BKN040 19/16 Q1010","updated":"2025-11-15T07:15:31Z"}
