{"icao":"KJFK","metar":"KJFK 200551Z 29022G34KT 10SM FEW055 SCT220 M04/M16 A3012 RMK AO2 PK WND 28034/0543 SLP200 4/001 T10391156 10000 21039 51018 $","updated":"2026-01-20T06:34:47Z"}
