{"icao":"LPMA","metar":"LPMA 181600Z 15003KT 100V180 9999 VCSH FEW010 BKN014 23/20 Q1015","updated":"2025-10-18T16:19:32Z"}
