{"icao":"LPPD","metar":"LPPD 092030Z 36012KT 330V030 9999 FEW018 FEW020TCU SCT030 14/10 Q1017","updated":"2026-05-09T20:55:21Z"}
