{"icao":"KORD","metar":"KORD 210651Z 19010G18KT 10SM BKN250 11/M02 A3007 RMK AO2 SLP184 T01061022 $","updated":"2026-04-21T07:48:09Z"}
