{"icao":"LPOV","metar":"LPOV 021800Z 22007KT 180V260 9999 BKN022 17/15 Q1014","updated":"2026-05-02T18:57:08Z"}
