{"icao":"LPPT","metar":"LPPT 011800Z 22018KT 190V250 2500 RA BR FEW002 BKN004 14/14 Q1007","updated":"2026-02-01T18:33:21Z"}
