{"icao":"LPAZ","metar":"LPAZ 222230Z 26023KT 9999 FEW008 SCT016 BKN022 14/13 Q1004","updated":"2026-04-22T22:45:37Z"}
