{"icao":"LPMT","metar":"LPMT 120300Z 17012KT 9999 FEW015 18/15 Q1005","updated":"2025-11-12T03:10:51Z"}
