{"icao":"LPMA","metar":"LPMA 190700Z 26003KT 220V320 9999 FEW015 19/17 Q1017","updated":"2025-10-19T07:15:23Z"}
