{"icao":"LPMT","metar":"LPMT 120800Z 12006KT 8000 -RADZ BKN004 SCT028 13/13 Q1012","updated":"2025-12-12T08:28:10Z"}
