{"icao":"LPPT","metar":"LPPT 101400Z 24004KT 180V290 9999 FEW024 BKN038 14/09 Q1029","updated":"2026-01-10T14:17:42Z"}
