{"icao":"KORD","metar":"KORD 040651Z 04007KT 1 1/2SM R10L/5000VP6000FT BR OVC002 01/00 A3020 RMK AO2 SLP233 T00060000","updated":"2026-03-04T07:36:36Z"}
