{"icao":"LPHR","metar":"LPHR 101600Z 22017KT 5000 BR SCT002 BKN004 18/17 Q1007","updated":"2026-02-10T16:09:02Z"}
