{"icao":"LPFR","metar":"LPFR 222000Z 31012KT CAVOK 20/08 Q1014","updated":"2025-09-22T20:19:08Z"}
