{"icao":"KJFK","metar":"KJFK 071851Z 18015G24KT 10SM FEW047 SCT170 BKN250 24/19 A3010 RMK AO2 PK WND 18027/1822 SLP193 T02390189","updated":"2025-10-07T19:13:45Z"}
