{"icao":"KJFK","metar":"KJFK 110651Z 06003KT 10SM SCT095 SCT250 08/05 A2999 RMK AO2 SLP155 T00830050","updated":"2026-03-11T07:42:11Z"}
