{"icao":"LPPS","metar":"LPPS 120500Z 03004KT 360V070 9999 SCT014 SCT030 20/16 Q1017","updated":"2025-10-12T05:15:48Z"}
