{"icao":"LPMT","metar":"LPMT 281900Z 34008KT CAVOK 12/07 Q1023","updated":"2026-02-28T20:24:12Z"}
