{"icao":"LPAZ","metar":"LPAZ 172200Z 25009KT 9999 FEW003 BKN007 19/18 Q1025","updated":"2025-11-17T22:17:35Z"}
