{"icao":"LPST","metar":"LPST 200800Z 13008KT 9999 SCT008 SCT012 13/12 Q1007","updated":"2026-03-20T08:38:42Z"}
