{"icao":"LPMA","metar":"LPMA 021030Z 19006KT 140V230 9999 FEW013 24/20 Q1018","updated":"2026-07-02T10:37:37Z"}
