{"icao":"KJFK","metar":"KJFK 070051Z 19013KT 10SM SCT250 20/18 A3023 RMK AO2 SLP238 T02000178 $","updated":"2025-10-07T01:17:44Z"}
