{"icao":"LPPR","metar":"LPPR 140600Z 16017KT 9999 FEW040 14/11 Q0999","updated":"2025-11-14T06:28:37Z"}
