{"icao":"LPLA","metar":"LPLA 191200Z 19019G31KT 7000 -SHRA FEW015 SCT020 16/13 Q1021","updated":"2026-02-19T13:02:52Z"}
