{"icao":"KJFK","metar":"KJFK 251651Z 11010KT 6SM -RA BR FEW020 BKN055 OVC075 07/04 A3008 RMK SLP185 P0004 T00670044 $ ","updated":"2026-04-25T17:35:49Z"}
