{"icao":"LPMA","metar":"LPMA 122000Z 03018G41KT 320V070 9999 TSRA BKN015 FEW018CB 15/08 Q1021","updated":"2025-12-12T20:21:36Z"}
