{"icao":"LPOV","metar":"LPOV 311300Z 27004KT 240V310 6000 -RADZ FEW004 SCT026 BKN040 12/11 Q1018 RESHRA","updated":"2026-01-31T13:39:44Z"}
