{"icao":"LPPT","metar":"LPPT 031730Z 30009KT 270V330 9999 FEW030 18/10 Q1014","updated":"2026-05-03T17:45:06Z"}
