{"icao":"LPPR","metar":"LPPR 131830Z 33020KT 9999 -SHRA FEW018CB SCT023 BKN030 12/07 Q1007","updated":"2026-02-13T18:46:58Z"}
