{"icao":"LPOV","metar":"LPOV 160900Z 24003KT 9999 SCT020 FEW022CB BKN030 09/09 Q1013","updated":"2026-01-16T10:22:24Z"}
