{"icao":"LPFR","metar":"LPFR 130800Z 16022KT 9999 FEW018 21/18 Q1004","updated":"2025-11-13T08:25:16Z"}
