{"icao":"LPPT","metar":"LPPT 011300Z 10004G15KT 040V150 CAVOK 13/05 Q1020","updated":"2025-12-01T13:34:11Z"}
