{"icao":"LPHR","metar":"LPHR 080800Z 23010KT 9999 VCSH FEW008 SCT012 BKN030 17/15 Q1029","updated":"2026-01-08T08:29:27Z"}
