{"icao":"LPAZ","metar":"LPAZ 070100Z 32011KT 9999 FEW020 18/13 Q1019","updated":"2025-11-07T01:23:53Z"}
