{"icao":"LPPT","metar":"LPPT 260800Z 01009KT CAVOK 10/06 Q1025","updated":"2025-11-26T08:26:16Z"}
