{"icao":"LPOV","metar":"LPOV 212200Z 02005KT 340V050 CAVOK 14/10 Q1023","updated":"2025-09-21T22:15:07Z"}
