{"icao":"LPAR","metar":"LPAR 101100Z 08003KT 010V170 9999 FEW028 21/16 Q1014","updated":"2026-04-10T11:47:15Z"}
