{"icao":"LPOV","metar":"LPOV 270200Z 01002KT CAVOK 09/07 Q1021","updated":"2025-10-27T06:30:20Z"}
