{"icao":"LPBJ","metar":"LPBJ 160700Z VRB02KT CAVOK 10/09 Q1021","updated":"2026-04-16T07:44:05Z"}
