{"icao":"LPBJ","metar":"LPBJ 270900Z 06005KT CAVOK 08/04 Q1024","updated":"2025-11-27T09:21:07Z"}
