{"icao":"LPPS","metar":"LPPS 181530Z 33009KT 300V360 9999 FEW014 18/14 Q1025","updated":"2026-02-18T15:51:33Z"}
