{"icao":"LPOV","metar":"LPOV 151700Z 34020KT CAVOK 15/11 Q1019","updated":"2026-03-15T17:26:35Z"}
