{"icao":"KORD","metar":"KORD 050951Z 06003KT 1/8SM R10L/1800V2400FT FG VV002 04/03 A2995 RMK AO2 SLP147 T00390033 $","updated":"2026-03-05T10:37:38Z"}
