{"icao":"LPLA","metar":"LPLA 192000Z 35023G33KT 9999 SCT016 BKN022 BKN030 15/12 Q1006 R MK WIND RWY15 36028G38KT PK 36040/05 RH82 WHT","updated":"2026-03-19T20:36:06Z"}
