{"icao":"LPMR","metar":"LPMR 261700Z 33007KT 300V360 9999 FEW007 20/15 Q1016","updated":"2026-04-26T17:37:00Z"}
