{"icao":"LPPR","metar":"LPPR 261530Z 31007KT 270V350 9999 FEW030 21/14 Q1016","updated":"2026-04-26T15:40:03Z"}
