{"icao":"LPMA","metar":"LPMA 230600Z 34016KT 310V010 9999 SCT015 17/13 Q1015","updated":"2026-01-23T06:34:15Z"}
