{"icao":"LPPR","metar":"LPPR 090100Z 18002KT 5000 BR FEW005 SCT010 14/13 Q1021","updated":"2025-10-09T01:18:25Z"}
