{"icao":"KLAX","metar":"KLAX 212053Z 22004KT 10SM FEW007 FEW095 SCT130 BKN180 BKN220 23/18 A2991 RMK AO2 SLP126 T02330178 58015","updated":"2025-09-21T21:14:29Z"}
