{"icao":"LPCS","metar":"LPCS 220730Z 01003KT 330V050 CAVOK 23/13 Q1019","updated":"2026-05-22T07:42:47Z"}
