{"icao":"LPPD","metar":"LPPD 270900Z 03015KT 350V070 9999 VCSH FEW018 FEW022TCU 18/15 Q1015","updated":"2025-10-27T09:21:59Z"}
