{"icao":"LPHR","metar":"LPHR 011100Z 31015G30KT 280V350 9000 -SHRA FEW008 SCT012 BKN035 16/13 Q1025","updated":"2026-03-01T11:19:58Z"}
