{"icao":"KJFK","metar":"KJFK 301251Z 20005KT 10SM FEW085 BKN130 BKN250 09/06 A3023 RMK AO2 SLP235 T00940061 $","updated":"2026-03-30T13:16:52Z"}
