{"icao":"LPST","metar":"LPST 011300Z 03006KT 330V100 CAVOK 22/06 Q1023","updated":"2026-04-01T13:19:18Z"}
