{"icao":"KORD","metar":"KORD 290551Z 32005KT 10SM BKN100 14/04 A2989 RMK AO2 SLP122 T01390044 10167 20133 401780100 55008 $","updated":"2026-04-29T06:21:59Z"}
