{"icao":"LPMT","metar":"LPMT 041300Z 25010KT 4000 -RADZ BR SCT006 BKN014 15/15 Q0998","updated":"2026-02-04T14:03:48Z"}
