{"icao":"LPAZ","metar":"LPAZ 121300Z 33009KT 290V360 9999 FEW030 17/10 Q1034","updated":"2025-12-12T13:33:32Z"}
