{"icao":"LPPR","metar":"LPPR 271400Z 10009G19KT 080V140 CAVOK 13/02 Q1011","updated":"2025-12-27T14:17:17Z"}
