{"icao":"LPFL","metar":"LPFL 061330Z 25013G24KT 200V350 8000 -SHRA FEW010 BKN014 FEW021CB 16/13 Q1006 RESHRA","updated":"2026-02-06T14:03:16Z"}
