{"icao":"LPPS","metar":"LPPS 231700Z 08010KT 040V130 9999 SCT015 19/13 Q1025","updated":"2025-11-23T17:15:00Z"}
