{"icao":"KJFK","metar":"KJFK 200151Z 34008KT 10SM CLR 24/12 A3005 RMK AO2 SLP175 T02440122 $","updated":"2025-09-20T02:52:52Z"}
