{"icao":"LPPD","metar":"LPPD 151330Z 25009KT 9999 FEW025 BKN045 17/08 Q1024","updated":"2026-04-15T13:52:58Z"}
