{"icao":"LPAZ","metar":"LPAZ 020830Z 30024KT 9999 FEW028 SCT034 13/08 Q1015","updated":"2026-02-02T08:41:00Z"}
