{"icao":"KJFK","metar":"KJFK 020851Z 04009KT 10SM FEW250 M05/M16 A3057 RMK AO2 SLP352 T10501161 51019 VISNO W $","updated":"2026-03-02T09:48:31Z"}
