{"icao":"LPMA","metar":"LPMA 192200Z 21034KT 9999 SCT014 16/09 Q0992","updated":"2026-03-19T22:27:42Z"}
