{"icao":"LPHR","metar":"LPHR 302300Z 27014KT 3000 RA BR SCT003 BKN006 BKN011 17/16 Q1015","updated":"2026-01-30T23:24:01Z"}
