{"icao":"LPBJ","metar":"LPBJ 181500Z 14004KT 070V190 CAVOK 28/10 Q1016","updated":"2025-10-18T15:15:27Z"}
