{"icao":"KJFK","metar":"KJFK 191751Z 24015KT 10SM FEW036 FEW090 M01/M06 A2995 RMK AO2 SLP140 4/001 T10111061 11011 21050 58013 $","updated":"2026-01-19T18:30:51Z"}
