{"icao":"LPPT","metar":"LPPT 172200Z 33008KT CAVOK 14/12 Q1018","updated":"2025-11-17T22:17:33Z"}
