{"icao":"LPBJ","metar":"LPBJ 082100Z VRB01KT 9999 FEW040 11/06 Q1019","updated":"2026-04-08T21:39:31Z"}
