{"icao":"LPPR","metar":"LPPR 051400Z 21016G26KT 180V270 9999 FEW016 SCT024CB 16/11 Q1004","updated":"2025-11-05T14:19:01Z"}
