{"icao":"LPPS","metar":"LPPS 271830Z 02014KT 350V050 9999 BKN015 16/14 Q1026","updated":"2026-02-27T18:41:24Z"}
