{"icao":"LPMA","metar":"LPMA 221100Z 12004KT 090V150 9999 SCT013 20/16 Q1020","updated":"2026-01-22T11:22:08Z"}
