{"icao":"LPPS","metar":"LPPS 251100Z 27015KT 9999 FEW015 17/11 Q1027","updated":"2026-01-25T11:16:58Z"}
