{"icao":"LPPR","metar":"LPPR 100330Z 09009KT CAVOK 20/09 Q1021","updated":"2025-10-10T03:35:46Z"}
