{"icao":"LPPD","metar":"LPPD 301300Z 20008KT 0200 R30/0550U FG VV001 18/18 Q1026","updated":"2026-05-30T13:26:16Z"}
