{"icao":"LPBJ","metar":"LPBJ 070400Z 07002KT 070V240 CAVOK 17/15 Q1021","updated":"2025-10-07T04:21:29Z"}
