{"icao":"LPMT","metar":"LPMT 041900Z 33003KT CAVOK 19/10 Q1020","updated":"2026-04-04T19:30:07Z"}
