{"icao":"KJFK","metar":"KJFK 190851Z 00000KT 10SM -RA BKN048 OVC055 06/M01 A3016 RMK AO2 RAB09 SLP212 P0000 60000 T00561006 58003 $","updated":"2025-11-19T09:21:03Z"}
