{"icao":"LPPR","metar":"LPPR 231230Z 28003KT 240V350 9999 FEW020 BKN025 18/12 Q1020","updated":"2025-10-23T12:38:53Z"}
