{"icao":"LPPR","metar":"LPPR 252300Z 13003KT 110V170 CAVOK 05/01 Q1013","updated":"2025-12-25T23:18:28Z"}
