{"icao":"LPOV","metar":"LPOV 202300Z 19013KT 160V220 1500 +RADZ BR OVC002 18/18 Q1011 RERADZ","updated":"2025-10-20T23:15:56Z"}
