{"icao":"LPPS","metar":"LPPS 080230Z 04007KT 010V080 9999 SCT014 21/18 Q1025","updated":"2025-10-08T02:56:17Z"}
