{"icao":"LPMR","metar":"LPMR 310700Z 32002KT 8000 OVC012 16/16 Q1021","updated":"2026-05-31T07:44:14Z"}
