{"icao":"LPAZ","metar":"LPAZ 312100Z 22015KT 5000 -DZ BR FEW004 BKN007 17/17 Q1018","updated":"2026-01-31T21:19:54Z"}
