{"icao":"LPPR","metar":"LPPR 120930Z 03007KT 350V060 9999 FEW025 SCT032 12/06 Q1021","updated":"2026-04-12T09:43:17Z"}
