{"icao":"LPAZ","metar":"LPAZ 281500Z 14008KT 080V180 9999 FEW026 24/14 Q1028","updated":"2025-09-28T15:14:13Z"}
