{"icao":"LPFR","metar":"LPFR 112100Z 01005KT CAVOK 11/09 Q1026","updated":"2026-01-11T21:17:32Z"}
