{"icao":"LPOV","metar":"LPOV 140400Z VRB01KT 2000 BR BKN002 13/13 Q1016","updated":"2025-10-14T04:21:08Z"}
