{"icao":"LPHR","metar":"LPHR 190900Z 01008KT 9999 FEW025 12/07 Q1031","updated":"2026-01-19T09:32:56Z"}
