{"icao":"LPMT","metar":"LPMT 052200Z 10001KT CAVOK 15/13 Q1018","updated":"2025-10-05T22:15:05Z"}
