{"icao":"LPPT","metar":"LPPT 120200Z 27007KT 9999 FEW014 BKN028 14/13 Q1020","updated":"2026-02-12T02:05:36Z"}
