{"icao":"LPHR","metar":"LPHR 271330Z 18006KT 9999 SCT020 17/11 Q1036","updated":"2026-02-27T14:01:22Z"}
