{"icao":"KORD","metar":"KORD 161851Z 21009G18KT 10SM FEW250 03/M04 A2982 RMK AO2 PRESFR SLP107 T00281039","updated":"2025-12-16T19:18:18Z"}
