{"icao":"LPBJ","metar":"LPBJ 061500Z 26012KT 230V300 9999 SCT018CB BKN025 13/08 Q1007 WS ALL RWY","updated":"2026-02-06T15:38:22Z"}
