{"icao":"LPST","metar":"LPST 301700Z 20004KT 160V230 9999 FEW008 SCT035 17/15 Q1013","updated":"2025-10-31T01:22:30Z"}
