{"icao":"LPLA","metar":"LPLA 102200Z 28004KT 240V300 9999 FEW015 SCT028 20/18 Q1022","updated":"2025-10-10T22:15:23Z"}
