{"icao":"KJFK","metar":"KJFK 051351Z 36010KT 10SM FEW250 M06/M11 A3013 RMK AO2 SLP203 T10561111 PNO $","updated":"2026-02-05T14:08:23Z"}
