{"icao":"LPAZ","metar":"LPAZ 211700Z 09007KT 060V130 9999 FEW019 SCT025 17/13 Q1030","updated":"2025-11-21T17:16:13Z"}
