{"icao":"LPPT","metar":"LPPT 290300Z 32010KT 290V350 CAVOK 17/14 Q1019","updated":"2026-05-29T03:28:50Z"}
