{"icao":"LPBJ","metar":"LPBJ 080100Z 30005KT CAVOK 15/13 Q1022","updated":"2025-10-08T01:17:55Z"}
