{"icao":"LPMR","metar":"LPMR 182200Z VRB02KT CAVOK 05/05 Q1018","updated":"2026-01-18T22:18:24Z"}
