{"icao":"LPMR","metar":"LPMR 202300Z 20002KT 9000 NSC 15/15 Q1021","updated":"2026-05-20T23:11:46Z"}
