{"icao":"KJFK","metar":"KJFK 280151Z 36005KT 10SM FEW050 FEW120 FEW250 06/M08 A3017 RMK AO2 SLP215 T00561083","updated":"2026-03-28T02:04:00Z"}
