{"icao":"LPPS","metar":"LPPS 230100Z 01011KT 9999 FEW015 SCT030 20/12 Q1021","updated":"2025-09-23T01:17:31Z"}
