{"icao":"LPMA","metar":"LPMA 021000Z 05011KT 4000 +DZ BR SCT013 SCT030 18/15 Q1024","updated":"2025-12-02T10:22:03Z"}
