{"icao":"LPHR","metar":"LPHR 030900Z 33007KT 290V020 9999 SCT012 SCT025 15/11 Q1012","updated":"2026-01-03T09:19:17Z"}
