{"icao":"KJFK","metar":"KJFK 121251Z 29017G24KT 10SM FEW060 FEW250 M03/M14 A3003 RMK AO2 PK WND 29026/1234 SLP169 T10331139 $","updated":"2025-12-12T13:33:46Z"}
