{"icao":"KLAX","metar":"KLAX 161653Z 25010KT 10SM FEW026 SCT032 19/13 A2993 RMK AO2 SLP135 T01890133","updated":"2026-05-16T17:02:17Z"}
