{"icao":"LPPR","metar":"LPPR 191600Z 27004KT 240V320 9999 FEW012 11/08 Q1021","updated":"2026-01-19T16:27:51Z"}
