{"icao":"LPOV","metar":"LPOV 200900Z 28004KT 230V320 1200 -DZ BR BKN006 18/17 Q1021","updated":"2025-09-20T09:16:05Z"}
