{"icao":"KORD","metar":"KORD 282151Z 31009KT 10SM FEW033 BKN250 17/07 A2990 RMK AO2 SLP125 T01720072 $","updated":"2026-04-28T21:57:13Z"}
