{"icao":"LPLA","metar":"LPLA 060400Z 29016KT 9999 BKN040 11/06 Q1011","updated":"2026-02-06T04:20:46Z"}
