{"icao":"LPFL","metar":"LPFL 071100Z 18009KT 140V230 9999 SCT030 19/12 Q1019","updated":"2025-11-07T11:15:10Z"}
