{"icao":"LPFL","metar":"LPFL 031430Z 10007KT 030V200 9999 FEW018 BKN035 17/12 Q1024","updated":"2026-05-03T14:47:33Z"}
