{"icao":"LPPD","metar":"LPPD 091700Z 01010KT 340V040 9999 SCT016 BKN030 16/13 Q1032","updated":"2026-04-09T17:06:06Z"}
