{"icao":"LPLA","metar":"LPLA 231500Z 23025G34KT 9999 FEW010 SCT040 17/14 Q1005","updated":"2026-02-23T15:44:01Z"}
