{"icao":"LPFR","metar":"LPFR 180600Z 35004KT CAVOK 13/10 Q1017","updated":"2025-11-18T06:28:04Z"}
