{"icao":"LPHR","metar":"LPHR 192200Z 05009KT 9999 FEW025 16/12 Q1028","updated":"2025-11-19T22:17:53Z"}
