{"icao":"LPCS","metar":"LPCS 242000Z 32005KT CAVOK 15/10 Q1021","updated":"2026-03-25T06:00:06Z"}
