{"icao":"KJFK","metar":"KJFK 250551Z 11007KT 10SM BKN008 OVC015 22/21 A3002 RMK AO2 RAE49 SLP166 P0000 60007 T02170206 10217 20217 58008 $","updated":"2025-09-25T06:27:32Z"}
