{"icao":"LPCS","metar":"LPCS 231800Z 27004KT 230V310 9999 FEW018 BKN030 15/12 Q1025","updated":"2025-11-23T18:24:56Z"}
