{"icao":"LPPD","metar":"LPPD 151800Z 02011KT 340V060 9999 FEW025 16/07 Q1031","updated":"2026-05-15T18:21:37Z"}
