{"icao":"KJFK","metar":"KJFK 040651Z 28010KT 3SM -RA BR SCT008 OVC020 03/03 A3022 RMK AO2 SFC VIS 5 RAB04 SLP233 P0001 T00330028","updated":"2026-03-04T07:36:36Z"}
