{"icao":"LPFL","metar":"LPFL 051100Z 17008KT 150V210 9999 SCT019 SCT038 18/11 Q1014","updated":"2025-11-05T11:16:18Z"}
