{"icao":"LPST","metar":"LPST 170900Z 32003KT 290V360 CAVOK 14/11 Q1019","updated":"2026-04-17T10:54:12Z"}
