{"icao":"KORD","metar":"KORD 172307Z 24010G21KT 4SM -SN SCT025 BKN030 OVC055 M09/M14 A3005 RMK AO2 P0000 T10891139 $","updated":"2026-01-17T23:18:12Z"}
