{"icao":"KORD","metar":"KORD 111551Z 31010KT 10SM OVC029 M02/M07 A3030 RMK AO2 SNE21 SLP269 P0000 T10171072 $","updated":"2026-01-11T16:23:40Z"}
