{"icao":"LPFL","metar":"LPFL 202000Z 14004KT 110V170 9999 FEW016 BKN034 18/12 Q1032","updated":"2025-11-20T20:21:24Z"}
