{"icao":"LPPD","metar":"LPPD 221400Z 16007KT 120V190 9999 FEW018 BKN030 21/15 Q1024","updated":"2025-09-22T14:18:34Z"}
