{"icao":"LPFL","metar":"LPFL 061100Z 27013G24KT 190V330 9999 FEW015 17/11 Q1005","updated":"2026-02-06T11:32:30Z"}
