{"icao":"LPPD","metar":"LPPD 050530Z 29023G33KT 9999 -SHRA FEW016 FEW020CB SCT030 12/09 Q1000","updated":"2026-02-05T05:54:18Z"}
