{"icao":"LPMT","metar":"LPMT 041100Z 03010KT 9999 FEW035 14/11 Q1003","updated":"2026-01-04T11:15:53Z"}
