{"icao":"LPMA","metar":"LPMA 052100Z 02021KT 9999 SCT016 15/05 Q1027","updated":"2026-03-05T21:33:11Z"}
