{"icao":"KJFK","metar":"KJFK 141951Z 22012KT 10SM FEW035 BKN080 BKN095 18/08 A2971 RMK AO2 SLP061 T01780083","updated":"2026-05-14T20:40:22Z"}
