{"icao":"LPPR","metar":"LPPR 302100Z 00000KT 7000 NSC 06/06 Q1021","updated":"2025-12-30T21:18:37Z"}
