{"icao":"KJFK","metar":"KJFK 051951Z 06009KT 2SM -RA BR OVC006 06/05 A3022 RMK AO2 SFC VIS 3 RAB42 SLP234 P0001 T00560050","updated":"2026-03-05T20:35:56Z"}
