{"icao":"LPPS","metar":"LPPS 011530Z 30007KT 250V340 9999 FEW015 20/09 Q1018","updated":"2026-05-01T15:56:15Z"}
