{"icao":"LPMT","metar":"LPMT 020300Z 25019G31KT 210V270 5000 RADZ BR BKN008 SCT012 BKN020 11/11 Q0997","updated":"2026-02-02T04:55:52Z"}
