{"icao":"LPFR","metar":"LPFR 280930Z 10004KT 060V150 CAVOK 18/11 Q1020","updated":"2026-03-28T09:35:50Z"}
