{"icao":"LPFR","metar":"LPFR 042200Z 35006KT 300V010 CAVOK 23/15 Q1020","updated":"2025-10-04T22:14:24Z"}
