{"icao":"KJFK","metar":"KJFK 160951Z 24008KT 10SM SCT070 BKN090 OVC100 11/08 A2921 RMK AO2 SLP890 T01060083 $","updated":"2025-11-16T10:17:36Z"}
