{"icao":"LPAZ","metar":"LPAZ 301200Z 23006KT 9999 FEW019 FEW025TCU BKN049 15/12 Q1009 RESHRA","updated":"2026-04-30T12:14:15Z"}
