{"icao":"KJFK","metar":"KJFK 092051Z 17011KT 10SM FEW012 SCT030 OVC065 08/06 A3013 RMK AO2 SLP203 T00780061 56023 $","updated":"2026-01-09T21:20:28Z"}
