{"icao":"LPHR","metar":"LPHR 272000Z 12020KT 9000 -RA SCT007 BKN025 15/13 Q1016","updated":"2025-12-27T20:20:47Z"}
