{"icao":"KORD","metar":"KORD 051551Z 30012KT 10SM FEW050 SCT160 SCT240 14/07 A2990 RMK AO2 SLP125 T01440072","updated":"2025-11-05T16:24:26Z"}
