{"icao":"LPPT","metar":"LPPT 021700Z 34007KT CAVOK 18/11 Q1025","updated":"2025-11-02T17:14:05Z"}
