{"icao":"LPLA","metar":"LPLA 211400Z 28018KT 9999 FEW006 SCT015 19/17 Q1019","updated":"2026-01-21T14:29:48Z"}
