{"icao":"LPMT","metar":"LPMT 301900Z 34011KT CAVOK 26/17 Q1019","updated":"2026-06-30T19:54:05Z"}
