{"icao":"KLAX","metar":"KLAX 240653Z 10008KT 10SM OVC065 17/11 A2996 RMK AO2 SLP145 T01720111 $","updated":"2025-12-24T07:22:46Z"}
