{"icao":"LPPD","metar":"LPPD 011830Z 03010KT 350V060 9999 -SHRA BKN011 14/12 Q1030","updated":"2026-04-01T19:00:03Z"}
