{"icao":"LPMR","metar":"LPMR 161600Z 36024G35KT 9999 FEW015 SCT022 13/07 Q1013","updated":"2025-12-16T17:22:21Z"}
