{"icao":"LPHR","metar":"LPHR 301500Z 26009KT 9999 FEW007 24/22 Q1019","updated":"2025-09-30T15:16:43Z"}
