{"icao":"LPPR","metar":"LPPR 112000Z 36005KT CAVOK 20/11 Q1019","updated":"2025-10-11T20:16:47Z"}
