{"icao":"LPPD","metar":"LPPD 021100Z 32013G23KT 290V030 9999 SCT020 FEW022TCU 14/08 Q1005 WS ALL RWY","updated":"2026-01-02T11:17:29Z"}
