{"icao":"LPPR","metar":"LPPR 090430Z 22006KT 180V240 4500 BR SCT003 BKN030 14/13 Q1009","updated":"2026-02-09T04:58:31Z"}
