{"icao":"LPPR","metar":"LPPR 071500Z 24005KT 180V280 9999 FEW008 BKN012 19/16 Q1022","updated":"2025-10-07T15:19:06Z"}
