{"icao":"LPPR","metar":"LPPR 010200Z 10010KT 070V130 CAVOK 17/05 Q1025","updated":"2026-04-01T02:30:15Z"}
