{"icao":"LPPS","metar":"LPPS 061300Z 35005KT 300V030 9999 FEW015 BKN030 19/10 Q1024","updated":"2025-12-06T13:25:44Z"}
