{"icao":"LPMA","metar":"LPMA 092330Z VRB01KT 9999 FEW015 15/11 Q1015","updated":"2026-05-09T23:46:09Z"}
