{"icao":"LPOV","metar":"LPOV 140700Z 16004KT 6000 BKN007 BKN012 13/13 Q1022","updated":"2026-04-14T07:43:18Z"}
