{"icao":"LPPT","metar":"LPPT 130700Z 18010KT 7000 -TSRA SCT004 SCT016CB 16/16 Q1000 RESHRA","updated":"2025-11-13T07:18:08Z"}
