{"icao":"LPHR","metar":"LPHR 161900Z 32005KT 290V350 9999 FEW016 BKN030 15/10 Q1034","updated":"2026-01-16T19:19:38Z"}
