{"icao":"LPAZ","metar":"LPAZ 041500Z 02012KT 9999 VCSH FEW015 BKN028 16/11 Q1020","updated":"2026-01-04T15:18:06Z"}
