{"icao":"LPFR","metar":"LPFR 252030Z 28004KT CAVOK 15/14 Q1015","updated":"2026-03-25T20:37:28Z"}
