{"icao":"LPAR","metar":"LPAR 260900Z 33004KT 300V360 CAVOK 13/12 Q1025","updated":"2026-02-26T09:49:08Z"}
