{"icao":"KORD","metar":"KORD 180451Z 16006KT 9SM OVC250 01/M01 A2979 RMK AO2 SLP093 T00111011","updated":"2025-12-18T05:21:13Z"}
