{"icao":"KORD","metar":"KORD 241451Z 10009KT 10SM FEW012 OVC250 03/01 A3030 RMK AO2 SLP268 T00330006 51004","updated":"2025-12-24T15:20:27Z"}
