{"icao":"LPFL","metar":"LPFL 291000Z 30003KT 250V010 9999 VCSH BKN016 18/14 Q1030","updated":"2025-11-29T10:18:32Z"}
