{"icao":"KORD","metar":"KORD 150951Z 21012G19KT 10SM OVC250 16/12 A2962 RMK AO2 SLP027 T01560122 $","updated":"2025-11-15T10:17:20Z"}
