{"icao":"LPPT","metar":"LPPT 050900Z 23018KT 9999 VCSH FEW008 SCT012 FEW025CB 18/17 Q1007 RETS RESHRA WS R20","updated":"2025-11-05T09:20:34Z"}
