{"icao":"KORD","metar":"KORD 032051Z 07010KT 10SM SCT031 BKN042 OVC250 09/04 A3009 RMK AO2 SLP191 T00940039 53006","updated":"2026-04-03T21:33:00Z"}
