{"icao":"LPPT","metar":"LPPT 240130Z 21007KT 9999 FEW010 BKN012 13/12 Q1021","updated":"2026-02-24T02:00:30Z"}
