{"icao":"LPBJ","metar":"LPBJ 240600Z 21003KT 7000 VCFG OVC003 18/17 Q1019","updated":"2025-10-24T06:26:08Z"}
