{"icao":"LPPR","metar":"LPPR 021430Z 32010KT CAVOK 18/11 Q1022","updated":"2026-04-02T14:54:11Z"}
