{"icao":"LPHR","metar":"LPHR 091230Z 31010KT 280V340 9999 FEW018 16/06 Q1021","updated":"2025-12-09T12:41:31Z"}
