{"icao":"LPBJ","metar":"LPBJ 012000Z 01001KT CAVOK 24/11 Q1019","updated":"2025-10-01T20:19:47Z"}
