{"icao":"KJFK","metar":"KJFK 231551Z 08008KT 10SM -RA SCT060 BKN075 OVC110 14/03 A3047 RMK AO2 SLP318 P0000 T01440033","updated":"2026-05-23T16:07:20Z"}
