{"icao":"LPMA","metar":"LPMA 060700Z 32006KT 270V350 9999 FEW016 SCT033 20/12 Q1020","updated":"2025-11-06T07:18:25Z"}
