{"icao":"LPPD","metar":"LPPD 171600Z 31016KT 270V330 9999 FEW020 BKN030 16/11 Q1028","updated":"2026-01-17T16:21:50Z"}
