{"icao":"LPBJ","metar":"LPBJ 070900Z VRB01KT CAVOK 22/16 Q1023","updated":"2025-10-07T09:19:01Z"}
