{"icao":"LPST","metar":"LPST 191700Z 12011KT 9999 -RA FEW008 BKN040 13/11 Q1005","updated":"2026-03-19T17:52:53Z"}
