{"icao":"LPMT","metar":"LPMT 162300Z 16006KT 9999 FEW022 14/13 Q1011","updated":"2025-11-16T23:16:07Z"}
