{"icao":"LPMA","metar":"LPMA 100500Z 36014KT 320V020 9999 -SHRA BKN015 FEW016TCU 16/11 Q1016","updated":"2026-04-10T05:24:10Z"}
