{"icao":"LPCS","metar":"LPCS 201700Z 09008KT 060V130 9999 1500NW -SHRA FEW012 FEW020TCU BKN025 14/13 Q1006","updated":"2026-03-20T17:34:23Z"}
