{"icao":"KORD","metar":"KORD 111351Z 24008G16KT 10SM FEW012 SCT250 22/19 A2977 RMK AO2 SLP078 T02220189","updated":"2026-06-11T14:34:17Z"}
