{"icao":"LPSJ","metar":"LPSJ 152130Z 27008KT 230V300 9999 FEW016 SCT045 21/17 Q1018","updated":"2026-06-15T21:40:56Z"}
