{"icao":"KLAX","metar":"KLAX 091353Z 00000KT 10SM SCT250 13/05 A3006 RMK AO2 SLP176 T01330050 $","updated":"2026-02-09T14:51:28Z"}
