{"icao":"LPST","metar":"LPST 281100Z 29015KT 9999 FEW018 14/10 Q1004","updated":"2026-01-28T11:21:56Z"}
