{"icao":"LPBJ","metar":"LPBJ 030200Z 29002KT CAVOK 17/12 Q1022","updated":"2025-10-03T02:55:14Z"}
