{"icao":"LPMT","metar":"LPMT 310800Z 19011KT 160V230 7000 FEW020 20/17 Q1012","updated":"2025-10-31T08:23:34Z"}
