{"icao":"LPMR","metar":"LPMR 211000Z 24006KT 200V280 3000 -DZ BR BKN005 BKN015 20/20 Q1014","updated":"2025-10-21T10:19:11Z"}
