{"icao":"LPPT","metar":"LPPT 282100Z 30014KT CAVOK 19/15 Q1020","updated":"2026-05-28T21:06:53Z"}
