{"icao":"LPFR","metar":"LPFR 141800Z 27006KT CAVOK 22/19 Q1016","updated":"2025-10-14T18:26:14Z"}
