{"icao":"LPFL","metar":"LPFL 240900Z 20014G29KT 160V230 2000 -DZRA BKN008 15/13 Q1016","updated":"2026-01-24T09:19:39Z"}
