{"icao":"LPMA","metar":"LPMA 271700Z 16004KT 110V190 9999 FEW014 19/12 Q1016","updated":"2026-01-27T17:26:33Z"}
