{"icao":"LPFL","metar":"LPFL 080900Z 35027G39KT 4000 -DZRA BR SCT005 BKN011 13/13 Q0990 RERA","updated":"2025-12-08T09:27:13Z"}
