{"icao":"KORD","metar":"KORD 140851Z 34004KT 8SM FEW019 SCT050 SCT250 14/13 A3023 RMK AO2 SLP234 T01440133 52008 $","updated":"2025-10-14T09:20:23Z"}
