{"icao":"KORD","metar":"KORD 272051Z 19013G18KT 10SM BKN090 17/M03 A2974 RMK AO2 SLP073 T01671033 56031","updated":"2026-02-27T21:27:59Z"}
