{"icao":"KJFK","metar":"KJFK 231151Z 21008KT 10SM FEW013 BKN034 BKN250 20/17 A3003 RMK AO2 SLP168 T02000167 10200 20183 51003 $","updated":"2025-09-23T12:36:13Z"}
