{"icao":"LPLA","metar":"LPLA 210700Z 19005KT 160V220 9999 FEW015 SCT023 22/18 Q1012","updated":"2025-10-21T07:18:32Z"}
