{"icao":"LPAZ","metar":"LPAZ 011100Z 05009KT 010V080 9999 BKN045 18/09 Q1019","updated":"2025-11-01T11:13:12Z"}
