{"icao":"KORD","metar":"KORD 262051Z 22006G14KT 10SM FEW030 SCT050 BKN070 BKN250 04/M07 A2986 RMK AO2 SLP119 T00441072 56010","updated":"2026-02-26T21:31:34Z"}
