{"icao":"LPPD","metar":"LPPD 030500Z 34012KT 310V010 9999 FEW018 14/11 Q1007","updated":"2026-01-03T05:20:44Z"}
