{"icao":"LPFR","metar":"LPFR 110930Z 07007G19KT 340V120 CAVOK 14/06 Q1025","updated":"2026-03-11T09:40:48Z"}
