{"icao":"LPMA","metar":"LPMA 021730Z 21008KT 180V240 9999 SCT015 SCT030 19/15 Q1019","updated":"2026-05-02T17:41:39Z"}
