{"icao":"LPOV","metar":"LPOV 261400Z 02014KT CAVOK 20/02 Q1018","updated":"2026-03-26T15:02:26Z"}
