{"icao":"KLAX","metar":"KLAX 101253Z 27003KT 10SM SCT009 OVC011 14/12 A3001 RMK AO2 SLP160 T01440117 $","updated":"2026-03-10T12:58:36Z"}
