{"icao":"KORD","metar":"KORD 182251Z 24012KT 10SM FEW030 BKN110 BKN250 03/01 A2941 RMK AO2 SLP961 T00330011","updated":"2025-12-18T23:19:17Z"}
