{"icao":"LPCS","metar":"LPCS 050800Z 02012KT CAVOK 07/01 Q1012","updated":"2026-01-05T08:31:45Z"}
