{"icao":"LPPR","metar":"LPPR 121130Z 21010KT 8000 FEW017 SCT022 14/10 Q1018","updated":"2026-02-12T11:38:15Z"}
