{"icao":"LPMT","metar":"LPMT 061200Z 33005KT CAVOK 24/15 Q1020","updated":"2025-10-06T12:37:34Z"}
