{"icao":"KJFK","metar":"KJFK 020351Z 36008KT 10SM BKN250 09/01 A3014 RMK AO2 SLP206 T00890011 $","updated":"2025-11-02T04:21:55Z"}
