{"icao":"KJFK","metar":"KJFK 250851Z 32010KT 10SM FEW065 FEW250 09/03 A3029 RMK AO2 SLP255 T00940033 53010","updated":"2025-10-25T09:16:09Z"}
