{"icao":"LPMA","metar":"LPMA 100400Z 02017KT 350V050 9999 SCT015 SCT030 14/05 Q1028","updated":"2026-03-10T04:09:23Z"}
