{"icao":"LPHR","metar":"LPHR 041830Z 28035G48KT 9999 SCT014 SCT030 14/09 Q0993","updated":"2026-02-04T18:49:12Z"}
