{"icao":"LPPD","metar":"LPPD 082130Z 34016KT 310V010 9999 SCT018 FEW020TCU 14/09 Q1015","updated":"2026-05-08T22:03:20Z"}
