{"icao":"LPOV","metar":"LPOV 130800Z 30020G31KT 8000 -TSRA BKN014 FEW020CB BKN040 12/11 Q0999","updated":"2026-02-13T08:40:29Z"}
