{"icao":"LPPS","metar":"LPPS 081000Z 02005KT 360V060 9999 SCT014 15/13 Q1034","updated":"2026-01-08T10:23:16Z"}
