{"icao":"LPAZ","metar":"LPAZ 050230Z 04010KT 010V070 9999 FEW023 BKN049 15/09 Q1024","updated":"2026-05-05T02:37:46Z"}
