{"icao":"KJFK","metar":"KJFK 260851Z 01013KT 10SM SCT250 M05/M13 A3023 RMK AO2 SLP236 T10501133 51012 $","updated":"2025-12-26T09:21:37Z"}
