{"icao":"LPPS","metar":"LPPS 090800Z 04008KT 360V080 9999 FEW015 BKN030 22/17 Q1024","updated":"2025-10-09T08:23:37Z"}
