{"icao":"LPPT","metar":"LPPT 021230Z 13012KT 100V160 9999 VCSH FEW008 BKN020 FEW025TCU 14/13 Q1001","updated":"2026-01-02T12:39:16Z"}
