{"icao":"LPPR","metar":"LPPR 300300Z 35009KT CAVOK 08/05 Q1017","updated":"2025-11-30T03:25:34Z"}
