{"icao":"KORD","metar":"KORD 270651Z 28014G26KT 10SM OVC036 M01/M08 A3010 RMK AO2 PK WND 26029/0603 SLP199 T10111083","updated":"2025-11-27T07:19:57Z"}
