{"icao":"LPOV","metar":"LPOV 140800Z 15005KT 2000 BR OVC002 11/11 Q1017","updated":"2026-01-14T08:29:06Z"}
