{"icao":"LPPR","metar":"LPPR 311230Z 17012KT 4500 RADZ BR FEW008 BKN015 17/17 Q1009","updated":"2025-10-31T12:37:47Z"}
