{"icao":"LPMA","metar":"LPMA 251500Z 21011KT 180V250 9999 SCT015 FEW018CB BKN070 22/20 Q1014","updated":"2025-10-25T15:15:37Z"}
