{"icao":"LPPD","metar":"LPPD 270900Z 01006KT 340V040 9999 FEW023 19/12 Q1024","updated":"2025-09-27T09:15:44Z"}
