{"icao":"KORD","metar":"KORD 172151Z 19015G22KT 10SM FEW120 BKN240 BKN350 23/12 A2977 RMK AO2 SLP078 T02330117","updated":"2025-10-17T22:16:11Z"}
