{"icao":"LPFL","metar":"LPFL 301930Z 36008KT 9999 FEW024 16/11 Q1011","updated":"2026-04-30T23:51:33Z"}
