{"icao":"LPMA","metar":"LPMA 132100Z 01013G24KT 290V050 9999 SCT015 16/07 Q1022","updated":"2026-01-13T21:20:27Z"}
