{"icao":"LPHR","metar":"LPHR 091400Z 29015KT 9999 FEW025 20/14 Q1024","updated":"2025-11-09T14:14:32Z"}
