{"icao":"LPFL","metar":"LPFL 161930Z 02011KT 9999 SCT008 BKN020 14/11 Q1018","updated":"2026-04-16T23:39:01Z"}
