{"icao":"LPPR","metar":"LPPR 070230Z 17003KT CAVOK 16/12 Q1020","updated":"2025-10-07T02:56:09Z"}
