{"icao":"LPPT","metar":"LPPT 041130Z 33012KT 290V360 9999 SCT040 21/10 Q1019","updated":"2026-06-04T11:51:25Z"}
