{"icao":"KJFK","metar":"KJFK 162151Z 35017G26KT 10SM CLR 14/M06 A2990 RMK AO2 PK WND 35028/2103 SLP124 T01441061","updated":"2025-10-16T22:13:38Z"}
