{"icao":"LPFL","metar":"LPFL 211230Z VRB01KT 9999 FEW015 BKN030 15/09 Q1021","updated":"2026-02-21T12:44:19Z"}
