{"icao":"LPST","metar":"LPST 271100Z 36004KT 320V070 CAVOK 15/10 Q1025","updated":"2025-11-27T11:16:47Z"}
