{"icao":"LPPR","metar":"LPPR 101100Z 18010KT 160V220 9999 FEW007 BKN010 BKN040 16/15 Q1018","updated":"2025-11-10T11:16:10Z"}
