{"icao":"LPCS","metar":"LPCS 051230Z 26008KT 210V300 5000 -DZ BR FEW004 SCT007 BKN012 17/17 Q1022","updated":"2025-12-05T12:39:39Z"}
