{"icao":"KJFK","metar":"KJFK 280251Z 20003KT 10SM SCT046 BKN065 BKN150 OVC250 21/18 A3000 RMK SLP157 T02060178 53003 ","updated":"2026-06-28T03:39:39Z"}
