{"icao":"LPPS","metar":"LPPS 151130Z 06011KT 020V090 9999 SCT014 BKN030 16/12 Q1025","updated":"2026-04-15T11:58:10Z"}
