{"icao":"LPHR","metar":"LPHR 022000Z 25003KT 180V300 9999 SCT018 SCT035 14/07 Q1010","updated":"2026-01-02T20:21:23Z"}
