{"icao":"LPMT","metar":"LPMT 011800Z 26005KT CAVOK 15/11 Q1018","updated":"2026-03-01T19:21:06Z"}
