{"icao":"KLAX","metar":"KLAX 191253Z 10005KT 10SM SCT280 16/12 A3000 RMK AO2 SLP156 T01560122 $","updated":"2025-10-19T13:21:44Z"}
