{"icao":"KJFK","metar":"KJFK 020851Z 33004KT 10SM SCT250 07/01 A3022 RMK AO2 SLP233 T00720011 53015 $","updated":"2025-11-02T09:16:16Z"}
