{"icao":"LPFR","metar":"LPFR 180230Z 09005KT CAVOK 23/20 Q1019","updated":"2025-09-18T02:56:02Z"}
