{"icao":"KLAX","metar":"KLAX 181853Z 27009KT 10SM FEW010 BKN025 BKN031 20/14 A2999 RMK AO2 SLP154 T02000139 $","updated":"2026-06-18T19:27:15Z"}
