{"icao":"LPPT","metar":"LPPT 242100Z 20011KT 9999 FEW010 SCT016 BKN025 14/13 Q1016","updated":"2026-02-24T21:33:14Z"}
