{"icao":"LPPR","metar":"LPPR 051930Z 21004KT 180V240 CAVOK 16/11 Q1018","updated":"2026-06-05T19:52:17Z"}
