{"icao":"LPMR","metar":"LPMR 261800Z 21017G28KT 180V240 9999 SCT012 16/11 Q1006","updated":"2026-01-26T18:34:17Z"}
