{"icao":"LPMT","metar":"LPMT 141700Z 26008KT CAVOK 25/14 Q1015","updated":"2025-10-14T17:15:18Z"}
