{"icao":"KORD","metar":"KORD 080751Z 36005KT 10SM -SN OVC033 M08/M12 A3032 RMK AO2 SNB21 SLP280 P0000 T10831122","updated":"2025-12-08T08:29:55Z"}
