{"icao":"LPMA","metar":"LPMA 180500Z 35009KT 9999 SCT015 18/14 Q1022 RERA","updated":"2025-11-18T05:18:52Z"}
