{"icao":"LPCS","metar":"LPCS 211730Z 01007KT CAVOK 28/15 Q1020","updated":"2026-05-21T17:56:38Z"}
