{"icao":"LPMR","metar":"LPMR 311100Z 03008KT 350V080 CAVOK 21/07 Q1027","updated":"2026-03-31T11:48:29Z"}
