{"icao":"LPLA","metar":"LPLA 272000Z 35012KT 9999 FEW016 BKN023 16/11 Q1025","updated":"2025-11-27T20:18:25Z"}
