{"icao":"LPBJ","metar":"LPBJ 171300Z 29006KT 250V320 9999 BKN025 11/05 Q1012","updated":"2026-01-17T13:27:48Z"}
