{"icao":"KJFK","metar":"KJFK 070751Z 27007KT 10SM FEW250 01/M04 A3007 RMK AO2 SLP182 T00111039 $","updated":"2025-12-07T08:22:48Z"}
