{"icao":"LPMA","metar":"LPMA 221600Z 02008KT 360V060 8000 -DZ FEW007 BKN012 FEW018CB 17/15 Q1004","updated":"2026-03-22T16:29:26Z"}
