{"icao":"LPMA","metar":"LPMA 140200Z 02009G19KT 340V060 9999 SCT016 15/07 Q1025","updated":"2026-04-14T02:28:39Z"}
