{"icao":"KJFK","metar":"KJFK 291551Z 31009KT 10SM FEW040 FEW250 M08/M17 A3012 RMK SLP199 T10831167 $ ","updated":"2026-01-29T16:42:04Z"}
