{"icao":"KORD","metar":"KORD 190551Z 27017G28KT 10SM -SN SCT024 OVC029 M08/M14 A2952 RMK AO2 PK WND 27033/0520 SLP002 P0000 60000 T10831144 10028 21083 401061083 52022","updated":"2025-12-19T06:30:37Z"}
