{"icao":"LPOV","metar":"LPOV 222300Z 35008KT CAVOK 14/07 Q1019","updated":"2025-09-22T23:15:28Z"}
