{"icao":"LPPD","metar":"LPPD 102300Z 35012KT 9999 SCT016 15/11 Q1031","updated":"2026-04-10T23:33:27Z"}
