{"icao":"LPOV","metar":"LPOV 231100Z 03001KT 120V200 CAVOK 19/10 Q1024","updated":"2026-02-23T11:38:38Z"}
