{"icao":"LPOV","metar":"LPOV 271600Z 34016KT CAVOK 17/07 Q1018","updated":"2026-03-27T19:40:21Z"}
