{"icao":"KORD","metar":"KORD 031051Z 22013G21KT 10SM BKN130 BKN250 08/M01 A2992 RMK AO2 SLP135 T00831011","updated":"2026-05-03T11:40:47Z"}
