{"icao":"LPAZ","metar":"LPAZ 051730Z 30014KT 9999 SCT009 21/17 Q1025","updated":"2026-06-05T17:52:54Z"}
