{"icao":"LPMA","metar":"LPMA 011900Z 34010KT 320V030 9999 FEW018 SCT033 15/08 Q1021","updated":"2026-03-01T19:21:09Z"}
