{"icao":"KJFK","metar":"KJFK 200051Z 16014G23KT 10SM FEW016 SCT180 BKN250 18/16 A2987 RMK AO2 SLP113 T01830156 $","updated":"2025-10-20T01:25:58Z"}
