{"icao":"KORD","metar":"KORD 101051Z 35005KT 10SM FEW250 04/M01 A3001 RMK AO2 SLP163 T00441006","updated":"2026-05-10T11:50:22Z"}
