{"icao":"LPFL","metar":"LPFL 192100Z 18010KT 9000 -DZ SCT007 SCT012 16/14 Q1028","updated":"2026-01-20T03:42:41Z"}
