{"icao":"LPMA","metar":"LPMA 200930Z 21018KT 9999 SCT014 17/12 Q0994","updated":"2026-03-20T09:39:29Z"}
