{"icao":"LPPD","metar":"LPPD 101130Z 28014KT 9999 FEW018 SCT035 16/14 Q1030","updated":"2026-04-10T11:47:28Z"}
