{"icao":"KORD","metar":"KORD 151451Z 24016G23KT 10SM FEW017 SCT190 BKN250 17/13 A2953 RMK AO2 SLP997 T01670133 58009 $","updated":"2025-11-15T15:17:13Z"}
