{"icao":"LPMA","metar":"LPMA 281500Z 02017G27KT 330V040 9999 BKN015 16/08 Q1026","updated":"2026-02-28T15:20:33Z"}
