{"icao":"LPPR","metar":"LPPR 271230Z 14004KT 070V200 CAVOK 21/08 Q1022","updated":"2025-10-27T12:39:14Z"}
