{"icao":"KORD","metar":"KORD 131351Z 26004KT 10SM SCT250 03/M02 A3018 RMK AO2 SLP222 T00331022","updated":"2025-11-13T14:19:13Z"}
