{"icao":"LPMA","metar":"LPMA 201000Z 17004KT 100V210 9999 SCT016 SCT033 23/19 Q1019","updated":"2025-10-20T10:20:22Z"}
