{"icao":"KORD","metar":"KORD 120051Z 05009KT 10SM BKN033 16/09 A3009 RMK AO2 SLP190 T01560094","updated":"2025-10-12T01:22:04Z"}
