{"icao":"KORD","metar":"KORD 090451Z 14005KT 10SM FEW016 SCT036 BKN070 BKN140 OVC250 22/21 A2994 RMK AO2 RAB00E31 SLP134 VCSH SE P0000 T02220206","updated":"2026-06-09T05:04:17Z"}
