{"icao":"LPMA","metar":"LPMA 211000Z 28005KT 230V340 9999 SCT015 SCT030 17/11 Q1021","updated":"2025-12-21T10:19:05Z"}
