{"icao":"LPFR","metar":"LPFR 020830Z 08010KT 9999 FEW012 BKN018 14/10 Q1012","updated":"2026-03-02T08:42:36Z"}
