{"icao":"LPBJ","metar":"LPBJ 091700Z 26012KT 4000 -RADZ BR OVC004 15/15 Q1014","updated":"2026-02-09T17:52:47Z"}
