{"icao":"LPPD","metar":"LPPD 292200Z 33008KT 9999 FEW016 SCT030 17/15 Q1029","updated":"2025-11-29T22:17:08Z"}
