{"icao":"KLAX","metar":"KLAX 112153Z 26012KT 10SM FEW010 19/13 A3022 RMK AO2 SLP233 T01890133 $","updated":"2026-03-11T22:25:14Z"}
