{"icao":"LPOV","metar":"LPOV 132300Z 24002KT 200V270 9999 BKN018 19/17 Q1024","updated":"2025-09-14T05:15:32Z"}
