{"icao":"LPFL","metar":"LPFL 211300Z 14007KT 110V180 9999 FEW024 SCT030 18/10 Q1032","updated":"2025-11-21T13:27:30Z"}
