{"icao":"LPPT","metar":"LPPT 272000Z 05014KT 9999 -RA FEW008 FEW025TCU BKN032 08/08 Q1007","updated":"2025-12-27T20:20:27Z"}
