{"icao":"LPMT","metar":"LPMT 121000Z 24005KT 200V270 7000 FEW012 BKN025 15/13 Q1021","updated":"2026-02-12T10:43:34Z"}
