{"icao":"KJFK","metar":"KJFK 220651Z 20011KT 10SM SCT065 OVC080 04/M03 A3007 RMK SLP181 T00391028 $ ","updated":"2026-01-22T07:26:24Z"}
