{"icao":"LPPR","metar":"LPPR 230130Z 28012G22KT 250V340 9999 FEW020 FEW025CB 11/04 Q1000","updated":"2026-01-23T01:41:12Z"}
