{"icao":"KJFK","metar":"KJFK 121751Z 16014KT 10SM FEW150 SCT250 11/M02 A3051 RMK AO2 SLP332 T01061022 10111 20078 56015 $","updated":"2026-04-12T18:48:04Z"}
