{"icao":"KJFK","metar":"KJFK 071551Z 00000KT 10SM FEW040 SCT150 BKN250 06/M04 A3011 RMK AO2 SLP194 T00561044 $","updated":"2025-12-07T16:21:08Z"}
