{"icao":"LPMT","metar":"LPMT 032000Z 33005KT CAVOK 19/11 Q1021","updated":"2026-04-03T20:35:08Z"}
