{"icao":"LPAZ","metar":"LPAZ 181700Z 31009KT 8000 -SHRA FEW004 SCT010 BKN016 18/17 Q1023","updated":"2025-11-18T17:18:06Z"}
