{"icao":"LPBJ","metar":"LPBJ 271722Z 26012KT 9999 VCSH SCT022 SCT028 FEW030CB 10/08 Q1006","updated":"2026-01-27T17:26:30Z"}
