{"icao":"LPFR","metar":"LPFR 151900Z VRB02KT CAVOK 23/17 Q1015","updated":"2025-10-15T19:13:55Z"}
