{"icao":"LPMR","metar":"LPMR 181100Z VRB01KT CAVOK 16/09 Q1021","updated":"2025-11-18T12:39:03Z"}
