{"icao":"LPCS","metar":"LPCS 151400Z 22006KT 190V260 CAVOK 27/10 Q1016","updated":"2025-10-15T14:18:49Z"}
