{"icao":"LPMT","metar":"LPMT 031100Z 02005KT 350V060 CAVOK 23/15 Q1023","updated":"2025-10-03T11:13:56Z"}
