{"icao":"LPFR","metar":"LPFR 270200Z 07002KT CAVOK 16/10 Q1013","updated":"2026-03-27T02:12:25Z"}
