{"icao":"LPFR","metar":"LPFR 011130Z 07008KT 040V100 CAVOK 22/04 Q1021 WS R10","updated":"2026-04-01T11:52:06Z"}
