{"icao":"LPPD","metar":"LPPD 191700Z 28014KT 6000 -DZ BKN004 21/21 Q1017","updated":"2025-10-19T17:14:12Z"}
