{"icao":"LPPD","metar":"LPPD 011730Z 04012KT 010V070 9999 SCT014 SCT018 15/12 Q1030","updated":"2026-04-01T17:50:52Z"}
