{"icao":"KORD","metar":"KORD 101351Z 22006KT 5SM -RA BR OVC009 03/02 A2996 RMK AO2 SLP151 P0005 T00280017","updated":"2026-01-10T14:18:00Z"}
