{"icao":"LPMT","metar":"LPMT 271700Z 20010KT 160V230 7000 SCT008 BKN015 BKN040 20/19 Q1015","updated":"2025-09-27T17:13:12Z"}
