{"icao":"LPLA","metar":"LPLA 140500Z 26004KT 190V300 9999 -RA FEW014 SCT020 BKN035 16/14 Q1023","updated":"2026-01-14T05:23:30Z"}
