{"icao":"LPMA","metar":"LPMA 010330Z 36011KT 310V030 9999 BKN015 17/10 Q1022","updated":"2025-12-01T03:50:02Z"}
