{"icao":"LPPD","metar":"LPPD 101600Z 19009KT 9999 VCSH FEW006 SCT010 FEW016TCU BKN030 22/20 Q1021","updated":"2025-10-10T16:21:33Z"}
