{"icao":"LPPS","metar":"LPPS 142100Z 03009KT 360V060 9999 FEW014 BKN030 16/12 Q1024","updated":"2026-03-14T21:25:41Z"}
