{"icao":"LPPT","metar":"LPPT 051800Z 34009KT 9999 FEW025 08/02 Q1015","updated":"2026-01-05T18:31:02Z"}
