{"icao":"KORD","metar":"KORD 070351Z 19010KT 10SM BKN100 BKN250 16/14 A2984 RMK AO2 RAB10E19 SLP105 P0000 T01610139","updated":"2026-03-07T04:00:04Z"}
