{"icao":"LPCS","metar":"LPCS 041400Z 22008KT 200V260 CAVOK 22/08 Q1022","updated":"2026-04-04T14:32:06Z"}
