{"icao":"LPLA","metar":"LPLA 071600Z 21014KT 9999 FEW025 SCT040 18/12 Q1008","updated":"2025-12-07T16:21:04Z"}
