{"icao":"KLAX","metar":"KLAX 012253Z 26013KT 5SM BR OVC007 17/14 A3000 RMK AO2 SLP158 VIS S-W 3 T01670144 $","updated":"2025-11-01T23:15:56Z"}
