{"icao":"LPPT","metar":"LPPT 262000Z 32006KT CAVOK 18/15 Q1019","updated":"2025-10-26T20:18:43Z"}
