{"icao":"KJFK","metar":"KJFK 262302Z 19005KT 1/4SM R04R/1600FT FG OVC002 12/11 A2970 RMK AO2 TWR VIS 1 T01170111","updated":"2025-11-26T23:17:41Z"}
