{"icao":"KORD","metar":"KORD 080851Z 11006KT 10SM SCT012 OVC110 M05/M08 A3034 RMK AO2 SLP284 T10501078 58004 $","updated":"2026-02-08T09:28:29Z"}
