{"icao":"LPMT","metar":"LPMT 141600Z 01007KT 9999 FEW020 SCT045 14/11 Q1020","updated":"2026-01-14T16:28:53Z"}
