{"icao":"LPST","metar":"LPST 051600Z 31011KT 9999 SCT028 17/11 Q1017","updated":"2026-05-05T23:03:54Z"}
