{"icao":"LPPS","metar":"LPPS 231300Z 09011KT 040V120 9999 SCT015 20/13 Q1026","updated":"2025-11-23T13:22:38Z"}
