{"icao":"LPFR","metar":"LPFR 171700Z 11007KT CAVOK 24/17 Q1013","updated":"2025-10-17T17:15:08Z"}
