{"icao":"LPAZ","metar":"LPAZ 281100Z 25026KT 7000 SCT010 BKN030 17/16 Q1011","updated":"2026-01-28T11:21:58Z"}
