{"icao":"LPPS","metar":"LPPS 032000Z 27017KT 250V310 9999 SCT013 SCT030 18/15 Q1014","updated":"2026-02-03T20:34:29Z"}
