{"icao":"LPPD","metar":"LPPD 211900Z 22012KT 6000 FEW004 SCT008 BKN010 23/22 Q1016","updated":"2025-10-21T19:15:06Z"}
