{"icao":"LPMT","metar":"LPMT 271000Z 02004KT CAVOK 10/07 Q1025","updated":"2025-11-27T10:21:23Z"}
