{"icao":"LPFL","metar":"LPFL 021700Z 13004KT 070V170 9999 FEW022 BKN028 15/09 Q1031","updated":"2026-04-02T17:04:53Z"}
