{"icao":"LPMT","metar":"LPMT 151000Z 36005KT 320V060 9999 BKN024 17/11 Q1024","updated":"2026-04-15T10:57:39Z"}
