{"icao":"LPFR","metar":"LPFR 170600Z 05005KT CAVOK 24/15 Q1016","updated":"2026-06-17T06:09:00Z"}
