{"icao":"KJFK","metar":"KJFK 052151Z 19014KT 10SM BKN041 OVC120 02/M03 A3011 RMK AO2 SLP195 T00171033 $","updated":"2026-01-05T22:19:44Z"}
