{"icao":"LPLA","metar":"LPLA 091700Z 35007KT 320V020 9999 FEW013 BKN020 17/14 Q1033","updated":"2026-04-09T17:06:07Z"}
