{"icao":"KJFK","metar":"KJFK 011451Z 29019G32KT 10SM CLR 11/M01 A2991 RMK AO2 PK WND 31032/1444 SLP127 T01111006 50012 $","updated":"2025-11-01T15:15:06Z"}
