{"icao":"LPBJ","metar":"LPBJ 202200Z 10007KT 8000 -RADZ SCT005 SCT012 13/12 Q1008","updated":"2026-03-20T22:27:09Z"}
