{"icao":"LPOV","metar":"LPOV 170700Z 03006KT 360V070 9999 SCT014 FEW020CB BKN045 06/06 Q1013","updated":"2026-01-17T07:18:02Z"}
