{"icao":"LPPT","metar":"LPPT 252200Z 21008KT 9999 SCT006 BKN012 20/18 Q1018","updated":"2026-06-25T22:19:46Z"}
