{"icao":"KORD","metar":"KORD 201351Z 24019G37KT 2 1/2SM -SN BR OVC009 M01/M03 A2936 RMK AO2 PK WND 24037/1348 SLP949 P0000 T10111028","updated":"2026-02-20T14:00:42Z"}
