{"icao":"LPAZ","metar":"LPAZ 021930Z 08009KT 030V120 9999 FEW021 17/11 Q1018","updated":"2026-05-02T19:54:55Z"}
