{"icao":"LPMR","metar":"LPMR 102200Z 18007KT 9999 FEW012 SCT016 14/14 Q1010","updated":"2026-05-10T22:44:47Z"}
