{"icao":"LPHR","metar":"LPHR 091730Z 09004KT 360V140 9999 SCT012 SCT030 22/19 Q1029","updated":"2026-06-09T18:03:14Z"}
