{"icao":"LPFL","metar":"LPFL 171700Z 33009KT 300V360 9999 FEW010 20/15 Q1024","updated":"2025-11-17T17:17:46Z"}
