{"icao":"LPAZ","metar":"LPAZ 130100Z 33020KT 9999 FEW026 SCT044 14/08 Q1021","updated":"2026-01-13T01:28:15Z"}
