{"icao":"LPPT","metar":"LPPT 050430Z 34008KT CAVOK 09/04 Q1009","updated":"2026-01-05T04:55:53Z"}
