{"icao":"KLAX","metar":"KLAX 050953Z 06003KT 10SM FEW220 17/M01 A3005 RMK AO2 SLP171 T01671006 $","updated":"2026-02-05T10:39:04Z"}
