{"icao":"LPBJ","metar":"LPBJ 280100Z 36002KT CAVOK 07/03 Q1023","updated":"2025-11-28T01:22:19Z"}
