{"icao":"KORD","metar":"KORD 200151Z 00000KT 10SM FEW075 BKN090 06/M04 A3020 RMK AO2 SLP229 VIRGA T00611039 $","updated":"2026-04-20T02:35:12Z"}
