{"icao":"LPOV","metar":"LPOV 090400Z 21007KT 5000 BR BKN008 BKN018 14/14 Q1009","updated":"2026-02-09T04:58:31Z"}
