{"icao":"LPFR","metar":"LPFR 161000Z 07015KT CAVOK 19/04 Q1019","updated":"2026-03-16T10:05:19Z"}
