{"icao":"KJFK","metar":"KJFK 261951Z 01008KT 10SM FEW065 SCT080 BKN250 14/00 A3034 RMK AO2 SLP274 T01440000","updated":"2025-10-26T20:19:22Z"}
