{"icao":"LPFL","metar":"LPFL 141400Z 09004KT 040V140 9999 FEW018 BKN035 16/11 Q1033","updated":"2026-05-14T14:08:04Z"}
