{"icao":"LPST","metar":"LPST 141300Z 19015KT 7000 -TSRA FEW009 SCT015 FEW020CB 15/13 Q1002","updated":"2025-11-14T14:18:07Z"}
