{"icao":"LPPT","metar":"LPPT 270700Z 05009KT CAVOK 16/10 Q1020","updated":"2025-10-27T07:18:01Z"}
