{"icao":"LPST","metar":"LPST 201700Z 32009KT CAVOK 15/08 Q1028","updated":"2026-02-23T02:04:15Z"}
