{"icao":"LPMR","metar":"LPMR 131200Z 01008KT CAVOK 15/10 Q1022","updated":"2025-12-13T12:36:23Z"}
