{"icao":"KORD","metar":"KORD 100820Z 34017G27KT 2SM R10L/5500VP6000FT -SN BLSN BR BKN010 OVC021 M03/M06 A3014 RMK AO2 PK WND 34029/0802 P0000 T10331056 $","updated":"2025-11-10T08:27:12Z"}
