{"icao":"LPHR","metar":"LPHR 270000Z 28031G46KT 9000 -SHRA SCT025 SCT040 10/06 Q1009","updated":"2026-01-27T03:46:47Z"}
