{"icao":"LPFR","metar":"LPFR 181300Z 15014KT 9000 FEW012 BKN045 17/14 Q1005","updated":"2026-03-18T13:09:06Z"}
