{"icao":"LPMR","metar":"LPMR 292100Z 24002KT CAVOK 15/13 Q1018","updated":"2025-09-29T21:14:55Z"}
