{"icao":"LPPR","metar":"LPPR 310130Z 31009KT 5000 SHRA FEW020CB BKN040 11/08 Q1013","updated":"2026-01-31T01:52:28Z"}
