{"icao":"LPBJ","metar":"LPBJ 280400Z 24012KT 9000 -RA SCT010 SCT016 17/16 Q1015","updated":"2025-09-28T04:20:31Z"}
