{"icao":"LPLA","metar":"LPLA 210900Z VRB01KT 9999 FEW025 16/13 Q1028","updated":"2025-09-21T09:15:42Z"}
