{"icao":"LPMA","metar":"LPMA 131430Z 04013G23KT 9999 SCT015 18/08 Q1026","updated":"2026-04-13T14:47:09Z"}
