{"icao":"LPPR","metar":"LPPR 070300Z 18016KT 4000 -RA BR BKN006 OVC013 14/14 Q1013","updated":"2025-11-07T03:09:14Z"}
