{"icao":"LPFR","metar":"LPFR 080230Z 28005KT CAVOK 15/10 Q1010","updated":"2026-05-08T02:48:57Z"}
