{"icao":"LPHR","metar":"LPHR 080600Z 14015KT 6000 -SHRA SCT007 BKN011 22/21 Q1022","updated":"2025-10-08T06:27:26Z"}
