{"icao":"LPFR","metar":"LPFR 190500Z 36007KT CAVOK 07/03 Q1017","updated":"2026-01-19T05:30:04Z"}
