{"icao":"LPAR","metar":"LPAR 201900Z 34015KT CAVOK 26/15 Q1014","updated":"2026-06-20T21:16:51Z"}
