{"icao":"LPAR","metar":"LPAR 151200Z 15003KT 110V210 9999 FEW045 26/14 Q1016","updated":"2025-10-15T12:38:41Z"}
