{"icao":"LPPR","metar":"LPPR 271000Z 10005KT 050V150 CAVOK 11/07 Q1025","updated":"2025-11-27T10:21:21Z"}
