{"icao":"LPMT","metar":"LPMT 140300Z 03010KT CAVOK 12/10 Q1019","updated":"2025-12-14T03:27:44Z"}
