{"icao":"LPPD","metar":"LPPD 032300Z 24015KT 9999 FEW006 SCT012 19/17 Q1010","updated":"2025-11-03T23:16:05Z"}
