{"icao":"LPLA","metar":"LPLA 070200Z VRB04KT 9999 FEW023 20/18 Q1019","updated":"2025-10-07T02:56:13Z"}
