{"icao":"LPST","metar":"LPST 290700Z 32004KT 290V350 4500 BR BKN005 15/14 Q1017","updated":"2025-09-29T07:18:00Z"}
