{"icao":"LPST","metar":"LPST 231600Z 18011KT CAVOK 20/05 Q1022","updated":"2026-02-23T16:55:57Z"}
