{"icao":"LPAZ","metar":"LPAZ 281730Z 16006KT 120V210 9999 SCT022 23/15 Q1027","updated":"2026-06-28T18:03:34Z"}
