{"icao":"LPFR","metar":"LPFR 030600Z 32005KT CAVOK 10/07 Q1021","updated":"2025-12-03T06:30:26Z"}
