{"icao":"KJFK","metar":"KJFK 180751Z 00000KT 6SM BR FEW010 BKN110 BKN200 BKN250 01/M01 A3010 RMK AO2 SLP194 T00061011 $","updated":"2026-01-18T08:25:29Z"}
