{"icao":"LPMA","metar":"LPMA 160130Z 01004KT 350V050 9000 -RADZ BKN014 16/13 Q1024","updated":"2026-01-16T01:42:10Z"}
