{"icao":"LPLA","metar":"LPLA 090512Z 16020KT 4000 RA SCT007 BKN016 22/20 Q1020","updated":"2025-10-09T05:17:34Z"}
