{"icao":"LPAZ","metar":"LPAZ 212200Z 28014KT 9999 SCT006 BKN011 17/16 Q1020","updated":"2026-01-21T22:23:50Z"}
