{"icao":"LPMR","metar":"LPMR 070900Z 15004KT 130V190 9999 FEW004 BKN025 07/06 Q1023","updated":"2026-01-07T09:26:50Z"}
