{"icao":"LPMA","metar":"LPMA 162100Z 32006KT 290V360 9999 SCT016 18/11 Q1022","updated":"2025-11-16T21:15:36Z"}
