{"icao":"KJFK","metar":"KJFK 010951Z 02012KT 10SM FEW250 14/06 A3012 RMK AO2 SLP199 T01440061 $","updated":"2025-10-01T10:18:50Z"}
