{"icao":"LPAR","metar":"LPAR 041300Z 12006KT 070V150 9999 FEW020 20/15 Q1015","updated":"2025-11-04T13:32:33Z"}
