{"icao":"KLAX","metar":"KLAX 162153Z 24011KT 10SM BKN250 20/12 A2991 RMK AO2 SLP126 T02000117","updated":"2026-04-16T22:38:36Z"}
