{"icao":"KJFK","metar":"KJFK 141651Z 22008KT 10SM FEW045 SCT095 BKN250 02/M04 A3008 RMK AO2 SLP185 T00171044 $","updated":"2026-02-14T17:24:46Z"}
