{"icao":"LPCS","metar":"LPCS 211300Z 26010KT 4600 -DZRA BR OVC003 20/20 Q1015","updated":"2025-10-21T13:32:25Z"}
