{"icao":"KORD","metar":"KORD 171851Z 17014G27KT 10SM FEW038 BKN055 BKN250 25/17 A2981 RMK AO2 PK WND 17027/1845 SLP093 T02500167 $","updated":"2026-04-17T18:58:51Z"}
