{"icao":"LPFL","metar":"LPFL 021530Z 18012KT 160V220 9999 FEW030 14/07 Q1031","updated":"2026-03-02T15:40:33Z"}
