{"icao":"LPPS","metar":"LPPS 201630Z 09011KT 050V140 9999 FEW015 BKN030 16/10 Q1026","updated":"2026-02-20T16:37:13Z"}
