{"icao":"LPFR","metar":"LPFR 122200Z 31009KT CAVOK 22/14 Q1015","updated":"2025-10-12T22:15:28Z"}
