{"icao":"KORD","metar":"KORD 251033Z 03012KT 6SM BR OVC004 08/07 A2995 RMK AO2 DZB01E32 P0000 T00780067","updated":"2026-04-25T10:42:18Z"}
