{"icao":"LPPR","metar":"LPPR 051330Z 30005KT 260V340 CAVOK 21/10 Q1021","updated":"2026-04-05T13:54:14Z"}
