{"icao":"KJFK","metar":"KJFK 081851Z 27017G22KT 10SM FEW055 SCT080 BKN100 17/01 A2988 RMK AO2 PK WND 28030/1759 SLP117 VIRGA NW T01670006","updated":"2026-05-08T19:15:06Z"}
