{"icao":"LPCS","metar":"LPCS 121230Z 17006KT 140V200 8000 -RADZ FEW005 SCT012 BKN030 15/15 Q1006","updated":"2025-11-12T12:39:13Z"}
