{"icao":"LPBJ","metar":"LPBJ 010400Z 19001KT CAVOK 05/05 Q1021","updated":"2026-03-01T04:52:07Z"}
