{"icao":"LPPT","metar":"LPPT 272000Z 33009KT CAVOK 12/07 Q1024","updated":"2025-11-27T20:18:20Z"}
