{"icao":"LPCS","metar":"LPCS 031900Z 09007KT 050V120 9999 FEW012 SCT018 14/14 Q0998","updated":"2026-01-03T19:14:21Z"}
