{"icao":"LPPT","metar":"LPPT 211900Z 35009KT CAVOK 11/05 Q1028","updated":"2025-11-21T19:15:35Z"}
