{"icao":"LPPR","metar":"LPPR 230200Z 04001KT CAVOK 10/09 Q1013","updated":"2026-04-23T02:31:59Z"}
