{"icao":"LPMT","metar":"LPMT 150600Z VRB01KT CAVOK 13/12 Q1015","updated":"2025-10-15T06:27:01Z"}
