{"icao":"LPPT","metar":"LPPT 181230Z 22015KT 5000 -RADZ BR FEW004 BKN006 14/13 Q1020","updated":"2026-02-18T13:01:39Z"}
