{"icao":"KORD","metar":"KORD 181851Z 22011KT 10SM FEW031 OVC043 04/M03 A2998 RMK AO2 SLP159 T00441033 $","updated":"2026-03-18T19:48:22Z"}
