{"icao":"LPCS","metar":"LPCS 021800Z 01010KT CAVOK 24/13 Q1020","updated":"2025-10-02T18:24:41Z"}
