{"icao":"LPPD","metar":"LPPD 201600Z 24011KT 8000 VCSH SCT006 BKN012 23/22 Q1016","updated":"2025-10-20T16:22:24Z"}
