{"icao":"LPPT","metar":"LPPT 042000Z 31006KT 280V340 9999 FEW025 14/09 Q1017","updated":"2026-05-04T20:13:06Z"}
