{"icao":"KORD","metar":"KORD 191451Z 12006KT 10SM SCT120 SCT250 26/16 A3004 RMK AO2 SLP166 T02610156 51002","updated":"2025-09-19T15:17:28Z"}
