{"icao":"LPPD","metar":"LPPD 260400Z 28007KT 5000 DZ BR SCT003 BKN007 14/14 Q1030","updated":"2026-02-26T04:22:47Z"}
