{"icao":"LPBJ","metar":"LPBJ 220300Z 30006KT CAVOK 11/07 Q1019","updated":"2025-09-22T03:05:57Z"}
