{"icao":"LPAZ","metar":"LPAZ 211600Z 08011KT 050V110 9999 SCT042 22/12 Q1026","updated":"2025-09-21T16:18:57Z"}
