{"icao":"LPPR","metar":"LPPR 132230Z 16009KT 4500 -DZRA BR OVC004 12/11 Q1022","updated":"2026-04-13T22:40:58Z"}
