{"icao":"LPPT","metar":"LPPT 271000Z VRB04KT CAVOK 11/06 Q1025","updated":"2025-11-27T10:21:20Z"}
