{"icao":"LPMA","metar":"LPMA 090900Z 36021G34KT 310V030 9999 BKN015 FEW016TCU 16/11 Q1018 RESHRA","updated":"2026-04-09T09:06:10Z"}
