{"icao":"LPOV","metar":"LPOV 191500Z 15006KT 100V170 CAVOK 23/09 Q1006","updated":"2026-03-19T15:53:27Z"}
