{"icao":"LPPT","metar":"LPPT 090400Z VRB02KT CAVOK 11/11 Q1021","updated":"2025-11-09T04:20:38Z"}
