{"icao":"KJFK","metar":"KJFK 120651Z 30020G26KT 10SM SCT050 01/M09 A3005 RMK AO2 PK WND 31027/0601 SLP175 T00061089","updated":"2026-01-12T07:26:33Z"}
