{"icao":"LPPR","metar":"LPPR 240300Z 17005KT 0600 R35/0700 FG VV001 19/18 Q1012","updated":"2026-06-24T03:28:24Z"}
