{"icao":"LPLA","metar":"LPLA 241900Z 10004KT 050V140 9999 FEW030 SCT040 19/13 Q1020","updated":"2025-09-24T19:14:34Z"}
