{"icao":"LPPT","metar":"LPPT 171130Z 12012KT 080V140 CAVOK 17/05 Q1010","updated":"2026-03-17T11:42:06Z"}
