{"icao":"LPMR","metar":"LPMR 302200Z 31006KT 9000 NSC 18/18 Q1022","updated":"2026-06-30T23:10:35Z"}
