{"icao":"KJFK","metar":"KJFK 061351Z 03011KT 10SM OVC011 04/02 A3035 RMK AO2 SLP275 T00390022","updated":"2026-03-06T13:54:29Z"}
