{"icao":"KJFK","metar":"KJFK 171416Z 21010KT 2 1/2SM BR OVC004 01/01 A3017 RMK AO2 CIG 003V005 T00110006 $","updated":"2026-02-17T14:43:16Z"}
