{"icao":"LPMT","metar":"LPMT 270500Z 11003KT CAVOK 11/10 Q1017","updated":"2025-09-27T05:16:03Z"}
