{"icao":"LPPD","metar":"LPPD 021130Z 03011KT 360V070 9999 FEW018 BKN028 15/10 Q1031","updated":"2026-04-02T11:43:06Z"}
