{"icao":"KJFK","metar":"KJFK 071751Z 20019KT 10SM FEW050 FEW170 BKN250 16/03 A2995 RMK AO2 PK WND 19026/1734 SLP140 T01560033 10156 20022 58039 $","updated":"2025-11-07T18:25:58Z"}
