{"icao":"LPHR","metar":"LPHR 210630Z 24008KT 7000 SCT005 SCT009 BKN025 17/16 Q1019","updated":"2026-02-21T06:40:15Z"}
