{"icao":"LPMT","metar":"LPMT 191600Z 23009KT 190V260 9999 FEW023 BKN030 22/18 Q1014","updated":"2025-10-19T16:19:33Z"}
