{"icao":"LPHR","metar":"LPHR 122000Z 32011KT 280V360 9999 SCT025 FEW030CB 15/09 Q1005","updated":"2025-11-12T20:21:08Z"}
