{"icao":"KLAX","metar":"KLAX 170953Z VRB04KT 10SM CLR 15/13 A2990 RMK AO2 SLP123 T01500128 $","updated":"2025-10-17T10:19:18Z"}
