{"icao":"LPLA","metar":"LPLA 152200Z 20006KT 150V240 9999 SCT023 15/11 Q1021","updated":"2026-04-15T22:39:50Z"}
