{"icao":"KJFK","metar":"KJFK 131051Z 04019G28KT 4SM -RA BR FEW008 OVC013 13/12 A2988 RMK AO2 PK WND 03031/1034 SLP119 P0003 T01280117","updated":"2025-10-13T11:15:31Z"}
