{"icao":"LPMR","metar":"LPMR 281100Z 34016KT 9999 FEW022 19/15 Q1012","updated":"2025-09-28T11:12:57Z"}
