{"icao":"LPBJ","metar":"LPBJ 012100Z 28007KT CAVOK 16/09 Q1019","updated":"2026-05-01T21:51:51Z"}
