{"icao":"LPPR","metar":"LPPR 132200Z 00000KT CAVOK 16/14 Q1017","updated":"2025-10-13T22:16:17Z"}
