{"icao":"LPMA","metar":"LPMA 301630Z 02016G26KT 340V050 9999 FEW015 22/12 Q1024","updated":"2026-05-30T17:02:18Z"}
