{"icao":"KJFK","metar":"KJFK 142351Z 18022G31KT 10SM SCT120 BKN150 BKN200 22/18 A2971 RMK AO2 PK WND 18033/2339 SLP059 T02220178 10289 20222 55015 $","updated":"2026-06-15T00:09:05Z"}
