{"icao":"LPHR","metar":"LPHR 281330Z 26015KT 4000 VCSH BR FEW003 SCT006 BKN010 17/16 Q1031","updated":"2026-02-28T13:35:22Z"}
