{"icao":"KLAX","metar":"KLAX 172253Z 26005KT 10SM FEW250 SCT300 22/06 A3004 RMK AO2 SLP171 T02170056 $","updated":"2026-01-17T23:18:12Z"}
