{"icao":"KJFK","metar":"KJFK 160951Z 15022G32KT 1/2SM R04R/3500V4500FT FG VV002 09/09 A2985 RMK AO2 PK WND 14033/0902 RAE29 SLP108 P0001 T00940094 $","updated":"2026-03-16T10:05:43Z"}
