{"icao":"LPOV","metar":"LPOV 131400Z 27006KT 230V300 9999 FEW016 SCT030 15/11 Q1021","updated":"2026-04-13T14:46:50Z"}
