{"icao":"KORD","metar":"KORD 132251Z 27018G33KT 10SM FEW055 FEW250 08/M06 A2983 RMK AO2 PK WND 25040/2200 SLP103 T00781061 $","updated":"2026-03-13T23:27:13Z"}
