{"icao":"KJFK","metar":"KJFK 120851Z 25015KT 10SM FEW100 SCT180 BKN250 04/M06 A2990 RMK AO2 SLP125 T00391056 58009 $","updated":"2025-11-12T09:20:15Z"}
