{"icao":"LPPT","metar":"LPPT 231330Z 27008KT 240V310 9999 FEW012 FEW025TCU 09/08 Q1002 WS R20","updated":"2026-01-23T13:41:16Z"}
