{"icao":"LPBJ","metar":"LPBJ 260400Z 26003KT 220V280 CAVOK 05/04 Q1023","updated":"2025-11-26T04:25:21Z"}
