{"icao":"LPMT","metar":"LPMT 271300Z 29004KT 240V340 9999 FEW045 27/15 Q1012","updated":"2026-04-27T13:50:07Z"}
