{"icao":"KORD","metar":"KORD 031051Z 00000KT 10SM FEW070 18/12 A3019 RMK AO2 SLP220 T01780122","updated":"2025-10-03T11:14:13Z"}
