{"icao":"LPFR","metar":"LPFR 121300Z 23008KT 8000 FEW005 SCT012 17/15 Q1021","updated":"2026-02-12T13:04:47Z"}
