{"icao":"LPBJ","metar":"LPBJ 080100Z 30007KT 0050 FG VV001 14/13 Q1019","updated":"2025-11-08T01:19:40Z"}
