{"icao":"LPFR","metar":"LPFR 241600Z 32018KT 9999 SCT040 14/06 Q1015","updated":"2026-01-24T16:23:10Z"}
