{"icao":"LPPR","metar":"LPPR 160730Z 11003KT 070V190 9999 FEW020 SCT030 14/12 Q1022","updated":"2026-04-16T07:44:03Z"}
