{"icao":"LPMA","metar":"LPMA 040530Z 20003KT 140V250 9999 FEW015 16/13 Q1012","updated":"2026-02-04T05:47:48Z"}
