{"icao":"LPFR","metar":"LPFR 270900Z 02003KT 350V050 CAVOK 13/02 Q1023","updated":"2025-11-27T09:21:03Z"}
