{"icao":"KLAX","metar":"KLAX 190053Z 26006KT 10SM FEW150 FEW250 18/10 A3002 RMK AO2 SLP166 T01830100","updated":"2026-01-19T01:46:44Z"}
