{"icao":"LPCS","metar":"LPCS 081400Z 24006KT 210V270 9999 FEW003 SCT014 13/13 Q1031","updated":"2026-01-08T14:23:44Z"}
