{"icao":"LPMT","metar":"LPMT 100200Z 23010KT 3000 -RADZ BR BKN002 14/14 Q1015","updated":"2026-02-10T02:23:19Z"}
