{"icao":"LPBJ","metar":"LPBJ 251100Z 23007KT 200V300 9999 FEW018 BKN024 22/16 Q1015","updated":"2025-10-25T11:12:58Z"}
