{"icao":"LPHR","metar":"LPHR 130630Z 34008KT 300V020 9999 FEW005 BKN035 16/14 Q1029","updated":"2026-03-13T06:52:06Z"}
