{"icao":"LPOV","metar":"LPOV 081100Z 35009KT 320V020 9999 FEW028 SCT045 14/10 Q1019","updated":"2026-04-08T11:53:53Z"}
