{"icao":"LPMT","metar":"LPMT 101200Z 31006KT 280V350 CAVOK 25/14 Q1020","updated":"2025-10-10T12:36:39Z"}
