{"icao":"LPMT","metar":"LPMT 090200Z 03012KT CAVOK 12/09 Q1019","updated":"2026-04-09T02:08:30Z"}
