{"icao":"KJFK","metar":"KJFK 072051Z 25010KT 10SM SCT042 BKN150 BKN250 05/M04 A3005 RMK AO2 SLP175 T00501039 56010 $","updated":"2025-12-07T21:15:26Z"}
