{"icao":"LPFR","metar":"LPFR 120600Z 30006KT 8000 OVC003 15/14 Q1021","updated":"2026-02-12T06:04:52Z"}
