{"icao":"LPLA","metar":"LPLA 171900Z 22011KT 190V250 9999 VCSH FEW007 BKN014 23/21 Q1011","updated":"2025-10-17T19:13:59Z"}
