{"icao":"LPMT","metar":"LPMT 021600Z 29007KT 260V330 9999 -SHRA FEW025 FEW030CB SCT035 13/10 Q1017","updated":"2025-12-02T16:27:06Z"}
