{"icao":"KLAX","metar":"KLAX 260653Z 14006KT 10SM FEW012 FEW040 BKN060 17/14 A3009 RMK AO2 SLP187 T01670144 $","updated":"2025-12-26T07:20:29Z"}
