{"icao":"KORD","metar":"KORD 290751Z 21005KT 10SM FEW110 BKN230 OVC250 06/M02 A3028 RMK AO2 SLP256 T00561017","updated":"2026-03-29T08:38:11Z"}
