{"icao":"LPMT","metar":"LPMT 301400Z 33009KT 310V010 CAVOK 31/18 Q1019","updated":"2026-06-30T15:25:16Z"}
