{"icao":"LPHR","metar":"LPHR 080800Z 04008KT 010V070 9999 SCT014 12/04 Q1026","updated":"2026-03-08T08:29:51Z"}
