{"icao":"LPBJ","metar":"LPBJ 022200Z 28008KT 9999 FEW040 16/13 Q1016","updated":"2026-05-02T22:39:27Z"}
