{"icao":"LPPT","metar":"LPPT 010300Z 20015KT 9999 SCT010 BKN012 FEW016TCU 19/18 Q1013","updated":"2025-11-01T03:10:10Z"}
