{"icao":"KJFK","metar":"KJFK 161451Z 34019KT 10SM FEW050 FEW150 FEW250 12/00 A2995 RMK AO2 SLP143 T01170000 58004","updated":"2025-10-16T15:19:37Z"}
