{"icao":"KLAX","metar":"KLAX 070453Z 21003KT 10SM FEW075 SCT190 BKN230 16/12 A3001 RMK AO2 SLP161 T01560117 $","updated":"2026-01-07T05:24:24Z"}
