{"icao":"LPLA","metar":"LPLA 261000Z 28032G46KT 7000 -SHRA FEW016 SCT020 FEW022TCU BKN032 12/08 Q1003","updated":"2026-01-26T10:25:25Z"}
