{"icao":"KJFK","metar":"KJFK 081651Z 26015G29KT 10SM FEW050 SCT075 17/01 A2989 RMK AO2 PK WND 26029/1647 WSHFT 1540 SLP123 T01720006","updated":"2026-05-08T17:15:37Z"}
