{"icao":"LPPR","metar":"LPPR 070630Z 36006KT 350V060 CAVOK 05/02 Q1019","updated":"2026-03-07T06:38:46Z"}
