{"icao":"KLAX","metar":"KLAX 020653Z 25008KT 10SM BKN180 17/13 A2997 RMK AO2 SLP146 T01720133","updated":"2026-03-02T07:49:35Z"}
