{"icao":"LPPT","metar":"LPPT 112200Z 18012KT 9999 FEW012 17/15 Q1008","updated":"2025-11-11T22:17:47Z"}
