{"icao":"LPOV","metar":"LPOV 011300Z 34019KT CAVOK 20/10 Q1024","updated":"2026-04-01T13:19:18Z"}
