{"icao":"KJFK","metar":"KJFK 241151Z 34017G28KT 10SM FEW150 FEW250 M12/M23 A3060 RMK AO2 PK WND 33028/1145 SLP362 T11221228 11106 21122 53029 $","updated":"2026-01-24T12:38:40Z"}
