{"icao":"LPFR","metar":"LPFR 171400Z 30013KT 9999 SCT020 20/11 Q1013","updated":"2025-11-17T14:18:46Z"}
