{"icao":"LPFR","metar":"LPFR 200130Z 11022KT 9999 SCT008 15/14 Q1006","updated":"2026-03-20T02:00:36Z"}
