{"icao":"LPAZ","metar":"LPAZ 180430Z 30012KT 9999 FEW021 14/11 Q1024","updated":"2026-02-18T04:52:12Z"}
