{"icao":"LPPD","metar":"LPPD 141500Z 25014KT 9999 FEW015 BKN040 17/12 Q1019","updated":"2026-04-14T15:11:39Z"}
