{"icao":"KORD","metar":"KORD 251951Z 26006KT 10SM OVC012 11/08 A2974 RMK AO2 SLP072 T01060083","updated":"2025-11-25T20:21:44Z"}
