{"icao":"LPMT","metar":"LPMT 311300Z 03006KT 0200 FG VV002 08/08 Q1018","updated":"2025-12-31T13:31:36Z"}
