{"icao":"LPMR","metar":"LPMR 182000Z 25003KT CAVOK 20/13 Q1016","updated":"2025-10-18T20:17:38Z"}
