{"icao":"KORD","metar":"KORD 072051Z 07009KT 10SM BKN250 03/M09 A3044 RMK AO2 SLP315 T00281094 58022 $","updated":"2026-04-07T21:40:32Z"}
