{"icao":"LPMR","metar":"LPMR 190500Z 35006KT 5000 -RA BR FEW006 SCT012 BKN040 12/11 Q1019","updated":"2025-12-19T06:30:01Z"}
