{"icao":"LPPS","metar":"LPPS 131400Z 36032G42KT 9999 VCSH SCT015 SCT030 17/10 Q1017","updated":"2025-12-13T14:17:04Z"}
