{"icao":"LPPD","metar":"LPPD 051400Z 24005KT 210V280 9999 VCSH FEW020 17/12 Q1018","updated":"2025-11-05T14:19:03Z"}
