{"icao":"LPPT","metar":"LPPT 030900Z 11009KT 080V150 8000 -RADZ FEW002 BKN004 13/13 Q0998","updated":"2026-01-03T09:18:57Z"}
