{"icao":"LPBJ","metar":"LPBJ 060500Z 13003KT CAVOK 15/12 Q1018","updated":"2025-10-06T05:17:14Z"}
