{"icao":"KORD","metar":"KORD 080751Z 20009KT 10SM FEW250 06/02 A2986 RMK AO2 SLP116 T00560022","updated":"2026-01-08T08:29:29Z"}
