{"icao":"LPFL","metar":"LPFL 021530Z VRB05KT 9999 -RA SCT017 14/10 Q1013","updated":"2026-02-02T15:36:55Z"}
