{"icao":"KORD","metar":"KORD 261451Z 24019G34KT 10SM -SN OVC021 01/M03 A2972 RMK AO2 PK WND 26039/1354 SLP067 P0000 60000 T00061028 53010","updated":"2025-11-26T15:18:26Z"}
