{"icao":"LPBJ","metar":"LPBJ 221400Z 28013KT 260V320 9999 SCT025 BKN035 26/17 Q1019","updated":"2025-10-22T14:19:48Z"}
