{"icao":"LPPD","metar":"LPPD 151000Z 11003KT 060V160 9999 FEW016 23/19 Q1027","updated":"2025-09-15T10:18:30Z"}
