{"icao":"LPPR","metar":"LPPR 282100Z 33005KT CAVOK 20/14 Q1016","updated":"2025-09-28T21:14:04Z"}
