{"icao":"LPHR","metar":"LPHR 091500Z 28013KT 240V300 9999 FEW025 20/14 Q1024","updated":"2025-11-09T15:15:44Z"}
