{"icao":"LPMR","metar":"LPMR 151400Z 34015KT 310V010 9999 FEW006 22/17 Q1022","updated":"2025-09-15T14:18:15Z"}
