{"icao":"LPCS","metar":"LPCS 182100Z 00000KT CAVOK 24/09 Q1019","updated":"2025-09-18T21:15:24Z"}
