{"icao":"KLAX","metar":"KLAX 252353Z 26017KT 10SM FEW019 19/12 A2990 RMK AO2 SLP125 T01890117 10206 20189 56014 $","updated":"2026-05-26T00:04:24Z"}
