{"icao":"LPPT","metar":"LPPT 221800Z 24017KT 1800 -RADZ BR FEW002 BKN004 14/14 Q1003","updated":"2026-01-22T18:31:15Z"}
