{"icao":"KJFK","metar":"KJFK 282251Z 00000KT 10SM FEW250 07/03 A3005 RMK AO2 SLP175 T00670033 $","updated":"2026-02-28T23:20:46Z"}
