{"icao":"LPMA","metar":"LPMA 250300Z 01013KT 320V030 9999 SCT015 16/10 Q1015","updated":"2025-12-25T03:25:35Z"}
