{"icao":"KJFK","metar":"KJFK 141951Z 17007KT 10SM FEW030 SCT070 BKN250 24/17 A3003 RMK AO2 SLP169 T02390167 $","updated":"2025-09-14T20:16:51Z"}
