{"icao":"LPPR","metar":"LPPR 091600Z 34008KT 9999 SCT026 BKN040 12/08 Q1027","updated":"2026-01-09T16:26:34Z"}
