{"icao":"LPPR","metar":"LPPR 260700Z VRB01KT 0300 0200S R17/0350N FG VV001 14/13 Q1017","updated":"2026-04-26T07:27:03Z"}
