{"icao":"LPPT","metar":"LPPT 230900Z 23007KT 210V280 9999 VCSH FEW012 FEW025CB SCT034 11/08 Q1004","updated":"2026-01-23T09:28:39Z"}
