{"icao":"LPPD","metar":"LPPD 151630Z 24011KT 9999 FEW025 17/09 Q1023","updated":"2026-04-15T17:02:36Z"}
