{"icao":"LPPS","metar":"LPPS 201100Z 09011KT 060V120 9999 FEW015 BKN030 16/10 Q1029","updated":"2026-02-20T11:31:30Z"}
