{"icao":"LPPR","metar":"LPPR 050500Z 17016KT 7000 TSRA FEW016 FEW020CB BKN033 16/15 Q1004","updated":"2025-11-05T05:18:49Z"}
