{"icao":"LPPR","metar":"LPPR 032300Z 18016KT 4000 -RADZ BR OVC008 09/08 Q0989","updated":"2026-02-03T23:26:42Z"}
