{"icao":"LPOV","metar":"LPOV 132100Z 18003KT 160V220 9999 BKN020 20/17 Q1023","updated":"2025-09-13T21:13:39Z"}
