{"icao":"KJFK","metar":"KJFK 251651Z VRB05KT 10SM FEW060 SCT150 SCT250 15/M02 A3036 RMK AO2 SLP280 T01501017","updated":"2025-10-25T17:14:18Z"}
