{"icao":"LPMA","metar":"LPMA 041530Z 17008KT 9999 SCT012 21/18 Q1016","updated":"2026-05-04T16:02:27Z"}
