{"icao":"LPPS","metar":"LPPS 261130Z 02020KT 9999 SCT015 17/11 Q1024","updated":"2026-02-26T11:38:45Z"}
