{"icao":"LPPD","metar":"LPPD 191230Z 01014G26KT 330V050 9999 VCSH SCT018 SCT035 17/11 Q1024","updated":"2025-11-19T12:39:35Z"}
