{"icao":"KORD","metar":"KORD 030851Z 01003KT 10SM CLR 13/06 A3034 RMK AO2 SLP275 T01280061 51010 $","updated":"2026-06-03T08:58:32Z"}
