{"icao":"LPHR","metar":"LPHR 161730Z 29020KT 4000 -RA BR FEW003 BKN006 BKN011 15/14 Q1016","updated":"2026-03-16T17:58:38Z"}
