{"icao":"KLAX","metar":"KLAX 141653Z 08004KT 8SM -RA OVC027 16/14 A3001 RMK AO2 SLP161 P0002 T01610139","updated":"2025-11-14T17:17:01Z"}
