{"icao":"KORD","metar":"KORD 050851Z 21005KT 10SM BKN250 M08/M11 A3019 RMK AO2 SLP235 T10831111 58027","updated":"2026-02-05T09:42:44Z"}
