{"icao":"KJFK","metar":"KJFK 012051Z 36011KT 10SM FEW050 FEW090 SCT150 06/M09 A3025 RMK AO2 SLP244 T00561089 53012 VISNO W $","updated":"2026-03-01T21:21:17Z"}
