{"icao":"LPMA","metar":"LPMA 151400Z 03018G30KT 340V050 9999 FEW016 25/17 Q1022","updated":"2025-09-15T14:18:17Z"}
