{"icao":"LPLA","metar":"LPLA 110900Z 26007KT 230V290 9999 FEW020 16/10 Q1013","updated":"2026-02-11T10:01:49Z"}
