{"icao":"LPPD","metar":"LPPD 130430Z 33009KT 9999 FEW020 SCT045 13/08 Q1022","updated":"2026-01-13T04:39:01Z"}
