{"icao":"KORD","metar":"KORD 041509Z 35005KT 10SM -SN OVC024 M06/M11 A3039 RMK AO2 SNB08 P0000 T10611106","updated":"2026-02-04T15:41:31Z"}
