{"icao":"LPFR","metar":"LPFR 111830Z 32015KT CAVOK 20/12 Q1011","updated":"2026-04-11T18:42:11Z"}
