{"icao":"LPPD","metar":"LPPD 161000Z 02006KT 5000 -RA FEW006 SCT016 BKN030 20/19 Q1005","updated":"2025-10-16T10:20:21Z"}
