{"icao":"KORD","metar":"KORD 080051Z 17008KT 10SM CLR 05/02 A2986 RMK AO2 SLP118 T00500017","updated":"2026-01-08T01:41:18Z"}
