{"icao":"KORD","metar":"KORD 271128Z 02017G22KT 10SM BKN023 BKN190 BKN220 00/M05 A3032 RMK AO2 T00001050","updated":"2026-03-27T11:40:48Z"}
