{"icao":"KLAX","metar":"KLAX 231705Z 00000KT 3SM BR SCT009 BKN017 BKN022 14/13 A2995 RMK AO2 T01440128 $","updated":"2026-01-23T17:25:11Z"}
