{"icao":"LPPD","metar":"LPPD 051100Z 23010KT 9999 FEW006 19/17 Q1021","updated":"2025-12-05T11:17:48Z"}
