{"icao":"LPHR","metar":"LPHR 130700Z 31016G31KT 9999 FEW025 13/09 Q1007","updated":"2025-11-13T07:18:11Z"}
