{"icao":"LPBJ","metar":"LPBJ 282100Z 20012KT 3000 -DZ OVC004 13/13 Q1007","updated":"2026-01-28T21:27:47Z"}
