{"icao":"KORD","metar":"KORD 190251Z 07007KT 10SM OVC008 06/04 A3007 RMK AO2 SLP189 T00560039 51022","updated":"2025-11-19T03:10:47Z"}
