{"icao":"LPPD","metar":"LPPD 200530Z 02021G34KT 350V050 9999 FEW015 13/10 Q1002","updated":"2026-03-20T05:51:10Z"}
