{"icao":"KJFK","metar":"KJFK 171251Z 32008KT 10SM BKN250 23/14 A3006 RMK AO2 SLP178 T02280144 $","updated":"2026-05-17T13:18:03Z"}
