{"icao":"LPOV","metar":"LPOV 221100Z 34014KT CAVOK 18/10 Q1022","updated":"2025-09-22T11:15:19Z"}
