{"icao":"LPLA","metar":"LPLA 040800Z VRB04KT 9999 FEW020 16/11 Q1003","updated":"2025-11-04T08:26:37Z"}
