{"icao":"LPBJ","metar":"LPBJ 042000Z 26019G30KT 8000 -RADZ BKN007 OVC014 14/14 Q1000","updated":"2026-02-04T20:33:12Z"}
