{"icao":"LPPT","metar":"LPPT 151230Z 35011KT 310V020 CAVOK 28/12 Q1021","updated":"2025-09-15T12:36:17Z"}
