{"icao":"LPHR","metar":"LPHR 251800Z 24027KT 4000 -RA BR SCT007 BKN010 BKN030 17/16 Q1008","updated":"2026-01-25T18:28:53Z"}
