{"icao":"LPPT","metar":"LPPT 051530Z 32016KT 290V350 3000 RA FEW008 BKN012 12/10 Q1016","updated":"2026-03-05T15:49:17Z"}
