{"icao":"LPMT","metar":"LPMT 171400Z 28005KT 240V310 CAVOK 26/15 Q1013","updated":"2025-10-17T14:17:23Z"}
