{"icao":"LPST","metar":"LPST 120900Z 28005KT 240V340 4000 BR BKN005 SCT015 13/12 Q1021","updated":"2026-02-12T09:48:41Z"}
