{"icao":"LPPD","metar":"LPPD 111100Z 26005KT 210V290 9999 FEW022 22/17 Q1021","updated":"2025-10-11T11:12:52Z"}
