{"icao":"LPPS","metar":"LPPS 211800Z 06009KT 030V090 9999 BKN015 16/11 Q1025","updated":"2026-02-21T18:33:47Z"}
