{"icao":"LPBJ","metar":"LPBJ 291235Z 26018KT 2000 -RADZ BR BKN006 BKN012 16/15 Q1011 WS ALL RWY","updated":"2026-01-29T12:55:09Z"}
