{"icao":"KJFK","metar":"KJFK 031928Z 09007KT 3SM -RA BR BKN005 OVC024 02/02 A3042 RMK AO2 SFC VIS 4 P0002 T00220017","updated":"2026-03-03T19:37:59Z"}
