{"icao":"KORD","metar":"KORD 201051Z 21004KT 10SM FEW010 05/01 A2999 RMK AO2 SLP157 T00500011 $","updated":"2025-10-20T11:16:12Z"}
