{"icao":"LPPR","metar":"LPPR 122200Z 35003KT 320V050 9999 FEW022 09/07 Q1022","updated":"2026-04-12T22:32:34Z"}
