{"icao":"LPBJ","metar":"LPBJ 301700Z 26021KT 9999 BKN020 15/11 Q1012 WS ALL RWY","updated":"2026-01-30T17:32:29Z"}
