{"icao":"LPAZ","metar":"LPAZ 191400Z 36008KT 330V040 9999 SCT029 BKN036 16/09 Q1031","updated":"2026-01-19T14:26:32Z"}
