{"icao":"LPMA","metar":"LPMA 141000Z 01010KT 340V050 9999 SCT016 16/08 Q1031","updated":"2026-02-14T10:25:34Z"}
