{"icao":"KLAX","metar":"KLAX 061553Z 11003KT 10SM FEW080 17/M01 A3002 RMK AO2 SLP163 T01671006","updated":"2026-03-06T16:40:02Z"}
