{"icao":"KORD","metar":"KORD 171651Z 25014G21KT 10SM -SN SCT022 BKN031 M10/M17 A2999 RMK AO2 PK WND 24027/1553 SNB47 SLP165 P0000 T11001172 $","updated":"2026-01-17T17:16:20Z"}
