{"icao":"LPFR","metar":"LPFR 090300Z 19002KT CAVOK 12/10 Q1021","updated":"2025-11-09T03:11:46Z"}
