{"icao":"LPOV","metar":"LPOV 160600Z VRB01KT 0100 FG VV001 11/11 Q1021","updated":"2025-09-16T06:26:34Z"}
