{"icao":"KORD","metar":"KORD 290251Z 24003KT 10SM BKN160 BKN250 M03/M10 A3037 RMK AO2 SLP296 T10331100 53004 $","updated":"2025-11-29T03:10:41Z"}
