{"icao":"LPPT","metar":"LPPT 150500Z 30004KT 9999 FEW010 12/11 Q1023","updated":"2026-04-15T05:22:30Z"}
