{"icao":"LPFL","metar":"LPFL 302000Z 25012KT 180V310 9999 SCT008 BKN015 19/16 Q1010","updated":"2026-01-30T20:28:22Z"}
