{"icao":"LPMA","metar":"LPMA 091500Z 04010KT 010V070 9999 SCT014 17/13 Q1031","updated":"2026-01-09T15:22:38Z"}
