{"icao":"KJFK","metar":"KJFK 101751Z 18005KT 10SM FEW049 BKN070 BKN250 M01/M08 A3009 RMK AO2 SLP188 4/004 933009 T10111078 11011 21044 58031 $","updated":"2026-02-10T18:00:34Z"}
