{"icao":"LPFR","metar":"LPFR 262100Z 02007KT CAVOK 13/06 Q1023","updated":"2025-11-26T21:16:30Z"}
