{"icao":"LPBJ","metar":"LPBJ 020500Z VRB02KT CAVOK 13/11 Q1018","updated":"2026-05-02T05:35:44Z"}
