{"icao":"LPLA","metar":"LPLA 271600Z 25031G45KT 8000 -RA SCT008 BKN018 BKN030 17/14 Q1001","updated":"2026-01-27T16:29:11Z"}
