{"icao":"LPPR","metar":"LPPR 151000Z 17022KT 4700 -RA BR FEW011 BKN015 OVC025 11/09 Q1014","updated":"2026-01-15T10:23:21Z"}
