{"icao":"KLAX","metar":"KLAX 151053Z 07003KT 8SM OVC012 19/17 A2985 RMK AO2 SLP104 T01940167 $","updated":"2025-09-15T11:14:32Z"}
