{"icao":"LPMR","metar":"LPMR 281900Z 11010KT 3500 -RA BR FEW015 SCT040 16/16 Q1009 RERA","updated":"2025-10-28T19:14:36Z"}
