{"icao":"LPAZ","metar":"LPAZ 231900Z 26006KT 210V300 9999 FEW020 BKN028 18/12 Q1028","updated":"2025-11-23T19:14:20Z"}
