{"icao":"LPPR","metar":"LPPR 300630Z 19011KT 5000 SHRA BR SCT010 FEW020CB BKN035 12/11 Q1009","updated":"2026-01-30T06:46:23Z"}
