{"icao":"LPMA","metar":"LPMA 032200Z 25003KT 190V320 9999 FEW015 17/13 Q1014","updated":"2026-02-03T22:28:29Z"}
