{"icao":"LPPD","metar":"LPPD 101230Z 23014KT 9999 FEW014 SCT025 19/15 Q1018","updated":"2025-11-10T12:38:37Z"}
