{"icao":"LPHR","metar":"LPHR 050000Z 28022G33KT 8000 -SHRA BKN015 FEW018TCU SCT035 12/09 Q0999","updated":"2026-02-05T04:20:35Z"}
