{"icao":"LPPR","metar":"LPPR 041500Z 27004KT 240V310 9999 OVC007 19/17 Q1024","updated":"2025-10-04T15:14:22Z"}
