{"icao":"KJFK","metar":"KJFK 102151Z 19008KT 10SM BKN047 15/05 A3038 RMK AO2 SLP287 T01500050","updated":"2025-10-10T22:15:37Z"}
