{"icao":"LPST","metar":"LPST 201100Z 27006KT 230V300 9999 FEW016 20/14 Q1016","updated":"2025-10-20T11:15:39Z"}
