{"icao":"LPPT","metar":"LPPT 091330Z 03011KT 330V070 9999 FEW030 22/12 Q1014","updated":"2026-04-09T13:47:25Z"}
