{"icao":"KJFK","metar":"KJFK 091251Z 17005KT 10SM SCT021 SCT250 06/00 A3064 RMK AO2 SLP375 T00560000","updated":"2026-04-09T13:47:43Z"}
