{"icao":"LPMA","metar":"LPMA 171000Z 35015KT 320V020 9999 SCT015 15/09 Q1023","updated":"2026-01-17T10:20:00Z"}
