{"icao":"LPAR","metar":"LPAR 281600Z 33006KT 300V010 9999 FEW030 16/09 Q1021","updated":"2025-11-28T16:23:23Z"}
