{"icao":"LPMA","metar":"LPMA 181130Z 14005KT 060V220 9999 FEW014 18/10 Q1026","updated":"2026-02-18T11:37:46Z"}
