{"icao":"LPPS","metar":"LPPS 261400Z 21016KT 9999 FEW007 26/21 Q1016","updated":"2025-10-26T14:15:12Z"}
