{"icao":"LPFL","metar":"LPFL 152000Z 19008KT 150V230 9999 FEW022 15/09 Q1026","updated":"2025-12-15T20:22:47Z"}
