{"icao":"LPCS","metar":"LPCS 192200Z 01013KT CAVOK 15/09 Q1015","updated":"2026-04-19T22:33:53Z"}
