{"icao":"LPPT","metar":"LPPT 191830Z 31007KT 280V340 CAVOK 22/12 Q1014","updated":"2026-04-19T18:49:34Z"}
