{"icao":"LPFR","metar":"LPFR 162030Z 28005KT CAVOK 18/13 Q1017","updated":"2026-04-16T20:46:33Z"}
