{"icao":"LPPS","metar":"LPPS 302200Z 07015G29KT 030V100 9999 SCT015 16/10 Q1025","updated":"2026-03-30T22:34:31Z"}
