{"icao":"LPCS","metar":"LPCS 220600Z 27006KT 230V330 4000 BR SCT001 BKN003 20/20 Q1017","updated":"2025-10-22T06:28:02Z"}
