{"icao":"LPBJ","metar":"LPBJ 281200Z 31007KT 270V350 CAVOK 28/13 Q1021","updated":"2026-06-28T12:14:53Z"}
