{"icao":"KJFK","metar":"KJFK 021451Z 04008KT 10SM FEW190 BKN240 M03/M18 A3069 RMK AO2 SLP391 T10331178 51014 VISNO W $","updated":"2026-03-02T15:40:47Z"}
