{"icao":"LPMT","metar":"LPMT 021500Z 17006KT 140V200 9999 FEW018 BKN028 17/12 Q1008","updated":"2026-03-02T15:40:16Z"}
