{"icao":"LPPR","metar":"LPPR 170700Z VRB01KT 5000 BR NSC 11/10 Q1014","updated":"2025-10-17T07:17:37Z"}
