{"icao":"LPMT","metar":"LPMT 091800Z 33004KT 9999 FEW045 12/09 Q1028","updated":"2026-01-09T18:30:50Z"}
