{"icao":"KJFK","metar":"KJFK 010851Z 35007KT 5SM BR FEW250 01/01 A3003 RMK AO2 SLP170 T00110011 53004 $","updated":"2026-03-01T09:29:11Z"}
