{"icao":"KORD","metar":"KORD 111851Z 11011KT 10SM BKN100 BKN250 12/02 A3036 RMK AO2 SLP284 T01220022 $","updated":"2026-04-11T19:34:04Z"}
