{"icao":"LPFL","metar":"LPFL 071600Z 18016G26KT 9999 FEW023 20/15 Q1015","updated":"2025-11-07T16:19:23Z"}
