{"icao":"LPPR","metar":"LPPR 240600Z 04003KT 360V100 9999 FEW020 BKN026 BKN046 15/12 Q1016","updated":"2025-10-24T06:26:05Z"}
