{"icao":"KORD","metar":"KORD 241451Z 00000KT 10SM -RA OVC100 17/14 A3002 RMK AO2 SLP164 P0003 60037 T01670144 53007 $","updated":"2026-05-24T15:02:25Z"}
