{"icao":"LPCS","metar":"LPCS 240800Z 26008KT 220V320 4000 -RADZ BR SCT004 BKN012 15/15 Q1020","updated":"2025-11-24T08:27:14Z"}
