{"icao":"LPPD","metar":"LPPD 011100Z 26018KT 1600 BR BKN002 BKN005 16/15 Q1024","updated":"2026-03-01T11:19:55Z"}
