{"icao":"LPPS","metar":"LPPS 290800Z 33016KT 9999 VCSH SCT014 FEW018CB 21/17 Q1014","updated":"2025-10-29T08:25:40Z"}
