{"icao":"LPPR","metar":"LPPR 210900Z VRB02KT CAVOK 07/05 Q1029","updated":"2025-11-21T09:19:14Z"}
