{"icao":"LPLA","metar":"LPLA 292100Z 29005KT 9999 FEW007 SCT015 BKN025 17/16 Q1029","updated":"2025-11-29T21:15:51Z"}
