{"icao":"LPFR","metar":"LPFR 311800Z 25010KT 9000 FEW025 15/12 Q1021","updated":"2026-01-31T18:30:33Z"}
