{"icao":"LPPS","metar":"LPPS 301400Z 23007KT 210V270 9999 SCT015 SCT030 22/15 Q1016 RERA","updated":"2025-10-30T14:19:01Z"}
