{"icao":"LPPT","metar":"LPPT 180930Z 22012KT 6000 -RADZ FEW009 SCT012 BKN034 13/12 Q1021","updated":"2026-02-18T09:45:42Z"}
