{"icao":"LPBJ","metar":"LPBJ 241100Z 22007KT 200V280 9999 FEW008 BKN014 20/20 Q1020","updated":"2025-10-24T11:15:44Z"}
