{"icao":"LPMR","metar":"LPMR 100700Z VRB01KT 8000 FEW008 SCT025 14/13 Q1013","updated":"2026-04-10T07:25:51Z"}
