{"icao":"KJFK","metar":"KJFK 142251Z 36012KT 10SM OVC018 16/12 A3004 RMK AO2 SLP170 T01560117","updated":"2025-10-14T23:16:21Z"}
