{"icao":"KLAX","metar":"KLAX 160153Z 26012KT 10SM FEW015 FEW250 17/13 A2996 RMK AO2 SLP146 T01670128","updated":"2026-04-16T02:33:58Z"}
