{"icao":"LPHR","metar":"LPHR 211800Z 31021G32KT 9999 FEW007 SCT012 BKN050 14/11 Q1002 WS R28","updated":"2026-04-21T18:06:43Z"}
