{"icao":"LPAZ","metar":"LPAZ 301000Z 23006KT 190V260 7000 FEW004 SCT042 16/15 Q1020","updated":"2026-01-30T10:32:31Z"}
