{"icao":"LPHR","metar":"LPHR 220000Z 14009KT 9999 FEW017 BKN035 17/10 Q1032","updated":"2025-11-22T03:02:53Z"}
