{"icao":"LPCS","metar":"LPCS 202000Z 26010KT 230V290 9999 -RA FEW012 SCT020 BKN045 13/11 Q1016","updated":"2026-01-20T20:10:50Z"}
