{"icao":"LPAR","metar":"LPAR 161600Z 35010KT 300V020 CAVOK 24/11 Q1019","updated":"2026-04-16T21:41:36Z"}
