{"icao":"LPMR","metar":"LPMR 170800Z 15004KT 8000 3000S -SHRA FEW005 SCT018 FEW020TCU 11/11 Q1013","updated":"2025-11-17T08:27:14Z"}
