{"icao":"LPLA","metar":"LPLA 051900Z 30020KT 9000 -SHRA FEW015 SCT018CB 10/08 Q1007","updated":"2026-02-05T19:35:51Z"}
