{"icao":"KJFK","metar":"KJFK 131551Z 21011KT 10SM BKN050 OVC200 03/M04 A3011 RMK AO2 SLP197 T00331044","updated":"2025-12-13T16:22:28Z"}
