{"icao":"LPPS","metar":"LPPS 080100Z 04011KT 020V080 9999 FEW014 21/18 Q1026","updated":"2025-10-08T01:18:14Z"}
