{"icao":"LPCS","metar":"LPCS 271430Z 01011KT 340V050 CAVOK 21/07 Q1016","updated":"2026-03-27T14:48:36Z"}
