{"icao":"LPMA","metar":"LPMA 030730Z 27006KT 240V300 9999 FEW015 15/07 Q1015","updated":"2026-02-03T07:41:23Z"}
