{"icao":"LPMR","metar":"LPMR 261800Z 33005KT CAVOK 12/08 Q1025","updated":"2025-11-26T18:23:39Z"}
