{"icao":"LPST","metar":"LPST 291700Z 33009KT 9999 SCT010 19/16 Q1009","updated":"2025-10-29T18:27:30Z"}
