{"icao":"LPPS","metar":"LPPS 290900Z 33009KT 300V360 9999 FEW015 BKN030 17/08 Q1014","updated":"2026-04-29T09:07:54Z"}
