{"icao":"KJFK","metar":"KJFK 091351Z 14008KT 10SM SCT090 BKN250 16/13 A2988 RMK AO2 SLP119 T01610133 $","updated":"2025-11-09T14:14:46Z"}
