{"icao":"LPPS","metar":"LPPS 252030Z 02011KT 360V060 9999 SCT015 17/12 Q1019","updated":"2026-04-25T20:37:42Z"}
