{"icao":"LPLA","metar":"LPLA 072000Z 22025G36KT 180V250 8000 -RA FEW008 SCT015 17/15 Q1010","updated":"2026-02-07T20:25:07Z"}
