{"icao":"LPBJ","metar":"LPBJ 291500Z 32009KT 290V360 9999 SCT035 23/14 Q1007","updated":"2025-10-29T15:20:21Z"}
