{"icao":"LPPT","metar":"LPPT 162300Z 28006KT 230V310 9999 OVC012 13/11 Q1031","updated":"2026-02-16T23:27:44Z"}
