{"icao":"LPOV","metar":"LPOV 260900Z 04009KT 010V070 CAVOK 14/03 Q1020","updated":"2026-03-26T10:00:09Z"}
