{"icao":"KJFK","metar":"KJFK 201451Z 24018KT 10SM BKN029 BKN039 BKN250 16/09 A2977 RMK AO2 PK WND 25030/1420 RAB29E39 SLP082 P0000 60000 T01610094 51011 $","updated":"2025-10-20T15:18:20Z"}
