{"icao":"LPMA","metar":"LPMA 021900Z 01011KT 330V030 9999 BKN015 SCT030 18/09 Q1025","updated":"2025-12-02T19:18:20Z"}
