{"icao":"LPFR","metar":"LPFR 162330Z 03008KT CAVOK 20/12 Q1018","updated":"2026-04-16T23:38:57Z"}
