{"icao":"LPPS","metar":"LPPS 070230Z 06003KT 010V100 9999 BKN012 20/19 Q1023","updated":"2025-10-07T02:56:13Z"}
