{"icao":"LPMR","metar":"LPMR 191400Z 33007KT 3000 -DZRA BR SCT009 SCT015 BKN020 11/09 Q1021","updated":"2026-01-19T14:26:18Z"}
