{"icao":"KLAX","metar":"KLAX 020253Z 26005KT 7SM CLR 16/13 A3002 RMK AO2 SLP165 T01610133 53008 $","updated":"2025-12-02T03:17:42Z"}
