{"icao":"LPPT","metar":"LPPT 182300Z 13013KT CAVOK 15/11 Q1002","updated":"2026-03-18T23:29:14Z"}
