{"icao":"LPLA","metar":"LPLA 251600Z 03004KT 310V090 9999 FEW007 BKN015 19/17 Q1026","updated":"2025-11-25T16:26:31Z"}
