{"icao":"KLAX","metar":"KLAX 080653Z 03006KT 10SM CLR 19/M09 A2997 RMK AO2 SLP144 T01891089 $","updated":"2026-03-08T07:30:09Z"}
