{"icao":"LPFR","metar":"LPFR 221900Z 24018KT 6000 -RADZ BKN005 BKN012 14/13 Q1008","updated":"2026-01-22T19:23:48Z"}
