{"icao":"LPST","metar":"LPST 260800Z VRB01KT CAVOK 12/05 Q1019","updated":"2025-09-26T08:24:13Z"}
