{"icao":"LPPR","metar":"LPPR 070900Z 25004KT 220V300 6000 -RADZ SCT003 BKN009 17/17 Q1012","updated":"2025-11-07T09:19:03Z"}
