{"icao":"LPBJ","metar":"LPBJ 180400Z 31006KT 9999 OVC018 11/08 Q1022","updated":"2026-02-18T04:52:09Z"}
