{"icao":"LPMR","metar":"LPMR 201100Z 01010KT 350V050 9999 FEW022 12/06 Q1022","updated":"2025-11-20T11:16:42Z"}
