{"icao":"LPFL","metar":"LPFL 121230Z 33017G28KT 300V360 9999 FEW026 15/07 Q1020","updated":"2026-01-12T12:44:55Z"}
