{"icao":"LPST","metar":"LPST 191700Z 36012KT 9999 FEW020 14/06 Q1017","updated":"2025-11-19T23:17:09Z"}
