{"icao":"KORD","metar":"KORD 050051Z 17009G14KT 10SM CLR 14/01 A2999 RMK AO2 SLP156 T01390006 $","updated":"2025-11-05T01:24:31Z"}
