{"icao":"LPMA","metar":"LPMA 040330Z 31006KT 230V350 9999 SCT015 18/11 Q1005","updated":"2026-01-04T03:50:07Z"}
