{"icao":"LPPS","metar":"LPPS 311700Z 27006KT 7000 SCT002 BKN010 18/17 Q1023","updated":"2026-01-31T17:22:36Z"}
