{"icao":"LPHR","metar":"LPHR 181800Z 07007G18KT 360V100 9999 FEW015 17/11 Q1030","updated":"2026-01-18T18:26:40Z"}
