{"icao":"KJFK","metar":"KJFK 211951Z 16009KT 10SM FEW060 SCT140 SCT250 08/M07 A3029 RMK SLP257 T00831067 $ ","updated":"2026-04-21T20:01:59Z"}
