{"icao":"KORD","metar":"KORD 061618Z 16008KT 2 1/2SM R10L/5000VP6000FT -RA BR FEW029 SCT049CB OVC065 12/11 A2995 RMK AO2 TSE12 CB W MOV NE CB DSNT NE P0008 T01170111","updated":"2026-03-06T16:40:03Z"}
