{"icao":"LPPD","metar":"LPPD 011400Z 29032G42KT 9999 VCSH FEW020 SCT030 14/06 Q1008","updated":"2026-02-01T14:24:41Z"}
