{"icao":"LPHR","metar":"LPHR 311830Z 19003KT 140V220 9999 FEW024 BKN033 15/10 Q1030","updated":"2026-03-31T19:01:48Z"}
