{"icao":"LPLA","metar":"LPLA 270800Z 34005KT 320V020 9999 FEW022 BKN025 14/09 Q1030","updated":"2026-03-27T08:51:42Z"}
