{"icao":"LPMT","metar":"LPMT 070700Z 34006KT CAVOK 11/08 Q1018","updated":"2026-03-07T07:27:26Z"}
