{"icao":"LPPR","metar":"LPPR 241230Z 20009KT 170V250 9999 FEW012 14/10 Q1017","updated":"2026-02-24T13:02:59Z"}
