{"icao":"LPAZ","metar":"LPAZ 010730Z 23023G33KT 4300 RA BR BKN002 17/16 Q1009","updated":"2026-02-01T07:36:15Z"}
