{"icao":"KLAX","metar":"KLAX 170853Z VRB04KT 10SM CLR 16/13 A2990 RMK AO2 SLP121 T01560133 53002 $","updated":"2025-10-17T09:19:55Z"}
