{"icao":"LPLA","metar":"LPLA 280600Z 13022KT 9000 -RA FEW014 BKN020 OVC035 13/11 Q1015","updated":"2025-12-28T06:29:54Z"}
