{"icao":"LPLA","metar":"LPLA 092200Z VRB01KT CAVOK 10/05 Q1035","updated":"2026-03-09T22:27:29Z"}
