{"icao":"KLAX","metar":"KLAX 132053Z 26017G24KT 10SM FEW027 FEW070 SCT140 18/08 A3004 RMK AO2 LTG DSNT N SLP171 CB DSNT N T01830083 58009","updated":"2026-04-13T21:48:09Z"}
