{"icao":"LPPR","metar":"LPPR 211330Z 29007KT 9999 FEW045 18/10 Q1009","updated":"2026-03-21T13:41:00Z"}
