{"icao":"LPLA","metar":"LPLA 251000Z 34004KT 310V020 9999 VCSH FEW016 BKN025 16/13 Q1016","updated":"2026-04-25T10:42:01Z"}
