{"icao":"LPFR","metar":"LPFR 031600Z 26005KT 230V290 CAVOK 20/11 Q1021","updated":"2025-11-03T16:21:00Z"}
