{"icao":"LPOV","metar":"LPOV 141602Z 32012KT 1200 -DZ BR OVC003 14/14 Q1014","updated":"2026-03-14T16:30:20Z"}
