{"icao":"LPLA","metar":"LPLA 111300Z 23011KT 210V270 9999 FEW025 19/10 Q1016","updated":"2026-02-11T13:07:17Z"}
