{"icao":"KJFK","metar":"KJFK 102151Z 07009KT 9SM -RA FEW009 BKN012 OVC024 04/03 A3005 RMK AO2 SLP176 P0008 T00440033","updated":"2026-01-10T22:18:52Z"}
