{"icao":"LPOV","metar":"LPOV 171800Z 33004KT CAVOK 17/14 Q1015","updated":"2025-10-17T18:23:08Z"}
