{"icao":"LPHR","metar":"LPHR 301030Z 12014KT 9999 FEW020 BKN035 16/12 Q1032","updated":"2026-03-30T11:00:46Z"}
