{"icao":"KJFK","metar":"KJFK 052051Z 19014KT 10SM BKN046 BKN120 OVC140 02/M04 A3013 RMK AO2 SLP202 60000 T00171044 56016 $","updated":"2026-01-05T21:19:39Z"}
