{"icao":"KORD","metar":"KORD 110451Z 06004KT 10SM CLR 04/01 A3037 RMK AO2 SLP287 T00390006 $","updated":"2026-04-11T04:53:55Z"}
