{"icao":"LPBJ","metar":"LPBJ 072000Z 28012KT CAVOK 15/06 Q1011","updated":"2026-05-07T20:12:57Z"}
