{"icao":"LPPT","metar":"LPPT 181600Z 09004KT 040V130 9999 FEW090CB 30/12 Q1019","updated":"2025-09-18T16:21:08Z"}
