{"icao":"LPLA","metar":"LPLA 291700Z 22009KT 200V260 9999 FEW015 18/14 Q1011","updated":"2026-01-29T17:36:02Z"}
