{"icao":"LPPS","metar":"LPPS 191700Z 14003KT 080V190 9999 SCT015 24/21 Q1019","updated":"2025-09-19T17:14:55Z"}
