{"icao":"KORD","metar":"KORD 240651Z 00000KT 10SM FEW250 16/09 A3013 RMK AO2 SLP200 T01610089 $","updated":"2026-06-24T07:39:21Z"}
