{"icao":"KLAX","metar":"KLAX 150653Z 10005KT 10SM CLR 16/07 A3010 RMK AO2 SLP190 T01610067 $","updated":"2026-01-15T07:24:20Z"}
