{"icao":"LPAZ","metar":"LPAZ 210900Z 22014KT 6000 SCT004 BKN022 23/22 Q1016","updated":"2025-10-21T09:19:54Z"}
