{"icao":"LPPS","metar":"LPPS 091700Z 36007KT 330V040 9999 SCT015 21/12 Q1022","updated":"2025-11-09T17:14:42Z"}
