{"icao":"LPMT","metar":"LPMT 072000Z 34008KT CAVOK 19/15 Q1022","updated":"2025-10-07T20:19:03Z"}
