{"icao":"KORD","metar":"KORD 161751Z 31021G34KT 7SM -SN BKN030 BKN041 OVC055 M03/M10 A2963 RMK AO2 PK WND 31038/1704 SLP042 DRSN 4/001 P0000 60000 T10331100 11033 21050 53023","updated":"2026-03-16T17:58:39Z"}
