{"icao":"LPPS","metar":"LPPS 070830Z 33017KT 9999 SCT015 15/07 Q1022","updated":"2026-04-07T09:00:54Z"}
