{"icao":"LPFR","metar":"LPFR 051930Z 25016KT 9000 FEW020 SCT030 15/13 Q1005","updated":"2026-02-05T19:35:47Z"}
