{"icao":"LPMA","metar":"LPMA 311100Z 09004KT 050V150 9999 FEW011 19/16 Q1025","updated":"2026-01-31T11:20:17Z"}
