{"icao":"KORD","metar":"KORD 300551Z 29004KT 10SM FEW090 M13/M20 A3033 RMK AO2 SLP287 4/002 T11331200 11106 21144 410831172 50003","updated":"2026-01-30T06:46:27Z"}
