{"icao":"LPBJ","metar":"LPBJ 272100Z 17006KT 140V200 9999 -SHRA FEW025 BKN048 19/18 Q1020","updated":"2025-10-27T21:15:41Z"}
