{"icao":"LPMA","metar":"LPMA 231530Z 21016KT 160V220 9999 SCT015 20/15 Q1013","updated":"2026-04-23T15:51:35Z"}
