{"icao":"LPMT","metar":"LPMT 172200Z 33004KT CAVOK 16/10 Q1017","updated":"2026-04-17T22:45:05Z"}
