{"icao":"LPOV","metar":"LPOV 061400Z 20013KT 3000 -DZ BR SCT004 OVC020 16/16 Q1021 REDZRA","updated":"2025-12-06T14:15:53Z"}
