{"icao":"LPCS","metar":"LPCS 271900Z 29007KT 250V320 CAVOK 24/11 Q1017","updated":"2026-05-27T19:23:02Z"}
