{"icao":"KJFK","metar":"KJFK 010251Z 21014KT 10SM OVC042 01/M07 A2974 RMK AO2 SLP069 T00061072 58023 $","updated":"2026-01-01T03:49:24Z"}
