{"icao":"LPPT","metar":"LPPT 191730Z 34011KT 9999 FEW045 13/05 Q1028","updated":"2026-02-19T17:48:49Z"}
