{"icao":"LPPR","metar":"LPPR 241130Z 30007KT 270V330 9999 FEW020 18/13 Q1018","updated":"2026-04-24T11:55:27Z"}
