{"icao":"LPMT","metar":"LPMT 180200Z 06003KT 9999 FEW030 03/03 Q1009","updated":"2026-01-18T03:44:39Z"}
