{"icao":"KORD","metar":"KORD 101051Z 16009KT 10SM OVC026 04/01 A3003 RMK AO2 SLP173 T00390006","updated":"2026-01-10T11:16:26Z"}
