{"icao":"LPFR","metar":"LPFR 011430Z 24007KT CAVOK 19/09 Q1020","updated":"2026-04-01T15:02:28Z"}
