{"icao":"LPPD","metar":"LPPD 300230Z 16008KT 9999 SCT004 BKN016 21/20 Q1023","updated":"2025-09-30T02:56:56Z"}
