{"icao":"LPMR","metar":"LPMR 060100Z 36002KT 9999 FEW020 12/10 Q1016","updated":"2026-05-06T02:42:47Z"}
