{"icao":"LPAZ","metar":"LPAZ 172030Z 26013KT 9999 SCT014 BKN033 17/13 Q1026","updated":"2026-05-17T20:50:00Z"}
