{"icao":"LPHR","metar":"LPHR 051400Z 24017KT 9000 SCT007 BKN012 BKN060 19/18 Q1017","updated":"2025-12-05T14:19:55Z"}
