{"icao":"LPOV","metar":"LPOV 111400Z 34015KT CAVOK 27/12 Q1019","updated":"2026-06-11T14:33:43Z"}
