{"icao":"LPLA","metar":"LPLA 260300Z 07013G24KT 040V110 9999 FEW025 SCT030 18/12 Q1023","updated":"2025-10-26T03:08:44Z"}
