{"icao":"KORD","metar":"KORD 291251Z 00000KT 10SM FEW030 19/16 A3023 RMK AO2 SLP234 T01890156","updated":"2025-09-29T13:28:27Z"}
