{"icao":"KLAX","metar":"KLAX 140253Z 15011KT 10SM FEW023 SCT028 SCT045 18/13 A2978 RMK AO2 RAE00 SLP082 P0000 60001 T01780128 53015 $","updated":"2025-10-14T03:37:02Z"}
