{"icao":"LPLA","metar":"LPLA 131400Z 34007KT 310V020 9999 FEW030 21/13 Q1016","updated":"2025-10-13T14:18:52Z"}
