{"icao":"LPMR","metar":"LPMR 210400Z 14015G25KT 110V170 CAVOK 22/07 Q1002","updated":"2026-04-21T07:47:52Z"}
