{"icao":"LPPD","metar":"LPPD 150500Z 32006KT 9999 FEW025 13/06 Q1012","updated":"2025-11-15T05:17:31Z"}
