{"icao":"LPAZ","metar":"LPAZ 200100Z 03012KT 360V060 9999 FEW026 SCT038 20/12 Q1026","updated":"2025-09-20T01:15:41Z"}
