{"icao":"LPMR","metar":"LPMR 181600Z 31007KT 280V340 CAVOK 23/14 Q1016","updated":"2025-10-18T16:19:28Z"}
