{"icao":"LPFL","metar":"LPFL 162100Z 16016KT 4000 RA BKN003 FEW012CB 19/18 Q1017","updated":"2025-11-17T05:19:34Z"}
