{"icao":"KJFK","metar":"KJFK 072051Z 33023G35KT 10SM FEW035 BKN049 BKN065 BKN250 M11/M21 A2979 RMK AO2 PK WND 34043/1957 SLP087 T11061211 53024 $","updated":"2026-02-07T21:25:44Z"}
