{"icao":"LPPT","metar":"LPPT 290300Z 20003KT 170V230 9999 FEW022 FEW025CB 16/16 Q1007","updated":"2025-10-29T03:14:11Z"}
