{"icao":"LPCS","metar":"LPCS 230900Z 28010KT 240V320 9999 SHRAGS FEW015 FEW020CB SCT030 11/08 Q1004","updated":"2026-01-23T09:28:39Z"}
