{"icao":"LPPR","metar":"LPPR 180600Z 18012KT CAVOK 12/08 Q1019","updated":"2025-12-18T06:31:06Z"}
