{"icao":"LPMT","metar":"LPMT 111100Z 01007KT 340V050 CAVOK 14/10 Q1027","updated":"2026-03-11T11:32:10Z"}
