{"icao":"KJFK","metar":"KJFK 140651Z 24008KT 10SM BKN120 BKN250 M04/M08 A3014 RMK AO2 SLP207 T10391083 $","updated":"2026-02-14T07:32:57Z"}
