{"icao":"LPOV","metar":"LPOV 192100Z 00000KT CAVOK 08/07 Q1030","updated":"2026-02-19T21:30:30Z"}
