{"icao":"KORD","metar":"KORD 011551Z 19005KT 10SM FEW250 M07/M13 A3028 RMK AO2 SLP265 T10671133","updated":"2026-02-01T16:28:26Z"}
