{"icao":"LPPT","metar":"LPPT 221600Z 08005KT 030V170 CAVOK 14/M01 Q1028","updated":"2025-11-22T16:20:48Z"}
