{"icao":"LPMA","metar":"LPMA 201500Z 20006KT 160V220 9999 FEW016 19/10 Q1023","updated":"2025-12-20T15:17:49Z"}
