{"icao":"LPFL","metar":"LPFL 041230Z 09004KT 020V160 9999 VCSH FEW012 SCT016 BKN030 16/12 Q1025","updated":"2026-01-04T12:38:14Z"}
