{"icao":"KLAX","metar":"KLAX 211214Z 00000KT 2 1/2SM BR SCT009 BKN014 13/12 A3008 RMK AO2 T01330122 $","updated":"2025-12-21T12:37:12Z"}
