{"icao":"LPHR","metar":"LPHR 021700Z 32008KT 260V350 9999 SCT018 SCT035 15/08 Q1009","updated":"2026-01-02T17:16:59Z"}
