{"icao":"LPPD","metar":"LPPD 260900Z 35007KT 320V020 9999 FEW025 BKN035 18/12 Q1025","updated":"2026-06-26T09:22:48Z"}
