{"icao":"KJFK","metar":"KJFK 171851Z 18015KT 10SM FEW050 FEW250 25/15 A3005 RMK AO2 SLP176 T02500150 $","updated":"2026-05-17T19:06:47Z"}
