{"icao":"KORD","metar":"KORD 280951Z 13004KT 1/4SM R10L/2200V3000FT -DZ FG VV002 07/06 A2969 RMK AO2 SLP058 P0000 T00670061 $","updated":"2025-12-28T10:19:27Z"}
