{"icao":"LPMR","metar":"LPMR 180100Z VRB01KT 3000 BR FEW002 09/09 Q1019","updated":"2025-11-18T01:23:54Z"}
