{"icao":"LPCS","metar":"LPCS 151500Z 29006KT 230V330 9999 FEW006 SCT015 BKN022 13/12 Q1031","updated":"2026-02-15T15:24:35Z"}
