{"icao":"KORD","metar":"KORD 071451Z 25015G24KT 10SM FEW150 FEW250 12/07 A2952 RMK AO2 SLP995 T01220072 51007 $","updated":"2025-11-07T15:18:38Z"}
