{"icao":"LPPR","metar":"LPPR 101830Z 32008KT 8000 FEW007 15/13 Q1012","updated":"2026-04-10T18:51:01Z"}
