{"icao":"LPFR","metar":"LPFR 280230Z 08003KT 020V140 CAVOK 18/14 Q1010","updated":"2026-04-28T02:47:20Z"}
