{"icao":"LPAZ","metar":"LPAZ 140900Z 03010KT 9999 FEW015 SCT021 14/13 Q1029","updated":"2026-05-14T09:33:06Z"}
