{"icao":"LPBJ","metar":"LPBJ 171600Z 32007KT 9999 VCTS FEW025CB SCT032 17/10 Q1014 RETS","updated":"2025-11-17T16:25:40Z"}
