{"icao":"LPPT","metar":"LPPT 260900Z 01006KT 9999 FEW030 17/14 Q1018","updated":"2025-10-26T09:16:00Z"}
