{"icao":"LPPR","metar":"LPPR 190900Z 19017KT 160V220 8000 -RA BKN005 BKN030 19/18 Q1013","updated":"2025-10-19T09:15:58Z"}
