{"icao":"LPPR","metar":"LPPR 192200Z 22006KT 190V250 CAVOK 18/16 Q1020","updated":"2025-09-19T22:15:59Z"}
