{"icao":"LPPT","metar":"LPPT 031400Z 33007KT 280V010 9999 FEW018 26/13 Q1022","updated":"2025-10-03T14:16:27Z"}
