{"icao":"LPLA","metar":"LPLA 112300Z 31021KT 9999 FEW025 BKN040 14/08 Q1003","updated":"2025-11-11T23:16:37Z"}
