{"icao":"LPMA","metar":"LPMA 271300Z 04005KT 360V090 9999 FEW015 25/19 Q1022","updated":"2025-09-27T13:19:55Z"}
