{"icao":"LPMT","metar":"LPMT 091800Z 33006KT CAVOK 21/15 Q1018","updated":"2025-10-09T18:25:34Z"}
