{"icao":"KORD","metar":"KORD 171351Z 25010G21KT 10SM FEW025 FEW055 FEW200 M11/M17 A2990 RMK AO2 SLP135 T11111172 $","updated":"2026-01-17T14:17:54Z"}
