{"icao":"KJFK","metar":"KJFK 110751Z 26005KT 10SM BKN060 OVC070 01/M02 A2969 RMK AO2 RAE07 SLP054 P0000 T00111017 $","updated":"2026-02-11T07:58:50Z"}
