{"icao":"LPAZ","metar":"LPAZ 072230Z 35012KT 9999 FEW028 13/08 Q1033","updated":"2026-04-07T22:36:32Z"}
