{"icao":"LPFR","metar":"LPFR 262200Z 36003KT 310V030 9999 FEW010 BKN015 21/18 Q1019","updated":"2025-10-26T22:16:20Z"}
