{"icao":"KLAX","metar":"KLAX 181253Z 08006KT 10SM CLR 16/08 A2997 RMK AO2 SLP148 T01560083","updated":"2025-10-18T13:21:42Z"}
