{"icao":"LPFR","metar":"LPFR 101900Z 32005KT 9999 FEW012 15/11 Q1020","updated":"2025-12-10T19:17:00Z"}
