{"icao":"KORD","metar":"KORD 020451Z 21011G20KT 10SM -SN BKN020 OVC041 M06/M10 A3008 RMK AO2 SNB35 SLP197 P0000 T10561100","updated":"2026-02-02T04:56:30Z"}
