{"icao":"LPBJ","metar":"LPBJ 051300Z 13011KT CAVOK 26/02 Q1021","updated":"2026-04-05T13:54:18Z"}
