{"icao":"LPAZ","metar":"LPAZ 300300Z 33009KT 9999 FEW009 BKN018 17/16 Q1028","updated":"2025-11-30T03:25:37Z"}
