{"icao":"LPPT","metar":"LPPT 261100Z 04013KT 350V080 CAVOK 18/05 Q1016","updated":"2026-03-26T11:05:22Z"}
