{"icao":"LPMR","metar":"LPMR 301000Z 01010KT 350V050 9999 FEW020 12/05 Q1020","updated":"2025-11-30T10:18:16Z"}
