{"icao":"LPMR","metar":"LPMR 102100Z 17002KT CAVOK 16/12 Q1021","updated":"2025-10-10T21:14:28Z"}
