{"icao":"LPMT","metar":"LPMT 251400Z 36011KT 330V030 9999 FEW036 16/07 Q1022","updated":"2025-11-25T14:18:52Z"}
