{"icao":"LPMT","metar":"LPMT 240800Z 07004KT 050V110 9999 FEW020 08/06 Q1009","updated":"2025-12-24T08:28:16Z"}
