{"icao":"LPMA","metar":"LPMA 150700Z 02016KT 9999 SCT015 22/16 Q1022","updated":"2025-09-15T07:18:00Z"}
