{"icao":"LPLA","metar":"LPLA 012300Z 35012KT 9999 FEW020 SCT035 14/09 Q1031","updated":"2025-12-01T23:17:58Z"}
