{"icao":"LPPS","metar":"LPPS 022030Z 33022KT 9999 FEW015 FEW018TCU 14/05 Q1018","updated":"2026-03-02T20:36:41Z"}
