{"icao":"KORD","metar":"KORD 211151Z 00000KT 7SM OVC300 07/05 A3004 RMK AO2 SLP175 60000 T00670050 10083 20061 53005","updated":"2025-11-21T12:37:24Z"}
