{"icao":"KLAX","metar":"KLAX 181653Z 10007KT 10SM FEW017 SCT029 BKN065 BKN180 13/09 A2994 RMK AO2 SLP139 T01280094 $","updated":"2025-11-18T17:18:20Z"}
