{"icao":"LPMT","metar":"LPMT 241200Z 25010KT 220V280 9999 BKN025 24/18 Q1018","updated":"2025-10-24T12:38:44Z"}
