{"icao":"LPMT","metar":"LPMT 201700Z 36012KT 9999 FEW040 14/04 Q1021","updated":"2025-11-20T17:15:11Z"}
