{"icao":"LPFR","metar":"LPFR 241600Z 11011KT 9999 FEW020 20/10 Q1019","updated":"2026-03-24T16:08:14Z"}
