{"icao":"LPPT","metar":"LPPT 101400Z 23007KT 210V270 9999 FEW018 SCT028 20/15 Q1018","updated":"2025-11-10T14:18:44Z"}
