{"icao":"LPFL","metar":"LPFL 241700Z 33012G24KT 250V020 9999 SCT023 15/08 Q1021","updated":"2026-02-24T17:08:35Z"}
