{"icao":"LPMR","metar":"LPMR 302000Z 16008KT CAVOK 17/14 Q1012","updated":"2025-10-30T21:16:23Z"}
