{"icao":"LPMA","metar":"LPMA 271000Z 34009KT 310V010 9999 SCT015 SCT030 17/08 Q1016","updated":"2025-12-27T10:19:05Z"}
