{"icao":"LPMT","metar":"LPMT 152100Z 35009KT 320V020 9999 FEW030 15/11 Q1016","updated":"2026-05-15T21:58:00Z"}
