{"icao":"KLAX","metar":"KLAX 010853Z 00000KT 10SM FEW012 BKN016 16/13 A2993 RMK AO2 SLP133 T01610128 50002","updated":"2026-05-01T08:59:17Z"}
