{"icao":"KLAX","metar":"KLAX 171753Z 00000KT 10SM FEW220 SCT260 BKN300 21/02 A3009 RMK AO2 SLP188 T02110017 10211 20100 53016 $","updated":"2026-01-17T18:27:17Z"}
