{"icao":"LPOV","metar":"LPOV 181800Z 34008KT 9999 FEW025 19/14 Q1016","updated":"2026-04-18T18:49:52Z"}
