{"icao":"KORD","metar":"KORD 020551Z 26005KT 10SM OVC037 M07/M12 A2988 RMK AO2 SLP130 T10671117 11067 21078 410671117 56009 $","updated":"2026-01-02T06:31:43Z"}
