{"icao":"LPFL","metar":"LPFL 271230Z 21018G35KT 180V270 7000 -SHRA FEW012 BKN014 17/14 Q1002","updated":"2026-01-27T12:48:10Z"}
