{"icao":"KJFK","metar":"KJFK 180851Z 12003KT 5SM BR FEW010 BKN080 BKN120 BKN200 BKN250 00/M01 A3007 RMK AO2 SLP181 T00001006 58013 $","updated":"2026-01-18T09:20:03Z"}
