{"icao":"LPCS","metar":"LPCS 251100Z 24004KT 210V270 9999 SCT008 BKN018 20/20 Q1014","updated":"2025-10-25T11:12:56Z"}
