{"icao":"LPPS","metar":"LPPS 160700Z 34014KT 9999 SCT014 15/08 Q1024","updated":"2026-01-16T07:23:47Z"}
