{"icao":"LPMA","metar":"LPMA 050930Z 04013KT 360V070 9999 FEW015 19/14 Q1008","updated":"2026-02-05T09:42:43Z"}
