{"icao":"LPBJ","metar":"LPBJ 092000Z 31007KT 9999 FEW035 07/04 Q1021","updated":"2026-03-09T20:33:09Z"}
