{"icao":"LPFL","metar":"LPFL 091230Z 14005KT 020V180 9999 FEW005 SCT020 21/19 Q1031","updated":"2026-06-09T12:35:42Z"}
