{"icao":"KLAX","metar":"KLAX 111853Z 26006KT 10SM CLR 21/07 A3002 RMK AO2 SLP165 T02110072 $","updated":"2025-12-11T19:19:12Z"}
