{"icao":"KORD","metar":"KORD 210351Z 19008KT 10SM BKN055 OVC070 M04/M13 A3014 RMK AO2 SLP220 T10441133 $","updated":"2026-01-21T04:42:59Z"}
