{"icao":"KORD","metar":"KORD 230751Z 32015G22KT 10SM BKN039 M07/M12 A3038 RMK AO2 SLP297 T10671122 $","updated":"2026-02-23T08:50:23Z"}
