{"icao":"LPBJ","metar":"LPBJ 050400Z 29005KT 0700 FG VV001 15/15 Q1020","updated":"2025-10-05T04:19:13Z"}
