{"icao":"LPOV","metar":"LPOV 131400Z 22006KT 9999 -RA SCT020 FEW025CB SCT035 16/15 Q0997","updated":"2025-11-13T14:18:38Z"}
