{"icao":"KJFK","metar":"KJFK 160751Z 35008KT 10SM BKN180 09/02 A2996 RMK AO2 SLP146 T00940022","updated":"2025-10-16T08:25:56Z"}
