{"icao":"LPMA","metar":"LPMA 180700Z 25003KT 230V290 9999 SCT014 13/09 Q1025","updated":"2026-02-18T07:12:50Z"}
