{"icao":"LPLA","metar":"LPLA 011300Z 32020G32KT 9999 FEW015 BKN020 BKN030 15/11 Q1025 R MK WIND RWY15 32023KT PK 34033/54 RH77 WHT","updated":"2026-03-01T13:37:32Z"}
