{"icao":"LPPT","metar":"LPPT 301500Z 32012KT 280V340 CAVOK 26/14 Q1021","updated":"2026-05-30T15:04:38Z"}
