{"icao":"LPMR","metar":"LPMR 020500Z VRB01KT 0300 FG VV001 14/14 Q1020","updated":"2025-10-02T12:35:04Z"}
