{"icao":"KJFK","metar":"KJFK 051751Z 20012KT 10SM FEW045 BKN070 OVC120 01/M07 A3018 RMK AO2 SLP217 T00111072 10022 21033 58027 $","updated":"2026-01-05T18:31:40Z"}
