{"icao":"LPOV","metar":"LPOV 141800Z 34026KT 9999 FEW028 16/11 Q1013","updated":"2026-05-14T18:59:00Z"}
