{"icao":"LPPR","metar":"LPPR 141030Z 22005KT 190V270 6000 OVC004 15/14 Q1023","updated":"2026-04-14T11:01:12Z"}
