{"icao":"LPPT","metar":"LPPT 181130Z 21014KT 9999 FEW007 BKN009 13/13 Q1021","updated":"2026-02-18T11:37:10Z"}
