{"icao":"LPFL","metar":"LPFL 230930Z 22003KT 190V250 9999 FEW020 BKN035 14/07 Q1025","updated":"2026-03-23T10:01:36Z"}
