{"icao":"LPHR","metar":"LPHR 121000Z 33010KT 280V360 9999 SCT016 FEW020CB SCT035 14/08 Q1003","updated":"2025-11-12T10:20:47Z"}
