{"icao":"LPMA","metar":"LPMA 241900Z 00000KT 9999 SCT014 BKN030 22/18 Q1018","updated":"2025-10-24T19:14:40Z"}
