{"icao":"LPFL","metar":"LPFL 081400Z 17019G29KT 140V200 9999 FEW012 SCT017 FEW020TCU 24/22 Q1016","updated":"2025-10-08T14:18:17Z"}
