{"icao":"KJFK","metar":"KJFK 020951Z 02006KT 10SM BKN033 BKN043 BKN250 02/M04 A3012 RMK AO2 SLP200 T00171044 $","updated":"2025-12-02T10:22:04Z"}
