{"icao":"LPLA","metar":"LPLA 252200Z VRB11G24KT 9999 FEW025 18/09 Q1024","updated":"2025-10-25T22:15:20Z"}
