{"icao":"KLAX","metar":"KLAX 191853Z VRB03KT 10SM FEW180 FEW250 20/07 A3005 RMK AO2 SLP174 T02000067 $","updated":"2026-01-19T19:18:43Z"}
