{"icao":"LPMR","metar":"LPMR 270900Z 22007KT 160V290 9999 -RA FEW012 SCT032 11/07 Q0999","updated":"2026-01-27T09:31:28Z"}
