{"icao":"LPPS","metar":"LPPS 132200Z 01012KT 9999 SCT014 15/12 Q1026","updated":"2026-03-13T22:27:08Z"}
