{"icao":"LPPD","metar":"LPPD 191700Z 03013G24KT 340V080 9999 FEW020 SCT035 17/12 Q1023","updated":"2025-11-19T17:17:30Z"}
