{"icao":"LPMR","metar":"LPMR 080500Z 11007KT CAVOK 08/07 Q1015","updated":"2026-04-08T07:17:36Z"}
