{"icao":"LPMT","metar":"LPMT 210900Z 22008KT 190V260 9999 SCT016 SCT021 19/15 Q1004","updated":"2026-04-21T09:24:21Z"}
