{"icao":"LPPS","metar":"LPPS 311900Z 29007KT 9999 SCT005 BKN010 18/17 Q1024","updated":"2026-01-31T19:19:45Z"}
