{"icao":"LPAZ","metar":"LPAZ 210500Z 09011KT 9999 FEW035 20/13 Q1026","updated":"2025-09-21T05:16:25Z"}
