{"icao":"LPFR","metar":"LPFR 242200Z 25005KT CAVOK 20/16 Q1016","updated":"2025-09-24T22:16:00Z"}
