{"icao":"LPLA","metar":"LPLA 142300Z 29004KT 9999 FEW014 BKN022 BKN040 22/21 Q1028","updated":"2025-09-14T23:14:29Z"}
