{"icao":"LPMR","metar":"LPMR 021100Z 31008KT 280V010 9000 NSC 17/12 Q1022","updated":"2026-04-02T11:43:05Z"}
