{"icao":"LPBJ","metar":"LPBJ 012300Z 17008KT 8000 BKN008 17/16 Q1021","updated":"2025-11-01T23:15:53Z"}
