{"icao":"KJFK","metar":"KJFK 191551Z 04009KT 10SM FEW022 SCT044 BKN065 BKN150 BKN250 06/03 A3019 RMK AO2 RAE03 SLP223 P0001 T00560028 $","updated":"2025-11-19T16:25:44Z"}
