{"icao":"LPBJ","metar":"LPBJ 030500Z 29006KT CAVOK 15/12 Q1021","updated":"2025-10-03T05:16:51Z"}
