{"icao":"KLAX","metar":"KLAX 021853Z 00000KT 10SM FEW010 FEW160 SCT250 18/03 A3006 RMK AO2 SLP179 T01780033 $","updated":"2025-12-02T19:18:21Z"}
