{"icao":"KORD","metar":"KORD 202051Z 03017G23KT 10SM FEW037 FEW250 14/02 A3025 RMK AO2 SLP246 T01390017 50000","updated":"2026-05-20T21:51:37Z"}
