{"icao":"LPBJ","metar":"LPBJ 231200Z 36003KT 300V110 CAVOK 14/07 Q1027","updated":"2025-11-23T12:32:50Z"}
