{"icao":"LPMR","metar":"LPMR 051400Z 31008KT CAVOK 25/13 Q1020","updated":"2026-04-05T14:34:08Z"}
