{"icao":"LPFR","metar":"LPFR 091100Z 10004KT 040V150 CAVOK 19/07 Q1022","updated":"2025-11-09T11:13:00Z"}
