{"icao":"KLAX","metar":"KLAX 232053Z 10005KT 10SM FEW022 FEW085 21/13 A3006 RMK AO2 SLP178 T02060128 58009","updated":"2025-11-23T21:16:11Z"}
