{"icao":"LPFL","metar":"LPFL 221000Z 18018G29KT 150V210 9999 SCT007 SCT018 17/15 Q1015","updated":"2026-02-22T10:23:31Z"}
