{"icao":"LPMA","metar":"LPMA 302300Z VRB02KT 9999 SCT013 18/15 Q1019","updated":"2025-12-30T23:18:21Z"}
