{"icao":"LPFL","metar":"LPFL 090700Z 17010KT 140V220 9999 FEW013 SCT017 22/17 Q1016","updated":"2025-10-09T07:17:30Z"}
