{"icao":"LPFR","metar":"LPFR 121600Z 11006KT 9999 FEW020 25/14 Q1014","updated":"2025-10-12T16:18:53Z"}
