{"icao":"LPPD","metar":"LPPD 020530Z 05008KT 010V080 9999 FEW018 14/12 Q1018","updated":"2026-05-02T05:35:46Z"}
