{"icao":"KORD","metar":"KORD 041851Z 18013G20KT 10SM FEW110 FEW250 17/M05 A3014 RMK AO2 SLP207 T01671050 $","updated":"2025-11-04T19:14:55Z"}
