{"icao":"LPPS","metar":"LPPS 021030Z 30009KT 240V330 9999 SCT015 19/15 Q1020","updated":"2026-05-02T10:50:19Z"}
