{"icao":"LPAR","metar":"LPAR 011300Z 07005KT 020V130 9999 FEW025 29/12 Q1020","updated":"2025-10-01T13:27:57Z"}
