{"icao":"LPFL","metar":"LPFL 171300Z 20017G30KT 160V240 9999 FEW010 SCT016 24/21 Q1007","updated":"2025-10-17T13:26:56Z"}
