{"icao":"LPPS","metar":"LPPS 291100Z 33016KT 9999 SCT015 FEW018TCU 23/17 Q1016","updated":"2025-10-29T11:16:24Z"}
