{"icao":"LPFL","metar":"LPFL 061800Z 32011KT 280V360 3000 -RADZ FEW010 BKN014 14/12 Q1018 RERA","updated":"2026-05-06T23:50:46Z"}
