{"icao":"LPCS","metar":"LPCS 061800Z 25005KT 9999 FEW020 16/12 Q1018","updated":"2025-11-06T18:27:54Z"}
