{"icao":"LPFR","metar":"LPFR 032000Z 05003KT 010V080 9999 FEW012 16/10 Q1011","updated":"2026-03-03T20:30:56Z"}
