{"icao":"LPAR","metar":"LPAR 061500Z 26009KT 220V300 CAVOK 28/14 Q1019","updated":"2025-10-06T15:18:00Z"}
