{"icao":"LPPD","metar":"LPPD 010400Z 20004KT 0700 R30/P2000 FG VV001 21/21 Q1021","updated":"2025-10-01T04:20:52Z"}
