{"icao":"KJFK","metar":"KJFK 281351Z 04016G26KT 10SM FEW035 BKN250 10/04 A3034 RMK AO2 PK WND 04026/1342 SLP272 T01000039","updated":"2025-10-28T14:18:47Z"}
