{"icao":"LPPT","metar":"LPPT 191930Z 08008KT 030V100 9999 -RA FEW008 13/13 Q1006","updated":"2026-03-19T19:47:46Z"}
