{"icao":"LPPT","metar":"LPPT 282200Z 36005KT 340V040 CAVOK 10/07 Q1017","updated":"2025-12-28T22:18:34Z"}
