{"icao":"LPPT","metar":"LPPT 240900Z 24012KT 9999 FEW008 SCT045 15/14 Q1020 REDZ","updated":"2025-11-24T09:22:59Z"}
