{"icao":"LPCS","metar":"LPCS 211500Z 18006KT 130V230 9999 FEW022 19/11 Q1008","updated":"2026-03-21T15:24:26Z"}
