{"icao":"LPMT","metar":"LPMT 240300Z 24005KT 200V260 9999 FEW012 SCT030 14/12 Q1021","updated":"2025-11-24T05:19:44Z"}
