{"icao":"KORD","metar":"KORD 012051Z 05015KT 10SM BKN015 OVC025 04/M01 A3016 RMK AO2 SLP220 T00391006 58016","updated":"2026-04-01T20:56:12Z"}
