{"icao":"LPMA","metar":"LPMA 171930Z 04004KT 360V100 9999 BKN013 16/12 Q1025","updated":"2026-02-17T19:47:31Z"}
