{"icao":"LPHR","metar":"LPHR 131800Z 23007KT 190V250 9999 FEW025 20/12 Q1014","updated":"2025-10-13T18:24:56Z"}
