{"icao":"LPPR","metar":"LPPR 020400Z VRB01KT 9000 -SHRA FEW014 SCT020 BKN040 12/12 Q1023","updated":"2025-11-02T04:21:19Z"}
