{"icao":"KORD","metar":"KORD 101051Z 21007KT 8SM FEW008 SCT250 14/13 A2978 RMK AO2 SLP081 T01440133 $","updated":"2026-03-10T11:32:23Z"}
