{"icao":"LPPD","metar":"LPPD 022300Z 34003KT 310V010 9999 FEW025 BKN040 14/09 Q1031","updated":"2025-12-02T23:17:28Z"}
