{"icao":"LPPS","metar":"LPPS 210900Z 05008KT 020V080 9999 FEW015 SCT030 15/11 Q1027","updated":"2026-02-21T09:28:28Z"}
