{"icao":"KORD","metar":"KORD 231451Z 32005KT 10SM OVC008 15/12 A3001 RMK AO2 SLP160 T01500122 51010","updated":"2026-05-23T14:59:52Z"}
