{"icao":"LPBJ","metar":"LPBJ 230400Z 10003KT CAVOK 08/05 Q1024","updated":"2026-02-23T04:56:54Z"}
