{"icao":"LPLA","metar":"LPLA 230400Z 30033G45KT 8000 -RA SCT020 BKN030 11/08 Q1019","updated":"2026-01-23T04:41:21Z"}
