{"icao":"LPBJ","metar":"LPBJ 201300Z 01008KT CAVOK 16/04 Q1029","updated":"2026-02-20T14:00:39Z"}
