{"icao":"LPMT","metar":"LPMT 081800Z 15006KT 2000 -RADZ BR SCT005 BKN009 BKN015 12/12 Q1012","updated":"2026-02-08T18:35:28Z"}
