{"icao":"LPFR","metar":"LPFR 211230Z 32006KT 9999 FEW015 12/09 Q1010","updated":"2025-12-21T12:36:54Z"}
