{"icao":"LPAR","metar":"LPAR 161300Z 21006KT 170V230 CAVOK 27/10 Q1013","updated":"2025-10-16T13:29:40Z"}
