{"icao":"KORD","metar":"KORD 271551Z 20007KT 10SM FEW090 BKN250 08/01 A2988 RMK AO2 SLP123 T00780006","updated":"2026-02-27T16:39:39Z"}
