{"icao":"LPPD","metar":"LPPD 061400Z 26015KT 9999 SCT008 BKN012 20/19 Q1013","updated":"2025-11-06T14:19:00Z"}
