{"icao":"LPFL","metar":"LPFL 091130Z 20016G28KT 170V240 4000 RA FEW008 BKN012 FEW018CB 20/16 Q1002","updated":"2026-02-09T11:42:58Z"}
