{"icao":"LPAZ","metar":"LPAZ 272200Z 35024G34KT 9999 FEW011 BKN013 FEW028TCU 18/17 Q1011","updated":"2025-10-27T22:16:20Z"}
