{"icao":"LPOV","metar":"LPOV 222300Z 30009KT 250V310 9999 SCT016 BKN045 13/00 Q1000","updated":"2026-01-22T23:19:47Z"}
