{"icao":"LPHR","metar":"LPHR 121400Z 32013KT 290V350 9999 FEW025 BKN045 20/13 Q1018","updated":"2025-10-12T14:14:14Z"}
