{"icao":"LPLA","metar":"LPLA 131200Z 32025KT 9999 SCT025 17/08 Q1006","updated":"2025-11-13T12:40:08Z"}
