{"icao":"LPPT","metar":"LPPT 161600Z 30007KT 270V330 CAVOK 26/08 Q1014","updated":"2025-10-16T16:23:07Z"}
