{"icao":"LPMA","metar":"LPMA 132100Z 36023G37KT 330V040 9999 -SHRA BKN015 FEW018CB 17/13 Q1017 RESHRA","updated":"2025-12-13T21:16:31Z"}
