{"icao":"LPFL","metar":"LPFL 281000Z 28004KT 230V320 9999 BKN038 14/07 Q1029","updated":"2025-11-28T10:20:47Z"}
