{"icao":"LPFL","metar":"LPFL 081230Z 20016G30KT 150V260 9000 -RA FEW010 BKN014 FEW018CB 19/17 Q1006 RERA","updated":"2026-02-08T12:47:25Z"}
