{"icao":"KORD","metar":"KORD 191851Z 26007KT 10SM -RA FEW017 BKN033CB BKN075 BKN250 06/01 A3012 RMK AO2 PK WND 31027/1808 RAB05 TSB35E50 SLP205 OCNL LTGIC OHD TS OHD MOV SE P0001 T00610011 $","updated":"2026-04-19T19:40:23Z"}
