{"icao":"LPPR","metar":"LPPR 241400Z 02009KT 350V050 9999 FEW030 14/07 Q1011","updated":"2025-12-24T14:18:49Z"}
