{"icao":"LPAZ","metar":"LPAZ 081900Z 22016KT 1100 R18/1300U BR VV002 17/17 Q1016","updated":"2026-02-08T19:23:44Z"}
