{"icao":"LPPS","metar":"LPPS 101700Z 07005KT 010V100 9999 SCT015 17/13 Q1029","updated":"2026-01-10T17:17:03Z"}
