{"icao":"LPPD","metar":"LPPD 030430Z 02004KT 350V050 9999 FEW018 BKN025 13/08 Q1027","updated":"2026-04-03T05:03:31Z"}
