{"icao":"LPOV","metar":"LPOV 300100Z VRB01KT 7000 FEW022 11/11 Q1012","updated":"2025-10-30T01:25:03Z"}
