{"icao":"LPFL","metar":"LPFL 121930Z 19011G21KT 130V260 9999 SCT015 18/13 Q1023","updated":"2026-04-12T22:32:53Z"}
