{"icao":"LPCS","metar":"LPCS 091700Z 22006KT 190V250 9999 FEW025 16/13 Q1020","updated":"2025-11-09T17:14:08Z"}
