{"icao":"LPMR","metar":"LPMR 161100Z 34016KT 310V010 9999 FEW020 18/08 Q1019","updated":"2026-05-16T11:49:35Z"}
