{"icao":"KLAX","metar":"KLAX 270253Z 31005KT 10SM CLR 17/M03 A3021 RMK AO2 SLP230 T01721028 51005 $","updated":"2026-01-27T03:47:01Z"}
