{"icao":"LPBJ","metar":"LPBJ 021200Z 14014KT 050V200 9999 FEW040 29/13 Q1021","updated":"2025-10-02T12:35:17Z"}
