{"icao":"LPPT","metar":"LPPT 252300Z 34007KT 8000 -RADZ SCT016 BKN022 16/15 Q1015","updated":"2025-10-25T23:15:16Z"}
