{"icao":"LPPD","metar":"LPPD 070730Z 28011KT 8000 SCT003 BKN004 18/17 Q1027","updated":"2026-06-07T07:53:36Z"}
