{"icao":"LPPT","metar":"LPPT 111430Z 34020KT 9999 SCT025 15/09 Q1015 WS R02","updated":"2026-04-11T14:35:56Z"}
