{"icao":"LPBJ","metar":"LPBJ 310600Z 08006KT 1500 0600W PRFG NSC 04/03 Q1018","updated":"2025-12-31T06:31:53Z"}
