{"icao":"LPPR","metar":"LPPR 091130Z 32009KT CAVOK 17/13 Q1019","updated":"2026-04-09T11:56:41Z"}
