{"icao":"KLAX","metar":"KLAX 251311Z 02003KT 3SM BR OVC010 17/15 A2999 RMK AO2 VIS W 1 T01670150 $","updated":"2025-10-25T13:21:52Z"}
