{"icao":"KLAX","metar":"KLAX 100353Z 23008KT 10SM FEW150 19/16 A2991 RMK AO2 SLP125 T01890156 $","updated":"2025-10-10T04:21:30Z"}
