{"icao":"KLAX","metar":"KLAX 290153Z 30004KT 10SM FEW030 BKN250 16/08 A3015 RMK AO2 SLP210 FU FEW030 T01560083","updated":"2026-01-29T01:56:15Z"}
