{"icao":"LPMT","metar":"LPMT 050800Z 34008KT 9999 BKN018 13/10 Q1016","updated":"2026-03-05T08:39:46Z"}
