{"icao":"KLAX","metar":"KLAX 280153Z 27010KT 10SM FEW009 SCT210 BKN260 BKN300 17/14 A2993 RMK AO2 SLP135 T01720139 $","updated":"2026-03-28T02:04:12Z"}
