{"icao":"KLAX","metar":"KLAX 191253Z 28005KT 10SM FEW007 SCT011 BKN180 20/18 A2988 RMK AO2 SLP117 T02000183","updated":"2025-09-19T13:26:21Z"}
