{"icao":"LPMA","metar":"LPMA 310900Z 23013KT 210V270 9999 SCT016 22/16 Q1016","updated":"2025-10-31T09:19:55Z"}
