{"icao":"LPPT","metar":"LPPT 180800Z 03003KT 330V120 0300 R20/0275N FG SCT001 BKN002 09/09 Q1022","updated":"2025-12-18T08:28:05Z"}
