{"icao":"LPST","metar":"LPST 211000Z 26014KT 1200 -DZ BR OVC004 15/14 Q1007","updated":"2026-01-21T10:27:29Z"}
