{"icao":"KLAX","metar":"KLAX 012053Z 26008KT 10SM FEW230 FEW280 24/04 A3000 RMK AO2 SLP157 T02440039 58024","updated":"2026-02-01T21:22:04Z"}
