{"icao":"LPFR","metar":"LPFR 241530Z 10011KT 9999 FEW012 18/14 Q1017","updated":"2026-02-24T15:57:06Z"}
