{"icao":"LPMT","metar":"LPMT 132000Z 30006KT 9999 BKN040 14/09 Q1022","updated":"2026-04-13T20:54:16Z"}
