{"icao":"LPOV","metar":"LPOV 241400Z 28007KT 240V320 9999 SCT008 SCT014 20/17 Q1021","updated":"2026-05-24T15:02:08Z"}
