{"icao":"LPPR","metar":"LPPR 180500Z 35003KT CAVOK 11/10 Q1019","updated":"2025-09-18T05:16:05Z"}
