{"icao":"LPPS","metar":"LPPS 250930Z 05007KT 330V120 9999 FEW015 18/12 Q1019","updated":"2026-04-25T09:51:14Z"}
