{"icao":"LPST","metar":"LPST 271500Z 16007KT 120V190 9999 FEW030 24/15 Q1018","updated":"2025-10-27T15:19:26Z"}
