{"icao":"LPPT","metar":"LPPT 182000Z 12010KT 100V170 9999 -RA SCT030 16/12 Q1002","updated":"2026-03-18T20:34:04Z"}
