{"icao":"LPST","metar":"LPST 201200Z 29008KT 260V320 9999 FEW016 21/14 Q1016","updated":"2025-10-20T12:38:09Z"}
