{"icao":"LPPR","metar":"LPPR 061400Z 27006KT 240V320 9999 SCT025 FEW027TCU 18/10 Q1015","updated":"2025-11-06T14:18:57Z"}
