{"icao":"LPAZ","metar":"LPAZ 172330Z 24008KT 9999 SCT010 BKN013 17/15 Q1025","updated":"2026-05-18T00:04:09Z"}
