{"icao":"LPPT","metar":"LPPT 111900Z 19010KT 9999 -RADZ FEW005 BKN008 13/13 Q1025","updated":"2026-01-11T19:14:33Z"}
