{"icao":"LPPR","metar":"LPPR 291900Z 01005KT 330V060 9999 FEW038 15/13 Q1011","updated":"2025-10-29T19:14:06Z"}
