{"icao":"LPMR","metar":"LPMR 161100Z 18005KT 9000 FEW008 SCT020 FEW022CB BKN040 10/08 Q1014","updated":"2026-01-16T11:18:41Z"}
