{"icao":"KJFK","metar":"KJFK 142051Z 36016KT 10SM OVC019 16/12 A3001 RMK AO2 SLP162 T01560117 53001","updated":"2025-10-14T21:15:34Z"}
