{"icao":"LPLA","metar":"LPLA 241700Z 19004KT 9999 FEW015 19/14 Q1026","updated":"2025-11-24T17:17:50Z"}
