{"icao":"LPLA","metar":"LPLA 301000Z 15006KT 8000 -RADZ SCT004 BKN011 BKN014 22/21 Q1020","updated":"2025-09-30T10:18:27Z"}
