{"icao":"KORD","metar":"KORD 171118Z 14003KT 2SM BR FEW001 SCT250 10/09 A2991 RMK AO2 T01000094 $","updated":"2026-04-17T11:51:34Z"}
