{"icao":"LPAZ","metar":"LPAZ 011130Z 05011KT 020V080 9999 FEW008 SCT013 BKN020 15/12 Q1030","updated":"2026-04-01T11:52:24Z"}
