{"icao":"LPPD","metar":"LPPD 262230Z 11009KT 9999 FEW004 BKN007 16/14 Q1023","updated":"2026-04-26T22:36:23Z"}
