{"icao":"LPPR","metar":"LPPR 281000Z 10007KT 9999 FEW035 08/06 Q1024","updated":"2025-11-28T10:20:45Z"}
