{"icao":"LPOV","metar":"LPOV 021000Z 05011KT 360V070 CAVOK 30/09 Q1019","updated":"2026-07-02T10:37:04Z"}
