{"icao":"LPOV","metar":"LPOV 061500Z 36010KT 340V040 9999 FEW025 10/01 Q1024","updated":"2026-01-06T15:21:44Z"}
