{"icao":"LPCS","metar":"LPCS 091900Z 27008KT 240V330 0300 R17/1800N -DZ FG SCT002 BKN003 15/15 Q1015","updated":"2026-02-09T21:37:46Z"}
