{"icao":"LPFL","metar":"LPFL 061400Z VRB08G20KT 9999 FEW014 19/12 Q1006","updated":"2025-12-06T14:16:09Z"}
