{"icao":"LPPD","metar":"LPPD 230800Z 17004KT 120V220 9999 FEW014 21/17 Q1023","updated":"2026-06-23T08:33:20Z"}
