{"icao":"LPPR","metar":"LPPR 101100Z 35009KT 9999 FEW012 SCT020 13/08 Q1022","updated":"2026-03-10T11:31:46Z"}
