{"icao":"LPAR","metar":"LPAR 061000Z 09002KT 9999 VCSH SCT040 17/08 Q1017","updated":"2026-04-06T10:54:57Z"}
