{"icao":"LPPD","metar":"LPPD 211900Z 02013KT 360V060 9999 FEW009 BKN016 FEW018TCU 14/11 Q1014 WS R30","updated":"2026-03-21T19:22:39Z"}
