{"icao":"KORD","metar":"KORD 240751Z 18012KT 10SM SCT060 BKN250 21/13 A2965 RMK AO2 SLP034 T02060133","updated":"2026-04-24T08:01:49Z"}
