{"icao":"LPFR","metar":"LPFR 062000Z 09003KT 360V130 CAVOK 23/19 Q1020","updated":"2025-10-06T20:19:00Z"}
