{"icao":"LPBJ","metar":"LPBJ 251500Z 29007KT 230V340 9999 FEW045 26/13 Q1014","updated":"2026-04-25T15:38:04Z"}
