{"icao":"LPHR","metar":"LPHR 251830Z 14005KT 9999 FEW009 BKN013 17/15 Q1017","updated":"2026-04-25T18:51:02Z"}
