{"icao":"LPPS","metar":"LPPS 121930Z 06011G22KT 020V100 9999 BKN015 16/11 Q1024","updated":"2026-03-12T19:41:28Z"}
