{"icao":"KJFK","metar":"KJFK 171351Z 22010KT 10SM BKN060 BKN090 OVC210 04/M06 A3010 RMK AO2 SLP194 T00441056 $","updated":"2026-01-17T14:17:54Z"}
