{"icao":"LPPS","metar":"LPPS 051100Z 27016KT 9999 FEW014 19/14 Q1010","updated":"2026-02-05T11:34:24Z"}
