{"icao":"LPMA","metar":"LPMA 200700Z 03009KT 360V060 9999 SCT015 FEW018CB 22/19 Q1020","updated":"2025-09-20T07:15:13Z"}
