{"icao":"LPPD","metar":"LPPD 171030Z 20014KT 3000 -SHRA BR SCT004 BKN008 16/15 Q1021","updated":"2026-02-17T10:43:14Z"}
