{"icao":"LPMT","metar":"LPMT 162200Z 35012KT CAVOK 13/09 Q1017","updated":"2025-12-16T22:18:31Z"}
