{"icao":"KJFK","metar":"KJFK 290251Z 21006KT 10SM FEW260 21/18 A3012 RMK AO2 SLP200 T02060183 53014","updated":"2025-09-29T03:03:10Z"}
