{"icao":"KORD","metar":"KORD 280508Z 11004KT 1SM R10L/P6000FT -DZ BR OVC002 06/05 A2977 RMK AO2 P0000 T00560050 $","updated":"2025-12-28T05:23:23Z"}
