{"icao":"LPPT","metar":"LPPT 260630Z 23012KT 8000 SCT002 BKN004 14/14 Q1013","updated":"2026-01-26T06:35:27Z"}
