{"icao":"LPPS","metar":"LPPS 121800Z VRB03KT 9999 FEW015 18/13 Q1015","updated":"2026-01-12T18:31:47Z"}
