{"icao":"LPPI","metar":"LPPI 240730Z 26004KT 210V300 9000 -RA SCT012 BKN025 21/18 Q1021","updated":"2026-06-24T07:39:18Z"}
