{"icao":"KORD","metar":"KORD 021351Z 24007KT 4SM BR OVC006 M05/M07 A3007 RMK AO2 SLP193 T10501067","updated":"2026-02-02T14:03:37Z"}
