{"icao":"LPBJ","metar":"LPBJ 180600Z VRB01KT CAVOK 18/11 Q1020","updated":"2025-09-18T06:26:17Z"}
