{"icao":"KJFK","metar":"KJFK 132251Z 28011KT 10SM BKN041 OVC100 04/M04 A3006 RMK AO2 SLP180 T00391044","updated":"2025-12-13T23:17:30Z"}
