{"icao":"LPPS","metar":"LPPS 052200Z 34007KT 9999 SCT010 BKN030 21/19 Q1023","updated":"2025-10-05T22:15:08Z"}
