{"icao":"KLAX","metar":"KLAX 050653Z 00000KT 10SM CLR 20/00 A3008 RMK AO2 SLP183 T02000000 $","updated":"2026-02-05T07:51:43Z"}
