{"icao":"KJFK","metar":"KJFK 081151Z 27009KT 10SM -RA FEW011 OVC060 13/12 A2969 RMK AO2 RAE1058B44 SLP053 P0000 60001 70001 T01330117 10144 20128 53010 $","updated":"2025-11-08T12:33:11Z"}
