{"icao":"LPFL","metar":"LPFL 151500Z 24008KT 180V300 9999 FEW015 26/18 Q1024","updated":"2025-09-15T15:18:57Z"}
