{"icao":"KORD","metar":"KORD 230451Z 33012G20KT 10SM -SN SCT039 BKN046 M07/M13 A3037 RMK AO2 SNB13 SLP294 P0000 T10721128 $","updated":"2026-02-23T04:57:15Z"}
