{"icao":"LPPS","metar":"LPPS 230430Z 32015KT 9999 SCT010 BKN030 16/15 Q1016","updated":"2026-01-23T04:41:23Z"}
