{"icao":"LPAZ","metar":"LPAZ 241430Z 30022KT 9000 FEW019 SCT024 17/11 Q1016","updated":"2026-02-24T14:48:21Z"}
