{"icao":"LPMR","metar":"LPMR 091800Z 32005KT 290V350 CAVOK 18/14 Q1020","updated":"2025-10-09T18:25:33Z"}
