{"icao":"LPFR","metar":"LPFR 171100Z 10010KT CAVOK 27/19 Q1021","updated":"2025-09-17T11:13:49Z"}
