{"icao":"LPMA","metar":"LPMA 041300Z 03011KT 340V060 9999 SCT015 24/17 Q1027","updated":"2025-10-04T13:20:12Z"}
