{"icao":"LPCS","metar":"LPCS 091230Z 34011KT 310V010 9999 FEW018 15/09 Q1029","updated":"2026-01-09T12:42:05Z"}
