{"icao":"KORD","metar":"KORD 261451Z 30012KT 10SM FEW040 FEW080 M18/M24 A3027 RMK AO2 SLP269 T11781244 53018","updated":"2026-01-26T15:28:22Z"}
