{"icao":"LPAZ","metar":"LPAZ 210300Z 09008KT 060V120 9999 FEW020 BKN040 16/10 Q1029","updated":"2025-11-21T03:09:20Z"}
