{"icao":"LPHR","metar":"LPHR 050200Z 27011KT 9999 FEW004 BKN006 19/18 Q1024","updated":"2026-06-05T05:15:34Z"}
