{"icao":"LPLA","metar":"LPLA 151400Z 25009KT 210V280 9999 FEW030 BKN048 17/06 Q1023","updated":"2026-04-15T15:04:17Z"}
