{"icao":"LPFR","metar":"LPFR 140900Z 32014KT CAVOK 12/04 Q1025","updated":"2026-02-14T09:28:46Z"}
