{"icao":"LPHR","metar":"LPHR 312300Z 36004KT 9999 FEW020 SCT045 15/07 Q1017","updated":"2025-10-31T23:16:28Z"}
