{"icao":"LPCS","metar":"LPCS 281630Z 24010KT 9999 VCSH FEW008 SCT012 15/15 Q1006","updated":"2026-01-28T16:35:36Z"}
