{"icao":"LPMT","metar":"LPMT 110500Z 13005KT 3000 BR BKN003 14/14 Q1014","updated":"2025-11-11T05:18:52Z"}
