{"icao":"KORD","metar":"KORD 110859Z 02008KT 10SM OVC006 04/03 A2958 RMK AO2 T00440033 $","updated":"2026-03-11T09:41:05Z"}
