{"icao":"LPBJ","metar":"LPBJ 241700Z 06005KT 350V100 CAVOK 28/M01 Q1015","updated":"2025-09-24T17:15:39Z"}
