{"icao":"LPOV","metar":"LPOV 041800Z 33010KT 300V360 9999 SCT014 BKN035 15/11 Q1017","updated":"2026-05-04T18:13:01Z"}
