{"icao":"LPFR","metar":"LPFR 060300Z 36005KT CAVOK 14/11 Q1017","updated":"2025-11-06T03:12:50Z"}
