{"icao":"KJFK","metar":"KJFK 112151Z 29020G31KT 10SM SCT060 01/M13 A2974 RMK AO2 PK WND 28034/2121 SLP071 VIRGA NW T00111133 $","updated":"2025-12-11T22:19:40Z"}
