{"icao":"KJFK","metar":"KJFK 172016Z 05012KT 10SM BKN023 OVC043 21/15 A3003 RMK AO2 LTG DSNT SW RAE15 P0000 T02060150 $","updated":"2025-09-17T20:18:51Z"}
