{"icao":"LPPD","metar":"LPPD 170600Z 34005KT 280V020 9999 FEW020 BKN035 14/09 Q1031","updated":"2026-01-17T06:29:21Z"}
