{"icao":"LPBJ","metar":"LPBJ 272000Z 02003KT CAVOK 10/02 Q1023","updated":"2025-11-27T20:18:23Z"}
