{"icao":"LPBJ","metar":"LPBJ 221100Z 23009KT 200V270 9999 VCSH FEW027 BKN040 13/09 Q1011","updated":"2026-01-22T11:21:53Z"}
