{"icao":"LPPR","metar":"LPPR 152100Z 21008KT 190V250 9999 FEW010 BKN044 13/12 Q1028","updated":"2026-02-15T21:23:02Z"}
