{"icao":"LPLA","metar":"LPLA 152200Z 00000KT 9999 FEW030 13/09 Q1020","updated":"2025-11-15T22:14:05Z"}
