{"icao":"LPAZ","metar":"LPAZ 211330Z 29013KT 9000 FEW004 BKN007 17/16 Q1022","updated":"2026-01-21T13:43:58Z"}
