{"icao":"KORD","metar":"KORD 280451Z 28014G22KT 10SM FEW250 09/M01 A2981 RMK AO2 SLP095 T00941011 $","updated":"2026-02-28T04:54:59Z"}
