{"icao":"KLAX","metar":"KLAX 281853Z 23010KT 10SM BKN036 BKN045 22/15 A3002 RMK AO2 SLP164 T02220150 $","updated":"2025-09-28T19:12:10Z"}
