{"icao":"KLAX","metar":"KLAX 231338Z 08004KT 4SM BR FEW004 SCT008 BKN011 BKN180 13/12 A2992 RMK AO2 VS SE 2 1/2 T01330122 $","updated":"2026-01-23T13:41:36Z"}
