{"icao":"LPFL","metar":"LPFL 281700Z 28009KT 210V340 9999 FEW012 19/12 Q1028","updated":"2026-02-28T17:19:35Z"}
