{"icao":"LPPR","metar":"LPPR 272200Z 14019KT 5000 -RA BR BKN010 BKN016 19/17 Q1005 RERA","updated":"2025-09-27T22:14:32Z"}
