{"icao":"LPCS","metar":"LPCS 081300Z 12008KT 090V150 9999 BKN035 16/07 Q1017","updated":"2026-04-08T13:17:50Z"}
