{"icao":"LPMR","metar":"LPMR 090900Z 34005KT 310V010 3000 BR FEW006 BKN008 16/14 Q1021","updated":"2025-10-09T09:18:32Z"}
