{"icao":"LPBJ","metar":"LPBJ 020700Z 10005KT CAVOK 17/12 Q1020","updated":"2025-10-02T07:16:17Z"}
