{"icao":"LPAZ","metar":"LPAZ 252000Z 04020G33KT 9999 BKN020 FEW025TCU 19/15 Q1016","updated":"2025-10-25T20:18:38Z"}
