{"icao":"LPPD","metar":"LPPD 192100Z 27010KT 9999 FEW010 20/19 Q1011","updated":"2026-06-19T21:09:09Z"}
