{"icao":"LPPR","metar":"LPPR 291230Z 20007KT 180V260 9999 BKN009 BKN014 19/16 Q1007","updated":"2025-10-29T12:39:12Z"}
