{"icao":"LPPT","metar":"LPPT 021600Z 13007KT 090V200 4000 SHRA FEW008 BKN025 FEW030CB 15/14 Q0999","updated":"2026-01-02T16:24:14Z"}
