{"icao":"LPPT","metar":"LPPT 170600Z 35001KT 9999 FEW002 BKN012 11/11 Q1012","updated":"2025-11-17T06:29:15Z"}
