{"icao":"KORD","metar":"KORD 280551Z 27005KT 10SM CLR M15/M21 A3026 RMK AO2 SLP260 4/002 T11501211 11117 21150 411001150 58009","updated":"2026-01-28T06:34:57Z"}
