{"icao":"KORD","metar":"KORD 061629Z 34011KT 10SM BKN016 OVC025 02/M02 A2980 RMK AO2 T00171017 $","updated":"2026-02-06T16:42:16Z"}
