{"icao":"KJFK","metar":"KJFK 282251Z 33012G20KT 10SM FEW085 05/M15 A3044 RMK AO2 PK WND 32031/2158 SLP306 T00501150","updated":"2026-03-28T23:29:47Z"}
