{"icao":"LPPR","metar":"LPPR 061400Z 32013KT 9999 FEW025 17/11 Q1013","updated":"2026-05-06T14:07:10Z"}
