{"icao":"LPLA","metar":"LPLA 232100Z 27004KT 230V300 9999 FEW025 14/07 Q1009","updated":"2026-04-23T21:43:48Z"}
