{"icao":"LPAZ","metar":"LPAZ 271700Z 24008KT 1200 R18/1300U -DZ BR BKN002 20/20 Q1024","updated":"2026-06-27T17:08:00Z"}
