{"icao":"LPLA","metar":"LPLA 150400Z 22015G27KT 190V270 9999 FEW020 16/10 Q1027","updated":"2026-02-15T04:52:44Z"}
