{"icao":"LPBJ","metar":"LPBJ 121800Z 06005KT 9000 2000N -RADZ SCT005 BKN020 11/11 Q1013","updated":"2025-12-12T18:30:01Z"}
