{"icao":"LPPS","metar":"LPPS 151500Z VRB08KT 6000 -RADZ SCT008 BKN030 16/15 Q1020","updated":"2026-03-15T15:28:17Z"}
