{"icao":"KORD","metar":"KORD 071051Z 25004KT 10SM FEW090 FEW250 03/M03 A2997 RMK AO2 SLP151 T00281033","updated":"2026-05-07T11:45:39Z"}
