{"icao":"LPPT","metar":"LPPT 081330Z 23007KT 210V270 9999 -DZ FEW008 SCT010 BKN015 13/11 Q1031","updated":"2026-01-08T13:39:18Z"}
