{"icao":"LPST","metar":"LPST 091200Z 25015KT 4000 -RA BR OVC004 15/14 Q1013","updated":"2026-02-09T13:06:29Z"}
