{"icao":"LPLA","metar":"LPLA 241500Z 31026G36KT 9999 FEW025 16/09 Q1015","updated":"2026-02-24T15:57:27Z"}
