{"icao":"KLAX","metar":"KLAX 122253Z 27014KT 10SM FEW070 SCT250 17/11 A3006 RMK AO2 SLP180 T01670106","updated":"2026-02-12T23:28:00Z"}
