{"icao":"LPCS","metar":"LPCS 140700Z 30004KT 260V320 9999 FEW006 11/11 Q1018","updated":"2026-01-14T07:23:51Z"}
