{"icao":"LPST","metar":"LPST 261600Z 32008KT CAVOK 23/08 Q1019","updated":"2025-09-28T01:25:34Z"}
