{"icao":"LPMR","metar":"LPMR 181800Z 25004KT CAVOK 20/13 Q1016","updated":"2025-10-18T18:22:13Z"}
