{"icao":"LPMR","metar":"LPMR 031900Z 08005KT 040V110 9999 SCT020 SCT035 14/12 Q1000","updated":"2026-01-03T19:14:22Z"}
