{"icao":"KORD","metar":"KORD 211551Z 20009KT 10SM FEW046 FEW065 FEW120 BKN230 24/18 A2995 RMK AO2 SLP139 T02390178 $","updated":"2025-09-21T16:18:58Z"}
