{"icao":"KORD","metar":"KORD 231551Z 27008KT 10SM BKN250 06/01 A3007 RMK AO2 SLP186 T00610011","updated":"2025-12-23T16:26:21Z"}
