{"icao":"LPPD","metar":"LPPD 191530Z 28012KT 9999 FEW016 SCT022 17/14 Q1014","updated":"2026-04-19T15:36:14Z"}
