{"icao":"KLAX","metar":"KLAX 161053Z 25003KT 10SM OVC021 16/13 A2991 RMK AO2 SLP126 T01610133","updated":"2026-05-16T11:49:37Z"}
