{"icao":"KORD","metar":"KORD 172151Z 16006KT 10SM FEW250 05/M01 A2993 RMK AO2 SLP141 T00501011","updated":"2025-12-17T22:19:20Z"}
