{"icao":"LPPR","metar":"LPPR 041330Z 29008KT 260V330 9999 SCT027 FEW030TCU 17/09 Q1016","updated":"2026-05-04T13:56:53Z"}
