{"icao":"LPFL","metar":"LPFL 131000Z 32011G24KT 260V360 9999 VCSH FEW027 SCT049 14/08 Q1011","updated":"2025-11-13T10:21:00Z"}
