{"icao":"LPFR","metar":"LPFR 061730Z 10011KT 9999 VCSH SCT035 17/16 Q1018","updated":"2026-04-06T17:42:22Z"}
