{"icao":"KJFK","metar":"KJFK 231551Z 21008KT 10SM FEW075 BKN110 BKN250 08/01 A3000 RMK AO2 SLP157 T00780006","updated":"2025-11-23T16:21:23Z"}
