{"icao":"LPPT","metar":"LPPT 061600Z 25012KT CAVOK 25/17 Q1019","updated":"2025-10-06T16:21:23Z"}
