{"icao":"LPFR","metar":"LPFR 311300Z 21011KT 9999 FEW025 23/18 Q1016","updated":"2025-10-31T13:28:26Z"}
