{"icao":"LPAZ","metar":"LPAZ 260130Z 29008KT CAVOK 14/11 Q1030","updated":"2026-02-26T01:58:39Z"}
