{"icao":"LPPR","metar":"LPPR 211300Z 32013KT 300V360 9999 SCT025 19/11 Q1023","updated":"2025-09-21T13:20:31Z"}
