{"icao":"LPBJ","metar":"LPBJ 051400Z 30011KT 9000 SCT009 BKN015 BKN030 17/15 Q1022","updated":"2025-12-05T14:19:52Z"}
