{"icao":"LPFL","metar":"LPFL 101800Z 25016G27KT 190V310 8000 -RA FEW011 BKN014 17/13 Q1010","updated":"2026-01-10T22:18:39Z"}
