{"icao":"LPOV","metar":"LPOV 151900Z VRB02KT 9000 -SHRA SCT020 10/10 Q1004","updated":"2025-12-15T19:18:38Z"}
