{"icao":"LPPD","metar":"LPPD 222100Z 27011KT 9999 FEW022 16/12 Q1024","updated":"2025-12-22T21:17:26Z"}
