{"icao":"LPPS","metar":"LPPS 031430Z 18011KT 9999 SCT012 20/14 Q1016","updated":"2026-05-03T14:47:34Z"}
