{"icao":"KLAX","metar":"KLAX 011458Z 24005KT 10SM FEW009 SCT026 BKN140 16/13 A2997 RMK AO2 T01560133","updated":"2026-04-01T15:02:52Z"}
