{"icao":"LPHR","metar":"LPHR 221500Z 15006KT 9999 FEW014 18/15 Q1030","updated":"2025-11-22T15:16:33Z"}
