{"icao":"KJFK","metar":"KJFK 081451Z 29007KT 10SM FEW020 FEW200 16/11 A2976 RMK AO2 SLP076 60001 T01610111 51023 $","updated":"2025-11-08T15:16:22Z"}
