{"icao":"LPOV","metar":"LPOV 191200Z 34013KT 300V360 9999 SCT018 13/06 Q1028","updated":"2026-02-19T13:02:50Z"}
