{"icao":"LPAZ","metar":"LPAZ 312330Z 27007KT 1200 R18/1200U BR VV001 19/19 Q1028","updated":"2026-06-01T00:04:32Z"}
