{"icao":"KJFK","metar":"KJFK 242251Z 29008KT 10SM FEW050 BKN080 14/01 A3016 RMK AO2 SLP213 T01440006","updated":"2025-10-24T23:16:13Z"}
