{"icao":"KLAX","metar":"KLAX 191226Z 26006KT 10SM SCT008 BKN011 BKN110 BKN200 21/18 A2988 RMK AO2 T02060183","updated":"2025-09-19T12:36:29Z"}
