{"icao":"KORD","metar":"KORD 080951Z 14009KT 10SM FEW060 BKN080 OVC120 02/M03 A3029 RMK AO2 RAE22 SLP262 P0000 T00221033 $","updated":"2026-04-08T10:14:46Z"}
