{"icao":"LPMT","metar":"LPMT 251500Z 27009KT CAVOK 27/06 Q1016","updated":"2025-09-25T15:18:43Z"}
