{"icao":"KJFK","metar":"KJFK 121751Z 02017G25KT 5SM RA BR BKN034 OVC047 13/11 A3005 RMK AO2 PK WND 03027/1701 SLP174 P0006 60006 T01330111 10161 20133 58005","updated":"2025-10-12T18:22:05Z"}
