{"icao":"LPMT","metar":"LPMT 291000Z 34006KT 300V030 CAVOK 25/17 Q1021","updated":"2026-06-29T10:55:18Z"}
