{"icao":"LPHR","metar":"LPHR 151800Z 16007KT 140V210 9999 FEW020 SCT040 17/09 Q1032","updated":"2026-05-15T18:21:38Z"}
