{"icao":"LPMT","metar":"LPMT 020700Z 13006KT 6000 SCT012 BKN035 11/11 Q1011","updated":"2026-03-02T07:49:32Z"}
