{"icao":"LPPT","metar":"LPPT 130830Z 35008KT CAVOK 19/13 Q1022"}
