{"icao":"LPOV","metar":"LPOV 141300Z 35015KT 9999 FEW020 13/07 Q1026","updated":"2026-02-14T13:42:47Z"}
