{"icao":"KJFK","metar":"KJFK 300051Z 28024G36KT 10SM FEW055 SCT100 03/M09 A2943 RMK AO2 PK WND 28043/0026 SLP964 T00281089 $","updated":"2025-12-30T01:39:09Z"}
