{"icao":"KORD","metar":"KORD 191251Z 24006KT 10SM FEW100 BKN250 05/M03 A3010 RMK AO2 SLP195 T00501028 $","updated":"2026-04-19T12:59:59Z"}
