{"icao":"LPPD","metar":"LPPD 211400Z 19010KT 9999 FEW010 BKN048 17/15 Q1025","updated":"2026-02-21T14:24:55Z"}
