{"icao":"KLAX","metar":"KLAX 301215Z 09005KT 1/4SM R25L/2600V5000FT FG VV002 13/13 A3000 RMK AO2 T01280128 $","updated":"2025-11-30T12:35:38Z"}
