{"icao":"LPMA","metar":"LPMA 030330Z 36016G27KT 320V030 9999 SCT015 19/11 Q1025","updated":"2026-06-03T03:57:56Z"}
