{"icao":"LPBJ","metar":"LPBJ 282300Z 28006KT CAVOK 08/07 Q1021","updated":"2025-11-28T23:16:46Z"}
