{"icao":"KJFK","metar":"KJFK 311651Z 26014KT 10SM FEW055 BKN250 00/M11 A2982 RMK AO2 SLP097 T00001111 $","updated":"2025-12-31T17:18:02Z"}
