{"icao":"LPPT","metar":"LPPT 102230Z 30011KT 9999 FEW010 16/13 Q1013","updated":"2026-04-10T22:35:40Z"}
