{"icao":"LPPR","metar":"LPPR 040300Z 30010KT 250V330 9000 FEW016 BKN030 14/10 Q1018","updated":"2025-12-04T03:17:56Z"}
