{"icao":"KJFK","metar":"KJFK 192151Z 06003KT 10SM FEW025 BKN049 07/01 A3020 RMK AO2 SLP225 T00720006 $","updated":"2025-11-19T22:18:10Z"}
