{"icao":"LPOV","metar":"LPOV 082100Z 16012KT 2000 RADZ BR SCT006 BKN015 10/10 Q1008","updated":"2026-02-08T21:25:30Z"}
