{"icao":"LPMA","metar":"LPMA 062000Z 02015KT 340V050 9999 SCT015 15/07 Q1029","updated":"2026-01-06T20:22:50Z"}
