{"icao":"KLAX","metar":"KLAX 090153Z 25008KT 10SM FEW250 19/09 A3014 RMK AO2 SLP206 T01890089 $","updated":"2026-02-09T02:06:28Z"}
