{"icao":"LPMR","metar":"LPMR 161600Z 32010KT 290V360 CAVOK 19/11 Q1020","updated":"2026-04-16T17:12:39Z"}
