{"icao":"LPCS","metar":"LPCS 161600Z 34009KT CAVOK 25/10 Q1014","updated":"2025-10-16T16:23:09Z"}
