{"icao":"LPPR","metar":"LPPR 250800Z VRB02KT 7000 -RA SCT040 14/14 Q1015","updated":"2025-10-25T08:20:14Z"}
