{"icao":"LPFL","metar":"LPFL 101500Z 20025G36KT 160V230 9999 BKN014 18/15 Q1011","updated":"2026-01-10T15:18:27Z"}
