{"icao":"LPST","metar":"LPST 101200Z 36006KT 330V040 9999 FEW025 15/11 Q1022","updated":"2025-12-10T12:41:06Z"}
