{"icao":"LPFR","metar":"LPFR 250130Z 26013KT 9999 FEW026 13/10 Q1019","updated":"2026-01-25T01:50:43Z"}
