{"icao":"LPMA","metar":"LPMA 160500Z 02008KT 340V050 9999 BKN015 16/10 Q1021","updated":"2026-04-16T05:29:43Z"}
