{"icao":"LPHR","metar":"LPHR 101900Z 21020KT 180V240 9000 SCT006 SCT012 FEW014TCU BKN025 18/17 Q1016","updated":"2026-01-10T19:14:28Z"}
