{"icao":"LPBJ","metar":"LPBJ 220400Z 26002KT 8000 2000N BKN005 BKN025 18/18 Q1018","updated":"2025-10-22T04:21:08Z"}
