{"icao":"KORD","metar":"KORD 210651Z 26010KT 10SM FEW020 SCT065 SCT090 11/07 A2972 RMK AO2 SLP064 T01060072 $","updated":"2025-10-21T07:18:46Z"}
