{"icao":"LPPT","metar":"LPPT 250800Z 21008KT 8000 FEW002 BKN004 FEW025TCU 20/19 Q1014","updated":"2025-10-25T08:20:14Z"}
