{"icao":"LPFR","metar":"LPFR 080800Z 34006KT CAVOK 15/13 Q1021","updated":"2025-11-08T08:21:21Z"}
