{"icao":"LPPR","metar":"LPPR 150700Z 00000KT 9000 NSC 14/12 Q1016","updated":"2025-10-15T07:18:27Z"}
