{"icao":"LPMR","metar":"LPMR 101100Z 13010KT 090V160 CAVOK 25/12 Q1021","updated":"2025-10-10T11:15:19Z"}
