{"icao":"KLAX","metar":"KLAX 300453Z 12004KT 10SM CLR 21/11 A2994 RMK AO2 SLP137 T02110106 $","updated":"2025-10-30T05:18:30Z"}
