{"icao":"KJFK","metar":"KJFK 062251Z 17013KT 10SM FEW250 20/18 A3023 RMK AO2 SLP236 T02000178 $","updated":"2025-10-06T23:15:44Z"}
