{"icao":"LPCS","metar":"LPCS 202130Z 22005KT 190V250 9999 SCT002 BKN006 19/19 Q1015","updated":"2025-10-21T04:21:12Z"}
