{"icao":"KJFK","metar":"KJFK 280551Z 01005KT 10SM BKN070 OVC100 20/18 A2998 RMK AO2 RAB07E50 SLP153 P0000 60002 T02000178 10217 20194 58003","updated":"2025-09-28T06:24:26Z"}
