{"icao":"LPPT","metar":"LPPT 110300Z 05009KT CAVOK 20/11 Q1020","updated":"2025-10-11T03:25:07Z"}
