{"icao":"KLAX","metar":"KLAX 181053Z 07004KT 10SM FEW011 FEW025 BKN045 12/10 A2990 RMK AO2 SLP123 T01170100 $","updated":"2025-11-18T11:17:50Z"}
