{"icao":"KLAX","metar":"KLAX 280853Z 09003KT 10SM BKN220 19/12 A2990 RMK AO2 SLP121 T01940122 58000","updated":"2026-02-28T09:25:15Z"}
