{"icao":"LPHR","metar":"LPHR 270730Z 01007KT CAVOK 11/07 Q1034","updated":"2026-02-27T07:44:55Z"}
