{"icao":"LPPR","metar":"LPPR 060600Z 29008KT 260V330 9999 FEW020 15/08 Q1013","updated":"2025-11-06T06:27:57Z"}
