{"icao":"LPPT","metar":"LPPT 081000Z 33005KT 300V010 9999 FEW022 17/13 Q1023","updated":"2025-11-08T10:16:55Z"}
