{"icao":"LPFR","metar":"LPFR 272000Z 26006KT 9999 BKN017 20/18 Q1018","updated":"2025-09-27T20:17:17Z"}
