{"icao":"LPBJ","metar":"LPBJ 051700Z 33012KT CAVOK 08/M01 Q1012","updated":"2026-01-05T17:21:34Z"}
