{"icao":"KJFK","metar":"KJFK 191651Z 17018G26KT 10SM FEW030 BKN250 21/15 A2997 RMK AO2 PK WND 16026/1635 SLP147 T02060150 $","updated":"2025-10-19T17:14:17Z"}
