{"icao":"KJFK","metar":"KJFK 222151Z 25018G24KT 10SM FEW060 BKN100 16/02 A2978 RMK AO2 SLP085 T01560022","updated":"2025-10-22T22:14:33Z"}
