{"icao":"LPAZ","metar":"LPAZ 201700Z 24012KT 8000 BKN004 24/23 Q1017","updated":"2025-10-20T17:16:11Z"}
