{"icao":"KLAX","metar":"KLAX 172101Z 24010KT 10SM BKN014 20/15 A2994 RMK AO2 T02000150 $","updated":"2026-06-17T21:21:26Z"}
