{"icao":"KLAX","metar":"KLAX 050853Z 28003KT 9SM FEW009 OVC011 18/15 A2987 RMK AO2 SLP112 T01780150 58010 $","updated":"2026-06-05T09:44:23Z"}
