{"icao":"KORD","metar":"KORD 201751Z 25018G26KT 10SM FEW044 SCT100 BKN120 OVC250 04/M04 A2973 RMK AO2 PK WND 25026/1746 RAB07E16 SLP074 P0000 60000 T00391039 10039 20000 51007","updated":"2025-12-20T18:24:47Z"}
