{"icao":"KJFK","metar":"KJFK 010251Z 33009KT 10SM BKN095 BKN250 13/04 A2983 RMK SLP101 VCSH W T01280039 51010 ","updated":"2026-05-01T02:55:37Z"}
