{"icao":"LPPT","metar":"LPPT 061300Z 13008KT 100V180 9999 FEW040 23/09 Q1016","updated":"2026-04-06T13:07:11Z"}
