{"icao":"LPSJ","metar":"LPSJ 261200Z 25009KT 220V290 9999 FEW025 20/12 Q1026","updated":"2026-06-26T12:09:34Z"}
