{"icao":"LPAZ","metar":"LPAZ 050530Z 05010KT 010V070 9999 FEW024 BKN049 15/10 Q1023","updated":"2026-05-05T05:41:49Z"}
