{"icao":"KJFK","metar":"KJFK 241051Z 30011KT 10SM FEW047 FEW120 BKN250 M03/M09 A2986 RMK AO2 SLP112 T10281089 $","updated":"2026-02-24T11:39:22Z"}
