{"icao":"LPLA","metar":"LPLA 300700Z 12013KT 7000 -DZ BKN005 BKN012 15/14 Q1013","updated":"2025-12-30T07:21:41Z"}
