{"icao":"LPPR","metar":"LPPR 071100Z 30005KT 270V330 9000 VCSH SCT006 BKN023 18/17 Q1013","updated":"2025-11-07T11:15:06Z"}
