{"icao":"LPPT","metar":"LPPT 011900Z 30010KT CAVOK 23/12 Q1020","updated":"2025-10-01T19:13:40Z"}
