{"icao":"LPLA","metar":"LPLA 021008Z 29023G33KT 9999 VCSH FEW025 SCT035 13/07 Q1013","updated":"2026-02-02T10:42:46Z"}
