{"icao":"LPBJ","metar":"LPBJ 241705Z 25011KT 4000 1500NW -DZ BR SCT008 OVC018 15/14 Q1018","updated":"2025-11-24T17:17:48Z"}
