{"icao":"LPOV","metar":"LPOV 281000Z 36007KT CAVOK 10/M01 Q1028","updated":"2026-02-28T10:21:45Z"}
