{"icao":"KJFK","metar":"KJFK 141551Z 19008KT 10SM FEW060 SCT220 BKN260 28/17 A2988 RMK AO2 SLP117 T02830167 $","updated":"2026-06-14T16:20:11Z"}
