{"icao":"LPFR","metar":"LPFR 052000Z 28006KT 9999 FEW005 16/15 Q1024","updated":"2025-12-05T20:21:20Z"}
