{"icao":"KJFK","metar":"KJFK 242151Z 30006KT 10SM FEW050 SCT080 14/01 A3014 RMK AO2 SLP205 T01390011","updated":"2025-10-24T22:16:58Z"}
