{"icao":"LPCS","metar":"LPCS 231530Z 22008KT CAVOK 27/17 Q1012","updated":"2026-06-23T15:46:09Z"}
