{"icao":"LPFL","metar":"LPFL 191830Z 24003KT 200V300 9999 FEW022 17/10 Q1017","updated":"2026-02-19T18:49:32Z"}
