{"icao":"KORD","metar":"KORD 162251Z 21010KT 10SM SCT250 02/M03 A2978 RMK AO2 SLP094 T00221028","updated":"2025-12-16T23:18:10Z"}
