{"icao":"LPMT","metar":"LPMT 090300Z 33005KT 9999 BKN015 18/15 Q1020","updated":"2025-10-09T03:35:15Z"}
