{"icao":"LPPT","metar":"LPPT 041200Z 35012KT 9999 FEW025 22/15 Q1024","updated":"2025-10-04T12:31:33Z"}
