{"icao":"LPMT","metar":"LPMT 221000Z 25009KT 8000 SCT007 SCT018 22/21 Q1018","updated":"2025-10-22T10:20:07Z"}
