{"icao":"LPAZ","metar":"LPAZ 302100Z 31008KT 8000 -DZ SCT003 BKN009 17/16 Q1028","updated":"2025-11-30T21:16:13Z"}
