{"icao":"LPGR","metar":"LPGR 270900Z 01010KT 9999 SCT010 BKN034 18/16 Q1029 RMK WIND RWY09 03008KT","updated":"2026-02-08T18:35:47Z"}
