{"icao":"LPFR","metar":"LPFR 240300Z 06005KT CAVOK 18/06 Q1015","updated":"2025-09-24T03:33:34Z"}
