{"icao":"LPCS","metar":"LPCS 221600Z 14006KT 100V160 CAVOK 23/05 Q1026","updated":"2026-02-22T16:28:05Z"}
