{"icao":"KORD","metar":"KORD 120751Z 22009G18KT 10SM FEW110 BKN250 M03/M07 A3021 RMK AO2 SLP238 T10281072 $","updated":"2026-01-12T08:31:17Z"}
