{"icao":"LPPT","metar":"LPPT 011300Z 05010G25KT 020V100 CAVOK 21/05 Q1023","updated":"2026-04-01T13:19:16Z"}
