{"icao":"LPCS","metar":"LPCS 171730Z 29004KT 260V320 9999 FEW018 BKN022 13/09 Q1025","updated":"2026-02-17T17:54:33Z"}
