{"icao":"LPLA","metar":"LPLA 261312Z 29028G43KT 6000 -SHRA FEW015 BKN020 BKN030 10/07 Q1004","updated":"2026-01-26T13:43:15Z"}
