{"icao":"LPOV","metar":"LPOV 051300Z 32010KT 9000 -RA FEW012 FEW015CB BKN032 13/11 Q1017","updated":"2026-03-05T14:02:41Z"}
