{"icao":"LPFL","metar":"LPFL 141700Z 18019G35KT 150V230 9999 FEW019 17/12 Q1023","updated":"2026-02-14T17:24:46Z"}
