{"icao":"LPPR","metar":"LPPR 120400Z 15009KT 9999 -RA FEW023 BKN032 12/10 Q1013","updated":"2025-12-12T04:32:22Z"}
