{"icao":"KORD","metar":"KORD 281351Z 11007KT 10SM FEW020 BKN250 24/19 A2994 RMK AO2 SLP134 T02390194 $","updated":"2026-06-28T14:47:10Z"}
