{"icao":"KORD","metar":"KORD 261851Z 11006KT 10SM OVC250 28/09 A3002 RMK AO2 SLP159 T02830089","updated":"2026-05-26T19:20:42Z"}
