{"icao":"LPFL","metar":"LPFL 281230Z 31004KT 200V010 9999 SCT040 17/07 Q1029","updated":"2025-11-28T12:38:47Z"}
