{"icao":"LPHR","metar":"LPHR 091300Z 33012G24KT 270V030 9999 FEW016 BKN040 15/08 Q1020","updated":"2026-05-09T13:14:54Z"}
