{"icao":"KJFK","metar":"KJFK 222351Z 18016KT 10SM FEW009 SCT043 BKN110 OVC140 21/20 A2989 RMK RAE46 SLP123 P0008 60017 T02110200 10222 20211 58002 ","updated":"2026-06-23T00:04:07Z"}
