{"icao":"LPCS","metar":"LPCS 111900Z 19009KT 9999 FEW005 SCT012 BKN020 14/14 Q1025","updated":"2026-01-12T06:34:54Z"}
