{"icao":"LPCS","metar":"LPCS 271700Z 36009KT 9999 FEW020 15/07 Q1023","updated":"2025-11-27T17:15:27Z"}
