{"icao":"LPPD","metar":"LPPD 171530Z 24014KT 9999 FEW011 SCT020 18/15 Q1026","updated":"2026-05-17T15:57:47Z"}
