{"icao":"LPPR","metar":"LPPR 181900Z VRB01KT CAVOK 11/10 Q1018","updated":"2025-11-18T19:15:36Z"}
