{"icao":"LPPD","metar":"LPPD 221500Z 18013KT 9999 FEW007 BKN040 23/21 Q1013","updated":"2025-10-22T15:18:25Z"}
