{"icao":"LPLA","metar":"LPLA 120800Z 32022KT 9999 BKN025 SCT040 14/08 Q1001","updated":"2025-11-12T08:26:36Z"}
