{"icao":"KJFK","metar":"KJFK 162251Z 30024G45KT 10SM SCT075 07/M07 A2948 RMK AO2 PK WND 31046/2241 PRESRR SLP981 VIRGA ALQDS T00721067 $","updated":"2025-11-16T23:16:09Z"}
