{"icao":"LPPT","metar":"LPPT 301100Z 24017KT 210V270 9999 FEW010 SCT012 16/14 Q1012","updated":"2026-01-30T11:26:51Z"}
