{"icao":"KJFK","metar":"KJFK 010951Z 31013G22KT 10SM SCT250 09/00 A2990 RMK SLP122 T00891006 ","updated":"2026-05-01T10:39:58Z"}
