{"icao":"KJFK","metar":"KJFK 130351Z 04019G26KT 5SM RA BR BKN012 BKN017 OVC047 14/13 A2995 RMK AO2 PK WND 03028/0340 SLP140 P0015 T01440128","updated":"2025-10-13T04:21:25Z"}
