{"icao":"KJFK","metar":"KJFK 102151Z 19010KT 10SM FEW055 FEW250 15/05 A2997 RMK AO2 SLP148 T01500050","updated":"2026-03-10T22:27:17Z"}
