{"icao":"KORD","metar":"KORD 180051Z 17012G18KT 10SM FEW170 BKN250 OVC300 21/11 A2975 RMK AO2 SLP073 T02110111","updated":"2025-10-18T01:16:32Z"}
