{"icao":"LPPD","metar":"LPPD 121400Z 30019G32KT 270V330 9999 FEW016 16/09 Q1014","updated":"2026-01-12T14:24:17Z"}
