{"icao":"LPMA","metar":"LPMA 021300Z 24003KT 150V300 9999 BKN014 18/12 Q0997","updated":"2026-01-02T13:31:50Z"}
