{"icao":"KLAX","metar":"KLAX 190953Z 09003KT 9SM SCT280 17/14 A3000 RMK AO2 SLP155 T01720144 $","updated":"2025-10-19T10:16:53Z"}
