{"icao":"KLAX","metar":"KLAX 271853Z 05007KT 10SM FEW180 FEW250 20/M04 A3028 RMK AO2 SLP253 T02001039 $","updated":"2026-01-27T19:25:11Z"}
