{"icao":"KLAX","metar":"KLAX 160953Z 08007KT 9SM FEW018 BKN036 BKN046 OVC200 13/10 A2990 RMK AO2 RAB20E49 SLP123 P0001 T01280100","updated":"2026-02-16T10:49:43Z"}
