{"icao":"KJFK","metar":"KJFK 172051Z 24012KT 9SM FEW009 BKN014 OVC080 01/00 A3007 RMK AO2 SLP181 60012 T00110000 53012 $","updated":"2026-01-17T21:17:07Z"}
