{"icao":"LPPR","metar":"LPPR 270600Z 11004KT 050V150 9999 FEW003 18/17 Q1019","updated":"2026-06-27T06:30:00Z"}
