{"icao":"KJFK","metar":"KJFK 292051Z 19022G29KT 10SM FEW070 SCT090 SCT140 SCT250 19/11 A2981 RMK AO2 PK WND 20029/2050 SLP095 T01940106 56025 $","updated":"2026-05-29T21:05:56Z"}
