{"icao":"LPPD","metar":"LPPD 022300Z 06004KT 030V090 9999 FEW009 BKN030 19/18 Q1018","updated":"2025-11-02T23:15:34Z"}
