{"icao":"LPSJ","metar":"LPSJ 121900Z 14007KT 100V200 9999 FEW014 SCT030 21/17 Q1020","updated":"2026-06-13T03:35:18Z"}
