{"icao":"LPAZ","metar":"LPAZ 262030Z 31008KT 9000 BKN003 BKN040 16/15 Q1031","updated":"2026-02-26T20:36:03Z"}
