{"icao":"KJFK","metar":"KJFK 070851Z 29004KT 10SM FEW250 01/M03 A3005 RMK AO2 SLP174 T00061033 50012 $","updated":"2025-12-07T09:18:01Z"}
