{"icao":"LPHR","metar":"LPHR 101430Z 04010KT 330V090 9999 SCT015 FEW020TCU BKN030 16/10 Q1023","updated":"2026-05-10T14:51:17Z"}
