{"icao":"LPMT","metar":"LPMT 241800Z 02007KT 9999 FEW028 SCT048 12/07 Q1009","updated":"2025-12-24T18:28:41Z"}
