{"icao":"KJFK","metar":"KJFK 111151Z 30019G27KT 10SM SCT048 02/M08 A2958 RMK AO2 PK WND 30034/1140 SLP017 70006 T00171083 10044 20017 53045 $","updated":"2025-12-11T12:42:56Z"}
