{"icao":"LPFR","metar":"LPFR 292330Z 01008KT 340V040 CAVOK 29/14 Q1018","updated":"2026-06-30T00:02:37Z"}
