{"icao":"KORD","metar":"KORD 090451Z 22019KT 10SM FEW085 FEW250 15/13 A2939 RMK AO2 RAE0359 SLP953 T01500128 PNO $","updated":"2026-01-09T05:24:32Z"}
