{"icao":"LPOV","metar":"LPOV 110400Z 17001KT CAVOK 08/08 Q1025","updated":"2026-03-11T04:09:17Z"}
