{"icao":"LPHR","metar":"LPHR 150630Z 20012KT 9999 FEW016 BKN035 17/14 Q1028","updated":"2026-02-15T06:50:50Z"}
