{"icao":"LPHR","metar":"LPHR 051200Z 14012KT 9999 FEW015 BKN040 23/19 Q1023","updated":"2025-10-05T12:32:14Z"}
