{"icao":"LPMA","metar":"LPMA 192000Z 03004KT 330V070 9999 FEW015 15/09 Q1027","updated":"2026-01-19T20:22:42Z"}
