{"icao":"LPPS","metar":"LPPS 171130Z 12006KT 080V170 9999 FEW015 BKN030 17/12 Q1028","updated":"2026-02-17T11:38:06Z"}
