{"icao":"LPPD","metar":"LPPD 011930Z 04012KT 8000 -DZ FEW006 BKN008 14/12 Q1030","updated":"2026-04-01T19:59:58Z"}
