{"icao":"LPPT","metar":"LPPT 280300Z 10003KT 6000 FEW001 BKN004 18/18 Q1016","updated":"2025-10-28T03:05:51Z"}
