{"icao":"LPPT","metar":"LPPT 210500Z 12013KT 100V160 CAVOK 20/06 Q1002","updated":"2026-04-21T05:26:00Z"}
