{"icao":"LPAZ","metar":"LPAZ 080430Z 24023KT 8000 FEW010 SCT020 BKN028 17/16 Q1015","updated":"2026-02-08T05:02:01Z"}
