{"icao":"KJFK","metar":"KJFK 121051Z 29021G28KT 10SM FEW060 M03/M14 A2999 RMK AO2 PK WND 30028/1051 SLP155 T10331139 $","updated":"2025-12-12T11:18:26Z"}
