{"icao":"LPPD","metar":"LPPD 201030Z 17012KT 9999 FEW020 BKN040 16/12 Q1024","updated":"2026-02-20T10:36:12Z"}
