{"icao":"LPPS","metar":"LPPS 051330Z 07008KT 340V100 9999 SCT014 19/14 Q1017","updated":"2026-04-05T13:54:35Z"}
