{"icao":"LPOV","metar":"LPOV 121100Z 24009KT 210V270 9999 SCT020 FEW025CB 18/14 Q1018","updated":"2026-05-12T11:54:04Z"}
