{"icao":"LPPD","metar":"LPPD 210300Z 08004KT 040V100 9999 FEW016 SCT040 15/11 Q1030","updated":"2025-11-21T03:09:19Z"}
