{"icao":"KLAX","metar":"KLAX 211410Z 00000KT 1/4SM R25L/1200V4000FT FG BKN000 BKN004 16/16 A3003 RMK AO2 FG BKN000 T01560156","updated":"2025-10-21T14:17:34Z"}
