{"icao":"LPPT","metar":"LPPT 102130Z 21014KT 9999 FEW012 BKN018 FEW022CB 15/13 Q1011","updated":"2026-05-10T21:46:10Z"}
