{"icao":"KORD","metar":"KORD 150351Z 03012KT 10SM FEW017 BKN060 OVC080 16/11 A3029 RMK AO2 SLP256 T01560106 $","updated":"2025-10-15T04:21:32Z"}
