{"icao":"LPPS","metar":"LPPS 090800Z 22018KT 3000 +RA BR SCT008 SCT018CB 19/18 Q1018","updated":"2025-12-09T08:28:15Z"}
