{"icao":"LPHR","metar":"LPHR 081100Z 05017G28KT 020V080 9999 FEW016 13/04 Q1028","updated":"2026-03-08T11:19:59Z"}
