{"icao":"LPCS","metar":"LPCS 111700Z 17006KT 140V200 9999 SCT010 14/13 Q1018","updated":"2025-12-11T17:24:08Z"}
