{"icao":"LPMA","metar":"LPMA 230800Z 36011KT 9999 SCT015 19/14 Q1021","updated":"2025-09-23T08:22:51Z"}
