{"icao":"KJFK","metar":"KJFK 130651Z 31013G19KT 10SM FEW070 01/M07 A3007 RMK AO2 SLP180 T00111072","updated":"2026-03-13T07:43:41Z"}
