{"icao":"LPPT","metar":"LPPT 151330Z 29007KT 250V330 9999 FEW020 BKN028 14/09 Q1032","updated":"2026-02-15T13:43:29Z"}
