{"icao":"KJFK","metar":"KJFK 042051Z 31018G30KT 10SM SCT055 SCT095 SCT250 04/M07 A3005 RMK AO2 PK WND 30030/2047 SLP174 T00441072 53015","updated":"2025-12-04T21:18:31Z"}
