{"icao":"KLAX","metar":"KLAX 210653Z 00000KT 9SM BKN008 19/18 A2993 RMK AO2 SLP131 T01940178","updated":"2025-09-21T07:14:12Z"}
