{"icao":"KJFK","metar":"KJFK 030951Z 35010KT 10SM BKN095 BKN250 08/M02 A2984 RMK SLP104 T00781017 ","updated":"2026-05-03T10:02:53Z"}
