{"icao":"KORD","metar":"KORD 180151Z 22006KT 10SM SCT095 BKN130 BKN200 OVC250 M06/M14 A3016 RMK AO2 SLP224 T10561139","updated":"2026-03-18T02:05:54Z"}
