{"icao":"LPFR","metar":"LPFR 211400Z 02008KT 340V040 CAVOK 17/01 Q1024","updated":"2025-11-21T14:17:52Z"}
