{"icao":"LPFL","metar":"LPFL 191700Z 35023G34KT 9999 FEW020 SCT036 14/06 Q1020","updated":"2026-04-19T17:34:07Z"}
