{"icao":"LPMT","metar":"LPMT 122200Z 23004KT 190V250 9999 FEW026 16/13 Q1020","updated":"2026-05-12T22:59:04Z"}
