{"icao":"LPFL","metar":"LPFL 230730Z 21011G30KT 130V280 9999 -RA BKN010 FEW012CB 17/13 Q1001","updated":"2026-02-23T07:53:36Z"}
