{"icao":"LPST","metar":"LPST 271800Z 36013G23KT 9999 FEW015 13/08 Q1024","updated":"2026-02-27T18:40:50Z"}
