{"icao":"KORD","metar":"KORD 281551Z 29012G18KT 10SM FEW022 FEW250 M14/M19 A3019 RMK AO2 SLP240 T11391194","updated":"2026-01-28T16:35:39Z"}
