{"icao":"KORD","metar":"KORD 101851Z 33016G32KT 10SM BKN024 OVC033 M01/M05 A2966 RMK AO2 PK WND 33032/1843 SLP050 T10061050","updated":"2025-12-10T19:17:03Z"}
