{"icao":"LPLA","metar":"LPLA 012100Z 24009KT 210V270 9999 FEW016 SCT040 23/20 Q1020","updated":"2025-10-01T21:15:26Z"}
