{"icao":"LPHR","metar":"LPHR 112000Z 31017KT 8000 -SHRA BKN016 FEW020TCU 15/11 Q1006","updated":"2025-11-11T20:20:03Z"}
