{"icao":"LPPS","metar":"LPPS 140400Z 04009KT 350V070 9999 FEW015 BKN030 22/18 Q1023","updated":"2025-09-14T04:19:44Z"}
