{"icao":"LPOV","metar":"LPOV 060800Z 26005KT 210V310 9999 SCT018 FEW022CB BKN030 15/11 Q1015","updated":"2025-11-06T08:25:34Z"}
