{"icao":"LPBJ","metar":"LPBJ 010500Z 20010KT 6000 -RA SCT007 OVC015 13/12 Q1016","updated":"2026-02-01T06:03:09Z"}
