{"icao":"LPOV","metar":"LPOV 031600Z 17003KT 090V230 CAVOK 17/12 Q1020","updated":"2025-11-03T16:21:01Z"}
