{"icao":"KLAX","metar":"KLAX 021553Z 05003KT 10SM BKN046 BKN060 OVC270 14/12 A3006 RMK AO2 SLP179 T01390117 $","updated":"2026-01-02T16:24:32Z"}
