{"icao":"LPPR","metar":"LPPR 062100Z 11004KT 080V140 CAVOK 19/12 Q1020","updated":"2025-10-06T21:14:53Z"}
