{"icao":"LPPD","metar":"LPPD 110500Z VRB02KT 9999 FEW018 17/14 Q1021","updated":"2025-10-11T05:15:42Z"}
