{"icao":"LPHR","metar":"LPHR 230900Z 31021KT 9999 FEW018 SCT050 13/04 Q1024","updated":"2026-01-23T09:28:42Z"}
