{"icao":"LPPD","metar":"LPPD 250900Z 04019KT 6000 -RA SCT012 FEW020CB SCT040 18/16 Q1016","updated":"2025-10-25T09:16:06Z"}
