{"icao":"LPPT","metar":"LPPT 130500Z 20018KT 2500 +TSRA FEW006 SCT014 SCT016CB BKN030 15/14 Q1001","updated":"2025-11-13T05:18:50Z"}
