{"icao":"LPFL","metar":"LPFL 241930Z VRB07G18KT 9999 FEW024 14/06 Q1023","updated":"2026-02-24T19:51:49Z"}
