{"icao":"LPFR","metar":"LPFR 170500Z 04006KT CAVOK 18/08 Q1017","updated":"2026-04-17T05:26:29Z"}
