{"icao":"LPPR","metar":"LPPR 271200Z 22010KT 190V250 CAVOK 29/12 Q1019","updated":"2026-05-27T12:19:00Z"}
