{"icao":"LPFR","metar":"LPFR 182100Z 35008KT CAVOK 10/03 Q1015","updated":"2026-01-18T21:17:32Z"}
