{"icao":"LPPT","metar":"LPPT 031100Z 33005KT 260V050 CAVOK 23/14 Q1024","updated":"2025-10-03T11:13:53Z"}
