{"icao":"LPPS","metar":"LPPS 201900Z 27015KT 9999 FEW010 18/15 Q1003","updated":"2026-04-20T19:08:29Z"}
