{"icao":"KORD","metar":"KORD 221651Z 28013G26KT 10SM OVC028 09/03 A2986 RMK AO2 PK WND 29026/1651 SLP112 T00940028","updated":"2025-10-22T17:17:18Z"}
