{"icao":"LPLA","metar":"LPLA 050900Z 19008KT 120V240 9999 FEW022 SCT030 16/10 Q1018","updated":"2026-04-05T09:37:26Z"}
