{"icao":"LPPT","metar":"LPPT 180300Z 00000KT CAVOK 18/11 Q1015","updated":"2025-10-18T03:27:01Z"}
