{"icao":"LPPD","metar":"LPPD 011230Z 27015KT 6000 BKN004 BKN008 16/15 Q1024","updated":"2026-03-01T12:45:40Z"}
