{"icao":"LPMR","metar":"LPMR 031200Z 13009KT 9999 SCT020 SCT035 15/11 Q1000","updated":"2026-01-03T12:37:22Z"}
