{"icao":"KJFK","metar":"KJFK 151351Z 01003KT 10SM FEW060 BKN140 BKN250 06/M02 A2989 RMK AO2 SLP119 T00611022","updated":"2025-11-15T14:15:47Z"}
