{"icao":"LPPR","metar":"LPPR 150830Z 36013KT 9999 FEW020 11/07 Q1020","updated":"2026-03-15T08:34:47Z"}
