{"icao":"LPHR","metar":"LPHR 181000Z 35007KT 320V020 9999 FEW018 SCT040 13/07 Q1026","updated":"2025-12-18T10:21:55Z"}
