{"icao":"LPBJ","metar":"LPBJ 191800Z 35007KT 9999 FEW045 13/05 Q1027","updated":"2026-02-19T18:49:30Z"}
