{"icao":"LPMA","metar":"LPMA 011800Z 20014KT 150V230 9999 FEW015 22/18 Q1018","updated":"2025-11-01T18:22:30Z"}
