{"icao":"KORD","metar":"KORD 011151Z 00000KT 10SM BKN180 OVC250 M07/M09 A3041 RMK AO2 SLP308 4/006 I6001 T10721094 11067 21083 55008 $","updated":"2025-12-01T12:40:45Z"}
