{"icao":"LPOV","metar":"LPOV 170900Z 03002KT 360V070 0150 FG VV/// 13/13 Q1015","updated":"2025-10-17T09:19:34Z"}
