{"icao":"LPHR","metar":"LPHR 011500Z 09008KT 050V130 9999 FEW025 SCT045 19/09 Q1021","updated":"2025-11-01T15:15:05Z"}
