{"icao":"LPAZ","metar":"LPAZ 021830Z 28008KT CAVOK 20/17 Q1030","updated":"2026-06-02T18:37:50Z"}
