{"icao":"KJFK","metar":"KJFK 171551Z 21009KT 10SM FEW150 BKN250 27/15 A3007 RMK AO2 SLP181 T02720150 $","updated":"2026-05-17T15:58:06Z"}
