{"icao":"LPHR","metar":"LPHR 101000Z 03010G22KT 310V080 9999 SCT012 FEW014TCU SCT030 15/09 Q1023","updated":"2026-05-10T10:13:36Z"}
