{"icao":"LPBJ","metar":"LPBJ 092100Z 28004KT CAVOK 12/07 Q1020","updated":"2025-11-09T21:15:08Z"}
