{"icao":"LPMT","metar":"LPMT 211400Z 23012KT 200V260 9999 FEW035 21/14 Q1005","updated":"2026-04-21T15:11:19Z"}
