{"icao":"KJFK","metar":"KJFK 041751Z 34013KT 10SM FEW048 M01/M12 A3021 RMK SLP230 4/005 933011 T10111122 11006 21017 58005 PNO $ ","updated":"2026-02-04T18:49:13Z"}
