{"icao":"LPPT","metar":"LPPT 021330Z 25013KT 230V300 9999 VCSH FEW012 FEW025CB SCT034 11/10 Q0999 RESHRA WS R20","updated":"2026-02-02T14:03:32Z"}
