{"icao":"LPPT","metar":"LPPT 262200Z 34009KT CAVOK 16/07 Q1015","updated":"2026-03-26T22:28:02Z"}
