{"icao":"LPMA","metar":"LPMA 070630Z 27006KT 210V310 9999 BKN015 18/09 Q1019","updated":"2026-02-07T06:40:35Z"}
