{"icao":"LPOV","metar":"LPOV 041200Z 21009KT 9999 SCT008 BKN012 15/13 Q0994","updated":"2026-02-04T12:56:47Z"}
