{"icao":"KORD","metar":"KORD 311252Z 27005KT 10SM OVC024 M01/M04 A2990 RMK T10141044 ","updated":"2025-12-31T13:31:51Z"}
