{"icao":"LPHR","metar":"LPHR 162300Z 21020KT 9999 SCT007 BKN013 17/16 Q1021","updated":"2026-02-16T23:27:48Z"}
