{"icao":"KORD","metar":"KORD 150551Z 21011KT 10SM FEW150 SCT210 BKN250 M16/M22 A3047 RMK AO2 PRESFR SLP336 T11611217 11150 21161 411221189 58026","updated":"2025-12-15T06:34:00Z"}
