{"icao":"LPPT","metar":"LPPT 150700Z 24005KT 9999 BKN035 11/09 Q1019","updated":"2026-01-15T07:23:58Z"}
