{"icao":"LPBJ","metar":"LPBJ 151400Z 30009KT 270V330 9999 OVC025 13/09 Q1031","updated":"2026-02-15T14:26:23Z"}
