{"icao":"KJFK","metar":"KJFK 251451Z 19003KT 10SM FEW140 FEW170 BKN250 07/M03 A3042 RMK AO2 SLP302 T00671028 51004 $","updated":"2026-03-25T14:58:07Z"}
