{"icao":"KJFK","metar":"KJFK 030151Z 32011KT 10SM FEW200 M02/M12 A3010 RMK SLP191 T10221117 PNO $ ","updated":"2026-02-03T02:02:51Z"}
