{"icao":"LPPT","metar":"LPPT 092000Z 26003KT 220V310 8000 FEW002 15/15 Q1018","updated":"2025-12-09T20:19:32Z"}
