{"icao":"LPAZ","metar":"LPAZ 281200Z 23006KT 200V260 9999 SCT021 21/15 Q1028","updated":"2026-06-28T12:14:53Z"}
