{"icao":"KLAX","metar":"KLAX 291853Z 27007KT 220V290 10SM FEW009 FEW025 SCT060 23/16 A3000 RMK AO2 SLP158 T02280156 $","updated":"2025-09-29T19:14:05Z"}
