{"icao":"KJFK","metar":"KJFK 232251Z 36011KT 10SM BKN019 BKN031 OVC045 04/02 A3005 RMK AO2 RAB2159E49 SLP174 P0000 T00390017","updated":"2026-03-23T23:31:37Z"}
