{"icao":"KLAX","metar":"KLAX 261153Z 06005KT 10SM FEW140 BKN180 BKN250 13/04 A3023 RMK AO2 SLP234 T01280039 10150 20111 58004 $","updated":"2026-01-26T12:45:51Z"}
