{"icao":"LPPR","metar":"LPPR 130800Z 19011KT 150V220 9000 -RADZ SCT009 FEW012TCU BKN015 12/11 Q1005 RERA","updated":"2026-01-13T08:29:21Z"}
