{"icao":"LPMR","metar":"LPMR 082100Z 05003KT CAVOK 14/08 Q1020","updated":"2026-04-08T21:39:31Z"}
