{"icao":"LPHR","metar":"LPHR 181330Z 32009KT 270V010 9999 FEW018 SCT040 15/08 Q1028","updated":"2025-12-18T13:35:33Z"}
