{"icao":"LPAZ","metar":"LPAZ 210900Z 06008KT 030V090 9999 FEW022 BKN038 16/12 Q1030","updated":"2025-11-21T09:19:32Z"}
