{"icao":"KORD","metar":"KORD 281451Z 18003KT 10SM FEW250 00/M11 A3064 RMK AO2 SLP383 T00001111 51010","updated":"2026-03-28T15:29:27Z"}
