{"icao":"KJFK","metar":"KJFK 171251Z 20010KT 10SM SCT070 BKN085 BKN230 04/M07 A3007 RMK AO2 SLP181 T00441067 $","updated":"2026-01-17T13:27:51Z"}
