{"icao":"LPBJ","metar":"LPBJ 162308Z 29006KT 7000 2000N BCFG FEW010 06/05 Q1014","updated":"2026-01-16T23:18:50Z"}
