{"icao":"LPAZ","metar":"LPAZ 231000Z 16009KT 9999 FEW006 SCT047 23/22 Q1018","updated":"2025-10-23T10:19:29Z"}
