{"icao":"LPFR","metar":"LPFR 121000Z 10010KT CAVOK 24/16 Q1016","updated":"2025-10-12T10:16:33Z"}
