{"icao":"KJFK","metar":"KJFK 071951Z 31015G21KT 10SM BKN040 BKN250 10/02 A2977 RMK AO2 PK WND 29036/1902 SLP082 T01000017 $","updated":"2026-01-07T20:24:12Z"}
