{"icao":"KJFK","metar":"KJFK 022251Z 33007KT 10SM SCT075 BKN160 BKN210 BKN250 15/M03 A2983 RMK SLP099 T01501028 ","updated":"2026-05-02T23:41:02Z"}
