{"icao":"LPFL","metar":"LPFL 081330Z VRB14G28KT 9999 FEW011 SCT015 20/17 Q1006","updated":"2026-02-08T13:43:04Z"}
