{"icao":"KJFK","metar":"KJFK 120351Z 30017G29KT 10SM BKN042 BKN055 02/M07 A2997 RMK AO2 PK WND 27034/0315 SLP148 T00221072","updated":"2026-01-12T04:49:34Z"}
