{"icao":"LPMR","metar":"LPMR 031400Z 12008KT 080V160 9999 FEW020 SCT035 16/11 Q0999","updated":"2026-01-03T14:17:24Z"}
