{"icao":"LPMT","metar":"LPMT 060700Z 14002KT 9999 BKN042 14/14 Q1023","updated":"2025-12-06T07:16:59Z"}
