{"icao":"LPOV","metar":"LPOV 261800Z 02004KT CAVOK 13/10 Q1025","updated":"2025-11-27T05:19:10Z"}
