{"icao":"LPPT","metar":"LPPT 262300Z 06005KT CAVOK 07/06 Q1013","updated":"2025-12-26T23:18:43Z"}
