{"icao":"LPMT","metar":"LPMT 301300Z 22008KT 180V260 9999 FEW030 20/14 Q1014","updated":"2025-10-30T13:29:33Z"}
