{"icao":"LPPT","metar":"LPPT 122300Z 32012KT CAVOK 24/13 Q1018","updated":"2026-06-12T23:14:49Z"}
