{"icao":"LPMA","metar":"LPMA 122100Z 23013KT 9999 FEW015 FEW018TCU 19/12 Q1002","updated":"2025-11-12T21:17:12Z"}
