{"icao":"LPPR","metar":"LPPR 192130Z 31005KT 0400 R17/0900D FG VV001 12/12 Q1016","updated":"2026-04-19T21:34:30Z"}
