{"icao":"LPHR","metar":"LPHR 051130Z 06010KT 020V080 9999 FEW018 BKN045 17/09 Q1028","updated":"2026-05-05T12:00:08Z"}
