{"icao":"KORD","metar":"KORD 111251Z 11003KT 10SM FEW100 FEW250 06/02 A3042 RMK AO2 SLP304 T00560017 $","updated":"2026-04-11T12:55:34Z"}
