{"icao":"LPPS","metar":"LPPS 210400Z 06008KT 030V090 9999 FEW015 BKN030 15/10 Q1026","updated":"2026-02-21T04:06:20Z"}
