{"icao":"LPHR","metar":"LPHR 292200Z 27018KT 9999 SCT012 17/15 Q1014","updated":"2026-01-29T22:26:45Z"}
