{"icao":"KJFK","metar":"KJFK 210751Z 05005KT 10SM SCT250 13/11 A3030 RMK AO2 SLP261 T01330111 $","updated":"2025-09-21T08:19:45Z"}
