{"icao":"LPMR","metar":"LPMR 071600Z 30007KT 260V320 9999 SCT009 BKN016 18/17 Q1015","updated":"2025-11-07T16:19:21Z"}
