{"icao":"KORD","metar":"KORD 011851Z 00000KT 10SM FEW035 BKN042 BKN060 BKN250 10/01 A3004 RMK AO2 SLP176 T01000006 $","updated":"2025-11-01T19:12:53Z"}
