{"icao":"KORD","metar":"KORD 020851Z 31007KT 10SM OVC029 M06/M11 A2987 RMK AO2 SLP126 T10611111 50000 $","updated":"2026-01-02T09:24:01Z"}
