{"icao":"LPAZ","metar":"LPAZ 041600Z 01011KT 340V050 9999 BKN026 17/11 Q1020","updated":"2026-01-04T16:23:25Z"}
