{"icao":"LPPR","metar":"LPPR 152330Z 08003KT 050V110 9999 BKN007 OVC038 14/13 Q1024","updated":"2026-04-15T23:40:10Z"}
