{"icao":"LPMT","metar":"LPMT 041600Z 18004KT 150V220 9999 SCT030 22/17 Q1013","updated":"2025-11-04T16:22:07Z"}
