{"icao":"LPOV","metar":"LPOV 101900Z 34015KT 7000 SCT005 15/14 Q1012","updated":"2026-04-10T21:35:48Z"}
