{"icao":"KJFK","metar":"KJFK 200751Z 26004KT 10SM FEW095 04/M01 A3011 RMK SLP196 T00441011 ","updated":"2026-04-20T08:04:50Z"}
