{"icao":"LPAZ","metar":"LPAZ 141100Z 02008KT 340V060 9999 FEW011 BKN019 16/12 Q1031","updated":"2026-03-14T11:22:32Z"}
