{"icao":"LPHR","metar":"LPHR 032030Z 07011G21KT 040V100 9999 FEW025 15/10 Q1022","updated":"2026-05-03T20:41:47Z"}
