{"icao":"LPLA","metar":"LPLA 260500Z VRB09G21KT 9999 FEW022 BKN035 19/11 Q1023","updated":"2025-10-26T05:17:05Z"}
