{"icao":"LPOV","metar":"LPOV 121000Z 23007KT 8000 FEW008 SCT018 14/11 Q1019","updated":"2026-02-12T10:43:33Z"}
