{"icao":"LPMA","metar":"LPMA 142200Z 01010KT 9999 FEW016 15/09 Q1032","updated":"2026-02-14T22:21:51Z"}
