{"icao":"LPPT","metar":"LPPT 111830Z 33010KT CAVOK 16/12 Q1025","updated":"2026-03-11T18:52:20Z"}
