{"icao":"LPST","metar":"LPST 101100Z 17009KT 9999 FEW012 20/16 Q1013","updated":"2026-04-10T11:47:12Z"}
