{"icao":"KLAX","metar":"KLAX 071553Z VRB03KT 8SM OVC013 18/15 A2989 RMK AO2 SLP119 T01830150 $","updated":"2025-10-07T16:22:06Z"}
