{"icao":"KLAX","metar":"KLAX 171101Z 08004KT 9SM FEW008 BKN026 BKN050 BKN150 14/13 A2996 RMK AO2 T01390128 $","updated":"2025-11-17T11:16:54Z"}
