{"icao":"LPBJ","metar":"LPBJ 241700Z 18013KT CAVOK 31/08 Q1020","updated":"2026-05-24T18:04:32Z"}
