{"icao":"LPMR","metar":"LPMR 261900Z 03002KT 360V100 CAVOK 11/08 Q1025","updated":"2025-11-26T19:14:28Z"}
