{"icao":"KORD","metar":"KORD 271251Z 28012G24KT 10SM FEW027 FEW035 M10/M16 A2994 RMK AO2 PK WND 27026/1221 SLP155 T11001156","updated":"2026-01-27T13:45:47Z"}
