{"icao":"LPPR","metar":"LPPR 220430Z 30009G19KT 260V320 9999 -SHRA FEW020 BKN035 11/06 Q1006","updated":"2026-01-22T04:46:53Z"}
