{"icao":"LPPR","metar":"LPPR 091730Z 32008KT 9999 FEW012 SCT020 11/07 Q1019","updated":"2026-03-09T17:53:24Z"}
