{"icao":"LPPR","metar":"LPPR 011500Z 18012KT 1500 R17/0900N -DZRA BCFG BR FEW001 BKN002 14/14 Q1007","updated":"2026-02-01T15:23:33Z"}
