{"icao":"LPHR","metar":"LPHR 141600Z 27019KT 9999 FEW006 SCT011 BKN040 17/16 Q1021","updated":"2026-01-14T16:28:55Z"}
