{"icao":"LPCS","metar":"LPCS 101400Z 20005KT 160V230 9999 SCT022 BKN034 13/11 Q1029","updated":"2026-01-10T14:17:43Z"}
