{"icao":"LPFL","metar":"LPFL 051230Z 17009KT 140V200 9999 FEW018 18/13 Q1013","updated":"2025-11-05T12:38:32Z"}
