{"icao":"LPCS","metar":"LPCS 200700Z 36011KT 9999 FEW010 19/17 Q1019","updated":"2025-09-20T07:15:11Z"}
