{"icao":"LPBJ","metar":"LPBJ 201300Z 30007KT 8000 FEW030 11/07 Q1020","updated":"2026-01-20T13:45:42Z"}
