{"icao":"LPFR","metar":"LPFR 010800Z 01004KT 340V080 CAVOK 29/17 Q1018","updated":"2026-07-01T08:11:00Z"}
