{"icao":"KJFK","metar":"KJFK 311951Z 17011KT 10SM SCT060 BKN120 BKN220 17/09 A2994 RMK AO2 SLP140 T01670089","updated":"2026-03-31T20:40:52Z"}
