{"icao":"KJFK","metar":"KJFK 220751Z 20004KT 6SM -RA BR OVC034 09/07 A2990 RMK AO2 RAB51 SLP124 P0000 T00890072","updated":"2025-11-22T08:22:37Z"}
