{"icao":"LPAZ","metar":"LPAZ 240600Z 27014KT 9999 FEW025 SCT048 15/08 Q1026","updated":"2026-01-24T06:30:13Z"}
