{"icao":"LPPT","metar":"LPPT 042100Z 30010KT CAVOK 18/07 Q1021","updated":"2026-04-04T21:29:57Z"}
