{"icao":"LPPS","metar":"LPPS 271630Z 03016G26KT 360V060 9999 BKN015 17/12 Q1026","updated":"2026-02-27T16:39:26Z"}
