{"icao":"LPBJ","metar":"LPBJ 070800Z 31006KT CAVOK 08/07 Q1017","updated":"2026-03-07T08:29:37Z"}
