{"icao":"LPFR","metar":"LPFR 131200Z 11016KT 9999 FEW015 24/18 Q1018","updated":"2026-06-13T12:23:14Z"}
