{"icao":"KLAX","metar":"KLAX 280453Z 25003KT 10SM CLR 17/16 A2994 RMK AO2 SLP137 T01720156 $","updated":"2025-10-28T05:18:58Z"}
