{"icao":"LPPS","metar":"LPPS 030430Z 04003KT 300V100 9999 FEW012 14/11 Q1022","updated":"2026-04-03T05:03:45Z"}
