{"icao":"LPPR","metar":"LPPR 021900Z VRB02KT CAVOK 14/12 Q1026","updated":"2025-11-02T19:12:28Z"}
