{"icao":"LPFL","metar":"LPFL 100600Z 36016KT 9999 SCT017 15/08 Q1025","updated":"2026-05-10T06:11:03Z"}
