{"icao":"KLAX","metar":"KLAX 202253Z 14005KT 8SM SCT029CB SCT046 OVC060 15/11 A2995 RMK AO2 RAE51 SLP141 CB N MOV E P0003 T01500106 $","updated":"2025-11-20T23:17:43Z"}
