{"icao":"KORD","metar":"KORD 211451Z 36006KT 8SM FEW170 BKN240 07/03 A3005 RMK AO2 SLP179 T00720033 51004","updated":"2025-11-21T15:17:28Z"}
