{"icao":"LPMT","metar":"LPMT 211000Z 24008KT 200V260 3500 -DZ BR BKN005 BKN015 OVC035 21/21 Q1015","updated":"2025-10-21T10:19:11Z"}
