{"icao":"LPOV","metar":"LPOV 051200Z 21018G28KT 190V250 6000 VCTS FEW015 FEW020CB SCT024 BKN032 16/13 Q0990","updated":"2026-02-05T12:59:30Z"}
