{"icao":"LPCS","metar":"LPCS 141230Z 06012KT 030V090 CAVOK 15/09 Q1018","updated":"2025-12-14T12:36:36Z"}
