{"icao":"KORD","metar":"KORD 170251Z 09004KT 10SM FEW300 21/12 A3015 RMK AO2 SLP204 T02110122 50001 $","updated":"2025-09-17T03:27:06Z"}
