{"icao":"KJFK","metar":"KJFK 121151Z 23013KT 10SM FEW060 BKN080 05/M04 A2987 RMK AO2 SLP113 T00501039 10050 20039 56012 $","updated":"2025-11-12T12:39:46Z"}
