{"icao":"KJFK","metar":"KJFK 012151Z 12014G24KT 10SM SCT055 SCT080 SCT250 17/09 A3010 RMK AO2 SLP191 T01670094 $","updated":"2026-06-01T22:09:30Z"}
