{"icao":"LPMA","metar":"LPMA 072030Z 30007G21KT 220V360 9999 SCT014 14/05 Q1024","updated":"2026-04-07T20:45:42Z"}
