{"icao":"LPBJ","metar":"LPBJ 101800Z 25014KT 2000 -DZ BR OVC004 15/15 Q1018","updated":"2026-02-10T19:19:58Z"}
