{"icao":"LPMR","metar":"LPMR 241600Z 28004KT 230V360 CAVOK 22/15 Q1020","updated":"2026-05-24T16:58:51Z"}
