{"icao":"LPMT","metar":"LPMT 100100Z 19006KT 150V230 9999 FEW020 13/11 Q1009","updated":"2026-05-10T02:49:43Z"}
