{"icao":"LPCS","metar":"LPCS 291700Z 32008KT 290V350 9999 FEW008 20/16 Q1009","updated":"2025-10-29T17:17:25Z"}
