{"icao":"LPPT","metar":"LPPT 240330Z 32008KT CAVOK 15/14 Q1020","updated":"2026-05-24T03:38:25Z"}
