{"icao":"LPPR","metar":"LPPR 200830Z 29003KT 260V320 CAVOK 21/17 Q1017","updated":"2026-06-20T08:52:56Z"}
