{"icao":"LPMA","metar":"LPMA 272100Z 22009KT 180V240 9999 SCT013 FEW016TCU 23/20 Q1015","updated":"2025-10-27T21:15:56Z"}
