{"icao":"LPLA","metar":"LPLA 030700Z VRB01KT 9999 FEW015 OVC025 13/11 Q1027","updated":"2026-04-03T07:06:15Z"}
