{"icao":"LPMA","metar":"LPMA 061900Z 36010KT 310V070 9999 FEW016 21/16 Q1021","updated":"2026-06-06T19:20:30Z"}
