{"icao":"KJFK","metar":"KJFK 292251Z 27014KT 10SM FEW055 FEW250 M06/M16 A3013 RMK SLP201 T10561161 $ ","updated":"2026-01-29T23:25:14Z"}
