{"icao":"LPFL","metar":"LPFL 092000Z 20006KT 160V260 9999 VCSH SCT017 FEW020CB 22/18 Q1017","updated":"2025-10-10T06:27:21Z"}
