{"icao":"LPPS","metar":"LPPS 211600Z 06013KT 020V100 9999 SCT015 SCT030 23/16 Q1022","updated":"2025-09-21T16:18:58Z"}
