{"icao":"LPMR","metar":"LPMR 142300Z 16008KT 4000 SHRA SCT018 FEW020CB BKN030 13/11 Q1005","updated":"2025-11-14T23:16:55Z"}
