{"icao":"KJFK","metar":"KJFK 111551Z 32019G26KT 10SM FEW040 BKN100 BKN200 07/M03 A2982 RMK AO2 PK WND 31026/1502 SLP096 T00671028","updated":"2026-01-11T16:23:28Z"}
