{"icao":"KORD","metar":"KORD 222051Z 20013G22KT 10SM BKN100 BKN250 08/01 A2999 RMK AO2 SLP160 T00830011 56023","updated":"2025-11-22T21:15:32Z"}
