{"icao":"LPPT","metar":"LPPT 230430Z 05004KT CAVOK 10/09 Q1024","updated":"2026-02-23T04:56:37Z"}
