{"icao":"LPPT","metar":"LPPT 191730Z 08008KT 030V140 6000 -RA FEW002 BKN004 13/13 Q1006","updated":"2026-03-19T17:52:51Z"}
