{"icao":"KJFK","metar":"KJFK 071851Z 19009KT 2 1/2SM BR OVC005 06/04 A3010 RMK AO2 TWR VIS 3 SLP193 T00560039","updated":"2026-03-07T19:20:48Z"}
