{"icao":"KLAX","metar":"KLAX 221853Z 25007KT 10SM FEW230 SCT280 20/06 A3023 RMK AO2 SLP236 T02000056 $","updated":"2026-02-22T19:23:46Z"}
