{"icao":"KJFK","metar":"KJFK 020351Z 07005KT 10SM BKN250 00/M06 A3029 RMK AO2 SLP255 T00001061 $","updated":"2025-12-02T04:29:18Z"}
