{"icao":"LPFR","metar":"LPFR 130100Z 26005KT CAVOK 20/14 Q1014","updated":"2025-10-13T01:23:29Z"}
