{"icao":"KJFK","metar":"KJFK 200351Z 29017G25KT 10SM FEW070 M02/M12 A3009 RMK AO2 PK WND 28029/0302 SLP188 T10221122 $","updated":"2026-01-20T04:43:10Z"}
