{"icao":"KJFK","metar":"KJFK 050051Z 17004KT 10SM BKN250 21/17 A3021 RMK AO2 SLP228 T02060172","updated":"2025-10-05T01:24:54Z"}
