{"icao":"LPFR","metar":"LPFR 231730Z 25010KT CAVOK 23/20 Q1012","updated":"2026-06-23T17:52:04Z"}
