{"icao":"LPCS","metar":"LPCS 090830Z 32009KT 290V360 6000 -RADZ FEW004 SCT010 BKN016 11/09 Q1023","updated":"2026-03-09T08:42:05Z"}
