{"icao":"KJFK","metar":"KJFK 270251Z 28016G24KT 10SM SCT041 BKN090 BKN110 13/07 A2972 RMK AO2 PK WND 27027/0227 RAE0159 SLP062 P0000 60003 T01330067 51003","updated":"2025-11-27T03:10:33Z"}
