{"icao":"LPBJ","metar":"LPBJ 181300Z 16007KT 120V210 CAVOK 32/15 Q1020","updated":"2025-09-18T13:26:08Z"}
