{"icao":"LPPR","metar":"LPPR 300300Z 00000KT 8000 NSC 06/05 Q1021","updated":"2025-12-30T03:26:17Z"}
