{"icao":"LPAZ","metar":"LPAZ 300500Z 17009KT 9999 FEW022 21/18 Q1022","updated":"2025-09-30T05:17:48Z"}
