{"icao":"KJFK","metar":"KJFK 201751Z 14011KT 10SM FEW050 FEW250 23/12 A3025 RMK AO2 SLP243 T02280117 10233 20172 58002 $","updated":"2025-09-20T18:21:42Z"}
