{"icao":"KLAX","metar":"KLAX 151237Z 00000KT 2 1/2SM BR OVC005 14/13 A3011 RMK AO2 VIS SW-N 2 T01390128","updated":"2025-12-15T12:44:13Z"}
