{"icao":"KJFK","metar":"KJFK 312158Z 27018G25KT 10SM SCT090 BKN110 BKN250 25/04 A2987 RMK AO2 WSHFT 2138 T02500044 $","updated":"2026-05-31T22:05:27Z"}
