{"icao":"LPHR","metar":"LPHR 121230Z 31021KT 9000 VCSH SCT018 15/09 Q1018","updated":"2026-01-12T12:44:55Z"}
