{"icao":"LPPT","metar":"LPPT 221730Z 24007KT 9999 FEW048 19/08 Q1012","updated":"2026-04-22T18:02:58Z"}
