{"icao":"KORD","metar":"KORD 221151Z 02020G31KT 10SM FEW150 BKN190 BKN250 08/03 A2970 RMK AO2 PK WND 02035/1137 SLP057 T00780028 10206 20078 53058","updated":"2026-03-22T12:49:40Z"}
