{"icao":"LPHR","metar":"LPHR 271230Z 07011KT 050V110 9999 FEW018 BKN033 16/09 Q1031","updated":"2026-03-27T13:04:15Z"}
