{"icao":"KLAX","metar":"KLAX 120712Z 11003KT 8SM SCT008 16/14 A3004 RMK AO2 T01560144 $","updated":"2025-11-12T07:18:20Z"}
