{"icao":"KJFK","metar":"KJFK 160651Z 04006KT 10SM FEW045 SCT190 BKN250 18/16 A3023 RMK AO2 SLP236 T01780156 $","updated":"2025-09-16T07:17:21Z"}
