{"icao":"LPPT","metar":"LPPT 131800Z 28008KT 240V320 CAVOK 26/13 Q1016","updated":"2026-06-13T18:05:45Z"}
