{"icao":"KORD","metar":"KORD 110651Z 25006KT 10SM SCT250 M04/M08 A3012 RMK AO2 SLP206 T10391083","updated":"2025-11-11T07:18:24Z"}
