{"icao":"KORD","metar":"KORD 051251Z 01005KT 1SM R10L/P6000FT -DZ BR OVC003 04/04 A2995 RMK AO2 SLP146 P0000 T00440039","updated":"2026-03-05T12:58:20Z"}
