{"icao":"KLAX","metar":"KLAX 141653Z 12006KT 10SM FEW012 OVC022 18/12 A3004 RMK AO2 SLP171 T01780122","updated":"2026-05-14T16:59:29Z"}
