{"icao":"LPPT","metar":"LPPT 231500Z 31006KT 270V350 9999 FEW012 FEW025TCU SCT042 08/08 Q1001 RESHRA WS R20","updated":"2026-01-23T15:24:12Z"}
