{"icao":"LPAZ","metar":"LPAZ 261330Z 27034KT 9000 SCT020 FEW030TCU 16/12 Q1007","updated":"2026-01-26T13:43:14Z"}
