{"icao":"KJFK","metar":"KJFK 310851Z 27011KT 10SM FEW060 M03/M13 A2982 RMK AO2 SLP097 T10281133 51002 $","updated":"2025-12-31T09:23:39Z"}
