{"icao":"LPPR","metar":"LPPR 082100Z 22012KT 5000 -RADZ BR BKN003 BKN005 13/13 Q1026","updated":"2026-01-08T21:19:43Z"}
