{"icao":"LPMT","metar":"LPMT 290700Z 02007KT 5000 BR FEW003 BKN006 17/17 Q1006","updated":"2025-10-29T07:17:46Z"}
