{"icao":"LPFL","metar":"LPFL 041400Z 35011KT 4500 -DZ SCT004 OVC008 12/11 Q1023","updated":"2026-04-04T14:32:41Z"}
