{"icao":"LPST","metar":"LPST 220900Z 26008KT 6000 SCT006 BKN012 21/19 Q1018","updated":"2025-10-22T09:20:33Z"}
