{"icao":"LPMA","metar":"LPMA 081400Z 08004KT 030V130 9999 FEW015 BKN070 22/13 Q1023","updated":"2026-02-08T14:26:33Z"}
