{"icao":"LPCS","metar":"LPCS 241100Z 26009KT 230V300 9999 FEW012 SCT024 22/19 Q1018","updated":"2025-10-24T11:15:41Z"}
