{"icao":"LPMR","metar":"LPMR 271000Z VRB02KT CAVOK 20/15 Q1014","updated":"2026-04-27T11:02:30Z"}
