{"icao":"LPBJ","metar":"LPBJ 011900Z 30004KT CAVOK 11/05 Q1020","updated":"2025-12-01T19:20:07Z"}
