{"icao":"LPFL","metar":"LPFL 072000Z 21017G31KT 170V290 8000 -RA FEW008 BKN012 19/16 Q1004","updated":"2026-02-07T20:25:08Z"}
