{"icao":"LPPR","metar":"LPPR 260800Z 02009KT CAVOK 12/08 Q1019","updated":"2025-10-26T08:20:48Z"}
