{"icao":"LPAR","metar":"LPAR 171200Z 35006KT 310V030 9999 VCSH FEW025 18/13 Q1014","updated":"2025-11-17T12:38:53Z"}
