{"icao":"LPMT","metar":"LPMT 102000Z 35009KT 320V030 9999 FEW035 12/08 Q1023","updated":"2026-03-10T20:32:23Z"}
