{"icao":"LPMA","metar":"LPMA 051000Z 02011KT 300V080 9999 -SHRA BKN015 FEW018CB 16/10 Q1019","updated":"2026-01-05T10:23:54Z"}
