{"icao":"LPFR","metar":"LPFR 160930Z 25003KT 9999 BKN035 14/10 Q1033","updated":"2026-02-16T09:52:44Z"}
