{"icao":"LPFL","metar":"LPFL 161300Z 34008KT 300V030 9999 SCT025 22/13 Q1006","updated":"2025-10-16T13:29:54Z"}
