{"icao":"LPMR","metar":"LPMR 260300Z 16004KT 2000 BR NSC 02/00 Q1014","updated":"2025-12-26T03:23:32Z"}
