{"icao":"LPPS","metar":"LPPS 190800Z 35003KT 9999 FEW014 16/13 Q1020","updated":"2025-11-19T08:25:25Z"}
