{"icao":"KLAX","metar":"KLAX 080653Z 10004KT 10SM FEW180 17/11 A3016 RMK AO2 SLP209 T01720106 $","updated":"2026-02-08T07:37:42Z"}
