{"icao":"LPBJ","metar":"LPBJ 101300Z 09005KT 020V140 CAVOK 27/13 Q1020","updated":"2025-10-10T13:26:38Z"}
