{"icao":"LPFR","metar":"LPFR 200900Z 10004KT 030V160 CAVOK 27/16 Q1019","updated":"2025-09-20T09:16:02Z"}
