{"icao":"KORD","metar":"KORD 101851Z 20013G23KT 10SM SCT036 BKN300 33/23 A2971 RMK AO2 SLP055 T03280233","updated":"2026-06-10T19:39:32Z"}
