{"icao":"LPFR","metar":"LPFR 191000Z 30009KT 260V330 2000 RADZ BR FEW005 SCT012 FEW018CB BKN022 13/13 Q1019 WS R28","updated":"2025-12-19T10:21:40Z"}
