{"icao":"LPST","metar":"LPST 140700Z 34007KT 310V030 9999 FEW014 BKN025 13/12 Q1016","updated":"2026-05-14T09:33:04Z"}
