{"icao":"LPLA","metar":"LPLA 291600Z 22008KT 7000 -RA FEW008 SCT020 BKN035 23/21 Q1022","updated":"2025-09-29T16:18:18Z"}
