{"icao":"KJFK","metar":"KJFK 091751Z 17013KT 10SM FEW050 SCT200 BKN250 23/10 A3018 RMK AO2 SLP220 T02330100 10239 20183 58021 $","updated":"2026-06-09T18:03:18Z"}
