{"icao":"KLAX","metar":"KLAX 181053Z 07005KT 10SM CLR 18/15 A2997 RMK AO2 SLP144 T01830150 $","updated":"2026-03-18T11:44:04Z"}
