{"icao":"KJFK","metar":"KJFK 060551Z 22008KT 10SM CLR 18/14 A3029 RMK AO2 SLP255 T01780139 10217 20172 58001","updated":"2025-10-06T06:27:21Z"}
