{"icao":"KJFK","metar":"KJFK 141351Z 29013KT 10SM FEW038 FEW100 FEW250 07/M01 A3011 RMK AO2 SLP196 T00721006","updated":"2025-11-14T14:18:10Z"}
