{"icao":"LPPR","metar":"LPPR 240130Z 11008KT CAVOK 15/04 Q1018","updated":"2026-03-24T01:59:58Z"}
