{"icao":"KLAX","metar":"KLAX 201853Z 24009KT 10SM FEW008 FEW100 23/18 A3000 RMK AO2 SLP157 T02330183","updated":"2025-09-20T19:11:24Z"}
