{"icao":"KJFK","metar":"KJFK 210051Z 27017G23KT 10SM FEW065 15/06 A2990 RMK AO2 PK WND 26028/0010 SLP125 T01500056","updated":"2025-10-21T01:22:05Z"}
