{"icao":"KORD","metar":"KORD 191051Z 22006KT 9SM FEW070 SCT120 03/M01 A3003 RMK AO2 SLP175 T00281011 $","updated":"2026-03-19T11:34:22Z"}
