{"icao":"KORD","metar":"KORD 130951Z 20023G36KT 10SM SCT070 BKN120 BKN250 06/M02 A2942 RMK AO2 PK WND 18049/0908 SLP963 T00611017 $","updated":"2026-03-13T10:35:16Z"}
