{"icao":"LPMA","metar":"LPMA 031000Z 20007KT 9999 SCT014 22/19 Q1022","updated":"2025-11-03T10:21:56Z"}
