{"icao":"LPMR","metar":"LPMR 250100Z 25013G23KT 220V290 8000 -RA FEW014 BKN018 BKN024 13/11 Q1013 RERA","updated":"2026-01-25T01:50:45Z"}
