{"icao":"LPPT","metar":"LPPT 170430Z 27003KT 230V320 9999 SCT012 BKN016 13/10 Q1028","updated":"2026-02-17T04:50:20Z"}
