{"icao":"LPCS","metar":"LPCS 192100Z 26007KT 240V300 6000 OVC004 20/20 Q1015","updated":"2025-10-19T21:14:34Z"}
