{"icao":"LPOV","metar":"LPOV 132000Z 17005KT 9999 FEW014 SCT020 11/11 Q1011","updated":"2026-01-14T05:23:27Z"}
