{"icao":"LPBJ","metar":"LPBJ 250800Z 28002KT 230V340 9999 VCFG FEW002 13/12 Q1016","updated":"2026-04-25T08:51:28Z"}
