{"icao":"LPBJ","metar":"LPBJ 290700Z 25015KT 5000 -DZ BR OVC004 15/15 Q1010","updated":"2026-01-29T07:38:31Z"}
