{"icao":"LPPT","metar":"LPPT 281600Z 21019KT 1800 +RA FEW008 SCT012 FEW022CB 19/18 Q1010","updated":"2025-10-28T16:24:22Z"}
