{"icao":"LPFR","metar":"LPFR 082000Z 04005KT CAVOK 14/12 Q1021","updated":"2025-12-08T20:21:44Z"}
