{"icao":"LPPR","metar":"LPPR 210900Z 21007KT 7000 BKN002 BKN007 19/19 Q1012","updated":"2025-10-21T09:19:36Z"}
