{"icao":"LPAZ","metar":"LPAZ 191300Z 26020KT 4000 -SHRA FEW002 BKN007 BKN015 23/22 Q1017","updated":"2025-10-19T13:21:29Z"}
