{"icao":"KLAX","metar":"KLAX 150553Z 18004KT 10SM FEW017 SCT024 SCT220 BKN280 14/11 A3007 RMK AO2 SLP179 T01440106 10167 20144 50003 $","updated":"2026-02-15T06:50:51Z"}
