{"icao":"LPMR","metar":"LPMR 210500Z 18012KT 7000 -RA SCT008 BKN022 12/11 Q1008","updated":"2026-01-21T05:27:16Z"}
