{"icao":"LPMR","metar":"LPMR 190900Z 16003KT 8000 FEW040 03/02 Q1021","updated":"2026-01-19T09:32:54Z"}
