{"icao":"LPBJ","metar":"LPBJ 150500Z 25005KT CAVOK 07/06 Q1030","updated":"2026-02-15T05:55:07Z"}
