{"icao":"LPMT","metar":"LPMT 141400Z 35004KT 310V020 9999 VCSH FEW020 SCT035 14/12 Q1020","updated":"2026-01-14T14:24:06Z"}
