{"icao":"LPLA","metar":"LPLA 230900Z 21006KT 170V240 9999 FEW015 22/18 Q1015","updated":"2025-10-23T09:19:47Z"}
