{"icao":"LPLA","metar":"LPLA 271700Z 13006KT 090V160 9999 SCT030 15/08 Q1034","updated":"2026-02-27T17:34:00Z"}
