{"icao":"LPPT","metar":"LPPT 300500Z 33005KT 300V360 9999 FEW048 12/09 Q1017","updated":"2025-11-30T05:17:55Z"}
