{"icao":"LPCS","metar":"LPCS 120600Z 05007KT 9999 FEW020 21/11 Q1016","updated":"2025-10-12T06:23:28Z"}
