{"icao":"LPMR","metar":"LPMR 042000Z 15003KT 8000 SCT025 11/10 Q1020","updated":"2025-12-04T20:21:53Z"}
