{"icao":"LPBJ","metar":"LPBJ 162300Z 30003KT CAVOK 15/11 Q1019","updated":"2026-04-16T23:39:00Z"}
