{"icao":"LPPS","metar":"LPPS 152030Z 06009KT 010V090 9999 SCT015 BKN030 15/11 Q1023","updated":"2026-04-15T20:46:05Z"}
