{"icao":"KLAX","metar":"KLAX 021853Z 25008KT 10SM FEW010 SCT160 BKN250 18/11 A3000 RMK AO2 SLP158 T01830111 $","updated":"2026-04-02T19:50:40Z"}
