{"icao":"LPLA","metar":"LPLA 241000Z 36007KT 9999 BKN025 BKN040 20/12 Q1024","updated":"2025-09-24T10:18:28Z"}
