{"icao":"LPMR","metar":"LPMR 270300Z 24006KT 190V260 9999 FEW004 BKN007 OVC025 13/12 Q0999","updated":"2026-01-27T03:46:30Z"}
