{"icao":"LPPD","metar":"LPPD 281900Z 24022KT 6000 FEW011 SCT015 BKN040 17/15 Q1008","updated":"2026-01-28T19:27:00Z"}
