{"icao":"LPPR","metar":"LPPR 222130Z 00000KT CAVOK 13/10 Q1014","updated":"2026-04-22T21:49:35Z"}
