{"icao":"LPMA","metar":"LPMA 181400Z 01017G29KT 260V040 9999 SCT015 17/07 Q1018","updated":"2026-01-18T14:17:25Z"}
