{"icao":"KORD","metar":"KORD 302051Z 07010KT 10SM FEW050 BKN060 BKN080 09/02 A2996 RMK AO2 SLP150 T00890022 58009","updated":"2026-04-30T20:58:49Z"}
