{"icao":"LPCS","metar":"LPCS 071230Z 34016KT 9999 SCT018 14/08 Q1026","updated":"2026-01-07T12:42:44Z"}
