{"icao":"LPPR","metar":"LPPR 041730Z 33013KT 300V360 9999 FEW020 19/09 Q1019","updated":"2026-06-04T17:45:55Z"}
