{"icao":"KLAX","metar":"KLAX 261816Z 13006KT 7SM -RA BCFG SCT004 OVC023 16/14 A3008 RMK AO2 RAB00 VIS E 1 3/4 P0001 T01560139 $","updated":"2025-12-26T18:28:36Z"}
