{"icao":"LPPD","metar":"LPPD 011400Z 35016G27KT 320V020 9999 VCSH SCT017 FEW020TCU 15/10 Q1003","updated":"2026-01-01T14:18:50Z"}
