{"icao":"LPST","metar":"LPST 241600Z 27011KT 240V310 9999 FEW025 24/14 Q1014","updated":"2026-06-24T18:50:00Z"}
