{"icao":"LPFR","metar":"LPFR 280500Z 03007KT CAVOK 10/04 Q1021","updated":"2025-11-28T05:19:15Z"}
