{"icao":"KLAX","metar":"KLAX 152053Z 26008KT 10SM SCT031 BKN048 OVC170 17/09 A2997 RMK AO2 SLP149 T01670094 58025 $","updated":"2026-02-15T21:23:38Z"}
