{"icao":"LPBJ","metar":"LPBJ 041900Z 14003KT 060V230 CAVOK 23/06 Q1020","updated":"2026-04-04T19:30:08Z"}
