{"icao":"KORD","metar":"KORD 021451Z 26006KT 5SM BR OVC006 M04/M06 A3008 RMK AO2 SLP194 60000 I3000 T10441061 51008","updated":"2026-02-02T15:37:11Z"}
