{"icao":"LPPT","metar":"LPPT 170800Z VRB02KT CAVOK 20/08 Q1021","updated":"2025-09-17T08:22:37Z"}
