{"icao":"LPBJ","metar":"LPBJ 131100Z 29016KT 8000 -SHRA FEW020CB BKN028 13/09 Q1007","updated":"2026-02-13T11:30:06Z"}
