{"icao":"LPST","metar":"LPST 271600Z 35013G23KT 320V020 9999 BKN013 SCT030 14/11 Q1024","updated":"2026-02-27T16:39:04Z"}
