{"icao":"LPFL","metar":"LPFL 292000Z 31009KT 250V030 9999 -RA FEW018 16/13 Q1008","updated":"2025-10-29T20:20:48Z"}
