{"icao":"KORD","metar":"KORD 151851Z 27010G20KT 10SM FEW160 SCT250 19/11 A2949 RMK AO2 SLP985 T01940106 $","updated":"2025-11-15T19:12:27Z"}
