{"icao":"LPOV","metar":"LPOV 311400Z 35018KT CAVOK 20/11 Q1026","updated":"2026-03-31T15:00:06Z"}
