{"icao":"LPLA","metar":"LPLA 070700Z 19019G29KT 9999 FEW015 SCT020 15/12 Q1021","updated":"2026-03-07T07:27:28Z"}
