{"icao":"LPAZ","metar":"LPAZ 290130Z 24024KT 7000 FEW007 BKN013 18/16 Q1011","updated":"2026-01-29T01:56:13Z"}
