{"icao":"LPPR","metar":"LPPR 172200Z 18007KT 150V210 9999 SCT018 BKN022 16/11 Q1008","updated":"2026-03-17T22:31:42Z"}
