{"icao":"LPST","metar":"LPST 131600Z 31010KT 9999 FEW007 BKN011 13/11 Q1022","updated":"2026-03-13T16:38:31Z"}
