{"icao":"LPPD","metar":"LPPD 180430Z 21003KT 9999 FEW015 14/12 Q1027","updated":"2026-01-18T04:40:17Z"}
