{"icao":"LPPR","metar":"LPPR 302300Z 09005KT 060V120 7000 NSC 08/07 Q1021","updated":"2025-12-30T23:18:05Z"}
