{"icao":"KJFK","metar":"KJFK 171658Z 28007KT 8SM -SN FEW022 BKN041 OVC055 03/M04 A3005 RMK AO2 SNB58 P0000 T00331044 $","updated":"2026-01-17T17:16:20Z"}
