{"icao":"LPBJ","metar":"LPBJ 282000Z 31005KT CAVOK 10/07 Q1022","updated":"2025-11-28T20:21:01Z"}
