{"icao":"LPPT","metar":"LPPT 142200Z 22015KT 9999 VCTS FEW012 FEW020CB SCT028 17/13 Q1006","updated":"2025-11-14T22:17:21Z"}
