{"icao":"LPST","metar":"LPST 130800Z 00000KT CAVOK 15/12 Q1016","updated":"2025-10-13T08:25:52Z"}
