{"icao":"LPPD","metar":"LPPD 081400Z 21029G43KT 8000 FEW008 BKN015 20/18 Q0993","updated":"2025-12-08T14:20:53Z"}
