{"icao":"LPOV","metar":"LPOV 031300Z 32010KT 290V360 9999 SCT016 BKN035 17/15 Q1014","updated":"2026-05-03T13:07:17Z"}
