{"icao":"LPHR","metar":"LPHR 281000Z 11006KT 080V150 9999 FEW016 BKN040 20/13 Q1029","updated":"2026-06-28T10:25:50Z"}
