{"icao":"KLAX","metar":"KLAX 190553Z 16004KT 10SM FEW250 19/16 A3000 RMK AO2 SLP157 T01890161 10228 20189 53009 $","updated":"2025-10-19T06:25:27Z"}
