{"icao":"LPFR","metar":"LPFR 021500Z 19006KT 9999 FEW020 22/18 Q1023","updated":"2025-11-02T15:15:43Z"}
