{"icao":"LPPD","metar":"LPPD 160600Z 12009KT 6000 RA SCT014 FEW018CB SCT025 20/19 Q1004","updated":"2025-10-16T06:27:13Z"}
