{"icao":"KJFK","metar":"KJFK 291051Z 28010KT 10SM CLR 01/M07 A3036 RMK AO2 SLP280 T00061072 $","updated":"2025-11-29T11:14:44Z"}
