{"icao":"LPAZ","metar":"LPAZ 210800Z 23015KT 8000 BKN005 BKN023 23/22 Q1017","updated":"2025-10-21T08:25:38Z"}
