{"icao":"LPCS","metar":"LPCS 131900Z 34009KT 9999 FEW008 20/17 Q1022","updated":"2025-09-13T19:11:36Z"}
