{"icao":"KORD","metar":"KORD 162251Z 30019G31KT 9SM -SN FEW028 BKN037 BKN045 M03/M10 A2977 RMK AO2 PK WND 30031/2250 SLP089 P0000 T10281100 $","updated":"2026-03-16T23:30:59Z"}
