{"icao":"LPCS","metar":"LPCS 171600Z 23005KT 180V260 CAVOK 26/13 Q1014","updated":"2025-10-17T16:21:31Z"}
