{"icao":"LPMT","metar":"LPMT 131800Z 18012KT 150V220 8000 -RA SCT015 SCT020 OVC030 17/14 Q0996","updated":"2025-11-13T19:14:56Z"}
