{"icao":"LPPR","metar":"LPPR 021430Z 32013KT 280V360 9999 FEW020 20/11 Q1022","updated":"2026-06-02T14:51:03Z"}
