{"icao":"KORD","metar":"KORD 180251Z 17009KT 10SM FEW250 01/M01 A2984 RMK AO2 SLP111 T00111011 58025","updated":"2025-12-18T03:19:55Z"}
