{"icao":"LPFR","metar":"LPFR 301230Z 25013KT 8000 FEW005 BKN015 16/15 Q1016","updated":"2026-01-30T12:53:00Z"}
