{"icao":"KORD","metar":"KORD 161951Z 24018G27KT 10SM FEW200 BKN250 17/06 A2987 RMK AO2 PK WND 22034/1927 SLP116 T01720056","updated":"2026-02-16T20:29:33Z"}
