{"icao":"LPFL","metar":"LPFL 021900Z 19011KT 160V230 9999 FEW012 SCT017 24/20 Q1016","updated":"2025-10-02T19:13:47Z"}
