{"icao":"LPPR","metar":"LPPR 081500Z 24010KT 210V280 8000 -DZRA SCT004 BKN010 13/12 Q1027 REDZ","updated":"2026-01-08T15:24:33Z"}
