{"icao":"LPMT","metar":"LPMT 091500Z 25007KT 2500 -RADZ BR SCT003 BKN005 15/15 Q1013","updated":"2026-02-09T15:54:39Z"}
