{"icao":"KJFK","metar":"KJFK 081051Z 32015KT 10SM SCT029 06/01 A3011 RMK AO2 SLP197 T00560006 $","updated":"2026-01-08T11:20:01Z"}
