{"icao":"LPMA","metar":"LPMA 201800Z 07003KT 020V120 9999 BKN015 24/20 Q1017","updated":"2025-10-20T18:27:20Z"}
