{"icao":"LPMA","metar":"LPMA 020430Z 35016KT 310V010 9999 SCT015 16/05 Q1013","updated":"2026-02-02T04:56:28Z"}
