{"icao":"LPFR","metar":"LPFR 232300Z 34003KT 290V030 CAVOK 20/03 Q1016","updated":"2025-09-23T23:14:45Z"}
