{"icao":"LPLA","metar":"LPLA 301300Z 31009KT 9999 SCT020 BKN030 17/16 Q1028","updated":"2025-11-30T13:24:58Z"}
