{"icao":"LPPR","metar":"LPPR 291330Z 21007KT 180V250 9999 FEW012 SCT015 18/15 Q1007","updated":"2026-04-29T13:53:04Z"}
