{"icao":"KLAX","metar":"KLAX 070453Z 24004KT 10SM FEW011 17/14 A3002 RMK AO2 SLP162 T01670139 $","updated":"2026-04-07T05:08:21Z"}
