{"icao":"LPMR","metar":"LPMR 260400Z 00000KT 6000 NSC 09/09 Q1016","updated":"2026-03-26T05:04:31Z"}
