{"icao":"LPCS","metar":"LPCS 141400Z 27011KT 240V300 3000 -DZ BR FEW002 BKN006 13/12 Q1018","updated":"2026-03-14T14:26:56Z"}
