{"icao":"LPPT","metar":"LPPT 212100Z 35013KT 320V020 9999 FEW020 15/09 Q1021","updated":"2025-09-21T21:14:25Z"}
