{"icao":"LPMT","metar":"LPMT 200300Z 01005KT CAVOK 09/07 Q1018","updated":"2025-11-20T03:08:27Z"}
