{"icao":"LPBJ","metar":"LPBJ 061500Z 33006KT 300V360 9999 FEW030 SCT045 18/08 Q1018","updated":"2025-11-06T15:20:19Z"}
