{"icao":"LPMT","metar":"LPMT 042000Z 33007KT 9999 FEW035 15/11 Q1014","updated":"2026-03-04T20:30:11Z"}
