{"icao":"LPPD","metar":"LPPD 141900Z 32006KT 9999 FEW020 16/09 Q1008","updated":"2025-11-14T19:14:34Z"}
