{"icao":"LPMR","metar":"LPMR 052200Z 18001KT CAVOK 14/12 Q1019","updated":"2025-10-05T22:15:05Z"}
