{"icao":"LPCS","metar":"LPCS 091900Z 00000KT 5000 BR SCT002 SCT025 15/15 Q1018","updated":"2025-12-10T05:20:13Z"}
