{"icao":"LPCS","metar":"LPCS 011700Z 11010KT 9999 FEW004 SCT010 BKN025 14/14 Q1007","updated":"2026-01-01T17:18:11Z"}
