{"icao":"LPFR","metar":"LPFR 011100Z 22011KT 9999 FEW020 23/17 Q1020","updated":"2025-11-01T11:13:09Z"}
