{"icao":"KLAX","metar":"KLAX 040453Z 00000KT 10SM CLR 16/14 A3017 RMK AO2 SLP215 T01560139 $","updated":"2026-02-04T05:48:01Z"}
