{"icao":"LPBJ","metar":"LPBJ 312100Z 01006KT CAVOK 18/07 Q1022","updated":"2026-03-31T21:37:30Z"}
