{"icao":"KLAX","metar":"KLAX 010153Z 26007KT 10SM CLR 19/10 A3003 RMK AO2 SLP169 T01890100 $","updated":"2026-02-01T02:12:56Z"}
