{"icao":"LPPR","metar":"LPPR 101400Z 10006KT 070V140 CAVOK 26/09 Q1021","updated":"2025-10-10T14:17:16Z"}
