{"icao":"KJFK","metar":"KJFK 310051Z 31020G25KT 10SM FEW250 M09/M20 A3019 RMK AO2 SLP221 T10941200 $","updated":"2026-01-31T01:53:03Z"}
