{"icao":"LPPT","metar":"LPPT 281700Z 21008KT 8000 RA FEW006 FEW025CB 16/15 Q1010","updated":"2025-10-28T17:17:28Z"}
