{"icao":"LPMA","metar":"LPMA 281700Z 23015KT 200V260 9999 -SHRA SCT015 FEW016TCU 22/19 Q1009","updated":"2025-10-28T17:17:45Z"}
