{"icao":"LPBJ","metar":"LPBJ 010900Z 06003KT CAVOK 08/04 Q1021","updated":"2025-12-01T09:26:51Z"}
