{"icao":"LPMA","metar":"LPMA 041330Z 15006KT 130V190 9999 SCT008 SCT030 21/18 Q1017","updated":"2026-05-04T13:57:14Z"}
