{"icao":"LPCS","metar":"LPCS 021100Z VRB04KT CAVOK 27/14 Q1021","updated":"2025-10-02T11:13:36Z"}
