{"icao":"LPFR","metar":"LPFR 282100Z 33005KT CAVOK 13/06 Q1022","updated":"2026-02-28T21:19:17Z"}
