{"icao":"LPOV","metar":"LPOV 310700Z 24001KT CAVOK 08/07 Q1028","updated":"2026-03-31T07:11:45Z"}
