{"icao":"KLAX","metar":"KLAX 171353Z 36004KT 10SM CLR 14/10 A2992 RMK AO2 SLP129 T01440100 $","updated":"2025-10-17T14:17:39Z"}
