{"icao":"KLAX","metar":"KLAX 111853Z 25007KT 10SM CLR 19/11 A3026 RMK AO2 SLP246 T01890111 $","updated":"2026-03-11T19:40:27Z"}
