{"icao":"LPCS","metar":"LPCS 081330Z 22007KT 5000 -DZ BR SCT003 BKN014 13/13 Q1031","updated":"2026-01-08T13:39:19Z"}
