{"icao":"LPBJ","metar":"LPBJ 100400Z 24011KT 5000 -DZ BR OVC003 14/14 Q1016","updated":"2026-02-10T05:02:28Z"}
