{"icao":"LPBJ","metar":"LPBJ 180700Z VRB01KT CAVOK 08/07 Q1018","updated":"2025-11-18T07:18:16Z"}
