{"icao":"LPPT","metar":"LPPT 112100Z 27010KT 9999 FEW008 BKN014 15/14 Q1018","updated":"2026-02-11T21:32:36Z"}
