{"icao":"LPBJ","metar":"LPBJ 140400Z 28003KT CAVOK 16/11 Q1016","updated":"2025-10-14T04:21:10Z"}
