{"icao":"LPFR","metar":"LPFR 130600Z 03006KT 010V070 CAVOK 19/12 Q1014","updated":"2025-10-13T06:28:26Z"}
