{"icao":"LPFR","metar":"LPFR 221630Z 23013KT 8000 -RA FEW015 SCT025 BKN038 15/12 Q1009","updated":"2026-01-22T16:34:36Z"}
