{"icao":"KLAX","metar":"KLAX 051253Z 12005KT 9SM FEW006 11/09 A2989 RMK AO2 SLP120 T01110089","updated":"2026-03-05T12:58:20Z"}
