{"icao":"LPFR","metar":"LPFR 300800Z 35008KT 9999 FEW012 BKN035 13/12 Q1016","updated":"2025-11-30T08:22:05Z"}
