{"icao":"LPLA","metar":"LPLA 131800Z 30021G31KT 9000 -SHRA SCT020 SCT035 14/10 Q1005","updated":"2025-11-13T18:26:56Z"}
