{"icao":"LPAR","metar":"LPAR 291100Z 06007KT CAVOK 10/09 Q1021","updated":"2025-12-29T11:17:44Z"}
