{"icao":"LPMA","metar":"LPMA 232330Z VRB01KT 9999 FEW015 20/16 Q1017","updated":"2026-06-23T23:58:48Z"}
