{"icao":"LPBJ","metar":"LPBJ 240500Z 14005KT CAVOK 10/09 Q1020","updated":"2026-02-24T05:57:45Z"}
