{"icao":"LPPS","metar":"LPPS 061700Z 05012KT 010V090 9999 SCT015 15/09 Q1028","updated":"2026-01-06T17:22:17Z"}
