{"icao":"KLAX","metar":"KLAX 011011Z VRB03KT 10SM FEW008 FEW016 19/17 A3000 RMK AO2 T01890172 $","updated":"2025-10-01T10:18:50Z"}
