{"icao":"KJFK","metar":"KJFK 080651Z 18008KT 1/4SM R04R/2200FT FG BKN002 OVC008 06/06 A2981 RMK AO2 SLP095 T00610056","updated":"2026-03-08T07:29:57Z"}
