{"icao":"LPMR","metar":"LPMR 232000Z 36009KT 9999 FEW020 10/06 Q1010","updated":"2025-12-23T20:20:48Z"}
