{"icao":"LPFL","metar":"LPFL 251130Z 11005KT 070V150 9999 FEW019 BKN030 18/13 Q1017","updated":"2026-04-25T11:36:55Z"}
