{"icao":"LPMT","metar":"LPMT 142100Z 02006KT CAVOK 12/11 Q1016","updated":"2025-12-14T21:16:49Z"}
