{"icao":"KJFK","metar":"KJFK 151851Z 21008KT 10SM FEW150 BKN220 BKN250 09/M01 A2973 RMK AO2 SLP067 T00891011","updated":"2025-11-15T19:12:27Z"}
