{"icao":"KORD","metar":"KORD 100951Z 22006KT 8SM SCT008 SCT250 15/14 A2976 RMK AO2 SLP073 T01500139 $","updated":"2026-03-10T10:38:12Z"}
