{"icao":"LPMA","metar":"LPMA 142030Z 02010KT 350V050 9999 BKN018 16/11 Q1024","updated":"2026-04-14T20:52:47Z"}
