{"icao":"KLAX","metar":"KLAX 200653Z 10004KT 9SM FEW003 13/11 A3006 RMK AO2 SLP177 T01330111 $","updated":"2026-01-20T07:26:56Z"}
