{"icao":"KLAX","metar":"KLAX 222153Z 28011KT 10SM FEW009 FEW250 20/14 A2989 RMK AO2 SLP120 T02000144","updated":"2026-03-22T22:24:08Z"}
