{"icao":"KORD","metar":"KORD 042251Z 21012G27KT 10SM TS BKN090CB BKN130 BKN250 23/08 A2945 RMK AO2 PK WND 23030/2235 TSB50 SLP971 OCNL LTGICCG NW TS NW MOV E T02330083","updated":"2026-05-04T23:01:55Z"}
