{"icao":"LPPS","metar":"LPPS 091130Z 26013KT 9999 FEW015 FEW018TCU 18/13 Q1013","updated":"2026-05-09T11:50:46Z"}
