{"icao":"LPFR","metar":"LPFR 041100Z 03017KT 010V080 9999 VCSH FEW015 SCT045 16/11 Q0998","updated":"2026-01-04T11:15:51Z"}
