{"icao":"LPFR","metar":"LPFR 052200Z 29003KT CAVOK 20/17 Q1018","updated":"2025-10-05T22:15:03Z"}
