{"icao":"KJFK","metar":"KJFK 082251Z 01015G24KT 10SM BKN190 OVC250 M03/M22 A3031 RMK AO2 PK WND 36027/2233 SLP262 T10331222 $","updated":"2025-12-08T23:18:42Z"}
