{"icao":"KLAX","metar":"KLAX 040253Z 26007KT 10SM FEW010 BKN200 16/14 A3003 RMK AO2 SLP169 T01610139 53003 $","updated":"2025-11-04T03:09:17Z"}
