{"icao":"KJFK","metar":"KJFK 060951Z 00000KT 10SM FEW065 BKN250 01/M01 A2999 RMK AO2 SLP155 T00111006 $","updated":"2026-01-06T10:22:34Z"}
