{"icao":"LPHR","metar":"LPHR 132100Z 32005KT 290V350 9999 FEW017 15/11 Q1032","updated":"2026-03-13T21:31:57Z"}
