{"icao":"LPMA","metar":"LPMA 120600Z 21008KT 180V240 9999 BKN014 17/11 Q1025","updated":"2026-02-12T06:04:57Z"}
