{"icao":"KORD","metar":"KORD 201751Z 28007KT 10SM BKN250 21/07 A2976 RMK AO2 SLP076 T02060072 10206 20106 58002","updated":"2026-03-20T18:48:50Z"}
