{"icao":"KORD","metar":"KORD 201251Z 20014G23KT 10SM BKN150 OVC250 01/M06 A2968 RMK AO2 SLP059 T00111061","updated":"2025-12-20T13:26:28Z"}
