{"icao":"LPPS","metar":"LPPS 061600Z 03014KT 360V060 9999 SCT015 16/08 Q1027","updated":"2026-01-06T16:27:41Z"}
