{"icao":"LPPT","metar":"LPPT 101430Z 20024KT 9999 BKN022 17/11 Q1010 WS R20","updated":"2026-05-10T14:51:13Z"}
