{"icao":"KLAX","metar":"KLAX 120353Z 25009KT 10SM OVC007 17/15 A3005 RMK AO2 SLP176 T01670150 $","updated":"2025-11-12T04:22:28Z"}
