{"icao":"KLAX","metar":"KLAX 191933Z 19011G16KT 1 1/4SM R25L/2800VP6000FT RA BR SCT007 BKN014 OVC019 12/11 A2993 RMK AO2 VIS 1/2V2 P0006 T01170106","updated":"2026-02-19T19:37:39Z"}
