{"icao":"KORD","metar":"KORD 200536Z 06007KT 9SM FEW005 BKN012 OVC040 04/03 A2934 RMK AO2 T00440033 $","updated":"2026-02-20T05:52:31Z"}
