{"icao":"LPBJ","metar":"LPBJ 151500Z 29008KT 9999 BKN015 16/14 Q1007","updated":"2025-11-15T15:16:52Z"}
