{"icao":"LPPT","metar":"LPPT 221500Z 31004KT 280V350 9999 FEW030 13/08 Q1013","updated":"2025-12-22T15:20:37Z"}
