{"icao":"LPPT","metar":"LPPT 071500Z 34012KT 9999 SCT034 16/09 Q1017","updated":"2026-03-07T15:21:59Z"}
