{"icao":"LPHR","metar":"LPHR 182300Z 06008KT 020V090 9999 -SHRA FEW003 SCT010 BKN025 17/15 Q1026","updated":"2025-11-18T23:17:07Z"}
