{"icao":"LPBJ","metar":"LPBJ 071400Z VRB01KT 9999 BKN045 17/10 Q1023","updated":"2025-12-07T14:16:15Z"}
