{"icao":"LPPT","metar":"LPPT 191830Z 08009KT 7000 -RA FEW004 BKN008 13/13 Q1006","updated":"2026-03-19T18:56:56Z"}
