{"icao":"KORD","metar":"KORD 171751Z 09008KT 10SM FEW046 FEW300 28/16 A3009 RMK AO2 SLP184 T02780156 10278 20161 58006 $","updated":"2025-09-17T18:24:42Z"}
