{"icao":"LPFL","metar":"LPFL 181730Z 12003KT 070V170 9999 FEW016 16/12 Q1015","updated":"2026-04-18T17:35:15Z"}
