{"icao":"KLAX","metar":"KLAX 190753Z VRB03KT 10SM SCT220 18/14 A2994 RMK AO2 SLP134 T01780144 402440144 $","updated":"2026-04-19T08:53:11Z"}
