{"icao":"LPBJ","metar":"LPBJ 061100Z 16011KT 120V190 CAVOK 26/16 Q1021","updated":"2025-10-06T11:14:45Z"}
