{"icao":"LPFL","metar":"LPFL 061300Z VRB05KT 9999 VCSH FEW008 18/12 Q1006","updated":"2025-12-06T13:25:32Z"}
