{"icao":"LPHR","metar":"LPHR 262100Z 28012KT 9999 FEW016 20/17 Q1024","updated":"2026-06-27T02:56:33Z"}
