{"icao":"KLAX","metar":"KLAX 011853Z 24007KT 10SM FEW014 BKN019 OVC038 20/14 A2996 RMK AO2 SLP143 BKN V SCT T02000144 $","updated":"2026-07-01T19:51:56Z"}
