{"icao":"LPFR","metar":"LPFR 031900Z 29005KT CAVOK 17/13 Q1021","updated":"2025-11-03T19:14:38Z"}
