{"icao":"LPPR","metar":"LPPR 051030Z 22015G25KT 190V260 9999 FEW018CB BKN024 14/11 Q0987","updated":"2026-02-05T10:38:46Z"}
