{"icao":"LPMT","metar":"LPMT 192000Z 23003KT CAVOK 17/12 Q1014","updated":"2026-04-19T20:36:11Z"}
