{"icao":"LPPS","metar":"LPPS 121230Z 21007KT 160V260 9999 FEW014 19/14 Q1020","updated":"2026-01-12T12:44:56Z"}
