{"icao":"LPMR","metar":"LPMR 012200Z 24002KT CAVOK 19/16 Q1018","updated":"2026-07-01T23:13:22Z"}
