{"icao":"LPPR","metar":"LPPR 060500Z 21009KT 2200 -DZ BR FEW001 BKN002 16/15 Q1019","updated":"2025-12-06T05:17:57Z"}
