{"icao":"LPPS","metar":"LPPS 231600Z 11010KT 080V140 9999 SCT015 SCT030 20/13 Q1025","updated":"2025-11-23T16:21:23Z"}
