{"icao":"LPPT","metar":"LPPT 211400Z 24010KT 220V280 9999 SCT006 SCT010 21/20 Q1014","updated":"2025-10-21T14:16:59Z"}
