{"icao":"KJFK","metar":"KJFK 140751Z 00000KT 1SM R04R/4500VP6000FT -SN BR BKN005 BKN011 OVC023 00/00 A2997 RMK AO2 SLP148 P0003 T00000000","updated":"2025-12-14T08:24:26Z"}
