{"icao":"KJFK","metar":"KJFK 220512Z 26016KT 8SM -RA FEW028 BKN065 OVC085 16/13 A2981 RMK AO2 WSHFT 0457 CIG 041 W P0000 T01610128","updated":"2025-10-22T05:18:00Z"}
