{"icao":"LPMA","metar":"LPMA 172330Z 02012KT 350V060 9999 BKN015 17/12 Q1018","updated":"2026-04-17T23:39:45Z"}
