{"icao":"KORD","metar":"KORD 130751Z 18005KT 10SM SCT100 BKN150 OVC250 22/12 A3005 RMK AO2 SLP170 T02170117 $"}
