{"icao":"LPMT","metar":"LPMT 251700Z 27007KT CAVOK 25/09 Q1016","updated":"2025-09-25T17:15:09Z"}
