{"icao":"LPMR","metar":"LPMR 172100Z 36006KT CAVOK 13/10 Q1019","updated":"2026-04-17T22:01:20Z"}
