{"icao":"LPHR","metar":"LPHR 211400Z 06010KT 030V090 9999 FEW015 BKN025 15/09 Q1018","updated":"2026-03-21T14:25:35Z"}
