{"icao":"KJFK","metar":"KJFK 112251Z 31021G27KT 10SM BKN060 03/M07 A2980 RMK AO2 PK WND 31029/2203 SLP090 T00331072 $","updated":"2026-02-11T23:31:16Z"}
