{"icao":"LPLA","metar":"LPLA 272000Z 18003KT 140V200 9999 FEW022 14/09 Q1034","updated":"2026-02-27T20:26:38Z"}
