{"icao":"LPPS","metar":"LPPS 141600Z 04010KT 010V080 9999 FEW015 BKN030 25/19 Q1023","updated":"2025-09-14T16:18:00Z"}
