{"icao":"LPFR","metar":"LPFR 010530Z VRB02KT CAVOK 22/15 Q1015","updated":"2026-06-01T06:00:59Z"}
