{"icao":"LPPS","metar":"LPPS 231500Z 03006KT 360V080 9999 FEW015 BKN030 24/19 Q1021","updated":"2025-10-23T15:19:23Z"}
