{"icao":"LPFR","metar":"LPFR 031330Z 30011KT 270V330 9999 FEW020 16/05 Q1024","updated":"2025-12-03T13:34:53Z"}
