{"icao":"LPFL","metar":"LPFL 041900Z 03005KT 350V080 9999 SCT014 BKN028 13/09 Q1022","updated":"2026-04-04T19:30:10Z"}
