{"icao":"LPPD","metar":"LPPD 201700Z 04014KT 350V100 9999 FEW025 SCT045 22/12 Q1028","updated":"2025-09-20T17:12:35Z"}
