{"icao":"KJFK","metar":"KJFK 072151Z 31016G26KT 10SM FEW075 SCT250 09/M12 A3028 RMK AO2 PK WND 34032/2134 SLP255 T00891117","updated":"2026-04-07T22:36:45Z"}
