{"icao":"LPMR","metar":"LPMR 241200Z 23008KT 200V270 3500 -DZ BKN007 OVC016 20/19 Q1017","updated":"2025-10-24T12:38:44Z"}
