{"icao":"LPLA","metar":"LPLA 051600Z 02007KT 320V070 9999 FEW022 BKN040 16/10 Q1028","updated":"2026-05-05T16:23:25Z"}
