{"icao":"LPBJ","metar":"LPBJ 072300Z 13006KT CAVOK 07/07 Q1016","updated":"2026-04-07T23:35:26Z"}
