{"icao":"LPMT","metar":"LPMT 301100Z 36014KT 320V030 CAVOK 15/06 Q1018","updated":"2025-11-30T11:14:12Z"}
