{"icao":"LPPR","metar":"LPPR 181400Z 30005KT 260V340 9999 FEW025 11/06 Q1014","updated":"2026-01-18T14:17:21Z"}
