{"icao":"KJFK","metar":"KJFK 180751Z 23009KT 10SM CLR 18/16 A3013 RMK AO2 SLP201 T01830161 $","updated":"2026-05-18T08:01:38Z"}
