{"icao":"KORD","metar":"KORD 280251Z 29007KT 10SM CLR M13/M21 A3028 RMK AO2 SLP270 T11331211 51009","updated":"2026-01-28T03:44:09Z"}
