{"icao":"LPST","metar":"LPST 261300Z 05007KT 020V080 CAVOK 21/05 Q1016","updated":"2026-03-26T13:12:52Z"}
