{"icao":"KORD","metar":"KORD 100451Z 22010KT 10SM BKN160 OVC250 02/M03 A2988 RMK AO2 SLP126 T00221033","updated":"2026-02-10T05:02:43Z"}
