{"icao":"KORD","metar":"KORD 121951Z 26011KT 10SM BKN024 BKN160 BKN250 M01/M07 A3007 RMK AO2 SLP191 T10061072","updated":"2025-12-12T20:21:37Z"}
