{"icao":"LPMA","metar":"LPMA 121800Z 35009KT 9999 SCT015 22/15 Q1017","updated":"2025-10-12T18:22:04Z"}
