{"icao":"LPBJ","metar":"LPBJ 152000Z 28016KT 8000 -SHRA SCT007 BKN014 BKN020CB 12/11 Q1006 RESHRA","updated":"2025-12-15T20:22:33Z"}
