{"icao":"LPOV","metar":"LPOV 241800Z VRB01KT CAVOK 11/08 Q1010","updated":"2025-12-25T03:25:19Z"}
