{"icao":"LPPS","metar":"LPPS 082300Z 05005KT 020V080 9999 FEW015 19/15 Q1023","updated":"2025-11-08T23:15:51Z"}
