{"icao":"LPCS","metar":"LPCS 181600Z 24008KT 200V260 CAVOK 24/13 Q1016","updated":"2025-10-18T16:19:27Z"}
