{"icao":"KLAX","metar":"KLAX 022053Z 25006KT 4SM HZ FEW007 FEW012 BKN230 BKN270 19/14 A3003 RMK AO2 SLP168 T01890139 58020 $","updated":"2025-11-02T21:14:44Z"}
