{"icao":"LPMT","metar":"LPMT 041900Z 24016G27KT 6000 -RADZ SCT008 BKN014 16/15 Q0998","updated":"2026-02-04T19:37:19Z"}
