{"icao":"LPFL","metar":"LPFL 191000Z 16009KT 9999 VCFG FEW000 SCT008 23/22 Q1014","updated":"2025-10-19T10:16:41Z"}
