{"icao":"LPBJ","metar":"LPBJ 042100Z 31007KT CAVOK 21/15 Q1021","updated":"2025-10-04T21:13:43Z"}
