{"icao":"KLAX","metar":"KLAX 200853Z 33006KT 10SM CLR 09/01 A2994 RMK AO2 SLP137 T00890011 51017","updated":"2026-02-20T09:39:20Z"}
