{"icao":"LPFR","metar":"LPFR 290400Z 22005KT 9999 FEW008 SCT018 20/18 Q1007","updated":"2025-10-29T04:25:04Z"}
