{"icao":"LPMA","metar":"LPMA 041730Z 34007KT 300V020 9999 BKN014 FEW016CB 16/10 Q1021","updated":"2026-03-04T17:37:25Z"}
