{"icao":"LPMA","metar":"LPMA 271700Z 36013KT 300V030 9999 SCT015 19/12 Q1016","updated":"2026-04-27T17:20:31Z"}
