{"icao":"LPFL","metar":"LPFL 211900Z 27015G26KT 200V340 9999 VCSH FEW008 BKN010 18/15 Q1017 WS ALL RWY","updated":"2026-01-21T19:25:27Z"}
