{"icao":"LPHR","metar":"LPHR 060830Z 24019KT 6000 -RA FEW010 BKN014 BKN030 13/11 Q1011","updated":"2026-02-06T08:39:56Z"}
