{"icao":"KORD","metar":"KORD 170551Z 19004KT 10SM FEW190 OVC250 21/16 A2989 RMK AO2 SLP116 T02110156 10267 20211 402890172 50002","updated":"2026-05-17T06:24:19Z"}
