{"icao":"KORD","metar":"KORD 252051Z 05011KT 10SM FEW016 BKN036 OVC250 04/01 A3011 RMK AO2 SLP201 T00440006 56010 $","updated":"2025-12-25T21:17:49Z"}
