{"icao":"LPMR","metar":"LPMR 280100Z 19003KT CAVOK 17/16 Q1018","updated":"2026-05-28T03:28:27Z"}
