{"icao":"LPOV","metar":"LPOV 162100Z VRB02KT 8000 NSC 13/12 Q1015","updated":"2025-10-16T21:15:30Z"}
