{"icao":"LPPT","metar":"LPPT 191930Z 32007KT CAVOK 11/05 Q1029","updated":"2026-02-19T19:37:33Z"}
