{"icao":"LPAZ","metar":"LPAZ 021330Z 35008KT 320V020 9999 BKN038 17/08 Q1031","updated":"2025-12-02T13:35:43Z"}
