{"icao":"LPOV","metar":"LPOV 310100Z 16012KT 9999 -RA BKN020 18/14 Q1010","updated":"2025-10-31T01:22:31Z"}
