{"icao":"KJFK","metar":"KJFK 070651Z 00000KT 10SM FEW250 04/M03 A3016 RMK AO2 SLP212 T00441028 $","updated":"2025-11-07T07:17:58Z"}
