{"icao":"LPFR","metar":"LPFR 210800Z 27006KT 250V310 9999 FEW007 BKN010 20/19 Q1016","updated":"2025-10-21T08:25:33Z"}
