{"icao":"LPMT","metar":"LPMT 152300Z VRB01KT CAVOK 18/12 Q1016","updated":"2025-10-15T23:15:33Z"}
