{"icao":"LPHR","metar":"LPHR 141830Z 11004KT 060V150 9999 FEW016 BKN030 17/11 Q1031","updated":"2026-05-14T18:59:16Z"}
