{"icao":"LPLA","metar":"LPLA 181200Z 07004KT 010V110 9999 FEW025 15/09 Q1027","updated":"2026-02-18T13:01:42Z"}
