{"icao":"LPMR","metar":"LPMR 051000Z 02007KT 350V050 9999 SCT012 18/15 Q1022","updated":"2025-10-05T10:16:10Z"}
