{"icao":"LPCS","metar":"LPCS 241500Z 23006KT 2500 -DZ BR BKN004 21/21 Q1017","updated":"2025-10-24T15:19:05Z"}
