{"icao":"KJFK","metar":"KJFK 220251Z 33018G26KT 10SM FEW250 M01/M12 A3036 RMK AO2 PK WND 34026/0251 SLP281 T10061122 51030 $","updated":"2025-12-22T03:41:45Z"}
