{"icao":"LPPD","metar":"LPPD 202200Z 24013KT 7000 SCT006 BKN012 23/22 Q1016","updated":"2025-10-20T22:16:18Z"}
