{"icao":"LPFL","metar":"LPFL 011800Z 34019G29KT 310V010 9999 FEW023 15/08 Q1013","updated":"2026-01-02T08:28:18Z"}
