{"icao":"LPMA","metar":"LPMA 281400Z 03010KT 350V050 9999 BKN016 SCT030 20/13 Q1022","updated":"2025-11-28T14:19:14Z"}
