{"icao":"LPPR","metar":"LPPR 180700Z 10007KT CAVOK 09/08 Q1019","updated":"2025-11-18T07:18:13Z"}
