{"icao":"LPPR","metar":"LPPR 020700Z 11015KT 9999 -RA BKN036 OVC046 13/09 Q1002","updated":"2026-01-02T07:23:03Z"}
