{"icao":"LPMR","metar":"LPMR 240500Z 24007KT 210V270 6000 OVC005 20/19 Q1016","updated":"2025-10-24T05:17:10Z"}
