{"icao":"LPLA","metar":"LPLA 260800Z VRB04KT 9999 BKN005 BKN011 14/13 Q1025","updated":"2025-12-26T08:26:36Z"}
