{"icao":"LPLA","metar":"LPLA 151300Z 23014G24KT 200V260 9999 FEW017 23/16 Q1020","updated":"2026-06-15T13:11:11Z"}
