{"icao":"LPPD","metar":"LPPD 200800Z 25011KT 6000 FEW004 SCT012 BKN030 22/22 Q1016","updated":"2025-10-20T08:24:49Z"}
