{"icao":"LPMT","metar":"LPMT 021000Z 02011KT 350V050 CAVOK 31/13 Q1017","updated":"2026-07-02T10:37:06Z"}
