{"icao":"KORD","metar":"KORD 061251Z 00000KT 8SM OVC095 03/01 A2954 RMK AO2 SLP008 T00280011","updated":"2026-01-06T13:36:50Z"}
