{"icao":"LPFL","metar":"LPFL 200800Z VRB01KT 9999 FEW020 16/12 Q1030","updated":"2025-11-20T08:26:16Z"}
