{"icao":"KLAX","metar":"KLAX 131253Z 25005KT 10SM FEW014 SCT020 BKN030 16/12 A3007 RMK AO2 SLP180 T01560122","updated":"2026-05-13T13:10:00Z"}
