{"icao":"LPCS","metar":"LPCS 061900Z 28003KT 230V310 CAVOK 21/16 Q1020","updated":"2025-10-06T19:13:39Z"}
