{"icao":"LPPD","metar":"LPPD 151700Z 18012KT 9999 FEW008 BKN035 15/14 Q1029","updated":"2026-02-15T17:24:09Z"}
