{"icao":"LPAZ","metar":"LPAZ 141230Z 02009KT 350V060 9999 FEW013 BKN022 16/12 Q1031","updated":"2026-03-14T12:49:31Z"}
