{"icao":"LPMA","metar":"LPMA 250500Z 02009KT 340V040 9999 SCT015 18/15 Q1019","updated":"2026-05-25T05:18:30Z"}
