{"icao":"LPCS","metar":"LPCS 012000Z 36015KT CAVOK 16/07 Q1022","updated":"2026-04-01T23:34:37Z"}
