{"icao":"LPLA","metar":"LPLA 050400Z 35005KT 320V020 9999 SCT022 13/10 Q1027","updated":"2026-01-05T04:55:57Z"}
