{"icao":"LPCS","metar":"LPCS 071900Z 30015G27KT 270V330 9999 FEW012 SCT022 FEW024TCU 12/09 Q1007","updated":"2026-02-08T02:27:56Z"}
