{"icao":"LPPD","metar":"LPPD 291600Z 11017KT 9999 FEW020 BKN035 16/10 Q1033","updated":"2026-03-29T16:33:34Z"}
