{"icao":"LPPS","metar":"LPPS 152200Z 08011KT 050V110 9999 SCT015 15/12 Q1032","updated":"2026-02-15T22:22:23Z"}
