{"icao":"LPPT","metar":"LPPT 050500Z 18025KT 2000 TSRA FEW008 SCT018 FEW020CB 17/17 Q1007 RESHRA WS R20","updated":"2025-11-05T05:18:48Z"}
