{"icao":"LPBJ","metar":"LPBJ 191300Z 26007KT 230V290 CAVOK 26/13 Q1016","updated":"2025-10-19T13:21:28Z"}
