{"icao":"LPFR","metar":"LPFR 171000Z 35003KT 310V020 9999 FEW018 10/06 Q1015","updated":"2026-01-17T10:19:26Z"}
