{"icao":"LPPT","metar":"LPPT 110430Z 23014KT 3500 RA BKN004 15/15 Q1016","updated":"2026-02-11T05:01:32Z"}
