{"icao":"LPFL","metar":"LPFL 271800Z 02006KT 360V060 9999 BKN013 SCT028 15/12 Q1031","updated":"2026-03-27T18:54:26Z"}
