{"icao":"KLAX","metar":"KLAX 141053Z 11004KT 6SM -RA BR FEW015 BKN022 OVC040 16/14 A2980 RMK AO2 SLP089 P0006 T01610144 $","updated":"2025-10-14T11:15:12Z"}
