{"icao":"LPMA","metar":"LPMA 100630Z 04017KT 010V070 9999 SCT015 SCT030 14/04 Q1028","updated":"2026-03-10T06:48:10Z"}
