{"icao":"KJFK","metar":"KJFK 080151Z 15003KT 10SM SCT090 SCT250 11/07 A2981 RMK AO2 SLP094 T01110067","updated":"2026-05-08T02:49:01Z"}
