{"icao":"LPMT","metar":"LPMT 151300Z 01006KT 310V050 9999 BKN030 18/12 Q1024","updated":"2026-04-15T13:52:56Z"}
