{"icao":"LPPT","metar":"LPPT 151700Z 29008KT 9999 FEW017 SCT021 BKN032 14/10 Q1031","updated":"2026-02-15T17:24:04Z"}
