{"icao":"LPPT","metar":"LPPT 210100Z 36012KT CAVOK 10/02 Q1024","updated":"2025-11-21T01:23:07Z"}
