{"icao":"LPOV","metar":"LPOV 050600Z 15013KT 130V200 8000 TSRA FEW020 SCT025CB 17/15 Q1004","updated":"2025-11-05T06:27:45Z"}
