{"icao":"LPMR","metar":"LPMR 122000Z 35004KT 330V030 CAVOK 20/11 Q1016","updated":"2025-10-12T20:17:53Z"}
