{"icao":"LPFR","metar":"LPFR 151300Z 10010KT CAVOK 24/18 Q1016","updated":"2025-10-15T13:30:44Z"}
