{"icao":"LPPD","metar":"LPPD 250000Z 34005KT 310V010 9999 FEW012 BKN030 20/17 Q1021","updated":"2026-06-25T00:10:43Z"}
