{"icao":"KLAX","metar":"KLAX 272053Z 27008KT 10SM SCT028 OVC034 22/16 A2989 RMK AO2 SLP120 T02220156 58009 $","updated":"2025-09-27T21:14:06Z"}
