{"icao":"LPFR","metar":"LPFR 211700Z 11009KT CAVOK 18/09 Q1026","updated":"2026-02-21T17:23:55Z"}
