{"icao":"KORD","metar":"KORD 060351Z 22009KT 10SM BKN046 OVC075 M03/M09 A2977 RMK AO2 SLP091 T10331094","updated":"2025-12-06T04:21:02Z"}
