{"icao":"LPPS","metar":"LPPS 240400Z 03004KT 360V090 9999 FEW015 17/13 Q1025","updated":"2025-11-24T04:33:06Z"}
