{"icao":"LPMR","metar":"LPMR 122200Z 04004KT 7000 -RA FEW014 BKN037 11/11 Q1017","updated":"2025-12-13T09:18:07Z"}
