{"icao":"LPOV","metar":"LPOV 231000Z 01006KT 350V050 9999 SCT020 18/13 Q1021","updated":"2025-10-23T10:19:27Z"}
