{"icao":"LPMA","metar":"LPMA 052030Z 01019G31KT 340V040 9999 FEW016 15/06 Q1027","updated":"2026-03-05T20:35:56Z"}
