{"icao":"LPPR","metar":"LPPR 291830Z 33006KT 300V360 CAVOK 16/07 Q1029","updated":"2026-03-29T18:41:11Z"}
