{"icao":"LPMT","metar":"LPMT 201500Z 11012KT 9999 SCT020 BKN025 17/13 Q1006","updated":"2026-03-20T15:41:05Z"}
