{"icao":"LPMT","metar":"LPMT 311000Z 01005KT CAVOK 18/11 Q1026","updated":"2026-03-31T10:10:04Z"}
