{"icao":"LPPR","metar":"LPPR 230830Z VRB02KT CAVOK 13/10 Q1014","updated":"2026-03-23T08:54:26Z"}
