{"icao":"LPMR","metar":"LPMR 111400Z 18017G27KT 9999 BKN026 20/13 Q1009","updated":"2025-11-11T14:19:25Z"}
