{"icao":"LPPI","metar":"LPPI 172330Z 24018KT 9999 FEW006 SCT014 BKN036 21/20 Q1015","updated":"2026-06-18T03:53:54Z"}
