{"icao":"KORD","metar":"KORD 280751Z 09008KT 10SM FEW250 09/04 A3013 RMK AO2 SLP205 T00890044","updated":"2025-10-28T08:25:25Z"}
