{"icao":"KORD","metar":"KORD 251751Z 29009KT 10SM SCT055 BKN250 25/13 A2994 RMK AO2 SLP134 T02500128 10250 20183 53003","updated":"2026-06-25T18:07:59Z"}
