{"icao":"LPFL","metar":"LPFL 260830Z 25012G24KT 210V310 9999 FEW015 18/13 Q1026","updated":"2026-02-26T08:47:40Z"}
