{"icao":"KORD","metar":"KORD 152119Z 35024G32KT 6SM R10L/4500VP6000FT RA BR SCT017 OVC032 06/04 A2930 RMK AO2 PK WND 32034/2108 WSHFT 2059 LTG DSNT N RAB15 PRESRR P0000 T00560044 $","updated":"2026-03-15T21:26:41Z"}
