{"icao":"LPOV","metar":"LPOV 021800Z 35018KT CAVOK 16/11 Q1021","updated":"2026-04-02T18:55:03Z"}
