{"icao":"LPHR","metar":"LPHR 121330Z 24009KT 9999 FEW012 BKN020 16/12 Q1031","updated":"2026-03-12T14:04:40Z"}
