{"icao":"LPMA","metar":"LPMA 171900Z VRB04KT 9999 SCT015 18/14 Q1024","updated":"2025-11-17T19:14:56Z"}
