{"icao":"LPFL","metar":"LPFL 281230Z VRB07KT 9999 -DZ SCT008 BKN012 16/14 Q1011","updated":"2025-12-28T12:38:09Z"}
