{"icao":"LPPT","metar":"LPPT 171130Z VRB04KT 9999 BKN024 14/09 Q1028","updated":"2026-02-17T11:38:01Z"}
