{"icao":"LPOV","metar":"LPOV 311600Z 34016KT CAVOK 22/10 Q1024","updated":"2026-03-31T16:11:05Z"}
