{"icao":"LPFR","metar":"LPFR 171900Z 30016KT CAVOK 20/10 Q1016","updated":"2026-05-17T19:06:43Z"}
