{"icao":"LPMA","metar":"LPMA 311700Z 22014KT 9999 -SHRA FEW008 SCT015 FEW018CB 19/16 Q1014","updated":"2025-12-31T17:18:01Z"}
