{"icao":"KJFK","metar":"KJFK 271651Z 02012KT 10SM SCT018 OVC023 M02/M06 A3010 RMK AO2 SLP192 T10221061 $","updated":"2025-12-27T17:16:18Z"}
