{"icao":"LPLA","metar":"LPLA 060700Z 13008KT 9000 -SHRA SCT012 BKN018 22/20 Q1017","updated":"2025-10-06T07:18:09Z"}
