{"icao":"LPPD","metar":"LPPD 161600Z 25017KT 9999 FEW025 BKN035 17/12 Q1026","updated":"2025-12-16T16:28:05Z"}
