{"icao":"LPPT","metar":"LPPT 170900Z 10004G18KT 060V120 CAVOK 22/09 Q1021","updated":"2025-09-17T09:18:21Z"}
