{"icao":"LPLA","metar":"LPLA 110500Z VRB02KT 9999 FEW025 SCT030 17/15 Q1021","updated":"2025-10-11T05:15:58Z"}
