{"icao":"KJFK","metar":"KJFK 131051Z 26008KT 10SM BKN160 BKN250 M02/M07 A3015 RMK AO2 SLP210 T10171072","updated":"2025-12-13T11:15:00Z"}
