{"icao":"KJFK","metar":"KJFK 201651Z 27004KT 10SM SCT180 BKN230 07/M02 A3023 RMK AO2 SLP235 T00721022 $","updated":"2025-11-20T17:15:13Z"}
