{"icao":"KLAX","metar":"KLAX 122153Z 25013G22KT 10SM FEW065 BKN080 19/07 A2999 RMK AO2 SLP156 T01890067 $","updated":"2026-04-12T22:32:56Z"}
