{"icao":"KORD","metar":"KORD 261851Z 32011G17KT 10SM BKN014 OVC022 08/05 A2971 RMK AO2 SLP064 T00780050 $","updated":"2025-12-26T19:15:09Z"}
