{"icao":"LPPR","metar":"LPPR 110000Z 36008KT CAVOK 21/09 Q1019","updated":"2026-06-11T00:12:55Z"}
