{"icao":"KORD","metar":"KORD 112151Z 22010G22KT 10SM FEW120 BKN190 BKN250 06/M06 A2969 RMK AO2 PK WND 22027/2100 SLP060 T00561056","updated":"2025-11-11T22:18:04Z"}
