{"icao":"LPOV","metar":"LPOV 231100Z 19003KT 120V280 9999 FEW020 18/12 Q1015","updated":"2026-03-23T11:41:52Z"}
