{"icao":"LPAZ","metar":"LPAZ 060200Z 22019KT 9999 FEW012 SCT026 BKN040 16/13 Q1013","updated":"2026-04-06T02:26:18Z"}
