{"icao":"LPPR","metar":"LPPR 282200Z 03015KT CAVOK 15/05 Q1028","updated":"2026-03-28T22:27:50Z"}
