{"icao":"LPPT","metar":"LPPT 301630Z 31013KT 280V340 CAVOK 24/15 Q1020","updated":"2026-05-30T17:02:12Z"}
