{"icao":"LPMR","metar":"LPMR 070300Z 15002KT 9000 FEW001 15/13 Q1020","updated":"2025-10-07T03:30:46Z"}
