{"icao":"LPOV","metar":"LPOV 221400Z 16010KT 3000 -RA BR SCT005 BKN020 FEW022CB BKN040 11/11 Q1003","updated":"2026-01-22T14:28:55Z"}
