{"icao":"LPFL","metar":"LPFL 161600Z 16013KT 9000 -RADZ BKN004 FEW012TCU 18/17 Q1018","updated":"2025-11-16T16:20:19Z"}
