{"icao":"LPOV","metar":"LPOV 300900Z 30004KT 8000 SCT004 OVC008 18/18 Q1023","updated":"2026-05-30T09:13:09Z"}
