{"icao":"KLAX","metar":"KLAX 061453Z 00000KT 10SM CLR 13/M01 A3000 RMK AO2 SLP157 T01331011 51016","updated":"2026-03-06T15:35:56Z"}
