{"icao":"KORD","metar":"KORD 311651Z 34013G20KT 10SM SCT021 BKN028 BKN050 M06/M11 A3039 RMK AO2 SNE42 SLP306 P0000 T10611111","updated":"2026-01-31T17:22:38Z"}
