{"icao":"LPPT","metar":"LPPT 121400Z 23013KT 190V260 9999 FEW022 SCT030 19/12 Q1019","updated":"2026-05-12T14:21:53Z"}
