{"icao":"LPHR","metar":"LPHR 180900Z 31006KT 280V350 4000 -RA BR SCT007 SCT012 BKN025 16/15 Q1030","updated":"2026-01-18T09:20:00Z"}
