{"icao":"KORD","metar":"KORD 120551Z 22011KT 10SM FEW080 BKN100 BKN170 M03/M07 A3026 RMK AO2 SLP253 T10281067 11017 21033 400111061 58027 $","updated":"2026-01-12T06:35:11Z"}
