{"icao":"KLAX","metar":"KLAX 031653Z 12004KT 7SM FEW001 FEW009 16/10 A3021 RMK AO2 SLP230 T01560100 $","updated":"2026-02-03T17:51:47Z"}
