{"icao":"LPPS","metar":"LPPS 161000Z 07010KT 050V110 9999 SCT015 BKN030 23/18 Q1023","updated":"2025-09-16T10:18:16Z"}
