{"icao":"LPCS","metar":"LPCS 261930Z 29007KT 240V320 9999 FEW011 21/17 Q1018","updated":"2026-06-26T19:44:27Z"}
