{"icao":"LPLA","metar":"LPLA 062200Z 32021KT 9999 FEW024 SCT040 11/03 Q1025","updated":"2026-04-06T22:35:15Z"}
