{"icao":"LPAZ","metar":"LPAZ 181900Z 27009KT 5000 FEW001 BKN003 23/22 Q1017","updated":"2025-10-18T19:12:50Z"}
