{"icao":"KJFK","metar":"KJFK 140051Z 03018G26KT 9SM FEW008 OVC011 14/13 A2995 RMK AO2 PK WND 02028/0034 SLP142 T01390128","updated":"2025-10-14T01:18:50Z"}
