{"icao":"LPFR","metar":"LPFR 170300Z 25017KT 9999 BKN020 18/13 Q1013","updated":"2025-11-17T03:14:52Z"}
