{"icao":"LPPD","metar":"LPPD 121900Z 31009KT 9999 FEW025 14/07 Q1018","updated":"2026-01-12T19:19:32Z"}
