{"icao":"KJFK","metar":"KJFK 172051Z 30022G36KT 10SM FEW055 07/M08 A2982 RMK AO2 PK WND 29036/2050 SLP097 T00671083 53022 $","updated":"2025-11-17T21:17:07Z"}
