{"icao":"KLAX","metar":"KLAX 151553Z 12004KT 4SM HZ FEW009 OVC012 21/17 A2990 RMK AO2 SLP121 T02060172 $","updated":"2025-09-15T16:21:33Z"}
