{"icao":"LPBJ","metar":"LPBJ 200600Z 28004KT CAVOK 06/05 Q1018","updated":"2025-11-20T06:27:28Z"}
