{"icao":"LPOV","metar":"LPOV 180700Z 03004KT 360V060 CAVOK 03/03 Q1013","updated":"2026-01-18T07:18:58Z"}
