{"icao":"LPPT","metar":"LPPT 022300Z 34007KT CAVOK 17/14 Q1022","updated":"2025-10-02T23:15:21Z"}
