{"icao":"LPPS","metar":"LPPS 101400Z 36010KT 330V030 9999 FEW015 19/11 Q1026","updated":"2025-12-10T14:21:18Z"}
