{"icao":"KLAX","metar":"KLAX 051614Z VRB03KT 7SM FEW009 BKN016 BKN140 13/12 A3006 RMK AO2 BKN016 V SCT T01330122 $","updated":"2026-01-05T16:26:39Z"}
