{"icao":"LPMA","metar":"LPMA 071600Z 36010KT 320V040 9999 FEW015 25/18 Q1024","updated":"2025-10-07T16:22:04Z"}
