{"icao":"LPAZ","metar":"LPAZ 242130Z 18005KT 9000 SCT001 BKN002 18/17 Q1024","updated":"2026-05-24T21:56:02Z"}
