{"icao":"LPMA","metar":"LPMA 131230Z 03008KT 350V070 9999 FEW015 23/16 Q1018","updated":"2025-10-13T12:37:23Z"}
