{"icao":"LPLA","metar":"LPLA 282100Z 12020KT 6000 -RA SCT006 BKN012 BKN018 14/12 Q1011 RERA","updated":"2025-12-28T21:17:30Z"}
