{"icao":"LPPS","metar":"LPPS 020830Z 30020KT 9999 SCT014 16/08 Q1013","updated":"2026-02-02T08:41:01Z"}
