{"icao":"LPBJ","metar":"LPBJ 171900Z VRB03KT 9999 FEW010 OVC015 13/09 Q1025","updated":"2026-02-17T19:47:28Z"}
