{"icao":"LPFR","metar":"LPFR 080400Z 30007KT CAVOK 14/13 Q1019","updated":"2025-11-08T04:20:12Z"}
