{"icao":"LPMA","metar":"LPMA 270400Z 20019KT 9999 FEW008 SCT013 FEW018CB 22/21 Q1015 RESHRA","updated":"2025-10-27T04:28:04Z"}
