{"icao":"LPAZ","metar":"LPAZ 041130Z 02010KT 350V050 9999 FEW005 SCT012 21/17 Q1028","updated":"2026-06-04T11:51:45Z"}
