{"icao":"LPMT","metar":"LPMT 010900Z 24005KT 0800 -DZ FG BKN003 BKN006 15/15 Q1014","updated":"2026-02-01T09:29:17Z"}
