{"icao":"LPMR","metar":"LPMR 141100Z 35006KT 9999 SCT028 24/18 Q1016","updated":"2026-06-14T11:56:00Z"}
