{"icao":"LPFL","metar":"LPFL 011430Z 06006KT 360V120 9999 FEW017 18/13 Q1017","updated":"2026-05-01T14:53:47Z"}
