{"icao":"LPFR","metar":"LPFR 061100Z 25011KT CAVOK 23/12 Q1018","updated":"2026-06-06T11:24:27Z"}
