{"icao":"LPFR","metar":"LPFR 271900Z 35006KT CAVOK 14/05 Q1022","updated":"2025-11-27T19:14:45Z"}
