{"icao":"LPPD","metar":"LPPD 160800Z 35007KT 9999 FEW022 SCT035 13/09 Q1022","updated":"2025-11-16T08:22:02Z"}
