{"icao":"KJFK","metar":"KJFK 201351Z 07012KT 7SM -RA FEW011 OVC015 04/03 A2987 RMK AO2 SLP113 P0009 T00390028 $","updated":"2026-02-20T14:00:41Z"}
