{"icao":"LPPR","metar":"LPPR 140800Z VRB02KT 8000 SCT002 BKN004 19/18 Q1024","updated":"2025-09-14T08:19:54Z"}
