{"icao":"KORD","metar":"KORD 020451Z 35006KT 10SM FEW022 SCT030 BKN040 06/04 A3014 RMK AO2 RAE00 SLP210 P0000 T00610044 $","updated":"2025-11-02T05:17:27Z"}
