{"icao":"LPMA","metar":"LPMA 081900Z 35015G29KT 300V020 9999 SCT014 FEW016TCU 15/10 Q1018","updated":"2026-04-08T19:14:24Z"}
