{"icao":"LPLA","metar":"LPLA 262000Z 07010KT 030V140 9999 SCT022 BKN030 18/13 Q1023","updated":"2025-10-26T20:19:03Z"}
