{"icao":"LPLA","metar":"LPLA 202100Z 17016KT 7000 -RADZ SCT007 16/14 Q1020","updated":"2026-02-20T21:23:17Z"}
