{"icao":"LPST","metar":"LPST 210700Z 26009KT 2000 -DZ BR OVC006 20/19 Q1014","updated":"2025-10-21T07:18:28Z"}
