{"icao":"KORD","metar":"KORD 130851Z 18019G31KT 10SM FEW024 OVC055 06/01 A2952 RMK AO2 PK WND 19031/0850 PRESFR SLP999 60004 T00560006 58067 $","updated":"2026-03-13T09:37:15Z"}
