{"icao":"LPPT","metar":"LPPT 220430Z 05003KT CAVOK 09/07 Q1027","updated":"2026-02-22T04:47:16Z"}
