{"icao":"KLAX","metar":"KLAX 162153Z 26011KT 10SM CLR 21/10 A2989 RMK AO2 SLP120 T02060100 $","updated":"2025-10-16T22:13:39Z"}
