{"icao":"LPFR","metar":"LPFR 221930Z 26009KT CAVOK 16/12 Q1013","updated":"2026-04-22T20:03:57Z"}
