{"icao":"LPMA","metar":"LPMA 131500Z 04006KT 360V130 9999 FEW016 24/15 Q1016","updated":"2025-10-13T15:18:38Z"}
