{"icao":"LPPS","metar":"LPPS 122100Z 04010KT 360V080 9999 FEW015 BKN030 15/07 Q1028","updated":"2026-04-12T21:33:26Z"}
