{"icao":"LPOV","metar":"LPOV 211500Z 36009KT 320V030 9999 FEW015 15/04 Q1028","updated":"2025-11-21T15:17:11Z"}
