{"icao":"LPHR","metar":"LPHR 111600Z 06017KT 9999 SCT018 BKN030 16/11 Q1022","updated":"2026-05-11T16:31:57Z"}
