{"icao":"LPMR","metar":"LPMR 081300Z 33008KT 300V360 9999 FEW020 BKN035 19/13 Q1021","updated":"2025-10-08T13:28:15Z"}
