{"icao":"LPLA","metar":"LPLA 122000Z 29003KT 250V320 9999 FEW022 14/09 Q1032 WIND RWY15 23005KT RH70 BLU","updated":"2025-12-12T20:21:23Z"}
