{"icao":"LPHR","metar":"LPHR 181030Z 10003KT 070V140 CAVOK 16/10 Q1026","updated":"2026-02-18T10:42:31Z"}
