{"icao":"LPMT","metar":"LPMT 212000Z 01008KT CAVOK 12/05 Q1028","updated":"2025-11-21T20:21:11Z"}
