{"icao":"LPOV","metar":"LPOV 041000Z 30009KT 9999 FEW025 BKN040 15/09 Q1021","updated":"2025-12-04T10:23:22Z"}
