{"icao":"KORD","metar":"KORD 131251Z 25024G47KT 10SM BKN036 BKN055 04/M04 A2945 RMK AO2 PK WND 25056/1217 SLP975 T00441039 $","updated":"2026-03-13T12:56:41Z"}
