{"icao":"LPPR","metar":"LPPR 291000Z 05007KT 020V090 CAVOK 22/12 Q1019","updated":"2025-09-29T10:19:56Z"}
