{"icao":"LPBJ","metar":"LPBJ 011400Z 17004KT 110V260 9999 SCT030 18/10 Q1020","updated":"2026-03-01T14:22:31Z"}
