{"icao":"KJFK","metar":"KJFK 211451Z 23007KT 10SM OVC019 09/04 A3009 RMK AO2 SLP188 T00890044 58008","updated":"2025-11-21T15:17:28Z"}
