{"icao":"LPPR","metar":"LPPR 242000Z 03003KT 350V080 CAVOK 17/09 Q1018","updated":"2025-09-24T20:19:21Z"}
