{"icao":"LPST","metar":"LPST 290800Z 27004KT 230V320 9999 FEW012 SCT018 BKN024 14/13 Q1008","updated":"2026-04-29T09:07:50Z"}
