{"icao":"LPPR","metar":"LPPR 012100Z 18016KT 4500 -RADZ BR BKN004 OVC012 12/11 Q1014","updated":"2025-12-01T21:15:48Z"}
