{"icao":"LPFR","metar":"LPFR 230600Z 36004KT 320V030 CAVOK 16/08 Q1014","updated":"2025-09-23T06:26:52Z"}
