{"icao":"LPPS","metar":"LPPS 011230Z 26008KT 230V310 9999 FEW015 19/12 Q1020","updated":"2026-02-01T12:47:33Z"}
