{"icao":"LPPT","metar":"LPPT 272030Z 31010KT 9999 FEW020 21/17 Q1020","updated":"2026-06-27T21:01:23Z"}
