{"icao":"KJFK","metar":"KJFK 291151Z 28009KT 10SM FEW032 01/M07 A3039 RMK AO2 SLP289 T00061072 10017 20006 51031 $","updated":"2025-11-29T12:35:38Z"}
