{"icao":"LPMT","metar":"LPMT 280800Z 30015G25KT 7000 -SHRA BKN015 BKN030 19/16 Q1013","updated":"2025-09-28T08:19:43Z"}
