{"icao":"LPAR","metar":"LPAR 271100Z 05010KT 9999 FEW022 20/11 Q1021","updated":"2025-10-27T11:16:17Z"}
