{"icao":"KORD","metar":"KORD 231551Z 34005KT 10SM FEW012 OVC019 16/12 A3002 RMK AO2 SLP162 T01610122","updated":"2026-05-23T16:07:21Z"}
