{"icao":"LPMT","metar":"LPMT 310400Z 02005KT CAVOK 12/08 Q1026","updated":"2026-03-31T05:07:51Z"}
