{"icao":"KORD","metar":"KORD 231151Z 36005KT 10SM FEW090 FEW180 SCT250 13/09 A3020 RMK AO2 SLP225 T01330094 10156 20122 53017","updated":"2026-06-23T12:05:11Z"}
