{"icao":"LPAZ","metar":"LPAZ 021300Z 12011KT 080V140 9999 FEW008 SCT013 BKN023 23/19 Q1021","updated":"2025-11-02T13:21:30Z"}
