{"icao":"LPAR","metar":"LPAR 221500Z 27009KT 230V300 9999 SCT022 BKN028 24/18 Q1018","updated":"2025-10-22T15:18:24Z"}
