{"icao":"LPPR","metar":"LPPR 201330Z 32010KT CAVOK 24/17 Q1016","updated":"2026-06-20T13:59:29Z"}
