{"icao":"LPHR","metar":"LPHR 231930Z 22004KT 170V250 9999 FEW015 21/17 Q1022","updated":"2026-06-23T20:03:02Z"}
