{"icao":"LPMR","metar":"LPMR 240600Z VRB02KT 8000 OVC008 16/16 Q1020","updated":"2026-05-24T06:57:51Z"}
