{"icao":"LPFL","metar":"LPFL 041600Z 20026G40KT 170V230 9999 FEW011 SCT015 19/16 Q1015","updated":"2025-12-04T16:27:40Z"}
