{"icao":"LPPS","metar":"LPPS 251030Z 33015KT 9999 VCSH FEW010 SCT014 FEW016TCU BKN030 17/12 Q1020","updated":"2026-02-25T10:50:24Z"}
