{"icao":"LPPD","metar":"LPPD 090430Z 24017KT 3000 BR SCT002 BKN004 17/16 Q1013","updated":"2026-02-09T04:58:33Z"}
