{"icao":"LPFR","metar":"LPFR 281100Z 11007KT CAVOK 17/04 Q1023","updated":"2025-11-28T11:16:25Z"}
