{"icao":"LPBJ","metar":"LPBJ 092000Z 29004KT CAVOK 09/07 Q1028","updated":"2026-01-09T20:23:12Z"}
