{"icao":"LPCS","metar":"LPCS 211730Z 29014KT 9000 VCFG FEW006 SCT016 14/12 Q1006","updated":"2026-01-21T17:53:03Z"}
