{"icao":"LPOV","metar":"LPOV 060500Z VRB02KT CAVOK 13/08 Q1018","updated":"2025-10-06T05:17:00Z"}
