{"icao":"KLAX","metar":"KLAX 292053Z 24014KT 10SM FEW140 20/12 A2999 RMK AO2 PK WND 20026/2016 SLP156 T02000117 56012","updated":"2026-04-29T21:03:10Z"}
