{"icao":"LPPT","metar":"LPPT 260930Z 04007KT 350V070 CAVOK 20/14 Q1017","updated":"2026-04-26T10:00:46Z"}
