{"icao":"LPPS","metar":"LPPS 102230Z 27005KT CAVOK 15/14 Q1025","updated":"2026-02-10T22:38:14Z"}
