{"icao":"KORD","metar":"KORD 110251Z 34010KT 10SM OVC029 M02/M08 A2991 RMK AO2 SLP135 T10221083 51012","updated":"2025-12-11T03:23:42Z"}
