{"icao":"LPCS","metar":"LPCS 252000Z 01010KT 9999 -RA FEW005 SCT025 17/16 Q1014","updated":"2025-10-25T23:15:17Z"}
