{"icao":"LPPR","metar":"LPPR 271900Z 32008KT CAVOK 23/14 Q1018","updated":"2026-05-27T19:23:02Z"}
