{"icao":"LPFR","metar":"LPFR 020700Z 14017KT 9999 FEW010 16/15 Q1007","updated":"2026-01-02T07:23:02Z"}
