{"icao":"LPPR","metar":"LPPR 040130Z 03003KT 360V060 CAVOK 13/09 Q1002","updated":"2026-01-04T01:49:03Z"}
