{"icao":"KORD","metar":"KORD 221831Z 02029G38KT 10SM BKN016 BKN022 OVC140 03/M02 A2985 RMK AO2 PK WND 02038/1821 T00331017","updated":"2026-03-22T18:36:00Z"}
