{"icao":"LPBJ","metar":"LPBJ 310500Z 17007KT 9999 FEW045 17/15 Q1015","updated":"2025-10-31T05:19:05Z"}
