{"icao":"KORD","metar":"KORD 192151Z VRB04KT 10SM FEW085 SCT140 BKN170 OVC250 29/14 A2998 RMK AO2 SLP148 T02890144","updated":"2025-09-19T22:16:01Z"}
