{"icao":"LPPS","metar":"LPPS 171430Z 17005KT 140V210 9999 FEW015 18/12 Q1026","updated":"2026-02-17T14:43:16Z"}
