{"icao":"LPCS","metar":"LPCS 012000Z 01014KT CAVOK 21/13 Q1020","updated":"2025-10-01T20:19:30Z"}
