{"icao":"LPBJ","metar":"LPBJ 251200Z VRB03KT 9999 FEW030 23/12 Q1016","updated":"2026-04-25T13:01:29Z"}
