{"icao":"LPHR","metar":"LPHR 052000Z 30021G31KT 7000 -SHRA FEW006 SCT011 BKN030 13/12 Q1010 RESHRA","updated":"2026-04-05T20:32:03Z"}
