{"icao":"LPBJ","metar":"LPBJ 151500Z 34007KT 300V030 CAVOK 34/13 Q1019","updated":"2025-09-15T15:18:43Z"}
