{"icao":"LPOV","metar":"LPOV 301300Z 35011KT CAVOK 14/07 Q1020","updated":"2025-11-30T13:24:55Z"}
