{"icao":"LPPR","metar":"LPPR 270430Z 28007KT 220V340 9999 SCT020 FEW025CB BKN044 11/09 Q0996 RESHRA","updated":"2026-01-27T04:45:27Z"}
