{"icao":"KJFK","metar":"KJFK 110051Z 18009KT 10SM BKN045 15/05 A3035 RMK AO2 SLP277 T01500050","updated":"2025-10-11T01:15:56Z"}
