{"icao":"LPMA","metar":"LPMA 161000Z 12003KT 020V190 9999 SCT015 17/08 Q1026","updated":"2026-01-16T10:22:56Z"}
