{"icao":"LPOV","metar":"LPOV 161300Z 31004KT 270V360 9000 FEW004 19/15 Q1015","updated":"2025-10-16T13:29:39Z"}
