{"icao":"KORD","metar":"KORD 031651Z 00000KT 8SM FEW015 OVC023 03/M02 A3010 RMK AO2 SLP200 T00331017","updated":"2026-03-03T17:41:47Z"}
