{"icao":"KORD","metar":"KORD 312109Z 26012G19KT 2 1/2SM -SN BR BKN011 OVC022 01/M01 A2975 RMK AO2 P0000 T00111006","updated":"2025-12-31T21:17:43Z"}
