{"icao":"LPBJ","metar":"LPBJ 011900Z 34006KT CAVOK 19/07 Q1020","updated":"2026-04-01T19:59:45Z"}
