{"icao":"LPFR","metar":"LPFR 141500Z 31014KT 290V350 9999 FEW040 17/04 Q1025","updated":"2026-02-14T15:23:57Z"}
