{"icao":"KJFK","metar":"KJFK 170851Z 23009KT 10SM FEW037 BKN045 02/M07 A3009 RMK AO2 PK WND 22031/0811 SLP188 T00221072 50004 $","updated":"2026-01-17T09:19:15Z"}
