{"icao":"LPMR","metar":"LPMR 031200Z 13010KT CAVOK 18/09 Q1022","updated":"2025-11-03T12:38:51Z"}
