{"icao":"LPMR","metar":"LPMR 251500Z 36007KT 330V030 CAVOK 12/03 Q1010","updated":"2025-12-25T15:19:28Z"}
