{"icao":"LPAZ","metar":"LPAZ 101730Z 01012KT 9999 SCT014 17/13 Q1017","updated":"2026-05-10T17:51:08Z"}
