{"icao":"LPOV","metar":"LPOV 072000Z 33026G38KT 7000 -RA BKN025 OVC035 10/09 Q1001","updated":"2026-02-07T20:25:05Z"}
