{"icao":"LPHR","metar":"LPHR 092100Z 20012KT 170V230 9999 FEW018 SCT040 17/09 Q1022","updated":"2025-12-10T01:28:18Z"}
