{"icao":"LPBJ","metar":"LPBJ 142200Z 26006KT CAVOK 20/15 Q1017","updated":"2026-06-14T22:07:31Z"}
