{"icao":"LPPD","metar":"LPPD 221100Z 11004KT 050V170 9999 VCSH FEW018 BKN035 17/13 Q1032","updated":"2025-11-22T11:13:20Z"}
