{"icao":"LPBJ","metar":"LPBJ 091700Z 18016KT 3000 -RA SCT022 OVC035 14/13 Q1018","updated":"2025-12-09T17:19:15Z"}
