{"icao":"LPCS","metar":"LPCS 121600Z 26005KT 230V290 9999 FEW045 25/13 Q1015","updated":"2025-10-12T16:18:54Z"}
