{"icao":"KJFK","metar":"KJFK 280751Z 36011KT 10SM SCT130 BKN250 21/09 A2978 RMK AO2 SLP084 T02110094 $","updated":"2026-05-28T07:56:00Z"}
