{"icao":"KJFK","metar":"KJFK 090751Z 14004KT 4SM BR SCT006 SCT090 SCT190 SCT250 12/12 A2989 RMK AO2 SLP121 T01220122 $","updated":"2025-11-09T08:20:46Z"}
