{"icao":"KORD","metar":"KORD 202251Z 03012KT 10SM OVC250 11/04 A2988 RMK AO2 SLP120 T01060039","updated":"2026-03-20T23:27:41Z"}
