{"icao":"LPMA","metar":"LPMA 091600Z 02010KT 320V040 9999 SCT016 24/17 Q1023","updated":"2025-10-09T16:23:41Z"}
