{"icao":"LPOV","metar":"LPOV 141800Z VRB01KT CAVOK 12/12 Q1017","updated":"2025-12-15T08:30:30Z"}
