{"icao":"LPFL","metar":"LPFL 061230Z 25017G33KT 210V300 9999 -SHRA FEW016 FEW022CB 17/11 Q1005","updated":"2026-02-06T12:56:51Z"}
