{"icao":"LPPD","metar":"LPPD 301230Z 09005KT 050V130 9999 FEW006 SCT011 BKN015 17/16 Q1014","updated":"2025-12-30T12:41:31Z"}
