{"icao":"LPPD","metar":"LPPD 052100Z 29019G34KT 8000 -SHRA SCT020 FEW025CB SCT030 12/07 Q1009","updated":"2026-02-05T21:27:26Z"}
