{"icao":"LPFL","metar":"LPFL 071230Z 19011KT 140V230 9000 -RA FEW009 SCT015 17/13 Q1009","updated":"2026-02-07T12:45:39Z"}
