{"icao":"KLAX","metar":"KLAX 271353Z 06004KT 10SM FEW250 09/M06 A3023 RMK AO2 SLP234 T00941056 $","updated":"2026-01-27T14:28:35Z"}
