{"icao":"LPMA","metar":"LPMA 191930Z 22032G44KT 9999 SCT014 FEW016TCU 16/07 Q0992","updated":"2026-03-19T19:47:52Z"}
