{"icao":"LPHR","metar":"LPHR 291400Z 14019KT 9999 FEW006 SCT038 16/13 Q1034","updated":"2026-03-29T14:32:49Z"}
