{"icao":"LPPS","metar":"LPPS 280330Z 02011KT 350V050 9999 BKN014 15/09 Q1028","updated":"2026-02-28T03:53:30Z"}
