{"icao":"LPPD","metar":"LPPD 201400Z 04013KT 010V090 9999 FEW025 18/12 Q1029","updated":"2025-11-20T14:18:39Z"}
