{"icao":"LPCS","metar":"LPCS 251400Z 15003KT 100V200 9999 SCT010 FEW022TCU BKN035 20/20 Q1013","updated":"2025-10-25T14:14:37Z"}
