{"icao":"LPMA","metar":"LPMA 130730Z 01017KT 9999 FEW015 22/16 Q1021"}
