{"icao":"LPLA","metar":"LPLA 041300Z 33004KT 270V020 9999 SCT023 BKN035 16/11 Q1023","updated":"2026-04-04T13:52:43Z"}
