{"icao":"LPFR","metar":"LPFR 200800Z 04004KT 010V090 CAVOK 25/17 Q1018","updated":"2025-09-20T08:20:11Z"}
