{"icao":"KLAX","metar":"KLAX 251153Z 10003KT 10SM CLR 09/07 A3007 RMK AO2 SLP181 70001 T00890072 10144 20089 50003 $","updated":"2026-01-25T12:40:12Z"}
