{"icao":"LPPD","metar":"LPPD 240130Z 26018KT 9999 FEW014 FEW018CB 15/12 Q1010","updated":"2026-02-24T02:00:32Z"}
