{"icao":"KJFK","metar":"KJFK 010851Z 22013KT 10SM OVC070 02/M04 A2957 RMK AO2 SLP014 T00171044 58022 $","updated":"2026-01-01T09:23:55Z"}
