{"icao":"LPPI","metar":"LPPI 301930Z 06011KT 030V100 9999 FEW018 22/17 Q1030","updated":"2026-06-30T19:54:23Z"}
