{"icao":"LPOV","metar":"LPOV 041500Z 22010KT 6000 -RA SCT008 BKN012 15/14 Q0994","updated":"2026-02-04T15:40:58Z"}
