{"icao":"KJFK","metar":"KJFK 220951Z 03004KT 10SM FEW046 SCT250 12/10 A3018 RMK AO2 SLP220 T01220100 $","updated":"2025-09-22T10:20:16Z"}
