{"icao":"LPMT","metar":"LPMT 201100Z 36005KT 330V040 CAVOK 21/14 Q1012","updated":"2026-04-20T12:02:46Z"}
