{"icao":"KJFK","metar":"KJFK 160351Z 26013KT 10SM FEW075 BKN100 BKN250 M04/M09 A3023 RMK AO2 SLP234 T10391094 $","updated":"2025-12-16T04:34:38Z"}
