{"icao":"KORD","metar":"KORD 050451Z 30010KT 10SM FEW100 BKN250 17/02 A2956 RMK AO2 SLP005 T01670017","updated":"2026-05-05T05:41:50Z"}
