{"icao":"LPLA","metar":"LPLA 300500Z 15009KT 120V180 9999 FEW014 SCT018 22/20 Q1019","updated":"2025-09-30T05:17:49Z"}
