{"icao":"LPPR","metar":"LPPR 031930Z 32005KT 300V360 CAVOK 13/11 Q1023","updated":"2026-04-03T19:37:26Z"}
