{"icao":"LPBJ","metar":"LPBJ 200300Z 28005KT 0400 FG VV002 06/05 Q1020","updated":"2026-01-20T03:42:24Z"}
