{"icao":"LPPT","metar":"LPPT 220100Z VRB02KT CAVOK 09/03 Q1030","updated":"2025-11-22T01:20:27Z"}
