{"icao":"KLAX","metar":"KLAX 191953Z 27010KT 10SM CLR 26/17 A3003 RMK AO2 SLP167 T02560167 $","updated":"2026-03-19T20:36:20Z"}
