{"icao":"LPAZ","metar":"LPAZ 031530Z 25023KT 7000 SCT010 18/16 Q1006","updated":"2026-02-03T15:49:13Z"}
