{"icao":"LPPT","metar":"LPPT 101000Z 09004G15KT 350V150 9999 FEW002 SCT012 18/16 Q1020","updated":"2025-11-10T10:21:41Z"}
