{"icao":"LPOV","metar":"LPOV 131300Z 15014G24KT 120V180 9000 -RA FEW005 SCT020 FEW025CB 16/15 Q0998","updated":"2025-11-13T13:31:38Z"}
