{"icao":"LPAZ","metar":"LPAZ 081000Z 23017KT 2800 BR BKN002 17/16 Q1016","updated":"2026-02-08T10:25:21Z"}
