{"icao":"KLAX","metar":"KLAX 131653Z 27004KT 10SM BKN017 OVC024 21/16 A2994 RMK AO2 SLP137 T02110161 $","updated":"2025-09-13T17:12:22Z"}
