{"icao":"KLAX","metar":"KLAX 071053Z 05003KT 10SM SCT250 13/12 A3015 RMK AO2 SLP207 T01330117 $","updated":"2026-02-07T11:20:31Z"}
