{"icao":"KLAX","metar":"KLAX 232153Z 27013KT 10SM FEW095 FEW250 21/08 A2994 RMK AO2 SLP137 T02060083 $","updated":"2026-04-23T22:42:09Z"}
