{"icao":"LPBJ","metar":"LPBJ 012300Z 28007KT CAVOK 26/17 Q1017","updated":"2026-07-01T23:13:23Z"}
