{"icao":"LPMA","metar":"LPMA 300600Z 02013KT 340V040 9999 SCT016 21/14 Q1020","updated":"2025-09-30T06:27:22Z"}
