{"icao":"LPPS","metar":"LPPS 041530Z 16008KT 130V200 9999 FEW005 SCT010 20/17 Q1017","updated":"2026-05-04T16:02:27Z"}
