{"icao":"LPPT","metar":"LPPT 251300Z 32004KT 280V350 9999 VCSH FEW016 FEW025TCU 22/18 Q1013","updated":"2025-10-25T13:21:34Z"}
