{"icao":"LPFL","metar":"LPFL 251230Z VRB09G19KT 9999 FEW012 SCT019 19/14 Q1026","updated":"2026-02-25T13:02:12Z"}
