{"icao":"LPFR","metar":"LPFR 160900Z 16004KT CAVOK 25/18 Q1015","updated":"2026-06-16T09:30:28Z"}
