{"icao":"KJFK","metar":"KJFK 030551Z 31012KT 10SM FEW050 M03/M16 A2989 RMK AO2 PK WND 31027/0506 SLP121 60000 T10331156 11017 21033 51006 $","updated":"2026-01-03T06:29:38Z"}
