{"icao":"LPBJ","metar":"LPBJ 141300Z 21006KT 180V260 9999 SCT030 26/16 Q1017","updated":"2026-06-14T14:04:00Z"}
