{"icao":"LPPT","metar":"LPPT 082000Z 35009KT 310V030 9999 FEW016 SCT018 17/14 Q1022","updated":"2025-10-08T20:19:06Z"}
