{"icao":"KLAX","metar":"KLAX 232053Z 25008KT 10SM FEW018 21/14 A3003 RMK AO2 SLP167 T02110139 58015","updated":"2025-10-23T21:15:42Z"}
