{"icao":"LPAZ","metar":"LPAZ 192000Z 28011KT 8000 BKN004 23/22 Q1018","updated":"2025-10-19T20:18:24Z"}
