{"icao":"KLAX","metar":"KLAX 300453Z 25010KT 10SM FEW036 SCT250 19/15 A2996 RMK AO2 SLP141 T01940150 $","updated":"2025-09-30T05:18:06Z"}
