{"icao":"LPMA","metar":"LPMA 301300Z 02011KT 340V050 9999 SCT016 SCT030 24/15 Q1021","updated":"2025-09-30T13:28:02Z"}
