{"icao":"LPMT","metar":"LPMT 221400Z 21008KT 150V240 2800 RA BR SCT012 BKN022 13/12 Q1007","updated":"2026-01-22T14:29:08Z"}
