{"icao":"LPAR","metar":"LPAR 231200Z 07004KT 010V120 9999 SCT025 BKN040 23/18 Q1020","updated":"2025-10-23T12:38:54Z"}
