{"icao":"LPFL","metar":"LPFL 271830Z 20013KT 120V240 9999 4900N -DZ SCT008 BKN010 FEW012TCU 17/14 Q1031","updated":"2026-02-27T18:41:10Z"}
