{"icao":"KJFK","metar":"KJFK 211051Z 00000KT 10SM OVC032 06/02 A3011 RMK AO2 SLP196 T00560022 $","updated":"2025-11-21T11:16:03Z"}
