{"icao":"LPPT","metar":"LPPT 102300Z 33009KT 9999 BKN038 13/10 Q1022","updated":"2025-12-10T23:16:38Z"}
