{"icao":"KJFK","metar":"KJFK 161151Z 04008KT 10SM FEW022 FEW060 SCT200 BKN250 19/16 A3025 RMK AO2 SLP242 T01890161 10189 20172 51009 $","updated":"2025-09-16T12:36:11Z"}
