{"icao":"LPPR","metar":"LPPR 241930Z 33003KT 280V010 9999 FEW030 18/16 Q1020","updated":"2026-05-24T20:03:29Z"}
