{"icao":"LPMR","metar":"LPMR 170100Z 19005KT 8000 FEW020 FEW022TCU BKN040 13/13 Q1010 RESHRA","updated":"2025-11-17T01:24:55Z"}
