{"icao":"LPMA","metar":"LPMA 020800Z 30004KT 270V080 9999 SCT015 17/12 Q1023","updated":"2025-12-02T08:28:29Z"}
