{"icao":"LPOV","metar":"LPOV 240700Z 17008KT 9999 FEW016 SCT035 05/05 Q1003","updated":"2026-01-24T07:18:49Z"}
