{"icao":"KLAX","metar":"KLAX 090853Z 00000KT 6SM BR OVC010 16/14 A2994 RMK AO2 SLP137 T01610139 58007","updated":"2026-05-09T09:18:01Z"}
