{"icao":"LPBJ","metar":"LPBJ 030300Z 29005KT CAVOK 10/08 Q1023","updated":"2025-11-03T03:15:52Z"}
