{"icao":"KJFK","metar":"KJFK 111851Z 30014G24KT 10SM BKN043 BKN090 04/M03 A2973 RMK AO2 SLP067 T00391033 $","updated":"2026-02-11T19:01:41Z"}
