{"icao":"LPPT","metar":"LPPT 210730Z 20013KT CAVOK 18/12 Q1004","updated":"2026-04-21T07:47:49Z"}
