{"icao":"KJFK","metar":"KJFK 081351Z 01017G25KT 10SM FEW050 BKN250 M01/M12 A3025 RMK AO2 PK WND 35027/1259 SLP244 T10111122 $","updated":"2025-12-08T14:20:54Z"}
