{"icao":"LPBJ","metar":"LPBJ 071800Z 31013KT CAVOK 24/16 Q1020","updated":"2025-10-07T18:26:17Z"}
