{"icao":"LPMT","metar":"LPMT 241700Z 02006KT 9999 SCT028 12/07 Q1009","updated":"2025-12-24T17:16:14Z"}
