{"icao":"LPFR","metar":"LPFR 111930Z 29005KT CAVOK 13/09 Q1025","updated":"2026-03-11T19:40:07Z"}
