{"icao":"LPBJ","metar":"LPBJ 250536Z 05003KT 4000 1500N BCFG NSC 10/09 Q1020","updated":"2026-03-25T06:00:24Z"}
