{"icao":"LPOV","metar":"LPOV 131900Z 22004KT 3500 -DZ BR SCT004 BKN015 BKN030 12/12 Q1021","updated":"2026-04-14T05:21:55Z"}
