{"icao":"LPPT","metar":"LPPT 280700Z 34008KT 310V010 9999 FEW025 09/06 Q1025","updated":"2026-02-28T07:25:31Z"}
