{"icao":"LPMT","metar":"LPMT 081400Z 33005KT 290V350 9999 SCT040 16/09 Q1021","updated":"2026-03-08T14:23:49Z"}
