{"icao":"LPMT","metar":"LPMT 201000Z 25005KT 220V290 9999 BKN035 20/16 Q1015","updated":"2025-10-20T10:20:08Z"}
