{"icao":"KJFK","metar":"KJFK 152051Z 16007KT 10SM BKN048 BKN120 OVC250 08/M01 A2965 RMK AO2 SLP040 T00831006 58038","updated":"2025-11-15T21:14:44Z"}
