{"icao":"LPST","metar":"LPST 291600Z 33011KT 9999 SCT012 19/16 Q1009","updated":"2025-10-29T16:24:35Z"}
