{"icao":"LPMA","metar":"LPMA 190400Z 29006KT 9999 SCT015 17/14 Q1019","updated":"2025-11-19T04:22:33Z"}
