{"icao":"LPFR","metar":"LPFR 031530Z 18004KT 150V210 CAVOK 22/07 Q1020","updated":"2026-04-03T15:37:32Z"}
