{"icao":"LPCS","metar":"LPCS 301400Z 18011KT 9999 3000NW -SHRA SCT010 FEW020TCU BKN030 19/16 Q1014","updated":"2025-10-30T14:18:57Z"}
