{"icao":"LPPR","metar":"LPPR 241100Z 24010KT 190V280 3000 -RA BR BKN002 BKN030 16/16 Q1013","updated":"2025-11-24T11:16:32Z"}
