{"icao":"KJFK","metar":"KJFK 101951Z 17006KT 10SM BKN055 OVC070 M01/M07 A3003 RMK AO2 SLP169 T10061072 $","updated":"2026-02-10T20:43:04Z"}
