{"icao":"KJFK","metar":"KJFK 080551Z 27008KT 10SM FEW055 SCT250 03/M03 A3005 RMK AO2 SLP174 T00281028 10050 20028 55002 $","updated":"2025-12-08T06:33:16Z"}
