{"icao":"LPMT","metar":"LPMT 280200Z 35006KT 300V020 9999 SCT016 20/17 Q1020","updated":"2026-06-28T03:39:23Z"}
