{"icao":"LPPR","metar":"LPPR 300530Z 18010KT 9999 FEW006 SCT011 BKN040 15/13 Q1014","updated":"2026-04-30T05:57:30Z"}
