{"icao":"LPMA","metar":"LPMA 140900Z 36009KT 320V030 9999 VCSH BKN015 15/08 Q1025","updated":"2026-01-14T09:27:55Z"}
