{"icao":"LPPD","metar":"LPPD 190000Z 31002KT 9999 FEW014 18/16 Q1015","updated":"2026-06-19T00:25:15Z"}
