{"icao":"LPMA","metar":"LPMA 011830Z 02019KT 330V050 9999 FEW012 21/16 Q1023","updated":"2026-06-01T18:36:51Z"}
