{"icao":"LPHR","metar":"LPHR 010800Z 27021KT 6000 -RADZ SCT002 BKN005 17/16 Q1023","updated":"2026-03-01T08:29:15Z"}
