{"icao":"LPMT","metar":"LPMT 241300Z 27005KT CAVOK 23/17 Q1020","updated":"2026-05-24T13:22:56Z"}
