{"icao":"LPBJ","metar":"LPBJ 250700Z 30005KT 0200 FG VV002 11/11 Q1017","updated":"2026-04-25T07:13:40Z"}
