{"icao":"LPAZ","metar":"LPAZ 112300Z 21009KT 1200 R18/P2000 BR VV002 16/15 Q1021","updated":"2026-02-11T23:31:00Z"}
