{"icao":"LPMR","metar":"LPMR 011400Z 33005KT 290V360 9999 SCT016 19/14 Q1018","updated":"2025-11-01T14:14:29Z"}
