{"icao":"KORD","metar":"KORD 140151Z 32015G25KT 10SM FEW250 04/M08 A2997 RMK AO2 SLP155 T00391083 $","updated":"2026-03-14T01:56:47Z"}
