{"icao":"KJFK","metar":"KJFK 161251Z 02012KT 10SM BKN012 OVC024 M02/M03 A3014 RMK AO2 SLP204 T10171033 $","updated":"2026-02-16T13:00:45Z"}
