{"icao":"LPMA","metar":"LPMA 061800Z 02007KT 9999 SCT013 22/18 Q1022","updated":"2025-10-06T18:26:06Z"}
