{"icao":"KLAX","metar":"KLAX 102353Z 28010KT 10SM FEW020 FEW250 18/11 A3010 RMK AO2 SLP193 T01780111 10194 20167 56002 $","updated":"2026-03-11T00:01:39Z"}
