{"icao":"LPFR","metar":"LPFR 260700Z VRB04KT CAVOK 08/04 Q1023","updated":"2025-11-26T07:18:11Z"}
