{"icao":"LPPS","metar":"LPPS 181900Z 33011KT 9999 SCT004 SCT008 22/21 Q1016","updated":"2025-10-18T19:13:04Z"}
