{"icao":"LPOV","metar":"LPOV 011100Z 31004KT 240V030 9999 FEW018 SCT030 18/14 Q1017","updated":"2025-11-01T11:13:10Z"}
