{"icao":"LPST","metar":"LPST 041300Z 32012KT 290V360 9999 SCT028 18/09 Q1017","updated":"2026-05-04T13:56:54Z"}
