{"icao":"LPMT","metar":"LPMT 031600Z 25011KT 230V290 6000 -RA FEW020 SCT030 12/08 Q1002","updated":"2026-02-03T16:52:08Z"}
