{"icao":"LPPR","metar":"LPPR 131400Z 29005KT CAVOK 23/13 Q1016","updated":"2025-10-13T14:18:34Z"}
