{"icao":"LPCS","metar":"LPCS 310700Z 02005KT 9999 VCFG FEW006 07/07 Q1019","updated":"2025-12-31T07:22:40Z"}
