{"icao":"KJFK","metar":"KJFK 210351Z 29006KT 10SM FEW130 FEW250 22/11 A2983 RMK AO2 SLP101 T02220106 $","updated":"2026-06-21T04:04:40Z"}
