{"icao":"LPPD","metar":"LPPD 232230Z VRB05KT 0200 R30/M0050 -DZ FG VV001 18/17 Q1025","updated":"2026-05-23T22:51:38Z"}
