{"icao":"KORD","metar":"KORD 150251Z 13007KT 10SM BKN250 12/M01 A2998 RMK AO2 SLP152 T01221011 58003","updated":"2026-05-15T03:46:56Z"}
