{"icao":"LPMA","metar":"LPMA 132200Z 34007KT 290V030 9999 SCT016 16/07 Q1028","updated":"2026-02-13T22:31:50Z"}
