{"icao":"KLAX","metar":"KLAX 271453Z 27008KT 10SM FEW010 SCT026 BKN070 15/08 A3000 RMK AO2 SLP159 T01500083 53008","updated":"2026-04-27T15:47:18Z"}
