{"icao":"LPCS","metar":"LPCS 041400Z 32009KT 9999 SCT028 16/10 Q1022","updated":"2025-12-04T14:20:06Z"}
