{"icao":"LPMA","metar":"LPMA 061430Z 12006KT 090V160 9999 SCT014 BKN030 19/11 Q1015","updated":"2026-04-06T14:45:03Z"}
