{"icao":"LPMT","metar":"LPMT 302000Z 15007KT CAVOK 18/16 Q1013","updated":"2025-10-30T21:16:24Z"}
