{"icao":"KORD","metar":"KORD 220951Z 07010KT 10SM OVC060 12/06 A3016 RMK AO2 SLP215 T01170056 $","updated":"2026-05-22T10:49:06Z"}
