{"icao":"LPOV","metar":"LPOV 130900Z 16012KT 7000 -SHRA SCT010 SCT016 12/12 Q1006","updated":"2026-01-13T09:26:46Z"}
