{"icao":"LPBJ","metar":"LPBJ 241600Z 27009KT 250V310 9999 BKN024 23/17 Q1017","updated":"2025-10-24T16:22:21Z"}
