{"icao":"LPBJ","metar":"LPBJ 161300Z 32020G31KT 9999 FEW015 BKN025 12/08 Q1009","updated":"2025-12-16T13:37:18Z"}
