{"icao":"LPMR","metar":"LPMR 092100Z 15006KT 9999 TS FEW020 FEW022CB SCT035 15/10 Q1008","updated":"2026-05-09T21:41:25Z"}
