{"icao":"KORD","metar":"KORD 201951Z 26017G33KT 10SM OVC014 M01/M04 A2966 RMK AO2 PK WND 24034/1935 SNE15 SLP047 P0000 T10061044","updated":"2026-02-20T20:30:17Z"}
