{"icao":"LPMA","metar":"LPMA 200300Z VRB02KT 9999 SCT014 22/18 Q1018","updated":"2025-10-20T03:14:28Z"}
