{"icao":"LPAZ","metar":"LPAZ 061530Z 24025G35KT 8000 FEW016 SCT030 BKN040 16/13 Q1012","updated":"2026-02-06T15:38:24Z"}
