{"icao":"KLAX","metar":"KLAX 142253Z 17005KT 10SM FEW025 FEW030 SCT060 17/11 A2990 RMK AO2 SLP124 T01720111 $","updated":"2025-10-14T23:16:22Z"}
