{"icao":"KJFK","metar":"KJFK 020651Z 06007KT 10SM CLR 13/07 A3035 RMK AO2 CIG 050 W SLP276 T01330072","updated":"2025-10-02T07:16:34Z"}
