{"icao":"LPFL","metar":"LPFL 011000Z 19007KT 150V280 9999 VCSH FEW006 BKN015 FEW016TCU 24/21 Q1018","updated":"2025-10-01T10:18:47Z"}
