{"icao":"LPAZ","metar":"LPAZ 121100Z 31035G46KT 8000 -SHRA SCT015 FEW025TCU BKN041 14/10 Q1014","updated":"2026-01-12T11:19:46Z"}
