{"icao":"LPLA","metar":"LPLA 172100Z 23015KT 9999 FEW007 SCT017 22/19 Q1015","updated":"2026-06-17T21:16:01Z"}
