{"icao":"LPMR","metar":"LPMR 010300Z 13013KT CAVOK 10/05 Q1014","updated":"2026-01-01T03:49:08Z"}
