{"icao":"LPMA","metar":"LPMA 090800Z 32003KT 290V350 9999 SCT015 SCT030 20/14 Q1022","updated":"2025-11-09T08:20:45Z"}
