{"icao":"KJFK","metar":"KJFK 110451Z 35006KT 1/2SM R04R/P6000FT -RA BR BKN003 OVC010 06/05 A2972 RMK AO2 SFC VIS 1 1/2 SLP065 P0011 T00560050 401170044","updated":"2026-01-11T05:24:09Z"}
