{"icao":"LPHR","metar":"LPHR 031900Z 23005KT 190V250 9999 SCT004 BKN010 23/22 Q1023","updated":"2025-10-03T19:13:55Z"}
