{"icao":"LPCS","metar":"LPCS 121030Z 34023G33KT 9999 FEW018 14/07 Q1020","updated":"2026-04-12T10:36:54Z"}
