{"icao":"LPMR","metar":"LPMR 100500Z 12003KT CAVOK 12/11 Q1020","updated":"2025-10-10T06:27:03Z"}
