{"icao":"LPBJ","metar":"LPBJ 251400Z 24004KT 210V270 9999 FEW006 SCT025 20/19 Q1014","updated":"2025-10-25T14:14:39Z"}
