{"icao":"LPFL","metar":"LPFL 151100Z 19017G28KT 150V260 9999 FEW013 SCT016 18/14 Q1023","updated":"2026-02-15T11:21:35Z"}
