{"icao":"LPMT","metar":"LPMT 051500Z 36006KT 340V040 CAVOK 26/14 Q1018","updated":"2025-10-05T15:14:58Z"}
