{"icao":"KLAX","metar":"KLAX 182053Z 25009KT 10SM CLR 25/11 A2997 RMK AO2 SLP149 T02500111 58014 $","updated":"2025-10-18T21:14:08Z"}
