{"icao":"LPBJ","metar":"LPBJ 240600Z 11006KT CAVOK 15/02 Q1017","updated":"2025-09-24T06:26:39Z"}
