{"icao":"LPMA","metar":"LPMA 290300Z 33005KT 300V360 9999 BKN016 SCT030 17/10 Q1023","updated":"2025-11-29T03:10:28Z"}
