{"icao":"LPOV","metar":"LPOV 141601Z 31008KT 0900 FG BKN001 20/19 Q1016","updated":"2026-06-14T16:19:39Z"}
