{"icao":"LPFL","metar":"LPFL 181500Z VRB05KT 9000 -DZ FEW005 SCT010 BKN015 23/22 Q1013","updated":"2025-10-18T15:15:43Z"}
