{"icao":"LPCS","metar":"LPCS 141230Z 34011KT 290V360 9999 VCSH FEW004 SCT016 13/12 Q1021","updated":"2026-01-14T12:43:13Z"}
