{"icao":"LPBJ","metar":"LPBJ 051600Z 32012KT 270V010 CAVOK 21/06 Q1015","updated":"2026-05-05T16:23:11Z"}
