{"icao":"LPPR","metar":"LPPR 011930Z 31005KT 270V330 CAVOK 16/12 Q1019","updated":"2026-05-01T20:02:45Z"}
