{"icao":"LPFR","metar":"LPFR 101030Z 25012KT 8000 BKN003 16/15 Q1020","updated":"2026-02-10T11:04:09Z"}
