{"icao":"LPBJ","metar":"LPBJ 080200Z 26003KT CAVOK 12/09 Q1010","updated":"2026-05-08T02:48:59Z"}
