{"icao":"LPMA","metar":"LPMA 290900Z 36005KT 330V030 9999 FEW016 18/09 Q1023","updated":"2025-11-29T09:18:32Z"}
