{"icao":"LPLA","metar":"LPLA 221200Z 25010KT 220V280 9999 FEW025 16/11 Q1024","updated":"2025-12-22T12:40:23Z"}
