{"icao":"LPPR","metar":"LPPR 112000Z 19014KT 9999 SCT005 SCT011 BKN025 14/13 Q1022","updated":"2026-01-11T20:21:42Z"}
