{"icao":"LPFR","metar":"LPFR 020100Z 04004KT 350V080 9999 -RA SCT008 BKN015 19/18 Q1022","updated":"2025-11-02T01:27:37Z"}
