{"icao":"LPFR","metar":"LPFR 030300Z 00000KT CAVOK 14/10 Q1022","updated":"2025-11-03T03:15:50Z"}
