{"icao":"KLAX","metar":"KLAX 261459Z 14007KT 7SM FEW009 OVC013 19/17 A2991 RMK AO2 T01940167 $","updated":"2025-09-26T15:18:25Z"}
