{"icao":"LPAR","metar":"LPAR 061600Z 26010KT CAVOK 28/14 Q1018","updated":"2025-10-06T16:21:25Z"}
