{"icao":"LPMT","metar":"LPMT 091100Z 02004KT 340V060 9999 FEW012 13/11 Q1022","updated":"2025-11-09T12:33:22Z"}
