{"icao":"KJFK","metar":"KJFK 191951Z 02006KT 10SM FEW025 BKN050 BKN075 08/02 A3017 RMK AO2 SLP216 T00780017 $","updated":"2025-11-19T20:18:35Z"}
