{"icao":"LPMT","metar":"LPMT 081000Z 35005KT 320V030 9999 FEW025 14/09 Q1022","updated":"2026-03-08T10:24:08Z"}
