{"icao":"LPFR","metar":"LPFR 022000Z 30007KT CAVOK 23/18 Q1020","updated":"2025-10-02T20:18:36Z"}
