{"icao":"LPPT","metar":"LPPT 210800Z 22013KT 3000 RA BR BKN004 14/14 Q1008","updated":"2026-01-21T08:30:15Z"}
