{"icao":"KORD","metar":"KORD 150751Z 21010G20KT 10SM BKN250 16/12 A2967 RMK AO2 SLP045 T01610122 $","updated":"2025-11-15T08:21:34Z"}
