{"icao":"LPPT","metar":"LPPT 240300Z 33007KT CAVOK 10/07 Q1009","updated":"2025-12-24T03:22:39Z"}
