{"icao":"LPMT","metar":"LPMT 300900Z 34008KT 310V010 9999 FEW020 24/18 Q1020","updated":"2026-06-30T09:31:55Z"}
