{"icao":"LPFR","metar":"LPFR 051800Z 25003KT CAVOK 23/18 Q1017","updated":"2025-10-05T18:21:55Z"}
