{"icao":"LPCS","metar":"LPCS 211100Z 34008KT 310V020 9999 VCSH FEW020 FEW025CB 09/07 Q1010 RESHRA","updated":"2025-12-21T11:15:35Z"}
