{"icao":"KORD","metar":"KORD 202251Z 16004KT 10SM FEW130 BKN250 M08/M18 A3023 RMK AO2 SLP252 T10781178 $","updated":"2026-01-20T23:21:11Z"}
