{"icao":"LPMR","metar":"LPMR 171400Z 32012KT 280V350 9999 FEW026 19/11 Q1018","updated":"2026-05-17T14:54:33Z"}
