{"icao":"KLAX","metar":"KLAX 181453Z 27027G35KT 10SM FEW055 SCT090 SCT180 11/02 A2994 RMK AO2 PK WND 26035/1449 SLP139 60000 T01060022 53018","updated":"2026-02-18T15:51:34Z"}
