{"icao":"LPPR","metar":"LPPR 072230Z 09004KT 050V130 9999 FEW021 12/08 Q1015","updated":"2026-04-07T22:36:29Z"}
