{"icao":"KORD","metar":"KORD 181551Z 10012KT 10SM OVC014 05/03 A2999 RMK AO2 SLP159 T00500028","updated":"2025-11-18T16:25:51Z"}
