{"icao":"LPLA","metar":"LPLA 120706Z 29033G50KT 9000 -SHRA BKN020 FEW024TCU FEW025CB BKN033 12/09 Q1010","updated":"2026-01-12T07:26:29Z"}
