{"icao":"LPMA","metar":"LPMA 300430Z VRB02KT 9999 -SHRA BKN015 17/14 Q1017","updated":"2025-12-30T04:38:00Z"}
