{"icao":"LPFL","metar":"LPFL 241230Z 18008KT 140V230 9999 VCSH SCT006 BKN010 19/17 Q1025","updated":"2025-11-24T12:39:41Z"}
