{"icao":"KLAX","metar":"KLAX 061753Z 00000KT 10SM FEW090 FEW160 SCT250 20/M04 A3004 RMK AO2 SLP170 T02001044 10206 20111 51014","updated":"2026-03-06T18:42:51Z"}
