{"icao":"LPAR","metar":"LPAR 031600Z 23003KT CAVOK 19/11 Q1021","updated":"2025-11-03T16:21:02Z"}
