{"icao":"LPPR","metar":"LPPR 141600Z 18007KT 9000 -SHRA SCT007 FEW020CB BKN040 13/12 Q0999","updated":"2025-11-14T16:23:37Z"}
