{"icao":"KORD","metar":"KORD 022151Z 29007KT 10SM SCT070 BKN090 12/M04 A3002 RMK AO2 SLP167 T01221039","updated":"2026-05-02T22:39:41Z"}
