{"icao":"LPLA","metar":"LPLA 080600Z 23017G32KT 200V260 9999 FEW015 SCT020 BKN025 20/17 Q1017","updated":"2025-11-08T06:25:17Z"}
