{"icao":"LPMR","metar":"LPMR 050800Z 21007KT 2000 +SHRA VCTS SCT012 OVC035 17/17 Q1005 RETS","updated":"2025-11-05T08:25:14Z"}
