{"icao":"LPPR","metar":"LPPR 010530Z 21005KT 180V250 1700 0500W BCFG BR BKN001 15/15 Q1019","updated":"2026-06-01T06:01:00Z"}
