{"icao":"LPMT","metar":"LPMT 061400Z 25008KT 230V290 9999 FEW025 SCT038 20/12 Q1017","updated":"2025-11-06T14:18:59Z"}
