{"icao":"LPMT","metar":"LPMT 212300Z 02003KT CAVOK 11/10 Q1028","updated":"2026-02-21T23:22:22Z"}
