{"icao":"LPLA","metar":"LPLA 111800Z 11007KT 6000 -DZ FEW003 BKN016 19/17 Q1025","updated":"2026-06-11T18:10:19Z"}
