{"icao":"LPPR","metar":"LPPR 110200Z 19010KT 8000 FEW004 SCT008 BKN013 14/13 Q1015","updated":"2026-02-11T02:11:52Z"}
