{"icao":"LPMT","metar":"LPMT 232200Z 22008KT CAVOK 21/18 Q1013","updated":"2026-06-23T22:11:05Z"}
