{"icao":"LPMR","metar":"LPMR 120500Z 15014KT 9999 FEW038 16/13 Q1004","updated":"2025-11-12T05:19:05Z"}
