{"icao":"LPPD","metar":"LPPD 130800Z 02004KT 360V070 9999 FEW020 18/16 Q1016","updated":"2025-10-13T08:26:07Z"}
