{"icao":"LPPT","metar":"LPPT 021530Z 33012KT 300V360 CAVOK 22/09 Q1020","updated":"2026-04-02T15:59:29Z"}
