{"icao":"LPFR","metar":"LPFR 190630Z 35006KT 310V020 CAVOK 06/03 Q1018","updated":"2026-01-19T06:36:46Z"}
