{"icao":"LPMA","metar":"LPMA 090400Z 36011KT 320V030 9999 BKN015 22/16 Q1024","updated":"2025-10-09T04:21:43Z"}
