{"icao":"KORD","metar":"KORD 300551Z 18006KT 1SM R10L/P6000FT -SN BR BKN009 OVC013 M01/M02 A2973 RMK AO2 SLP076 4/008 P0001 60014 T10061017 11006 21017 410061039 56033 $","updated":"2025-11-30T06:28:17Z"}
