{"icao":"LPFR","metar":"LPFR 192200Z 29005KT 250V330 CAVOK 11/08 Q1021","updated":"2026-01-19T22:20:01Z"}
