{"icao":"LPHR","metar":"LPHR 051400Z 13011KT 9999 3000W -SHRA SCT015 BKN030 22/20 Q1022","updated":"2025-10-05T14:13:58Z"}
