{"icao":"LPMR","metar":"LPMR 111000Z 17009KT 140V200 9999 SCT020 FEW022TCU 17/16 Q1013 RESHRA","updated":"2026-05-11T10:37:11Z"}
