{"icao":"KORD","metar":"KORD 312351Z 04005KT 10SM BKN140 BKN220 BKN300 20/08 A2999 RMK AO2 SLP154 T02000078 10239 20200 55004 $","updated":"2026-06-01T00:04:47Z"}
