{"icao":"LPCS","metar":"LPCS 052030Z 32008KT 290V350 CAVOK 16/11 Q1019","updated":"2026-06-06T02:58:25Z"}
