{"icao":"LPLA","metar":"LPLA 112100Z 18005KT 130V240 9999 FEW016 BKN025 15/12 Q1032","updated":"2026-03-11T21:32:10Z"}
