{"icao":"KORD","metar":"KORD 012151Z 06018KT 10SM SCT016 OVC025 04/M01 A3017 RMK AO2 SLP222 T00391006","updated":"2026-04-01T22:36:04Z"}
