{"icao":"LPMA","metar":"LPMA 040100Z 36006KT 9999 SCT015 21/17 Q1026","updated":"2025-10-04T01:15:05Z"}
