{"icao":"LPAZ","metar":"LPAZ 260530Z 09005KT CAVOK 13/13 Q1020","updated":"2026-04-26T05:38:19Z"}
