{"icao":"KORD","metar":"KORD 282151Z 28006KT 10SM FEW035 FEW250 M01/M11 A3036 RMK AO2 SLP290 T10111111 $","updated":"2025-11-28T22:17:33Z"}
