{"icao":"LPMA","metar":"LPMA 131900Z 34005KT 270V050 9999 SCT015 FEW018CB 16/08 Q1020","updated":"2026-01-13T19:19:03Z"}
