{"icao":"LPPR","metar":"LPPR 131530Z 31013G25KT 280V340 9999 -SHRA FEW020CB BKN027 11/09 Q1003","updated":"2026-02-13T15:40:22Z"}
