{"icao":"LPPR","metar":"LPPR 280400Z 11012KT CAVOK 17/08 Q1016","updated":"2025-10-28T04:20:55Z"}
