{"icao":"LPPD","metar":"LPPD 092100Z 27003KT 250V310 9999 FEW020 BKN045 18/14 Q1024","updated":"2025-11-09T21:15:10Z"}
