{"icao":"LPMR","metar":"LPMR 101200Z 20008KT 170V230 6000 FEW010 BKN018 19/15 Q1018","updated":"2025-11-10T12:38:36Z"}
