{"icao":"LPPD","metar":"LPPD 192100Z 02009KT 350V060 9999 FEW025 19/10 Q1026","updated":"2025-09-19T21:14:38Z"}
