{"icao":"LPBJ","metar":"LPBJ 172000Z 01004KT 9999 FEW032 12/11 Q1016","updated":"2025-11-17T20:21:37Z"}
