{"icao":"LPPT","metar":"LPPT 030200Z 31008KT CAVOK 12/10 Q1021","updated":"2026-04-03T02:10:51Z"}
