{"icao":"LPOV","metar":"LPOV 031000Z VRB01KT CAVOK 14/11 Q1023","updated":"2025-11-03T10:21:37Z"}
