{"icao":"KLAX","metar":"KLAX 200653Z 09004KT 10SM FEW030 FEW250 13/09 A3004 RMK AO2 SLP170 T01280089 $","updated":"2025-11-20T07:18:21Z"}
