{"icao":"LPHR","metar":"LPHR 030900Z 21006KT 180V250 9999 FEW003 BKN005 22/22 Q1021","updated":"2025-10-03T09:17:37Z"}
