{"icao":"LPPT","metar":"LPPT 240800Z 30003KT 260V320 9999 VCSH FEW014 FEW025TCU BKN030 07/06 Q1005 RERA","updated":"2026-01-24T08:25:34Z"}
