{"icao":"KJFK","metar":"KJFK 181251Z 31011KT 10SM BKN230 M02/M15 A3044 RMK AO2 SLP307 T10221150","updated":"2026-03-18T13:09:25Z"}
