{"icao":"KLAX","metar":"KLAX 230153Z 26017KT 10SM FEW060 17/11 A3003 RMK AO2 SLP168 T01720106 $","updated":"2026-04-23T02:32:15Z"}
