{"icao":"KLAX","metar":"KLAX 192353Z 25013G19KT 10SM FEW050 FEW250 22/12 A2990 RMK AO2 SLP125 FU FEW050 T02170122 10233 20211 56017","updated":"2026-05-20T00:04:03Z"}
