{"icao":"LPMR","metar":"LPMR 072000Z 33004KT 9999 FEW022 16/13 Q1018","updated":"2025-11-07T20:18:17Z"}
