{"icao":"LPMR","metar":"LPMR 290700Z 14002KT 4000 BR FEW022 BKN042 11/10 Q1019","updated":"2025-11-29T08:23:20Z"}
