{"icao":"LPPS","metar":"LPPS 270900Z 06005KT 010V100 9999 FEW015 18/10 Q1023","updated":"2025-11-27T09:21:25Z"}
