{"icao":"LPPR","metar":"LPPR 021700Z 31010KT 4000 1500W BR BCFG SCT003 16/15 Q1021","updated":"2025-10-02T17:12:58Z"}
