{"icao":"KLAX","metar":"KLAX 082053Z 24009KT 10SM FEW011 FEW025 21/14 A2989 RMK AO2 SLP121 T02110139 58014 $","updated":"2025-10-08T21:16:08Z"}
