{"icao":"LPPD","metar":"LPPD 151400Z 29014KT 260V320 9999 FEW025 18/09 Q1016","updated":"2025-11-15T14:15:42Z"}
