{"icao":"LPPD","metar":"LPPD 250900Z 32003KT 9999 FEW010 15/13 Q1028","updated":"2025-11-25T09:22:37Z"}
