{"icao":"LPAZ","metar":"LPAZ 100700Z 33009KT 9999 FEW012 BKN016 14/12 Q1029","updated":"2026-04-10T07:25:54Z"}
