{"icao":"KJFK","metar":"KJFK 062151Z 17012G18KT 10SM FEW250 21/17 A3023 RMK AO2 SLP236 T02110172 $","updated":"2025-10-06T22:16:04Z"}
