{"icao":"LPAZ","metar":"LPAZ 261700Z 29029KT 8000 VCSH FEW018 BKN049 13/10 Q1006","updated":"2026-01-26T17:28:24Z"}
