{"icao":"LPMR","metar":"LPMR 272300Z 02001KT CAVOK 12/08 Q1019","updated":"2026-03-27T23:30:58Z"}
