{"icao":"LPAR","metar":"LPAR 301700Z VRB02KT 8000 FEW018 11/11 Q1020","updated":"2026-01-03T05:20:43Z"}
