{"icao":"LPAR","metar":"LPAR 231000Z 29004KT 250V330 9999 FEW020 14/13 Q1012","updated":"2025-12-23T12:41:12Z"}
