{"icao":"LPMA","metar":"LPMA 211800Z 01012KT 340V040 9999 SCT015 17/13 Q1025","updated":"2025-11-21T18:25:46Z"}
