{"icao":"LPHR","metar":"LPHR 171400Z 20015KT 2000 -RADZ BR SCT003 BKN005 21/21 Q1011","updated":"2025-10-17T14:17:37Z"}
