{"icao":"LPPT","metar":"LPPT 142000Z 32007KT 290V350 9999 FEW020 11/07 Q1030","updated":"2026-02-14T20:24:49Z"}
