{"icao":"KJFK","metar":"KJFK 021651Z 06012KT 10SM OVC013 07/04 A3047 RMK AO2 SLP316 T00670039","updated":"2026-04-02T17:05:06Z"}
