{"icao":"LPCS","metar":"LPCS 100800Z 02003KT 9999 FEW016 11/11 Q1020","updated":"2025-12-10T08:27:20Z"}
