{"icao":"LPFL","metar":"LPFL 161800Z 17005KT 120V210 8000 -RA SCT004 BKN009 18/17 Q1018","updated":"2025-11-16T18:24:26Z"}
