{"icao":"KJFK","metar":"KJFK 251651Z 04018G23KT 1/4SM R04R/1400V1600FT +SN FZFG VV004 M09/M11 A3034 RMK AO2 PK WND 04027/1630 PRESFR SLP273 SNINCR 1/5 DRSN P0009 T10891106 $","updated":"2026-01-25T17:17:10Z"}
