{"icao":"LPFR","metar":"LPFR 240630Z 09009G19KT CAVOK 22/11 Q1019","updated":"2026-05-24T06:57:47Z"}
