{"icao":"LPPD","metar":"LPPD 132100Z 27007KT 9999 FEW016 BKN030 17/15 Q1027","updated":"2025-12-13T21:16:18Z"}
