{"icao":"LPFR","metar":"LPFR 152300Z 35004KT CAVOK 21/17 Q1016","updated":"2025-10-15T23:15:29Z"}
