{"icao":"KJFK","metar":"KJFK 290651Z 36006KT 10SM FEW250 21/18 A3016 RMK AO2 SLP211 T02110178 $","updated":"2025-09-29T07:18:34Z"}
