{"icao":"LPMR","metar":"LPMR 260100Z 33005KT 9999 BKN006 15/15 Q1017","updated":"2026-04-26T02:37:39Z"}
