{"icao":"LPPT","metar":"LPPT 251400Z 24014KT 220V280 9999 FEW014 BKN018 15/12 Q1015","updated":"2026-01-25T14:17:59Z"}
