{"icao":"LPBJ","metar":"LPBJ 291400Z 27004KT 240V300 9999 FEW015 OVC032 13/10 Q1018","updated":"2025-11-29T14:16:01Z"}
