{"icao":"LPBJ","metar":"LPBJ 071600Z 01002KT 320V070 9999 FEW006 BKN020 09/07 Q1027","updated":"2026-01-07T16:29:30Z"}
