{"icao":"LPBJ","metar":"LPBJ 011300Z VRB05KT 9999 SCT045 29/12 Q1020","updated":"2025-10-01T13:27:56Z"}
