{"icao":"KORD","metar":"KORD 241051Z 18007KT 10SM BKN140 M01/M10 A3036 RMK AO2 SLP290 T10111100","updated":"2026-03-24T11:44:04Z"}
