{"icao":"KORD","metar":"KORD 300151Z 02009KT 10SM FEW020 BKN033 BKN080 07/03 A3002 RMK AO2 SLP169 T00670033","updated":"2026-04-30T02:48:36Z"}
