{"icao":"KORD","metar":"KORD 230651Z 25005KT 10SM FEW250 06/03 A3001 RMK AO2 SLP167 T00560028","updated":"2025-11-23T07:17:06Z"}
