{"icao":"KORD","metar":"KORD 240651Z 00000KT 10SM BKN150 00/M07 A3042 RMK AO2 SLP308 T00001067","updated":"2026-03-24T07:15:54Z"}
