{"icao":"KJFK","metar":"KJFK 251051Z 06007KT 1/2SM R04R/P6000FT -SN SCT000 OVC012 M11/M14 A3062 RMK AO2 SFC VIS 1 1/4 SNB10 SLP368 SN SCT000 P0001 T11111139 $","updated":"2026-01-25T11:16:58Z"}
