{"icao":"LPMA","metar":"LPMA 041930Z 03010G23KT 340V080 9999 SCT014 21/16 Q1022","updated":"2026-06-04T20:03:32Z"}
