{"icao":"LPFL","metar":"LPFL 031100Z 36013KT 330V040 9999 VCSH BKN018 15/11 Q1016","updated":"2026-01-03T11:16:03Z"}
