{"icao":"KORD","metar":"KORD 080551Z 19009KT 10SM CLR 06/03 A2987 RMK AO2 SLP119 T00610028 10067 20039 400670000 53000","updated":"2026-01-08T06:33:40Z"}
