{"icao":"LPOV","metar":"LPOV 251700Z 32004KT 290V350 9999 FEW012 15/12 Q1018","updated":"2026-02-25T17:55:41Z"}
