{"icao":"KLAX","metar":"KLAX 302153Z 26010KT 10SM FEW280 27/01 A3014 RMK AO2 SLP205 T02670006 $","updated":"2026-01-30T22:24:29Z"}
