{"icao":"LPBJ","metar":"LPBJ 211700Z 09004KT 060V120 CAVOK 22/04 Q1027","updated":"2026-02-21T17:24:01Z"}
