{"icao":"LPMR","metar":"LPMR 221100Z 14004KT 110V170 CAVOK 11/03 Q1031","updated":"2025-11-22T11:13:19Z"}
