{"icao":"KLAX","metar":"KLAX 271153Z VRB03KT 10SM FEW015 BKN024 OVC038 14/10 A2980 RMK AO2 SLP087 T01440100 10156 20144 55001 $","updated":"2026-05-27T12:19:19Z"}
