{"icao":"LPAR","metar":"LPAR 081600Z 21015KT 9999 FEW020 SCT030 17/13 Q1019","updated":"2025-12-08T18:29:31Z"}
