{"icao":"LPMR","metar":"LPMR 250900Z 02004KT 9999 FEW020 SCT040 11/06 Q1023","updated":"2025-11-25T09:22:24Z"}
