{"icao":"LPBJ","metar":"LPBJ 050600Z 34004KT 0700 FG BKN003 09/09 Q1015","updated":"2026-03-05T06:51:02Z"}
