{"icao":"LPPR","metar":"LPPR 062030Z 34004KT 310V010 CAVOK 16/13 Q1020","updated":"2026-06-06T21:02:36Z"}
