{"icao":"LPPT","metar":"LPPT 191300Z 36011KT 9999 FEW025 SCT030 13/09 Q1020","updated":"2025-12-19T13:32:08Z"}
