{"icao":"LPPR","metar":"LPPR 052100Z 13007KT 9999 VCSH FEW020 FEW024CB SCT040 12/11 Q1009","updated":"2025-11-05T21:17:03Z"}
