{"icao":"KLAX","metar":"KLAX 230853Z 16004KT 7SM BKN009 OVC250 16/14 A2993 RMK AO2 SLP132 T01560139 58004 $","updated":"2025-12-23T09:24:54Z"}
