{"icao":"KORD","metar":"KORD 241751Z 30006KT 10SM BKN027 BKN110 21/14 A3005 RMK AO2 SLP174 60037 T02110139 10211 20150 50010 $","updated":"2026-05-24T18:04:47Z"}
