{"icao":"LPMA","metar":"LPMA 132200Z 28008KT 250V310 9999 SCT015 19/08 Q1009","updated":"2025-11-13T22:18:03Z"}
