{"icao":"KJFK","metar":"KJFK 110351Z 04006KT 1/2SM R04R/P6000FT -RA BR OVC004 08/07 A2976 RMK AO2 SFC VIS 1 1/2 RAE20B45 SLP076 P0001 T00780072","updated":"2026-01-11T04:46:41Z"}
