{"icao":"KJFK","metar":"KJFK 241951Z 34012KT 10SM FEW050 SCT150 BKN210 BKN250 M08/M23 A3063 RMK AO2 SLP372 T10781233 $","updated":"2026-01-24T20:21:00Z"}
