{"icao":"LPBJ","metar":"LPBJ 082000Z 36002KT CAVOK 13/09 Q1022","updated":"2025-11-08T20:17:42Z"}
