{"icao":"LPMA","metar":"LPMA 262100Z 21014KT 9999 SCT012 22/22 Q1016","updated":"2025-10-26T21:15:22Z"}
