{"icao":"LPPT","metar":"LPPT 031130Z 22009KT 190V260 9999 SCT022 BKN036 18/12 Q1015","updated":"2026-05-03T11:40:42Z"}
