{"icao":"LPPT","metar":"LPPT 120100Z 01003KT CAVOK 20/10 Q1017","updated":"2025-10-12T01:21:47Z"}
