{"icao":"LPBJ","metar":"LPBJ 241900Z 27007KT 5000 -RADZ SCT003 BKN008 20/19 Q1018","updated":"2025-10-24T19:14:25Z"}
