{"icao":"KLAX","metar":"KLAX 011853Z 24008KT 8SM FEW009 BKN060 BKN150 BKN200 17/15 A3007 RMK AO2 SLP182 T01720150 $","updated":"2026-01-01T19:16:44Z"}
