{"icao":"LPAZ","metar":"LPAZ 061930Z 25027KT 7000 SCT022 BKN030 16/13 Q1011","updated":"2026-02-06T19:36:51Z"}
