{"icao":"LPMA","metar":"LPMA 122300Z 35003KT 280V050 9999 FEW015 20/15 Q1018","updated":"2025-10-12T23:15:11Z"}
