{"icao":"LPPS","metar":"LPPS 251100Z 34007KT 300V020 9999 FEW015 23/14 Q1021","updated":"2025-09-25T11:15:20Z"}
