{"icao":"LPMA","metar":"LPMA 311700Z 12003KT 090V150 9999 BKN013 19/16 Q1023","updated":"2026-01-31T17:22:35Z"}
