{"icao":"LPOV","metar":"LPOV 080900Z 16010KT 5000 -RADZ BR FEW005 BKN017 BKN030 08/08 Q1030","updated":"2026-01-08T09:27:19Z"}
