{"icao":"LPOV","metar":"LPOV 011100Z 34012KT CAVOK 25/16 Q1020","updated":"2026-07-01T12:05:37Z"}
