{"icao":"LPPS","metar":"LPPS 131100Z 02011KT 350V080 9999 FEW015 BKN030 24/17 Q1023","updated":"2025-09-13T11:12:21Z"}
