{"icao":"LPAR","metar":"LPAR 211700Z 28008KT 220V330 7000 BKN015 BKN030 15/10 Q1005","updated":"2026-01-22T07:26:09Z"}
