{"icao":"LPCS","metar":"LPCS 122130Z 36013KT CAVOK 25/13 Q1018","updated":"2026-06-13T03:35:15Z"}
