{"icao":"LPPR","metar":"LPPR 192200Z 00000KT CAVOK 08/06 Q1030","updated":"2026-02-19T22:30:06Z"}
