{"icao":"LPLA","metar":"LPLA 151100Z 23020KT 200V260 9999 FEW020 17/11 Q1028","updated":"2026-02-15T11:21:22Z"}
