{"icao":"KJFK","metar":"KJFK 071951Z 19019G27KT 10SM FEW047 FEW180 BKN250 23/19 A3009 RMK AO2 PK WND 19027/1951 SLP188 T02280189","updated":"2025-10-07T20:19:35Z"}
