{"icao":"LPPD","metar":"LPPD 121100Z 26006KT 210V290 9999 FEW025 22/16 Q1019","updated":"2025-10-12T11:12:57Z"}
