{"icao":"KORD","metar":"KORD 240851Z 03007KT 10SM BKN250 M01/M03 A3031 RMK AO2 SLP267 T10061033 51016","updated":"2025-12-24T09:23:21Z"}
