{"icao":"LPPS","metar":"LPPS 270230Z 01009KT 9999 SCT012 21/17 Q1020","updated":"2026-06-27T02:56:47Z"}
