{"icao":"LPMA","metar":"LPMA 292300Z 20020KT 9999 SCT015 18/15 Q1018","updated":"2025-12-29T23:18:36Z"}
