{"icao":"LPMT","metar":"LPMT 221600Z 32008KT CAVOK 30/15 Q1018","updated":"2026-05-22T16:24:06Z"}
