{"icao":"LPPT","metar":"LPPT 220900Z 06005G19KT 010V110 9999 FEW010 12/08 Q1028","updated":"2026-02-22T09:29:00Z"}
