{"icao":"LPAR","metar":"LPAR 021000Z 30007KT 240V340 9999 FEW020 14/10 Q1019","updated":"2025-12-02T10:21:41Z"}
