{"icao":"LPPD","metar":"LPPD 222200Z 22003KT 0150 R30/M0050 FG VV000 17/17 Q1022","updated":"2026-05-22T22:06:02Z"}
