{"icao":"KLAX","metar":"KLAX 210553Z 14005KT 10SM CLR 18/16 A3005 RMK AO2 SLP173 T01780161 10217 20178 52009","updated":"2025-10-21T06:27:52Z"}
