{"icao":"LPMR","metar":"LPMR 051500Z 26017G30KT 230V290 9999 SCT022 FEW024CB SCT032 16/11 Q1007 RETS","updated":"2025-11-05T15:18:52Z"}
