{"icao":"LPPS","metar":"LPPS 140500Z VRB02KT 9999 FEW015 19/16 Q1016","updated":"2025-10-14T05:16:52Z"}
