{"icao":"LPLA","metar":"LPLA 241100Z 23012G22KT 190V270 9999 FEW022 SCT040 16/11 Q1020","updated":"2026-01-24T11:16:59Z"}
