{"icao":"KJFK","metar":"KJFK 131451Z 19007KT 10SM SCT025 SCT090 BKN250 22/16 A3015 RMK AO2 SLP210 T02220161 58010 $","updated":"2025-09-13T15:14:14Z"}
