{"icao":"LPBJ","metar":"LPBJ 221600Z 13004KT 080V160 CAVOK 22/04 Q1026","updated":"2026-02-22T16:28:20Z"}
