{"icao":"KJFK","metar":"KJFK 191051Z 06005KT 1 1/2SM -DZ BR OVC004 09/09 A2978 RMK SFC VIS 2 1/2 DZB28 SLP083 P0000 T00940089 ","updated":"2026-04-19T11:34:05Z"}
