{"icao":"LPPD","metar":"LPPD 172100Z 22010KT 9999 SCT006 BKN009 22/21 Q1014","updated":"2025-10-17T21:15:05Z"}
