{"icao":"LPPR","metar":"LPPR 272300Z 36003KT CAVOK 10/09 Q1020","updated":"2026-03-27T23:30:56Z"}
