{"icao":"LPPR","metar":"LPPR 051830Z 24013KT 210V270 9999 FEW020CB SCT040 13/10 Q0993","updated":"2026-02-05T18:45:12Z"}
