{"icao":"LPPS","metar":"LPPS 182000Z 34010KT 9999 SCT004 SCT010 22/21 Q1017","updated":"2025-10-18T20:17:53Z"}
