{"icao":"KORD","metar":"KORD 091351Z 15007KT 10SM SCT250 M05/M10 A3017 RMK AO2 PRESFR SLP226 T10501100 $","updated":"2026-02-09T14:51:29Z"}
