{"icao":"KLAX","metar":"KLAX 042253Z 27018G25KT 10SM FEW022 SCT090 18/11 A2997 RMK AO2 PK WND 24027/2233 SLP148 T01830111","updated":"2026-05-04T23:01:55Z"}
