{"icao":"LPMT","metar":"LPMT 222100Z 26014KT 9999 SCT012 BKN014 15/15 Q1003","updated":"2026-01-22T21:21:25Z"}
