{"icao":"LPMT","metar":"LPMT 112200Z 35006KT CAVOK 13/11 Q1026","updated":"2026-03-11T22:25:11Z"}
