{"icao":"LPHR","metar":"LPHR 071500Z 23012KT 9999 FEW022 20/14 Q1020","updated":"2025-11-07T15:18:36Z"}
