{"icao":"LPHR","metar":"LPHR 182100Z 01016G29KT 340V050 9999 FEW014 SCT030 BKN060 10/03 Q1012","updated":"2026-03-18T22:31:14Z"}
