{"icao":"LPPD","metar":"LPPD 060600Z 02003KT 350V070 9999 FEW025 BKN045 13/06 Q1032","updated":"2026-01-06T06:33:11Z"}
