{"icao":"LPBJ","metar":"LPBJ 060600Z 11006KT CAVOK 15/12 Q1019","updated":"2025-10-06T06:27:18Z"}
