{"icao":"LPAR","metar":"LPAR 081200Z 33007KT 300V020 9999 BKN028 SCT040 22/12 Q1022","updated":"2025-10-08T12:37:28Z"}
