{"icao":"LPMA","metar":"LPMA 040230Z 01006KT 9999 SCT015 21/18 Q1025","updated":"2025-10-04T02:50:01Z"}
