{"icao":"LPFL","metar":"LPFL 201600Z 32006KT 240V010 9999 FEW020 18/11 Q1009","updated":"2026-05-20T16:24:02Z"}
