{"icao":"LPAZ","metar":"LPAZ 130130Z 34008KT 9999 BKN017 14/10 Q1031","updated":"2026-03-13T01:59:17Z"}
