{"icao":"LPLA","metar":"LPLA 282300Z 20017G27KT 160V220 9999 FEW010 SCT018 19/16 Q1018","updated":"2026-05-28T23:14:16Z"}
