{"icao":"LPMT","metar":"LPMT 292000Z 29007KT 260V320 9999 FEW020 SCT035 15/11 Q1014","updated":"2026-01-29T20:28:29Z"}
