{"icao":"KLAX","metar":"KLAX 021153Z 07003KT 10SM FEW005 11/03 A3003 RMK AO2 SLP167 T01110033 10161 20111 58008 $","updated":"2025-12-02T12:41:41Z"}
