{"icao":"LPMT","metar":"LPMT 041700Z 30005KT 260V320 9999 FEW020 15/10 Q1021","updated":"2025-12-04T17:21:28Z"}
