{"icao":"KLAX","metar":"KLAX 011853Z 24009KT 10SM FEW009 FEW025 23/15 A3003 RMK AO2 SLP168 T02280150 $","updated":"2025-10-01T19:14:17Z"}
