{"icao":"LPBJ","metar":"LPBJ 261900Z 15003KT CAVOK 20/15 Q1019","updated":"2025-10-26T19:13:29Z"}
