{"icao":"LPPD","metar":"LPPD 220800Z 26027KT 8000 SCT004 BKN006 16/15 Q1014","updated":"2026-01-22T08:30:43Z"}
