{"icao":"LPLA","metar":"LPLA 301000Z 13010KT 9000 -DZ FEW004 BKN007 BKN012 15/15 Q1013","updated":"2025-12-30T10:22:08Z"}
