{"icao":"LPCS","metar":"LPCS 230900Z 29006KT 260V010 9999 FEW017 17/10 Q1014","updated":"2026-04-23T09:26:18Z"}
