{"icao":"LPST","metar":"LPST 150700Z VRB01KT CAVOK 11/09 Q1016","updated":"2025-10-15T07:18:28Z"}
