{"icao":"LPPR","metar":"LPPR 180430Z VRB02KT 6000 FEW003 02/01 Q1012","updated":"2026-01-18T04:40:12Z"}
