{"icao":"LPCS","metar":"LPCS 161700Z 34028KT 9999 FEW028 SCT032 14/08 Q1014","updated":"2025-12-16T17:22:19Z"}
