{"icao":"LPLA","metar":"LPLA 022200Z 24004KT 9999 OVC040 14/09 Q1030","updated":"2025-12-02T22:16:50Z"}
