{"icao":"KLAX","metar":"KLAX 090653Z 09004KT 3SM BR BKN010 17/15 A3002 RMK AO2 SLP164 T01720150","updated":"2025-11-09T07:16:42Z"}
