{"icao":"LPMT","metar":"LPMT 300100Z 29005KT 9999 FEW022 14/11 Q1016","updated":"2025-11-30T01:42:23Z"}
