{"icao":"LPPS","metar":"LPPS 192300Z 20024G34KT 9999 SCT014 FEW018TCU 15/10 Q0995","updated":"2026-03-19T23:28:34Z"}
