{"icao":"KJFK","metar":"KJFK 060451Z 04012KT 4SM +RA BR SCT008 BKN014 OVC020 03/03 A3026 RMK AO2 SLP246 P0029 T00330028 400610033","updated":"2026-03-06T05:43:31Z"}
