{"icao":"LPAR","metar":"LPAR 131500Z 33009KT 300V010 9999 SCT020 FEW022CB SCT045 20/12 Q1019","updated":"2026-05-15T03:46:37Z"}
