{"icao":"LPPR","metar":"LPPR 270900Z 09008KT CAVOK 15/08 Q1022","updated":"2025-10-27T09:21:56Z"}
