{"icao":"LPHR","metar":"LPHR 120900Z 32014G26KT 270V350 9999 VCSH SCT016 FEW020CB SCT035 13/09 Q1003","updated":"2025-11-12T09:20:14Z"}
