{"icao":"KORD","metar":"KORD 142123Z 09009KT 2SM -SN BR OVC016 01/M01 A3012 RMK AO2 P0000 T00061011 $","updated":"2026-03-14T21:25:42Z"}
