{"icao":"LPFR","metar":"LPFR 060500Z 10003KT 070V130 CAVOK 06/M01 Q1018","updated":"2026-01-06T05:23:30Z"}
