{"icao":"LPPR","metar":"LPPR 200230Z VRB01KT 8000 BKN005 16/15 Q1019","updated":"2025-09-20T02:52:48Z"}
