{"icao":"LPFR","metar":"LPFR 081800Z 01006KT 310V030 CAVOK 19/09 Q1020","updated":"2025-11-08T18:23:30Z"}
