{"icao":"LPMA","metar":"LPMA 112200Z 35007KT 310V030 8000 -RA SCT015 BKN060 19/14 Q1021","updated":"2025-12-11T22:19:40Z"}
