{"icao":"LPCS","metar":"LPCS 130700Z 00000KT CAVOK 16/12 Q1015","updated":"2025-10-13T07:18:20Z"}
