{"icao":"LPPT","metar":"LPPT 050200Z VRB02KT CAVOK 15/06 Q1021","updated":"2026-04-05T02:25:03Z"}
