{"icao":"LPPD","metar":"LPPD 201930Z 02018G29KT 360V060 9999 SCT013 FEW022TCU 15/10 Q1008 WS R30","updated":"2026-03-20T19:36:10Z"}
