{"icao":"LPAZ","metar":"LPAZ 201200Z 21014KT 9999 FEW006 SCT008 BKN032 18/16 Q1014","updated":"2026-05-20T12:22:37Z"}
