{"icao":"KLAX","metar":"KLAX 021253Z 00000KT 10SM FEW005 11/02 A3003 RMK AO2 SLP166 T01060022 $","updated":"2025-12-02T13:35:57Z"}
