{"icao":"LPCS","metar":"LPCS 191900Z 22007KT 190V250 1000 R17/P2000N -DZ BR VV002 20/20 Q1014","updated":"2025-10-19T19:12:56Z"}
