{"icao":"LPLA","metar":"LPLA 012100Z 29021KT 9999 TS SCT024 SCT026CB 11/05 Q1010","updated":"2026-02-01T21:22:00Z"}
