{"icao":"KORD","metar":"KORD 061807Z 17011G20KT 3SM -RA BR SCT004 BKN080 OVC095 14/13 A2989 RMK AO2 P0001 T01390133","updated":"2026-03-06T18:43:02Z"}
