{"icao":"LPFL","metar":"LPFL 101300Z 18013KT 150V240 9999 SCT012 BKN030 18/15 Q1015","updated":"2026-01-10T13:28:22Z"}
