{"icao":"LPPS","metar":"LPPS 051400Z 36010KT 330V040 9999 FEW015 SCT030 23/15 Q1023","updated":"2025-10-05T14:13:59Z"}
