{"icao":"LPMA","metar":"LPMA 070400Z 21014KT 9999 SCT015 17/10 Q1020","updated":"2026-02-07T04:07:29Z"}
