{"icao":"LPFL","metar":"LPFL 202000Z 15008KT 9999 SCT028 20/13 Q1028","updated":"2025-09-20T22:14:35Z"}
