{"icao":"KORD","metar":"KORD 232251Z 09010KT 10SM FEW250 03/M09 A3042 RMK AO2 SLP310 T00331089","updated":"2026-03-23T23:31:38Z"}
