{"icao":"LPMA","metar":"LPMA 301900Z 36016G26KT 300V030 9999 FEW015 19/13 Q1024","updated":"2026-05-30T19:12:46Z"}
