{"icao":"LPBJ","metar":"LPBJ 211500Z 22008KT 180V260 CAVOK 33/05 Q1020","updated":"2026-05-21T15:21:04Z"}
