{"icao":"KORD","metar":"KORD 201951Z 23008KT 10SM FEW025 BKN250 M08/M19 A3030 RMK AO2 SLP275 T10831189 $","updated":"2026-01-20T20:11:24Z"}
