{"icao":"LPPS","metar":"LPPS 171800Z 30005G15KT 270V340 9999 FEW011 23/20 Q1012","updated":"2025-10-17T18:23:27Z"}
