{"icao":"LPLA","metar":"LPLA 160300Z VRB02KT 9999 SCT018 22/19 Q1023","updated":"2025-09-16T03:27:51Z"}
