{"icao":"LPMT","metar":"LPMT 101300Z 25005KT 200V290 9999 SCT025 20/15 Q1018","updated":"2025-11-10T13:30:19Z"}
