{"icao":"KORD","metar":"KORD 281051Z 27018G32KT 10SM OVC019 11/07 A2976 RMK AO2 PK WND 27032/1048 SLP077 T01060067 $","updated":"2026-04-28T11:04:11Z"}
