{"icao":"LPFR","metar":"LPFR 072200Z 01006KT 320V030 9999 FEW045 14/09 Q1019","updated":"2026-03-07T22:21:38Z"}
