{"icao":"LPFR","metar":"LPFR 231300Z 21005KT 190V260 CAVOK 16/05 Q1026","updated":"2025-11-23T13:22:21Z"}
