{"icao":"KORD","metar":"KORD 090951Z 13005KT 10SM FEW060 SCT240 M04/M09 A3018 RMK AO2 SLP230 T10441089 $","updated":"2026-02-09T10:02:20Z"}
