{"icao":"LPCS","metar":"LPCS 140600Z 34009KT 9999 SCT011 19/18 Q1022","updated":"2025-09-14T06:23:16Z"}
