{"icao":"LPMT","metar":"LPMT 121500Z 23007KT 190V250 9999 FEW018 SCT025 16/12 Q1018","updated":"2026-02-12T15:51:54Z"}
