{"icao":"KORD","metar":"KORD 060651Z 20008KT 10SM CLR 21/13 A3005 RMK AO2 SLP171 T02110128 $","updated":"2025-10-06T07:18:13Z"}
