{"icao":"KORD","metar":"KORD 061951Z 33015G23KT 10SM BKN030 OVC042 03/M03 A2988 RMK AO2 PK WND 33026/1927 SLP124 T00281033 $","updated":"2026-02-06T20:32:50Z"}
