{"icao":"LPOV","metar":"LPOV 142000Z 34014KT 6000 -DZ SCT005 BKN012 13/12 Q1016","updated":"2026-03-14T20:27:08Z"}
