{"icao":"KLAX","metar":"KLAX 061553Z 10007KT 7SM FEW011 SCT140 SCT180 BKN250 16/13 A3014 RMK AO2 SLP205 T01610133 $","updated":"2026-02-06T16:42:15Z"}
