{"icao":"LPMT","metar":"LPMT 211700Z 28011KT 8000 FEW020 SCT030 15/10 Q1005","updated":"2026-01-21T17:53:04Z"}
