{"icao":"LPPR","metar":"LPPR 180400Z 05004KT CAVOK 17/11 Q1015","updated":"2025-10-18T04:20:01Z"}
