{"icao":"LPFL","metar":"LPFL 310900Z 33012G24KT 280V010 9999 FEW025 16/08 Q1011","updated":"2025-10-31T09:19:54Z"}
