{"icao":"KJFK","metar":"KJFK 171851Z 28008KT 1/2SM R04R/4000V5000FT -SN BR BKN006 OVC013 01/00 A3005 RMK AO2 SFC VIS 1 SLP174 SNINCR 1/1 P0009 T00060000 $","updated":"2026-01-17T19:14:14Z"}
