{"icao":"KJFK","metar":"KJFK 120851Z 32021G30KT 10SM BKN050 OVC065 01/M08 A2989 RMK AO2 PK WND 31030/0850 SLP122 T00061078 53013 $","updated":"2026-02-12T09:48:45Z"}
