{"icao":"LPBJ","metar":"LPBJ 211300Z 01012KT CAVOK 14/M00 Q1025","updated":"2025-11-21T13:27:14Z"}
