{"icao":"LPMT","metar":"LPMT 091900Z 26009KT 8000 SCT009 BKN014 15/15 Q1015","updated":"2026-02-09T20:03:25Z"}
