{"icao":"LPAR","metar":"LPAR 241500Z 26011KT 4000 -DZRA BKN008 BKN018 18/16 Q1016","updated":"2025-11-24T15:21:20Z"}
