{"icao":"LPOV","metar":"LPOV 291700Z 34010KT 9999 FEW018 BKN035 17/14 Q1008","updated":"2025-10-29T17:17:26Z"}
