{"icao":"KORD","metar":"KORD 100151Z 17007KT 10SM SCT170 OVC240 03/M05 A2993 RMK AO2 SLP142 T00281050","updated":"2026-02-10T02:23:52Z"}
