{"icao":"LPOV","metar":"LPOV 070500Z 16009KT 9999 FEW016 SCT030 08/07 Q1006","updated":"2026-02-07T05:40:34Z"}
