{"icao":"LPMT","metar":"LPMT 082300Z 03008KT CAVOK 13/09 Q1019","updated":"2026-04-08T23:36:33Z"}
