{"icao":"LPOV","metar":"LPOV 281700Z 35023KT CAVOK 14/09 Q1024","updated":"2026-02-28T17:19:15Z"}
