{"icao":"LPFR","metar":"LPFR 182300Z 03006KT CAVOK 15/10 Q1017","updated":"2025-11-18T23:16:48Z"}
