{"icao":"LPBJ","metar":"LPBJ 101500Z 36010KT 9999 SCT020 15/11 Q1020","updated":"2025-12-10T15:23:24Z"}
