{"icao":"LPPR","metar":"LPPR 071000Z 20010KT CAVOK 18/15 Q1023","updated":"2025-10-07T10:18:26Z"}
