{"icao":"KJFK","metar":"KJFK 021751Z 26010KT 10SM FEW055 BKN075 BKN120 M02/M11 A2976 RMK AO2 SLP076 60000 T10171111 11017 21056 56026 $","updated":"2026-01-02T18:29:15Z"}
