{"icao":"LPPT","metar":"LPPT 031330Z 29009KT 260V350 9999 FEW030 SCT035 16/08 Q1023","updated":"2025-12-03T13:34:52Z"}
