{"icao":"LPMR","metar":"LPMR 050100Z 16019KT 9999 VCTS NSC 21/13 Q1009","updated":"2025-11-05T01:24:16Z"}
