{"icao":"LPAZ","metar":"LPAZ 312030Z 25004KT 0300 R18/0125 FG VV001 19/19 Q1027","updated":"2026-05-31T20:58:17Z"}
