{"icao":"LPHR","metar":"LPHR 161330Z 30010KT 9999 FEW017 BKN035 16/09 Q1035","updated":"2026-01-16T13:37:06Z"}
