{"icao":"LPFR","metar":"LPFR 140500Z 36003KT 9999 FEW032 SCT045 09/09 Q1017","updated":"2026-01-14T05:23:26Z"}
