{"icao":"LPMA","metar":"LPMA 202300Z 36007KT 9999 SCT015 18/13 Q1021","updated":"2026-05-20T23:12:19Z"}
