{"icao":"LPMA","metar":"LPMA 131500Z 02021G31KT 9999 FEW015 26/17 Q1021","updated":"2025-09-13T15:14:12Z"}
