{"icao":"LPFR","metar":"LPFR 270400Z 05003KT 9999 FEW008 19/17 Q1018","updated":"2025-10-27T04:27:59Z"}
