{"icao":"LPPR","metar":"LPPR 260830Z VRB02KT 0700 R17/1400D FG BKN002 14/14 Q1018","updated":"2026-04-26T08:59:08Z"}
