{"icao":"LPPS","metar":"LPPS 160130Z 08014KT 050V110 9999 SCT015 15/12 Q1031","updated":"2026-02-16T02:03:51Z"}
