{"icao":"LPPT","metar":"LPPT 131100Z 28018G31KT 240V310 8000 -SHRA FEW020 FEW025CB SCT030 11/08 Q1007 WS R20","updated":"2026-02-13T11:30:01Z"}
