{"icao":"LPPT","metar":"LPPT 270400Z 05009KT CAVOK 04/02 Q1011","updated":"2025-12-27T04:31:19Z"}
