{"icao":"KJFK","metar":"KJFK 070908Z 01004KT 1/4SM R04R/2000V2400FT FG VV002 03/03 A2965 RMK AO2 TWR VIS 1/2 T00330028 $","updated":"2026-01-07T09:26:54Z"}
