{"icao":"LPAR","metar":"LPAR 151500Z 21013KT 3000 DZRA SCT009 SCT015 BKN035 13/12 Q1015","updated":"2026-01-15T15:24:13Z"}
