{"icao":"LPCS","metar":"LPCS 290600Z 02010KT 9999 FEW005 16/15 Q1016","updated":"2025-09-29T06:28:31Z"}
