{"icao":"LPPR","metar":"LPPR 202130Z 01005KT 350V060 CAVOK 16/12 Q1021","updated":"2026-05-20T21:51:19Z"}
