{"icao":"KLAX","metar":"KLAX 232053Z 26014KT 10SM FEW025 FEW040 SCT110 BKN140 BKN180 23/18 A2983 RMK AO2 SLP100 T02330183 58006 $","updated":"2025-09-23T21:15:15Z"}
