{"icao":"LPBJ","metar":"LPBJ 021108Z 27022KT 9000 -SHRA SCT020CB SCT032 10/06 Q1002 RESHRA","updated":"2026-02-02T11:34:16Z"}
