{"icao":"LPLA","metar":"LPLA 121800Z 27008KT 240V300 9999 FEW030 15/09 Q1032","updated":"2025-12-12T18:30:15Z"}
