{"icao":"LPPD","metar":"LPPD 311430Z 27008KT 0400 R30/0400U FG VV001 19/19 Q1027","updated":"2026-05-31T14:42:55Z"}
