{"icao":"LPOV","metar":"LPOV 110800Z 18002KT 150V210 CAVOK 15/11 Q1021","updated":"2025-10-11T08:20:07Z"}
