{"icao":"LPPR","metar":"LPPR 281200Z 04015KT 010V070 9999 FEW015 SCT035 24/15 Q1013","updated":"2025-09-28T12:32:21Z"}
