{"icao":"LPBJ","metar":"LPBJ 150600Z 30008KT CAVOK 10/09 Q1013","updated":"2026-05-15T06:54:05Z"}
