{"icao":"LPST","metar":"LPST 161700Z 29009KT 9999 FEW012 SCT016 14/11 Q1031","updated":"2026-02-16T19:31:37Z"}
