{"icao":"LPHR","metar":"LPHR 181200Z 28010KT 9999 SCT013 SCT040 20/18 Q1015","updated":"2026-06-18T12:24:07Z"}
