{"icao":"LPOV","metar":"LPOV 131200Z 05006KT CAVOK 17/11 Q1023","updated":"2025-12-13T12:36:22Z"}
