{"icao":"LPPR","metar":"LPPR 212100Z 36002KT CAVOK 08/07 Q1030","updated":"2026-02-21T21:21:25Z"}
