{"icao":"LPPR","metar":"LPPR 041730Z 33009KT 9999 SCT007 13/12 Q1013","updated":"2026-03-04T17:37:07Z"}
