{"icao":"LPOV","metar":"LPOV 240900Z VRB01KT 9999 BKN020 16/15 Q1016","updated":"2025-10-24T09:19:40Z"}
