{"icao":"LPMR","metar":"LPMR 211500Z 26009KT 240V300 9999 SCT008 BKN019 21/20 Q1014","updated":"2025-10-21T15:19:08Z"}
