{"icao":"LPFR","metar":"LPFR 060400Z 34004KT CAVOK 13/11 Q1017","updated":"2025-11-06T04:24:54Z"}
