{"icao":"LPPD","metar":"LPPD 121500Z 32010KT 280V350 9999 VCSH FEW022 FEW025CB 15/09 Q1000","updated":"2025-11-12T15:20:50Z"}
