{"icao":"KJFK","metar":"KJFK 162151Z 24011KT 10SM BKN250 M02/M09 A3018 RMK AO2 SLP219 T10171094 $","updated":"2025-12-16T22:18:46Z"}
