{"icao":"KJFK","metar":"KJFK 290451Z 03012KT 10SM SCT031 BKN037 OVC048 10/06 A3018 RMK AO2 PK WND 02026/0414 SLP219 T01000056 401170061","updated":"2025-10-29T05:18:40Z"}
