{"icao":"KORD","metar":"KORD 090451Z 20009KT 10SM BKN044 OVC150 M06/M11 A3011 RMK AO2 SLP207 T10611111","updated":"2025-12-09T05:19:08Z"}
