{"icao":"KJFK","metar":"KJFK 050551Z 35007KT 10SM FEW250 M04/M14 A3032 RMK AO2 SLP266 T10441144 10006 21044 51019 $","updated":"2025-12-05T06:30:31Z"}
