{"icao":"LPMR","metar":"LPMR 270600Z 00000KT 0200 FG VV001 17/17 Q1019","updated":"2026-06-27T06:30:01Z"}
