{"icao":"LPMA","metar":"LPMA 170100Z 32006KT 250V020 9999 SCT016 19/12 Q1023","updated":"2025-11-17T01:24:58Z"}
