{"icao":"LPPT","metar":"LPPT 220500Z 29005KT 250V320 9999 FEW020 11/08 Q1009","updated":"2026-01-22T05:27:19Z"}
