{"icao":"LPAR","metar":"LPAR 301400Z 27016G28KT 240V320 9999 BKN018 SCT025 17/12 Q1011","updated":"2026-01-30T14:34:42Z"}
