{"icao":"LPFL","metar":"LPFL 101930Z 01012KT 9999 FEW027 BKN049 15/08 Q1026","updated":"2026-05-10T22:45:04Z"}
