{"icao":"LPFL","metar":"LPFL 261230Z 17018KT 9999 FEW021 BKN036 17/12 Q1018","updated":"2026-04-26T13:04:21Z"}
