{"icao":"KJFK","metar":"KJFK 270851Z 30014G20KT 10SM CLR M09/M16 A3008 RMK AO2 SLP186 T10891161 51026 $","updated":"2026-01-27T09:32:20Z"}
