{"icao":"LPAZ","metar":"LPAZ 260430Z 05007KT 020V080 9999 FEW011 BKN022 14/10 Q1027","updated":"2026-03-26T05:04:33Z"}
