{"icao":"LPMR","metar":"LPMR 191000Z 20011KT 170V230 9999 FEW020 SCT035 22/17 Q1015","updated":"2025-10-19T10:16:38Z"}
