{"icao":"LPMR","metar":"LPMR 021400Z 34009KT 300V020 9999 FEW028 19/10 Q1025","updated":"2025-11-02T14:14:40Z"}
