{"icao":"LPMA","metar":"LPMA 080400Z 02012KT 9999 BKN015 22/18 Q1025","updated":"2025-10-08T04:20:27Z"}
