{"icao":"KJFK","metar":"KJFK 200251Z 03003KT 10SM SCT250 04/01 A3025 RMK AO2 SLP242 T00390006 53006 $","updated":"2025-11-20T03:08:28Z"}
