{"icao":"LPBJ","metar":"LPBJ 301700Z 04011KT 010V070 CAVOK 19/03 Q1026","updated":"2026-03-30T17:53:08Z"}
