{"icao":"KORD","metar":"KORD 260251Z 20010KT 6SM -RA BR OVC011 10/08 A2970 RMK AO2 RAB34 SLP058 P0000 60000 T01000083 58016","updated":"2025-11-26T03:13:53Z"}
