{"icao":"LPFR","metar":"LPFR 241100Z 10015KT CAVOK 26/10 Q1020","updated":"2026-05-24T11:15:04Z"}
