{"icao":"LPMR","metar":"LPMR 150300Z 35009KT 9999 FEW025 14/09 Q1014","updated":"2026-05-15T03:46:36Z"}
