{"icao":"LPPT","metar":"LPPT 212200Z 26007KT 230V290 9999 SCT012 BKN030 20/18 Q1017","updated":"2025-10-21T22:15:28Z"}
