{"icao":"LPPT","metar":"LPPT 282230Z 31007KT 280V340 9999 FEW010 BKN016 15/13 Q1009","updated":"2026-04-28T22:57:15Z"}
