{"icao":"LPMA","metar":"LPMA 260400Z 23009KT 210V280 9999 FEW015 FEW016TCU 22/19 Q1014","updated":"2025-10-26T04:20:13Z"}
