{"icao":"LPPT","metar":"LPPT 250930Z 05004G14KT 340V140 CAVOK 16/08 Q1021","updated":"2026-03-25T09:52:23Z"}
