{"icao":"KJFK","metar":"KJFK 200751Z 29015G21KT 10SM CLR 21/09 A2976 RMK AO2 SLP078 T02060094 $","updated":"2026-06-20T08:53:18Z"}
