{"icao":"LPPD","metar":"LPPD 031230Z 35014KT 310V030 9999 VCSH FEW006 BKN014 FEW018TCU 15/13 Q1010","updated":"2026-01-03T12:37:24Z"}
