{"icao":"LPCS","metar":"LPCS 141600Z 34016KT 9999 FEW030 SCT035 13/07 Q1028","updated":"2026-02-14T16:27:58Z"}
