{"icao":"KJFK","metar":"KJFK 200651Z 30019G27KT 10SM SCT050 M01/M11 A2999 RMK AO2 PK WND 30037/0626 PRESRR SLP156 T10061111 $","updated":"2025-12-20T07:17:06Z"}
