{"icao":"LPMT","metar":"LPMT 181600Z 27009KT CAVOK 22/15 Q1015","updated":"2025-10-18T16:19:29Z"}
