{"icao":"LPBJ","metar":"LPBJ 021500Z 35008KT CAVOK 19/07 Q1024","updated":"2025-11-02T15:15:47Z"}
