{"icao":"LPPR","metar":"LPPR 292200Z 00000KT CAVOK 17/14 Q1018","updated":"2025-09-29T22:14:48Z"}
