{"icao":"KJFK","metar":"KJFK 020451Z 04006KT 10SM CLR 13/07 A3032 RMK AO2 SLP266 T01280072 402110128","updated":"2025-10-02T05:16:26Z"}
