{"icao":"KJFK","metar":"KJFK 031151Z 10004KT 10SM FEW040 BKN120 OVC250 09/07 A3020 RMK AO2 SLP226 T00940072 10111 20083 56014 $","updated":"2025-11-03T12:38:54Z"}
