{"icao":"LPPR","metar":"LPPR 102100Z 10005KT CAVOK 20/11 Q1021","updated":"2025-10-10T21:14:26Z"}
