{"icao":"LPPS","metar":"LPPS 050800Z 02016KT 9999 SCT014 15/10 Q1018","updated":"2026-01-05T08:32:01Z"}
