{"icao":"LPLA","metar":"LPLA 012300Z 12009KT 9999 SCT008 BKN012 BKN015 20/18 Q1032","updated":"2026-07-01T23:13:41Z"}
