{"icao":"LPPS","metar":"LPPS 300500Z 29006KT 4000 -RADZ BR SCT005 BKN010 17/17 Q1017","updated":"2025-12-30T05:23:04Z"}
