{"icao":"LPBJ","metar":"LPBJ 240800Z 15009KT CAVOK 12/09 Q1020","updated":"2026-02-24T08:46:05Z"}
