{"icao":"KLAX","metar":"KLAX 191253Z 12004KT 5SM BR FEW002 11/11 A2999 RMK AO2 SLP152 T01110106 $","updated":"2025-12-19T13:32:11Z"}
