{"icao":"LPST","metar":"LPST 251000Z 11003KT 030V150 CAVOK 26/03 Q1018","updated":"2025-09-25T10:18:29Z"}
