{"icao":"LPFR","metar":"LPFR 071000Z 13003KT 100V170 9999 FEW010 19/14 Q1019","updated":"2025-11-07T10:19:58Z"}
