{"icao":"KORD","metar":"KORD 021051Z 29004KT 6SM BR SCT006 M07/M08 A2996 RMK AO2 SLP156 T10721083","updated":"2025-12-02T11:18:41Z"}
