{"icao":"LPHR","metar":"LPHR 122200Z VRB05KT 9999 FEW025 FEW028CB 15/09 Q1006","updated":"2025-11-12T22:17:49Z"}
