{"icao":"LPFL","metar":"LPFL 071230Z 19006KT 140V230 9999 FEW023 23/19 Q1021","updated":"2025-10-07T12:37:13Z"}
