{"icao":"LPFL","metar":"LPFL 301230Z 19005KT 120V270 9999 SCT035 19/12 Q1026","updated":"2025-11-30T12:35:26Z"}
