{"icao":"KJFK","metar":"KJFK 091951Z 30012KT 10SM FEW130 SCT250 M02/M14 A3021 RMK AO2 SLP231 T10171144 $","updated":"2026-02-09T20:03:28Z"}
