{"icao":"LPMT","metar":"LPMT 082000Z 23006KT 190V250 6000 -DZ BKN005 OVC012 13/13 Q1030","updated":"2026-01-08T20:23:51Z"}
