{"icao":"LPHR","metar":"LPHR 011730Z 07014KT 040V100 9999 FEW016 BKN028 17/11 Q1031","updated":"2026-04-01T17:50:54Z"}
