{"icao":"LPPS","metar":"LPPS 241300Z 08007KT 030V110 9999 FEW015 20/13 Q1025","updated":"2025-11-24T13:32:39Z"}
