{"icao":"LPFR","metar":"LPFR 240930Z 08007KT 1200 R28/P2000 BR OVC001 13/12 Q1021","updated":"2026-02-24T09:51:38Z"}
