{"icao":"LPFR","metar":"LPFR 151230Z 10011KT CAVOK 24/18 Q1016","updated":"2025-10-15T12:38:38Z"}
