{"icao":"KORD","metar":"KORD 230651Z 32014G22KT 10SM BKN043 M07/M12 A3037 RMK AO2 SLP293 T10671122 $","updated":"2026-02-23T07:53:37Z"}
