{"icao":"LPPS","metar":"LPPS 011000Z 01011KT 340V040 9999 FEW015 BKN030 16/07 Q1024","updated":"2026-03-01T10:23:40Z"}
