{"icao":"KORD","metar":"KORD 240951Z 18007KT 10SM BKN180 M06/M11 A3011 RMK AO2 SLP205 T10611106","updated":"2026-02-24T10:47:49Z"}
