{"icao":"KJFK","metar":"KJFK 262051Z 18008KT 10SM FEW050 SCT140 BKN190 BKN250 04/M04 A2986 RMK AO2 SLP110 T00391039 58009 $","updated":"2026-02-26T21:31:33Z"}
