{"icao":"LPPR","metar":"LPPR 071800Z 32006KT 280V350 9999 FEW025TCU BKN030 16/13 Q1016","updated":"2025-11-07T18:25:54Z"}
