{"icao":"LPPR","metar":"LPPR 232130Z 13007KT CAVOK 13/08 Q1021","updated":"2026-02-23T21:42:52Z"}
