{"icao":"LPFL","metar":"LPFL 162000Z 21004KT 140V260 9999 FEW017 16/12 Q1018","updated":"2026-02-16T20:29:18Z"}
