{"icao":"KORD","metar":"KORD 100151Z 02003KT 10SM BKN085 OVC100 14/07 A3010 RMK AO2 SLP193 T01440072","updated":"2026-04-10T02:27:59Z"}
