{"icao":"LPBJ","metar":"LPBJ 311000Z 32006KT CAVOK 23/14 Q1020","updated":"2026-05-31T10:14:10Z"}
