{"icao":"LPMA","metar":"LPMA 131200Z 18004KT 110V250 9999 FEW015 SCT030 22/16 Q1021","updated":"2026-06-13T12:23:32Z"}
