{"icao":"LPPT","metar":"LPPT 201100Z 01009KT 340V050 CAVOK 14/06 Q1031","updated":"2026-02-20T11:30:53Z"}
