{"icao":"KLAX","metar":"KLAX 221553Z 23004KT 7SM FEW004 SCT009 BKN140 BKN180 20/17 A2989 RMK AO2 SLP118 SCT V BKN T02000172 $","updated":"2025-09-22T16:22:45Z"}
