{"icao":"LPFR","metar":"LPFR 111000Z 03004KT 340V060 9999 FEW018 13/09 Q1028","updated":"2026-01-11T10:19:48Z"}
