{"icao":"LPLA","metar":"LPLA 102000Z 15003KT 110V190 9999 FEW028 14/09 Q1033","updated":"2026-03-10T20:32:25Z"}
