{"icao":"LPHR","metar":"LPHR 131230Z 26009KT 230V290 9999 FEW035 21/12 Q1016","updated":"2025-10-13T12:37:21Z"}
