{"icao":"KJFK","metar":"KJFK 151651Z 18009KT 10SM FEW060 FEW200 BKN250 24/15 A2990 RMK AO2 SLP126 T02390150","updated":"2026-04-15T17:02:52Z"}
