{"icao":"LPMA","metar":"LPMA 091100Z 25011G23KT 230V300 8000 SHRA BKN013 FEW016CB 20/18 Q1019","updated":"2025-12-09T11:18:35Z"}
