{"icao":"KORD","metar":"KORD 220251Z 36006KT 10SM OVC120 06/01 A2998 RMK AO2 SLP157 T00610011 51007","updated":"2025-11-22T03:03:06Z"}
