{"icao":"LPFL","metar":"LPFL 261230Z VRB05G15KT 9999 FEW014 18/12 Q1030","updated":"2026-02-26T13:03:21Z"}
