{"icao":"LPAZ","metar":"LPAZ 280700Z 11003KT 9999 FEW022 09/08 Q1033","updated":"2026-02-28T07:25:34Z"}
