{"icao":"LPMT","metar":"LPMT 081900Z 18007KT 150V220 3000 -RADZ BR SCT005 BKN007 BKN012 13/13 Q1012","updated":"2026-02-08T19:23:30Z"}
