{"icao":"LPAR","metar":"LPAR 031300Z 16006KT CAVOK 25/15 Q1022","updated":"2025-10-03T13:24:26Z"}
