{"icao":"LPMR","metar":"LPMR 110500Z 16006KT CAVOK 19/11 Q1020","updated":"2025-10-11T05:15:28Z"}
