{"icao":"KLAX","metar":"KLAX 132053Z 26009KT 10SM FEW090 26/M01 A3015 RMK AO2 SLP209 T02611006 58018 $","updated":"2026-01-13T21:20:40Z"}
