{"icao":"KORD","metar":"KORD 171351Z 15005KT 10SM SCT180 OVC250 06/03 A2992 RMK AO2 SLP133 T00560028","updated":"2026-02-17T14:43:18Z"}
