{"icao":"LPHR","metar":"LPHR 071300Z 31011KT 270V330 9999 SCT030 BKN038 15/08 Q1033","updated":"2026-04-07T13:16:40Z"}
