{"icao":"LPPS","metar":"LPPS 232030Z 04011KT 360V070 9999 SCT014 BKN030 18/14 Q1023","updated":"2026-05-23T20:50:22Z"}
