{"icao":"LPPD","metar":"LPPD 191600Z 01006KT 330V050 9999 SCT035 15/08 Q1030","updated":"2026-01-19T16:27:53Z"}
