{"icao":"LPFR","metar":"LPFR 151230Z 18009KT CAVOK 17/10 Q1017","updated":"2026-03-15T12:51:16Z"}
