{"icao":"LPPR","metar":"LPPR 131400Z 29006KT 250V330 9999 FEW026 22/16 Q1022","updated":"2025-09-13T14:12:53Z"}
