{"icao":"KLAX","metar":"KLAX 230453Z 28011G20KT 10SM CLR 18/14 A3002 RMK AO2 SLP165 T01780139","updated":"2025-10-23T05:17:48Z"}
