{"icao":"LPMA","metar":"LPMA 270800Z VRB01KT 9999 FEW015 22/17 Q1021","updated":"2025-09-27T08:20:02Z"}
