{"icao":"LPOV","metar":"LPOV 162300Z 26004KT 220V290 4000 -DZ OVC007 13/13 Q1029","updated":"2026-02-16T23:27:46Z"}
