{"icao":"LPMA","metar":"LPMA 140400Z 29005KT 260V010 9999 FEW015 17/09 Q1010","updated":"2025-11-14T04:21:48Z"}
