{"icao":"LPMT","metar":"LPMT 140900Z 04010KT CAVOK 11/09 Q1019","updated":"2025-12-14T09:18:42Z"}
