{"icao":"KJFK","metar":"KJFK 171651Z 24012KT 3SM BR OVC006 02/01 A3014 RMK AO2 SFC VIS 4 SLP206 T00170006 $","updated":"2026-02-17T16:56:04Z"}
