{"icao":"LPAZ","metar":"LPAZ 030800Z 06011KT 9999 VCSH FEW015 BKN019 16/12 Q1020","updated":"2026-05-03T08:06:52Z"}
