{"icao":"LPPR","metar":"LPPR 211000Z 13004KT 100V160 CAVOK 12/07 Q1031","updated":"2026-02-21T10:24:26Z"}
