{"icao":"KJFK","metar":"KJFK 181851Z 22008KT 10SM SCT140 BKN170 BKN250 17/04 A3003 RMK AO2 SLP168 T01720039 $","updated":"2025-10-18T19:13:04Z"}
