{"icao":"KJFK","metar":"KJFK 301951Z 30017G22KT 10SM FEW055 FEW250 M08/M20 A3013 RMK AO2 SLP203 T10781200 $","updated":"2026-01-30T20:28:36Z"}
