{"icao":"LPAZ","metar":"LPAZ 020300Z 06003KT 340V130 9999 FEW016 BKN020 20/16 Q1029","updated":"2026-07-02T03:27:11Z"}
