{"icao":"KORD","metar":"KORD 042323Z 28016G33KT 10SM BKN030 OVC036 06/00 A2992 RMK AO2 PK WND 26033/2315 T00610000 $","updated":"2026-04-04T23:30:27Z"}
