{"icao":"KJFK","metar":"KJFK 040651Z 25008KT 10SM CLR 16/12 A3022 RMK AO2 SLP232 T01560117","updated":"2025-10-04T07:14:35Z"}
