{"icao":"LPMA","metar":"LPMA 240130Z 27003KT 200V300 9999 SCT014 16/12 Q1021","updated":"2026-02-24T02:00:33Z"}
