{"icao":"LPFR","metar":"LPFR 241430Z 11015KT CAVOK 27/13 Q1020","updated":"2026-05-24T15:02:07Z"}
