{"icao":"LPPR","metar":"LPPR 181430Z 27009KT 240V310 9999 FEW010 BKN025 15/11 Q1015","updated":"2026-02-18T14:41:49Z"}
