{"icao":"LPPT","metar":"LPPT 241500Z VRB04KT CAVOK 27/M01 Q1016","updated":"2025-09-24T15:18:16Z"}
