{"icao":"LPOV","metar":"LPOV 182100Z 17002KT 140V210 CAVOK 18/13 Q1016","updated":"2025-10-18T21:14:06Z"}
