{"icao":"LPAZ","metar":"LPAZ 191030Z 18010KT 6000 -DZ SCT003 SCT010 BKN022 15/14 Q1025","updated":"2026-02-19T10:41:21Z"}
