{"icao":"KORD","metar":"KORD 051851Z 24005KT 10SM BKN250 07/M01 A2979 RMK AO2 SLP094 T00671006","updated":"2026-01-05T19:19:47Z"}
