{"icao":"KJFK","metar":"KJFK 182151Z 15006KT 10SM FEW120 SCT200 BKN250 16/06 A3001 RMK AO2 SLP162 T01560061 $","updated":"2025-10-18T22:15:43Z"}
