{"icao":"KORD","metar":"KORD 240251Z 34005KT 10SM CLR 06/00 A3017 RMK AO2 SLP220 T00610000 51015","updated":"2025-10-24T03:36:27Z"}
