{"icao":"LPPT","metar":"LPPT 021800Z 31005KT CAVOK 17/11 Q1025","updated":"2025-11-02T18:21:48Z"}
