{"icao":"KORD","metar":"KORD 012151Z 18010G17KT 10SM FEW130 FEW250 M02/M12 A3013 RMK AO2 SLP214 T10221117","updated":"2026-02-01T22:23:09Z"}
