{"icao":"LPBJ","metar":"LPBJ 101600Z 25014KT 2500 -DZ BR OVC005 16/15 Q1017","updated":"2026-02-10T16:08:57Z"}
