{"icao":"KORD","metar":"KORD 291051Z 36011KT 10SM OVC060 11/05 A2990 RMK AO2 SLP126 T01110050 $","updated":"2026-04-29T11:27:45Z"}
