{"icao":"KORD","metar":"KORD 040951Z 33008KT 10SM FEW250 M12/M18 A3031 RMK AO2 SLP275 T11171178","updated":"2025-12-04T10:23:39Z"}
