{"icao":"LPCS","metar":"LPCS 291400Z 21005KT 180V270 9999 FEW018 14/09 Q1019","updated":"2025-12-29T14:20:33Z"}
