{"icao":"LPMR","metar":"LPMR 170300Z 13003KT 090V170 8000 FEW020 FEW022CB 12/12 Q1011","updated":"2025-11-17T03:14:56Z"}
