{"icao":"LPBJ","metar":"LPBJ 281700Z 01011KT CAVOK 16/05 Q1022","updated":"2026-02-28T17:19:29Z"}
