{"icao":"LPMR","metar":"LPMR 011600Z 33017KT CAVOK 20/08 Q1022","updated":"2026-04-01T16:53:20Z"}
