{"icao":"LPMA","metar":"LPMA 220900Z 03006KT 340V060 9999 SCT015 16/11 Q1022","updated":"2025-12-22T09:27:38Z"}
