{"icao":"LPPT","metar":"LPPT 291100Z 23010KT 190V290 9999 FEW022 SCT026 18/11 Q1008","updated":"2026-04-29T11:27:08Z"}
