{"icao":"LPPS","metar":"LPPS 041730Z 26015KT 9999 SCT012 18/15 Q1010","updated":"2026-02-04T17:43:44Z"}
