{"icao":"LPLA","metar":"LPLA 192200Z 34014KT 9000 SCT007 BKN016 13/08 Q1019","updated":"2026-04-19T22:33:56Z"}
