{"icao":"KORD","metar":"KORD 071251Z 33007KT 10SM FEW030 M11/M18 A3038 RMK AO2 SLP300 T11111183 $","updated":"2026-02-07T13:42:36Z"}
