{"icao":"LPHR","metar":"LPHR 230700Z 26003KT 220V300 9999 FEW012 SCT030 20/19 Q1013","updated":"2025-10-23T07:18:28Z"}
