{"icao":"LPMR","metar":"LPMR 121100Z 13011KT CAVOK 24/12 Q1017","updated":"2025-10-12T11:12:43Z"}
