{"icao":"LPFR","metar":"LPFR 261230Z 06010KT CAVOK 18/04 Q1023","updated":"2025-11-26T12:40:27Z"}
