{"icao":"LPCS","metar":"LPCS 081230Z 21010KT 9999 FEW028 15/11 Q1016","updated":"2026-02-08T12:47:22Z"}
