{"icao":"LPFL","metar":"LPFL 291800Z VRB02KT 9999 FEW011 18/15 Q1028","updated":"2025-11-29T22:17:10Z"}
