{"icao":"KLAX","metar":"KLAX 280953Z 00000KT 10SM BKN023 OVC029 18/14 A2991 RMK AO2 SLP126 T01780139","updated":"2026-06-28T10:25:50Z"}
