{"icao":"LPMA","metar":"LPMA 261800Z 03010KT 9999 SCT016 SCT030 19/11 Q1022","updated":"2025-11-26T18:23:54Z"}
