{"icao":"KORD","metar":"KORD 190751Z 04012KT 10SM OVC010 06/03 A3012 RMK AO2 SLP205 T00560033 $","updated":"2025-11-19T08:25:26Z"}
