{"icao":"LPMT","metar":"LPMT 130700Z 20011KT 4000 +TSRA BR FEW009 SCT018CB BKN025 16/16 Q1000","updated":"2025-11-13T07:18:10Z"}
