{"icao":"LPPR","metar":"LPPR 281630Z 34009KT CAVOK 23/13 Q1007","updated":"2026-04-28T16:49:43Z"}
