{"icao":"LPPR","metar":"LPPR 052200Z 20013KT 1800 RA BR BKN004 16/15 Q1019","updated":"2025-12-05T22:17:42Z"}
