{"icao":"LPPR","metar":"LPPR 081000Z 30004KT 240V350 8000 FEW007 BKN030 17/16 Q1023","updated":"2025-10-08T10:18:10Z"}
