{"icao":"KLAX","metar":"KLAX 151453Z 04003KT 10SM FEW280 16/01 A3004 RMK AO2 SLP170 T01610006 53005","updated":"2026-01-15T15:24:28Z"}
