{"icao":"KJFK","metar":"KJFK 242151Z 31013KT 10SM R04R/1600VP6000FT FEW055 SCT200 BKN250 M01/M12 A2991 RMK AO2 SLP127 T10111122 $","updated":"2026-02-24T22:32:32Z"}
