{"icao":"KJFK","metar":"KJFK 210151Z 18009KT 10SM -RA FEW065 BKN080 OVC100 06/04 A2982 RMK AO2 SLP098 P0000 T00610039","updated":"2026-03-21T01:54:52Z"}
