{"icao":"LPFL","metar":"LPFL 241530Z 02005KT 350V060 9999 VCSH SCT014 FEW015CB 22/18 Q1018","updated":"2025-10-24T18:25:15Z"}
