{"icao":"KJFK","metar":"KJFK 061051Z 02014KT 6SM -DZ BR BKN008 OVC020 03/02 A3029 RMK AO2 DZB31 SLP258 P0000 T00280017","updated":"2026-03-06T11:27:50Z"}
