{"icao":"LPPR","metar":"LPPR 111230Z 19012KT 9000 -DZRA SCT003 BKN005 13/12 Q1025","updated":"2026-01-11T12:38:44Z"}
