{"icao":"LPLA","metar":"LPLA 090100Z 17017KT 8000 -RA FEW009 BKN018 23/21 Q1021 RERA","updated":"2025-10-09T01:18:28Z"}
