{"icao":"KLAX","metar":"KLAX 030653Z 23003KT 10SM FEW008 SCT070 BKN180 16/14 A3006 RMK AO2 SLP177 T01610144","updated":"2026-01-03T07:18:17Z"}
