{"icao":"KORD","metar":"KORD 221451Z 32015G23KT 8SM -SN SCT022 BKN031 BKN250 M06/M11 A3023 RMK AO2 SLP247 P0000 60000 T10561106 51017 $","updated":"2026-02-22T15:23:36Z"}
