{"icao":"LPFL","metar":"LPFL 171600Z 30006KT 210V010 9999 VCSH FEW018 FEW019TCU SCT049 24/16 Q1013","updated":"2025-09-17T16:22:02Z"}
