{"icao":"LPPT","metar":"LPPT 211000Z 23011KT 1200 R20/1500N -RADZ BR FEW002 BKN004 15/15 Q1007 RERA","updated":"2026-01-21T10:27:27Z"}
