{"icao":"KLAX","metar":"KLAX 091453Z 14004KT 5SM HZ OVC011 17/14 A2994 RMK AO2 SLP138 T01670139 53007","updated":"2026-05-09T15:51:01Z"}
