{"icao":"KORD","metar":"KORD 201851Z 14003KT 10SM FEW035 SCT085 BKN130 BKN250 24/18 A3005 RMK AO2 RAE50 SLP171 P0000 T02440178","updated":"2025-09-20T19:11:24Z"}
