{"icao":"LPLA","metar":"LPLA 231200Z 34015KT 9999 SCT022 BKN030 21/15 Q1024","updated":"2025-09-23T12:36:11Z"}
