{"icao":"LPHR","metar":"LPHR 201500Z 08009KT 050V120 9999 FEW025 19/11 Q1030","updated":"2025-11-20T15:20:01Z"}
