{"icao":"LPLA","metar":"LPLA 151200Z 31017KT 9999 FEW025 SCT040 15/08 Q1028","updated":"2026-01-15T12:43:32Z"}
