{"icao":"LPFR","metar":"LPFR 041630Z 24024KT 3800 -RA BR BKN007 SCT012 16/15 Q1002","updated":"2026-02-04T16:45:22Z"}
