{"icao":"LPBJ","metar":"LPBJ 201113Z 12012G22KT 9999 OVC015 14/12 Q1008","updated":"2026-03-20T11:30:34Z"}
