{"icao":"LPPD","metar":"LPPD 201900Z 05005KT 020V100 9999 FEW025 BKN040 17/10 Q1030","updated":"2025-11-20T19:15:19Z"}
