{"icao":"LPLA","metar":"LPLA 051000Z 00000KT 9999 FEW020 SCT035 11/09 Q1030","updated":"2026-01-05T10:23:41Z"}
