{"icao":"LPBJ","metar":"LPBJ 282000Z 31013KT CAVOK 26/14 Q1020","updated":"2026-06-28T20:11:44Z"}
