{"icao":"LPPR","metar":"LPPR 230430Z VRB03KT CAVOK 19/14 Q1020","updated":"2026-05-23T04:39:08Z"}
