{"icao":"LPFL","metar":"LPFL 300800Z 31007KT 260V350 9999 FEW022 14/09 Q1007","updated":"2026-04-30T08:27:59Z"}
