{"icao":"KJFK","metar":"KJFK 110451Z 24010KT 10SM FEW022 FEW050 BKN200 04/02 A2941 RMK AO2 SLP959 T00440022 400780000","updated":"2025-12-11T05:21:39Z"}
