{"icao":"LPFL","metar":"LPFL 281200Z 17009KT 140V200 9999 BKN040 20/12 Q1029","updated":"2026-06-28T12:14:54Z"}
