{"icao":"LPPD","metar":"LPPD 191700Z 35010KT 320V020 9999 FEW018 BKN030 17/12 Q1014","updated":"2026-04-19T17:34:05Z"}
