{"icao":"LPMR","metar":"LPMR 172300Z 20002KT CAVOK 14/13 Q1016","updated":"2025-10-17T23:15:19Z"}
