{"icao":"LPPT","metar":"LPPT 020000Z 32012KT 9999 BKN010 18/15 Q1020","updated":"2026-06-02T00:12:01Z"}
