{"icao":"LPPD","metar":"LPPD 171400Z 22008KT 9999 SCT016 22/18 Q1013","updated":"2025-10-17T14:17:24Z"}
