{"icao":"LPST","metar":"LPST 090900Z 32006KT 9999 FEW004 SCT012 12/11 Q1029","updated":"2026-01-09T09:26:52Z"}
