{"icao":"KLAX","metar":"KLAX 011618Z 26010KT 5SM BR SCT004 BKN027 OVC055 16/15 A3002 RMK AO2 RAE10 VIS S-SW 2 1/2 P0004 T01610150 $","updated":"2026-01-01T16:25:41Z"}
