{"icao":"KLAX","metar":"KLAX 260453Z 14009KT 10SM FEW040 BKN047 BKN060 17/14 A3009 RMK AO2 SLP190 T01720144 $","updated":"2025-12-26T05:21:07Z"}
