{"icao":"LPPD","metar":"LPPD 260800Z 04018G31KT 010V070 9999 FEW018 FEW020TCU 18/12 Q1019","updated":"2025-10-26T08:20:51Z"}
