{"icao":"LPMT","metar":"LPMT 091100Z 22012KT 9999 SCT027 18/11 Q1004","updated":"2026-05-09T11:50:44Z"}
