{"icao":"LPPT","metar":"LPPT 122100Z 15011KT 9999 FEW006 BKN034 15/15 Q1006","updated":"2025-11-12T21:17:09Z"}
