{"icao":"KORD","metar":"KORD 150951Z 20011G20KT 10SM BKN085 OVC200 M14/M22 A3037 RMK AO2 SLP301 T11441217","updated":"2025-12-15T10:24:40Z"}
