{"icao":"KJFK","metar":"KJFK 270751Z 20006KT 10SM FEW250 07/04 A3020 RMK SLP226 T00670039 $ ","updated":"2026-04-27T08:22:58Z"}
