{"icao":"LPLA","metar":"LPLA 190900Z 28003KT 3000 -RADZ BR FEW002 BKN005 BKN012 22/21 Q1016 RERADZ","updated":"2025-10-19T09:16:15Z"}
