{"icao":"KLAX","metar":"KLAX 170853Z VRB04KT 10SM FEW010 SCT019 BKN040 OVC200 12/09 A2994 RMK AO2 RAE21 SLP137 OCNL LTGIC DSNT SE CB DSNT E-SE P0005 60040 T01170089 50012 $","updated":"2026-02-17T09:46:55Z"}
