{"icao":"LPBJ","metar":"LPBJ 040100Z 04003KT CAVOK 14/07 Q1022","updated":"2026-04-04T02:03:38Z"}
