{"icao":"LPPR","metar":"LPPR 031000Z 09009KT 050V130 9999 FEW048 15/09 Q1001","updated":"2026-01-03T10:19:28Z"}
