{"icao":"LPOV","metar":"LPOV 270200Z VRB02KT 6000 FEW002 12/12 Q1018","updated":"2025-09-27T02:52:38Z"}
