{"icao":"LPCS","metar":"LPCS 051900Z 01015KT CAVOK 19/14 Q1018","updated":"2025-10-05T19:12:33Z"}
