{"icao":"LPFL","metar":"LPFL 111530Z 20016KT 160V250 9999 SCT019 17/11 Q1012","updated":"2026-02-11T15:59:55Z"}
