{"icao":"LPPT","metar":"LPPT 010300Z VRB02KT CAVOK 19/12 Q1019","updated":"2025-10-01T03:09:45Z"}
