{"icao":"LPMA","metar":"LPMA 251930Z 36008KT 300V040 9999 FEW016 18/11 Q1018","updated":"2026-04-25T19:42:35Z"}
