{"icao":"LPPR","metar":"LPPR 021000Z 29004KT CAVOK 20/14 Q1022","updated":"2025-10-02T10:17:14Z"}
