{"icao":"KORD","metar":"KORD 191351Z 24007KT 10SM BKN090 BKN250 07/M03 A3009 RMK AO2 SLP194 T00671033 $","updated":"2026-04-19T14:02:46Z"}
