{"icao":"LPFR","metar":"LPFR 031800Z 25003KT CAVOK 22/18 Q1020","updated":"2025-10-03T18:24:17Z"}
