{"icao":"LPPT","metar":"LPPT 160330Z 25006KT 9999 VCSH FEW015 FEW020TCU SCT030 10/09 Q1016","updated":"2026-01-16T03:38:20Z"}
