{"icao":"LPFR","metar":"LPFR 261100Z 28007KT CAVOK 11/06 Q1015","updated":"2025-12-26T11:17:35Z"}
