{"icao":"LPAZ","metar":"LPAZ 120330Z 26026KT 9999 FEW025 16/12 Q1015","updated":"2026-01-12T03:48:19Z"}
