{"icao":"LPFR","metar":"LPFR 121030Z 10010KT CAVOK 18/11 Q1025","updated":"2026-03-12T10:37:10Z"}
