{"icao":"LPBJ","metar":"LPBJ 261600Z 07009KT 040V100 CAVOK 28/09 Q1013","updated":"2026-04-26T16:40:49Z"}
