{"icao":"LPFR","metar":"LPFR 050200Z 03005KT CAVOK 16/04 Q1021","updated":"2026-04-05T02:25:04Z"}
