{"icao":"LPLA","metar":"LPLA 300500Z 13003KT 100V200 9999 FEW025 14/07 Q1017","updated":"2026-01-30T05:44:26Z"}
