{"icao":"LPHR","metar":"LPHR 202200Z 10010KT 9999 FEW020 BKN040 17/10 Q1031","updated":"2025-11-20T22:17:17Z"}
