{"icao":"LPST","metar":"LPST 271700Z 31007KT 9999 SCT030 22/16 Q1018","updated":"2025-10-27T20:17:46Z"}
