{"icao":"KLAX","metar":"KLAX 080853Z 23004KT 10SM FEW008 BKN010 16/14 A3000 RMK AO2 SLP157 T01610139 58002","updated":"2026-05-08T09:18:53Z"}
