{"icao":"LPAZ","metar":"LPAZ 021730Z 29023KT 9999 SCT028 16/09 Q1015","updated":"2026-02-02T17:37:03Z"}
