{"icao":"LPOV","metar":"LPOV 101700Z 13005KT 100V170 9999 BKN032 16/14 Q1008","updated":"2026-05-10T17:51:06Z"}
