{"icao":"LPBJ","metar":"LPBJ 031500Z 13010KT 9999 -RA SCT015 BKN040 14/13 Q0998","updated":"2026-01-03T15:18:25Z"}
