{"icao":"LPLA","metar":"LPLA 260400Z 21007KT 9999 FEW015 BKN030 17/13 Q1029","updated":"2026-02-26T04:22:49Z"}
