{"icao":"LPPD","metar":"LPPD 062300Z 26029KT 8000 FEW014 FEW025CB BKN030 16/14 Q1009","updated":"2026-02-06T23:24:21Z"}
