{"icao":"LPAZ","metar":"LPAZ 241300Z 04009KT 010V070 9999 FEW022 BKN036 15/11 Q1023","updated":"2025-12-24T13:31:01Z"}
