{"icao":"LPMA","metar":"LPMA 201400Z 21008KT 160V220 9999 FEW012 BKN016 24/21 Q1018","updated":"2025-10-20T14:17:55Z"}
