{"icao":"LPPR","metar":"LPPR 181000Z 35006KT CAVOK 12/09 Q1021","updated":"2025-11-18T10:21:36Z"}
