{"icao":"KORD","metar":"KORD 160151Z 17012KT 10SM FEW250 21/12 A2982 RMK AO2 SLP094 T02060122","updated":"2026-05-16T02:47:56Z"}
