{"icao":"KLAX","metar":"KLAX 100853Z 12003KT 10SM CLR 15/06 A3001 RMK AO2 SLP158 T01500056 58002 $","updated":"2025-12-10T09:23:52Z"}
