{"icao":"LPPR","metar":"LPPR 072300Z 34004KT 9999 FEW025 14/11 Q1018","updated":"2025-11-07T23:15:48Z"}
