{"icao":"LPST","metar":"LPST 251300Z 29008KT 260V320 CAVOK 27/03 Q1018","updated":"2025-09-25T13:28:00Z"}
