{"icao":"LPPR","metar":"LPPR 071300Z 30008KT 260V320 9000 -RADZ BKN007 BKN012 18/17 Q1013","updated":"2025-11-07T13:26:48Z"}
