{"icao":"LPBJ","metar":"LPBJ 161400Z 31009KT 280V350 9999 FEW045 23/05 Q1016","updated":"2026-05-16T14:55:00Z"}
