{"icao":"LPPT","metar":"LPPT 141500Z 32012KT 290V360 CAVOK 27/17 Q1021","updated":"2025-09-14T15:14:27Z"}
