{"icao":"LPLA","metar":"LPLA 222034Z 30010KT 9999 -DZ SCT007 BKN012 21/19 Q1026","updated":"2026-06-22T20:45:40Z"}
