{"icao":"LPMT","metar":"LPMT 121200Z 35007KT CAVOK 23/14 Q1016","updated":"2025-10-12T14:14:13Z"}
