{"icao":"LPFR","metar":"LPFR 022300Z 00000KT CAVOK 17/10 Q1023","updated":"2025-11-02T23:15:31Z"}
