{"icao":"KLAX","metar":"KLAX 250853Z 08005KT 4SM BR OVC006 17/15 A2999 RMK AO2 SLP154 VIS W 2 T01670150 56003","updated":"2025-10-25T09:16:09Z"}
