{"icao":"LPAR","metar":"LPAR 171500Z 08005KT 340V150 CAVOK 27/14 Q1016","updated":"2026-04-17T15:59:27Z"}
