{"icao":"LPPD","metar":"LPPD 190500Z 35010KT 320V020 8000 -SHRA SCT007 BKN011 16/15 Q1022","updated":"2025-11-19T05:18:51Z"}
