{"icao":"KORD","metar":"KORD 011251Z 15003KT 10SM FEW025 M13/M16 A3030 RMK AO2 SLP275 I1000 T11331156","updated":"2026-02-01T13:42:17Z"}
