{"icao":"KLAX","metar":"KLAX 280453Z 25005KT 10SM FEW210 15/11 A3025 RMK AO2 SLP243 T01500106","updated":"2026-01-28T05:27:35Z"}
