{"icao":"KJFK","metar":"KJFK 191851Z 24019G24KT 10SM SCT039 SCT090 00/M06 A2994 RMK AO2 PK WND 24026/1820 SLP137 T00001061 $","updated":"2026-01-19T19:18:43Z"}
