{"icao":"LPPS","metar":"LPPS 030700Z 05004KT 9999 FEW012 13/11 Q1022","updated":"2026-04-03T07:06:28Z"}
