{"icao":"LPMR","metar":"LPMR 222000Z 36004KT 9999 SCT008 SCT013 20/19 Q1016","updated":"2026-06-22T20:45:38Z"}
