{"icao":"LPOV","metar":"LPOV 172100Z 36003KT CAVOK 15/14 Q1016","updated":"2025-10-17T21:15:05Z"}
