{"icao":"KORD","metar":"KORD 301251Z 21008KT 10SM OVC080 13/05 A2993 RMK AO2 SLP135 T01330050","updated":"2026-03-30T13:17:05Z"}
