{"icao":"KLAX","metar":"KLAX 051153Z 09005KT 10SM FEW250 15/07 A2997 RMK AO2 SLP147 T01500067 10194 20144 58008 $","updated":"2026-04-05T12:55:33Z"}
