{"icao":"KLAX","metar":"KLAX 202053Z 23011KT 10SM FEW045 24/13 A2988 RMK AO2 SLP115 FU FEW045 T02390133 58011","updated":"2026-05-20T21:51:37Z"}
