{"icao":"KORD","metar":"KORD 020351Z 12010KT 10SM BKN250 21/11 A3020 RMK AO2 SLP223 T02060111","updated":"2025-10-02T04:19:59Z"}
