{"icao":"LPPT","metar":"LPPT 110900Z 05012G24KT 330V090 CAVOK 20/12 Q1021","updated":"2025-10-11T09:15:36Z"}
