{"icao":"LPGR","metar":"LPGR 281600Z VRB04KT 9999 FEW020 23/12 Q1028","updated":"2026-06-28T16:08:35Z"}
