{"icao":"LPMR","metar":"LPMR 271500Z 25011G23KT 220V290 9999 BKN015 FEW018TCU 12/06 Q1001","updated":"2026-01-27T15:29:36Z"}
