{"icao":"LPMR","metar":"LPMR 031100Z 35005KT 290V070 9999 SCT015 19/14 Q1024","updated":"2025-10-03T11:13:56Z"}
