{"icao":"LPLA","metar":"LPLA 272000Z 36008KT 330V030 9999 SCT018 BKN032 18/14 Q1026","updated":"2026-06-27T21:01:42Z"}
