{"icao":"LPLA","metar":"LPLA 211600Z 20015KT 7000 -DZ SCT008 SCT012 19/16 Q1021","updated":"2026-02-21T16:27:43Z"}
