{"icao":"LPMR","metar":"LPMR 031600Z 13009KT 100V160 9999 SCT020 SCT035 16/12 Q0999","updated":"2026-01-03T16:23:34Z"}
