{"icao":"LPPS","metar":"LPPS 200130Z 08011KT 050V110 9999 FEW015 BKN030 16/10 Q1028","updated":"2026-02-20T01:59:53Z"}
