{"icao":"KORD","metar":"KORD 011151Z 34006KT 10SM FEW018 SCT038 SCT070 SCT150 05/03 A2999 RMK AO2 SLP159 60003 70021 T00500028 10056 20039 53009 $","updated":"2026-05-01T11:58:29Z"}
