{"icao":"KJFK","metar":"KJFK 141251Z 25012KT 10SM FEW035 SCT250 06/01 A2990 RMK AO2 SLP125 T00610011","updated":"2026-03-14T13:44:35Z"}
