{"icao":"LPST","metar":"LPST 221600Z 32011KT CAVOK 24/14 Q1020","updated":"2026-05-23T19:23:15Z"}
