{"icao":"LPMA","metar":"LPMA 061230Z 08005KT 360V160 9999 BKN016 22/13 Q1021","updated":"2025-11-06T12:38:22Z"}
