{"icao":"LPBJ","metar":"LPBJ 040400Z 04008KT CAVOK 12/08 Q1011","updated":"2026-03-04T04:10:17Z"}
