{"icao":"LPMR","metar":"LPMR 131300Z 15004KT 120V180 9999 FEW018 SCT040 14/11 Q1009","updated":"2026-01-13T13:39:56Z"}
