{"icao":"KORD","metar":"KORD 051051Z 00000KT 1/4SM R10L/P6000FT FG VV003 04/04 A2996 RMK AO2 SLP152 T00390039 $","updated":"2026-03-05T11:32:32Z"}
