{"icao":"LPPR","metar":"LPPR 200600Z 01005KT CAVOK 07/04 Q1020","updated":"2025-11-20T06:27:26Z"}
