{"icao":"LPLA","metar":"LPLA 200100Z 02003KT 320V070 CAVOK 19/08 Q1028","updated":"2025-09-20T01:15:42Z"}
