{"icao":"KJFK","metar":"KJFK 062051Z 19013KT 10SM BKN080 BKN090 10/M01 A3001 RMK AO2 WSHFT 2020 SLP161 T01001006 55008","updated":"2026-04-06T21:36:35Z"}
