{"icao":"LPPT","metar":"LPPT 051530Z 24020G35KT 210V280 8000 -SHRA SCT020 BKN028 15/12 Q0998 WS R20","updated":"2026-02-05T15:39:05Z"}
