{"icao":"LPHR","metar":"LPHR 071330Z 21006KT 190V250 9999 SCT004 BKN007 BKN011 15/14 Q1013","updated":"2026-02-07T13:42:34Z"}
