{"icao":"KJFK","metar":"KJFK 242151Z 14010KT 10SM FEW070 SCT150 BKN250 12/05 A2984 RMK SLP106 T01170050 $ ","updated":"2026-04-24T22:37:27Z"}
