{"icao":"LPFL","metar":"LPFL 231700Z 18008KT 150V210 9999 FEW010 SCT015 19/16 Q1024","updated":"2025-11-23T17:14:48Z"}
