{"icao":"LPAZ","metar":"LPAZ 071230Z 17008KT 140V200 9999 BKN036 16/09 Q1035","updated":"2026-01-07T12:42:47Z"}
