{"icao":"KORD","metar":"KORD 112151Z 27012KT 10SM BKN025 BKN250 M01/M07 A3036 RMK AO2 SLP289 T10061067 $","updated":"2026-01-11T22:18:39Z"}
