{"icao":"LPMR","metar":"LPMR 230100Z 25008KT 220V280 9999 SCT007 SCT015 BKN025 21/20 Q1019","updated":"2025-10-23T01:21:10Z"}
