{"icao":"LPST","metar":"LPST 281400Z 17014KT 5000 -TSRA BR SCT008 BKN012 FEW015CB 17/16 Q1011","updated":"2025-10-28T14:18:45Z"}
