{"icao":"LPFR","metar":"LPFR 230430Z 08009KT CAVOK 24/06 Q1019","updated":"2026-05-23T04:39:07Z"}
