{"icao":"LPFR","metar":"LPFR 271830Z 26017KT 9999 FEW020 14/10 Q1009","updated":"2026-01-27T18:37:25Z"}
