{"icao":"LPCS","metar":"LPCS 251530Z 34011KT 310V020 9999 FEW007 22/14 Q1015","updated":"2026-04-25T15:38:03Z"}
