{"icao":"KLAX","metar":"KLAX 151253Z 07003KT 10SM FEW015 FEW025 BKN200 BKN250 12/10 A3001 RMK AO2 SLP162 T01170100 $","updated":"2026-02-15T13:43:35Z"}
