{"icao":"LPHR","metar":"LPHR 262100Z 02005KT 350V060 9999 FEW012 15/11 Q1032","updated":"2026-02-27T01:58:18Z"}
