{"icao":"LPOV","metar":"LPOV 191800Z 26006KT 230V310 9999 SCT014 SCT026 19/16 Q1023","updated":"2026-05-19T18:58:47Z"}
