{"icao":"LPBJ","metar":"LPBJ 151300Z 33015KT 300V010 9999 FEW030 20/07 Q1013","updated":"2026-05-15T14:03:56Z"}
