{"icao":"LPPT","metar":"LPPT 200400Z 32004KT 290V350 CAVOK 08/06 Q1029","updated":"2026-02-20T04:21:07Z"}
