{"icao":"LPPR","metar":"LPPR 171300Z 36010KT 330V030 9999 SCT025 17/12 Q1015","updated":"2025-11-17T13:30:46Z"}
