{"icao":"LPBJ","metar":"LPBJ 251100Z 25004KT 160V280 9999 FEW015 17/12 Q1017","updated":"2026-02-25T11:39:18Z"}
