{"icao":"LPCS","metar":"LPCS 040900Z 31006KT 280V340 9999 FEW016 SCT030 15/12 Q1023","updated":"2025-12-04T09:23:09Z"}
