{"icao":"LPPR","metar":"LPPR 150900Z 21005KT 9999 FEW012 BKN045 12/11 Q1028","updated":"2026-02-15T09:29:52Z"}
