{"icao":"LPMT","metar":"LPMT 262300Z 24004KT CAVOK 22/14 Q1019","updated":"2026-05-26T23:08:47Z"}
