{"icao":"KORD","metar":"KORD 230551Z 24006KT 10SM FEW250 06/03 A3000 RMK AO2 SLP163 T00610028 10089 20061 400890000 53008","updated":"2025-11-23T06:26:40Z"}
