{"icao":"LPFR","metar":"LPFR 171800Z 27006KT CAVOK 25/20 Q1018","updated":"2025-09-17T18:24:23Z"}
