{"icao":"KJFK","metar":"KJFK 182151Z 24026G32KT 10SM FEW065 FEW090 BKN250 31/17 A2949 RMK AO2 PK WND 26037/2102 SLP984 T03060167","updated":"2026-06-18T22:07:27Z"}
