{"icao":"LPLA","metar":"LPLA 052200Z 29019KT 9999 FEW017 FEW022CB 10/06 Q1009","updated":"2026-02-05T22:25:12Z"}
