{"icao":"LPPT","metar":"LPPT 062000Z 23005KT CAVOK 16/11 Q1018","updated":"2025-11-06T20:20:35Z"}
