{"icao":"LPMA","metar":"LPMA 100430Z 25003KT 200V290 9999 FEW015 15/12 Q1023","updated":"2026-02-10T05:02:31Z"}
