{"icao":"LPMR","metar":"LPMR 192100Z 00000KT CAVOK 09/07 Q1019","updated":"2025-11-19T21:14:18Z"}
