{"icao":"LPBJ","metar":"LPBJ 252300Z 21003KT 120V260 CAVOK 16/05 Q1018","updated":"2025-09-25T23:15:42Z"}
