{"icao":"KORD","metar":"KORD 020051Z 14006KT 1 1/4SM -SN BR BKN009 BKN020 OVC030 M03/M04 A3009 RMK AO2 SLP200 P0001 T10331044","updated":"2025-12-02T01:26:17Z"}
