{"icao":"LPLA","metar":"LPLA 251000Z 15013KT 9999 SCT025 21/15 Q1015","updated":"2025-09-25T10:19:05Z"}
