{"icao":"LPPS","metar":"LPPS 282300Z 03010KT 350V060 9999 SCT014 BKN030 14/09 Q1026","updated":"2026-02-28T23:20:46Z"}
