{"icao":"LPPS","metar":"LPPS 281330Z 02013KT 350V080 9999 FEW015 BKN030 16/09 Q1028","updated":"2026-02-28T13:35:24Z"}
