{"icao":"KJFK","metar":"KJFK 090451Z 12003KT 10SM FEW250 02/01 A3030 RMK AO2 SLP260 T00220006 401110022 $","updated":"2026-01-09T05:24:20Z"}
