{"icao":"LPFR","metar":"LPFR 051130Z 36006KT 300V070 9999 FEW030 21/05 Q1016","updated":"2026-05-05T12:00:04Z"}
