{"icao":"KJFK","metar":"KJFK 060651Z 25003KT 10SM OVC060 02/M01 A2999 RMK AO2 SLP156 T00221006 $","updated":"2026-01-06T07:24:47Z"}
