{"icao":"LPLA","metar":"LPLA 101600Z 20018KT 8000 -DZ SCT009 SCT022 19/16 Q1007","updated":"2026-02-10T16:09:01Z"}
