{"icao":"LPMA","metar":"LPMA 031930Z 03006KT 340V070 9999 FEW015 18/12 Q1013","updated":"2026-02-03T19:43:39Z"}
