{"icao":"LPAZ","metar":"LPAZ 191400Z 01020G30KT 9999 SCT025 18/11 Q1021","updated":"2025-11-19T14:18:39Z"}
