{"icao":"LPPD","metar":"LPPD 242330Z 19004KT 0150 R30/0800 -DZ FG VV001 17/17 Q1024","updated":"2026-05-25T00:03:12Z"}
