{"icao":"LPFL","metar":"LPFL 271800Z 36010KT 340V040 9999 FEW024 BKN037 16/07 Q1026","updated":"2025-11-27T18:26:50Z"}
