{"icao":"LPBJ","metar":"LPBJ 151500Z 30011KT 9999 FEW018 BKN025 14/09 Q1031","updated":"2026-02-15T15:24:50Z"}
