{"icao":"KLAX","metar":"KLAX 241604Z VRB05KT 9SM FEW009 OVC015 19/15 A3002 RMK AO2 T01940150 $","updated":"2026-06-24T16:20:25Z"}
