{"icao":"LPOV","metar":"LPOV 242000Z 35005KT 9999 FEW035 20/18 Q1013","updated":"2026-06-24T22:15:18Z"}
