{"icao":"KJFK","metar":"KJFK 221351Z 24013KT 10SM FEW013 SCT110 16/12 A2974 RMK AO2 SLP072 T01560122","updated":"2025-10-22T14:20:06Z"}
