{"icao":"LPOV","metar":"LPOV 282300Z 13004KT 100V170 9999 FEW012 SCT045 16/16 Q1008","updated":"2025-10-28T23:16:35Z"}
