{"icao":"LPPD","metar":"LPPD 061830Z 24024G35KT 8000 SCT011 BKN020 16/14 Q1008","updated":"2026-02-06T18:49:49Z"}
