{"icao":"LPPD","metar":"LPPD 040330Z 29011KT 3500 -DZ BR SCT001 BKN003 18/18 Q1027","updated":"2026-06-04T03:53:16Z"}
