{"icao":"LPMA","metar":"LPMA 222030Z 02018G28KT 350V050 9999 FEW013 20/15 Q1021","updated":"2026-05-22T20:42:08Z"}
