{"icao":"LPMT","metar":"LPMT 140600Z 09003KT CAVOK 13/11 Q1015","updated":"2025-10-14T06:27:19Z"}
