{"icao":"LPLA","metar":"LPLA 291400Z 21014KT 180V240 9999 FEW020 17/11 Q1012","updated":"2026-01-29T14:49:58Z"}
