{"icao":"LPOV","metar":"LPOV 091900Z 01006KT 9000 NSC 18/16 Q1014","updated":"2026-04-09T20:49:55Z"}
