{"icao":"KORD","metar":"KORD 121551Z 25010G19KT 10SM FEW040 23/13 A2993 RMK AO2 SLP131 T02330133","updated":"2026-06-12T16:16:05Z"}
