{"icao":"KORD","metar":"KORD 181616Z 24008KT 3SM R10L/1600VP6000FT -TSRA BR FEW014 SCT029CB OVC100 21/19 A2984 RMK AO2 PK WND 25034/1605 RAB1559 FRQ LTGICCG N-E TS N-E MOV NE P0037 T02060189","updated":"2026-05-18T16:20:53Z"}
