{"icao":"LPAZ","metar":"LPAZ 261700Z 05010KT 010V080 9000 -SHRA FEW010 BKN020 FEW025TCU 19/16 Q1017","updated":"2025-10-26T17:14:04Z"}
