{"icao":"LPBJ","metar":"LPBJ 090500Z 05006KT CAVOK 10/09 Q1017","updated":"2026-04-09T05:08:07Z"}
