{"icao":"KORD","metar":"KORD 221851Z 01029G37KT 10SM BKN017 BKN022 OVC140 03/M02 A2989 RMK AO2 PK WND 02040/1839 SLP122 T00331017","updated":"2026-03-22T19:24:34Z"}
