{"icao":"KLAX","metar":"KLAX 160453Z 28004KT 10SM CLR 17/13 A2999 RMK AO2 SLP153 T01670133 $","updated":"2025-10-16T05:17:24Z"}
