{"icao":"LPFR","metar":"LPFR 261200Z 20005KT 170V230 9999 FEW012 FEW025TCU SCT045 22/19 Q1018","updated":"2025-10-26T12:33:24Z"}
