{"icao":"LPPR","metar":"LPPR 051100Z 03005KT 320V090 CAVOK 19/13 Q1022","updated":"2025-10-05T11:12:36Z"}
