{"icao":"LPMR","metar":"LPMR 030600Z 15002KT 6000 FEW003 SCT035 05/05 Q1021","updated":"2025-12-03T06:30:30Z"}
