{"icao":"KJFK","metar":"KJFK 220651Z 25003KT 10SM -RA BKN070 OVC100 14/13 A2976 RMK AO2 SLP078 P0002 T01440133","updated":"2025-10-22T07:17:38Z"}
