{"icao":"KJFK","metar":"KJFK 121251Z 32019G29KT 10SM SCT042 SCT120 M01/M09 A2996 RMK AO2 PK WND 33029/1244 SLP146 T10061094 $","updated":"2026-02-12T13:04:52Z"}
