{"icao":"LPPT","metar":"LPPT 082000Z 32010KT 290V350 9999 FEW015 11/09 Q1023","updated":"2026-03-08T20:25:03Z"}
