{"icao":"LPPD","metar":"LPPD 012230Z 04011KT 360V080 9999 FEW007 BKN011 14/11 Q1031","updated":"2026-04-01T22:35:49Z"}
