{"icao":"LPFR","metar":"LPFR 190700Z 08004KT CAVOK 20/18 Q1016","updated":"2025-10-19T07:15:06Z"}
