{"icao":"LPCS","metar":"LPCS 251900Z 36012KT 9999 FEW022 12/08 Q1023","updated":"2025-11-25T23:16:58Z"}
