{"icao":"KORD","metar":"KORD 231951Z 33009G16KT 10SM FEW035 FEW250 M02/M14 A3041 RMK AO2 SLP307 T10221139","updated":"2026-02-23T20:43:08Z"}
