{"icao":"LPPS","metar":"LPPS 190430Z 04008KT 9999 BKN012 SCT030 15/13 Q1026","updated":"2026-02-19T04:50:54Z"}
