{"icao":"LPFR","metar":"LPFR 131600Z 13007KT 090V170 CAVOK 24/18 Q1017","updated":"2026-06-13T16:21:45Z"}
