{"icao":"KJFK","metar":"KJFK 161751Z 18025G35KT 1/4SM R04R/2200V5000FT BR SCT000 OVC002 10/10 A2965 RMK AO2 PK WND 18037/1657 SFC VIS 1 SLP041 BR SCT000 60001 T01000100 10111 20083 56029","updated":"2026-03-16T17:58:39Z"}
