{"icao":"KJFK","metar":"KJFK 170551Z 21010KT 10SM BKN080 BKN250 02/M07 A3008 RMK AO2 SLP185 T00171072 10017 21006 58008 $","updated":"2026-01-17T06:29:38Z"}
