{"icao":"LPLA","metar":"LPLA 191826Z 19019G34KT 4500 -RADZ BR SCT007 SCT010 BKN020 17/16 Q1020","updated":"2026-02-19T18:49:32Z"}
