{"icao":"LPAZ","metar":"LPAZ 282000Z 13006KT 100V160 9999 SCT022 22/17 Q1027","updated":"2026-06-28T20:11:58Z"}
