{"icao":"LPPS","metar":"LPPS 280800Z 36014KT 9999 FEW015 SCT030 22/16 Q1025","updated":"2025-09-28T08:19:58Z"}
