{"icao":"LPBJ","metar":"LPBJ 022100Z 35005KT CAVOK 13/09 Q1025","updated":"2025-11-02T21:14:28Z"}
