{"icao":"LPBJ","metar":"LPBJ 220700Z 30006KT CAVOK 09/07 Q1019","updated":"2025-09-22T07:18:25Z"}
