{"icao":"LPCS","metar":"LPCS 220730Z 03004KT CAVOK 13/10 Q1011","updated":"2026-03-22T07:37:12Z"}
