{"icao":"LPHR","metar":"LPHR 261300Z 10006KT 070V130 9999 FEW014 BKN022 15/10 Q1030","updated":"2026-03-26T13:12:54Z"}
