{"icao":"LPFR","metar":"LPFR 021030Z 10012KT CAVOK 33/18 Q1016","updated":"2026-07-02T10:37:01Z"}
