{"icao":"LPMT","metar":"LPMT 271800Z 06012KT 8000 -SHRA BKN038 09/07 Q1006","updated":"2025-12-27T18:26:50Z"}
