{"icao":"LPFR","metar":"LPFR 191700Z 33014KT CAVOK 15/02 Q1019","updated":"2026-01-19T17:22:16Z"}
