{"icao":"LPFR","metar":"LPFR 020930Z 14005KT CAVOK 22/09 Q1020","updated":"2026-04-02T10:00:57Z"}
