{"icao":"LPAR","metar":"LPAR 111700Z 20015KT 9999 BKN023 19/15 Q1009","updated":"2025-11-12T07:18:18Z"}
