{"icao":"LPFR","metar":"LPFR 021300Z 11010KT 080V140 9999 FEW015 26/17 Q1020","updated":"2025-10-02T13:25:11Z"}
