{"icao":"LPBJ","metar":"LPBJ 080400Z 28005KT 0050 FG VV002 12/12 Q1019","updated":"2025-11-08T04:20:14Z"}
