{"icao":"LPPS","metar":"LPPS 100900Z 02010KT 9999 FEW015 17/10 Q1025","updated":"2025-12-10T09:23:51Z"}
