{"icao":"LPFR","metar":"LPFR 180200Z 09013KT 9999 VCSH FEW025TCU SCT045 15/13 Q1006","updated":"2026-03-18T02:05:37Z"}
