{"icao":"LPPR","metar":"LPPR 151030Z 23006KT 190V260 9999 FEW015 SCT020 17/12 Q1025","updated":"2026-04-15T10:57:36Z"}
