{"icao":"LPFR","metar":"LPFR 071200Z 17009KT 150V210 CAVOK 25/18 Q1019","updated":"2026-06-07T12:19:19Z"}
