{"icao":"LPPR","metar":"LPPR 211500Z 22008KT 190V250 1400 R17/1200U -DZ BR OVC002 19/19 Q1012","updated":"2025-10-21T15:19:06Z"}
