{"icao":"LPFL","metar":"LPFL 281600Z 16014KT 140V200 9999 FEW034 22/14 Q1027","updated":"2026-06-28T16:08:35Z"}
