{"icao":"LPMA","metar":"LPMA 291230Z 22019KT 9999 FEW016 19/11 Q1019","updated":"2025-12-29T12:42:21Z"}
