{"icao":"KJFK","metar":"KJFK 220851Z 31011KT 10SM CLR M02/M11 A3042 RMK AO2 SLP301 T10221106 50006 $","updated":"2025-12-22T09:27:41Z"}
