{"icao":"LPMR","metar":"LPMR 141900Z 30004KT CAVOK 16/15 Q1017","updated":"2025-10-14T19:13:51Z"}
