{"icao":"LPFR","metar":"LPFR 011930Z 25003KT CAVOK 16/12 Q1019","updated":"2026-04-01T19:59:41Z"}
