{"icao":"LPBJ","metar":"LPBJ 181600Z 33009KT 9999 SCT035 19/08 Q1017","updated":"2025-11-18T16:25:49Z"}
