{"icao":"LPCS","metar":"LPCS 161400Z 21008KT 190V250 CAVOK 27/10 Q1014","updated":"2025-10-16T14:18:26Z"}
