{"icao":"KJFK","metar":"KJFK 291051Z 17006KT 1/4SM R04R/2800V3500FT -DZ FG VV003 06/06 A2953 RMK AO2 SFC VIS 1/2 SLP000 P0001 T00560056 $","updated":"2025-12-29T11:17:59Z"}
