{"icao":"LPBJ","metar":"LPBJ 292100Z 13002KT CAVOK 20/13 Q1016","updated":"2025-09-29T21:14:55Z"}
