{"icao":"KORD","metar":"KORD 221851Z 18013G20KT 10SM OVC048 06/M09 A3014 RMK AO2 SLP211 T00611094","updated":"2025-12-22T19:16:45Z"}
