{"icao":"LPPD","metar":"LPPD 282100Z 19013KT 9999 FEW013 18/15 Q1021","updated":"2026-05-28T21:07:12Z"}
