{"icao":"LPBJ","metar":"LPBJ 290100Z 28004KT 9999 FEW038 15/14 Q1016","updated":"2025-09-29T01:20:13Z"}
