{"icao":"LPMA","metar":"LPMA 181600Z 02016KT 340V050 9999 SCT015 16/09 Q1020","updated":"2026-01-18T16:23:22Z"}
