{"icao":"LPAR","metar":"LPAR 091600Z 01017KT CAVOK 24/05 Q1018","updated":"2026-06-09T18:03:11Z"}
