{"icao":"LPPD","metar":"LPPD 072100Z 22010KT 9999 SCT018 19/15 Q1022","updated":"2025-11-07T21:13:37Z"}
