{"icao":"LPGR","metar":"LPGR 281130Z 02004KT 360V060 9999 FEW020 BKN040 20/12 Q1029","updated":"2026-06-28T12:14:54Z"}
