{"icao":"LPLA","metar":"LPLA 031300Z 08011KT 050V110 9999 SCT022 17/10 Q1024","updated":"2026-05-03T13:07:19Z"}
