{"icao":"LPBJ","metar":"LPBJ 032200Z 24005KT CAVOK 14/10 Q1022","updated":"2025-11-03T22:17:47Z"}
