{"icao":"LPPD","metar":"LPPD 211230Z 22010KT 7000 FEW005 BKN007 23/22 Q1016","updated":"2025-10-21T12:38:59Z"}
