{"icao":"LPFR","metar":"LPFR 061730Z 27029G42KT 6000 -SHRA FEW015 SCT020CB SCT030 12/08 Q1010","updated":"2026-02-06T17:39:52Z"}
