{"icao":"LPPD","metar":"LPPD 250930Z 00000KT 6000 SCT002 SCT004 BKN040 16/15 Q1016","updated":"2026-04-25T09:51:12Z"}
