{"icao":"LPLA","metar":"LPLA 011800Z 05003KT 340V140 9999 SCT045 17/07 Q1022","updated":"2025-11-01T18:22:29Z"}
