{"icao":"LPPR","metar":"LPPR 101600Z 20006KT 160V230 9999 FEW010 BKN038 12/08 Q1028","updated":"2026-01-10T16:23:07Z"}
