{"icao":"LPPR","metar":"LPPR 210600Z 00000KT CAVOK 04/03 Q1027","updated":"2025-11-21T06:29:07Z"}
