{"icao":"LPBJ","metar":"LPBJ 040300Z 29007KT CAVOK 13/12 Q1022","updated":"2025-10-04T03:22:48Z"}
