{"icao":"LPPD","metar":"LPPD 210800Z 02005KT 9999 FEW018 SCT045 19/14 Q1028","updated":"2025-09-21T08:19:43Z"}
