{"icao":"LPAR","metar":"LPAR 291200Z 08005KT 030V130 9999 SCT015 21/17 Q1007","updated":"2025-10-29T12:39:16Z"}
