{"icao":"LPMT","metar":"LPMT 041200Z 09005KT 030V120 9999 SCT030 20/15 Q1016","updated":"2025-11-04T12:40:52Z"}
