{"icao":"LPMT","metar":"LPMT 051700Z 25017KT 8000 SCT025 SCT030 15/12 Q0999","updated":"2026-02-05T17:45:32Z"}
