{"icao":"LPPD","metar":"LPPD 010900Z 03005KT 360V060 9999 FEW022 BKN045 16/08 Q1019","updated":"2025-11-01T09:16:51Z"}
