{"icao":"LPCS","metar":"LPCS 191700Z 36012G22KT 9999 FEW020 14/06 Q1017","updated":"2025-11-19T17:17:27Z"}
