{"icao":"KJFK","metar":"KJFK 101251Z 06008KT 10SM FEW042 11/01 A3053 RMK AO2 SLP336 T01110011","updated":"2025-10-10T13:26:40Z"}
