{"icao":"LPFR","metar":"LPFR 142100Z 02003KT 9999 FEW030 12/10 Q1021","updated":"2026-01-14T21:20:34Z"}
