{"icao":"LPOV","metar":"LPOV 021600Z 33009KT CAVOK 19/15 Q1021","updated":"2025-10-02T16:21:13Z"}
