{"icao":"LPPT","metar":"LPPT 030400Z 32008KT CAVOK 16/14 Q1022","updated":"2025-10-03T04:20:12Z"}
