{"icao":"KJFK","metar":"KJFK 130651Z 28014G22KT 10SM FEW085 SCT250 09/02 A2984 RMK AO2 SLP103 T00890017","updated":"2025-11-13T07:18:12Z"}
