{"icao":"LPAZ","metar":"LPAZ 141900Z 03009KT 360V060 9999 FEW005 SCT007 BKN028 15/13 Q1030","updated":"2026-03-14T19:25:42Z"}
