{"icao":"KLAX","metar":"KLAX 281753Z 07004KT 10SM FEW190 FEW240 SCT280 25/12 A2992 RMK AO2 SLP130 T02500122 10250 20161 51009","updated":"2026-02-28T18:31:46Z"}
