{"icao":"LPAZ","metar":"LPAZ 032200Z 01013KT 9999 FEW010 SCT012 BKN030 15/13 Q1013","updated":"2026-01-03T22:18:17Z"}
