{"icao":"LPPD","metar":"LPPD 031900Z 01013KT 350V060 9999 VCSH FEW008 FEW018TCU 15/13 Q1012","updated":"2026-01-03T19:14:23Z"}
