{"icao":"LPBJ","metar":"LPBJ 271600Z 35008KT CAVOK 17/01 Q1022","updated":"2025-11-27T16:23:22Z"}
