{"icao":"LPPT","metar":"LPPT 170400Z 32005KT 280V350 CAVOK 18/07 Q1020","updated":"2025-09-17T04:20:43Z"}
