{"icao":"KJFK","metar":"KJFK 311451Z 18010KT 10SM FEW050 FEW140 BKN250 14/08 A3002 RMK AO2 SLP166 T01440078 58009","updated":"2026-03-31T15:00:24Z"}
