{"icao":"LPMR","metar":"LPMR 241800Z 23005KT 210V270 3500 -DZ BR BKN009 BKN014 19/18 Q1016","updated":"2025-10-24T18:24:59Z"}
