{"icao":"LPMR","metar":"LPMR 211600Z 28009KT 7000 BKN007 OVC028 14/10 Q1004","updated":"2026-01-21T16:42:50Z"}
