{"icao":"LPOV","metar":"LPOV 210700Z 24006KT 200V290 4000 -RADZ BR SCT003 SCT012 BKN030 18/18 Q1012","updated":"2025-10-21T07:18:29Z"}
