{"icao":"LPAR","metar":"LPAR 191000Z 01006KT 330V050 9999 BKN040 14/07 Q1028","updated":"2026-02-19T10:41:20Z"}
