{"icao":"LPFL","metar":"LPFL 191930Z 21004KT 140V270 9999 FEW020 16/10 Q1017","updated":"2026-02-19T19:37:38Z"}
