{"icao":"LPPR","metar":"LPPR 300430Z 21003KT 170V250 6000 FEW007 16/15 Q1021","updated":"2026-06-30T05:01:15Z"}
