{"icao":"KORD","metar":"KORD 120951Z 25007KT 10SM FEW250 03/01 A2978 RMK AO2 SLP089 T00330006","updated":"2025-11-12T10:20:48Z"}
