{"icao":"LPCS","metar":"LPCS 301230Z 25014KT 230V290 9999 FEW008 SCT012 BKN040 16/16 Q1013","updated":"2026-01-30T12:53:01Z"}
