{"icao":"KORD","metar":"KORD 230851Z 18003KT 10SM FEW027 BKN045 BKN110 BKN250 21/17 A2987 RMK AO2 SLP109 OCNL LTGIC DSNT N CB DSNT N MOV E T02060172 50002","updated":"2025-09-23T09:18:59Z"}
