{"icao":"LPPS","metar":"LPPS 200430Z 09003KT 040V130 9999 BKN015 17/13 Q1021","updated":"2026-05-20T05:03:19Z"}
