{"icao":"LPST","metar":"LPST 071100Z 22012G22KT 9999 FEW009 SCT011 BKN030 19/16 Q1016","updated":"2025-11-07T11:15:06Z"}
