{"icao":"LPPD","metar":"LPPD 101700Z 21009KT 180V260 9999 -SHRA FEW005 SCT010 FEW016CB BKN025 20/19 Q1021 RESHRA","updated":"2025-10-10T17:15:43Z"}
