{"icao":"LPMT","metar":"LPMT 301800Z 33006KT CAVOK 20/07 Q1026","updated":"2026-03-30T18:58:46Z"}
