{"icao":"LPAZ","metar":"LPAZ 270900Z 05005KT 9999 SCT020 BKN032 11/10 Q1021","updated":"2025-12-27T09:19:00Z"}
