{"icao":"LPHR","metar":"LPHR 031600Z VRB08KT 9999 FEW013 SCT028 17/13 Q1014","updated":"2026-01-03T16:23:37Z"}
