{"icao":"KJFK","metar":"KJFK 040751Z 26006KT 10SM CLR 15/11 A3020 RMK AO2 SLP227 T01500111","updated":"2025-10-04T08:20:15Z"}
