{"icao":"LPAZ","metar":"LPAZ 191700Z 33012KT 9999 FEW010 BKN024 17/13 Q1014","updated":"2026-04-19T17:34:06Z"}
