{"icao":"LPCS","metar":"LPCS 011430Z 22008KT CAVOK 21/07 Q1022","updated":"2026-04-01T15:02:29Z"}
