{"icao":"KLAX","metar":"KLAX 240953Z 27003KT 10SM SCT250 14/11 A3008 RMK AO2 SLP183 T01440111","updated":"2026-02-24T10:47:49Z"}
