{"icao":"LPLA","metar":"LPLA 031900Z 07008KT 010V110 9999 SCT026 16/09 Q1023","updated":"2026-05-03T19:55:42Z"}
