{"icao":"LPFL","metar":"LPFL 111930Z 02006KT 350V050 9999 SCT026 15/09 Q1026","updated":"2026-05-12T03:31:31Z"}
