{"icao":"LPPS","metar":"LPPS 222100Z 07014G25KT 040V100 9999 FEW015 18/10 Q1026","updated":"2025-11-22T21:15:32Z"}
