{"icao":"LPHR","metar":"LPHR 291330Z 26011KT 9999 VCSH SCT016 BKN022 16/14 Q1013","updated":"2026-01-29T13:59:43Z"}
