{"icao":"LPBJ","metar":"LPBJ 111700Z 05009KT CAVOK 18/08 Q1024","updated":"2026-03-11T17:47:59Z"}
