{"icao":"LPMR","metar":"LPMR 061900Z 31001KT CAVOK 19/13 Q1020","updated":"2025-10-06T20:19:04Z"}
