{"icao":"KORD","metar":"KORD 120451Z 27004KT 10SM FEW250 M02/M07 A3024 RMK AO2 SLP248 T10171067 $","updated":"2026-02-12T04:56:38Z"}
