{"icao":"LPST","metar":"LPST 251100Z 01008KT 340V040 9999 FEW018 14/08 Q1023","updated":"2025-11-25T11:16:42Z"}
