{"icao":"LPMT","metar":"LPMT 301700Z 21007KT 170V250 9999 FEW030 20/15 Q1013","updated":"2025-10-30T20:19:55Z"}
