{"icao":"LPPD","metar":"LPPD 152200Z VRB04KT 9999 FEW016 22/19 Q1026","updated":"2025-09-15T22:15:09Z"}
