{"icao":"KJFK","metar":"KJFK 110551Z 19009KT 10SM BKN031 BKN041 16/10 A3028 RMK AO2 SLP254 T01610100 10161 20150 56013","updated":"2025-10-11T06:23:36Z"}
