{"icao":"LPMR","metar":"LPMR 100800Z 15009KT 130V190 9999 FEW020 FEW022CB 15/09 Q1009","updated":"2026-05-10T08:52:20Z"}
