{"icao":"LPPD","metar":"LPPD 202300Z 23012KT 7000 SCT006 BKN012 23/22 Q1016","updated":"2025-10-20T23:15:57Z"}
