{"icao":"LPMR","metar":"LPMR 051400Z 32011KT CAVOK 21/13 Q1020","updated":"2025-10-05T14:13:56Z"}
