{"icao":"LPMT","metar":"LPMT 181200Z 32006KT 250V010 9999 FEW032 20/08 Q1020","updated":"2026-05-18T12:28:10Z"}
