{"icao":"LPOV","metar":"LPOV 071200Z 24007KT 190V280 9999 FEW006 SCT014 20/16 Q1023","updated":"2025-10-07T12:37:11Z"}
