{"icao":"LPLA","metar":"LPLA 090100Z VRB05KT 9999 OVC040 13/05 Q1034","updated":"2026-03-09T02:02:43Z"}
