{"icao":"LPFL","metar":"LPFL 151400Z 34011KT 290V360 9999 FEW018 SCT038 15/07 Q1030","updated":"2026-01-15T14:23:36Z"}
