{"icao":"LPFL","metar":"LPFL 251000Z 17018G29KT 150V210 9999 BKN019 22/18 Q1010","updated":"2025-09-25T10:19:06Z"}
