{"icao":"KJFK","metar":"KJFK 202151Z 24006KT 10SM FEW120 SCT200 BKN250 01/M06 A3016 RMK AO2 SLP214 T00061056 $","updated":"2025-12-20T22:17:13Z"}
