{"icao":"LPST","metar":"LPST 151000Z 09003KT 060V130 9999 SCT011 12/09 Q1012","updated":"2025-12-15T10:24:08Z"}
