{"icao":"LPOV","metar":"LPOV 140800Z VRB01KT CAVOK 12/11 Q1018","updated":"2025-10-14T08:22:03Z"}
