{"icao":"LPHR","metar":"LPHR 171230Z 32011KT 9999 FEW016 BKN025 15/10 Q1033","updated":"2026-01-17T12:37:40Z"}
