{"icao":"LPCS","metar":"LPCS 271330Z 26017G27KT 240V300 9999 -SHRA FEW013 FEW020CB SCT024 09/07 Q1004 RESHRA","updated":"2026-01-27T13:45:43Z"}
