{"icao":"LPPR","metar":"LPPR 271500Z 30011KT 260V330 9999 FEW008 FEW020CB BKN040 11/06 Q0998","updated":"2026-01-27T15:29:34Z"}
