{"icao":"LPPT","metar":"LPPT 211000Z 35019KT 9999 FEW032 19/11 Q1022","updated":"2025-09-21T10:16:01Z"}
