{"icao":"LPAZ","metar":"LPAZ 211900Z 22013KT 7000 BKN006 23/22 Q1017","updated":"2025-10-21T19:15:06Z"}
