{"icao":"LPPT","metar":"LPPT 020830Z 13007KT 090V190 5000 BR BKN004 12/11 Q1011","updated":"2026-03-02T08:42:35Z"}
