{"icao":"LPFL","metar":"LPFL 230900Z 19005KT 120V220 9999 FEW020 FEW022TCU 20/15 Q1011","updated":"2025-10-23T09:19:48Z"}
