{"icao":"KORD","metar":"KORD 291351Z 07013G22KT 10SM FEW020 FEW250 11/05 A3004 RMK AO2 SLP174 T01060050","updated":"2025-10-29T14:19:04Z"}
