{"icao":"LPPR","metar":"LPPR 301100Z 21021G31KT 6000 FEW008 BKN012 FEW025CB BKN030 14/12 Q1006","updated":"2026-01-30T11:26:52Z"}
