{"icao":"LPFR","metar":"LPFR 201100Z 31008KT CAVOK 15/05 Q1020","updated":"2025-11-20T11:16:39Z"}
