{"icao":"LPPT","metar":"LPPT 052200Z 34005KT 310V020 9999 FEW040 08/05 Q1017","updated":"2026-01-05T22:19:21Z"}
