{"icao":"LPFL","metar":"LPFL 141230Z 34007KT 300V360 9999 FEW028 16/09 Q1010","updated":"2025-11-14T12:38:11Z"}
