{"icao":"LPAR","metar":"LPAR 041200Z 09005KT 010V130 9999 FEW020 19/14 Q1017","updated":"2025-11-04T12:41:04Z"}
