{"icao":"LPOV","metar":"LPOV 210900Z 18015KT 1500 -RADZ BR SCT002 OVC004 12/12 Q1003 RERADZ","updated":"2026-01-21T09:31:01Z"}
