{"icao":"LPBJ","metar":"LPBJ 082200Z 01002KT CAVOK 11/07 Q1023","updated":"2025-11-08T22:15:10Z"}
