{"icao":"KJFK","metar":"KJFK 282051Z 18007KT 10SM FEW090 FEW250 08/03 A3003 RMK AO2 SLP170 T00830028 56018 $","updated":"2026-02-28T21:19:21Z"}
