{"icao":"KJFK","metar":"KJFK 081951Z 17006KT 10SM FEW060 BKN150 BKN250 13/08 A2978 RMK AO2 SLP085 T01280083","updated":"2026-03-08T20:25:08Z"}
