{"icao":"KORD","metar":"KORD 312251Z 30004KT 10SM BKN065 BKN090 BKN250 10/02 A2988 RMK AO2 SLP120 T01000022 $","updated":"2025-10-31T23:16:30Z"}
