{"icao":"LPMT","metar":"LPMT 241200Z 15006KT 9999 FEW015 16/12 Q1018","updated":"2026-02-24T13:03:03Z"}
