{"icao":"KORD","metar":"KORD 261251Z 11004KT 10SM FEW070 08/03 A3036 RMK AO2 SLP285 T00780033 $","updated":"2025-10-26T13:22:31Z"}
