{"icao":"LPHR","metar":"LPHR 191100Z 26011KT 9000 VCSH SCT006 BKN010 20/19 Q1009","updated":"2026-06-19T11:20:46Z"}
