{"icao":"LPMR","metar":"LPMR 311100Z 19014KT 6000 -RADZ BKN009 OVC018 19/17 Q1011","updated":"2025-10-31T11:15:01Z"}
