{"icao":"LPPR","metar":"LPPR 141200Z 30005KT 270V340 9999 FEW015 BKN030 23/18 Q1024","updated":"2025-09-14T12:30:46Z"}
