{"icao":"LPFL","metar":"LPFL 111800Z 18011KT 140V220 9999 FEW011 SCT016 18/13 Q1029","updated":"2026-03-11T18:52:24Z"}
