{"icao":"LPPS","metar":"LPPS 202230Z 30019KT 9999 SCT010 17/15 Q1005","updated":"2026-04-20T22:41:29Z"}
