{"icao":"LPMA","metar":"LPMA 192200Z VRB05KT 9999 SCT016 FEW018CB BKN060 20/14 Q1009","updated":"2026-04-19T22:33:57Z"}
