{"icao":"LPST","metar":"LPST 261700Z 21017G30KT 9000 BKN008 BKN025 15/13 Q1010","updated":"2026-01-26T23:20:39Z"}
