{"icao":"LPAZ","metar":"LPAZ 150600Z 33015KT 9999 FEW010 BKN040 15/13 Q1023","updated":"2026-01-15T06:32:01Z"}
