{"icao":"LPPR","metar":"LPPR 151330Z 22007KT 190V260 9999 FEW020 17/12 Q1024","updated":"2026-04-15T13:52:53Z"}
