{"icao":"LPMA","metar":"LPMA 311300Z 21020KT 9999 SCT016 23/14 Q1015","updated":"2025-10-31T13:28:30Z"}
