{"icao":"LPMA","metar":"LPMA 231600Z 05008KT 360V170 9999 SCT015 SCT030 22/16 Q1021","updated":"2025-09-23T16:21:49Z"}
