{"icao":"LPMR","metar":"LPMR 110100Z 33007KT 7000 SCT008 BKN020 14/14 Q1014","updated":"2026-04-11T02:07:30Z"}
