{"icao":"LPPD","metar":"LPPD 102200Z 03006KT 360V070 9999 -SHRA FEW008 SCT014 BKN030 19/18 Q1028","updated":"2026-06-10T22:04:36Z"}
