{"icao":"KLAX","metar":"KLAX 180553Z 01003KT 10SM SCT220 17/05 A3011 RMK AO2 SLP193 T01670050 10222 20167 51011 $","updated":"2026-01-18T06:29:41Z"}
