{"icao":"LPCS","metar":"LPCS 091230Z 34006KT 300V010 9999 FEW008 21/15 Q1020","updated":"2025-10-09T12:37:17Z"}
