{"icao":"LPLA","metar":"LPLA 071600Z 21011KT 160V250 9999 FEW028 20/11 Q1020","updated":"2025-11-07T16:19:22Z"}
