{"icao":"LPBJ","metar":"LPBJ 280500Z 22027KT 2500 +RA BR SCT009 BKN015 12/11 Q0995","updated":"2026-01-28T05:27:04Z"}
