{"icao":"LPMT","metar":"LPMT 010700Z 12004KT CAVOK 06/06 Q1021","updated":"2026-03-01T07:31:37Z"}
