{"icao":"LPBJ","metar":"LPBJ 192100Z 14011KT 9000 -RA FEW030 BKN047 13/12 Q1007","updated":"2026-03-19T21:33:54Z"}
