{"icao":"KLAX","metar":"KLAX 231253Z 07004KT 10SM FEW014 FEW050 SCT150 SCT250 13/09 A3000 RMK AO2 SLP155 T01330089 $","updated":"2026-04-23T13:26:40Z"}
