{"icao":"KLAX","metar":"KLAX 120453Z 31005KT 10SM CLR 14/08 A3014 RMK AO2 SLP206 T01440083","updated":"2026-02-12T04:56:38Z"}
