{"icao":"LPLA","metar":"LPLA 171700Z 22009KT 170V260 9999 SCT007 BKN012 22/21 Q1011","updated":"2025-10-17T17:15:12Z"}
