{"icao":"LPMR","metar":"LPMR 051800Z 33007KT CAVOK 22/09 Q1019","updated":"2026-04-05T18:41:31Z"}
