{"icao":"LPPR","metar":"LPPR 080700Z 04004KT 010V080 9999 FEW040 10/09 Q1017","updated":"2026-04-08T07:17:33Z"}
