{"icao":"LPPS","metar":"LPPS 121400Z 32008KT 9999 FEW015 19/14 Q1018","updated":"2026-01-12T14:24:19Z"}
