{"icao":"LPST","metar":"LPST 071600Z 29011KT 250V320 9999 FEW030 16/07 Q1011","updated":"2026-05-07T23:01:01Z"}
