{"icao":"KORD","metar":"KORD 081151Z 34005KT 10SM FEW035 09/06 A3033 RMK AO2 SLP271 70003 T00940061 10122 20094 51022","updated":"2025-10-08T12:37:30Z"}
