{"icao":"LPAZ","metar":"LPAZ 182200Z 22008KT 9999 SCT006 BKN010 21/21 Q1015","updated":"2026-06-18T22:06:52Z"}
