{"icao":"LPHR","metar":"LPHR 032200Z 25019KT 9000 -RA FEW010 BKN013 17/15 Q1000","updated":"2026-02-03T22:28:28Z"}
