{"icao":"LPAZ","metar":"LPAZ 160900Z 13021G33KT 9000 FEW008 SCT012 BKN049 21/19 Q1003","updated":"2025-10-16T09:19:47Z"}
