{"icao":"LPPR","metar":"LPPR 142000Z 11003KT 050V150 9000 FEW030 SCT045 10/09 Q1021","updated":"2026-01-14T20:20:02Z"}
