{"icao":"LPST","metar":"LPST 271700Z 27014G24KT 240V300 9999 SCT022 12/06 Q1004","updated":"2026-01-28T05:27:00Z"}
