{"icao":"KLAX","metar":"KLAX 190453Z 23008KT 10SM FEW250 19/16 A2999 RMK AO2 SLP153 T01890161 $","updated":"2025-10-19T05:17:39Z"}
