{"icao":"LPLA","metar":"LPLA 161200Z 21008KT 170V270 9999 SCT025 25/19 Q1022","updated":"2025-09-16T12:36:10Z"}
