{"icao":"KJFK","metar":"KJFK 240551Z 29009KT 10SM FEW070 11/03 A3003 RMK AO2 SLP170 T01060033 10133 20106 51002","updated":"2025-10-24T06:26:38Z"}
