{"icao":"KJFK","metar":"KJFK 041551Z 30019G27KT 10SM FEW055 FEW250 13/M02 A3008 RMK AO2 PK WND 30032/1453 SLP185 T01331017 $","updated":"2025-11-04T16:22:09Z"}
