{"icao":"LPPR","metar":"LPPR 180700Z 05004KT 360V080 9000 FEW003 02/01 Q1013","updated":"2026-01-18T07:18:58Z"}
