{"icao":"LPOV","metar":"LPOV 032100Z 35011KT 9999 OVC006 17/16 Q1024","updated":"2025-10-03T21:14:09Z"}
