{"icao":"KORD","metar":"KORD 261851Z 22009KT 10SM BKN041 BKN055 03/M08 A2988 RMK AO2 SLP124 T00331083","updated":"2026-02-26T19:43:04Z"}
