{"icao":"LPPT","metar":"LPPT 051730Z 30010KT 270V330 CAVOK 21/06 Q1017","updated":"2026-06-05T17:52:34Z"}
