{"icao":"LPFR","metar":"LPFR 181900Z 10005KT CAVOK 24/21 Q1019","updated":"2025-09-18T19:14:17Z"}
