{"icao":"KLAX","metar":"KLAX 230453Z 31007KT 10SM BKN006 19/18 A2982 RMK AO2 SLP094 T01940178 $","updated":"2025-09-23T05:17:01Z"}
