{"icao":"LPBJ","metar":"LPBJ 210200Z 25007KT 8000 VCFG BKN007 18/18 Q1015","updated":"2025-10-21T03:04:28Z"}
