{"icao":"LPPD","metar":"LPPD 211630Z 26028KT 9000 -SHRA BKN018 BKN030 15/11 Q1004","updated":"2026-04-21T16:59:33Z"}
