{"icao":"LPBJ","metar":"LPBJ 170700Z 07002KT CAVOK 14/11 Q1018","updated":"2026-04-17T07:44:26Z"}
