{"icao":"KORD","metar":"KORD 221624Z 02021G30KT 10SM SCT013 BKN160 OVC250 05/01 A2980 RMK AO2 PK WND 03030/1622 T00500006","updated":"2026-03-22T16:29:27Z"}
