{"icao":"LPCS","metar":"LPCS 111530Z 26013KT 1200 R17/P2000N -RADZ BR OVC003 15/15 Q1016","updated":"2026-02-11T15:59:52Z"}
