{"icao":"KLAX","metar":"KLAX 250853Z 10003KT 10SM CLR 12/09 A3006 RMK AO2 SLP178 T01170089 51017 $","updated":"2026-01-25T09:20:21Z"}
