{"icao":"LPPR","metar":"LPPR 020800Z 11006KT 9999 FEW032 12/11 Q1025","updated":"2025-11-02T08:19:47Z"}
