{"icao":"LPOV","metar":"LPOV 131500Z 33012KT 290V350 9999 FEW012 SCT022 18/14 Q1019","updated":"2026-05-13T16:17:35Z"}
