{"icao":"KORD","metar":"KORD 231151Z 26004KT 9SM FEW080 BKN150 BKN170 BKN250 19/17 A2988 RMK AO2 SLP113 T01940172 10217 20194 53005","updated":"2025-09-23T12:36:14Z"}
