{"icao":"LPPT","metar":"LPPT 231300Z 05008KT 360V080 CAVOK 25/02 Q1018","updated":"2025-09-23T13:27:00Z"}
