{"icao":"LPPS","metar":"LPPS 140600Z 04011KT 360V080 9999 SCT015 22/18 Q1023","updated":"2025-09-14T06:23:18Z"}
