{"icao":"LPFR","metar":"LPFR 052300Z 35006KT CAVOK 08/M02 Q1015","updated":"2026-01-05T23:18:54Z"}
