{"icao":"LPPR","metar":"LPPR 251600Z 27006KT 230V310 4000 -SHRA FEW025CB BKN030 13/10 Q1012","updated":"2026-01-25T16:24:17Z"}
