{"icao":"LPCR","metar":"LPCR 260900Z 27010KT 9999 SCT019 20/15 Q1025","updated":"2026-06-26T09:22:50Z"}
