{"icao":"LPAZ","metar":"LPAZ 070130Z 20023KT 9000 FEW007 SCT012 BKN032 19/18 Q1013","updated":"2025-12-07T01:42:23Z"}
