{"icao":"KORD","metar":"KORD 042151Z 21011G19KT 10SM FEW070 30/12 A3003 RMK AO2 SLP164 T03000117 $","updated":"2025-10-04T22:14:28Z"}
