{"icao":"KJFK","metar":"KJFK 210451Z 29013KT 10SM CLR M07/M18 A3052 RMK SLP335 T10721178 410281083 ","updated":"2026-01-21T05:27:19Z"}
