{"icao":"LPFR","metar":"LPFR 160500Z VRB01KT CAVOK 15/10 Q1019","updated":"2026-04-16T05:29:26Z"}
