{"icao":"LPPS","metar":"LPPS 041330Z 17009KT 130V200 9999 FEW004 SCT010 21/17 Q1017","updated":"2026-05-04T13:57:26Z"}
