{"icao":"LPST","metar":"LPST 271200Z 16007KT 120V190 CAVOK 31/13 Q1019","updated":"2026-05-27T12:19:01Z"}
