{"icao":"LPFR","metar":"LPFR 131000Z 21014KT 9999 FEW018 SCT025 16/12 Q1013","updated":"2026-01-13T10:22:51Z"}
