{"icao":"KLAX","metar":"KLAX 051553Z VRB03KT 10SM CLR 12/00 A3011 RMK AO2 SLP193 T01170000 $","updated":"2025-12-05T16:24:50Z"}
