{"icao":"LPFR","metar":"LPFR 220730Z 08012KT CAVOK 25/07 Q1019","updated":"2026-05-22T07:42:46Z"}
