{"icao":"LPPR","metar":"LPPR 141900Z 25004KT 210V290 9000 FEW004 BKN005 15/14 Q1023","updated":"2026-04-14T19:13:11Z"}
