{"icao":"LPPD","metar":"LPPD 272200Z 36020KT 9999 FEW007 SCT014 BKN025 17/15 Q1014 RESHRA","updated":"2025-10-27T22:16:19Z"}
