{"icao":"LPOV","metar":"LPOV 260800Z 20015KT 4000 -RADZ BR BKN003 BKN009 14/14 Q1008 RERADZ","updated":"2026-01-26T09:32:57Z"}
