{"icao":"LPLA","metar":"LPLA 240900Z 32002KT 9999 FEW025 17/15 Q1017","updated":"2025-10-24T09:19:43Z"}
