{"icao":"KORD","metar":"KORD 312151Z 08009KT 10SM FEW140 BKN190 BKN300 22/07 A2999 RMK AO2 SLP155 T02220067 $","updated":"2026-05-31T22:05:27Z"}
