{"icao":"LPPR","metar":"LPPR 281100Z 02007KT 340V050 CAVOK 17/07 Q1025","updated":"2026-03-28T11:27:17Z"}
