{"icao":"KLAX","metar":"KLAX 041653Z 00000KT 5SM HZ OVC012 15/12 A3005 RMK AO2 SLP176 T01500122","updated":"2026-03-04T17:37:26Z"}
