{"icao":"LPST","metar":"LPST 210800Z 22004KT 2500 -RA BR OVC008 14/13 Q1008","updated":"2026-01-21T08:30:17Z"}
