{"icao":"KORD","metar":"KORD 082251Z 05010KT 10SM FEW037 15/06 A3039 RMK AO2 SLP291 T01500061 $","updated":"2025-10-08T23:15:34Z"}
