{"icao":"LPOV","metar":"LPOV 151600Z 21010KT 9999 BKN030 OVC048 14/13 Q1028","updated":"2026-02-15T16:28:44Z"}
