{"icao":"KORD","metar":"KORD 181851Z 24018G33KT 10SM FEW060 16/M01 A2951 RMK AO2 PK WND 23033/1846 SLP993 T01611006","updated":"2026-02-18T19:47:29Z"}
