{"icao":"LPMT","metar":"LPMT 180500Z 03008KT 9999 1500SE BCFG FEW008 06/06 Q1010","updated":"2026-01-18T05:22:35Z"}
