{"icao":"LPPD","metar":"LPPD 220000Z 33006KT 300V010 9999 FEW016 BKN030 19/15 Q1024","updated":"2026-06-22T00:10:36Z"}
