{"icao":"LPPD","metar":"LPPD 152100Z 17003KT 9999 SCT016 22/19 Q1026","updated":"2025-09-15T21:15:04Z"}
