{"icao":"KJFK","metar":"KJFK 072151Z 36021G27KT 10SM FEW070 SCT085 BKN100 BKN250 28/12 A2982 RMK AO2 PK WND 35030/2135 SLP099 T02830122 $","updated":"2026-06-07T22:02:32Z"}
