{"icao":"LPOV","metar":"LPOV 051600Z 20010KT 7000 -DZRA SCT003 BKN006 BKN012 16/16 Q1019","updated":"2025-12-05T16:24:33Z"}
