{"icao":"LPMA","metar":"LPMA 061030Z 11009KT 070V130 9999 FEW015 19/06 Q1019","updated":"2026-02-06T10:37:40Z"}
