{"icao":"LPPT","metar":"LPPT 311430Z 34016KT CAVOK 28/07 Q1019","updated":"2026-05-31T14:42:51Z"}
