{"icao":"LPFL","metar":"LPFL 161900Z 34004KT 240V040 9999 BKN033 13/08 Q1035","updated":"2026-01-16T19:19:38Z"}
