{"icao":"KJFK","metar":"KJFK 012251Z 02006KT 10SM FEW050 FEW090 04/M08 A3030 RMK AO2 SLP260 T00391078 VISNO W $","updated":"2026-03-01T23:22:32Z"}
