{"icao":"LPPD","metar":"LPPD 132100Z 21003KT 9999 FEW016 SCT045 22/19 Q1026","updated":"2025-09-13T21:13:40Z"}
