{"icao":"KORD","metar":"KORD 110751Z 30013G22KT 10SM -SN SCT034 BKN046 M05/M12 A3006 RMK AO2 SNE16B51 SLP186 P0000 T10501122","updated":"2026-01-11T08:25:45Z"}
