{"icao":"LPPD","metar":"LPPD 011300Z 04010KT 360V080 9999 FEW025 BKN045 18/06 Q1021","updated":"2025-11-01T13:22:27Z"}
