{"icao":"LPOV","metar":"LPOV 151900Z 13002KT 4500 BR FEW003 SCT020 10/10 Q1014","updated":"2026-01-15T19:23:01Z"}
