{"icao":"LPLA","metar":"LPLA 011800Z VRB06KT 9000 -DZ SCT007 BKN014 BKN030 14/12 Q1032","updated":"2026-04-01T19:00:04Z"}
