{"icao":"LPPD","metar":"LPPD 181600Z 26007KT 9999 FEW006 BKN012 20/19 Q1015","updated":"2026-06-18T16:29:34Z"}
