{"icao":"KORD","metar":"KORD 241951Z 19012G24KT 10SM SCT110 OVC250 01/M10 A2957 RMK AO2 PK WND 20030/1902 SLP020 VIRGA T00111100","updated":"2026-02-24T20:33:54Z"}
