{"icao":"LPOV","metar":"LPOV 152100Z 13003KT 6000 -RA FEW018 BKN040 10/10 Q1005","updated":"2025-12-16T06:31:41Z"}
