{"icao":"KORD","metar":"KORD 041551Z 33006KT 10SM -SN FEW018 OVC024 M05/M11 A3040 RMK AO2 SNB08 SLP306 P0000 T10501106","updated":"2026-02-04T16:45:27Z"}
