{"icao":"LPFR","metar":"LPFR 251700Z 35011KT CAVOK 17/02 Q1020","updated":"2025-11-25T17:18:33Z"}
