{"icao":"LPOV","metar":"LPOV 220700Z 17003KT 140V230 9999 FEW004 07/07 Q1007","updated":"2026-01-22T07:26:07Z"}
