{"icao":"KJFK","metar":"KJFK 300951Z 07014KT 5SM -RA BR BKN007 OVC013 12/11 A2993 RMK AO2 DZE04RAB04 SLP134 P0002 T01170111","updated":"2025-10-30T10:19:59Z"}
