{"icao":"LPPR","metar":"LPPR 221900Z 19005KT 160V230 9000 -RA FEW007 SCT011 BKN040 10/09 Q1012 RERA","updated":"2025-12-22T19:16:11Z"}
