{"icao":"LPPS","metar":"LPPS 221930Z 21005KT 9999 FEW015 17/11 Q1012","updated":"2026-04-22T20:04:02Z"}
