{"icao":"LPPT","metar":"LPPT 070800Z VRB03KT 9999 FEW003 BKN024 19/16 Q1022","updated":"2025-10-07T08:23:46Z"}
