{"icao":"LPHR","metar":"LPHR 041530Z VRB07KT 9999 FEW018 15/05 Q1030","updated":"2026-03-04T15:39:12Z"}
