{"icao":"LPMR","metar":"LPMR 121300Z 23013KT 200V280 9999 TS FEW026CB SCT028 19/12 Q1018","updated":"2026-05-12T14:21:56Z"}
