{"icao":"KJFK","metar":"KJFK 071151Z 22007KT 10SM SCT047 BKN240 19/16 A3019 RMK AO2 SLP224 T01940161 10194 20178 50002 $","updated":"2025-10-07T12:37:14Z"}
