{"icao":"LPPS","metar":"LPPS 211730Z 01012KT 9999 SCT015 19/15 Q1019","updated":"2026-05-21T17:56:40Z"}
