{"icao":"LPFL","metar":"LPFL 131900Z 20019G31KT 160V240 9000 -RA FEW008 BKN011 18/15 Q1010","updated":"2026-04-13T19:23:08Z"}
