{"icao":"LPBJ","metar":"LPBJ 290300Z 30006KT CAVOK 17/13 Q1019","updated":"2026-05-29T03:28:52Z"}
