{"icao":"LPAR","metar":"LPAR 160900Z VRB02KT CAVOK 21/12 Q1015","updated":"2025-10-16T09:19:46Z"}
