{"icao":"LPPD","metar":"LPPD 190000Z 22011KT 2500 -DZ BR SCT001 BKN002 17/16 Q1021","updated":"2026-05-19T00:04:39Z"}
