{"icao":"LPAZ","metar":"LPAZ 072200Z 22016KT 8000 FEW004 SCT045 17/16 Q1016","updated":"2026-02-07T22:24:40Z"}
