{"icao":"KJFK","metar":"KJFK 131951Z 05022G37KT 10SM -RA FEW008 BKN012 OVC018 15/14 A2990 RMK AO2 PK WND 04037/1948 DZE37RAB49 SLP124 P0000 T01500139","updated":"2025-10-13T20:19:22Z"}
