{"icao":"LPMA","metar":"LPMA 170900Z 03012KT 360V060 9999 FEW015 23/18 Q1020","updated":"2025-09-17T09:18:24Z"}
