{"icao":"LPPR","metar":"LPPR 100700Z 07006KT CAVOK 18/08 Q1022","updated":"2025-10-10T07:16:54Z"}
