{"icao":"LPST","metar":"LPST 201400Z 01015KT 330V030 9999 FEW030 14/04 Q1020","updated":"2025-11-20T14:18:37Z"}
