{"icao":"LPMT","metar":"LPMT 260900Z 25006KT 230V290 9999 FEW015 BKN042 22/18 Q1018","updated":"2026-06-26T09:22:35Z"}
