{"icao":"LPPD","metar":"LPPD 311330Z 23015KT 4000 BR SCT003 BKN005 17/16 Q1018","updated":"2026-01-31T13:39:59Z"}
