{"icao":"LPMA","metar":"LPMA 141700Z 03007KT 360V080 9999 FEW015 SCT030 17/08 Q1025","updated":"2026-01-14T17:25:58Z"}
