{"icao":"LPMT","metar":"LPMT 051700Z 34009KT CAVOK 22/08 Q1017","updated":"2026-06-05T17:52:39Z"}
