{"icao":"LPPS","metar":"LPPS 111430Z 31007KT 290V360 9999 FEW015 BKN030 19/12 Q1025","updated":"2026-02-11T14:51:59Z"}
