{"icao":"LPLA","metar":"LPLA 201400Z 29025KT 9999 SCT018 BKN035 18/15 Q1022","updated":"2026-01-20T14:29:45Z"}
