{"icao":"LPFL","metar":"LPFL 091400Z 29006KT 200V010 9999 FEW023 19/13 Q1025","updated":"2025-11-09T14:14:43Z"}
