{"icao":"LPAR","metar":"LPAR 251100Z 11004KT 060V160 4000 BR SCT009 BKN015 BKN025 15/14 Q1017","updated":"2026-02-25T11:39:19Z"}
