{"icao":"KORD","metar":"KORD 212051Z 22006KT 10SM CLR 01/M13 A3043 RMK AO2 SLP314 T00061133 55008","updated":"2025-12-21T21:17:08Z"}
