{"icao":"KORD","metar":"KORD 201551Z 22014G25KT 10SM FEW110 BKN150 OVC250 03/M04 A2973 RMK AO2 PK WND 21030/1453 SLP074 T00281044","updated":"2025-12-20T16:22:35Z"}
