{"icao":"LPPD","metar":"LPPD 081700Z 34016KT 300V010 9999 SCT018 17/10 Q1013","updated":"2026-05-08T17:15:21Z"}
