{"icao":"LPFR","metar":"LPFR 271400Z 06007KT CAVOK 19/M02 Q1021","updated":"2025-11-27T14:18:32Z"}
