{"icao":"LPPR","metar":"LPPR 082100Z 00000KT CAVOK 11/11 Q1023","updated":"2025-11-08T21:14:02Z"}
