{"icao":"KORD","metar":"KORD 231351Z 29006KT 10SM SCT200 04/01 A3012 RMK AO2 SLP203 T00440011","updated":"2025-11-23T14:15:54Z"}
