{"icao":"LPHR","metar":"LPHR 172100Z 22009KT 8000 -SHRA SCT003 BKN005 BKN010 22/22 Q1011","updated":"2025-10-17T21:15:06Z"}
