{"icao":"KORD","metar":"KORD 232151Z 08011KT 10SM FEW010 FEW042 FEW065 BKN250 19/12 A2998 RMK AO2 SLP151 T01890122","updated":"2026-05-23T22:51:53Z"}
