{"icao":"LPOV","metar":"LPOV 251400Z 33006KT 9999 -RA SCT030 15/14 Q1014","updated":"2025-10-25T14:14:38Z"}
