{"icao":"LPMA","metar":"LPMA 131300Z 02016G29KT 330V060 9999 FEW015 27/17 Q1022","updated":"2025-09-13T13:18:43Z"}
