{"icao":"LPFR","metar":"LPFR 141500Z 15006KT 120V180 9999 FEW025 25/18 Q1015","updated":"2025-10-14T15:20:04Z"}
