{"icao":"LPAZ","metar":"LPAZ 032130Z 05009KT 9999 FEW023 15/10 Q1022","updated":"2026-05-03T21:40:06Z"}
