{"icao":"LPAZ","metar":"LPAZ 181530Z 14009KT 110V170 9999 SCT020 BKN030 17/12 Q1026","updated":"2026-02-18T15:51:17Z"}
