{"icao":"LPAR","metar":"LPAR 100900Z 01012KT CAVOK 22/09 Q1019","updated":"2026-06-10T16:56:26Z"}
