{"icao":"KLAX","metar":"KLAX 210753Z 15003KT 8SM BKN008 19/18 A2992 RMK AO2 SLP128 T01940178 402440194","updated":"2025-09-21T08:19:57Z"}
