{"icao":"LPCS","metar":"LPCS 141230Z 19013KT 9999 FEW009 SCT016 FEW020CB 17/14 Q1002","updated":"2025-11-14T12:38:08Z"}
