{"icao":"LPPT","metar":"LPPT 032200Z 33011KT 290V350 9999 FEW008 16/14 Q1023","updated":"2025-10-03T22:15:12Z"}
