{"icao":"LPOV","metar":"LPOV 011000Z 28006KT 200V320 9999 SCT015 17/15 Q1020","updated":"2026-05-01T10:39:39Z"}
