{"icao":"LPBJ","metar":"LPBJ 110800Z 06006KT CAVOK 17/12 Q1020","updated":"2025-10-11T08:20:09Z"}
