{"icao":"LPMA","metar":"LPMA 171500Z 32007G17KT 230V030 9999 SCT015 19/08 Q1020","updated":"2026-01-17T15:18:37Z"}
