{"icao":"KLAX","metar":"KLAX 130153Z 26013KT 10SM FEW060 FEW085 SCT250 17/09 A3000 RMK AO2 SLP157 T01670089 $","updated":"2026-04-13T02:34:59Z"}
