{"icao":"LPMA","metar":"LPMA 301930Z 02024G35KT 350V050 9999 FEW014 22/15 Q1021","updated":"2026-06-30T19:54:35Z"}
