{"icao":"LPPR","metar":"LPPR 191100Z VRB01KT 4000 -RA BR FEW018 SCT023 BKN035 07/06 Q1021","updated":"2026-01-19T11:20:25Z"}
