{"icao":"LPPT","metar":"LPPT 252100Z 30009KT CAVOK 21/03 Q1018","updated":"2025-09-25T21:15:02Z"}
