{"icao":"LPOV","metar":"LPOV 292000Z 34010KT CAVOK 20/18 Q1021","updated":"2026-06-29T21:25:11Z"}
