{"icao":"KLAX","metar":"KLAX 060453Z 28009KT 10SM FEW250 17/12 A3019 RMK AO2 SLP221 T01670117 $","updated":"2025-11-06T05:18:51Z"}
