{"icao":"LPPR","metar":"LPPR 151600Z 15014KT 6000 -RA SCT008 BKN012 OVC020 12/11 Q1003 RERA","updated":"2025-12-15T16:29:15Z"}
