{"icao":"LPFL","metar":"LPFL 291530Z 06004KT 330V120 9999 VCSH SCT018 FEW020TCU BKN038 15/08 Q1005","updated":"2026-04-29T15:54:37Z"}
