{"icao":"KORD","metar":"KORD 012151Z 06010KT 10SM BKN300 23/14 A3018 RMK AO2 SLP216 T02330144","updated":"2025-10-01T22:16:27Z"}
