{"icao":"LPFR","metar":"LPFR 161500Z 22007KT 9999 FEW040TCU 24/19 Q1015","updated":"2026-06-16T15:08:20Z"}
