{"icao":"LPMT","metar":"LPMT 221600Z 26006KT 9999 FEW018 BKN028 22/20 Q1018","updated":"2025-10-22T17:17:01Z"}
