{"icao":"LPPS","metar":"LPPS 040900Z 11004KT 060V160 9999 FEW005 SCT010 BKN025 19/17 Q1017","updated":"2026-05-04T09:15:58Z"}
