{"icao":"KLAX","metar":"KLAX 140453Z 00000KT 10SM CLR 17/09 A3015 RMK AO2 SLP209 T01720094 $","updated":"2026-01-14T05:23:32Z"}
