{"icao":"LPMR","metar":"LPMR 071400Z 19012KT 8000 -RA SCT020 OVC045 12/11 Q1013","updated":"2026-04-07T15:06:24Z"}
