{"icao":"LPHR","metar":"LPHR 211600Z 22005KT 180V250 9999 FEW003 SCT019 18/17 Q1021","updated":"2026-02-21T16:27:44Z"}
