{"icao":"LPMT","metar":"LPMT 201700Z 29007KT 260V320 9999 -RADZ FEW009 SCT018 BKN035 13/11 Q1014","updated":"2025-12-20T17:15:18Z"}
