{"icao":"LPPD","metar":"LPPD 060130Z 13008KT 9999 FEW025 BKN040 12/04 Q1035","updated":"2026-03-06T02:00:23Z"}
