{"icao":"LPPS","metar":"LPPS 212000Z 05016KT 9999 SCT014 SCT030 18/11 Q1026","updated":"2025-11-21T20:21:40Z"}
