{"icao":"LPPR","metar":"LPPR 260530Z VRB02KT 4000 1400N MIFG FEW002 08/08 Q1023","updated":"2026-02-26T05:56:17Z"}
