{"icao":"LPAZ","metar":"LPAZ 282100Z 24023KT 8000 FEW010 BKN035 18/16 Q1012","updated":"2026-01-28T21:28:01Z"}
