{"icao":"KORD","metar":"KORD 080951Z 11008KT 10SM FEW012 OVC120 M05/M08 A3030 RMK AO2 SLP270 T10501078 $","updated":"2026-02-08T10:25:23Z"}
