{"icao":"KORD","metar":"KORD 080451Z 26005KT 10SM FEW085 12/08 A3021 RMK AO2 SLP230 T01170078 $","updated":"2025-10-08T05:17:23Z"}
