{"icao":"LPPR","metar":"LPPR 220800Z VRB02KT CAVOK 07/05 Q1029","updated":"2026-02-22T08:30:12Z"}
