{"icao":"LPLA","metar":"LPLA 301000Z 26003KT 220V310 9999 FEW025 18/13 Q1008","updated":"2025-10-30T10:19:45Z"}
