{"icao":"KORD","metar":"KORD 102151Z 34016G23KT 10SM SCT028 BKN047 BKN250 M01/M07 A2979 RMK AO2 PK WND 33026/2117 SLP095 T10111067","updated":"2025-12-10T22:19:31Z"}
