{"icao":"LPMR","metar":"LPMR 291500Z 33007KT 290V010 9999 SCT015 20/15 Q1008","updated":"2025-10-29T15:20:20Z"}
