{"icao":"LPAZ","metar":"LPAZ 190330Z 23016KT 5000 TSRA SCT005 BKN010 FEW018CB 21/20 Q1016","updated":"2025-09-19T03:35:48Z"}
