{"icao":"KORD","metar":"KORD 150851Z 21009KT 10SM OVC080 M16/M22 A3043 RMK AO2 SLP320 T11561217 58015","updated":"2025-12-15T09:30:50Z"}
