{"icao":"KLAX","metar":"KLAX 300653Z 04003KT 10SM CLR 19/M01 A3021 RMK AO2 SLP227 T01941011 $","updated":"2026-01-30T07:39:13Z"}
