{"icao":"LPPS","metar":"LPPS 282300Z 28014KT 9999 FEW012 SCT030 16/15 Q1020","updated":"2026-01-28T23:24:57Z"}
