{"icao":"KLAX","metar":"KLAX 071053Z 32010KT 10SM CLR 17/M06 A3000 RMK AO2 SLP156 T01671061 $","updated":"2026-03-07T11:18:48Z"}
