{"icao":"KJFK","metar":"KJFK 101951Z 16007KT 10SM FEW010 SCT070 BKN085 BKN200 17/13 A2992 RMK AO2 SLP132 VCSH T01720133 $","updated":"2026-05-10T20:44:09Z"}
