{"icao":"LPCS","metar":"LPCS 242000Z 27004KT 240V310 9999 FEW006 BKN022 20/20 Q1017","updated":"2025-10-24T20:20:09Z"}
