{"icao":"LPPT","metar":"LPPT 261330Z 22017G28KT 190V260 7000 FEW005 BKN008 16/15 Q1012","updated":"2026-01-26T13:42:53Z"}
