{"icao":"LPOV","metar":"LPOV 131800Z 15012KT 120V180 9999 SCT020 FEW025CB BKN035 17/15 Q0995","updated":"2025-11-13T18:26:54Z"}
