{"icao":"LPOV","metar":"LPOV 172200Z 16004KT 120V210 9999 SCT015 BKN020 15/12 Q1008","updated":"2026-03-17T22:31:43Z"}
