{"icao":"KJFK","metar":"KJFK 222251Z 25015G23KT 10SM FEW060 BKN095 16/02 A2980 RMK AO2 PK WND 25027/2154 SLP092 T01560022","updated":"2025-10-22T23:15:06Z"}
