{"icao":"LPFR","metar":"LPFR 281600Z 17005KT CAVOK 17/08 Q1020","updated":"2025-11-28T16:23:20Z"}
