{"icao":"LPPT","metar":"LPPT 211600Z 04008KT CAVOK 19/10 Q1027","updated":"2026-02-21T16:27:25Z"}
