{"icao":"KJFK","metar":"KJFK 211951Z 32008KT 10SM BKN038 08/M02 A2999 RMK AO2 SLP155 T00831017 $","updated":"2026-02-21T20:23:57Z"}
