{"icao":"KORD","metar":"KORD 220051Z 36006KT 10SM OVC090 07/02 A2997 RMK AO2 SLP153 T00670017","updated":"2025-11-22T01:21:02Z"}
