{"icao":"LPAZ","metar":"LPAZ 150830Z 03011KT 9999 FEW014 BKN027 15/13 Q1028","updated":"2026-03-15T08:35:05Z"}
