{"icao":"LPPR","metar":"LPPR 081500Z 21010KT 170V240 9999 FEW025 FEW030CB 18/07 Q1008","updated":"2026-05-08T15:20:16Z"}
