{"icao":"KJFK","metar":"KJFK 022251Z 20010KT 10SM BKN250 13/08 A3028 RMK AO2 SLP253 T01280078 $","updated":"2025-11-02T23:15:35Z"}
