{"icao":"KORD","metar":"KORD 070451Z 27007KT 5SM BR BKN007 OVC028 04/02 A2975 RMK AO2 CIG 006V011 SLP078 T00390022","updated":"2026-01-07T05:24:24Z"}
