{"icao":"LPPT","metar":"LPPT 071330Z 34009KT 290V020 9999 SCT036 16/08 Q1018","updated":"2026-03-07T13:37:11Z"}
