{"icao":"LPCS","metar":"LPCS 131000Z 05011KT CAVOK 15/10 Q1020","updated":"2025-12-13T10:18:20Z"}
