{"icao":"KJFK","metar":"KJFK 131551Z 22012KT 10SM SCT160 BKN250 03/M08 A3015 RMK AO2 SLP209 T00331078 $","updated":"2026-03-13T16:38:36Z"}
