{"icao":"KJFK","metar":"KJFK 160851Z 14020G32KT 2SM -RA BR BKN005 OVC018 09/08 A2988 RMK AO2 PK WND 13032/0828 SFC VIS 6 SLP118 P0000 60010 T00890083 56054 $","updated":"2026-03-16T08:55:23Z"}
