{"icao":"LPFL","metar":"LPFL 021700Z 16006KT 130V190 9999 BKN038 16/09 Q1029","updated":"2025-12-02T17:21:16Z"}
