{"icao":"LPPR","metar":"LPPR 300930Z 20016KT 8000 BKN015 BKN024 13/11 Q1007","updated":"2026-01-30T09:36:57Z"}
