{"icao":"LPMA","metar":"LPMA 291930Z 36018KT 330V030 9999 FEW015 18/10 Q1025","updated":"2026-03-29T19:36:16Z"}
