{"icao":"LPFR","metar":"LPFR 141700Z 07004KT 030V100 CAVOK 18/10 Q1014","updated":"2025-12-14T17:15:45Z"}
