{"icao":"KJFK","metar":"KJFK 250551Z 00000KT 10SM BKN200 BKN250 07/02 A3027 RMK AO2 SLP250 T00670017 10083 20050 56008","updated":"2025-11-25T06:30:12Z"}
