{"icao":"LPOV","metar":"LPOV 210100Z 35006KT CAVOK 13/12 Q1021","updated":"2025-09-21T01:24:49Z"}
