{"icao":"LPPR","metar":"LPPR 130730Z 13005KT 090V170 9999 VCSH SCT014 SCT020 10/09 Q1020","updated":"2026-04-13T08:00:58Z"}
