{"icao":"LPAZ","metar":"LPAZ 120430Z 20014KT 0800 R18/1000D FG VV002 16/16 Q1018","updated":"2026-02-12T04:56:36Z"}
