{"icao":"LPPT","metar":"LPPT 091800Z 24006KT 210V270 9999 FEW036 16/12 Q1020","updated":"2025-11-09T18:22:47Z"}
