{"icao":"LPPT","metar":"LPPT 290330Z 32004KT CAVOK 10/07 Q1017","updated":"2025-12-29T03:47:37Z"}
