{"icao":"LPPT","metar":"LPPT 051330Z 11005KT 050V150 CAVOK 24/10 Q1020","updated":"2026-04-05T13:54:13Z"}
