{"icao":"KLAX","metar":"KLAX 220253Z 25006KT 10SM FEW015 SCT035 BKN140 16/11 A2996 RMK AO2 SLP144 T01610111 51007 $","updated":"2025-11-22T03:03:06Z"}
