{"icao":"LPPD","metar":"LPPD 081400Z 22015KT 5000 -SHRA FEW006 SCT014 BKN030 20/19 Q1020","updated":"2025-11-08T14:15:17Z"}
