{"icao":"LPPD","metar":"LPPD 061630Z 24027G40KT 7000 SCT014 FEW020CB BKN030 16/13 Q1009","updated":"2026-02-06T16:42:00Z"}
