{"icao":"KORD","metar":"KORD 081251Z 34005KT 10SM FEW035 10/07 A3035 RMK AO2 SLP279 T01000067","updated":"2025-10-08T13:28:48Z"}
