{"icao":"LPLA","metar":"LPLA 052200Z 31018KT 8000 -RA FEW018 BKN024 13/12 Q1010","updated":"2026-04-05T22:29:20Z"}
