{"icao":"LPAR","metar":"LPAR 301000Z 22006KT 180V250 9999 SCT018 SCT035 19/17 Q1014","updated":"2025-10-30T10:19:44Z"}
