{"icao":"LPFL","metar":"LPFL 240730Z 17017KT 140V200 9999 FEW008 BKN013 16/14 Q1004","updated":"2026-04-24T08:01:35Z"}
