{"icao":"LPPS","metar":"LPPS 141100Z 06014KT 9999 FEW015 BKN030 24/18 Q1024","updated":"2025-09-14T11:11:43Z"}
