{"icao":"LPPS","metar":"LPPS 190800Z 36011KT 9999 SCT015 SCT030 15/10 Q1025","updated":"2026-01-19T08:31:46Z"}
