{"icao":"KORD","metar":"KORD 081051Z 02011G15KT 10SM BKN013 OVC021 07/05 A2980 RMK AO2 DZE19 SLP091 P0000 T00670050 $","updated":"2025-11-08T11:13:21Z"}
