{"icao":"LPFL","metar":"LPFL 061430Z 18019KT 150V220 9999 FEW022 SCT049 16/11 Q1024","updated":"2026-03-06T14:36:51Z"}
