{"icao":"LPPD","metar":"LPPD 180630Z VRB02KT 7000 +RA FEW006 SCT016 BKN025 13/12 Q1016","updated":"2026-04-18T07:05:28Z"}
