{"icao":"KJFK","metar":"KJFK 112151Z 28024G36KT 10SM BKN055 BKN070 05/M06 A2977 RMK AO2 PK WND 28038/2100 SLP080 T00501056 $","updated":"2025-11-11T22:17:52Z"}
