{"icao":"LPCS","metar":"LPCS 191930Z 09008KT 060V120 9999 -RA FEW005 SCT010 13/12 Q1005","updated":"2026-03-19T19:47:47Z"}
