{"icao":"LPAZ","metar":"LPAZ 262130Z 12009KT 9999 FEW007 17/16 Q1022","updated":"2026-04-26T21:36:39Z"}
