{"icao":"LPST","metar":"LPST 091300Z 20014KT 3000 -RA BR BKN005 BKN012 17/16 Q1015","updated":"2025-12-09T13:34:52Z"}
