{"icao":"LPLA","metar":"LPLA 031700Z 06008KT 020V100 9999 SCT028 17/09 Q1023","updated":"2026-05-03T17:45:09Z"}
