{"icao":"KORD","metar":"KORD 061451Z 31007KT 7SM FEW048 BKN075 BKN100 04/02 A2955 RMK AO2 SLP012 T00390017 51006","updated":"2026-01-06T15:22:02Z"}
