{"icao":"KLAX","metar":"KLAX 101816Z 22010KT 10SM FEW008 SCT016 BKN280 18/13 A3000 RMK AO2 T01830133","updated":"2026-04-10T18:51:19Z"}
