{"icao":"KORD","metar":"KORD 180051Z 25011G18KT 5SM -SN BKN044 OVC065 M09/M13 A3007 RMK AO2 SLP195 P0000 T10941133 $","updated":"2026-01-18T01:48:06Z"}
