{"icao":"LPLA","metar":"LPLA 021400Z 03007KT 350V060 9999 FEW022 25/14 Q1029","updated":"2026-06-02T14:51:22Z"}
