{"icao":"LPCS","metar":"LPCS 012000Z 34023G35KT 9000 -DZ FEW002 BKN007 17/15 Q1019","updated":"2026-06-01T22:09:25Z"}
