{"icao":"LPPT","metar":"LPPT 180930Z 15012KT 9999 FEW016 BKN020 15/13 Q1004","updated":"2026-03-18T09:53:23Z"}
