{"icao":"LPMR","metar":"LPMR 310300Z 14002KT 1800 BR FEW004 04/03 Q1020","updated":"2025-12-31T03:25:47Z"}
