{"icao":"LPLA","metar":"LPLA 120200Z VRB06KT 9999 FEW014 SCT020 BKN030 17/13 Q1016","updated":"2026-02-12T02:05:39Z"}
