{"icao":"KJFK","metar":"KJFK 181951Z 18012KT 10SM FEW160 FEW250 01/M12 A3042 RMK AO2 SLP301 T00111122","updated":"2026-03-18T20:34:22Z"}
