{"icao":"KLAX","metar":"KLAX 201453Z 09006KT 3SM BR FEW008 OVC011 14/12 A3007 RMK AO2 SLP181 VIS SW-W 2 T01390117 51003","updated":"2025-12-20T15:17:51Z"}
