{"icao":"LPCS","metar":"LPCS 301230Z 19011KT 9999 FEW018 SCT036 19/16 Q1014","updated":"2025-10-30T12:38:00Z"}
