{"icao":"LPMA","metar":"LPMA 170130Z 00000KT 9999 BKN014 16/11 Q1012","updated":"2026-03-17T02:01:49Z"}
