{"icao":"KLAX","metar":"KLAX 011653Z 21007KT 8SM FEW009 SCT016 BKN019 21/16 A3004 RMK AO2 SLP170 T02060156 $","updated":"2025-10-01T17:15:47Z"}
