{"icao":"LPLA","metar":"LPLA 152300Z 15009G22KT 120V260 9999 FEW015 SCT025 16/13 Q1027","updated":"2026-02-15T23:25:22Z"}
