{"icao":"LPFL","metar":"LPFL 291900Z 28008KT 250V330 9999 -RA FEW020 BKN040 13/08 Q1004","updated":"2026-04-29T19:23:08Z"}
