{"icao":"LPHR","metar":"LPHR 201400Z 25013KT 6000 FEW004 BKN007 23/22 Q1014","updated":"2025-10-20T14:17:43Z"}
