{"icao":"KJFK","metar":"KJFK 281051Z 01004KT 7SM BKN003 BKN250 M01/M01 A3015 RMK AO2 VIS 1/4 W SLP208 T10111011","updated":"2026-02-28T11:17:47Z"}
