{"icao":"KORD","metar":"KORD 291851Z 35014KT 10SM BKN019 BKN048 OVC065 10/06 A2994 RMK AO2 SLP139 T01000056","updated":"2026-04-29T19:23:09Z"}
