{"icao":"LPPT","metar":"LPPT 211400Z 24006KT 150V300 CAVOK 34/12 Q1016","updated":"2026-06-21T14:07:33Z"}
