{"icao":"LPHR","metar":"LPHR 180700Z 01005KT 270V030 9999 FEW012 14/12 Q1026","updated":"2025-11-18T07:18:31Z"}
