{"icao":"LPLA","metar":"LPLA 091000Z 18014KT 140V200 9999 FEW009 BKN016 21/19 Q1021","updated":"2025-10-09T10:19:19Z"}
