{"icao":"KJFK","metar":"KJFK 081851Z 17006KT 10SM FEW040 SCT150 BKN250 14/10 A2978 RMK AO2 SLP083 T01440100","updated":"2026-03-08T19:22:40Z"}
