{"icao":"KJFK","metar":"KJFK 050851Z 03009KT 10SM BKN170 BKN250 M06/M14 A3034 RMK AO2 SLP272 T10561139 51006 $","updated":"2025-12-05T09:21:08Z"}
