{"icao":"LPAZ","metar":"LPAZ 272200Z 19009KT 170V230 9999 SCT025 BKN035 18/14 Q1024","updated":"2025-11-27T22:17:17Z"}
