{"icao":"KORD","metar":"KORD 090851Z 14005KT 10SM BKN060 M04/M09 A3019 RMK AO2 SLP231 T10391089 58018 $","updated":"2026-02-09T08:56:02Z"}
