{"icao":"LPHR","metar":"LPHR 121830Z 26014KT 9999 FEW011 BKN038 17/15 Q1029","updated":"2026-03-12T18:52:27Z"}
