{"icao":"LPCS","metar":"LPCS 081000Z 00000KT 9999 FEW007 BKN020 12/11 Q1033","updated":"2026-01-08T10:23:12Z"}
