{"icao":"KLAX","metar":"KLAX 282153Z 27011KT 10SM CLR 24/14 A2994 RMK AO2 SLP138 T02440139 $","updated":"2025-10-28T22:17:49Z"}
