{"icao":"KJFK","metar":"KJFK 152151Z 11010KT 10SM FEW055 FEW070 BKN250 22/15 A3023 RMK AO2 SLP235 T02220150 $","updated":"2025-09-15T22:15:11Z"}
