{"icao":"LPPR","metar":"LPPR 311930Z 32010KT 300V360 9999 FEW004 18/15 Q1020","updated":"2026-05-31T19:37:28Z"}
