{"icao":"LPHR","metar":"LPHR 030600Z 24008KT 9999 SCT005 BKN020 22/22 Q1020","updated":"2025-10-03T06:26:08Z"}
