{"icao":"LPPT","metar":"LPPT 051700Z 34010KT CAVOK 24/15 Q1018","updated":"2025-10-05T17:13:12Z"}
