{"icao":"KORD","metar":"KORD 110402Z 09010KT 5SM -TSRA BR SCT006 BKN044CB OVC090 07/06 A2968 RMK AO2 PRESFR FRQ LTGICCCCG NE-S TS NE-S MOV E P0008 T00720061 $","updated":"2026-03-11T04:09:34Z"}
