{"icao":"LPBJ","metar":"LPBJ 310200Z 05004KT CAVOK 12/04 Q1026","updated":"2026-03-31T02:12:57Z"}
