{"icao":"KJFK","metar":"KJFK 261151Z 14005KT 10SM BKN031 BKN120 OVC250 21/18 A3004 RMK SLP173 60007 70007 T02060183 10211 20194 55003 $ ","updated":"2026-06-26T12:09:36Z"}
