{"icao":"KLAX","metar":"KLAX 010853Z 29006KT 7SM -RA FEW008 SCT020 OVC060 17/16 A2993 RMK AO2 SLP134 P0004 60009 T01670156 50000 $","updated":"2026-04-01T09:02:33Z"}
