{"icao":"LPMA","metar":"LPMA 251800Z 35006KT 290V020 9999 BKN015 17/10 Q1019","updated":"2025-12-25T18:28:12Z"}
