{"icao":"LPFL","metar":"LPFL 271230Z 15015KT 6000 -RA FEW005 BKN007 15/14 Q1017 RERA","updated":"2025-12-27T12:37:38Z"}
