{"icao":"LPFL","metar":"LPFL 101600Z 29014G28KT 240V360 9999 VCSH SCT016 FEW017CB BKN030 19/15 Q1008 RERA","updated":"2025-11-10T16:25:12Z"}
