{"icao":"KLAX","metar":"KLAX 080653Z 17003KT 10SM FEW007 SCT010 16/14 A3001 RMK AO2 SLP160 T01560139","updated":"2026-05-08T07:28:35Z"}
