{"icao":"LPFL","metar":"LPFL 301000Z 15004KT 100V220 9999 FEW022 BKN035 18/12 Q1027","updated":"2025-11-30T10:18:34Z"}
