{"icao":"LPCS","metar":"LPCS 011800Z 36013KT CAVOK 23/12 Q1020","updated":"2025-10-01T18:25:23Z"}
