{"icao":"LPPD","metar":"LPPD 031230Z 28016KT 9999 FEW023 15/10 Q1028","updated":"2026-03-03T12:55:33Z"}
