{"icao":"KLAX","metar":"KLAX 110053Z 23008KT 10SM FEW095 SCT140 SCT230 BKN280 22/14 A2979 RMK AO2 SLP088 T02170144 $","updated":"2025-10-11T01:16:07Z"}
