{"icao":"LPCS","metar":"LPCS 091130Z 19014KT 160V220 9999 FEW016 BKN026 18/12 Q1004","updated":"2026-05-09T11:50:43Z"}
