{"icao":"LPHR","metar":"LPHR 081230Z 23012KT 9999 FEW005 SCT012 BKN035 18/16 Q1030","updated":"2026-01-08T12:42:55Z"}
