{"icao":"LPMA","metar":"LPMA 220600Z 36010KT 9999 BKN015 20/15 Q1020","updated":"2025-09-22T06:27:51Z"}
