{"icao":"LPMA","metar":"LPMA 251500Z 10004KT 020V180 9999 SCT015 24/15 Q1020","updated":"2025-09-25T15:18:45Z"}
