{"icao":"LPPR","metar":"LPPR 271630Z 33008KT 300V010 CAVOK 18/09 Q1018","updated":"2026-03-27T16:53:30Z"}
