{"icao":"KLAX","metar":"KLAX 300653Z 05005KT 10SM BKN150 BKN250 17/M03 A3014 RMK AO2 SLP203 T01671028 $","updated":"2025-12-30T07:21:58Z"}
