{"icao":"KORD","metar":"KORD 070551Z 36015KT 10SM CLR M08/M17 A3025 RMK AO2 SLP252 4/001 T10781172 11006 21078 400331078 51030 $","updated":"2026-02-07T06:40:36Z"}
