{"icao":"LPBJ","metar":"LPBJ 141000Z 31015KT CAVOK 10/06 Q1025","updated":"2026-02-14T10:25:32Z"}
