{"icao":"LPFR","metar":"LPFR 240730Z 02004KT 320V050 CAVOK 15/11 Q1017","updated":"2026-04-24T08:01:15Z"}
