{"icao":"LPPR","metar":"LPPR 260100Z 04003KT CAVOK 07/06 Q1025","updated":"2025-11-26T01:24:26Z"}
