{"icao":"KORD","metar":"KORD 200951Z 20003KT 3SM BR OVC004 06/04 A3012 RMK AO2 SLP204 T00560044","updated":"2025-11-20T10:21:01Z"}
