{"icao":"KORD","metar":"KORD 051951Z 20015G24KT 10SM FEW029 SCT055 BKN080 M02/M07 A2984 RMK AO2 SNE43 SLP112 P0000 T10171072","updated":"2026-02-05T20:32:39Z"}
