{"icao":"LPPR","metar":"LPPR 021730Z 22006KT 180V300 9999 FEW020 BKN040 15/10 Q1008","updated":"2026-03-02T17:43:44Z"}
