{"icao":"LPFR","metar":"LPFR 171700Z 23005KT CAVOK 27/19 Q1018","updated":"2025-09-17T17:15:12Z"}
