{"icao":"KLAX","metar":"KLAX 192253Z 26016KT 10SM FEW007 FEW016 SCT030 20/14 A3000 RMK AO2 PK WND 27027/2239 SLP156 T02000139","updated":"2026-06-19T23:03:42Z"}
