{"icao":"KORD","metar":"KORD 081151Z 17008KT 10SM FEW150 BKN250 06/02 A2984 RMK AO2 SLP107 T00610017 10067 20050 57006","updated":"2026-01-08T12:43:09Z"}
