{"icao":"LPFR","metar":"LPFR 131800Z 35011KT CAVOK 33/04 Q1018","updated":"2025-09-13T18:20:39Z"}
