{"icao":"KORD","metar":"KORD 081451Z 18014G22KT 10SM FEW050 SCT150 BKN250 09/M04 A3022 RMK AO2 SLP237 T00891039 58017","updated":"2026-04-08T15:08:36Z"}
