{"icao":"LPAZ","metar":"LPAZ 042300Z 04007KT 360V060 9999 SCT024 SCT042 14/08 Q1024","updated":"2026-01-04T23:18:46Z"}
