{"icao":"LPPT","metar":"LPPT 270600Z 04009KT CAVOK 16/10 Q1019","updated":"2025-10-27T06:30:20Z"}
