{"icao":"KORD","metar":"KORD 120651Z 23013G20KT 10SM FEW100 SCT160 BKN250 M03/M07 A3024 RMK AO2 SLP248 T10281067 $","updated":"2026-01-12T07:26:45Z"}
