{"icao":"LPMA","metar":"LPMA 070900Z 23004KT 9999 SCT016 20/13 Q1021","updated":"2025-11-07T09:19:07Z"}
