{"icao":"LPMR","metar":"LPMR 031500Z 33010KT 9999 SCT012 18/14 Q1023","updated":"2025-10-03T15:17:03Z"}
