{"icao":"LPHR","metar":"LPHR 010700Z 27019KT 6000 -RA SCT003 BKN006 16/16 Q1024","updated":"2026-03-01T07:31:38Z"}
