{"icao":"LPPD","metar":"LPPD 160600Z 34006KT 9999 FEW022 12/09 Q1022","updated":"2025-11-16T06:26:30Z"}
