{"icao":"KORD","metar":"KORD 042051Z 16006KT 10SM FEW080 FEW110 17/M03 A3006 RMK AO2 SLP181 T01671033 56044 $","updated":"2025-11-04T21:17:26Z"}
