{"icao":"LPPT","metar":"LPPT 051030Z 34009KT 300V360 9999 FEW030 16/07 Q1018","updated":"2026-05-05T10:44:44Z"}
