{"icao":"KJFK","metar":"KJFK 281051Z 34010KT 10SM FEW110 SCT180 20/11 A2982 RMK AO2 SLP098 T02000106 $","updated":"2026-05-28T11:37:51Z"}
