{"icao":"KORD","metar":"KORD 151819Z 08007KT 10SM OVC010 14/12 A3023 RMK AO2 T01440122","updated":"2025-10-15T18:26:54Z"}
