{"icao":"LPPT","metar":"LPPT 251300Z 08005G17KT 350V150 CAVOK 21/12 Q1019","updated":"2026-03-25T13:07:28Z"}
