{"icao":"LPPT","metar":"LPPT 050100Z 19014KT 9999 FEW045 21/14 Q1011","updated":"2025-11-05T01:24:14Z"}
