{"icao":"KLAX","metar":"KLAX 170453Z 22003KT 10SM CLR 16/14 A2990 RMK AO2 SLP124 T01610139","updated":"2026-04-17T05:27:03Z"}
