{"icao":"KORD","metar":"KORD 300351Z 15010KT 1SM R10L/P6000FT -SN BR OVC009 M02/M03 A2979 RMK AO2 SLP097 P0002 T10171028 $","updated":"2025-11-30T04:33:17Z"}
