{"icao":"KJFK","metar":"KJFK 192251Z 28016G22KT 10SM SCT075 SCT090 SCT250 28/07 A2966 RMK AO2 SLP043 T02780072 $","updated":"2026-06-19T23:03:41Z"}
