{"icao":"KLAX","metar":"KLAX 241615Z 07005KT 6SM BR BKN010 14/12 A3018 RMK AO2 T01440122","updated":"2025-11-24T16:22:13Z"}
