{"icao":"LPPD","metar":"LPPD 080400Z 08003KT 9999 FEW011 20/19 Q1025","updated":"2025-10-08T04:20:26Z"}
