{"icao":"LPMR","metar":"LPMR 042000Z 35006KT 1500 BR OVC002 17/17 Q1024","updated":"2025-10-04T20:16:48Z"}
