{"icao":"KORD","metar":"KORD 151051Z 06012KT 10SM OVC036 13/11 A3026 RMK AO2 DZB30E39 SLP245 P0000 T01330106 $","updated":"2025-10-15T11:15:38Z"}
