{"icao":"LPPS","metar":"LPPS 080130Z 06006KT 010V080 9999 SCT015 SCT030 13/08 Q1025","updated":"2026-03-08T02:01:30Z"}
