{"icao":"LPPT","metar":"LPPT 242300Z 19006KT 160V220 9999 SCT009 BKN034 14/13 Q1015","updated":"2026-02-24T23:30:09Z"}
