{"icao":"KORD","metar":"KORD 041411Z 06006KT 5SM BR FEW006 BKN250 02/01 A3020 RMK AO2 T00220006","updated":"2026-03-04T14:40:50Z"}
