{"icao":"LPMR","metar":"LPMR 090300Z 32010KT 3000 -DZ BR SCT003 OVC007 13/12 Q1027","updated":"2026-01-09T03:38:14Z"}
