{"icao":"LPPS","metar":"LPPS 051400Z 29015KT 9999 FEW014 24/11 Q1019","updated":"2025-11-05T14:19:05Z"}
