{"icao":"KORD","metar":"KORD 111651Z 05011KT 10SM SCT032 SCT300 19/10 A3016 RMK AO2 SLP211 T01890100","updated":"2025-10-11T17:13:27Z"}
