{"icao":"LPOV","metar":"LPOV 130700Z 17006KT 9999 FEW040 21/15 Q1017","updated":"2026-06-13T07:44:42Z"}
