{"icao":"KJFK","metar":"KJFK 161651Z 31024G34KT 10SM SCT060 SCT200 SCT250 14/M02 A2927 RMK AO2 PK WND 28037/1636 SLP912 T01391022 $","updated":"2025-11-16T17:15:14Z"}
