{"icao":"LPPR","metar":"LPPR 170800Z 11008KT 060V180 9999 VCSH SCT017 FEW020CB 05/05 Q1012","updated":"2026-01-17T08:25:07Z"}
