{"icao":"LPPD","metar":"LPPD 261300Z 02012KT 340V060 9999 VCSH FEW007 SCT012 15/13 Q1024","updated":"2025-12-26T13:31:28Z"}
