{"icao":"LPAZ","metar":"LPAZ 180430Z 32016KT 9999 FEW010 BKN020 BKN040 15/13 Q1028","updated":"2026-01-18T04:40:29Z"}
