{"icao":"KORD","metar":"KORD 101520Z 33019G28KT 4SM -SN BR OVC013 00/M02 A2950 RMK AO2 PK WND 32028/1519 PRESRR P0000 T00001022","updated":"2025-12-10T15:23:54Z"}
