{"icao":"LPBJ","metar":"LPBJ 270100Z 26004KT CAVOK 15/03 Q1020","updated":"2025-09-27T01:15:16Z"}
