{"icao":"KJFK","metar":"KJFK 271851Z 01004KT 10SM -RA SCT065 BKN090 OVC130 23/18 A3002 RMK RAB10 SLP165 P0001 T02280183 ","updated":"2026-06-27T19:18:27Z"}
