{"icao":"LPMT","metar":"LPMT 041100Z 25010KT 6000 -RADZ SCT007 BKN016 15/15 Q0997","updated":"2026-02-04T11:31:54Z"}
