{"icao":"LPCS","metar":"LPCS 271030Z 23006KT 190V260 CAVOK 22/15 Q1014","updated":"2026-04-27T11:02:27Z"}
