{"icao":"KLAX","metar":"KLAX 011753Z 18004KT 10SM BKN025 20/12 A2997 RMK AO2 SLP148 T02000122 10200 20161 50004","updated":"2026-05-01T18:03:18Z"}
