{"icao":"LPPR","metar":"LPPR 141300Z 30005KT 270V330 CAVOK 22/15 Q1017","updated":"2025-10-14T13:28:58Z"}
