{"icao":"LPFR","metar":"LPFR 231500Z 27015KT 9999 FEW015 SCT025 17/13 Q1009","updated":"2025-12-23T15:20:42Z"}
