{"icao":"LPMR","metar":"LPMR 051500Z 25008KT 210V280 5000 BR FEW007 SCT009 BKN012 17/16 Q1020","updated":"2025-12-05T15:20:19Z"}
