{"icao":"LPPS","metar":"LPPS 241430Z 18009KT 140V230 9999 FEW015 20/13 Q1017","updated":"2026-02-24T14:48:23Z"}
