{"icao":"LPFL","metar":"LPFL 161800Z 33006KT 210V010 9999 BKN033 15/08 Q1035","updated":"2026-01-16T18:31:01Z"}
