{"icao":"LPPD","metar":"LPPD 282200Z 24019KT 7000 FEW006 BKN010 17/16 Q1009","updated":"2026-01-28T22:25:47Z"}
