{"icao":"LPOV","metar":"LPOV 141000Z VRB02KT CAVOK 20/13 Q1018","updated":"2025-10-14T10:18:58Z"}
