{"icao":"LPFL","metar":"LPFL 140900Z 31003KT 250V350 9999 FEW015 BKN025 16/12 Q1033","updated":"2026-03-14T09:32:09Z"}
