{"icao":"KJFK","metar":"KJFK 022151Z 20007KT 10SM BKN250 12/07 A3026 RMK AO2 SLP248 T01170067 $","updated":"2025-11-02T22:15:40Z"}
