{"icao":"LPPR","metar":"LPPR 051600Z 36009KT 340V040 9999 SCT048 10/00 Q1015","updated":"2026-01-05T16:26:22Z"}
