{"icao":"LPFR","metar":"LPFR 230500Z 04004KT CAVOK 10/01 Q1026","updated":"2025-11-23T05:17:12Z"}
