{"icao":"LPAR","metar":"LPAR 141700Z 33004KT 300V010 9999 SCT022 SCT030 14/10 Q1020","updated":"2026-01-15T07:24:01Z"}
