{"icao":"LPPD","metar":"LPPD 131000Z 05005KT 010V100 9999 FEW020 SCT040 20/16 Q1017","updated":"2025-10-13T10:21:00Z"}
