{"icao":"LPPR","metar":"LPPR 101430Z 31005KT 270V350 CAVOK 23/15 Q1012","updated":"2026-04-10T14:46:31Z"}
