{"icao":"KJFK","metar":"KJFK 070351Z 24009KT 10SM SCT250 19/17 A3023 RMK AO2 SLP237 T01890172 $","updated":"2025-10-07T04:21:49Z"}
