{"icao":"LPPR","metar":"LPPR 210330Z 18021KT 4000 -RA BR BKN005 12/11 Q1006 RERA","updated":"2026-01-21T03:42:22Z"}
