{"icao":"KJFK","metar":"KJFK 130851Z 33017KT 10SM FEW060 01/M11 A3008 RMK AO2 SLP186 T00061106 53007 $","updated":"2026-03-13T09:37:03Z"}
