{"icao":"LPBJ","metar":"LPBJ 031000Z 09006KT 050V120 CAVOK 19/06 Q1023","updated":"2026-04-03T10:41:44Z"}
