{"icao":"LPPR","metar":"LPPR 080230Z 00000KT 6000 OVC033 16/15 Q1022","updated":"2025-10-08T02:56:14Z"}
