{"icao":"LPAR","metar":"LPAR 021000Z 29015KT 260V320 9999 VCSH SCT018 FEW020CB SCT035 11/06 Q0999","updated":"2026-02-02T10:42:43Z"}
