{"icao":"LPAZ","metar":"LPAZ 090900Z 02013KT 6000 -DZ SCT002 BKN011 15/14 Q1033","updated":"2026-04-09T09:05:57Z"}
