{"icao":"LPOV","metar":"LPOV 201800Z 35014KT CAVOK 21/10 Q1021","updated":"2026-05-20T19:22:57Z"}
