{"icao":"LPOV","metar":"LPOV 171200Z 16006KT 120V200 9999 FEW016 FEW020CB BKN045 11/08 Q1011","updated":"2026-01-17T12:37:23Z"}
