{"icao":"LPPS","metar":"LPPS 111830Z 06015KT 9999 SCT012 16/12 Q1024","updated":"2026-03-11T18:52:25Z"}
