{"icao":"KJFK","metar":"KJFK 171751Z 23012KT 3SM BR BKN008 OVC032 02/01 A3012 RMK AO2 SFC VIS 5 SLP198 BKN V SCT 4/002 933004 T00170011 10017 20011 58016 $","updated":"2026-02-17T17:55:06Z"}
