{"icao":"LPAZ","metar":"LPAZ 212100Z 29016KT 9000 BKN006 17/16 Q1020","updated":"2026-01-21T21:27:23Z"}
