{"icao":"LPOV","metar":"LPOV 220700Z VRB02KT CAVOK 18/15 Q1019","updated":"2026-05-22T07:42:48Z"}
