{"icao":"LPMR","metar":"LPMR 050400Z 16015KT 3000 TSRA BR SCT020CB BKN030 17/16 Q1006","updated":"2025-11-05T05:18:51Z"}
