{"icao":"KLAX","metar":"KLAX 241953Z 24008KT 10SM FEW024 BKN044 17/11 A2990 RMK AO2 SLP122 T01670111 $","updated":"2026-01-24T20:21:00Z"}
