{"icao":"LPFR","metar":"LPFR 210330Z 24011KT 9999 FEW022 BKN035 15/11 Q1016","updated":"2026-01-21T03:42:22Z"}
