{"icao":"LPMT","metar":"LPMT 211800Z 33005KT 300V010 9999 FEW025 SCT045 10/05 Q1009","updated":"2025-12-21T18:26:36Z"}
