{"icao":"KORD","metar":"KORD 290051Z 22003KT 10SM FEW250 M03/M11 A3036 RMK AO2 SLP291 T10281106 $","updated":"2025-11-29T01:22:38Z"}
