{"icao":"LPHR","metar":"LPHR 071330Z 27003KT 220V300 9999 -RA FEW005 SCT050 BKN095 15/14 Q1021","updated":"2026-03-07T13:37:34Z"}
