{"icao":"LPOV","metar":"LPOV 221600Z 16016KT 3000 -RADZ BR FEW004 BKN007 BKN015 11/11 Q0999 RERADZ","updated":"2026-01-22T16:34:37Z"}
