{"icao":"LPHR","metar":"LPHR 182100Z 04011KT 360V070 9999 FEW020 14/09 Q1031","updated":"2026-01-18T21:17:53Z"}
