{"icao":"KLAX","metar":"KLAX 201253Z VRB05KT 4SM BR OVC010 14/12 A3006 RMK AO2 SLP178 T01440122","updated":"2025-12-20T13:26:28Z"}
