{"icao":"KLAX","metar":"KLAX 282153Z 27012KT 10SM FEW032 FEW038 22/13 A2990 RMK AO2 SLP122 T02170133","updated":"2026-06-28T22:00:53Z"}
