{"icao":"LPFL","metar":"LPFL 131430Z 08006KT 050V140 9999 FEW020 21/15 Q1021","updated":"2026-06-13T14:59:08Z"}
