{"icao":"KJFK","metar":"KJFK 121151Z 29013G23KT 10SM FEW050 SCT250 00/M09 A3016 RMK AO2 SLP213 T00001089 10011 20000 51023 $","updated":"2026-01-12T12:44:57Z"}
