{"icao":"LPBJ","metar":"LPBJ 070500Z 25003KT CAVOK 03/01 Q1025","updated":"2026-01-07T05:24:09Z"}
