{"icao":"LPMR","metar":"LPMR 032000Z 18003KT 150V210 CAVOK 15/12 Q1021","updated":"2025-11-03T20:20:34Z"}
