{"icao":"LPPD","metar":"LPPD 221300Z 22009KT 0100 R30/0175 FG VV001 17/17 Q1020","updated":"2026-05-22T13:30:22Z"}
