{"icao":"LPPS","metar":"LPPS 171430Z 07011KT 040V100 9999 -DZ SCT014 BKN030 17/13 Q1019","updated":"2026-04-17T14:53:58Z"}
