{"icao":"LPLA","metar":"LPLA 010100Z 27004KT 230V300 9999 FEW015 20/18 Q1020","updated":"2025-10-01T01:26:49Z"}
