{"icao":"LPFL","metar":"LPFL 222100Z 16006KT 130V220 9999 BKN015 18/14 Q1027","updated":"2025-11-22T22:17:04Z"}
