{"icao":"LPHR","metar":"LPHR 150900Z 20011KT 9999 FEW016 SCT035 17/14 Q1028","updated":"2026-02-15T09:29:55Z"}
