{"icao":"LPPD","metar":"LPPD 190130Z 16010KT 9999 SCT014 15/13 Q1026","updated":"2026-02-19T02:04:00Z"}
