{"icao":"LPAR","metar":"LPAR 301300Z 06005KT 360V130 9999 FEW035 28/14 Q1018","updated":"2025-09-30T13:27:46Z"}
