{"icao":"LPMR","metar":"LPMR 100000Z 35005KT CAVOK 14/12 Q1021","updated":"2026-06-10T00:11:32Z"}
