{"icao":"LPOV","metar":"LPOV 092000Z 02006KT 9999 SCT018 10/08 Q1020","updated":"2026-03-09T20:33:07Z"}
