{"icao":"LPPD","metar":"LPPD 290100Z 14009KT 100V160 9999 FEW025 21/16 Q1027","updated":"2025-09-29T01:20:14Z"}
