{"icao":"LPFR","metar":"LPFR 012100Z 22006KT CAVOK 25/21 Q1015","updated":"2026-07-01T21:26:32Z"}
