{"icao":"LPPD","metar":"LPPD 231530Z 20023KT 6000 SCT005 BKN011 17/16 Q1010","updated":"2026-02-23T15:44:00Z"}
