{"icao":"LPHR","metar":"LPHR 240900Z 02007KT 9999 FEW018 19/13 Q1023","updated":"2025-09-24T09:18:53Z"}
