{"icao":"LPPS","metar":"LPPS 191300Z 31009KT 280V340 9999 SCT004 SCT030 24/21 Q1019","updated":"2025-10-19T13:21:43Z"}
