{"icao":"LPHR","metar":"LPHR 180830Z 35019G31KT 320V030 9000 SCT018 SCT035 10/04 Q1018","updated":"2026-03-18T08:48:33Z"}
