{"icao":"LPFR","metar":"LPFR 172100Z 32004KT CAVOK 15/12 Q1016","updated":"2025-11-17T21:17:02Z"}
