{"icao":"KORD","metar":"KORD 140251Z 11004KT 10SM FEW160 FEW250 21/18 A3000 RMK AO2 SLP155 T02110183 50007 $","updated":"2025-09-14T03:01:05Z"}
