{"icao":"LPLA","metar":"LPLA 251700Z 10010G20KT 050V140 9999 VCSH FEW012 BKN016 BKN030 17/15 Q1021","updated":"2025-10-25T17:14:02Z"}
