{"icao":"KLAX","metar":"KLAX 161053Z 00000KT 6SM BCFG BR FEW000 FEW006 SCT200 15/14 A2998 RMK AO2 SLP150 VIS NW-N 2 FG FEW000 FG BANK NW-N T01500144 $","updated":"2026-03-16T11:45:19Z"}
