{"icao":"LPFR","metar":"LPFR 162230Z 34009KT CAVOK 18/09 Q1017","updated":"2026-05-16T22:42:14Z"}
