{"icao":"LPOV","metar":"LPOV 080500Z 13003KT CAVOK 07/07 Q1020","updated":"2026-03-08T05:41:39Z"}
