{"icao":"LPPR","metar":"LPPR 120230Z 11009KT CAVOK 18/10 Q1017","updated":"2025-10-12T03:00:54Z"}
