{"icao":"KLAX","metar":"KLAX 031253Z 08003KT 10SM FEW015 FEW200 13/11 A2996 RMK AO2 SLP142 T01330111 $","updated":"2026-04-03T13:01:19Z"}
