{"icao":"LPMT","metar":"LPMT 271900Z 06015KT 9999 BKN038 09/07 Q1006","updated":"2025-12-27T19:14:19Z"}
