{"icao":"LPHR","metar":"LPHR 041600Z 14005KT 9999 SCT010 SCT050 24/22 Q1026","updated":"2025-10-04T16:18:48Z"}
