{"icao":"LPAZ","metar":"LPAZ 181800Z 32011KT 9999 SCT003 BKN006 17/15 Q1028","updated":"2026-01-18T18:26:39Z"}
