{"icao":"LPMA","metar":"LPMA 270800Z 01009KT 340V050 9999 FEW015 17/14 Q1014","updated":"2026-01-27T08:32:16Z"}
