{"icao":"KORD","metar":"KORD 130051Z 26007KT 10SM SCT300 09/M02 A2999 RMK AO2 SLP160 T00891022 $","updated":"2025-11-13T01:25:04Z"}
