{"icao":"LPPR","metar":"LPPR 291100Z 18009KT 6000 -DZ FEW010 SCT015 BKN025 13/12 Q1017","updated":"2025-11-29T11:14:27Z"}
