{"icao":"KJFK","metar":"KJFK 100651Z 10004KT 10SM FEW250 04/04 A3003 RMK AO2 SLP168 T00440039 $","updated":"2026-03-10T07:39:26Z"}
