{"icao":"LPFL","metar":"LPFL 061600Z VRB10KT 9999 FEW020 18/12 Q1006","updated":"2025-12-06T16:21:18Z"}
