{"icao":"KJFK","metar":"KJFK 221751Z 35009KT 10SM FEW020 SCT070 BKN085 10/05 A2986 RMK AO2 SLP112 60005 T01000050 10100 20078 55008","updated":"2025-11-22T18:24:47Z"}
