{"icao":"KJFK","metar":"KJFK 170051Z 34014KT 10SM CLR 13/M04 A2995 RMK AO2 SLP141 T01281044","updated":"2025-10-17T01:19:46Z"}
