{"icao":"KJFK","metar":"KJFK 211651Z 21011KT 10SM FEW250 18/06 A2991 RMK AO2 SLP128 T01780056","updated":"2025-10-21T17:17:05Z"}
