{"icao":"LPPS","metar":"LPPS 150900Z 23007G18KT 200V260 9999 SCT014 FEW018CB SCT030 20/17 Q1013 RERA","updated":"2025-11-15T09:17:06Z"}
