{"icao":"LPMT","metar":"LPMT 252200Z 24003KT 7000 1500SW BCFG SCT005 SCT015 BKN025 13/13 Q1014","updated":"2026-01-25T22:19:12Z"}
