{"icao":"KJFK","metar":"KJFK 270751Z 22006KT 10SM BKN250 18/16 A2995 RMK AO2 SLP142 T01780161 $","updated":"2026-05-27T08:02:10Z"}
