{"icao":"LPPT","metar":"LPPT 161700Z 26012KT 230V290 9999 FEW025 FEW030CB 17/11 Q1011","updated":"2025-11-16T17:14:37Z"}
