{"icao":"LPBJ","metar":"LPBJ 290800Z VRB01KT 8000 BCFG FEW030 02/02 Q1018","updated":"2025-12-29T08:30:01Z"}
