{"icao":"LPCS","metar":"LPCS 241730Z 33009KT 290V360 9999 FEW014 19/13 Q1017","updated":"2026-04-24T17:49:18Z"}
