{"icao":"KORD","metar":"KORD 111051Z 29010G19KT 10SM -SN BKN027 OVC049 M05/M11 A3012 RMK AO2 SNB30 SLP210 P0000 T10501106","updated":"2026-01-11T11:16:59Z"}
