{"icao":"LPBJ","metar":"LPBJ 020500Z 25013KT 6000 RA SCT008 BKN011 BKN045 10/09 Q0999 RERA","updated":"2026-02-02T06:02:47Z"}
