{"icao":"LPFL","metar":"LPFL 080800Z 22011G26KT 150V280 7000 -SHRA FEW010 BKN014 18/16 Q1005","updated":"2026-02-08T08:31:41Z"}
