{"icao":"LPOV","metar":"LPOV 131200Z 13004KT 080V180 9999 SCT040 FEW055CB 29/15 Q1018","updated":"2026-06-13T12:23:16Z"}
