{"icao":"LPST","metar":"LPST 260800Z 35003KT CAVOK 06/05 Q1025","updated":"2025-11-26T08:26:18Z"}
