{"icao":"LPOV","metar":"LPOV 052000Z 20003KT CAVOK 16/11 Q1019","updated":"2026-06-06T02:58:27Z"}
