{"icao":"LPST","metar":"LPST 151400Z 29007KT 250V320 CAVOK 26/09 Q1016","updated":"2025-10-15T14:18:50Z"}
