{"icao":"LPPR","metar":"LPPR 151700Z VRB01KT CAVOK 19/13 Q1016","updated":"2025-10-15T17:16:10Z"}
