{"icao":"LPPT","metar":"LPPT 281700Z 03007KT 010V070 9999 FEW028 13/08 Q1013","updated":"2025-12-28T17:16:37Z"}
