{"icao":"LPPS","metar":"LPPS 181100Z 29009KT 250V310 9999 FEW014 BKN030 18/11 Q1025","updated":"2025-12-18T11:18:33Z"}
