{"icao":"KJFK","metar":"KJFK 290551Z 01004KT 10SM FEW250 21/18 A3015 RMK AO2 SLP210 T02110183 10217 20206 53009 $","updated":"2025-09-29T06:28:34Z"}
