{"icao":"LPPT","metar":"LPPT 221400Z 06005KT 020V090 CAVOK 19/10 Q1027","updated":"2026-02-22T14:24:34Z"}
