{"icao":"LPPS","metar":"LPPS 271600Z 21016KT 9999 SCT011 25/21 Q1014","updated":"2025-10-27T16:24:04Z"}
