{"icao":"LPMA","metar":"LPMA 211500Z 13004KT 100V160 9999 FEW016 20/14 Q1019","updated":"2026-01-21T15:30:36Z"}
