{"icao":"LPPS","metar":"LPPS 041930Z 25013KT 210V290 9999 FEW014 18/14 Q1009","updated":"2026-02-04T19:37:21Z"}
