{"icao":"LPMT","metar":"LPMT 061600Z 23005KT 210V270 9999 FEW040 BKN045 18/14 Q1023","updated":"2025-12-06T16:21:15Z"}
