{"icao":"KJFK","metar":"KJFK 162317Z 18016KT 2SM -RA BR SCT004 BKN008 OVC021 09/09 A2951 RMK AO2 PK WND 18027/2305 SFC VIS 5 P0006 T00940089","updated":"2026-03-16T23:30:58Z"}
