{"icao":"LPST","metar":"LPST 041400Z 32011KT 9999 FEW030 18/11 Q1013","updated":"2026-03-04T14:40:45Z"}
