{"icao":"LPBJ","metar":"LPBJ 271900Z 29012KT CAVOK 26/14 Q1019","updated":"2026-06-27T19:18:09Z"}
