{"icao":"LPOV","metar":"LPOV 221400Z 31011KT 170V240 7000 BKN006 BKN014 20/19 Q1015","updated":"2025-10-22T14:19:46Z"}
