{"icao":"LPOV","metar":"LPOV 231400Z 33010KT CAVOK 22/18 Q1022","updated":"2026-05-23T14:59:21Z"}
