{"icao":"LPFL","metar":"LPFL 211630Z 33016KT 2800 +DZ FEW008 SCT010 BKN014 12/10 Q1004","updated":"2026-04-21T16:59:47Z"}
