{"icao":"LPMT","metar":"LPMT 112300Z 35003KT CAVOK 12/11 Q1027","updated":"2026-03-11T23:24:23Z"}
