{"icao":"LPMA","metar":"LPMA 090400Z 36007KT 9999 SCT015 20/15 Q1021","updated":"2025-11-09T04:20:57Z"}
