{"icao":"LPPR","metar":"LPPR 280500Z 35003KT CAVOK 05/04 Q1026","updated":"2026-02-28T05:31:50Z"}
