{"icao":"KORD","metar":"KORD 140551Z 00000KT 10SM CLR 07/02 A3007 RMK AO2 SLP185 T00720022 10111 20072 401500072 55001 $","updated":"2026-05-14T06:45:04Z"}
