{"icao":"LPLA","metar":"LPLA 211100Z 10007KT 060V130 9999 FEW020 BKN035 17/09 Q1033","updated":"2025-11-21T11:15:49Z"}
