{"icao":"KJFK","metar":"KJFK 221451Z 24010KT 10SM FEW095 FEW170 BKN250 06/M03 A3005 RMK SLP175 T00561033 51008 $ ","updated":"2026-01-22T15:29:42Z"}
