{"icao":"LPOV","metar":"LPOV 051000Z 19007KT 160V230 9999 FEW014 FEW020CB BKN022 BKN035 17/16 Q1005 RETSRA","updated":"2025-11-05T10:20:29Z"}
