{"icao":"LPPR","metar":"LPPR 161100Z VRB02KT 9000 NSC 21/14 Q1015","updated":"2025-10-16T11:15:14Z"}
