{"icao":"LPMR","metar":"LPMR 131600Z 29011KT 260V320 9999 BKN025 15/09 Q1021","updated":"2026-04-13T16:10:51Z"}
