{"icao":"LPFL","metar":"LPFL 191930Z 25010G20KT 180V320 9999 SCT016 18/12 Q1004","updated":"2026-05-19T22:15:09Z"}
