{"icao":"LPMR","metar":"LPMR 062300Z 16005KT 9999 FEW045 14/12 Q1017","updated":"2025-11-06T23:16:42Z"}
