{"icao":"LPFR","metar":"LPFR 011130Z 23007KT 200V260 CAVOK 19/11 Q1019","updated":"2026-05-01T11:58:10Z"}
