{"icao":"KORD","metar":"KORD 151751Z 25010G18KT 10SM SCT060 SCT300 22/08 A2992 RMK AO2 SLP131 T02220078 10222 20144 58014","updated":"2026-06-15T18:23:29Z"}
