{"icao":"KORD","metar":"KORD 201451Z 25008KT 10SM FEW020 M14/M20 A3037 RMK AO2 SLP299 T11441200 51012 $","updated":"2026-01-20T15:29:21Z"}
