{"icao":"LPPT","metar":"LPPT 180100Z 23004KT 200V270 CAVOK 19/12 Q1015","updated":"2025-10-18T01:15:58Z"}
