{"icao":"LPPR","metar":"LPPR 300300Z 12007KT 9999 FEW008 12/11 Q1011","updated":"2025-10-30T03:09:51Z"}
