{"icao":"KLAX","metar":"KLAX 301104Z 00000KT 2 1/2SM BR SCT004 12/11 A3000 RMK AO2 VIS 1 1/2 RWY24 T01170111 $","updated":"2025-11-30T11:14:42Z"}
