{"icao":"LPMA","metar":"LPMA 272300Z 02009KT 310V050 9999 BKN015 19/12 Q1023","updated":"2025-11-27T23:17:03Z"}
