{"icao":"LPPT","metar":"LPPT 210700Z 22012KT 6000 RA BKN004 14/14 Q1008","updated":"2026-01-21T07:27:17Z"}
