{"icao":"KJFK","metar":"KJFK 162251Z 36011KT 10SM CLR 13/M05 A2993 RMK AO2 SLP134 T01331050","updated":"2025-10-16T23:14:57Z"}
