{"icao":"LPOV","metar":"LPOV 061200Z 17021KT CAVOK 27/03 Q1015","updated":"2026-04-06T13:07:11Z"}
