{"icao":"LPFR","metar":"LPFR 180800Z 07008KT CAVOK 21/16 Q1016","updated":"2025-10-18T08:20:58Z"}
