{"icao":"LPMT","metar":"LPMT 262100Z 32006KT CAVOK 16/12 Q1024","updated":"2026-02-26T21:31:01Z"}
