{"icao":"LPMA","metar":"LPMA 130430Z 33007KT 290V360 9999 -RA SCT015 16/07 Q1015","updated":"2026-01-13T04:39:15Z"}
