{"icao":"LPPD","metar":"LPPD 070500Z 32010KT 290V350 9999 FEW025 SCT045 11/04 Q1027","updated":"2026-04-07T05:08:06Z"}
