{"icao":"KORD","metar":"KORD 250251Z 11004KT 10SM SCT250 06/02 A3030 RMK AO2 SLP264 T00610017 51002 $","updated":"2025-10-25T03:01:07Z"}
