{"icao":"LPPS","metar":"LPPS 220200Z 25004KT 9999 FEW015 13/07 Q1013","updated":"2026-04-22T02:29:02Z"}
