{"icao":"LPOV","metar":"LPOV 141100Z 15012KT 5000 SHRA BR FEW012 FEW018CB 13/12 Q1001","updated":"2025-11-14T11:15:32Z"}
