{"icao":"LPMT","metar":"LPMT 202300Z 03003KT CAVOK 09/08 Q1029","updated":"2026-02-20T23:27:29Z"}
