{"icao":"LPMR","metar":"LPMR 051100Z 02007KT 350V080 9999 FEW021 21/15 Q1021","updated":"2025-10-05T11:12:37Z"}
