{"icao":"LPBJ","metar":"LPBJ 230400Z VRB01KT 8000 MIFG NSC 10/10 Q1012","updated":"2026-03-23T05:01:43Z"}
