{"icao":"LPFR","metar":"LPFR 161900Z 06003KT CAVOK 22/18 Q1014","updated":"2025-10-16T19:12:38Z"}
