{"icao":"LPPT","metar":"LPPT 292300Z 35004KT 300V110 CAVOK 10/08 Q1021","updated":"2025-12-29T23:18:34Z"}
