{"icao":"LPBJ","metar":"LPBJ 181300Z 13006KT 090V180 CAVOK 27/12 Q1017","updated":"2025-10-18T13:21:27Z"}
