{"icao":"KORD","metar":"KORD 141235Z 32003KT 10SM BKN015 14/11 A3029 RMK AO2 T01390111 $","updated":"2025-10-14T12:39:21Z"}
