{"icao":"KLAX","metar":"KLAX 081553Z 00000KT 2 1/2SM BR SCT006 17/15 A2994 RMK AO2 SLP137 VIS W-NW 1 1/2 T01670150","updated":"2025-11-08T16:20:12Z"}
