{"icao":"LPOV","metar":"LPOV 171200Z 31003KT 250V360 9999 FEW001 19/15 Q1015","updated":"2025-10-17T12:36:53Z"}
