{"icao":"KORD","metar":"KORD 201351Z 26008KT 10SM FEW250 19/11 A2996 RMK AO2 SLP142 T01940111 $","updated":"2026-06-20T14:00:03Z"}
