{"icao":"LPPD","metar":"LPPD 012030Z 04015KT 8000 -DZ BR SCT007 BKN011 13/12 Q1030","updated":"2026-04-01T20:56:11Z"}
