{"icao":"LPAZ","metar":"LPAZ 180400Z 23012KT 9999 FEW004 SCT006 BKN022 22/21 Q1015","updated":"2025-10-18T04:20:05Z"}
