{"icao":"LPMR","metar":"LPMR 271600Z 08005KT CAVOK 13/03 Q1009","updated":"2025-12-27T16:22:29Z"}
