{"icao":"LPPR","metar":"LPPR 140800Z 09004KT 060V140 CAVOK 10/07 Q1021","updated":"2025-12-14T08:24:09Z"}
