{"icao":"KORD","metar":"KORD 151151Z 09006KT 10SM SCT150 BKN250 03/M03 A2956 RMK AO2 SLP017 60000 70001 T00331028 10039 20022 56056 $","updated":"2026-03-15T12:51:33Z"}
