{"icao":"LPFR","metar":"LPFR 181000Z 08012KT CAVOK 24/14 Q1017","updated":"2025-10-18T10:16:32Z"}
