{"icao":"LPBJ","metar":"LPBJ 070600Z 19006KT 9999 SCT042 12/10 Q1018","updated":"2025-11-07T06:27:45Z"}
