{"icao":"KORD","metar":"KORD 021851Z VRB04KT 10SM FEW085 FEW250 BKN300 28/12 A3020 RMK AO2 SLP223 T02780117","updated":"2025-10-02T19:13:48Z"}
