{"icao":"LPLA","metar":"LPLA 282200Z 12020G35KT 080V140 5000 -RADZ BR SCT006 BKN012 BKN018 13/12 Q1011","updated":"2025-12-28T22:18:39Z"}
