{"icao":"LPAZ","metar":"LPAZ 182000Z 32013KT 9999 BKN002 16/15 Q1029","updated":"2026-01-18T20:21:52Z"}
