{"icao":"LPCS","metar":"LPCS 131100Z 22007KT 190V250 CAVOK 25/12 Q1016","updated":"2025-10-13T11:15:10Z"}
