{"icao":"LPPD","metar":"LPPD 221200Z 07003KT 010V120 9999 SCT012 BKN030 17/14 Q1032","updated":"2025-11-22T12:33:26Z"}
