{"icao":"LPHR","metar":"LPHR 021000Z 23007KT 9999 FEW004 SCT007 BKN030 22/22 Q1020","updated":"2025-10-02T10:17:31Z"}
