{"icao":"LPMT","metar":"LPMT 231000Z 22005KT 180V270 9999 FEW030 18/11 Q1014","updated":"2026-04-23T11:06:21Z"}
