{"icao":"LPPR","metar":"LPPR 241300Z 33008KT 290V360 7000 SHRA FEW010 SCT015 SCT018CB BKN032 10/08 Q1009 RESHRA","updated":"2026-01-24T13:29:40Z"}
