{"icao":"LPMT","metar":"LPMT 261500Z 22017KT 8000 SCT013 OVC019 16/14 Q1011","updated":"2026-01-26T15:27:50Z"}
