{"icao":"LPLA","metar":"LPLA 220200Z 28007KT 7000 -RA FEW018 BKN040 10/07 Q0998","updated":"2026-04-22T02:28:49Z"}
