{"icao":"LPMA","metar":"LPMA 290800Z 35008KT 9999 SCT016 18/08 Q1022","updated":"2025-11-29T08:23:35Z"}
