{"icao":"KJFK","metar":"KJFK 210951Z 00000KT 8SM BKN038 02/01 A2983 RMK AO2 SLP100 T00220011 $","updated":"2026-02-21T10:24:30Z"}
