{"icao":"LPHR","metar":"LPHR 020700Z 33015G28KT 290V360 9999 VCSH SCT025 SCT035 14/09 Q1009","updated":"2026-01-02T07:23:07Z"}
