{"icao":"KJFK","metar":"KJFK 301051Z 15006KT 6SM BR BKN007 OVC021 08/08 A2977 RMK DZE48 SLP082 P0002 T00830","updated":"2026-04-30T10:54:17Z"}
