{"icao":"KJFK","metar":"KJFK 301251Z 01008KT 10SM FEW180 BKN250 21/12 A3010 RMK AO2 SLP194 T02060122","updated":"2025-09-30T13:28:03Z"}
