{"icao":"KJFK","metar":"KJFK 110951Z 28006KT 9SM -RA SCT010 BKN055 OVC085 06/04 A2980 RMK AO2 RAB00 SLP090 P0001 T00560044","updated":"2026-01-11T10:20:10Z"}
