{"icao":"LPPR","metar":"LPPR 111300Z 22014KT 3000 BR BKN002 15/15 Q1009","updated":"2026-02-11T13:07:14Z"}
