{"icao":"LPFR","metar":"LPFR 300900Z 06017KT CAVOK 14/M05 Q1029","updated":"2026-03-30T09:10:19Z"}
