{"icao":"LPMA","metar":"LPMA 020130Z 33010KT 290V360 9999 SCT015 SCT070 17/12 Q1012","updated":"2026-02-02T02:04:13Z"}
