{"icao":"LPCS","metar":"LPCS 211000Z 01012KT CAVOK 12/04 Q1028","updated":"2025-11-21T10:19:39Z"}
