{"icao":"KLAX","metar":"KLAX 070653Z 30004KT 10SM FEW011 BKN026 17/14 A2985 RMK AO2 SLP107 T01720139 $","updated":"2026-06-07T07:53:53Z"}
