{"icao":"KLAX","metar":"KLAX 240753Z 00000KT 10SM FEW009 FEW011 17/16 A3000 RMK AO2 SLP158 T01720156 402170139","updated":"2025-10-24T08:24:00Z"}
