{"icao":"KJFK","metar":"KJFK 181251Z 13005KT 1/4SM R04R/2600V4000FT FG VV002 01/01 A2996 RMK AO2 SFC VIS 1/2 SLP145 T00110011 $","updated":"2026-02-18T13:01:44Z"}
