{"icao":"LPMA","metar":"LPMA 170400Z VRB08G19KT 9999 SCT015 16/09 Q1023","updated":"2026-01-17T04:31:42Z"}
