{"icao":"LPFL","metar":"LPFL 042000Z 02004KT 330V060 9999 SCT017 SCT030 13/09 Q1022","updated":"2026-04-04T20:30:06Z"}
