{"icao":"LPPS","metar":"LPPS 100200Z 30003KT 260V320 9999 FEW005 16/15 Q1023","updated":"2026-02-10T02:23:50Z"}
