{"icao":"KLAX","metar":"KLAX 190453Z 01004KT 10SM FEW020 FEW060 SCT250 13/09 A2999 RMK AO2 SLP154 T01280089","updated":"2025-11-19T05:19:06Z"}
