{"icao":"LPAZ","metar":"LPAZ 031230Z 32007KT 300V360 9999 SCT006 BKN042 21/19 Q1014","updated":"2025-11-03T12:38:53Z"}
