{"icao":"LPMT","metar":"LPMT 301200Z 25015KT 220V280 9999 SCT010 SCT015 16/14 Q1012","updated":"2026-01-30T12:53:03Z"}
