{"icao":"LPHR","metar":"LPHR 301500Z 28018G28KT 9000 VCSH SCT015 SCT030 19/14 Q1007","updated":"2025-10-30T15:20:03Z"}
