{"icao":"LPCS","metar":"LPCS 161230Z 21007KT 170V240 CAVOK 26/09 Q1014","updated":"2025-10-16T12:38:39Z"}
