{"icao":"LPLA","metar":"LPLA 262300Z 13009KT 100V170 9999 FEW016 SCT020 18/15 Q1021","updated":"2025-11-26T23:17:23Z"}
