{"icao":"LPBJ","metar":"LPBJ 242100Z 27006KT 220V330 CAVOK 23/13 Q1020","updated":"2026-05-24T21:55:48Z"}
