{"icao":"LPFL","metar":"LPFL 281500Z 26005KT 190V340 9999 FEW037 17/08 Q1028","updated":"2025-11-28T15:19:09Z"}
