{"icao":"LPAZ","metar":"LPAZ 150100Z 32014KT 9999 FEW030 SCT046 16/10 Q1011","updated":"2025-11-15T01:21:57Z"}
