{"icao":"LPHR","metar":"LPHR 041630Z 28037G58KT 9000 SHRA SCT014 SCT030 12/09 Q0992","updated":"2026-02-04T16:45:26Z"}
