{"icao":"LPLA","metar":"LPLA 092100Z 17014KT 7000 -SHRA FEW012 BKN020 BKN045 21/19 Q1021","updated":"2025-10-09T21:15:41Z"}
