{"icao":"LPHR","metar":"LPHR 022200Z 22005KT 9999 FEW003 SCT005 BKN020 23/22 Q1020","updated":"2025-10-02T22:15:57Z"}
