{"icao":"LPPR","metar":"LPPR 211730Z 29003KT CAVOK 26/12 Q1021","updated":"2026-05-21T17:56:38Z"}
