{"icao":"LPBJ","metar":"LPBJ 201500Z 30008KT 9999 FEW020 12/06 Q1019","updated":"2026-01-20T15:29:19Z"}
