{"icao":"LPPR","metar":"LPPR 071430Z 32015KT CAVOK 20/13 Q1021","updated":"2026-06-07T14:50:33Z"}
