{"icao":"KORD","metar":"KORD 211751Z 19007KT 8SM -RA OVC100 19/15 A2992 RMK AO2 SLP130 P0002 60002 T01940150 10217 20172 55002 $","updated":"2026-06-21T18:18:49Z"}
