{"icao":"KLAX","metar":"KLAX 111707Z 21003KT 2SM BR BKN004 BKN025 16/15 A3010 RMK AO2 VIS 1V2 1/2 VIS SW-N 1 T01560150 $","updated":"2025-11-11T17:16:51Z"}
