{"icao":"KJFK","metar":"KJFK 211551Z 34014G20KT 10SM BKN031 BKN060 13/04 A2990 RMK AO2 SLP123 T01280044","updated":"2026-03-21T16:28:24Z"}
