{"icao":"LPMR","metar":"LPMR 081300Z 23008KT 8000 FEW004 BKN008 BKN018 13/11 Q1031","updated":"2026-01-08T13:39:20Z"}
