{"icao":"LPMA","metar":"LPMA 091700Z 02012KT 350V050 9999 SCT016 24/17 Q1023","updated":"2025-10-09T17:16:04Z"}
