{"icao":"LPFR","metar":"LPFR 251700Z 24013KT 4500 -RADZ BR FEW008 SCT012 15/14 Q1017","updated":"2026-01-25T17:16:47Z"}
