{"icao":"LPCS","metar":"LPCS 211900Z 30015G25KT 8000 -RA FEW006 SCT016 BKN035 13/12 Q1006","updated":"2026-01-21T19:25:24Z"}
