{"icao":"KORD","metar":"KORD 301451Z 08005KT 10SM FEW250 24/14 A3022 RMK AO2 SLP228 T02440144 53005","updated":"2025-09-30T15:16:55Z"}
