{"icao":"LPPT","metar":"LPPT 241030Z 08007KT 040V110 CAVOK 16/11 Q1021","updated":"2026-03-24T10:51:12Z"}
