{"icao":"KORD","metar":"KORD 150051Z 23007KT 10SM SCT150 BKN250 M16/M21 A3060 RMK AO2 SLP379 T11561211","updated":"2025-12-15T01:41:59Z"}
