{"icao":"LPMA","metar":"LPMA 160830Z 02008KT 340V050 9999 BKN014 16/12 Q1031","updated":"2026-02-16T08:46:01Z"}
