{"icao":"LPPR","metar":"LPPR 072000Z 33004KT 9999 FEW018 14/11 Q1010","updated":"2026-05-07T20:12:56Z"}
