{"icao":"KORD","metar":"KORD 140751Z 33006KT 10SM FEW120 BKN200 M01/M08 A3014 RMK AO2 SLP211 T10061078 $","updated":"2026-03-14T08:34:27Z"}
