{"icao":"LPCS","metar":"LPCS 101600Z 21007KT 9999 FEW015 19/15 Q1018","updated":"2025-11-10T16:24:51Z"}
