{"icao":"LPOV","metar":"LPOV 250600Z 07002KT CAVOK 06/06 Q1021","updated":"2025-11-25T06:29:53Z"}
