{"icao":"LPPD","metar":"LPPD 170700Z 33011KT 300V010 9999 FEW020 BKN035 14/09 Q1031","updated":"2026-01-17T07:18:03Z"}
