{"icao":"KORD","metar":"KORD 270351Z 11007KT 10SM CLR 11/04 A3027 RMK AO2 SLP253 T01060044 $","updated":"2025-10-27T04:28:16Z"}
