{"icao":"LPLA","metar":"LPLA 111500Z 25004KT 200V280 9999 FEW025 SCT040 15/09 Q1015","updated":"2026-01-11T15:18:54Z"}
