{"icao":"KLAX","metar":"KLAX 130353Z 00000KT 10SM CLR 16/02 A3016 RMK AO2 SLP212 T01560017 $","updated":"2026-01-13T04:39:16Z"}
