{"icao":"KJFK","metar":"KJFK 111651Z 33014G25KT 10SM FEW060 16/M01 A3025 RMK AO2 PK WND 33029/1608 SLP241 T01561006","updated":"2026-04-11T17:30:11Z"}
