{"icao":"KLAX","metar":"KLAX 010953Z 07003KT 9SM CLR 17/13 A2993 RMK AO2 SLP132 T01670128","updated":"2026-03-01T10:23:40Z"}
