{"icao":"LPPT","metar":"LPPT 121030Z 34020G30KT 290V360 9999 FEW030 BKN038 14/06 Q1020 WS R02","updated":"2026-04-12T10:36:52Z"}
