{"icao":"LPFR","metar":"LPFR 191830Z 25008KT CAVOK 20/15 Q1020","updated":"2026-05-19T18:58:46Z"}
