{"icao":"KORD","metar":"KORD 050823Z 03004KT 1/8SM R10L/1400V1600FT FG VV001 04/03 A2996 RMK AO2 T00390033 $","updated":"2026-03-05T08:39:49Z"}
