{"icao":"LPHR","metar":"LPHR 021700Z 22006KT 180V250 9999 FEW025 BKN040 17/08 Q1030","updated":"2025-12-02T17:21:15Z"}
