{"icao":"LPFL","metar":"LPFL 120930Z 31012G31KT 230V010 6000 DZRA FEW022 FEW023TCU 13/08 Q1014","updated":"2026-02-12T09:48:44Z"}
