{"icao":"KORD","metar":"KORD 161451Z 12008KT 10SM FEW050 16/07 A3022 RMK AO2 SLP232 T01610072 50000","updated":"2025-10-16T15:19:38Z"}
