{"icao":"LPPT","metar":"LPPT 070800Z 20015G26KT 170V230 5000 RA BR FEW004 BKN008 12/12 Q1003 RERA WS R20","updated":"2026-02-07T08:30:02Z"}
