{"icao":"KLAX","metar":"KLAX 072153Z 26013KT 10SM FEW010 FEW110 20/13 A2997 RMK AO2 SLP148 T02000133","updated":"2026-05-07T21:56:34Z"}
