{"icao":"LPFR","metar":"LPFR 170800Z 07009KT CAVOK 21/16 Q1013","updated":"2025-10-17T08:24:25Z"}
