{"icao":"LPMA","metar":"LPMA 050230Z 07003KT 9999 -RA BKN005 SCT030 18/17 Q1016","updated":"2026-05-05T02:37:48Z"}
