{"icao":"LPOV","metar":"LPOV 301400Z 18011KT 160V220 9999 FEW015 BKN030 19/13 Q1012","updated":"2025-10-30T14:18:58Z"}
