{"icao":"LPLA","metar":"LPLA 051500Z 30022KT 9999 SCT020CB SCT025 12/07 Q1004","updated":"2026-02-05T15:39:24Z"}
