{"icao":"LPPT","metar":"LPPT 251130Z 34006KT 260V040 9999 FEW030 22/13 Q1016","updated":"2026-04-25T11:36:51Z"}
