{"icao":"LPLA","metar":"LPLA 160300Z 22010KT 180V250 9999 FEW010 SCT014 20/19 Q1018","updated":"2026-06-16T03:58:07Z"}
