{"icao":"LPMA","metar":"LPMA 101700Z 11003KT 080V160 9999 FEW016 SCT030 21/16 Q1019","updated":"2025-11-10T17:16:54Z"}
