{"icao":"KORD","metar":"KORD 220251Z 24004KT 10SM SCT055CB SCT070 BKN110 BKN210 BKN250 22/16 A2988 RMK AO2 SLP113 CB W MOV E T02170156 53004 $","updated":"2025-09-22T03:05:59Z"}
