{"icao":"KJFK","metar":"KJFK 221051Z 28009KT 10SM CLR M03/M10 A3047 RMK AO2 SLP317 T10281100 $","updated":"2025-12-22T11:17:38Z"}
