{"icao":"LPPR","metar":"LPPR 220900Z 15003KT 080V220 9999 FEW002 14/11 Q1012","updated":"2026-03-22T09:31:01Z"}
