{"icao":"LPCS","metar":"LPCS 241600Z 28008KT 4000 -DZ BR BKN005 20/20 Q1017","updated":"2025-10-24T16:22:19Z"}
