{"icao":"LPBJ","metar":"LPBJ 261300Z 23004KT 190V300 9999 SCT020 BKN030 22/16 Q1018","updated":"2025-10-26T13:22:15Z"}
