{"icao":"LPMA","metar":"LPMA 210600Z 02011KT 330V070 9999 -SHRA BKN015 FEW016TCU 16/14 Q1023","updated":"2025-11-21T06:29:12Z"}
