{"icao":"KORD","metar":"KORD 130851Z 21009KT 10SM FEW190 BKN250 02/M02 A2984 RMK AO2 SLP109 T00221022 56035 $","updated":"2026-01-13T09:26:49Z"}
