{"icao":"LPOV","metar":"LPOV 251700Z 34019KT CAVOK 17/12 Q1018","updated":"2026-03-25T17:57:13Z"}
