{"icao":"KJFK","metar":"KJFK 071451Z 20015KT 10SM FEW045 BKN250 13/02 A3006 RMK AO2 SLP179 T01280017 58022 $","updated":"2025-11-07T15:18:38Z"}
