{"icao":"LPMR","metar":"LPMR 170100Z 17009KT 5000 BR FEW008 06/05 Q1014","updated":"2026-01-17T01:28:14Z"}
