{"icao":"KJFK","metar":"KJFK 061051Z 23007KT 10SM FEW010 17/16 A3029 RMK AO2 SLP257 T01670156","updated":"2025-10-06T11:14:48Z"}
