{"icao":"KORD","metar":"KORD 082051Z 07007KT 060V120 10SM BKN028 OVC036 07/01 A2985 RMK AO2 SLP111 T00720011 55003 $","updated":"2025-11-08T21:14:06Z"}
