{"icao":"LPFR","metar":"LPFR 112200Z 25018KT 5000 -DZ BR OVC003 15/15 Q1021","updated":"2026-02-11T22:28:16Z"}
