{"icao":"LPAZ","metar":"LPAZ 040930Z 24018KT 9999 FEW008 SCT017 BKN022 17/15 Q1000","updated":"2026-02-04T09:42:07Z"}
