{"icao":"LPPD","metar":"LPPD 301930Z 11009KT 090V160 9999 FEW018 BKN023 21/17 Q1031","updated":"2026-06-30T19:54:19Z"}
