{"icao":"LPPT","metar":"LPPT 011630Z 25006KT 180V290 9999 FEW042 21/09 Q1018","updated":"2026-05-01T16:58:02Z"}
