{"icao":"LPHR","metar":"LPHR 010700Z 05011KT 020V080 9999 SCT012 SCT030 15/12 Q1006","updated":"2026-01-01T07:21:27Z"}
