{"icao":"LPMA","metar":"LPMA 232100Z 33011G21KT 270V010 9999 SCT015 16/07 Q1022","updated":"2026-01-23T21:19:58Z"}
