{"icao":"LPHR","metar":"LPHR 221600Z 19017KT 9999 FEW011 SCT025 BKN050 18/16 Q1019","updated":"2026-02-22T16:28:25Z"}
