{"icao":"LPMT","metar":"LPMT 140500Z 03010KT CAVOK 11/09 Q1018","updated":"2025-12-14T05:18:31Z"}
