{"icao":"LPMT","metar":"LPMT 120400Z 06003KT CAVOK 09/08 Q1026","updated":"2026-03-12T04:45:39Z"}
