{"icao":"KJFK","metar":"KJFK 280651Z 03008KT 10SM FEW250 07/03 A3034 RMK AO2 SLP275 T00720028","updated":"2025-10-28T07:17:45Z"}
