{"icao":"LPMT","metar":"LPMT 292000Z 33004KT 9999 FEW015 18/16 Q1011","updated":"2025-10-29T20:20:46Z"}
