{"icao":"LPMR","metar":"LPMR 171200Z 13005KT 070V180 CAVOK 26/06 Q1015","updated":"2025-10-17T12:36:54Z"}
