{"icao":"KJFK","metar":"KJFK 201051Z 28015G22KT 10SM FEW250 M07/M16 A3023 RMK AO2 SLP236 T10721156 $","updated":"2026-01-20T11:22:26Z"}
