{"icao":"LPMR","metar":"LPMR 200100Z VRB01KT CAVOK 06/05 Q1019","updated":"2025-11-20T01:22:25Z"}
