{"icao":"KJFK","metar":"KJFK 262151Z 18004KT 10SM FEW050 BKN090 BKN110 OVC250 03/M03 A2987 RMK AO2 SLP115 T00331028 $","updated":"2026-02-26T22:32:07Z"}
