{"icao":"LPHR","metar":"LPHR 081230Z 06018KT 9999 FEW016 14/05 Q1029","updated":"2026-03-08T12:46:07Z"}
