{"icao":"LPOV","metar":"LPOV 281500Z 34014KT 310V010 9999 FEW035 21/16 Q1014","updated":"2025-09-28T15:14:10Z"}
