{"icao":"LPMR","metar":"LPMR 311700Z 33015KT CAVOK 22/12 Q1020","updated":"2026-05-31T17:59:55Z"}
