{"icao":"KJFK","metar":"KJFK 170251Z 34012KT 10SM CLR 12/M03 A2996 RMK AO2 SLP146 T01171033 52007","updated":"2025-10-17T03:00:43Z"}
