{"icao":"LPPT","metar":"LPPT 071030Z 23012KT 200V260 9000 -RADZ FEW010 SCT016 BKN034 12/10 Q1013","updated":"2026-04-07T10:53:31Z"}
