{"icao":"KJFK","metar":"KJFK 311551Z 18009KT 10SM FEW050 FEW140 BKN250 15/08 A3003 RMK AO2 SLP167 T01500083","updated":"2026-03-31T16:11:07Z"}
