{"icao":"LPFR","metar":"LPFR 292000Z 02009KT CAVOK 18/M01 Q1025","updated":"2026-03-29T20:31:26Z"}
