{"icao":"LPAZ","metar":"LPAZ 101130Z 31010KT 280V340 9999 FEW018 BKN037 17/12 Q1030","updated":"2026-04-10T11:47:29Z"}
