{"icao":"LPLA","metar":"LPLA 191500Z 19015KT 8000 -SHRA FEW010 BKN022 17/15 Q1020","updated":"2026-02-19T15:47:07Z"}
