{"icao":"LPPD","metar":"LPPD 080830Z 32008KT 270V350 9999 FEW018 BKN035 14/08 Q1034","updated":"2026-04-08T08:59:32Z"}
