{"icao":"LPLA","metar":"LPLA 291900Z 12013KT 9999 SCT018 BKN030 15/10 Q1034","updated":"2026-03-29T19:35:01Z"}
