{"icao":"LPPS","metar":"LPPS 230300Z 01010KT 9999 FEW015 20/12 Q1020","updated":"2025-09-23T03:31:15Z"}
