{"icao":"LPMA","metar":"LPMA 190500Z 02008KT 340V050 9999 SCT013 18/13 Q1012","updated":"2026-04-19T05:27:49Z"}
