{"icao":"LPAZ","metar":"LPAZ 281300Z 36020KT 9000 -SHRA FEW004 BKN014 18/16 Q1017","updated":"2025-10-28T13:29:33Z"}
