{"icao":"LPPT","metar":"LPPT 312200Z 34017KT 9999 FEW014 18/15 Q1020 WS R02","updated":"2026-05-31T22:05:08Z"}
