{"icao":"KORD","metar":"KORD 140551Z 10006KT 8SM CLR 20/18 A2999 RMK AO2 SLP153 T02000183 10244 20200 402560178 58000 $","updated":"2025-09-14T06:23:18Z"}
