{"icao":"LPPD","metar":"LPPD 012100Z 05008KT 020V080 9999 FEW009 BKN014 20/17 Q1030","updated":"2026-07-01T21:26:51Z"}
