{"icao":"LPMT","metar":"LPMT 141300Z 32006KT 270V350 9999 VCSH FEW020 16/12 Q1020","updated":"2026-01-14T13:39:19Z"}
