{"icao":"KORD","metar":"KORD 262251Z 07009KT 10SM FEW250 12/04 A3030 RMK AO2 SLP263 T01220044 $","updated":"2025-10-26T23:16:23Z"}
