{"icao":"LPFR","metar":"LPFR 052100Z 34009KT CAVOK 08/M02 Q1014","updated":"2026-01-05T21:19:37Z"}
