{"icao":"LPPS","metar":"LPPS 302200Z 31010KT 7000 SCT006 BKN030 17/17 Q1025","updated":"2026-01-30T22:24:28Z"}
