{"icao":"KORD","metar":"KORD 161251Z 22009KT 10SM OVC011 16/14 A2974 RMK AO2 SLP066 T01610144 $","updated":"2026-04-16T13:27:55Z"}
