{"icao":"KORD","metar":"KORD 281151Z 36005KT 10SM FEW070 17/14 A3010 RMK AO2 SLP190 T01720144 10206 20167 51018 $","updated":"2025-09-28T12:32:43Z"}
