{"icao":"LPAZ","metar":"LPAZ 210100Z 23014KT 9000 BKN005 23/22 Q1017","updated":"2025-10-21T01:21:51Z"}
