{"icao":"KLAX","metar":"KLAX 141253Z 04006KT 10SM FEW015 12/08 A3008 RMK AO2 SLP184 T01170083 $","updated":"2026-04-14T13:23:21Z"}
