{"icao":"LPMT","metar":"LPMT 240100Z 32004KT 9999 FEW022 09/07 Q1010","updated":"2025-12-24T03:22:43Z"}
