{"icao":"LPLA","metar":"LPLA 101300Z 21025G38KT 180V240 9999 SCT006 BKN014 18/16 Q1020","updated":"2026-01-10T13:28:10Z"}
