{"icao":"LPLA","metar":"LPLA 292100Z 26009KT 9000 -RA FEW006 SCT014 19/17 Q1022","updated":"2026-05-29T21:05:52Z"}
