{"icao":"LPAR","metar":"LPAR 241000Z 15006KT 060V180 9999 SCT025 19/13 Q1018","updated":"2026-04-24T10:19:41Z"}
