{"icao":"LPLA","metar":"LPLA 110800Z 17004KT 130V240 9999 FEW015 BKN035 14/12 Q1032","updated":"2026-03-11T08:39:28Z"}
