{"icao":"LPPR","metar":"LPPR 042100Z 33004KT 300V360 5000 BR OVC001 16/16 Q1024","updated":"2025-10-04T21:13:41Z"}
