{"icao":"LPOV","metar":"LPOV 082300Z 17008KT 8000 -DZ BKN006 BKN013 12/12 Q1008","updated":"2026-02-08T23:29:19Z"}
