{"icao":"LPPT","metar":"LPPT 282300Z 33010KT 300V360 CAVOK 17/14 Q1020","updated":"2026-05-28T23:14:13Z"}
