{"icao":"LPOV","metar":"LPOV 011000Z 25004KT 220V290 CAVOK 13/07 Q1023","updated":"2026-03-01T10:23:37Z"}
