{"icao":"LPCS","metar":"LPCS 091700Z 18003KT 8000 1500SW VCFG SCT002 SCT045 16/16 Q1017","updated":"2025-12-09T17:19:14Z"}
