{"icao":"LPOV","metar":"LPOV 222000Z 20010KT 170V240 9999 BKN006 SCT016 20/19 Q1016","updated":"2025-10-22T20:21:31Z"}
