{"icao":"LPLA","metar":"LPLA 272300Z 22008KT 190V250 9999 FEW017 14/11 Q1034","updated":"2026-02-27T23:23:13Z"}
