{"icao":"LPOV","metar":"LPOV 271200Z 32005KT CAVOK 13/09 Q1025","updated":"2025-11-27T12:39:38Z"}
