{"icao":"LPPR","metar":"LPPR 271700Z 26009KT 220V300 9999 FEW020CB BKN030 11/06 Q0999","updated":"2026-01-27T17:26:29Z"}
