{"icao":"KJFK","metar":"KJFK 271051Z 01007KT 10SM FEW085 FEW250 06/02 A3040 RMK AO2 SLP294 T00560017","updated":"2025-10-27T11:16:34Z"}
