{"icao":"KORD","metar":"KORD 171151Z 26012G19KT 10SM FEW150 M11/M17 A2984 RMK AO2 SLP114 70007 T11111172 11039 21111 53025 $","updated":"2026-01-17T12:37:55Z"}
