{"icao":"LPST","metar":"LPST 231700Z 33011KT 310V010 CAVOK 21/07 Q1017","updated":"2025-09-24T03:33:35Z"}
