{"icao":"LPMA","metar":"LPMA 270800Z 01009KT 320V080 9999 FEW015 18/10 Q1017","updated":"2026-04-27T08:22:57Z"}
