{"icao":"LPPT","metar":"LPPT 190100Z 30001KT CAVOK 23/08 Q1019","updated":"2025-09-19T01:19:01Z"}
