{"icao":"LPAZ","metar":"LPAZ 181230Z 32005KT 290V050 9999 FEW013 SCT016 16/13 Q1027","updated":"2026-02-18T13:01:42Z"}
