{"icao":"LPFL","metar":"LPFL 251700Z 02006KT 350V090 9999 BKN028 15/09 Q1026","updated":"2025-12-25T17:17:13Z"}
