{"icao":"KLAX","metar":"KLAX 181653Z 09005KT 4SM BR SCT005 BKN120 BKN180 14/13 A3001 RMK AO2 SLP157 VIS S-W 2 T01390128 $","updated":"2025-12-18T17:22:18Z"}
