{"icao":"LPCS","metar":"LPCS 181830Z 03007KT CAVOK 21/12 Q1015","updated":"2026-04-18T18:49:51Z"}
