{"icao":"KORD","metar":"KORD 162351Z 26015G28KT 10SM FEW055 BKN070 20/09 A2961 RMK AO2 PK WND 25028/2350 SLP025 T02000089 10244 20200 51015","updated":"2026-06-17T00:14:49Z"}
