{"icao":"KLAX","metar":"KLAX 292053Z 26011KT 10SM CLR 26/12 A2995 RMK AO2 SLP139 T02610117 58021 $","updated":"2025-10-29T21:16:52Z"}
