{"icao":"LPAZ","metar":"LPAZ 271330Z 25008KT 9999 SCT013 BKN023 21/18 Q1024","updated":"2026-06-27T13:39:38Z"}
