{"icao":"KLAX","metar":"KLAX 221253Z 15004KT 5SM BR OVC009 16/14 A2989 RMK AO2 SLP120 T01610139","updated":"2026-03-22T13:42:44Z"}
