{"icao":"LPST","metar":"LPST 101400Z 32008KT 300V360 9999 FEW012 15/12 Q1020","updated":"2025-12-10T14:21:01Z"}
