{"icao":"LPAZ","metar":"LPAZ 290500Z 15008KT 9999 FEW028 21/15 Q1026","updated":"2025-09-29T05:17:50Z"}
