{"icao":"LPAZ","metar":"LPAZ 201230Z 03026G40KT 9000 FEW017 FEW022TCU SCT030 BKN040 16/11 Q1004","updated":"2026-03-20T12:57:12Z"}
