{"icao":"LPOV","metar":"LPOV 311100Z 16010KT 6000 -RA FEW008 BKN014 17/17 Q1010","updated":"2025-10-31T11:15:00Z"}
