{"icao":"LPMR","metar":"LPMR 051000Z 02013KT CAVOK 06/M05 Q1015","updated":"2026-01-05T10:23:39Z"}
