{"icao":"LPPS","metar":"LPPS 082100Z 05008KT 030V110 9999 FEW015 BKN030 22/16 Q1026","updated":"2025-10-08T21:16:07Z"}
