{"icao":"LPFL","metar":"LPFL 140900Z 04003KT 310V110 9999 FEW025 BKN034 15/10 Q1031","updated":"2026-05-14T09:33:07Z"}
