{"icao":"KJFK","metar":"KJFK 311551Z 28024G34KT 10SM -RA BKN043 BKN055 13/04 A2940 RMK AO2 PK WND 27034/1545 RAB39 SLP954 P0000 T01330039","updated":"2025-10-31T16:22:39Z"}
