{"icao":"LPPR","metar":"LPPR 041600Z 29003KT 250V350 CAVOK 14/10 Q1004","updated":"2026-01-04T16:23:08Z"}
