{"icao":"LPMA","metar":"LPMA 272300Z 02014KT 340V050 9999 FEW016 16/10 Q1020","updated":"2026-03-27T23:31:13Z"}
