{"icao":"LPOV","metar":"LPOV 080800Z VRB02KT 6000 BKN030 16/15 Q1022","updated":"2025-10-08T08:24:18Z"}
