{"icao":"LPLA","metar":"LPLA 121400Z 29026G37KT 9999 FEW022 FEW024CB 16/11 Q1016","updated":"2026-02-12T14:45:39Z"}
