{"icao":"LPPT","metar":"LPPT 102030Z 27014KT 230V300 7000 -DZ FEW002 BKN004 16/16 Q1018","updated":"2026-02-10T20:42:41Z"}
