{"icao":"LPLA","metar":"LPLA 221000Z 19015KT 9999 FEW010 SCT017 BKN045 17/15 Q1022","updated":"2026-02-22T10:23:30Z"}
