{"icao":"LPFR","metar":"LPFR 200130Z 35006KT CAVOK 09/05 Q1029","updated":"2026-02-20T01:59:31Z"}
