{"icao":"LPPS","metar":"LPPS 271730Z 01012KT 9999 SCT014 BKN030 16/12 Q1019","updated":"2026-03-27T17:49:15Z"}
