{"icao":"LPPD","metar":"LPPD 011600Z 04009KT 360V100 9999 FEW025 SCT045 18/08 Q1020","updated":"2025-11-01T16:19:20Z"}
