{"icao":"KORD","metar":"KORD 032251Z 20016G24KT 10SM FEW070 FEW100 20/04 A2969 RMK AO2 PK WND 21027/2200 SLP053 T02000039 $","updated":"2026-05-03T23:42:48Z"}
