{"icao":"LPCS","metar":"LPCS 071800Z 28016KT 240V300 9999 FEW020 FEW025TCU SCT026 13/10 Q1006","updated":"2026-02-07T18:33:54Z"}
