{"icao":"KORD","metar":"KORD 251351Z 00000KT 10SM FEW040 SCT100 SCT150 BKN250 06/02 A3038 RMK AO2 SLP292 VIRGA NW T00560017 $","updated":"2025-10-25T14:14:56Z"}
