{"icao":"LPPT","metar":"LPPT 232030Z 24010KT CAVOK 14/11 Q1022","updated":"2026-02-23T20:42:33Z"}
