{"icao":"LPMT","metar":"LPMT 271200Z 15005KT 110V200 CAVOK 32/13 Q1018","updated":"2026-05-27T12:19:02Z"}
