{"icao":"LPAZ","metar":"LPAZ 241430Z 17011KT 140V210 9999 SCT007 21/19 Q1024","updated":"2026-05-24T15:02:11Z"}
