{"icao":"LPPT","metar":"LPPT 171500Z VRB04KT CAVOK 28/12 Q1014","updated":"2025-10-17T15:17:54Z"}
