{"icao":"KLAX","metar":"KLAX 211907Z 26008KT 10SM FEW003 FEW240 SCT300 23/16 A2995 RMK AO2 T02330161","updated":"2026-03-21T19:22:54Z"}
