{"icao":"KJFK","metar":"KJFK 101551Z 20018G24KT 10SM FEW024 FEW090 SCT120 BKN250 06/00 A2965 RMK AO2 PRESFR SLP039 T00610000","updated":"2025-12-10T16:27:09Z"}
