{"icao":"LPLA","metar":"LPLA 091213Z 15011KT 120V190 9999 FEW009 SCT016 BKN024 17/15 Q1028","updated":"2026-01-09T12:42:08Z"}
