{"icao":"LPFR","metar":"LPFR 301900Z 25005KT CAVOK 26/18 Q1017","updated":"2026-05-30T19:12:30Z"}
