{"icao":"LPPS","metar":"LPPS 022200Z 13007KT 100V160 9999 FEW014 21/18 Q1024","updated":"2025-11-02T22:15:39Z"}
