{"icao":"LPPS","metar":"LPPS 052000Z 03017G27KT 9999 SCT015 14/09 Q1023","updated":"2026-01-05T20:24:28Z"}
