{"icao":"KLAX","metar":"KLAX 051453Z 06004KT 10SM FEW230 SCT270 BKN300 17/08 A2999 RMK AO2 SLP153 T01670078 53005 $","updated":"2026-04-05T15:31:42Z"}
