{"icao":"KLAX","metar":"KLAX 102053Z 25008KT 10SM CLR 22/08 A2999 RMK AO2 SLP153 T02220083 56019 $","updated":"2025-12-10T21:20:16Z"}
