{"icao":"LPCS","metar":"LPCS 011600Z 23006KT 190V250 CAVOK 15/09 Q1019","updated":"2026-03-01T16:26:27Z"}
