{"icao":"KJFK","metar":"KJFK 130451Z 26011KT 10SM FEW110 SCT150 SCT250 09/02 A2982 RMK AO2 SLP096 T00890022 401060039","updated":"2025-11-13T05:18:54Z"}
