{"icao":"KORD","metar":"KORD 140851Z 20004KT 10SM CLR 02/M03 A3002 RMK AO2 SLP169 T00221028 58012 $","updated":"2026-02-14T09:28:50Z"}
