{"icao":"KORD","metar":"KORD 092251Z 23004KT 10SM BKN024 06/02 A3013 RMK AO2 SLP207 T00610017","updated":"2026-01-09T23:19:06Z"}
