{"icao":"LPPD","metar":"LPPD 201730Z 19010KT 9000 FEW014 BKN045 16/14 Q1022","updated":"2026-02-20T17:36:13Z"}
