{"icao":"LPPD","metar":"LPPD 240600Z 01011KT 9999 FEW016 SCT035 18/13 Q1022","updated":"2025-09-24T06:26:39Z"}
