{"icao":"LPPR","metar":"LPPR 022200Z VRB05KT 6000 -SHRA SCT018 FEW025CB BKN048 12/10 Q1011 RESHRA","updated":"2026-03-02T22:25:12Z"}
