{"icao":"LPAZ","metar":"LPAZ 081400Z 22033G46KT 7000 BKN011 21/19 Q0998","updated":"2025-12-08T14:20:53Z"}
