{"icao":"LPPR","metar":"LPPR 210730Z VRB02KT CAVOK 21/15 Q1020","updated":"2026-05-21T07:50:10Z"}
