{"icao":"KORD","metar":"KORD 182251Z 22008KT 3SM -SN OVC043 M09/M13 A2988 RMK AO2 SLP133 P0000 T10891133 $","updated":"2026-01-18T23:19:11Z"}
