{"icao":"LPAZ","metar":"LPAZ 122100Z 30021KT 9999 FEW024 15/10 Q1023","updated":"2026-02-12T21:32:18Z"}
