{"icao":"KORD","metar":"KORD 271251Z 02011KT 10SM BKN023 00/M06 A3037 RMK AO2 SLP290 T00001056","updated":"2026-03-27T13:04:19Z"}
