{"icao":"LPMA","metar":"LPMA 160900Z 34008KT 260V010 9999 FEW018 20/10 Q1020","updated":"2025-11-16T09:17:39Z"}
