{"icao":"KLAX","metar":"KLAX 140853Z 10008KT 10SM FEW009 FEW025 BKN100 OVC150 18/17 A2999 RMK AO2 SLP152 60000 T01830167 58015","updated":"2025-11-14T09:19:46Z"}
