{"icao":"KORD","metar":"KORD 081051Z 34007KT 10SM FEW035 10/07 A3031 RMK AO2 SLP264 T01000067 $","updated":"2025-10-08T11:14:48Z"}
