{"icao":"LPBJ","metar":"LPBJ 022100Z 31011KT CAVOK 19/10 Q1020","updated":"2026-06-02T21:46:38Z"}
