{"icao":"LPMA","metar":"LPMA 070900Z 03007KT 360V060 9999 SCT013 21/18 Q1025","updated":"2025-10-07T09:19:17Z"}
