{"icao":"LPAZ","metar":"LPAZ 251930Z 18003KT 130V230 9999 FEW005 BKN017 17/16 Q1019","updated":"2026-04-25T19:42:21Z"}
