{"icao":"LPPD","metar":"LPPD 180700Z 30006KT 240V350 9999 FEW018 15/14 Q1025","updated":"2025-11-18T07:18:29Z"}
