{"icao":"LPPD","metar":"LPPD 230430Z 19005KT 0200 R30/M0050 FG VV001 17/16 Q1023","updated":"2026-05-23T04:39:11Z"}
