{"icao":"LPPD","metar":"LPPD 111130Z 24013KT 6000 FEW007 16/15 Q1017","updated":"2026-02-11T11:43:29Z"}
