{"icao":"KORD","metar":"KORD 061118Z 10004KT 1/8SM R10L/2000V3500FT FG VV002 06/06 A2999 RMK AO2 T00610056","updated":"2026-03-06T11:27:50Z"}
