{"icao":"LPFR","metar":"LPFR 262200Z 03007KT CAVOK 09/05 Q1013","updated":"2025-12-26T22:18:51Z"}
