{"icao":"LPAZ","metar":"LPAZ 291700Z 09010KT 060V120 9999 FEW020 BKN030 15/10 Q1032","updated":"2026-03-29T17:28:25Z"}
