{"icao":"LPPT","metar":"LPPT 251030Z 35007KT 320V020 9999 FEW025 21/13 Q1017","updated":"2026-04-25T10:41:43Z"}
