{"icao":"LPPR","metar":"LPPR 142100Z 00000KT 9000 FEW027 SCT038 09/08 Q1021","updated":"2026-01-14T21:20:34Z"}
