{"icao":"KJFK","metar":"KJFK 200951Z 05010KT 10SM CLR 17/07 A3019 RMK AO2 SLP222 T01670072 $","updated":"2025-09-20T10:16:31Z"}
