{"icao":"LPFR","metar":"LPFR 261100Z 10012KT CAVOK 22/10 Q1013","updated":"2026-03-26T11:05:22Z"}
