{"icao":"KLAX","metar":"KLAX 181853Z 23005KT 10SM CLR 27/04 A3001 RMK AO2 SLP159 T02720044 $","updated":"2025-10-18T19:13:04Z"}
