{"icao":"LPFL","metar":"LPFL 212000Z 25018G37KT 200V330 9999 VCSH BKN011 18/15 Q1016 WS ALL RWY","updated":"2026-01-21T20:29:04Z"}
