{"icao":"LPCS","metar":"LPCS 281800Z 13006KT 9999 VCSH FEW004 SCT012 FEW018TCU 17/17 Q1010","updated":"2025-10-28T18:28:01Z"}
