{"icao":"LPFR","metar":"LPFR 252000Z 24018KT 9000 SCT005 SCT012 15/14 Q1016","updated":"2026-01-25T20:22:32Z"}
