{"icao":"LPPT","metar":"LPPT 241030Z 17009KT 120V190 9999 FEW008 15/12 Q1018","updated":"2026-02-24T10:47:44Z"}
