{"icao":"LPAZ","metar":"LPAZ 061000Z 23018KT 9999 SCT013 BKN021 BKN036 21/19 Q1016","updated":"2025-11-06T10:21:09Z"}
