{"icao":"LPPR","metar":"LPPR 232200Z 10004KT 080V140 CAVOK 14/09 Q1017","updated":"2026-03-23T22:31:00Z"}
