{"icao":"KJFK","metar":"KJFK 282251Z 04006KT 10SM FEW030 BKN045 12/04 A3021 RMK AO2 SLP229 T01170044","updated":"2025-10-28T23:16:52Z"}
