{"icao":"LPMR","metar":"LPMR 070500Z 18009KT 6000 -RA FEW009 SCT022 BKN040 15/14 Q1014","updated":"2025-11-07T05:17:58Z"}
