{"icao":"LPFR","metar":"LPFR 181700Z 13005KT 100V180 CAVOK 27/21 Q1018","updated":"2025-09-18T17:15:25Z"}
