{"icao":"KLAX","metar":"KLAX 212053Z 21010G15KT 10SM SCT010 BKN032 BKN140 BKN180 21/12 A3005 RMK AO2 SLP175 60000 T02110117 56004 $","updated":"2026-04-21T21:44:31Z"}
