{"icao":"LPBJ","metar":"LPBJ 081400Z 32011KT 290V350 9999 SCT025 19/10 Q1021","updated":"2025-11-08T14:15:17Z"}
