{"icao":"LPHR","metar":"LPHR 291300Z 24008KT 9000 FEW002 BKN004 23/22 Q1023","updated":"2025-09-29T13:28:12Z"}
