{"icao":"KJFK","metar":"KJFK 281951Z 16007KT 10SM SCT110 SCT140 BKN220 BKN250 14/02 A3012 RMK SLP200 T01440017 ","updated":"2026-04-28T20:14:31Z"}
