{"icao":"KLAX","metar":"KLAX 191953Z 25008KT 10SM FEW230 SCT300 24/15 A3001 RMK AO2 SLP162 T02440150 $","updated":"2025-10-19T20:18:38Z"}
