{"icao":"KORD","metar":"KORD 121551Z 16007KT 10SM FEW032 SCT250 16/08 A3003 RMK AO2 SLP170 T01610083 $","updated":"2025-10-12T16:19:11Z"}
