{"icao":"LPPS","metar":"LPPS 140330Z 31010KT 9999 SCT015 16/12 Q1019","updated":"2026-05-14T03:39:12Z"}
