{"icao":"LPBJ","metar":"LPBJ 301200Z 28004KT 220V320 CAVOK 33/16 Q1020","updated":"2026-06-30T12:06:48Z"}
