{"icao":"LPPR","metar":"LPPR 062230Z 01004KT 8000 FEW012 14/13 Q1020","updated":"2026-06-06T23:02:11Z"}
