{"icao":"LPPT","metar":"LPPT 191630Z 10008KT 8000 -RA FEW002 SCT012 13/13 Q1006","updated":"2026-03-19T16:56:24Z"}
