{"icao":"LPPD","metar":"LPPD 251130Z 06011KT 020V080 9999 FEW020 BKN030 15/09 Q1030","updated":"2026-03-25T11:40:32Z"}
