{"icao":"KLAX","metar":"KLAX 101053Z 29006KT 1/16SM R25L/1200V1800FT FG VV001 15/15 A3011 RMK AO2 SLP194 T01500150 $","updated":"2025-11-10T11:16:47Z"}
