{"icao":"LPFR","metar":"LPFR 111900Z 33014KT CAVOK 19/11 Q1011","updated":"2026-04-11T19:33:29Z"}
