{"icao":"LPFR","metar":"LPFR 220700Z 28005KT 2800 -DZ BR BKN003 BKN006 20/19 Q1019","updated":"2025-10-22T07:17:35Z"}
