{"icao":"KLAX","metar":"KLAX 101453Z 35003KT 10SM CLR 07/M02 A3040 RMK AO2 SLP294 T00721017 53003 $","updated":"2026-01-10T15:18:39Z"}
