{"icao":"LPFR","metar":"LPFR 130800Z 36006KT 310V030 CAVOK 27/13 Q1018"}
