{"icao":"LPPD","metar":"LPPD 301230Z 29005KT 250V340 9999 SCT018 18/15 Q1028","updated":"2025-11-30T12:35:24Z"}
