{"icao":"LPBJ","metar":"LPBJ 230900Z VRB01KT CAVOK 08/03 Q1028","updated":"2025-11-23T09:17:33Z"}
