{"icao":"KJFK","metar":"KJFK 021251Z 32010KT 10SM FEW250 M08/M17 A3001 RMK SLP161 T10831167 PNO $ ","updated":"2026-02-02T12:57:14Z"}
