{"icao":"LPOV","metar":"LPOV 031400Z 33006KT 280V010 7000 1000N PRFG FEW001 BKN006 16/14 Q1023","updated":"2025-10-03T14:16:29Z"}
