{"icao":"LPAR","metar":"LPAR 291000Z 26015G26KT 240V300 3000 RADZ SCT009 BKN013 BKN022 17/15 Q1008","updated":"2026-01-29T10:35:35Z"}
