{"icao":"KJFK","metar":"KJFK 130651Z 21009KT 10SM SCT170 BKN250 11/07 A3008 RMK AO2 SLP186 T01110067","updated":"2026-05-13T07:48:06Z"}
