{"icao":"LPMR","metar":"LPMR 251700Z 27004KT 240V300 9999 FEW020 BKN030 14/11 Q1014","updated":"2026-01-25T17:16:50Z"}
