{"icao":"LPFR","metar":"LPFR 251100Z 27008KT 230V300 9999 FEW020 SCT028 24/18 Q1015","updated":"2025-10-25T11:12:56Z"}
