{"icao":"KORD","metar":"KORD 051351Z 25008KT 10SM SCT170 BKN230 11/07 A2984 RMK AO2 SLP106 T01110072","updated":"2025-11-05T14:19:17Z"}
