{"icao":"LPFR","metar":"LPFR 030600Z 02002KT CAVOK 12/10 Q1022","updated":"2025-11-03T06:29:02Z"}
