{"icao":"LPPR","metar":"LPPR 202100Z 02003KT 330V090 CAVOK 09/07 Q1030","updated":"2026-02-20T21:23:00Z"}
