{"icao":"LPPT","metar":"LPPT 081500Z 32011KT 280V350 9999 FEW026 BKN044 15/09 Q1021","updated":"2026-03-08T15:22:19Z"}
