{"icao":"LPLA","metar":"LPLA 201900Z 01005KT 330V080 9999 FEW022 BKN038 16/12 Q1031","updated":"2025-11-20T19:15:21Z"}
