{"icao":"LPMT","metar":"LPMT 010700Z 36002KT CAVOK 04/03 Q1021","updated":"2025-12-01T07:21:58Z"}
