{"icao":"LPAR","metar":"LPAR 041500Z 32013G23KT 9999 SCT035 21/06 Q1016","updated":"2026-05-04T16:02:10Z"}
