{"icao":"LPPT","metar":"LPPT 201000Z 36010KT 9999 FEW022 24/09 Q1020","updated":"2025-09-20T10:16:10Z"}
