{"icao":"LPMA","metar":"LPMA 291800Z 03010KT 340V060 9999 SCT015 SCT030 22/15 Q1021","updated":"2025-09-29T18:26:36Z"}
