{"icao":"LPPT","metar":"LPPT 140330Z 31003KT 260V350 CAVOK 19/10 Q1016","updated":"2025-10-14T03:36:23Z"}
