{"icao":"LPPD","metar":"LPPD 022200Z 02003KT 9999 SCT010 BKN040 19/17 Q1019","updated":"2025-11-02T22:15:25Z"}
