{"icao":"LPGR","metar":"LPGR 301630Z 10010KT 070V130 9999 FEW018 23/17 Q1031","updated":"2026-06-30T19:54:23Z"}
