{"icao":"KJFK","metar":"KJFK 010751Z 03016G23KT 10SM FEW070 BKN250 16/04 A3009 RMK AO2 SLP190 T01610044 $","updated":"2025-10-01T08:24:12Z"}
