{"icao":"LPMA","metar":"LPMA 141500Z 03013KT 350V060 9999 VCSH SCT015 19/13 Q1023","updated":"2026-03-14T15:27:33Z"}
