{"icao":"LPPR","metar":"LPPR 150400Z 16010KT 130V210 9999 -TSRA FEW012 FEW025CB BKN030 14/12 Q1002","updated":"2025-11-15T04:20:48Z"}
