{"icao":"LPBJ","metar":"LPBJ 260800Z 36002KT CAVOK 05/04 Q1025","updated":"2025-11-26T08:26:21Z"}
