{"icao":"KORD","metar":"KORD 231051Z 21006KT 10SM FEW250 12/09 A2991 RMK AO2 SLP128 T01220089","updated":"2026-04-23T11:06:37Z"}
