{"icao":"LPMA","metar":"LPMA 060900Z 33005KT 280V010 9999 FEW018 20/13 Q1021","updated":"2025-11-06T09:20:25Z"}
