{"icao":"LPFR","metar":"LPFR 151300Z 21023G33KT 8000 FEW012 FEW018CB BKN020 20/18 Q1008 RESHRA","updated":"2025-11-15T13:22:58Z"}
