{"icao":"LPPD","metar":"LPPD 081500Z 22036G49KT 5000 SHRA FEW008 SCT014 BKN020 20/17 Q0992","updated":"2025-12-08T15:22:10Z"}
