{"icao":"KORD","metar":"KORD 302151Z 09007KT 10SM -RA BKN042 OVC060 08/02 A2996 RMK AO2 RAB04E12B43 SLP150 P0000 T00780022","updated":"2026-04-30T22:02:36Z"}
