{"icao":"LPOV","metar":"LPOV 150900Z 17003KT CAVOK 16/14 Q1017","updated":"2025-10-15T09:19:24Z"}
