{"icao":"LPFR","metar":"LPFR 160230Z 36015KT CAVOK 16/09 Q1014","updated":"2026-05-16T02:47:19Z"}
