{"icao":"KORD","metar":"KORD 131451Z 26025G48KT 10SM OVC033 03/M04 A2950 RMK AO2 PK WND 26048/1443 SLP992 T00331039 51042 $","updated":"2026-03-13T15:41:24Z"}
