{"icao":"LPPT","metar":"LPPT 292100Z VRB01KT 9999 SCT011 17/15 Q1012","updated":"2025-10-29T21:16:47Z"}
