{"icao":"LPBJ","metar":"LPBJ 100500Z 28003KT 0500 FG BKN007 06/05 Q1029","updated":"2026-01-10T05:19:42Z"}
