{"icao":"LPMA","metar":"LPMA 200300Z 33007KT 290V010 9999 SCT016 15/09 Q1026","updated":"2025-12-20T03:14:17Z"}
