{"icao":"KJFK","metar":"KJFK 020051Z 29007KT 10SM FEW060 M05/M17 A2990 RMK AO2 SLP125 T10501172 $","updated":"2026-01-02T01:41:20Z"}
