{"icao":"KORD","metar":"KORD 090851Z 24005KT 7SM BKN006 OVC010 22/22 A2991 RMK AO2 SLP124 60000 T02220217 58006 $","updated":"2026-06-09T09:40:40Z"}
