{"icao":"KORD","metar":"KORD 050751Z 20009KT 10SM FEW250 01/M05 A2983 RMK AO2 SLP107 T00111050 $","updated":"2026-01-05T08:32:02Z"}
