{"icao":"LPFR","metar":"LPFR 162300Z 08008KT CAVOK 16/09 Q1015","updated":"2026-03-16T23:30:39Z"}
