{"icao":"LPLA","metar":"LPLA 302000Z 29009KT 250V320 9999 FEW022 BKN035 17/13 Q1007","updated":"2025-10-30T20:20:11Z"}
