{"icao":"LPST","metar":"LPST 231100Z 14007KT CAVOK 19/09 Q1024","updated":"2026-02-23T11:38:37Z"}
