{"icao":"LPPD","metar":"LPPD 012000Z 32018KT 9999 VCSH FEW020 FEW025CB SCT040 11/06 Q1011 RESHRA","updated":"2026-02-01T20:25:38Z"}
