{"icao":"LPHR","metar":"LPHR 190630Z 02007KT CAVOK 11/07 Q1031","updated":"2026-01-19T06:36:49Z"}
