{"icao":"LPLA","metar":"LPLA 061000Z 24013G28KT 210V280 9000 -RA FEW016 SCT040 13/10 Q1010","updated":"2026-02-06T10:37:40Z"}
