{"icao":"LPOV","metar":"LPOV 051500Z 34009KT 9999 FEW025 21/09 Q1020","updated":"2026-04-05T15:31:22Z"}
