{"icao":"KORD","metar":"KORD 291151Z 08012KT 10SM FEW250 09/04 A3003 RMK AO2 SLP170 T00940044 10100 20094 53005","updated":"2025-10-29T12:39:45Z"}
