{"icao":"LPAZ","metar":"LPAZ 090130Z 05010KT 9999 FEW026 12/07 Q1032","updated":"2026-03-09T02:02:43Z"}
