{"icao":"KJFK","metar":"KJFK 190951Z 30008KT 10SM FEW250 21/13 A2995 RMK AO2 SLP141 T02110128 $","updated":"2025-09-19T10:19:05Z"}
