{"icao":"KJFK","metar":"KJFK 241251Z 31016KT 10SM FEW040 FEW110 FEW250 M04/M11 A2991 RMK AO2 SLP127 T10391111 $","updated":"2026-02-24T13:03:22Z"}
