{"icao":"LPMT","metar":"LPMT 011500Z 27005KT 250V310 CAVOK 33/18 Q1016","updated":"2026-07-01T15:39:47Z"}
