{"icao":"LPPD","metar":"LPPD 031230Z 16007KT 9999 FEW007 SCT014 BKN040 23/21 Q1024","updated":"2025-10-03T12:35:12Z"}
