{"icao":"LPPS","metar":"LPPS 022000Z 12007KT 9999 FEW015 21/18 Q1024","updated":"2025-11-02T20:17:35Z"}
