{"icao":"LPPD","metar":"LPPD 030430Z 25023KT 5000 -SHRA BR SCT003 BKN005 16/15 Q1009","updated":"2026-02-03T04:45:07Z"}
