{"icao":"LPOV","metar":"LPOV 101100Z 03004KT 360V070 9999 FEW022 15/10 Q1022","updated":"2025-12-10T11:17:23Z"}
