{"icao":"KJFK","metar":"KJFK 150951Z 05005KT 10SM SCT140 BKN250 M01/M04 A3005 RMK AO2 SLP174 T10111039 $","updated":"2026-02-15T10:25:56Z"}
