{"icao":"LPPR","metar":"LPPR 282000Z 10003KT 060V140 9000 FEW011 12/11 Q1022","updated":"2025-11-28T20:20:40Z"}
