{"icao":"LPLA","metar":"LPLA 251600Z 21007G17KT 160V320 9999 FEW022 22/17 Q1021","updated":"2026-05-25T16:26:21Z"}
