{"icao":"LPLA","metar":"LPLA 101300Z 19034G48KT 4000 RA BR FEW008 BKN012 BKN018 18/16 Q1014","updated":"2025-12-10T13:36:21Z"}
