{"icao":"KJFK","metar":"KJFK 201851Z 01009KT 1 1/2SM -RA BR BKN006 OVC012 04/03 A2965 RMK AO2 SFC VIS 2 1/2 SLP041 P0008 T00390028 $","updated":"2026-02-20T19:36:00Z"}
