{"icao":"LPAZ","metar":"LPAZ 121400Z 27015KT 9999 SCT025 FEW030CB 16/11 Q1000","updated":"2025-11-12T14:19:19Z"}
