{"icao":"KORD","metar":"KORD 130651Z 17006KT 10SM SCT150 OVC250 22/12 A3006 RMK AO2 SLP174 T02170117 $"}
