{"icao":"KLAX","metar":"KLAX 190553Z 27010KT 10SM FEW015 SCT020 BKN030 17/14 A2999 RMK AO2 SLP154 T01720139 10200 20172 53010 $","updated":"2026-06-19T06:17:10Z"}
