{"icao":"KORD","metar":"KORD 180513Z 25014KT 4SM -SN FEW017 BKN025 OVC046 M10/M13 A3006 RMK AO2 P0000 T11001133 $","updated":"2026-01-18T05:22:38Z"}
