{"icao":"LPMA","metar":"LPMA 162230Z 03011KT 9999 BKN016 17/10 Q1020","updated":"2026-04-16T22:38:35Z"}
