{"icao":"LPLA","metar":"LPLA 091500Z 08006KT 030V110 9999 BKN037 14/05 Q1035","updated":"2026-03-09T15:57:12Z"}
