{"icao":"LPMT","metar":"LPMT 261200Z 22015KT 8000 FEW009 SCT012 BKN020 15/14 Q1014","updated":"2026-01-26T12:45:48Z"}
