{"icao":"LPHR","metar":"LPHR 192300Z 27010KT 6000 SCT002 BKN004 22/22 Q1016","updated":"2025-10-20T05:18:52Z"}
