{"icao":"KJFK","metar":"KJFK 170451Z 31013G24KT 10SM SCT044 BKN050 BKN065 06/M06 A2956 RMK AO2 PK WND 30032/0358 SLP008 T00561061 401440056 $","updated":"2025-11-17T05:19:36Z"}
