{"icao":"LPPR","metar":"LPPR 290500Z 13006KT 2000 -RADZ BR SCT006 OVC009 11/10 Q1019","updated":"2025-11-29T05:18:02Z"}
