{"icao":"LPMT","metar":"LPMT 311400Z 20012G24KT 4000 -RA BR SCT012 BKN015 OVC035 20/18 Q1012","updated":"2025-10-31T14:18:09Z"}
