{"icao":"KLAX","metar":"KLAX 110905Z 21003KT 1/8SM R25L/2400V4000FT FG VV002 16/16 A3009 RMK AO2 T01610156 $","updated":"2025-11-11T09:20:26Z"}
