{"icao":"KJFK","metar":"KJFK 261051Z 20006KT 6SM BR SCT016 BKN090 12/11 A2986 RMK AO2 SLP110 T01170111","updated":"2025-11-26T11:16:58Z"}
