{"icao":"LPPT","metar":"LPPT 111000Z 06009G19KT 330V090 CAVOK 28/09 Q1019","updated":"2026-06-11T10:20:17Z"}
