{"icao":"LPMT","metar":"LPMT 301300Z 04004KT 350V070 0200 FG VV002 08/08 Q1021","updated":"2025-12-30T13:34:47Z"}
