{"icao":"LPHR","metar":"LPHR 122000Z 02008KT 350V050 9999 FEW018 18/12 Q1018","updated":"2025-10-12T23:14:54Z"}
