{"icao":"KJFK","metar":"KJFK 081451Z 36017G26KT 10SM FEW050 BKN220 M02/M14 A3027 RMK AO2 PK WND 01028/1404 SLP250 T10171144 51020 $","updated":"2025-12-08T15:22:26Z"}
