{"icao":"KLAX","metar":"KLAX 140653Z 18008KT 10SM FEW020 SCT045 BKN070 BKN250 17/13 A2982 RMK AO2 PK WND 18026/0621 SLP096 T01720128 $","updated":"2025-10-14T07:18:30Z"}
