{"icao":"KJFK","metar":"KJFK 210651Z 35008KT 10SM FEW075 03/M08 A3034 RMK SLP275 T00281083 ","updated":"2026-04-21T07:48:08Z"}
