{"icao":"LPOV","metar":"LPOV 021000Z 33016KT 9999 SCT030 19/16 Q1022","updated":"2026-06-02T10:20:40Z"}
