{"icao":"LPHR","metar":"LPHR 242030Z 25010KT 9999 FEW008 BKN012 16/15 Q1011","updated":"2026-04-24T20:45:58Z"}
