{"icao":"LPHR","metar":"LPHR 260900Z 31005KT 260V010 9999 FEW016 18/11 Q1026","updated":"2026-06-26T09:22:51Z"}
