{"icao":"LPOV","metar":"LPOV 280800Z VRB02KT 9999 SCT025 BKN035 14/13 Q1015","updated":"2025-10-28T08:24:53Z"}
