{"icao":"LPAR","metar":"LPAR 281600Z 33013KT 300V360 CAVOK 29/15 Q1018","updated":"2026-05-29T07:53:43Z"}
