{"icao":"KJFK","metar":"KJFK 170759Z 23008KT 10SM OVC028 00/M01 A3016 RMK AO2 T00001011 $","updated":"2026-02-17T08:42:39Z"}
