{"icao":"KJFK","metar":"KJFK 211651Z 29011G21KT 10SM FEW180 BKN250 08/M05 A3002 RMK AO2 SLP164 T00831050 $","updated":"2025-12-21T17:16:07Z"}
