{"icao":"LPPT","metar":"LPPT 190800Z 30002KT 9999 BKN044 13/10 Q1017","updated":"2025-11-19T08:25:07Z"}
