{"icao":"LPPR","metar":"LPPR 012000Z 19016KT 6000 -RADZ SCT009 OVC011 12/11 Q1014","updated":"2025-12-01T20:19:39Z"}
