{"icao":"LPFR","metar":"LPFR 060830Z 26018G28KT 5000 SHRA FEW018 FEW025CB BKN030 14/10 Q1006","updated":"2026-02-06T08:39:37Z"}
