{"icao":"KJFK","metar":"KJFK 110951Z 03006KT 10SM -RA SCT027 BKN037 BKN046 15/12 A3025 RMK AO2 RAB12 SLP244 P0000 T01500117","updated":"2025-10-11T10:16:33Z"}
