{"icao":"LPPT","metar":"LPPT 122300Z 14008KT 100V180 9999 FEW006 15/15 Q1005","updated":"2025-11-12T23:17:36Z"}
