{"icao":"LPBJ","metar":"LPBJ 220900Z 10004KT CAVOK 07/02 Q1030","updated":"2025-11-22T09:17:23Z"}
