{"icao":"LPPS","metar":"LPPS 091700Z 07004KT 020V110 9999 VCSH FEW012 SCT030 16/12 Q1032","updated":"2026-01-09T17:22:10Z"}
