{"icao":"LPLA","metar":"LPLA 141500Z 31015KT 9999 SCT030 18/10 Q1007","updated":"2025-11-14T15:17:13Z"}
