{"icao":"LPCS","metar":"LPCS 101430Z 25015KT 0450 FG VV002 15/15 Q1016","updated":"2026-02-10T14:56:57Z"}
