{"icao":"LPHR","metar":"LPHR 170900Z 17010KT 9999 SCT013 BKN040 21/19 Q1011","updated":"2025-10-17T09:19:52Z"}
