{"icao":"LPPT","metar":"LPPT 130300Z 32003KT CAVOK 19/11 Q1015","updated":"2025-10-13T03:08:20Z"}
