{"icao":"LPFL","metar":"LPFL 270600Z 33008KT 290V020 9999 SCT016 BKN030 18/14 Q1024","updated":"2026-06-27T06:30:03Z"}
