{"icao":"LPPR","metar":"LPPR 281100Z 20006KT 110V250 9999 -RA FEW018TCU BKN035 BKN043 18/12 Q1015","updated":"2025-10-28T11:14:51Z"}
