{"icao":"LPFR","metar":"LPFR 160800Z 10006KT CAVOK 23/17 Q1019","updated":"2025-09-16T08:23:44Z"}
