{"icao":"LPBJ","metar":"LPBJ 242200Z 29009KT CAVOK 16/12 Q1018","updated":"2026-04-24T22:37:07Z"}
