{"icao":"LPPT","metar":"LPPT 190430Z 31003KT 230V350 9999 FEW030 07/06 Q1018","updated":"2026-01-19T04:50:40Z"}
