{"icao":"LPMA","metar":"LPMA 112030Z 04003KT 340V080 9999 BKN015 18/12 Q1027","updated":"2026-02-11T20:37:46Z"}
