{"icao":"LPAZ","metar":"LPAZ 221900Z 17010KT 9999 BKN049 16/12 Q1023","updated":"2026-02-22T19:23:28Z"}
