{"icao":"LPMA","metar":"LPMA 271100Z 09006KT 020V130 9999 SCT014 20/12 Q1017","updated":"2026-01-27T11:21:51Z"}
