{"icao":"LPFL","metar":"LPFL 030700Z 27005KT 9999 FEW020 BKN029 13/08 Q1026","updated":"2026-04-03T07:06:16Z"}
