{"icao":"LPBJ","metar":"LPBJ 290500Z 28006KT CAVOK 15/14 Q1021","updated":"2026-06-29T05:48:47Z"}
