{"icao":"KLAX","metar":"KLAX 100453Z 36003KT 10SM CLR 12/04 A3037 RMK AO2 SLP285 T01220039 $","updated":"2026-01-10T05:19:58Z"}
