{"icao":"LPOV","metar":"LPOV 201400Z 17008KT 8000 -SHRA FEW012 SCT016 BKN024 11/10 Q1016","updated":"2026-01-20T14:29:43Z"}
