{"icao":"KLAX","metar":"KLAX 091553Z 09006KT 10SM FEW180 FEW250 17/09 A2992 RMK AO2 SLP127 T01670094 $","updated":"2026-03-09T15:57:13Z"}
