{"icao":"KJFK","metar":"KJFK 072351Z 01014KT 10SM FEW090 SCT120 BKN250 25/13 A2990 RMK AO2 PK WND 35028/2308 SLP125 T02500133 10300 20250 53034 $","updated":"2026-06-08T00:05:17Z"}
