{"icao":"LPPT","metar":"LPPT 291430Z 33012KT 280V350 CAVOK 29/16 Q1020","updated":"2026-06-29T14:46:32Z"}
