{"icao":"LPAZ","metar":"LPAZ 312300Z 09005KT 050V130 9999 FEW015 SCT017 14/11 Q1029","updated":"2026-03-31T23:33:16Z"}
