{"icao":"LPPT","metar":"LPPT 212200Z 33005KT CAVOK 10/03 Q1029","updated":"2025-11-21T22:17:48Z"}
