{"icao":"LPPR","metar":"LPPR 160130Z 14007KT 9000 FEW024 BKN030 09/09 Q1014","updated":"2026-01-16T01:41:50Z"}
