{"icao":"LPBJ","metar":"LPBJ 010900Z 09005KT 8000 2100S VCFG OVC004 08/07 Q1014","updated":"2026-01-01T09:23:52Z"}
