{"icao":"LPMT","metar":"LPMT 012000Z 04004KT 340V070 9999 SCT014 SCT036 18/16 Q1020","updated":"2025-11-01T20:17:13Z"}
