{"icao":"LPPS","metar":"LPPS 191230Z 11012KT 9999 SCT015 18/10 Q1028","updated":"2026-02-19T13:02:53Z"}
