{"icao":"LPPD","metar":"LPPD 012300Z 32025G37KT 9999 FEW020 FEW022TCU SCT030 13/09 Q1001 WS ALL RWY","updated":"2026-01-01T23:18:55Z"}
