{"icao":"LPPT","metar":"LPPT 121800Z 12006KT 090V170 9999 SCT002 15/15 Q1005","updated":"2025-11-12T18:26:24Z"}
