{"icao":"LPMA","metar":"LPMA 072100Z 02010KT 340V050 9999 VCSH SCT015 22/19 Q1025","updated":"2025-10-07T21:14:48Z"}
