{"icao":"LPBJ","metar":"LPBJ 290500Z 29003KT 9999 FEW040 14/13 Q1015","updated":"2025-09-29T05:17:49Z"}
