{"icao":"KORD","metar":"KORD 281351Z 19003KT 10SM FEW025 FEW250 M01/M11 A3064 RMK AO2 SLP383 T10111111","updated":"2026-03-28T14:31:07Z"}
