{"icao":"KJFK","metar":"KJFK 281251Z 06003KT 7SM FEW003 SCT022 BKN250 01/M01 A3014 RMK AO2 SLP205 T00061006","updated":"2026-02-28T13:35:24Z"}
