{"icao":"LPAZ","metar":"LPAZ 190800Z 01015KT 9999 SCT014 17/15 Q1021","updated":"2025-11-19T08:25:12Z"}
