{"icao":"LPMT","metar":"LPMT 201700Z 09009KT 9999 FEW010 BKN022 15/14 Q1006","updated":"2026-03-20T17:34:25Z"}
