{"icao":"LPOV","metar":"LPOV 271500Z 18017G29KT 140V200 7000 -RA BKN030 21/16 Q1012","updated":"2025-09-27T15:14:31Z"}
