{"icao":"LPHR","metar":"LPHR 020900Z 10004KT 040V140 9999 BKN035 17/11 Q1022","updated":"2025-11-02T09:16:15Z"}
