{"icao":"LPHR","metar":"LPHR 121100Z 23010KT 9999 FEW012 BKN022 16/11 Q1031","updated":"2026-03-12T11:30:27Z"}
