{"icao":"LPBJ","metar":"LPBJ 302300Z 19007KT 9999 FEW045 16/14 Q1016","updated":"2025-10-30T23:16:29Z"}
