{"icao":"LPBJ","metar":"LPBJ 241800Z 27014KT CAVOK 25/15 Q1013","updated":"2026-06-24T18:50:01Z"}
