{"icao":"LPPD","metar":"LPPD 141400Z 36012KT 330V030 9999 FEW018 BKN030 17/11 Q1031","updated":"2026-03-14T14:26:59Z"}
