{"icao":"LPBJ","metar":"LPBJ 040800Z 33009KT 9999 SCT003 BKN005 13/13 Q1023","updated":"2025-10-04T08:20:13Z"}
