{"icao":"KORD","metar":"KORD 090351Z 18012G18KT 10SM BKN048 OVC180 M06/M12 A3013 RMK AO2 SLP214 T10611117","updated":"2025-12-09T04:28:10Z"}
