{"icao":"KLAX","metar":"KLAX 150453Z 20004KT 10SM FEW016 FEW230 SCT280 14/11 A3007 RMK AO2 SLP182 T01440106 $","updated":"2026-02-15T05:55:09Z"}
