{"icao":"KLAX","metar":"KLAX 062253Z 26006KT 10SM FEW026 FEW110 SCT180 BKN270 18/11 A3009 RMK AO2 SLP187 TCU DSNT NE T01830111 $","updated":"2026-02-06T23:24:39Z"}
