{"icao":"LPPS","metar":"LPPS 181200Z 01015KT 340V040 9999 FEW015 20/13 Q1024","updated":"2026-05-18T12:28:12Z"}
