{"icao":"LPMA","metar":"LPMA 201000Z 03010KT 360V080 9999 SCT015 21/14 Q1021","updated":"2025-11-20T10:20:59Z"}
