{"icao":"LPMT","metar":"LPMT 091700Z 31011G22KT 9999 SCT035 11/06 Q1022","updated":"2026-03-09T17:53:27Z"}
