{"icao":"LPBJ","metar":"LPBJ 150000Z 20005KT CAVOK 18/14 Q1017","updated":"2026-06-15T00:07:49Z"}
