{"icao":"LPCS","metar":"LPCS 011300Z 05006KT 360V130 CAVOK 22/05 Q1023","updated":"2026-04-01T13:19:17Z"}
