{"icao":"LPPT","metar":"LPPT 101530Z 34015KT 300V010 9999 FEW030 15/08 Q1020","updated":"2026-03-10T15:58:10Z"}
