{"icao":"LPMT","metar":"LPMT 080500Z 32005KT CAVOK 17/14 Q1022","updated":"2025-10-08T05:17:20Z"}
