{"icao":"LPCS","metar":"LPCS 271600Z 04012KT 010V070 9999 -RA FEW015 BKN030 10/07 Q1006","updated":"2025-12-27T16:22:28Z"}
