{"icao":"LPLA","metar":"LPLA 231300Z 21007KT 170V250 9999 FEW025 24/18 Q1016","updated":"2025-10-23T13:30:38Z"}
