{"icao":"LPHR","metar":"LPHR 161000Z 24005KT 9999 FEW020 16/12 Q1030","updated":"2026-05-16T10:13:12Z"}
