{"icao":"LPMR","metar":"LPMR 022000Z 35003KT CAVOK 13/10 Q1025","updated":"2025-11-02T20:17:33Z"}
