{"icao":"KORD","metar":"KORD 250351Z 00000KT 10SM FEW250 06/01 A3032 RMK AO2 SLP270 T00610011 $","updated":"2025-10-25T04:20:39Z"}
