{"icao":"LPPR","metar":"LPPR 280300Z 11010KT CAVOK 16/09 Q1016","updated":"2025-10-28T03:05:52Z"}
