{"icao":"LPPR","metar":"LPPR 280500Z 07010KT 8000 RA FEW018 BKN040 07/06 Q0989","updated":"2026-01-28T05:26:59Z"}
