{"icao":"KORD","metar":"KORD 160451Z 18003KT 10SM FEW250 M07/M12 A3007 RMK AO2 SLP196 T10721117","updated":"2025-12-16T05:21:25Z"}
