{"icao":"LPMT","metar":"LPMT 090800Z 03010KT CAVOK 13/09 Q1018","updated":"2026-04-09T09:05:55Z"}
