{"icao":"LPFR","metar":"LPFR 041900Z 07006KT CAVOK 22/03 Q1020","updated":"2026-04-04T19:30:05Z"}
