{"icao":"LPAR","metar":"LPAR 140900Z 14005KT 110V180 9999 FEW018 BKN025 17/14 Q1024","updated":"2026-04-14T09:16:15Z"}
