{"icao":"LPLA","metar":"LPLA 141300Z 21009G19KT 160V250 9999 BKN035 16/10 Q1031","updated":"2026-02-14T13:42:49Z"}
