{"icao":"LPBJ","metar":"LPBJ 211100Z 07005KT 070V240 CAVOK 33/11 Q1017","updated":"2026-06-21T11:45:57Z"}
