{"icao":"KLAX","metar":"KLAX 082053Z 26008KT 10SM FEW010 21/14 A3010 RMK AO2 SLP191 T02060139 58022 $","updated":"2025-12-08T21:16:25Z"}
