{"icao":"LPPT","metar":"LPPT 260300Z 36005KT CAVOK 10/08 Q1024","updated":"2025-11-26T03:13:36Z"}
