{"icao":"LPMA","metar":"LPMA 311600Z 15003KT 110V190 9999 BKN013 19/16 Q1023","updated":"2026-01-31T16:26:47Z"}
