{"icao":"KORD","metar":"KORD 051951Z 34016G23KT 10SM FEW055 16/02 A3005 RMK AO2 PK WND 34027/1901 SLP175 T01560017","updated":"2025-11-05T20:21:23Z"}
