{"icao":"KLAX","metar":"KLAX 191653Z 08005KT 10SM FEW009 SCT150 BKN200 15/06 A3004 RMK AO2 SLP173 T01500056 $","updated":"2026-01-19T17:22:38Z"}
