{"icao":"LPFR","metar":"LPFR 081900Z 20008KT 3000 -DZRA BR BKN003 BKN005 13/13 Q1016","updated":"2026-02-08T19:23:27Z"}
