{"icao":"LPLA","metar":"LPLA 110600Z 36010KT 330V050 9999 FEW009 BKN015 BKN030 14/12 Q1020","updated":"2026-05-11T06:45:47Z"}
