{"icao":"LPST","metar":"LPST 171600Z 29007KT 270V330 9999 FEW030 25/13 Q1014","updated":"2025-10-18T08:21:00Z"}
