{"icao":"LPPS","metar":"LPPS 240600Z 35015KT 9000 -DZ SCT014 SCT030 15/13 Q1015","updated":"2025-12-24T06:32:21Z"}
