{"icao":"LPMA","metar":"LPMA 050800Z 03013G29KT 320V100 9999 BKN015 FEW018CB 15/09 Q1017","updated":"2026-01-05T08:32:01Z"}
