{"icao":"KJFK","metar":"KJFK 240851Z 28010KT 10SM BKN070 08/M01 A3006 RMK AO2 SLP180 T00781006 51009","updated":"2025-11-24T09:23:16Z"}
