{"icao":"LPCS","metar":"LPCS 061000Z 24006KT 9999 FEW018 17/13 Q1019","updated":"2025-11-06T10:20:53Z"}
