{"icao":"LPPT","metar":"LPPT 141200Z 32011KT 280V010 9999 FEW025 25/18 Q1023","updated":"2025-09-14T12:30:46Z"}
