{"icao":"LPAR","metar":"LPAR 200900Z 36014KT CAVOK 13/07 Q1020","updated":"2025-11-20T10:20:27Z"}
