{"icao":"KJFK","metar":"KJFK 150251Z 26010KT 10SM SCT070 SCT120 SCT250 08/M02 A2994 RMK AO2 SLP137 T00781017 55004","updated":"2025-11-15T03:06:05Z"}
