{"icao":"LPPT","metar":"LPPT 180830Z 16012KT 9999 FEW010 BKN012 FEW018TCU 14/13 Q1003","updated":"2026-03-18T08:48:13Z"}
