{"icao":"LPPT","metar":"LPPT 152330Z 32011KT CAVOK 13/11 Q1023","updated":"2026-04-15T23:40:09Z"}
