{"icao":"LPPD","metar":"LPPD 121500Z 31018KT 280V340 9999 FEW020 16/10 Q1015","updated":"2026-01-12T15:24:23Z"}
