{"icao":"LPHR","metar":"LPHR 012300Z 30027G49KT 270V330 7000 SHRA SCT025 FEW030TCU BKN095 12/08 Q1013","updated":"2026-02-01T23:23:23Z"}
