{"icao":"LPHR","metar":"LPHR 270630Z 02006KT CAVOK 11/05 Q1034","updated":"2026-02-27T06:52:35Z"}
