{"icao":"KORD","metar":"KORD 132317Z 19008KT 10SM TS SCT120CB BKN170 OVC250 24/12 A2982 RMK AO2 TSB16 OCNL LTGICCG W TS W MOV E T02440122","updated":"2026-04-13T23:41:08Z"}
