{"icao":"KORD","metar":"KORD 070951Z 04006KT 10SM BKN080 BKN095 BKN250 20/13 A2994 RMK AO2 SLP133 T02000133 $","updated":"2026-06-07T10:27:54Z"}
