{"icao":"LPFL","metar":"LPFL 111100Z 20007KT 120V280 9999 FEW010 SCT017 18/14 Q1031","updated":"2026-03-11T11:32:26Z"}
