{"icao":"KJFK","metar":"KJFK 211851Z 19015KT 10SM FEW250 19/08 A2986 RMK AO2 SLP112 T01890083","updated":"2025-10-21T19:15:20Z"}
