{"icao":"LPFL","metar":"LPFL 141000Z 19020KT 160V230 9999 FEW020 17/11 Q1025","updated":"2026-02-14T10:25:34Z"}
