{"icao":"LPOV","metar":"LPOV 310700Z 34006KT 7000 SCT003 OVC008 16/16 Q1021","updated":"2026-05-31T07:44:13Z"}
