{"icao":"LPPR","metar":"LPPR 260330Z 17013KT 3000 -SHRA BKN006 BKN018 12/11 Q1009","updated":"2026-01-26T03:55:51Z"}
