{"icao":"LPPR","metar":"LPPR 112300Z 05006KT CAVOK 20/13 Q1019","updated":"2025-10-11T23:15:28Z"}
