{"icao":"LPHR","metar":"LPHR 180700Z 33007KT 300V360 9999 SCT014 SCT035 14/08 Q1024","updated":"2025-12-18T07:21:32Z"}
