{"icao":"LPBJ","metar":"LPBJ 222300Z 26016KT 9000 -DZRA BKN009 BKN018 14/14 Q1004","updated":"2026-01-22T23:19:48Z"}
