{"icao":"KORD","metar":"KORD 161751Z 24010KT 7SM -SN OVC010 00/M02 A2951 RMK AO2 SNE03B19 SLP001 4/002 933001 P0000 60005 T00001022 10000 21033 50000 $","updated":"2026-01-16T18:31:16Z"}
