{"icao":"KORD","metar":"KORD 171551Z VRB04KT 10SM FEW034 M08/M17 A3016 RMK AO2 SLP224 T10781167","updated":"2026-03-17T16:04:44Z"}
