{"icao":"KORD","metar":"KORD 070751Z 36005KT 3SM +TSRA BR BKN006 OVC016CB 17/16 A3002 RMK AO2 SLP163 FRQ LTGIC OHD TS OHD MOV E P0038 T01670161 $","updated":"2025-10-07T08:23:51Z"}
