{"icao":"LPPD","metar":"LPPD 160900Z 03006KT 4000 -RA SCT006 BKN012 19/18 Q1004 RERA","updated":"2025-10-16T09:19:47Z"}
