{"icao":"LPBJ","metar":"LPBJ 220000Z 26003KT CAVOK 25/15 Q1018","updated":"2026-06-22T00:10:35Z"}
