{"icao":"LPPR","metar":"LPPR 202100Z 20011KT 4000 -RA BR SCT004 BKN025 12/12 Q1012 RERA","updated":"2026-01-20T21:19:39Z"}
