{"icao":"LPPD","metar":"LPPD 051800Z 02011KT 340V050 9999 FEW022 SCT035 16/09 Q1026","updated":"2026-05-05T18:09:33Z"}
