{"icao":"LPMT","metar":"LPMT 191000Z 02004KT CAVOK 18/13 Q1016","updated":"2026-04-19T10:37:22Z"}
