{"icao":"LPCS","metar":"LPCS 191000Z 18006KT 160V230 9999 FEW012 SCT020 21/19 Q1016","updated":"2025-10-19T10:16:37Z"}
