{"icao":"LPFR","metar":"LPFR 251600Z 10011KT CAVOK 27/14 Q1021","updated":"2026-05-25T16:26:01Z"}
