{"icao":"LPFR","metar":"LPFR 150930Z 33014KT 300V360 9999 FEW020 18/08 Q1013","updated":"2026-05-15T09:46:44Z"}
