{"icao":"LPOV","metar":"LPOV 151100Z 33013KT 300V360 9999 1200N PRFG SCT001 24/15 Q1023","updated":"2025-09-15T11:14:13Z"}
