{"icao":"KLAX","metar":"KLAX 082253Z 26010KT 6SM HZ SCT007 19/16 A2992 RMK AO2 SLP132 T01940161","updated":"2025-11-08T23:15:52Z"}
