{"icao":"KJFK","metar":"KJFK 142151Z 30017G31KT 10SM FEW075 FEW250 11/M10 A3012 RMK AO2 PK WND 28033/2130 SLP199 T01061100","updated":"2026-03-14T22:25:18Z"}
