{"icao":"LPPS","metar":"LPPS 101630Z 02015KT 350V050 9999 SCT015 16/08 Q1027","updated":"2026-03-10T17:00:46Z"}
