{"icao":"LPAZ","metar":"LPAZ 201230Z 33016KT 9999 FEW028 SCT035 BKN045 16/08 Q1030","updated":"2025-12-20T12:36:24Z"}
