{"icao":"LPFL","metar":"LPFL 071600Z 20007KT 150V240 9999 FEW026 24/17 Q1021","updated":"2025-10-07T16:21:51Z"}
