{"icao":"LPOV","metar":"LPOV 050900Z 35004KT 280V030 CAVOK 17/11 Q1018","updated":"2026-06-05T09:44:20Z"}
