{"icao":"LPHR","metar":"LPHR 250800Z 26008KT 9999 SCT006 SCT011 18/17 Q1027","updated":"2025-11-25T08:27:02Z"}
