{"icao":"LPBJ","metar":"LPBJ 312200Z 20004KT 9999 FEW030 11/10 Q1021","updated":"2026-01-31T22:21:13Z"}
