{"icao":"LPMA","metar":"LPMA 211100Z VRB01KT 9999 SCT016 18/11 Q1021","updated":"2026-01-21T11:22:57Z"}
