{"icao":"LPPR","metar":"LPPR 141000Z 28006KT 230V310 2000 DZRA BR BKN003 BKN008 12/11 Q1017","updated":"2026-03-14T10:26:40Z"}
