{"icao":"LPMT","metar":"LPMT 260900Z 03007KT CAVOK 17/15 Q1018","updated":"2025-10-26T09:16:05Z"}
