{"icao":"KORD","metar":"KORD 151851Z 22014G20KT 10SM SCT220 BKN250 M07/M14 A3008 RMK AO2 SLP199 T10671144","updated":"2025-12-15T19:18:40Z"}
