{"icao":"LPPT","metar":"LPPT 291900Z 33014KT CAVOK 21/12 Q1016","updated":"2025-09-29T19:14:00Z"}
