{"icao":"KORD","metar":"KORD 290251Z 03009KT 10SM BKN300 13/06 A3015 RMK AO2 SLP211 T01330061 53002","updated":"2026-05-29T03:28:54Z"}
