{"icao":"LPFL","metar":"LPFL 271000Z 20013G30KT 100V270 6000 -SHRA FEW011 BKN015 14/11 Q1004","updated":"2026-01-27T10:26:52Z"}
