{"icao":"LPPS","metar":"LPPS 292300Z 04020G32KT 9999 FEW014 16/12 Q1027","updated":"2026-03-29T23:31:12Z"}
