{"icao":"LPOV","metar":"LPOV 102200Z 18007KT 8000 SCT006 BKN014 15/15 Q1015","updated":"2026-02-10T22:37:41Z"}
