{"icao":"LPAZ","metar":"LPAZ 251230Z 23016KT 8000 FEW010 SCT015 BKN020 18/16 Q1020","updated":"2026-01-25T12:40:10Z"}
