{"icao":"KJFK","metar":"KJFK 140851Z 22007KT 10SM SCT180 BKN250 21/17 A2987 RMK AO2 SLP113 T02060172 56005 $","updated":"2026-06-14T09:31:27Z"}
