{"icao":"KORD","metar":"KORD 201351Z 20013KT 10SM FEW110 BKN150 OVC250 02/M06 A2970 RMK AO2 SLP064 T00221056","updated":"2025-12-20T14:17:07Z"}
