{"icao":"LPMT","metar":"LPMT 290400Z 26008KT 8000 BKN006 BKN015 16/16 Q1008","updated":"2026-01-29T04:08:22Z"}
