{"icao":"LPPD","metar":"LPPD 180400Z 22014KT 9999 SCT005 SCT012 BKN025 22/21 Q1013","updated":"2025-10-18T04:20:04Z"}
