{"icao":"KJFK","metar":"KJFK 181215Z 01004KT 10SM SCT013 SCT070 BKN085 BKN250 20/17 A3000 RMK AO2 T02000172 $","updated":"2025-09-18T12:35:38Z"}
