{"icao":"LPBJ","metar":"LPBJ 280400Z 30005KT 9999 FEW030 06/05 Q1023","updated":"2026-02-28T04:54:42Z"}
