{"icao":"LPMA","metar":"LPMA 212300Z 02010KT 9999 SCT015 22/15 Q1023","updated":"2025-09-21T23:15:10Z"}
