{"icao":"LPPD","metar":"LPPD 100700Z 22009KT 9999 -SHRA SCT018 BKN030 18/14 Q1021","updated":"2025-11-10T07:18:18Z"}
