{"icao":"LPAZ","metar":"LPAZ 152100Z 33009KT 9999 FEW034 15/09 Q1020","updated":"2025-11-15T21:14:42Z"}
