{"icao":"KJFK","metar":"KJFK 281051Z 26015G23KT 10SM FEW055 FEW160 01/M06 A2990 RMK AO2 SLP123 T00111056","updated":"2025-11-28T11:16:43Z"}
