{"icao":"LPLA","metar":"LPLA 111600Z 30025KT 9999 FEW024 FEW025TCU FEW026CB 16/07 Q1002","updated":"2025-11-11T16:23:54Z"}
