{"icao":"LPPD","metar":"LPPD 160830Z 20013KT 9999 FEW006 SCT014 BKN025 14/12 Q1028","updated":"2026-02-16T08:45:44Z"}
