{"icao":"KJFK","metar":"KJFK 251551Z 11013G21KT 6SM -RA SCT055 OVC085 07/04 A3009 RMK SLP187 P0002 T00720039 $ ","updated":"2026-04-25T16:39:30Z"}
