{"icao":"KLAX","metar":"KLAX 182353Z 26014KT 8SM FEW060 21/14 A2987 RMK AO2 SLP113 T02060144 10217 20200 56008","updated":"2026-05-19T00:04:58Z"}
