{"icao":"LPMT","metar":"LPMT 162000Z 33009KT 300V360 9999 SCT030 15/09 Q1018","updated":"2026-05-16T20:43:19Z"}
