{"icao":"LPCS","metar":"LPCS 101300Z 21004KT 170V260 9999 FEW018 SCT036 15/11 Q1029","updated":"2026-01-10T13:28:05Z"}
