{"icao":"LPFL","metar":"LPFL 111900Z 33015G26KT 300V010 9999 VCSH SCT027 FEW028TCU 15/08 Q1008","updated":"2025-11-11T19:14:58Z"}
