{"icao":"KORD","metar":"KORD 191351Z 09007KT 10SM OVC014 06/03 A3022 RMK AO2 SLP236 T00610028 $","updated":"2025-11-19T14:18:54Z"}
