{"icao":"KJFK","metar":"KJFK 201351Z 02007KT 10SM FEW040 BKN200 BKN250 04/M02 A3028 RMK AO2 SLP252 T00441017 $","updated":"2025-11-20T14:18:54Z"}
