{"icao":"KORD","metar":"KORD 222318Z 33014G24KT 9SM -SN BKN032 OVC060 M04/M11 A3033 RMK AO2 SNB17 P0000 T10441111 $","updated":"2026-02-22T23:25:09Z"}
