{"icao":"LPHR","metar":"LPHR 211500Z 26009KT 220V310 9999 FEW016 BKN030 16/10 Q1026","updated":"2025-12-21T15:18:07Z"}
