{"icao":"LPAZ","metar":"LPAZ 011500Z 06012KT 030V090 9999 FEW030 SCT042 20/10 Q1019","updated":"2025-11-01T15:15:05Z"}
