{"icao":"LPMT","metar":"LPMT 272200Z 01008KT 340V050 9999 SCT030 12/08 Q1026","updated":"2026-02-27T22:21:28Z"}
