{"icao":"LPBJ","metar":"LPBJ 120700Z 18003KT 2000 BCFG SCT003 BKN006 08/08 Q1023","updated":"2026-01-12T07:26:15Z"}
