{"icao":"LPOV","metar":"LPOV 010800Z 10001KT CAVOK 03/02 Q1021","updated":"2025-12-01T08:29:43Z"}
