{"icao":"KJFK","metar":"KJFK 252251Z 13010KT 8SM -RA SCT008 BKN065 OVC080 11/11 A3009 RMK AO2 SLP190 P0003 T01110106","updated":"2025-11-25T23:17:00Z"}
