{"icao":"LPCS","metar":"LPCS 080800Z 15009KT 9999 SCT003 BKN006 15/15 Q1020","updated":"2025-12-08T08:29:22Z"}
