{"icao":"LPHR","metar":"LPHR 171030Z 11008KT 050V150 9999 FEW008 SCT030 15/12 Q1018","updated":"2026-04-17T10:54:15Z"}
