{"icao":"LPAR","metar":"LPAR 221200Z 36006KT 320V060 CAVOK 29/15 Q1017","updated":"2026-06-22T12:48:38Z"}
