{"icao":"LPMT","metar":"LPMT 051900Z 24017G29KT 9999 SCT025 SCT030 15/11 Q1000","updated":"2026-02-05T19:35:49Z"}
