{"icao":"LPMA","metar":"LPMA 241800Z 02013KT 9999 FEW015 19/14 Q1024","updated":"2025-11-24T18:28:23Z"}
