{"icao":"LPHR","metar":"LPHR 281230Z 02012KT 310V070 9999 FEW014 SCT030 18/11 Q1022","updated":"2025-10-28T12:37:54Z"}
