{"icao":"LPLA","metar":"LPLA 191200Z 22027G39KT 9999 SCT015 19/14 Q1011","updated":"2026-05-19T12:08:41Z"}
