{"icao":"LPFR","metar":"LPFR 051600Z 34018KT CAVOK 12/M01 Q1010","updated":"2026-01-05T16:26:22Z"}
