{"icao":"LPAR","metar":"LPAR 251600Z VRB04KT CAVOK 30/03 Q1016","updated":"2025-09-25T22:14:10Z"}
