{"icao":"LPHR","metar":"LPHR 251300Z 08004KT 040V130 9999 BKN025 16/10 Q1030","updated":"2026-03-25T13:07:48Z"}
