{"icao":"LPMR","metar":"LPMR 270100Z 16003KT 5000 BR NSC 06/05 Q1025","updated":"2025-11-27T01:23:13Z"}
