{"icao":"KJFK","metar":"KJFK 121951Z 24018KT 10SM FEW070 BKN230 04/M06 A3013 RMK AO2 SLP204 T00441056 $","updated":"2026-01-12T20:24:15Z"}
