{"icao":"LPOV","metar":"LPOV 231900Z 32003KT 300V360 CAVOK 22/19 Q1012","updated":"2026-06-23T20:01:49Z"}
