{"icao":"KORD","metar":"KORD 120751Z 34005KT 10SM FEW250 M01/M07 A3027 RMK AO2 SLP257 T10111072 $","updated":"2026-02-12T08:44:30Z"}
