{"icao":"LPHR","metar":"LPHR 301000Z 27012KT 0600 -DZ FG VV002 22/22 Q1019","updated":"2025-09-30T10:18:27Z"}
