{"icao":"LPPS","metar":"LPPS 101930Z 34018KT 8000 SCT010 BKN030 16/14 Q1019","updated":"2026-04-10T19:42:34Z"}
