{"icao":"LPBJ","metar":"LPBJ 172200Z 26006KT CAVOK 19/14 Q1016","updated":"2025-10-17T22:15:55Z"}
