{"icao":"LPPD","metar":"LPPD 130900Z 26012KT 9999 FEW020 BKN040 16/12 Q1031","updated":"2025-12-13T09:18:08Z"}
