{"icao":"LPFR","metar":"LPFR 221330Z 09011KT CAVOK 20/05 Q1027","updated":"2026-02-22T13:42:04Z"}
