{"icao":"KJFK","metar":"KJFK 181922Z 24023G30KT 10SM SCT055 SCT075 BKN250 31/19 A2949 RMK AO2 PK WND 24030/1920 WSHFT 1902 T03110189","updated":"2026-06-18T19:27:15Z"}
