{"icao":"LPOV","metar":"LPOV 272100Z 36008KT CAVOK 11/04 Q1026","updated":"2026-02-27T21:27:56Z"}
