{"icao":"LPMT","metar":"LPMT 160000Z 05003KT 350V100 CAVOK 13/10 Q1023","updated":"2026-04-16T02:33:42Z"}
