{"icao":"LPMR","metar":"LPMR 161200Z 16004KT 130V200 8000 -SHRA FEW016 BKN020 FEW022CB BKN040 11/09 Q1013","updated":"2026-01-16T12:42:10Z"}
