{"icao":"KORD","metar":"KORD 140751Z 21004KT 10SM CLR 03/M03 A3004 RMK AO2 SLP177 T00281028 $","updated":"2026-02-14T08:30:46Z"}
