{"icao":"KLAX","metar":"KLAX 280853Z 09004KT 10SM FEW006 FEW009 SCT250 13/09 A3003 RMK AO2 SLP167 T01330094 58003 $","updated":"2025-11-28T09:20:04Z"}
