{"icao":"LPPR","metar":"LPPR 020130Z 19019KT 9000 -RA SCT008 BKN012 14/12 Q0993","updated":"2026-02-02T02:04:09Z"}
