{"icao":"LPCS","metar":"LPCS 041300Z 14010KT 9999 FEW016 19/16 Q1015","updated":"2025-11-04T13:32:32Z"}
