{"icao":"LPPS","metar":"LPPS 010330Z 03012KT 350V060 9999 SCT014 BKN030 20/16 Q1022","updated":"2026-07-01T03:41:04Z"}
