{"icao":"LPMR","metar":"LPMR 181000Z 17002KT CAVOK 13/10 Q1020","updated":"2025-11-18T10:21:38Z"}
