{"icao":"LPPD","metar":"LPPD 290400Z 14008KT 9999 FEW022 SCT035 21/16 Q1026","updated":"2025-09-29T04:21:57Z"}
