{"icao":"LPFL","metar":"LPFL 161830Z 16006KT 130V190 9999 FEW017 SCT040 16/12 Q1017","updated":"2026-02-16T18:40:53Z"}
