{"icao":"LPPD","metar":"LPPD 141230Z 01014KT 350V050 9999 SCT014 BKN025 17/12 Q1032","updated":"2026-03-14T12:49:31Z"}
