{"icao":"LPCS","metar":"LPCS 170800Z 02003KT CAVOK 18/10 Q1014","updated":"2025-10-17T08:24:26Z"}
