{"icao":"KORD","metar":"KORD 032051Z VRB04KT 10SM SCT250 28/03 A3024 RMK AO2 SLP236 T02780033 58022","updated":"2026-06-03T21:47:33Z"}
