{"icao":"KORD","metar":"KORD 051251Z 21007KT 10SM BKN045 BKN200 M10/M13 A3000 RMK AO2 SLP171 T11001133","updated":"2025-12-05T13:31:18Z"}
