{"icao":"LPMA","metar":"LPMA 221000Z 03017KT 8000 -SHRA BKN012 FEW018CB 16/15 Q1001 RESHRA","updated":"2026-03-22T10:26:13Z"}
