{"icao":"LPAZ","metar":"LPAZ 120500Z 30026G42KT 9999 VCSH SCT025 FEW030TCU 14/11 Q1002 RESHRA","updated":"2025-11-12T05:19:07Z"}
