{"icao":"KJFK","metar":"KJFK 241051Z 33009KT 10SM CLR 00/M06 A3035 RMK AO2 SLP278 T00001061","updated":"2026-03-24T11:44:03Z"}
