{"icao":"LPBJ","metar":"LPBJ 261017Z 25012KT 4500 -DZRA BKN007 BKN014 BKN025 15/14 Q1016","updated":"2026-01-26T10:25:20Z"}
