{"icao":"LPMR","metar":"LPMR 030700Z 18005KT CAVOK 07/07 Q1023","updated":"2025-11-03T07:18:11Z"}
