{"icao":"LPOV","metar":"LPOV 140800Z VRB01KT 5000 BR OVC005 19/18 Q1023","updated":"2025-09-14T08:19:56Z"}
