{"icao":"LPPR","metar":"LPPR 301500Z 32010KT CAVOK 24/17 Q1021","updated":"2026-06-30T15:25:15Z"}
