{"icao":"KJFK","metar":"KJFK 312051Z 27027G37KT 10SM BKN060 14/02 A2945 RMK AO2 PK WND 27043/2002 SLP973 T01390017 53021 $","updated":"2025-10-31T21:15:23Z"}
