{"icao":"KLAX","metar":"KLAX 150553Z 25006KT 10SM FEW010 16/13 A3000 RMK AO2 SLP157 T01610133 10194 20161 53009","updated":"2026-05-15T06:54:07Z"}
