{"icao":"LPFR","metar":"LPFR 271000Z 07008KT CAVOK 15/01 Q1023","updated":"2025-11-27T10:21:21Z"}
