{"icao":"LPMR","metar":"LPMR 031500Z 33010KT CAVOK 21/09 Q1022","updated":"2026-04-03T17:33:11Z"}
