{"icao":"KORD","metar":"KORD 021651Z 09009KT 10SM FEW250 03/M12 A3039 RMK AO2 SLP297 T00281117 $","updated":"2026-03-02T17:43:49Z"}
