{"icao":"LPFR","metar":"LPFR 011230Z 24012KT CAVOK 27/18 Q1016","updated":"2026-06-01T12:35:04Z"}
