{"icao":"LPBJ","metar":"LPBJ 301000Z VRB04KT 9999 FEW025 SCT035 17/10 Q1017","updated":"2026-04-30T10:54:02Z"}
