{"icao":"LPBJ","metar":"LPBJ 110600Z 07002KT 0300 FG FEW003 04/04 Q1027","updated":"2026-01-11T06:30:15Z"}
