{"icao":"LPAZ","metar":"LPAZ 221100Z 27023KT 9000 FEW010 SCT023 BKN032 17/16 Q1017","updated":"2026-01-22T11:21:54Z"}
