{"icao":"LPMA","metar":"LPMA 041900Z 02009KT 350V050 9999 FEW015 19/11 Q1018","updated":"2026-04-04T19:30:11Z"}
