{"icao":"KORD","metar":"KORD 310651Z 28005KT 10SM SCT190 BKN250 06/01 A2981 RMK AO2 SLP098 T00560011 $","updated":"2025-10-31T07:17:21Z"}
