{"icao":"LPCS","metar":"LPCS 241930Z 04007KT CAVOK 21/15 Q1019","updated":"2026-05-24T20:03:29Z"}
