{"icao":"LPBJ","metar":"LPBJ 252300Z 32002KT 290V060 CAVOK 16/15 Q1016","updated":"2026-04-25T23:36:39Z"}
