{"icao":"LPMT","metar":"LPMT 221700Z 01004KT CAVOK 12/04 Q1028","updated":"2025-11-22T17:14:39Z"}
