{"icao":"LPMA","metar":"LPMA 121300Z 22004KT 140V260 8000 SCT015 FEW016TCU 20/17 Q1005","updated":"2025-11-12T13:32:38Z"}
