{"icao":"LPLA","metar":"LPLA 081500Z 31042G56KT 5000 -RA BR SCT007 BKN012 FEW020CB 12/11 Q0993 RERA","updated":"2025-12-08T15:22:11Z"}
