{"icao":"KORD","metar":"KORD 250651Z 03008KT 10SM BKN009 09/06 A2987 RMK AO2 SLP115 T00890056","updated":"2026-04-25T07:13:43Z"}
