{"icao":"LPPR","metar":"LPPR 100400Z 09009KT CAVOK 20/09 Q1021","updated":"2025-10-10T04:20:54Z"}
