{"icao":"LPCS","metar":"LPCS 180830Z 22006KT 180V250 9999 FEW014 BKN030 13/11 Q1021","updated":"2026-02-18T08:42:18Z"}
