{"icao":"LPOV","metar":"LPOV 201600Z 13004KT 080V180 9999 FEW025 18/12 Q1008 RMK RH67 BKN090 BLU","updated":"2026-03-20T16:41:26Z"}
