{"icao":"LPBJ","metar":"LPBJ 240716Z 31005KT 7000 VCFG FEW003 SCT030 11/11 Q1017","updated":"2026-04-24T08:01:19Z"}
