{"icao":"LPMT","metar":"LPMT 152000Z 34008KT CAVOK 15/10 Q1023","updated":"2026-04-15T20:45:50Z"}
