{"icao":"KORD","metar":"KORD 100151Z 19011G18KT 10SM CLR 17/13 A2973 RMK AO2 SLP068 T01720128 $","updated":"2026-03-10T01:55:21Z"}
