{"icao":"LPAZ","metar":"LPAZ 220900Z 11004KT 070V140 9999 FEW024 21/15 Q1025","updated":"2025-09-22T09:21:25Z"}
