{"icao":"KJFK","metar":"KJFK 221951Z 06017G24KT 1 1/2SM -SN BR SCT000 BKN009 OVC023 01/M01 A2995 RMK AO2 SLP142 SN SCT000 P0001 T00061011 $","updated":"2026-02-22T20:26:13Z"}
