{"icao":"LPMA","metar":"LPMA 092100Z 33003KT 290V020 9999 SCT016 20/13 Q1023","updated":"2025-11-09T21:15:27Z"}
