{"icao":"KJFK","metar":"KJFK 101451Z 00000KT 10SM FEW080 BKN110 BKN250 M02/M12 A3018 RMK AO2 SLP218 T10221122 56001 $","updated":"2026-02-10T14:57:01Z"}
