{"icao":"KLAX","metar":"KLAX 212153Z 26012KT 10SM FEW017 FEW250 21/13 A2990 RMK AO2 SLP125 T02110133 $","updated":"2026-06-21T22:14:25Z"}
