{"icao":"LPFL","metar":"LPFL 301500Z 18014KT 150V210 9999 -RA FEW010 SCT018 16/14 Q1013","updated":"2026-01-30T15:33:01Z"}
