{"icao":"LPPR","metar":"LPPR 250500Z 26006KT 210V310 7000 SCT015 FEW018CB SCT022 13/11 Q1010","updated":"2026-01-25T05:27:21Z"}
