{"icao":"LPFL","metar":"LPFL 232000Z 17003KT 080V240 9999 SCT025 SCT034 13/08 Q1026","updated":"2026-01-23T20:24:56Z"}
