{"icao":"KORD","metar":"KORD 241051Z 32007KT 10SM FEW120 SCT250 M23/M31 A3071 RMK AO2 SLP422 T12331306","updated":"2026-01-24T11:17:13Z"}
