{"icao":"KORD","metar":"KORD 300451Z 00000KT 10SM CLR 21/16 A3018 RMK AO2 SLP215 T02060161","updated":"2025-09-30T05:18:06Z"}
