{"icao":"LPBJ","metar":"LPBJ 052300Z 24006KT CAVOK 12/10 Q1016","updated":"2025-11-05T23:17:19Z"}
