{"icao":"LPFL","metar":"LPFL 150600Z 31006G18KT 250V030 9999 FEW020 14/07 Q1027","updated":"2025-12-15T06:33:47Z"}
