{"icao":"LPPD","metar":"LPPD 181500Z 20011KT 9999 SCT014 BKN030 25/21 Q1016","updated":"2025-09-18T15:18:09Z"}
