{"icao":"LPFR","metar":"LPFR 290700Z 11011G21KT 080V140 2500 +TSRA FEW008 SCT012 SCT020CB 17/16 Q1004","updated":"2025-10-29T07:17:44Z"}
