{"icao":"KJFK","metar":"KJFK 221651Z 11009KT 10SM FEW018 BKN070 OVC140 22/18 A3000 RMK RAB03E21 SLP157 VCSH NE-E P0000 T02170183 ","updated":"2026-06-22T17:39:36Z"}
