{"icao":"LPPD","metar":"LPPD 122200Z 31007KT 280V350 9999 FEW020 SCT040 13/08 Q1020","updated":"2026-01-12T22:17:49Z"}
