{"icao":"KJFK","metar":"KJFK 171651Z 22010KT 10SM FEW050 FEW150 SCT250 27/16 A3007 RMK AO2 SLP182 T02670156 $","updated":"2026-05-17T17:03:10Z"}
