{"icao":"LPPT","metar":"LPPT 070700Z 31012KT CAVOK 10/07 Q1017","updated":"2026-03-07T07:27:24Z"}
