{"icao":"LPPT","metar":"LPPT 172000Z 31009KT CAVOK 25/08 Q1019","updated":"2025-09-17T20:18:47Z"}
