{"icao":"LPST","metar":"LPST 151700Z 22007KT 180V260 3000 -RADZ BR BKN008 BKN012 FEW015TCU 14/13 Q1013 RERA","updated":"2026-01-15T17:30:48Z"}
