{"icao":"LPMA","metar":"LPMA 100500Z 35008KT 300V010 9999 SCT015 15/10 Q1031","updated":"2026-01-10T05:19:57Z"}
