{"icao":"LPPS","metar":"LPPS 151600Z 18006KT 130V220 9999 FEW014 24/18 Q1015","updated":"2025-10-15T16:19:38Z"}
