{"icao":"LPFR","metar":"LPFR 181100Z 10015KT CAVOK 28/19 Q1020","updated":"2025-09-18T11:13:43Z"}
