{"icao":"LPMA","metar":"LPMA 091500Z 36016G26KT 310V050 9999 SCT013 FEW018CB 17/12 Q1019","updated":"2026-04-09T15:21:26Z"}
