{"icao":"LPAR","metar":"LPAR 121700Z 19003KT 130V240 9999 FEW025 20/10 Q1024","updated":"2026-03-12T21:31:09Z"}
