{"icao":"LPPT","metar":"LPPT 250400Z 36004KT CAVOK 16/03 Q1017","updated":"2025-09-25T04:20:39Z"}
