{"icao":"LPMR","metar":"LPMR 031000Z 03006KT 360V060 9999 FEW009 BKN011 17/14 Q1024","updated":"2025-10-03T10:17:48Z"}
