{"icao":"KORD","metar":"KORD 252151Z 05006KT 10SM FEW060 23/13 A2989 RMK AO2 SLP117 T02330128","updated":"2025-09-25T22:14:13Z"}
