{"icao":"LPMR","metar":"LPMR 040700Z 36008KT 9999 OVC009 16/15 Q1024","updated":"2025-10-04T07:14:33Z"}
