{"icao":"KORD","metar":"KORD 211951Z 28008KT 10SM OVC021 M02/M08 A3010 RMK AO2 SLP200 T10221078 $","updated":"2026-02-21T20:23:59Z"}
