{"icao":"LPLA","metar":"LPLA 061500Z 29023KT 9999 SCT018 22/16 Q1012","updated":"2025-11-06T15:20:19Z"}
