{"icao":"LPMA","metar":"LPMA 130830Z 02016G27KT 350V050 9999 FEW015 24/16 Q1022","updated":"2025-09-13T08:57:12Z"}
