{"icao":"LPPD","metar":"LPPD 281600Z 01014KT 330V030 9999 VCSH FEW018 17/11 Q1025","updated":"2025-11-28T16:23:24Z"}
