{"icao":"KORD","metar":"KORD 142151Z 32013G22KT 10SM -SN BKN030 BKN047 M07/M13 A2993 RMK AO2 PK WND 34032/2056 SNB25 SLP143 P0000 T10721128 $","updated":"2026-01-14T22:21:03Z"}
