{"icao":"LPMA","metar":"LPMA 130830Z 02013KT 350V050 9999 BKN015 16/10 Q1024","updated":"2026-03-13T08:38:07Z"}
