{"icao":"LPMA","metar":"LPMA 041230Z 20019KT 9999 FEW013 24/19 Q1014","updated":"2025-11-04T12:41:22Z"}
