{"icao":"LPMT","metar":"LPMT 131800Z 29006KT 260V320 9999 FEW025 SCT030 14/10 Q1012","updated":"2026-01-13T18:29:53Z"}
