{"icao":"LPLA","metar":"LPLA 271300Z 07005KT 340V110 9999 FEW025 SCT040 15/07 Q1036","updated":"2026-02-27T14:01:09Z"}
