{"icao":"KORD","metar":"KORD 171151Z 30005KT 10SM FEW220 01/M08 A3007 RMK AO2 SLP188 T00061078 10028 20000 53018 $","updated":"2025-11-17T12:38:56Z"}
