{"icao":"LPFR","metar":"LPFR 250600Z 31005KT 280V030 9999 FEW020 13/08 Q1020","updated":"2025-11-25T06:29:51Z"}
