{"icao":"LPPR","metar":"LPPR 301000Z 20015G27KT 8000 BKN015 BKN040 14/11 Q1007","updated":"2026-01-30T10:32:28Z"}
