{"icao":"KLAX","metar":"KLAX 181653Z 08004KT 10SM FEW190 SCT240 BKN280 17/01 A3012 RMK AO2 SLP198 T01720006 $","updated":"2026-01-18T17:17:12Z"}
