{"icao":"LPLA","metar":"LPLA 131000Z 23005KT 200V260 9999 FEW023 23/18 Q1025","updated":"2025-09-13T10:48:53Z"}
