{"icao":"KORD","metar":"KORD 061751Z 27009G17KT 10SM BKN070 BKN250 12/M04 A2993 RMK AO2 SLP135 T01221044 10128 20072 58004","updated":"2026-05-06T18:15:28Z"}
