{"icao":"KLAX","metar":"KLAX 022253Z 23011KT 10SM FEW050 FEW250 18/11 A2996 RMK AO2 SLP142 T01780111","updated":"2026-03-02T23:24:19Z"}
