{"icao":"LPPS","metar":"LPPS 130400Z 28020G34KT 8000 TSRA SCT014 FEW016CB SCT030 14/13 Q1000 RERA","updated":"2025-11-13T04:23:59Z"}
