{"icao":"KORD","metar":"KORD 160851Z 30011G24KT 1 1/4SM -SN BR OVC019 M03/M04 A2931 RMK AO2 PK WND 30027/0819 SLP926 P0001 60006 T10281044 50020 $","updated":"2026-03-16T08:55:23Z"}
