{"icao":"LPBJ","metar":"LPBJ 050800Z 32006KT 5000 BCFG OVC004 17/16 Q1020","updated":"2025-10-05T08:19:49Z"}
