{"icao":"KLAX","metar":"KLAX 282153Z 25006KT 10SM FEW160 SCT200 BKN300 20/02 A3017 RMK AO2 SLP214 T02000017","updated":"2026-01-28T22:26:05Z"}
