{"icao":"KLAX","metar":"KLAX 240253Z 17003KT 10SM CLR 17/15 A3011 RMK AO2 SLP196 T01670150 53010","updated":"2025-11-24T03:23:10Z"}
