{"icao":"KLAX","metar":"KLAX 041253Z 36006KT 10SM BKN250 13/M02 A3010 RMK AO2 SLP192 T01331017","updated":"2025-12-04T13:35:50Z"}
