{"icao":"LPST","metar":"LPST 121400Z 24009KT 210V270 9999 FEW015 SCT018 16/11 Q1019","updated":"2026-02-12T14:45:37Z"}
