{"icao":"KLAX","metar":"KLAX 040153Z 24004KT 10SM CLR 16/14 A3015 RMK AO2 SLP210 T01610139 $","updated":"2026-02-04T01:57:53Z"}
