{"icao":"KJFK","metar":"KJFK 191651Z 25014KT 10SM FEW090 M02/M08 A2997 RMK AO2 SLP149 T10171083 $","updated":"2026-01-19T17:22:37Z"}
