{"icao":"LPCS","metar":"LPCS 070700Z 18014KT 6000 RA SCT006 BKN017 12/12 Q1005","updated":"2026-02-07T07:30:28Z"}
