{"icao":"LPLA","metar":"LPLA 241600Z 36006KT 320V040 9999 FEW030 SCT040 20/12 Q1022","updated":"2025-09-24T16:22:58Z"}
