{"icao":"KJFK","metar":"KJFK 172051Z 29015G25KT 10SM SCT070 SCT250 04/M12 A2992 RMK AO2 PK WND 29031/2000 SLP130 T00441122 53015","updated":"2026-03-17T21:36:07Z"}
