{"icao":"LPHR","metar":"LPHR 021700Z 22006KT 190V250 9999 FEW002 SCT004 BKN010 23/22 Q1019","updated":"2025-10-02T17:13:00Z"}
