{"icao":"LPPR","metar":"LPPR 050700Z 01009KT CAVOK 03/00 Q1014","updated":"2026-01-05T07:27:17Z"}
