{"icao":"LPHR","metar":"LPHR 182300Z 07003KT 330V140 9999 FEW020 14/08 Q1032","updated":"2026-01-18T23:18:55Z"}
