{"icao":"LPPS","metar":"LPPS 261300Z 01014KT 9999 SCT015 19/12 Q1019","updated":"2026-04-26T13:04:34Z"}
