{"icao":"LPAZ","metar":"LPAZ 141900Z 33012KT 9999 FEW018 BKN038 16/12 Q1008","updated":"2025-11-14T19:14:35Z"}
