{"icao":"KLAX","metar":"KLAX 190253Z 00000KT 10SM FEW080 FEW250 14/08 A2997 RMK AO2 SLP149 T01390083 53019","updated":"2025-11-19T03:10:47Z"}
