{"icao":"LPLA","metar":"LPLA 040800Z 28003KT 240V300 9999 FEW025 BKN035 14/08 Q1022","updated":"2026-04-04T08:39:19Z"}
