{"icao":"LPPT","metar":"LPPT 300930Z 23013KT 190V290 7000 -RA FEW004 BKN006 14/14 Q1012","updated":"2026-01-30T09:36:56Z"}
