{"icao":"LPPR","metar":"LPPR 181530Z 31008KT CAVOK 21/12 Q1016","updated":"2026-04-18T15:36:03Z"}
