{"icao":"LPBJ","metar":"LPBJ 181400Z 33005KT 290V020 9999 SCT025 19/09 Q1018","updated":"2025-11-18T14:18:49Z"}
