{"icao":"LPPT","metar":"LPPT 190200Z 28002KT CAVOK 15/12 Q1015","updated":"2026-04-19T02:34:16Z"}
