{"icao":"LPAR","metar":"LPAR 301500Z 29017KT 260V320 9999 VCSH BKN018 BKN025 17/12 Q1011","updated":"2026-01-30T15:33:00Z"}
