{"icao":"KJFK","metar":"KJFK 210551Z 06005KT 10SM SCT250 14/12 A3031 RMK AO2 SLP263 T01440117 10183 20144 51003 $","updated":"2025-09-21T06:24:29Z"}
