{"icao":"KJFK","metar":"KJFK 130451Z 02026G38KT 3SM R04R/5500VP6000FT +RA BR FEW018 OVC044 14/13 A2991 RMK AO2 PK WND 02038/0443 SLP127 P0026 T01390133 401780133","updated":"2025-10-13T05:17:47Z"}
