{"icao":"LPPR","metar":"LPPR 181500Z 29007KT 260V330 9999 FEW025 12/06 Q1014","updated":"2026-01-18T15:17:59Z"}
