{"icao":"LPMT","metar":"LPMT 021000Z 33011KT 300V360 9999 BKN018 20/15 Q1022","updated":"2026-06-02T10:20:41Z"}
