{"icao":"KJFK","metar":"KJFK 070751Z 22007KT 10SM SCT250 18/17 A3020 RMK AO2 SLP225 T01830167 $","updated":"2025-10-07T08:23:50Z"}
