{"icao":"KORD","metar":"KORD 121251Z 15007KT 10SM FEW029 FEW250 11/08 A3005 RMK AO2 SLP175 T01110083 $","updated":"2025-10-12T13:20:56Z"}
