{"icao":"LPLA","metar":"LPLA 161911Z 30020KT 2000 RADZ BR BKN005 OVC013 13/13 Q1016","updated":"2026-03-16T19:15:34Z"}
