{"icao":"LPPR","metar":"LPPR 130700Z 17020KT 8000 RA SCT014 BKN025 12/11 Q1005","updated":"2026-01-13T07:23:52Z"}
