{"icao":"LPMR","metar":"LPMR 261900Z VRB01KT CAVOK 17/14 Q1019","updated":"2025-09-26T19:13:23Z"}
