{"icao":"KJFK","metar":"KJFK 191851Z 33015G23KT 10SM FEW014 BKN070 OVC080 07/03 A2991 RMK PK WND 30031/1821 RAE47 SLP128 P0002 T00670033 ","updated":"2026-04-19T19:40:22Z"}
