{"icao":"LPMR","metar":"LPMR 130200Z 15003KT CAVOK 15/11 Q1016","updated":"2025-10-13T03:08:22Z"}
