{"icao":"LPFL","metar":"LPFL 150800Z 20019G33KT 170V240 9999 SCT016 18/14 Q1022","updated":"2026-02-15T08:31:52Z"}
