{"icao":"LPMT","metar":"LPMT 051000Z 33006KT 300V360 9999 FEW018 BKN022 14/10 Q1017","updated":"2026-03-05T10:37:35Z"}
