{"icao":"LPPT","metar":"LPPT 091230Z 35008KT 290V020 9999 FEW020 21/15 Q1020","updated":"2025-10-09T12:37:16Z"}
