{"icao":"LPFR","metar":"LPFR 081700Z 34008KT CAVOK 21/09 Q1020","updated":"2025-11-08T17:14:08Z"}
