{"icao":"LPOV","metar":"LPOV 220700Z VRB02KT 0300 FG VV001 11/11 Q1011","updated":"2026-03-22T07:37:13Z"}
