{"icao":"LPMA","metar":"LPMA 221100Z 05008KT 020V080 9999 SCT016 18/11 Q1026","updated":"2026-02-22T11:20:21Z"}
