{"icao":"KORD","metar":"KORD 081751Z 07010KT 10SM FEW012 OVC028 08/02 A2986 RMK AO2 SLP113 60000 T00780017 10078 20061 58002 $","updated":"2025-11-08T18:23:35Z"}
