{"icao":"LPMA","metar":"LPMA 252230Z 36014KT 300V030 9999 FEW015 16/11 Q1019","updated":"2026-03-25T22:34:43Z"}
