{"icao":"LPFL","metar":"LPFL 221930Z VRB02KT 9999 FEW004 SCT012 BKN035 21/20 Q1027","updated":"2026-06-22T22:45:57Z"}
