{"icao":"LPPT","metar":"LPPT 141900Z 31014KT CAVOK 22/16 Q1021","updated":"2025-09-14T19:11:43Z"}
