{"icao":"KORD","metar":"KORD 012151Z 30004KT 10SM BKN060 M08/M16 A2994 RMK AO2 SLP153 T10831161 $","updated":"2026-01-01T22:19:03Z"}
