{"icao":"LPMT","metar":"LPMT 050900Z 02007KT 350V060 9999 FEW020 18/12 Q1021","updated":"2025-10-05T09:15:13Z"}
