{"icao":"LPPD","metar":"LPPD 202000Z 03008KT 360V070 9999 FEW025 BKN040 17/10 Q1030","updated":"2025-11-20T20:21:11Z"}
