{"icao":"LPAZ","metar":"LPAZ 251900Z 31009KT 9999 FEW022 15/11 Q1028","updated":"2026-02-25T19:06:12Z"}
