{"icao":"LPPS","metar":"LPPS 131430Z 03010KT 350V060 9999 FEW015 SCT030 17/09 Q1026","updated":"2026-04-13T14:47:10Z"}
