{"icao":"LPFR","metar":"LPFR 070800Z 22021KT 6000 -RA SCT012 BKN045 14/12 Q1012","updated":"2026-02-07T08:30:02Z"}
