{"icao":"KJFK","metar":"KJFK 251651Z 25013KT 10SM SCT090 SCT210 BKN250 06/M02 A2989 RMK AO2 SLP120 T00611017 $","updated":"2025-12-25T17:17:16Z"}
