{"icao":"LPMA","metar":"LPMA 020900Z 32003KT 270V010 9999 SCT015 15/10 Q0999","updated":"2026-01-02T09:23:48Z"}
