{"icao":"LPPR","metar":"LPPR 252200Z 18013KT 9999 BKN007 20/19 Q1017","updated":"2026-06-25T22:19:47Z"}
