{"icao":"LPMT","metar":"LPMT 250800Z 21006KT 190V250 2000 -RADZ BR FEW004 SCT006 BKN020 20/20 Q1014","updated":"2025-10-25T08:20:16Z"}
