{"icao":"LPMT","metar":"LPMT 040800Z 12004KT 9999 FEW020 14/12 Q1018","updated":"2025-11-04T08:26:21Z"}
