{"icao":"LPBJ","metar":"LPBJ 011500Z 22012KT 3500 -DZRA BR BKN006 BKN012 15/15 Q1012","updated":"2026-02-01T15:23:35Z"}
