{"icao":"KLAX","metar":"KLAX 110853Z VRB04KT 10SM CLR 13/M03 A3026 RMK AO2 SLP244 T01331033 57010 $","updated":"2026-01-11T09:19:56Z"}
