{"icao":"LPFR","metar":"LPFR 220700Z 29007KT 9999 FEW020 13/09 Q1011","updated":"2026-01-22T07:26:06Z"}
