{"icao":"LPPT","metar":"LPPT 261600Z 22017KT 9999 BKN007 15/15 Q1010","updated":"2026-01-26T16:32:46Z"}
