{"icao":"LPMT","metar":"LPMT 080500Z 34009KT 9999 FEW020 16/12 Q1022","updated":"2026-06-08T05:48:29Z"}
