{"icao":"KJFK","metar":"KJFK 271851Z 01010KT 10SM SCT036 BKN050 M02/M06 A3012 RMK AO2 SNE32 SLP198 P0000 T10171056 $","updated":"2025-12-27T19:14:37Z"}
