{"icao":"KJFK","metar":"KJFK 182151Z 11007KT 10SM FEW022 FEW100 BKN250 07/06 A3020 RMK AO2 SLP226 T00720056","updated":"2025-12-18T22:19:05Z"}
