{"icao":"LPHR","metar":"LPHR 251700Z 06014KT 030V090 8000 VCSH FEW008 SCT012 17/13 Q1023","updated":"2025-12-25T17:17:12Z"}
