{"icao":"KJFK","metar":"KJFK 101251Z 08004KT 10SM BKN100 OVC250 M04/M12 A3017 RMK AO2 SLP216 T10391117 $","updated":"2026-02-10T13:11:21Z"}
