{"icao":"LPCS","metar":"LPCS 211000Z 26009KT 230V290 9999 -DZRA BKN002 BKN013 21/21 Q1015","updated":"2025-10-21T10:19:11Z"}
