{"icao":"LPAZ","metar":"LPAZ 022130Z 07007KT 040V100 9999 BKN020 14/10 Q1029","updated":"2026-04-02T21:36:18Z"}
