{"icao":"KORD","metar":"KORD 061751Z 23009G16KT 10SM BKN065 BKN085 BKN250 27/16 A3007 RMK AO2 SLP177 T02720161 10272 20194 58008 $","updated":"2025-10-06T18:26:06Z"}
