{"icao":"LPPR","metar":"LPPR 140500Z 16014KT 9999 -SHRA FEW018CB BKN035 14/12 Q0999","updated":"2025-11-14T05:18:21Z"}
