{"icao":"LPPT","metar":"LPPT 271830Z 33013KT CAVOK 17/08 Q1016","updated":"2026-03-27T18:54:09Z"}
