{"icao":"LPMR","metar":"LPMR 212300Z 02006KT CAVOK 15/10 Q1022","updated":"2025-09-21T23:14:55Z"}
