{"icao":"KORD","metar":"KORD 091709Z 32013G21KT 9SM -SN FEW017 BKN021 OVC035 00/M03 A3007 RMK AO2 SNB00 P0000 T00001033 $","updated":"2025-11-09T17:14:44Z"}
