{"icao":"KLAX","metar":"KLAX 180253Z 28007KT 6SM RA BR BKN055 OVC070 13/12 A2986 RMK AO2 SLP111 P0014 60050 T01330122 51009 $","updated":"2025-11-18T03:11:30Z"}
