{"icao":"LPPT","metar":"LPPT 211700Z 36012KT CAVOK 13/04 Q1027","updated":"2025-11-21T17:16:09Z"}
