{"icao":"LPMR","metar":"LPMR 211100Z 27014KT 250V310 1000 DZRA BR BKN007 OVC020 14/14 Q1006","updated":"2026-01-21T11:22:40Z"}
