{"icao":"LPBJ","metar":"LPBJ 282100Z 03010KT CAVOK 16/04 Q1023","updated":"2026-03-28T21:28:18Z"}
