{"icao":"LPMR","metar":"LPMR 010900Z 16003KT CAVOK 05/03 Q1022","updated":"2025-12-01T09:26:50Z"}
