{"icao":"LPLA","metar":"LPLA 200111Z 19017G30KT 6000 -RADZ FEW007 BKN018 17/15 Q1021","updated":"2026-02-20T01:59:49Z"}
