{"icao":"LPCS","metar":"LPCS 202100Z 08008KT 040V120 CAVOK 23/09 Q1007","updated":"2026-04-20T21:44:29Z"}
