{"icao":"LPFR","metar":"LPFR 170830Z 28002KT 9999 FEW020 11/10 Q1029","updated":"2026-02-17T08:42:34Z"}
