{"icao":"LPFR","metar":"LPFR 240600Z 29005KT CAVOK 07/06 Q1008","updated":"2025-12-24T06:32:00Z"}
