{"icao":"LPLA","metar":"LPLA 301200Z 16005KT 140V200 9999 -RA FEW016 16/12 Q1020","updated":"2026-01-30T12:53:05Z"}
