{"icao":"KLAX","metar":"KLAX 110753Z VRB05KT 10SM CLR 15/M03 A3027 RMK AO2 SLP247 T01501033 402110056 $","updated":"2026-01-11T08:25:45Z"}
