{"icao":"LPPT","metar":"LPPT 011900Z 26007KT 9999 FEW025 14/07 Q1018","updated":"2026-03-01T19:21:04Z"}
