{"icao":"LPPR","metar":"LPPR 260500Z 09004KT CAVOK 07/06 Q1026","updated":"2025-11-26T05:18:12Z"}
