{"icao":"LPFL","metar":"LPFL 281130Z 19022G42KT 150V230 7000 -RADZ SCT009 BKN012 FEW013TCU 17/16 Q1008 RERA","updated":"2026-05-28T11:37:38Z"}
