{"icao":"LPAR","metar":"LPAR 091900Z 31004KT 280V350 9999 SCT030 10/05 Q1022","updated":"2026-03-09T23:26:46Z"}
