{"icao":"KORD","metar":"KORD 201551Z 05014KT 10SM BKN035 BKN210 BKN250 14/05 A3025 RMK AO2 SLP244 T01390050","updated":"2026-05-20T16:24:15Z"}
