{"icao":"LPMT","metar":"LPMT 161400Z 34011KT 310V020 9999 FEW025 22/07 Q1017","updated":"2026-05-16T14:54:59Z"}
