{"icao":"LPPS","metar":"LPPS 080500Z 05006KT 360V100 9999 SCT014 21/18 Q1025","updated":"2025-10-08T05:17:23Z"}
