{"icao":"LPPD","metar":"LPPD 270730Z 36007KT 9999 FEW018 13/08 Q1034","updated":"2026-02-27T07:44:41Z"}
