{"icao":"LPAZ","metar":"LPAZ 100600Z 36014KT 9000 -SHRA FEW011 SCT018 BKN040 14/11 Q1017","updated":"2026-05-10T06:11:01Z"}
