{"icao":"LPMR","metar":"LPMR 211700Z 30010KT 270V330 8000 SCT007 BKN030 12/10 Q1004","updated":"2026-01-21T17:53:04Z"}
