{"icao":"KORD","metar":"KORD 112051Z 26005KT 10SM SCT028 BKN170 OVC250 M03/M10 A2998 RMK AO2 SLP161 T10331100 55006","updated":"2025-12-11T21:20:43Z"}
