{"icao":"LPMR","metar":"LPMR 170700Z 16003KT 2000 BR BKN004 11/10 Q1014","updated":"2025-10-17T07:17:40Z"}
