{"icao":"KJFK","metar":"KJFK 241651Z 08007KT 3SM -RA BR BKN008 OVC013 14/13 A3032 RMK AO2 SLP266 P0009 T01390128 $","updated":"2026-05-24T16:59:11Z"}
