{"icao":"LPPD","metar":"LPPD 071900Z 18004KT 050V210 9999 FEW025 17/14 Q1009","updated":"2025-12-07T19:14:06Z"}
