{"icao":"LPPR","metar":"LPPR 071800Z 24006KT 200V320 3000 0900N RADZ BCFG SCT005 BKN012 FEW015CB 12/11 Q0991","updated":"2026-02-07T18:33:53Z"}
