{"icao":"LPMT","metar":"LPMT 280400Z 24028G42KT 6000 -RA FEW008 SCT012 BKN024 13/12 Q0991","updated":"2026-01-28T04:42:33Z"}
