{"icao":"KLAX","metar":"KLAX 041653Z VRB04KT 10SM FEW190 FEW280 17/M02 A3019 RMK AO2 SLP222 T01721022 $","updated":"2025-12-04T17:21:44Z"}
