{"icao":"LPAZ","metar":"LPAZ 031930Z 05012KT 020V080 9999 FEW021 SCT024 16/10 Q1021","updated":"2026-05-03T19:55:41Z"}
