{"icao":"KJFK","metar":"KJFK 041351Z 32013KT 10SM FEW037 SCT060 M01/M08 A3022 RMK SLP232 T10061083 PNO $ ","updated":"2026-02-04T14:04:10Z"}
