{"icao":"KJFK","metar":"KJFK 072151Z 26013KT 10SM BKN042 BKN150 BKN250 05/M04 A3005 RMK AO2 SLP176 T00501044 $","updated":"2025-12-07T22:17:01Z"}
