{"icao":"LPCS","metar":"LPCS 072000Z 21010KT 9999 FEW015 SCT030 12/07 Q1014","updated":"2026-04-07T23:35:25Z"}
