{"icao":"LPMA","metar":"LPMA 221700Z 05004KT 010V110 9999 FEW013 24/19 Q1020","updated":"2025-10-22T17:17:17Z"}
