{"icao":"LPMA","metar":"LPMA 260630Z 36017G29KT 310V030 9999 -SHRA BKN015 FEW018TCU 14/09 Q1022","updated":"2026-02-26T07:02:36Z"}
