{"icao":"LPPT","metar":"LPPT 121900Z 31005KT CAVOK 23/13 Q1016","updated":"2025-10-12T19:12:42Z"}
