{"icao":"LPHR","metar":"LPHR 231200Z 15004KT 110V180 9999 FEW015 22/18 Q1025","updated":"2026-06-23T12:05:10Z"}
