{"icao":"LPHR","metar":"LPHR 040630Z 26024G35KT 9000 SCT016 BKN050 17/14 Q0996","updated":"2026-02-04T06:51:04Z"}
