{"icao":"KORD","metar":"KORD 222251Z 28009G20KT 10SM OVC037 09/02 A2991 RMK AO2 SLP131 T00940017","updated":"2025-10-22T23:15:07Z"}
