{"icao":"KLAX","metar":"KLAX 010053Z 26008KT 10SM CLR 18/15 A2995 RMK AO2 SLP142 T01780150 $","updated":"2025-11-01T01:26:40Z"}
