{"icao":"LPOV","metar":"LPOV 312100Z 00000KT CAVOK 13/12 Q1024","updated":"2026-03-31T23:33:13Z"}
