{"icao":"KORD","metar":"KORD 090851Z 22014G22KT 10SM FEW075 BKN100 OVC120 16/06 A3001 RMK AO2 RAB40E49 SLP158 P0000 60000 T01560061 53005 $","updated":"2026-04-09T09:06:11Z"}
