{"icao":"LPPD","metar":"LPPD 050000Z 26015KT 9999 FEW003 BKN007 18/17 Q1027","updated":"2026-06-05T00:05:31Z"}
