{"icao":"KORD","metar":"KORD 220051Z 22003KT 10SM FEW100 SCT250 M02/M11 A3042 RMK AO2 SLP312 T10221111","updated":"2025-12-22T01:43:01Z"}
