{"icao":"LPHR","metar":"LPHR 231930Z 13004KT 090V180 9999 FEW016 SCT030 16/10 Q1025","updated":"2026-03-23T19:47:43Z"}
