{"icao":"LPPD","metar":"LPPD 141800Z 23014KT 9999 FEW009 BKN038 17/14 Q1023","updated":"2026-01-14T18:31:52Z"}
