{"icao":"KORD","metar":"KORD 040951Z 23006KT 10SM CLR 20/15 A3011 RMK AO2 SLP190 T02000150 $","updated":"2025-10-04T10:16:04Z"}
