{"icao":"KJFK","metar":"KJFK 152151Z 28013G24KT 10SM FEW055 FEW250 00/M12 A2951 RMK AO2 PK WND 26029/2129 SLP991 T00001117 $","updated":"2026-01-15T22:20:27Z"}
