{"icao":"KJFK","metar":"KJFK 011151Z 35016KT 10SM BKN065 BKN080 BKN150 BKN250 02/M05 A3009 RMK AO2 SLP189 4/005 T00221050 10022 20011 53019 $","updated":"2026-03-01T12:45:58Z"}
