{"icao":"KJFK","metar":"KJFK 031351Z 00000KT 1 1/2SM BR OVC003 07/07 A3032 RMK AO2 SFC VIS 3 SLP267 T00720072","updated":"2026-04-03T14:40:42Z"}
