{"icao":"LPLA","metar":"LPLA 061600Z 21026G50KT 160V240 5000 -RA FEW005 BKN014 BKN020 20/17 Q1006 RERA","updated":"2025-12-06T16:21:17Z"}
