{"icao":"LPAZ","metar":"LPAZ 231230Z 19021G31KT 9999 FEW014 SCT038 19/15 Q1016","updated":"2026-02-23T13:01:32Z"}
