{"icao":"LPPR","metar":"LPPR 151700Z 21009KT 4000 RA BR SCT007 BKN010 12/11 Q1003 RERA","updated":"2025-12-15T17:23:27Z"}
