{"icao":"KJFK","metar":"KJFK 011851Z 30014G28KT 10SM FEW065 M03/M17 A2978 RMK AO2 PK WND 31037/1831 SLP083 T10281167 $","updated":"2026-01-01T19:16:43Z"}
