{"icao":"LPAZ","metar":"LPAZ 032000Z 24022KT 8000 FEW003 SCT012 17/16 Q1005","updated":"2026-02-03T20:34:28Z"}
