{"icao":"LPFR","metar":"LPFR 251330Z 10012KT CAVOK 27/12 Q1021","updated":"2026-05-25T13:57:57Z"}
