{"icao":"KORD","metar":"KORD 121051Z 35004KT 10SM SCT250 M03/M08 A3026 RMK AO2 SLP255 T10331078 $","updated":"2026-02-12T11:38:37Z"}
