{"icao":"LPMR","metar":"LPMR 011300Z 20007KT CAVOK 16/04 Q1020","updated":"2025-12-01T13:34:14Z"}
