{"icao":"LPPS","metar":"LPPS 182200Z 08011KT 040V110 9999 SCT012 16/14 Q1015","updated":"2026-04-18T22:33:45Z"}
