{"icao":"LPMA","metar":"LPMA 221830Z 02015KT 350V080 9999 FEW013 21/15 Q1021","updated":"2026-05-22T18:52:50Z"}
