{"icao":"KJFK","metar":"KJFK 091451Z 17012KT 10SM FEW060 FEW150 SCT200 BKN250 08/06 A3029 RMK AO2 SLP258 T00830056 58006 $","updated":"2026-01-09T15:22:50Z"}
