{"icao":"KORD","metar":"KORD 080451Z 00000KT 10SM CLR 08/06 A2986 RMK AO2 SLP111 T00830056","updated":"2026-05-08T05:29:10Z"}
