{"icao":"KJFK","metar":"KJFK 211751Z 18014KT 10SM FEW250 18/07 A2989 RMK AO2 SLP119 T01830067 10183 20111 58023","updated":"2025-10-21T18:25:55Z"}
