{"icao":"LPFL","metar":"LPFL 161000Z 17012KT 7000 RA SCT006 SCT011 FEW013TCU 19/18 Q1019","updated":"2025-11-16T10:17:35Z"}
