{"icao":"LPHR","metar":"LPHR 172300Z 23009KT 8000 -DZ SCT002 BKN004 22/22 Q1011","updated":"2025-10-18T05:15:58Z"}
