{"icao":"LPMT","metar":"LPMT 101600Z 31005KT 280V340 9999 FEW030 28/13 Q1018","updated":"2025-10-10T16:21:20Z"}
