{"icao":"LPPT","metar":"LPPT 221000Z 05008KT CAVOK 13/08 Q1029","updated":"2026-02-22T10:23:13Z"}
