{"icao":"KORD","metar":"KORD 151651Z 26013G24KT 10SM FEW019 BKN140 BKN250 17/13 A2950 RMK AO2 PK WND 25026/1618 SLP988 T01720128 $","updated":"2025-11-15T17:13:48Z"}
