{"icao":"KLAX","metar":"KLAX 031553Z 05006KT 6SM HZ FEW022 FEW035 BKN140 13/09 A3002 RMK AO2 SLP164 T01330094 $","updated":"2025-12-03T16:27:51Z"}
