{"icao":"LPMA","metar":"LPMA 101230Z 04007KT 010V070 9999 SCT014 18/12 Q1031","updated":"2026-01-10T12:37:55Z"}
