{"icao":"LPPR","metar":"LPPR 131600Z 32010KT 280V350 9999 FEW019 17/11 Q1019","updated":"2026-05-13T16:17:34Z"}
