{"icao":"LPOV","metar":"LPOV 211100Z VRB03KT CAVOK 14/10 Q1031","updated":"2026-02-21T11:20:39Z"}
