{"icao":"LPPR","metar":"LPPR 200400Z 17004KT 0200 R17/0650N FG VV002 17/17 Q1019","updated":"2025-09-20T04:19:43Z"}
