{"icao":"KJFK","metar":"KJFK 280551Z 26014KT 10SM FEW170 02/M06 A2990 RMK AO2 SLP125 T00221061 10050 20017 58007","updated":"2025-11-28T06:29:48Z"}
