{"icao":"LPPT","metar":"LPPT 092330Z 24012KT 4500 -DZ BR SCT002 BKN004 15/15 Q1016","updated":"2026-02-09T23:34:59Z"}
