{"icao":"LPPD","metar":"LPPD 180830Z 21012KT 4000 -RA BR SCT003 BKN005 20/20 Q1015","updated":"2026-06-18T08:45:07Z"}
