{"icao":"LPFL","metar":"LPFL 161700Z 33004KT 220V360 9999 FEW028 21/12 Q1007","updated":"2025-10-16T17:16:04Z"}
