{"icao":"LPAZ","metar":"LPAZ 281700Z 24023KT 7000 FEW012 18/16 Q1009","updated":"2026-01-28T17:30:43Z"}
