{"icao":"KJFK","metar":"KJFK 190751Z 29009KT 10SM SCT016 BKN060 M01/M03 A2984 RMK AO2 SLP105 T10061033 $","updated":"2026-01-19T08:31:46Z"}
