{"icao":"LPHR","metar":"LPHR 080700Z 32007KT 290V350 9999 FEW020 BKN035 15/09 Q1035","updated":"2026-04-08T07:17:53Z"}
