{"icao":"LPOV","metar":"LPOV 051000Z 20014KT 9000 FEW015 FEW018CB 12/11 Q0989 RETSRA","updated":"2026-02-05T10:38:47Z"}
