{"icao":"LPAR","metar":"LPAR 111100Z 09007KT 050V110 CAVOK 14/10 Q1027","updated":"2026-03-11T12:57:33Z"}
