{"icao":"KLAX","metar":"KLAX 171653Z 00000KT 10SM CLR 21/08 A2995 RMK AO2 SLP140 T02060078 $","updated":"2025-10-17T17:15:25Z"}
