{"icao":"LPPT","metar":"LPPT 261730Z 34008KT CAVOK 20/15 Q1023","updated":"2026-02-26T17:56:27Z"}
