{"icao":"LPAR","metar":"LPAR 131300Z 20022KT 9999 FEW015 SCT020 19/17 Q0997","updated":"2025-11-13T13:31:39Z"}
