{"icao":"LPPR","metar":"LPPR 010800Z 11010KT CAVOK 07/03 Q1020","updated":"2025-12-01T08:29:42Z"}
