{"icao":"LPHR","metar":"LPHR 041000Z 00000KT 9999 FEW004 23/21 Q1026","updated":"2025-10-04T10:16:01Z"}
