{"icao":"LPHR","metar":"LPHR 251900Z 24022KT 4000 -RA BR SCT005 BKN008 17/16 Q1008 RERA","updated":"2026-01-25T19:16:03Z"}
