{"icao":"LPPT","metar":"LPPT 211500Z 32011KT 290V350 9999 VCSH FEW025 FEW030CB SCT035 10/04 Q1009","updated":"2025-12-21T15:18:02Z"}
