{"icao":"KORD","metar":"KORD 111451Z 21014G24KT 10SM FEW065 OVC100 00/M08 A2996 RMK AO2 SLP153 60000 T00001078 58023","updated":"2025-11-11T15:19:38Z"}
