{"icao":"LPOV","metar":"LPOV 111700Z 34018KT CAVOK 27/13 Q1018","updated":"2026-06-11T18:10:17Z"}
