{"icao":"LPHR","metar":"LPHR 151500Z 10010KT 9999 FEW016 BKN030 18/12 Q1028","updated":"2026-03-15T15:28:05Z"}
