{"icao":"KJFK","metar":"KJFK 231451Z 25013KT 10SM FEW055 SCT120 14/04 A2994 RMK AO2 SLP139 T01390044 51010","updated":"2025-10-23T15:19:23Z"}
