{"icao":"KJFK","metar":"KJFK 210804Z 35006KT 10SM SCT014 BKN023 03/01 A2979 RMK AO2 T00280011 $","updated":"2026-02-21T08:29:38Z"}
