{"icao":"LPAZ","metar":"LPAZ 031530Z 28011KT 9999 FEW021 16/09 Q1028","updated":"2026-03-03T15:46:50Z"}
