{"icao":"KLAX","metar":"KLAX 280053Z 25010KT 10SM FEW150 SCT200 SCT250 17/07 A3020 RMK AO2 SLP227 T01720067 $","updated":"2026-01-28T01:44:02Z"}
