{"icao":"LPBJ","metar":"LPBJ 262200Z 36004KT CAVOK 16/09 Q1024","updated":"2026-02-26T22:32:04Z"}
