{"icao":"LPMR","metar":"LPMR 262200Z 19002KT CAVOK 13/11 Q1020","updated":"2025-10-26T22:16:22Z"}
