{"icao":"LPPD","metar":"LPPD 031100Z 25025KT 6000 FEW004 BKN008 17/16 Q1007","updated":"2026-02-03T11:33:19Z"}
