{"icao":"LPPS","metar":"LPPS 081900Z 03007KT 350V060 9999 FEW015 SCT030 22/16 Q1026","updated":"2025-10-08T19:14:09Z"}
