{"icao":"KLAX","metar":"KLAX 081053Z 00000KT 10SM CLR 13/10 A3013 RMK AO2 SLP201 T01280100 $","updated":"2025-12-08T11:17:57Z"}
