{"icao":"LPOV","metar":"LPOV 261500Z 35012KT CAVOK 15/14 Q1025","updated":"2025-11-26T15:17:54Z"}
