{"icao":"LPPD","metar":"LPPD 180800Z 25015KT 6000 FEW002 BKN006 BKN025 22/22 Q1014","updated":"2025-10-18T08:21:02Z"}
