{"icao":"LPOV","metar":"LPOV 031700Z 35008KT 3000 BR SCT001 BKN006 17/16 Q1023","updated":"2025-10-03T17:14:24Z"}
