{"icao":"KJFK","metar":"KJFK 212051Z 18009KT 10SM FEW045 SCT220 BKN250 13/04 A2991 RMK AO2 SLP129 T01280039 53001","updated":"2026-03-21T21:24:06Z"}
