{"icao":"KORD","metar":"KORD 222251Z 20012G22KT 10SM SCT090 BKN240 08/02 A2996 RMK AO2 SLP148 T00830022","updated":"2025-11-22T23:17:16Z"}
