{"icao":"LPAZ","metar":"LPAZ 022000Z 15006KT 9999 FEW008 22/21 Q1022","updated":"2025-10-02T20:18:56Z"}
