{"icao":"LPAR","metar":"LPAR 091100Z 05010KT 030V090 CAVOK 18/10 Q1017","updated":"2026-04-09T11:56:44Z"}
