{"icao":"LPAZ","metar":"LPAZ 131030Z 28004KT 4000 -DZ BR BKN004 BKN010 15/14 Q1031","updated":"2026-03-13T10:35:14Z"}
