{"icao":"LPPR","metar":"LPPR 221300Z 10005KT 060V150 CAVOK 30/13 Q1020","updated":"2026-05-22T13:30:21Z"}
