{"icao":"LPMT","metar":"LPMT 252100Z 22006KT 190V290 7000 0500N BCFG SCT005 SCT015 13/13 Q1014","updated":"2026-01-25T21:18:10Z"}
