{"icao":"LPLA","metar":"LPLA 180121Z 31015KT 5000 -RADZ FEW003 SCT005 BKN012 17/16 Q1025","updated":"2025-11-18T01:24:09Z"}
