{"icao":"LPOV","metar":"LPOV 041300Z 31012KT 280V340 9999 FEW020 SCT030 17/11 Q1017","updated":"2026-05-04T13:56:54Z"}
