{"icao":"LPMT","metar":"LPMT 100700Z 10005KT CAVOK 14/13 Q1012","updated":"2026-04-10T07:25:52Z"}
