{"icao":"LPPS","metar":"LPPS 161000Z 14006KT 110V190 9999 FEW014 23/19 Q1015","updated":"2025-10-16T10:20:26Z"}
