{"icao":"KLAX","metar":"KLAX 051253Z 03011G17KT 10SM FEW220 18/M02 A3001 RMK AO2 SLP158 T01781017 $","updated":"2026-02-05T13:00:03Z"}
