{"icao":"LPPS","metar":"LPPS 012300Z 26020G37KT 9000 -RADZ SCT012 FEW018CB BKN030 17/15 Q1013 RERA","updated":"2026-02-01T23:23:24Z"}
