{"icao":"LPFR","metar":"LPFR 140500Z 04002KT CAVOK 19/15 Q1015","updated":"2025-10-14T05:16:47Z"}
