{"icao":"LPPD","metar":"LPPD 031500Z 25006KT 210V280 9999 SCT016 SCT035 24/21 Q1023","updated":"2025-10-03T15:17:04Z"}
