{"icao":"LPCS","metar":"LPCS 131900Z 31007KT 280V340 9999 FEW004 SCT011 BKN015 13/11 Q1021","updated":"2026-03-13T19:29:56Z"}
