{"icao":"KJFK","metar":"KJFK 220151Z 19011KT 10SM BKN085 BKN110 BKN250 07/M01 A3028 RMK SLP255 T00721006 ","updated":"2026-04-22T02:29:03Z"}
