{"icao":"KLAX","metar":"KLAX 190953Z 32003KT 10SM FEW015 FEW040 SCT150 BKN200 11/03 A3002 RMK AO2 SLP165 T01060028","updated":"2026-02-19T10:41:22Z"}
