{"icao":"LPMT","metar":"LPMT 301500Z 34008KT CAVOK 28/14 Q1020","updated":"2026-05-30T15:04:43Z"}
