{"icao":"KLAX","metar":"KLAX 220853Z 00000KT 10SM BKN250 12/06 A3020 RMK AO2 SLP226 T01220056 55000 $","updated":"2026-02-22T09:29:06Z"}
