{"icao":"LPPT","metar":"LPPT 071800Z 36008KT 9999 FEW035 11/05 Q1028","updated":"2026-01-07T18:31:11Z"}
