{"icao":"KORD","metar":"KORD 120951Z 24005KT 10SM FEW080 M01/M06 A3013 RMK AO2 SLP211 T10111056","updated":"2026-03-12T10:37:14Z"}
