{"icao":"KORD","metar":"KORD 301851Z 26010G18KT 10SM OVC050 M07/M15 A3011 RMK AO2 SLP210 T10721150","updated":"2025-12-30T19:16:39Z"}
