{"icao":"LPPR","metar":"LPPR 101430Z 20016KT 8000 -SHRA FEW020 FEW025CB SCT040 16/11 Q1008","updated":"2026-05-10T14:51:14Z"}
