{"icao":"LPPR","metar":"LPPR 150500Z VRB06KT 9999 TS SCT015 BKN020 SCT025CB 12/10 Q1002","updated":"2025-11-15T05:17:13Z"}
