{"icao":"LPCS","metar":"LPCS 051400Z 14007KT 090V180 CAVOK 26/09 Q1020","updated":"2026-04-05T14:34:07Z"}
