{"icao":"LPCS","metar":"LPCS 201500Z 22009KT 190V250 9999 FEW016 SCT024 21/17 Q1015","updated":"2025-10-20T15:18:03Z"}
