{"icao":"KORD","metar":"KORD 292051Z 34004KT 10SM FEW250 M08/M21 A3028 RMK AO2 SLP268 T10831211 56008","updated":"2026-01-29T21:26:05Z"}
