{"icao":"KJFK","metar":"KJFK 310951Z 26016KT 10SM CLR 11/08 A2931 RMK AO2 SLP924 T01110078","updated":"2025-10-31T10:19:54Z"}
