{"icao":"KORD","metar":"KORD 292051Z 08006KT 10SM BKN300 29/09 A2996 RMK AO2 SLP141 T02890089 56021","updated":"2026-05-29T21:05:57Z"}
