{"icao":"LPFR","metar":"LPFR 200300Z 03006KT CAVOK 22/18 Q1018","updated":"2025-09-20T03:25:54Z"}
