{"icao":"LPPR","metar":"LPPR 161600Z 25006KT 180V300 9999 SCT012 FEW020CB BKN033 16/14 Q1007 RERA","updated":"2025-11-16T16:20:01Z"}
