{"icao":"LPPT","metar":"LPPT 041530Z 07008KT 9999 FEW035 19/10 Q1012","updated":"2026-03-04T15:38:49Z"}
