{"icao":"LPMR","metar":"LPMR 131000Z VRB02KT CAVOK 23/12 Q1017","updated":"2025-10-13T10:20:58Z"}
