{"icao":"LPOV","metar":"LPOV 181800Z 17010KT 4000 -RADZ SCT008 BKN014 13/12 Q1017","updated":"2025-12-18T21:16:39Z"}
