{"icao":"LPPR","metar":"LPPR 101900Z 01003KT 340V060 9999 MIFG NSC 11/10 Q1023","updated":"2025-12-10T19:17:00Z"}
