{"icao":"LPMR","metar":"LPMR 151600Z 32017KT 9999 SCT025 SCT042 17/11 Q1015","updated":"2026-05-15T18:21:36Z"}
