{"icao":"LPLA","metar":"LPLA 231800Z 34014KT 9999 SCT025 20/13 Q1023","updated":"2025-09-23T18:26:33Z"}
