{"icao":"KLAX","metar":"KLAX 210553Z 23004KT 10SM FEW002 18/16 A2993 RMK AO2 SLP132 T01780161 10239 20178 50007","updated":"2026-03-21T06:41:12Z"}
