{"icao":"LPMA","metar":"LPMA 292200Z 03013G25KT 350V060 9999 SCT016 22/14 Q1022","updated":"2025-09-29T22:14:52Z"}
