{"icao":"LPBJ","metar":"LPBJ 032000Z 30007KT CAVOK 22/11 Q1022","updated":"2025-10-03T20:18:30Z"}
