{"icao":"LPMR","metar":"LPMR 281900Z 35012KT CAVOK 16/09 Q1024","updated":"2026-03-28T19:28:25Z"}
