{"icao":"KORD","metar":"KORD 101851Z 31010KT 10SM FEW200 BKN250 08/00 A2987 RMK AO2 SLP117 T00830000","updated":"2026-02-10T19:20:35Z"}
