{"icao":"LPMA","metar":"LPMA 251400Z 01008KT 320V060 9999 FEW016 19/08 Q1018","updated":"2025-12-25T14:18:45Z"}
