{"icao":"KJFK","metar":"KJFK 151951Z VRB03KT 10SM FEW050 FEW120 SCT220 BKN250 09/M03 A2969 RMK AO2 SLP052 T00941028","updated":"2025-11-15T20:18:19Z"}
