{"icao":"LPFR","metar":"LPFR 310900Z 02005KT 330V040 9999 FEW030 SCT040 12/09 Q1021","updated":"2026-01-31T09:26:27Z"}
