{"icao":"LPPS","metar":"LPPS 020600Z 17005KT 9999 FEW013 21/19 Q1022","updated":"2025-11-02T06:25:58Z"}
