{"icao":"LPPR","metar":"LPPR 192100Z 22002KT 9999 BKN032 17/16 Q1013","updated":"2025-10-19T21:14:33Z"}
