{"icao":"LPHR","metar":"LPHR 292030Z 28006KT 9999 FEW016 14/09 Q1004","updated":"2026-04-29T21:03:07Z"}
