{"icao":"KJFK","metar":"KJFK 171251Z 29021G30KT 10SM FEW050 SCT220 02/M09 A2979 RMK AO2 PK WND 27036/1230 SLP089 T00171094","updated":"2026-03-17T13:09:49Z"}
