{"icao":"LPPD","metar":"LPPD 031000Z 34013KT 310V010 9999 VCSH FEW014 SCT025 15/12 Q1009","updated":"2026-01-03T10:19:31Z"}
