{"icao":"LPST","metar":"LPST 300800Z 23008KT 9999 FEW010 BKN014 13/11 Q1013","updated":"2026-01-30T08:37:13Z"}
