{"icao":"LPMT","metar":"LPMT 291000Z 03005KT 9999 FEW004 SCT006 BKN008 18/18 Q1007","updated":"2025-10-29T10:20:24Z"}
