{"icao":"KLAX","metar":"KLAX 170253Z 25007KT 10SM FEW022 SCT037 18/11 A2984 RMK AO2 SLP103 T01780111 55005","updated":"2026-05-17T02:56:10Z"}
