{"icao":"LPFR","metar":"LPFR 311130Z 19007KT CAVOK 21/11 Q1024 WS ALL RWY","updated":"2026-03-31T11:48:28Z"}
