{"icao":"LPFR","metar":"LPFR 052000Z 25003KT CAVOK 21/18 Q1017","updated":"2025-10-05T20:17:22Z"}
