{"icao":"KJFK","metar":"KJFK 282051Z 36016G25KT 10SM SCT060 SCT075 BKN100 22/08 A2986 RMK AO2 PK WND 35028/2017 SLP113 VCSH S AND NW T02170083 53006 $","updated":"2026-05-28T21:07:29Z"}
