{"icao":"LPPS","metar":"LPPS 171130Z 06010KT 030V100 9999 FEW015 BKN030 18/12 Q1020","updated":"2026-04-17T11:51:33Z"}
