{"icao":"LPMR","metar":"LPMR 052100Z 22007KT 190V250 8000 SCT015 BKN030 15/15 Q1021","updated":"2025-12-05T21:17:05Z"}
