{"icao":"LPPR","metar":"LPPR 230600Z 27007G17KT 220V310 9999 FEW020 FEW025CB SCT035 10/03 Q0999","updated":"2026-01-23T06:33:54Z"}
