{"icao":"LPPR","metar":"LPPR 221730Z 29005KT 260V330 CAVOK 16/10 Q1013","updated":"2026-04-22T18:02:59Z"}
