{"icao":"LPPS","metar":"LPPS 090700Z 06009KT 030V100 9999 FEW014 SCT030 14/07 Q1027","updated":"2026-03-09T07:05:05Z"}
