{"icao":"KJFK","metar":"KJFK 140351Z 18012KT 10SM SCT110 BKN160 BKN250 05/02 A2977 RMK AO2 SLP081 T00500022 $","updated":"2026-01-14T04:45:35Z"}
