{"icao":"KLAX","metar":"KLAX 050912Z 00000KT 10SM SCT016 16/11 A3013 RMK AO2 T01560111 $","updated":"2025-11-05T09:20:55Z"}
