{"icao":"LPMA","metar":"LPMA 100700Z 32005KT 290V350 9999 SCT015 15/09 Q1030","updated":"2026-01-10T07:18:24Z"}
