{"icao":"LPHR","metar":"LPHR 041500Z 12004KT 090V160 9999 SCT010 FEW012TCU BKN050 25/22 Q1027","updated":"2025-10-04T15:14:26Z"}
