{"icao":"LPPR","metar":"LPPR 091530Z 21007KT 0500 R17/0750 -DZ FG VV002 14/14 Q1009","updated":"2026-02-09T15:54:38Z"}
