{"icao":"LPMR","metar":"LPMR 191700Z 21005KT 180V240 7000 -RA BKN008 BKN015 19/19 Q1013","updated":"2025-10-19T17:13:58Z"}
