{"icao":"LPPT","metar":"LPPT 071900Z 28015G29KT 250V320 9999 -SHRA FEW024 FEW030TCU 12/08 Q1006 WS R20","updated":"2026-02-07T19:22:43Z"}
