{"icao":"LPMA","metar":"LPMA 132000Z 34004KT 290V060 9999 SCT015 18/09 Q1008","updated":"2025-11-13T20:21:08Z"}
