{"icao":"KORD","metar":"KORD 112251Z 35004KT 10SM BKN025 OVC140 M04/M09 A2999 RMK AO2 SLP166 T10391089","updated":"2025-12-11T23:18:33Z"}
