{"icao":"LPPT","metar":"LPPT 152200Z 33011KT CAVOK 18/14 Q1021","updated":"2025-09-15T22:15:06Z"}
