{"icao":"LPPT","metar":"LPPT 021230Z 29005KT 250V340 9999 FEW020 FEW025TCU SCT032 14/09 Q1019","updated":"2025-12-02T12:41:06Z"}
