{"icao":"KORD","metar":"KORD 041251Z 19007KT 4SM BR BKN003 OVC070 09/08 A2981 RMK AO2 RAE30 SLP097 P0001 T00890083 $","updated":"2026-04-04T12:53:48Z"}
