{"icao":"KJFK","metar":"KJFK 261751Z 32008KT 10SM SCT040 SCT090 SCT250 14/02 A3038 RMK AO2 SLP286 T01390017 10150 20094 58012","updated":"2025-10-26T18:23:53Z"}
