{"icao":"KORD","metar":"KORD 020556Z 00000KT 3SM -SN BR FEW010 SCT023 BKN037 M04/M06 A3000 RMK AO2 SNB55 P0000 T10441056","updated":"2025-12-02T06:31:29Z"}
