{"icao":"LPMA","metar":"LPMA 210800Z 01011KT 340V050 9999 BKN015 17/13 Q1024","updated":"2025-11-21T08:26:37Z"}
