{"icao":"KJFK","metar":"KJFK 020551Z 34007KT 10SM BKN250 08/01 A3018 RMK AO2 SLP218 T00780011 10117 20078 51019 $","updated":"2025-11-02T06:25:58Z"}
