{"icao":"LPPT","metar":"LPPT 112000Z 31007KT CAVOK 22/11 Q1018","updated":"2025-10-11T20:16:47Z"}
