{"icao":"LPOV","metar":"LPOV 042100Z 18011KT 9999 BKN009 BKN012 13/12 Q0994","updated":"2026-02-04T21:31:41Z"}
