{"icao":"KLAX","metar":"KLAX 140553Z 24006KT 10SM FEW250 16/12 A3002 RMK AO2 SLP164 T01610122 10194 20156 50001","updated":"2026-05-14T06:45:04Z"}
