{"icao":"LPAR","metar":"LPAR 141300Z 05010KT CAVOK 16/10 Q1018","updated":"2025-12-15T07:23:20Z"}
