{"icao":"KLAX","metar":"KLAX 310853Z 03004KT 10SM CLR 18/01 A3016 RMK AO2 SLP211 T01780011 58001 $","updated":"2026-01-31T09:26:31Z"}
