{"icao":"LPMT","metar":"LPMT 241600Z 35008KT CAVOK 28/01 Q1015","updated":"2025-09-25T06:27:00Z"}
