{"icao":"KJFK","metar":"KJFK 241751Z 30012G18KT 10SM FEW060 FEW250 11/M02 A3020 RMK AO2 SLP226 T01111022 10111 20067 58005","updated":"2025-11-24T18:28:24Z"}
