{"icao":"LPHR","metar":"LPHR 180900Z 33007KT 300V360 9999 FEW016 SCT035 14/08 Q1025","updated":"2025-12-18T09:25:49Z"}
