{"icao":"KORD","metar":"KORD 011302Z 35009KT 10SM BKN015 BKN036 BKN065 06/02 A3001 RMK AO2 T00610022 $","updated":"2026-05-01T13:42:33Z"}
