{"icao":"LPPD","metar":"LPPD 150730Z 27009KT 240V300 9999 FEW020 BKN045 15/09 Q1023","updated":"2026-04-15T07:43:23Z"}
