{"icao":"KJFK","metar":"KJFK 231251Z 24004KT 10SM FEW250 11/08 A2998 RMK SLP151 T01110078 ","updated":"2026-04-23T13:26:28Z"}
