{"icao":"LPPS","metar":"LPPS 120300Z 22020G30KT 9999 SCT015 21/15 Q1004","updated":"2025-11-12T03:10:54Z"}
