{"icao":"LPFL","metar":"LPFL 281500Z 16014KT 9999 FEW017 BKN032 22/18 Q1025","updated":"2025-09-28T15:14:26Z"}
