{"icao":"LPPD","metar":"LPPD 312300Z 22015KT 2000 BR BKN002 BKN005 17/16 Q1015","updated":"2026-01-31T23:21:05Z"}
