{"icao":"LPPT","metar":"LPPT 140230Z 34009KT 9999 BKN010 19/18 Q1023","updated":"2025-09-14T03:01:02Z"}
