{"icao":"LPMA","metar":"LPMA 012200Z 36022G32KT 9999 FEW013 20/15 Q1024","updated":"2026-06-01T22:09:30Z"}
