{"icao":"LPAZ","metar":"LPAZ 192100Z 25010KT 9999 FEW003 BKN007 21/20 Q1012","updated":"2026-06-19T21:09:10Z"}
