{"icao":"LPPS","metar":"LPPS 301230Z 24008KT 200V290 9999 FEW015 SCT030 24/15 Q1017","updated":"2025-10-30T12:38:03Z"}
