{"icao":"LPPR","metar":"LPPR 191230Z 24006KT 220V280 CAVOK 24/15 Q1019","updated":"2025-09-19T12:36:09Z"}
