{"icao":"LPAZ","metar":"LPAZ 151000Z 32013KT 9999 FEW032 17/07 Q1016","updated":"2025-11-15T10:17:19Z"}
