{"icao":"KORD","metar":"KORD 290451Z 07004KT 10SM CLR 19/14 A3020 RMK AO2 SLP221 T01940144 $","updated":"2025-09-29T05:17:51Z"}
