{"icao":"LPPS","metar":"LPPS 060430Z 03011KT 360V060 9999 SCT015 SCT030 15/06 Q1025","updated":"2026-01-06T04:38:55Z"}
