{"icao":"KORD","metar":"KORD 291051Z 16007KT 10SM FEW110 FEW250 24/23 A2991 RMK AO2 SLP124 T02440228 $","updated":"2026-06-29T10:55:34Z"}
