{"icao":"LPPS","metar":"LPPS 271230Z 20020KT 9999 SCT010 SCT030 25/21 Q1015","updated":"2025-10-27T12:39:30Z"}
