{"icao":"LPPD","metar":"LPPD 271230Z 02019KT 9999 SCT017 FEW020TCU BKN030 18/15 Q1015","updated":"2025-10-27T12:39:16Z"}
