{"icao":"LPMR","metar":"LPMR 251700Z 01010KT 9999 FEW008 SCT017 BKN040 15/13 Q1014","updated":"2025-10-25T17:13:47Z"}
