{"icao":"LPFR","metar":"LPFR 282000Z 34006KT CAVOK 13/07 Q1022","updated":"2025-11-28T20:20:40Z"}
