{"icao":"KORD","metar":"KORD 291551Z 29012G22KT 9SM -SN OVC022 M06/M10 A2991 RMK AO2 PK WND 27030/1507 SLP137 P0000 T10561100","updated":"2025-12-29T16:25:01Z"}
