{"icao":"KJFK","metar":"KJFK 192251Z 25011KT 10SM FEW044 FEW060 M02/M08 A3001 RMK AO2 SLP162 T10171083 $","updated":"2026-01-19T23:19:35Z"}
