{"icao":"LPMR","metar":"LPMR 190700Z 17003KT 9999 SCT016 18/16 Q1015","updated":"2025-10-19T07:15:08Z"}
