{"icao":"LPPD","metar":"LPPD 212000Z 22012KT 9000 FEW003 BKN007 23/22 Q1016","updated":"2025-10-21T20:20:53Z"}
