{"icao":"LPHR","metar":"LPHR 081230Z 23021KT 3500 SHRA SCT004 BKN010 FEW015TCU 18/17 Q1011","updated":"2026-02-08T12:47:25Z"}
