{"icao":"LPMA","metar":"LPMA 021830Z 34014G26KT 240V030 9999 SCT015 14/01 Q1018","updated":"2026-03-02T18:45:05Z"}
