{"icao":"LPPT","metar":"LPPT 061700Z 33019G29KT 9999 FEW026 12/07 Q1017 WS R02","updated":"2026-03-06T17:33:29Z"}
