{"icao":"LPCS","metar":"LPCS 100830Z 24011KT 0200 R17/0550N -DZ FG VV002 15/15 Q1016","updated":"2026-02-10T08:54:14Z"}
