{"icao":"KJFK","metar":"KJFK 250751Z 31007KT 10SM FEW065 FEW100 09/03 A3027 RMK AO2 SLP251 T00940028","updated":"2025-10-25T08:20:30Z"}
