{"icao":"KORD","metar":"KORD 111451Z 03008KT 10SM FEW032 16/09 A3017 RMK AO2 SLP217 T01610094 51007","updated":"2025-10-11T15:15:01Z"}
