{"icao":"LPMR","metar":"LPMR 150900Z 13002KT 2000 BR BKN005 OVC007 13/13 Q1025","updated":"2026-04-15T09:17:43Z"}
