{"icao":"LPPS","metar":"LPPS 142000Z 04011KT 360V070 9999 FEW014 SCT030 16/11 Q1024","updated":"2026-03-14T20:27:24Z"}
