{"icao":"LPMT","metar":"LPMT 181500Z 20009KT 170V240 9999 SCT020 17/12 Q1020","updated":"2025-12-18T16:28:29Z"}
