{"icao":"LPMT","metar":"LPMT 120600Z 04003KT 010V080 CAVOK 17/12 Q1016","updated":"2025-10-12T06:23:30Z"}
