{"icao":"LPPT","metar":"LPPT 130500Z 06003KT 020V080 CAVOK 18/11 Q1015","updated":"2025-10-13T05:17:45Z"}
