{"icao":"LPHR","metar":"LPHR 231100Z 20003KT 160V240 9999 FEW012 SCT022 22/20 Q1015","updated":"2025-10-23T11:15:42Z"}
