{"icao":"KJFK","metar":"KJFK 281251Z 04012KT 10SM FEW035 BKN250 08/04 A3034 RMK AO2 SLP273 T00830044","updated":"2025-10-28T13:29:49Z"}
