{"icao":"LPPT","metar":"LPPT 020230Z VRB02KT CAVOK 20/11 Q1020","updated":"2025-10-02T02:55:53Z"}
