{"icao":"LPPR","metar":"LPPR 101000Z 10012KT CAVOK 21/09 Q1022","updated":"2025-10-10T10:19:15Z"}
