{"icao":"LPFR","metar":"LPFR 030900Z 04003KT 350V080 CAVOK 18/09 Q1023","updated":"2025-11-03T09:22:12Z"}
