{"icao":"LPMA","metar":"LPMA 301400Z 10005KT 060V150 9999 SCT015 21/16 Q1018","updated":"2025-12-30T14:20:21Z"}
