{"icao":"LPCS","metar":"LPCS 071600Z 36014KT 320V030 9999 FEW025 14/06 Q1027","updated":"2026-01-07T16:29:28Z"}
