{"icao":"LPCS","metar":"LPCS 261230Z 05006KT 360V110 CAVOK 17/05 Q1025","updated":"2025-11-26T12:40:29Z"}
