{"icao":"KJFK","metar":"KJFK 250051Z 29012KT 10SM FEW050 BKN065 BKN095 14/02 A3019 RMK AO2 SLP222 T01390022","updated":"2025-10-25T01:19:07Z"}
