{"icao":"LPMT","metar":"LPMT 291100Z 02007KT 350V050 CAVOK 23/14 Q1016","updated":"2025-09-29T11:14:35Z"}
