{"icao":"LPCS","metar":"LPCS 182100Z 01007KT CAVOK 17/12 Q1016","updated":"2026-04-18T21:33:36Z"}
