{"icao":"LPPR","metar":"LPPR 161230Z 25007KT 200V290 7000 -DZ SCT003 BKN006 14/13 Q1028","updated":"2026-02-16T13:00:41Z"}
