{"icao":"LPFR","metar":"LPFR 070700Z 22015KT 7000 -RA SCT012 BKN030 14/12 Q1012","updated":"2026-02-07T07:30:27Z"}
