{"icao":"LPCS","metar":"LPCS 101730Z 26012KT 2000 -RADZ BR VV002 15/15 Q1016","updated":"2026-02-10T18:00:16Z"}
