{"icao":"KJFK","metar":"KJFK 080451Z 36019G27KT 10SM FEW030 FEW090 FEW250 20/13 A3004 RMK AO2 PK WND 36028/0411 SLP173 T02000128 403000189 $","updated":"2026-06-08T05:48:45Z"}
