{"icao":"LPMR","metar":"LPMR 171300Z 33011KT 290V360 CAVOK 19/13 Q1019","updated":"2026-04-17T13:16:53Z"}
