{"icao":"LPMR","metar":"LPMR 202000Z 21006KT 8000 BKN009 BKN030 19/18 Q1014","updated":"2025-10-20T20:20:45Z"}
