{"icao":"LPST","metar":"LPST 280700Z 280700Z 33004KT 9000 BKN006 17/17 Q1020","updated":"2026-05-28T07:55:43Z"}
