{"icao":"LPHR","metar":"LPHR 201730Z 31014KT 9000 -SHRA SCT018 BKN035 12/08 Q1019","updated":"2026-04-20T17:56:34Z"}
