{"icao":"KJFK","metar":"KJFK 230851Z 25006KT 10SM BKN070 OVC085 02/M04 A3036 RMK AO2 SLP280 T00171044 56006 $","updated":"2025-12-23T09:24:42Z"}
