{"icao":"LPMT","metar":"LPMT 080600Z 32005KT 290V350 9999 FEW045 17/14 Q1022","updated":"2025-10-08T06:27:10Z"}
