{"icao":"KLAX","metar":"KLAX 102153Z 25012KT 10SM FEW005 FEW120 SCT140 21/15 A3007 RMK AO2 SLP181 T02060150 $","updated":"2025-11-10T22:18:49Z"}
