{"icao":"LPCS","metar":"LPCS 201000Z 28005KT 230V320 9999 FEW016 SCT022 21/16 Q1016","updated":"2025-10-20T10:20:05Z"}
