{"icao":"KJFK","metar":"KJFK 100551Z 23017G26KT 10SM BKN085 BKN110 BKN250 02/M04 A2991 RMK AO2 PK WND 23027/0527 SLP127 T00171039 10022 20006 58022","updated":"2025-12-10T06:31:26Z"}
