{"icao":"LPFR","metar":"LPFR 232030Z 10005KT CAVOK 23/13 Q1020","updated":"2026-05-23T20:50:02Z"}
