{"icao":"LPPR","metar":"LPPR 030500Z 10004KT 070V140 4200 BR OVC004 15/14 Q1022","updated":"2025-10-03T05:16:50Z"}
