{"icao":"KJFK","metar":"KJFK 211551Z 14012KT 10SM FEW040 BKN250 21/09 A3033 RMK AO2 SLP272 T02060094 $","updated":"2025-09-21T16:18:58Z"}
