{"icao":"LPGR","metar":"LPGR 231630Z 33007KT 300V360 9999 FEW015 BKN025 21/16 Q1023","updated":"2026-06-23T23:58:29Z"}
