{"icao":"LPBJ","metar":"LPBJ 142300Z 31008KT CAVOK 21/15 Q1021","updated":"2025-09-14T23:14:28Z"}
