{"icao":"KORD","metar":"KORD 131951Z 29009KT 10SM FEW020 OVC075 M12/M20 A3020 RMK AO2 SLP238 T11221200","updated":"2025-12-13T20:19:51Z"}
