{"icao":"LPLA","metar":"LPLA 230700Z 29011KT 9999 FEW018 13/10 Q1001","updated":"2026-04-23T07:49:54Z"}
