{"icao":"LPMT","metar":"LPMT 172100Z 01002KT CAVOK 12/10 Q1023","updated":"2025-12-17T21:18:48Z"}
