{"icao":"KJFK","metar":"KJFK 100751Z 33007KT 10SM SCT020 BKN250 09/07 A3016 RMK AO2 SLP213 T00940067 $","updated":"2026-01-10T08:25:46Z"}
