{"icao":"LPPT","metar":"LPPT 151400Z 20015KT 2000 -RADZ BR FEW006 BKN010 13/12 Q1016","updated":"2026-01-15T14:23:30Z"}
