{"icao":"LPPD","metar":"LPPD 042200Z 33004KT 9999 FEW022 SCT045 14/09 Q1023","updated":"2026-04-04T22:28:25Z"}
