{"icao":"LPOV","metar":"LPOV 211200Z 29004KT 250V330 CAVOK 14/11 Q1031","updated":"2026-02-21T12:44:03Z"}
