{"icao":"LPPR","metar":"LPPR 312200Z 24005KT 190V290 9000 -RA SCT005 BKN012 FEW018CB 17/16 Q1011 RESHRA","updated":"2025-10-31T22:16:34Z"}
