{"icao":"KLAX","metar":"KLAX 070853Z 00000KT 10SM CLR 16/13 A3002 RMK AO2 SLP162 T01610133 58002 $","updated":"2026-04-07T09:00:54Z"}
