{"icao":"KJFK","metar":"KJFK 091751Z 16008KT 10SM FEW065 SCT250 M02/M11 A3019 RMK AO2 SLP222 T10171111 11017 21078 58035","updated":"2025-12-09T18:25:55Z"}
