{"icao":"KJFK","metar":"KJFK 290951Z 18006KT 1/4SM R04R/3500V5500FT -DZ FG OVC003 05/05 A2957 RMK AO2 SFC VIS 1/2 SLP014 P0000 T00500050 $","updated":"2025-12-29T10:22:12Z"}
