{"icao":"LPPD","metar":"LPPD 290130Z 09017G30KT 9999 FEW006 BKN035 15/13 Q1009","updated":"2025-12-29T01:46:20Z"}
