{"icao":"KORD","metar":"KORD 011951Z 05020KT 10SM OVC015 03/M01 A3018 RMK AO2 PK WND 05027/1949 SLP225 T00331011","updated":"2026-04-01T20:00:15Z"}
