{"icao":"LPPT","metar":"LPPT 060700Z 34015KT CAVOK 07/04 Q1021","updated":"2026-01-06T07:24:30Z"}
