{"icao":"KORD","metar":"KORD 041751Z 35006KT 10SM FEW018 OVC024 M04/M10 A3040 RMK AO2 SNE24 SLP304 4/002 933002 P0000 60000 T10441100 11044 21067 50002","updated":"2026-02-04T18:49:13Z"}
