{"icao":"LPSJ","metar":"LPSJ 191730Z 26011KT 230V290 9999 SCT014 21/17 Q1009","updated":"2026-06-19T17:59:07Z"}
