{"icao":"LPPT","metar":"LPPT 091500Z VRB02KT 8000 FEW000 SCT010 16/16 Q1015","updated":"2025-12-09T15:22:31Z"}
