{"icao":"LPPR","metar":"LPPR 011900Z 22003KT CAVOK 12/08 Q1017","updated":"2026-03-01T19:21:04Z"}
