{"icao":"LPMR","metar":"LPMR 101100Z 15003KT 5000 BR FEW042 09/08 Q1030","updated":"2026-01-10T11:15:55Z"}
