{"icao":"LPBJ","metar":"LPBJ 302300Z 28011KT 9999 SCT023 BKN040 12/10 Q1016","updated":"2026-01-30T23:23:59Z"}
