{"icao":"LPMT","metar":"LPMT 071800Z 27019G30KT 9999 SCT015 FEW018CB 13/09 Q1005","updated":"2026-02-07T18:33:56Z"}
