{"icao":"LPFL","metar":"LPFL 151700Z 32005KT 280V010 9999 VCSH SCT030 BKN040 15/08 Q1030","updated":"2026-01-15T17:31:08Z"}
