{"icao":"LPCS","metar":"LPCS 251430Z 36014KT 9999 FEW016 20/12 Q1019","updated":"2026-03-25T14:57:26Z"}
