{"icao":"LPPT","metar":"LPPT 290900Z 03005KT 350V070 9000 FEW004 BKN005 17/16 Q1007","updated":"2025-10-29T09:19:13Z"}
