{"icao":"KLAX","metar":"KLAX 152153Z 25008KT 10SM SCT031 BKN048 BKN110 OVC170 17/08 A2997 RMK AO2 SLP147 T01670078 $","updated":"2026-02-15T22:22:23Z"}
