{"icao":"LPFL","metar":"LPFL 171730Z 35029G45KT 9999 VCSH FEW022 FEW024CB 09/05 Q1021","updated":"2026-03-17T17:56:49Z"}
