{"icao":"KORD","metar":"KORD 071051Z 03012KT 10SM FEW032 FEW250 M02/M09 A3046 RMK AO2 SLP321 T10171089 $","updated":"2026-04-07T10:54:06Z"}
