{"icao":"LPFL","metar":"LPFL 021000Z VRB14G28KT 9999 FEW007 SCT015 21/17 Q1026","updated":"2026-06-02T10:20:44Z"}
