{"icao":"LPBJ","metar":"LPBJ 080700Z 29007KT 9999 2000N BCFG FEW003 13/12 Q1022","updated":"2025-10-08T07:17:05Z"}
