{"icao":"KORD","metar":"KORD 272151Z 31010G21KT 10SM -SN BKN042 BKN049 M01/M09 A3022 RMK AO2 SNB27 SLP241 P0000 T10061094","updated":"2025-11-27T22:17:31Z"}
