{"icao":"KORD","metar":"KORD 040451Z 25007KT 10SM FEW250 08/M04 A3024 RMK AO2 SLP241 T00781044 $","updated":"2025-11-04T05:18:57Z"}
