{"icao":"LPPD","metar":"LPPD 040130Z 24013KT 9000 SCT015 BKN040 16/15 Q1002","updated":"2026-02-04T01:57:51Z"}
