{"icao":"LPMT","metar":"LPMT 221900Z 25006KT 220V290 9999 SCT008 BKN032 21/20 Q1019","updated":"2025-10-22T19:13:44Z"}
