{"icao":"LPHR","metar":"LPHR 300630Z 28012KT 9999 FEW020 16/12 Q1017","updated":"2026-01-30T06:46:26Z"}
