{"icao":"KJFK","metar":"KJFK 150951Z 31018G30KT 10SM FEW055 FEW250 M07/M14 A3020 RMK AO2 PK WND 30030/0949 SLP226 T10671144 $","updated":"2025-12-15T10:24:40Z"}
