{"icao":"LPFR","metar":"LPFR 020600Z VRB02KT 9999 FEW015 BKN030 19/18 Q1022 RERA","updated":"2025-11-02T06:25:54Z"}
