{"icao":"KORD","metar":"KORD 212251Z 04016G22KT 10SM FEW130 BKN250 13/04 A3023 RMK AO2 SLP237 T01280039 $","updated":"2026-05-21T23:02:22Z"}
