{"icao":"LPPR","metar":"LPPR 210800Z 20013G27KT 160V240 2200 RA BR BKN004 BKN012 12/12 Q1002","updated":"2026-01-21T08:30:16Z"}
