{"icao":"LPBJ","metar":"LPBJ 101412Z 25017KT 3000 -DZ BR OVC005 16/15 Q1017","updated":"2026-02-10T14:56:58Z"}
