{"icao":"LPPD","metar":"LPPD 241230Z 02013KT 350V050 9999 FEW025 21/13 Q1022","updated":"2025-09-24T12:36:28Z"}
