{"icao":"KLAX","metar":"KLAX 190853Z 00000KT 10SM BKN220 17/13 A2992 RMK AO2 SLP127 T01720133 58009 $","updated":"2026-04-19T09:45:57Z"}
