{"icao":"KORD","metar":"KORD 302251Z 05005KT 10SM FEW047 SCT250 09/02 A2984 RMK AO2 SLP107 T00940017 $","updated":"2025-10-30T23:17:06Z"}
