{"icao":"LPPT","metar":"LPPT 031630Z 23009KT 9000 -RA FEW020 BKN044 11/08 Q1001","updated":"2026-02-03T16:52:06Z"}
