{"icao":"KLAX","metar":"KLAX 060353Z 35010G21KT 10SM FEW250 18/M03 A2994 RMK AO2 SLP138 T01831028","updated":"2026-03-06T04:15:47Z"}
