{"icao":"LPLA","metar":"LPLA 231000Z 33016KT 9999 FEW025 SCT030 BKN040 20/14 Q1023","updated":"2025-09-23T10:18:43Z"}
