{"icao":"LPHR","metar":"LPHR 301100Z 26021G31KT 9000 SCT011 SCT030 17/15 Q1009","updated":"2025-10-30T11:15:31Z"}
