{"icao":"LPPR","metar":"LPPR 271230Z 30007KT 270V330 CAVOK 18/09 Q1020","updated":"2026-03-27T13:03:57Z"}
