{"icao":"LPOV","metar":"LPOV 121400Z 17016KT 140V200 9999 FEW020 SCT028 BKN042 14/10 Q1015","updated":"2026-01-12T14:24:15Z"}
