{"icao":"KORD","metar":"KORD 051151Z 21008KT 10SM FEW250 01/M04 A2978 RMK AO2 SLP093 T00061044 10011 20006 56012 $","updated":"2026-01-05T12:44:04Z"}
