{"icao":"KORD","metar":"KORD 100551Z 20007KT 8SM OVC011 16/14 A2975 RMK AO2 SLP071 T01610144 10189 20156 402280094 50005 $","updated":"2026-03-10T06:48:23Z"}
