{"icao":"KJFK","metar":"KJFK 191851Z 17017G28KT 10SM FEW030 BKN250 21/16 A2992 RMK AO2 PK WND 18029/1756 SLP132 T02060156 $","updated":"2025-10-19T19:13:17Z"}
