{"icao":"LPPR","metar":"LPPR 131430Z 23008KT 210V280 3900 -RADZ BR SCT010 BKN017 BKN040 13/10 Q1021","updated":"2026-04-13T14:46:48Z"}
