{"icao":"LPMA","metar":"LPMA 161900Z 03012KT 360V060 9999 SCT016 17/11 Q1019","updated":"2026-04-16T19:10:59Z"}
