{"icao":"KORD","metar":"KORD 290909Z 00000KT 10SM -SN BKN060 OVC075 M02/M09 A3037 RMK AO2 SNB08 P0000 T10221089 $","updated":"2025-11-29T09:18:34Z"}
