{"icao":"LPBJ","metar":"LPBJ 100600Z 13002KT CAVOK 14/13 Q1019","updated":"2025-10-10T06:27:15Z"}
