{"icao":"KLAX","metar":"KLAX 090653Z 23004KT 10SM CLR 18/14 A2991 RMK AO2 SLP126 T01780144 $","updated":"2025-10-09T07:17:45Z"}
