{"icao":"LPAZ","metar":"LPAZ 282300Z 27012KT 0700 R18/0800 -DZ FG VV002 16/15 Q1029","updated":"2026-02-28T23:20:42Z"}
