{"icao":"LPOV","metar":"LPOV 201600Z 33007KT CAVOK 19/11 Q1010","updated":"2026-04-20T16:07:27Z"}
