{"icao":"LPAZ","metar":"LPAZ 131400Z 23005KT 200V260 9999 FEW022 23/18 Q1016","updated":"2025-10-13T14:18:52Z"}
