{"icao":"LPFL","metar":"LPFL 172000Z 33009KT 310V010 9999 FEW012 18/13 Q1025","updated":"2025-11-17T20:21:39Z"}
