{"icao":"LPLA","metar":"LPLA 192000Z 34019G31KT 4500 -RADZ BR SCT004 BKN014 13/11 Q1017","updated":"2026-04-19T20:36:12Z"}
