{"icao":"LPMA","metar":"LPMA 012300Z 05004KT 350V130 9999 FEW016 15/07 Q1021","updated":"2026-03-01T23:22:20Z"}
