{"icao":"LPPT","metar":"LPPT 091130Z 06011KT 030V090 CAVOK 18/10 Q1016","updated":"2026-04-09T11:56:40Z"}
