{"icao":"LPCS","metar":"LPCS 051230Z 33009KT 290V360 9999 SCT020 15/09 Q1018","updated":"2026-03-05T12:57:43Z"}
