{"icao":"KJFK","metar":"KJFK 301451Z 35024G35KT 10SM BKN050 BKN055 BKN250 16/04 A2986 RMK AO2 PK WND 36035/1450 SLP110 T01560044 53022 $","updated":"2026-05-30T15:05:12Z"}
