{"icao":"KLAX","metar":"KLAX 202053Z 27011KT 10SM FEW250 26/14 A2995 RMK AO2 SLP140 T02560144 56009","updated":"2026-03-20T21:29:00Z"}
