{"icao":"LPFL","metar":"LPFL 201600Z 13005KT 080V160 9999 FEW033 21/12 Q1029","updated":"2025-09-20T16:18:42Z"}
