{"icao":"LPMA","metar":"LPMA 281000Z 20005KT 140V270 9999 FEW016 17/06 Q1019","updated":"2025-12-28T10:19:26Z"}
