{"icao":"LPMT","metar":"LPMT 032000Z 17008KT 6000 RADZ SCT006 BKN026 11/11 Q0997","updated":"2026-02-03T20:34:27Z"}
