{"icao":"KORD","metar":"KORD 040351Z 26006KT 10SM FEW250 08/M04 A3022 RMK AO2 SLP235 T00831044 $","updated":"2025-11-04T04:20:51Z"}
