{"icao":"LPFL","metar":"LPFL 012000Z 29013G24KT 190V350 9999 SCT019 12/06 Q1012","updated":"2026-02-01T20:25:42Z"}
