{"icao":"KORD","metar":"KORD 180551Z 12003KT 10SM FEW250 19/16 A3003 RMK AO2 SLP165 T01890161 10250 20183 402830161 58006 $","updated":"2025-09-18T06:26:35Z"}
