{"icao":"LPMT","metar":"LPMT 150900Z 02005KT 350V050 CAVOK 19/13 Q1017","updated":"2025-10-15T09:19:25Z"}
