{"icao":"LPMR","metar":"LPMR 041600Z 29009KT CAVOK 22/10 Q1021","updated":"2026-04-04T16:34:09Z"}
