{"icao":"LPPS","metar":"LPPS 201400Z 29009KT CAVOK 16/09 Q1025","updated":"2026-01-20T14:29:58Z"}
