{"icao":"LPPS","metar":"LPPS 152300Z 27001KT 9999 FEW015 21/18 Q1017","updated":"2025-10-15T23:15:50Z"}
