{"icao":"LPAZ","metar":"LPAZ 081100Z 21014KT 9999 VCSH FEW009 SCT016 BKN030 16/14 Q1033","updated":"2026-01-08T11:19:47Z"}
