{"icao":"LPST","metar":"LPST 051200Z 25014KT 210V270 9999 FEW015 19/13 Q1008","updated":"2025-11-05T12:38:29Z"}
