{"icao":"LPPD","metar":"LPPD 082000Z VRB08KT 9999 SCT006 BKN010 22/21 Q1025","updated":"2025-10-08T20:19:25Z"}
