{"icao":"LPLA","metar":"LPLA 040800Z 26019G29KT 9999 FEW030 17/12 Q0995","updated":"2026-02-04T08:39:50Z"}
