{"icao":"LPAR","metar":"LPAR 271000Z 08003KT 030V150 CAVOK 10/08 Q1025","updated":"2025-11-27T10:21:24Z"}
