{"icao":"LPMT","metar":"LPMT 132200Z 36003KT CAVOK 17/13 Q1016","updated":"2025-10-13T22:16:20Z"}
