{"icao":"KORD","metar":"KORD 301451Z 20011G21KT 10SM SCT085 BKN250 17/07 A2991 RMK AO2 SLP129 T01720072 58007","updated":"2026-03-30T15:02:42Z"}
