{"icao":"KORD","metar":"KORD 221551Z 19008KT 10SM FEW025 FEW090 BKN250 06/01 A3011 RMK AO2 SLP198 T00610006","updated":"2025-11-22T16:21:06Z"}
