{"icao":"LPAR","metar":"LPAR 081600Z 35010KT 310V030 9999 BKN035 21/12 Q1021","updated":"2025-10-09T01:18:27Z"}
