{"icao":"LPAZ","metar":"LPAZ 061600Z 28014KT 9000 FEW002 SCT012 BKN024 20/19 Q1014","updated":"2025-11-06T16:24:56Z"}
