{"icao":"LPAZ","metar":"LPAZ 101630Z 02008KT 330V050 9999 FEW015 23/17 Q1027","updated":"2026-06-10T16:56:39Z"}
