{"icao":"LPMA","metar":"LPMA 062200Z 02016KT 350V050 9999 SCT015 15/07 Q1030","updated":"2026-01-06T22:20:06Z"}
