{"icao":"KORD","metar":"KORD 191651Z 11008KT 10SM FEW020 FEW170 BKN250 13/M05 A2964 RMK AO2 SLP036 T01331050 $","updated":"2026-02-19T17:49:28Z"}
