{"icao":"LPPD","metar":"LPPD 051400Z 14008KT 9999 FEW018 SCT030 23/19 Q1024","updated":"2025-10-05T14:13:57Z"}
