{"icao":"LPHR","metar":"LPHR 122100Z 33012G25KT 280V020 9999 FEW025 FEW030CB 15/09 Q1006","updated":"2025-11-12T21:17:12Z"}
