{"icao":"LPFR","metar":"LPFR 210700Z 32003KT 250V350 CAVOK 19/08 Q1017","updated":"2025-09-21T07:14:09Z"}
