{"icao":"KLAX","metar":"KLAX 231653Z VRB03KT 10SM FEW014 SCT018 18/13 A3008 RMK AO2 SLP183 T01830133","updated":"2025-10-23T17:16:04Z"}
