{"icao":"LPMT","metar":"LPMT 030400Z 26008KT 9999 SCT030 SCT040 10/08 Q1001","updated":"2026-02-03T04:44:54Z"}
