{"icao":"LPMT","metar":"LPMT 140500Z 25017G30KT 6000 TSRA SCT015 SCT018CB 15/13 Q1002","updated":"2025-11-14T05:18:25Z"}
