{"icao":"LPPR","metar":"LPPR 072300Z 12005KT 070V150 9999 FEW030 07/06 Q1030","updated":"2026-01-07T23:19:19Z"}
