{"icao":"LPFR","metar":"LPFR 181430Z 25013KT 9999 SCT025 SCT035 BKN042 15/12 Q1022","updated":"2026-02-18T14:41:49Z"}
