{"icao":"LPMA","metar":"LPMA 062100Z 02014KT 340V060 9999 SCT015 15/08 Q1029","updated":"2026-01-06T21:20:03Z"}
