{"icao":"LPMR","metar":"LPMR 180300Z 18004KT CAVOK 09/08 Q1021","updated":"2025-12-18T03:19:35Z"}
