{"icao":"LPPT","metar":"LPPT 132000Z 27003KT 250V310 9999 FEW010 12/10 Q1014","updated":"2026-01-13T20:23:45Z"}
