{"icao":"LPPR","metar":"LPPR 282130Z VRB03KT CAVOK 18/12 Q1007","updated":"2026-04-28T21:56:21Z"}
