{"icao":"LPBJ","metar":"LPBJ 171000Z 09004KT 050V130 CAVOK 23/11 Q1018","updated":"2026-04-17T10:54:13Z"}
