{"icao":"LPAZ","metar":"LPAZ 131500Z 21006KT 170V260 9999 FEW019 23/18 Q1015","updated":"2025-10-13T15:18:35Z"}
