{"icao":"LPPT","metar":"LPPT 100630Z 34005KT 320V020 9999 -SHRA FEW011 SCT015 FEW020TCU BKN025 09/08 Q1021","updated":"2026-03-10T06:47:48Z"}
