{"icao":"LPLA","metar":"LPLA 111900Z 22005KT 180V260 9999 FEW028 14/08 Q1015","updated":"2026-01-11T19:14:52Z"}
