{"icao":"LPPR","metar":"LPPR 060230Z 01003KT 330V060 CAVOK 10/08 Q1015","updated":"2026-05-06T02:42:44Z"}
