{"icao":"KORD","metar":"KORD 272251Z 07012KT 10SM FEW250 BKN300 12/04 A3013 RMK AO2 SLP205 T01220039","updated":"2025-10-27T23:16:13Z"}
