{"icao":"LPMR","metar":"LPMR 271800Z 19014KT 5000 -RA BKN007 OVC017 20/18 Q1012","updated":"2025-09-27T18:21:52Z"}
