{"icao":"LPLA","metar":"LPLA 020700Z 18007KT 150V210 9999 -RA FEW012 SCT025 BKN040 22/20 Q1020","updated":"2025-10-02T07:16:31Z"}
