{"icao":"KORD","metar":"KORD 282151Z 07010KT 10SM FEW150 SCT200 BKN250 13/04 A3003 RMK AO2 SLP171 T01330039","updated":"2025-10-28T22:17:49Z"}
