{"icao":"LPOV","metar":"LPOV 202200Z 00000KT CAVOK 07/06 Q1030","updated":"2026-02-20T22:24:21Z"}
