{"icao":"LPMT","metar":"LPMT 282300Z 34004KT CAVOK 10/07 Q1023","updated":"2026-02-28T23:20:27Z"}
