{"icao":"LPBJ","metar":"LPBJ 200700Z 28004KT 5000 0500N BCFG FEW004 05/05 Q1018","updated":"2025-11-20T07:18:06Z"}
