{"icao":"LPPR","metar":"LPPR 291330Z 22009KT 200V260 9000 FEW017 15/13 Q1006","updated":"2026-01-29T13:59:22Z"}
