{"icao":"KJFK","metar":"KJFK 191151Z 04006KT 8SM -RA SCT031 OVC040 04/02 A3018 RMK AO2 SLP219 P0003 60006 70006 T00390022 10067 20039 51007 $","updated":"2025-11-19T12:39:40Z"}
