{"icao":"KLAX","metar":"KLAX 191553Z 00000KT 6SM BCFG BR FEW005 SCT140 SCT180 13/12 A3002 RMK AO2 SLP165 VIS S-SW 2 T01280122 $","updated":"2025-12-19T16:25:36Z"}
