{"icao":"KJFK","metar":"KJFK 091851Z 20010KT 5SM -RA BR FEW020 SCT040 OVC065 13/12 A2988 RMK AO2 SLP117 P0003 T01330117 $","updated":"2026-05-09T18:59:30Z"}
