{"icao":"LPPR","metar":"LPPR 280430Z 06010KT 9000 RA FEW018 BKN040 08/06 Q0989","updated":"2026-01-28T04:42:32Z"}
