{"icao":"LPMT","metar":"LPMT 071500Z 32003KT 290V360 7000 -RA SCT008 BKN015 OVC022 17/17 Q1015","updated":"2025-11-07T15:18:35Z"}
