{"icao":"LPPD","metar":"LPPD 110930Z 25011KT 3000 BR FEW007 16/14 Q1016","updated":"2026-02-11T10:01:36Z"}
