{"icao":"LPMT","metar":"LPMT 010800Z 35007KT 320V020 CAVOK 23/17 Q1019","updated":"2026-07-01T08:11:04Z"}
