{"icao":"LPPS","metar":"LPPS 021430Z 03015KT 9999 SCT009 21/17 Q1026","updated":"2026-06-02T14:51:37Z"}
