{"icao":"KORD","metar":"KORD 162125Z 06008KT 10SM BKN045TCU BKN075 23/11 A2982 RMK AO2 WSHFT 13 TCU E-SE T02280111 $","updated":"2026-04-16T21:41:51Z"}
