{"icao":"LPHR","metar":"LPHR 171230Z 29017KT 9999 FEW020 17/11 Q1021","updated":"2026-02-17T13:00:58Z"}
