{"icao":"KLAX","metar":"KLAX 200253Z 19004KT 5SM BCFG BR FEW000 FEW004 16/14 A3000 RMK AO2 SLP157 VIS W 1 NW 2 FG FEW000 FG BANK W-NW T01610144 53005","updated":"2025-12-20T03:14:29Z"}
