{"icao":"LPAR","metar":"LPAR 011400Z 06007KT CAVOK 23/06 Q1022","updated":"2026-04-01T15:02:34Z"}
