{"icao":"LPPS","metar":"LPPS 061230Z 04014KT 010V090 9999 FEW015 16/07 Q1028","updated":"2026-01-06T12:42:29Z"}
