{"icao":"LPAZ","metar":"LPAZ 260830Z 29008KT 9999 FEW004 SCT007 BKN028 15/14 Q1030","updated":"2026-02-26T08:47:26Z"}
