{"icao":"LPLA","metar":"LPLA 061900Z 23005KT 160V260 9999 FEW010 SCT020 23/19 Q1017","updated":"2025-10-06T19:13:58Z"}
