{"icao":"LPMT","metar":"LPMT 211100Z 12010KT 9999 FEW014 BKN026 17/13 Q1009","updated":"2026-03-21T11:21:23Z"}
