{"icao":"LPPR","metar":"LPPR 081400Z 28006KT 250V330 9999 FEW012 13/09 Q1022","updated":"2026-03-08T14:23:46Z"}
