{"icao":"LPPR","metar":"LPPR 030400Z 09003KT 050V120 CAVOK 11/10 Q1024","updated":"2025-11-03T04:27:11Z"}
