{"icao":"LPMA","metar":"LPMA 172000Z 03013KT 9999 BKN015 17/12 Q1017","updated":"2026-04-17T20:08:52Z"}
