{"icao":"LPMT","metar":"LPMT 282300Z 25017G28KT 8000 BKN006 BKN020 16/16 Q1006","updated":"2026-01-28T23:24:55Z"}
