{"icao":"KORD","metar":"KORD 180251Z 19011G25KT 10SM FEW130 SCT170 BKN250 26/16 A2981 RMK AO2 PK WND 17028/0153 SLP089 T02560161 55000 $","updated":"2026-05-18T03:52:10Z"}
