{"icao":"LPCS","metar":"LPCS 151700Z 21014KT 1200 R17/1600D -RADZ BR VV002 14/14 Q1013","updated":"2026-01-15T17:30:48Z"}
