{"icao":"LPPR","metar":"LPPR 201500Z 17013KT 9000 -RA SCT009 BKN014 BKN030 11/10 Q1015","updated":"2026-01-20T15:29:17Z"}
