{"icao":"LPMT","metar":"LPMT 271600Z 25011KT CAVOK 27/13 Q1017","updated":"2026-05-27T16:35:28Z"}
