{"icao":"LPPS","metar":"LPPS 291900Z 16005KT 120V190 9999 SCT015 BKN030 17/11 Q1013","updated":"2026-04-29T19:23:08Z"}
