{"icao":"KLAX","metar":"KLAX 241805Z 00000KT 10SM FEW020 OVC046 15/11 A2993 RMK AO2 T01500111 $","updated":"2026-01-24T18:28:52Z"}
