{"icao":"LPLA","metar":"LPLA 051800Z 22019KT 200V260 9999 FEW015 SCT025 19/16 Q1015","updated":"2025-12-05T18:26:15Z"}
