{"icao":"LPPT","metar":"LPPT 071000Z 22005KT 120V280 9999 FEW024 22/16 Q1023","updated":"2025-10-07T10:18:25Z"}
