{"icao":"LPPT","metar":"LPPT 180200Z 23005KT 9999 BKN034 12/09 Q1023","updated":"2026-02-18T02:04:45Z"}
