{"icao":"LPFR","metar":"LPFR 091530Z 25014KT 4000 R28/1200N BR OVC002 15/15 Q1015","updated":"2026-02-09T15:54:37Z"}
