{"icao":"LPHR","metar":"LPHR 252030Z 04005KT 9999 SCT014 BKN025 15/11 Q1030","updated":"2026-03-25T20:37:33Z"}
