{"icao":"LPPT","metar":"LPPT 140900Z 30006KT 9999 FEW010 FEW020TCU 12/11 Q1019","updated":"2026-01-14T09:27:35Z"}
