{"icao":"LPBJ","metar":"LPBJ 181000Z 13008KT 080V160 CAVOK 24/09 Q1017","updated":"2026-04-18T10:38:56Z"}
