{"icao":"KLAX","metar":"KLAX 010053Z 24011KT 10SM CLR 22/13 A2997 RMK AO2 SLP149 T02170133 $","updated":"2025-10-01T01:27:03Z"}
