{"icao":"KLAX","metar":"KLAX 261853Z VRB03KT 10SM CLR 25/04 A3008 RMK AO2 SLP186 T02500044","updated":"2025-11-26T19:14:44Z"}
