{"icao":"LPMT","metar":"LPMT 200700Z 36007KT 9999 FEW025 12/09 Q1019","updated":"2025-11-20T07:18:05Z"}
