{"icao":"KORD","metar":"KORD 221951Z VRB04KT 10SM FEW040 BKN120 BKN250 27/16 A2983 RMK AO2 SLP097 T02720161","updated":"2025-09-22T20:19:14Z"}
