{"icao":"LPMT","metar":"LPMT 271100Z 01008KT CAVOK 19/12 Q1021","updated":"2025-10-27T11:16:04Z"}
