{"icao":"KJFK","metar":"KJFK 240651Z 33009KT 10SM FEW250 01/M07 A3028 RMK AO2 SLP252 T00061067","updated":"2026-03-24T07:15:53Z"}
