{"icao":"LPMR","metar":"LPMR 151000Z 20016KT 5000 -RA FEW012 FEW018CB OVC024 15/13 Q1004","updated":"2025-11-15T10:17:17Z"}
