{"icao":"LPBJ","metar":"LPBJ 260917Z 24011KT 5000 -DZRA BKN006 OVC012 14/13 Q1016","updated":"2026-01-26T09:32:58Z"}
