{"icao":"LPMT","metar":"LPMT 130900Z 28018G32KT 9999 VCSH FEW022CB SCT025 14/09 Q1005","updated":"2026-02-13T09:42:07Z"}
