{"icao":"LPAZ","metar":"LPAZ 021230Z 06010KT 010V100 9999 FEW019 24/16 Q1027","updated":"2026-07-02T12:56:28Z"}
