{"icao":"LPOV","metar":"LPOV 231500Z 32009KT 270V350 CAVOK 17/13 Q1013","updated":"2026-04-23T15:51:19Z"}
