{"icao":"LPHR","metar":"LPHR 222300Z 29019KT 260V320 9999 FEW014 14/08 Q1001","updated":"2026-04-23T02:32:02Z"}
