{"icao":"LPFR","metar":"LPFR 150200Z 27011KT 9999 FEW010 BKN032 15/13 Q1016","updated":"2026-03-15T02:13:01Z"}
