{"icao":"LPST","metar":"LPST 131700Z 29009KT 9999 SCT020 14/10 Q1011","updated":"2026-01-13T19:19:01Z"}
