{"icao":"LPBJ","metar":"LPBJ 022000Z 27007KT CAVOK 23/12 Q1021","updated":"2025-10-02T20:18:53Z"}
