{"icao":"LPOV","metar":"LPOV 181800Z 26006KT 240V330 9999 FEW025 17/10 Q1020","updated":"2026-05-18T18:49:46Z"}
