{"icao":"LPFL","metar":"LPFL 251730Z VRB10G26KT 9999 FEW014 19/15 Q1024","updated":"2026-02-25T17:55:59Z"}
