{"icao":"LPBJ","metar":"LPBJ 101700Z 03006KT CAVOK 27/11 Q1018","updated":"2025-10-10T17:15:30Z"}
