{"icao":"LPPT","metar":"LPPT 131230Z VRB05KT CAVOK 26/13 Q1016","updated":"2025-10-13T12:37:02Z"}
