{"icao":"KJFK","metar":"KJFK 060551Z 21005KT 10SM SCT027 OVC065 02/M01 A2999 RMK AO2 SLP155 T00221006 10028 20017 58020 $","updated":"2026-01-06T06:33:13Z"}
