{"icao":"LPOV","metar":"LPOV 030500Z 33006KT 290V360 9999 SCT003 BKN008 15/14 Q1023","updated":"2025-10-03T05:16:50Z"}
