{"icao":"LPAZ","metar":"LPAZ 090200Z 23015KT 4500 BR FEW002 BKN005 17/16 Q1016","updated":"2026-02-09T02:06:13Z"}
