{"icao":"LPLA","metar":"LPLA 011900Z 07006KT 330V110 9999 VCSH SCT007 SCT014 BKN030 14/12 Q1032","updated":"2026-04-01T20:00:00Z"}
