{"icao":"LPSJ","metar":"LPSJ 021230Z 14010KT 110V180 9999 FEW008 SCT012 21/18 Q1029","updated":"2026-07-02T12:56:27Z"}
