{"icao":"LPPS","metar":"LPPS 090700Z 01006KT 9000 -RA SCT012 BKN030 14/13 Q1033","updated":"2026-01-09T07:24:57Z"}
