{"icao":"KJFK","metar":"KJFK 140451Z 20010KT 10SM FEW080 SCT120 04/03 A2983 RMK AO2 SLP099 T00440028 400501006","updated":"2026-03-14T05:43:39Z"}
