{"icao":"LPLA","metar":"LPLA 261200Z 22009KT 180V260 9999 FEW015 19/14 Q1023","updated":"2025-11-26T12:40:46Z"}
