{"icao":"LPST","metar":"LPST 190800Z 34004KT 9999 SCT018 11/06 Q1026","updated":"2026-02-19T08:41:30Z"}
