{"icao":"LPHR","metar":"LPHR 290600Z 22006KT 170V260 9999 FEW013 14/10 Q1006","updated":"2026-04-29T06:21:57Z"}
