{"icao":"KLAX","metar":"KLAX 041653Z 00000KT 10SM CLR 20/03 A3016 RMK AO2 SLP212 T02000028 $","updated":"2026-02-04T17:43:45Z"}
