{"icao":"LPCS","metar":"LPCS 202000Z 06004KT 350V140 CAVOK 11/07 Q1023","updated":"2025-11-20T20:21:07Z"}
