{"icao":"KJFK","metar":"KJFK 011851Z 18014KT 10SM FEW055 29/22 A2999 RMK SLP156 TCU DSNT NW T02890217 $ ","updated":"2026-07-01T19:51:56Z"}
