{"icao":"LPBJ","metar":"LPBJ 312200Z 19011KT 9999 -RA OVC040 19/16 Q1016","updated":"2025-10-31T22:16:50Z"}
