{"icao":"KLAX","metar":"KLAX 222353Z 25012KT 10SM CLR 21/14 A2993 RMK AO2 SLP133 T02110139 10222 20206 56006 $","updated":"2026-06-23T00:04:07Z"}
