{"icao":"LPPR","metar":"LPPR 230430Z 23007KT 190V260 9999 -SHRA SCT006 SCT015 BKN030 12/12 Q1008","updated":"2025-12-23T04:36:23Z"}
