{"icao":"LPMA","metar":"LPMA 060130Z 02017KT 9999 BKN015 14/06 Q1028","updated":"2026-03-06T02:00:27Z"}
