{"icao":"LPPT","metar":"LPPT 120800Z 16008KT 130V190 9999 FEW003 SCT006 BKN030 12/11 Q1020","updated":"2026-01-12T08:30:42Z"}
