{"icao":"LPMT","metar":"LPMT 281000Z 31015KT 280V340 8000 VCSH SCT018 BKN022 20/15 Q1013","updated":"2025-09-28T10:15:53Z"}
