{"icao":"LPFL","metar":"LPFL 020700Z 15004KT 100V180 9999 SCT007 BKN014 20/18 Q1029","updated":"2026-07-02T07:30:12Z"}
