{"icao":"KJFK","metar":"KJFK 100451Z 05005KT 10SM CLR 08/01 A3051 RMK AO2 SLP330 T00780006 401560078","updated":"2025-10-10T05:17:53Z"}
