{"icao":"LPLA","metar":"LPLA 181240Z 12009KT 5000 -DZ BR SCT004 SCT010 BKN020 15/14 Q1016","updated":"2026-04-18T13:00:15Z"}
