{"icao":"LPPR","metar":"LPPR 141700Z 32009KT 290V360 9999 FEW025 12/06 Q1027","updated":"2026-02-14T17:24:42Z"}
