{"icao":"KJFK","metar":"KJFK 261851Z 06014KT 10SM SCT035 SCT055 SCT080 14/03 A3012 RMK PK WND 02026/1835 SLP200 T01390033 $ ","updated":"2026-04-26T19:44:52Z"}
