{"icao":"LPFR","metar":"LPFR 120700Z 03007KT CAVOK 20/15 Q1015","updated":"2025-10-12T07:15:21Z"}
