{"icao":"LPPT","metar":"LPPT 141500Z 26011KT 2000 DZ BR FEW002 BKN006 13/13 Q1017","updated":"2026-03-14T15:27:11Z"}
