{"icao":"LPPT","metar":"LPPT 150230Z 29002KT CAVOK 19/10 Q1016","updated":"2025-10-15T03:03:22Z"}
