{"icao":"LPPD","metar":"LPPD 211400Z 28019KT 7000 BR SCT003 BKN005 16/16 Q1020","updated":"2026-01-21T14:29:46Z"}
