{"icao":"LPBJ","metar":"LPBJ 110100Z 07005KT CAVOK 19/11 Q1020","updated":"2025-10-11T01:15:38Z"}
