{"icao":"LPMR","metar":"LPMR 300100Z 16004KT 2000 BR FEW003 06/05 Q1021","updated":"2025-12-30T01:38:53Z"}
