{"icao":"LPFR","metar":"LPFR 211500Z 33014KT CAVOK 28/03 Q1016","updated":"2025-09-21T15:15:01Z"}
