{"icao":"LPFR","metar":"LPFR 180300Z 34006KT CAVOK 13/10 Q1016","updated":"2025-11-18T03:11:08Z"}
