{"icao":"LPFR","metar":"LPFR 050130Z 35003KT 310V050 9999 FEW012 12/11 Q1014","updated":"2026-03-05T01:59:49Z"}
