{"icao":"LPOV","metar":"LPOV 262000Z 04004KT CAVOK 15/10 Q1021","updated":"2025-10-26T20:18:47Z"}
