{"icao":"LPPT","metar":"LPPT 120800Z 07007KT CAVOK 22/15 Q1019","updated":"2026-06-12T08:23:38Z"}
