{"icao":"LPPR","metar":"LPPR 251200Z 02004KT 290V080 9999 -RA FEW027 15/13 Q1015","updated":"2025-10-25T12:32:55Z"}
