{"icao":"LPMA","metar":"LPMA 240500Z 34006KT 290V030 9999 SCT015 20/13 Q1020","updated":"2025-09-24T05:17:30Z"}
