{"icao":"LPFR","metar":"LPFR 180830Z 09010KT CAVOK 22/05 Q1016","updated":"2026-04-18T08:49:39Z"}
