{"icao":"LPMT","metar":"LPMT 280500Z 34005KT CAVOK 15/13 Q1008","updated":"2026-04-28T05:58:10Z"}
