{"icao":"LPPD","metar":"LPPD 030300Z 33001KT 9999 FEW018 21/19 Q1022","updated":"2025-10-03T03:27:38Z"}
