{"icao":"LPBJ","metar":"LPBJ 141000Z 16014KT 9999 SCT018CB SCT030 15/13 Q1006","updated":"2025-11-14T10:20:53Z"}
