{"icao":"LPPR","metar":"LPPR 041800Z 31008KT 260V330 9999 SCT027 SCT048 16/09 Q1016","updated":"2026-05-04T18:12:59Z"}
