{"icao":"LPBJ","metar":"LPBJ 130800Z VRB01KT 9999 FEW040 18/13 Q1016","updated":"2025-10-13T08:25:55Z"}
