{"icao":"KORD","metar":"KORD 301151Z 01004KT 10SM FEW250 18/17 A3020 RMK AO2 SLP224 T01830172 10194 20172 51008","updated":"2025-09-30T12:38:41Z"}
