{"icao":"KORD","metar":"KORD 241151Z 27004KT 10SM FEW035 02/M01 A3027 RMK AO2 SLP254 T00171011 10039 20017 51015","updated":"2025-10-24T12:38:59Z"}
