{"icao":"LPPR","metar":"LPPR 111430Z 33017G27KT 9999 SCT048 15/07 Q1016","updated":"2026-04-11T14:35:57Z"}
