{"icao":"KLAX","metar":"KLAX 011022Z 26005KT 10SM SCT008 BKN016 BKN055 16/14 A2992 RMK AO2 T01610144 $","updated":"2026-04-01T10:54:39Z"}
