{"icao":"LPMT","metar":"LPMT 261700Z 22013G23KT 180V250 8000 SCT014 BKN022 16/13 Q1010","updated":"2026-01-26T17:28:22Z"}
