{"icao":"LPPR","metar":"LPPR 310500Z 08004KT 8000 NSC 06/05 Q1019","updated":"2025-12-31T05:23:29Z"}
