{"icao":"LPPD","metar":"LPPD 200100Z 05012KT 020V080 9999 FEW020 17/13 Q1026","updated":"2025-11-20T01:22:25Z"}
