{"icao":"LPFL","metar":"LPFL 122000Z VRB04KT 9999 SCT016 18/12 Q1029","updated":"2026-03-12T20:33:29Z"}
