{"icao":"LPPR","metar":"LPPR 021500Z 13008KT 9999 VCSH FEW020 BKN032 16/11 Q1001","updated":"2026-01-02T15:20:25Z"}
