{"icao":"LPPD","metar":"LPPD 200430Z 25017KT 5000 -SHRA BR SCT002 BKN005 15/14 Q1012","updated":"2026-05-20T05:03:05Z"}
