{"icao":"LPFL","metar":"LPFL 130730Z 03007KT 350V060 9999 -DZ FEW010 SCT017 BKN034 15/12 Q1031","updated":"2026-05-13T07:48:05Z"}
