{"icao":"LPCS","metar":"LPCS 262300Z 02010KT CAVOK 14/09 Q1025","updated":"2026-02-27T06:52:20Z"}
