{"icao":"LPMA","metar":"LPMA 261930Z 01010KT 320V070 9999 BKN015 16/10 Q1024","updated":"2026-02-26T19:43:03Z"}
