{"icao":"KJFK","metar":"KJFK 272051Z 14008KT 10SM FEW250 03/M02 A3013 RMK AO2 SLP201 T00281017 57005","updated":"2026-02-27T21:27:59Z"}
