{"icao":"LPFL","metar":"LPFL 300900Z 30008G20KT 230V020 9999 BKN015 17/11 Q1008","updated":"2025-10-30T09:20:05Z"}
