{"icao":"LPPT","metar":"LPPT 021700Z 15009KT 8000 -SHRA FEW003 SCT016 FEW025CB 14/14 Q0999 RESHRA","updated":"2026-01-02T17:16:42Z"}
