{"icao":"LPST","metar":"LPST 190800Z 34008KT 6000 SCT006 BKN020 11/10 Q1019","updated":"2025-12-19T08:27:45Z"}
