{"icao":"LPHR","metar":"LPHR 240700Z 29025KT 9000 SCT015 BKN030 15/11 Q1011","updated":"2026-02-24T07:07:17Z"}
