{"icao":"LPST","metar":"LPST 051600Z 35019G29KT 320V020 9999 FEW025 09/00 Q1014","updated":"2026-01-05T16:26:23Z"}
