{"icao":"LPBJ","metar":"LPBJ 241500Z 29014KT 9999 FEW020 BKN030 11/05 Q1013","updated":"2026-01-24T15:19:07Z"}
