{"icao":"LPPD","metar":"LPPD 091130Z 01011KT 340V050 6000 -SHRA FEW007 BKN011 16/15 Q1033","updated":"2026-04-09T11:56:44Z"}
