{"icao":"KLAX","metar":"KLAX 022302Z 12009KT 7SM -RA FEW004 OVC007 17/17 A3002 RMK AO2 P0000 T01720167 $","updated":"2026-01-02T23:18:04Z"}
