{"icao":"LPCS","metar":"LPCS 220900Z 06006KT 020V080 9999 FEW044 14/10 Q1011","updated":"2026-03-22T09:31:01Z"}
