{"icao":"LPMA","metar":"LPMA 070500Z 04009KT 360V060 9999 -RADZ BKN013 20/18 Q1023","updated":"2025-10-07T05:16:42Z"}
