{"icao":"LPPS","metar":"LPPS 181600Z 33008KT 290V360 9999 FEW005 SCT010 23/21 Q1015","updated":"2025-10-18T16:19:32Z"}
