{"icao":"LPBJ","metar":"LPBJ 261800Z 28005KT CAVOK 08/01 Q1014","updated":"2025-12-26T18:28:06Z"}
