{"icao":"LPHR","metar":"LPHR 190800Z 08003KT 020V140 9999 FEW014 SCT030 16/12 Q1026","updated":"2025-11-19T08:25:13Z"}
