{"icao":"LPBJ","metar":"LPBJ 010900Z 18013KT CAVOK 18/15 Q1018","updated":"2025-11-01T09:16:50Z"}
