{"icao":"LPMA","metar":"LPMA 220100Z 02010KT 9999 SCT015 BKN030 21/16 Q1022","updated":"2025-09-22T01:24:09Z"}
