{"icao":"KJFK","metar":"KJFK 181451Z 32019G27KT 10SM FEW080 SCT250 06/M06 A3017 RMK AO2 PK WND 32027/1450 SLP217 T00611061 51013 $","updated":"2025-11-18T15:20:57Z"}
