{"icao":"LPPS","metar":"LPPS 190700Z 34004KT 9999 VCSH SCT014 SCT030 16/14 Q1019","updated":"2025-11-19T07:18:39Z"}
