{"icao":"LPMR","metar":"LPMR 041200Z 35008KT 9999 BKN016 20/15 Q1025","updated":"2025-10-04T12:31:36Z"}
