{"icao":"KLAX","metar":"KLAX 012153Z 27010KT 10SM FEW220 SCT270 23/13 A2995 RMK AO2 SLP142 T02280133","updated":"2026-03-01T22:22:27Z"}
