{"icao":"LPFR","metar":"LPFR 050630Z 06006KT 040V100 CAVOK 15/02 Q1020","updated":"2026-04-05T07:04:10Z"}
