{"icao":"KJFK","metar":"KJFK 181551Z 12009KT 10SM FEW250 07/M01 A3033 RMK AO2 SLP271 T00671006","updated":"2025-12-18T16:28:47Z"}
