{"icao":"KLAX","metar":"KLAX 191853Z 26009KT 10SM FEW005 FEW240 SCT300 22/14 A2993 RMK AO2 SLP135 T02170139 $","updated":"2026-04-19T19:40:23Z"}
