{"icao":"KORD","metar":"KORD 190551Z 28011G19KT 6SM -RA BR FEW010 SCT045 OVC070 15/13 A2955 RMK AO2 SLP003 P0008 60038 T01500128 10206 20150 402280150 57019 $","updated":"2025-10-19T06:25:38Z"}
