{"icao":"KORD","metar":"KORD 241251Z 31004KT 10SM FEW035 02/M01 A3027 RMK AO2 SLP254 T00221011","updated":"2025-10-24T13:29:24Z"}
