{"icao":"LPBJ","metar":"LPBJ 272100Z 33005KT CAVOK 24/10 Q1019","updated":"2026-05-27T21:53:09Z"}
