{"icao":"LPHR","metar":"LPHR 140800Z 11007KT 090V150 9999 SCT013 FEW015TCU BKN030 18/16 Q1007","updated":"2025-10-14T08:22:05Z"}
