{"icao":"LPFR","metar":"LPFR 042200Z 33007KT 300V360 9999 FEW025 15/10 Q1004","updated":"2026-01-04T22:18:51Z"}
