{"icao":"LPMR","metar":"LPMR 230400Z VRB01KT CAVOK 10/10 Q1012","updated":"2026-04-23T05:28:49Z"}
