{"icao":"KLAX","metar":"KLAX 030153Z 25008KT 10SM FEW010 FEW055 SCT250 17/12 A2992 RMK AO2 SLP131 T01720122 $","updated":"2026-04-03T02:11:10Z"}
