{"icao":"LPPR","metar":"LPPR 050630Z 33004KT 9999 SCT012 BKN017 12/10 Q1016","updated":"2026-03-05T06:51:00Z"}
