{"icao":"KJFK","metar":"KJFK 121451Z 30016G24KT 10SM FEW060 FEW250 M02/M13 A3006 RMK AO2 SLP178 T10171128 53012","updated":"2025-12-12T15:21:19Z"}
