{"icao":"LPFR","metar":"LPFR 041500Z 10011KT CAVOK 23/02 Q1021","updated":"2026-04-04T15:30:30Z"}
