{"icao":"LPPR","metar":"LPPR 190900Z VRB04KT 9000 -RA BKN045 06/05 Q1020","updated":"2026-01-19T09:32:53Z"}
