{"icao":"LPMT","metar":"LPMT 241900Z 22004KT 8000 FEW020 14/12 Q1015","updated":"2026-02-24T19:51:47Z"}
