{"icao":"KLAX","metar":"KLAX 210753Z 11003KT 10SM CLR 18/16 A2992 RMK AO2 SLP129 T01780156 402940172","updated":"2026-03-21T08:31:51Z"}
