{"icao":"LPHR","metar":"LPHR 220800Z 06010KT 030V100 9999 FEW014 14/08 Q1020","updated":"2026-03-22T08:33:14Z"}
