{"icao":"LPMA","metar":"LPMA 262100Z 03012KT 350V050 9999 SCT016 SCT030 19/10 Q1023","updated":"2025-11-26T21:16:47Z"}
