{"icao":"KLAX","metar":"KLAX 131453Z 09005KT 10SM CLR 11/M01 A3019 RMK AO2 SLP221 T01111006 53009 $","updated":"2026-01-13T15:23:54Z"}
