{"icao":"LPPT","metar":"LPPT 060700Z 04004KT 310V100 CAVOK 16/12 Q1019","updated":"2025-10-06T07:17:52Z"}
