{"icao":"LPAZ","metar":"LPAZ 242300Z 06007KT 010V090 9999 FEW022 BKN027 14/09 Q1029","updated":"2026-03-24T23:31:05Z"}
