{"icao":"LPPD","metar":"LPPD 221900Z 17013KT 9999 FEW018 16/13 Q1022","updated":"2026-02-22T19:23:27Z"}
