{"icao":"LPMT","metar":"LPMT 310300Z 03006KT 0100 FG VV002 08/08 Q1019","updated":"2025-12-31T03:25:47Z"}
