{"icao":"LPPD","metar":"LPPD 131230Z 32013KT 290V350 9999 VCSH FEW020 FEW025CB 16/11 Q1006","updated":"2025-11-13T12:40:06Z"}
