{"icao":"KJFK","metar":"KJFK 230051Z 24013KT 10SM SCT110 BKN210 BKN250 02/M05 A3045 RMK AO2 SLP309 T00171050 $","updated":"2025-12-23T01:38:35Z"}
