{"icao":"LPPD","metar":"LPPD 281130Z 20015KT 9999 FEW018 18/15 Q1022","updated":"2026-05-28T11:37:36Z"}
