{"icao":"LPPS","metar":"LPPS 180700Z 02010KT 350V050 9999 SCT015 18/13 Q1022","updated":"2025-11-18T07:18:33Z"}
