{"icao":"KJFK","metar":"KJFK 281151Z 27006KT 10SM FEW035 M09/M16 A3017 RMK AO2 SLP216 4/007 T10941161 11083 21094 51018 $","updated":"2026-01-28T12:48:11Z"}
