{"icao":"KORD","metar":"KORD 191217Z 31013G22KT 9SM -RA BKN013 OVC019 11/09 A2956 RMK AO2 PK WND 32026/1153 P0002 T01060089 $","updated":"2025-10-19T12:33:30Z"}
