{"icao":"LPHR","metar":"LPHR 032000Z 25014KT 9999 SCT008 BKN012 20/19 Q1009","updated":"2025-11-03T20:20:36Z"}
