{"icao":"KJFK","metar":"KJFK 051951Z 19009KT 1SM R04R/P6000FT RA BR FEW003 SCT040 OVC085 11/10 A2979 RMK AO2 SFC VIS 1 1/2 SLP087 P0003 T01060100","updated":"2026-04-05T20:32:04Z"}
