{"icao":"LPPR","metar":"LPPR 140330Z 00000KT CAVOK 13/11 Q1016","updated":"2025-10-14T03:36:24Z"}
