{"icao":"KORD","metar":"KORD 182151Z 06011KT 9SM OVC008 06/04 A2995 RMK AO2 SLP147 T00560039","updated":"2025-11-18T22:18:48Z"}
