{"icao":"KORD","metar":"KORD 181228Z 11014G21KT 5SM -RA BR FEW009 BKN022 OVC040 04/03 A2999 RMK AO2 P0007 T00440028 $","updated":"2025-11-18T12:39:07Z"}
