{"icao":"KORD","metar":"KORD 020051Z 07007KT 10SM OVC300 21/14 A3019 RMK AO2 SLP220 T02110144","updated":"2025-10-02T01:17:15Z"}
