{"icao":"LPPD","metar":"LPPD 141400Z 03009KT 340V080 9999 FEW025 BKN040 16/10 Q1030","updated":"2026-05-14T14:07:51Z"}
