{"icao":"KORD","metar":"KORD 012112Z 05014G25KT 10SM SCT016 OVC025 04/M01 A3016 RMK AO2 T00391006","updated":"2026-04-01T21:42:58Z"}
