{"icao":"LPPR","metar":"LPPR 211830Z 33004KT CAVOK 15/12 Q1010","updated":"2026-03-21T18:34:46Z"}
