{"icao":"LPPR","metar":"LPPR 232200Z 22010KT 190V250 9000 -RADZ FEW005 BKN013 14/14 Q1020","updated":"2025-11-23T22:17:00Z"}
