{"icao":"LPAZ","metar":"LPAZ 042200Z 01022KT 9999 FEW022 SCT038 13/06 Q1030","updated":"2026-03-04T22:29:49Z"}
