{"icao":"LPBJ","metar":"LPBJ 111100Z 06005KT 320V130 CAVOK 14/08 Q1026","updated":"2026-03-11T11:32:11Z"}
