{"icao":"LPAR","metar":"LPAR 161300Z 04006KT CAVOK 21/11 Q1020","updated":"2026-03-16T13:09:17Z"}
