{"icao":"LPFL","metar":"LPFL 071100Z 17005KT 140V200 9999 -SHRA SCT022 23/18 Q1021","updated":"2025-10-07T11:15:01Z"}
