{"icao":"LPPS","metar":"LPPS 030100Z 05007KT 020V080 9999 FEW015 SCT030 17/09 Q1026","updated":"2025-12-03T01:26:14Z"}
