{"icao":"KORD","metar":"KORD 040251Z 33012G24KT 10SM OVC028 M04/M10 A3017 RMK AO2 SLP226 60000 T10441100 51034","updated":"2025-12-04T03:18:31Z"}
