{"icao":"LPPD","metar":"LPPD 242300Z 25017KT 8000 FEW005 BKN008 16/15 Q1020","updated":"2026-01-24T23:18:54Z"}
