{"icao":"LPMR","metar":"LPMR 272000Z 35004KT CAVOK 10/07 Q1025","updated":"2025-11-27T20:18:23Z"}
