{"icao":"LPLA","metar":"LPLA 191900Z 35024G37KT 9999 FEW007 BKN012 BKN018 15/12 Q1006 R MK WIND RWY15 36029G40KT PK 36040/57 RH83 GRN","updated":"2026-03-19T19:47:50Z"}
