{"icao":"KJFK","metar":"KJFK 270551Z 06009KT 1/2SM R04R/P6000FT -SN BR BKN006 BKN011 OVC018 M02/M02 A2989 RMK AO2 SFC VIS 3/4 SLP120 SNINCR1/3 4/003 P0005 60033 T10171022 11017 21039 56023 $","updated":"2025-12-27T06:29:40Z"}
