{"icao":"LPFR","metar":"LPFR 031230Z 17006KT CAVOK 26/15 Q1022","updated":"2025-10-03T12:35:09Z"}
