{"icao":"LPMT","metar":"LPMT 030500Z 10004KT CAVOK 09/09 Q1023","updated":"2025-11-03T05:18:56Z"}
