{"icao":"LPMT","metar":"LPMT 230400Z 03005KT CAVOK 09/09 Q1024","updated":"2026-02-23T04:56:42Z"}
