{"icao":"KLAX","metar":"KLAX 231353Z 36003KT 10SM FEW200 SCT250 13/02 A3016 RMK AO2 SLP210 T01330017 $","updated":"2026-02-23T14:43:51Z"}
