{"icao":"KORD","metar":"KORD 230901Z 30009G20KT 10SM BKN020 BKN250 M18/M24 A3041 RMK AO2 T11831244 $","updated":"2026-01-23T09:28:43Z"}
