{"icao":"KORD","metar":"KORD 291351Z 00000KT 10SM CLR 22/16 A3023 RMK AO2 SLP233 T02170156","updated":"2025-09-29T14:18:31Z"}
