{"icao":"LPST","metar":"LPST 180900Z VRB01KT CAVOK 10/09 Q1020","updated":"2025-11-18T09:20:29Z"}
