{"icao":"LPPT","metar":"LPPT 100800Z 04009KT CAVOK 20/10 Q1021","updated":"2025-10-10T08:23:00Z"}
