{"icao":"LPMR","metar":"LPMR 222300Z 04002KT CAVOK 13/11 Q1014","updated":"2026-04-22T23:43:38Z"}
