{"icao":"LPST","metar":"LPST 201400Z 26009KT 9999 SCT018 BKN032 13/09 Q1018","updated":"2026-01-20T14:29:43Z"}
