{"icao":"LPMT","metar":"LPMT 161700Z 27003KT 240V310 CAVOK 23/15 Q1013","updated":"2025-10-16T17:15:47Z"}
