{"icao":"LPBJ","metar":"LPBJ 080800Z 12007KT 9999 BCFG FEW025 08/08 Q1016","updated":"2026-04-08T08:59:31Z"}
