{"icao":"KLAX","metar":"KLAX 141242Z 08004KT 10SM FEW018 12/10 A3009 RMK AO2 T01170100","updated":"2026-02-14T12:44:40Z"}
