{"icao":"LPBJ","metar":"LPBJ 040800Z 04008KT 9999 BKN035 11/10 Q0999","updated":"2026-01-04T08:26:02Z"}
