{"icao":"LPAZ","metar":"LPAZ 190600Z 02016KT 9000 SCT003 BKN010 18/18 Q1016","updated":"2025-09-19T06:26:21Z"}
