{"icao":"KJFK","metar":"KJFK 231651Z 24016KT 10SM SCT055 SCT120 16/04 A2992 RMK AO2 SLP130 T01610044","updated":"2025-10-23T17:16:04Z"}
