{"icao":"LPLA","metar":"LPLA 211200Z VRB02KT 9999 FEW025 BKN040 20/16 Q1029","updated":"2025-09-21T12:32:10Z"}
