{"icao":"LPMT","metar":"LPMT 211600Z 25011KT CAVOK 33/15 Q1016","updated":"2026-06-21T16:44:12Z"}
