{"icao":"LPMR","metar":"LPMR 072300Z 14006KT CAVOK 15/12 Q1022","updated":"2025-12-07T23:16:27Z"}
