{"icao":"LPCS","metar":"LPCS 132200Z 24011KT 210V290 9999 FEW006 SCT014 16/13 Q0999","updated":"2025-11-13T22:18:00Z"}
