{"icao":"LPPR","metar":"LPPR 131130Z 22007KT 190V270 9999 SCT006 BKN018 13/11 Q1021","updated":"2026-04-13T12:01:32Z"}
