{"icao":"KLAX","metar":"KLAX 120153Z 27012KT 10SM FEW040 FEW250 15/09 A3012 RMK AO2 SLP198 T01500094","updated":"2026-02-12T02:05:41Z"}
