{"icao":"LPLA","metar":"LPLA 031800Z 07009KT 030V110 9999 SCT026 16/09 Q1023","updated":"2026-05-03T18:57:48Z"}
