{"icao":"LPPS","metar":"LPPS 070130Z 04007KT 010V070 9999 SCT015 14/07 Q1030","updated":"2026-01-07T01:40:39Z"}
