{"icao":"LPOV","metar":"LPOV 130700Z 30018KT 6000 -SHRA BKN014 FEW020CB BKN040 13/11 Q0998","updated":"2026-02-13T07:08:41Z"}
