{"icao":"KJFK","metar":"KJFK 282051Z 18009KT 10SM FEW025 FEW085 SCT250 24/19 A3005 RMK AO2 SLP174 T02440189 55004","updated":"2025-09-28T21:14:09Z"}
