{"icao":"LPCS","metar":"LPCS 181930Z 32008KT 280V350 9999 FEW014 SCT020 13/10 Q1021","updated":"2026-02-18T19:47:13Z"}
