{"icao":"LPFL","metar":"LPFL 231730Z 01005KT 320V080 9999 FEW005 SCT022 21/17 Q1021","updated":"2026-05-23T17:59:28Z"}
