{"icao":"LPLA","metar":"LPLA 201311Z 30027G40KT 7000 -SHRA BKN018 BKN035 18/15 Q1023","updated":"2026-01-20T13:45:44Z"}
