{"icao":"KJFK","metar":"KJFK 312251Z 27020G33KT 10SM SCT070 13/01 A2952 RMK AO2 PK WND 27036/2207 SLP996 T01330006 $","updated":"2025-10-31T23:16:30Z"}
