{"icao":"KJFK","metar":"KJFK 260551Z 01012KT 10SM BKN010 OVC032 M05/M07 A2973 RMK AO2 SNE32 SLP068 4/008 P0000 60013 T10501067 11044 21061 50011 $","updated":"2026-01-26T06:36:01Z"}
