{"icao":"LPMT","metar":"LPMT 081400Z 22008KT 200V260 9999 FEW025 SCT035 14/10 Q1015","updated":"2026-02-08T14:26:30Z"}
