{"icao":"LPFL","metar":"LPFL 261800Z 32013G31KT 210V010 9999 FEW016 SCT020 FEW022CB 09/03 Q1005","updated":"2026-01-26T18:34:20Z"}
