{"icao":"LPFL","metar":"LPFL 051800Z 17011KT 140V200 9999 SCT012 23/20 Q1017","updated":"2025-10-05T18:21:58Z"}
