{"icao":"LPMT","metar":"LPMT 080900Z 35005KT CAVOK 13/09 Q1021 RMK BLU","updated":"2026-03-08T09:27:57Z"}
