{"icao":"KLAX","metar":"KLAX 192053Z 25011KT 10SM FEW027 FEW050 SCT180 BKN250 16/09 A3003 RMK AO2 SLP169 TCU DSNT SE T01610094 58017 $","updated":"2025-11-19T21:14:51Z"}
