{"icao":"LPFL","metar":"LPFL 172030Z 34005KT 280V050 9999 SCT018 16/10 Q1022","updated":"2026-02-17T20:36:12Z"}
