{"icao":"LPMA","metar":"LPMA 111830Z 02006KT 340V050 9999 BKN015 18/12 Q1026","updated":"2026-02-11T19:01:29Z"}
