{"icao":"LPAR","metar":"LPAR 161600Z 35022G40KT 9999 FEW022 13/08 Q1012","updated":"2025-12-16T17:22:23Z"}
