{"icao":"LPAZ","metar":"LPAZ 091930Z 21018KT 4000 BR FEW001 BKN007 BKN015 17/17 Q1014","updated":"2026-02-09T20:03:26Z"}
