{"icao":"LPFL","metar":"LPFL 051300Z 17014G25KT 130V220 8000 -RA FEW018 17/14 Q1012","updated":"2025-11-05T13:31:13Z"}
