{"icao":"LPPD","metar":"LPPD 211000Z 05006KT 020V080 9999 FEW020 SCT045 21/13 Q1028","updated":"2025-09-21T10:16:18Z"}
