{"icao":"LPCS","metar":"LPCS 231500Z 23004KT 190V260 9999 FEW020 BKN030 16/11 Q1025","updated":"2025-11-23T15:16:34Z"}
