{"icao":"KJFK","metar":"KJFK 131351Z 04018G25KT 3SM -RA BR BKN010 OVC018 14/13 A2990 RMK AO2 PK WND 04029/1307 SLP126 CIG 008V012 P0006 T01390128","updated":"2025-10-13T14:19:07Z"}
