{"icao":"LPMA","metar":"LPMA 101800Z 35007KT 330V030 9999 FEW016 17/10 Q1025","updated":"2025-12-10T18:28:52Z"}
