{"icao":"LPBJ","metar":"LPBJ 020500Z 21002KT 180V260 CAVOK 17/12 Q1020","updated":"2025-10-02T05:16:24Z"}
