{"icao":"LPPR","metar":"LPPR 061500Z 27005KT 220V320 2800 SHRA BR FEW020 SCT023TCU BKN029 14/12 Q1016","updated":"2025-11-06T15:20:17Z"}
