{"icao":"LPBJ","metar":"LPBJ 251810Z 20008KT 8000 VCSH FEW025 FEW030CB BKN040 18/17 Q1014","updated":"2026-04-25T18:51:01Z"}
