{"icao":"KLAX","metar":"KLAX 300253Z 34004KT 10SM FEW250 18/M06 A3013 RMK AO2 SLP202 T01831056 53019 $","updated":"2025-12-30T03:26:38Z"}
