{"icao":"LPBJ","metar":"LPBJ 241200Z 15006KT 110V210 CAVOK 26/03 Q1017","updated":"2025-09-24T12:36:15Z"}
