{"icao":"LPPS","metar":"LPPS 111830Z 30009KT 9999 FEW015 BKN030 18/13 Q1026","updated":"2026-02-11T19:01:29Z"}
