{"icao":"KJFK","metar":"KJFK 051851Z 30006KT 10SM FEW250 M01/M11 A3002 RMK AO2 SLP164 T10061111 PNO $","updated":"2026-02-05T19:35:52Z"}
