{"icao":"KLAX","metar":"KLAX 272253Z 26013KT 10SM SCT018 21/14 A2994 RMK AO2 SLP137 T02110144","updated":"2026-06-27T23:00:25Z"}
