{"icao":"LPST","metar":"LPST 290900Z 14003KT 110V170 9999 2000S SCT002 18/17 Q1007","updated":"2025-10-29T09:19:15Z"}
