{"icao":"LPPT","metar":"LPPT 232030Z 31008KT CAVOK 16/12 Q1016","updated":"2026-03-23T20:36:29Z"}
