{"icao":"LPMT","metar":"LPMT 211200Z 02008KT CAVOK 14/09 Q1030","updated":"2026-02-21T12:44:04Z"}
