{"icao":"LPPS","metar":"LPPS 051500Z 08009KT 030V110 9999 SCT014 19/13 Q1016","updated":"2026-04-05T15:31:41Z"}
