{"icao":"LPFL","metar":"LPFL 061700Z 18015G25KT 9999 FEW018 17/13 Q1029","updated":"2026-01-06T17:22:15Z"}
