{"icao":"KORD","metar":"KORD 020351Z 29004KT 10SM OVC043 M07/M12 A2989 RMK AO2 SLP134 T10671117 $","updated":"2026-01-02T04:39:57Z"}
