{"icao":"LPHR","metar":"LPHR 100900Z 18025G36KT 3000 RA BR SCT005 BKN008 BKN025 17/16 Q1015","updated":"2025-12-10T09:23:39Z"}
