{"icao":"KJFK","metar":"KJFK 172151Z 07008KT 10SM FEW014 BKN036 BKN070 22/14 A3003 RMK AO2 RAB25E37 SLP168 P0000 T02220144 $","updated":"2025-09-17T22:14:54Z"}
