{"icao":"KORD","metar":"KORD 181051Z 28014G22KT 10SM OVC011 09/07 A2968 RMK AO2 SLP049 T00940067 $","updated":"2026-04-18T11:33:38Z"}
