{"icao":"KJFK","metar":"KJFK 060451Z 32019G25KT 10SM BKN042 OVC055 08/00 A2993 RMK AO2 PK WND 31026/0405 SLP134 T00830000 401390056","updated":"2026-04-06T05:22:25Z"}
