{"icao":"LPPD","metar":"LPPD 022000Z 01005KT 9999 SCT015 BKN030 19/17 Q1019","updated":"2025-11-02T20:17:34Z"}
