{"icao":"LPPS","metar":"LPPS 092200Z 35017KT 9999 SCT014 18/13 Q1023","updated":"2025-12-09T22:19:26Z"}
