{"icao":"LPAZ","metar":"LPAZ 260930Z 04007KT 010V070 9999 SCT006 BKN014 14/12 Q1028","updated":"2026-03-26T10:00:40Z"}
