{"icao":"LPMA","metar":"LPMA 282200Z 36014KT 330V040 9999 SCT015 14/09 Q1026","updated":"2026-02-28T22:20:54Z"}
