{"icao":"KJFK","metar":"KJFK 160051Z 36013KT 10SM FEW050 BKN150 14/06 A2996 RMK AO2 SLP145 T01390056","updated":"2025-10-16T01:20:02Z"}
