{"icao":"LPOV","metar":"LPOV 101100Z 22011KT 1200 -RA BR BKN003 SCT010 15/15 Q1012","updated":"2026-02-10T13:10:49Z"}
