{"icao":"LPLA","metar":"LPLA 150700Z 23005KT 9999 FEW015 BKN022 14/13 Q1030","updated":"2026-03-15T07:43:54Z"}
