{"icao":"LPFR","metar":"LPFR 261000Z 20004KT 170V230 9999 FEW012 SCT030 22/19 Q1018","updated":"2025-10-26T10:16:54Z"}
