{"icao":"KJFK","metar":"KJFK 191651Z 17007KT 10SM BKN075 OVC250 03/M06 A3030 RMK AO2 SLP260 T00281056","updated":"2026-03-19T16:56:42Z"}
