{"icao":"KORD","metar":"KORD 251551Z 26004KT 5SM BR OVC007 09/08 A2978 RMK AO2 SLP085 T00940078","updated":"2025-11-25T16:26:47Z"}
