{"icao":"LPFL","metar":"LPFL 211900Z 01005KT 330V070 9999 SCT028 15/09 Q1020","updated":"2026-02-21T19:22:55Z"}
