{"icao":"KLAX","metar":"KLAX 310853Z 05012G23KT 10SM BKN120 BKN200 20/02 A3006 RMK AO2 SLP176 T02000017 51008 $","updated":"2025-12-31T09:23:40Z"}
