{"icao":"LPLA","metar":"LPLA 091800Z 18016G26KT 8000 -RA FEW010 SCT015 BKN024 17/15 Q1024","updated":"2026-01-09T18:30:51Z"}
