{"icao":"LPHR","metar":"LPHR 041800Z 06016KT 020V080 9999 FEW020 SCT040 17/10 Q1025","updated":"2026-05-04T18:13:19Z"}
