{"icao":"LPOV","metar":"LPOV 210800Z 17015KT 2000 -RA BR BKN004 BKN016 12/12 Q1003 RERA","updated":"2026-01-21T08:30:17Z"}
