{"icao":"LPMT","metar":"LPMT 111000Z 21010G20KT 190V260 9999 SCT026 19/12 Q1014","updated":"2026-05-11T10:37:11Z"}
