{"icao":"LPPR","metar":"LPPR 222200Z 13007KT 100V170 9999 -RA BKN046 10/09 Q1012","updated":"2025-12-22T22:19:09Z"}
