{"icao":"LPST","metar":"LPST 251300Z 20011KT 170V230 CAVOK 26/11 Q1022","updated":"2026-05-25T13:57:58Z"}
