{"icao":"LPLA","metar":"LPLA 060800Z 18008KT 140V240 9999 FEW008 22/19 Q1017","updated":"2025-10-06T08:24:04Z"}
