{"icao":"KJFK","metar":"KJFK 222208Z 08006KT 10SM SCT017 BKN100 10/06 A3000 RMK T01000056 ","updated":"2026-04-22T22:45:50Z"}
