{"icao":"KJFK","metar":"KJFK 180751Z 18009G16KT 3SM OVC004 20/19 A2977 RMK AO2 SFC VIS 10 SLP080 T02000189 $","updated":"2026-06-18T08:45:22Z"}
