{"icao":"KJFK","metar":"KJFK 171851Z 34010G18KT 10SM FEW140 SCT250 17/00 A2994 RMK AO2 SLP137 T01720000","updated":"2025-10-17T19:14:12Z"}
