{"icao":"LPLA","metar":"LPLA 111400Z 11009KT 080V140 9999 SCT017 SCT030 21/16 Q1026","updated":"2026-06-11T14:34:00Z"}
