{"icao":"LPAZ","metar":"LPAZ 100700Z 20014KT 9999 FEW009 BKN017 17/16 Q1026","updated":"2026-01-10T07:18:11Z"}
