{"icao":"LPPR","metar":"LPPR 130800Z 12006KT CAVOK 16/13 Q1022"}
