{"icao":"LPLA","metar":"LPLA 172300Z 30012KT 5000 -DZ SCT004 BKN010 17/17 Q1025","updated":"2025-11-17T23:17:06Z"}
