{"icao":"LPBJ","metar":"LPBJ 051700Z 26016KT 7000 -SHRA SCT020CB BKN022 14/11 Q1001 RESHRA","updated":"2026-02-05T17:45:44Z"}
