{"icao":"KJFK","metar":"KJFK 012251Z 02015KT 10SM FEW060 BKN090 BKN100 BKN250 20/13 A3012 RMK AO2 SLP198 T02000133","updated":"2026-04-01T23:34:54Z"}
