{"icao":"LPCS","metar":"LPCS 081900Z 16006KT 130V200 3000 RADZ BR VV003 13/13 Q1011","updated":"2026-02-08T21:25:30Z"}
