{"icao":"LPMA","metar":"LPMA 122200Z 23008KT 210V270 9999 FEW015 FEW018TCU 18/14 Q1002","updated":"2025-11-12T22:17:49Z"}
