{"icao":"KLAX","metar":"KLAX 022209Z 06009KT 2 1/2SM BR BKN007 OVC012 17/16 A3003 RMK AO2 VIS S-W 2 T01670156 $","updated":"2026-01-02T22:19:12Z"}
