{"icao":"LPHR","metar":"LPHR 280900Z 03009KT 9999 FEW035 14/07 Q1027","updated":"2025-11-28T09:20:02Z"}
