{"icao":"LPBJ","metar":"LPBJ 232300Z 15008KT CAVOK 13/07 Q1022","updated":"2026-02-23T23:33:16Z"}
