{"icao":"LPFL","metar":"LPFL 022100Z 18007KT 140V220 9999 FEW010 SCT015 19/16 Q1016","updated":"2025-11-03T04:27:30Z"}
