{"icao":"KJFK","metar":"KJFK 280051Z 00000KT 10SM FEW050 FEW250 09/01 A3035 RMK AO2 SLP277 T00940006","updated":"2025-10-28T01:20:24Z"}
