{"icao":"KLAX","metar":"KLAX 211053Z 05012KT 9SM FEW007 SCT010 BKN026 OVC150 12/11 A2981 RMK AO2 RAE23 TSE08 SLP094 CB DSNT N-NE AND DSNT W P0001 T01220111 $","updated":"2025-11-21T11:16:03Z"}
