{"icao":"LPMA","metar":"LPMA 232100Z 27007KT 9999 FEW015 17/11 Q1019","updated":"2025-12-23T21:18:29Z"}
