{"icao":"LPFR","metar":"LPFR 032300Z 35008KT 330V030 CAVOK 25/06 Q1021","updated":"2025-10-03T23:15:05Z"}
