{"icao":"KORD","metar":"KORD 291317Z 27017G30KT 1 1/2SM -SN BLSN OVC016 M08/M12 A2979 RMK AO2 PK WND 28033/1257 P0000 T10831117 $","updated":"2025-12-29T13:36:42Z"}
