{"icao":"KORD","metar":"KORD 252351Z 16012KT 10SM FEW075 SCT250 27/11 A3004 RMK AO2 SLP167 T02670106 10283 20267 56008 $","updated":"2026-05-26T00:04:24Z"}
