{"icao":"LPMT","metar":"LPMT 051300Z 36013KT 330V030 9999 FEW035 10/M01 Q1014","updated":"2026-01-05T13:39:40Z"}
