{"icao":"LPBJ","metar":"LPBJ 170600Z 08001KT CAVOK 15/14 Q1014","updated":"2025-10-17T06:26:28Z"}
