{"icao":"LPMA","metar":"LPMA 060630Z 01017KT 330V030 9999 SCT014 14/06 Q1027","updated":"2026-03-06T06:45:59Z"}
