{"icao":"LPCS","metar":"LPCS 011000Z 11005KT 070V150 CAVOK 26/13 Q1021","updated":"2025-10-01T10:18:30Z"}
