{"icao":"KJFK","metar":"KJFK 171451Z 21009KT 3SM BR OVC005 01/01 A3017 RMK AO2 SFC VIS 4 SLP214 T00110006 58003 $","updated":"2026-02-17T15:51:45Z"}
