{"icao":"LPFR","metar":"LPFR 040230Z 24005KT CAVOK 20/15 Q1020","updated":"2025-10-04T02:49:58Z"}
