{"icao":"LPPD","metar":"LPPD 051400Z 29024G34KT 8000 -SHRA FEW013 FEW020CB BKN035 11/07 Q1005","updated":"2026-02-05T14:08:21Z"}
