{"icao":"KLAX","metar":"KLAX 220953Z 00000KT 10SM SCT250 12/05 A3020 RMK AO2 SLP223 T01170050 $","updated":"2026-02-22T10:23:32Z"}
