{"icao":"KLAX","metar":"KLAX 061453Z 09005KT 10SM FEW010 15/13 A3013 RMK AO2 SLP200 T01500133 53007 $","updated":"2026-02-06T15:38:39Z"}
