{"icao":"LPBJ","metar":"LPBJ 091000Z 02008KT 350V050 9999 FEW014 14/11 Q1016","updated":"2026-04-09T10:57:16Z"}
