{"icao":"LPFR","metar":"LPFR 230000Z 09006KT CAVOK 21/13 Q1020","updated":"2026-05-23T00:05:18Z"}
