{"icao":"LPPT","metar":"LPPT 030800Z 31009KT 290V350 9999 FEW008 16/14 Q1023","updated":"2025-10-03T08:21:59Z"}
