{"icao":"LPLA","metar":"LPLA 011613Z 36008G18KT 340V060 9999 FEW009 SCT023 BKN030 15/12 Q1032","updated":"2026-04-01T16:53:22Z"}
