{"icao":"LPFL","metar":"LPFL 131000Z 19015G26KT 160V230 9000 3500N -DZ BKN010 19/16 Q1025","updated":"2025-12-13T10:18:24Z"}
