{"icao":"LPPT","metar":"LPPT 081400Z 07004KT 340V140 9999 FEW025 18/12 Q1022","updated":"2025-11-08T14:15:15Z"}
