{"icao":"LPFL","metar":"LPFL 251500Z 25014G25KT 210V290 6000 -RADZ FEW008 BKN013 17/13 Q1007 RERA","updated":"2026-01-25T15:19:24Z"}
