{"icao":"LPAZ","metar":"LPAZ 301000Z 21008KT 9000 FEW004 SCT009 18/17 Q1014","updated":"2025-12-30T10:22:08Z"}
