{"icao":"LPLA","metar":"LPLA 011200Z 34027KT 8000 -SHRA SCT014 BKN020 BKN030 14/10 Q1006","updated":"2026-01-01T12:40:21Z"}
