{"icao":"LPMR","metar":"LPMR 031000Z 13009KT 100V160 9999 FEW020 SCT035 14/11 Q1000","updated":"2026-01-03T10:19:30Z"}
