{"icao":"LPLA","metar":"LPLA 120700Z 32024G37KT 7000 -SHRA BKN025 SCT035 13/09 Q1001","updated":"2025-11-12T07:18:19Z"}
