{"icao":"LPPD","metar":"LPPD 052300Z 29025KT 9999 FEW023 FEW025CB 13/07 Q1011","updated":"2026-02-05T23:22:15Z"}
