{"icao":"KLAX","metar":"KLAX 011353Z 26003KT 7SM FEW009 BKN012 OVC018 18/17 A3002 RMK AO2 SLP164 T01830167 $","updated":"2025-10-01T14:17:58Z"}
