{"icao":"LPMA","metar":"LPMA 240900Z 03016G28KT 340V060 9999 FEW015 18/14 Q1021","updated":"2026-05-24T09:23:24Z"}
