{"icao":"LPMT","metar":"LPMT 182000Z 25006KT CAVOK 20/17 Q1016","updated":"2025-10-18T20:17:38Z"}
