{"icao":"LPFL","metar":"LPFL 011230Z 34019G30KT 300V360 9999 SCT029 14/06 Q1029","updated":"2026-03-01T12:45:44Z"}
