{"icao":"LPLA","metar":"LPLA 140400Z 17004KT 130V230 9999 FEW013 18/16 Q1022 WIND RWY15 21009KT H87 SCT120 BKN240 BLU","updated":"2025-12-14T04:35:05Z"}
