{"icao":"LPPD","metar":"LPPD 031830Z 05016KT 020V080 9999 FEW025 16/08 Q1021","updated":"2026-05-03T18:57:47Z"}
