{"icao":"LPFR","metar":"LPFR 090900Z 03005KT 340V100 CAVOK 16/08 Q1022","updated":"2025-11-09T09:16:16Z"}
