{"icao":"LPPS","metar":"LPPS 172300Z 30020KT 9000 -RADZ SCT010 BKN030 16/15 Q1015","updated":"2026-01-17T23:18:11Z"}
