{"icao":"KORD","metar":"KORD 231751Z 32010G17KT 10SM SCT035 11/01 A3010 RMK AO2 SLP197 T01060006 10106 20033 50003","updated":"2025-10-23T18:26:41Z"}
