{"icao":"KLAX","metar":"KLAX 091653Z 27005KT 10SM FEW080 SCT160 SCT250 20/14 A2994 RMK AO2 SLP136 T02000139 $","updated":"2025-10-09T17:16:05Z"}
