{"icao":"LPHR","metar":"LPHR 111630Z 22008KT 190V250 9999 VCSH FEW008 SCT030 16/14 Q1031","updated":"2026-03-11T16:50:57Z"}
