{"icao":"LPMA","metar":"LPMA 291900Z 01006KT 290V050 9999 FEW016 19/12 Q1021","updated":"2025-11-29T19:14:17Z"}
