{"icao":"KLAX","metar":"KLAX 130853Z 08005KT 10SM FEW011 FEW016 16/14 A2973 RMK AO2 SLP063 T01610144 53004 $","updated":"2025-10-13T09:21:21Z"}
