{"icao":"LPHR","metar":"LPHR 310900Z 01003KT 310V060 9999 FEW018 SCT035 17/11 Q1009","updated":"2025-10-31T09:19:54Z"}
