{"icao":"LPPT","metar":"LPPT 271700Z 34008KT CAVOK 15/06 Q1023","updated":"2025-11-27T17:15:26Z"}
