{"icao":"LPFL","metar":"LPFL 251300Z 19005KT 140V260 9999 FEW013 21/16 Q1026","updated":"2025-11-25T13:33:06Z"}
