{"icao":"LPST","metar":"LPST 211100Z 15008KT 120V190 CAVOK 27/13 Q1021","updated":"2026-05-21T11:21:41Z"}
