{"icao":"LPFL","metar":"LPFL 302000Z 18006KT 150V220 9999 FEW010 23/19 Q1017","updated":"2025-09-30T23:16:08Z"}
