{"icao":"LPMA","metar":"LPMA 291100Z 34007KT 290V030 9999 -SHRA BKN014 23/17 Q1016","updated":"2025-10-29T11:16:23Z"}
