{"icao":"LPOV","metar":"LPOV 110900Z 20014KT 1200 -DZ BR OVC002 15/15 Q1012","updated":"2026-02-11T10:01:33Z"}
