{"icao":"LPPD","metar":"LPPD 171430Z 31013KT 280V340 9999 VCSH FEW016 FEW025CB SCT045 10/05 Q1014","updated":"2026-03-17T14:54:45Z"}
