{"icao":"LPBJ","metar":"LPBJ 020300Z 30005KT CAVOK 18/12 Q1020","updated":"2025-10-02T03:29:14Z"}
