{"icao":"LPPD","metar":"LPPD 281830Z 03010KT 360V060 9999 FEW018 BKN030 15/11 Q1033","updated":"2026-03-28T18:38:59Z"}
