{"icao":"LPPT","metar":"LPPT 050400Z 22027G38KT 2500 RADZ BR FEW003 BKN005 15/15 Q0991","updated":"2026-02-05T04:20:32Z"}
