{"icao":"KLAX","metar":"KLAX 171653Z 15004KT 10SM SCT017 BKN030 18/11 A3001 RMK AO2 SLP161 T01780106","updated":"2026-04-17T17:02:03Z"}
