{"icao":"KLAX","metar":"KLAX 230353Z 26007KT 10SM SCT014 16/12 A2989 RMK AO2 SLP121 T01560122","updated":"2026-05-23T04:39:25Z"}
