{"icao":"KJFK","metar":"KJFK 261451Z 21005KT 1/2SM R04R/P6000FT -DZ BR FEW000 BKN003 OVC011 12/12 A2984 RMK AO2 SFC VIS 2 SLP103 BR FEW000 P0000 60000 T01220122 56008","updated":"2025-11-26T15:18:25Z"}
