{"icao":"LPOV","metar":"LPOV 101700Z 20009KT 6000 BKN004 BKN010 15/15 Q1013","updated":"2026-02-10T19:19:56Z"}
