{"icao":"LPMA","metar":"LPMA 051330Z 01022G32KT 6000 -RADZ BKN013 16/12 Q1025 RERA","updated":"2026-03-05T14:02:44Z"}
