{"icao":"LPPD","metar":"LPPD 302300Z 18005KT 150V210 9999 FEW005 BKN012 22/21 Q1022","updated":"2025-09-30T23:16:05Z"}
