{"icao":"LPCS","metar":"LPCS 021230Z VRB04KT CAVOK 35/13 Q1017","updated":"2026-07-02T12:56:09Z"}
