{"icao":"LPOV","metar":"LPOV 171500Z 27004KT 200V300 9999 FEW016 FEW020TCU BKN045 11/07 Q1009","updated":"2026-01-17T15:18:20Z"}
