{"icao":"KORD","metar":"KORD 131951Z 21004KT 10SM OVC050 19/11 A3009 RMK AO2 SLP188 T01940106 $","updated":"2025-10-13T20:19:23Z"}
