{"icao":"KJFK","metar":"KJFK 261751Z 19005KT 10SM FEW047 SCT150 BKN250 06/M06 A2988 RMK AO2 SLP119 4/013 933014 T00561056 10067 20022 56009 $","updated":"2026-02-26T17:56:32Z"}
