{"icao":"LPCS","metar":"LPCS 051900Z 28012KT 250V320 9999 FEW018 FEW025TCU 16/10 Q1012","updated":"2025-11-05T19:14:35Z"}
