{"icao":"LPFR","metar":"LPFR 211800Z 09007KT CAVOK 17/09 Q1026","updated":"2026-02-21T18:33:11Z"}
