{"icao":"LPAZ","metar":"LPAZ 221500Z 18020G31KT 9000 -SHRA SCT008 FEW020TCU BKN038 23/21 Q1014","updated":"2025-10-22T15:18:26Z"}
