{"icao":"LPPR","metar":"LPPR 072330Z 07003KT 020V100 9999 FEW040 11/09 Q1015","updated":"2026-04-07T23:35:25Z"}
