{"icao":"KORD","metar":"KORD 161151Z 11006KT 10SM FEW050 13/09 A3021 RMK AO2 SLP231 70012 T01330089 10150 20133 53006 $","updated":"2025-10-16T12:38:55Z"}
