{"icao":"LPOV","metar":"LPOV 200800Z 17005KT 9000 SCT025 BKN045 05/05 Q1019","updated":"2026-01-20T08:30:21Z"}
