{"icao":"LPLA","metar":"LPLA 220600Z 23009KT 9999 FEW015 SCT020CB 23/19 Q1012","updated":"2025-10-22T06:28:05Z"}
