{"icao":"LPPR","metar":"LPPR 311400Z 23005KT 210V290 9999 VCSH FEW018 BKN040 13/09 Q1018","updated":"2026-01-31T14:22:34Z"}
