{"icao":"LPOV","metar":"LPOV 011600Z 29004KT 250V330 9999 FEW020 17/15 Q1019","updated":"2025-11-01T16:19:19Z"}
