{"icao":"LPPI","metar":"LPPI 271330Z 01006KT 290V060 9999 VCSH FEW013 BKN035 20/14 Q1025","updated":"2026-06-27T13:39:41Z"}
