{"icao":"LPCS","metar":"LPCS 221230Z 04005KT 310V090 9999 FEW028 19/11 Q1011","updated":"2026-03-22T12:49:23Z"}
