{"icao":"KJFK","metar":"KJFK 270851Z 02007KT 10SM FEW250 07/02 A3037 RMK AO2 SLP285 T00670022 55003","updated":"2025-10-27T09:22:13Z"}
