{"icao":"LPFL","metar":"LPFL 072100Z 20014G26KT 170V250 9999 SCT018 20/16 Q1014","updated":"2025-11-08T01:19:46Z"}
