{"icao":"LPPR","metar":"LPPR 291400Z 28004KT 240V320 4000 -RADZ SCT003 BKN008 BKN015 17/17 Q1008","updated":"2025-10-29T14:18:46Z"}
