{"icao":"LPFR","metar":"LPFR 160600Z 03006KT CAVOK 22/13 Q1018","updated":"2025-09-16T06:26:33Z"}
