{"icao":"LPMT","metar":"LPMT 142000Z 33005KT CAVOK 21/15 Q1016","updated":"2026-06-14T20:16:07Z"}
