{"icao":"LPPD","metar":"LPPD 241930Z 12007KT 090V160 9999 SCT007 BKN011 19/17 Q1023","updated":"2026-05-24T20:03:31Z"}
