{"icao":"LPMR","metar":"LPMR 091100Z 14012KT 4000 -RA BR SCT007 BKN032 14/13 Q1015 RERA","updated":"2025-12-09T11:18:15Z"}
