{"icao":"LPMA","metar":"LPMA 121400Z 04010KT 010V070 9999 FEW015 24/16 Q1017","updated":"2025-10-12T14:14:14Z"}
