{"icao":"LPFL","metar":"LPFL 051030Z 32011G21KT 240V010 9999 VCSH SCT025 FEW028CB 10/05 Q1005","updated":"2026-02-05T10:39:03Z"}
