{"icao":"LPMR","metar":"LPMR 310900Z 17003KT CAVOK 04/04 Q1020","updated":"2025-12-31T09:23:24Z"}
