{"icao":"LPMR","metar":"LPMR 112300Z 16013KT 9999 FEW030 17/13 Q1006","updated":"2025-11-11T23:16:20Z"}
