{"icao":"LPBJ","metar":"LPBJ 071000Z 29004KT 230V360 9999 FEW028 24/15 Q1023","updated":"2025-10-07T10:18:42Z"}
