{"icao":"LPMT","metar":"LPMT 190700Z 18004KT 160V220 9999 FEW010 BKN028 20/18 Q1015","updated":"2025-10-19T07:15:08Z"}
