{"icao":"LPOV","metar":"LPOV 301700Z 18010KT 9999 SCT018 18/13 Q1011","updated":"2025-10-30T20:19:53Z"}
