{"icao":"LPFR","metar":"LPFR 030200Z 33005KT 290V020 CAVOK 15/11 Q1020","updated":"2026-04-03T02:10:52Z"}
