{"icao":"KJFK","metar":"KJFK 061351Z 26004KT 10SM FEW018 BKN050 03/M01 A2994 RMK AO2 SLP136 T00281011 $","updated":"2025-12-06T14:16:10Z"}
