{"icao":"LPBJ","metar":"LPBJ 010800Z 30004KT 270V340 CAVOK 21/16 Q1019","updated":"2026-07-01T08:11:05Z"}
