{"icao":"KLAX","metar":"KLAX 290453Z 00000KT 10SM CLR 19/14 A3001 RMK AO2 SLP161 T01940144 $","updated":"2025-10-29T05:18:41Z"}
