{"icao":"LPBJ","metar":"LPBJ 260800Z VRB01KT 9999 FEW006 17/14 Q1017","updated":"2026-04-26T08:59:10Z"}
