{"icao":"LPPT","metar":"LPPT 131330Z 30014G31KT 270V330 9999 FEW018 SCT022 FEW030CB 13/09 Q1008 WS R20","updated":"2026-02-13T14:03:03Z"}
