{"icao":"LPST","metar":"LPST 231000Z 33004KT 300V360 5000 BR SCT006 BKN012 BKN040 21/19 Q1021","updated":"2025-10-23T10:19:27Z"}
