{"icao":"KORD","metar":"KORD 212051Z 01004KT 10SM FEW075 BKN120 OVC250 08/02 A2996 RMK AO2 SLP148 T00780017 56015","updated":"2025-11-21T21:16:21Z"}
