{"icao":"KJFK","metar":"KJFK 071951Z 19026G34KT 10SM FEW050 FEW170 BKN250 14/04 A2986 RMK AO2 PK WND 20038/1921 SLP112 T01440039 $","updated":"2025-11-07T20:18:35Z"}
