{"icao":"LPHR","metar":"LPHR 262300Z 26017KT 220V290 8000 -RA SCT003 BKN005 BKN010 18/17 Q1020 RERA","updated":"2025-11-26T23:17:24Z"}
