{"icao":"KORD","metar":"KORD 050951Z 21007KT 10SM SCT150 OVC250 M08/M11 A3018 RMK AO2 SLP231 T10831111","updated":"2026-02-05T10:39:04Z"}
