{"icao":"LPAR","metar":"LPAR 131000Z 17010KT 9999 SCT015 BKN022 16/15 Q1001","updated":"2025-11-13T10:20:46Z"}
