{"icao":"LPST","metar":"LPST 261400Z 03010KT 350V050 CAVOK 21/06 Q1015","updated":"2026-03-26T15:02:25Z"}
