{"icao":"LPFL","metar":"LPFL 071000Z 18012KT 5000 DZ FEW013 BKN032 15/13 Q1011","updated":"2026-02-07T10:24:00Z"}
