{"icao":"LPBJ","metar":"LPBJ 140700Z 25003KT 170V280 CAVOK 16/15 Q1022","updated":"2025-09-14T07:14:47Z"}
