{"icao":"LPOV","metar":"LPOV 192100Z 32003KT 290V360 0300 FG OVC002 13/13 Q1015","updated":"2026-04-19T21:34:31Z"}
