{"icao":"LPPR","metar":"LPPR 182100Z 31009KT 260V330 9999 FEW025 12/07 Q1019","updated":"2026-02-18T21:33:36Z"}
