{"icao":"LPLA","metar":"LPLA 282100Z 14003KT 110V180 9999 FEW015 BKN020 BKN030 14/11 Q1035","updated":"2026-03-28T21:28:33Z"}
