{"icao":"LPCS","metar":"LPCS 011200Z 01012KT CAVOK 29/16 Q1019","updated":"2026-07-01T12:05:36Z"}
