{"icao":"LPBJ","metar":"LPBJ 091700Z 33012KT CAVOK 30/07 Q1015","updated":"2026-06-09T18:02:59Z"}
