{"icao":"KORD","metar":"KORD 040851Z 24006KT 10SM CLR 21/15 A3010 RMK AO2 SLP189 T02060150 50000 $","updated":"2025-10-04T09:16:02Z"}
