{"icao":"LPPR","metar":"LPPR 212230Z 26003KT 180V340 9999 FEW016 SCT027 BKN037 14/11 Q1009","updated":"2026-04-21T22:36:55Z"}
