{"icao":"LPPR","metar":"LPPR 211000Z 17005KT CAVOK 16/12 Q1010","updated":"2026-03-21T10:24:54Z"}
