{"icao":"LPPS","metar":"LPPS 112300Z 21019KT 9999 SCT015 21/17 Q1007","updated":"2025-11-11T23:16:52Z"}
