{"icao":"LPOV","metar":"LPOV 071600Z 18013KT 9999 SCT020 BKN040 13/11 Q1012","updated":"2026-04-07T16:57:01Z"}
