{"icao":"KORD","metar":"KORD 221651Z 25010G21KT 10SM OVC049 M07/M17 A3020 RMK AO2 SLP236 T10721172 $","updated":"2026-01-22T17:27:53Z"}
