{"icao":"LPBJ","metar":"LPBJ 271100Z 28003KT 250V320 9000 VCFG FEW006 13/11 Q1025","updated":"2026-02-27T11:31:07Z"}
