{"icao":"LPMA","metar":"LPMA 191500Z 02005KT 310V110 9999 SCT015 19/12 Q1017","updated":"2025-11-19T15:20:03Z"}
