{"icao":"LPMA","metar":"LPMA 230800Z 36011KT 9999 BKN016 18/12 Q1026","updated":"2025-11-23T08:22:50Z"}
