{"icao":"LPFR","metar":"LPFR 170230Z 34010KT CAVOK 14/09 Q1016","updated":"2026-05-17T02:56:06Z"}
