{"icao":"LPPR","metar":"LPPR 142200Z 31005KT 280V340 2000 BCFG SCT001 BKN002 17/16 Q1017","updated":"2026-06-14T22:06:55Z"}
