{"icao":"LPMR","metar":"LPMR 190700Z VRB01KT 0100 FG VV002 12/12 Q1016","updated":"2026-04-19T08:53:07Z"}
