{"icao":"LPPT","metar":"LPPT 120600Z 04007KT 010V100 CAVOK 19/11 Q1016","updated":"2025-10-12T06:23:27Z"}
