{"icao":"LPPT","metar":"LPPT 300800Z 25003KT 200V300 9999 FEW012 BKN045 16/13 Q1016","updated":"2026-04-30T08:27:38Z"}
