{"icao":"LPBJ","metar":"LPBJ 141600Z 07007KT 040V100 CAVOK 17/09 Q1015","updated":"2025-12-14T16:22:01Z"}
