{"icao":"LPBJ","metar":"LPBJ 190200Z VRB02KT CAVOK 13/09 Q1016","updated":"2026-04-19T02:34:21Z"}
