{"icao":"LPHR","metar":"LPHR 182100Z 26004KT 240V300 9999 FEW014 16/14 Q1013","updated":"2026-04-18T21:33:37Z"}
