{"icao":"KLAX","metar":"KLAX 051953Z 32019G35KT 10SM FEW050 22/01 A2995 RMK AO2 PK WND 32035/1952 SLP142 T02170006","updated":"2026-03-05T20:35:57Z"}
