{"icao":"LPHR","metar":"LPHR 161600Z 13008KT 7000 -SHRA SCT003 BKN006 BKN011 18/17 Q1022","updated":"2025-11-16T16:20:18Z"}
