{"icao":"KORD","metar":"KORD 171051Z 14004KT 1/2SM R10L/P6000FT FG BKN000 10/09 A2991 RMK AO2 SLP128 FG BKN000 T01000094 $","updated":"2026-04-17T10:54:29Z"}
