{"icao":"LPAZ","metar":"LPAZ 140800Z 27004KT 9999 FEW017 21/19 Q1027","updated":"2025-09-14T08:20:10Z"}
