{"icao":"KLAX","metar":"KLAX 071353Z 02004KT 3SM BR SCT004 BKN008 15/13 A2997 RMK AO2 SLP147 VIS SE AND NW 2 1/2 T01500133 $","updated":"2025-11-07T14:18:24Z"}
