{"icao":"KLAX","metar":"KLAX 201853Z 33003KT 10SM FEW100 FEW120 SCT160 BKN250 12/M01 A3004 RMK AO2 SLP173 T01171006 $","updated":"2026-02-20T19:36:00Z"}
