{"icao":"LPMR","metar":"LPMR 130900Z 17002KT CAVOK 18/11 Q1016","updated":"2025-10-13T09:21:05Z"}
