{"icao":"KORD","metar":"KORD 111951Z 03015KT 10SM FEW060 13/M03 A3023 RMK AO2 SLP240 T01281028 $","updated":"2026-05-11T20:47:02Z"}
