{"icao":"LPFR","metar":"LPFR 272030Z 21004KT CAVOK 19/14 Q1011","updated":"2026-04-27T21:00:16Z"}
