{"icao":"LPFL","metar":"LPFL 261100Z 02011KT 9999 SCT025 19/11 Q1029","updated":"2025-10-26T11:13:16Z"}
