{"icao":"LPMT","metar":"LPMT 182000Z 30007KT 260V320 9999 FEW025 14/10 Q1021","updated":"2026-02-18T20:37:29Z"}
