{"icao":"LPBJ","metar":"LPBJ 182300Z 34006KT CAVOK 06/03 Q1017","updated":"2026-01-18T23:18:50Z"}
