{"icao":"LPPS","metar":"LPPS 042000Z 01007KT 9999 FEW015 21/16 Q1026","updated":"2025-10-04T20:17:20Z"}
