{"icao":"LPPR","metar":"LPPR 311800Z 19014KT 9999 BKN004 BKN011 18/18 Q1010","updated":"2025-10-31T18:26:34Z"}
