{"icao":"LPPT","metar":"LPPT 070400Z 19006KT 9999 FEW035 BKN045 10/09 Q1010","updated":"2026-02-07T04:07:25Z"}
