{"icao":"KJFK","metar":"KJFK 262151Z 18004KT 8SM FEW020 BKN080 BKN095 12/12 A2970 RMK AO2 SLP057 T01220122","updated":"2025-11-26T22:18:22Z"}
