{"icao":"KJFK","metar":"KJFK 260915Z 23008KT 8SM BKN027 12/11 A2989 RMK AO2 T01170111","updated":"2025-11-26T09:22:07Z"}
