{"icao":"LPBJ","metar":"LPBJ 262100Z 04006KT CAVOK 10/04 Q1024","updated":"2025-11-26T21:16:32Z"}
