{"icao":"KJFK","metar":"KJFK 220851Z 00000KT 6SM BR BKN034 OVC043 09/07 A2987 RMK AO2 RAE09 SLP114 P0000 60000 T00890072 58022","updated":"2025-11-22T09:17:37Z"}
