{"icao":"LPST","metar":"LPST 171300Z 18006KT 110V230 CAVOK 26/13 Q1014","updated":"2025-10-17T13:26:41Z"}
