{"icao":"LPMR","metar":"LPMR 072200Z 13007KT 9999 FEW045 10/07 Q1014","updated":"2026-04-07T22:36:30Z"}
