{"icao":"LPMT","metar":"LPMT 032300Z 33006KT 290V360 9999 BKN017 19/15 Q1020","updated":"2026-06-03T23:41:41Z"}
