{"icao":"LPPR","metar":"LPPR 231330Z 25009KT 210V290 9999 FEW017 SCT030 11/05 Q0996","updated":"2026-01-23T13:41:17Z"}
