{"icao":"KORD","metar":"KORD 292151Z 30015G26KT 10SM -SN BKN029 M06/M12 A3009 RMK AO2 PK WND 32028/2125 SLP201 P0000 T10561122","updated":"2025-12-29T22:18:57Z"}
