{"icao":"LPFR","metar":"LPFR 110130Z 01003KT CAVOK 08/06 Q1028","updated":"2026-01-11T01:49:00Z"}
