{"icao":"KORD","metar":"KORD 060051Z 18008KT 10SM CLR 24/08 A3002 RMK AO2 SLP161 T02390078 $","updated":"2025-10-06T01:19:08Z"}
