{"icao":"LPFR","metar":"LPFR 141630Z 25019KT 9999 FEW020 20/14 Q1010","updated":"2026-05-14T16:59:24Z"}
