{"icao":"KLAX","metar":"KLAX 120753Z 08004KT 10SM CLR 17/14 A2978 RMK AO2 SLP083 T01720139 402330161 $","updated":"2025-10-12T08:20:26Z"}
