{"icao":"LPAR","metar":"LPAR 221100Z 24003KT 200V290 8000 SCT025 13/10 Q1009","updated":"2026-01-22T11:21:53Z"}
