{"icao":"LPMA","metar":"LPMA 171800Z 04013KT 9999 FEW015 24/19 Q1018","updated":"2025-09-17T18:24:40Z"}
