{"icao":"LPPT","metar":"LPPT 300900Z 00000KT 0250 R02/0300N FG VV001 04/04 Q1022","updated":"2025-12-30T09:24:15Z"}
