{"icao":"LPOV","metar":"LPOV 241800Z 31006KT 9999 FEW018 SCT035 21/18 Q1013","updated":"2026-06-24T20:47:06Z"}
