{"icao":"LPLA","metar":"LPLA 170900Z 19013KT 160V220 9999 FEW016 BKN030 23/19 Q1017","updated":"2025-09-17T09:18:23Z"}
