{"icao":"KORD","metar":"KORD 051751Z 02003KT 2SM BR OVC006 07/06 A2998 RMK AO2 DZE37 SLP156 P0000 60001 T00670056 10072 20039 50001","updated":"2026-03-05T18:02:27Z"}
