{"icao":"LPCS","metar":"LPCS 031030Z 06011KT 030V100 CAVOK 16/10 Q1012","updated":"2026-03-03T10:37:12Z"}
