{"icao":"LPFR","metar":"LPFR 131800Z 21002KT CAVOK 22/19 Q1015","updated":"2025-10-13T18:24:51Z"}
