{"icao":"LPFR","metar":"LPFR 021230Z 11011KT CAVOK 33/16 Q1016","updated":"2026-07-02T12:56:08Z"}
