{"icao":"LPPR","metar":"LPPR 021930Z 34007KT 9999 FEW012 SCT048 12/10 Q1010","updated":"2026-03-02T19:35:38Z"}
