{"icao":"LPFR","metar":"LPFR 280330Z 28003KT 230V350 CAVOK 21/16 Q1018","updated":"2026-06-28T03:39:21Z"}
