{"icao":"LPCS","metar":"LPCS 311330Z 25007KT 210V310 9999 FEW020 15/10 Q1020","updated":"2026-01-31T13:39:43Z"}
