{"icao":"LPFR","metar":"LPFR 270600Z 22025G36KT 5000 -RA BR SCT006 SCT015 15/14 Q1004 RERA","updated":"2026-01-27T06:33:44Z"}
