{"icao":"LPPS","metar":"LPPS 022100Z 05007KT 010V100 9999 FEW015 21/17 Q1022","updated":"2025-10-02T21:15:07Z"}
