{"icao":"LPMT","metar":"LPMT 301400Z 35007KT 310V020 CAVOK 19/04 Q1028","updated":"2026-03-30T15:01:55Z"}
