{"icao":"KJFK","metar":"KJFK 062248Z 20010KT 10SM SCT029 OVC036 13/12 A2976 RMK AO2","updated":"2026-05-06T22:52:12Z"}
