{"icao":"LPPS","metar":"LPPS 242000Z 29014KT 9000 -RA SCT005 SCT010 BKN030 16/14 Q1017","updated":"2026-02-24T20:33:53Z"}
