{"icao":"LPMA","metar":"LPMA 042100Z 23016G26KT 180V280 9999 FEW015 20/12 Q1009","updated":"2026-02-04T21:31:44Z"}
