{"icao":"LPPR","metar":"LPPR 300530Z 19013KT 6000 FEW010 FEW020TCU BKN040 12/11 Q1010","updated":"2026-01-30T05:44:23Z"}
