{"icao":"LPST","metar":"LPST 301700Z 32004KT 9999 FEW024 13/09 Q1020","updated":"2026-01-02T19:12:55Z"}
