{"icao":"LPFL","metar":"LPFL 181600Z 34010KT 310V020 9999 SCT030 21/14 Q1017","updated":"2025-09-18T16:21:11Z"}
