{"icao":"LPPT","metar":"LPPT 081200Z 06005G18KT 320V110 9999 FEW020 17/13 Q1023","updated":"2025-11-08T12:33:05Z"}
