{"icao":"KJFK","metar":"KJFK 131751Z 22012KT 10SM SCT035 BKN100 BKN250 05/M03 A3004 RMK AO2 SLP171 T00501028 10050 21022 58038","updated":"2025-12-13T18:25:04Z"}
