{"icao":"LPPD","metar":"LPPD 150300Z 32008KT 9999 FEW025 13/07 Q1011","updated":"2025-11-15T03:05:50Z"}
