{"icao":"LPMA","metar":"LPMA 241230Z 02012KT 340V060 9999 FEW015 18/08 Q1027","updated":"2026-01-24T12:38:39Z"}
