{"icao":"LPMR","metar":"LPMR 261200Z 22014KT 5000 BR BKN009 BKN025 16/14 Q1011","updated":"2026-01-26T12:45:48Z"}
