{"icao":"LPOV","metar":"LPOV 231800Z 21015KT 200V260 9999 -DZ SCT008 BKN020 14/12 Q1022","updated":"2025-11-23T18:24:57Z"}
