{"icao":"LPPD","metar":"LPPD 181500Z 30007KT 260V330 9999 SCT014 18/15 Q1028","updated":"2026-01-18T15:18:01Z"}
