{"icao":"LPHR","metar":"LPHR 140000Z 27016KT 6000 -DZ SCT004 SCT007 BKN012 16/15 Q1025","updated":"2026-01-14T01:47:18Z"}
