{"icao":"KORD","metar":"KORD 162051Z 31016G31KT 7SM -SN SCT028 BKN036 OVC044 M03/M08 A2972 RMK AO2 PK WND 31033/1953 SLP071 P0000 60000 T10281083 53028 $","updated":"2026-03-16T21:38:26Z"}
