{"icao":"LPLA","metar":"LPLA 191300Z 36013KT 330V030 9999 SCT025 17/09 Q1027","updated":"2025-11-19T13:30:55Z"}
