{"icao":"LPPS","metar":"LPPS 260930Z 02019KT 9999 SCT014 16/11 Q1024","updated":"2026-02-26T09:49:10Z"}
