{"icao":"KJFK","metar":"KJFK 020451Z 03008KT 10SM FEW250 M02/M12 A3050 RMK AO2 SLP327 T10171122 400561017 VISNO W $","updated":"2026-03-02T05:51:36Z"}
