{"icao":"KORD","metar":"KORD 300851Z 21009KT 10SM CLR 26/24 A2991 RMK AO2 SLP120 T02610239 50006 $","updated":"2026-06-30T09:32:27Z"}
