{"icao":"LPPR","metar":"LPPR 042000Z 19012KT 9999 BKN008 13/12 Q0993","updated":"2026-02-04T20:33:11Z"}
