{"icao":"LPMR","metar":"LPMR 241300Z 29009KT 240V320 9999 FEW020 24/16 Q1014","updated":"2026-06-24T13:20:58Z"}
