{"icao":"LPMA","metar":"LPMA 062000Z 36009KT 9999 FEW015 22/17 Q1022","updated":"2025-10-06T20:19:21Z"}
