{"icao":"LPAR","metar":"LPAR 131700Z 32008KT 290V020 9999 BKN025 15/11 Q1021","updated":"2026-03-13T23:26:58Z"}
