{"icao":"KORD","metar":"KORD 241451Z 18009KT 10SM FEW110 BKN130 OVC250 03/M08 A3037 RMK AO2 SLP292 T00281078 52002","updated":"2026-03-24T14:56:49Z"}
