{"icao":"LPAR","metar":"LPAR 281100Z 29008KT 250V330 9999 FEW015 15/10 Q1003","updated":"2026-01-28T11:21:58Z"}
