{"icao":"KJFK","metar":"KJFK 210751Z 04003KT 10SM BKN040 OVC060 05/02 A3013 RMK AO2 SLP203 T00500017 $","updated":"2025-11-21T08:26:38Z"}
