{"icao":"KORD","metar":"KORD 302210Z 03013KT 8SM SCT025 BKN032 BKN047 M08/M13 A3038 RMK AO2 SNE10 P0000 T10781128","updated":"2026-01-30T22:24:29Z"}
