{"icao":"LPGR","metar":"LPGR 281430Z 03005KT 360V070 9999 FEW020 SCT035 21/13 Q1028","updated":"2026-06-28T14:46:58Z"}
