{"icao":"LPCS","metar":"LPCS 070800Z 18005KT 7000 BKN004 15/15 Q1024","updated":"2025-12-07T08:22:31Z"}
