{"icao":"LPMA","metar":"LPMA 171730Z 04010KT 9999 SCT015 FEW018TCU 18/13 Q1006","updated":"2026-03-17T17:56:50Z"}
