{"icao":"LPBJ","metar":"LPBJ 281700Z 27013KT 9999 SCT025 SCT045 14/11 Q1007","updated":"2026-01-28T17:30:42Z"}
