{"icao":"KJFK","metar":"KJFK 120331Z VRB03KT 10SM -TSRA BKN055CB BKN120 OVC200 27/21 A2974 RMK AO2 RAB31 TSB31 FRQ LTGICCC OHD-E TS OHD-E MOV E P0000 T02670206 $","updated":"2026-06-12T03:50:41Z"}
