{"icao":"LPMA","metar":"LPMA 301900Z 01011KT 9999 SCT015 22/15 Q1021","updated":"2025-09-30T19:14:02Z"}
