{"icao":"LPPR","metar":"LPPR 050800Z 19010KT 2000 RADZ BR SCT002 BKN003 14/13 Q1017","updated":"2025-12-05T08:26:22Z"}
