{"icao":"LPPR","metar":"LPPR 082200Z 23013KT 200V260 6000 -RADZ BKN003 BKN005 14/13 Q1025","updated":"2026-01-08T22:20:12Z"}
