{"icao":"KJFK","metar":"KJFK 022051Z 18007KT 10SM FEW140 SCT240 M02/M12 A3065 RMK AO2 SLP377 T10171117 55006","updated":"2026-03-02T21:32:13Z"}
