{"icao":"LPBJ","metar":"LPBJ 110400Z 15004KT 0600 FG VV002 14/14 Q1016","updated":"2025-11-11T04:23:12Z"}
