{"icao":"KLAX","metar":"KLAX 231706Z 10009KT 4SM BR FEW009 BKN011 OVC020 16/13 A2998 RMK AO2 T01560133 $","updated":"2025-12-23T17:19:48Z"}
