{"icao":"LPOV","metar":"LPOV 112000Z 26009KT 230V300 7000 FEW008 BKN012 BKN018 15/14 Q1014","updated":"2026-02-11T20:37:14Z"}
