{"icao":"LPST","metar":"LPST 041100Z 17007KT 130V220 9999 FEW018 18/14 Q1017","updated":"2025-11-04T11:16:42Z"}
