{"icao":"KORD","metar":"KORD 042051Z 00000KT 10SM FEW033 M07/M21 A3031 RMK AO2 SLP277 T10671211 56025","updated":"2025-12-04T21:18:43Z"}
