{"icao":"LPMR","metar":"LPMR 141300Z 35006KT 9999 FEW012 SCT020 FEW021TCU 13/11 Q1020 RESHRA","updated":"2026-01-14T13:39:19Z"}
