{"icao":"KORD","metar":"KORD 021051Z 32008KT 10SM OVC027 M07/M13 A2987 RMK AO2 SLP127 T10671128 $","updated":"2026-01-02T11:17:44Z"}
