{"icao":"LPMT","metar":"LPMT 050200Z 26013KT 8000 -RA FEW004 BKN009 BKN030 16/16 Q1020","updated":"2025-12-05T03:17:34Z"}
