{"icao":"LPPR","metar":"LPPR 202300Z 19014KT 4500 -RADZ BR FEW000 BKN001 18/18 Q1011 RERA","updated":"2025-10-20T23:15:56Z"}
