{"icao":"KORD","metar":"KORD 180751Z 27011G18KT 10SM FEW100 19/15 A2944 RMK AO2 SLP967 T01890150 $","updated":"2026-06-18T08:45:22Z"}
