{"icao":"LPPT","metar":"LPPT 131700Z 27008KT 220V310 9999 VCSH FEW018 SCT025 14/10 Q1012","updated":"2026-01-13T17:25:29Z"}
