{"icao":"LPFR","metar":"LPFR 281900Z 30015KT 9999 BKN020 20/15 Q1015","updated":"2025-09-28T19:12:05Z"}
