{"icao":"LPFR","metar":"LPFR 082000Z 31014KT CAVOK 19/13 Q1020","updated":"2025-10-08T20:19:07Z"}
