{"icao":"KJFK","metar":"KJFK 270117Z 08008KT 1/2SM R04R/5500VP6000FT -SN BR VV008 M04/M04 A2997 RMK AO2 SFC VIS 1 PRESFR P0005 T10391044 $","updated":"2025-12-27T01:26:59Z"}
