{"icao":"LPMT","metar":"LPMT 250500Z 33004KT CAVOK 14/11 Q1016","updated":"2026-04-25T05:10:26Z"}
