{"icao":"LPPR","metar":"LPPR 152100Z 21005KT 180V260 9999 VCSH FEW014 13/12 Q1006","updated":"2025-11-15T21:14:39Z"}
