{"icao":"LPCS","metar":"LPCS 111830Z 36020G33KT 9999 FEW025 12/05 Q1015 WS R35","updated":"2026-04-11T18:42:11Z"}
