{"icao":"LPMT","metar":"LPMT 161800Z 34003KT CAVOK 22/12 Q1013","updated":"2025-10-16T18:25:47Z"}
