{"icao":"LPMA","metar":"LPMA 261300Z 21014KT 9999 SCT013 FEW018CB 24/22 Q1016","updated":"2025-10-26T13:22:30Z"}
