{"icao":"KLAX","metar":"KLAX 181753Z 09004KT 10SM FEW019 SCT048 BKN055 BKN150 13/10 A2996 RMK AO2 SLP144 T01330100 10139 20100 52015 $","updated":"2025-11-18T18:28:13Z"}
