{"icao":"LPFR","metar":"LPFR 040100Z 03004KT CAVOK 16/12 Q1020","updated":"2025-11-04T01:23:08Z"}
