{"icao":"LPMA","metar":"LPMA 212100Z 03013KT 9999 SCT015 BKN030 22/17 Q1022","updated":"2025-09-21T21:14:28Z"}
