{"icao":"LPPT","metar":"LPPT 290800Z VRB02KT 9999 BKN034 13/09 Q1020","updated":"2025-11-29T08:23:18Z"}
