{"icao":"KJFK","metar":"KJFK 130351Z 25010KT 10SM FEW250 02/M04 A3015 RMK AO2 SLP209 T00171044 $","updated":"2026-01-13T04:39:16Z"}
