{"icao":"LPAR","metar":"LPAR 261500Z 07006KT 040V110 CAVOK 21/13 Q1023","updated":"2026-02-26T15:52:16Z"}
