{"icao":"LPAZ","metar":"LPAZ 100800Z 18020KT 9999 FEW028 SCT035 17/11 Q1023","updated":"2025-12-10T08:27:23Z"}
