{"icao":"KJFK","metar":"KJFK 142151Z 31019G29KT 9SM BKN047 M04/M11 A3000 RMK AO2 PK WND 30030/2058 SLP158 DRSN T10391111 $","updated":"2025-12-14T22:17:20Z"}
