{"icao":"KJFK","metar":"KJFK 141451Z 36012KT 10SM -RA BKN012 OVC033 14/11 A3004 RMK AO2 RAB43 SLP172 P0000 60000 T01390111 51005","updated":"2025-10-14T15:20:38Z"}
