{"icao":"LPPT","metar":"LPPT 071000Z 24017KT 2000 +RA BR FEW008 BKN012 FEW018CB 12/12 Q1002 WS R20","updated":"2026-02-07T10:23:56Z"}
