{"icao":"LPFR","metar":"LPFR 120700Z 05006KT 030V090 9999 FEW012 SCT025 09/08 Q1022","updated":"2026-01-12T07:26:11Z"}
