{"icao":"KJFK","metar":"KJFK 080951Z 04006KT 10SM BKN043 17/12 A3019 RMK AO2 SLP222 T01670117 $","updated":"2026-06-08T10:51:21Z"}
