{"icao":"LPMA","metar":"LPMA 170800Z 35009G20KT 250V020 9999 BKN015 15/09 Q1022","updated":"2026-01-17T08:25:40Z"}
