{"icao":"LPAR","metar":"LPAR 140800Z VRB02KT CAVOK 16/13 Q1017","updated":"2025-10-14T08:22:04Z"}
