{"icao":"LPMA","metar":"LPMA 192300Z 27003KT 220V320 9999 SCT013 22/19 Q1019","updated":"2025-10-19T23:15:51Z"}
