{"icao":"LPMT","metar":"LPMT 090900Z 18006KT 150V210 9999 SCT014 BKN028 14/13 Q1003 RMK BLU","updated":"2026-05-09T10:55:56Z"}
