{"icao":"LPPS","metar":"LPPS 301000Z 26010KT 220V290 9999 FEW015 22/15 Q1018","updated":"2025-10-30T10:19:59Z"}
