{"icao":"LPFL","metar":"LPFL 201830Z 20014G26KT 170V250 9999 -SHRA SCT014 FEW015CB 18/13 Q1012","updated":"2026-02-20T18:45:16Z"}
