{"icao":"LPPD","metar":"LPPD 030630Z 25022KT 5000 -SHRA BR SCT003 BKN005 16/16 Q1008","updated":"2026-02-03T06:50:10Z"}
