{"icao":"LPMT","metar":"LPMT 040800Z 33006KT 310V010 9999 FEW013 18/15 Q1023","updated":"2025-10-04T08:20:13Z"}
