{"icao":"KLAX","metar":"KLAX 130808Z 00000KT 2 1/2SM BR BKN004 BKN008 14/13 A3004 RMK AO2 VIS W 1 1/2 T01390128 $","updated":"2025-12-13T08:24:09Z"}
