{"icao":"LPOV","metar":"LPOV 171500Z 32006KT 9000 FEW001 19/15 Q1015","updated":"2025-10-17T15:17:57Z"}
