{"icao":"LPMR","metar":"LPMR 312000Z VRB03KT 8000 -RA SCT005 OVC016 18/17 Q1012","updated":"2025-10-31T20:20:03Z"}
