{"icao":"LPPR","metar":"LPPR 241000Z 23012KT 190V260 2000 RA BR BKN002 BKN009 16/16 Q1013","updated":"2025-11-24T10:21:40Z"}
