{"icao":"LPMR","metar":"LPMR 061700Z 26006KT 210V300 CAVOK 22/12 Q1020","updated":"2025-10-06T17:15:53Z"}
