{"icao":"LPPR","metar":"LPPR 072200Z 32016G28KT 7000 SHRA FEW015CB BKN020 09/08 Q1004","updated":"2026-02-07T22:24:38Z"}
