{"icao":"LPPR","metar":"LPPR 271500Z 33006KT 300V360 CAVOK 15/09 Q1024","updated":"2025-11-27T15:19:03Z"}
