{"icao":"KLAX","metar":"KLAX 210453Z 27009KT 10SM FEW018 SCT250 16/12 A3001 RMK AO2 SLP162 T01610122 $","updated":"2026-04-21T05:26:19Z"}
