{"icao":"KJFK","metar":"KJFK 121051Z 26013KT 10SM SCT065 OVC090 04/M05 A2988 RMK AO2 SLP116 T00441050 $","updated":"2025-11-12T11:16:36Z"}
