{"icao":"KORD","metar":"KORD 181551Z 31011KT 10SM FEW031 BKN043 19/12 A2971 RMK AO2 SLP057 T01890117","updated":"2026-06-18T16:29:52Z"}
