{"icao":"LPPD","metar":"LPPD 182300Z 02010KT 9999 FEW018 14/10 Q1030","updated":"2026-01-18T23:18:52Z"}
