{"icao":"LPMR","metar":"LPMR 190800Z 17003KT 8000 BKN008 BKN017 16/16 Q1023","updated":"2026-05-19T08:33:54Z"}
