{"icao":"LPAZ","metar":"LPAZ 081100Z 23018KT 0550 R18/0700D FG VV002 17/17 Q1017","updated":"2026-02-08T11:21:31Z"}
