{"icao":"LPMA","metar":"LPMA 181930Z 01004KT 320V070 9999 FEW014 17/12 Q1026","updated":"2026-02-18T19:47:17Z"}
