{"icao":"LPPS","metar":"LPPS 212000Z 30014KT 7000 SCT006 BKN010 17/16 Q1019","updated":"2026-01-21T20:29:06Z"}
