{"icao":"LPBJ","metar":"LPBJ 081700Z 33013KT 300V360 CAVOK 29/11 Q1019","updated":"2026-06-08T17:50:51Z"}
