{"icao":"KORD","metar":"KORD 211551Z 26011G19KT 10SM FEW028 FEW120 FEW250 12/04 A2971 RMK AO2 RAB1454E03 SLP059 P0000 T01170039","updated":"2025-10-21T16:24:07Z"}
