{"icao":"LPPD","metar":"LPPD 211700Z 03010KT 360V060 9999 FEW006 SCT016 BKN030 16/13 Q1031","updated":"2025-11-21T17:16:13Z"}
