{"icao":"LPPT","metar":"LPPT 291100Z 04005KT 010V100 9999 SCT007 BKN010 18/17 Q1008","updated":"2025-10-29T11:16:01Z"}
