{"icao":"KJFK","metar":"KJFK 090551Z 36011KT 10SM CLR 14/05 A3025 RMK AO2 SLP243 T01390050 10178 20133 52010","updated":"2025-10-09T06:27:36Z"}
