{"icao":"KLAX","metar":"KLAX 052053Z VRB04KT 10SM FEW110 SCT180 BKN250 28/M02 A3002 RMK AO2 SLP162 T02781017 58016","updated":"2026-02-05T21:27:41Z"}
