{"icao":"LPHR","metar":"LPHR 010800Z 35006KT 9999 FEW025 BKN045 14/09 Q1020","updated":"2025-11-01T08:21:33Z"}
