{"icao":"LPMR","metar":"LPMR 060900Z 14009KT CAVOK 22/08 Q1020","updated":"2025-10-06T09:21:01Z"}
