{"icao":"KORD","metar":"KORD 280751Z 29012KT 10SM CLR M04/M09 A3028 RMK AO2 SLP263 T10441094","updated":"2025-11-28T08:26:35Z"}
