{"icao":"KORD","metar":"KORD 060851Z 08003KT 9SM BKN080 OVC100 03/01 A2961 RMK AO2 SLP031 T00280011 56027","updated":"2026-01-06T09:25:22Z"}
