{"icao":"LPPT","metar":"LPPT 010500Z 08002KT CAVOK 17/12 Q1019","updated":"2025-10-01T05:17:26Z"}
