{"icao":"LPHR","metar":"LPHR 291800Z 23017KT 3000 -RADZ BR SCT001 BKN003 18/17 Q1019 RERA","updated":"2026-05-29T18:30:43Z"}
