{"icao":"LPLA","metar":"LPLA 020200Z 08007KT 040V110 9999 FEW012 BKN020 16/13 Q1020","updated":"2026-05-02T02:36:14Z"}
