{"icao":"LPPS","metar":"LPPS 051600Z 07016KT 5000 -RA BR SCT005 BKN010 15/14 Q1018","updated":"2026-05-05T16:23:28Z"}
