{"icao":"LPPS","metar":"LPPS 201730Z 10009KT 060V140 9999 FEW015 BKN030 16/10 Q1026","updated":"2026-02-20T17:36:15Z"}
