{"icao":"LPPT","metar":"LPPT 012000Z 22004KT 160V280 9999 FEW024 10/07 Q1019","updated":"2025-12-01T20:19:38Z"}
