{"icao":"KJFK","metar":"KJFK 041451Z 27004KT 10SM CLR 22/12 A3024 RMK AO2 SLP238 T02220122 50004","updated":"2025-10-04T15:14:27Z"}
