{"icao":"LPPR","metar":"LPPR 061900Z 36005KT 330V040 9999 FEW040 07/02 Q1025","updated":"2026-01-06T19:16:00Z"}
