{"icao":"LPCS","metar":"LPCS 111100Z 17012KT 9999 FEW008 SCT014 19/18 Q1013","updated":"2025-11-11T11:16:19Z"}
