{"icao":"KORD","metar":"KORD 190402Z 26022G34KT 10SM -SN OVC026 M06/M12 A2948 RMK AO2 PK WND 28034/0353 P0000 T10561117","updated":"2025-12-19T04:33:35Z"}
