{"icao":"KJFK","metar":"KJFK 230351Z 26013G22KT 10SM FEW100 SCT250 13/03 A2984 RMK AO2 PK WND 27029/0310 SLP106 T01330028","updated":"2025-10-23T04:20:55Z"}
