{"icao":"LPFR","metar":"LPFR 190500Z 33003KT 290V360 CAVOK 12/09 Q1016","updated":"2025-11-19T05:18:48Z"}
