{"icao":"LPPT","metar":"LPPT 272100Z 32011KT CAVOK 15/08 Q1017","updated":"2026-03-27T21:32:31Z"}
