{"icao":"LPFR","metar":"LPFR 121830Z 32014KT CAVOK 18/03 Q1017","updated":"2026-04-12T18:47:46Z"}
