{"icao":"KLAX","metar":"KLAX 201615Z 24005KT 7SM SCT008 22/18 A3000 RMK AO2 T02170183","updated":"2025-09-20T16:18:42Z"}
