{"icao":"LPCS","metar":"LPCS 161700Z 36009KT CAVOK 23/09 Q1014","updated":"2025-10-16T17:15:45Z"}
