{"icao":"KLAX","metar":"KLAX 222053Z 26008KT 230V300 6SM HZ FEW009 SCT230 BKN300 19/14 A2991 RMK AO2 SLP127 T01940144 58006","updated":"2026-03-22T21:25:06Z"}
