{"icao":"LPHR","metar":"LPHR 211800Z 25015KT 6000 -TSRA SCT007 BKN011 SCT013CB 23/22 Q1012","updated":"2025-10-21T18:25:53Z"}
