{"icao":"LPBJ","metar":"LPBJ 130000Z 22004KT 9999 FEW045 12/11 Q1021","updated":"2026-05-13T00:08:54Z"}
