{"icao":"KORD","metar":"KORD 012051Z 09009KT 10SM FEW033 SCT170 BKN250 M01/M17 A3047 RMK AO2 SLP327 T10061167 58006 $","updated":"2026-03-01T21:21:17Z"}
