{"icao":"LPFR","metar":"LPFR 020100Z 34003KT CAVOK 08/07 Q1019","updated":"2025-12-02T01:25:59Z"}
