{"icao":"KJFK","metar":"KJFK 292151Z 27025G39KT 10SM FEW029 SCT055 BKN080 BKN250 07/M07 A2936 RMK AO2 PK WND 26039/2151 SLP941 T00721072 $","updated":"2025-12-29T22:18:56Z"}
