{"icao":"LPBJ","metar":"LPBJ 261000Z 08004KT 050V120 CAVOK 15/11 Q1024","updated":"2026-02-26T10:43:44Z"}
