{"icao":"LPMA","metar":"LPMA 301600Z 02013KT 350V050 9999 BKN015 19/12 Q1021","updated":"2025-11-30T16:21:47Z"}
