{"icao":"LPFL","metar":"LPFL 131230Z 10003KT 040V160 9999 FEW014 17/13 Q1032","updated":"2026-03-13T12:56:12Z"}
