{"icao":"LPPR","metar":"LPPR 232330Z 25003KT 230V290 9000 FEW007 SCT009 13/12 Q1015","updated":"2026-04-23T23:43:05Z"}
