{"icao":"LPOV","metar":"LPOV 261000Z 17003KT 120V250 CAVOK 13/11 Q1025","updated":"2026-02-26T10:43:30Z"}
