{"icao":"LPBJ","metar":"LPBJ 131100Z 07008KT 040V110 CAVOK 14/10 Q1020","updated":"2025-12-13T11:14:43Z"}
