{"icao":"LPPT","metar":"LPPT 071800Z 32006KT 9999 FEW014 17/15 Q1017","updated":"2025-11-07T18:25:54Z"}
