{"icao":"KORD","metar":"KORD 030451Z 23011G21KT 10SM BKN120 BKN160 08/M01 A3010 RMK AO2 SLP195 T00781006 $","updated":"2025-11-03T05:18:59Z"}
