{"icao":"KJFK","metar":"KJFK 151451Z 32013G20KT 10SM FEW050 FEW250 M05/M13 A3029 RMK AO2 PK WND 31027/1429 SLP255 T10501128 51014 $","updated":"2025-12-15T15:23:44Z"}
