{"icao":"LPLA","metar":"LPLA 160200Z 14003KT 9999 OVC040 14/12 Q1025","updated":"2026-03-16T02:22:39Z"}
