{"icao":"KJFK","metar":"KJFK 232151Z 18014KT 10SM FEW070 BKN120 BKN140 BKN250 14/08 A2983 RMK SLP101 T01440078 ","updated":"2026-04-23T22:42:09Z"}
