{"icao":"LPOV","metar":"LPOV 071100Z 17003KT 130V200 9999 SCT020 10/09 Q1025","updated":"2026-01-07T11:19:12Z"}
