{"icao":"LPPT","metar":"LPPT 041000Z VRB06G16KT CAVOK 18/10 Q1023","updated":"2026-04-04T10:31:48Z"}
