{"icao":"LPPR","metar":"LPPR 142300Z 12008KT CAVOK 11/07 Q1016","updated":"2025-12-14T23:17:11Z"}
