{"icao":"LPMR","metar":"LPMR 302300Z 16004KT 3000 BR SCT003 06/06 Q1021","updated":"2025-12-30T23:18:06Z"}
