{"icao":"LPLA","metar":"LPLA 250200Z 09005KT 9999 OVC027 14/08 Q1031","updated":"2026-03-25T02:05:42Z"}
