{"icao":"LPPR","metar":"LPPR 180100Z 00000KT 9000 MIFG NSC 12/11 Q1020","updated":"2025-09-18T01:16:37Z"}
