{"icao":"KLAX","metar":"KLAX 220353Z 28009KT 10SM CLR 14/08 A3018 RMK AO2 SLP218 T01390083 $","updated":"2026-02-22T04:47:33Z"}
