{"icao":"KORD","metar":"KORD 031251Z 10006KT 9SM SCT015 OVC026 01/M02 A3013 RMK AO2 SLP209 T00111022","updated":"2026-03-03T12:56:04Z"}
