{"icao":"KORD","metar":"KORD 020751Z 00000KT 10SM SCT025 BKN032 BKN075 06/04 A3016 RMK AO2 SLP216 T00560044 $","updated":"2025-11-02T08:20:24Z"}
