{"icao":"LPMA","metar":"LPMA 040900Z 34009KT 9999 BKN016 16/11 Q1028","updated":"2025-12-04T09:23:25Z"}
