{"icao":"LPAZ","metar":"LPAZ 271700Z 02008KT 350V050 9999 FEW029 17/08 Q1034","updated":"2026-02-27T17:33:59Z"}
