{"icao":"KORD","metar":"KORD 121451Z 13008KT 10SM FEW030 FEW250 15/09 A3004 RMK AO2 SLP172 T01500089 50001 $","updated":"2025-10-12T15:15:39Z"}
