{"icao":"LPCS","metar":"LPCS 240830Z 16007KT 9999 FEW008 BKN012 13/11 Q1019","updated":"2026-02-24T08:46:02Z"}
