{"icao":"LPAR","metar":"LPAR 301300Z 05003KT 020V120 0150 FG VV/// 08/08 Q1021","updated":"2025-12-30T13:34:48Z"}
