{"icao":"LPAZ","metar":"LPAZ 300130Z 33009KT 9999 FEW007 SCT011 BKN023 17/16 Q1029","updated":"2025-11-30T01:42:25Z"}
