{"icao":"LPPT","metar":"LPPT 140900Z 31009KT 280V340 9999 SCT016 13/10 Q1019","updated":"2026-03-14T09:31:48Z"}
