{"icao":"LPPT","metar":"LPPT 162200Z 21005KT 9999 SCT020 12/11 Q1011","updated":"2025-11-16T22:16:37Z"}
