{"icao":"KJFK","metar":"KJFK 211051Z 01013KT 10SM FEW037 BKN065 BKN250 17/07 A3013 RMK AO2 SLP201 T01720067","updated":"2026-05-21T11:21:45Z"}
