{"icao":"KLAX","metar":"KLAX 181625Z 08004KT 3/4SM R25L/0800V4500FT BR FEW000 SCT002 BKN120 13/13 A3000 RMK AO2 VIS 1/8V1 SCT002 V BKN FG FEW000 T01280128 $","updated":"2025-12-18T16:28:59Z"}
