{"icao":"LPST","metar":"LPST 241300Z 27009KT 230V300 9999 SCT016 BKN020 22/18 Q1017","updated":"2025-10-24T13:29:07Z"}
