{"icao":"LPBJ","metar":"LPBJ 270700Z 11007KT CAVOK 20/11 Q1020","updated":"2026-05-27T08:01:55Z"}
