{"icao":"LPFL","metar":"LPFL 191500Z 34010KT 280V010 9999 VCSH FEW017 SCT042 16/12 Q1029","updated":"2025-12-19T15:20:55Z"}
