{"icao":"LPPR","metar":"LPPR 181930Z 29003KT CAVOK 17/12 Q1015","updated":"2026-04-18T19:39:50Z"}
