{"icao":"LPFR","metar":"LPFR 202100Z 34004KT CAVOK 11/05 Q1021","updated":"2025-11-20T21:17:11Z"}
