{"icao":"KJFK","metar":"KJFK 221951Z 12018G23KT 10SM FEW100 BKN210 BKN250 17/03 A3034 RMK AO2 SLP274 T01720033","updated":"2026-05-22T20:42:09Z"}
