{"icao":"LPPS","metar":"LPPS 160730Z 03008KT 010V070 9999 SCT015 BKN030 15/10 Q1021","updated":"2026-04-16T07:44:08Z"}
