{"icao":"LPPS","metar":"LPPS 140330Z 11003KT 040V160 9999 FEW015 20/16 Q1016","updated":"2025-10-14T03:37:01Z"}
