{"icao":"KJFK","metar":"KJFK 050751Z 01004KT 10SM BKN250 M06/M11 A3014 RMK AO2 SLP204 T10561111 PNO $","updated":"2026-02-05T08:41:09Z"}
