{"icao":"LPFR","metar":"LPFR 080700Z 01005KT 320V040 CAVOK 11/08 Q1019","updated":"2026-03-08T07:29:35Z"}
