{"icao":"LPFL","metar":"LPFL 021530Z 10004KT 050V150 9999 SCT020 BKN026 16/10 Q1032","updated":"2026-04-02T15:59:50Z"}
