{"icao":"LPOV","metar":"LPOV 091500Z 34016KT CAVOK 18/15 Q1015","updated":"2026-04-09T15:21:10Z"}
