{"icao":"KJFK","metar":"KJFK 030751Z 35004KT 10SM SCT250 12/08 A3042 RMK AO2 SLP301 T01220083","updated":"2025-10-03T08:22:03Z"}
