{"icao":"LPPS","metar":"LPPS 010430Z 04012KT 350V060 9999 FEW015 BKN030 14/09 Q1023","updated":"2026-03-01T04:52:09Z"}
