{"icao":"KLAX","metar":"KLAX 061053Z 01004KT 10SM CLR 14/M03 A2994 RMK AO2 SLP135 T01441028","updated":"2026-03-06T11:27:50Z"}
