{"icao":"LPMT","metar":"LPMT 172000Z VRB01KT CAVOK 20/14 Q1014","updated":"2025-10-17T20:19:32Z"}
