{"icao":"KLAX","metar":"KLAX 010653Z 28005KT 10SM FEW010 19/17 A3001 RMK AO2 SLP159 T01940172 $","updated":"2025-10-01T07:18:00Z"}
