{"icao":"LPHR","metar":"LPHR 011000Z 28031G42KT 7000 -SHRA SCT015 BKN030 14/09 Q1007","updated":"2026-02-01T10:24:11Z"}
