{"icao":"KJFK","metar":"KJFK 251451Z 36010KT 10SM FEW060 14/01 A3039 RMK AO2 SLP290 T01390011 51014","updated":"2025-10-25T15:15:38Z"}
