{"icao":"LPAR","metar":"LPAR 211300Z 01016KT CAVOK 16/01 Q1027","updated":"2025-11-21T13:27:26Z"}
