{"icao":"LPHR","metar":"LPHR 241300Z 24008KT 210V270 9999 SCT016 20/17 Q1027","updated":"2025-11-24T13:32:27Z"}
