{"icao":"LPAZ","metar":"LPAZ 130600Z 34005KT 9999 FEW013 SCT049 19/17 Q1016","updated":"2025-10-13T06:28:30Z"}
