{"icao":"LPMT","metar":"LPMT 041100Z VRB03KT 9999 FEW020 SCT030 17/12 Q1023","updated":"2025-12-04T11:18:04Z"}
