{"icao":"LPMA","metar":"LPMA 211000Z 24006KT 9999 SCT016 17/11 Q1021","updated":"2026-01-21T10:27:48Z"}
