{"icao":"LPLA","metar":"LPLA 191400Z 36012KT 340V040 9999 SCT025 17/10 Q1026","updated":"2025-11-19T14:18:40Z"}
