{"icao":"KLAX","metar":"KLAX 230904Z 33003KT 8SM SCT007 BKN150 19/17 A2981 RMK AO2 T01890172 $","updated":"2025-09-23T09:18:59Z"}
