{"icao":"LPBJ","metar":"LPBJ 151100Z 35017KT 320V020 9999 FEW025 19/07 Q1013","updated":"2026-05-15T11:54:56Z"}
