{"icao":"LPAZ","metar":"LPAZ 111130Z 25011KT 6000 FEW007 17/15 Q1019","updated":"2026-02-11T11:43:30Z"}
