{"icao":"LPMA","metar":"LPMA 110900Z 24003KT 170V290 9999 FEW015 16/08 Q1023","updated":"2025-12-11T09:25:13Z"}
