{"icao":"KORD","metar":"KORD 161851Z 27013G20KT 10SM SCT031 SCT050 BKN080 22/13 A2979 RMK AO2 SLP086 CB DSNT E-SE T02170133 $","updated":"2026-04-16T19:11:00Z"}
