{"icao":"KJFK","metar":"KJFK 211051Z 26008KT 10SM CLR 11/04 A2995 RMK AO2 SLP142 T01060044","updated":"2025-10-21T11:15:14Z"}
