{"icao":"LPHR","metar":"LPHR 021000Z 33010G21KT 300V010 9999 FEW022 BKN033 14/08 Q1010","updated":"2026-01-02T10:20:21Z"}
