{"icao":"LPPT","metar":"LPPT 271700Z 31010KT 290V350 9999 FEW048 25/16 Q1010","updated":"2026-04-27T17:20:26Z"}
