{"icao":"LPPI","metar":"LPPI 271100Z 35007KT 310V080 9999 SCT016 BKN033 19/16 Q1025","updated":"2026-06-27T11:25:38Z"}
