{"icao":"LPPD","metar":"LPPD 191000Z 25010KT 0400 -RA FG VV001 22/22 Q1016","updated":"2025-10-19T10:16:39Z"}
