{"icao":"LPOV","metar":"LPOV 191700Z 32007KT 300V360 9999 FEW018 13/07 Q1028","updated":"2026-02-19T17:48:53Z"}
