{"icao":"LPMA","metar":"LPMA 100900Z 35008KT 310V030 9999 SCT016 SCT060 18/08 Q1025","updated":"2025-12-10T09:23:51Z"}
