{"icao":"LPLA","metar":"LPLA 031400Z 24015KT 3200 RA BR FEW011 BKN016 BKN030 18/16 Q1001","updated":"2026-02-03T14:06:24Z"}
