{"icao":"LPMR","metar":"LPMR 290300Z VRB01KT 5000 BR BKN018 BKN032 11/10 Q1020","updated":"2025-11-29T03:10:11Z"}
