{"icao":"LPMT","metar":"LPMT 010500Z 05004KT CAVOK 16/14 Q1019","updated":"2025-10-01T05:17:28Z"}
