{"icao":"KORD","metar":"KORD 221451Z 24010KT 10SM FEW030 FEW043 M09/M17 A3018 RMK AO2 SLP232 T10891167 51018 $","updated":"2026-01-22T15:29:43Z"}
