{"icao":"LPMA","metar":"LPMA 271000Z 02009KT 330V070 9999 SCT016 20/11 Q1023","updated":"2025-11-27T10:21:38Z"}
