{"icao":"LPMR","metar":"LPMR 140700Z 33009KT 9999 FEW018 BKN028 15/12 Q1016","updated":"2026-05-14T09:33:05Z"}
