{"icao":"LPPR","metar":"LPPR 161900Z 24006KT 9000 FEW005 BKN007 14/13 Q1028","updated":"2026-02-16T19:31:35Z"}
