{"icao":"KJFK","metar":"KJFK 081351Z 31010KT 8SM -RA FEW011 FEW037 OVC075 19/17 A2994 RMK AO2 SLP137 P0003 T01890172","updated":"2025-10-08T14:18:31Z"}
