{"icao":"LPPD","metar":"LPPD 270600Z 28035G46KT 9999 FEW020 FEW025CB SCT040 14/07 Q1009","updated":"2026-01-27T06:34:01Z"}
