{"icao":"LPOV","metar":"LPOV 050600Z 16003KT 3000 BR NSC 07/07 Q1021","updated":"2026-04-05T07:04:10Z"}
