{"icao":"LPHR","metar":"LPHR 261500Z 16007KT 100V210 8000 -SHRA FEW006 SCT014 BKN035 21/18 Q1015","updated":"2025-09-26T15:18:23Z"}
