{"icao":"LPPR","metar":"LPPR 021600Z VRB02KT CAVOK 17/11 Q1026","updated":"2025-11-02T16:19:39Z"}
