{"icao":"KJFK","metar":"KJFK 230351Z 28012G24KT 10SM BKN220 04/M15 A3009 RMK SLP190 T00441150 $ ","updated":"2026-01-23T04:41:23Z"}
