{"icao":"LPFR","metar":"LPFR 131900Z 31003KT 9999 FEW020 13/11 Q1014","updated":"2026-01-13T19:19:00Z"}
