{"icao":"KORD","metar":"KORD 031351Z 36003KT 10SM FEW030 SCT095 M09/M13 A3018 RMK AO2 SLP230 T10891128","updated":"2026-02-03T14:06:25Z"}
