{"icao":"LPFR","metar":"LPFR 070300Z 03006KT CAVOK 20/17 Q1020","updated":"2025-10-07T03:30:42Z"}
