{"icao":"LPFL","metar":"LPFL 281800Z 31005KT 220V010 9999 FEW023 17/11 Q1023","updated":"2025-10-28T18:28:17Z"}
