{"icao":"LPHR","metar":"LPHR 261500Z 19013KT 9999 FEW018 SCT030 20/16 Q1021","updated":"2025-11-26T15:18:11Z"}
