{"icao":"KORD","metar":"KORD 110451Z 29012G27KT 10SM -SN SCT028 BKN034 OVC045 M03/M08 A2999 RMK AO2 PK WND 29031/0429 SLP162 P0000 T10281083","updated":"2026-01-11T05:24:21Z"}
