{"icao":"LPPD","metar":"LPPD 081000Z 02021G32KT 9999 -RA FEW012 12/09 Q1026","updated":"2026-03-08T10:24:22Z"}
