{"icao":"LPFR","metar":"LPFR 040800Z 33010KT 300V020 9999 FEW018 22/14 Q1017","updated":"2026-06-04T08:19:25Z"}
