{"icao":"LPMT","metar":"LPMT 091800Z 25005KT CAVOK 16/12 Q1020","updated":"2025-11-09T18:22:49Z"}
