{"icao":"KLAX","metar":"KLAX 191053Z 27006KT 10SM FEW005 SCT007 BKN100 BKN160 20/18 A2987 RMK AO2 SLP112 T02000183","updated":"2025-09-19T11:14:15Z"}
