{"icao":"LPFR","metar":"LPFR 271000Z 25024KT 230V290 2500 RADZ BR SCT007 SCT012 BKN020 13/12 Q1006","updated":"2026-01-27T10:26:49Z"}
