{"icao":"LPCS","metar":"LPCS 191030Z 36008KT 330V040 9999 FEW026 SCT045 13/07 Q1028","updated":"2026-02-19T10:41:19Z"}
