{"icao":"KJFK","metar":"KJFK 301451Z 22004KT 10SM OVC010 10/08 A2977 RMK SLP081 T01000083 55001 $ ","updated":"2026-04-30T15:08:39Z"}
