{"icao":"LPOV","metar":"LPOV 161400Z 31006KT 270V350 6000 0900N PRFG FEW001 SCT003 17/16 Q1015","updated":"2025-10-16T14:18:27Z"}
