{"icao":"LPPS","metar":"LPPS 101600Z 35012KT 9999 -SHRA SCT014 BKN030 20/18 Q1022","updated":"2025-10-10T16:21:38Z"}
