{"icao":"KJFK","metar":"KJFK 221251Z 25011KT 10SM FEW035 FEW070 BKN250 03/M05 A3004 RMK SLP173 T00331050 $ ","updated":"2026-01-22T13:45:23Z"}
