{"icao":"LPAR","metar":"LPAR 210900Z 02007KT CAVOK 12/02 Q1027","updated":"2025-11-21T09:19:18Z"}
