{"icao":"LPMA","metar":"LPMA 200800Z 33009KT 290V010 9999 FEW016 14/10 Q1025","updated":"2025-12-20T08:24:13Z"}
