{"icao":"LPMA","metar":"LPMA 051900Z 34011KT 310V010 9999 SCT018 21/12 Q1019","updated":"2025-11-05T19:14:38Z"}
