{"icao":"LPMA","metar":"LPMA 262200Z 36020KT 340V040 9999 BKN015 16/10 Q1026","updated":"2026-02-26T22:32:06Z"}
