{"icao":"LPST","metar":"LPST 241100Z 30007KT CAVOK 20/17 Q1021","updated":"2026-05-24T11:15:05Z"}
