{"icao":"LPMA","metar":"LPMA 130930Z 02017KT 9999 BKN015 16/09 Q1025","updated":"2026-03-13T09:37:03Z"}
