{"icao":"LPFL","metar":"LPFL 262100Z 33010KT 270V360 9999 SCT017 16/10 Q1021","updated":"2025-11-26T23:17:28Z"}
