{"icao":"KLAX","metar":"KLAX 061553Z 00000KT 10SM FEW019 FEW040 SCT160 17/12 A3008 RMK AO2 SLP184 T01720117","updated":"2026-05-06T16:26:05Z"}
