{"icao":"LPPR","metar":"LPPR 061900Z 34012KT CAVOK 17/12 Q1020","updated":"2026-06-06T19:20:08Z"}
