{"icao":"LPFR","metar":"LPFR 110500Z 03004KT CAVOK 07/06 Q1028","updated":"2026-01-11T05:23:47Z"}
