{"icao":"LPCS","metar":"LPCS 261100Z 02010KT 9999 FEW020 15/05 Q1026","updated":"2025-11-26T11:16:41Z"}
