{"icao":"LPMT","metar":"LPMT 100300Z VRB03KT 7000 FEW002 SCT010 12/12 Q1018","updated":"2025-12-10T03:21:14Z"}
