{"icao":"LPMA","metar":"LPMA 291600Z 36017G27KT 9999 FEW015 19/13 Q1025","updated":"2026-03-29T16:33:36Z"}
