{"icao":"LPBJ","metar":"LPBJ 060200Z 31008KT CAVOK 14/09 Q1019","updated":"2026-06-06T02:58:29Z"}
