{"icao":"KLAX","metar":"KLAX 171353Z 10005KT 10SM FEW008 SCT018 BKN035 BKN150 14/13 A2995 RMK AO2 RAE1259 SLP140 P0000 T01390128 $","updated":"2025-11-17T14:19:09Z"}
