{"icao":"LPFL","metar":"LPFL 081900Z 36007KT 330V030 9999 FEW021 BKN037 19/13 Q1036","updated":"2026-04-08T21:39:32Z"}
