{"icao":"LPPT","metar":"LPPT 310400Z 31005KT 280V340 9999 FEW025 SCT030 12/08 Q1018","updated":"2026-01-31T04:04:56Z"}
