{"icao":"LPCS","metar":"LPCS 271500Z 27014KT 240V320 9999 FEW016 SCT035 13/09 Q1004","updated":"2026-01-27T15:29:35Z"}
