{"icao":"KJFK","metar":"KJFK 192251Z 35008KT 10SM FEW060 FEW250 27/12 A2999 RMK AO2 SLP153 T02670122 $","updated":"2025-09-19T23:14:59Z"}
