{"icao":"LPPR","metar":"LPPR 281230Z 04011KT 350V090 CAVOK 19/05 Q1025","updated":"2026-03-28T12:53:04Z"}
