{"icao":"KORD","metar":"KORD 262251Z 28025G38KT 10SM OVC033 00/M07 A2994 RMK AO2 PK WND 27040/2241 SNE12 SLP145 P0000 T00001072","updated":"2025-11-26T23:17:42Z"}
