{"icao":"KJFK","metar":"KJFK 091451Z 14006KT 10SM FEW008 BKN085 OVC110 15/10 A2990 RMK AO2 SLP125 60000 T01500100 57006 $","updated":"2026-05-09T15:51:00Z"}
