{"icao":"LPBJ","metar":"LPBJ 221400Z 07005KT 030V110 CAVOK 14/M01 Q1028","updated":"2025-11-22T14:15:22Z"}
