{"icao":"KLAX","metar":"KLAX 061453Z VRB03KT 10SM FEW010 14/11 A3015 RMK AO2 SLP207 T01390106 53002 $","updated":"2025-11-06T15:20:21Z"}
