{"icao":"LPBJ","metar":"LPBJ 220100Z 29005KT 9999 FEW025 04/03 Q1011","updated":"2025-12-22T01:42:32Z"}
