{"icao":"LPMT","metar":"LPMT 061300Z 34016KT 310V010 9999 FEW030 13/07 Q1018","updated":"2026-03-06T13:54:26Z"}
