{"icao":"KJFK","metar":"KJFK 060551Z 22004KT 10SM FEW250 20/16 A2993 RMK AO2 SLP134 T02000156 10228 20189 56005 $","updated":"2026-06-06T06:34:22Z"}
