{"icao":"LPFR","metar":"LPFR 291730Z 25008KT CAVOK 28/18 Q1017","updated":"2026-06-29T17:35:05Z"}
