{"icao":"LPPR","metar":"LPPR 211800Z 31004KT CAVOK 13/09 Q1029","updated":"2026-02-21T18:33:12Z"}
