{"icao":"LPMR","metar":"LPMR 300200Z 36005KT 8000 FEW020 BKN030 12/09 Q1017","updated":"2025-11-30T03:25:35Z"}
