{"icao":"LPFR","metar":"LPFR 050600Z 36002KT CAVOK 19/15 Q1018","updated":"2025-10-05T06:23:22Z"}
