{"icao":"KORD","metar":"KORD 210551Z 12005KT 10SM -RA FEW075 OVC110 21/19 A2998 RMK AO2 RAB44 SLP148 P0000 60000 T02060189 10206 20200 402500189 58012","updated":"2025-09-21T06:24:30Z"}
