{"icao":"KJFK","metar":"KJFK 251051Z 11013KT 10SM FEW025 SCT120 BKN250 08/03 A3001 RMK SLP163 T00830028 $ ","updated":"2026-04-25T11:36:56Z"}
