{"icao":"LPBJ","metar":"LPBJ 220700Z 21005KT 9000 VCFG FEW020 03/03 Q1012","updated":"2025-12-22T07:23:17Z"}
