{"icao":"LPOV","metar":"LPOV 020700Z 00000KT 0400 FG VV/// 09/09 Q1021","updated":"2026-04-02T07:10:34Z"}
