{"icao":"KORD","metar":"KORD 240751Z 17006KT 10SM BKN110 M01/M08 A3040 RMK AO2 SLP301 T10061083","updated":"2026-03-24T08:52:12Z"}
