{"icao":"LPLA","metar":"LPLA 261100Z VRB11G25KT 9000 -SHRA FEW020 FEW025TCU BKN030 17/12 Q1025 RESHRA","updated":"2025-10-26T11:13:15Z"}
