{"icao":"LPPT","metar":"LPPT 230130Z 28010KT 240V310 9999 SCT030 BKN034 12/08 Q1005","updated":"2026-01-23T01:41:11Z"}
