{"icao":"LPMT","metar":"LPMT 291000Z VRB02KT 9999 FEW035 BKN040 13/12 Q1020","updated":"2025-11-29T10:18:16Z"}
