{"icao":"LPOV","metar":"LPOV 101600Z 21010KT 0700 -DZ FG OVC002 15/15 Q1012","updated":"2026-02-10T16:08:43Z"}
