{"icao":"LPCS","metar":"LPCS 282130Z 01012KT CAVOK 15/08 Q1025","updated":"2026-03-29T02:22:59Z"}
