{"icao":"LPCS","metar":"LPCS 111600Z 29007KT 230V330 9999 FEW035 26/14 Q1017","updated":"2025-10-11T16:18:27Z"}
