{"icao":"KJFK","metar":"KJFK 201751Z 27019G29KT 10SM FEW050 M06/M17 A3031 RMK AO2 PK WND 27029/1750 SLP263 4/001 T10611167 11061 21083 58004 $","updated":"2026-01-20T18:35:39Z"}
