{"icao":"LPFR","metar":"LPFR 020730Z 27019KT 8000 FEW018 BKN035 14/10 Q1001","updated":"2026-02-02T07:48:23Z"}
