{"icao":"LPOV","metar":"LPOV 221600Z 31005KT 270V330 6000 BKN004 14/13 Q1011","updated":"2026-03-22T16:29:10Z"}
