{"icao":"KJFK","metar":"KJFK 151151Z 35008KT 10SM FEW020 BKN210 BKN250 14/11 A2999 RMK AO2 SLP154 T01440111 10156 20139 50000 $","updated":"2025-10-15T12:38:56Z"}
