{"icao":"LPFR","metar":"LPFR 181700Z 11006KT CAVOK 23/17 Q1016","updated":"2025-10-18T17:13:10Z"}
