{"icao":"LPBJ","metar":"LPBJ 290300Z 15005KT 9999 FEW040 17/16 Q1008","updated":"2025-10-29T03:14:14Z"}
