{"icao":"LPAR","metar":"LPAR 241100Z 06004KT CAVOK 17/11 Q1021","updated":"2026-03-24T14:56:34Z"}
