{"icao":"LPMA","metar":"LPMA 170530Z 28004KT 250V320 9999 BKN015 15/11 Q1026","updated":"2026-02-17T05:56:33Z"}
