{"icao":"LPAZ","metar":"LPAZ 140400Z 30023KT 9999 FEW021 16/10 Q1008","updated":"2025-11-14T04:21:47Z"}
