{"icao":"KJFK","metar":"KJFK 241651Z 32008G16KT 290V060 10SM FEW120 FEW170 SCT250 18/00 A2982 RMK SLP096 T01830000 $ ","updated":"2026-04-24T17:49:22Z"}
