{"icao":"KORD","metar":"KORD 120651Z 27005KT 10SM CLR 00/M05 A3015 RMK AO2 SLP216 T00001050","updated":"2026-03-12T06:53:52Z"}
