{"icao":"LPLA","metar":"LPLA 271300Z 34015KT 9999 FEW022 SCT035 20/14 Q1025","updated":"2026-06-27T13:39:38Z"}
