{"icao":"LPMA","metar":"LPMA 041400Z 04011KT 350V070 9999 SCT015 25/17 Q1026","updated":"2025-10-04T14:14:03Z"}
