{"icao":"LPAR","metar":"LPAR 291600Z 32009KT 290V010 CAVOK 30/15 Q1019","updated":"2026-05-30T13:26:15Z"}
