{"icao":"LPBJ","metar":"LPBJ 022200Z 14013KT 9999 -RA BKN015 13/12 Q1002 RERA","updated":"2026-01-02T22:18:57Z"}
