{"icao":"LPPT","metar":"LPPT 151000Z 36011KT CAVOK 24/15 Q1022","updated":"2025-09-15T10:18:28Z"}
