{"icao":"KORD","metar":"KORD 042251Z 20012G20KT 10SM FEW070 29/12 A3003 RMK AO2 SLP163 T02940117 $","updated":"2025-10-04T23:15:40Z"}
