{"icao":"KJFK","metar":"KJFK 081351Z 26007KT 10SM FEW015 SCT150 14/12 A2974 RMK AO2 RAE1257 SLP072 P0000 T01390122 $","updated":"2025-11-08T14:15:19Z"}
