{"icao":"LPMA","metar":"LPMA 041830Z 03007KT 340V060 9999 FEW015 19/11 Q1018","updated":"2026-04-04T18:40:14Z"}
