{"icao":"LPPR","metar":"LPPR 031100Z 28004KT 210V330 4500 BR SCT004 17/15 Q1024","updated":"2025-10-03T11:13:54Z"}
