{"icao":"KLAX","metar":"KLAX 030053Z 26013KT 10SM FEW020 FEW100 SCT160 21/16 A2996 RMK AO2 SLP144 T02110161 $","updated":"2025-10-03T01:16:33Z"}
