{"icao":"LPPR","metar":"LPPR 290800Z 13006KT 090V150 5000 BR SCT004 BKN040 11/10 Q1018","updated":"2025-11-29T08:23:18Z"}
