{"icao":"LPFR","metar":"LPFR 240900Z 09011KT CAVOK 25/10 Q1020","updated":"2026-05-24T09:23:06Z"}
