{"icao":"KLAX","metar":"KLAX 210453Z 07005KT 9SM FEW250 13/12 A3004 RMK AO2 SLP172 T01330122 $","updated":"2026-01-21T05:27:19Z"}
