{"icao":"LPST","metar":"LPST 161000Z 32006KT 290V350 9999 FEW012 17/12 Q1022","updated":"2026-04-16T11:01:03Z"}
