{"icao":"LPLA","metar":"LPLA 072200Z 18012KT 6000 -RA SCT015 BKN022 BKN030 15/15 Q1005","updated":"2025-12-07T22:16:58Z"}
