{"icao":"LPLA","metar":"LPLA 290700Z 15013KT 8000 -RA FEW012 BKN020 20/19 Q1024","updated":"2025-09-29T07:18:18Z"}
