{"icao":"KORD","metar":"KORD 231651Z 05009KT 10SM FEW042 FEW150 FEW250 21/10 A3022 RMK AO2 SLP231 T02110100","updated":"2026-06-23T17:52:08Z"}
