{"icao":"LPBJ","metar":"LPBJ 192200Z 30008KT CAVOK 08/07 Q1021","updated":"2026-01-19T22:20:05Z"}
