{"icao":"LPPT","metar":"LPPT 162100Z 32006KT 290V350 9999 FEW020 SCT045 08/07 Q1015 RESHRA","updated":"2026-01-16T21:19:37Z"}
