{"icao":"LPFL","metar":"LPFL 042200Z 28005KT 260V020 9999 FEW028 14/05 Q1015","updated":"2025-11-05T07:18:26Z"}
