{"icao":"LPCS","metar":"LPCS 161300Z 21008KT CAVOK 25/09 Q1014","updated":"2025-10-16T13:29:38Z"}
