{"icao":"KJFK","metar":"KJFK 070051Z 05008KT 10SM OVC016 04/01 A3044 RMK AO2 SLP306 T00390006","updated":"2026-03-07T01:52:24Z"}
