{"icao":"KORD","metar":"KORD 192259Z 05009KT 10SM OVC014 07/01 A2954 RMK AO2 T00670006 $","updated":"2026-02-19T23:29:02Z"}
