{"icao":"LPPR","metar":"LPPR 290930Z 24008KT 210V280 4400 RA BR SCT002 SCT007 BKN025 14/14 Q1004 REDZ","updated":"2026-01-29T09:40:44Z"}
