{"icao":"KORD","metar":"KORD 010651Z 05016G25KT 10SM BKN015 BKN250 03/00 A3012 RMK AO2 PK WND 04028/0639 SLP200 T00330000 $","updated":"2026-04-01T07:19:00Z"}
