{"icao":"KORD","metar":"KORD 200751Z 27010KT 10SM FEW065 FEW090 18/12 A2993 RMK AO2 SLP130 T01830122 $","updated":"2026-06-20T08:53:30Z"}
