{"icao":"KLAX","metar":"KLAX 142053Z 15008KT 10SM SCT030 BKN250 19/10 A3009 RMK AO2 SLP188 T01890100 58017 $","updated":"2026-02-14T21:22:51Z"}
