{"icao":"LPPR","metar":"LPPR 292200Z 13004KT 9999 SCT012 13/12 Q1012","updated":"2025-10-29T22:17:26Z"}
