{"icao":"LPPD","metar":"LPPD 271700Z 24029G41KT 5000 BR SCT012 FEW020TCU BKN045 16/14 Q1005","updated":"2026-01-27T17:26:31Z"}
