{"icao":"KJFK","metar":"KJFK 310951Z 32006KT 10SM FEW150 SCT250 M13/M18 A3019 RMK AO2 SLP223 T11281183 $","updated":"2026-01-31T10:23:21Z"}
