{"icao":"LPFR","metar":"LPFR 202300Z 01007KT CAVOK 12/05 Q1022","updated":"2025-11-20T23:17:10Z"}
