{"icao":"LPAZ","metar":"LPAZ 292000Z 10011KT 9999 FEW020 BKN030 15/09 Q1032","updated":"2026-03-29T20:31:44Z"}
