{"icao":"LPPT","metar":"LPPT 081500Z 19013KT 150V220 9999 SCT035 19/09 Q1007","updated":"2026-05-08T15:20:15Z"}
