{"icao":"LPMA","metar":"LPMA 071600Z 20008KT 160V220 9999 SCT015 23/18 Q1020","updated":"2025-11-07T16:19:23Z"}
