{"icao":"KORD","metar":"KORD 062151Z 33015G23KT 10SM BKN047 03/M05 A2994 RMK AO2 PK WND 34026/2137 SLP146 T00331050 $","updated":"2026-02-06T22:22:37Z"}
