{"icao":"KORD","metar":"KORD 080951Z 26005KT 10SM BKN033 M08/M12 A3033 RMK AO2 SLP280 T10781117","updated":"2025-12-08T10:22:24Z"}
