{"icao":"LPPT","metar":"LPPT 130800Z 26007KT 9999 VCSH SCT014 FEW018CB 11/11 Q1008 RERA","updated":"2026-01-13T08:29:20Z"}
