{"icao":"LPPR","metar":"LPPR 200400Z 19005KT 9999 FEW006 BKN038 16/16 Q1012","updated":"2025-10-20T04:23:58Z"}
