{"icao":"LPMR","metar":"LPMR 141200Z 10010KT 060V130 CAVOK 17/07 Q1019","updated":"2025-12-14T12:36:37Z"}
