{"icao":"LPMT","metar":"LPMT 302100Z 36007KT CAVOK 12/07 Q1020","updated":"2025-11-30T21:16:13Z"}
