{"icao":"LPAZ","metar":"LPAZ 302200Z 27015KT 9999 SCT022 SCT034 19/15 Q1010","updated":"2025-10-30T22:17:34Z"}
