{"icao":"LPFR","metar":"LPFR 180800Z 10009KT CAVOK 25/20 Q1019","updated":"2025-09-18T08:22:05Z"}
