{"icao":"LPCS","metar":"LPCS 201330Z 12009KT 080V140 9999 VCSH FEW014 SCT018 FEW020TCU 17/12 Q1007","updated":"2026-03-20T14:02:13Z"}
