{"icao":"LPFR","metar":"LPFR 091200Z 14006KT CAVOK 19/09 Q1021","updated":"2025-11-09T12:33:17Z"}
