{"icao":"LPMR","metar":"LPMR 021300Z 29011KT 260V320 9999 SCT020 FEW022CB 15/09 Q1017","updated":"2025-12-02T13:35:41Z"}
