{"icao":"KORD","metar":"KORD 101651Z 22010G19KT 10SM SCT031 BKN300 31/23 A2974 RMK AO2 SLP066 T03060228","updated":"2026-06-10T16:56:56Z"}
