{"icao":"LPPR","metar":"LPPR 171800Z 08003KT 020V120 9999 -SHRA FEW017 BKN031 08/06 Q1010","updated":"2026-01-17T18:26:56Z"}
