{"icao":"KJFK","metar":"KJFK 250551Z 02009KT 10SM BKN120 BKN150 OVC250 M10/M23 A3067 RMK AO2 SLP386 T11001228 11083 21100 56009 $","updated":"2026-01-25T06:30:14Z"}
