{"icao":"LPOV","metar":"LPOV 021300Z 33007KT 260V360 CAVOK 20/16 Q1021","updated":"2025-10-02T13:25:12Z"}
