{"icao":"LPCS","metar":"LPCS 131430Z 23006KT 150V280 CAVOK 28/13 Q1017","updated":"2026-06-13T14:58:49Z"}
