{"icao":"LPPR","metar":"LPPR 102000Z 16009KT 8000 -SHRA FEW009 FEW018CB BKN040 16/15 Q1016","updated":"2025-11-10T20:21:35Z"}
