{"icao":"LPMT","metar":"LPMT 141100Z 01005KT 330V030 CAVOK 23/13 Q1017","updated":"2025-10-14T11:14:57Z"}
