{"icao":"LPMR","metar":"LPMR 161900Z 22008KT 190V270 7000 FEW012 BKN018 FEW020CB 13/12 Q1010 RESHRA","updated":"2025-11-16T19:13:55Z"}
