{"icao":"LPST","metar":"LPST 291600Z 31012KT 9999 FEW020 21/17 Q1021","updated":"2026-05-30T06:22:54Z"}
