{"icao":"LPPR","metar":"LPPR 071700Z 25004KT 220V290 9999 FEW010 SCT015 18/15 Q1022","updated":"2025-10-07T17:15:19Z"}
