{"icao":"LPOV","metar":"LPOV 201500Z 20007KT 170V240 9999 FEW020 SCT030 20/17 Q1013","updated":"2025-10-20T15:18:04Z"}
