{"icao":"LPLA","metar":"LPLA 170500Z 36007KT 330V030 9999 SCT003 BKN005 14/13 Q1017 RED ZRA","updated":"2026-04-17T05:26:48Z"}
