{"icao":"LPPS","metar":"LPPS 021030Z 02017KT 9999 SCT014 22/17 Q1020","updated":"2026-07-02T10:37:37Z"}
