{"icao":"LPFR","metar":"LPFR 150630Z VRB03KT CAVOK 10/08 Q1030","updated":"2026-02-15T06:50:46Z"}
