{"icao":"LPST","metar":"LPST 261600Z 22014KT 200V260 9000 BKN008 BKN020 15/13 Q1010","updated":"2026-01-26T16:32:48Z"}
