{"icao":"LPPR","metar":"LPPR 131230Z 29005KT 270V340 CAVOK 24/14 Q1016","updated":"2025-10-13T12:37:03Z"}
