{"icao":"LPBJ","metar":"LPBJ 302100Z 30007KT CAVOK 15/08 Q1018","updated":"2026-04-30T22:02:34Z"}
