{"icao":"LPMA","metar":"LPMA 280900Z 35006KT 270V060 9999 SCT015 22/16 Q1025","updated":"2025-09-28T09:15:52Z"}
