{"icao":"LPMA","metar":"LPMA 111000Z 21017KT 9999 FEW015 22/15 Q1014","updated":"2025-11-11T10:20:33Z"}
