{"icao":"KJFK","metar":"KJFK 260651Z 18010KT 10SM -RA SCT085 BKN120 06/04 A3009 RMK AO2 RAB49 SLP188 P0000 T00610044 $","updated":"2026-03-26T07:06:51Z"}
