{"icao":"LPOV","metar":"LPOV 110500Z 18002KT CAVOK 11/11 Q1019","updated":"2026-06-11T05:26:34Z"}
