{"icao":"LPMT","metar":"LPMT 301600Z 32004KT 280V040 CAVOK 21/05 Q1027","updated":"2026-03-30T17:53:08Z"}
