{"icao":"LPMR","metar":"LPMR 240800Z 22005KT 200V260 9999 BKN018 BKN030 20/19 Q1016","updated":"2025-10-24T08:23:58Z"}
