{"icao":"LPMA","metar":"LPMA 152300Z 33009KT 290V020 9999 FEW015 20/11 Q1018","updated":"2025-11-15T23:16:04Z"}
