{"icao":"LPPR","metar":"LPPR 250700Z 34003KT 310V030 9999 -RA FEW025 BKN045 15/14 Q1014","updated":"2025-10-25T07:15:58Z"}
