{"icao":"LPMA","metar":"LPMA 282000Z 35003KT 320V020 9999 SCT015 21/17 Q1010","updated":"2025-10-28T20:21:05Z"}
