{"icao":"KJFK","metar":"KJFK 142151Z 18008KT 10SM FEW030 SCT090 BKN250 23/17 A3005 RMK AO2 SLP175 T02280172 $","updated":"2025-09-14T22:14:47Z"}
