{"icao":"LPPD","metar":"LPPD 182100Z 16003KT 130V210 9999 FEW008 SCT014 FEW016TCU 23/21 Q1016","updated":"2025-09-18T21:15:26Z"}
