{"icao":"LPHR","metar":"LPHR 231230Z 24024KT 9999 FEW011 SCT050 BKN065 18/15 Q1007","updated":"2026-02-23T13:01:33Z"}
