{"icao":"LPBJ","metar":"LPBJ 120500Z 11005KT 9000 -DZ BKN007 12/11 Q1013","updated":"2025-12-12T05:20:17Z"}
