{"icao":"LPAZ","metar":"LPAZ 061400Z 07005KT 030V110 9999 BKN049 16/06 Q1033","updated":"2026-01-06T14:21:21Z"}
