{"icao":"KJFK","metar":"KJFK 080651Z 20016KT 10SM FEW019 BKN050 OVC110 21/19 A2996 RMK AO2 RAB18E43 SLP144 P0000 T02110189","updated":"2025-10-08T07:17:08Z"}
