{"icao":"LPPS","metar":"LPPS 110730Z 25006KT 220V300 9999 FEW012 BKN030 17/12 Q1024","updated":"2026-02-11T07:58:50Z"}
