{"icao":"LPAZ","metar":"LPAZ 240600Z 27008KT 9999 BKN031 18/12 Q1027","updated":"2025-11-24T06:29:50Z"}
