{"icao":"LPMT","metar":"LPMT 030800Z 04002KT CAVOK 10/10 Q1023","updated":"2025-11-03T08:26:06Z"}
