{"icao":"LPPD","metar":"LPPD 122300Z 18003KT 150V220 9999 FEW014 BKN040 20/17 Q1023","updated":"2026-06-12T23:15:07Z"}
