{"icao":"LPPR","metar":"LPPR 101300Z 26006KT 240V300 CAVOK 25/14 Q1013","updated":"2026-04-10T13:07:12Z"}
