{"icao":"KJFK","metar":"KJFK 091651Z 36011G24KT 10SM FEW050 14/00 A3045 RMK AO2 SLP310 T01440000","updated":"2025-10-09T17:16:05Z"}
