{"icao":"LPPS","metar":"LPPS 180430Z 35026KT 9999 SCT010 BKN030 16/14 Q1014","updated":"2026-01-18T04:40:32Z"}
