{"icao":"LPOV","metar":"LPOV 051400Z 34016KT CAVOK 20/12 Q1020","updated":"2025-10-05T14:13:55Z"}
