{"icao":"LPFR","metar":"LPFR 081730Z 35011KT 320V020 CAVOK 33/09 Q1016","updated":"2026-06-08T17:50:49Z"}
