{"icao":"LPFR","metar":"LPFR 251400Z 34015KT CAVOK 18/03 Q1020","updated":"2025-11-25T14:18:50Z"}
