{"icao":"KORD","metar":"KORD 291251Z 35007KT 10SM BKN060 10/06 A2992 RMK AO2 SLP131 T01000061","updated":"2026-04-29T13:53:20Z"}
