{"icao":"LPMR","metar":"LPMR 071900Z 33006KT 9000 FEW016 16/14 Q1017","updated":"2025-11-07T19:15:10Z"}
