{"icao":"LPLA","metar":"LPLA 080800Z 35013KT 9999 SCT030 12/05 Q1027","updated":"2026-03-08T08:29:51Z"}
