{"icao":"LPPT","metar":"LPPT 051300Z 24016KT 210V290 9999 FEW010 FEW025CB BKN028 19/14 Q1008","updated":"2025-11-05T13:30:50Z"}
