{"icao":"LPAZ","metar":"LPAZ 041500Z 28005KT 210V340 9999 OVC048 17/07 Q1023","updated":"2026-04-04T15:30:34Z"}
