{"icao":"LPMT","metar":"LPMT 172300Z VRB02KT CAVOK 17/15 Q1015","updated":"2025-10-17T23:15:19Z"}
