{"icao":"LPMR","metar":"LPMR 101300Z 33008KT 300V360 CAVOK 29/10 Q1012","updated":"2026-04-10T13:07:14Z"}
