{"icao":"LPBJ","metar":"LPBJ 221800Z 20013KT 2500 -RA BR SCT008 BKN020 11/11 Q1006","updated":"2026-01-22T18:31:19Z"}
