{"icao":"LPCS","metar":"LPCS 271930Z VRB02KT 9999 FEW022 19/16 Q1019","updated":"2025-10-27T22:16:17Z"}
