{"icao":"LPOV","metar":"LPOV 151500Z 35020KT CAVOK 16/11 Q1019","updated":"2026-03-15T15:28:01Z"}
