{"icao":"LPPR","metar":"LPPR 180600Z 05004KT CAVOK 08/07 Q1019","updated":"2025-11-18T06:28:05Z"}
