{"icao":"LPPR","metar":"LPPR 011600Z 18015KT 6000 -DZRA SCT001 BKN002 14/14 Q1005 REDZ","updated":"2026-02-01T16:28:21Z"}
