{"icao":"LPCS","metar":"LPCS 141800Z 36007KT CAVOK 23/10 Q1016","updated":"2025-10-14T18:26:15Z"}
