{"icao":"LPHR","metar":"LPHR 101500Z 22013KT 3000 -RADZ BR SCT004 BKN009 17/17 Q1018","updated":"2026-01-10T15:18:26Z"}
