{"icao":"KJFK","metar":"KJFK 191151Z 27009KT 10SM SCT022 SCT140 M04/M07 A2992 RMK AO2 SLP130 4/001 70028 T10441072 11006 21044 51021 $","updated":"2026-01-19T12:47:16Z"}
