{"icao":"LPST","metar":"LPST 131000Z 35009KT 310V030 9999 BKN012 13/10 Q1024","updated":"2026-03-13T10:35:12Z"}
