{"icao":"KORD","metar":"KORD 241651Z 27010KT 10SM FEW040 FEW100 BKN170 BKN250 21/12 A2970 RMK AO2 SLP053 T02110117","updated":"2026-04-24T17:49:22Z"}
