{"icao":"LPBJ","metar":"LPBJ 301900Z 31015KT CAVOK 34/16 Q1018","updated":"2026-06-30T19:54:17Z"}
