{"icao":"KLAX","metar":"KLAX 101540Z 26006KT 10SM BKN013 17/14 A2997 RMK AO2 T01670139","updated":"2026-04-10T15:52:19Z"}
