{"icao":"KORD","metar":"KORD 181651Z 24007KT 10SM BKN023 BKN250 22/16 A2969 RMK AO2 SLP050 T02170161 $","updated":"2025-10-18T17:13:28Z"}
