{"icao":"KLAX","metar":"KLAX 192153Z 25012KT 10SM FEW200 FEW250 21/12 A2991 RMK AO2 SLP127 T02110122 $","updated":"2026-04-19T22:33:58Z"}
