{"icao":"LPBJ","metar":"LPBJ 052100Z 32006KT CAVOK 04/M01 Q1015","updated":"2026-01-05T21:19:38Z"}
