{"icao":"LPBJ","metar":"LPBJ 050400Z 29005KT 5000 BCFG FEW003 07/07 Q1007","updated":"2026-01-05T04:55:56Z"}
