{"icao":"LPHR","metar":"LPHR 051400Z 24017KT 9999 SCT025 SCT050 BKN080 19/13 Q1016","updated":"2025-11-05T14:19:04Z"}
