{"icao":"LPOV","metar":"LPOV 011100Z 29004KT 260V320 CAVOK 23/14 Q1021","updated":"2025-10-01T11:15:44Z"}
