{"icao":"KLAX","metar":"KLAX 191853Z 27009KT 8SM FEW009 SCT044 SCT090 26/18 A2992 RMK AO2 SLP128 T02560183","updated":"2025-09-19T19:13:35Z"}
