{"icao":"KORD","metar":"KORD 072151Z 11008KT 10SM BKN250 03/M13 A3042 RMK AO2 SLP310 T00331128 $","updated":"2026-04-07T22:36:46Z"}
