{"icao":"LPAR","metar":"LPAR 281500Z 26011KT 230V300 9999 SCT020 16/10 Q1005","updated":"2026-01-28T15:30:57Z"}
