{"icao":"LPBJ","metar":"LPBJ 092200Z 30006KT CAVOK 08/06 Q1029","updated":"2026-01-09T22:20:03Z"}
