{"icao":"LPMA","metar":"LPMA 202000Z 31005KT 270V360 9999 SCT016 16/08 Q1024","updated":"2026-01-20T20:11:11Z"}
