{"icao":"KLAX","metar":"KLAX 271053Z 00000KT 10SM FEW009 SCT250 18/13 A2997 RMK AO2 SLP145 T01830133","updated":"2026-02-27T11:31:26Z"}
