{"icao":"KJFK","metar":"KJFK 101351Z 08010G16KT 10SM SCT047 14/02 A3052 RMK AO2 SLP335 T01440017","updated":"2025-10-10T14:17:21Z"}
