{"icao":"LPPT","metar":"LPPT 281100Z 32014G24KT 290V350 9999 FEW014 BKN018 19/16 Q1014","updated":"2025-09-28T11:12:54Z"}
