{"icao":"LPAR","metar":"LPAR 261700Z 23018KT 7000 SCT008 BKN015 BKN030 16/13 Q1009","updated":"2026-01-26T18:34:18Z"}
