{"icao":"LPBJ","metar":"LPBJ 091000Z 23014KT 9999 FEW013 SCT020 BKN045 16/12 Q1005","updated":"2026-05-09T10:55:56Z"}
