{"icao":"KLAX","metar":"KLAX 301053Z 00000KT 10SM CLR 14/M01 A3021 RMK AO2 SLP226 T01441006 $","updated":"2026-01-30T11:26:56Z"}
