{"icao":"LPOV","metar":"LPOV 151400Z 16012KT 7000 -RADZ FEW005 BKN015 BKN035 11/11 Q1012 RERADZ","updated":"2026-01-15T14:23:32Z"}
