{"icao":"LPST","metar":"LPST 111300Z 24018G28KT 4500 BR FEW001 BKN005 BKN012 15/15 Q1017","updated":"2026-02-11T13:07:15Z"}
