{"icao":"KORD","metar":"KORD 200251Z 16003KT 6SM BR OVC016 06/04 A3017 RMK AO2 DZE0158 SLP222 P0000 60000 T00610039 58005","updated":"2025-11-20T03:08:28Z"}
