{"icao":"KORD","metar":"KORD 210714Z 16007KT 5SM HZ OVC033 M06/M09 A3006 RMK AO2 SNE14 P0000 T10561089 $","updated":"2026-01-21T07:27:37Z"}
