{"icao":"KLAX","metar":"KLAX 251053Z 00000KT 6SM HZ SCT008 OVC011 17/14 A2999 RMK AO2 SLP154 T01670139","updated":"2026-03-25T11:40:38Z"}
