{"icao":"KORD","metar":"KORD 300651Z 00000KT 10SM CLR 11/00 A2998 RMK AO2 SLP151 T01060000 $","updated":"2026-03-30T07:25:45Z"}
