{"icao":"KJFK","metar":"KJFK 102251Z 29016G27KT 10SM FEW023 BKN100 06/01 A2965 RMK AO2 PK WND 29028/2237 RAB15E20B44E46 SLP039 P0000 T00610006","updated":"2025-11-10T23:17:16Z"}
