{"icao":"LPMR","metar":"LPMR 261500Z 15006KT 9999 SCT020 12/06 Q1012","updated":"2025-12-26T15:19:31Z"}
