{"icao":"LPAZ","metar":"LPAZ 221800Z 11006KT 9999 FEW022 17/12 Q1030","updated":"2025-11-22T18:24:34Z"}
