{"icao":"LPMA","metar":"LPMA 261430Z 01012KT 320V040 9999 FEW016 20/11 Q1018","updated":"2026-04-26T14:41:16Z"}
