{"icao":"KORD","metar":"KORD 060351Z 17008KT 10SM CLR 22/11 A3003 RMK AO2 SLP164 T02170111 $","updated":"2025-10-06T04:20:53Z"}
