{"icao":"KLAX","metar":"KLAX 240953Z 10011KT 9SM -RA FEW018 SCT024 OVC065 16/15 A2990 RMK AO2 RAB09 SLP123 P0002 T01610150 $","updated":"2025-12-24T10:20:49Z"}
