{"icao":"LPFL","metar":"LPFL 131030Z 18008KT 150V220 9999 FEW018 24/17 Q1024","updated":"2025-09-13T10:48:53Z"}
