{"icao":"KJFK","metar":"KJFK 081651Z 22007KT 4SM BR SCT007 SCT045 BKN140 BKN240 12/11 A2980 RMK AO2 SLP091 T01170111","updated":"2026-03-08T17:21:56Z"}
