{"icao":"LPLA","metar":"LPLA 030200Z 14005KT 110V170 7000 -DZ SCT007 SCT015 OVC020 12/11 Q1029","updated":"2026-04-03T02:10:56Z"}
