{"icao":"KLAX","metar":"KLAX 250153Z 26011KT 10SM FEW010 17/14 A2997 RMK AO2 SLP148 T01720144","updated":"2026-03-25T02:05:56Z"}
