{"icao":"LPCS","metar":"LPCS 071230Z 36012KT 330V040 9999 FEW018 15/08 Q1018","updated":"2026-03-07T12:43:47Z"}
