{"icao":"KJFK","metar":"KJFK 211251Z 26012KT 10SM FEW085 SCT150 BKN250 02/M01 A2999 RMK AO2 SLP155 T00221006 $","updated":"2025-12-21T13:26:53Z"}
