{"icao":"LPBJ","metar":"LPBJ 210400Z 08005KT CAVOK 08/05 Q1027","updated":"2026-02-21T04:06:17Z"}
