{"icao":"LPCS","metar":"LPCS 081030Z 35019KT 9999 FEW021 21/13 Q1023","updated":"2026-06-08T10:50:46Z"}
