{"icao":"LPMA","metar":"LPMA 071130Z 02004KT 9999 SCT015 BKN030 17/09 Q1016","updated":"2026-05-07T11:45:39Z"}
