{"icao":"LPPT","metar":"LPPT 021400Z 13007KT 100V190 9999 FEW012 BKN025 FEW028TCU 15/14 Q1000","updated":"2026-01-02T14:19:13Z"}
