{"icao":"LPMR","metar":"LPMR 172100Z 04004KT 010V070 CAVOK 13/11 Q1018","updated":"2025-11-17T21:17:04Z"}
