{"icao":"LPMR","metar":"LPMR 242000Z 33007KT CAVOK 16/13 Q1019","updated":"2026-04-24T20:45:43Z"}
