{"icao":"LPFL","metar":"LPFL 251900Z 29011G26KT 240V360 9999 BKN014 14/10 Q1007","updated":"2026-01-25T19:16:04Z"}
