{"icao":"KLAX","metar":"KLAX 041853Z VRB04KT 10SM FEW260 SCT300 29/M08 A3002 RMK AO2 SLP163 T02941078 $","updated":"2026-04-04T19:30:12Z"}
