{"icao":"LPAR","metar":"LPAR 171300Z 16005KT CAVOK 26/11 Q1014","updated":"2025-10-17T13:26:43Z"}
