{"icao":"LPHR","metar":"LPHR 131100Z 30019G29KT 9999 SCT025 SCT040 15/09 Q1008 WS R28","updated":"2025-11-13T11:17:09Z"}
