{"icao":"LPMA","metar":"LPMA 290200Z 01014KT 330V030 9999 BKN015 16/10 Q1025","updated":"2026-03-29T02:23:15Z"}
