{"icao":"LPBJ","metar":"LPBJ 111200Z 33013KT 300V360 CAVOK 19/12 Q1013","updated":"2026-04-11T12:55:32Z"}
