{"icao":"LPPR","metar":"LPPR 191100Z 30007KT 260V320 9999 SCT009 20/16 Q1016","updated":"2026-06-19T11:20:44Z"}
