{"icao":"LPMR","metar":"LPMR 271100Z 25011G21KT 220V290 6000 -SHRA FEW015 FEW020CB BKN023 BKN030 11/08 Q1000","updated":"2026-01-27T11:21:49Z"}
