{"icao":"LPMT","metar":"LPMT 151100Z 26004KT 6000 -RA FEW006 SCT020 15/15 Q1006","updated":"2025-11-15T11:13:28Z"}
