{"icao":"LPFR","metar":"LPFR 161500Z 32023G36KT 9999 FEW020 15/06 Q1010","updated":"2025-12-16T15:22:58Z"}
