{"icao":"LPMR","metar":"LPMR 221200Z 32005KT 280V360 CAVOK 24/18 Q1017","updated":"2026-06-22T12:48:37Z"}
