{"icao":"LPHR","metar":"LPHR 141600Z 32015G25KT 270V360 9999 FEW020 SCT080 18/12 Q1022","updated":"2025-12-14T16:22:16Z"}
