{"icao":"KJFK","metar":"KJFK 141351Z 27020G28KT 10SM FEW035 SCT250 08/M04 A2992 RMK AO2 PK WND 25029/1337 SLP130 T00781044","updated":"2026-03-14T14:27:13Z"}
