{"icao":"LPAZ","metar":"LPAZ 270700Z 04012KT 010V070 9999 BKN022 13/09 Q1027","updated":"2026-03-27T07:05:13Z"}
