{"icao":"KLAX","metar":"KLAX 050911Z 00000KT 9SM SCT011 14/11 A2993 RMK AO2 T01390111","updated":"2026-03-05T09:41:21Z"}
