{"icao":"LPMR","metar":"LPMR 012200Z 10002KT CAVOK 12/10 Q1023","updated":"2026-04-01T22:35:48Z"}
