{"icao":"LPMR","metar":"LPMR 081700Z 34011KT 9999 SCT012 BKN018 17/14 Q1022","updated":"2025-10-08T17:15:24Z"}
