{"icao":"LPPS","metar":"LPPS 142130Z 05008KT 010V090 9999 SCT015 BKN030 15/11 Q1025","updated":"2026-04-14T21:51:27Z"}
