{"icao":"KJFK","metar":"KJFK 051151Z 05007KT 10SM FEW070 FEW180 BKN230 M07/M18 A3036 RMK AO2 SLP280 T10671178 11044 21067 50008 $","updated":"2025-12-05T12:39:56Z"}
