{"icao":"KJFK","metar":"KJFK 040651Z 23008KT 10SM BKN055 BKN250 M03/M06 A3018 RMK AO2 SLP220 T10281056 PNO $","updated":"2026-02-04T07:43:06Z"}
