{"icao":"LPPT","metar":"LPPT 021600Z 31010KT CAVOK 26/13 Q1020","updated":"2025-10-02T16:21:10Z"}
