{"icao":"KJFK","metar":"KJFK 052051Z 20015KT 10SM BKN250 26/14 A2994 RMK AO2 SLP139 T02560139 56008 $","updated":"2026-06-05T21:24:04Z"}
