{"icao":"LPAZ","metar":"LPAZ 232030Z 21006KT 9999 BKN004 22/22 Q1018","updated":"2025-10-24T22:16:45Z"}
