{"icao":"LPPR","metar":"LPPR 180300Z VRB01KT CAVOK 11/09 Q1019","updated":"2025-11-18T03:11:09Z"}
