{"icao":"LPPT","metar":"LPPT 240300Z 24009KT 9999 FEW020 14/12 Q1021","updated":"2025-11-24T03:22:33Z"}
