{"icao":"LPFR","metar":"LPFR 290500Z 31003KT CAVOK 17/15 Q1014","updated":"2025-09-29T05:17:47Z"}
