{"icao":"LPAR","metar":"LPAR 051000Z 34009KT 9999 FEW025 18/06 Q1018","updated":"2026-05-05T10:44:47Z"}
