{"icao":"LPPT","metar":"LPPT 301830Z 27015G26KT 240V300 9999 FEW015 BKN030 14/11 Q1012 WS R20","updated":"2026-01-30T18:40:04Z"}
