{"icao":"LPBJ","metar":"LPBJ 281800Z 31007KT CAVOK 13/08 Q1021","updated":"2025-11-28T18:26:19Z"}
