{"icao":"LPMA","metar":"LPMA 231500Z 11004KT 040V150 9999 FEW015 20/10 Q1020","updated":"2025-12-23T15:21:03Z"}
