{"icao":"LPFL","metar":"LPFL 121400Z 35009KT 310V010 9999 FEW030 20/09 Q1020","updated":"2025-10-12T14:14:14Z"}
