{"icao":"LPCS","metar":"LPCS 291330Z 26014G25KT 240V300 1800 -RADZ BR FEW001 BKN003 16/16 Q1010","updated":"2026-01-29T13:59:23Z"}
