{"icao":"LPPD","metar":"LPPD 311300Z 13003KT 090V160 9999 FEW012 FEW016TCU 16/14 Q1003","updated":"2025-12-31T13:31:37Z"}
