{"icao":"KLAX","metar":"KLAX 040453Z 24005KT 9SM FEW010 SCT250 16/14 A3005 RMK AO2 SLP174 T01560144 $","updated":"2025-11-04T05:18:57Z"}
