{"icao":"KORD","metar":"KORD 300851Z 36004KT 8SM CLR 18/17 A3018 RMK AO2 SLP214 T01830167 55001","updated":"2025-09-30T09:18:53Z"}
