{"icao":"LPFR","metar":"LPFR 011500Z 10009KT 9999 FEW025 19/08 Q1019","updated":"2026-03-01T15:22:06Z"}
