{"icao":"KORD","metar":"KORD 041851Z 22010G20KT 10SM FEW060 30/14 A3007 RMK AO2 SLP177 T03000144 $","updated":"2025-10-04T19:11:53Z"}
