{"icao":"KORD","metar":"KORD 121651Z 18015G23KT 10SM BKN110 BKN150 OVC250 18/03 A2998 RMK AO2 PK WND 19027/1615 SLP152 T01830033 $","updated":"2026-05-12T17:09:12Z"}
