{"icao":"LPCS","metar":"LPCS 150900Z VRB02KT CAVOK 24/11 Q1017","updated":"2025-10-15T09:19:23Z"}
