{"icao":"LPBJ","metar":"LPBJ 090400Z VRB01KT CAVOK 08/07 Q1021","updated":"2025-11-09T04:20:42Z"}
