{"icao":"LPPD","metar":"LPPD 210400Z 23015KT 9000 SCT007 SCT015 23/22 Q1015","updated":"2025-10-21T04:21:28Z"}
