{"icao":"LPMA","metar":"LPMA 011230Z 03010KT 330V070 9999 SCT015 19/11 Q1023","updated":"2025-12-01T12:40:44Z"}
