{"icao":"LPCS","metar":"LPCS 012200Z 01006KT 9999 FEW018 17/15 Q1022","updated":"2025-11-01T22:15:08Z"}
