{"icao":"LPAZ","metar":"LPAZ 030700Z 19007KT 9999 SCT002 BKN009 21/21 Q1014","updated":"2025-11-03T07:18:14Z"}
