{"icao":"KORD","metar":"KORD 142151Z 25006KT 10SM FEW020 FEW200 BKN250 M14/M21 A3061 RMK AO2 SLP384 I1000 T11391211","updated":"2025-12-14T22:17:21Z"}
