{"icao":"LPPR","metar":"LPPR 141230Z 17021KT 6000 SHRA SCT015 FEW020CB 13/11 Q1000","updated":"2025-11-14T12:38:08Z"}
