{"icao":"KJFK","metar":"KJFK 022051Z 10009KT 10SM OVC013 07/04 A3045 RMK AO2 SLP310 T00670039 58006","updated":"2026-04-02T21:36:31Z"}
