{"icao":"LPMA","metar":"LPMA 191230Z 21025G37KT 9999 SCT013 FEW018CB 15/07 Q0994","updated":"2026-03-19T13:02:29Z"}
