{"icao":"LPMA","metar":"LPMA 081500Z 35013KT 300V020 9999 BKN015 17/08 Q1020","updated":"2026-04-08T15:08:35Z"}
