{"icao":"LPPS","metar":"LPPS 240130Z 05005KT 010V110 9999 SCT015 18/14 Q1026","updated":"2025-11-24T01:39:04Z"}
