{"icao":"LPPT","metar":"LPPT 152000Z 24008KT 9999 FEW020 FEW030CB 16/13 Q1009","updated":"2025-11-15T20:17:59Z"}
