{"icao":"KORD","metar":"KORD 051651Z 27010KT 10SM BKN250 04/M02 A2981 RMK AO2 SLP101 T00391017","updated":"2026-01-05T17:22:12Z"}
