{"icao":"KJFK","metar":"KJFK 190851Z 03011KT 9SM SCT018 OVC026 03/01 A2997 RMK AO2 SLP149 60000 T00280006 53020 $","updated":"2026-02-19T09:43:14Z"}
