{"icao":"KORD","metar":"KORD 182151Z 30009KT 10SM BKN055 22/11 A2979 RMK AO2 SLP086 T02170106","updated":"2026-06-18T22:07:29Z"}
