{"icao":"LPPS","metar":"LPPS 291030Z 04011KT 020V080 9000 -DZ SCT012 BKN030 22/18 Q1025","updated":"2026-06-29T10:55:33Z"}
