{"icao":"LPHR","metar":"LPHR 131000Z 28011KT 240V310 9999 SCT012 SCT025 20/18 Q1020","updated":"2026-06-13T10:26:58Z"}
