{"icao":"KORD","metar":"KORD 151621Z 18015G26KT 4SM RA BKN070 OVC080 12/09 A2938 RMK AO2 PK WND 18029/1601 P0007 T01220094 $","updated":"2026-03-15T16:31:57Z"}
