{"icao":"LPPT","metar":"LPPT 032000Z 32014KT CAVOK 17/13 Q1023","updated":"2025-10-03T20:18:28Z"}
