{"icao":"LPFL","metar":"LPFL 112030Z 20017G34KT 150V240 9999 BKN015 17/13 Q1012","updated":"2026-02-11T20:37:33Z"}
