{"icao":"LPOV","metar":"LPOV 200100Z 02005KT 300V070 9999 -RA SCT028 15/13 Q1006","updated":"2026-03-20T02:00:38Z"}
