{"icao":"LPCS","metar":"LPCS 171900Z 03004KT CAVOK 12/11 Q1021","updated":"2025-12-17T19:18:26Z"}
