{"icao":"LPAZ","metar":"LPAZ 201400Z 24013KT 9000 FEW005 SCT023 25/23 Q1018","updated":"2025-10-20T14:17:42Z"}
