{"icao":"LPPR","metar":"LPPR 171730Z VRB02KT CAVOK 17/08 Q1006","updated":"2026-03-17T17:56:45Z"}
