{"icao":"KLAX","metar":"KLAX 032253Z 26012KT 10SM FEW010 FEW250 18/13 A3002 RMK AO2 SLP164 T01830133 $","updated":"2025-11-03T23:16:07Z"}
