{"icao":"KJFK","metar":"KJFK 232251Z 27016G26KT 10SM FEW050 SCT210 BKN250 02/M14 A3015 RMK PK WND 27026/2243 SLP208 T00171144 $ ","updated":"2026-01-23T23:20:54Z"}
