{"icao":"LPMT","metar":"LPMT 081200Z 18012KT 9999 FEW020 SCT030 18/14 Q1020","updated":"2025-12-08T12:40:12Z"}
