{"icao":"KORD","metar":"KORD 110551Z 05003KT 10SM BKN120 12/00 A3013 RMK AO2 SLP204 T01170000 10172 20111 401830044 53010 $","updated":"2026-05-11T06:46:04Z"}
