{"icao":"LPPT","metar":"LPPT 241630Z 29011KT 260V330 9999 FEW034 21/12 Q1017","updated":"2026-04-24T16:54:22Z"}
