{"icao":"KJFK","metar":"KJFK 281851Z 03018G27KT 10SM FEW027 BKN038 BKN047 BKN250 11/04 A3024 RMK AO2 PK WND 03027/1850 SLP241 T01110044","updated":"2025-10-28T19:15:12Z"}
