{"icao":"KLAX","metar":"KLAX 281053Z 00000KT 10SM BKN200 BKN250 13/00 A3023 RMK AO2 SLP234 T01330000","updated":"2026-01-28T11:22:12Z"}
