{"icao":"LPMR","metar":"LPMR 101400Z 17004KT 120V250 CAVOK 28/12 Q1020","updated":"2025-10-10T14:17:18Z"}
