{"icao":"LPPD","metar":"LPPD 190930Z 18010KT 9999 FEW008 15/14 Q1024","updated":"2026-02-19T09:43:12Z"}
