{"icao":"LPMT","metar":"LPMT 131700Z 30008KT 270V330 9999 SCT040 16/09 Q1021","updated":"2026-04-13T17:58:28Z"}
