{"icao":"KJFK","metar":"KJFK 232151Z 28008KT 10SM SCT008 BKN014 OVC032 04/03 A3003 RMK AO2 SLP167 T00440028 $","updated":"2025-12-23T22:18:50Z"}
