{"icao":"LPPT","metar":"LPPT 271630Z 35014KT 320V020 9999 BKN016 14/11 Q1024","updated":"2026-02-27T16:39:01Z"}
