{"icao":"LPPR","metar":"LPPR 101600Z 29005KT CAVOK 25/12 Q1020","updated":"2025-10-10T16:21:17Z"}
