{"icao":"LPPT","metar":"LPPT 080130Z 29003KT 9999 BKN028 10/07 Q1031","updated":"2026-01-08T01:41:00Z"}
