{"icao":"LPPR","metar":"LPPR 241600Z 30007KT 270V340 CAVOK 18/09 Q1020","updated":"2026-03-24T16:08:15Z"}
