{"icao":"LPAR","metar":"LPAR 151700Z 22011KT 3000 RADZ SCT009 BKN015 BKN030 14/13 Q1014","updated":"2026-01-16T08:28:42Z"}
