{"icao":"LPAZ","metar":"LPAZ 270600Z 03017G29KT 9999 SCT011 BKN019 FEW025TCU 18/15 Q1014","updated":"2025-10-27T06:30:21Z"}
