{"icao":"LPPT","metar":"LPPT 020130Z 20024G38KT 3000 RADZ BR FEW004 BKN006 13/13 Q0998","updated":"2026-02-02T02:04:09Z"}
