{"icao":"KORD","metar":"KORD 061351Z 14004KT 1 1/2SM BR OVC003 08/08 A2997 RMK AO2 SLP153 T00830083","updated":"2026-03-06T13:54:30Z"}
