{"icao":"LPPD","metar":"LPPD 251200Z 04014KT 020V080 9999 SCT012 FEW018TCU SCT030 20/14 Q1018","updated":"2025-10-25T12:32:58Z"}
