{"icao":"LPPS","metar":"LPPS 050230Z 12008KT 090V160 4000 RA BR SCT003 BKN006 FEW012CB 17/17 Q1016","updated":"2026-05-05T02:37:59Z"}
