{"icao":"KORD","metar":"KORD 081651Z 04009KT 10SM BKN038 BKN055 16/07 A3040 RMK AO2 SLP294 T01610067","updated":"2025-10-08T17:15:28Z"}
