{"icao":"KLAX","metar":"KLAX 291409Z 13004KT 3/4SM R25L/1000V6000FT FG SCT000 11/11 A3001 RMK AO2 T01110111 $","updated":"2025-11-29T14:16:19Z"}
