{"icao":"LPPR","metar":"LPPR 192300Z 10001KT CAVOK 07/06 Q1031","updated":"2026-02-19T23:28:23Z"}
