{"icao":"KORD","metar":"KORD 071351Z 35010KT 10SM FEW030 M11/M17 A3039 RMK AO2 SLP302 T11061172 $","updated":"2026-02-07T14:24:34Z"}
