{"icao":"LPPD","metar":"LPPD 311730Z 26007KT 0200 R30/0225N FG VV000 18/18 Q1027","updated":"2026-05-31T17:59:56Z"}
