{"icao":"LPAR","metar":"LPAR 251600Z 27007KT CAVOK 30/11 Q1020","updated":"2026-05-25T20:21:33Z"}
