{"icao":"KORD","metar":"KORD 082251Z 11010KT 10SM FEW012 BKN060 M02/M08 A3027 RMK AO2 SLP259 T10221083 $","updated":"2026-02-08T23:29:39Z"}
