{"icao":"KORD","metar":"KORD 162007Z 24010KT 10SM SCT021 BKN029 BKN037 03/M02 A2951 RMK AO2 T00281017 $","updated":"2026-01-16T20:21:06Z"}
