{"icao":"LPPD","metar":"LPPD 100900Z 20012KT 9999 -SHRA FEW006 SCT014 FEW016CB 20/19 Q1023 RESHRA","updated":"2025-10-10T09:19:17Z"}
