{"icao":"LPCS","metar":"LPCS 090930Z 01020KT 9999 FEW012 18/13 Q1020","updated":"2026-06-09T09:40:07Z"}
