{"icao":"LPAR","metar":"LPAR 231600Z 05005KT 350V090 CAVOK 27/00 Q1016","updated":"2025-09-24T15:18:33Z"}
