{"icao":"KJFK","metar":"KJFK 062051Z 20011KT 10SM FEW065 SCT100 BKN210 BKN250 28/17 A2976 RMK AO2 SLP078 T02780172 56025 $","updated":"2026-06-06T21:02:53Z"}
