{"icao":"KORD","metar":"KORD 141351Z 00000KT 10SM BKN250 00/M03 A3004 RMK AO2 SLP177 T00001028 $","updated":"2026-02-14T14:26:17Z"}
