{"icao":"LPCS","metar":"LPCS 231630Z 28007KT 230V310 9999 FEW030 21/11 Q1014","updated":"2026-03-23T17:02:10Z"}
