{"icao":"LPMT","metar":"LPMT 140300Z 20005KT 9999 SCT015 SCT025 15/12 Q1002 RETS","updated":"2025-11-14T03:11:56Z"}
