{"icao":"KLAX","metar":"KLAX 111853Z 25008KT 4SM BR FEW007 SCT030 BKN140 BKN180 18/15 A3009 RMK AO2 SLP189 T01780150 $","updated":"2025-11-11T19:15:18Z"}
