{"icao":"LPLA","metar":"LPLA 131800Z 25010KT 210V270 9999 FEW015 SCT040 18/15 Q1026 WIN D RWY15 24014KT PK 25019/01 RH80 BKN070 BLU","updated":"2025-12-13T18:25:01Z"}
