{"icao":"LPFL","metar":"LPFL 200830Z 17011KT 9999 SCT013 15/13 Q1014","updated":"2026-02-20T08:38:37Z"}
