{"icao":"KORD","metar":"KORD 211051Z 10003KT 10SM BKN150 OVC250 06/02 A2992 RMK AO2 SLP135 T00610022","updated":"2026-03-21T11:21:27Z"}
