{"icao":"KJFK","metar":"KJFK 112251Z 26008G17KT 10SM FEW055 FEW180 BKN250 34/19 A2972 RMK AO2 SLP064 TCU DSNT E T03440194 $","updated":"2026-06-11T23:40:13Z"}
