{"icao":"LPOV","metar":"LPOV 212300Z 21008KT 180V240 3000 BR BKN006 BKN020 19/19 Q1015","updated":"2025-10-21T23:17:00Z"}
