{"icao":"LPMR","metar":"LPMR 222000Z 16002KT CAVOK 08/05 Q1029","updated":"2025-11-22T20:19:06Z"}
