{"icao":"LPFR","metar":"LPFR 040130Z 08008KT 040V120 CAVOK 16/08 Q1021","updated":"2026-04-04T02:03:34Z"}
