{"icao":"KORD","metar":"KORD 170851Z 00000KT 10SM CLR 17/15 A3010 RMK AO2 SLP190 T01720150 58010 $","updated":"2025-09-17T09:18:24Z"}
