{"icao":"LPBJ","metar":"LPBJ 100500Z 30007KT 0900 FG OVC003 13/12 Q1019","updated":"2025-12-10T05:20:28Z"}
