{"icao":"KJFK","metar":"KJFK 300651Z 19010KT 10SM BKN150 BKN190 BKN250 06/04 A3032 RMK AO2 SLP267 T00610039 $","updated":"2026-03-30T07:25:45Z"}
