{"icao":"LPMT","metar":"LPMT 201700Z 25007KT CAVOK 23/08 Q1008","updated":"2026-04-20T17:56:18Z"}
