{"icao":"LPHR","metar":"LPHR 171600Z 24009KT 9999 SCT003 BKN006 22/21 Q1011","updated":"2025-10-17T16:21:49Z"}
