{"icao":"LPFL","metar":"LPFL 091900Z VRB05KT 9999 -DZ BKN010 18/16 Q1018","updated":"2026-01-09T19:18:51Z"}
