{"icao":"LPHR","metar":"LPHR 181230Z 05006KT 010V110 9999 FEW018 18/12 Q1015","updated":"2026-04-18T13:00:16Z"}
