{"icao":"KJFK","metar":"KJFK 031351Z 31014G20KT 10SM FEW050 SCT200 BKN250 M04/M15 A3000 RMK AO2 SLP158 T10391150 $","updated":"2026-01-03T14:17:40Z"}
