{"icao":"LPST","metar":"LPST 301300Z 17005KT 120V200 9999 FEW014 15/08 Q1020","updated":"2025-12-30T13:34:46Z"}
