{"icao":"LPBJ","metar":"LPBJ 280700Z 11005KT 9999 OVC012 18/17 Q1016","updated":"2025-10-28T07:17:31Z"}
