{"icao":"LPBJ","metar":"LPBJ 140900Z 10002KT 0500 FG NSC 06/05 Q1020","updated":"2026-01-14T09:27:39Z"}
