{"icao":"LPAR","metar":"LPAR 251600Z 01012KT CAVOK 15/05 Q1022","updated":"2025-11-25T16:26:28Z"}
