{"icao":"LPPS","metar":"LPPS 271800Z 06010KT 040V100 9999 SCT015 19/12 Q1022","updated":"2025-11-27T18:26:54Z"}
