{"icao":"KJFK","metar":"KJFK 090251Z 11005KT 10SM FEW075 SCT100 BKN220 BKN250 13/07 A2989 RMK AO2 SLP121 T01280067 50009 $","updated":"2025-11-09T03:11:50Z"}
