{"icao":"LPCS","metar":"LPCS 071000Z 16009KT 140V200 9999 FEW005 BKN009 15/15 Q1024","updated":"2025-12-07T10:17:19Z"}
