{"icao":"LPOV","metar":"LPOV 100800Z 13004KT 9999 SCT030 07/07 Q1029","updated":"2026-01-10T08:25:29Z"}
