{"icao":"LPFR","metar":"LPFR 280530Z 03006KT 340V080 CAVOK 17/13 Q1009","updated":"2026-04-28T05:58:08Z"}
