{"icao":"KLAX","metar":"KLAX 241453Z 25005KT 9SM -RA FEW015 BKN019 OVC034 14/11 A2989 RMK AO2 SLP120 P0001 60001 T01390111 51006 $","updated":"2026-01-24T15:19:10Z"}
