{"icao":"LPPT","metar":"LPPT 260200Z 31010KT CAVOK 13/10 Q1015","updated":"2026-03-26T02:11:23Z"}
