{"icao":"KJFK","metar":"KJFK 261251Z 36008KT 10SM SCT012 OVC025 M06/M08 A2979 RMK AO2 SNE29 SLP087 P0000 T10611083 $","updated":"2026-01-26T13:43:31Z"}
