{"icao":"LPPR","metar":"LPPR 141600Z 32009KT 290V360 9999 FEW016 23/19 Q1023","updated":"2025-09-14T16:17:41Z"}
