{"icao":"LPMT","metar":"LPMT 061700Z 14011KT 9999 VCSH SCT040 17/15 Q1016","updated":"2026-04-06T17:42:25Z"}
