{"icao":"LPFR","metar":"LPFR 310300Z 06009KT CAVOK 12/09 Q1018","updated":"2025-12-31T03:25:43Z"}
