{"icao":"KJFK","metar":"KJFK 102351Z 21005KT 10SM FEW010 FEW060 FEW250 10/06 A2999 RMK AO2 SLP156 T01000056 10178 20100 53008","updated":"2026-03-11T00:01:21Z"}
