{"icao":"LPFR","metar":"LPFR 142230Z 33009KT CAVOK 16/12 Q1023","updated":"2026-04-14T22:43:24Z"}
