{"icao":"LPPT","metar":"LPPT 091700Z 31008KT 280V340 CAVOK 22/15 Q1019","updated":"2025-10-09T17:16:01Z"}
