{"icao":"LPOV","metar":"LPOV 231700Z 29012KT 250V320 9999 -SHRA FEW020 FEW022CB BKN040 09/04 Q0996 RESHRAGS","updated":"2026-01-23T17:24:39Z"}
