{"icao":"LPMA","metar":"LPMA 231400Z 20007KT 160V220 9999 FEW015 19/11 Q1021","updated":"2025-12-23T14:20:18Z"}
