{"icao":"LPFR","metar":"LPFR 080500Z 07004KT 9999 FEW015 15/14 Q1021","updated":"2025-12-08T05:20:50Z"}
