{"icao":"LPOV","metar":"LPOV 270800Z 15004KT 5000 BR FEW008 SCT015 BKN030 11/11 Q1024 RERA","updated":"2026-02-27T08:38:34Z"}
