{"icao":"LPBJ","metar":"LPBJ 282000Z 16009KT CAVOK 18/17 Q1011","updated":"2025-10-28T20:21:03Z"}
