{"icao":"LPLA","metar":"LPLA 192200Z 25005KT 200V290 9999 FEW025 13/09 Q1029","updated":"2026-01-19T22:20:06Z"}
