{"icao":"LPPR","metar":"LPPR 140430Z 08005KT CAVOK 09/07 Q1021","updated":"2025-12-14T04:35:01Z"}
