{"icao":"LPCS","metar":"LPCS 151800Z 24006KT 210V270 9999 FEW022 16/14 Q1008","updated":"2025-11-15T18:23:21Z"}
