{"icao":"LPLA","metar":"LPLA 071300Z 22006KT 160V260 9999 SCT028 20/12 Q1021","updated":"2025-11-07T13:26:51Z"}
