{"icao":"LPPD","metar":"LPPD 130500Z 34008KT 9999 FEW020 SCT045 13/07 Q1022","updated":"2026-01-13T05:24:40Z"}
