{"icao":"KORD","metar":"KORD 221651Z 08005KT 10SM SCT026 SCT250 18/11 A2997 RMK AO2 SLP145 T01830111","updated":"2026-04-22T16:57:55Z"}
