{"icao":"LPOV","metar":"LPOV 211700Z 34008KT CAVOK 14/10 Q1029","updated":"2026-02-21T17:23:58Z"}
