{"icao":"LPPT","metar":"LPPT 042300Z 14009KT 110V180 CAVOK 20/14 Q1010","updated":"2025-11-04T23:16:48Z"}
