{"icao":"LPBJ","metar":"LPBJ 041300Z 10007KT 060V150 9999 FEW035 16/09 Q1013","updated":"2026-03-04T13:57:30Z"}
