{"icao":"LPPD","metar":"LPPD 080430Z 01020KT 6000 -SHRA BKN008 BKN012 12/11 Q1022","updated":"2026-03-08T04:41:36Z"}
