{"icao":"LPST","metar":"LPST 271300Z 32006KT 300V010 CAVOK 16/05 Q1024","updated":"2025-11-27T13:30:38Z"}
