{"icao":"LPMT","metar":"LPMT 131200Z 17020KT 4000 -RA SCT012 BKN015 BKN035 18/17 Q0999 RESHRA","updated":"2025-11-13T12:40:05Z"}
