{"icao":"KORD","metar":"KORD 040551Z 34006KT 10SM BKN023 M08/M12 A3032 RMK AO2 SLP279 4/002 T10831122 11039 21083 410171089 51008","updated":"2026-02-04T06:51:05Z"}
