{"icao":"LPBJ","metar":"LPBJ 220700Z 11005KT CAVOK 09/07 Q1027","updated":"2026-02-22T07:34:41Z"}
