{"icao":"LPPD","metar":"LPPD 240500Z 01005KT 330V030 9999 FEW010 SCT035 14/12 Q1023","updated":"2025-12-24T05:22:58Z"}
