{"icao":"KORD","metar":"KORD 011751Z 22010KT 10SM SCT250 M04/M14 A3024 RMK AO2 SLP250 4/002 933002 I6000 T10391139 11039 21139 58018","updated":"2026-02-01T18:33:54Z"}
