{"icao":"LPOV","metar":"LPOV 182000Z 31010KT 280V340 9999 SCT018 11/09 Q1019 RESHRA","updated":"2026-02-18T20:37:27Z"}
