{"icao":"LPPR","metar":"LPPR 181800Z 18004KT 150V210 CAVOK 19/13 Q1015","updated":"2025-10-18T18:22:11Z"}
