{"icao":"LPOV","metar":"LPOV 060700Z 15003KT CAVOK 10/10 Q1016","updated":"2026-04-06T07:27:57Z"}
