{"icao":"LPHR","metar":"LPHR 080900Z 23035G47KT 6000 RA SCT009 BKN097 19/18 Q0990","updated":"2025-12-08T09:27:13Z"}
