{"icao":"LPAZ","metar":"LPAZ 021230Z 18006KT 9999 FEW007 23/21 Q1022","updated":"2025-10-02T12:35:20Z"}
