{"icao":"LPPI","metar":"LPPI 181600Z 32004KT 270V020 9999 FEW012 BKN035 21/18 Q1015","updated":"2026-06-18T16:29:38Z"}
