{"icao":"LPPS","metar":"LPPS 171900Z 29004KT 260V330 9999 SCT008 22/21 Q1012","updated":"2025-10-17T19:14:12Z"}
