{"icao":"LPPT","metar":"LPPT 290500Z 30002KT 9999 BKN034 12/10 Q1020","updated":"2025-11-29T05:18:01Z"}
