{"icao":"LPOV","metar":"LPOV 190900Z 18004KT 110V230 9999 FEW002 18/14 Q1016","updated":"2026-04-19T09:45:26Z"}
