{"icao":"LPMT","metar":"LPMT 011400Z 32005KT 250V030 9999 FEW030 29/13 Q1019","updated":"2025-10-01T14:17:56Z"}
