{"icao":"LPBJ","metar":"LPBJ 210600Z 34008KT CAVOK 05/02 Q1024","updated":"2025-11-21T06:29:09Z"}
