{"icao":"LPMT","metar":"LPMT 070700Z 21007KT 180V250 9999 FEW018 SCT030 18/15 Q1015","updated":"2025-11-07T07:17:55Z"}
