{"icao":"LPHR","metar":"LPHR 021730Z 06016KT 9999 FEW015 SCT033 17/13 Q1019","updated":"2026-05-02T17:41:38Z"}
