{"icao":"LPMT","metar":"LPMT 090700Z VRB03KT CAVOK 09/09 Q1021","updated":"2025-11-09T09:16:18Z"}
