{"icao":"LPPR","metar":"LPPR 020600Z 11006KT 9999 FEW032 11/11 Q1024","updated":"2025-11-02T06:25:54Z"}
