{"icao":"LPPD","metar":"LPPD 211900Z 03007KT 360V070 9999 SCT016 BKN039 15/13 Q1031","updated":"2025-11-21T19:15:38Z"}
