{"icao":"LPPR","metar":"LPPR 100200Z 03006KT CAVOK 15/12 Q1014","updated":"2026-04-10T02:27:24Z"}
