{"icao":"LPAZ","metar":"LPAZ 091130Z 22017KT 0500 R18/0700 FG VV001 17/17 Q1015","updated":"2026-02-09T11:42:56Z"}
