{"icao":"LPPR","metar":"LPPR 170500Z 10004KT 060V130 0900 0500N R17/1300D FG BKN001 09/09 Q1019","updated":"2026-04-17T05:26:29Z"}
