{"icao":"LPOV","metar":"LPOV 011000Z 20009KT 3000 -DZ BR BKN002 OVC005 14/14 Q1012","updated":"2026-02-01T10:23:50Z"}
