{"icao":"LPBJ","metar":"LPBJ 121200Z 04005KT 350V080 9999 FEW030 25/12 Q1016","updated":"2025-10-12T12:32:22Z"}
