{"icao":"KJFK","metar":"KJFK 080151Z 20005KT 1/4SM R04R/P6000FT -DZ BR OVC004 04/04 A2994 RMK AO2 SFC VIS 6 SLP138 P0000 T00440044","updated":"2026-03-08T02:01:30Z"}
