{"icao":"LPMR","metar":"LPMR 020900Z 16003KT 1500 BR SCT020 08/08 Q1018","updated":"2025-12-02T09:25:03Z"}
