{"icao":"KLAX","metar":"KLAX 300153Z 24009KT 10SM FEW150 FEW250 17/13 A2996 RMK AO2 SLP145 T01720128","updated":"2026-04-30T02:48:36Z"}
