{"icao":"LPCR","metar":"LPCR 270900Z VRB01KT 9999 VCSH FEW013 BKN028 19/15 Q1029 RMK WIND RWY11 VRB05KT","updated":"2025-12-18T04:33:22Z"}
