{"icao":"LPHR","metar":"LPHR 140900Z 03006KT 9999 FEW008 SCT013 FEW015TCU 18/16 Q1007","updated":"2025-10-14T09:20:07Z"}
