{"icao":"KJFK","metar":"KJFK 300851Z 36003KT 10SM BKN250 18/15 A3011 RMK AO2 SLP194 T01830150 55012 $","updated":"2025-09-30T09:18:53Z"}
