{"icao":"KORD","metar":"KORD 130851Z 00000KT 10SM CLR M03/M05 A3022 RMK AO2 SLP239 I3001 T10331050 58007 $","updated":"2026-02-13T09:42:38Z"}
