{"icao":"KJFK","metar":"KJFK 021251Z 07013KT 10SM FEW042 FEW250 14/07 A3047 RMK AO2 SLP318 T01440072","updated":"2025-10-02T13:25:30Z"}
