{"icao":"LPMA","metar":"LPMA 260700Z 01008KT 310V050 9999 SCT016 16/10 Q1018","updated":"2026-04-26T07:27:07Z"}
