{"icao":"LPFL","metar":"LPFL 061030Z 26012G24KT 210V320 9000 -RA SCT014 FEW018TCU 16/11 Q1006","updated":"2026-02-06T10:37:40Z"}
