{"icao":"LPHR","metar":"LPHR 092000Z 14009KT 9999 FEW030 14/08 Q1034","updated":"2026-03-09T20:33:26Z"}
