{"icao":"LPFL","metar":"LPFL 031030Z 22003KT 170V280 9999 FEW022 BKN031 14/08 Q1026","updated":"2026-04-03T10:41:47Z"}
