{"icao":"LPPT","metar":"LPPT 020700Z 34002KT CAVOK 13/11 Q1025","updated":"2025-11-02T07:15:50Z"}
