{"icao":"LPMR","metar":"LPMR 101700Z 31009KT CAVOK 20/13 Q1012","updated":"2026-04-10T17:46:10Z"}
