{"icao":"KLAX","metar":"KLAX 052253Z 26007KT 10SM FEW060 FEW150 SCT250 17/11 A3004 RMK AO2 SLP172 T01670106 $","updated":"2026-01-05T23:19:12Z"}
