{"icao":"LPOV","metar":"LPOV 282200Z 03002KT CAVOK 09/07 Q1024","updated":"2026-02-28T22:20:51Z"}
