{"icao":"LPOV","metar":"LPOV 062100Z VRB02KT CAVOK 17/13 Q1020","updated":"2025-10-06T21:14:54Z"}
