{"icao":"LPMT","metar":"LPMT 211600Z 02013KT CAVOK 15/02 Q1026","updated":"2025-11-21T16:23:38Z"}
