{"icao":"LPLA","metar":"LPLA 182000Z 36007KT 9999 FEW022 SCT030 14/08 Q1031","updated":"2026-01-18T20:21:53Z"}
