{"icao":"LPPS","metar":"LPPS 091500Z 01008KT 330V040 9999 FEW015 22/12 Q1021","updated":"2025-11-09T15:15:46Z"}
