{"icao":"LPMA","metar":"LPMA 060700Z 02014KT 340V050 9999 BKN015 FEW018TCU 15/07 Q1026","updated":"2026-01-06T07:24:47Z"}
