{"icao":"KLAX","metar":"KLAX 041204Z 01003KT 6SM BR FEW008 OVC010 16/14 A3008 RMK AO2 T01610139 $","updated":"2025-11-04T12:41:24Z"}
