{"icao":"LPLA","metar":"LPLA 271533Z 06006KT 020V090 2000 -DZ BR SCT005 SCT010 BKN015 13/12 Q1030","updated":"2026-03-27T15:52:09Z"}
