{"icao":"LPPT","metar":"LPPT 221000Z 35016KT CAVOK 18/06 Q1021","updated":"2025-09-22T10:19:55Z"}
