{"icao":"LPPD","metar":"LPPD 141330Z 27010KT 9999 FEW020 20/16 Q1023","updated":"2026-06-14T14:04:01Z"}
