{"icao":"KLAX","metar":"KLAX 210753Z 00000KT 10SM CLR 18/16 A3006 RMK AO2 SLP175 T01780161 402560144","updated":"2025-10-21T08:25:52Z"}
