{"icao":"LPFL","metar":"LPFL 181630Z 11003KT 040V210 9999 FEW014 16/12 Q1016","updated":"2026-04-18T16:39:07Z"}
