{"icao":"LPFR","metar":"LPFR 091600Z 24005KT CAVOK 19/10 Q1019","updated":"2025-11-09T16:19:43Z"}
