{"icao":"LPPR","metar":"LPPR 201030Z 29006KT 260V320 CAVOK 16/12 Q1012","updated":"2026-04-20T10:46:43Z"}
