{"icao":"LPAZ","metar":"LPAZ 181300Z 27012KT 9000 BKN004 24/23 Q1017","updated":"2025-10-18T13:21:28Z"}
