{"icao":"LPPD","metar":"LPPD 101430Z 27016KT 9999 FEW025 17/14 Q1029","updated":"2026-04-10T14:46:34Z"}
