{"icao":"KORD","metar":"KORD 041251Z 21007KT 10SM CLR 21/16 A3014 RMK AO2 SLP201 T02060156 $","updated":"2025-10-04T13:20:14Z"}
