{"icao":"LPMA","metar":"LPMA 231800Z 34011G21KT 290V020 9999 SCT015 17/08 Q1020","updated":"2026-01-23T18:31:46Z"}
