{"icao":"KORD","metar":"KORD 241151Z 05006KT 10SM BKN250 01/M01 A3029 RMK AO2 SLP264 T00111011 10022 21011 56004","updated":"2025-12-24T12:40:19Z"}
