{"icao":"LPPT","metar":"LPPT 180100Z 33007KT CAVOK 14/11 Q1018","updated":"2025-11-18T01:23:50Z"}
