{"icao":"LPOV","metar":"LPOV 130600Z 36001KT CAVOK 13/11 Q1015","updated":"2025-10-13T06:28:27Z"}
