{"icao":"LPBJ","metar":"LPBJ 220500Z VRB01KT CAVOK 10/07 Q1027","updated":"2026-02-22T06:45:32Z"}
