{"icao":"LPLA","metar":"LPLA 131000Z 32026KT 9999 SCT025 15/08 Q1005","updated":"2025-11-13T10:20:47Z"}
