{"icao":"LPMT","metar":"LPMT 251600Z 26008KT 6000 SCT006 BKN012 OVC020 13/13 Q1014","updated":"2026-01-25T16:24:19Z"}
