{"icao":"LPFR","metar":"LPFR 171500Z 29009KT 9999 SCT020 20/12 Q1013","updated":"2025-11-17T15:20:37Z"}
