{"icao":"LPPD","metar":"LPPD 012000Z 31015G25KT 290V350 9999 SCT020 FEW022TCU 14/08 Q1002","updated":"2026-01-01T20:22:23Z"}
