{"icao":"LPST","metar":"LPST 270900Z VRB01KT CAVOK 07/05 Q1025","updated":"2025-11-27T09:21:05Z"}
