{"icao":"LPFR","metar":"LPFR 181230Z 11006KT 9999 SCT012 17/13 Q1023","updated":"2025-12-18T12:42:38Z"}
