{"icao":"LPPR","metar":"LPPR 021830Z 25007KT 220V290 9999 -SHRA FEW015 SCT030 BKN040 10/06 Q0996","updated":"2026-02-02T18:41:52Z"}
