{"icao":"KJFK","metar":"KJFK 260651Z 02014KT 10SM OVC011 M05/M07 A2974 RMK AO2 SLP071 T10501067 $","updated":"2026-01-26T07:27:23Z"}
