{"icao":"LPLA","metar":"LPLA 010414Z 30015KT 9000 -RA FEW015 BKN020 BKN030 18/15 Q1023","updated":"2025-12-01T04:48:35Z"}
