{"icao":"LPPT","metar":"LPPT 180230Z VRB01KT CAVOK 18/09 Q1019","updated":"2025-09-18T02:56:02Z"}
