{"icao":"LPOV","metar":"LPOV 110900Z 35026KT 9000 FEW005 SCT012 BKN020 13/09 Q1016","updated":"2026-04-11T09:38:40Z"}
