{"icao":"LPMR","metar":"LPMR 271300Z 16013KT CAVOK 20/14 Q1015","updated":"2025-09-27T13:19:52Z"}
