{"icao":"LPMA","metar":"LPMA 301230Z 22006KT 170V320 9999 FEW015 20/16 Q1025","updated":"2026-01-30T12:53:19Z"}
