{"icao":"LPLA","metar":"LPLA 021300Z 20008KT 160V230 9999 BKN035 19/11 Q1022","updated":"2025-11-02T13:21:30Z"}
