{"icao":"LPPS","metar":"LPPS 120800Z 27008KT 240V300 9000 -RA BKN010 17/16 Q1005","updated":"2025-11-12T08:26:40Z"}
