{"icao":"KORD","metar":"KORD 231051Z 29007KT 10SM FEW250 04/02 A3006 RMK AO2 SLP183 T00440017","updated":"2025-11-23T11:14:37Z"}
