{"icao":"LPFL","metar":"LPFL 282000Z 24006G16KT 160V310 9999 FEW010 18/13 Q1028","updated":"2026-02-28T20:24:27Z"}
