{"icao":"KORD","metar":"KORD 141719Z 35020G32KT 10SM FEW021 SCT037 BKN110 M06/M14 A2983 RMK AO2 PK WND 35032/1716 SNE18 P0000 T10611139 $","updated":"2026-01-14T17:26:14Z"}
