{"icao":"LPOV","metar":"LPOV 151600Z 35021KT CAVOK 15/11 Q1019","updated":"2026-03-15T16:31:23Z"}
