{"icao":"LPPT","metar":"LPPT 010800Z 28009KT 250V310 6000 -RADZ BKN004 FEW015TCU 17/16 Q1014 RERA","updated":"2025-11-01T08:21:11Z"}
