{"icao":"LPBJ","metar":"LPBJ 092200Z 18006KT 9999 FEW020 12/11 Q1012","updated":"2026-05-09T22:41:24Z"}
