{"icao":"LPPR","metar":"LPPR 061100Z 21010KT 2000 -DZ BR BKN002 BKN004 16/16 Q1021","updated":"2025-12-06T11:14:15Z"}
