{"icao":"LPAZ","metar":"LPAZ 200800Z 25011KT 6000 FEW002 SCT012 BKN026 23/22 Q1018","updated":"2025-10-20T08:24:50Z"}
