{"icao":"LPMA","metar":"LPMA 130300Z 02024G42KT 340V070 9999 BKN015 FEW018CB 15/08 Q1020","updated":"2025-12-13T03:15:03Z"}
