{"icao":"LPFL","metar":"LPFL 041430Z 24018G29KT 210V270 9999 FEW005 22/17 Q1024","updated":"2026-06-04T14:57:13Z"}
