{"icao":"LPFL","metar":"LPFL 281830Z 27007KT 220V010 9999 -RA FEW015 FEW016TCU 16/12 Q1003","updated":"2026-01-28T18:35:51Z"}
