{"icao":"KORD","metar":"KORD 241651Z 30006KT 10SM BKN090 BKN160 OVC250 M18/M28 A3067 RMK AO2 SLP406 T11831278","updated":"2026-01-24T17:17:08Z"}
