{"icao":"LPPT","metar":"LPPT 100830Z 34012KT 300V360 9999 -SHRA FEW012 BKN015 10/09 Q1022","updated":"2026-03-10T08:40:12Z"}
