{"icao":"LPPD","metar":"LPPD 142100Z 21014KT 9999 FEW016 FEW020CB 21/16 Q1006","updated":"2025-10-14T21:15:17Z"}
