{"icao":"LPPS","metar":"LPPS 240700Z 35013KT 9999 FEW015 BKN030 20/14 Q1020","updated":"2025-09-24T07:17:15Z"}
