{"icao":"LPPD","metar":"LPPD 081300Z 21029G40KT 8000 FEW008 BKN012 BKN022 20/18 Q0995","updated":"2025-12-08T13:33:53Z"}
