{"icao":"LPCS","metar":"LPCS 132100Z 28004KT 250V310 9999 -DZ FEW004 SCT008 BKN012 13/12 Q1021","updated":"2026-03-14T01:56:30Z"}
