{"icao":"LPFR","metar":"LPFR 031400Z 19005KT 150V220 CAVOK 20/12 Q1021","updated":"2025-11-03T14:18:40Z"}
