{"icao":"LPPT","metar":"LPPT 161400Z 26014KT 9999 SCT025 FEW030CB 18/11 Q1011","updated":"2025-11-16T14:15:13Z"}
