{"icao":"LPPS","metar":"LPPS 192100Z 33005KT 9999 FEW014 20/17 Q1018","updated":"2026-06-19T21:09:25Z"}
