{"icao":"LPPD","metar":"LPPD 280700Z 01020KT 8000 -SHRA SCT011 14/13 Q1024","updated":"2025-11-28T07:18:37Z"}
