{"icao":"LPCS","metar":"LPCS 300900Z 01013KT 350V050 9999 FEW010 20/14 Q1022","updated":"2026-05-30T09:13:09Z"}
