{"icao":"LPPD","metar":"LPPD 212100Z 03013KT 340V060 9999 BKN016 14/11 Q1016 WS R30","updated":"2026-03-21T21:24:01Z"}
