{"icao":"LPMR","metar":"LPMR 172100Z VRB02KT CAVOK 15/13 Q1016","updated":"2025-10-17T21:15:05Z"}
