{"icao":"LPOV","metar":"LPOV 211500Z 25012KT 8000 FEW006 SCT022 BKN030 14/12 Q1001 RESHRA","updated":"2026-01-21T15:30:33Z"}
