{"icao":"LPMR","metar":"LPMR 212200Z 00000KT CAVOK 06/03 Q1030","updated":"2025-11-21T22:17:50Z"}
