{"icao":"LPPR","metar":"LPPR 192030Z VRB02KT 9999 4100W BCFG FEW007 13/12 Q1015","updated":"2026-04-19T20:36:10Z"}
