{"icao":"LPPT","metar":"LPPT 161330Z 35020G31KT 9999 VCSH FEW030 BKN035 FEW038TCU 12/08 Q1012 WS R02","updated":"2025-12-16T13:37:13Z"}
