{"icao":"LPMR","metar":"LPMR 101900Z VRB01KT CAVOK 12/11 Q1023","updated":"2025-12-10T19:17:01Z"}
