{"icao":"LPAZ","metar":"LPAZ 111830Z 23007KT 5000 BR FEW006 SCT042 17/16 Q1020","updated":"2026-02-11T19:01:28Z"}
