{"icao":"LPMA","metar":"LPMA 030400Z 24009KT 210V270 9999 SCT015 FEW018CB 15/12 Q0994","updated":"2026-01-03T04:31:31Z"}
