{"icao":"LPPR","metar":"LPPR 140630Z 33005KT 290V360 9999 FEW006 BKN012 BKN025 11/10 Q1017","updated":"2026-03-14T06:43:52Z"}
