{"icao":"KLAX","metar":"KLAX 221653Z 23007KT 10SM CLR 18/09 A3015 RMK AO2 SLP210 T01780089 $","updated":"2026-04-22T16:57:55Z"}
