{"icao":"LPPD","metar":"LPPD 301400Z 34005KT 280V020 9999 SCT016 SCT030 19/14 Q1027","updated":"2025-11-30T14:16:20Z"}
