{"icao":"LPPD","metar":"LPPD 071100Z 25003KT 220V300 9999 FEW018 17/15 Q1013","updated":"2025-12-07T11:14:11Z"}
