{"icao":"LPHR","metar":"LPHR 130830Z 35006KT 9999 FEW027 13/09 Q1029","updated":"2026-02-13T08:40:47Z"}
