{"icao":"LPHR","metar":"LPHR 191230Z 01018G37KT 310V070 9999 VCSH SCT013 BKN025 16/11 Q1009","updated":"2026-03-19T13:02:29Z"}
