{"icao":"LPHR","metar":"LPHR 061400Z 19009KT 9999 FEW006 BKN010 23/22 Q1017","updated":"2025-10-06T14:17:31Z"}
