{"icao":"LPMT","metar":"LPMT 090900Z 21002KT 9999 FEW008 12/12 Q1029","updated":"2026-01-09T09:26:54Z"}
