{"icao":"LPPD","metar":"LPPD 190700Z 34008KT 300V040 9999 SCT012 18/16 Q1018","updated":"2025-09-19T07:16:48Z"}
