{"icao":"LPCS","metar":"LPCS 291030Z 24013KT 4500 BR FEW001 BKN003 16/16 Q1010","updated":"2026-01-29T10:35:20Z"}
