{"icao":"LPPI","metar":"LPPI 270900Z 34004KT 260V020 9999 FEW015 SCT025 19/16 Q1024","updated":"2026-06-27T09:27:06Z"}
