{"icao":"LPMT","metar":"LPMT 260800Z VRB01KT CAVOK 03/03 Q1014","updated":"2025-12-26T08:26:34Z"}
