{"icao":"LPST","metar":"LPST 090800Z 32005KT CAVOK 11/09 Q1018","updated":"2026-04-09T09:05:54Z"}
