{"icao":"LPMA","metar":"LPMA 280500Z 02015G27KT 340V040 9999 BKN014 15/08 Q1027","updated":"2026-02-28T05:32:11Z"}
