{"icao":"LPPS","metar":"LPPS 182300Z 07004KT 020V100 9999 BKN012 16/13 Q1028","updated":"2026-02-18T23:28:31Z"}
