{"icao":"LPPT","metar":"LPPT 181200Z 34007KT 300V060 CAVOK 29/10 Q1016","updated":"2026-06-18T12:24:02Z"}
