{"icao":"LPPR","metar":"LPPR 081500Z 20012KT 9999 FEW024 13/09 Q1011","updated":"2026-02-08T15:24:42Z"}
