{"icao":"KORD","metar":"KORD 081451Z VRB03KT 10SM SCT090 13/05 A2985 RMK AO2 SLP107 T01330050 58002","updated":"2026-05-08T15:20:52Z"}
