{"icao":"LPBJ","metar":"LPBJ 101800Z 04007KT CAVOK 26/09 Q1019","updated":"2025-10-10T18:25:11Z"}
