{"icao":"LPPT","metar":"LPPT 151400Z 35015KT 320V020 9999 FEW030 17/09 Q1019","updated":"2026-03-15T14:28:29Z"}
