{"icao":"LPMA","metar":"LPMA 030700Z 03018KT 9999 FEW016 14/08 Q1021","updated":"2026-04-03T07:06:16Z"}
