{"icao":"KJFK","metar":"KJFK 251651Z 18012KT 10SM FEW025 FEW042 BKN130 OVC200 12/06 A3021 RMK AO2 SLP228 T01170061","updated":"2025-11-25T17:19:08Z"}
