{"icao":"LPCS","metar":"LPCS 171000Z 35011KT 9999 FEW014 FEW018TCU SCT022 17/14 Q1015","updated":"2025-11-17T10:21:20Z"}
