{"icao":"KORD","metar":"KORD 082151Z 14006KT 10SM FEW025 SCT040 BKN085 BKN130 OVC220 26/23 A2993 RMK AO2 RAB2059E37 SLP132 P0001 T02560228","updated":"2026-06-08T22:25:10Z"}
