{"icao":"KORD","metar":"KORD 250051Z 18006KT 10SM FEW010 SCT075 OVC100 09/06 A2995 RMK AO2 SLP144 T00890061","updated":"2025-11-25T01:24:42Z"}
