{"icao":"LPAZ","metar":"LPAZ 251430Z 23005KT 0250 R18/0250N FG VV002 17/17 Q1017","updated":"2026-04-25T14:40:04Z"}
