{"icao":"LPMA","metar":"LPMA 140330Z 01005G15KT 290V090 9999 BKN015 15/06 Q1023","updated":"2026-01-14T03:45:57Z"}
