{"icao":"LPMR","metar":"LPMR 201300Z 34013KT 9999 BKN008 BKN015 19/16 Q1021","updated":"2025-09-20T13:20:52Z"}
