{"icao":"LPFR","metar":"LPFR 201900Z 27009KT CAVOK 23/18 Q1016","updated":"2025-09-20T19:11:21Z"}
