{"icao":"LPOV","metar":"LPOV 250100Z VRB02KT 9999 FEW020 BKN040 15/15 Q1015","updated":"2025-10-25T01:18:51Z"}
