{"icao":"KORD","metar":"KORD 051451Z 24009KT 10SM BKN250 01/M03 A2981 RMK AO2 SLP100 T00111033 53008","updated":"2026-01-05T15:22:53Z"}
