{"icao":"KJFK","metar":"KJFK 162058Z 18018KT 1/8SM R04R/2200V5000FT -RA FG VV002 09/09 A2958 RMK AO2 SFC VIS 1/2 P0000 T00940089","updated":"2026-03-16T21:38:25Z"}
