{"icao":"LPPS","metar":"LPPS 151030Z 03008KT 350V100 9999 BKN010 15/13 Q1025","updated":"2026-04-15T10:57:58Z"}
