{"icao":"LPLA","metar":"LPLA 252000Z 22026G40KT 4000 RADZ FEW008 BKN022 18/15 Q1007","updated":"2026-01-25T20:22:36Z"}
