{"icao":"LPPT","metar":"LPPT 250800Z 05006G16KT 340V080 CAVOK 19/03 Q1018","updated":"2025-09-25T08:23:18Z"}
