{"icao":"LPOV","metar":"LPOV 041800Z 28004KT 9999 BKN032 14/10 Q1019","updated":"2025-12-04T19:17:36Z"}
