{"icao":"KLAX","metar":"KLAX 121453Z 24010KT 5SM BR FEW010 BKN023 OVC030 16/13 A2997 RMK AO2 WSHFT 1354 RAE42 SLP146 VIS E 2 P0010 60010 T01560133 53016 $","updated":"2026-04-12T15:35:10Z"}
