{"icao":"LPLA","metar":"LPLA 201800Z 16014G24KT 140V200 7000 FEW015 17/14 Q1019","updated":"2026-02-20T18:45:16Z"}
