{"icao":"LPBJ","metar":"LPBJ 301500Z 33011KT CAVOK 33/11 Q1019","updated":"2026-05-30T15:04:43Z"}
