{"icao":"LPMT","metar":"LPMT 062200Z 34009KT CAVOK 17/12 Q1020","updated":"2026-06-06T23:03:21Z"}
