{"icao":"KORD","metar":"KORD 190151Z 27012G20KT 10SM FEW050 07/M04 A3003 RMK AO2 PK WND 26030/0055 SLP172 T00671044 $","updated":"2026-04-19T02:34:52Z"}
