{"icao":"LPMT","metar":"LPMT 291400Z 35008KT CAVOK 32/18 Q1019","updated":"2026-06-29T14:46:37Z"}
