{"icao":"LPFL","metar":"LPFL 301600Z 19008KT 140V240 9999 FEW012 25/19 Q1017","updated":"2025-09-30T16:22:26Z"}
