{"icao":"KORD","metar":"KORD 281751Z 31009KT 10SM FEW030 FEW250 M01/M11 A3036 RMK AO2 SLP289 T10111106 11011 21061 58002 $","updated":"2025-11-28T18:26:49Z"}
