{"icao":"LPPR","metar":"LPPR 142000Z 35003KT 320V020 6000 NSC 15/14 Q1017","updated":"2025-10-14T20:19:11Z"}
