{"icao":"LPMA","metar":"LPMA 160800Z 24004KT 9999 FEW015 21/16 Q1016","updated":"2025-10-16T08:25:55Z"}
