{"icao":"LPPS","metar":"LPPS 231730Z 02012KT 350V060 9999 SCT014 BKN030 19/15 Q1022","updated":"2026-05-23T17:59:40Z"}
