{"icao":"LPST","metar":"LPST 211000Z 26009KT 7000 SCT006 BKN015 20/20 Q1015","updated":"2025-10-21T10:19:11Z"}
