{"icao":"KLAX","metar":"KLAX 310653Z 09006KT 10SM SCT016 BKN250 17/14 A2995 RMK AO2 SLP139 T01720139","updated":"2026-03-31T07:12:02Z"}
