{"icao":"LPPD","metar":"LPPD 052100Z 34007KT 310V010 9999 FEW018 SCT023 18/14 Q1025","updated":"2026-06-05T21:24:02Z"}
