{"icao":"LPPR","metar":"LPPR 121700Z 28005KT 240V310 9999 FEW016 FEW020TCU 18/13 Q1018","updated":"2026-05-12T17:09:07Z"}
