{"icao":"KLAX","metar":"KLAX 132253Z 25010KT 10SM FEW200 FEW250 21/08 A3013 RMK AO2 SLP202 T02110083 $","updated":"2026-01-13T23:18:59Z"}
