{"icao":"LPBJ","metar":"LPBJ 211000Z 01010KT CAVOK 11/03 Q1026","updated":"2025-11-21T10:19:42Z"}
