{"icao":"LPPD","metar":"LPPD 031830Z VRB03KT 9999 FEW025 BKN040 15/09 Q1024","updated":"2026-04-03T18:44:55Z"}
