{"icao":"KLAX","metar":"KLAX 101919Z 26008KT 10SM FEW009 BKN030 18/11 A3012 RMK AO2 T01780106 $","updated":"2026-03-10T19:37:31Z"}
