{"icao":"LPPI","metar":"LPPI 291030Z 03005KT 330V080 9999 FEW030 20/14 Q1029","updated":"2026-06-29T10:55:33Z"}
