{"icao":"LPCS","metar":"LPCS 261630Z 23008KT CAVOK 30/09 Q1020","updated":"2026-05-26T16:40:58Z"}
