{"icao":"LPCS","metar":"LPCS 260700Z 23011KT 8000 FEW002 BKN003 15/15 Q1013","updated":"2026-01-26T07:26:46Z"}
