{"icao":"KJFK","metar":"KJFK 111351Z 30022G31KT 10SM FEW050 BKN190 01/M13 A2967 RMK AO2 PK WND 30035/1336 SLP048 T00061128 $","updated":"2025-12-11T14:20:57Z"}
