{"icao":"LPLA","metar":"LPLA 130300Z VRB02KT 9999 OVC035 14/10 Q1030 WIND RWY15 27004KT RH75 BLU","updated":"2025-12-13T03:14:50Z"}
