{"icao":"LPCS","metar":"LPCS 020800Z 16016KT 9999 FEW006 BKN018 FEW020TCU 16/15 Q1002","updated":"2026-01-02T08:28:02Z"}
