{"icao":"KLAX","metar":"KLAX 050853Z 01006KT 10SM FEW220 19/M02 A3005 RMK AO2 SLP173 T01941017 58010 $","updated":"2026-02-05T09:42:44Z"}
