{"icao":"LPPR","metar":"LPPR 250500Z 00000KT 4500 BR BKN002 17/16 Q1021","updated":"2026-05-25T05:18:14Z"}
