{"icao":"LPFR","metar":"LPFR 191530Z 11009KT CAVOK 21/13 Q1015","updated":"2026-04-19T15:36:11Z"}
