{"icao":"LPFR","metar":"LPFR 072030Z 29004KT 250V320 9999 FEW020 SCT035 12/09 Q1017","updated":"2026-04-07T20:45:20Z"}
