{"icao":"LPST","metar":"LPST 171100Z 30009KT 260V320 9999 FEW018 24/18 Q1018","updated":"2026-06-17T11:45:49Z"}
