{"icao":"KLAX","metar":"KLAX 301707Z VRB05KT 9SM FEW009 SCT024 19/13 A2991 RMK AO2 T01890128","updated":"2026-04-30T17:19:25Z"}
