{"icao":"LPPT","metar":"LPPT 080430Z 24006KT 9999 FEW025 08/07 Q1013","updated":"2026-02-08T05:01:41Z"}
