{"icao":"LPLA","metar":"LPLA 170400Z 31019KT 9999 BKN038 12/04 Q1016","updated":"2026-03-17T04:50:18Z"}
