{"icao":"LPPS","metar":"LPPS 071800Z 20006KT 9999 FEW015 19/13 Q1021","updated":"2025-12-07T18:25:06Z"}
