{"icao":"LPPR","metar":"LPPR 191200Z 19018KT 2500 RA BR SCT004 BKN006 18/18 Q1013","updated":"2025-10-19T12:32:57Z"}
