{"icao":"LPPD","metar":"LPPD 171900Z 31011KT 280V340 9999 FEW016 BKN020 15/11 Q1028","updated":"2026-01-17T19:14:12Z"}
