{"icao":"LPBJ","metar":"LPBJ 232100Z 17009KT CAVOK 15/07 Q1022","updated":"2026-02-23T21:42:53Z"}
