{"icao":"KLAX","metar":"KLAX 111653Z 24005KT 10SM FEW020 SCT036 SCT055 18/12 A3003 RMK AO2 SLP166 T01830122 $","updated":"2026-04-11T17:30:12Z"}
