{"icao":"LPMA","metar":"LPMA 030500Z 36007KT 9999 SCT015 21/17 Q1022","updated":"2025-10-03T05:16:54Z"}
