{"icao":"LPMT","metar":"LPMT 110700Z 12008KT 1500 BR BKN003 14/14 Q1013","updated":"2025-11-11T08:24:34Z"}
