{"icao":"LPPR","metar":"LPPR 151900Z 34011KT CAVOK 13/11 Q1020","updated":"2026-03-15T19:26:38Z"}
