{"icao":"LPBJ","metar":"LPBJ 140700Z 06007KT CAVOK 09/07 Q1018","updated":"2025-12-14T07:17:41Z"}
