{"icao":"LPBJ","metar":"LPBJ 141000Z 10006KT 070V130 CAVOK 24/13 Q1018","updated":"2025-10-14T10:18:59Z"}
