{"icao":"LPFL","metar":"LPFL 020900Z 35016KT 9999 SCT025 14/09 Q1013","updated":"2026-01-02T09:23:47Z"}
