{"icao":"LPPR","metar":"LPPR 051530Z 29006KT 240V340 CAVOK 19/06 Q1018","updated":"2026-06-05T15:51:48Z"}
