{"icao":"LPOV","metar":"LPOV 222000Z 33004KT 290V360 9999 SCT004 BKN018 20/19 Q1016","updated":"2026-06-23T00:04:04Z"}
