{"icao":"LPFL","metar":"LPFL 100900Z 19025G44KT 150V220 7000 VCSH FEW008 BKN010 20/18 Q1006","updated":"2025-12-10T09:23:39Z"}
