{"icao":"LPPR","metar":"LPPR 111930Z 32005KT 9999 FEW006 BKN008 13/12 Q1027","updated":"2026-03-11T19:40:08Z"}
