{"icao":"LPPT","metar":"LPPT 011330Z 23013KT 1800 DZ BR FEW001 BKN003 16/16 Q1011","updated":"2026-02-01T13:41:40Z"}
