{"icao":"KORD","metar":"KORD 180751Z 25012KT 10SM -SN FEW010 BKN022 BKN110 M12/M15 A3005 RMK AO2 SLP189 P0000 T11171150 $","updated":"2026-01-18T08:25:29Z"}
