{"icao":"LPPS","metar":"LPPS 052000Z 32007KT 9999 SCT008 BKN025 21/19 Q1022","updated":"2025-10-05T20:17:44Z"}
