{"icao":"KJFK","metar":"KJFK 222151Z 32016G21KT 10SM SCT037 BKN050 BKN200 10/02 A2991 RMK AO2 SLP128 T01000022","updated":"2025-11-22T22:17:06Z"}
