{"icao":"LPOV","metar":"LPOV 221400Z 32006KT 290V360 8000 BKN006 14/13 Q1012","updated":"2026-03-22T15:24:54Z"}
