{"icao":"LPHR","metar":"LPHR 051630Z 29023G37KT 9999 VCSH SCT020 SCT040 13/07 Q1007","updated":"2026-02-05T16:45:38Z"}
