{"icao":"LPPT","metar":"LPPT 070130Z 31001KT 9999 FEW005 BKN046 13/13 Q1023","updated":"2025-12-07T01:42:21Z"}
