{"icao":"KJFK","metar":"KJFK 231951Z 33018G27KT 4SM -SN BLSN FEW009 BKN017 OVC038 00/M02 A2958 RMK AO2 PK WND 33032/1856 SLP017 P0000 T00001017 $","updated":"2026-02-23T20:42:55Z"}
