{"icao":"LPMR","metar":"LPMR 072000Z 14009KT 110V170 9999 FEW020 12/07 Q1014","updated":"2026-04-07T20:45:24Z"}
