{"icao":"LPPR","metar":"LPPR 191530Z 31008KT 280V340 9999 FEW025 12/06 Q1028","updated":"2026-02-19T15:46:47Z"}
