{"icao":"LPFL","metar":"LPFL 241930Z 34014KT 300V360 9999 FEW023 19/13 Q1023","updated":"2026-06-24T22:15:21Z"}
