{"icao":"LPMR","metar":"LPMR 300500Z 33008KT 6000 OVC008 17/16 Q1022","updated":"2026-05-30T06:22:55Z"}
