{"icao":"KORD","metar":"KORD 251451Z 21010KT 10SM FEW070 BKN220 12/M03 A3002 RMK AO2 SLP167 T01171028 56021","updated":"2026-03-25T14:58:07Z"}
