{"icao":"LPOV","metar":"LPOV 182200Z 31010KT 280V340 9999 SCT018 SCT035 12/09 Q1020","updated":"2026-02-18T23:28:11Z"}
