{"icao":"LPPT","metar":"LPPT 020430Z 31014KT CAVOK 12/10 Q1021","updated":"2026-04-02T05:01:12Z"}
