{"icao":"KJFK","metar":"KJFK 290851Z 19008KT 1/4SM R04R/P6000FT -DZ FG OVC002 04/04 A2963 RMK AO2 SFC VIS 1/2 SLP032 P0001 60002 T00440044 56046 $","updated":"2025-12-29T09:29:05Z"}
