{"icao":"LPPS","metar":"LPPS 290800Z 34007KT 9999 FEW015 16/12 Q1022","updated":"2025-11-29T08:23:36Z"}
