{"icao":"LPMA","metar":"LPMA 090300Z 36008KT 9999 SCT015 20/16 Q1022","updated":"2025-11-09T03:11:49Z"}
