{"icao":"LPPD","metar":"LPPD 251100Z 23016KT 9999 FEW006 SCT012 BKN025 17/15 Q1018","updated":"2026-01-25T11:16:56Z"}
