{"icao":"LPPR","metar":"LPPR 180730Z 12006KT 090V150 9999 FEW020 13/10 Q1019","updated":"2026-05-18T08:01:33Z"}
