{"icao":"KLAX","metar":"KLAX 180053Z 26011KT 10SM CLR 22/11 A2988 RMK AO2 SLP117 T02170111","updated":"2025-10-18T01:16:20Z"}
