{"icao":"LPAZ","metar":"LPAZ 081400Z 23017KT 0500 R18/0600 FG VV002 17/17 Q1016","updated":"2026-02-08T14:26:31Z"}
