{"icao":"LPOV","metar":"LPOV 011200Z 29004KT 240V330 9999 FEW018 SCT030 17/14 Q1018","updated":"2025-11-01T12:33:06Z"}
