{"icao":"KORD","metar":"KORD 102251Z 30013G19KT 10SM FEW040 BKN120 BKN250 00/M09 A3021 RMK AO2 SLP240 T00001089","updated":"2025-11-10T23:17:16Z"}
