{"icao":"KORD","metar":"KORD 032151Z 22017G28KT 10SM FEW070 FEW100 SCT250 19/03 A2971 RMK AO2 PK WND 19033/2101 SLP060 T01940033 $","updated":"2026-05-03T22:39:37Z"}
