{"icao":"LPPT","metar":"LPPT 240300Z 36006KT CAVOK 17/06 Q1017","updated":"2025-09-24T03:33:34Z"}
