{"icao":"KORD","metar":"KORD 131051Z 25005KT 10SM CLR 03/M03 A3014 RMK AO2 SLP209 T00281028 $","updated":"2025-11-13T11:17:13Z"}
