{"icao":"LPMA","metar":"LPMA 200600Z 03006KT 360V060 9999 BKN015 18/13 Q1018","updated":"2025-11-20T06:27:43Z"}
