{"icao":"LPAR","metar":"LPAR 201300Z 32005KT 280V020 9999 SCT030 24/13 Q1015","updated":"2025-10-20T13:28:11Z"}
