{"icao":"LPLA","metar":"LPLA 191500Z 35025G38KT 9999 SCT015 BKN020 15/12 Q1006","updated":"2026-03-19T15:53:30Z"}
