{"icao":"LPPR","metar":"LPPR 231100Z 25008KT 210V290 5000 SHRA BR FEW018 FEW023TCU BKN027 08/06 Q0998","updated":"2026-01-23T11:19:35Z"}
