{"icao":"KJFK","metar":"KJFK 061551Z 32019G31KT 10SM BKN055 12/M02 A3005 RMK AO2 PK WND 31031/1545 SLP174 T01171022 $","updated":"2025-11-06T16:25:12Z"}
