{"icao":"LPPS","metar":"LPPS 311330Z 28006KT 240V310 9999 FEW014 BKN030 19/15 Q1025","updated":"2026-01-31T13:40:06Z"}
