{"icao":"LPPD","metar":"LPPD 131100Z 28010KT 9999 FEW022 15/10 Q1031","updated":"2026-02-13T11:30:18Z"}
