{"icao":"KLAX","metar":"KLAX 161653Z 09007KT 10SM SCT036 BKN043 BKN120 15/13 A3000 RMK AO2 RAE12 SLP157 P0009 T01500128 $","updated":"2025-11-16T17:15:15Z"}
