{"icao":"LPMR","metar":"LPMR 240700Z 24006KT 210V270 9999 SCT015 SCT025 15/14 Q1018","updated":"2025-11-24T07:18:46Z"}
