{"icao":"LPPR","metar":"LPPR 221100Z 27004KT 220V310 8000 3000W BCFG FEW002 16/13 Q1012","updated":"2026-03-22T11:22:09Z"}
