{"icao":"LPFR","metar":"LPFR 201130Z 10012KT CAVOK 23/12 Q1012","updated":"2026-04-20T12:02:42Z"}
