{"icao":"KJFK","metar":"KJFK 272051Z 28012G20KT 10SM SCT055 BKN180 BKN250 06/M07 A2990 RMK AO2 SLP125 T00611067 56000","updated":"2025-11-27T21:17:08Z"}
