{"icao":"LPPD","metar":"LPPD 011530Z 09009KT 040V120 9999 FEW015 BKN023 22/17 Q1030","updated":"2026-07-01T15:40:01Z"}
