{"icao":"LPST","metar":"LPST 111700Z 25017KT 2000 -DZ BR FEW002 BKN004 BKN012 15/14 Q1016","updated":"2026-02-11T21:32:38Z"}
