{"icao":"KORD","metar":"KORD 261409Z 06008KT 4SM BR OVC007 09/07 A3009 RMK AO2 T00940072","updated":"2026-04-26T14:41:17Z"}
