{"icao":"LPPR","metar":"LPPR 130500Z 16013KT 9000 RA SCT015 FEW020CB BKN048 16/15 Q1001 RESHRA","updated":"2025-11-13T05:18:50Z"}
