{"icao":"LPMT","metar":"LPMT 151900Z 32011KT 290V350 9999 FEW040 17/11 Q1015","updated":"2026-05-15T20:15:47Z"}
