{"icao":"LPST","metar":"LPST 251300Z 36013KT 330V030 9999 SCT018 15/07 Q1023","updated":"2025-11-25T13:33:02Z"}
