{"icao":"LPFR","metar":"LPFR 240700Z 05006KT CAVOK 20/00 Q1016","updated":"2025-09-24T07:17:12Z"}
