{"icao":"LPPT","metar":"LPPT 100400Z 27004KT 9999 FEW015 09/08 Q1029","updated":"2026-01-10T04:32:34Z"}
