{"icao":"LPPR","metar":"LPPR 241030Z 18014KT 9999 BKN020 14/10 Q1018","updated":"2026-02-24T10:47:44Z"}
