{"icao":"LPAR","metar":"LPAR 061600Z 35012KT 320V020 9999 FEW025 12/01 Q1023","updated":"2026-01-06T16:27:24Z"}
