{"icao":"LPPR","metar":"LPPR 031600Z 16009KT 9000 4000N -SHRA SCT017 FEW024CB BKN030 12/10 Q1021","updated":"2025-12-03T16:27:17Z"}
