{"icao":"LPBJ","metar":"LPBJ 271200Z 25009KT 230V290 CAVOK 25/03 Q1019","updated":"2025-09-27T12:31:47Z"}
