{"icao":"LPOV","metar":"LPOV 011500Z 17009KT 1200 DZRA BR BKN002 BKN005 15/15 Q1007","updated":"2026-02-01T16:28:22Z"}
