{"icao":"LPPT","metar":"LPPT 302200Z 32006KT CAVOK 21/12 Q1019","updated":"2025-09-30T22:15:51Z"}
