{"icao":"KORD","metar":"KORD 241851Z 22007KT 10SM BKN090 OVC250 08/M09 A3030 RMK AO2 SLP265 T00831094","updated":"2026-03-24T19:01:45Z"}
