{"icao":"KJFK","metar":"KJFK 120051Z 29017G26KT 10SM SCT060 M01/M08 A2983 RMK AO2 PK WND 30026/2358 SLP100 T10111078 $","updated":"2025-12-12T01:28:44Z"}
