{"icao":"KORD","metar":"KORD 231651Z 02015G22KT 10SM FEW040 FEW250 03/M11 A3041 RMK AO2 SLP306 T00331111","updated":"2026-03-23T17:02:45Z"}
