{"icao":"LPBJ","metar":"LPBJ 271228Z 26018KT 8000 -SHRA SCT015 BKN024 FEW025CB 13/09 Q1004 WS ALL RWY","updated":"2026-01-27T12:48:08Z"}
