{"icao":"LPAR","metar":"LPAR 121000Z 19019G29KT 9999 BKN020 20/16 Q1004","updated":"2025-11-12T10:20:45Z"}
