{"icao":"LPBJ","metar":"LPBJ 040900Z 32008KT 280V360 9999 BKN007 15/13 Q1024","updated":"2025-10-04T09:15:42Z"}
