{"icao":"LPFL","metar":"LPFL 091530Z 20018G34KT 180V250 9999 VCSH FEW008 BKN010 19/16 Q1001","updated":"2026-02-09T15:54:41Z"}
