{"icao":"KLAX","metar":"KLAX 260153Z 24012G23KT 9SM OVC007 16/14 A2994 RMK AO2 SLP138 T01610139 $","updated":"2026-03-26T02:11:48Z"}
