{"icao":"LPLA","metar":"LPLA 301900Z 29012KT 9999 SCT025 BKN040 18/12 Q1007","updated":"2025-10-30T19:14:35Z"}
