{"icao":"LPMR","metar":"LPMR 141400Z 29006KT 9999 BKN018 18/13 Q1023","updated":"2026-04-14T15:11:38Z"}
