{"icao":"LPMA","metar":"LPMA 200730Z 36007KT 9999 BKN016 16/09 Q1027","updated":"2026-02-20T07:47:41Z"}
