{"icao":"KJFK","metar":"KJFK 031751Z 20012KT 10SM FEW055 FEW250 20/09 A3032 RMK AO2 SLP268 T02000089 10206 20144 58024","updated":"2025-10-03T18:24:21Z"}
