{"icao":"LPPS","metar":"LPPS 250600Z 21004KT 180V240 9999 FEW012 20/17 Q1015","updated":"2025-10-25T06:23:55Z"}
