{"icao":"LPPR","metar":"LPPR 232300Z 03003KT 340V080 CAVOK 08/06 Q1010","updated":"2025-12-23T23:17:55Z"}
