{"icao":"LPAZ","metar":"LPAZ 031400Z 24024KT 6000 FEW003 BKN009 BKN035 18/16 Q1008","updated":"2026-02-03T14:06:24Z"}
