{"icao":"LPPS","metar":"LPPS 221700Z 06009KT 040V110 9999 FEW015 22/14 Q1021","updated":"2025-09-22T17:14:52Z"}
