{"icao":"LPMT","metar":"LPMT 290500Z 34003KT 300V010 CAVOK 17/14 Q1015","updated":"2025-09-29T06:28:32Z"}
