{"icao":"LPBJ","metar":"LPBJ 110200Z 32005KT CAVOK 06/06 Q1023","updated":"2026-03-11T02:11:32Z"}
