{"icao":"LPPR","metar":"LPPR 251430Z 32011KT 9999 FEW020 20/14 Q1016","updated":"2026-04-25T14:40:01Z"}
