{"icao":"LPPR","metar":"LPPR 091300Z 21009KT 180V250 9999 -SHRA SCT022 SCT025CB BKN030 17/11 Q1003","updated":"2026-05-09T13:14:36Z"}
