{"icao":"KJFK","metar":"KJFK 041251Z 35008KT 9SM SCT019 SCT095 BKN130 M03/M07 A3006 RMK AO2 SNE46 SLP178 P0000 T10331072 $","updated":"2026-01-04T13:28:49Z"}
