{"icao":"KJFK","metar":"KJFK 021051Z 00000KT 10SM SCT250 05/02 A3025 RMK AO2 SLP244 T00500022 $","updated":"2025-11-02T11:12:59Z"}
