{"icao":"LPFR","metar":"LPFR 230400Z 03006KT CAVOK 15/06 Q1014","updated":"2025-09-23T04:20:35Z"}
