{"icao":"LPMA","metar":"LPMA 251800Z 04014KT 9999 FEW013 21/16 Q1018","updated":"2026-05-25T18:24:30Z"}
