{"icao":"LPHR","metar":"LPHR 301730Z 13013KT 9999 FEW018 SCT030 17/12 Q1031","updated":"2026-03-30T17:53:23Z"}
