{"icao":"LPPD","metar":"LPPD 200900Z 33009KT 9999 FEW022 BKN045 14/07 Q1030","updated":"2025-12-20T09:18:55Z"}
