{"icao":"LPAR","metar":"LPAR 280900Z VRB02KT CAVOK 10/09 Q1024","updated":"2025-11-28T09:19:48Z"}
