{"icao":"LPAR","metar":"LPAR 131600Z 18012KT 9999 SCT018 SCT030 18/15 Q0996","updated":"2025-11-13T16:22:29Z"}
