{"icao":"LPST","metar":"LPST 161500Z 32008KT 280V360 9999 FEW009 SCT020 11/07 Q1013","updated":"2026-01-16T15:22:31Z"}
