{"icao":"LPBJ","metar":"LPBJ 300300Z 29005KT 0200 FG VV002 15/15 Q1013","updated":"2025-10-30T03:10:06Z"}
