{"icao":"KORD","metar":"KORD 241351Z 17004KT 10SM SCT210 BKN250 04/02 A3011 RMK AO2 SLP199 T00440017","updated":"2025-11-24T14:19:20Z"}
