{"icao":"LPST","metar":"LPST 101300Z 27008KT 250V310 9999 SCT020 20/13 Q1018","updated":"2025-11-10T13:30:17Z"}
