{"icao":"LPFR","metar":"LPFR 072300Z VRB01KT CAVOK 19/15 Q1021","updated":"2025-10-07T23:15:38Z"}
