{"icao":"LPHR","metar":"LPHR 231430Z 23005KT 9999 FEW018 SCT030 16/09 Q1025","updated":"2026-03-23T14:53:13Z"}
