{"icao":"LPOV","metar":"LPOV 071700Z 16010KT 130V190 9000 -RA FEW018 BKN040 12/10 Q1013","updated":"2026-04-07T17:59:06Z"}
