{"icao":"LPOV","metar":"LPOV 191400Z 19012KT 7000 RA SCT018 19/18 Q1012","updated":"2025-10-19T14:14:39Z"}
