{"icao":"LPPR","metar":"LPPR 301100Z 32009KT 9999 SCT006 BKN008 18/16 Q1023","updated":"2026-05-30T11:18:29Z"}
