{"icao":"LPLA","metar":"LPLA 150900Z 23007KT 9999 BKN045 14/06 Q1022","updated":"2026-04-15T09:17:46Z"}
