{"icao":"LPHR","metar":"LPHR 281000Z 25013KT 4000 -RA BR SCT003 BKN005 17/16 Q1031","updated":"2026-02-28T10:21:47Z"}
