{"icao":"LPBJ","metar":"LPBJ 241700Z 29008KT 9999 SCT035 24/09 Q1016","updated":"2026-04-24T17:49:19Z"}
