{"icao":"LPLA","metar":"LPLA 202100Z 23004KT 200V270 9999 FEW017 17/12 Q1011","updated":"2026-05-20T21:51:23Z"}
