{"icao":"LPFR","metar":"LPFR 041400Z 10012KT CAVOK 23/02 Q1021","updated":"2026-04-04T14:32:05Z"}
