{"icao":"LPPD","metar":"LPPD 290930Z 24012KT 8000 FEW009 15/14 Q1014","updated":"2026-01-29T09:41:00Z"}
