{"icao":"LPMR","metar":"LPMR 110600Z VRB02KT 9999 FEW040 10/09 Q1021","updated":"2025-12-11T06:32:00Z"}
