{"icao":"KJFK","metar":"KJFK 130251Z 28013G26KT 10SM FEW055 FEW095 BKN130 10/02 A2981 RMK AO2 PK WND 28026/0248 SLP092 T01000017 53010","updated":"2025-11-13T03:13:56Z"}
