{"icao":"KORD","metar":"KORD 030651Z 24003KT 10SM FEW030 BKN120 M06/M10 A3017 RMK AO2 SLP225 T10611100","updated":"2026-02-03T07:41:24Z"}
