{"icao":"LPHR","metar":"LPHR 081600Z 25007KT 230V290 9999 FEW008 SCT014 BKN030 19/17 Q1029","updated":"2026-01-08T16:28:44Z"}
