{"icao":"LPPD","metar":"LPPD 221700Z 13007KT 100V160 9999 FEW020 SCT035 18/13 Q1030","updated":"2025-11-22T17:14:52Z"}
