{"icao":"LPPD","metar":"LPPD 012130Z 05012KT 010V090 9999 FEW007 BKN011 14/11 Q1030","updated":"2026-04-01T21:42:44Z"}
