{"icao":"LPFR","metar":"LPFR 151400Z 11003KT 050V130 9999 FEW022TCU 16/13 Q1012","updated":"2025-12-15T14:23:38Z"}
