{"icao":"LPFR","metar":"LPFR 021430Z 25014KT CAVOK 27/17 Q1017","updated":"2026-06-02T14:51:03Z"}
