{"icao":"LPMA","metar":"LPMA 231900Z VRB06KT 9999 VCSH SCT015 19/15 Q1014","updated":"2026-04-23T19:06:16Z"}
