{"icao":"LPOV","metar":"LPOV 151300Z 16013KT 5000 RADZ SCT007 BKN016 BKN035 11/10 Q1013","updated":"2026-01-15T13:38:31Z"}
