{"icao":"LPMT","metar":"LPMT 250200Z VRB02KT CAVOK 06/06 Q1009","updated":"2025-12-25T03:25:20Z"}
