{"icao":"LPAR","metar":"LPAR 150800Z 06003KT CAVOK 16/13 Q1017","updated":"2025-10-15T08:25:12Z"}
