{"icao":"LPBJ","metar":"LPBJ 060600Z 30006KT CAVOK 01/M02 Q1019","updated":"2026-01-06T06:33:10Z"}
