{"icao":"KORD","metar":"KORD 181851Z 25005KT 10SM FEW028 BKN048 OVC100 22/17 A2965 RMK AO2 SLP036 T02220167 $","updated":"2025-10-18T19:13:05Z"}
