{"icao":"KJFK","metar":"KJFK 272251Z 02005KT 10SM FEW055 FEW250 11/M01 A3033 RMK AO2 SLP269 T01061006","updated":"2025-10-27T23:16:13Z"}
