{"icao":"KORD","metar":"KORD 221151Z 18005KT 10SM FEW070 OVC095 02/M08 A3034 RMK AO2 SLP281 T00171078 10017 20000 56009","updated":"2025-12-22T12:40:24Z"}
