{"icao":"LPMT","metar":"LPMT 220700Z 04008KT CAVOK 10/08 Q1027","updated":"2026-02-22T07:34:41Z"}
