{"icao":"LPPS","metar":"LPPS 170500Z 03009KT 010V080 9999 SCT015 SCT030 16/12 Q1018","updated":"2026-04-17T05:26:51Z"}
