{"icao":"LPPR","metar":"LPPR 171730Z 23005KT 200V260 9999 SCT009 SCT015 BKN036 13/11 Q1024","updated":"2026-02-17T17:54:33Z"}
