{"icao":"LPFR","metar":"LPFR 220300Z 07008KT CAVOK 22/10 Q1019","updated":"2026-05-22T03:32:45Z"}
