{"icao":"LPPR","metar":"LPPR 100100Z 18004KT 160V290 9000 SCT019 SCT035 13/13 Q1018","updated":"2025-12-10T01:28:02Z"}
