{"icao":"KORD","metar":"KORD 100251Z 22003KT 10SM OVC028 05/02 A3018 RMK AO2 SLP226 T00500017 50009","updated":"2026-01-10T03:22:46Z"}
