{"icao":"LPLA","metar":"LPLA 171000Z 31023KT 9999 FEW022 BKN030 15/09 Q1030","updated":"2026-01-17T10:19:46Z"}
