{"icao":"LPBJ","metar":"LPBJ 180100Z 28003KT CAVOK 16/12 Q1016","updated":"2025-10-18T01:16:02Z"}
