{"icao":"KJFK","metar":"KJFK 122351Z 19018G25KT 10SM SCT250 11/06 A3012 RMK AO2 PK WND 18028/2257 SLP198 T01110056 10183 20111 53003","updated":"2026-05-13T00:08:56Z"}
