{"icao":"LPAZ","metar":"LPAZ 031130Z 10007KT 080V140 9999 OVC028 15/09 Q1026","updated":"2026-04-03T11:36:50Z"}
