{"icao":"LPSJ","metar":"LPSJ 281200Z 17005KT 140V200 9999 FEW030 SCT040 22/13 Q1029","updated":"2026-06-28T12:14:53Z"}
