{"icao":"KORD","metar":"KORD 171651Z 17014G22KT 10SM BKN250 23/16 A2986 RMK AO2 SLP109 T02280161 $","updated":"2026-04-17T17:02:15Z"}
