{"icao":"KJFK","metar":"KJFK 150651Z 31018G27KT 10SM FEW060 M07/M14 A3014 RMK AO2 PK WND 29029/0555 SLP205 T10671139 $","updated":"2025-12-15T07:23:37Z"}
