{"icao":"KJFK","metar":"KJFK 240651Z 33018G29KT 10SM FEW250 M11/M24 A3050 RMK PK WND 31035/0634 SLP326 T11111239 $ ","updated":"2026-01-24T07:18:52Z"}
