{"icao":"LPOV","metar":"LPOV 241500Z VRB03KT 9999 BKN018 20/18 Q1015","updated":"2025-10-24T15:19:06Z"}
