{"icao":"KORD","metar":"KORD 272051Z 32014G21KT 10SM BKN055 07/M07 A3038 RMK AO2 SLP293 T00671072 58003","updated":"2026-03-27T21:32:50Z"}
