{"icao":"KORD","metar":"KORD 281451Z 10011KT 10SM FEW020 SCT220 BKN250 11/06 A3012 RMK AO2 SLP202 T01060056 50004","updated":"2025-10-28T15:20:30Z"}
