{"icao":"LPCS","metar":"LPCS 311800Z 20006KT 9000 -RA FEW008 SCT020 BKN035 13/13 Q1020","updated":"2026-01-31T18:30:33Z"}
