{"icao":"LPPS","metar":"LPPS 171300Z 20010KT 160V230 9999 SCT014 19/13 Q1008","updated":"2026-03-17T13:09:48Z"}
