{"icao":"KLAX","metar":"KLAX 051953Z 07004KT 10SM FEW100 SCT160 BKN250 28/M01 A3004 RMK AO2 SLP170 T02781011","updated":"2026-02-05T20:32:39Z"}
