{"icao":"LPPT","metar":"LPPT 192000Z 34010KT 9999 SCT040 12/07 Q1018","updated":"2025-11-19T20:18:17Z"}
