{"icao":"KJFK","metar":"KJFK 031751Z 30007KT 10SM SCT180 BKN210 BKN250 M02/M14 A2998 RMK AO2 SLP152 T10171139 11017 21050 58010 $","updated":"2026-01-03T18:27:25Z"}
