{"icao":"LPMA","metar":"LPMA 150930Z 02013G23KT 330V060 9999 SCT015 17/10 Q1022","updated":"2026-05-15T09:46:48Z"}
