{"icao":"LPFR","metar":"LPFR 130600Z 21016KT 190V250 4000 SHRA SCT012 FEW018CB BKN030 13/12 Q1011 RESHRA","updated":"2026-01-13T06:32:12Z"}
