{"icao":"LPBJ","metar":"LPBJ 032100Z 27007KT CAVOK 15/11 Q1021","updated":"2025-11-03T21:16:38Z"}
