{"icao":"LPHR","metar":"LPHR 301330Z 19007KT 150V210 9000 -RA FEW006 SCT010 BKN080 17/16 Q1019","updated":"2026-01-30T13:55:04Z"}
