{"icao":"LPPD","metar":"LPPD 241800Z 23021KT 8000 FEW005 BKN012 15/14 Q1020","updated":"2026-01-24T18:28:37Z"}
