{"icao":"LPOV","metar":"LPOV 141000Z 16014KT 130V190 6000 -RA FEW004 SCT012 FEW018CB BKN020 13/12 Q1001","updated":"2025-11-14T10:20:39Z"}
