{"icao":"LPBJ","metar":"LPBJ 140300Z 04005KT CAVOK 10/08 Q1018","updated":"2025-12-14T03:27:45Z"}
