{"icao":"LPMR","metar":"LPMR 191000Z 16002KT 8000 FEW040 06/05 Q1021","updated":"2026-01-19T10:27:20Z"}
