{"icao":"LPPR","metar":"LPPR 231100Z 34005KT 300V020 9999 FEW020 BKN025 17/12 Q1021","updated":"2025-10-23T11:15:41Z"}
