{"icao":"KJFK","metar":"KJFK 060251Z 24014KT 10SM BKN070 BKN090 BKN190 BKN250 16/07 A2959 RMK AO2 SLP020 T01610072 55015","updated":"2025-11-06T03:12:54Z"}
