{"icao":"LPMT","metar":"LPMT 040300Z 33007KT CAVOK 16/15 Q1023","updated":"2025-10-04T03:22:48Z"}
