{"icao":"LPMA","metar":"LPMA 301700Z 01010KT 320V070 9999 SCT015 19/11 Q1021","updated":"2025-11-30T17:15:42Z"}
