{"icao":"LPMR","metar":"LPMR 260500Z 21010KT 7000 -DZ BKN006 BKN014 13/13 Q1011","updated":"2026-01-26T05:32:04Z"}
