{"icao":"KORD","metar":"KORD 030851Z 21013G21KT 7SM BKN009 OVC100 M05/M07 A2995 RMK AO2 SLP154 T10501072 58004","updated":"2025-12-03T09:23:27Z"}
