{"icao":"LPAZ","metar":"LPAZ 110930Z 01011KT 9999 FEW022 BKN040 14/06 Q1032","updated":"2026-04-11T09:38:43Z"}
