{"icao":"KORD","metar":"KORD 260951Z 02004KT 10SM SCT009 06/04 A3004 RMK AO2 SLP174 T00560039","updated":"2026-04-26T10:01:25Z"}
