{"icao":"KLAX","metar":"KLAX 240253Z 08014KT 10SM SCT035 OVC060 16/12 A2994 RMK AO2 SLP139 T01610117 51003 $","updated":"2025-12-24T03:23:14Z"}
