{"icao":"LPFR","metar":"LPFR 151400Z 22026G37KT 8000 FEW010 SCT012 FEW018CB 20/18 Q1007","updated":"2025-11-15T14:15:25Z"}
