{"icao":"LPMT","metar":"LPMT 031200Z 06011KT 030V100 9999 FEW040 18/11 Q1012","updated":"2026-03-03T12:55:31Z"}
