{"icao":"KORD","metar":"KORD 042151Z 22014G22KT 10SM FEW200 BKN300 31/09 A2997 RMK AO2 SLP144 T03060094","updated":"2026-06-04T22:19:49Z"}
