{"icao":"KJFK","metar":"KJFK 272151Z 35009KT 10SM FEW015 SCT032 BKN041 M02/M05 A3018 RMK AO2 SLP218 T10171050 $","updated":"2025-12-27T22:17:53Z"}
