{"icao":"LPFR","metar":"LPFR 041300Z 22006KT 180V240 CAVOK 26/10 Q1021","updated":"2025-10-04T13:19:37Z"}
