{"icao":"LPMA","metar":"LPMA 101400Z 01013KT 330V040 9999 FEW015 SCT030 24/15 Q1022","updated":"2025-10-10T14:17:20Z"}
