{"icao":"LPPD","metar":"LPPD 071630Z 29021KT 9999 SCT025 FEW027TCU 15/08 Q1008","updated":"2026-05-07T16:48:18Z"}
