{"icao":"LPPT","metar":"LPPT 300500Z 00000KT 0300 R02/0400N FG VV001 06/06 Q1021","updated":"2025-12-30T05:22:28Z"}
