{"icao":"LPPR","metar":"LPPR 261800Z 36005KT CAVOK 16/11 Q1020","updated":"2025-10-26T18:23:35Z"}
