{"icao":"KORD","metar":"KORD 102051Z 32015G23KT 10SM BKN025 BKN035 BKN047 M01/M06 A2975 RMK AO2 PK WND 34026/1953 SNE25 SLP079 P0000 60000 T10111061 51040","updated":"2025-12-10T21:20:17Z"}
