{"icao":"LPCS","metar":"LPCS 231930Z 36010KT CAVOK 17/08 Q1015","updated":"2026-03-23T19:47:39Z"}
