{"icao":"LPAZ","metar":"LPAZ 231900Z 21023KT 6000 FEW004 BKN008 BKN015 17/16 Q1011","updated":"2026-02-23T19:18:28Z"}
