{"icao":"LPOV","metar":"LPOV 172000Z 34010KT 9999 FEW016 14/11 Q1019","updated":"2026-05-18T00:03:00Z"}
