{"icao":"LPLA","metar":"LPLA 071100Z 29003KT 260V320 9999 FEW025 SCT040 18/13 Q1021","updated":"2025-11-07T11:15:09Z"}
