{"icao":"LPPD","metar":"LPPD 101530Z 01014KT 340V060 9999 VCSH FEW016 FEW020CB BKN025 15/12 Q1018","updated":"2026-05-10T15:52:16Z"}
