{"icao":"LPBJ","metar":"LPBJ 131210Z 17019KT 9000 -SHRA SCT020CB BKN035 16/14 Q1003 RETS","updated":"2025-11-13T12:40:06Z"}
