{"icao":"LPMR","metar":"LPMR 100000Z 15006KT 9999 FEW025 BKN040 14/12 Q1019","updated":"2025-11-10T01:27:05Z"}
