{"icao":"LPFR","metar":"LPFR 141300Z 07010KT CAVOK 19/09 Q1015","updated":"2025-12-14T13:25:59Z"}
