{"icao":"LPMA","metar":"LPMA 150600Z 01010KT 320V050 9999 SCT015 21/15 Q1020","updated":"2026-06-15T06:21:58Z"}
