{"icao":"LPMT","metar":"LPMT 222000Z 35006KT CAVOK 23/17 Q1014","updated":"2026-06-22T20:45:39Z"}
