{"icao":"LPHR","metar":"LPHR 200830Z 29015KT 8000 -SHRA FEW008 SCT012 BKN030 18/16 Q1010","updated":"2026-06-20T08:53:15Z"}
