{"icao":"KLAX","metar":"KLAX 120353Z 21006KT 10SM CLR 19/14 A2977 RMK AO2 SLP078 T01890144 $","updated":"2025-10-12T04:20:22Z"}
