{"icao":"LPOV","metar":"LPOV 180500Z VRB01KT CAVOK 12/11 Q1015","updated":"2025-10-18T05:15:54Z"}
