{"icao":"LPPD","metar":"LPPD 021030Z 04012KT 360V070 9999 FEW015 SCT025 17/12 Q1019","updated":"2026-05-02T10:50:17Z"}
