{"icao":"KLAX","metar":"KLAX 270153Z 27007KT 10SM SCT011 SCT024 OVC038 20/17 A2985 RMK AO2 SLP105 T02000172 $","updated":"2025-09-27T02:52:57Z"}
