{"icao":"LPPS","metar":"LPPS 260630Z 24007KT 210V270 9999 FEW015 SCT030 17/10 Q1022","updated":"2026-01-26T06:36:01Z"}
