{"icao":"LPCS","metar":"LPCS 241730Z 27008KT 230V300 CAVOK 17/11 Q1020","updated":"2026-03-24T17:54:30Z"}
