{"icao":"LPAZ","metar":"LPAZ 232130Z 23016KT 6000 FEW004 SCT012 BKN040 17/16 Q1012","updated":"2026-02-23T21:42:54Z"}
