{"icao":"LPMR","metar":"LPMR 091500Z 33008KT 290V350 6000 FEW007 19/14 Q1020","updated":"2025-10-09T15:29:15Z"}
