{"icao":"KLAX","metar":"KLAX 021253Z 09003KT 10SM FEW008 FEW200 BKN250 14/13 A2995 RMK AO2 SLP141 T01390128","updated":"2026-03-02T12:56:26Z"}
