{"icao":"LPHR","metar":"LPHR 301430Z 23010KT 9000 -RA SCT006 SCT010 BKN030 17/16 Q1019","updated":"2026-01-30T14:34:43Z"}
