{"icao":"LPPD","metar":"LPPD 281100Z 10022G38KT 7000 RA FEW012 SCT020 FEW025TCU 12/10 Q1015","updated":"2025-12-28T11:16:21Z"}
