{"icao":"LPCS","metar":"LPCS 130900Z 24003KT 170V290 CAVOK 23/13 Q1016","updated":"2025-10-13T09:21:04Z"}
