{"icao":"KLAX","metar":"KLAX 142053Z 27013KT 10SM VCFG FEW000 FEW280 21/14 A2993 RMK AO2 SLP132 VIS SW 2 1/2 FG FEW000 FG BANK ALG SHORE S-W T02060144 58009 $","updated":"2026-03-14T21:25:42Z"}
