{"icao":"KLAX","metar":"KLAX 181853Z 00000KT 10SM FEW019 BKN050 BKN140 14/08 A2996 RMK AO2 RAB1755E39 SLP143 P0000 T01440078","updated":"2025-11-18T19:15:53Z"}
