{"icao":"KORD","metar":"KORD 230551Z 33013G20KT 10SM BKN046 M07/M13 A3036 RMK AO2 SNE23 SLP291 P0000 60000 T10721128 11050 21072 410281072 50000 $","updated":"2026-02-23T06:06:05Z"}
