{"icao":"LPPD","metar":"LPPD 220300Z 22009KT 9000 FEW004 BKN005 22/22 Q1016","updated":"2025-10-22T03:09:51Z"}
