{"icao":"KLAX","metar":"KLAX 252353Z 26016G22KT 10SM FEW011 21/15 A2989 RMK AO2 SLP120 T02060150 10222 20200 56013","updated":"2026-06-26T00:07:22Z"}
