{"icao":"KORD","metar":"KORD 011851Z 04017KT 10SM OVC015 03/M01 A3021 RMK AO2 SLP236 T00331011","updated":"2026-04-01T19:00:22Z"}
