{"icao":"LPPR","metar":"LPPR 200530Z VRB02KT 4000 1200N BR BCFG BKN001 10/09 Q1013","updated":"2026-04-20T05:39:36Z"}
