{"icao":"LPMR","metar":"LPMR 092200Z 18001KT CAVOK 15/14 Q1021","updated":"2025-10-09T22:15:37Z"}
