{"icao":"KLAX","metar":"KLAX 271053Z 03005KT 10SM FEW250 16/03 A3005 RMK AO2 SLP172 T01610028 $","updated":"2025-11-27T11:17:04Z"}
