{"icao":"LPMA","metar":"LPMA 051330Z 02020G30KT 330V050 9999 SCT016 FEW018TCU 17/09 Q1019","updated":"2026-01-05T13:39:57Z"}
