{"icao":"LPCS","metar":"LPCS 111330Z 21008KT 180V250 7000 -SHRA FEW006 SCT014 FEW020CB 16/15 Q1014","updated":"2026-05-11T13:47:19Z"}
