{"icao":"LPHR","metar":"LPHR 020700Z 22006KT 200V260 9999 SCT004 BKN007 22/22 Q1019","updated":"2025-10-02T07:16:31Z"}
