{"icao":"LPAZ","metar":"LPAZ 191230Z 03016KT 360V060 9999 FEW020 23/17 Q1021","updated":"2025-09-19T12:36:25Z"}
