{"icao":"LPPD","metar":"LPPD 061230Z 22019KT 6000 SCT005 BKN008 20/20 Q1014","updated":"2025-11-06T12:38:20Z"}
