{"icao":"LPMA","metar":"LPMA 091430Z 04006KT 340V120 9999 SCT015 20/12 Q1012","updated":"2026-05-09T14:49:28Z"}
