{"icao":"LPPD","metar":"LPPD 031000Z 13005KT 080V160 9999 SCT006 SCT011 BKN035 22/21 Q1023","updated":"2025-10-03T10:17:49Z"}
