{"icao":"LPMA","metar":"LPMA 020100Z 28005KT 250V310 9999 FEW015 18/11 Q1023","updated":"2025-12-02T01:26:16Z"}
