{"icao":"LPLA","metar":"LPLA 202200Z 09007KT 060V120 9999 FEW022 SCT038 16/10 Q1032","updated":"2025-11-20T22:17:16Z"}
