{"icao":"LPCS","metar":"LPCS 201400Z 27007KT 230V300 9999 SCT022 BKN048 14/09 Q1019","updated":"2026-01-20T14:29:43Z"}
