{"icao":"LPMA","metar":"LPMA 010430Z 21029G40KT 9000 SHRA BKN013 FEW018CB 18/16 Q1004","updated":"2026-01-01T04:47:05Z"}
