{"icao":"LPPR","metar":"LPPR 250000Z VRB02KT 9999 FEW012 19/18 Q1013","updated":"2026-06-25T00:10:41Z"}
