{"icao":"LPLA","metar":"LPLA 130700Z 22013KT 9000 -DZ FEW003 SCT028 BKN045 20/18 Q1019","updated":"2026-06-13T07:44:59Z"}
