{"icao":"KORD","metar":"KORD 241951Z 12009KT 10SM SCT010 BKN040 OVC130 19/17 A3001 RMK AO2 RAE34 SLP160 P0004 T01890172 $","updated":"2026-06-24T20:47:21Z"}
