{"icao":"LPST","metar":"LPST 010800Z 05006KT 340V090 CAVOK 16/03 Q1024","updated":"2026-04-01T09:02:16Z"}
