{"icao":"LPPT","metar":"LPPT 111230Z 08007KT 050V110 9999 FEW020 16/10 Q1026","updated":"2026-03-11T12:57:31Z"}
