{"icao":"LPHR","metar":"LPHR 102130Z 24023KT 7000 VCSH SCT006 BKN011 18/17 Q1006","updated":"2026-02-10T21:40:31Z"}
