{"icao":"LPFL","metar":"LPFL 151630Z 18012KT 140V250 9999 SCT019 16/10 Q1019","updated":"2026-04-15T17:02:50Z"}
