{"icao":"LPPT","metar":"LPPT 101430Z 23015KT 2000 DZ BR SCT002 BKN003 16/16 Q1016","updated":"2026-02-10T14:56:57Z"}
