{"icao":"KJFK","metar":"KJFK 240851Z 09016G23KT 7SM -RA BKN010 BKN017 OVC030 11/10 A3036 RMK AO2 SLP280 P0004 60011 T01110100 58020 $","updated":"2026-05-24T09:23:25Z"}
