{"icao":"LPPT","metar":"LPPT 301300Z 06011KT 030V090 CAVOK 18/01 Q1029","updated":"2026-03-30T13:16:30Z"}
