{"icao":"LPMR","metar":"LPMR 301200Z 21010KT 180V240 9999 FEW025 BKN035 18/13 Q1013","updated":"2025-10-30T12:38:01Z"}
