{"icao":"LPAZ","metar":"LPAZ 301930Z 08009KT 050V110 9999 FEW022 22/16 Q1030","updated":"2026-06-30T19:54:20Z"}
