{"icao":"LPFL","metar":"LPFL 070900Z 33020G32KT 300V360 9999 SCT018 15/08 Q1016","updated":"2026-05-07T09:30:21Z"}
