{"icao":"KJFK","metar":"KJFK 170551Z 06012KT 10SM SCT065 BKN110 BKN250 18/13 A3015 RMK AO2 SLP208 T01780128 10200 20178 58014 $","updated":"2025-09-17T06:26:50Z"}
