{"icao":"LPMA","metar":"LPMA 211100Z 34012KT 270V030 9999 BKN015 SCT030 17/10 Q1021","updated":"2025-12-21T11:15:52Z"}
