{"icao":"LPAR","metar":"LPAR 231700Z 22006KT 200V260 9999 FEW030 22/12 Q1013","updated":"2026-03-24T05:58:46Z"}
