{"icao":"LPPS","metar":"LPPS 131100Z 06010KT 010V080 9999 FEW015 BKN030 16/10 Q1026","updated":"2026-03-13T11:30:25Z"}
