{"icao":"LPMT","metar":"LPMT 160500Z 10003KT CAVOK 10/08 Q1021","updated":"2026-04-16T05:29:29Z"}
