{"icao":"KLAX","metar":"KLAX 050453Z 01004KT 10SM FEW150 BKN250 16/00 A3014 RMK AO2 SLP204 T01560000 $","updated":"2025-12-05T05:19:04Z"}
