{"icao":"LPAZ","metar":"LPAZ 221300Z 09007KT 010V150 9999 SCT023 19/14 Q1032","updated":"2025-11-22T13:22:20Z"}
