{"icao":"KLAX","metar":"KLAX 112153Z 25008KT 10SM CLR 22/09 A2996 RMK AO2 SLP147 T02170094 $","updated":"2025-12-11T22:19:40Z"}
