{"icao":"LPFL","metar":"LPFL 082000Z 16005KT 100V200 9999 BKN007 BKN012 16/15 Q1028","updated":"2026-01-08T20:24:05Z"}
