{"icao":"LPPS","metar":"LPPS 182000Z 36007KT 9999 FEW015 18/12 Q1021","updated":"2025-11-18T20:22:27Z"}
