{"icao":"LPAZ","metar":"LPAZ 201500Z 24013KT 9000 SCT005 SCT013 BKN024 25/23 Q1017","updated":"2025-10-20T15:18:07Z"}
