{"icao":"KJFK","metar":"KJFK 042051Z 36008G16KT 10SM SCT250 00/M13 A3018 RMK AO2 SLP220 T00001128 56011 PNO $","updated":"2026-02-04T21:31:44Z"}
