{"icao":"LPFL","metar":"LPFL 081700Z 21016G27KT 180V250 1800 -RADZ FEW008 BKN010 FEW012CB 19/17 Q1004","updated":"2026-02-08T17:25:32Z"}
