{"icao":"LPAZ","metar":"LPAZ 290430Z 25015KT 220V280 9000 FEW003 BKN011 17/16 Q1009","updated":"2025-12-29T04:48:11Z"}
