{"icao":"KLAX","metar":"KLAX 241253Z 27007KT 10SM FEW014 OVC018 16/11 A3000 RMK AO2 SLP156 T01560111 $","updated":"2026-05-24T13:23:27Z"}
