{"icao":"LPMT","metar":"LPMT 250700Z 35005KT 330V040 9999 SCT035 11/08 Q1022","updated":"2025-11-25T07:18:44Z"}
