{"icao":"LPMT","metar":"LPMT 120200Z 18006KT 150V210 9999 SCT015 BKN025 12/12 Q1023","updated":"2026-01-12T03:48:18Z"}
