{"icao":"LPLA","metar":"LPLA 241700Z 24019G30KT 9000 -RA SCT013 BKN018 18/15 Q1016","updated":"2026-01-24T17:17:06Z"}
