{"icao":"LPST","metar":"LPST 081300Z 17015KT 140V200 9999 SCT025 17/11 Q1008","updated":"2026-05-08T13:43:44Z"}
