{"icao":"LPMR","metar":"LPMR 071000Z 32010KT 290V350 9999 FEW012 20/14 Q1021","updated":"2026-06-07T10:27:37Z"}
