{"icao":"LPHR","metar":"LPHR 211230Z 25015KT 8000 FEW007 SCT012 BKN060 23/22 Q1013","updated":"2025-10-21T12:39:01Z"}
