{"icao":"KJFK","metar":"KJFK 311051Z 26014KT 10SM SCT060 BKN200 M02/M11 A2984 RMK AO2 SLP103 T10221106 $","updated":"2025-12-31T11:18:07Z"}
