{"icao":"LPPT","metar":"LPPT 210400Z 23008KT 5000 -DZRA BR BKN002 20/19 Q1014","updated":"2025-10-21T04:21:10Z"}
