{"icao":"LPPR","metar":"LPPR 151800Z 32009KT 290V350 9999 FEW012 18/15 Q1017","updated":"2026-06-15T18:23:26Z"}
