{"icao":"LPMA","metar":"LPMA 030130Z 33004KT 9999 SCT015 14/07 Q1015","updated":"2026-02-03T02:02:51Z"}
