{"icao":"KLAX","metar":"KLAX 080153Z 26005KT 10SM FEW150 SCT220 17/14 A3012 RMK AO2 SLP198 T01720139 $","updated":"2026-02-08T02:28:51Z"}
