{"icao":"LPAR","metar":"LPAR 101000Z 04010KT 020V080 CAVOK 23/11 Q1021","updated":"2025-10-10T10:19:18Z"}
