{"icao":"LPHR","metar":"LPHR 131300Z 32016KT 290V350 9999 FEW025 SCT040 16/10 Q1008 WS R28","updated":"2025-11-13T13:31:40Z"}
