{"icao":"LPFR","metar":"LPFR 011700Z 26008KT 9999 FEW018 23/18 Q1019","updated":"2025-10-01T17:15:42Z"}
