{"icao":"KORD","metar":"KORD 220751Z 26011G22KT 10SM OVC033 08/02 A2973 RMK AO2 SLP068 T00830017","updated":"2025-10-22T08:26:49Z"}
