{"icao":"LPPS","metar":"LPPS 262030Z 04013KT 360V080 9999 SCT015 16/12 Q1025","updated":"2026-02-26T20:36:19Z"}
