{"icao":"LPPT","metar":"LPPT 300400Z 31010KT CAVOK 17/13 Q1016","updated":"2025-09-30T04:20:56Z"}
