{"icao":"LPPT","metar":"LPPT 150900Z 00000KT 7000 VCSH FEW005 BKN010 11/10 Q1031","updated":"2026-02-15T09:29:52Z"}
