{"icao":"LPAZ","metar":"LPAZ 121300Z 29020KT 9999 -SHRA SCT025 FEW030CB 15/09 Q1001","updated":"2025-11-12T13:32:22Z"}
