{"icao":"LPFL","metar":"LPFL 281000Z VRB07G19KT 6000 2000N DZRA FEW008 BKN011 FEW012TCU 18/15 Q1029","updated":"2026-02-28T10:21:47Z"}
