{"icao":"LPMA","metar":"LPMA 070700Z 04007KT 360V060 9999 BKN013 20/18 Q1024","updated":"2025-10-07T07:17:16Z"}
