{"icao":"LPAZ","metar":"LPAZ 241700Z 01009KT 340V050 9999 FEW022 BKN038 22/15 Q1020","updated":"2025-09-24T17:15:53Z"}
