{"icao":"LPPD","metar":"LPPD 112100Z 01005KT 9999 FEW025 SCT035 12/07 Q1033","updated":"2026-04-11T21:31:14Z"}
