{"icao":"LPPS","metar":"LPPS 070630Z 03009KT 350V070 9999 FEW015 BKN030 13/06 Q1025","updated":"2026-03-07T06:39:07Z"}
