{"icao":"KORD","metar":"KORD 060051Z 27004KT 10SM CLR 10/M03 A3015 RMK AO2 SLP213 T01001028","updated":"2025-11-06T01:24:12Z"}
