{"icao":"LPPT","metar":"LPPT 170900Z 05005KT 360V140 CAVOK 15/11 Q1019","updated":"2026-04-17T09:15:59Z"}
