{"icao":"LPPR","metar":"LPPR 161700Z 24006KT 200V300 8000 -SHRA SCT012 SCT017CB BKN020 15/14 Q1007","updated":"2025-11-16T17:14:39Z"}
