{"icao":"LPHR","metar":"LPHR 180700Z 31005KT 240V010 9999 SCT012 BKN025 16/14 Q1029","updated":"2026-01-18T07:19:00Z"}
