{"icao":"LPMA","metar":"LPMA 281600Z 23015KT 200V260 9999 VCSH BKN015 FEW016TCU 23/18 Q1009","updated":"2025-10-28T16:24:45Z"}
