{"icao":"LPCS","metar":"LPCS 211500Z 07007KT 030V110 CAVOK 21/07 Q1027","updated":"2026-02-21T15:23:15Z"}
