{"icao":"LPMA","metar":"LPMA 272100Z 03010KT 350V070 9999 FEW016 16/10 Q1020","updated":"2026-03-27T21:32:49Z"}
