{"icao":"KJFK","metar":"KJFK 130751Z 33013G22KT 10SM FEW065 01/M09 A3006 RMK AO2 PK WND 31033/0733 SLP178 T00061089","updated":"2026-03-13T08:38:07Z"}
