{"icao":"LPHR","metar":"LPHR 270600Z 05006KT 300V080 9999 FEW006 SCT012 BKN025 20/19 Q1022","updated":"2026-06-27T06:30:03Z"}
