{"icao":"LPFR","metar":"LPFR 042300Z 03008KT CAVOK 17/03 Q1021","updated":"2026-04-04T23:30:04Z"}
