{"icao":"LPBJ","metar":"LPBJ 020900Z VRB02KT 6000 VCFG BKN030 09/09 Q1013","updated":"2026-03-02T09:48:01Z"}
