{"icao":"KORD","metar":"KORD 290551Z 32007KT 10SM CLR M13/M21 A3026 RMK AO2 SLP262 4/002 T11331206 11100 21133 410831172 53017","updated":"2026-01-29T06:44:31Z"}
