{"icao":"KLAX","metar":"KLAX 040917Z 33003KT 6SM BR BKN010 16/14 A3008 RMK AO2 T01560139 $","updated":"2025-11-04T09:20:32Z"}
