{"icao":"KLAX","metar":"KLAX 021553Z 07003KT 10SM FEW160 FEW250 14/08 A3009 RMK AO2 SLP187 T01390078 $","updated":"2026-02-02T16:38:03Z"}
