{"icao":"KJFK","metar":"KJFK 101851Z 22005KT 10SM BKN046 BKN055 OVC070 M01/M06 A3007 RMK AO2 FZRAB34E47 SLP180 P0000 T10061061 $","updated":"2026-02-10T19:20:34Z"}
