{"icao":"KLAX","metar":"KLAX 271253Z 16005KT 9SM FEW011 OVC024 18/13 A2994 RMK AO2 SLP135 T01830128","updated":"2026-06-27T13:39:55Z"}
