{"icao":"LPLA","metar":"LPLA 200100Z 07006KT 020V130 9999 SCT023 BKN040 17/13 Q1029","updated":"2025-11-20T01:22:26Z"}
