{"icao":"LPFL","metar":"LPFL 281230Z 32006KT 280V360 9999 SCT018 17/13 Q1024","updated":"2025-10-28T12:37:54Z"}
