{"icao":"KORD","metar":"KORD 200651Z 22004KT 10SM FEW150 BKN250 04/01 A2989 RMK AO2 SLP124 T00440006 $","updated":"2026-03-20T07:44:36Z"}
