{"icao":"LPPT","metar":"LPPT 051400Z 10007G27KT 060V230 9999 FEW025 24/14 Q1019","updated":"2025-10-05T14:13:54Z"}
