{"icao":"LPFR","metar":"LPFR 050930Z 34008KT 310V020 CAVOK 22/08 Q1016","updated":"2026-06-05T09:44:19Z"}
