{"icao":"LPLA","metar":"LPLA 011000Z 21010KT 9999 FEW015 24/19 Q1021","updated":"2025-10-01T10:18:46Z"}
