{"icao":"LPPT","metar":"LPPT 031300Z VRB04G14KT CAVOK 26/14 Q1022","updated":"2025-10-03T13:24:23Z"}
