{"icao":"LPMA","metar":"LPMA 081100Z 36010KT 320V030 9999 FEW015 17/12 Q1034","updated":"2026-01-08T11:20:00Z"}
