{"icao":"LPLA","metar":"LPLA 242000Z 22015KT 9000 -RADZ SCT006 BKN024 17/15 Q1010","updated":"2026-04-24T20:45:57Z"}
