{"icao":"KORD","metar":"KORD 272051Z 14011KT 9SM OVC011 06/03 A2989 RMK AO2 SLP126 T00560028 56025 $","updated":"2025-12-27T21:17:11Z"}
