{"icao":"LPPR","metar":"LPPR 101230Z 04003KT 350V080 9999 FEW020 16/11 Q1022","updated":"2025-12-10T12:41:05Z"}
