{"icao":"LPCS","metar":"LPCS 300730Z 23006KT 9999 FEW006 SCT012 13/13 Q1013","updated":"2026-01-30T07:38:38Z"}
