{"icao":"LPMR","metar":"LPMR 271900Z 05006KT CAVOK 11/03 Q1009","updated":"2025-12-27T19:14:19Z"}
