{"icao":"LPMR","metar":"LPMR 081900Z 25006KT 220V290 5000 -DZ BKN008 BKN018 13/12 Q1029","updated":"2026-01-08T19:18:59Z"}
