{"icao":"LPBJ","metar":"LPBJ 291400Z 26019G30KT 2000 -RADZ BR BKN006 BKN012 16/15 Q1010","updated":"2026-01-29T14:49:44Z"}
