{"icao":"LPHR","metar":"LPHR 031030Z 18005KT 130V220 9999 FEW015 BKN027 15/10 Q1026","updated":"2026-04-03T10:41:46Z"}
