{"icao":"KLAX","metar":"KLAX 242053Z 27009KT 10SM FEW020 FEW140 21/14 A2999 RMK AO2 SLP155 T02060144 58008","updated":"2026-03-24T21:36:53Z"}
