{"icao":"LPPR","metar":"LPPR 011500Z 19012KT 9999 SCT024 14/08 Q1018","updated":"2025-12-01T15:20:25Z"}
