{"icao":"KJFK","metar":"KJFK 150651Z 20008KT 10SM SCT060 BKN120 06/03 A2938 RMK AO2 SLP950 T00560033 $","updated":"2026-01-15T07:24:20Z"}
