{"icao":"LPFR","metar":"LPFR 140200Z 34006KT CAVOK 12/09 Q1023","updated":"2026-04-14T02:28:33Z"}
