{"icao":"LPPR","metar":"LPPR 160800Z 24011KT 200V290 5000 -SHRA FEW015 SCT020CB 14/12 Q1007 RESHRA","updated":"2025-11-16T08:22:00Z"}
