{"icao":"LPFR","metar":"LPFR 182200Z 07003KT CAVOK 16/14 Q1016","updated":"2026-04-18T22:33:28Z"}
