{"icao":"KJFK","metar":"KJFK 291151Z 03009KT 10SM FEW200 BKN250 19/14 A3022 RMK AO2 SLP233 T01940144 10217 20189 53019 $","updated":"2025-09-29T12:37:45Z"}
