{"icao":"LPPS","metar":"LPPS 182200Z 13004KT 9999 FEW013 22/19 Q1020","updated":"2025-09-18T22:13:58Z"}
