{"icao":"LPFL","metar":"LPFL 161100Z 32003KT 240V020 9999 FEW020 SCT035 15/08 Q1035","updated":"2026-01-16T11:18:43Z"}
