{"icao":"KORD","metar":"KORD 110351Z 26007KT 10SM CLR M03/M08 A3017 RMK AO2 SLP224 T10281078","updated":"2025-11-11T04:23:29Z"}
