{"icao":"LPAZ","metar":"LPAZ 141630Z 02013KT 350V050 9999 FEW026 19/10 Q1029","updated":"2026-05-14T16:59:27Z"}
