{"icao":"LPLA","metar":"LPLA 240300Z 23005KT 9999 FEW025 18/16 Q1016","updated":"2025-10-24T03:36:11Z"}
