{"icao":"LPPR","metar":"LPPR 032100Z 13006KT CAVOK 15/12 Q1020","updated":"2025-11-03T21:16:35Z"}
