{"icao":"KORD","metar":"KORD 221451Z 00000KT 10SM FEW025 FEW250 03/00 A3011 RMK AO2 SLP200 T00330000 52015","updated":"2025-11-22T15:16:48Z"}
