{"icao":"KORD","metar":"KORD 190651Z 00000KT 10SM BKN180 BKN250 07/M08 A2964 RMK AO2 SLP038 T00721083 $","updated":"2026-02-19T07:07:38Z"}
