{"icao":"LPFL","metar":"LPFL 152100Z 18020G31KT 150V210 9999 FEW016 17/13 Q1022","updated":"2026-02-15T23:25:24Z"}
