{"icao":"LPFR","metar":"LPFR 290130Z 25020KT 5000 -DZRA BR BKN008 16/15 Q1011","updated":"2026-01-29T01:56:09Z"}
