{"icao":"LPBJ","metar":"LPBJ 030100Z 27006KT CAVOK 18/12 Q1022","updated":"2025-10-03T01:16:31Z"}
