{"icao":"KJFK","metar":"KJFK 251951Z 24012KT 10SM FEW021 FEW110 SCT160 BKN250 20/16 A3006 RMK AO2 SLP179 T02000161 $","updated":"2026-05-25T20:21:48Z"}
