{"icao":"LPOV","metar":"LPOV 162000Z VRB01KT 7000 FEW004 14/14 Q1015","updated":"2025-10-16T20:19:25Z"}
