{"icao":"LPCS","metar":"LPCS 111230Z 20010KT 9999 -DZ FEW002 SCT006 BKN013 14/14 Q1027","updated":"2026-01-11T12:39:00Z"}
