{"icao":"LPAZ","metar":"LPAZ 081300Z 21029G41KT 8000 SCT010 BKN015 21/19 Q0999","updated":"2025-12-08T13:33:53Z"}
