{"icao":"LPMT","metar":"LPMT 210700Z 02008KT CAVOK 10/04 Q1026","updated":"2025-11-21T07:18:29Z"}
