{"icao":"LPPR","metar":"LPPR 010100Z 18012KT 9999 -RA SCT004 SCT012 16/15 Q1012","updated":"2025-11-01T01:26:36Z"}
