{"icao":"LPHR","metar":"LPHR 311330Z 27015KT 9000 SCT005 19/17 Q1015","updated":"2026-01-31T13:40:02Z"}
