{"icao":"LPLA","metar":"LPLA 061000Z 31029KT 9999 SCT025 11/02 Q1015","updated":"2026-04-06T10:54:59Z"}
