{"icao":"LPMR","metar":"LPMR 181100Z 36008KT CAVOK 07/06 Q1015","updated":"2026-01-18T11:15:56Z"}
