{"icao":"LPOV","metar":"LPOV 201700Z 34015KT CAVOK 13/06 Q1030","updated":"2026-02-20T17:36:11Z"}
