{"icao":"LPMA","metar":"LPMA 021730Z 24004KT 140V270 9999 BKN015 17/09 Q1014","updated":"2026-02-02T17:37:19Z"}
