{"icao":"LPPD","metar":"LPPD 171900Z 24008KT 220V310 9999 SCT004 BKN006 19/18 Q1024","updated":"2025-11-17T19:14:39Z"}
