{"icao":"KORD","metar":"KORD 162151Z 27019G30KT 10SM FEW060 BKN070 BKN250 22/08 A2959 RMK AO2 PK WND 27034/2117 SLP016 T02220083","updated":"2026-06-16T22:10:02Z"}
