{"icao":"KORD","metar":"KORD 312302Z 27011G20KT 5SM -SN BR OVC012 02/00 A2977 RMK AO2 P0000 T00170000","updated":"2025-12-31T23:19:18Z"}
