{"icao":"LPCS","metar":"LPCS 171130Z 01005KT 320V050 CAVOK 22/12 Q1019","updated":"2026-04-17T11:51:17Z"}
