{"icao":"LPFR","metar":"LPFR 121400Z 11008KT 9999 FEW020 25/16 Q1015","updated":"2025-10-12T14:14:12Z"}
