{"icao":"KLAX","metar":"KLAX 251453Z 00000KT 10SM FEW005 13/09 A3009 RMK AO2 SLP186 T01280094 55001","updated":"2025-11-25T15:21:33Z"}
