{"icao":"KORD","metar":"KORD 052251Z 21009KT 10SM OVC029 M01/M06 A2983 RMK AO2 SLP109 T10111061 $","updated":"2026-02-05T23:22:34Z"}
