{"icao":"LPBJ","metar":"LPBJ 012300Z 35004KT CAVOK 14/08 Q1021","updated":"2026-04-01T23:34:39Z"}
