{"icao":"LPMA","metar":"LPMA 081400Z 22023KT 9999 SCT015 21/14 Q1017","updated":"2025-12-08T14:20:54Z"}
