{"icao":"LPLA","metar":"LPLA 060800Z 17004KT 140V210 9999 BKN040 12/06 Q1032","updated":"2026-03-06T08:36:19Z"}
