{"icao":"LPLA","metar":"LPLA 230600Z VRB02KT 9999 FEW020 BKN035 15/12 Q1028","updated":"2025-11-23T06:26:39Z"}
