{"icao":"LPMT","metar":"LPMT 130900Z 18005KT 150V210 9999 -RA FEW016 FEW018TCU SCT030 13/13 Q1008 RERADZ","updated":"2026-01-13T09:26:47Z"}
