{"icao":"LPFR","metar":"LPFR 081000Z 23004KT 190V290 9999 FEW025 15/11 Q1021","updated":"2026-03-08T10:24:05Z"}
