{"icao":"KJFK","metar":"KJFK 201551Z 26008KT 10SM SCT046 BKN075 BKN110 11/M01 A3016 RMK SLP212 T01111011 ","updated":"2026-04-20T16:07:43Z"}
