{"icao":"KLAX","metar":"KLAX 090153Z 31006KT 10SM FEW250 28/M03 A2976 RMK AO2 SLP077 T02831033 $","updated":"2026-03-09T02:02:45Z"}
