{"icao":"LPHR","metar":"LPHR 161030Z 24016KT 9999 SCT013 BKN030 17/14 Q1019","updated":"2026-04-16T11:01:06Z"}
