{"icao":"LPMT","metar":"LPMT 121500Z 29005KT 260V320 CAVOK 32/17 Q1016","updated":"2026-06-12T16:15:33Z"}
