{"icao":"LPPS","metar":"LPPS 132330Z 32006KT 9999 FEW015 16/11 Q1022","updated":"2026-05-13T23:56:39Z"}
