{"icao":"LPOV","metar":"LPOV 240500Z VRB03KT 9999 SCT030 15/14 Q1016","updated":"2025-10-24T05:17:09Z"}
