{"icao":"LPPR","metar":"LPPR 080500Z 16015KT 9999 FEW020 15/11 Q1019","updated":"2025-12-08T05:20:51Z"}
