{"icao":"LPPT","metar":"LPPT 021800Z 31008KT CAVOK 25/12 Q1020","updated":"2025-10-02T18:24:41Z"}
