{"icao":"LPMT","metar":"LPMT 252200Z 34007KT 9999 FEW045 18/11 Q1016","updated":"2026-04-25T22:35:31Z"}
