{"icao":"KJFK","metar":"KJFK 251551Z 25018KT 10SM BKN100 BKN250 05/M02 A2994 RMK AO2 PK WND 26027/1528 PRESFR SLP138 T00501022 $","updated":"2025-12-25T16:24:18Z"}
