{"icao":"LPMT","metar":"LPMT 291100Z 01004KT 330V050 9999 SCT006 BKN009 18/17 Q1008","updated":"2025-10-29T11:16:06Z"}
