{"icao":"LPFL","metar":"LPFL 071400Z 34013G24KT 290V360 9999 FEW018 SCT033 16/11 Q1015","updated":"2026-05-07T14:04:45Z"}
