{"icao":"LPFR","metar":"LPFR 281100Z 26014KT 6000 FEW010 SCT018 15/14 Q1006","updated":"2026-01-28T11:21:55Z"}
