{"icao":"LPPT","metar":"LPPT 180500Z VRB02KT CAVOK 15/10 Q1015","updated":"2025-10-18T05:15:53Z"}
