{"icao":"KJFK","metar":"KJFK 241351Z 21004KT 10SM FEW030 FEW090 SCT140 BKN250 23/21 A3005 RMK AO2 SLP175 T02280206","updated":"2025-09-24T14:16:23Z"}
