{"icao":"KJFK","metar":"KJFK 251151Z 21011KT 10SM BKN100 BKN230 03/M02 A3005 RMK AO2 PRESFR SLP174 T00281017 10033 21006 58049 $","updated":"2025-12-25T12:39:22Z"}
