{"icao":"LPAR","metar":"LPAR 111600Z 22009KT CAVOK 35/10 Q1017","updated":"2026-06-11T21:19:20Z"}
