{"icao":"LPMT","metar":"LPMT 290100Z 33006KT CAVOK 18/15 Q1016","updated":"2025-09-29T01:20:12Z"}
