{"icao":"LPHR","metar":"LPHR 141330Z 10011KT 070V130 9999 FEW020 19/13 Q1032","updated":"2026-03-14T13:44:34Z"}
