{"icao":"LPPT","metar":"LPPT 131800Z 17016G27KT 7000 RA FEW015 SCT020 FEW022CB 17/14 Q0996","updated":"2025-11-13T18:26:52Z"}
