{"icao":"KJFK","metar":"KJFK 311351Z 33006KT 10SM FEW050 SCT180 BKN220 M11/M16 A3020 RMK AO2 SLP225 T11061161 $","updated":"2026-01-31T14:22:37Z"}
