{"icao":"LPOV","metar":"LPOV 131800Z 05003KT 020V080 CAVOK 14/10 Q1022","updated":"2025-12-13T18:24:45Z"}
