{"icao":"LPFR","metar":"LPFR 091700Z 30008KT 270V330 9999 FEW014 17/11 Q1027","updated":"2026-01-09T17:22:08Z"}
