{"icao":"LPPS","metar":"LPPS 130100Z 34003KT 9999 FEW015 18/15 Q1018","updated":"2025-10-13T01:23:46Z"}
