{"icao":"LPBJ","metar":"LPBJ 072300Z 30005KT CAVOK 11/09 Q1019","updated":"2026-03-07T23:20:42Z"}
