{"icao":"KLAX","metar":"KLAX 081724Z 25008KT 10SM BKN030 BKN140 21/13 A2989 RMK AO2 T02060128 $","updated":"2026-06-08T17:51:07Z"}
