{"icao":"LPPT","metar":"LPPT 311000Z 35015KT CAVOK 23/15 Q1021","updated":"2026-05-31T10:14:05Z"}
