{"icao":"KLAX","metar":"KLAX 221853Z 27010KT 6SM HZ FEW011 FEW180 SCT240 BKN300 20/15 A2993 RMK AO2 SLP133 T02000150","updated":"2026-03-22T19:24:22Z"}
