{"icao":"LPMT","metar":"LPMT 061000Z 35018G29KT 9999 SCT030 12/06 Q1019","updated":"2026-03-06T10:33:17Z"}
