{"icao":"LPMT","metar":"LPMT 052100Z 35012KT 320V020 CAVOK 15/10 Q1016 RMK WIND PK 35019/18 SCT220 BLU","updated":"2026-05-05T21:59:46Z"}
