{"icao":"LPOV","metar":"LPOV 102000Z 35015KT CAVOK 16/14 Q1019","updated":"2026-06-10T22:02:28Z"}
