{"icao":"LPPD","metar":"LPPD 140600Z 25007KT 9999 SCT016 22/19 Q1026","updated":"2025-09-14T06:23:17Z"}
