{"icao":"LPBJ","metar":"LPBJ 190900Z 28003KT CAVOK 04/03 Q1020","updated":"2026-01-19T09:32:54Z"}
