{"icao":"LPPS","metar":"LPPS 131230Z VRB06KT 9999 FEW015 23/15 Q1018","updated":"2025-10-13T12:37:24Z"}
