{"icao":"LPPT","metar":"LPPT 011630Z 33010KT 280V360 CAVOK 23/08 Q1021","updated":"2026-04-01T16:53:18Z"}
