{"icao":"KJFK","metar":"KJFK 180551Z 32015KT 10SM FEW060 FEW250 M01/M11 A3023 RMK AO2 PK WND 31027/0529 SLP235 T10111106 10028 21011 51026","updated":"2026-03-18T06:01:59Z"}
