{"icao":"LPHR","metar":"LPHR 202100Z 21023KT 6000 -RA SCT011 BKN025 BKN070 17/15 Q1018","updated":"2026-02-21T04:06:19Z"}
