{"icao":"LPPD","metar":"LPPD 272230Z 16009KT 9999 SCT008 BKN030 17/16 Q1020","updated":"2026-04-27T22:50:47Z"}
