{"icao":"LPFL","metar":"LPFL 091730Z 19025G47KT 170V230 9999 FEW010 BKN016 19/15 Q1001","updated":"2026-02-09T17:53:18Z"}
