{"icao":"LPFL","metar":"LPFL 101300Z 36016KT 9999 FEW025 BKN040 17/08 Q1027","updated":"2026-05-10T13:15:25Z"}
