{"icao":"KJFK","metar":"KJFK 180051Z 01005KT 10SM FEW250 13/01 A2997 RMK AO2 SLP149 T01330011","updated":"2025-10-18T01:16:20Z"}
