{"icao":"LPFR","metar":"LPFR 091800Z 20004KT 9000 FEW012 SCT020 18/16 Q1019","updated":"2025-12-09T18:25:37Z"}
