{"icao":"LPFR","metar":"LPFR 241300Z 30012KT 9999 SCT028 13/07 Q1013","updated":"2026-01-24T13:29:40Z"}
