{"icao":"KORD","metar":"KORD 240151Z 05003KT 10SM BKN250 M06/M11 A3033 RMK AO2 SLP281 T10561106","updated":"2026-02-24T02:00:34Z"}
