{"icao":"LPLA","metar":"LPLA 280700Z 09005KT 060V120 9999 BKN035 18/10 Q1028","updated":"2026-06-28T07:49:30Z"}
