{"icao":"LPCS","metar":"LPCS 261430Z 01012KT CAVOK 22/05 Q1014","updated":"2026-03-26T15:02:25Z"}
