{"icao":"LPFR","metar":"LPFR 050830Z 24021KT 6000 FEW006 BKN018 16/15 Q0999","updated":"2026-02-05T08:41:05Z"}
