{"icao":"LPFL","metar":"LPFL 221500Z 34005KT 300V020 9999 FEW010 19/17 Q1008","updated":"2025-10-22T15:18:38Z"}
