{"icao":"LPAZ","metar":"LPAZ 291430Z 24010KT 8000 FEW002 SCT005 BKN007 17/16 Q1015","updated":"2026-01-29T14:49:57Z"}
