{"icao":"LPHR","metar":"LPHR 071000Z 28015KT 9000 VCSH SCT005 BKN007 BKN011 19/18 Q1027","updated":"2026-06-07T10:27:40Z"}
