{"icao":"LPCS","metar":"LPCS 111600Z 18007KT 150V210 9999 SCT012 14/13 Q1018","updated":"2025-12-11T16:28:51Z"}
