{"icao":"LPMR","metar":"LPMR 230400Z 27008KT 230V300 9999 BKN005 BKN015 20/19 Q1019","updated":"2025-10-23T04:20:53Z"}
