{"icao":"KJFK","metar":"KJFK 091351Z 04005KT 10SM FEW010 FEW045 M06/M16 A3029 RMK AO2 SLP257 FU FEW010 FU PLUME NW T10561161 $","updated":"2025-12-09T14:20:59Z"}
