{"icao":"KJFK","metar":"KJFK 111751Z 30016G32KT 10SM SCT060 SCT250 02/M14 A2968 RMK AO2 PK WND 30033/1655 SLP049 T00221139 10022 21006 58013 $","updated":"2025-12-11T18:29:04Z"}
