{"icao":"LPPS","metar":"LPPS 091500Z 09006KT 040V140 9999 VCSH FEW008 SCT012 16/13 Q1032","updated":"2026-01-09T15:22:38Z"}
