{"icao":"LPPD","metar":"LPPD 282300Z 33007KT 9999 FEW020 SCT035 16/10 Q1021","updated":"2025-10-28T23:16:37Z"}
