{"icao":"LPOV","metar":"LPOV 232200Z 12003KT CAVOK 11/08 Q1021","updated":"2026-02-23T22:39:01Z"}
