{"icao":"LPFL","metar":"LPFL 071230Z 35010KT 9999 FEW025 BKN036 13/07 Q1023","updated":"2026-03-07T12:43:53Z"}
