{"icao":"LPHR","metar":"LPHR 211400Z 30014KT 260V320 9999 FEW023 21/14 Q1020","updated":"2026-06-21T14:07:38Z"}
