{"icao":"KJFK","metar":"KJFK 281751Z 23006KT 10SM FEW025 FEW250 08/03 A3009 RMK AO2 SLP188 4/007 933010 T00780028 10078 21011 58020 $","updated":"2026-02-28T18:31:46Z"}
