{"icao":"KJFK","metar":"KJFK 151451Z 13010KT 10SM BKN065 BKN140 BKN250 05/M06 A3049 RMK AO2 SLP325 T00501056 51006","updated":"2026-03-15T15:28:18Z"}
