{"icao":"LPHR","metar":"LPHR 301630Z 26007KT 2000 -DZ BR SCT001 BKN003 19/18 Q1024","updated":"2026-05-30T17:02:17Z"}
