{"icao":"LPAR","metar":"LPAR 191500Z 23003KT 7000 -RA SCT008 BKN015 BKN030 14/13 Q1006","updated":"2026-03-19T15:53:29Z"}
