{"icao":"LPPT","metar":"LPPT 100100Z 32009KT CAVOK 19/14 Q1019","updated":"2025-10-10T01:18:22Z"}
