{"icao":"LPPD","metar":"LPPD 181830Z 26006KT 0200 R30/0700 -DZ FG VV001 16/16 Q1021","updated":"2026-05-18T18:50:02Z"}
