{"icao":"LPPD","metar":"LPPD 021800Z 36007KT 9999 FEW025 BKN040 16/10 Q1030","updated":"2025-12-02T18:30:38Z"}
