{"icao":"KLAX","metar":"KLAX 181653Z 03003KT 10SM CLR 27/10 A3002 RMK AO2 SLP164 T02670100 $","updated":"2026-03-18T16:57:56Z"}
