{"icao":"LPOV","metar":"LPOV 241000Z 17009KT 140V200 9999 SCT018 BKN024 14/10 Q1018","updated":"2026-02-24T10:47:45Z"}
