{"icao":"LPFR","metar":"LPFR 040230Z 32006KT CAVOK 14/11 Q1015","updated":"2026-05-04T02:44:40Z"}
