{"icao":"LPPS","metar":"LPPS 181930Z 07013KT 040V100 9999 FEW013 16/13 Q1014","updated":"2026-04-18T19:40:08Z"}
