{"icao":"LPBJ","metar":"LPBJ 050500Z 29005KT CAVOK 08/07 Q1016","updated":"2026-05-05T05:41:48Z"}
