{"icao":"LPPR","metar":"LPPR 131700Z 23005KT 200V280 9999 BKN034 20/15 Q1022","updated":"2025-09-13T17:12:19Z"}
