{"icao":"LPPT","metar":"LPPT 122300Z 33011KT 300V360 9999 FEW020 11/10 Q1025","updated":"2026-03-12T23:26:57Z"}
