{"icao":"LPPT","metar":"LPPT 292100Z 32005KT CAVOK 11/07 Q1020","updated":"2025-12-29T21:17:47Z"}
