{"icao":"KJFK","metar":"KJFK 240651Z 24008KT 6SM BR FEW022 SCT045 SCT055 01/01 A2993 RMK AO2 SLP133 T00110006 $","updated":"2025-12-24T07:22:46Z"}
