{"icao":"LPPT","metar":"LPPT 180600Z VRB02KT CAVOK 19/08 Q1019","updated":"2025-09-18T06:26:12Z"}
