{"icao":"LPAZ","metar":"LPAZ 172300Z 21009KT 9999 SCT009 BKN025 22/21 Q1015","updated":"2025-10-17T23:15:21Z"}
