{"icao":"LPBJ","metar":"LPBJ 131200Z 14011KT 080V170 CAVOK 32/08 Q1018","updated":"2026-06-13T12:23:17Z"}
