{"icao":"KJFK","metar":"KJFK 151451Z 21009KT 10SM FEW110 BKN250 24/16 A2996 RMK AO2 SLP144 T02390156 51004","updated":"2026-04-15T15:04:20Z"}
