{"icao":"LPMA","metar":"LPMA 291530Z 05004KT 360V120 9999 FEW014 21/15 Q1021","updated":"2026-01-29T15:34:37Z"}
