{"icao":"LPLA","metar":"LPLA 021300Z 33009KT 300V030 9999 FEW028 BKN040 16/09 Q1031","updated":"2025-12-02T13:35:43Z"}
