{"icao":"KLAX","metar":"KLAX 261459Z 26004KT 10SM FEW009 OVC022 18/14 A2994 RMK AO2 T01830139","updated":"2026-06-26T15:22:33Z"}
