{"icao":"LPPT","metar":"LPPT 010530Z 31006KT CAVOK 10/07 Q1022","updated":"2026-03-01T05:50:54Z"}
