{"icao":"KJFK","metar":"KJFK 170651Z 34010KT 10SM FEW060 FEW110 SCT250 22/13 A2974 RMK AO2 SLP071 T02170133","updated":"2026-04-17T07:44:29Z"}
