{"icao":"LPMA","metar":"LPMA 132030Z 32004KT 270V020 9999 RA BKN015 FEW016TCU 15/14 Q1021","updated":"2026-05-13T20:44:09Z"}
