{"icao":"LPMR","metar":"LPMR 121200Z 05002KT 3000 -RA BR SCT006 SCT020 OVC040 11/11 Q1014","updated":"2025-12-13T08:23:37Z"}
