{"icao":"LPMT","metar":"LPMT 171000Z 11010KT CAVOK 15/06 Q1012","updated":"2026-03-17T10:50:31Z"}
