{"icao":"KJFK","metar":"KJFK 271351Z 27013KT 10SM FEW045 FEW220 M08/M16 A3015 RMK AO2 SLP208 T10831161 $","updated":"2026-01-27T14:28:24Z"}
