{"icao":"KORD","metar":"KORD 300451Z 19009G19KT 10SM FEW035 28/24 A2990 RMK AO2 SLP117 T02830244 $","updated":"2026-06-30T05:01:51Z"}
