{"icao":"LPMA","metar":"LPMA 051230Z 03005KT 340V070 9999 BKN025 19/09 Q1026","updated":"2025-12-05T12:39:55Z"}
