{"icao":"LPMA","metar":"LPMA 182000Z 02016KT 340V040 9999 SCT015 16/07 Q1022","updated":"2026-01-18T20:21:56Z"}
