{"icao":"KJFK","metar":"KJFK 291951Z 19011KT 10SM FEW060 FEW100 FEW250 29/18 A3009 RMK SLP190 T02890183 ","updated":"2026-06-29T19:54:59Z"}
