{"icao":"LPPD","metar":"LPPD 071030Z 36013KT 320V020 9999 VCSH FEW025 SCT035 13/06 Q1030","updated":"2026-04-07T10:53:49Z"}
