{"icao":"LPST","metar":"LPST 071100Z 31008KT 270V360 9999 FEW025 16/11 Q1012","updated":"2026-05-07T11:45:36Z"}
