{"icao":"LPMT","metar":"LPMT 141900Z 26001KT CAVOK 20/15 Q1015","updated":"2025-10-14T19:13:51Z"}
