{"icao":"LPPT","metar":"LPPT 020330Z 14014KT 3500 RA FEW005 BKN010 FEW020TCU 14/13 Q1003","updated":"2026-01-02T03:38:46Z"}
