{"icao":"LPPS","metar":"LPPS 260130Z 24008KT 210V270 9999 -RADZ FEW014 BKN030 17/13 Q1024","updated":"2026-01-26T01:50:14Z"}
