{"icao":"KORD","metar":"KORD 271851Z 14027G40KT 8SM BKN010 OVC180 14/13 A2955 RMK AO2 PK WND 11047/1838 WSHFT 1812 RAE44 TSE11B12E32 SLP007 P0023 T01440133 $","updated":"2026-04-27T19:19:15Z"}
