{"icao":"KJFK","metar":"KJFK 250751Z 10008KT 10SM FEW015 BKN090 OVC250 09/04 A2999 RMK SLP155 T00890044 $ ","updated":"2026-04-25T08:51:58Z"}
