{"icao":"LPPT","metar":"LPPT 061330Z 25014KT 220V290 9999 VCSH FEW030 FEW035CB 14/08 Q1005","updated":"2026-02-06T14:03:12Z"}
