{"icao":"LPMR","metar":"LPMR 221400Z 33005KT 9999 FEW022 SCT045 12/06 Q1013","updated":"2025-12-22T14:19:51Z"}
