{"icao":"KLAX","metar":"KLAX 112053Z 28008KT 10SM FEW010 SCT045 SCT080 BKN140 17/11 A3011 RMK AO2 SLP196 T01720106 58003 $","updated":"2026-02-11T21:33:11Z"}
