{"icao":"LPCS","metar":"LPCS 290730Z 25015KT 3000 BR SCT002 BKN003 15/15 Q1009","updated":"2026-01-29T07:38:30Z"}
