{"icao":"LPCS","metar":"LPCS 251700Z 36007KT 9999 FEW006 SCT012 FEW022TCU BKN040 19/18 Q1013","updated":"2025-10-25T17:13:45Z"}
