{"icao":"LPLA","metar":"LPLA 031900Z 22007KT 200V270 9999 FEW016 20/16 Q1008","updated":"2025-11-03T19:14:58Z"}
