{"icao":"LPAZ","metar":"LPAZ 080630Z 23011KT 9999 -RADZ SCT005 SCT022 14/13 Q1022","updated":"2026-03-08T06:40:37Z"}
