{"icao":"KORD","metar":"KORD 081651Z 14009KT 10SM FEW110 BKN170 OVC250 27/21 A2996 RMK AO2 SLP142 T02670206","updated":"2026-06-08T17:51:07Z"}
