{"icao":"KLAX","metar":"KLAX 121553Z 06003KT 10SM FEW140 SCT180 BKN250 12/01 A3022 RMK AO2 SLP231 T01170011 $","updated":"2026-01-12T16:25:46Z"}
