{"icao":"LPPD","metar":"LPPD 010700Z 31011KT 9999 FEW018 15/12 Q1002","updated":"2026-01-01T07:21:26Z"}
