{"icao":"KORD","metar":"KORD 041516Z 26015G23KT 5SM -RA BR BKN005 OVC009 11/10 A2981 RMK AO2 P0002 T01110100 $","updated":"2026-04-04T15:30:48Z"}
