{"icao":"LPMA","metar":"LPMA 152200Z 32003KT 290V020 9999 SCT015 22/15 Q1017","updated":"2025-10-15T22:15:38Z"}
