{"icao":"LPPT","metar":"LPPT 051630Z 24019G29KT 220V280 9999 SCT020 BKN025 15/12 Q0998 WS R20","updated":"2026-02-05T16:45:34Z"}
