{"icao":"LPFR","metar":"LPFR 090500Z 02005KT 9999 FEW020 SCT040 13/07 Q1016","updated":"2026-04-09T05:08:06Z"}
