{"icao":"LPLA","metar":"LPLA 270400Z VRB06KT 9999 SCT035 18/13 Q1020","updated":"2025-10-27T04:28:02Z"}
