{"icao":"KJFK","metar":"KJFK 010251Z 28022G32KT 10SM FEW060 13/M01 A2961 RMK AO2 PK WND 28033/0239 SLP026 T01281006 53020 $","updated":"2025-11-01T03:10:32Z"}
