{"icao":"KLAX","metar":"KLAX 211853Z 08012G23KT 10SM R25L/5000VP6000FT FEW009 FEW022 SCT050 BKN160 16/11 A2994 RMK AO2 SLP139 T01560111 $","updated":"2025-11-21T19:15:52Z"}
