{"icao":"LPAZ","metar":"LPAZ 221230Z 19017KT 9999 FEW006 24/22 Q1016","updated":"2025-10-22T12:39:02Z"}
