{"icao":"KORD","metar":"KORD 310351Z 28004KT 10SM FEW045 BKN250 07/01 A2983 RMK AO2 SLP102 T00670011 $","updated":"2025-10-31T04:22:16Z"}
