{"icao":"LPMA","metar":"LPMA 291300Z 02013KT 330V040 9999 SCT015 SCT030 24/15 Q1022","updated":"2025-09-29T13:28:14Z"}
