{"icao":"KJFK","metar":"KJFK 310051Z 10008KT 9SM BKN005 OVC016 17/16 A2941 RMK AO2 SLP960 T01670161","updated":"2025-10-31T01:22:33Z"}
