{"icao":"LPLA","metar":"LPLA 032000Z 12003KT 080V180 9999 FEW016 SCT027 16/13 Q1026","updated":"2026-03-03T20:31:15Z"}
