{"icao":"LPPS","metar":"LPPS 291500Z 01014KT 340V040 9999 FEW015 SCT030 23/13 Q1022","updated":"2025-09-29T15:18:49Z"}
