{"icao":"LPPT","metar":"LPPT 171230Z 10005G15KT 060V150 CAVOK 25/11 Q1015","updated":"2025-10-17T12:36:51Z"}
