{"icao":"LPFL","metar":"LPFL 251800Z 03009KT 350V070 9999 VCSH SCT018 FEW020TCU 18/14 Q1025","updated":"2025-10-25T18:23:01Z"}
