{"icao":"LPPR","metar":"LPPR 221630Z 17019KT 3000 -RA BR BKN007 BKN012 11/10 Q0997","updated":"2026-01-22T16:34:36Z"}
