{"icao":"KORD","metar":"KORD 171951Z 24016G29KT 10SM BKN038 M09/M17 A2998 RMK AO2 PK WND 25029/1949 SNB09E36 SLP164 VCSH W-N P0000 T10891172 $","updated":"2026-01-17T20:21:08Z"}
