{"icao":"LPHR","metar":"LPHR 201630Z 21020KT 5000 -RA BR SCT014 BKN025 BKN060 17/15 Q1018","updated":"2026-02-20T16:37:12Z"}
