{"icao":"LPLA","metar":"LPLA 091700Z 18013G23KT 140V200 9999 FEW010 SCT015 BKN024 17/15 Q1025","updated":"2026-01-09T17:22:10Z"}
