{"icao":"LPMT","metar":"LPMT 151500Z 21008KT 180V240 3000 -DZRA BR BKN008 OVC020 13/13 Q1015","updated":"2026-01-15T15:24:12Z"}
