{"icao":"LPFR","metar":"LPFR 230930Z 10008KT CAVOK 15/08 Q1025","updated":"2026-02-23T09:53:47Z"}
