{"icao":"LPLA","metar":"LPLA 011900Z 07008KT 020V100 9999 FEW014 SCT020 17/13 Q1018","updated":"2026-05-01T20:02:47Z"}
