{"icao":"KORD","metar":"KORD 010251Z 26006KT 10SM FEW050 BKN070 07/06 A2992 RMK AO2 SLP135 60007 T00720056 51012 $","updated":"2025-11-01T03:10:44Z"}
