{"icao":"LPCS","metar":"LPCS 051100Z 36013KT 340V040 9999 FEW010 20/13 Q1021","updated":"2025-10-05T11:12:36Z"}
