{"icao":"LPLA","metar":"LPLA 122100Z VRB03KT 9999 FEW022 14/09 Q1032 WIND RWY15 25005KT RH72 BLU","updated":"2025-12-12T21:17:42Z"}
