{"icao":"LPPD","metar":"LPPD 200700Z 27016KT 9999 FEW016 BKN025 15/12 Q1026","updated":"2026-01-20T07:26:54Z"}
