{"icao":"KLAX","metar":"KLAX 241053Z 18003KT 8SM FEW003 BKN006 20/18 A2992 RMK AO2 SLP130 T02000183 $","updated":"2025-09-24T11:14:17Z"}
