{"icao":"LPPR","metar":"LPPR 212200Z 20004KT 150V260 9999 -SHRA FEW022 FEW026CB BKN033 BKN040 08/06 Q1008","updated":"2025-12-21T22:17:59Z"}
