{"icao":"LPPR","metar":"LPPR 261100Z 04006G17KT 290V100 CAVOK 17/10 Q1021","updated":"2025-10-26T11:12:57Z"}
