{"icao":"LPST","metar":"LPST 250800Z VRB01KT 9999 SCT016 08/07 Q1022","updated":"2025-11-25T08:26:45Z"}
