{"icao":"KLAX","metar":"KLAX 141853Z 13005KT 10SM SCT022 BKN250 18/11 A3014 RMK AO2 SLP206 T01780106","updated":"2026-02-14T19:23:02Z"}
