{"icao":"LPPT","metar":"LPPT 271900Z 33008KT CAVOK 13/08 Q1023","updated":"2025-11-27T19:14:45Z"}
