{"icao":"LPFR","metar":"LPFR 300730Z 04003KT 340V050 9000 SCT005 SCT012 12/12 Q1015","updated":"2026-01-30T07:38:37Z"}
