{"icao":"LPMR","metar":"LPMR 131100Z 29009KT 270V330 9999 FEW012 BKN025 14/10 Q1022","updated":"2026-04-13T12:01:33Z"}
