{"icao":"LPPT","metar":"LPPT 261700Z 04006KT 010V090 9999 FEW033 23/13 Q1018","updated":"2025-10-26T17:14:00Z"}
