{"icao":"LPMA","metar":"LPMA 011030Z 11005KT 080V140 9999 FEW008 SCT012 19/16 Q1019","updated":"2026-05-01T10:39:57Z"}
