{"icao":"LPFR","metar":"LPFR 170700Z 07011KT CAVOK 13/06 Q1012","updated":"2026-03-17T07:12:35Z"}
