{"icao":"LPLA","metar":"LPLA 161100Z 32017KT 9999 SCT023 BKN030 15/10 Q1033","updated":"2026-01-16T11:18:42Z"}
