{"icao":"LPMT","metar":"LPMT 181700Z 17015KT 9999 FEW020CB SCT030 17/13 Q1001","updated":"2026-03-18T18:02:04Z"}
