{"icao":"LPMR","metar":"LPMR 261000Z VRB01KT 9000 NSC 10/07 Q1027","updated":"2025-11-26T10:21:28Z"}
