{"icao":"KJFK","metar":"KJFK 230651Z 00000KT 10SM BKN055 BKN070 08/07 A2995 RMK SLP142 T00830067 ","updated":"2026-04-23T07:49:55Z"}
