{"icao":"KORD","metar":"KORD 070451Z 03014KT 10SM OVC022 01/M04 A3037 RMK AO2 SLP289 T00061044 $","updated":"2026-04-07T05:08:21Z"}
