{"icao":"LPPD","metar":"LPPD 270300Z 03019G31KT 360V060 9999 FEW016 SCT030 18/14 Q1017","updated":"2025-10-27T03:18:29Z"}
