{"icao":"LPST","metar":"LPST 221100Z 22006KT 200V270 9999 SCT020 13/10 Q1009","updated":"2026-01-22T11:21:51Z"}
