{"icao":"LPMR","metar":"LPMR 142000Z VRB01KT 7000 FEW004 15/14 Q1017","updated":"2025-10-14T20:19:14Z"}
