{"icao":"LPAZ","metar":"LPAZ 011930Z 05009KT 010V080 9999 BKN019 15/11 Q1029","updated":"2026-04-01T19:59:59Z"}
