{"icao":"LPBJ","metar":"LPBJ 231700Z 03003KT 340V070 CAVOK 34/08 Q1019","updated":"2026-05-23T17:59:25Z"}
