{"icao":"LPHR","metar":"LPHR 151500Z 19011KT 9999 FEW018 BKN040 18/14 Q1028","updated":"2026-02-15T15:24:55Z"}
