{"icao":"KLAX","metar":"KLAX 311753Z 24009KT 10SM CLR 21/14 A2994 RMK AO2 SLP138 T02060144 10222 20150 51004 $","updated":"2026-05-31T18:00:11Z"}
