{"icao":"KORD","metar":"KORD 130651Z 27005KT 10SM FEW250 05/M02 A3009 RMK AO2 SLP193 T00501022 $","updated":"2025-11-13T07:18:13Z"}
