{"icao":"KJFK","metar":"KJFK 081151Z 03015KT 10SM FEW250 00/M09 A3063 RMK AO2 SLP371 T00001094 10000 21011 53027","updated":"2026-04-08T11:54:08Z"}
