{"icao":"LPMA","metar":"LPMA 190100Z 34006KT 320V020 9999 FEW015 18/13 Q1020","updated":"2025-11-19T01:23:48Z"}
