{"icao":"LPPT","metar":"LPPT 181900Z 30010KT 280V340 CAVOK 25/12 Q1014","updated":"2026-06-18T19:26:04Z"}
