{"icao":"LPFR","metar":"LPFR 121100Z 33019KT 300V360 CAVOK 18/03 Q1017","updated":"2026-04-12T11:32:48Z"}
