{"icao":"LPHR","metar":"LPHR 161800Z 17007KT 9999 SCT008 BKN012 BKN030 19/18 Q1022","updated":"2025-11-16T18:24:26Z"}
