{"icao":"KJFK","metar":"KJFK 241551Z VRB06KT 10SM FEW060 FEW085 27/11 A2996 RMK SLP146 T02670106 ","updated":"2026-06-24T16:20:24Z"}
