{"icao":"LPPD","metar":"LPPD 151600Z 19006KT 150V220 9999 FEW023 24/19 Q1026","updated":"2025-09-15T16:21:32Z"}
