{"icao":"LPPR","metar":"LPPR 090600Z VRB02KT 0400 R17/0500U FG VV001 13/13 Q1020","updated":"2025-10-09T06:27:32Z"}
