{"icao":"LPFL","metar":"LPFL 011700Z 19006KT 140V220 9999 FEW007 SCT015 24/21 Q1018","updated":"2025-10-01T17:15:46Z"}
