{"icao":"LPPS","metar":"LPPS 080430Z 28014KT 9999 SCT010 SCT030 17/15 Q1022","updated":"2026-02-08T05:02:17Z"}
