{"icao":"LPMA","metar":"LPMA 150400Z 23007KT 200V270 9999 FEW015 21/15 Q1015","updated":"2025-10-15T04:21:30Z"}
