{"icao":"KLAX","metar":"KLAX 191453Z 08005KT 7SM FEW009 18/17 A3005 RMK AO2 SLP173 T01830167 53012 $","updated":"2026-03-19T15:53:44Z"}
