{"icao":"LPCS","metar":"LPCS 051600Z 33014KT 300V360 9999 FEW030 17/10 Q1017","updated":"2026-05-05T16:23:08Z"}
