{"icao":"LPMA","metar":"LPMA 021630Z 24003KT 180V290 9999 SCT015 18/08 Q1014","updated":"2026-02-02T16:38:03Z"}
