{"icao":"KORD","metar":"KORD 181351Z 21012G23KT 10SM SCT016 13/09 A2946 RMK AO2 SLP977 T01280094","updated":"2026-02-18T14:41:53Z"}
