{"icao":"LPPD","metar":"LPPD 231100Z 36019KT 9999 VCSH FEW006 BKN035 21/18 Q1022","updated":"2025-09-23T11:14:08Z"}
