{"icao":"KORD","metar":"KORD 230151Z 06007KT 10SM FEW250 12/00 A2995 RMK AO2 SLP140 T01170000","updated":"2026-04-23T02:32:16Z"}
