{"icao":"LPCS","metar":"LPCS 171030Z 11011KT 070V130 CAVOK 17/05 Q1011","updated":"2026-03-17T10:50:17Z"}
