{"icao":"LPFR","metar":"LPFR 071900Z 16004KT CAVOK 14/12 Q1017","updated":"2026-03-07T19:20:11Z"}
