{"icao":"LPBJ","metar":"LPBJ 261200Z VRB04KT 9999 FEW030 24/15 Q1016","updated":"2026-04-26T13:04:16Z"}
