{"icao":"LPPR","metar":"LPPR 131230Z 10010KT CAVOK 18/09 Q1023","updated":"2025-12-13T12:36:21Z"}
