{"icao":"LPPT","metar":"LPPT 072100Z 32012KT CAVOK 11/07 Q1019","updated":"2026-03-07T21:19:44Z"}
