{"icao":"LPBJ","metar":"LPBJ 100100Z 25002KT CAVOK 09/08 Q1020","updated":"2025-11-10T01:27:18Z"}
