{"icao":"KJFK","metar":"KJFK 231008Z 24005KT 9SM -SNRA OVC038 02/M03 A3034 RMK AO2 RAB08 P0000 T00221033 $","updated":"2025-12-23T10:22:52Z"}
