{"icao":"LPPR","metar":"LPPR 222000Z 15004KT 9999 BKN030 12/07 Q1028","updated":"2025-11-22T20:19:03Z"}
