{"icao":"LPPR","metar":"LPPR 140300Z 03003KT CAVOK 09/06 Q1022","updated":"2025-12-14T03:27:42Z"}
