{"icao":"KORD","metar":"KORD 281151Z 26008KT 10SM CLR M17/M21 A3021 RMK AO2 SLP246 4/002 T11721206 11150 21172 55006","updated":"2026-01-28T12:48:11Z"}
