{"icao":"KORD","metar":"KORD 152051Z 23010G16KT 10SM SCT070 BKN250 24/07 A2987 RMK AO2 SLP113 T02390067 58017","updated":"2026-06-15T21:41:11Z"}
