{"icao":"KORD","metar":"KORD 052051Z 33014KT 10SM FEW250 15/M02 A3008 RMK AO2 SLP185 T01501017 51030","updated":"2025-11-05T21:17:40Z"}
