{"icao":"LPAZ","metar":"LPAZ 030530Z 25024KT 5000 SCT002 BKN004 16/16 Q1011","updated":"2026-02-03T05:50:26Z"}
