{"icao":"LPPD","metar":"LPPD 211400Z 08004KT 030V130 9999 FEW025 SCT035 20/15 Q1028","updated":"2025-09-21T14:13:54Z"}
