{"icao":"LPPS","metar":"LPPS 081330Z 07008KT 030V100 9999 -DZ SCT014 SCT030 17/13 Q1034","updated":"2026-01-08T13:39:39Z"}
