{"icao":"LPPR","metar":"LPPR 091730Z 23008KT 210V270 0700 R17/0800 FG VV002 14/14 Q1010","updated":"2026-02-09T17:52:43Z"}
