{"icao":"LPLA","metar":"LPLA 192000Z VRB02KT 9999 FEW016 BKN022 23/21 Q1015","updated":"2025-10-19T20:18:24Z"}
