{"icao":"LPPS","metar":"LPPS 240700Z 29009KT 9999 FEW014 SCT030 15/13 Q1019","updated":"2026-02-24T07:07:32Z"}
