{"icao":"LPPS","metar":"LPPS 062300Z 06005KT 020V090 9999 -DZ SCT012 SCT030 20/19 Q1024","updated":"2025-10-06T23:15:44Z"}
