{"icao":"LPOV","metar":"LPOV 152200Z VRB02KT 0800 FG OVC002 15/14 Q1017","updated":"2025-10-15T22:15:07Z"}
