{"icao":"LPPD","metar":"LPPD 131900Z 13006KT 9999 SCT016 20/17 Q1014","updated":"2025-10-13T19:13:13Z"}
