{"icao":"LPPR","metar":"LPPR 020300Z 08010KT CAVOK 27/10 Q1019","updated":"2026-07-02T03:26:52Z"}
