{"icao":"KORD","metar":"KORD 280751Z 35009KT 10SM CLR M02/M09 A3059 RMK AO2 SLP367 T10221094","updated":"2026-03-28T08:37:29Z"}
