{"icao":"LPBJ","metar":"LPBJ 182200Z 26002KT CAVOK 17/09 Q1017","updated":"2026-04-18T22:33:31Z"}
