{"icao":"LPPD","metar":"LPPD 260500Z 19006KT 9999 FEW014 SCT030 18/15 Q1026","updated":"2025-11-26T05:18:28Z"}
