{"icao":"LPCS","metar":"LPCS 171830Z 26005KT 220V300 9999 BKN022 13/09 Q1025","updated":"2026-02-17T18:56:16Z"}
