{"icao":"LPBJ","metar":"LPBJ 110200Z 11005KT CAVOK 18/11 Q1020","updated":"2025-10-11T02:52:18Z"}
