{"icao":"LPFR","metar":"LPFR 141030Z 34007KT 300V070 9999 FEW015 20/11 Q1023","updated":"2026-04-14T11:01:11Z"}
