{"icao":"KORD","metar":"KORD 251851Z 33006KT 10SM FEW040 SCT060 24/12 A2992 RMK AO2 SLP128 T02440117","updated":"2025-09-25T19:14:59Z"}
