{"icao":"KORD","metar":"KORD 211751Z VRB04KT 10SM CLR M03/M15 A3045 RMK AO2 SLP322 T10281150 11028 21089 50010","updated":"2025-12-21T18:26:37Z"}
