{"icao":"LPFR","metar":"LPFR 171700Z 30007KT 260V320 9999 SCT018 FEW022CB SCT040 13/06 Q1011","updated":"2026-01-17T17:16:16Z"}
