{"icao":"LPPR","metar":"LPPR 260900Z 19015KT 9999 SCT012 BKN025 22/19 Q1018","updated":"2026-06-26T09:22:31Z"}
