{"icao":"KJFK","metar":"KJFK 130551Z 27008KT 10SM CLR M02/M09 A3016 RMK AO2 SLP212 T10221094 10000 21022 50004","updated":"2025-12-13T06:28:33Z"}
