{"icao":"LPAZ","metar":"LPAZ 182200Z 36010KT 330V040 4000 -DZ BR SCT002 BKN005 16/15 Q1030","updated":"2026-01-18T22:18:40Z"}
