{"icao":"LPPR","metar":"LPPR 091730Z 34017KT CAVOK 19/10 Q1020","updated":"2026-06-09T18:02:55Z"}
