{"icao":"KORD","metar":"KORD 251051Z 20003KT 10SM FEW130 SCT250 04/01 A3035 RMK AO2 SLP283 T00390006 $","updated":"2025-10-25T11:13:14Z"}
