{"icao":"LPPS","metar":"LPPS 242000Z 03006KT 9999 SCT015 18/13 Q1025","updated":"2025-11-24T20:21:58Z"}
