{"icao":"LPCS","metar":"LPCS 230930Z 08005KT 040V120 CAVOK 16/09 Q1024","updated":"2026-02-23T09:53:49Z"}
