{"icao":"LPPR","metar":"LPPR 181400Z 29006KT 250V330 9999 FEW025 16/10 Q1019","updated":"2025-11-18T14:18:34Z"}
