{"icao":"KORD","metar":"KORD 050351Z 19010KT 10SM CLR 24/13 A3007 RMK AO2 SLP176 T02390133 $","updated":"2025-10-05T04:19:16Z"}
