{"icao":"LPMR","metar":"LPMR 031500Z 31010KT 9000 -RA FEW015 BKN025 17/13 Q1014","updated":"2026-05-03T15:45:15Z"}
