{"icao":"LPBJ","metar":"LPBJ 161700Z 07009KT CAVOK 22/06 Q1017","updated":"2026-03-16T17:58:37Z"}
