{"icao":"LPPT","metar":"LPPT 221300Z 32006KT 280V360 9999 -SHRA SCT022 10/08 Q1014 RESHRA","updated":"2025-12-22T13:32:55Z"}
