{"icao":"LPHR","metar":"LPHR 071800Z 01011KT 340V050 9999 FEW007 SCT011 BKN080 16/12 Q1021","updated":"2026-03-07T18:32:06Z"}
