{"icao":"LPPR","metar":"LPPR 210630Z VRB06KT CAVOK 07/05 Q1029","updated":"2026-02-21T06:39:58Z"}
