{"icao":"LPMA","metar":"LPMA 281000Z 02010KT 310V100 9999 BKN015 15/08 Q1028","updated":"2026-02-28T10:21:48Z"}
