{"icao":"LPMR","metar":"LPMR 140200Z 14002KT CAVOK 12/11 Q1017","updated":"2025-10-14T02:59:18Z"}
