{"icao":"KLAX","metar":"KLAX 221453Z 30004KT 10SM FEW065 SCT100 BKN130 BKN220 12/08 A2993 RMK AO2 SLP135 T01170083 50002 $","updated":"2025-11-22T15:16:48Z"}
