{"icao":"LPMR","metar":"LPMR 110400Z 15008KT CAVOK 19/11 Q1020","updated":"2025-10-11T04:19:39Z"}
