{"icao":"LPPS","metar":"LPPS 012000Z 03009KT 010V070 9999 FEW015 BKN030 21/16 Q1021","updated":"2025-10-01T20:19:49Z"}
