{"icao":"KLAX","metar":"KLAX 081853Z 28005KT 9SM FEW010 SCT021 21/14 A2993 RMK AO2 SLP134 SCT V BKN T02060139 $","updated":"2025-10-08T19:14:10Z"}
