{"icao":"KORD","metar":"KORD 211651Z 17010KT 9SM FEW110 SCT250 15/07 A2988 RMK AO2 SLP119 T01500067","updated":"2026-03-21T17:24:15Z"}
