{"icao":"KORD","metar":"KORD 031151Z 21012G22KT 8SM BKN011 OVC100 M04/M07 A2994 RMK AO2 PK WND 20027/1107 SLP148 4/006 T10441072 11044 21061 55006","updated":"2025-12-03T12:41:19Z"}
