{"icao":"LPFL","metar":"LPFL 160730Z 35004KT 300V030 9999 VCSH FEW011 BKN014 15/12 Q1015","updated":"2026-04-16T07:44:07Z"}
