{"icao":"LPBJ","metar":"LPBJ 101600Z VRB08KT 9999 FEW040 34/06 Q1015","updated":"2026-06-10T16:56:25Z"}
