{"icao":"LPLA","metar":"LPLA 181000Z 32011KT 4000 -RADZ BR SCT005 BKN012 19/18 Q1016","updated":"2025-09-18T10:18:32Z"}
