{"icao":"LPFL","metar":"LPFL 281530Z 19021G36KT 150V230 3000 RADZ BKN013 FEW015TCU 18/17 Q1008 WS ALL RWY","updated":"2026-05-28T15:50:30Z"}
