{"icao":"LPAZ","metar":"LPAZ 261300Z 13008KT 100V170 9999 FEW020 19/16 Q1025","updated":"2025-11-26T13:33:50Z"}
