{"icao":"LPBJ","metar":"LPBJ 071800Z 26021KT 8000 VCSH FEW018CB BKN030 12/08 Q1006 WS ALL RWY","updated":"2026-02-07T18:33:56Z"}
