{"icao":"KORD","metar":"KORD 162251Z 22010KT 10SM FEW150 BKN300 18/03 A2988 RMK AO2 SLP120 T01830033","updated":"2026-02-16T23:27:49Z"}
