{"icao":"KORD","metar":"KORD 281151Z 35009KT 10SM SCT130 SCT210 BKN250 01/M11 A3003 RMK AO2 SLP171 T00061106 10078 20000 53023 $","updated":"2026-02-28T12:42:32Z"}
