{"icao":"LPHR","metar":"LPHR 071700Z 23016KT 9999 SCT014 BKN095 18/15 Q1007","updated":"2025-12-07T17:14:53Z"}
