{"icao":"LPCS","metar":"LPCS 181830Z 30008KT 280V340 9999 FEW018 13/09 Q1021","updated":"2026-02-18T18:53:12Z"}
