{"icao":"LPPT","metar":"LPPT 120230Z 01005KT CAVOK 20/09 Q1017","updated":"2025-10-12T03:00:53Z"}
