{"icao":"LPPT","metar":"LPPT 201830Z 33008KT CAVOK 13/09 Q1028","updated":"2026-02-20T18:44:59Z"}
