{"icao":"KORD","metar":"KORD 222051Z 06009KT 10SM FEW035 19/11 A2995 RMK AO2 SLP138 T01940106 56003","updated":"2026-04-22T21:49:53Z"}
