{"icao":"LPFR","metar":"LPFR 071600Z 20005KT 170V240 9999 FEW045 15/10 Q1016","updated":"2026-03-07T16:26:24Z"}
