{"icao":"LPLA","metar":"LPLA 210900Z 29018KT 9000 FEW022 SCT030 BKN040 13/10 Q1007","updated":"2026-04-21T09:24:22Z"}
