{"icao":"LPMT","metar":"LPMT 262200Z VRB02KT CAVOK 14/12 Q1024","updated":"2026-02-26T22:32:04Z"}
