{"icao":"KJFK","metar":"KJFK 071651Z 29013G22KT 10SM BKN070 BKN250 11/M05 A3016 RMK AO2 PK WND 25029/1619 SLP214 T01111050","updated":"2026-04-07T16:57:21Z"}
