{"icao":"KORD","metar":"KORD 220851Z 33003KT 10SM FEW250 01/M03 A3002 RMK AO2 SLP170 T00111028 53004","updated":"2025-11-22T09:17:37Z"}
