{"icao":"LPMA","metar":"LPMA 181230Z 01022G38KT 300V060 9999 SCT015 17/07 Q1019","updated":"2026-01-18T12:37:47Z"}
