{"icao":"LPBJ","metar":"LPBJ 300200Z 35001KT CAVOK 17/13 Q1016","updated":"2025-09-30T02:56:55Z"}
