{"icao":"LPMR","metar":"LPMR 162200Z 17006KT 8000 FEW016 FEW020TCU SCT024 14/13 Q1010","updated":"2025-11-16T22:16:39Z"}
