{"icao":"LPOV","metar":"LPOV 012200Z 19003KT 6000 NSC 08/08 Q1016","updated":"2026-03-01T22:22:23Z"}
