{"icao":"LPPR","metar":"LPPR 282000Z 36007KT 320V030 CAVOK 20/12 Q1007","updated":"2026-04-28T20:14:27Z"}
