{"icao":"KJFK","metar":"KJFK 020851Z 06015G21KT 10SM -RA OVC017 08/06 A3033 RMK AO2 RAB31 SLP271 P0000 60000 T00830056 52013 $","updated":"2026-04-02T08:55:07Z"}
