{"icao":"KJFK","metar":"KJFK 300951Z 31018G23KT 10SM FEW050 FEW250 M12/M21 A3016 RMK PK WND 31027/0906 SLP212 T11171206 $ ","updated":"2026-01-30T10:32:32Z"}
