{"icao":"LPHR","metar":"LPHR 071400Z 32019G31KT 280V360 7000 -SHRA SCT014 BKN030 14/09 Q1013","updated":"2026-05-07T14:04:45Z"}
