{"icao":"LPPT","metar":"LPPT 181100Z 35006KT 320V030 9999 FEW015 10/05 Q1014","updated":"2026-01-18T11:15:51Z"}
