{"icao":"KJFK","metar":"KJFK 241951Z 15006KT 10SM FEW035 SCT050 BKN170 OVC240 23/19 A3003 RMK AO2 SLP169 T02330194 $","updated":"2025-09-24T20:19:25Z"}
