{"icao":"KJFK","metar":"KJFK 080251Z 20016KT 10SM FEW080 SCT110 BKN250 21/18 A3005 RMK AO2 PK WND 20026/0206 SLP175 T02110178 58006","updated":"2025-10-08T02:56:18Z"}
