{"icao":"LPPR","metar":"LPPR 072100Z 14004KT CAVOK 10/08 Q1019","updated":"2026-03-07T21:19:45Z"}
