{"icao":"LPBJ","metar":"LPBJ 251000Z 33013KT CAVOK 11/06 Q1022","updated":"2025-11-25T10:22:19Z"}
