{"icao":"LPPS","metar":"LPPS 052300Z 31007KT 9999 FEW014 19/11 Q1022","updated":"2025-11-05T23:17:36Z"}
