{"icao":"LPPD","metar":"LPPD 191400Z 36008KT 330V030 9999 FEW025 SCT035 15/07 Q1032","updated":"2026-01-19T14:26:31Z"}
