{"icao":"LPHR","metar":"LPHR 090000Z 24020KT 9000 SCT008 BKN012 18/17 Q1010","updated":"2026-02-09T02:06:25Z"}
