{"icao":"KJFK","metar":"KJFK 190651Z 18006KT 10SM BKN120 BKN220 01/M07 A3036 RMK AO2 SLP279 T00061067","updated":"2026-03-19T07:03:40Z"}
