{"icao":"LPPS","metar":"LPPS 200700Z 02004KT 350V060 9999 SCT014 SCT030 13/08 Q1026","updated":"2026-01-20T07:26:56Z"}
