{"icao":"LPPD","metar":"LPPD 021230Z 12011KT 9999 FEW018 22/18 Q1028","updated":"2026-07-02T12:56:26Z"}
