{"icao":"LPMA","metar":"LPMA 120900Z 36004KT 320V040 9999 SCT015 22/16 Q1018","updated":"2025-10-12T09:15:42Z"}
