{"icao":"LPFR","metar":"LPFR 221400Z 24011KT 9999 FEW006 24/21 Q1019","updated":"2025-10-22T14:19:44Z"}
