{"icao":"LPFL","metar":"LPFL 201930Z 33008KT 290V360 9999 SCT020 FEW025TCU SCT049 18/13 Q1013","updated":"2026-06-20T21:17:05Z"}
