{"icao":"KORD","metar":"KORD 130251Z 22007KT 10SM CLR 02/M02 A3002 RMK AO2 SLP172 T00171022 58007 $","updated":"2026-01-13T03:26:51Z"}
