{"icao":"KLAX","metar":"KLAX 090153Z 26011KT 10SM OVC010 17/14 A2993 RMK AO2 SLP134 T01670139","updated":"2026-05-09T02:43:49Z"}
