{"icao":"LPPD","metar":"LPPD 152230Z 32004KT 300V360 9999 FEW025 13/08 Q1032","updated":"2026-05-15T23:00:32Z"}
