{"icao":"KORD","metar":"KORD 162051Z 12008KT 10SM FEW043 SCT080 20/09 A3009 RMK AO2 SLP189 T02000089 56025","updated":"2025-10-16T21:16:06Z"}
