{"icao":"LPLA","metar":"LPLA 100100Z 26004KT 220V300 9999 FEW017 15/13 Q1023","updated":"2025-11-10T01:27:21Z"}
