{"icao":"KORD","metar":"KORD 102051Z 29012G23KT 10SM FEW035 BKN120 BKN250 01/M09 A3020 RMK AO2 PK WND 31026/1956 SLP234 T00111089 55012","updated":"2025-11-10T21:16:47Z"}
