{"icao":"LPFL","metar":"LPFL 201530Z 18018KT 150V210 9999 SCT008 17/15 Q1012","updated":"2026-02-20T15:36:24Z"}
