{"icao":"LPLA","metar":"LPLA 131700Z 23015G35KT 170V280 9999 FEW014 19/14 Q1018","updated":"2026-04-13T17:58:28Z"}
