{"icao":"LPFR","metar":"LPFR 302100Z 03007KT CAVOK 11/10 Q1020","updated":"2025-12-30T21:18:36Z"}
