{"icao":"LPBJ","metar":"LPBJ 262100Z 11003KT CAVOK 20/15 Q1019","updated":"2025-10-26T21:15:08Z"}
