{"icao":"LPLA","metar":"LPLA 262200Z 29027G43KT 9000 -SHRA FEW014 FEW020CB BKN030 08/06 Q1006 RESHRA","updated":"2026-01-26T22:20:55Z"}
