{"icao":"KORD","metar":"KORD 082051Z 21016G31KT 10SM FEW110 FEW250 16/02 A2976 RMK AO2 PK WND 19033/2013 SLP080 T01610022 56022 $","updated":"2026-03-08T21:21:58Z"}
