{"icao":"KLAX","metar":"KLAX 191653Z 10003KT 9SM FEW009 24/15 A3007 RMK AO2 SLP180 T02390150 $","updated":"2026-03-19T16:56:42Z"}
