{"icao":"LPLA","metar":"LPLA 180200Z 35019G29KT 8000 -SHRA SCT017 BKN025 08/05 Q1016","updated":"2026-03-18T02:05:41Z"}
