{"icao":"LPPD","metar":"LPPD 011000Z 03006KT 350V060 9999 FEW025 BKN045 17/07 Q1020","updated":"2025-11-01T10:17:07Z"}
