{"icao":"LPHR","metar":"LPHR 250900Z 29007KT 9999 FEW006 SCT009 18/17 Q1027","updated":"2025-11-25T09:22:40Z"}
