{"icao":"KJFK","metar":"KJFK 110951Z 28005KT 10SM FEW080 SCT250 01/M04 A2972 RMK AO2 SLP064 T00111039 $","updated":"2026-02-11T10:01:53Z"}
