{"icao":"KJFK","metar":"KJFK 120751Z 28008KT 10SM FEW110 SCT200 BKN250 25/21 A2971 RMK AO2 SLP061 T02500211 $","updated":"2026-06-12T08:23:57Z"}
