{"icao":"LPMT","metar":"LPMT 070700Z 18005KT 4000 BR SCT012 BKN020 10/10 Q1023","updated":"2026-01-07T07:23:49Z"}
