{"icao":"LPMA","metar":"LPMA 020000Z 02017G30KT 340V060 9999 FEW013 19/15 Q1025","updated":"2026-06-02T00:12:07Z"}
