{"icao":"LPFR","metar":"LPFR 141000Z 31017KT CAVOK 13/04 Q1025","updated":"2026-02-14T10:25:30Z"}
