{"icao":"LPFL","metar":"LPFL 101700Z 33019G32KT 270V360 9999 VCSH BKN020 13/09 Q1013","updated":"2025-12-10T17:21:03Z"}
