{"icao":"LPFL","metar":"LPFL 091530Z 11004KT 050V170 9999 VCSH FEW008 SCT015 BKN025 21/18 Q1030","updated":"2026-06-09T15:53:31Z"}
