{"icao":"LPST","metar":"LPST 241300Z 26015KT 5000 -RADZ BKN011 BKN028 17/15 Q1019","updated":"2025-11-24T13:32:23Z"}
