{"icao":"LPMA","metar":"LPMA 302200Z 01019KT 9999 SCT015 16/10 Q1024","updated":"2026-03-30T22:34:30Z"}
