{"icao":"LPLA","metar":"LPLA 261516Z 29021G33KT 260V320 4000 SHRA BR FEW014 BKN018 FEW022TCU BKN030 09/06 Q1003","updated":"2026-01-26T15:28:05Z"}
