{"icao":"LPPR","metar":"LPPR 050630Z 22015G25KT 9999 FEW010 BKN013 14/13 Q0984","updated":"2026-02-05T06:57:39Z"}
