{"icao":"LPPT","metar":"LPPT 200500Z 33006KT CAVOK 11/08 Q1018","updated":"2025-11-20T05:18:36Z"}
