{"icao":"LPMT","metar":"LPMT 141200Z 01005KT 330V070 9999 FEW045 26/13 Q1017","updated":"2025-10-14T12:38:50Z"}
