{"icao":"LPPR","metar":"LPPR 112100Z 35014KT CAVOK 11/03 Q1019","updated":"2026-04-11T21:30:58Z"}
