{"icao":"KLAX","metar":"KLAX 031253Z VRB03KT 2 1/2SM BR SCT003 OVC006 16/14 A3004 RMK AO2 SLP170 T01610144 $","updated":"2025-11-03T13:30:00Z"}
