{"icao":"KJFK","metar":"KJFK 060851Z 01007KT 10SM SCT250 M06/M12 A2984 RMK AO2 SLP105 6//// T10611117 58020 PNO $","updated":"2026-02-06T09:41:44Z"}
