{"icao":"LPPR","metar":"LPPR 091900Z 01005KT 350V070 CAVOK 20/15 Q1020","updated":"2025-10-09T19:14:36Z"}
