{"icao":"KLAX","metar":"KLAX 220153Z 27010KT 1/4SM R25L/1200V5000FT FG VV002 16/16 A2990 RMK AO2 SLP122 T01610156","updated":"2026-03-22T02:06:59Z"}
