{"icao":"KJFK","metar":"KJFK 091551Z 34006KT 10SM FEW250 M07/M17 A3030 RMK AO2 SLP260 T10721172 $","updated":"2026-02-09T15:54:41Z"}
