{"icao":"LPCS","metar":"LPCS 171230Z 32011KT 290V350 9999 FEW014 FEW018TCU SCT022 17/14 Q1015","updated":"2025-11-17T12:38:52Z"}
