{"icao":"LPMT","metar":"LPMT 040800Z 11002KT 7000 -RADZ SCT006 BKN030 13/13 Q0997","updated":"2026-02-04T08:39:35Z"}
