{"icao":"LPFR","metar":"LPFR 201900Z 26004KT CAVOK 23/10 Q1020","updated":"2026-05-20T19:22:55Z"}
