{"icao":"LPMT","metar":"LPMT 062100Z 13013KT 9999 FEW040 16/15 Q1014","updated":"2026-04-06T21:36:19Z"}
