{"icao":"LPCS","metar":"LPCS 311000Z 18013KT 9999 FEW008 SCT016 BKN036 20/18 Q1013","updated":"2025-10-31T10:19:20Z"}
