{"icao":"LPPR","metar":"LPPR 090700Z 05004KT 350V090 CAVOK 11/10 Q1020","updated":"2026-04-09T07:20:21Z"}
