{"icao":"LPAZ","metar":"LPAZ 121500Z 34008KT 310V010 9999 FEW030 17/09 Q1032","updated":"2025-12-12T15:21:17Z"}
