{"icao":"LPHR","metar":"LPHR 201500Z 26013KT 6000 FEW004 BKN007 24/22 Q1013","updated":"2025-10-20T15:18:08Z"}
