{"icao":"LPOV","metar":"LPOV 231300Z 30003KT 260V340 9999 SCT040 18/12 Q1020","updated":"2025-10-23T13:30:35Z"}
