{"icao":"LPLA","metar":"LPLA 181100Z 36004KT 310V030 9999 FEW025 15/09 Q1027","updated":"2026-02-18T11:37:31Z"}
