{"icao":"KJFK","metar":"KJFK 220051Z 19016KT 10SM FEW032 BKN090 BKN250 03/M02 A3025 RMK SLP242 T00331022 $ ","updated":"2026-01-22T01:44:41Z"}
