{"icao":"LPST","metar":"LPST 230800Z 28010KT 250V320 9999 SCT030 11/06 Q1004","updated":"2026-01-23T08:28:57Z"}
