{"icao":"LPFL","metar":"LPFL 101500Z VRB09G19KT 9999 -RA FEW012 SCT015 FEW016CB 19/16 Q1009 RERA","updated":"2025-11-10T15:20:53Z"}
