{"icao":"LPCS","metar":"LPCS 301000Z 35016G29KT 9999 FEW016 13/06 Q1019","updated":"2025-11-30T10:18:14Z"}
