{"icao":"LPHR","metar":"LPHR 141800Z 20013KT 170V230 9999 SCT020 FEW025CB 20/17 Q1003","updated":"2025-10-14T18:26:33Z"}
