{"icao":"KORD","metar":"KORD 271051Z 30012G27KT 10SM OVC031 M02/M09 A3015 RMK AO2 PK WND 30027/1042 SLP216 T10171089","updated":"2025-11-27T11:17:04Z"}
