{"icao":"LPLA","metar":"LPLA 281400Z 10008KT 060V120 9999 FEW018 BKN030 15/10 Q1034","updated":"2026-03-28T14:30:51Z"}
