{"icao":"LPOV","metar":"LPOV 201500Z 36011KT 330V030 9999 FEW025 15/04 Q1022","updated":"2025-11-20T16:24:46Z"}
