{"icao":"LPMA","metar":"LPMA 031800Z 04012KT 9999 FEW015 23/19 Q1023","updated":"2025-10-03T18:24:21Z"}
