{"icao":"LPPT","metar":"LPPT 311230Z 29008KT 250V320 9999 FEW032 15/08 Q1020","updated":"2026-01-31T12:44:16Z"}
