{"icao":"KJFK","metar":"KJFK 271551Z 10005KT 10SM SCT250 02/M06 A3016 RMK AO2 SLP212 T00221056 $","updated":"2026-02-27T16:39:27Z"}
