{"icao":"LPBJ","metar":"LPBJ 240100Z 12004KT CAVOK 10/07 Q1022","updated":"2026-02-24T02:00:31Z"}
