{"icao":"KORD","metar":"KORD 251451Z 22003KT 3SM BR OVC007 09/08 A2977 RMK AO2 SLP083 60000 T00890083 56002","updated":"2025-11-25T15:21:33Z"}
