{"icao":"LPPT","metar":"LPPT 150900Z 34013KT 300V360 9999 FEW025 13/08 Q1019 WS R02","updated":"2026-03-15T09:32:32Z"}
