{"icao":"LPLA","metar":"LPLA 072300Z 19015KT 160V220 9999 FEW015 16/13 Q1030","updated":"2026-01-07T23:19:23Z"}
