{"icao":"KJFK","metar":"KJFK 190851Z 26012KT 10SM FEW011 SCT019 BKN060 M02/M04 A2986 RMK AO2 SLP109 T10221039 51011 $","updated":"2026-01-19T09:32:57Z"}
