{"icao":"KLAX","metar":"KLAX 141053Z 00000KT 10SM FEW200 16/09 A2990 RMK AO2 SLP121 T01560094","updated":"2026-03-14T11:22:46Z"}
