{"icao":"LPHR","metar":"LPHR 182100Z 18004KT 130V240 9999 FEW007 SCT012 BKN030 15/14 Q1024","updated":"2026-02-18T21:33:55Z"}
