{"icao":"LPBJ","metar":"LPBJ 121700Z 33019KT CAVOK 16/03 Q1017","updated":"2026-04-12T17:33:03Z"}
