{"icao":"KLAX","metar":"KLAX 291327Z 26006KT 1/2SM R25L/2800VP6000FT FG OVC002 15/15 A2989 RMK AO2 T01500150","updated":"2026-03-29T13:52:53Z"}
