{"icao":"KLAX","metar":"KLAX 041353Z 13004KT 10SM FEW190 FEW240 SCT290 15/09 A3001 RMK AO2 SLP159 T01500089 $","updated":"2026-04-04T14:32:44Z"}
