{"icao":"KJFK","metar":"KJFK 170251Z 19010KT 10SM SCT090 BKN130 BKN250 16/11 A2995 RMK AO2 SLP141 T01610106 50003","updated":"2026-05-17T02:56:10Z"}
