{"icao":"LPBJ","metar":"LPBJ 020500Z 34005KT 9999 FEW040 14/13 Q1023","updated":"2025-11-02T05:17:10Z"}
