{"icao":"LPHR","metar":"LPHR 111600Z 25008KT 220V280 9999 FEW016 22/17 Q1019","updated":"2025-10-11T16:18:45Z"}
