{"icao":"LPCS","metar":"LPCS 162200Z 05004KT CAVOK 16/07 Q1016","updated":"2026-03-17T02:01:33Z"}
