{"icao":"KORD","metar":"KORD 222051Z 26021G32KT 10SM SCT047 M06/M16 A3016 RMK AO2 PK WND 25033/2028 SLP224 T10561161 55005 $","updated":"2026-01-22T21:21:28Z"}
