{"icao":"LPFR","metar":"LPFR 092200Z 27004KT CAVOK 18/16 Q1019","updated":"2025-10-09T22:15:36Z"}
