{"icao":"LPPD","metar":"LPPD 242300Z 04010KT 010V070 9999 FEW018 BKN025 14/09 Q1030","updated":"2026-03-24T23:30:53Z"}
