{"icao":"KJFK","metar":"KJFK 230451Z 02003KT 10SM BKN060 OVC070 09/07 A3000 RMK RAE01B20E36 SLP158 P0000 T00890072 40111072 ","updated":"2026-04-23T05:29:04Z"}
