{"icao":"LPPT","metar":"LPPT 241800Z 27009KT 240V300 7000 -RADZ FEW004 BKN012 16/15 Q1017 RERA","updated":"2025-11-24T18:28:06Z"}
