{"icao":"LPMR","metar":"LPMR 061000Z 13009KT 9999 FEW028 SCT045 22/06 Q1016","updated":"2026-04-06T10:54:56Z"}
