{"icao":"LPST","metar":"LPST 031200Z 06009KT 030V090 9999 FEW025 17/10 Q1012","updated":"2026-03-03T12:55:28Z"}
