{"icao":"KJFK","metar":"KJFK 211751Z 36011G18KT 10SM FEW033 FEW060 SCT190 13/03 A2991 RMK AO2 SLP127 T01280033 10133 20094 53005","updated":"2026-03-21T18:35:03Z"}
