{"icao":"LPBJ","metar":"LPBJ 220200Z 07005KT CAVOK 05/01 Q1029","updated":"2025-11-22T03:02:51Z"}
