{"icao":"KORD","metar":"KORD 031551Z 30003KT 10SM BKN080 OVC100 M06/M14 A3010 RMK AO2 SLP203 VIRGA T10561144 $","updated":"2026-01-03T16:23:50Z"}
