{"icao":"LPPD","metar":"LPPD 191900Z 03009KT 350V060 9999 FEW025 21/11 Q1024","updated":"2025-09-19T19:13:33Z"}
