{"icao":"KJFK","metar":"KJFK 071551Z 31025G40KT 10SM FEW035 BKN050 BKN095 M11/M21 A2972 RMK AO2 PK WND 31043/1530 SLP062 T11111211 $","updated":"2026-02-07T16:29:29Z"}
