{"icao":"LPMT","metar":"LPMT 031800Z 27008KT CAVOK 22/09 Q1021","updated":"2026-04-03T18:44:42Z"}
