{"icao":"LPPS","metar":"LPPS 230500Z 34014KT 9999 SCT012 BKN030 16/15 Q1016","updated":"2026-01-23T05:26:29Z"}
