{"icao":"KJFK","metar":"KJFK 152051Z 32015G22KT 10SM SCT060 SCT250 24/09 A2971 RMK AO2 SLP061 T02440094 56000","updated":"2026-06-15T21:41:10Z"}
