{"icao":"LPBJ","metar":"LPBJ 180800Z 08003KT CAVOK 21/12 Q1020","updated":"2025-09-18T08:22:06Z"}
