{"icao":"LPMA","metar":"LPMA 181130Z 02008KT 340V040 9999 BKN013 FEW018CB 15/07 Q1000","updated":"2026-03-18T11:44:04Z"}
