{"icao":"LPPS","metar":"LPPS 201900Z 21007KT 9999 FEW015 23/17 Q1018","updated":"2026-06-20T19:24:03Z"}
