{"icao":"LPMA","metar":"LPMA 251900Z 02007KT 340V050 9999 -DZ BKN014 19/16 Q1023","updated":"2025-11-25T19:16:41Z"}
