{"icao":"LPBJ","metar":"LPBJ 181200Z 13009KT 110V170 CAVOK 27/07 Q1017","updated":"2026-04-18T13:00:00Z"}
