{"icao":"KORD","metar":"KORD 070951Z 26007KT 7SM OVC006 03/01 A2982 RMK AO2 SLP104 T00280011","updated":"2026-01-07T10:23:41Z"}
