{"icao":"KJFK","metar":"KJFK 271451Z 28015G28KT 10SM FEW050 BKN230 07/M05 A2994 RMK AO2 PK WND 27028/1445 SLP138 T00721050 51003","updated":"2025-11-27T15:19:22Z"}
