{"icao":"KLAX","metar":"KLAX 052153Z 27013KT 10SM BKN250 23/11 A2999 RMK AO2 SLP153 T02280106 $","updated":"2026-04-05T22:29:37Z"}
