{"icao":"LPCS","metar":"LPCS 041800Z 33013KT 290V360 9999 FEW030 16/08 Q1017","updated":"2026-05-04T18:12:59Z"}
