{"icao":"LPFL","metar":"LPFL 201400Z 28017G31KT 220V010 9999 FEW016 18/12 Q1022","updated":"2026-01-20T14:29:46Z"}
