{"icao":"KORD","metar":"KORD 080451Z 10008KT 10SM BKN130 BKN250 01/M03 A3035 RMK AO2 SLP284 T00111033 $","updated":"2026-04-08T05:09:57Z"}
