{"icao":"KJFK","metar":"KJFK 230651Z 00000KT 10SM FEW250 02/M03 A3006 RMK AO2 SLP178 T00221028","updated":"2025-11-23T07:17:06Z"}
