{"icao":"KLAX","metar":"KLAX 151253Z 05008KT 5SM BR FEW020 OVC065 17/16 A2978 RMK AO2 LTG DSNT SW SLP082 T01720161 $","updated":"2025-11-15T13:23:38Z"}
