{"icao":"LPMA","metar":"LPMA 110430Z 35016G27KT 300V020 9999 SCT014 16/10 Q1020","updated":"2026-04-11T04:53:42Z"}
