{"icao":"LPAZ","metar":"LPAZ 232300Z 02010KT 9999 FEW010 SCT017 BKN022 19/17 Q1023","updated":"2025-09-23T23:14:50Z"}
