{"icao":"LPBJ","metar":"LPBJ 021800Z 32005KT CAVOK 17/09 Q1024","updated":"2025-11-02T18:21:49Z"}
