{"icao":"LPFL","metar":"LPFL 190900Z 19007KT 120V260 9999 VCSH SCT025 14/11 Q1028","updated":"2025-12-19T09:23:21Z"}
