{"icao":"LPPS","metar":"LPPS 170830Z 04013KT 010V070 9999 FEW015 BKN030 16/11 Q1024","updated":"2026-05-17T09:03:43Z"}
