{"icao":"LPFL","metar":"LPFL 131900Z 33010G25KT 280V010 9999 SCT020 15/08 Q1009","updated":"2025-11-14T04:21:48Z"}
