{"icao":"LPPT","metar":"LPPT 141400Z 25009KT 220V280 2000 DZRA BR SCT002 BKN006 13/13 Q1018","updated":"2026-03-14T14:26:55Z"}
