{"icao":"LPPS","metar":"LPPS 112100Z 02010KT 9999 BKN015 19/15 Q1020","updated":"2026-06-11T21:23:41Z"}
