{"icao":"LPCS","metar":"LPCS 121400Z VRB05KT 9999 FEW045 27/13 Q1016","updated":"2025-10-12T14:14:12Z"}
