{"icao":"LPBJ","metar":"LPBJ 041500Z 02013KT 9999 FEW025 16/10 Q1000","updated":"2026-01-04T15:18:04Z"}
