{"icao":"LPPS","metar":"LPPS 221600Z 14006KT 100V170 9999 FEW015 24/19 Q1020","updated":"2025-10-22T16:24:28Z"}
