{"icao":"LPPT","metar":"LPPT 011500Z 22010KT 2700 -RADZ BR SCT002 BKN003 15/15 Q1010","updated":"2026-02-01T15:23:33Z"}
