{"icao":"LPMT","metar":"LPMT 311200Z 02004KT 350V050 0200 FG VV002 07/07 Q1019","updated":"2025-12-31T12:40:34Z"}
