{"icao":"LPPT","metar":"LPPT 091900Z 25004KT CAVOK 15/12 Q1020","updated":"2025-11-09T19:12:33Z"}
