{"icao":"KLAX","metar":"KLAX 121953Z 29003KT 10SM FEW160 FEW250 22/01 A3017 RMK AO2 SLP218 T02220006 $","updated":"2026-01-12T20:24:15Z"}
