{"icao":"KORD","metar":"KORD 240451Z 21003KT 10SM CLR 04/M03 A3014 RMK AO2 SLP212 T00391028","updated":"2025-11-24T05:20:18Z"}
