{"icao":"LPMT","metar":"LPMT 301500Z 22008KT 190V260 9999 FEW030 21/14 Q1013","updated":"2025-10-30T15:20:01Z"}
