{"icao":"KJFK","metar":"KJFK 222151Z 25009KT 10SM FEW050 SCT250 01/M07 A3046 RMK AO2 SLP314 T00111067 $","updated":"2025-12-22T22:19:11Z"}
