{"icao":"LPST","metar":"LPST 081600Z 33016KT 9999 SCT018 19/12 Q1022","updated":"2025-10-09T05:17:18Z"}
