{"icao":"KJFK","metar":"KJFK 261451Z 35008KT 10SM SCT013 OVC018 M06/M09 A2981 RMK AO2 SLP093 60000 T10611089 53003 $","updated":"2026-01-26T15:28:21Z"}
