{"icao":"LPCS","metar":"LPCS 121230Z 04009KT 4000 SHRA FEW006 SCT010 BKN018 FEW020CB 12/12 Q1012","updated":"2025-12-12T12:40:53Z"}
