{"icao":"LPMA","metar":"LPMA 131600Z 15005KT 100V220 9999 SCT015 22/16 Q1021","updated":"2026-06-13T16:22:06Z"}
