{"icao":"LPMA","metar":"LPMA 100300Z 35005KT 300V010 9999 SCT015 14/10 Q1031","updated":"2026-01-10T03:22:34Z"}
