{"icao":"KLAX","metar":"KLAX 240453Z 00000KT 10SM FEW010 17/15 A3013 RMK AO2 SLP202 T01670150","updated":"2025-11-24T05:20:17Z"}
