{"icao":"LPST","metar":"LPST 051600Z 26020G30KT 9999 SCT016 BKN025 15/11 Q0998","updated":"2026-02-05T16:45:35Z"}
