{"icao":"KJFK","metar":"KJFK 110651Z 25013KT 10SM FEW060 SCT100 04/02 A2941 RMK AO2 SLP959 T00390022","updated":"2025-12-11T07:23:12Z"}
