{"icao":"LPST","metar":"LPST 041300Z 26010KT 240V300 4000 -RADZ BR FEW002 BKN005 BKN011 14/13 Q0998","updated":"2026-02-04T14:03:47Z"}
