{"icao":"KORD","metar":"KORD 180551Z 14003KT 9SM OVC200 02/M01 A2977 RMK AO2 SLP085 T00221006 10028 20011 400610006 56025","updated":"2025-12-18T06:31:23Z"}
