{"icao":"LPBJ","metar":"LPBJ 021100Z 12007KT 090V150 9999 OVC030 13/09 Q1012","updated":"2026-03-02T11:30:58Z"}
