{"icao":"KLAX","metar":"KLAX 120953Z 01005KT 10SM FEW250 13/M01 A3021 RMK AO2 SLP227 T01331011 $","updated":"2026-01-12T10:24:25Z"}
