{"icao":"KORD","metar":"KORD 240251Z 33010KT 10SM FEW250 M23/M32 A3074 RMK AO2 SLP433 T12281322 51003","updated":"2026-01-24T03:25:30Z"}
