{"icao":"LPLA","metar":"LPLA 142100Z 20009KT 180V260 9999 SCT025 SCT040 20/15 Q1004","updated":"2025-10-14T21:15:19Z"}
