{"icao":"LPCS","metar":"LPCS 281300Z 16012KT 2000 +SHRA FEW004 SCT015 FEW018CB BKN020 19/19 Q1012","updated":"2025-10-28T13:29:16Z"}
