{"icao":"KORD","metar":"KORD 062251Z 15004KT 10SM SCT055 BKN070 BKN100 BKN250 23/16 A3000 RMK AO2 RAB38E49 TSB01E31 SLP156 P0000 T02330161 $","updated":"2025-10-06T23:15:44Z"}
