{"icao":"KJFK","metar":"KJFK 262251Z 19007KT 10SM FEW035 FEW100 SCT230 BKN250 24/19 A3001 RMK SLP162 T02390194 $ ","updated":"2026-06-26T23:06:08Z"}
