{"icao":"LPPS","metar":"LPPS 221100Z 18013KT 9999 FEW015 18/10 Q1014","updated":"2026-04-22T11:17:43Z"}
