{"icao":"LPAR","metar":"LPAR 131600Z 04010KT 010V070 CAVOK 18/11 Q1019","updated":"2025-12-13T19:14:07Z"}
