{"icao":"LPMT","metar":"LPMT 101100Z 23012KT 2500 -RADZ BR SCT002 BKN004 15/15 Q1017","updated":"2026-02-10T13:10:51Z"}
