{"icao":"LPFL","metar":"LPFL 131100Z 32010G20KT 250V010 9999 FEW027 15/08 Q1011","updated":"2025-11-13T11:17:10Z"}
