{"icao":"LPAR","metar":"LPAR 150900Z 15003KT 120V190 9999 BKN020 15/13 Q1025","updated":"2026-04-15T09:17:44Z"}
