{"icao":"LPMT","metar":"LPMT 251000Z VRB04KT CAVOK 20/11 Q1016","updated":"2026-04-25T10:41:47Z"}
