{"icao":"KJFK","metar":"KJFK 011351Z 28015G23KT 10SM FEW043 SCT060 BKN250 11/00 A2991 RMK AO2 SLP129 T01110000 $","updated":"2025-11-01T14:14:32Z"}
