{"icao":"KJFK","metar":"KJFK 081651Z 01021G29KT 10SM FEW050 BKN190 BKN220 M02/M22 A3026 RMK AO2 PK WND 02030/1600 SLP247 T10221222 $","updated":"2025-12-08T17:19:33Z"}
