{"icao":"LPCS","metar":"LPCS 211330Z 16008KT 130V200 9999 FEW022 SCT044 18/13 Q1009","updated":"2026-03-21T13:41:01Z"}
