{"icao":"LPLA","metar":"LPLA 301100Z 21013KT 160V230 9999 SCT006 BKN015 20/18 Q1023","updated":"2026-05-30T11:18:48Z"}
