{"icao":"LPPR","metar":"LPPR 100800Z 09009KT CAVOK 19/08 Q1022","updated":"2025-10-10T08:23:01Z"}
