{"icao":"LPPT","metar":"LPPT 160300Z 24006KT 9999 FEW015 SCT045 14/13 Q1011","updated":"2025-11-16T03:16:48Z"}
