{"icao":"LPMA","metar":"LPMA 130100Z 34011KT 300V010 9999 SCT015 17/08 Q1015","updated":"2026-01-13T01:28:29Z"}
