{"icao":"KLAX","metar":"KLAX 122053Z 25013KT 10SM FEW090 FEW160 SCT180 SCT250 17/09 A3010 RMK AO2 SLP194 T01720094 58022","updated":"2026-02-12T21:32:34Z"}
