{"icao":"LPMR","metar":"LPMR 032000Z 35006KT 8000 OVC007 17/16 Q1024","updated":"2025-10-03T20:18:29Z"}
