{"icao":"LPPT","metar":"LPPT 231100Z 29007KT 260V320 9999 SCT015 15/12 Q1012","updated":"2025-12-23T11:17:42Z"}
