{"icao":"LPPR","metar":"LPPR 090700Z 09003KT 020V110 0600 R17/0800 FG BKN001 13/13 Q1021","updated":"2025-10-09T07:17:09Z"}
