{"icao":"LPCS","metar":"LPCS 121400Z 22010KT 190V260 9999 FEW015 SCT020 19/14 Q1019","updated":"2026-05-12T14:21:53Z"}
