{"icao":"LPOV","metar":"LPOV 261300Z 32007KT 290V350 9999 FEW009 15/11 Q1025","updated":"2026-02-26T13:03:18Z"}
