{"icao":"LPST","metar":"LPST 311400Z 20016KT 2500 -RA BR BKN009 BKN012 19/18 Q1012","updated":"2025-10-31T14:18:07Z"}
