{"icao":"KJFK","metar":"KJFK 130951Z 33010KT 10SM SCT200 SCT250 23/14 A2984 RMK SLP104 T02280144 $ ","updated":"2026-06-13T10:27:00Z"}
