{"icao":"LPAR","metar":"LPAR 231000Z 07006KT 040V110 CAVOK 13/09 Q1025","updated":"2026-02-23T10:49:45Z"}
