{"icao":"LPPT","metar":"LPPT 061100Z 27005KT 250V320 9999 -SHRA FEW014 FEW025CB SCT030 15/12 Q1019","updated":"2025-11-06T11:16:30Z"}
