{"icao":"KJFK","metar":"KJFK 272251Z 00000KT 10SM -RA FEW020 SCT045 BKN075 OVC130 22/17 A3001 RMK RAE16B46 SLP161 P0000 T02220172 ","updated":"2026-06-27T23:00:24Z"}
