{"icao":"LPPS","metar":"LPPS 210500Z 06015KT 030V090 9000 -SHRA BKN012 16/13 Q1024","updated":"2025-11-21T05:18:53Z"}
