{"icao":"LPAZ","metar":"LPAZ 200400Z 16013KT 9999 FEW006 15/15 Q1024","updated":"2026-02-20T04:21:28Z"}
