{"icao":"LPMT","metar":"LPMT 201800Z 05003KT CAVOK 15/09 Q1028","updated":"2026-02-20T18:45:02Z"}
