{"icao":"LPPD","metar":"LPPD 182100Z 36021G36KT 330V030 9999 -SHRA FEW020 FEW025CB BKN030 09/04 Q1006","updated":"2026-03-18T21:33:06Z"}
