{"icao":"LPMR","metar":"LPMR 081900Z 18014KT 9999 FEW020 16/12 Q1018","updated":"2025-12-08T19:16:16Z"}
