{"icao":"KJFK","metar":"KJFK 151251Z 01005KT 10SM FEW060 SCT150 BKN210 BKN250 05/M02 A2990 RMK AO2 SLP126 T00501017","updated":"2025-11-15T13:23:38Z"}
