{"icao":"LPST","metar":"LPST 131000Z 35008KT 320V020 9999 FEW012 12/10 Q1022","updated":"2026-04-13T10:43:37Z"}
