{"icao":"LPMA","metar":"LPMA 200400Z 32004KT 290V350 9999 BKN015 18/13 Q1018","updated":"2025-11-20T04:21:00Z"}
