{"icao":"LPMR","metar":"LPMR 312200Z 13005KT CAVOK 10/06 Q1017","updated":"2025-12-31T22:19:15Z"}
