{"icao":"LPLA","metar":"LPLA 101200Z 19028G41KT 4000 RA BR FEW008 BKN012 BKN018 17/16 Q1016 RERA","updated":"2025-12-10T12:41:10Z"}
