{"icao":"LPST","metar":"LPST 211500Z 28017KT 8000 FEW008 BKN015 15/13 Q1005","updated":"2026-01-21T15:30:33Z"}
