{"icao":"LPHR","metar":"LPHR 220730Z 19009KT 160V230 9999 SCT006 BKN009 17/16 Q1020","updated":"2026-02-22T07:34:42Z"}
