{"icao":"KORD","metar":"KORD 060751Z 27005KT 10SM SCT250 05/M04 A3023 RMK AO2 SLP239 T00501039","updated":"2025-11-06T08:25:36Z"}
