{"icao":"LPBJ","metar":"LPBJ 070300Z 29007KT CAVOK 08/06 Q1016","updated":"2026-03-07T03:59:48Z"}
