{"icao":"LPPS","metar":"LPPS 251830Z 02012KT 350V050 9999 FEW015 18/11 Q1018","updated":"2026-04-25T18:51:03Z"}
