{"icao":"LPFR","metar":"LPFR 131000Z 16028KT 8000 -RA FEW015 FEW018CB BKN040 21/18 Q1005 RERA","updated":"2025-11-13T10:20:42Z"}
