{"icao":"LPMA","metar":"LPMA 080700Z 36006KT 310V030 9999 FEW015 15/10 Q1033","updated":"2026-01-08T07:23:40Z"}
