{"icao":"LPLA","metar":"LPLA 022000Z 09013KT 9999 FEW018 BKN025 16/11 Q1021","updated":"2026-05-02T20:39:57Z"}
