{"icao":"LPAZ","metar":"LPAZ 250800Z 24020G30KT 9999 SCT011 BKN013 17/15 Q1020","updated":"2026-01-25T08:26:32Z"}
