{"icao":"LPOV","metar":"LPOV 231100Z 05004KT 360V100 9999 SCT025 18/13 Q1020","updated":"2025-10-23T11:15:41Z"}
