{"icao":"LPFL","metar":"LPFL 051500Z 21020G34KT 180V240 6000 -DZRA FEW010 BKN016 17/13 Q1008","updated":"2026-04-05T15:31:40Z"}
