{"icao":"LPBJ","metar":"LPBJ 141231Z 10003KT 060V130 6000 VCFG SCT006 SCT020 12/11 Q1020","updated":"2026-01-14T12:43:15Z"}
