{"icao":"LPAZ","metar":"LPAZ 071000Z 30004KT 260V330 9999 FEW019 18/16 Q1013","updated":"2025-12-07T10:17:23Z"}
