{"icao":"LPPT","metar":"LPPT 230430Z 28008KT 250V310 9999 FEW020 SCT030 11/06 Q1004","updated":"2026-01-23T04:41:18Z"}
