{"icao":"KJFK","metar":"KJFK 220751Z 21010KT 10SM FEW070 OVC085 04/M03 A3004 RMK SLP173 T00391028 $ ","updated":"2026-01-22T08:30:45Z"}
