{"icao":"LPAR","metar":"LPAR 201600Z 27007KT 230V300 9999 FEW020 SCT035 15/09 Q1017","updated":"2026-01-20T16:34:32Z"}
