{"icao":"KLAX","metar":"KLAX 180053Z 22011KT 10SM FEW010 SCT150 OVC200 22/17 A2988 RMK AO2 PRESRR SLP116 T02170172","updated":"2025-09-18T01:16:41Z"}
