{"icao":"LPOV","metar":"LPOV 181200Z 31006KT CAVOK 19/13 Q1017","updated":"2026-04-18T12:59:58Z"}
