{"icao":"LPPR","metar":"LPPR 010900Z 20007KT 1900 0900S -DZ PRFG BKN002 OVC005 14/13 Q1011","updated":"2026-02-01T09:29:16Z"}
