{"icao":"KORD","metar":"KORD 180351Z 15013G22KT 7SM -RA OVC009 09/08 A2962 RMK AO2 SLP031 P0002 T00940078 $","updated":"2026-02-18T04:52:30Z"}
