{"icao":"LPOV","metar":"LPOV 260700Z 17005KT CAVOK M01/M01 Q1014","updated":"2025-12-26T07:20:27Z"}
