{"icao":"LPHR","metar":"LPHR 041000Z 07009KT 030V090 9999 SCT011 SCT025 15/11 Q1022","updated":"2026-01-04T10:19:33Z"}
