{"icao":"KLAX","metar":"KLAX 100953Z 02003KT 10SM CLR 18/16 A2983 RMK AO2 SLP098 T01830161","updated":"2026-06-10T09:56:59Z"}
