{"icao":"LPHR","metar":"LPHR 051500Z 19012KT 9999 SCT015 BKN030 22/21 Q1021","updated":"2025-10-05T15:15:13Z"}
