{"icao":"LPBJ","metar":"LPBJ 202200Z 33004KT CAVOK 08/05 Q1023","updated":"2025-11-20T22:17:02Z"}
