{"icao":"LPST","metar":"LPST 090900Z 33011KT 9999 SCT008 BKN010 16/14 Q1021","updated":"2025-10-09T09:18:30Z"}
