{"icao":"LPBJ","metar":"LPBJ 042300Z 31007KT CAVOK 18/15 Q1021","updated":"2025-10-04T23:15:19Z"}
