{"icao":"LPHR","metar":"LPHR 012100Z 33003KT 220V030 9999 FEW020 BKN040 16/09 Q1023","updated":"2025-11-02T01:27:40Z"}
