{"icao":"LPMT","metar":"LPMT 242300Z 25008KT 220V290 9999 FEW030 13/09 Q1016","updated":"2026-01-24T23:18:41Z"}
