{"icao":"LPBJ","metar":"LPBJ 271000Z 12005KT 070V150 CAVOK 24/14 Q1014","updated":"2026-04-27T11:02:31Z"}
