{"icao":"LPPR","metar":"LPPR 102130Z 20008KT 9999 FEW008 BKN015 BKN035 15/14 Q1015","updated":"2026-02-10T21:40:27Z"}
