{"icao":"LPMR","metar":"LPMR 121600Z 27009KT 240V300 9999 SCT026CB SCT028 20/13 Q1018 RETS","updated":"2026-05-12T17:09:08Z"}
