{"icao":"LPLA","metar":"LPLA 161400Z 19008KT 160V220 9999 SCT025 18/11 Q1019","updated":"2026-03-16T14:58:15Z"}
