{"icao":"LPPT","metar":"LPPT 240700Z 17009KT 140V200 9999 BKN012 12/10 Q1019","updated":"2026-02-24T07:06:55Z"}
