{"icao":"LPPT","metar":"LPPT 180100Z VRB01KT CAVOK 20/09 Q1020","updated":"2025-09-18T01:16:37Z"}
