{"icao":"LPST","metar":"LPST 101200Z 25007KT 230V300 9999 SCT016 18/14 Q1019","updated":"2025-11-10T12:38:35Z"}
