{"icao":"KLAX","metar":"KLAX 040853Z 00000KT 10SM FEW240 SCT290 17/14 A3003 RMK AO2 SLP168 T01670144 50001 $","updated":"2026-04-04T09:36:15Z"}
