{"icao":"KJFK","metar":"KJFK 150851Z 36008KT 10SM BKN046 15/12 A2999 RMK AO2 SLP154 T01500117 58010","updated":"2025-10-15T09:19:44Z"}
