{"icao":"LPST","metar":"LPST 160900Z 22004KT 200V260 9999 FEW008 SCT018 FEW022CB 10/08 Q1014","updated":"2026-01-16T10:22:23Z"}
