{"icao":"LPPD","metar":"LPPD 271700Z 02018G29KT 9999 SCT013 BKN030 18/14 Q1013","updated":"2025-10-27T17:15:42Z"}
