{"icao":"LPMT","metar":"LPMT 172100Z 34008KT CAVOK 22/15 Q1017","updated":"2026-06-17T21:09:54Z"}
