{"icao":"KLAX","metar":"KLAX 200853Z 00000KT 10SM FEW016 SCT028 SCT250 12/09 A3004 RMK AO2 SLP170 T01220089 55000 $","updated":"2025-11-20T09:20:12Z"}
