{"icao":"KLAX","metar":"KLAX 291453Z 04004KT 10SM FEW250 13/M03 A3018 RMK AO2 SLP217 T01281028 53013","updated":"2026-01-29T15:34:38Z"}
