{"icao":"LPPS","metar":"LPPS 082130Z 34023KT 9999 FEW014 SCT030 15/11 Q1018","updated":"2026-04-08T21:39:33Z"}
