{"icao":"LPLA","metar":"LPLA 162300Z 20009KT 170V230 9999 SCT023 BKN040 23/18 Q1020","updated":"2025-09-16T23:12:58Z"}
