{"icao":"LPPS","metar":"LPPS 222100Z 03003KT 010V080 9999 FEW014 15/12 Q1025","updated":"2026-02-22T21:22:57Z"}
