{"icao":"LPMA","metar":"LPMA 081400Z 03012KT 350V060 9999 SCT014 FEW015TCU 24/17 Q1022","updated":"2025-11-08T14:15:18Z"}
