{"icao":"LPPT","metar":"LPPT 281600Z 33015KT 300V360 9999 FEW036 26/14 Q1022","updated":"2026-06-28T16:08:31Z"}
