{"icao":"LPMT","metar":"LPMT 092100Z 20009KT 170V270 9999 FEW020 16/12 Q1009","updated":"2026-05-09T21:41:25Z"}
