{"icao":"LPGR","metar":"LPGR 261200Z 28008KT 250V330 9999 FEW018 20/12 Q1025","updated":"2026-06-26T12:09:35Z"}
