{"icao":"LPMR","metar":"LPMR 132000Z 16016KT 8000 -RA FEW020 SCT022CB BKN030 16/14 Q0996 RERA","updated":"2025-11-13T21:17:13Z"}
