{"icao":"LPPR","metar":"LPPR 030800Z VRB02KT 0700 R17/1000D FG OVC002 14/14 Q1023","updated":"2025-10-03T08:21:59Z"}
