{"icao":"LPHR","metar":"LPHR 162100Z 32008KT 280V350 9999 FEW016 BKN030 15/09 Q1035","updated":"2026-01-16T21:19:57Z"}
