{"icao":"KLAX","metar":"KLAX 151853Z 25005KT 10SM FEW019 SCT034 BKN060 BKN200 OVC240 16/10 A3004 RMK AO2 SLP170 T01610100 $","updated":"2026-02-15T19:24:05Z"}
