{"icao":"LPMA","metar":"LPMA 221000Z 02010KT 350V060 9999 SCT015 FEW018CB 22/16 Q1022","updated":"2025-09-22T10:20:15Z"}
