{"icao":"LPCS","metar":"LPCS 211100Z 25012KT 1500 -DZ BR BKN002 15/15 Q1008","updated":"2026-01-21T11:22:38Z"}
