{"icao":"LPLA","metar":"LPLA 201500Z 09009KT 050V110 9999 FEW025 BKN040 18/09 Q1030","updated":"2025-11-20T15:20:00Z"}
