{"icao":"LPMT","metar":"LPMT 012300Z 21007KT 180V240 9999 BKN020 14/11 Q1017","updated":"2025-12-01T23:17:55Z"}
