{"icao":"LPPR","metar":"LPPR 182200Z 09006KT CAVOK 17/08 Q1004","updated":"2026-03-18T22:31:10Z"}
