{"icao":"LPMT","metar":"LPMT 200700Z 06006KT 6000 SCT008 12/11 Q1012","updated":"2026-04-20T08:04:48Z"}
