{"icao":"LPPR","metar":"LPPR 280600Z 05004KT 010V110 CAVOK 09/04 Q1013","updated":"2025-12-28T06:29:37Z"}
