{"icao":"KORD","metar":"KORD 200851Z 17010KT 7SM -RA FEW050 BKN070 BKN110 OVC250 19/17 A3004 RMK AO2 TSE36 SLP168 OCNL LTGICCG S-NW CB DSNT S-NW MOV N P0005 60005 T01940167 51009","updated":"2025-09-20T09:16:23Z"}
