{"icao":"KORD","metar":"KORD 231051Z 27007KT 10SM FEW025 05/01 A3001 RMK AO2 SLP167 T00500011","updated":"2025-10-23T11:15:43Z"}
