{"icao":"KJFK","metar":"KJFK 031351Z VRB03KT 10SM BKN060 BKN250 M04/M12 A3019 RMK AO2 SLP223 T10441117 PNO $","updated":"2026-02-03T14:06:25Z"}
