{"icao":"LPFL","metar":"LPFL 102100Z 32019G30KT 270V360 9999 VCSH SCT025 17/12 Q1009","updated":"2025-11-10T23:17:15Z"}
