{"icao":"KJFK","metar":"KJFK 050551Z 36007KT 10SM SCT220 BKN250 M04/M11 A3017 RMK AO2 SLP217 4/005 6//// T10441111 11006 21044 58007 PNO $","updated":"2026-02-05T05:54:20Z"}
