{"icao":"KLAX","metar":"KLAX 242053Z 24009KT 10SM SCT090 BKN140 BKN200 22/09 A3003 RMK AO2 SLP167 T02170094 58014","updated":"2026-02-24T21:33:49Z"}
