{"icao":"LPFL","metar":"LPFL 061530Z VRB12G34KT 6000 -RA BKN014 FEW017TCU 17/13 Q1003","updated":"2026-02-06T15:38:37Z"}
