{"icao":"LPPS","metar":"LPPS 021730Z 29009KT 260V320 9999 FEW015 20/14 Q1019","updated":"2026-05-02T17:41:39Z"}
