{"icao":"LPCS","metar":"LPCS 221900Z 02005KT CAVOK 11/05 Q1029","updated":"2025-11-22T20:19:04Z"}
