{"icao":"LPMT","metar":"LPMT 222000Z 24017G27KT 6000 -RA BKN006 BKN014 15/15 Q1003","updated":"2026-01-22T20:26:24Z"}
