{"icao":"LPST","metar":"LPST 301400Z 18004KT 140V210 9999 FEW020 14/07 Q1020","updated":"2025-12-30T14:20:03Z"}
