{"icao":"LPPT","metar":"LPPT 252200Z 32009KT 9999 FEW012 13/12 Q1020","updated":"2026-02-25T22:32:08Z"}
