{"icao":"LPBJ","metar":"LPBJ 271500Z 31008KT 250V030 9999 FEW018 30/12 Q1019","updated":"2026-06-27T15:13:44Z"}
