{"icao":"KLAX","metar":"KLAX 131853Z 14012KT 10SM FEW025 BKN040 OVC048 21/11 A2977 RMK AO2 SLP079 T02110111 $","updated":"2025-10-13T19:13:26Z"}
