{"icao":"LPPD","metar":"LPPD 031230Z 26011KT 9999 SCT016 SCT030 20/16 Q1014","updated":"2025-11-03T12:38:52Z"}
