{"icao":"LPPT","metar":"LPPT 282300Z 32004KT 300V360 CAVOK 10/07 Q1017","updated":"2025-12-28T23:18:01Z"}
