{"icao":"KORD","metar":"KORD 190618Z 26010G18KT 6SM -SN SCT021 BKN034 OVC048 M08/M11 A2981 RMK AO2 P0000 T10781111 $","updated":"2026-01-19T06:36:51Z"}
