{"icao":"KJFK","metar":"KJFK 081751Z 21008KT 10SM FEW010 FEW040 SCT150 BKN230 13/11 A2978 RMK AO2 SLP082 T01280106 10133 20067 58013","updated":"2026-03-08T18:32:52Z"}
