{"icao":"LPPS","metar":"LPPS 291300Z 02014KT 9999 SCT015 BKN030 22/14 Q1022","updated":"2025-09-29T13:28:25Z"}
