{"icao":"KLAX","metar":"KLAX 050853Z 00000KT 9SM CLR 17/15 A2982 RMK AO2 SLP094 T01720150 53000 $","updated":"2025-10-05T09:15:45Z"}
