{"icao":"LPBJ","metar":"LPBJ 242200Z 25006KT CAVOK 08/05 Q1017","updated":"2026-01-24T22:18:40Z"}
