{"icao":"KJFK","metar":"KJFK 181851Z 31008KT 10SM FEW050 FEW080 BKN180 BKN210 BKN240 07/M06 A3012 RMK AO2 SLP200 T00721056 $","updated":"2025-11-18T19:15:53Z"}
