{"icao":"KLAX","metar":"KLAX 111053Z 00000KT 10SM FEW015 FEW250 13/11 A3020 RMK AO2 SLP226 T01330106 $","updated":"2026-03-11T11:32:40Z"}
