{"icao":"LPPR","metar":"LPPR 031500Z 10005KT 060V130 CAVOK 17/10 Q1000","updated":"2026-01-03T15:18:23Z"}
