{"icao":"LPPT","metar":"LPPT 171800Z 30014KT 9999 FEW035 24/16 Q1016","updated":"2026-06-17T18:13:45Z"}
