{"icao":"LPFR","metar":"LPFR 281300Z 11007KT CAVOK 17/05 Q1022","updated":"2025-11-28T13:29:18Z"}
