{"icao":"LPPD","metar":"LPPD 282000Z 24023KT 8000 FEW009 SCT015 BKN040 17/15 Q1008","updated":"2026-01-28T20:29:30Z"}
