{"icao":"KJFK","metar":"KJFK 092251Z 17014KT 10SM SCT006 BKN033 OVC047 08/07 A3008 RMK AO2 RAE2159 SLP186 P0000 T00780067 $","updated":"2026-01-09T23:19:05Z"}
