{"icao":"LPPT","metar":"LPPT 271030Z 35006KT 320V030 9999 FEW015 14/11 Q1025","updated":"2026-02-27T10:36:01Z"}
