{"icao":"KORD","metar":"KORD 251951Z 05011G19KT 10SM FEW008 FEW030 FEW250 12/06 A2999 RMK AO2 SLP158 T01170061","updated":"2026-04-25T20:37:43Z"}
