{"icao":"LPAZ","metar":"LPAZ 130230Z 23009KT 9999 FEW020 BKN030 14/10 Q1027","updated":"2026-04-13T02:34:45Z"}
