{"icao":"LPPS","metar":"LPPS 251130Z 03010KT 350V070 9999 FEW015 20/12 Q1019","updated":"2026-04-25T11:36:55Z"}
