{"icao":"KJFK","metar":"KJFK 180351Z 22004KT 5SM BR FEW010 BKN150 BKN250 M01/M02 A3012 RMK AO2 SLP200 T10111022 $","updated":"2026-01-18T04:40:33Z"}
