{"icao":"LPPD","metar":"LPPD 302100Z 18010KT 9999 SCT003 BKN006 15/15 Q1019","updated":"2026-01-30T21:26:59Z"}
