{"icao":"LPOV","metar":"LPOV 141500Z 31011KT 1200 -DZ BR OVC003 14/14 Q1014","updated":"2026-03-14T15:27:14Z"}
