{"icao":"LPMA","metar":"LPMA 270330Z 35007KT 300V020 9999 SCT016 BKN033 19/12 Q1019","updated":"2026-05-27T03:39:41Z"}
