{"icao":"LPPS","metar":"LPPS 011700Z 05009KT 360V090 9999 FEW015 23/16 Q1020","updated":"2025-10-01T17:15:46Z"}
