{"icao":"LPPD","metar":"LPPD 261900Z 16007G22KT 060V190 9999 FEW008 SCT012 BKN030 18/16 Q1023","updated":"2025-11-26T19:14:29Z"}
