{"icao":"LPPT","metar":"LPPT 241700Z 31006KT 280V350 CAVOK 27/03 Q1016","updated":"2025-09-24T17:15:34Z"}
