{"icao":"LPAZ","metar":"LPAZ 170900Z 32004KT 290V350 9999 FEW018 20/18 Q1013","updated":"2025-10-17T09:19:50Z"}
