{"icao":"KORD","metar":"KORD 081651Z 14009KT 10SM FEW012 FEW070 M03/M09 A3035 RMK AO2 SLP287 T10281089 $","updated":"2026-02-08T17:25:34Z"}
