{"icao":"LPPR","metar":"LPPR 260700Z 21012KT 4500 RA BR BKN003 14/14 Q1007","updated":"2026-01-26T07:26:46Z"}
