{"icao":"LPPR","metar":"LPPR 061630Z 35015KT CAVOK 14/04 Q1018","updated":"2026-03-06T16:39:21Z"}
