{"icao":"LPOV","metar":"LPOV 020800Z 19005KT 130V210 6000 -RA FEW005 BKN039 14/14 Q1017","updated":"2026-05-02T09:04:39Z"}
