{"icao":"KORD","metar":"KORD 191651Z 31013G19KT 10SM FEW025 FEW220 M09/M17 A2992 RMK AO2 SLP142 T10941172","updated":"2025-12-19T17:18:01Z"}
