{"icao":"KJFK","metar":"KJFK 181051Z 29008KT 10SM FEW070 03/M07 A3011 RMK AO2 SLP195 T00331072 $","updated":"2025-11-18T11:17:49Z"}
