{"icao":"LPPS","metar":"LPPS 241630Z 36010KT 330V030 9999 FEW015 SCT033 19/12 Q1019","updated":"2026-04-24T16:54:27Z"}
