{"icao":"LPMT","metar":"LPMT 081000Z 34008KT 300V030 9999 FEW020 23/13 Q1023","updated":"2026-06-08T10:51:01Z"}
