{"icao":"LPHR","metar":"LPHR 081330Z 05010KT 010V070 9999 FEW016 SCT035 17/11 Q1017 WS R28","updated":"2026-05-08T13:44:16Z"}
