{"icao":"KLAX","metar":"KLAX 170853Z 08005KT 10SM CLR 16/12 A2983 RMK AO2 SLP098 T01560122 58011","updated":"2026-05-17T09:03:43Z"}
