{"icao":"KJFK","metar":"KJFK 031951Z 31007KT 10SM SCT140 BKN180 BKN250 M02/M13 A2997 RMK AO2 SLP147 T10171128 $","updated":"2026-01-03T20:21:09Z"}
