{"icao":"LPMT","metar":"LPMT 131800Z 26012KT CAVOK 24/18 Q1016","updated":"2026-06-13T18:05:47Z"}
