{"icao":"LPMT","metar":"LPMT 021400Z 01006KT 320V040 CAVOK 24/10 Q1020","updated":"2026-04-02T14:54:14Z"}
