{"icao":"LPHR","metar":"LPHR 231230Z 18006KT 9999 FEW009 23/21 Q1015","updated":"2025-10-23T12:38:55Z"}
