{"icao":"LPBJ","metar":"LPBJ 040100Z 26017KT 4000 -DZRA BR BKN006 OVC014 15/14 Q0995","updated":"2026-02-04T01:57:50Z"}
