{"icao":"LPMR","metar":"LPMR 301200Z 13003KT 100V180 9999 FEW020 13/08 Q1021","updated":"2025-12-30T12:41:30Z"}
