{"icao":"LPMA","metar":"LPMA 241930Z 03018G31KT 350V050 9999 FEW015 19/14 Q1019","updated":"2026-05-24T20:03:32Z"}
