{"icao":"KLAX","metar":"KLAX 041853Z VRB03KT 10SM SCT030 23/12 A2992 RMK AO2 SLP130 T02280122 $","updated":"2025-10-04T19:11:53Z"}
