{"icao":"KLAX","metar":"KLAX 080853Z VRB05KT 10SM CLR 21/M09 A2995 RMK AO2 SLP139 T02061094 56009 $","updated":"2026-03-08T09:28:00Z"}
