{"icao":"LPOV","metar":"LPOV 241500Z 04007KT 010V070 9999 FEW030 15/06 Q1010","updated":"2025-12-24T15:20:10Z"}
