{"icao":"LPMR","metar":"LPMR 230200Z 26008KT 230V290 9999 SCT007 BKN015 BKN025 20/19 Q1019","updated":"2025-10-23T03:02:18Z"}
