{"icao":"LPFL","metar":"LPFL 311000Z VRB09KT 9000 -DZ FEW011 BKN017 17/14 Q1012","updated":"2026-01-31T10:23:20Z"}
