{"icao":"LPMA","metar":"LPMA 241400Z 04014KT 9999 FEW016 21/14 Q1024","updated":"2025-11-24T14:19:19Z"}
