{"icao":"LPHR","metar":"LPHR 181000Z 27012KT 6000 VCSH SCT003 BKN005 22/22 Q1014","updated":"2025-10-18T10:16:34Z"}
