{"icao":"LPHR","metar":"LPHR 090730Z 23017KT 2000 -DZ BR SCT001 BKN003 18/17 Q1008","updated":"2026-02-09T07:56:29Z"}
