{"icao":"LPBJ","metar":"LPBJ 071500Z 25022G33KT 8000 VCSH FEW018CB BKN027 15/10 Q1004","updated":"2026-02-07T15:23:29Z"}
