{"icao":"LPFR","metar":"LPFR 182100Z VRB02KT CAVOK 17/15 Q1016","updated":"2026-04-18T21:33:35Z"}
