{"icao":"KLAX","metar":"KLAX 041053Z 08005KT 10SM CLR 14/03 A3014 RMK AO2 SLP205 T01390033 $","updated":"2026-02-04T11:31:57Z"}
