{"icao":"LPPR","metar":"LPPR 051900Z 35005KT CAVOK 18/04 Q1019","updated":"2026-04-05T19:32:20Z"}
