{"icao":"LPCS","metar":"LPCS 211400Z 27009KT 240V300 9000 -DZ FEW003 BKN006 21/21 Q1015","updated":"2025-10-21T14:17:01Z"}
