{"icao":"KJFK","metar":"KJFK 310651Z 26014KT 10SM BKN060 BKN250 12/10 A2931 RMK AO2 PK WND 27026/0555 SLP923 T01220100","updated":"2025-10-31T07:17:09Z"}
