{"icao":"LPPD","metar":"LPPD 111030Z 03012KT 350V070 9999 VCSH FEW008 BKN014 SCT018CB 14/12 Q1019","updated":"2026-05-11T10:37:12Z"}
