{"icao":"LPMA","metar":"LPMA 191700Z VRB06KT 9999 FEW015 17/09 Q1026","updated":"2026-01-19T17:22:36Z"}
