{"icao":"KJFK","metar":"KJFK 132151Z 31017G24KT 10SM SCT065 BKN080 BKN100 10/M03 A2994 RMK AO2 PK WND 30030/2105 SLP137 VCSH NE T01001028","updated":"2025-11-13T22:18:04Z"}
