{"icao":"LPFL","metar":"LPFL 282100Z 26004KT 240V300 9999 SCT018 15/10 Q1023","updated":"2025-10-29T04:25:08Z"}
