{"icao":"KJFK","metar":"KJFK 070251Z 26010G18KT 10SM SCT060 BKN110 21/18 A2978 RMK AO2 RAE46 SLP086 P0000 60003 T02110178 58010 $","updated":"2026-06-07T03:45:53Z"}
