{"icao":"LPHR","metar":"LPHR 261230Z 02007KT 310V080 9999 BKN020 22/18 Q1014","updated":"2025-09-26T12:36:40Z"}
