{"icao":"KJFK","metar":"KJFK 190951Z 27012KT 10SM FEW011 BKN020 BKN060 M03/M06 A2989 RMK AO2 SLP121 T10331056 $","updated":"2026-01-19T10:27:51Z"}
