{"icao":"KJFK","metar":"KJFK 091151Z 15004KT 9SM FEW110 SCT150 BKN250 03/03 A3031 RMK AO2 SLP263 T00330028 10033 20000 58005 $","updated":"2026-01-09T12:42:22Z"}
