{"icao":"LPPD","metar":"LPPD 260930Z 16008KT 130V190 9999 FEW007 SCT011 BKN030 17/16 Q1020","updated":"2026-05-26T09:55:20Z"}
