{"icao":"LPPD","metar":"LPPD 021500Z 32018G31KT 280V360 9999 VCSH FEW018 FEW025TCU SCT030 14/09 Q1003 WS ALL RWY","updated":"2026-01-02T15:20:41Z"}
