{"icao":"KLAX","metar":"KLAX 311453Z 05006KT 10SM FEW090 SCT110 BKN150 OVC200 18/02 A3001 RMK AO2 SLP159 60000 T01830022 56013 $","updated":"2025-12-31T15:20:20Z"}
