{"icao":"LPFR","metar":"LPFR 161700Z 31011KT 9999 VCSH SCT010 FEW020CB 17/12 Q1013","updated":"2025-11-16T17:14:38Z"}
