{"icao":"LPPR","metar":"LPPR 101900Z 21008KT 9000 BKN007 BKN012 15/14 Q1013","updated":"2026-02-10T19:19:54Z"}
