{"icao":"LPPR","metar":"LPPR 100630Z 19013KT 4000 RA BR BKN003 FEW018TCU 14/14 Q1010 RESHRA","updated":"2026-02-10T07:02:17Z"}
