{"icao":"LPSJ","metar":"LPSJ 270900Z 30005KT 250V340 9999 FEW008 BKN016 18/15 Q1029 RMK WIND RWY13 30004KT 240V360 RWY31 30004KT 230V360","updated":"2025-12-29T07:24:54Z"}
