{"icao":"LPMT","metar":"LPMT 192200Z 34009KT CAVOK 21/15 Q1015","updated":"2026-06-19T22:58:45Z"}
