{"icao":"KORD","metar":"KORD 290551Z 09014KT 10SM SCT065 10/04 A3004 RMK AO2 SLP172 T01000039 10144 20100 401440083 58002","updated":"2025-10-29T06:29:25Z"}
