{"icao":"KORD","metar":"KORD 090817Z 34015KT 6SM -SN BR BKN008 BKN013 OVC024 01/00 A2987 RMK AO2 P0000 T00110000 $","updated":"2025-11-09T08:20:46Z"}
