{"icao":"KLAX","metar":"KLAX 270153Z 25012KT 10SM FEW028 FEW070 16/09 A2997 RMK AO2 SLP146 T01610089 $","updated":"2026-04-27T02:40:25Z"}
