{"icao":"LPBJ","metar":"LPBJ 150200Z 28006KT CAVOK 07/06 Q1030","updated":"2026-02-15T02:07:46Z"}
