{"icao":"KLAX","metar":"KLAX 270253Z 27010KT 10SM -RA FEW011 SCT018 BKN075 15/12 A3000 RMK AO2 RAE0155B53 SLP159 P0000 60005 T01500122 53004 $","updated":"2025-12-27T03:22:04Z"}
