{"icao":"KORD","metar":"KORD 162151Z 30012G20KT 10SM FEW250 09/M11 A2993 RMK AO2 SLP139 T00891106 $","updated":"2025-11-16T22:16:42Z"}
