{"icao":"LPPT","metar":"LPPT 182200Z 33010KT CAVOK 18/14 Q1015","updated":"2026-06-18T22:05:57Z"}
