{"icao":"LPMA","metar":"LPMA 271500Z 34011KT 310V010 9999 SCT016 FEW018TCU 18/07 Q1015","updated":"2025-12-27T15:18:21Z"}
