{"icao":"KLAX","metar":"KLAX 180453Z 00000KT 10SM BKN160 21/17 A2988 RMK AO2 SLP114 T02110172","updated":"2025-09-18T05:16:07Z"}
