{"icao":"LPMA","metar":"LPMA 211500Z 35006KT 280V090 9999 BKN015 19/12 Q1019","updated":"2025-12-21T15:18:19Z"}
