{"icao":"LPPR","metar":"LPPR 210530Z 00000KT CAVOK 12/11 Q1009","updated":"2026-03-21T05:39:32Z"}
