{"icao":"KJFK","metar":"KJFK 251325Z 17012KT 10SM OVC008 23/21 A2993 RMK AO2 T02280211","updated":"2025-09-25T13:28:32Z"}
