{"icao":"LPPR","metar":"LPPR 172030Z 23003KT 200V280 CAVOK 15/08 Q1008","updated":"2026-03-17T20:37:28Z"}
