{"icao":"LPCS","metar":"LPCS 161130Z 27010KT 240V300 9999 FEW015 15/10 Q1033","updated":"2026-02-16T11:38:59Z"}
