{"icao":"LPCS","metar":"LPCS 130700Z 29021G35KT 260V320 9999 FEW020 SCT028 13/10 Q1005","updated":"2026-02-13T07:08:40Z"}
