{"icao":"KLAX","metar":"KLAX 141453Z 09007KT 9SM -RA BKN033 BKN043 OVC070 16/14 A2998 RMK AO2 SLP150 P0001 60002 T01610139 53005","updated":"2025-11-14T15:17:14Z"}
