{"icao":"LPPR","metar":"LPPR 091730Z 21013KT 170V230 9999 SCT020 FEW025CB SCT028 17/12 Q1005","updated":"2026-05-09T17:49:58Z"}
