{"icao":"LPMR","metar":"LPMR 041000Z 10005KT CAVOK 23/07 Q1023","updated":"2026-04-04T10:31:51Z"}
