{"icao":"KLAX","metar":"KLAX 191553Z 26005KT 8SM FEW009 BKN040 OVC090 22/17 A2992 RMK AO2 SLP130 T02220172","updated":"2025-09-19T16:20:43Z"}
