{"icao":"LPPR","metar":"LPPR 120500Z 11009KT CAVOK 19/09 Q1017","updated":"2025-10-12T05:15:31Z"}
