{"icao":"LPBJ","metar":"LPBJ 251312Z 27011KT 3500 -RADZ SCT006 SCT010 19/18 Q1014","updated":"2025-10-25T13:21:36Z"}
