{"icao":"LPOV","metar":"LPOV 272100Z 16019G31KT 9000 -SHRA SCT009 BKN015 18/18 Q1006","updated":"2025-09-27T21:14:02Z"}
