{"icao":"KJFK","metar":"KJFK 230151Z 05009KT 9SM -RA OVC100 11/09 A2975 RMK AO2 SLP075 P0001 T01060089 $","updated":"2026-03-23T02:08:10Z"}
