{"icao":"LPPT","metar":"LPPT 140200Z 29006KT 230V320 9999 -RA SCT008 SCT015 13/13 Q1022","updated":"2026-04-14T02:28:33Z"}
