{"icao":"LPPD","metar":"LPPD 210700Z 23013KT 9000 SCT005 BKN008 23/22 Q1015","updated":"2025-10-21T07:18:31Z"}
