{"icao":"LPFL","metar":"LPFL 241700Z 20011KT 170V290 9999 FEW011 SCT015 18/13 Q1006","updated":"2026-04-24T21:45:40Z"}
