{"icao":"KJFK","metar":"KJFK 062251Z 06007KT 8SM BKN014 BKN140 OVC250 04/02 A2984 RMK AO2 SLP102 T00390017 $","updated":"2026-01-06T23:19:27Z"}
