{"icao":"LPMA","metar":"LPMA 122300Z 29004KT 240V360 9999 BKN015 16/10 Q1023","updated":"2026-02-12T23:28:00Z"}
