{"icao":"KJFK","metar":"KJFK 131851Z 04019G28KT 6SM -DZ BR FEW007 OVC012 15/14 A2989 RMK AO2 PK WND 05034/1809 RAE44DZB49 SLP123 P0000 T01500139","updated":"2025-10-13T19:13:15Z"}
