{"icao":"KJFK","metar":"KJFK 160651Z 05012KT 2SM -SN BR BKN010 OVC019 M01/M01 A3006 RMK AO2 SLP179 P0003 T10061011 $","updated":"2026-02-16T07:53:43Z"}
