{"icao":"LPSJ","metar":"LPSJ 161530Z VRB06KT 9999 FEW014 BKN020 23/18 Q1017","updated":"2026-06-17T06:09:18Z"}
