{"icao":"LPOV","metar":"LPOV 280600Z 03010KT 360V060 9999 FEW020 BKN042 19/17 Q1006","updated":"2025-09-28T06:24:23Z"}
