{"icao":"LPMA","metar":"LPMA 041100Z 03010KT 350V050 9999 SCT015 24/17 Q1027","updated":"2025-10-04T11:12:40Z"}
