{"icao":"LPPS","metar":"LPPS 212100Z 34005KT 9999 FEW013 22/21 Q1021","updated":"2025-10-21T21:16:56Z"}
