{"icao":"LPPR","metar":"LPPR 011230Z 32015KT 290V350 9999 FEW012 19/15 Q1020","updated":"2026-06-01T12:35:04Z"}
