{"icao":"LPPD","metar":"LPPD 150900Z 04010KT 360V070 9999 SCT011 BKN030 15/12 Q1029","updated":"2026-03-15T09:32:50Z"}
