{"icao":"LPFL","metar":"LPFL 141600Z VRB04KT 6000 2000N -DZ SCT007 BKN012 17/14 Q1018","updated":"2026-01-14T16:28:55Z"}
