{"icao":"LPMT","metar":"LPMT 212000Z 28009KT 260V320 9999 FEW020 SCT030 14/09 Q1006","updated":"2026-01-21T20:28:48Z"}
