{"icao":"KLAX","metar":"KLAX 150738Z 22003KT 10SM FEW008 FEW012 16/12 A3003 RMK AO2 T01560122","updated":"2026-04-15T07:43:40Z"}
