{"icao":"KORD","metar":"KORD 151351Z 22010G23KT 10SM FEW018 SCT170 BKN250 16/13 A2954 RMK AO2 SLP003 T01560128 $","updated":"2025-11-15T14:15:59Z"}
