{"icao":"LPOV","metar":"LPOV 172000Z 24004KT CAVOK 13/10 Q1007","updated":"2026-03-17T20:37:28Z"}
