{"icao":"LPPT","metar":"LPPT 062100Z 33015KT CAVOK 11/07 Q1018 WS R02","updated":"2026-03-06T21:28:01Z"}
