{"icao":"LPAZ","metar":"LPAZ 052100Z 22016KT 9999 FEW031 19/13 Q1018","updated":"2025-11-05T21:17:22Z"}
