{"icao":"KJFK","metar":"KJFK 142251Z 20006KT 10SM FEW030 BKN110 BKN250 22/18 A3006 RMK AO2 SLP178 T02170178 $","updated":"2025-09-14T23:14:30Z"}
