{"icao":"LPHR","metar":"LPHR 032000Z 26021KT 9000 -RA SCT012 BKN020 17/16 Q1000","updated":"2026-02-03T20:34:29Z"}
