{"icao":"LPAZ","metar":"LPAZ 301230Z 18013KT 9999 FEW016 SCT020 BKN048 24/19 Q1023","updated":"2025-09-30T12:38:26Z"}
