{"icao":"KLAX","metar":"KLAX 281053Z 06003KT 10SM FEW200 13/09 A3003 RMK AO2 SLP167 T01280089 $","updated":"2026-04-28T11:04:10Z"}
