{"icao":"LPST","metar":"LPST 291000Z 10003KT 020V140 8000 BKN005 17/16 Q1007","updated":"2025-10-29T10:20:22Z"}
