{"icao":"LPMR","metar":"LPMR 270700Z 15002KT 5000 BR NSC 04/03 Q1024","updated":"2025-11-27T07:19:42Z"}
