{"icao":"LPLA","metar":"LPLA 252200Z 16009KT 9999 FEW012 18/16 Q1021","updated":"2026-05-25T22:07:00Z"}
