{"icao":"KORD","metar":"KORD 052251Z 20011KT 10SM FEW075 BKN100 M02/M11 A2978 RMK AO2 SLP095 T10221106","updated":"2025-12-05T23:17:51Z"}
