{"icao":"KLAX","metar":"KLAX 011153Z 00000KT 10SM FEW011 OVC017 17/13 A2993 RMK AO2 SLP133 T01670128 10167 20156 55001","updated":"2026-05-01T11:58:29Z"}
