{"icao":"KLAX","metar":"KLAX 221012Z 07004KT 9SM FEW009 OVC014 16/13 A2985 RMK AO2 T01610128 $","updated":"2026-05-22T10:48:54Z"}
