{"icao":"LPFR","metar":"LPFR 151100Z 32011KT 280V340 CAVOK 15/09 Q1032","updated":"2026-02-15T11:21:17Z"}
