{"icao":"LPCS","metar":"LPCS 111900Z 03010KT CAVOK 22/11 Q1017","updated":"2025-10-11T19:12:10Z"}
