{"icao":"LPFR","metar":"LPFR 270800Z 03004KT 350V060 CAVOK 11/01 Q1023","updated":"2025-11-27T08:26:57Z"}
