{"icao":"LPFL","metar":"LPFL 161500Z 19020G34KT 160V230 1500 +DZ FEW008 BKN010 19/17 Q1018","updated":"2025-12-16T15:23:04Z"}
