{"icao":"LPOV","metar":"LPOV 091600Z 35020KT 9999 FEW004 18/15 Q1014","updated":"2026-04-09T17:06:02Z"}
