{"icao":"LPPR","metar":"LPPR 150100Z 20014KT 9000 TSRA FEW020 FEW025CB SCT033 13/11 Q1004 RERA","updated":"2025-11-15T01:21:40Z"}
