{"icao":"LPPT","metar":"LPPT 222100Z 27015KT 240V320 9999 FEW008 SCT012 15/14 Q1003","updated":"2026-01-22T21:21:24Z"}
