{"icao":"LPAR","metar":"LPAR 191900Z 36010KT 320V030 CAVOK 25/11 Q1014","updated":"2026-06-19T19:48:49Z"}
