{"icao":"LPMT","metar":"LPMT 261200Z 36007KT 330V030 CAVOK 21/16 Q1018","updated":"2025-10-26T12:33:28Z"}
