{"icao":"LPPR","metar":"LPPR 261800Z 35004KT CAVOK 12/09 Q1025","updated":"2025-11-26T18:23:38Z"}
