{"icao":"LPLA","metar":"LPLA 082207Z 17013KT 8000 -RA SCT007 BKN013 23/21 Q1022","updated":"2025-10-08T22:16:05Z"}
