{"icao":"LPFR","metar":"LPFR 290800Z 27005KT 240V330 4500 -TSRA FEW006 SCT012 SCT020CB 18/17 Q1005","updated":"2025-10-29T08:25:22Z"}
