{"icao":"KLAX","metar":"KLAX 081653Z VRB03KT 10SM CLR 21/06 A3020 RMK AO2 SLP227 T02110056 $","updated":"2026-02-08T17:25:33Z"}
