{"icao":"LPOV","metar":"LPOV 141500Z 33006KT 300V360 9999 FEW025 21/15 Q1017","updated":"2025-10-14T15:20:06Z"}
