{"icao":"LPOV","metar":"LPOV 140900Z 16003KT CAVOK 07/07 Q1021","updated":"2025-12-14T09:18:40Z"}
