{"icao":"LPHR","metar":"LPHR 191030Z 28012KT 250V320 9999 FEW014 17/13 Q1015","updated":"2026-04-19T10:37:36Z"}
