{"icao":"LPMT","metar":"LPMT 180400Z VRB01KT CAVOK 10/10 Q1018","updated":"2025-11-18T04:22:27Z"}
