{"icao":"LPFR","metar":"LPFR 050530Z 33006KT 290V020 CAVOK 13/08 Q1016","updated":"2026-05-05T05:41:46Z"}
