{"icao":"LPHR","metar":"LPHR 071130Z 31019KT 8000 VCSH SCT017 BKN033 15/10 Q1013","updated":"2026-05-07T11:45:38Z"}
