{"icao":"KORD","metar":"KORD 070251Z 18010G20KT 10SM OVC180 12/M02 A2982 RMK AO2 SLP099 T01221022 58033 $","updated":"2025-11-07T03:09:51Z"}
