{"icao":"LPPD","metar":"LPPD 280430Z VRB02KT 9999 FEW020 SCT045 12/09 Q1033","updated":"2026-02-28T04:54:42Z"}
