{"icao":"LPFR","metar":"LPFR 290400Z VRB02KT CAVOK 09/07 Q1020","updated":"2025-11-29T04:21:43Z"}
