{"icao":"LPST","metar":"LPST 141100Z 35010KT 310V010 9999 FEW008 SCT014 14/11 Q1020","updated":"2026-01-14T11:20:12Z"}
