{"icao":"LPPR","metar":"LPPR 201330Z 18011KT 3500 RADZ BR SCT009 BKN013 OVC025 10/09 Q1016","updated":"2026-01-20T13:45:40Z"}
