{"icao":"KLAX","metar":"KLAX 182253Z 25006KT 5SM HZ FEW006 FEW200 SCT250 19/15 A2992 RMK AO2 SLP131 T01940150 $","updated":"2025-12-18T23:19:17Z"}
