{"icao":"LPAZ","metar":"LPAZ 132030Z 21014KT 9999 FEW020 16/12 Q1023","updated":"2026-04-13T20:54:19Z"}
