{"icao":"KORD","metar":"KORD 120551Z 10005KT 10SM FEW029 13/08 A3004 RMK AO2 SLP173 T01280078 10161 20117 401890083 58015 $","updated":"2025-10-12T06:23:46Z"}
