{"icao":"LPFR","metar":"LPFR 070100Z 02006KT CAVOK 21/18 Q1020","updated":"2025-10-07T01:17:39Z"}
