{"icao":"LPMR","metar":"LPMR 100400Z 16005KT 9999 FEW008 BKN015 BKN030 14/14 Q1018","updated":"2025-11-10T04:26:10Z"}
