{"icao":"LPMT","metar":"LPMT 130800Z 19014KT 4000 TSRA BR FEW009 SCT018CB BKN025 16/15 Q1000 RETSRA","updated":"2025-11-13T08:25:20Z"}
