{"icao":"LPAR","metar":"LPAR 181400Z 22012KT 7000 FEW012 BKN020 16/14 Q1018","updated":"2026-02-18T14:41:51Z"}
