{"icao":"LPFR","metar":"LPFR 171500Z 26010KT 9999 FEW018 FEW020CB 13/07 Q1011","updated":"2026-01-17T15:18:19Z"}
