{"icao":"LPCS","metar":"LPCS 141000Z 34013KT 9999 SCT013 22/18 Q1024","updated":"2025-09-14T10:15:04Z"}
