{"icao":"LPMT","metar":"LPMT 031900Z 23004KT CAVOK 16/12 Q1021","updated":"2025-11-03T19:14:43Z"}
