{"icao":"KLAX","metar":"KLAX 022105Z 07008KT 2SM R25L/5500VP6000FT -RA BR SCT005 BKN011 OVC022 17/16 A3004 RMK AO2 RAB2056 VIS E-SE 1 1/4 P0001 T01670156 $","updated":"2026-01-02T21:15:26Z"}
