{"icao":"LPHR","metar":"LPHR 011300Z 35016G30KT 310V040 9999 SCT025 16/09 Q1009","updated":"2026-01-01T13:32:24Z"}
