{"icao":"KJFK","metar":"KJFK 301851Z 23006KT 10SM SCT021 BKN033 BKN055 14/10 A2974 RMK SLP069 T01390100 ","updated":"2026-04-30T19:19:03Z"}
