{"icao":"KLAX","metar":"KLAX 141853Z 23008KT 7SM -RA SCT009 BKN055 OVC065 14/12 A2989 RMK AO2 SLP118 P0005 T01440122 $","updated":"2025-10-14T19:14:06Z"}
