{"icao":"LPCS","metar":"LPCS 122100Z 35005KT CAVOK 20/12 Q1016","updated":"2025-10-12T23:14:37Z"}
