{"icao":"LPPT","metar":"LPPT 141230Z 27009KT 240V310 9999 FEW010 BKN016 14/11 Q1019","updated":"2026-03-14T12:49:26Z"}
