{"icao":"LPMT","metar":"LPMT 270500Z 02006KT CAVOK 03/02 Q1011","updated":"2025-12-27T05:19:47Z"}
