{"icao":"LPFL","metar":"LPFL 071900Z 19017G27KT 160V220 9999 SCT016 18/15 Q1025","updated":"2026-01-07T19:19:09Z"}
