{"icao":"KORD","metar":"KORD 011151Z 00000KT 10SM OVC065 14/09 A3004 RMK AO2 SLP172 60021 70021 T01390089 10144 20122 53003 $","updated":"2026-06-01T12:35:38Z"}
