{"icao":"LPFR","metar":"LPFR 070630Z 23017KT 9000 -RA SCT020 BKN040 14/12 Q1013","updated":"2026-02-07T06:40:14Z"}
