{"icao":"LPAR","metar":"LPAR 211800Z 33015KT CAVOK 27/17 Q1016","updated":"2026-06-21T18:18:45Z"}
