{"icao":"LPHR","metar":"LPHR 040800Z 07008KT 040V100 9000 -SHRA SCT010 BKN025 14/11 Q1020","updated":"2026-01-04T08:26:17Z"}
