{"icao":"KLAX","metar":"KLAX 231853Z 26007KT 10SM FEW120 SCT160 BKN180 BKN250 22/06 A3017 RMK AO2 SLP216 T02220061 $","updated":"2026-02-23T19:18:44Z"}
