{"icao":"LPHR","metar":"LPHR 111230Z 31020KT 280V340 9999 SCT016 FEW018TCU 18/09 Q1007","updated":"2025-11-11T12:38:29Z"}
