{"icao":"LPHR","metar":"LPHR 011930Z 13007KT 100V160 9999 FEW015 BKN028 21/18 Q1030","updated":"2026-07-01T19:51:55Z"}
