{"icao":"LPPR","metar":"LPPR 282100Z 00000KT 9000 4000N BCFG FEW013 BKN047 11/10 Q1022","updated":"2025-11-28T21:15:50Z"}
