{"icao":"KJFK","metar":"KJFK 081951Z 20011KT 10SM FEW250 06/M05 A3061 RMK AO2 SLP365 T00561050","updated":"2026-04-08T20:40:44Z"}
