{"icao":"KORD","metar":"KORD 110336Z 27011G22KT 10SM -SN OVC047 M01/M07 A2997 RMK AO2 SNB35 P0000 T10111067","updated":"2026-01-11T03:49:25Z"}
