{"icao":"LPPS","metar":"LPPS 061600Z 34005KT 300V040 9999 SCT015 SCT030 22/13 Q1020","updated":"2025-11-06T16:25:00Z"}
