{"icao":"KJFK","metar":"KJFK 171151Z 23011KT 10SM SCT042 BKN250 00/M06 A3000 RMK AO2 SLP157 4/002 T00001056 10006 21028 58024 $","updated":"2025-12-17T12:42:09Z"}
