{"icao":"LPOV","metar":"LPOV 171100Z 30006KT 260V340 9999 1000NW BCFG FEW001 SCT005 19/17 Q1018","updated":"2026-06-17T11:45:49Z"}
