{"icao":"LPPT","metar":"LPPT 290530Z 24014KT 4000 -DZ BR BKN004 15/15 Q1007","updated":"2026-01-29T05:41:55Z"}
