{"icao":"LPFR","metar":"LPFR 272200Z 03005KT CAVOK 20/19 Q1019","updated":"2025-10-27T22:16:16Z"}
