{"icao":"LPLA","metar":"LPLA 201500Z 24014KT 210V280 9999 SCT025 26/20 Q1014","updated":"2025-10-20T15:18:07Z"}
