{"icao":"LPLA","metar":"LPLA 102200Z 35012KT 320V020 9999 FEW011 SCT017 14/11 Q1021","updated":"2026-05-10T22:45:03Z"}
