{"icao":"LPMT","metar":"LPMT 230700Z 04006KT CAVOK 07/07 Q1024","updated":"2026-02-23T07:53:34Z"}
