{"icao":"LPPT","metar":"LPPT 271900Z 29007KT 250V330 CAVOK 26/11 Q1017","updated":"2026-05-27T19:23:00Z"}
