{"icao":"LPPT","metar":"LPPT 131200Z 07007G21KT 320V120 CAVOK 31/08 Q1018","updated":"2026-06-13T12:23:14Z"}
