{"icao":"LPCS","metar":"LPCS 271330Z 26009KT 230V300 9999 FEW015 24/15 Q1021","updated":"2026-06-27T13:39:12Z"}
