{"icao":"KJFK","metar":"KJFK 040751Z 30016G26KT 10SM FEW095 FEW250 09/02 A2995 RMK AO2 PK WND 30030/0740 SLP142 T00940017 $","updated":"2025-11-04T08:26:53Z"}
