{"icao":"LPMA","metar":"LPMA 180900Z 01009KT 320V050 9999 SCT015 19/14 Q1023","updated":"2025-11-18T09:20:49Z"}
