{"icao":"LPLA","metar":"LPLA 060900Z 19010KT 9999 FEW025 OVC040 12/07 Q1032","updated":"2026-03-06T09:36:53Z"}
