{"icao":"LPFR","metar":"LPFR 041400Z 19007KT 160V220 CAVOK 26/13 Q1020","updated":"2025-10-04T14:13:59Z"}
