{"icao":"KLAX","metar":"KLAX 021553Z 09004KT 6SM HZ FEW005 SCT160 BKN220 16/14 A2999 RMK AO2 SLP155 T01560139","updated":"2026-03-02T16:43:41Z"}
