{"icao":"KJFK","metar":"KJFK 121822Z 32017G27KT 9SM -RA FEW020 OVC070 04/M01 A2980 RMK AO2 PK WND 33027/1822 PLB1759E22 P0001 T00391006","updated":"2026-03-12T18:52:40Z"}
