{"icao":"LPFL","metar":"LPFL 291400Z 35007KT 320V050 9999 FEW014 SCT035 20/15 Q1029","updated":"2025-11-29T14:16:17Z"}
