{"icao":"LPBJ","metar":"LPBJ 242300Z 22006KT CAVOK 06/05 Q1017","updated":"2026-01-24T23:18:42Z"}
