{"icao":"LPMR","metar":"LPMR 271600Z 28011KT 250V310 CAVOK 27/12 Q1018","updated":"2026-05-27T16:35:28Z"}
