{"icao":"LPMR","metar":"LPMR 121200Z 18005KT 150V220 4000 -RA BR BKN007 BKN020 BKN035 14/14 Q1006 RERA","updated":"2025-11-12T14:19:18Z"}
