{"icao":"LPAZ","metar":"LPAZ 111700Z 33006KT 290V010 9999 FEW015 SCT018 24/18 Q1020","updated":"2025-10-11T17:13:11Z"}
