{"icao":"LPBJ","metar":"LPBJ 120300Z 18008KT 9999 FEW010 12/12 Q1017","updated":"2026-05-12T03:31:29Z"}
