{"icao":"LPFL","metar":"LPFL 141600Z 33005KT 260V350 9999 -SHRA SCT022 17/11 Q1010","updated":"2025-11-14T16:23:40Z"}
