{"icao":"LPMA","metar":"LPMA 061100Z 01011KT 320V040 9999 SCT015 18/11 Q1019","updated":"2026-05-06T11:05:14Z"}
