{"icao":"KORD","metar":"KORD 091551Z 20009KT 10SM BKN013 BKN025 26/23 A2991 RMK AO2 SLP123 T02560228","updated":"2026-06-09T15:53:33Z"}
