{"icao":"LPAZ","metar":"LPAZ 271530Z 02009KT 340V050 9999 FEW029 17/09 Q1034","updated":"2026-02-27T15:36:26Z"}
