{"icao":"LPPT","metar":"LPPT 052100Z 32009KT CAVOK 20/04 Q1019","updated":"2026-04-05T21:30:10Z"}
