{"icao":"KJFK","metar":"KJFK 301351Z 19019G24KT 10SM SCT032 BKN041 BKN130 BKN250 08/01 A3033 RMK AO2 SLP269 T00780011 $","updated":"2025-11-30T14:16:34Z"}
