{"icao":"LPPR","metar":"LPPR 181700Z 21004KT 180V250 CAVOK 20/12 Q1016","updated":"2025-10-18T17:13:11Z"}
