{"icao":"LPFL","metar":"LPFL 261730Z 34012KT 300V010 9999 FEW018 17/12 Q1031","updated":"2026-02-26T17:56:31Z"}
