{"icao":"LPBJ","metar":"LPBJ 032300Z 31009KT CAVOK 19/14 Q1019","updated":"2026-06-03T23:41:42Z"}
