{"icao":"LPFL","metar":"LPFL 051400Z 17006KT 9999 FEW022 16/11 Q1029","updated":"2026-01-05T14:23:22Z"}
