{"icao":"LPOV","metar":"LPOV 171900Z 35013KT CAVOK 14/12 Q1019","updated":"2026-04-17T21:03:06Z"}
