{"icao":"LPMA","metar":"LPMA 280330Z 01015KT 320V040 9999 BKN014 16/08 Q1027","updated":"2026-02-28T03:53:30Z"}
