{"icao":"KORD","metar":"KORD 251551Z 01007KT 10SM SCT023 SCT060 21/14 A2996 RMK AO2 SLP143 T02060139","updated":"2025-09-25T16:21:55Z"}
