{"icao":"LPMR","metar":"LPMR 022100Z VRB01KT CAVOK 12/10 Q1025","updated":"2025-11-02T21:14:27Z"}
