{"icao":"LPFL","metar":"LPFL 291900Z 16011KT 9999 FEW019 16/11 Q1032","updated":"2026-03-29T19:35:39Z"}
