{"icao":"LPMT","metar":"LPMT 041100Z 35010KT 310V020 9999 BKN038 22/11 Q1019","updated":"2026-06-04T11:51:30Z"}
