{"icao":"LPPD","metar":"LPPD 031600Z 35013KT 320V020 9999 -SHRA FEW008 SCT012 FEW018TCU 15/13 Q1010","updated":"2026-01-03T16:23:35Z"}
