{"icao":"LPBJ","metar":"LPBJ 190200Z 15002KT CAVOK 20/14 Q1020","updated":"2025-09-19T02:58:53Z"}
