{"icao":"LPPD","metar":"LPPD 090100Z 16007KT 9999 FEW008 SCT015 BKN030 22/21 Q1024","updated":"2025-10-09T01:18:28Z"}
