{"icao":"LPMA","metar":"LPMA 091230Z 01008KT 320V060 9999 SCT015 17/09 Q1029","updated":"2026-03-09T13:00:42Z"}
