{"icao":"LPPR","metar":"LPPR 150330Z 11007KT CAVOK 11/07 Q1014","updated":"2025-12-15T03:40:19Z"}
