{"icao":"KJFK","metar":"KJFK 131551Z 23009KT 10SM FEW250 05/M05 A3009 RMK AO2 SLP187 T00501050 $","updated":"2026-01-13T16:30:43Z"}
