{"icao":"LPPT","metar":"LPPT 162300Z 19007KT 150V210 9999 VCSH FEW018 FEW025CB 14/13 Q1011","updated":"2025-11-16T23:16:05Z"}
