{"icao":"LPBJ","metar":"LPBJ 300600Z 30009KT 7000 VCFG SCT003 10/09 Q1014","updated":"2026-01-30T06:46:24Z"}
