{"icao":"LPCS","metar":"LPCS 230700Z 27004KT 240V300 9999 FEW007 SCT014 BKN022 20/20 Q1020","updated":"2025-10-23T07:18:09Z"}
