{"icao":"LPAZ","metar":"LPAZ 010230Z 29010KT 9999 FEW022 14/10 Q1012","updated":"2026-05-01T02:55:21Z"}
