{"icao":"LPFR","metar":"LPFR 290100Z VRB01KT CAVOK 10/08 Q1021","updated":"2025-11-29T01:22:20Z"}
