{"icao":"LPPD","metar":"LPPD 241300Z 01015KT 340V050 9999 FEW025 21/13 Q1022","updated":"2025-09-24T13:27:07Z"}
