{"icao":"KJFK","metar":"KJFK 230951Z 29010KT 10SM FEW210 11/03 A2988 RMK AO2 SLP117 T01110028","updated":"2025-10-23T10:19:43Z"}
