{"icao":"LPFR","metar":"LPFR 301500Z 25015KT 9000 SCT004 16/15 Q1014","updated":"2026-01-30T15:32:58Z"}
