{"icao":"LPPS","metar":"LPPS 170830Z 13006KT 100V170 9999 SCT014 BKN030 15/12 Q1027","updated":"2026-02-17T08:42:39Z"}
