{"icao":"LPAZ","metar":"LPAZ 171230Z 31021KT 9999 FEW017 SCT021 BKN030 15/11 Q1030","updated":"2026-01-17T12:37:38Z"}
