{"icao":"LPPT","metar":"LPPT 042300Z 23014KT 3500 RADZ BKN004 15/14 Q0996","updated":"2026-02-04T23:26:00Z"}
