{"icao":"LPFL","metar":"LPFL 291000Z 08006KT 020V160 9999 BKN006 BKN030 15/14 Q1013","updated":"2025-12-29T10:22:10Z"}
