{"icao":"LPMA","metar":"LPMA 281800Z 01019G31KT 340V040 9999 BKN015 15/08 Q1025","updated":"2026-02-28T18:31:34Z"}
