{"icao":"LPMA","metar":"LPMA 241900Z 31005KT 230V020 9999 -SHRA BKN015 16/08 Q1014","updated":"2025-12-24T19:15:10Z"}
