{"icao":"LPMA","metar":"LPMA 122230Z 34004KT 9999 FEW015 16/11 Q1023","updated":"2026-05-12T22:59:06Z"}
