{"icao":"LPPS","metar":"LPPS 201900Z 06014KT 9999 SCT015 18/13 Q1022","updated":"2025-11-20T19:15:36Z"}
