{"icao":"LPMR","metar":"LPMR 191200Z 20008KT 180V240 9999 FEW020 BKN035 23/15 Q1014","updated":"2025-10-19T12:32:59Z"}
