{"icao":"KJFK","metar":"KJFK 240551Z 35012KT 10SM FEW250 01/M07 A3025 RMK AO2 SLP244 T00111072 10039 20011 51023","updated":"2026-03-24T05:59:01Z"}
