{"icao":"LPFR","metar":"LPFR 132000Z 32004KT 280V350 CAVOK 21/19 Q1015","updated":"2025-10-13T20:19:20Z"}
