{"icao":"LPFR","metar":"LPFR 301200Z 20008KT 180V250 9999 FEW020 20/11 Q1017","updated":"2026-04-30T12:13:56Z"}
