{"icao":"KJFK","metar":"KJFK 161551Z 33017G22KT 10SM FEW055 FEW150 13/M01 A2994 RMK AO2 PK WND 35029/1536 SLP137 T01331006","updated":"2025-10-16T16:23:30Z"}
