{"icao":"LPAR","metar":"LPAR 101000Z 04005KT 010V080 9999 FEW025 19/15 Q1014","updated":"2026-04-10T10:52:49Z"}
