{"icao":"LPMT","metar":"LPMT 171200Z VRB03KT CAVOK 25/12 Q1015","updated":"2025-10-17T12:36:54Z"}
