{"icao":"LPBJ","metar":"LPBJ 081600Z 34008KT 310V010 9999 FEW030 19/09 Q1021","updated":"2025-11-08T16:20:09Z"}
