{"icao":"KORD","metar":"KORD 120051Z 22008KT 10SM FEW043 FEW180 04/M04 A2972 RMK AO2 SLP070 T00441039","updated":"2025-11-12T01:24:30Z"}
