{"icao":"LPMR","metar":"LPMR 150900Z VRB02KT 8000 FEW003 SCT005 18/18 Q1023","updated":"2025-09-15T09:20:09Z"}
