{"icao":"LPPR","metar":"LPPR 251600Z 34009KT 9999 FEW027 SCT045 14/09 Q1024","updated":"2025-11-25T16:26:13Z"}
