{"icao":"KORD","metar":"KORD 160351Z 30010KT 10SM BKN200 12/02 A2970 RMK AO2 SLP056 T01220017 $","updated":"2025-11-16T04:24:28Z"}
