{"icao":"LPCS","metar":"LPCS 231900Z 02012KT 9999 FEW008 20/14 Q1020","updated":"2026-05-23T19:23:15Z"}
