{"icao":"LPPR","metar":"LPPR 131000Z 28004KT 250V320 9999 FEW013 BKN020 FEW025TCU 16/14 Q1020","updated":"2026-05-13T10:25:44Z"}
