{"icao":"LPOV","metar":"LPOV 160800Z 00000KT CAVOK 09/09 Q1021","updated":"2026-03-16T08:55:07Z"}
