{"icao":"LPPR","metar":"LPPR 100100Z 09011KT CAVOK 21/10 Q1021","updated":"2025-10-10T01:18:22Z"}
