{"icao":"LPOV","metar":"LPOV 011500Z 31006KT 290V350 9999 FEW026 22/15 Q1020","updated":"2025-10-01T15:17:30Z"}
