{"icao":"KLAX","metar":"KLAX 101453Z 00000KT 9SM FEW090 FEW160 SCT250 19/15 A2987 RMK AO2 SLP113 T01890150 50001 $","updated":"2025-10-10T15:18:18Z"}
