{"icao":"LPPT","metar":"LPPT 201700Z 26008KT 230V290 9999 FEW015 BKN034 12/10 Q1014","updated":"2025-12-20T17:15:16Z"}
