{"icao":"KORD","metar":"KORD 131751Z 20016G25KT 10SM FEW050 FEW100 BKN250 28/16 A2990 RMK AO2 PK WND 20028/1655 SLP119 T02780156 10278 20194 58002 $","updated":"2026-06-13T18:06:03Z"}
