{"icao":"LPMT","metar":"LPMT 031800Z 17008KT 7000 -RA SCT018 BKN035 11/10 Q1000","updated":"2026-02-03T18:55:03Z"}
