{"icao":"LPOV","metar":"LPOV 250900Z VRB01KT 6000 FEW016 BKN022 BKN045 14/13 Q1016","updated":"2026-02-25T09:53:13Z"}
