{"icao":"KJFK","metar":"KJFK 021651Z 28011KT 10SM FEW055 BKN080 BKN120 M02/M11 A2978 RMK AO2 SLP084 T10221111 $","updated":"2026-01-02T17:17:00Z"}
