{"icao":"LPAZ","metar":"LPAZ 261400Z 27031G41KT 8000 FEW020 SCT040 15/12 Q1006","updated":"2026-01-26T14:27:44Z"}
