{"icao":"KJFK","metar":"KJFK 170751Z 34011KT 10SM CLR 09/M02 A2997 RMK AO2 SLP149 T00891022","updated":"2025-10-17T08:24:58Z"}
