{"icao":"LPBJ","metar":"LPBJ 172100Z 28008KT CAVOK 15/10 Q1018","updated":"2026-05-17T21:54:25Z"}
