{"icao":"KORD","metar":"KORD 291851Z VRB05KT 10SM FEW060 31/11 A3018 RMK AO2 SLP216 T03110106","updated":"2025-09-29T19:14:05Z"}
