{"icao":"LPPT","metar":"LPPT 150800Z 35012KT 9999 FEW015 20/16 Q1021","updated":"2025-09-15T08:23:38Z"}
