{"icao":"LPHR","metar":"LPHR 252000Z 08014KT 9999 FEW010 15/12 Q1024","updated":"2025-12-25T20:21:42Z"}
