{"icao":"KJFK","metar":"KJFK 061251Z 32014G25KT 10SM BKN050 09/00 A3000 RMK AO2 PK WND 32032/1241 SLP159 T00940000 $","updated":"2025-11-06T13:31:35Z"}
