{"icao":"KJFK","metar":"KJFK 131951Z 23010KT 10SM FEW250 02/M08 A3013 RMK AO2 SLP202 T00171083 $","updated":"2026-02-13T20:36:43Z"}
