{"icao":"LPAZ","metar":"LPAZ 230430Z 19009KT 1600 BR SCT001 OVC004 18/18 Q1023","updated":"2026-05-23T04:39:11Z"}
