{"icao":"LPCS","metar":"LPCS 190930Z 16003KT 110V230 CAVOK 20/13 Q1016","updated":"2026-04-19T09:45:24Z"}
