{"icao":"LPMA","metar":"LPMA 270700Z 31008KT 270V360 9999 FEW015 16/08 Q1014","updated":"2025-12-27T07:17:52Z"}
