{"icao":"LPFL","metar":"LPFL 281400Z 33008KT 300V020 9999 SCT020 18/13 Q1024","updated":"2025-10-28T14:18:46Z"}
