{"icao":"LPPD","metar":"LPPD 021700Z 20006KT 170V250 9999 FEW008 23/20 Q1021","updated":"2025-10-02T17:13:00Z"}
