{"icao":"KLAX","metar":"KLAX 072353Z 25014KT 10SM FEW012 20/13 A2981 RMK AO2 SLP094 T02000133 10222 20200 58006 $","updated":"2026-06-08T00:05:17Z"}
