{"icao":"KJFK","metar":"KJFK 151251Z 24007KT 10SM FEW110 BKN250 22/15 A2996 RMK AO2 SLP145 T02170150","updated":"2026-04-15T13:53:15Z"}
