{"icao":"LPPD","metar":"LPPD 071600Z 23009KT 9000 FEW004 BKN006 15/14 Q1014","updated":"2026-02-07T16:29:12Z"}
