{"icao":"LPLA","metar":"LPLA 311700Z 33014KT 9999 SCT025 SCT040 17/09 Q1012","updated":"2025-10-31T17:16:53Z"}
