{"icao":"LPLA","metar":"LPLA 101107Z 34017G27KT 7000 -SHRA SCT015 BKN016 FEW020TCU BKN030 15/12 Q1021","updated":"2026-05-10T11:50:21Z"}
