{"icao":"LPPR","metar":"LPPR 211100Z 18005KT 130V210 CAVOK 17/10 Q1010","updated":"2026-03-21T11:21:22Z"}
