{"icao":"LPMR","metar":"LPMR 240700Z 16001KT 9999 FEW008 12/12 Q1017","updated":"2026-04-24T08:01:18Z"}
