{"icao":"KORD","metar":"KORD 031751Z 00000KT 8SM OVC016 04/M01 A3011 RMK AO2 SLP203 T00441011 10044 20011 55006","updated":"2026-03-03T18:44:31Z"}
