{"icao":"KJFK","metar":"KJFK 031251Z 30014G20KT 10SM FEW030 FEW070 BKN095 BKN250 09/M02 A2988 RMK SLP119 T00891022 ","updated":"2026-05-03T13:07:20Z"}
