{"icao":"LPMR","metar":"LPMR 251300Z 29010KT 270V330 CAVOK 26/05 Q1017","updated":"2025-09-25T13:28:02Z"}
