{"icao":"LPHR","metar":"LPHR 041400Z 16003KT 120V210 9999 FEW012 FEW015TCU BKN050 24/22 Q1027","updated":"2025-10-04T14:14:02Z"}
