{"icao":"LPFR","metar":"LPFR 201900Z 26011KT CAVOK 21/19 Q1015","updated":"2025-10-20T19:14:48Z"}
