{"icao":"LPCS","metar":"LPCS 231700Z 29014G35KT 240V310 5000 SHRAGS FEW007 SCT020 FEW025CB 10/07 Q1000","updated":"2026-01-23T17:24:38Z"}
