{"icao":"LPMR","metar":"LPMR 270100Z 14009KT CAVOK 13/12 Q1020","updated":"2025-10-27T01:27:58Z"}
