{"icao":"LPMA","metar":"LPMA 171830Z 03013KT 9999 BKN015 18/13 Q1017","updated":"2026-04-17T18:58:38Z"}
