{"icao":"LPOV","metar":"LPOV 191400Z 32009KT 290V360 9999 SCT015 14/07 Q1028","updated":"2026-02-19T14:48:12Z"}
