{"icao":"LPHR","metar":"LPHR 161600Z 30011KT 280V340 9999 FEW018 BKN033 16/09 Q1034","updated":"2026-01-16T16:27:43Z"}
