{"icao":"LPBJ","metar":"LPBJ 020200Z 27002KT CAVOK 14/11 Q1018","updated":"2026-05-02T02:36:12Z"}
