{"icao":"KORD","metar":"KORD 030651Z 31005KT 10SM SCT130 OVC180 M07/M15 A3001 RMK AO2 SLP174 T10671150 $","updated":"2026-01-03T07:18:28Z"}
