{"icao":"KJFK","metar":"KJFK 271114Z 34018KT 10SM BKN028 BKN065 OVC190 14/09 A2980 RMK AO2 PRESRR T01440094 $","updated":"2026-03-27T11:40:47Z"}
