{"icao":"KJFK","metar":"KJFK 182251Z 26004KT 10SM FEW050 BKN090 OVC130 07/M06 A3015 RMK AO2 SLP208 T00721056 $","updated":"2025-11-18T23:17:21Z"}
