{"icao":"LPFL","metar":"LPFL 301030Z 34015KT 9999 FEW016 SCT035 16/11 Q1008","updated":"2026-04-30T10:54:04Z"}
