{"icao":"LPPR","metar":"LPPR 011300Z 24005KT 210V270 9999 FEW007 SCT015 18/14 Q1018","updated":"2025-11-01T13:22:09Z"}
