{"icao":"KLAX","metar":"KLAX 210606Z 07013G28KT 4SM -RA BR FEW007 BKN009 OVC018 12/11 A2984 RMK AO2 PK WND 05028/0600 P0004 T01220111 $","updated":"2025-11-21T06:29:24Z"}
