{"icao":"LPMT","metar":"LPMT 120400Z 04005KT CAVOK 18/12 Q1016","updated":"2025-10-12T04:20:18Z"}
