{"icao":"LPBJ","metar":"LPBJ 091100Z 05003KT 020V090 CAVOK 15/08 Q1023","updated":"2025-11-09T11:13:17Z"}
