{"icao":"KJFK","metar":"KJFK 030951Z 29006KT 10SM SCT250 13/08 A3041 RMK AO2 SLP298 T01330078","updated":"2025-10-03T10:17:51Z"}
