{"icao":"LPFR","metar":"LPFR 042200Z 03006KT CAVOK 18/03 Q1021","updated":"2026-04-04T22:28:08Z"}
