{"icao":"KORD","metar":"KORD 101451Z 01011KT 10SM OVC007 08/06 A3021 RMK AO2 RAE1358 SLP233 P0000 60001 T00780056 53017","updated":"2026-04-10T15:52:19Z"}
