{"icao":"LPMR","metar":"LPMR 151700Z 23006KT 200V260 9999 SCT012 FEW020CB SCT030 16/13 Q1006","updated":"2025-11-15T17:13:45Z"}
