{"icao":"LPOV","metar":"LPOV 110800Z 20015KT 1200 -RADZ BR OVC002 15/15 Q1011","updated":"2026-02-11T08:59:33Z"}
