{"icao":"KORD","metar":"KORD 191851Z 30013G21KT 10SM FEW032 FEW080 BKN110 BKN250 13/05 A2972 RMK AO2 SLP063 T01280050 $","updated":"2025-10-19T19:13:17Z"}
