{"icao":"LPBJ","metar":"LPBJ 191500Z 26009KT CAVOK 27/13 Q1014","updated":"2025-10-19T15:15:31Z"}
