{"icao":"LPFL","metar":"LPFL 151030Z 18009KT 9999 VCSH SCT020 BKN037 15/09 Q1021","updated":"2026-04-15T10:57:56Z"}
