{"icao":"LPLA","metar":"LPLA 202300Z 19006KT 170V230 9999 FEW030 16/10 Q1012","updated":"2026-05-20T23:12:02Z"}
