{"icao":"KJFK","metar":"KJFK 262151Z 20014G21KT 10SM FEW110 BKN250 12/07 A2977 RMK AO2 SLP080 T01220072 $","updated":"2026-03-26T22:28:20Z"}
