{"icao":"LPST","metar":"LPST 121600Z 29008KT 260V320 9999 FEW011 16/12 Q1025","updated":"2026-03-12T17:02:36Z"}
