{"icao":"KJFK","metar":"KJFK 062051Z 18015KT 10SM FEW250 22/17 A3024 RMK AO2 SLP240 T02220172 56010 $","updated":"2025-10-06T21:14:57Z"}
