{"icao":"KLAX","metar":"KLAX 290653Z 24007KT 10SM CLR 20/16 A2999 RMK AO2 SLP153 T02000161 $","updated":"2025-09-29T07:18:35Z"}
