{"icao":"KJFK","metar":"KJFK 131151Z 25006KT 10SM FEW250 01/M06 A3012 RMK AO2 SLP197 T00111056 10022 20000 51004 $","updated":"2026-01-13T12:44:29Z"}
