{"icao":"LPBJ","metar":"LPBJ 062100Z 32011KT CAVOK 16/08 Q1010","updated":"2026-05-06T21:55:31Z"}
