{"icao":"LPPT","metar":"LPPT 212200Z 31009G20KT 270V350 8000 -SHRA FEW014 FEW018TCU SCT022 12/10 Q1007 WS R20","updated":"2026-01-21T22:23:46Z"}
