{"icao":"LPPR","metar":"LPPR 130900Z VRB02KT CAVOK 21/13 Q1016","updated":"2025-10-13T09:21:04Z"}
