{"icao":"KORD","metar":"KORD 190751Z 24006KT 10SM CLR 03/M03 A3007 RMK AO2 SLP186 T00331033 $","updated":"2026-04-19T08:53:12Z"}
