{"icao":"LPBJ","metar":"LPBJ 202200Z 16010KT CAVOK 20/07 Q1008","updated":"2026-04-20T22:41:14Z"}
