{"icao":"LPBJ","metar":"LPBJ 071800Z 23006KT 8000 -RA FEW012 BKN022 17/16 Q1016","updated":"2025-11-07T18:25:56Z"}
