{"icao":"LPPD","metar":"LPPD 081700Z 14008KT 110V180 9999 SCT006 BKN010 23/21 Q1024","updated":"2025-10-08T17:15:25Z"}
