{"icao":"LPPR","metar":"LPPR 272200Z 09007G17KT 070V170 CAVOK 16/10 Q1020","updated":"2025-10-27T22:16:16Z"}
