{"icao":"KJFK","metar":"KJFK 211451Z 25009KT 10SM SCT250 M04/M14 A3057 RMK SLP349 T10441139 55002 $ ","updated":"2026-01-21T15:30:36Z"}
