{"icao":"LPMA","metar":"LPMA 301800Z 02013G23KT 350V050 9999 SCT015 18/10 Q1021","updated":"2025-11-30T18:25:47Z"}
