{"icao":"LPFL","metar":"LPFL 161800Z 21006KT 170V240 9999 FEW028 20/12 Q1007","updated":"2025-10-16T18:25:49Z"}
