{"icao":"LPPT","metar":"LPPT 140100Z 32004KT CAVOK 20/10 Q1016","updated":"2025-10-14T01:18:16Z"}
