{"icao":"LPPD","metar":"LPPD 201300Z 24011KT 9000 FEW005 BKN010 23/22 Q1017","updated":"2025-10-20T13:28:12Z"}
