{"icao":"KJFK","metar":"KJFK 222051Z 13007KT 10SM BKN017 BKN085 BKN110 11/06 A3001 RMK SLP162 T01110061 56025 ","updated":"2026-04-22T21:49:52Z"}
