{"icao":"LPAZ","metar":"LPAZ 082000Z 22015KT 4900 BR FEW002 BKN010 17/17 Q1016","updated":"2026-02-08T20:26:29Z"}
