{"icao":"LPBJ","metar":"LPBJ 282100Z 26007KT 9999 -RA OVC025 17/14 Q1010","updated":"2026-04-28T21:56:55Z"}
