{"icao":"LPCS","metar":"LPCS 051830Z 25016G26KT 8000 SHRA FEW010 FEW018CB BKN025 13/13 Q1000","updated":"2026-02-05T18:45:12Z"}
