{"icao":"LPMT","metar":"LPMT 041800Z 20005KT 170V230 9999 SCT030 21/16 Q1013","updated":"2025-11-04T18:27:07Z"}
