{"icao":"LPOV","metar":"LPOV 161100Z 22010KT 200V270 9999 FEW006 BKN014 OVC030 14/14 Q1029","updated":"2026-02-16T11:39:00Z"}
