{"icao":"LPBJ","metar":"LPBJ 240300Z 27005KT 7000 BKN003 18/17 Q1014","updated":"2026-06-24T03:28:26Z"}
