{"icao":"LPPR","metar":"LPPR 020600Z VRB02KT CAVOK 13/12 Q1020","updated":"2025-10-02T06:26:05Z"}
