{"icao":"LPCS","metar":"LPCS 101730Z 21014KT 9999 -SHRA FEW006 SCT014 BKN020 16/13 Q1010","updated":"2026-05-10T17:51:05Z"}
