{"icao":"LPPS","metar":"LPPS 040800Z 05007KT 9999 FEW015 21/17 Q1026","updated":"2025-10-04T08:20:15Z"}
