{"icao":"KORD","metar":"KORD 030351Z 26004KT 10SM FEW027 BKN120 M06/M09 A3017 RMK AO2 SLP226 T10561094","updated":"2026-02-03T04:45:24Z"}
