{"icao":"KLAX","metar":"KLAX 141353Z 27004KT 10SM SCT012 OVC014 19/17 A2988 RMK AO2 SLP117 T01940167 $","updated":"2025-09-14T14:13:37Z"}
