{"icao":"LPPD","metar":"LPPD 051030Z 27027G41KT 8000 SHRA SCT014 FEW020CB BKN030 13/07 Q1003","updated":"2026-02-05T10:38:49Z"}
