{"icao":"KLAX","metar":"KLAX 082253Z 31021G33KT 10SM FEW050 17/M01 A3000 RMK AO2 PK WND 30033/2250 SLP158 T01671011 $","updated":"2026-01-08T23:17:44Z"}
