{"icao":"LPFL","metar":"LPFL 030930Z 09005KT 030V160 9999 FEW018 17/11 Q1023","updated":"2026-05-03T10:02:51Z"}
