{"icao":"LPLA","metar":"LPLA 291800Z 12014KT 9999 FEW025 BKN030 15/10 Q1034","updated":"2026-03-29T18:44:15Z"}
