{"icao":"KJFK","metar":"KJFK 281351Z 28009KT 10SM FEW035 M09/M16 A3019 RMK AO2 SLP221 T10891161 $","updated":"2026-01-28T14:28:49Z"}
