{"icao":"KORD","metar":"KORD 071951Z 08008KT 10SM BKN250 03/M09 A3047 RMK AO2 SLP324 T00331089 $","updated":"2026-04-07T20:45:55Z"}
