{"icao":"LPFR","metar":"LPFR 171230Z 30011KT 270V340 9999 FEW020 19/11 Q1014","updated":"2025-11-17T12:38:51Z"}
