{"icao":"LPFR","metar":"LPFR 251500Z 35015KT CAVOK 18/02 Q1020","updated":"2025-11-25T15:21:15Z"}
