{"icao":"KLAX","metar":"KLAX 141011Z 24006KT 10SM OVC015 20/17 A2987 RMK AO2 T02000167 $","updated":"2025-09-14T10:15:20Z"}
