{"icao":"LPMR","metar":"LPMR 242000Z 20006KT 4000 -DZ BR FEW004 BKN007 BKN016 18/18 Q1016","updated":"2025-10-24T20:20:22Z"}
