{"icao":"LPOV","metar":"LPOV 292200Z VRB02KT 8000 MIFG NSC 13/13 Q1012","updated":"2025-10-29T22:17:28Z"}
