{"icao":"KJFK","metar":"KJFK 160351Z 33010KT 10SM CLR 18/07 A2984 RMK AO2 SLP103 T01830072","updated":"2026-06-16T03:58:20Z"}
