{"icao":"LPBJ","metar":"LPBJ 171400Z 29005KT 240V310 9999 VCSH BKN028 11/05 Q1011","updated":"2026-01-17T14:17:51Z"}
