{"icao":"KJFK","metar":"KJFK 130451Z 30015G25KT 10SM FEW080 02/M07 A3005 RMK AO2 PK WND 29030/0415 SLP176 T00221072 401330011","updated":"2026-03-13T05:48:19Z"}
