{"icao":"LPPR","metar":"LPPR 201130Z 28005KT 240V340 CAVOK 16/11 Q1012","updated":"2026-04-20T12:02:43Z"}
