{"icao":"LPFL","metar":"LPFL 311300Z 33012KT 300V010 9999 SCT025 16/12 Q1013","updated":"2025-10-31T13:28:29Z"}
