{"icao":"LPHR","metar":"LPHR 280800Z 26024KT 6000 -DZ SCT003 BKN005 17/16 Q1004","updated":"2026-01-28T08:30:43Z"}
