{"icao":"LPOV","metar":"LPOV 140900Z 29004KT 240V330 3000 -RA BR FEW007 SCT014 BKN022 12/12 Q1017","updated":"2026-03-14T09:31:51Z"}
