{"icao":"LPFR","metar":"LPFR 072200Z 29007KT 260V320 9999 FEW030 13/09 Q1012","updated":"2026-02-07T22:24:37Z"}
