{"icao":"LPLA","metar":"LPLA 131400Z 22016G27KT 170V280 9999 FEW009 BKN018 BKN030 18/14 Q1020 WS ALL RWY","updated":"2026-04-13T14:47:06Z"}
