{"icao":"LPMR","metar":"LPMR 231400Z 27011KT 240V300 7000 -RA SCT022 BKN035 09/05 Q1000","updated":"2026-01-23T15:24:16Z"}
