{"icao":"KORD","metar":"KORD 141851Z 11006KT 9SM -SN FEW032 BKN075 OVC085 02/M06 A3016 RMK AO2 SNB46 SLP220 P0000 T00221056 $","updated":"2026-03-14T19:25:59Z"}
