{"icao":"LPCS","metar":"LPCS 051500Z 25015G26KT 220V280 9999 SCT016 FEW024CB 19/12 Q1009","updated":"2025-11-05T15:18:49Z"}
