{"icao":"LPAR","metar":"LPAR 141200Z 33004KT 270V030 9999 BKN025 SCT035 16/11 Q1020","updated":"2026-01-14T12:43:15Z"}
