{"icao":"LPFR","metar":"LPFR 220100Z 35012KT CAVOK 17/06 Q1018","updated":"2025-09-22T01:23:52Z"}
