{"icao":"KJFK","metar":"KJFK 161951Z 23009KT 10SM SCT250 M02/M10 A3018 RMK AO2 SLP218 T10171100 $","updated":"2025-12-16T20:23:23Z"}
