{"icao":"LPMR","metar":"LPMR 090400Z 34005KT 300V010 9999 FEW003 OVC006 16/15 Q1020","updated":"2025-10-09T04:21:12Z"}
