{"icao":"LPMT","metar":"LPMT 051300Z 32007KT 290V350 9999 FEW025 BKN030 15/10 Q1017","updated":"2026-03-05T14:02:42Z"}
