{"icao":"LPHR","metar":"LPHR 072200Z 20004KT 150V230 8000 -RA SCT004 SCT010 BKN018 16/15 Q1004 RERA","updated":"2025-12-07T22:16:58Z"}
