{"icao":"LPBJ","metar":"LPBJ 080700Z 10007KT 0400 FG VV002 07/07 Q1016","updated":"2026-04-08T07:17:37Z"}
