{"icao":"LPHR","metar":"LPHR 211400Z 27020KT 7000 VCSH SCT002 BKN004 17/17 Q1021","updated":"2026-01-21T14:29:49Z"}
