{"icao":"LPLA","metar":"LPLA 272100Z 20003KT 170V230 9999 FEW023 16/11 Q1019","updated":"2026-05-27T21:53:23Z"}
