{"icao":"LPFL","metar":"LPFL 060900Z 25016G31KT 170V310 9000 3500N -SHRA FEW008 BKN014 FEW015CB 21/17 Q1003","updated":"2025-12-06T09:18:05Z"}
