{"icao":"LPLA","metar":"LPLA 291300Z 15010KT 120V180 7000 3000SW -RA SCT008 SCT018 BKN035 21/21 Q1023","updated":"2025-09-29T13:28:11Z"}
