{"icao":"LPHR","metar":"LPHR 182300Z 27005KT 5000 -DZ BR SCT002 BKN003 22/22 Q1016","updated":"2025-10-19T05:17:25Z"}
