{"icao":"LPLA","metar":"LPLA 171600Z 22009G20KT 190V250 9999 SCT008 BKN014 23/20 Q1011","updated":"2025-10-17T16:21:48Z"}
