{"icao":"LPPS","metar":"LPPS 092000Z 06008KT 030V090 9999 FEW015 BKN030 21/17 Q1025","updated":"2025-10-09T20:19:41Z"}
