{"icao":"LPAR","metar":"LPAR 091500Z 36006KT 310V030 CAVOK 25/15 Q1018","updated":"2025-10-09T15:29:15Z"}
