{"icao":"LPCS","metar":"LPCS 071300Z 17006KT 120V230 9999 FEW018 24/16 Q1022","updated":"2025-10-07T13:27:57Z"}
