{"icao":"LPPT","metar":"LPPT 082300Z 26009KT 5000 -RADZ BR SCT004 BKN008 15/15 Q1011","updated":"2026-02-08T23:29:16Z"}
