{"icao":"LPFR","metar":"LPFR 100530Z 27006KT CAVOK 08/06 Q1020","updated":"2026-03-10T05:43:39Z"}
