{"icao":"LPPT","metar":"LPPT 251530Z 20015KT 9999 SCT012 BKN016 FEW020CB 23/19 Q1016","updated":"2026-06-25T15:38:29Z"}
