{"icao":"LPPR","metar":"LPPR 152200Z VRB01KT 2000 BCFG BR BKN001 15/15 Q1017","updated":"2025-10-15T22:15:05Z"}
