{"icao":"LPAZ","metar":"LPAZ 270230Z 02010KT 9999 SCT015 BKN044 20/17 Q1021","updated":"2025-09-27T02:52:53Z"}
