{"icao":"LPBJ","metar":"LPBJ 220700Z 09009KT CAVOK 19/10 Q1020","updated":"2026-05-22T07:42:51Z"}
