{"icao":"LPPR","metar":"LPPR 181230Z 30005KT 260V330 9999 FEW002 21/16 Q1021","updated":"2025-09-18T12:35:35Z"}
