{"icao":"LPPR","metar":"LPPR 192300Z 01005KT CAVOK 09/07 Q1020","updated":"2025-11-19T23:17:08Z"}
