{"icao":"LPBJ","metar":"LPBJ 021527Z 25019G29KT 8000 -SHRA BKN020CB 10/07 Q1002 RESHRA","updated":"2026-02-02T15:36:50Z"}
