{"icao":"LPLA","metar":"LPLA 162000Z 31022KT 2000 RADZ BR FEW003 BKN005 OVC013 13/12 Q1017","updated":"2026-03-16T20:37:00Z"}
