{"icao":"KJFK","metar":"KJFK 271051Z 27014KT 10SM FEW110 BKN250 06/M04 A2990 RMK AO2 SLP123 T00561044","updated":"2025-11-27T11:17:03Z"}
