{"icao":"KORD","metar":"KORD 082051Z 15008KT 10SM BKN085 BKN250 19/08 A2971 RMK AO2 SLP061 T01890078 58024","updated":"2026-05-08T20:58:47Z"}
