{"icao":"LPPT","metar":"LPPT 252300Z 22005KT 210V300 9999 FEW003 11/11 Q1014","updated":"2026-01-25T23:18:54Z"}
