{"icao":"KLAX","metar":"KLAX 191743Z 12009KT 3SM -RA BR FEW030 BKN038 OVC050 11/09 A2997 RMK AO2 RAB10 P0001 T01060089","updated":"2026-02-19T17:49:27Z"}
