{"icao":"KLAX","metar":"KLAX 252253Z 24010G19KT 10SM FEW022 SCT037 BKN120 OVC200 17/10 A2989 RMK AO2 SLP120 T01670100","updated":"2026-04-25T23:36:42Z"}
