{"icao":"KJFK","metar":"KJFK 042151Z 16005KT 10SM BKN250 22/12 A3005 RMK AO2 SLP174 T02170122 $","updated":"2026-06-04T22:19:48Z"}
