{"icao":"LPFR","metar":"LPFR 111430Z 26012KT 2000 -DZ BR OVC003 15/15 Q1020","updated":"2026-02-11T14:51:55Z"}
