{"icao":"KJFK","metar":"KJFK 121851Z 24018KT 10SM FEW070 FEW180 BKN250 04/M06 A3014 RMK AO2 PK WND 24026/1805 SLP205 T00441061 $","updated":"2026-01-12T19:19:47Z"}
