{"icao":"LPMR","metar":"LPMR 232200Z 00000KT CAVOK 13/12 Q1017","updated":"2026-03-23T22:31:02Z"}
