{"icao":"LPLA","metar":"LPLA 011400Z 03004KT 330V080 9999 SCT045 18/06 Q1022","updated":"2025-11-01T14:14:30Z"}
