{"icao":"LPAR","metar":"LPAR 161000Z 03006KT 340V080 CAVOK 20/11 Q1021","updated":"2026-04-16T11:01:04Z"}
