{"icao":"LPPR","metar":"LPPR 021700Z 34010KT CAVOK 19/10 Q1021","updated":"2026-04-02T17:04:48Z"}
