{"icao":"LPMR","metar":"LPMR 090500Z 32007KT 9999 FEW009 BKN020 13/10 Q1027","updated":"2026-01-09T05:24:01Z"}
