{"icao":"LPPD","metar":"LPPD 041230Z 27027KT 9999 FEW018 FEW020TCU SCT035 19/13 Q1006","updated":"2025-11-04T12:41:05Z"}
