{"icao":"LPPT","metar":"LPPT 121130Z 21011KT 170V240 9999 FEW018 BKN024 FEW025CB 19/13 Q1019","updated":"2026-05-12T11:53:46Z"}
