{"icao":"LPAZ","metar":"LPAZ 260100Z 04018KT 010V080 9999 SCT020 19/13 Q1017","updated":"2025-10-26T01:26:13Z"}
