{"icao":"LPPT","metar":"LPPT 230230Z 26007KT 230V290 9999 BKN010 21/19 Q1020","updated":"2025-10-23T03:02:16Z"}
