{"icao":"LPPS","metar":"LPPS 290930Z 05013KT 9999 SCT015 16/11 Q1026","updated":"2026-03-29T09:35:17Z"}
