{"icao":"LPPS","metar":"LPPS 222100Z 06006KT 010V090 9999 SCT014 BKN030 23/19 Q1022","updated":"2025-10-22T21:13:39Z"}
