{"icao":"LPMR","metar":"LPMR 260600Z 21011KT 5000 -RADZ BR BKN006 BKN014 14/13 Q1011","updated":"2026-01-26T06:35:31Z"}
