{"icao":"KORD","metar":"KORD 062151Z 26005KT 5SM BR OVC009 05/03 A2963 RMK AO2 SLP039 T00500033","updated":"2026-01-06T22:20:19Z"}
