{"icao":"LPOV","metar":"LPOV 261100Z 23009KT 9999 SCT018 BKN025 24/20 Q1018","updated":"2026-06-26T12:09:32Z"}
