{"icao":"LPPT","metar":"LPPT 030830Z 02005KT 350V060 CAVOK 14/11 Q1023","updated":"2026-04-03T08:52:35Z"}
