{"icao":"LPPS","metar":"LPPS 150900Z 29011KT 9999 SCT015 17/12 Q1020","updated":"2025-12-15T09:30:50Z"}
