{"icao":"LPMT","metar":"LPMT 181100Z 05004KT 360V070 9999 FEW020 08/06 Q1014","updated":"2026-01-18T11:15:56Z"}
