{"icao":"LPFR","metar":"LPFR 111000Z 08011KT 050V110 CAVOK 26/17 Q1018","updated":"2026-06-11T10:20:17Z"}
