{"icao":"LPBJ","metar":"LPBJ 110500Z 16006KT 9000 3000NE VCFG OVC003 14/14 Q1015","updated":"2025-11-11T05:18:52Z"}
