{"icao":"LPMA","metar":"LPMA 190430Z 36005KT 320V030 9999 FEW015 17/12 Q1023","updated":"2026-05-19T04:58:52Z"}
