{"icao":"LPPT","metar":"LPPT 132230Z 23005KT 9999 FEW006 BKN009 13/12 Q1023","updated":"2026-04-13T22:40:57Z"}
