{"icao":"LPCS","metar":"LPCS 191100Z 20009KT 160V220 9999 FEW012 SCT020 21/18 Q1016","updated":"2025-10-19T11:12:58Z"}
