{"icao":"LPMR","metar":"LPMR 151800Z 29005KT 2000 BR BKN004 15/14 Q1016","updated":"2025-10-15T18:26:52Z"}
