{"icao":"KORD","metar":"KORD 101751Z 34005KT 10SM OVC017 09/06 A3026 RMK AO2 SLP251 60001 T00940056 10094 20061 51017","updated":"2026-04-10T18:51:19Z"}
