{"icao":"KORD","metar":"KORD 131551Z 23016G27KT 10SM FEW045 FEW100 SCT250 27/14 A2990 RMK AO2 PK WND 23027/1545 SLP121 T02670139 $","updated":"2026-06-13T16:22:19Z"}
