{"icao":"LPPT","metar":"LPPT 161100Z VRB05KT CAVOK 25/10 Q1015","updated":"2025-10-16T11:15:13Z"}
