{"icao":"KLAX","metar":"KLAX 111853Z 22004KT 10SM FEW009 BKN021 BKN028 16/11 A3013 RMK AO2 SLP203 T01610111 $","updated":"2026-02-11T19:01:41Z"}
