{"icao":"LPBJ","metar":"LPBJ 182300Z 27003KT CAVOK 10/09 Q1018","updated":"2025-11-18T23:16:52Z"}
