{"icao":"KLAX","metar":"KLAX 210753Z VRB04KT 10SM CLR 11/03 A3012 RMK AO2 SLP198 T01060033 401440050 $","updated":"2026-02-21T08:29:38Z"}
