{"icao":"LPMA","metar":"LPMA 050100Z 32005KT 290V010 9999 BKN016 SCT030 17/09 Q1026","updated":"2025-12-05T01:27:18Z"}
