{"icao":"LPPT","metar":"LPPT 281000Z 31016G29KT 9999 VCSH FEW012 BKN015 18/16 Q1013 WS R02","updated":"2025-09-28T10:15:50Z"}
