{"icao":"LPAZ","metar":"LPAZ 261630Z 13010KT 090V150 9999 FEW016 20/16 Q1021","updated":"2026-04-26T16:40:52Z"}
