{"icao":"LPOV","metar":"LPOV 140300Z VRB01KT 0050 FG OVC002 13/13 Q1016","updated":"2025-10-14T03:36:26Z"}
