{"icao":"KLAX","metar":"KLAX 281953Z 27009KT 10SM FEW200 FEW240 SCT290 23/14 A2993 RMK AO2 SLP134 T02280139","updated":"2026-02-28T20:24:29Z"}
