{"icao":"LPPS","metar":"LPPS 272330Z 35013KT 320V030 9999 SCT015 BKN030 16/10 Q1018","updated":"2026-04-27T23:58:30Z"}
