{"icao":"LPPR","metar":"LPPR 280700Z 11007KT 090V150 8000 NSC 05/05 Q1024","updated":"2025-11-28T07:18:34Z"}
