{"icao":"KLAX","metar":"KLAX 292053Z 23008KT 8SM FEW230 FEW280 18/13 A2999 RMK AO2 SLP154 T01830128 58020 $","updated":"2025-11-29T21:16:06Z"}
