{"icao":"LPMT","metar":"LPMT 211500Z 02015KT CAVOK 16/02 Q1026","updated":"2025-11-21T15:17:13Z"}
