{"icao":"LPFL","metar":"LPFL 262000Z VRB13G25KT 9999 FEW016 BKN019 FEW022TCU 10/02 Q1007","updated":"2026-01-26T20:26:55Z"}
