{"icao":"LPFR","metar":"LPFR 282000Z 23005KT 3000 -DZ BR BKN002 15/14 Q1010","updated":"2026-01-28T20:29:12Z"}
