{"icao":"LPPS","metar":"LPPS 161300Z 33012KT 9999 FEW015 22/13 Q1021","updated":"2025-11-16T13:23:00Z"}
