{"icao":"LPLA","metar":"LPLA 191600Z 04003KT 280V070 9999 FEW008 SCT016 BKN030 24/21 Q1015","updated":"2025-10-19T16:19:34Z"}
