{"icao":"LPOV","metar":"LPOV 211100Z 27006KT 240V300 9000 FEW002 21/19 Q1018","updated":"2026-06-21T11:45:56Z"}
