{"icao":"KJFK","metar":"KJFK 140951Z 00000KT 1/2SM R04R/2800V3000FT SN FG OVC004 00/00 A2994 RMK AO2 SLP137 SNINCR 1/2 P0006 T00000000","updated":"2025-12-14T10:18:58Z"}
