{"icao":"LPAR","metar":"LPAR 291100Z 05004KT 030V090 9999 BKN015 19/17 Q1008","updated":"2025-10-29T11:16:07Z"}
