{"icao":"LPFL","metar":"LPFL 261230Z 18019G34KT 160V230 8000 3000N -SHRA FEW010 BKN015 19/17 Q1018","updated":"2025-11-26T12:40:48Z"}
