{"icao":"LPAZ","metar":"LPAZ 030430Z 26025KT 6000 -RA BKN007 16/15 Q1011","updated":"2026-02-03T04:45:08Z"}
