{"icao":"KORD","metar":"KORD 050451Z 21005KT 10SM CLR M12/M17 A3017 RMK AO2 SLP231 T11171172","updated":"2025-12-05T05:19:04Z"}
