{"icao":"LPOV","metar":"LPOV 302100Z 15002KT 0800 FG NSC 05/05 Q1021","updated":"2025-12-30T21:18:39Z"}
