{"icao":"LPBJ","metar":"LPBJ 071316Z 23020G31KT 8000 VCSH SCT008 FEW018CB BKN024 14/11 Q1005","updated":"2026-02-07T13:42:33Z"}
