{"icao":"KJFK","metar":"KJFK 170251Z 23011KT 10SM OVC095 00/M10 A3010 RMK AO2 SLP193 T00001100 53016 $","updated":"2026-01-17T03:21:23Z"}
