{"icao":"LPAZ","metar":"LPAZ 051300Z 14010KT 110V170 9999 SCT015 26/21 Q1024","updated":"2025-10-05T13:20:17Z"}
