{"icao":"LPPS","metar":"LPPS 102300Z 36005KT 9999 SCT015 14/13 Q1030","updated":"2026-01-10T23:18:32Z"}
