{"icao":"LPCS","metar":"LPCS 290800Z 02010KT 9999 FEW004 17/15 Q1017","updated":"2025-09-29T08:25:51Z"}
