{"icao":"LPPD","metar":"LPPD 091600Z 20011KT 8000 -SHRA FEW006 SCT012 BKN025 16/14 Q1028","updated":"2026-01-09T16:26:38Z"}
