{"icao":"LPHR","metar":"LPHR 151230Z 19014KT 9999 FEW018 BKN040 17/14 Q1029","updated":"2026-02-15T12:48:33Z"}
