{"icao":"KORD","metar":"KORD 230651Z 09009KT 10SM BKN026 BKN032 OVC110 16/10 A2996 RMK AO2 SLP145 T01560100","updated":"2026-05-23T07:30:22Z"}
