{"icao":"LPCS","metar":"LPCS 021400Z 01014KT 9999 FEW010 25/13 Q1021","updated":"2025-10-02T14:17:13Z"}
