{"icao":"LPCS","metar":"LPCS 231400Z 27006KT 230V320 9999 FEW015 FEW030CB 11/10 Q1001","updated":"2026-01-23T14:23:49Z"}
