{"icao":"LPCS","metar":"LPCS 211230Z 16008KT 9999 FEW017 SCT021 17/13 Q1009","updated":"2026-03-21T12:45:51Z"}
