{"icao":"LPLA","metar":"LPLA 301700Z 24009KT 9999 SCT022 BKN027 18/14 Q1025","updated":"2025-11-30T17:15:29Z"}
