{"icao":"LPMA","metar":"LPMA 211330Z 16004KT 110V200 9999 FEW016 19/13 Q1020","updated":"2026-01-21T13:43:59Z"}
