{"icao":"KORD","metar":"KORD 270751Z 21004KT 10SM CLR 01/M01 A2987 RMK AO2 SLP120 T00111011","updated":"2026-02-27T08:38:56Z"}
