{"icao":"LPPT","metar":"LPPT 232100Z 34012KT CAVOK 19/06 Q1018","updated":"2025-09-23T21:14:57Z"}
