{"icao":"LPMR","metar":"LPMR 140800Z 17010KT 9999 VCTS SCT020 14/12 Q1002","updated":"2025-11-14T08:24:34Z"}
