{"icao":"LPFR","metar":"LPFR 201800Z 25012KT CAVOK 21/19 Q1015","updated":"2025-10-20T18:27:03Z"}
