{"icao":"LPAZ","metar":"LPAZ 060900Z 06005KT 9999 FEW012 BKN049 13/06 Q1033","updated":"2026-01-06T09:25:08Z"}
