{"icao":"LPAZ","metar":"LPAZ 230100Z 21010KT 9999 FEW024 22/16 Q1023","updated":"2025-09-23T01:17:29Z"}
