{"icao":"LPPT","metar":"LPPT 262000Z 14004KT 110V250 9999 FEW040 10/07 Q1013","updated":"2025-12-26T20:20:14Z"}
