{"icao":"LPAZ","metar":"LPAZ 072130Z 31006KT 9999 BKN004 BKN032 19/19 Q1031","updated":"2026-06-07T22:02:18Z"}
