{"icao":"KLAX","metar":"KLAX 310253Z 23006KT 10SM CLR 19/14 A2990 RMK AO2 SLP124 T01940144 53002 $","updated":"2025-10-31T03:09:28Z"}
