{"icao":"KJFK","metar":"KJFK 080451Z 19014KT 10SM BKN060 OVC075 21/18 A3000 RMK AO2 SLP160 T02110183 402500178","updated":"2025-10-08T05:17:23Z"}
