{"icao":"LPHR","metar":"LPHR 071500Z 22016KT 180V240 9000 -SHRA SCT012 BKN030 16/14 Q1030","updated":"2026-01-07T15:24:16Z"}
