{"icao":"LPPR","metar":"LPPR 211000Z 23009KT 200V260 9000 VCSH SCT015 BKN030 14/12 Q1002","updated":"2026-01-21T10:27:28Z"}
