{"icao":"LPPR","metar":"LPPR 021100Z 24006KT 150V310 9999 BKN030 14/09 Q1017","updated":"2025-12-02T11:18:08Z"}
