{"icao":"LPFR","metar":"LPFR 110730Z 25011KT 2800 -DZ BR OVC002 15/15 Q1020","updated":"2026-02-11T07:58:29Z"}
