{"icao":"KJFK","metar":"KJFK 150251Z 36009G20KT 10SM BKN017 OVC045 16/13 A3005 RMK AO2 SLP174 T01560128 51002","updated":"2025-10-15T03:03:44Z"}
