{"icao":"LPMR","metar":"LPMR 140300Z 15003KT CAVOK 12/11 Q1016","updated":"2025-10-14T03:36:27Z"}
