{"icao":"LPMT","metar":"LPMT 291100Z 25017KT 2500 -RADZ BR SCT005 BKN007 16/16 Q1009","updated":"2026-01-29T11:29:48Z"}
