{"icao":"KJFK","metar":"KJFK 071551Z 19009KT 10SM FEW043 FEW065 SCT250 24/17 A3017 RMK AO2 SLP217 T02390172","updated":"2025-10-07T16:22:05Z"}
