{"icao":"KORD","metar":"KORD 271851Z 07013KT 10SM FEW030 SCT250 13/02 A3018 RMK AO2 SLP221 T01280022","updated":"2025-10-27T19:14:28Z"}
