{"icao":"LPAZ","metar":"LPAZ 041800Z 02009KT 350V050 9999 FEW017 SCT026 14/10 Q1021","updated":"2026-01-04T18:27:28Z"}
