{"icao":"LPFR","metar":"LPFR 012200Z 03005KT 340V040 CAVOK 11/09 Q1020","updated":"2025-12-01T22:16:52Z"}
