{"icao":"LPFR","metar":"LPFR 100730Z 30008KT CAVOK 08/06 Q1020","updated":"2026-03-10T07:39:21Z"}
