{"icao":"LPMA","metar":"LPMA 261630Z 14004KT 040V180 9999 FEW014 BKN033 21/15 Q1020","updated":"2026-05-26T16:41:04Z"}
