{"icao":"LPPR","metar":"LPPR 140230Z 14003KT 090V170 3000 -DZRA BR BKN003 OVC006 18/18 Q1023 REDZ","updated":"2025-09-14T03:01:02Z"}
