{"icao":"KLAX","metar":"KLAX 021705Z 12006KT 2SM HZ BKN008 17/14 A3007 RMK AO2 VIS S-W 1 1/2 T01720139 $","updated":"2025-11-02T17:14:43Z"}
