{"icao":"KLAX","metar":"KLAX 281053Z 05005KT 9SM CLR 16/14 A2994 RMK AO2 SLP137 T01610139 $","updated":"2025-10-28T11:14:54Z"}
