{"icao":"KLAX","metar":"KLAX 081353Z 08003KT 10SM FEW012 FEW018 09/07 A3002 RMK AO2 SLP165 T00940072 $","updated":"2026-01-08T14:24:17Z"}
