{"icao":"LPHR","metar":"LPHR 292200Z 28005KT 240V310 4000 BR SCT001 BKN002 18/17 Q1021","updated":"2026-05-30T02:55:16Z"}
