{"icao":"LPPT","metar":"LPPT 300830Z 22009KT 200V260 5000 -RA BR FEW006 SCT010 BKN012 14/13 Q1013","updated":"2026-01-30T08:37:11Z"}
