{"icao":"LPMT","metar":"LPMT 221300Z 36005KT 9999 -SHRA FEW018 BKN040 11/08 Q1014","updated":"2025-12-22T13:32:59Z"}
