{"icao":"LPLA","metar":"LPLA 252300Z 15009KT 9999 SCT015 18/17 Q1022","updated":"2026-05-26T00:04:08Z"}
