{"icao":"KORD","metar":"KORD 021051Z 24006KT 7SM -FZDZ OVC008 M06/M07 A3005 RMK AO2 SLP186 P0000 I1000 T10561072","updated":"2026-02-02T11:34:19Z"}
