{"icao":"LPOV","metar":"LPOV 070600Z 00000KT 9999 FEW016 09/09 Q1010","updated":"2026-05-07T06:08:51Z"}
