{"icao":"KLAX","metar":"KLAX 151553Z 11005KT 10SM FEW010 OVC022 18/12 A2999 RMK AO2 SLP155 T01780122","updated":"2026-05-15T16:50:13Z"}
