{"icao":"LPMA","metar":"LPMA 191100Z 16006KT 080V200 9999 FEW015 23/17 Q1019","updated":"2026-06-19T11:20:46Z"}
