{"icao":"KORD","metar":"KORD 250851Z 34006KT 10SM FEW023 FEW043 16/13 A2994 RMK AO2 SLP137 T01560133 55011 $","updated":"2025-09-25T09:19:17Z"}
