{"icao":"LPBJ","metar":"LPBJ 081500Z 20012KT 150V230 CAVOK 21/07 Q1008","updated":"2026-05-08T15:20:32Z"}
