{"icao":"LPPS","metar":"LPPS 021100Z 04017KT 360V070 7000 -RADZ BKN010 17/15 Q1025","updated":"2025-12-02T11:18:29Z"}
