{"icao":"LPCS","metar":"LPCS 070800Z 20017G27KT 6000 -RA SCT003 BKN008 13/13 Q1003","updated":"2026-02-07T08:30:03Z"}
