{"icao":"LPPS","metar":"LPPS 281000Z 03013KT 360V060 9999 SCT012 22/19 Q1025","updated":"2026-06-28T10:25:50Z"}
