{"icao":"LPPR","metar":"LPPR 220800Z 21008KT 3500 BR BKN002 19/19 Q1014","updated":"2025-10-22T08:26:31Z"}
