{"icao":"LPOV","metar":"LPOV 211400Z 30005KT CAVOK 15/11 Q1029","updated":"2026-02-21T14:24:53Z"}
