{"icao":"LPPS","metar":"LPPS 271900Z 04008KT 360V070 9999 SCT015 SCT030 18/11 Q1023","updated":"2025-11-27T19:14:50Z"}
