{"icao":"KJFK","metar":"KJFK 170851Z 28022G33KT 10SM SCT065 03/M09 A2961 RMK AO2 PK WND 29033/0850 SLP026 T00331089 51018 $","updated":"2025-11-17T09:23:41Z"}
