{"icao":"LPFR","metar":"LPFR 150900Z 29004KT 230V320 CAVOK 11/08 Q1031","updated":"2026-02-15T09:29:52Z"}
