{"icao":"LPFR","metar":"LPFR 231500Z 23007KT CAVOK 17/08 Q1025","updated":"2025-11-23T15:16:34Z"}
