{"icao":"KLAX","metar":"KLAX 180653Z 05006KT 10SM FEW014 SCT028 SCT035 13/11 A2990 RMK AO2 SLP124 T01280106 $","updated":"2025-11-18T07:18:46Z"}
