{"icao":"KLAX","metar":"KLAX 221753Z 00000KT 10SM FEW070 SCT085 BKN130 BKN200 18/08 A2997 RMK AO2 SLP146 T01780078 10178 20094 53012 $","updated":"2025-11-22T18:24:47Z"}
