{"icao":"LPMA","metar":"LPMA 231530Z 05005KT 350V130 9999 FEW014 18/14 Q1022","updated":"2026-02-23T15:44:02Z"}
