{"icao":"LPMA","metar":"LPMA 261400Z 20009KT 130V250 9999 FEW015 25/18 Q1021","updated":"2025-09-26T14:15:31Z"}
