{"icao":"KJFK","metar":"KJFK 151051Z 06007KT 10SM SCT120 BKN160 BKN250 02/M07 A3046 RMK AO2 SLP315 T00221067","updated":"2026-03-15T11:24:42Z"}
