{"icao":"LPBJ","metar":"LPBJ 101800Z 31011KT 9999 VCTS FEW020 SCT025CB 22/15 Q1011","updated":"2026-04-10T18:51:03Z"}
