{"icao":"LPBJ","metar":"LPBJ 161200Z 23008KT 9999 FEW006 SCT025 12/09 Q1015","updated":"2026-01-16T12:42:10Z"}
