{"icao":"LPMT","metar":"LPMT 061800Z 34008KT 310V010 9999 FEW025 10/03 Q1024","updated":"2026-01-06T18:30:17Z"}
