{"icao":"LPFR","metar":"LPFR 281800Z 20004KT 170V240 CAVOK 16/10 Q1021","updated":"2026-02-28T18:31:29Z"}
