{"icao":"LPMT","metar":"LPMT 131900Z 26005KT 9999 FEW020 SCT040 13/10 Q1013","updated":"2026-01-13T19:19:01Z"}
