{"icao":"LPMR","metar":"LPMR 190000Z VRB01KT 4000 BR NSC 13/13 Q1016","updated":"2026-04-19T05:27:45Z"}
