{"icao":"LPPR","metar":"LPPR 151900Z VRB02KT 9999 -RA FEW045 10/09 Q1004","updated":"2025-12-15T19:18:38Z"}
