{"icao":"KLAX","metar":"KLAX 261853Z 08007KT 10SM FEW095 BKN160 BKN250 20/M03 A3028 RMK AO2 SLP253 T02001028 $","updated":"2026-01-26T19:22:35Z"}
