{"icao":"LPHR","metar":"LPHR 100930Z VRB01KT 9999 VCSH FEW006 BKN012 19/17 Q1029","updated":"2026-06-10T09:56:57Z"}
