{"icao":"LPFL","metar":"LPFL 111030Z 02010KT 350V050 9999 SCT020 FEW022TCU SCT040 15/10 Q1026","updated":"2026-05-11T10:37:13Z"}
