{"icao":"LPFR","metar":"LPFR 021630Z 15013KT 9000 BKN012 17/14 Q1008","updated":"2026-03-02T16:43:20Z"}
