{"icao":"KJFK","metar":"KJFK 181927Z 01005KT 1 1/2SM BR OVC005 04/03 A2977 RMK AO2 SFC VIS 4 T00390033 $","updated":"2026-02-18T19:47:17Z"}
