{"icao":"LPMT","metar":"LPMT 312100Z 20011KT 170V230 9999 FEW015 SCT020 BKN030 20/18 Q1013","updated":"2025-10-31T22:16:38Z"}
