{"icao":"LPLA","metar":"LPLA 240600Z 12002KT 100V160 9999 FEW030 12/10 Q1026","updated":"2025-11-24T06:29:50Z"}
