{"icao":"LPMA","metar":"LPMA 231230Z 10005KT 040V140 9999 SCT014 18/13 Q1024","updated":"2026-02-23T13:01:34Z"}
