{"icao":"LPLA","metar":"LPLA 042200Z 35003KT 320V040 9999 FEW012 SCT018 19/17 Q1025","updated":"2026-06-04T22:19:35Z"}
