{"icao":"LPPR","metar":"LPPR 271630Z 30005KT 250V330 CAVOK 29/10 Q1018","updated":"2026-05-27T16:35:25Z"}
