{"icao":"KLAX","metar":"KLAX 061253Z 35003KT 10SM FEW007 FEW025 OVC140 17/16 A2998 RMK AO2 SLP151 T01720156 $","updated":"2026-04-06T13:07:13Z"}
