{"icao":"LPCS","metar":"LPCS 081600Z 19010KT 1500 -RADZ BR FEW001 BKN003 12/12 Q1013","updated":"2026-02-08T16:29:25Z"}
