{"icao":"LPPS","metar":"LPPS 092200Z 04006KT 9999 FEW015 SCT030 20/14 Q1023","updated":"2025-11-09T22:15:47Z"}
