{"icao":"LPFR","metar":"LPFR 302030Z 30008KT CAVOK 27/16 Q1018","updated":"2026-05-30T20:54:27Z"}
