{"icao":"KLAX","metar":"KLAX 122253Z 23006KT 10SM CLR 21/M01 A3013 RMK AO2 SLP202 T02111006 $","updated":"2026-01-12T23:16:04Z"}
