{"icao":"KORD","metar":"KORD 141151Z 02007KT 10SM SCT140 BKN250 M02/M08 A3017 RMK AO2 SLP222 T10171078 10006 21022 51014 $","updated":"2026-03-14T12:49:45Z"}
