{"icao":"KORD","metar":"KORD 181851Z 22008G17KT 10SM FEW028 BKN110 BKN250 M09/M17 A2992 RMK AO2 SLP145 T10941167 $","updated":"2026-01-18T19:15:40Z"}
