{"icao":"LPBJ","metar":"LPBJ 101200Z 21004KT 140V280 9999 FEW014 SCT018 18/13 Q1020","updated":"2025-11-10T12:38:36Z"}
