{"icao":"KORD","metar":"KORD 280651Z 09008KT 10SM FEW250 09/04 A3014 RMK AO2 SLP206 T00890039","updated":"2025-10-28T07:17:46Z"}
