{"icao":"KJFK","metar":"KJFK 211651Z 32011G16KT 10SM BKN040 BKN250 08/M01 A2999 RMK AO2 SLP156 T00831011 $","updated":"2026-02-21T17:24:32Z"}
