{"icao":"LPPT","metar":"LPPT 011500Z 17006KT 110V210 9999 FEW030 18/09 Q1019","updated":"2026-03-01T15:22:05Z"}
