{"icao":"LPMT","metar":"LPMT 140900Z 20010KT 9999 SCT015 SCT025 15/11 Q1003","updated":"2025-11-14T09:19:44Z"}
