{"icao":"KLAX","metar":"KLAX 140853Z 27004KT 10SM FEW015 15/11 A3008 RMK AO2 SLP183 T01500111 51003 $","updated":"2026-04-14T09:16:44Z"}
