{"icao":"LPAR","metar":"LPAR 131500Z 31011KT 280V350 9999 SCT022 15/11 Q1022","updated":"2026-03-13T15:40:55Z"}
