{"icao":"LPBJ","metar":"LPBJ 200100Z 24008KT 5000 -DZ OVC005 19/18 Q1015","updated":"2025-10-20T01:25:43Z"}
