{"icao":"KJFK","metar":"KJFK 051651Z 18008KT 10SM FEW045 BKN070 OVC100 01/M07 A3021 RMK AO2 SLP229 T00061067 $","updated":"2026-01-05T17:21:52Z"}
