{"icao":"LPMA","metar":"LPMA 112300Z 35006KT 310V010 9999 FEW015 21/15 Q1019","updated":"2025-10-11T23:16:01Z"}
