{"icao":"LPPD","metar":"LPPD 192330Z 20017KT 8000 SCT008 BKN011 17/16 Q1014","updated":"2026-05-20T00:03:48Z"}
