{"icao":"LPBJ","metar":"LPBJ 210900Z 33004KT CAVOK 08/03 Q1025","updated":"2025-11-21T09:19:18Z"}
