{"icao":"LPAZ","metar":"LPAZ 261500Z 05014KT 010V080 9000 -SHRA FEW011 BKN020 FEW025TCU 18/16 Q1017","updated":"2025-10-26T15:16:09Z"}
