{"icao":"LPBJ","metar":"LPBJ 290100Z 27021KT 5000 -DZ BR OVC005 15/15 Q1008","updated":"2026-01-29T01:56:12Z"}
