{"icao":"LPCS","metar":"LPCS 181800Z 26004KT 230V290 CAVOK 21/16 Q1016","updated":"2025-10-18T18:22:11Z"}
