{"icao":"KLAX","metar":"KLAX 080653Z VRB03KT 10SM FEW007 FEW015 17/14 A2993 RMK AO2 SLP132 T01720144 $","updated":"2026-04-08T07:18:07Z"}
