{"icao":"LPPR","metar":"LPPR 091000Z 12009KT CAVOK 13/09 Q1022","updated":"2025-11-09T10:16:44Z"}
