{"icao":"LPPD","metar":"LPPD 211300Z 04010KT 360V070 9999 FEW027 SCT040 18/10 Q1032","updated":"2025-11-21T13:27:27Z"}
