{"icao":"LPBJ","metar":"LPBJ 171900Z 20011KT 9999 FEW030 16/10 Q1009","updated":"2026-03-17T19:06:22Z"}
