{"icao":"LPMA","metar":"LPMA 252300Z 26008KT 9999 BKN015 FEW016TCU 21/19 Q1015","updated":"2025-10-25T23:15:34Z"}
