{"icao":"KJFK","metar":"KJFK 300751Z 31015KT 10SM FEW041 FEW250 M10/M18 A3016 RMK SLP212 T11001183 $ ","updated":"2026-01-30T08:37:47Z"}
