{"icao":"LPMA","metar":"LPMA 160400Z 33006KT 300V360 9999 FEW015 18/12 Q1019","updated":"2025-11-16T04:24:27Z"}
