{"icao":"LPFL","metar":"LPFL 091700Z VRB07G18KT 9999 -DZ BKN010 19/16 Q1018","updated":"2026-01-09T17:22:10Z"}
