{"icao":"LPLA","metar":"LPLA 021800Z 08005KT 020V120 9999 FEW018 OVC025 15/10 Q1030","updated":"2026-04-02T18:55:19Z"}
