{"icao":"LPCS","metar":"LPCS 230800Z 35004KT 310V010 9999 FEW007 SCT022 11/11 Q1011","updated":"2025-12-23T08:28:12Z"}
