{"icao":"LPAZ","metar":"LPAZ 301500Z 22009KT 0500 R18/0500 FG VV001 20/19 Q1026","updated":"2026-05-30T15:04:57Z"}
