{"icao":"LPAR","metar":"LPAR 141500Z 33012KT 8000 -SHRA BKN022 FEW025TCU SCT030 14/10 Q1020","updated":"2026-01-14T15:24:44Z"}
