{"icao":"LPPS","metar":"LPPS 210700Z 34013KT 9999 SCT004 SCT030 22/21 Q1019 REDZ","updated":"2025-10-21T07:18:45Z"}
