{"icao":"LPLA","metar":"LPLA 211200Z 30007KT 230V010 9999 FEW017 26/19 Q1013","updated":"2025-10-21T12:39:00Z"}
