{"icao":"LPPR","metar":"LPPR 020730Z 23014KT 210V270 9999 VCSH FEW015 FEW018CB SCT030 12/08 Q0991","updated":"2026-02-02T07:48:23Z"}
