{"icao":"LPOV","metar":"LPOV 120900Z 15004KT 5000 BR FEW002 SCT018 12/12 Q1019","updated":"2026-02-12T09:48:41Z"}
