{"icao":"LPHR","metar":"LPHR 022200Z 31007KT 280V360 9999 SCT017 SCT033 14/10 Q1011","updated":"2026-01-02T22:18:59Z"}
