{"icao":"KLAX","metar":"KLAX 010953Z 00000KT 10SM CLR 18/03 A3005 RMK AO2 SLP170 T01780028 $","updated":"2026-02-01T10:24:26Z"}
