{"icao":"KJFK","metar":"KJFK 230251Z 28014KT 10SM BKN230 05/M12 A3008 RMK SLP185 T00501122 51009 $ ","updated":"2026-01-23T03:41:00Z"}
