{"icao":"LPMA","metar":"LPMA 060900Z 02010KT 320V070 9999 BKN015 FEW018TCU 16/09 Q1027","updated":"2026-01-06T09:25:21Z"}
