{"icao":"KORD","metar":"KORD 281351Z 30009KT 10SM FEW030 FEW250 M06/M10 A3035 RMK AO2 SLP288 T10561100","updated":"2025-11-28T14:19:15Z"}
