{"icao":"LPLA","metar":"LPLA 182300Z 35012KT 9999 BKN014 17/14 Q1026","updated":"2025-11-18T23:17:06Z"}
