{"icao":"LPBJ","metar":"LPBJ 051200Z 33015KT CAVOK 09/M02 Q1011","updated":"2026-01-05T12:43:45Z"}
