{"icao":"LPPD","metar":"LPPD 060230Z 02006KT 350V060 9999 FEW020 BKN035 14/10 Q1025","updated":"2026-05-06T02:43:01Z"}
