{"icao":"LPAR","metar":"LPAR 171200Z 13003KT 010V180 CAVOK 25/11 Q1015","updated":"2025-10-17T12:36:54Z"}
