{"icao":"LPPS","metar":"LPPS 160600Z 34024KT 9999 SCT015 17/10 Q1023","updated":"2025-12-16T06:32:01Z"}
