{"icao":"KLAX","metar":"KLAX 212053Z 27006KT 3SM HZ FEW009 BKN120 OVC140 17/13 A3007 RMK AO2 SLP181 T01670128 58020","updated":"2026-01-21T21:27:40Z"}
