{"icao":"LPMT","metar":"LPMT 311300Z 01010KT CAVOK 23/09 Q1025","updated":"2026-03-31T13:15:58Z"}
