{"icao":"LPST","metar":"LPST 151300Z 33013KT 300V020 CAVOK 25/16 Q1022","updated":"2025-09-15T13:26:22Z"}
