{"icao":"LPMA","metar":"LPMA 041200Z 04014KT 9999 SCT015 23/17 Q1027","updated":"2025-10-04T12:31:52Z"}
