{"icao":"LPAZ","metar":"LPAZ 021030Z 07010KT 030V120 9999 SCT019 23/17 Q1027","updated":"2026-07-02T10:37:21Z"}
