{"icao":"LPAZ","metar":"LPAZ 110730Z VRB02KT 9999 BKN026 12/08 Q1033","updated":"2026-03-11T07:42:10Z"}
