{"icao":"LPLA","metar":"LPLA 102200Z 21025G47KT 160V250 9000 -RADZ SCT007 BKN013 FEW015TCU 18/15 Q1016 RERADZ","updated":"2026-01-10T22:18:38Z"}
