{"icao":"KORD","metar":"KORD 200651Z 25004KT 10SM CLR 07/01 A2994 RMK AO2 SLP140 T00720006 $","updated":"2025-10-20T07:19:08Z"}
