{"icao":"LPST","metar":"LPST 051500Z 33010KT 4000 -DZ BR SCT004 BKN012 12/11 Q1016","updated":"2026-03-05T15:49:18Z"}
