{"icao":"LPLA","metar":"LPLA 080400Z 24021G34KT 9999 FEW009 BKN015 19/17 Q1009","updated":"2026-02-08T05:02:02Z"}
