{"icao":"LPHR","metar":"LPHR 231500Z 27011KT 9999 FEW025 SCT040 20/12 Q1026","updated":"2025-11-23T15:16:38Z"}
