{"icao":"KORD","metar":"KORD 131751Z 21013G23KT 10SM FEW250 09/M02 A3011 RMK AO2 SLP202 T00891022 10089 21033 58024","updated":"2026-02-13T18:47:17Z"}
