{"icao":"LPAZ","metar":"LPAZ 101930Z 03008KT 010V070 9999 FEW012 BKN034 21/17 Q1027","updated":"2026-06-10T19:36:55Z"}
