{"icao":"LPOV","metar":"LPOV 251200Z 27011KT 240V310 9999 FEW024 SCT035 14/10 Q1013","updated":"2026-01-25T12:40:08Z"}
