{"icao":"LPLA","metar":"LPLA 071700Z 35005KT 330V040 9999 FEW020 23/18 Q1023","updated":"2025-10-07T17:15:22Z"}
