{"icao":"LPMR","metar":"LPMR 161400Z 34006KT 300V360 9999 SCT020 FEW022CB BKN035 12/08 Q1013","updated":"2026-01-16T14:22:09Z"}
