{"icao":"LPLA","metar":"LPLA 221411Z 18014KT 8000 -RA FEW015 20/16 Q1021","updated":"2025-09-22T14:18:35Z"}
