{"icao":"LPCS","metar":"LPCS 111900Z 36021G33KT 9999 FEW025 12/05 Q1016 WS R35","updated":"2026-04-11T19:33:30Z"}
