{"icao":"LPCS","metar":"LPCS 241300Z 22010KT 190V250 9999 FEW010 BKN016 23/20 Q1017","updated":"2025-10-24T13:29:07Z"}
