{"icao":"LPMR","metar":"LPMR 030800Z 14009KT 9999 FEW020 SCT032 13/11 Q0999","updated":"2026-01-03T08:25:28Z"}
