{"icao":"LPAZ","metar":"LPAZ 051800Z 06005KT 030V090 9999 FEW032 BKN048 14/09 Q1030","updated":"2026-01-05T18:31:22Z"}
