{"icao":"LPHR","metar":"LPHR 131900Z 23007KT 180V260 9999 FEW025 20/13 Q1014","updated":"2025-10-13T19:13:14Z"}
