{"icao":"LPPS","metar":"LPPS 150800Z 06009KT 030V090 9999 FEW015 SCT030 23/17 Q1023","updated":"2025-09-15T08:23:41Z"}
