{"icao":"LPMT","metar":"LPMT 030500Z 01004KT CAVOK 15/13 Q1021","updated":"2025-10-03T05:16:51Z"}
