{"icao":"LPLA","metar":"LPLA 192000Z 22019G31KT 9000 -DZRA SCT014 SCT025 18/14 Q1009","updated":"2026-05-19T20:47:43Z"}
