{"icao":"LPBJ","metar":"LPBJ 090836Z 23003KT 2000 BCFG SCT043 09/09 Q1023","updated":"2026-03-09T08:42:07Z"}
