{"icao":"LPLA","metar":"LPLA 161500Z 31021KT 9999 BKN035 16/09 Q1033","updated":"2026-01-16T15:22:33Z"}
