{"icao":"LPPT","metar":"LPPT 291100Z 06007KT 350V090 CAVOK 10/07 Q1020","updated":"2025-12-29T11:17:41Z"}
