{"icao":"KJFK","metar":"KJFK 110251Z 30013G27KT 10SM OVC033 04/M03 A2971 RMK AO2 PK WND 31029/0207 SLP059 T00391033 50006","updated":"2025-11-11T03:12:33Z"}
