{"icao":"LPPR","metar":"LPPR 121700Z 33007KT CAVOK 23/12 Q1016","updated":"2025-10-12T17:13:16Z"}
