{"icao":"LPPT","metar":"LPPT 231530Z 28007KT 220V330 9999 SCT032 19/12 Q1013","updated":"2026-04-23T15:51:17Z"}
