{"icao":"LPMA","metar":"LPMA 282330Z 15003KT 060V230 9999 SCT015 BKN033 17/10 Q1015","updated":"2026-04-28T23:58:14Z"}
