{"icao":"LPBJ","metar":"LPBJ 032100Z 28006KT CAVOK 20/10 Q1022","updated":"2025-10-03T21:14:11Z"}
