{"icao":"LPBJ","metar":"LPBJ 220600Z VRB02KT CAVOK 21/16 Q1017","updated":"2026-06-22T06:27:39Z"}
