{"icao":"LPLA","metar":"LPLA 271300Z 06008KT 030V100 9999 FEW030 BKN045 20/11 Q1027","updated":"2025-09-27T13:19:54Z"}
