{"icao":"LPPD","metar":"LPPD 171100Z 18011KT 4500 -RA BR BKN012 BKN025 18/16 Q1025","updated":"2025-11-17T11:16:39Z"}
