{"icao":"LPPS","metar":"LPPS 251730Z 02019KT 9999 SCT015 15/10 Q1020","updated":"2026-02-25T17:56:12Z"}
