{"icao":"LPMT","metar":"LPMT 010600Z 03006KT CAVOK 15/13 Q1019","updated":"2025-10-01T06:27:01Z"}
