{"icao":"LPBJ","metar":"LPBJ 011300Z 14005KT 100V170 9999 SCT025 16/10 Q1021","updated":"2026-03-01T13:37:31Z"}
