{"icao":"LPAZ","metar":"LPAZ 160200Z 06005KT 9999 -DZ FEW009 BKN025 14/12 Q1024","updated":"2026-03-16T02:22:38Z"}
