{"icao":"LPMR","metar":"LPMR 211100Z 25006KT 220V280 6000 SCT006 BKN018 21/20 Q1014","updated":"2025-10-21T11:14:58Z"}
