{"icao":"KJFK","metar":"KJFK 071551Z 21016G24KT 10SM FEW045 FEW210 BKN250 13/01 A3004 RMK AO2 SLP171 T01330006 $","updated":"2025-11-07T16:19:23Z"}
