{"icao":"LPPT","metar":"LPPT 130300Z 17014KT 9999 -RA FEW018CB SCT020 18/16 Q1002","updated":"2025-11-13T03:13:33Z"}
