{"icao":"LPBJ","metar":"LPBJ 251100Z VRB03KT CAVOK 26/04 Q1018","updated":"2025-09-25T11:15:18Z"}
