{"icao":"LPLA","metar":"LPLA 060400Z 00000KT 9999 SCT028 BKN043 12/07 Q1032","updated":"2026-01-06T04:38:42Z"}
