{"icao":"KLAX","metar":"KLAX 142253Z 26008KT 10SM FEW250 21/09 A3005 RMK AO2 SLP174 T02110094 $","updated":"2026-01-14T23:17:08Z"}
