{"icao":"KORD","metar":"KORD 170051Z 08005KT 10SM BKN300 23/11 A3015 RMK AO2 SLP205 T02280111 $","updated":"2025-09-17T01:17:01Z"}
