{"icao":"LPLA","metar":"LPLA 041100Z 26016G29KT 8000 3000S -RA FEW015 SCT020 FEW022TCU 16/13 Q0994 RERA","updated":"2026-02-04T11:31:55Z"}
