{"icao":"LPMT","metar":"LPMT 032300Z 33003KT 300V020 CAVOK 16/14 Q1023","updated":"2025-10-03T23:15:06Z"}
