{"icao":"LPPT","metar":"LPPT 211000Z 06006KT CAVOK 12/08 Q1030","updated":"2026-02-21T10:24:25Z"}
