{"icao":"LPLA","metar":"LPLA 080800Z 15011KT 9000 -RA FEW010 SCT015 21/20 Q1024","updated":"2025-10-08T08:24:20Z"}
