{"icao":"LPPR","metar":"LPPR 081600Z 19014KT 170V230 5000 -RA BR FEW025 BKN030 13/08 Q1011","updated":"2026-02-08T16:29:24Z"}
