{"icao":"LPPS","metar":"LPPS 280900Z 02012KT 9999 FEW015 BKN030 23/13 Q1025","updated":"2025-09-28T09:15:52Z"}
