{"icao":"LPPD","metar":"LPPD 311000Z 28007KT 0200 R30/0225N FG VV001 18/18 Q1027","updated":"2026-05-31T10:14:23Z"}
