{"icao":"LPMA","metar":"LPMA 090330Z 01008KT 9999 BKN015 16/11 Q1033","updated":"2026-01-09T03:38:31Z"}
