{"icao":"KJFK","metar":"KJFK 251232Z 15006KT 10SM FEW007 BKN024 OVC034 22/21 A2994 RMK AO2 RAE1153 P0000 T02220206","updated":"2025-09-25T12:37:18Z"}
