{"icao":"LPMT","metar":"LPMT 201400Z 23011KT 5000 -RADZ BR SCT008 BKN018 13/13 Q1015","updated":"2025-12-20T14:16:52Z"}
