{"icao":"KORD","metar":"KORD 190251Z 27012G25KT 10SM OVC022 M02/M07 A2945 RMK AO2 PK WND 26031/0212 SLP978 T10221067 51021","updated":"2025-12-19T03:23:16Z"}
