{"icao":"LPBJ","metar":"LPBJ 091200Z VRB01KT CAVOK 18/07 Q1022","updated":"2025-11-09T12:33:34Z"}
