{"icao":"LPPR","metar":"LPPR 260400Z 35003KT CAVOK 10/08 Q1017","updated":"2025-10-26T04:19:52Z"}
