{"icao":"LPAZ","metar":"LPAZ 130100Z 05005KT 8000 -SHRA FEW005 SCT013 BKN049 18/17 Q1017","updated":"2025-10-13T01:23:33Z"}
