{"icao":"LPMA","metar":"LPMA 281230Z 01016G28KT 340V040 FEW015 18/10 Q1023","updated":"2026-03-28T12:53:09Z"}
