{"icao":"LPMT","metar":"LPMT 101200Z 26004KT 190V310 9999 SCT025 20/15 Q1019","updated":"2025-11-10T12:38:36Z"}
