{"icao":"KLAX","metar":"KLAX 051453Z 09004KT 10SM FEW011 17/13 A2983 RMK AO2 SLP100 T01670133 53013 $","updated":"2025-10-05T15:15:16Z"}
