{"icao":"LPMR","metar":"LPMR 210900Z 22013KT 1700 -DZRA BR BKN007 OVC020 15/14 Q1005 RERA","updated":"2026-01-21T09:31:01Z"}
