{"icao":"LPMR","metar":"LPMR 142200Z 31006KT 8000 OVC006 18/17 Q1018","updated":"2026-06-14T22:07:28Z"}
