{"icao":"LPHR","metar":"LPHR 162300Z 31008KT 280V350 9999 FEW016 BKN030 15/09 Q1035","updated":"2026-01-16T23:18:51Z"}
