{"icao":"LPBJ","metar":"LPBJ 161800Z 29013KT CAVOK 22/06 Q1015","updated":"2026-05-16T19:01:48Z"}
