{"icao":"LPPT","metar":"LPPT 231730Z 23009KT CAVOK 29/14 Q1012","updated":"2026-06-23T17:52:04Z"}
