{"icao":"LPCS","metar":"LPCS 181230Z 22011KT 190V250 9999 SCT005 BKN012 14/13 Q1021","updated":"2026-02-18T13:01:40Z"}
