{"icao":"LPAZ","metar":"LPAZ 291830Z 26018KT 0300 R18/0200 FG VV002 17/17 Q1015","updated":"2026-01-29T18:43:05Z"}
