{"icao":"LPPD","metar":"LPPD 251430Z 13005KT 070V170 9999 FEW020 SCT040 18/14 Q1017","updated":"2026-04-25T14:40:03Z"}
