{"icao":"LPOV","metar":"LPOV 071700Z 29004KT 220V350 9999 FEW014 SCT030 20/16 Q1022","updated":"2025-10-07T17:15:20Z"}
