{"icao":"LPLA","metar":"LPLA 072100Z 22023G35KT 8000 -RA FEW008 BKN015 17/16 Q1010","updated":"2026-02-07T21:25:40Z"}
