{"icao":"KLAX","metar":"KLAX 132153Z 16013G21KT 10SM FEW035 FEW050 21/11 A2973 RMK AO2 SLP067 T02110111 $","updated":"2025-10-13T22:16:49Z"}
