{"icao":"KJFK","metar":"KJFK 141051Z 26004KT 10SM FEW037 SCT060 BKN110 OVC230 12/12 A2977 RMK AO2 SLP079 T01220117","updated":"2026-05-14T11:51:07Z"}
