{"icao":"KORD","metar":"KORD 110451Z 01003KT 10SM TS SCT004 BKN065CB OVC110 07/06 A2965 RMK AO2 RAE35 SLP044 FRQ LTGICCCCG W-NE TS W-NE MOV E P0012 T00720061 $","updated":"2026-03-11T05:47:23Z"}
