{"icao":"KLAX","metar":"KLAX 080653Z 34008G20KT 10SM CLR 16/04 A2999 RMK AO2 PK WND 31027/0556 SLP154 T01560039 $","updated":"2026-01-08T07:23:41Z"}
