{"icao":"LPOV","metar":"LPOV 101500Z 19019G29KT 9999 FEW030 18/14 Q1008","updated":"2026-05-10T15:52:14Z"}
