{"icao":"KORD","metar":"KORD 212151Z 26017G25KT 10SM -RA SCT035 BKN047 OVC065 08/04 A2971 RMK AO2 PK WND 25032/2117 SLP063 P0001 T00830044","updated":"2025-10-21T22:16:02Z"}
