{"icao":"KORD","metar":"KORD 192251Z 23007KT 10SM SCT120 BKN210 BKN250 M08/M14 A3000 RMK AO2 SLP170 T10781144","updated":"2025-12-19T23:18:39Z"}
