{"icao":"LPBJ","metar":"LPBJ 041600Z 32009KT CAVOK 29/12 Q1020","updated":"2025-10-04T16:18:46Z"}
