{"icao":"LPHR","metar":"LPHR 101230Z 21030KT 5000 -RA BR SCT006 BKN010 BKN025 19/18 Q1014","updated":"2025-12-10T12:41:25Z"}
