{"icao":"LPOV","metar":"LPOV 091800Z 19014G25KT 9999 TS SCT022CB SCT026 17/13 Q1005","updated":"2026-05-09T22:41:21Z"}
