{"icao":"LPMT","metar":"LPMT 080800Z 28004KT 260V330 9999 FEW020 BKN045 18/14 Q1022","updated":"2025-10-08T09:19:09Z"}
