{"icao":"LPPR","metar":"LPPR 120700Z 02003KT 350V050 9999 FEW045 08/03 Q1020","updated":"2026-04-12T07:12:20Z"}
