{"icao":"LPAR","metar":"LPAR 281500Z 31005KT 270V330 9999 SCT005 BKN020 FEW025CB 20/17 Q1010","updated":"2025-10-28T15:20:14Z"}
