{"icao":"LPAR","metar":"LPAR 131400Z 30007KT 260V330 9999 SCT020 15/11 Q1009","updated":"2026-01-13T14:24:20Z"}
