{"icao":"LPMR","metar":"LPMR 301400Z 32012KT CAVOK 17/06 Q1029","updated":"2026-03-30T15:01:55Z"}
