{"icao":"LPFR","metar":"LPFR 190900Z 01004KT 310V040 9999 FEW030 16/09 Q1017","updated":"2025-11-19T09:20:42Z"}
