{"icao":"KJFK","metar":"KJFK 191951Z 30011G17KT 10SM FEW060 FEW250 29/14 A2995 RMK AO2 SLP141 T02940139 $","updated":"2025-09-19T20:18:37Z"}
