{"icao":"LPPR","metar":"LPPR 011300Z 29005KT 250V320 CAVOK 25/14 Q1021","updated":"2025-10-01T13:27:53Z"}
