{"icao":"KORD","metar":"KORD 281251Z 08007KT 10SM FEW220 BKN250 09/05 A3012 RMK AO2 SLP200 T00890050","updated":"2025-10-28T13:29:50Z"}
