{"icao":"LPPR","metar":"LPPR 231630Z 24004KT 210V270 CAVOK 20/07 Q1021","updated":"2026-02-23T16:55:55Z"}
