{"icao":"LPST","metar":"LPST 061100Z 16008KT 130V200 CAVOK 26/13 Q1020","updated":"2025-10-06T11:14:44Z"}
