{"icao":"KJFK","metar":"KJFK 280551Z 29017KT 10SM FEW250 M08/M16 A3008 RMK AO2 SLP186 4/007 T10831161 11061 21083 51009 $","updated":"2026-01-28T06:34:57Z"}
