{"icao":"KLAX","metar":"KLAX 240708Z 07005KT 2 1/2SM BR FEW002 BKN006 16/14 A3014 RMK AO2 VIS 2V3 T01560144","updated":"2025-11-24T07:19:02Z"}
