{"icao":"LPFL","metar":"LPFL 131830Z 18011KT 150V230 9999 FEW019 16/11 Q1028","updated":"2026-02-13T18:47:15Z"}
