{"icao":"KJFK","metar":"KJFK 122151Z 03016G26KT 4SM RA BR BKN014 OVC019 14/13 A3000 RMK AO2 PK WND 03031/2139 SLP157 P0012 T01390128","updated":"2025-10-12T22:15:46Z"}
