{"icao":"LPLA","metar":"LPLA 260300Z 00000KT 1200 -DZ BR BKN002 BKN005 14/14 Q1025","updated":"2025-12-26T03:23:34Z"}
