{"icao":"LPAZ","metar":"LPAZ 181930Z 16012KT 9999 FEW010 17/15 Q1015","updated":"2026-04-18T19:39:54Z"}
