{"icao":"LPPR","metar":"LPPR 152100Z 35005KT CAVOK 16/15 Q1022","updated":"2025-09-15T21:15:03Z"}
