{"icao":"LPMT","metar":"LPMT 270300Z 25015KT 6000 -RADZ FEW007 SCT010 BKN020 14/13 Q1001 RERADZ","updated":"2026-01-27T03:46:31Z"}
