{"icao":"LPLA","metar":"LPLA 011400Z 06008KT 360V090 9999 FEW018 BKN025 15/11 Q1032","updated":"2026-04-01T15:02:48Z"}
