{"icao":"LPOV","metar":"LPOV 220700Z VRB01KT CAVOK 01/00 Q1031","updated":"2025-11-22T07:16:20Z"}
