{"icao":"KJFK","metar":"KJFK 100051Z 19013KT 10SM SCT005 OVC027 08/07 A3006 RMK AO2 RAE03B23E45 SLP180 P0000 T00780072 $","updated":"2026-01-10T01:38:24Z"}
