{"icao":"LPPD","metar":"LPPD 011330Z 03009KT 350V070 9999 FEW022 18/13 Q1016","updated":"2026-05-01T13:42:32Z"}
