{"icao":"LPST","metar":"LPST 221500Z 26009KT 230V290 9999 FEW010 OVC022 22/18 Q1018","updated":"2025-10-22T15:18:23Z"}
