{"icao":"LPFL","metar":"LPFL 060930Z 25014G28KT 200V310 9999 VCTS FEW012 SCT018 FEW021CB 16/11 Q1007","updated":"2026-02-06T09:41:30Z"}
