{"icao":"KORD","metar":"KORD 241751Z 00000KT 10SM SCT090 BKN180 OVC250 M17/M28 A3063 RMK AO2 SLP394 4/001 T11671278 11167 21233 58019","updated":"2026-01-24T18:28:52Z"}
