{"icao":"LPPT","metar":"LPPT 252130Z 35011KT CAVOK 17/10 Q1016","updated":"2026-04-25T21:35:21Z"}
