{"icao":"LPFR","metar":"LPFR 300230Z 10002KT CAVOK 18/16 Q1015","updated":"2025-09-30T02:56:52Z"}
