{"icao":"LPLA","metar":"LPLA 052200Z 36007KT 9999 FEW025 BKN040 15/09 Q1028","updated":"2026-05-05T23:03:58Z"}
