{"icao":"LPHR","metar":"LPHR 191330Z 23005KT 200V270 9999 FEW028 15/09 Q1032","updated":"2026-01-19T13:44:07Z"}
