{"icao":"KORD","metar":"KORD 232151Z 32010KT 10SM SCT250 M21/M32 A3070 RMK AO2 SLP417 T12061322","updated":"2026-01-23T22:18:02Z"}
