{"icao":"LPFR","metar":"LPFR 191300Z 32006KT 9000 -RA FEW015 FEW018CB SCT025 BKN035 13/11 Q1018","updated":"2025-12-19T13:32:08Z"}
