{"icao":"LPPD","metar":"LPPD 042000Z 15004KT 040V200 9999 FEW009 FEW018TCU BKN030 22/20 Q1027","updated":"2025-10-04T20:17:03Z"}
