{"icao":"LPMA","metar":"LPMA 070300Z 27004KT CAVOK 18/12 Q1019","updated":"2025-11-07T03:09:49Z"}
