{"icao":"LPHR","metar":"LPHR 011430Z 08011KT 050V120 9999 FEW020 20/11 Q1016","updated":"2026-05-01T14:53:47Z"}
