{"icao":"LPBJ","metar":"LPBJ 051400Z 26020G31KT 8000 -SHRA BKN022 16/11 Q0999","updated":"2026-02-05T14:08:21Z"}
