{"icao":"LPPR","metar":"LPPR 170100Z 13004KT 9999 FEW017 SCT040 13/13 Q1010","updated":"2025-11-17T01:24:54Z"}
