{"icao":"LPAZ","metar":"LPAZ 111100Z 02011KT 330V050 9999 FEW025 BKN045 16/07 Q1032","updated":"2026-04-11T11:29:08Z"}
