{"icao":"LPMA","metar":"LPMA 261000Z 23014KT 190V250 9999 FEW016 BKN030 18/09 Q1022","updated":"2026-01-26T10:25:39Z"}
