{"icao":"LPFL","metar":"LPFL 211500Z 24012G30KT 160V320 9999 FEW012 SCT015 24/18 Q1008","updated":"2025-10-21T15:19:22Z"}
