{"icao":"LPPT","metar":"LPPT 032100Z 20007KT 150V320 2000 RA BR FEW002 BKN004 11/11 Q0995 RERA","updated":"2026-02-03T21:32:58Z"}
