{"icao":"KORD","metar":"KORD 280751Z 27005KT 10SM BKN250 05/M02 A2991 RMK AO2 SLP129 T00501022 $","updated":"2026-02-28T08:27:46Z"}
