{"icao":"KORD","metar":"KORD 022151Z 19017G30KT 10SM -RA SCT031 BKN048 OVC100 21/16 A2964 RMK AO2 PK WND 17040/2107 RAB03E12B43 SLP038 CB DSNT N MOV NE P0000 T02060161","updated":"2026-04-02T22:30:21Z"}
