{"icao":"LPAZ","metar":"LPAZ 162330Z 31008KT 9999 FEW026 15/10 Q1029","updated":"2026-05-16T23:51:37Z"}
