{"icao":"LPLA","metar":"LPLA 232200Z VRB03KT 9999 FEW020 16/12 Q1027","updated":"2025-11-23T22:17:17Z"}
