{"icao":"LPLA","metar":"LPLA 170822Z 16010KT 6000 -RADZ SCT008 BKN013 BKN040 18/17 Q1022","updated":"2025-11-17T08:27:16Z"}
