{"icao":"LPHR","metar":"LPHR 190930Z 02034G52KT 340V040 9000 VCSH SCT015 SCT030 14/08 Q1007","updated":"2026-03-19T09:41:36Z"}
