{"icao":"KLAX","metar":"KLAX 080853Z 26005KT 10SM SCT015 17/14 A2990 RMK AO2 SLP122 T01720144 55004 $","updated":"2025-10-08T09:19:11Z"}
