{"icao":"KJFK","metar":"KJFK 301351Z 09018G34KT 3SM -DZ BR OVC010 14/13 A2981 RMK AO2 PK WND 09034/1344 SLP096 RAE26DZB26 CIG 008V012 P0004 T01390128","updated":"2025-10-30T14:19:01Z"}
