{"icao":"LPFL","metar":"LPFL 161500Z 35009KT 9999 FEW019 FEW020TCU SCT030 16/12 Q1017","updated":"2026-04-16T15:24:28Z"}
