{"icao":"LPAZ","metar":"LPAZ 201500Z 07014KT 030V100 9999 FEW022 SCT030 18/11 Q1027","updated":"2025-11-20T15:20:00Z"}
