{"icao":"LPPR","metar":"LPPR 192030Z 25005KT CAVOK 16/11 Q1008","updated":"2026-03-19T20:36:02Z"}
