{"icao":"LPPD","metar":"LPPD 101300Z 19008KT 9999 FEW012 FEW016TCU SCT030 22/19 Q1023","updated":"2025-10-10T13:26:38Z"}
