{"icao":"LPPR","metar":"LPPR 082130Z 08007KT 050V110 CAVOK 17/08 Q1006","updated":"2026-05-08T22:03:18Z"}
