{"icao":"LPPR","metar":"LPPR 161900Z 33003KT 300V360 CAVOK 16/09 Q1018","updated":"2026-03-16T19:15:30Z"}
