{"icao":"KORD","metar":"KORD 010251Z 29006KT 10SM FEW037 FEW250 M05/M08 A3042 RMK AO2 SLP312 T10501078 51018 $","updated":"2025-12-01T03:50:14Z"}
