{"icao":"LPBJ","metar":"LPBJ 010200Z 18009KT 6000 FEW007 OVC020 11/11 Q1018","updated":"2026-02-01T02:12:36Z"}
