{"icao":"LPPT","metar":"LPPT 131100Z 06007KT CAVOK 24/12 Q1016","updated":"2025-10-13T11:15:08Z"}
