{"icao":"LPST","metar":"LPST 230800Z VRB01KT 9000 FEW008 SCT014 10/09 Q1011","updated":"2025-12-23T08:28:13Z"}
