{"icao":"LPBJ","metar":"LPBJ 152000Z 32009KT CAVOK 26/15 Q1019","updated":"2025-09-15T20:18:40Z"}
