{"icao":"LPPT","metar":"LPPT 300900Z 05009KT 350V090 CAVOK 20/14 Q1018","updated":"2025-09-30T09:18:48Z"}
