{"icao":"LPLA","metar":"LPLA 090100Z 20010KT 160V220 9999 FEW012 17/15 Q1031","updated":"2026-01-09T01:41:28Z"}
