{"icao":"KORD","metar":"KORD 290651Z 19003KT 10SM FEW060 OVC110 M02/M09 A3037 RMK AO2 SLP294 T10221094 $","updated":"2025-11-29T07:16:57Z"}
