{"icao":"LPPD","metar":"LPPD 211600Z 03011KT 350V070 9999 FEW016 BKN030 16/13 Q1031","updated":"2025-11-21T16:23:52Z"}
