{"icao":"LPMA","metar":"LPMA 061630Z 05007KT 320V120 9999 FEW015 19/10 Q1019","updated":"2026-02-06T16:42:14Z"}
