{"icao":"LPLA","metar":"LPLA 021500Z 18010KT 160V220 9999 FEW025 20/12 Q1020","updated":"2025-11-02T15:16:01Z"}
