{"icao":"KLAX","metar":"KLAX 062053Z 25010KT 10SM FEW026 FEW045 SCT160 BKN250 20/12 A3012 RMK AO2 SLP197 T02000117 $","updated":"2026-02-06T21:28:55Z"}
