{"icao":"LPMA","metar":"LPMA 140800Z 33003KT 220V020 9999 SCT015 18/11 Q1011","updated":"2025-11-14T08:24:51Z"}
