{"icao":"LPPD","metar":"LPPD 101100Z 17007KT 9999 4500SW -SHRA SCT012 FEW014CB 22/20 Q1023","updated":"2025-10-10T11:15:21Z"}
