{"icao":"LPPT","metar":"LPPT 291630Z 27010KT 240V310 9999 FEW008 BKN010 15/15 Q1011","updated":"2026-01-29T16:41:59Z"}
