{"icao":"KORD","metar":"KORD 131035Z 23012KT 10SM SCT012 OVC016 18/16 A2985 RMK AO2 T01830161 $","updated":"2026-04-13T10:44:11Z"}
