{"icao":"LPBJ","metar":"LPBJ 061400Z 35015KT CAVOK 11/M03 Q1021","updated":"2026-01-06T14:21:20Z"}
