{"icao":"LPAR","metar":"LPAR 171100Z 09003KT 360V130 CAVOK 13/10 Q1022","updated":"2025-12-17T11:19:17Z"}
