{"icao":"LPMA","metar":"LPMA 190300Z VRB05KT 9999 SCT015 21/18 Q1017","updated":"2025-10-19T03:14:35Z"}
