{"icao":"LPBJ","metar":"LPBJ 210900Z 15012KT CAVOK 22/08 Q1004","updated":"2026-04-21T09:24:21Z"}
