{"icao":"KJFK","metar":"KJFK 261651Z 04010KT 10SM FEW110 SCT180 OVC210 M03/M17 A3021 RMK AO2 PRESFR SLP230 T10331172 $","updated":"2025-12-26T17:16:32Z"}
