{"icao":"LPLA","metar":"LPLA 011700Z 10008KT 9999 FEW014 BKN023 22/18 Q1031","updated":"2026-07-01T17:53:36Z"}
