{"icao":"LPMA","metar":"LPMA 041030Z 21026G36KT 9999 FEW015 20/14 Q1012","updated":"2026-02-04T10:36:52Z"}
