{"icao":"LPPR","metar":"LPPR 051400Z 24016G29KT 9999 FEW018CB BKN025 15/11 Q0989","updated":"2026-02-05T14:08:19Z"}
