{"icao":"LPFR","metar":"LPFR 131000Z 11015KT 9000 FEW020 24/17 Q1019","updated":"2026-06-13T10:26:41Z"}
