{"icao":"LPOV","metar":"LPOV 200400Z 15003KT 120V190 0300 FG OVC002 17/16 Q1019","updated":"2025-09-20T04:19:44Z"}
