{"icao":"LPMA","metar":"LPMA 051400Z 02020G34KT 350V050 9999 SCT016 FEW018TCU 16/09 Q1020","updated":"2026-01-05T14:23:34Z"}
