{"icao":"KJFK","metar":"KJFK 252151Z 02006KT 10SM SCT050 BKN075 BKN250 13/02 A3035 RMK AO2 SLP277 T01330017","updated":"2025-10-25T22:15:35Z"}
