{"icao":"KORD","metar":"KORD 300816Z 25012G25KT 4SM -SN BR BKN009 OVC014 00/M02 A2975 RMK AO2 PK WND 25027/0758 P0000 T00001017 $","updated":"2025-11-30T08:22:40Z"}
