{"icao":"LPMR","metar":"LPMR 091500Z 21014G24KT 190V250 9999 FEW020 FEW022CB BKN035 17/12 Q1005 RETS","updated":"2026-05-09T15:50:58Z"}
