{"icao":"LPCS","metar":"LPCS 160700Z 04006KT CAVOK 14/07 Q1020","updated":"2026-03-16T07:15:01Z"}
