{"icao":"LPFR","metar":"LPFR 112300Z 33010KT 310V030 CAVOK 13/07 Q1014","updated":"2026-04-11T23:32:20Z"}
