{"icao":"LPHR","metar":"LPHR 191930Z 23016KT 6000 -RA SCT004 BKN007 17/17 Q1019","updated":"2026-02-19T19:37:37Z"}
