{"icao":"LPPT","metar":"LPPT 161730Z 05009KT CAVOK 22/09 Q1017","updated":"2026-03-16T17:58:36Z"}
