{"icao":"KLAX","metar":"KLAX 271353Z 05005KT 10SM BKN250 15/02 A3005 RMK AO2 SLP172 T01500017 $","updated":"2025-11-27T14:19:09Z"}
