{"icao":"LPFL","metar":"LPFL 271700Z 34013KT 9999 VCSH BKN023 18/14 Q1023","updated":"2025-10-27T17:15:43Z"}
