{"icao":"LPFL","metar":"LPFL 051330Z 16009KT 130V190 9999 FEW025 BKN040 13/05 Q1037","updated":"2026-03-05T14:02:43Z"}
