{"icao":"LPAR","metar":"LPAR 271700Z 02009KT 340V050 9999 BKN020 15/11 Q1024","updated":"2026-02-28T21:19:19Z"}
