{"icao":"LPPS","metar":"LPPS 101100Z 02013KT 9999 FEW015 BKN030 22/14 Q1024","updated":"2025-10-10T11:15:36Z"}
