{"icao":"KJFK","metar":"KJFK 181451Z 12013KT 10SM FEW020 FEW040 BKN250 15/10 A3008 RMK AO2 SLP186 T01500100 51005","updated":"2026-04-18T15:36:21Z"}
