{"icao":"LPPR","metar":"LPPR 151000Z 23003KT 200V260 CAVOK 21/16 Q1017","updated":"2025-10-15T10:19:44Z"}
