{"icao":"LPBJ","metar":"LPBJ 282200Z 35004KT CAVOK 10/05 Q1023","updated":"2026-02-28T22:20:52Z"}
