{"icao":"LPMA","metar":"LPMA 222230Z 36005KT 310V050 9999 FEW015 21/14 Q1020","updated":"2026-06-22T22:45:57Z"}
