{"icao":"LPOV","metar":"LPOV 141400Z 16014KT 9999 SCT015 FEW020CB BKN040 14/12 Q0999","updated":"2025-11-14T15:17:11Z"}
