{"icao":"LPCS","metar":"LPCS 041530Z 33014KT 9999 SCT034 18/07 Q1017","updated":"2026-05-04T16:02:06Z"}
