{"icao":"KJFK","metar":"KJFK 210151Z 34017KT 10SM FEW075 06/M07 A3031 RMK SLP263 T00611072 ","updated":"2026-04-21T02:31:05Z"}
