{"icao":"LPHR","metar":"LPHR 171300Z 20016KT 5000 -RADZ BR SCT003 BKN005 21/21 Q1012","updated":"2025-10-17T13:26:45Z"}
