{"icao":"LPPR","metar":"LPPR 220600Z 01007KT 350V050 CAVOK 10/07 Q1022","updated":"2025-09-22T06:27:49Z"}
