{"icao":"KORD","metar":"KORD 250451Z 19005KT 7SM FEW010 BKN060 OVC090 09/07 A2988 RMK AO2 SLP120 T00890067","updated":"2025-11-25T05:19:12Z"}
