{"icao":"LPPD","metar":"LPPD 292200Z 16005KT 9999 FEW014 BKN018 21/19 Q1024","updated":"2025-09-29T22:14:50Z"}
