{"icao":"KORD","metar":"KORD 061320Z 23006KT 10SM BKN014 OVC110 24/22 A2984 RMK AO2 T02390217 $","updated":"2026-06-06T13:39:51Z"}
