{"icao":"LPFL","metar":"LPFL 021530Z 08007KT 020V150 9999 SCT016 SCT034 17/12 Q1022","updated":"2026-05-02T15:43:40Z"}
