{"icao":"LPOV","metar":"LPOV 211500Z 34019G29KT 9999 FEW030 18/11 Q1022","updated":"2025-09-21T15:15:02Z"}
