{"icao":"KLAX","metar":"KLAX 122053Z 26005KT 8SM FEW015 SCT027 BKN140 BKN180 19/15 A3003 RMK AO2 SLP168 T01940150 58018 $","updated":"2025-11-12T21:17:13Z"}
