{"icao":"LPMA","metar":"LPMA 180830Z 03008KT 330V060 9999 FEW016 22/16 Q1020","updated":"2026-06-18T08:45:10Z"}
