{"icao":"LPFL","metar":"LPFL 062100Z 29010G21KT 230V350 9999 -SHRA BKN014 14/11 Q1008","updated":"2026-02-07T06:40:31Z"}
