{"icao":"LPMT","metar":"LPMT 201100Z 25004KT 200V290 9999 SCT032 22/15 Q1015","updated":"2025-10-20T11:15:42Z"}
