{"icao":"LPBJ","metar":"LPBJ 100300Z 17003KT CAVOK 08/08 Q1020","updated":"2025-11-10T03:17:46Z"}
