{"icao":"LPMA","metar":"LPMA 141300Z 18007KT 150V210 9999 SCT015 23/17 Q1017","updated":"2025-10-14T13:29:14Z"}
