{"icao":"KJFK","metar":"KJFK 201817Z 06012G21KT 1 1/2SM R04R/5000VP6000FT -RA BR FEW000 BKN006 OVC013 06/04 A2967 RMK AO2 SFC VIS 2 BR FEW000 P0003 T00560044 $","updated":"2026-02-20T18:45:18Z"}
