{"icao":"LPLA","metar":"LPLA 091100Z 35005KT 300V010 9999 FEW006 BKN040 17/14 Q1035","updated":"2026-04-09T11:56:45Z"}
