{"icao":"LPBJ","metar":"LPBJ 311400Z 36008KT 310V030 CAVOK 23/09 Q1024","updated":"2026-03-31T15:00:09Z"}
