{"icao":"KORD","metar":"KORD 071151Z 20015G25KT 10SM -RA FEW050 OVC095 16/14 A2968 RMK AO2 SLP049 P0002 60015 70095 T01610139 10183 20156 56017","updated":"2026-03-07T12:44:06Z"}
