{"icao":"LPMT","metar":"LPMT 040100Z 34006KT CAVOK 16/15 Q1023","updated":"2025-10-04T01:14:34Z"}
