{"icao":"LPMA","metar":"LPMA 231200Z 04016KT 9999 SCT016 20/12 Q1026","updated":"2025-11-23T12:33:04Z"}
