{"icao":"LPPS","metar":"LPPS 150200Z 01009KT 9999 -RADZ SCT013 BKN030 16/12 Q1023","updated":"2026-03-15T02:13:19Z"}
