{"icao":"KJFK","metar":"KJFK 080751Z 20015KT 10SM FEW055 SCT120 OVC220 21/19 A2993 RMK AO2 SLP135 T02110189","updated":"2025-10-08T08:24:21Z"}
