{"icao":"LPOV","metar":"LPOV 021300Z 35022KT CAVOK 17/10 Q1022","updated":"2026-04-02T13:10:58Z"}
