{"icao":"KORD","metar":"KORD 301851Z 35012G21KT 10SM FEW039 FEW250 13/02 A2983 RMK AO2 SLP102 T01330017 $","updated":"2025-10-30T19:14:52Z"}
