{"icao":"LPMT","metar":"LPMT 080800Z 01003KT 9999 FEW025 13/12 Q1021","updated":"2025-11-08T08:21:25Z"}
