{"icao":"LPST","metar":"LPST 021400Z 29009KT 9999 FEW009 22/15 Q1021","updated":"2025-10-02T15:17:43Z"}
