{"icao":"LPBJ","metar":"LPBJ 042000Z 33005KT CAVOK 11/09 Q1004","updated":"2026-01-04T20:21:20Z"}
