{"icao":"LPPD","metar":"LPPD 041800Z 12007KT 090V150 9999 FEW012 FEW018TCU 23/20 Q1027","updated":"2025-10-04T18:21:42Z"}
