{"icao":"KJFK","metar":"KJFK 171551Z 29020G34KT 10SM FEW055 FEW250 04/M10 A2987 RMK AO2 PK WND 27034/1545 SLP115 T00391100","updated":"2026-03-17T16:04:43Z"}
