{"icao":"LPMR","metar":"LPMR 141100Z 35003KT 310V040 9000 -SHRA SCT016 13/12 Q1020","updated":"2026-01-14T11:20:14Z"}
