{"icao":"LPFR","metar":"LPFR 070900Z 06003KT 340V080 9999 FEW010 18/12 Q1019","updated":"2025-11-07T09:19:03Z"}
