{"icao":"LPAZ","metar":"LPAZ 251700Z 23023KT 9000 SCT014 BKN049 18/15 Q1016","updated":"2026-01-25T17:17:05Z"}
