{"icao":"LPFR","metar":"LPFR 300130Z 01004KT 6000 -RA FEW015TCU BKN040 13/11 Q1016","updated":"2025-11-30T01:42:21Z"}
