{"icao":"LPMR","metar":"LPMR 170600Z 18002KT 1500 BR OVC003 14/13 Q1022","updated":"2025-09-17T06:26:49Z"}
