{"icao":"LPPD","metar":"LPPD 051700Z 22014KT 9999 FEW006 SCT035 19/17 Q1019","updated":"2025-12-05T17:18:10Z"}
