{"icao":"LPAR","metar":"LPAR 141100Z 21013KT 8000 VCSH FEW015 SCT022 15/13 Q1004","updated":"2025-11-14T11:15:34Z"}
