{"icao":"LPPD","metar":"LPPD 080700Z 34010KT 300V030 9999 -SHRA SCT017 FEW022TCU 14/10 Q1009","updated":"2026-05-08T07:28:17Z"}
