{"icao":"LPPR","metar":"LPPR 171530Z 32010KT CAVOK 17/11 Q1019","updated":"2026-04-17T15:59:23Z"}
