{"icao":"KJFK","metar":"KJFK 051451Z 00000KT 10SM FEW180 BKN250 29/08 A3001 RMK AO2 SLP162 T02940078 57004 $","updated":"2026-06-05T15:51:53Z"}
