{"icao":"LPFR","metar":"LPFR 072200Z 35006KT CAVOK 20/15 Q1021","updated":"2025-10-07T22:16:00Z"}
