{"icao":"LPPR","metar":"LPPR 030300Z 08008KT 050V110 9999 FEW045 14/10 Q1001","updated":"2026-01-03T03:20:55Z"}
