{"icao":"LPPD","metar":"LPPD 201000Z 24011KT 6000 FEW003 BKN006 22/22 Q1017","updated":"2025-10-20T10:20:09Z"}
