{"icao":"LPFL","metar":"LPFL 021700Z 35012KT 9999 FEW030 15/08 Q1012","updated":"2026-01-02T17:16:59Z"}
