{"icao":"LPLA","metar":"LPLA 031100Z 14008KT 110V170 9999 FEW020 20/16 Q1013","updated":"2025-11-03T11:15:32Z"}
