{"icao":"LPCS","metar":"LPCS 031630Z 22009KT CAVOK 24/08 Q1021","updated":"2026-04-03T16:39:05Z"}
