{"icao":"LPAZ","metar":"LPAZ 291400Z 16011KT 9999 FEW027 24/16 Q1025","updated":"2025-09-29T14:18:13Z"}
