{"icao":"LPPR","metar":"LPPR 151600Z 32011KT CAVOK 21/16 Q1022","updated":"2025-09-15T16:21:30Z"}
