{"icao":"LPPT","metar":"LPPT 261100Z 08004KT 320V110 9999 FEW010 10/07 Q1014","updated":"2025-12-26T11:17:34Z"}
