{"icao":"KJFK","metar":"KJFK 230851Z 06006KT 10SM -RA BKN110 OVC250 12/05 A3041 RMK AO2 RAB36 SLP296 P0000 60000 T01220050 53004","updated":"2026-05-23T09:50:45Z"}
