{"icao":"LPFR","metar":"LPFR 221600Z 23009KT CAVOK 21/13 Q1015","updated":"2025-09-22T16:22:28Z"}
