{"icao":"LPPR","metar":"LPPR 272300Z 12008KT 080V140 9999 VCSH FEW018 FEW020CB SCT035 08/06 Q0999","updated":"2026-01-27T23:20:38Z"}
