{"icao":"LPLA","metar":"LPLA 240700Z VRB02KT CAVOK 13/09 Q1026","updated":"2025-11-24T07:18:49Z"}
