{"icao":"LPFR","metar":"LPFR 021400Z 21007KT 180V240 9999 FEW012 21/17 Q1023","updated":"2025-11-02T14:14:39Z"}
