{"icao":"LPPR","metar":"LPPR 011400Z 27004KT 220V310 9999 SCT015 18/14 Q1018","updated":"2025-11-01T14:14:28Z"}
