{"icao":"LPPR","metar":"LPPR 152100Z 20003KT 150V230 5000 1500SW BCFG BR SCT001 15/15 Q1017","updated":"2025-10-15T21:15:43Z"}
