{"icao":"LPMR","metar":"LPMR 020300Z 12004KT 8000 NSC 12/12 Q1017","updated":"2026-05-02T05:35:31Z"}
