{"icao":"KLAX","metar":"KLAX 031404Z 09004KT 1 1/4SM R25L/6000VP6000FT BR BKN002 14/14 A3004 RMK AO2 T01390139","updated":"2026-01-03T14:17:40Z"}
