{"icao":"KLAX","metar":"KLAX 040153Z 25014KT 10SM FEW020 OVC050 16/10 A2994 RMK AO2 SLP137 T01610100","updated":"2026-05-04T02:45:16Z"}
