{"icao":"LPFR","metar":"LPFR 201930Z 30003KT CAVOK 13/09 Q1027","updated":"2026-02-20T19:35:39Z"}
