{"icao":"KJFK","metar":"KJFK 040051Z 22010KT 10SM FEW250 18/12 A3025 RMK AO2 SLP245 T01780117","updated":"2025-10-04T01:15:06Z"}
