{"icao":"LPFR","metar":"LPFR 251230Z 25016KT 9999 FEW010 FEW012CB BKN030 16/14 Q1019","updated":"2026-01-25T12:40:07Z"}
