{"icao":"LPPS","metar":"LPPS 191600Z 36011KT 9999 FEW015 17/11 Q1026","updated":"2026-01-19T16:27:55Z"}
