{"icao":"KLAX","metar":"KLAX 301153Z 21005KT 10SM BKN044 BKN200 19/16 A2998 RMK AO2 SLP149 T01890156 10194 20189 53000 $","updated":"2025-09-30T12:38:41Z"}
