{"icao":"LPBJ","metar":"LPBJ 111100Z 32009KT CAVOK 17/11 Q1013","updated":"2026-04-11T11:28:54Z"}
