{"icao":"LPFL","metar":"LPFL 022000Z 16010KT 130V210 9999 SCT014 23/21 Q1016","updated":"2025-10-03T06:26:08Z"}
