{"icao":"LPOV","metar":"LPOV 120800Z 07006KT 030V120 CAVOK 29/09 Q1018","updated":"2026-06-12T08:23:40Z"}
