{"icao":"LPAZ","metar":"LPAZ 041000Z 27017KT 9999 SCT020 20/16 Q1008","updated":"2025-11-04T10:21:44Z"}
