{"icao":"LPPR","metar":"LPPR 152300Z 09003KT 050V120 7000 FEW016 FEW018TCU SCT028 10/09 Q1015","updated":"2026-01-15T23:19:31Z"}
