{"icao":"LPFR","metar":"LPFR 292000Z 30008KT 9999 FEW040 20/17 Q1011","updated":"2025-10-29T20:20:44Z"}
