{"icao":"LPFR","metar":"LPFR 300600Z 30006KT CAVOK 16/15 Q1013","updated":"2025-10-30T06:27:29Z"}
