{"icao":"KLAX","metar":"KLAX 110253Z 25005KT 10SM SCT250 18/15 A3008 RMK AO2 SLP185 T01780150 53006 $","updated":"2025-11-11T03:12:33Z"}
