{"icao":"KLAX","metar":"KLAX 161055Z 11003KT 1/8SM R25L/1200V1600FT FG VV002 12/12 A3007 RMK AO2 T01220117","updated":"2025-12-16T11:18:39Z"}
