{"icao":"KJFK","metar":"KJFK 031851Z 30018G27KT 10SM BKN070 14/M04 A2986 RMK PK WND 32035/1754 SLP110 T01441039 ","updated":"2026-05-03T18:57:49Z"}
