{"icao":"LPLA","metar":"LPLA 070500Z 16004KT 9999 BKN045 15/11 Q1033","updated":"2026-01-07T05:24:10Z"}
