{"icao":"LPMA","metar":"LPMA 141000Z VRB03KT 9999 FEW015 22/12 Q1012","updated":"2025-11-14T10:21:12Z"}
