{"icao":"LPFL","metar":"LPFL 041830Z 31013G24KT 220V010 6000 SHRA FEW018 SCT023 FEW025CB 13/08 Q0994","updated":"2026-02-04T18:49:12Z"}
