{"icao":"LPBJ","metar":"LPBJ 030100Z 30006KT CAVOK 10/08 Q1024","updated":"2025-11-03T01:26:12Z"}
