{"icao":"LPLA","metar":"LPLA 160800Z 34003KT 9999 FEW018 SCT040 19/18 Q1004 RERADZ","updated":"2025-10-16T08:25:52Z"}
