{"icao":"KORD","metar":"KORD 251251Z 00000KT 10SM FEW040 FEW130 BKN160 BKN250 04/01 A3037 RMK AO2 SLP289 VIRGA NW T00440011 $","updated":"2025-10-25T13:21:52Z"}
