{"icao":"KLAX","metar":"KLAX 250953Z 11007KT 10SM FEW008 FEW015 BKN028 14/14 A3004 RMK AO2 SLP170 T01440139 $","updated":"2025-12-25T10:20:49Z"}
