{"icao":"KJFK","metar":"KJFK 092051Z 15011KT 10SM FEW020 BKN250 08/02 A3053 RMK AO2 SLP338 T00780017 56022","updated":"2026-04-09T21:43:44Z"}
