{"icao":"LPAZ","metar":"LPAZ 090530Z 33017KT 9999 FEW028 12/07 Q1014","updated":"2026-05-09T05:47:16Z"}
