{"icao":"LPBJ","metar":"LPBJ 040600Z 26010KT 4000 -RADZ BKN006 OVC014 13/13 Q0998","updated":"2026-02-04T06:51:03Z"}
