{"icao":"LPOV","metar":"LPOV 211200Z 03005KT 360V070 CAVOK 13/03 Q1029","updated":"2025-11-21T12:37:06Z"}
