{"icao":"LPPS","metar":"LPPS 292030Z 19003KT 160V230 9999 SCT015 BKN030 17/12 Q1014","updated":"2026-04-29T21:03:09Z"}
