{"icao":"LPFR","metar":"LPFR 271700Z 27005KT CAVOK 16/07 Q1021","updated":"2025-11-27T17:15:27Z"}
