{"icao":"KORD","metar":"KORD 200751Z 18004KT 5SM BR OVC008 06/04 A3012 RMK AO2 SLP203 T00610039","updated":"2025-11-20T08:26:29Z"}
