{"icao":"LPFL","metar":"LPFL 101100Z 16007KT 120V230 9999 FEW012 17/13 Q1016","updated":"2026-01-10T11:16:12Z"}
