{"icao":"LPPD","metar":"LPPD 121530Z 26010KT 230V290 9999 FEW018 BKN030 15/11 Q1031","updated":"2026-03-12T15:57:49Z"}
