{"icao":"LPPS","metar":"LPPS 170730Z 06011KT 9999 SCT015 BKN030 16/12 Q1019","updated":"2026-04-17T07:44:29Z"}
