{"icao":"LPHR","metar":"LPHR 081400Z 27011KT 9999 FEW016 21/15 Q1020","updated":"2025-11-08T14:15:18Z"}
