{"icao":"LPCS","metar":"LPCS 180930Z 02005KT 350V060 CAVOK 20/12 Q1017","updated":"2026-04-18T09:46:52Z"}
