{"icao":"LPAZ","metar":"LPAZ 170130Z 16010KT 9999 FEW014 BKN040 16/14 Q1025","updated":"2026-02-17T02:01:14Z"}
