{"icao":"LPPT","metar":"LPPT 221600Z 24010KT 9999 FEW020 BKN026 23/18 Q1018","updated":"2025-10-22T16:24:09Z"}
