{"icao":"KORD","metar":"KORD 181151Z 00000KT 10SM FEW250 17/14 A3005 RMK AO2 SLP172 T01720144 10189 20167 53004 $","updated":"2025-09-18T12:35:38Z"}
