{"icao":"LPSJ","metar":"LPSJ 141700Z 25010KT 220V280 9999 FEW016 22/17 Q1021","updated":"2026-06-15T06:21:44Z"}
