{"icao":"LPFR","metar":"LPFR 131400Z 24021G31KT 9000 4000W -SHRA FEW015 FEW018CB 15/12 Q1012","updated":"2026-01-13T14:24:17Z"}
