{"icao":"LPPS","metar":"LPPS 111000Z 03003KT 350V050 9999 FEW014 17/13 Q1028","updated":"2026-01-11T10:20:09Z"}
