{"icao":"LPMR","metar":"LPMR 132200Z 19004KT 7000 SCT022 10/09 Q1014","updated":"2026-01-13T22:20:52Z"}
