{"icao":"LPFR","metar":"LPFR 262100Z 31005KT CAVOK 14/11 Q1024","updated":"2026-02-26T21:30:56Z"}
