{"icao":"LPPT","metar":"LPPT 141800Z 31007KT CAVOK 25/09 Q1016","updated":"2025-10-14T18:26:14Z"}
