{"icao":"LPPT","metar":"LPPT 041600Z 29008KT 260V320 9999 FEW027 15/09 Q1021","updated":"2025-12-04T16:27:35Z"}
