{"icao":"LPMA","metar":"LPMA 081000Z 03008KT 340V060 9999 SCT014 FEW015TCU 22/16 Q1023","updated":"2025-11-08T10:17:00Z"}
