{"icao":"LPAR","metar":"LPAR 191700Z 01011KT 330V050 9999 FEW040 14/05 Q1028","updated":"2026-02-19T22:30:07Z"}
