{"icao":"KLAX","metar":"KLAX 311753Z 12009G18KT 10SM SCT025 OVC140 20/14 A2998 RMK AO2 SLP149 SCT V BKN T02000144 10200 20178 50012","updated":"2026-03-31T17:55:54Z"}
