{"icao":"KORD","metar":"KORD 011951Z 09010KT 10SM FEW033 BKN170 BKN250 00/M13 A3048 RMK AO2 SLP332 T00001133 $","updated":"2026-03-01T20:26:01Z"}
