{"icao":"LPBJ","metar":"LPBJ 050700Z 34005KT 3500 BCFG OVC003 16/16 Q1020","updated":"2025-10-05T07:14:29Z"}
