{"icao":"KJFK","metar":"KJFK 070232Z 00000KT 10SM -RA FEW014 BKN023 OVC055 14/12 A2978 RMK AO2 RAB32 P0000 T01440122","updated":"2026-05-07T02:45:13Z"}
