{"icao":"KJFK","metar":"KJFK 121351Z 26012KT 10SM FEW055 BKN180 BKN250 01/M08 A3023 RMK AO2 SLP235 T00061078 $","updated":"2026-01-12T14:24:19Z"}
