{"icao":"LPPT","metar":"LPPT 051100Z 08008KT 050V110 CAVOK 20/11 Q1021","updated":"2026-04-05T11:28:07Z"}
