{"icao":"KJFK","metar":"KJFK 132151Z 29010KT 10SM FEW028 BKN040 OVC140 04/M03 A3004 RMK AO2 SLP173 T00391033","updated":"2025-12-13T22:17:28Z"}
