{"icao":"LPMA","metar":"LPMA 231330Z 34018G31KT 240V020 9999 SCT015 19/07 Q1018","updated":"2026-01-23T13:41:35Z"}
