{"icao":"LPHR","metar":"LPHR 271600Z 26029G41KT 7000 SCT012 BKN020 17/15 Q1003","updated":"2026-01-27T16:29:12Z"}
