{"icao":"LPPD","metar":"LPPD 101830Z 01013KT 340V040 9999 FEW016 FEW020CB SCT030 16/11 Q1018","updated":"2026-05-10T19:01:32Z"}
