{"icao":"LPPS","metar":"LPPS 201700Z 27006KT 230V300 9999 FEW014 24/20 Q1017","updated":"2025-10-20T17:16:27Z"}
