{"icao":"LPFL","metar":"LPFL 181630Z 17015KT 150V220 9999 FEW011 BKN016 16/13 Q1022","updated":"2026-02-18T17:01:50Z"}
