{"icao":"LPMA","metar":"LPMA 271630Z 20008KT 150V260 9999 FEW016 21/15 Q1021","updated":"2026-05-27T16:35:46Z"}
