{"icao":"LPFR","metar":"LPFR 020900Z 10007KT CAVOK 24/18 Q1021","updated":"2025-10-02T09:17:52Z"}
