{"icao":"LPST","metar":"LPST 111100Z 01006KT 340V050 9999 FEW015 15/09 Q1027","updated":"2026-03-11T12:57:32Z"}
