{"icao":"LPFL","metar":"LPFL 141100Z 35008KT 310V010 9999 SCT030 16/09 Q1009","updated":"2025-11-14T11:15:48Z"}
