{"icao":"KJFK","metar":"KJFK 211251Z 26008KT 10SM FEW250 13/04 A2996 RMK AO2 SLP146 T01280044","updated":"2025-10-21T13:32:42Z"}
