{"icao":"KLAX","metar":"KLAX 171511Z VRB03KT 10SM OVC015 18/14 A2994 RMK AO2 T01780139 $","updated":"2026-06-17T15:24:52Z"}
