{"icao":"LPPT","metar":"LPPT 312100Z 20016KT 9000 SCT009 BKN015 20/18 Q1013","updated":"2025-10-31T21:15:01Z"}
