{"icao":"LPHR","metar":"LPHR 060700Z 30003KT 260V360 9999 FEW005 SCT011 BKN030 21/20 Q1017","updated":"2025-10-06T07:18:10Z"}
