{"icao":"LPPR","metar":"LPPR 010500Z 31006KT 5000 +RA SCT006 SCT012 BKN025 14/14 Q1013","updated":"2025-11-01T05:16:32Z"}
