{"icao":"LPPT","metar":"LPPT 061400Z 31010KT 280V340 9999 SCT034 19/10 Q1013","updated":"2026-05-06T14:07:09Z"}
