{"icao":"LPFR","metar":"LPFR 040400Z 25025KT 4000 1100E R28/1200N -RA BR FEW003 OVC006 16/15 Q0999","updated":"2026-02-04T04:13:44Z"}
