{"icao":"LPPR","metar":"LPPR 160400Z 00000KT CAVOK 13/13 Q1021","updated":"2025-09-16T04:20:24Z"}
