{"icao":"KORD","metar":"KORD 151751Z 09007KT 10SM FEW300 28/15 A3019 RMK AO2 SLP217 T02780150 10278 20189 56002 $","updated":"2025-09-15T18:25:12Z"}
