{"icao":"LPPR","metar":"LPPR 121000Z 17022KT 9999 BKN015 13/10 Q1018","updated":"2026-01-12T10:24:04Z"}
