{"icao":"KJFK","metar":"KJFK 060251Z 22005KT 10SM FEW024 OVC034 02/M02 A3005 RMK AO2 SLP175 T00221017 56012 $","updated":"2026-01-06T03:27:52Z"}
