{"icao":"LPAZ","metar":"LPAZ 271500Z 25024KT 9000 FEW022 BKN040 17/13 Q1010","updated":"2026-01-27T15:29:39Z"}
