{"icao":"LPCS","metar":"LPCS 112100Z 28012KT 240V300 9999 SCT003 BKN008 15/15 Q1019","updated":"2026-02-12T04:56:34Z"}
