{"icao":"LPPD","metar":"LPPD 120500Z 34003KT 310V040 9999 FEW025 18/15 Q1018","updated":"2025-10-12T05:15:34Z"}
