{"icao":"LPFR","metar":"LPFR 162100Z 03005KT 020V080 CAVOK 22/18 Q1014","updated":"2025-10-16T21:15:28Z"}
