{"icao":"LPFR","metar":"LPFR 200700Z 35004KT 320V020 9999 FEW030 10/06 Q1018","updated":"2025-11-20T07:18:03Z"}
