{"icao":"LPHR","metar":"LPHR 270700Z 28030KT 9000 -SHRA SCT016 BKN035 14/09 Q1009","updated":"2026-01-27T07:26:29Z"}
