{"icao":"KJFK","metar":"KJFK 280751Z 36012KT 10SM FEW070 02/M07 A3022 RMK AO2 SLP232 T00221072","updated":"2026-03-28T08:37:28Z"}
