{"icao":"LPLA","metar":"LPLA 260500Z 18005KT 9999 FEW014 SCT025 16/15 Q1024","updated":"2025-11-26T05:18:30Z"}
