{"icao":"LPMA","metar":"LPMA 040600Z 00000KT 9999 FEW013 BKN060 17/14 Q1016","updated":"2026-05-04T06:11:48Z"}
