{"icao":"LPPT","metar":"LPPT 050700Z 27007KT 240V310 9999 VCSH FEW008 BKN010 16/16 Q1020","updated":"2025-12-05T07:19:51Z"}
