{"icao":"LPFL","metar":"LPFL 231730Z 16005KT 120V190 9999 FEW007 SCT021 22/20 Q1023","updated":"2026-06-23T17:52:07Z"}
