{"icao":"LPPS","metar":"LPPS 191700Z 02010KT 9999 SCT014 SCT030 17/10 Q1025","updated":"2025-12-19T17:18:00Z"}
