{"icao":"LPMT","metar":"LPMT 200800Z 24003KT 9999 BKN035 18/17 Q1015","updated":"2025-10-20T08:24:48Z"}
