{"icao":"LPMA","metar":"LPMA 030800Z 33006KT 280V010 9999 BKN015 16/10 Q1027","updated":"2025-12-03T08:27:43Z"}
