{"icao":"LPPS","metar":"LPPS 092200Z 04013KT 360V060 9999 SCT014 14/07 Q1029","updated":"2026-03-09T22:27:45Z"}
