{"icao":"LPPD","metar":"LPPD 252030Z 34009KT 300V360 9999 FEW020 BKN040 18/14 Q1024","updated":"2026-06-25T21:00:01Z"}
