{"icao":"LPPT","metar":"LPPT 071600Z 31014KT CAVOK 24/12 Q1020","updated":"2026-06-07T16:13:30Z"}
