{"icao":"LPFR","metar":"LPFR 270700Z 06006KT 340V090 9999 FEW007 BKN048 20/18 Q1019","updated":"2025-10-27T07:18:01Z"}
