{"icao":"KJFK","metar":"KJFK 151351Z 32018G27KT 10SM FEW050 FEW250 M06/M13 A3028 RMK AO2 PK WND 31027/1344 SLP254 T10561133 $","updated":"2025-12-15T14:24:14Z"}
