{"icao":"LPPD","metar":"LPPD 181900Z 24006KT 9999 SCT006 BKN011 20/19 Q1014","updated":"2026-06-18T19:26:58Z"}
