{"icao":"KORD","metar":"KORD 100520Z 21009KT 9SM BKN012 16/14 A2975 RMK AO2 T01610139 $","updated":"2026-03-10T05:43:44Z"}
