{"icao":"LPMR","metar":"LPMR 050400Z 02007KT 9999 FEW030 07/M02 Q1010","updated":"2026-01-05T04:55:55Z"}
