{"icao":"LPMT","metar":"LPMT 030900Z 23004KT 200V280 9999 FEW020 17/12 Q1015","updated":"2026-05-03T10:02:35Z"}
