{"icao":"LPHR","metar":"LPHR 032100Z 26020KT 9000 -RA FEW010 BKN013 17/16 Q1001","updated":"2026-02-03T21:33:02Z"}
