{"icao":"KJFK","metar":"KJFK 020851Z 22010KT 10SM BKN075 BKN0120 11/07 A2988 RMK SLP119 T01060072 56004 ","updated":"2026-05-02T09:05:01Z"}
