{"icao":"LPMA","metar":"LPMA 151800Z 10003KT 040V130 9999 SCT015 FEW018TCU BKN030 23/18 Q1015","updated":"2025-10-15T18:26:54Z"}
