{"icao":"LPLA","metar":"LPLA 121500Z 32022KT 9000 -SHRA SCT006 SCT012 BKN020 19/17 Q1018","updated":"2025-10-12T15:15:35Z"}
