{"icao":"KJFK","metar":"KJFK 280651Z 26015G22KT 10SM FEW180 02/M06 A2990 RMK AO2 SLP126 T00171061","updated":"2025-11-28T07:18:51Z"}
