{"icao":"LPPT","metar":"LPPT 311230Z 20021KT 9999 FEW012 BKN014 20/18 Q1013","updated":"2025-10-31T12:37:46Z"}
