{"icao":"KLAX","metar":"KLAX 011709Z 25011KT 3SM R25L/6000VP6000FT -RA BR FEW004 SCT021 OVC034 16/15 A3005 RMK AO2 RAB06 SCT V BKN P0000 T01610150 $","updated":"2026-01-01T17:18:44Z"}
