{"icao":"KORD","metar":"KORD 170951Z 17008KT 10SM BKN250 14/06 A2999 RMK AO2 SLP155 T01390056 $","updated":"2025-10-17T10:19:18Z"}
