{"icao":"LPMR","metar":"LPMR 260800Z 30001KT 2000 BR OVC005 15/15 Q1018","updated":"2026-04-26T08:59:10Z"}
