{"icao":"LPMR","metar":"LPMR 130800Z 16004KT CAVOK 15/11 Q1016","updated":"2025-10-13T08:25:54Z"}
