{"icao":"KLAX","metar":"KLAX 310453Z 00000KT 10SM FEW280 21/01 A3016 RMK AO2 SLP212 T02060011 $","updated":"2026-01-31T05:37:38Z"}
