{"icao":"LPMA","metar":"LPMA 151100Z 22017KT 9000 -SHRA BKN014 FEW018CB 21/19 Q1014","updated":"2025-11-15T11:13:59Z"}
