{"icao":"LPFL","metar":"LPFL 271700Z 18009KT 130V240 9999 FEW006 BKN030 19/15 Q1012","updated":"2026-04-27T17:20:30Z"}
