{"icao":"LPFR","metar":"LPFR 211600Z 02008KT CAVOK 17/01 Q1024","updated":"2025-11-21T16:23:34Z"}
