{"icao":"LPPT","metar":"LPPT 161400Z 24009KT CAVOK 27/10 Q1014","updated":"2025-10-16T14:18:25Z"}
