{"icao":"LPPS","metar":"LPPS 221700Z 14005KT 090V190 9999 FEW015 SCT030 24/20 Q1020","updated":"2025-10-22T17:17:17Z"}
