{"icao":"LPBJ","metar":"LPBJ 200200Z 28003KT CAVOK 13/10 Q1015","updated":"2026-04-20T02:34:56Z"}
