{"icao":"KJFK","metar":"KJFK 040451Z 25010KT 10SM CLR 16/12 A3024 RMK AO2 SLP238 T01610122 402060106","updated":"2025-10-04T05:15:43Z"}
