{"icao":"KORD","metar":"KORD 010451Z 04005KT 10SM OVC300 19/16 A3016 RMK AO2 SLP208 T01940161","updated":"2025-10-01T05:17:30Z"}
