{"icao":"KLAX","metar":"KLAX 301453Z 11005KT 1 1/4SM BR BKN004 OVC011 13/13 A3001 RMK AO2 SLP160 VIS SW-NW 3/4 T01330128 51006 $","updated":"2025-11-30T15:16:52Z"}
