{"icao":"LPPR","metar":"LPPR 191700Z 21009KT 6000 -RADZ BKN001 18/18 Q1011","updated":"2025-10-19T17:13:55Z"}
