{"icao":"LPFR","metar":"LPFR 120500Z 03007KT CAVOK 20/15 Q1015","updated":"2025-10-12T05:15:31Z"}
