{"icao":"KJFK","metar":"KJFK 141951Z 30017G24KT 10SM BKN037 BKN060 BKN250 M02/M08 A2994 RMK AO2 PK WND 34027/1906 SNE04 SLP138 DRSN P0000 T10221083 $","updated":"2025-12-14T20:20:24Z"}
