{"icao":"LPFL","metar":"LPFL 131700Z 29006KT 220V030 9999 -SHRA BKN020 15/08 Q1009","updated":"2025-11-13T17:17:43Z"}
