{"icao":"LPPT","metar":"LPPT 202130Z 31010KT CAVOK 21/12 Q1021","updated":"2026-05-20T21:51:19Z"}
