{"icao":"LPBJ","metar":"LPBJ 021500Z 29008KT 260V320 9999 BKN045 22/10 Q1016","updated":"2026-05-02T15:43:24Z"}
