{"icao":"LPBJ","metar":"LPBJ 262100Z 21013KT 9999 FEW025 14/11 Q1011","updated":"2026-01-26T21:22:58Z"}
