{"icao":"LPFR","metar":"LPFR 161030Z 25005KT 9999 BKN035 15/10 Q1033","updated":"2026-02-16T10:49:08Z"}
