{"icao":"KLAX","metar":"KLAX 170853Z 00000KT 10SM FEW280 13/07 A3003 RMK AO2 SLP166 T01280072 53005","updated":"2026-01-17T09:19:15Z"}
