{"icao":"LPPD","metar":"LPPD 180900Z 33010KT 280V360 9999 FEW014 BKN025 14/12 Q1028","updated":"2026-01-18T09:19:58Z"}
