{"icao":"LPPD","metar":"LPPD 240500Z 25015KT 9999 FEW020 BKN035 14/09 Q1025","updated":"2026-01-24T05:20:22Z"}
