{"icao":"LPPS","metar":"LPPS 220230Z 06014KT 020V090 9999 SCT014 SCT030 18/10 Q1026","updated":"2025-11-22T03:03:05Z"}
