{"icao":"LPMT","metar":"LPMT 110600Z 13008KT 8000 SCT003 14/14 Q1013","updated":"2025-11-11T06:28:20Z"}
