{"icao":"LPMR","metar":"LPMR 290500Z 15002KT 3000 BR FEW022 BKN045 10/10 Q1020","updated":"2025-11-29T05:18:03Z"}
