{"icao":"LPPD","metar":"LPPD 302000Z 16009G21KT 130V230 1100 R30/1300U -RADZ BR BKN001 BKN002 15/14 Q1019","updated":"2026-01-30T20:28:18Z"}
