{"icao":"KJFK","metar":"KJFK 271451Z 27017KT 10SM FEW045 FEW160 FEW220 M08/M15 A3014 RMK AO2 SLP205 T10831150 50001 $","updated":"2026-01-27T15:29:53Z"}
