{"icao":"LPPT","metar":"LPPT 061600Z 30012KT 280V340 9999 FEW038 19/08 Q1012","updated":"2026-05-06T16:26:01Z"}
