{"icao":"LPPR","metar":"LPPR 151600Z 26004KT 220V280 9999 FEW025 21/15 Q1016","updated":"2025-10-15T16:19:21Z"}
