{"icao":"LPPR","metar":"LPPR 232030Z 17005KT CAVOK 14/08 Q1021","updated":"2026-02-23T20:42:34Z"}
