{"icao":"KLAX","metar":"KLAX 081953Z 01009KT 10SM CLR 31/M06 A2985 RMK AO2 SLP106 T03061056 $","updated":"2026-03-08T20:25:08Z"}
