{"icao":"LPFR","metar":"LPFR 211600Z 12007KT CAVOK 19/07 Q1026","updated":"2026-02-21T16:27:25Z"}
