{"icao":"LPFR","metar":"LPFR 210230Z 31004KT 8000 BKN004 BKN008 20/19 Q1015","updated":"2025-10-21T03:04:25Z"}
