{"icao":"LPBJ","metar":"LPBJ 160100Z 28007KT 9999 SCT005 10/10 Q1032","updated":"2026-02-16T02:03:48Z"}
