{"icao":"LPPT","metar":"LPPT 280830Z 03011KT 350V070 CAVOK 16/03 Q1021","updated":"2026-03-28T08:37:10Z"}
