{"icao":"LPPT","metar":"LPPT 231600Z 33009KT 290V010 CAVOK 25/04 Q1017","updated":"2025-09-23T16:21:46Z"}
