{"icao":"LPFR","metar":"LPFR 211300Z 14014KT CAVOK 21/15 Q1006","updated":"2026-04-21T13:23:49Z"}
