{"icao":"LPMT","metar":"LPMT 250100Z 18004KT 9999 FEW008 BKN030 14/14 Q1015","updated":"2026-02-25T02:03:16Z"}
