{"icao":"KLAX","metar":"KLAX 171553Z 04004KT 10SM CLR 17/09 A2994 RMK AO2 SLP138 T01720094 $","updated":"2025-10-17T16:22:04Z"}
