{"icao":"KLAX","metar":"KLAX 221013Z 23005KT 8SM FEW009 BKN110 15/13 A3002 RMK AO2 T01500133 $","updated":"2026-01-22T10:26:37Z"}
