{"icao":"LPAR","metar":"LPAR 271600Z 09003KT 040V120 CAVOK 17/08 Q1023","updated":"2025-11-27T16:23:22Z"}
