{"icao":"LPPR","metar":"LPPR 051630Z 26008KT 220V310 9000 FEW020CB BKN025 BKN040 13/11 Q0992","updated":"2026-02-05T16:45:35Z"}
