{"icao":"LPAZ","metar":"LPAZ 102100Z 20020KT 9999 FEW009 SCT014 17/16 Q1023","updated":"2026-01-10T21:16:57Z"}
