{"icao":"LPLA","metar":"LPLA 281000Z 26016G38KT 210V290 9999 FEW015 SCT025 19/15 Q1004","updated":"2026-01-28T10:27:05Z"}
