{"icao":"LPMR","metar":"LPMR 261000Z 22013KT 200V260 3000 -DZ BR BKN008 BKN025 15/14 Q1011","updated":"2026-01-26T10:25:08Z"}
