{"icao":"LPPT","metar":"LPPT 221800Z 24010KT 9999 FEW008 BKN026 22/20 Q1018","updated":"2025-10-22T18:27:43Z"}
