{"icao":"KJFK","metar":"KJFK 101951Z 09006KT 5SM RA BR FEW050 BKN075 OVC095 04/03 A3010 RMK AO2 SLP194 P0007 T00440028","updated":"2026-01-10T20:21:05Z"}
