{"icao":"KORD","metar":"KORD 020051Z 35009KT 10SM -RA FEW022 BKN046 OVC075 07/04 A3013 RMK AO2 RAB40 SLP205 P0000 T00670044 $","updated":"2025-11-02T01:27:41Z"}
