{"icao":"LPPT","metar":"LPPT 031100Z 30005KT 270V330 9999 FEW030 14/08 Q1024","updated":"2025-12-03T11:17:30Z"}
