{"icao":"LPPT","metar":"LPPT 211100Z 13005KT 080V170 CAVOK 27/12 Q1021","updated":"2026-05-21T11:21:39Z"}
