{"icao":"LPOV","metar":"LPOV 080200Z 02007KT 9999 FEW030 BKN038 09/07 Q1009","updated":"2026-02-08T02:27:57Z"}
