{"icao":"LPAZ","metar":"LPAZ 170230Z 16006KT 9999 SCT015 21/19 Q1021","updated":"2025-09-17T02:54:40Z"}
