{"icao":"KJFK","metar":"KJFK 060051Z 03007KT 10SM SCT028 BKN040 OVC060 M01/M06 A3007 RMK AO2 SLP182 T10061061 $","updated":"2025-12-06T01:22:42Z"}
