{"icao":"LPGR","metar":"LPGR 010800Z 09008KT 9999 FEW016 BKN023 20/16 Q1032","updated":"2026-07-01T08:11:21Z"}
