{"icao":"LPPR","metar":"LPPR 201300Z 20009KT 6000 -RADZ SCT005 BKN020 17/16 Q1013","updated":"2025-10-20T13:28:09Z"}
