{"icao":"LPBJ","metar":"LPBJ 080900Z 18007KT 140V240 9999 FEW028 17/04 Q1011","updated":"2026-05-08T09:18:39Z"}
