{"icao":"LPMA","metar":"LPMA 192200Z 35005KT 310V040 9999 SCT016 16/08 Q1027","updated":"2025-12-19T22:19:27Z"}
