{"icao":"LPOV","metar":"LPOV 030700Z VRB02KT 9999 MIFG NSC 06/06 Q1023","updated":"2025-11-03T07:18:11Z"}
