{"icao":"LPBJ","metar":"LPBJ 160600Z 12004KT CAVOK 18/09 Q1015","updated":"2025-10-16T06:27:00Z"}
