{"icao":"LPBJ","metar":"LPBJ 070700Z 06002KT 9999 3000NW VCFG NSC 15/14 Q1022","updated":"2025-10-07T07:17:14Z"}
