{"icao":"LPPS","metar":"LPPS 300130Z 21014KT 9999 FEW010 18/16 Q1017","updated":"2025-12-30T01:39:08Z"}
