{"icao":"KJFK","metar":"KJFK 311151Z 31006KT 10SM BKN220 M12/M17 A3020 RMK AO2 SLP224 4/007 T11171172 11117 21128 53001 $","updated":"2026-01-31T12:44:38Z"}
