{"icao":"LPLA","metar":"LPLA 141400Z 34009KT 9999 FEW025 SCT045 26/19 Q1026","updated":"2025-09-14T14:13:36Z"}
