{"icao":"LPOV","metar":"LPOV 071600Z 27003KT 210V330 9999 FEW014 BKN030 19/16 Q1022","updated":"2025-10-07T16:21:32Z"}
