{"icao":"LPFL","metar":"LPFL 311600Z 25013KT 170V330 9999 FEW013 18/13 Q1010","updated":"2026-01-31T16:26:46Z"}
