{"icao":"LPAR","metar":"LPAR 211800Z 36009KT CAVOK 13/04 Q1027","updated":"2025-11-22T08:22:23Z"}
