{"icao":"LPFR","metar":"LPFR 231130Z 14006KT 100V180 9999 FEW020 19/14 Q1013","updated":"2026-03-23T11:41:51Z"}
