{"icao":"LPLA","metar":"LPLA 090200Z 33007KT 6000 -DZ SCT003 BKN005 15/15 Q1035","updated":"2026-04-09T02:08:32Z"}
