{"icao":"LPPD","metar":"LPPD 160600Z 17010KT 9999 FEW012 BKN030 14/12 Q1028","updated":"2026-02-16T06:08:13Z"}
