{"icao":"LPMR","metar":"LPMR 251100Z 33003KT 8000 FEW009 18/13 Q1021","updated":"2026-03-25T11:40:18Z"}
