{"icao":"LPMT","metar":"LPMT 121700Z 21006KT 170V240 9999 SCT020 SCT028 15/12 Q1017","updated":"2026-02-12T17:57:10Z"}
