{"icao":"LPMA","metar":"LPMA 120800Z 31005KT 280V340 9999 FEW015 20/16 Q1018","updated":"2025-10-12T08:20:25Z"}
