{"icao":"KLAX","metar":"KLAX 272153Z 26008KT 10SM FEW009 21/14 A2993 RMK AO2 SLP135 T02060144 $","updated":"2025-10-27T22:16:33Z"}
