{"icao":"LPPD","metar":"LPPD 150800Z 21014KT 9999 FEW020 BKN035 15/13 Q1030","updated":"2026-02-15T08:31:38Z"}
