{"icao":"LPLA","metar":"LPLA 031700Z 26023KT 7000 -RA FEW018 SCT022 BKN030 19/15 Q1000 RERA","updated":"2026-02-03T17:51:45Z"}
