{"icao":"KJFK","metar":"KJFK 042051Z 21005KT 8SM FEW085 BKN110 BKN170 BKN250 04/03 A3025 RMK AO2 SLP244 T00440028 56006","updated":"2026-03-04T21:32:59Z"}
