{"icao":"LPMA","metar":"LPMA 121400Z 04006KT 340V100 9999 SCT015 FEW016TCU 21/16 Q1004","updated":"2025-11-12T14:19:20Z"}
