{"icao":"LPBJ","metar":"LPBJ 262300Z 34004KT 290V360 CAVOK 15/10 Q1024","updated":"2026-02-26T23:28:22Z"}
