{"icao":"KORD","metar":"KORD 171851Z 00000KT 10SM BKN060 BKN110 08/M08 A3008 RMK AO2 SLP190 T00781078","updated":"2025-11-17T19:14:58Z"}
