{"icao":"LPPT","metar":"LPPT 271400Z 28013KT 240V320 9999 VCSH FEW020 SCT030 FEW035CB 10/08 Q1003 RETSRA WS R02","updated":"2026-01-27T14:28:19Z"}
