{"icao":"KORD","metar":"KORD 080551Z 25009G21KT 10SM OVC018 02/M02 A2995 RMK AO2 SLP144 T00221017 10061 20022 401830022 53007","updated":"2026-03-08T06:40:38Z"}
