{"icao":"KORD","metar":"KORD 071151Z 21009G17KT 10SM BKN013 BKN044 BKN200 09/08 A2950 RMK AO2 SLP989 60018 70018 T00940083 10128 20083 56026 $","updated":"2025-11-07T12:37:05Z"}
