{"icao":"LPMT","metar":"LPMT 121600Z 23011KT 9999 SCT036 20/12 Q1018","updated":"2026-05-12T17:09:09Z"}
