{"icao":"KORD","metar":"KORD 220651Z 27021G30KT 10SM FEW026 BKN042 M05/M09 A3002 RMK AO2 PK WND 27031/0639 SLP175 T10501094 $","updated":"2026-01-22T07:26:25Z"}
