{"icao":"LPMR","metar":"LPMR 280200Z VRB02KT 0500 FG VV001 15/15 Q1010","updated":"2026-04-28T02:47:22Z"}
