{"icao":"LPMR","metar":"LPMR 160300Z 17004KT 3000 BR FEW015 12/11 Q1009","updated":"2025-11-16T03:16:52Z"}
