{"icao":"LPFR","metar":"LPFR 171630Z 12007KT CAVOK 24/10 Q1016","updated":"2026-04-17T17:01:41Z"}
