{"icao":"KORD","metar":"KORD 100851Z 18007KT 10SM SCT250 10/04 A3025 RMK AO2 SLP246 T01000039 56015","updated":"2025-10-10T09:19:19Z"}
