{"icao":"LPBJ","metar":"LPBJ 101500Z 07005KT 020V110 9999 -SHRA FEW025 23/13 Q1012","updated":"2026-04-10T15:52:03Z"}
