{"icao":"KJFK","metar":"KJFK 200451Z 06008KT 10SM FEW036 BKN044 OVC055 03/00 A3002 RMK AO2 SLP165 T00280000 400440017 $","updated":"2026-02-20T05:52:30Z"}
