{"icao":"LPFR","metar":"LPFR 101900Z 24006KT CAVOK 23/16 Q1014","updated":"2026-06-10T19:34:01Z"}
