{"icao":"KORD","metar":"KORD 151151Z 20011G20KT 10SM OVC150 M14/M20 A3030 RMK AO2 SLP276 T11391200 11139 21161 56043 $","updated":"2025-12-15T12:44:14Z"}
