{"icao":"KLAX","metar":"KLAX 241053Z 00000KT 7SM OVC008 17/14 A2996 RMK AO2 SLP142 T01670144","updated":"2026-03-24T11:44:04Z"}
