{"icao":"KORD","metar":"KORD 160951Z 21005KT 10SM SCT210 03/M01 A2993 RMK AO2 SLP137 T00331011","updated":"2026-02-16T10:49:44Z"}
