{"icao":"LPLA","metar":"LPLA 260800Z VRB09G20KT 9999 FEW025 SCT035 18/11 Q1023","updated":"2025-10-26T08:20:52Z"}
