{"icao":"LPPS","metar":"LPPS 251030Z 03014KT 360V060 9999 SCT013 18/14 Q1020","updated":"2026-03-25T10:47:56Z"}
