{"icao":"LPPS","metar":"LPPS 020800Z 16003KT 9999 SCT012 21/19 Q1023","updated":"2025-11-02T08:20:22Z"}
