{"icao":"LPFR","metar":"LPFR 192000Z 31010KT CAVOK 11/08 Q1020","updated":"2026-01-19T20:22:38Z"}
