{"icao":"LPPR","metar":"LPPR 040900Z 09007KT CAVOK 13/08 Q1003","updated":"2026-01-04T09:18:30Z"}
