{"icao":"LPAZ","metar":"LPAZ 210730Z 29024KT 9999 FEW017 SCT028 14/09 Q1011","updated":"2026-04-21T07:47:54Z"}
