{"icao":"LPMA","metar":"LPMA 131100Z 01031G51KT 330V040 9999 SCT015 FEW018CB 17/08 Q1018","updated":"2025-12-13T11:14:59Z"}
