{"icao":"KLAX","metar":"KLAX 162053Z 27012G20KT 10SM FEW010 SCT038 SCT230 20/13 A2990 RMK AO2 SLP122 T02000133 58012","updated":"2026-05-16T21:47:59Z"}
