{"icao":"LPOV","metar":"LPOV 180600Z 18008KT CAVOK 10/08 Q1020","updated":"2025-12-18T07:21:29Z"}
