{"icao":"KJFK","metar":"KJFK 041351Z 36009KT 10SM SCT016 SCT045 BKN100 BKN130 M03/M07 A3008 RMK AO2 SLP185 T10281072 $","updated":"2026-01-04T14:17:51Z"}
