{"icao":"LPPT","metar":"LPPT 211100Z 25012KT 230V290 9999 SCT008 SCT040 22/20 Q1015","updated":"2025-10-21T11:14:56Z"}
