{"icao":"LPOV","metar":"LPOV 230700Z 20001KT 150V230 CAVOK 10/10 Q1014","updated":"2026-04-23T07:49:53Z"}
