{"icao":"KLAX","metar":"KLAX 261953Z 24019G26KT 10SM SCT024 SCT055 18/09 A2996 RMK AO2 PK WND 27027/1910 SLP144 T01780089 $","updated":"2026-04-26T20:37:20Z"}
