{"icao":"LPBJ","metar":"LPBJ 111800Z 25017KT 3000 1400N -DZ BR OVC006 15/14 Q1018","updated":"2026-02-11T19:01:27Z"}
