{"icao":"LPCS","metar":"LPCS 301930Z 36020KT 9999 FEW002 21/16 Q1020","updated":"2026-06-30T19:54:02Z"}
