{"icao":"KLAX","metar":"KLAX 090653Z 03005KT 10SM CLR 19/06 A3009 RMK AO2 SLP186 T01890061 $","updated":"2025-12-09T07:21:02Z"}
