{"icao":"KLAX","metar":"KLAX 081653Z 13004KT 3SM HZ FEW006 18/15 A2995 RMK AO2 SLP140 VIS W-NW 2 T01780150","updated":"2025-11-08T17:15:04Z"}
