{"icao":"LPFL","metar":"LPFL 260800Z VRB17G49KT 9000 -SHRA FEW012 SCT018 FEW020CB 09/04 Q1004","updated":"2026-01-26T08:31:17Z"}
