{"icao":"LPMT","metar":"LPMT 301200Z 36015KT CAVOK 15/06 Q1018","updated":"2025-11-30T12:35:23Z"}
