{"icao":"LPPD","metar":"LPPD 291430Z 24004KT 200V280 9999 FEW020 BKN030 21/17 Q1030","updated":"2026-06-29T14:46:51Z"}
