{"icao":"LPFR","metar":"LPFR 220700Z 31004KT 260V340 CAVOK 16/05 Q1017","updated":"2025-09-22T07:18:23Z"}
