{"icao":"KJFK","metar":"KJFK 062151Z 23007KT 10SM FEW040 BKN180 BKN250 03/M01 A2989 RMK AO2 SLP122 T00331011 $","updated":"2025-12-06T22:17:08Z"}
