{"icao":"LPFR","metar":"LPFR 201100Z 11005KT 080V160 CAVOK 27/16 Q1014","updated":"2026-06-20T11:16:44Z"}
