{"icao":"LPOV","metar":"LPOV 210600Z 17002KT 9999 MIFG NSC 02/02 Q1029","updated":"2026-02-21T06:39:59Z"}
