{"icao":"LPAR","metar":"LPAR 311100Z 21017KT 9000 VCSH SCT009 BKN020 20/18 Q1012","updated":"2025-10-31T11:15:15Z"}
