{"icao":"KLAX","metar":"KLAX 071853Z 31003KT 10SM FEW230 FEW280 19/12 A3019 RMK AO2 SLP221 T01940117","updated":"2026-02-07T19:23:18Z"}
