{"icao":"LPPD","metar":"LPPD 231730Z 36011KT 330V030 9999 FEW014 22/17 Q1022","updated":"2026-06-23T17:52:06Z"}
