{"icao":"LPMA","metar":"LPMA 150430Z 31007KT 260V350 9999 BKN015 15/08 Q1024","updated":"2026-01-15T04:39:11Z"}
