{"icao":"LPPR","metar":"LPPR 010100Z 00000KT CAVOK 15/13 Q1020","updated":"2025-10-01T01:26:44Z"}
