{"icao":"LPPD","metar":"LPPD 112000Z 35005KT 320V020 9999 FEW020 21/17 Q1020","updated":"2025-10-11T20:16:48Z"}
