{"icao":"LPLA","metar":"LPLA 060900Z 14003KT 100V270 9999 FEW030 BKN045 11/07 Q1033","updated":"2026-01-06T09:25:08Z"}
