{"icao":"LPMA","metar":"LPMA 110500Z 33004KT 9999 FEW015 14/10 Q1027","updated":"2026-01-11T05:24:08Z"}
