{"icao":"LPST","metar":"LPST 071700Z 33010KT 9999 SCT009 SCT012 18/16 Q1015","updated":"2025-11-09T01:26:57Z"}
