{"icao":"LPMR","metar":"LPMR 061200Z 14014G24KT 110V170 9999 FEW030 SCT042 24/06 Q1015","updated":"2026-04-06T13:07:12Z"}
