{"icao":"LPBJ","metar":"LPBJ 020800Z 28015KT 8000 VCSH FEW020CB BKN025 09/07 Q0999","updated":"2026-02-02T08:40:59Z"}
