{"icao":"LPST","metar":"LPST 221600Z 17009KT 140V200 9999 FEW024 19/09 Q1013","updated":"2026-04-23T05:28:48Z"}
