{"icao":"LPFL","metar":"LPFL 082100Z VRB02KT 9999 VCSH FEW005 BKN013 21/18 Q1032","updated":"2026-06-09T00:03:58Z"}
