{"icao":"LPMT","metar":"LPMT 131500Z 30014G25KT 280V340 9999 FEW025 SCT030 15/08 Q1008","updated":"2026-02-13T15:40:25Z"}
