{"icao":"LPPS","metar":"LPPS 292200Z 36012KT 9999 FEW015 SCT030 21/13 Q1022","updated":"2025-09-29T22:14:52Z"}
