{"icao":"LPHR","metar":"LPHR 021000Z 33003KT 280V350 9999 BKN035 18/12 Q1022","updated":"2025-11-02T10:17:09Z"}
