{"icao":"LPAZ","metar":"LPAZ 182200Z 35024G34KT 9999 FEW018 FEW028TCU BKN036 10/03 Q1004","updated":"2026-03-18T22:31:13Z"}
