{"icao":"KJFK","metar":"KJFK 251010Z 07008KT 10SM -SN BKN042 OVC120 M11/M19 A3063 RMK AO2 SNB10 P0000 T11061189 $","updated":"2026-01-25T10:20:42Z"}
