{"icao":"LPMT","metar":"LPMT 211400Z 28006KT 260V320 9999 FEW030 SCT045 12/06 Q1009","updated":"2025-12-21T14:17:12Z"}
