{"icao":"LPMA","metar":"LPMA 221300Z 04019KT 9999 SCT015 21/11 Q1026","updated":"2025-11-22T13:22:33Z"}
