{"icao":"LPPR","metar":"LPPR 300700Z 14007KT 110V170 9999 FEW025 BKN037 13/12 Q1012","updated":"2025-10-30T07:17:27Z"}
