{"icao":"LPPD","metar":"LPPD 060130Z 28026G36KT 9999 FEW020 13/06 Q1012","updated":"2026-02-06T01:58:33Z"}
