{"icao":"LPFL","metar":"LPFL 182000Z 32007KT 280V350 9999 SCT026 14/08 Q1033","updated":"2026-01-18T20:21:54Z"}
