{"icao":"LPOV","metar":"LPOV 020700Z 16003KT 9999 FEW005 BKN039 14/13 Q1016","updated":"2026-05-02T07:41:52Z"}
