{"icao":"KORD","metar":"KORD 190551Z 00000KT 10SM FEW120 BKN180 OVC250 03/M02 A3005 RMK AO2 SLP180 T00281017 10061 20022 400781050 55000 $","updated":"2026-03-19T05:57:26Z"}
