{"icao":"LPPR","metar":"LPPR 011700Z VRB01KT 9999 SCT012 17/13 Q1019","updated":"2025-11-01T17:13:50Z"}
