{"icao":"KJFK","metar":"KJFK 191451Z 17017KT 10SM SCT049 SCT200 BKN250 19/14 A3000 RMK AO2 SLP157 T01940144 56005 $","updated":"2025-10-19T15:15:46Z"}
