{"icao":"LPMT","metar":"LPMT 142200Z 02007KT CAVOK 12/10 Q1016","updated":"2025-12-14T22:17:02Z"}
