{"icao":"KJFK","metar":"KJFK 051620Z 33018G26KT 9SM BKN014 BKN040 OVC090 13/09 A2985 RMK AO2 PK WND 33026/1616 T01280094","updated":"2026-04-05T16:35:47Z"}
