{"icao":"LPMA","metar":"LPMA 031400Z VRB09KT 9999 FEW015TCU 20/12 Q0999","updated":"2026-01-03T14:17:39Z"}
