{"icao":"KORD","metar":"KORD 030951Z 27004KT 10SM FEW060 SCT110 M08/M11 A3016 RMK AO2 SLP224 I1000 T10831106","updated":"2026-02-03T10:38:27Z"}
