{"icao":"LPPR","metar":"LPPR 071230Z 21007KT 9000 SCT007 BKN010 18/16 Q1023","updated":"2025-10-07T12:37:10Z"}
