{"icao":"LPLA","metar":"LPLA 240900Z 24003KT 180V280 9999 FEW023 SCT035 20/13 Q1023","updated":"2026-05-24T09:23:11Z"}
