{"icao":"LPPD","metar":"LPPD 150900Z 34006KT 9999 FEW025 SCT040 14/08 Q1014","updated":"2025-11-15T09:16:50Z"}
