{"icao":"KORD","metar":"KORD 161551Z 23012KT 7SM -SN OVC014 M01/M04 A2951 RMK AO2 SLP000 P0000 T10111039 $","updated":"2026-01-16T16:27:46Z"}
