{"icao":"LPMA","metar":"LPMA 071000Z 02008KT 340V050 9999 SCT013 21/18 Q1025","updated":"2025-10-07T10:19:00Z"}
