{"icao":"LPBJ","metar":"LPBJ 051400Z 14009KT 100V170 CAVOK 26/01 Q1020","updated":"2026-04-05T14:34:09Z"}
