{"icao":"LPAZ","metar":"LPAZ 280300Z 11003KT 9999 FEW010 14/13 Q1023","updated":"2025-11-28T03:09:57Z"}
