{"icao":"LPPR","metar":"LPPR 131100Z 02006KT CAVOK 15/10 Q1024","updated":"2025-12-13T11:14:39Z"}
