{"icao":"LPFR","metar":"LPFR 021130Z 18006KT 150V210 CAVOK 21/10 Q1020","updated":"2026-04-02T11:43:03Z"}
