{"icao":"LPAZ","metar":"LPAZ 300300Z 17008KT 9999 FEW020 BKN040 21/18 Q1023","updated":"2025-09-30T03:32:23Z"}
