{"icao":"LPMR","metar":"LPMR 082000Z 00000KT CAVOK 12/10 Q1023","updated":"2025-11-08T20:17:29Z"}
