{"icao":"KORD","metar":"KORD 221651Z 19009KT 10SM FEW042 FEW120 BKN250 26/16 A2988 RMK AO2 SLP114 CB DSNT NW-N T02610156","updated":"2025-09-22T17:14:53Z"}
