{"icao":"LPMR","metar":"LPMR 261900Z 02006KT CAVOK 17/13 Q1019","updated":"2025-10-26T19:13:28Z"}
