{"icao":"LPPD","metar":"LPPD 241630Z 14005KT 100V220 9999 FEW018 BKN040 19/16 Q1024","updated":"2026-05-24T16:59:05Z"}
