{"icao":"LPCS","metar":"LPCS 100800Z 02003KT 9999 FEW016 09/09 Q1030","updated":"2026-01-10T08:25:29Z"}
