{"icao":"LPFR","metar":"LPFR 082300Z 02002KT 9999 BKN026 10/09 Q1032","updated":"2026-01-08T23:17:25Z"}
