{"icao":"LPFR","metar":"LPFR 182300Z 04005KT CAVOK 21/17 Q1017","updated":"2025-10-18T23:15:30Z"}
