{"icao":"KORD","metar":"KORD 291551Z 35007KT 10SM OVC032 12/06 A2991 RMK AO2 SLP129 T01220061","updated":"2026-04-29T15:54:38Z"}
