{"icao":"LPOV","metar":"LPOV 282100Z 15010KT 7000 -RA FEW015 BKN045 17/16 Q1008","updated":"2025-10-28T21:16:34Z"}
