{"icao":"LPPR","metar":"LPPR 032100Z 17019KT 4000 -RADZ BR BKN009 BKN011 FEW018TCU 08/07 Q0992","updated":"2026-02-03T21:32:58Z"}
