{"icao":"LPPS","metar":"LPPS 211000Z 05014G24KT 9999 VCSH SCT014 BKN030 17/12 Q1026","updated":"2025-11-21T10:20:12Z"}
