{"icao":"LPPR","metar":"LPPR 281500Z 25005KT 200V320 8000 -SHRA FEW015 FEW020TCU SCT030 12/10 Q1001","updated":"2026-01-28T15:30:55Z"}
