{"icao":"KLAX","metar":"KLAX 170053Z 26005KT 3SM BR FEW006 FEW250 15/13 A3003 RMK AO2 VIS 2 RWY24 SLP170 T01500133 $","updated":"2025-12-17T01:24:40Z"}
