{"icao":"LPMA","metar":"LPMA 201100Z 03010KT 010V080 9999 SCT015 21/13 Q1021","updated":"2025-11-20T11:17:00Z"}
