{"icao":"LPCS","metar":"LPCS 130800Z 03008KT CAVOK 12/10 Q1019","updated":"2025-12-13T08:23:35Z"}
