{"icao":"LPCS","metar":"LPCS 191100Z VRB03KT CAVOK 21/13 Q1016","updated":"2026-04-19T11:33:44Z"}
