{"icao":"LPFR","metar":"LPFR 061230Z 10012KT 9999 FEW014 26/18 Q1020","updated":"2025-10-06T12:37:30Z"}
