{"icao":"KORD","metar":"KORD 142127Z 22015G25KT 10SM SCT040 BKN150 BKN250 27/18 A2972 RMK AO2 PK WND 19027/2056 T02670178","updated":"2026-04-14T21:51:29Z"}
