{"icao":"LPPT","metar":"LPPT 282100Z 23014KT 4000 RADZ BR SCT002 BKN003 15/15 Q1005","updated":"2026-01-28T21:27:43Z"}
