{"icao":"LPBJ","metar":"LPBJ 310400Z 19007KT 9999 FEW045 16/14 Q1015","updated":"2025-10-31T04:22:14Z"}
