{"icao":"LPAZ","metar":"LPAZ 311600Z 23016KT 7000 FEW006 SCT022 19/17 Q1018","updated":"2026-01-31T16:26:33Z"}
