{"icao":"LPHR","metar":"LPHR 191700Z 26011KT 5000 BR SCT002 BKN005 22/22 Q1015","updated":"2025-10-19T17:14:14Z"}
