{"icao":"KLAX","metar":"KLAX 182053Z 25016KT 10SM FEW050 SCT080 SCT240 14/03 A3003 RMK AO2 PK WND 25026/2014 SLP169 T01440028 58003","updated":"2026-02-18T21:34:10Z"}
