{"icao":"LPPR","metar":"LPPR 232100Z VRB02KT CAVOK 14/09 Q1019","updated":"2025-09-23T21:14:58Z"}
