{"icao":"KORD","metar":"KORD 142251Z 18004KT 10SM FEW300 17/10 A2985 RMK AO2 SLP109 T01720100 $","updated":"2025-11-14T23:16:59Z"}
