{"icao":"KLAX","metar":"KLAX 170253Z 24003KT 10SM BKN280 17/12 A2997 RMK AO2 SLP149 T01670122 53010","updated":"2026-01-17T03:21:23Z"}
