{"icao":"LPPT","metar":"LPPT 022200Z 34012KT CAVOK 18/14 Q1022","updated":"2025-10-02T22:15:36Z"}
