{"icao":"LPPD","metar":"LPPD 310730Z 26007KT 0100 R30/0125N FG VV001 18/17 Q1026","updated":"2026-05-31T07:44:28Z"}
