{"icao":"LPPS","metar":"LPPS 111300Z 20019KT 9999 FEW015 23/14 Q1011","updated":"2025-11-11T13:29:55Z"}
