{"icao":"LPPD","metar":"LPPD 291330Z 10014KT 9999 FEW018 BKN030 16/09 Q1034","updated":"2026-03-29T13:52:38Z"}
