{"icao":"LPOV","metar":"LPOV 201800Z 18007KT 9999 FEW006 SCT020 BKN030 18/16 Q1013","updated":"2025-10-20T18:27:04Z"}
