{"icao":"LPMA","metar":"LPMA 060600Z 02014KT 9999 SCT015 FEW018TCU 15/05 Q1025","updated":"2026-01-06T06:33:13Z"}
