{"icao":"LPPR","metar":"LPPR 201530Z 29003KT 230V310 9999 FEW030 SCT043 18/13 Q1008","updated":"2026-03-20T15:41:03Z"}
