{"icao":"LPPD","metar":"LPPD 200700Z 03007KT 9999 FEW025 18/10 Q1027","updated":"2025-09-20T07:15:12Z"}
