{"icao":"LPMT","metar":"LPMT 132300Z 03009KT CAVOK 14/10 Q1020","updated":"2025-12-13T23:17:12Z"}
