{"icao":"KJFK","metar":"KJFK 281851Z 21005KT 10SM FEW025 FEW100 FEW250 09/03 A3006 RMK AO2 SLP178 T00890028 $","updated":"2026-02-28T19:19:44Z"}
