{"icao":"KLAX","metar":"KLAX 162053Z 21007KT 10SM SCT029 BKN046 BKN110 18/12 A2996 RMK AO2 SLP144 T01780117 58017 $","updated":"2025-11-16T21:15:36Z"}
