{"icao":"KLAX","metar":"KLAX 180653Z 15003KT 10SM CLR 19/15 A2993 RMK AO2 SLP134 T01940150","updated":"2025-10-18T07:15:58Z"}
