{"icao":"LPPT","metar":"LPPT 241230Z 21009KT 9999 FEW012 16/12 Q1018","updated":"2026-02-24T13:02:58Z"}
