{"icao":"KORD","metar":"KORD 291251Z 07012KT 10SM FEW016 FEW250 09/05 A3003 RMK AO2 SLP171 T00940050","updated":"2025-10-29T13:31:51Z"}
