{"icao":"LPFR","metar":"LPFR 081800Z 09007KT CAVOK 15/13 Q1021","updated":"2025-12-08T18:29:26Z"}
