{"icao":"KJFK","metar":"KJFK 311951Z 33006KT 10SM SCT037 SCT180 BKN250 M06/M14 A3012 RMK AO2 SLP197 T10561139 $","updated":"2026-01-31T20:24:06Z"}
