{"icao":"LPMA","metar":"LPMA 090700Z 35017KT 270V010 7000 -SHRA BKN015 FEW016TCU 14/11 Q1017","updated":"2026-04-09T07:20:39Z"}
