{"icao":"KLAX","metar":"KLAX 012353Z 26013KT 10SM CLR 20/13 A2994 RMK AO2 SLP138 T02000133 10222 20200 58001 $","updated":"2026-06-02T00:12:08Z"}
