{"icao":"LPMA","metar":"LPMA 161000Z 35008KT 270V030 9999 BKN015 18/11 Q1027","updated":"2025-12-16T10:24:09Z"}
