{"icao":"LPPT","metar":"LPPT 311500Z 26008KT 230V310 9999 FEW025 SCT030 15/08 Q1020","updated":"2026-01-31T15:21:46Z"}
