{"icao":"LPFL","metar":"LPFL 111700Z 16011KT 140V200 9999 FEW035 15/08 Q1032","updated":"2026-04-11T17:30:08Z"}
