{"icao":"LPPT","metar":"LPPT 152300Z 33004KT 290V360 CAVOK 21/08 Q1016","updated":"2025-10-15T23:15:28Z"}
