{"icao":"LPMR","metar":"LPMR 271600Z 29011KT 270V350 9999 FEW014 24/16 Q1021","updated":"2026-06-27T17:07:58Z"}
