{"icao":"KJFK","metar":"KJFK 231951Z 19013KT 10SM SCT050 SCT150 BKN250 24/20 A2997 RMK AO2 SLP150 T02440200 $","updated":"2025-09-23T20:18:58Z"}
