{"icao":"LPFR","metar":"LPFR 061700Z 25009KT CAVOK 24/17 Q1016","updated":"2026-06-06T17:11:58Z"}
