{"icao":"LPPS","metar":"LPPS 082100Z 04004KT 350V090 9999 SCT014 SCT030 16/11 Q1034","updated":"2026-01-08T21:20:01Z"}
