{"icao":"LPFR","metar":"LPFR 122100Z 22008KT 2000 -DZ BR BKN002 BKN005 15/15 Q1015","updated":"2026-02-12T21:31:59Z"}
