{"icao":"LPAZ","metar":"LPAZ 160930Z 19014KT 9999 OVC028 15/10 Q1029","updated":"2026-02-16T09:52:48Z"}
