{"icao":"LPFL","metar":"LPFL 081900Z 01006KT 340V050 9999 FEW023 BKN042 13/04 Q1033","updated":"2026-03-08T23:23:01Z"}
