{"icao":"LPCS","metar":"LPCS 021030Z 20007KT 170V240 9999 FEW006 SCT012 BKN015 16/15 Q1018","updated":"2026-05-02T10:50:15Z"}
