{"icao":"LPCS","metar":"LPCS 232000Z 36012KT 9999 FEW010 19/12 Q1020","updated":"2026-05-23T23:55:48Z"}
