{"icao":"LPLA","metar":"LPLA 121100Z 32020KT 9999 FEW020CB FEW022TCU SCT025 14/08 Q1001","updated":"2025-11-12T11:16:35Z"}
