{"icao":"LPPD","metar":"LPPD 012130Z 03007KT 350V060 9999 SCT018 SCT035 15/12 Q1018","updated":"2026-05-01T21:51:52Z"}
