{"icao":"KORD","metar":"KORD 050551Z 23004KT 10SM FEW250 M09/M12 A3027 RMK AO2 SLP262 4/002 T10891122 11039 21089 410281094 56021","updated":"2026-02-05T05:54:32Z"}
