{"icao":"LPHR","metar":"LPHR 121500Z 31021KT 9999 FEW017 SCT030 16/10 Q1018","updated":"2026-01-12T15:24:24Z"}
