{"icao":"KJFK","metar":"KJFK 230751Z 04004KT 10SM FEW250 01/M03 A3005 RMK AO2 SLP173 T00111033","updated":"2025-11-23T08:22:51Z"}
