{"icao":"LPPD","metar":"LPPD 190500Z 01013G23KT 9999 FEW014 18/15 Q1016","updated":"2025-09-19T05:16:13Z"}
