{"icao":"LPMA","metar":"LPMA 030830Z 34013KT 280V020 9999 DZ BKN015 FEW018CB 13/06 Q1016","updated":"2026-03-03T08:39:43Z"}
