{"icao":"KJFK","metar":"KJFK 081851Z 26008KT 10SM SCT050 SCT200 19/07 A2975 RMK AO2 SLP075 T01890072 $","updated":"2025-11-08T19:13:24Z"}
