{"icao":"KORD","metar":"KORD 201851Z 31009G17KT 10SM BKN250 22/08 A2977 RMK AO2 SLP081 T02170078","updated":"2026-03-20T19:36:27Z"}
