{"icao":"LPFR","metar":"LPFR 271400Z 27012KT CAVOK 22/16 Q1019","updated":"2025-09-27T14:14:16Z"}
