{"icao":"KLAX","metar":"KLAX 050553Z 04005KT 10SM FEW250 15/00 A3014 RMK AO2 SLP206 T01500000 10189 20150 53004 $","updated":"2025-12-05T06:30:31Z"}
