{"icao":"LPCS","metar":"LPCS 241900Z 31010KT 9000 -DZRA FEW006 BKN012 17/16 Q1017","updated":"2025-11-25T06:29:52Z"}
