{"icao":"KLAX","metar":"KLAX 040353Z 25009KT 10SM SCT026 19/14 A2993 RMK AO2 SLP132 T01890144 $","updated":"2025-10-04T04:19:55Z"}
