{"icao":"LPOV","metar":"LPOV 071100Z 34009KT CAVOK 13/07 Q1019","updated":"2026-03-07T11:18:44Z"}
