{"icao":"LPPD","metar":"LPPD 042300Z 32009KT 290V350 9999 FEW018 16/08 Q1013","updated":"2025-11-04T23:17:07Z"}
