{"icao":"LPFR","metar":"LPFR 162200Z 31003KT CAVOK 14/13 Q1014","updated":"2025-11-16T22:16:37Z"}
