{"icao":"KORD","metar":"KORD 270051Z 20012G20KT 10SM FEW250 M15/M23 A3014 RMK AO2 SLP226 T11501228","updated":"2026-01-27T01:48:02Z"}
