{"icao":"LPFL","metar":"LPFL 221600Z 36008KT 330V030 9999 FEW010 19/17 Q1008","updated":"2025-10-22T16:24:27Z"}
