{"icao":"LPFL","metar":"LPFL 191600Z 02008KT 350V050 9999 FEW022 BKN028 17/09 Q1029","updated":"2025-11-19T16:25:42Z"}
