{"icao":"KORD","metar":"KORD 052151Z 20016G24KT 10SM FEW250 29/06 A3001 RMK AO2 PK WND 19027/2110 SLP157 T02890061 $","updated":"2025-10-05T22:15:08Z"}
