{"icao":"LPPD","metar":"LPPD 080900Z 21023KT 8000 FEW008 SCT012 BKN035 19/18 Q0998","updated":"2025-12-08T09:27:10Z"}
