{"icao":"LPPD","metar":"LPPD 170100Z 31004KT 260V360 9999 FEW020 SCT030 14/09 Q1034","updated":"2026-01-17T01:28:27Z"}
