{"icao":"LPPR","metar":"LPPR 261230Z 02008KT 340V060 CAVOK 14/08 Q1026","updated":"2025-11-26T12:40:28Z"}
