{"icao":"LPFR","metar":"LPFR 150130Z VRB02KT CAVOK 09/08 Q1021","updated":"2026-01-15T01:39:41Z"}
