{"icao":"LPMR","metar":"LPMR 110800Z 13009KT CAVOK 21/12 Q1021","updated":"2025-10-11T08:20:08Z"}
