{"icao":"LPHR","metar":"LPHR 081230Z 16015KT 9000 -SHRA SCT007 SCT011 BKN030 23/22 Q1022","updated":"2025-10-08T12:37:29Z"}
