{"icao":"LPPD","metar":"LPPD 010530Z 25004KT 210V280 0500 R30/0600 FG VV001 18/18 Q1026","updated":"2026-06-01T06:01:16Z"}
