{"icao":"LPPT","metar":"LPPT 270930Z 05011KT CAVOK 15/03 Q1018","updated":"2026-03-27T09:53:18Z"}
