{"icao":"LPCS","metar":"LPCS 041000Z 07004KT 010V110 CAVOK 22/10 Q1023","updated":"2026-04-04T10:31:49Z"}
