{"icao":"LPMA","metar":"LPMA 091730Z 02009KT 330V060 5000 -DZ BKN013 FEW015TCU 15/12 Q1028","updated":"2026-03-09T17:53:45Z"}
