{"icao":"LPMT","metar":"LPMT 220700Z 03006KT CAVOK 05/04 Q1030","updated":"2025-11-22T07:16:21Z"}
