{"icao":"KLAX","metar":"KLAX 061353Z 07008KT 10SM FEW010 FEW015 SCT070 BKN220 BKN300 12/11 A3007 RMK AO2 SLP181 T01220106 $","updated":"2026-01-06T14:21:38Z"}
