{"icao":"LPBJ","metar":"LPBJ 131500Z 30008KT 260V330 9999 FEW028 18/08 Q1020","updated":"2026-03-13T15:40:55Z"}
