{"icao":"KLAX","metar":"KLAX 210653Z 08009KT 4SM -RA BR FEW006 BKN008 OVC020 12/11 A2984 RMK AO2 PK WND 05028/0600 SLP104 P0008 T01220111 $","updated":"2025-11-21T07:18:44Z"}
