{"icao":"LPFL","metar":"LPFL 201330Z 33011KT 300V010 9999 VCSH SCT020 21/15 Q1011","updated":"2026-06-20T13:59:49Z"}
