{"icao":"LPMR","metar":"LPMR 132000Z 33002KT CAVOK 16/13 Q1017","updated":"2025-10-13T21:15:15Z"}
