{"icao":"KORD","metar":"KORD 200451Z 04006KT 10SM FEW070 BKN120 OVC250 23/18 A3002 RMK AO2 SLP159 T02330178","updated":"2025-09-20T05:15:56Z"}
