{"icao":"LPFR","metar":"LPFR 052000Z 28017KT 9999 FEW015 19/13 Q1014","updated":"2025-11-05T20:21:00Z"}
