{"icao":"KORD","metar":"KORD 220451Z 29016G27KT 10SM BKN022 OVC045 M02/M07 A2995 RMK AO2 PK WND 27033/0401 SNE08 SLP152 P0000 T10221067 $","updated":"2026-01-22T05:27:24Z"}
