{"icao":"LPMR","metar":"LPMR 131700Z 34007KT 310V010 CAVOK 22/11 Q1015","updated":"2025-10-13T17:15:18Z"}
