{"icao":"LPHR","metar":"LPHR 141600Z 33009KT 280V360 9999 SCT030 17/09 Q1008","updated":"2025-11-14T16:23:40Z"}
