{"icao":"LPPD","metar":"LPPD 310830Z 08009KT 050V110 9999 SCT018 13/09 Q1031","updated":"2026-03-31T08:58:26Z"}
