{"icao":"KORD","metar":"KORD 291451Z 19006KT 10SM BKN300 23/11 A3009 RMK AO2 SLP185 T02280111 58006","updated":"2026-05-29T15:25:10Z"}
