{"icao":"LPPR","metar":"LPPR 171230Z 04009KT 360V070 9999 SCT023 17/12 Q1015","updated":"2025-11-17T12:38:52Z"}
