{"icao":"LPLA","metar":"LPLA 111600Z 01008KT 330V070 9999 VCSH SCT022 BKN035 16/10 Q1022","updated":"2026-05-11T16:31:56Z"}
