{"icao":"KJFK","metar":"KJFK 241351Z 32020G32KT 10SM FEW048 07/M04 A3004 RMK AO2 PK WND 31045/1317 SLP171 T00671039 $","updated":"2025-12-24T14:19:10Z"}
