{"icao":"LPMT","metar":"LPMT 122100Z 18003KT CAVOK 17/14 Q1015","updated":"2025-10-12T21:14:19Z"}
