{"icao":"LPPT","metar":"LPPT 160200Z 34006KT 9999 FEW008 12/12 Q1022","updated":"2026-04-16T02:33:40Z"}
