{"icao":"LPMR","metar":"LPMR 190400Z 19005KT 9999 SCT016 BKN022 20/17 Q1015","updated":"2025-10-19T04:21:17Z"}
