{"icao":"KJFK","metar":"KJFK 261451Z 33009KT 10SM BKN230 05/M04 A2991 RMK AO2 SLP129 T00501044 51014 $","updated":"2026-02-26T15:52:32Z"}
