{"icao":"LPPD","metar":"LPPD 280300Z 02006KT 9999 FEW020 SCT040 18/11 Q1028","updated":"2025-09-28T03:06:44Z"}
