{"icao":"KJFK","metar":"KJFK 011751Z 33022G31KT 10SM CLR M08/M17 A2980 RMK AO2 PK WND 34032/1722 SLP089 4/006 933012 6//// T10781167 11078 21117 58029 PNO $","updated":"2026-02-01T18:33:42Z"}
