{"icao":"LPOV","metar":"LPOV 121000Z 01005KT 330V060 9999 OVC012 12/10 Q1028","updated":"2026-03-12T10:37:11Z"}
