{"icao":"LPFL","metar":"LPFL 311130Z 16011KT 9999 FEW020 17/12 Q1030","updated":"2026-03-31T11:48:32Z"}
