{"icao":"LPFL","metar":"LPFL 040800Z 31010G25KT 240V360 9999 SCT018 FEW019TCU 16/09 Q1004","updated":"2025-11-04T08:26:39Z"}
