{"icao":"LPHR","metar":"LPHR 021000Z 29003KT 240V320 9999 FEW018 BKN035 14/10 Q1032","updated":"2025-12-02T10:21:43Z"}
