{"icao":"LPFR","metar":"LPFR 180100Z 03005KT CAVOK 12/10 Q1023","updated":"2025-12-18T01:25:21Z"}
