{"icao":"LPLA","metar":"LPLA 051319Z 21016G30KT 160V290 9999 FEW022 SCT026 16/10 Q1015","updated":"2026-04-05T13:54:32Z"}
