{"icao":"LPFR","metar":"LPFR 070300Z 28006KT CAVOK 06/02 Q1025","updated":"2026-01-07T03:28:03Z"}
