{"icao":"LPCS","metar":"LPCS 130830Z 29015KT 230V310 9999 VCSH FEW018 SCT026 13/10 Q1006","updated":"2026-02-13T08:40:28Z"}
