{"icao":"KORD","metar":"KORD 291951Z 01003KT 10SM FEW070 31/11 A3017 RMK AO2 SLP211 T03110106","updated":"2025-09-29T20:18:01Z"}
