{"icao":"KORD","metar":"KORD 010851Z 24006KT 10SM OVC070 06/02 A2994 RMK AO2 SLP141 T00560017 51005 $","updated":"2025-11-01T09:16:53Z"}
