{"icao":"LPPS","metar":"LPPS 071430Z 02014KT 360V060 9999 FEW015 BKN030 20/14 Q1025","updated":"2026-06-07T14:50:50Z"}
