{"icao":"LPAZ","metar":"LPAZ 221000Z 15010KT 9999 BKN049 16/12 Q1025","updated":"2026-02-22T10:23:18Z"}
