{"icao":"LPOV","metar":"LPOV 211600Z 31007KT CAVOK 15/10 Q1029","updated":"2026-02-21T16:27:27Z"}
