{"icao":"LPMT","metar":"LPMT 122300Z 22017G27KT 8000 OVC006 15/15 Q1007","updated":"2026-02-12T23:27:38Z"}
