{"icao":"LPPS","metar":"LPPS 061000Z 05013KT 010V080 9999 FEW015 SCT030 15/09 Q1028","updated":"2026-01-06T10:22:34Z"}
