{"icao":"LPMA","metar":"LPMA 171100Z 35006KT 290V070 9999 SCT015 19/12 Q1026","updated":"2025-12-17T11:19:31Z"}
