{"icao":"LPOV","metar":"LPOV 221000Z 17007KT 9999 FEW018 SCT025 09/09 Q1007","updated":"2026-01-22T10:26:18Z"}
