{"icao":"LPAZ","metar":"LPAZ 150430Z 32018G29KT 9999 FEW020 15/10 Q1024","updated":"2025-12-15T04:39:18Z"}
