{"icao":"LPAZ","metar":"LPAZ 271700Z 25026G36KT 9000 FEW019 17/14 Q1009","updated":"2026-01-27T17:26:32Z"}
