{"icao":"LPHR","metar":"LPHR 141500Z 30011KT 270V330 9999 FEW030 17/10 Q1008","updated":"2025-11-14T15:17:13Z"}
