{"icao":"LPFR","metar":"LPFR 271700Z 31007KT 280V350 CAVOK 19/07 Q1021","updated":"2026-02-27T17:33:56Z"}
