{"icao":"LPMA","metar":"LPMA 301830Z 01019G30KT 340V040 9999 FEW015 17/11 Q1023","updated":"2026-03-30T18:59:01Z"}
