{"icao":"LPPS","metar":"LPPS 181630Z 33008KT 290V360 9999 SCT012 18/14 Q1025","updated":"2026-02-18T17:01:51Z"}
