{"icao":"LPLA","metar":"LPLA 190500Z 35008KT 9999 BKN030 14/07 Q1032","updated":"2026-01-19T05:30:21Z"}
