{"icao":"LPPT","metar":"LPPT 021430Z 33010KT 290V360 CAVOK 22/11 Q1020","updated":"2026-04-02T14:54:10Z"}
