{"icao":"LPPT","metar":"LPPT 121400Z VRB06G24KT 9999 FEW045 25/13 Q1016","updated":"2025-10-12T14:14:12Z"}
