{"icao":"LPOV","metar":"LPOV 212300Z VRB02KT 6000 NSC 08/08 Q1030","updated":"2026-02-21T23:22:21Z"}
