{"icao":"LPAZ","metar":"LPAZ 021400Z 21007KT 160V240 9999 FEW009 24/21 Q1022","updated":"2025-10-02T14:17:15Z"}
