{"icao":"LPCS","metar":"LPCS 251430Z 35010KT 320V020 9999 FEW009 23/14 Q1015","updated":"2026-04-25T14:40:01Z"}
