{"icao":"LPAR","metar":"LPAR 261600Z 24017G27KT 7000 SCT009 BKN016 BKN030 16/13 Q1010","updated":"2026-01-26T16:32:52Z"}
