{"icao":"LPFL","metar":"LPFL 181200Z VRB04KT 9000 -DZ FEW005 SCT010 BKN014 24/21 Q1013","updated":"2025-10-18T12:32:57Z"}
