{"icao":"LPCS","metar":"LPCS 161630Z 27009KT 240V300 9999 FEW018 SCT023 15/13 Q1031","updated":"2026-02-16T16:41:11Z"}
