{"icao":"LPMR","metar":"LPMR 090500Z 32003KT 290V360 7000 OVC004 15/15 Q1020","updated":"2025-10-09T05:17:19Z"}
