{"icao":"KLAX","metar":"KLAX 111253Z 27009KT 10SM FEW009 SCT030 OVC060 15/12 A3001 RMK AO2 RAE1155 SLP159 P0000 T01500122 $","updated":"2026-02-11T13:07:19Z"}
