{"icao":"LPAZ","metar":"LPAZ 261100Z 05012KT 010V080 9999 FEW015 BKN021 FEW025TCU 18/16 Q1019 RESHRA","updated":"2025-10-26T11:13:14Z"}
