{"icao":"LPMA","metar":"LPMA 141800Z 35004KT 260V030 9999 FEW015 16/07 Q1025","updated":"2026-01-14T18:32:06Z"}
