{"icao":"LPMR","metar":"LPMR 101000Z 19012KT 150V220 9999 SCT020 18/10 Q1009","updated":"2026-05-10T10:13:20Z"}
