{"icao":"LPPT","metar":"LPPT 161600Z 02009KT 360V080 CAVOK 22/10 Q1018","updated":"2026-03-16T16:11:01Z"}
