{"icao":"KORD","metar":"KORD 010151Z 04017G23KT 10SM BKN017 OVC090 M02/M07 A3026 RMK AO2 SLP255 T10221067 $","updated":"2026-03-01T02:10:17Z"}
