{"icao":"LPPT","metar":"LPPT 252200Z 36008KT CAVOK 11/08 Q1025","updated":"2025-11-25T22:18:23Z"}
