{"icao":"KJFK","metar":"KJFK 242251Z 31012KT 10SM FEW055 FEW200 FEW250 M02/M13 A2993 RMK AO2 SLP134 T10171128 $","updated":"2026-02-24T23:30:36Z"}
