{"icao":"LPMR","metar":"LPMR 162200Z VRB02KT 0300 FG VV001 14/14 Q1015","updated":"2025-10-16T22:13:23Z"}
