{"icao":"KJFK","metar":"KJFK 271351Z 02011KT 10SM FEW080 FEW250 10/01 A3039 RMK AO2 SLP291 T01000011","updated":"2025-10-27T14:19:19Z"}
