{"icao":"LPLA","metar":"LPLA 271100Z 26013KT 230V290 9999 FEW020 SCT035 14/10 Q1007","updated":"2026-01-27T11:21:51Z"}
