{"icao":"KLAX","metar":"KLAX 250553Z 15004KT 10SM FEW040 FEW250 16/13 A3000 RMK AO2 SLP159 T01560133 10161 20144 53014 $","updated":"2025-12-25T06:31:43Z"}
