{"icao":"KJFK","metar":"KJFK 202051Z 03011KT 1 1/2SM -RA BR OVC006 03/02 A2960 RMK AO2 SFC VIS 3 SLP023 P0003 60016 T00280022 56033 $","updated":"2026-02-20T21:23:20Z"}
