{"icao":"KLAX","metar":"KLAX 061953Z 26007KT 8SM FEW010 FEW025 22/15 A2983 RMK AO2 SLP101 T02170150 $","updated":"2025-10-06T20:19:23Z"}
