{"icao":"KORD","metar":"KORD 090137Z 22005KT 2SM R10L/5500VP6000FT RA BR SCT007 BKN013 OVC025 13/12 A2946 RMK AO2 T01330122 PNO $","updated":"2026-01-09T01:41:44Z"}
