{"icao":"LPPR","metar":"LPPR 050400Z 34005KT 310V010 9999 FEW003 SCT009 13/12 Q1022","updated":"2025-10-05T04:19:12Z"}
