{"icao":"LPPD","metar":"LPPD 291900Z 30004KT 270V340 9999 FEW018 SCT030 17/14 Q1028","updated":"2025-11-29T19:14:15Z"}
