{"icao":"KLAX","metar":"KLAX 190453Z 13004KT 10SM CLR 16/08 A3003 RMK AO2 SLP167 T01610083","updated":"2026-01-19T05:30:25Z"}
