{"icao":"LPFR","metar":"LPFR 230130Z 04008KT CAVOK 11/M00 Q1027","updated":"2025-11-23T01:43:00Z"}
