{"icao":"LPPT","metar":"LPPT 131000Z 03014KT 010V070 CAVOK 13/10 Q1021","updated":"2025-12-13T10:18:19Z"}
