{"icao":"KORD","metar":"KORD 280751Z 36004KT 10SM FEW065 19/14 A3003 RMK AO2 SLP165 T01890139 $","updated":"2025-09-28T08:19:59Z"}
