{"icao":"LPBJ","metar":"LPBJ 271600Z 13011KT 100V180 CAVOK 36/04 Q1017","updated":"2026-05-27T16:35:29Z"}
