{"icao":"LPPD","metar":"LPPD 182300Z 36014G24KT 6000 -RA SCT015 FEW018TCU BKN030 19/17 Q1017","updated":"2025-09-18T23:15:51Z"}
