{"icao":"LPAZ","metar":"LPAZ 161130Z 33007KT 300V010 9999 FEW030 18/07 Q1030","updated":"2026-05-16T11:49:36Z"}
