{"icao":"LPPD","metar":"LPPD 111400Z 29023G33KT 9999 VCSH FEW025 FEW027CB 17/10 Q1004","updated":"2025-11-11T14:19:27Z"}
