{"icao":"LPPT","metar":"LPPT 131000Z 36011KT 320V030 CAVOK 22/13 Q1022","updated":"2025-09-13T10:15:30Z"}
