{"icao":"LPMR","metar":"LPMR 082200Z 16002KT CAVOK 10/10 Q1023","updated":"2025-11-08T22:15:09Z"}
