{"icao":"KJFK","metar":"KJFK 240351Z 25015KT 9SM FEW018 OVC034 03/01 A2997 RMK AO2 SLP146 T00330011 $","updated":"2025-12-24T04:34:53Z"}
