{"icao":"LPMA","metar":"LPMA 071730Z 02017G28KT 350V060 9999 FEW018 21/14 Q1024","updated":"2026-06-07T18:02:41Z"}
