{"icao":"KLAX","metar":"KLAX 170553Z 22009KT 10SM OVC007 17/14 A2993 RMK AO2 SLP134 T01670144 10194 20167 50006 $","updated":"2026-06-17T06:09:34Z"}
