{"icao":"KJFK","metar":"KJFK 101551Z 22007KT 10SM FEW250 14/09 A3005 RMK AO2 SLP174 T01390089","updated":"2026-03-10T15:58:16Z"}
