{"icao":"LPFR","metar":"LPFR 230800Z 29005KT 9999 FEW025 10/08 Q1007","updated":"2026-01-23T08:28:55Z"}
