{"icao":"LPCS","metar":"LPCS 150800Z 20013KT 6000 -SHRA SCT018 FEW024CB BKN035 16/15 Q1006","updated":"2025-11-15T08:21:10Z"}
