{"icao":"LPMT","metar":"LPMT 081000Z 11004KT 9999 FEW022 BKN027 10/09 Q1032","updated":"2026-01-08T10:23:13Z"}
