{"icao":"LPCS","metar":"LPCS 161900Z 36013KT CAVOK 16/10 Q1019","updated":"2026-04-16T19:10:55Z"}
