{"icao":"LPPR","metar":"LPPR 280630Z 08005KT 040V110 CAVOK 09/07 Q1023","updated":"2026-03-28T06:58:26Z"}
