{"icao":"KLAX","metar":"KLAX 011753Z 14006KT 10SM FEW010 FEW025 22/13 A2996 RMK AO2 SLP142 T02170128 10222 20167 50001 $","updated":"2026-06-01T18:36:52Z"}
