{"icao":"KJFK","metar":"KJFK 271418Z 02018KT 10SM FEW028 SCT037 BKN060 OVC230 12/05 A2996 RMK AO2 WSHFT 1402 T01170050 $","updated":"2026-03-27T14:48:54Z"}
