{"icao":"KORD","metar":"KORD 302151Z 05009KT 10SM BKN300 26/12 A3014 RMK AO2 SLP204 T02560122","updated":"2025-09-30T22:15:56Z"}
