{"icao":"LPBJ","metar":"LPBJ 120800Z 09003KT CAVOK 11/08 Q1026","updated":"2026-03-12T08:40:34Z"}
