{"icao":"LPLA","metar":"LPLA 221800Z 21015G27KT 8000 -RADZ SCT008 BKN045 21/18 Q1020","updated":"2025-09-22T18:24:13Z"}
