{"icao":"LPFR","metar":"LPFR 160700Z 06004KT 030V140 CAVOK 23/11 Q1018","updated":"2025-09-16T07:17:18Z"}
