{"icao":"KJFK","metar":"KJFK 300451Z 00000KT 10SM OVC250 20/14 A3015 RMK AO2 SLP209 T02000139 402560189 $","updated":"2025-09-30T05:18:05Z"}
