{"icao":"LPFR","metar":"LPFR 171830Z 11004KT 080V140 CAVOK 22/12 Q1016","updated":"2026-04-17T18:58:15Z"}
