{"icao":"LPCS","metar":"LPCS 170900Z 07003KT 040V100 CAVOK 23/10 Q1015","updated":"2025-10-17T09:19:33Z"}
