{"icao":"LPSJ","metar":"LPSJ 111530Z 15009KT 120V200 9999 FEW015 22/16 Q1025","updated":"2026-06-11T18:10:18Z"}
