{"icao":"LPFL","metar":"LPFL 071900Z 20018G30KT 170V240 9000 -RA SCT008 BKN012 18/16 Q1004","updated":"2026-02-07T19:23:04Z"}
