{"icao":"LPCR","metar":"LPCR 251530Z 30007KT 260V350 9999 FEW032 20/11 Q1026","updated":"2026-06-25T22:20:06Z"}
