{"icao":"LPBJ","metar":"LPBJ 051700Z 31016KT CAVOK 26/04 Q1016","updated":"2026-06-05T17:52:50Z"}
