{"icao":"LPPT","metar":"LPPT 102130Z 26010KT 230V290 7000 -DZ FEW002 BKN005 16/16 Q1018","updated":"2026-02-10T21:40:27Z"}
