{"icao":"KORD","metar":"KORD 072251Z 05003KT 10SM FEW250 18/04 A3013 RMK AO2 SLP201 T01780044","updated":"2025-10-07T23:16:15Z"}
