{"icao":"KLAX","metar":"KLAX 131053Z 00000KT 8SM FEW050 BKN070 16/14 A3002 RMK AO2 SLP164 T01610144 $","updated":"2025-11-13T11:17:12Z"}
