{"icao":"LPMA","metar":"LPMA 170830Z 33005KT 300V360 9999 SCT012 SCT030 15/12 Q1027","updated":"2026-02-17T08:42:39Z"}
