{"icao":"LPPS","metar":"LPPS 281000Z 16005KT 110V210 9999 FEW015 24/16 Q1013","updated":"2025-10-28T10:20:47Z"}
