{"icao":"LPMT","metar":"LPMT 272300Z 23013KT 6000 FEW009 BKN015 BKN030 19/18 Q1013","updated":"2025-09-27T23:14:43Z"}
