{"icao":"KLAX","metar":"KLAX 172153Z 27009KT 10SM CLR 23/12 A2989 RMK AO2 SLP120 T02330122","updated":"2025-10-17T22:16:10Z"}
