{"icao":"LPMA","metar":"LPMA 292100Z 03013KT 330V060 9999 SCT016 21/14 Q1022","updated":"2025-09-29T21:14:57Z"}
