{"icao":"KORD","metar":"KORD 242351Z 09009KT 10SM FEW045 23/12 A3002 RMK AO2 SLP163 T02280122 10250 20211 53001 $","updated":"2026-05-25T00:03:27Z"}
