{"icao":"LPMT","metar":"LPMT 191600Z 26007KT 9999 SCT032 22/14 Q1022","updated":"2026-05-19T16:17:40Z"}
