{"icao":"LPBJ","metar":"LPBJ 050500Z 32004KT 7000 VCFG SCT003 10/10 Q1014","updated":"2026-03-05T05:46:41Z"}
