{"icao":"LPBJ","metar":"LPBJ 210500Z 12011KT CAVOK 18/08 Q1005","updated":"2026-04-21T05:26:03Z"}
