{"icao":"LPPR","metar":"LPPR 260300Z 36004KT CAVOK 07/06 Q1026","updated":"2025-11-26T03:13:36Z"}
