{"icao":"LPFL","metar":"LPFL 231000Z 32013KT 280V040 9999 FEW030 13/04 Q1026","updated":"2026-01-23T10:24:00Z"}
