{"icao":"LPMR","metar":"LPMR 042200Z 15004KT 5000 BR FEW010 BKN025 11/10 Q1020","updated":"2025-12-04T22:16:25Z"}
