{"icao":"LPBJ","metar":"LPBJ 040500Z 10006KT CAVOK 11/10 Q1019","updated":"2025-11-04T05:18:40Z"}
