{"icao":"LPPT","metar":"LPPT 110630Z 23018KT 2000 DZ BR FEW000 BKN002 15/15 Q1016","updated":"2026-02-11T06:59:06Z"}
