{"icao":"LPOV","metar":"LPOV 131100Z 17007KT 3500 -RADZ SCT008 BKN015 BKN025 13/12 Q1022","updated":"2026-04-13T12:01:33Z"}
