{"icao":"LPPT","metar":"LPPT 160700Z 29004KT 9999 VCSH FEW016 FEW020TCU SCT044 10/10 Q1015","updated":"2026-01-16T07:23:42Z"}
