{"icao":"LPPD","metar":"LPPD 151330Z 03009KT 350V090 9999 FEW025 BKN040 16/07 Q1032","updated":"2026-05-15T14:03:57Z"}
