{"icao":"LPMT","metar":"LPMT 290900Z VRB02KT 9999 FEW035 BKN040 12/12 Q1020","updated":"2025-11-29T09:18:16Z"}
