{"icao":"LPFL","metar":"LPFL 180900Z 36011KT 9999 FEW020 16/12 Q1029","updated":"2025-11-18T09:20:47Z"}
