{"icao":"LPAR","metar":"LPAR 131000Z 12004KT 080V170 9999 FEW015 SCT045 19/14 Q1020","updated":"2026-05-13T10:25:46Z"}
