{"icao":"KJFK","metar":"KJFK 032151Z 00000KT 10SM FEW120 BKN250 13/10 A3017 RMK AO2 SLP215 T01280100","updated":"2026-04-03T22:33:05Z"}
