{"icao":"LPPR","metar":"LPPR 171600Z 29004KT 260V320 CAVOK 21/13 Q1014","updated":"2025-10-17T16:21:30Z"}
