{"icao":"LPPS","metar":"LPPS 071230Z 02009KT 350V070 9999 SCT014 24/19 Q1025","updated":"2025-10-07T12:37:14Z"}
