{"icao":"LPPR","metar":"LPPR 282000Z 20014G24KT 9000 -RA FEW018 FEW022CB BKN040 13/11 Q1001","updated":"2026-01-28T20:29:13Z"}
