{"icao":"LPHR","metar":"LPHR 011500Z 21007KT 8000 -DZ SCT004 SCT007 BKN012 22/22 Q1020","updated":"2025-10-01T15:17:48Z"}
