{"icao":"LPMA","metar":"LPMA 090230Z 26003KT 230V300 9999 FEW015 15/10 Q1010","updated":"2026-05-09T02:43:48Z"}
