{"icao":"LPFL","metar":"LPFL 211400Z 16005KT 100V220 9999 FEW025 21/15 Q1021","updated":"2026-06-21T14:07:38Z"}
