{"icao":"LPMT","metar":"LPMT 162200Z 07004KT CAVOK 14/07 Q1016","updated":"2026-03-16T23:30:42Z"}
