{"icao":"KORD","metar":"KORD 270251Z 21016G28KT 10SM SCT140 BKN180 M14/M20 A3007 RMK AO2 PK WND 21028/0250 SLP199 T11441200 58034","updated":"2026-01-27T03:47:02Z"}
