{"icao":"LPOV","metar":"LPOV 230900Z VRB02KT 0800 FG OVC002 11/11 Q1014","updated":"2026-03-23T10:01:21Z"}
