{"icao":"LPPT","metar":"LPPT 241100Z 10005G20KT 040V160 CAVOK 22/16 Q1021","updated":"2026-05-24T11:15:04Z"}
