{"icao":"LPPT","metar":"LPPT 092100Z 31008G18KT 250V340 9000 -SHRA SCT024 FEW030TCU 09/06 Q1022","updated":"2026-03-09T21:31:10Z"}
