{"icao":"KJFK","metar":"KJFK 080251Z 27012KT 10SM BKN045 BKN120 04/M03 A3005 RMK AO2 SLP175 T00441033 58004 $","updated":"2025-12-08T03:21:03Z"}
