{"icao":"LPPR","metar":"LPPR 270300Z VRB02KT CAVOK 07/07 Q1025","updated":"2025-11-27T03:10:00Z"}
