{"icao":"LPMA","metar":"LPMA 201900Z 15005KT 080V200 9999 SCT016 22/18 Q1018","updated":"2026-06-20T19:24:02Z"}
