{"icao":"LPPT","metar":"LPPT 170230Z 32004KT 280V360 9999 FEW020 13/10 Q1018","updated":"2026-05-17T02:56:06Z"}
