{"icao":"LPMT","metar":"LPMT 162100Z 35014KT 320V020 9999 FEW040 13/08 Q1016","updated":"2025-12-16T21:19:29Z"}
