{"icao":"KJFK","metar":"KJFK 161113Z 19014G26KT 1/4SM R04R/2000V2200FT -RA FG VV002 09/09 A2982 RMK AO2 PK WND 16026/1107 P0000 T00940094 $","updated":"2026-03-16T11:45:19Z"}
