{"icao":"LPCS","metar":"LPCS 251800Z 27004KT 240V310 9000 -RADZ FEW005 BKN016 14/14 Q1014","updated":"2026-01-25T18:28:35Z"}
