{"icao":"LPMA","metar":"LPMA 191600Z 02008KT 320V070 9999 FEW015 18/09 Q1026","updated":"2026-01-19T16:27:55Z"}
