{"icao":"LPPS","metar":"LPPS 231030Z 13006KT 9999 FEW014 17/13 Q1023","updated":"2026-02-23T10:49:47Z"}
