{"icao":"LPPD","metar":"LPPD 211230Z 03009KT 360V060 9999 FEW027 BKN040 17/09 Q1032","updated":"2025-11-21T12:37:09Z"}
