{"icao":"LPMA","metar":"LPMA 140330Z 29004KT 9999 FEW015 19/16 Q1016","updated":"2025-10-14T03:37:01Z"}
