{"icao":"LPPR","metar":"LPPR 190900Z 03008KT 010V070 9999 FEW030 10/04 Q1018","updated":"2025-11-19T09:20:42Z"}
