{"icao":"LPBJ","metar":"LPBJ 280100Z VRB01KT CAVOK 11/06 Q1018","updated":"2026-03-28T02:03:42Z"}
