{"icao":"LPBJ","metar":"LPBJ 011700Z 13011KT 9999 OVC006 14/13 Q1010","updated":"2026-01-01T17:18:15Z"}
