{"icao":"LPPD","metar":"LPPD 252200Z 22022KT 9999 FEW008 BKN020 17/15 Q1011","updated":"2026-01-25T22:19:13Z"}
