{"icao":"LPFL","metar":"LPFL 121100Z 34010G22KT 310V010 9999 FEW027 19/11 Q1020","updated":"2025-10-12T11:13:00Z"}
