{"icao":"LPPD","metar":"LPPD 302100Z 06005KT 350V110 9999 FEW014 BKN018 20/17 Q1031","updated":"2026-06-30T21:26:55Z"}
