{"icao":"LPLA","metar":"LPLA 070700Z VRB02KT CAVOK 18/16 Q1021","updated":"2025-10-07T07:17:15Z"}
