{"icao":"LPPT","metar":"LPPT 030300Z 32004KT CAVOK 13/09 Q1024","updated":"2025-11-03T03:15:50Z"}
