{"icao":"LPCS","metar":"LPCS 031930Z 17012KT 4000 RADZ BR SCT003 BKN006 11/11 Q0997","updated":"2026-02-04T04:13:44Z"}
