{"icao":"LPAZ","metar":"LPAZ 192300Z 27011KT 8000 SCT004 BKN015 23/22 Q1018","updated":"2025-10-19T23:15:48Z"}
