{"icao":"LPLA","metar":"LPLA 070700Z 18007KT 9999 BKN045 15/10 Q1033","updated":"2026-01-07T07:23:51Z"}
