{"icao":"KORD","metar":"KORD 071751Z 28012G22KT 10SM FEW250 16/05 A2954 RMK AO2 SLP002 T01560050 10156 20094 50006 $","updated":"2025-11-07T18:25:59Z"}
