{"icao":"LPCS","metar":"LPCS 051230Z 34015KT 300V010 9999 FEW025 20/11 Q1018","updated":"2026-06-05T12:35:28Z"}
