{"icao":"LPPR","metar":"LPPR 082000Z 15014KT 5000 -RADZ BR BKN007 FEW018CB 10/09 Q1008 RERA","updated":"2026-02-08T20:26:26Z"}
