{"icao":"KORD","metar":"KORD 060451Z 24013G19KT 10SM BKN040 OVC075 M03/M09 A2976 RMK AO2 SLP088 T10281089","updated":"2025-12-06T05:18:31Z"}
