{"icao":"LPPS","metar":"LPPS 071800Z 03010KT 010V070 9999 SCT012 22/19 Q1024","updated":"2025-10-07T18:26:36Z"}
