{"icao":"LPCR","metar":"LPCR 021230Z 11007KT 080V140 9999 FEW008 SCT017 22/20 Q1028","updated":"2026-07-02T12:56:29Z"}
