{"icao":"LPPD","metar":"LPPD 030100Z VRB02KT 9000 FEW004 BKN006 BKN025 19/18 Q1017","updated":"2025-11-03T01:26:13Z"}
