{"icao":"KORD","metar":"KORD 011551Z 35011KT 10SM FEW032 SCT043 BKN060 09/M02 A3001 RMK AO2 SLP166 T00941017 $","updated":"2026-05-01T15:56:16Z"}
