{"icao":"LPMT","metar":"LPMT 071700Z 33012KT CAVOK 25/12 Q1020","updated":"2026-06-07T18:02:23Z"}
