{"icao":"LPOV","metar":"LPOV 191900Z 34004KT CAVOK 10/07 Q1029","updated":"2026-02-19T19:37:35Z"}
