{"icao":"LPMT","metar":"LPMT 020800Z 34005KT 300V360 9999 FEW002 14/11 Q1021","updated":"2026-04-02T08:54:52Z"}
