{"icao":"LPAZ","metar":"LPAZ 101700Z 24019KT 9999 FEW022 20/15 Q1015","updated":"2025-11-10T17:16:53Z"}
