{"icao":"LPOV","metar":"LPOV 130700Z 34001KT CAVOK 12/11 Q1015","updated":"2025-10-13T07:18:21Z"}
