{"icao":"LPPT","metar":"LPPT 162200Z VRB02KT CAVOK 20/09 Q1015","updated":"2025-10-16T22:13:21Z"}
