{"icao":"LPCS","metar":"LPCS 031230Z 22005KT 190V250 CAVOK 23/13 Q1023","updated":"2026-04-03T13:01:02Z"}
