{"icao":"KORD","metar":"KORD 241251Z 18007KT 10SM SCT140 BKN180 BKN250 M06/M12 A2997 RMK AO2 SLP160 T10611117","updated":"2026-02-24T13:03:34Z"}
