{"icao":"KJFK","metar":"KJFK 251951Z 32005KT 10SM FEW055 BKN070 BKN250 14/01 A3033 RMK AO2 SLP271 T01440011","updated":"2025-10-25T20:18:42Z"}
