{"icao":"KJFK","metar":"KJFK 081551Z 32021G29KT 10SM FEW030 M13/M23 A3017 RMK AO2 PK WND 33030/1529 SLP216 T11281228 $","updated":"2026-02-08T16:29:43Z"}
