{"icao":"LPLA","metar":"LPLA 090600Z 22017G32KT 190V250 8000 -DZ SCT007 BKN012 18/17 Q1009","updated":"2026-02-09T06:10:12Z"}
