{"icao":"LPMA","metar":"LPMA 191830Z 04008KT 360V120 9999 SCT016 BKN060 20/14 Q1009","updated":"2026-04-19T18:49:57Z"}
