{"icao":"LPOV","metar":"LPOV 012300Z VRB01KT 4000 BR FEW012 12/12 Q1022","updated":"2025-11-01T23:15:52Z"}
