{"icao":"LPAZ","metar":"LPAZ 020900Z 33031KT 8000 -SHRA FEW018 SCT024 BKN030 13/11 Q1003","updated":"2026-01-02T09:23:45Z"}
