{"icao":"LPPD","metar":"LPPD 041030Z 23009KT 0050 R30/1100D -DZ FG VV001 16/15 Q1025","updated":"2026-03-04T10:35:10Z"}
