{"icao":"KORD","metar":"KORD 090551Z 19011G19KT 10SM BKN042 BKN049 OVC070 M06/M11 A3007 RMK AO2 SLP191 4/008 T10561106 11050 21061 410331083 58031","updated":"2025-12-09T06:31:19Z"}
