{"icao":"LPAZ","metar":"LPAZ 131800Z 23007KT 200V260 9999 FEW030 24/19 Q1026","updated":"2025-09-13T18:20:42Z"}
