{"icao":"LPFL","metar":"LPFL 202100Z 33011KT 300V360 9999 SCT030 14/08 Q1032","updated":"2025-12-21T01:43:22Z"}
