{"icao":"LPBJ","metar":"LPBJ 120700Z 23005KT 5000 BR FEW007 SCT020 11/11 Q1021","updated":"2026-02-12T07:50:53Z"}
