{"icao":"LPHR","metar":"LPHR 240830Z 30020KT 9999 SCT015 14/11 Q1012","updated":"2026-02-24T08:46:20Z"}
