{"icao":"KJFK","metar":"KJFK 080551Z 33022G33KT 10SM FEW090 SCT250 M15/M23 A3007 RMK AO2 PK WND 33035/0513 SLP181 4/005 T11501233 11128 21150 53017 $","updated":"2026-02-08T06:48:59Z"}
