{"icao":"LPPR","metar":"LPPR 041500Z 29005KT CAVOK 20/11 Q1022","updated":"2026-04-04T15:30:31Z"}
