{"icao":"LPPD","metar":"LPPD 302000Z 21011KT 4000 -RA BR SCT005 BKN008 17/17 Q1009","updated":"2025-12-30T20:22:18Z"}
