{"icao":"KJFK","metar":"KJFK 140751Z 18006KT 10SM BKN140 BKN250 05/03 A2970 RMK AO2 SLP056 T00500028 $","updated":"2026-01-14T08:29:37Z"}
