{"icao":"LPPS","metar":"LPPS 252200Z 28009KT 9999 FEW015 SCT030 17/13 Q1025","updated":"2026-01-25T22:19:15Z"}
