{"icao":"LPMT","metar":"LPMT 031300Z 04013KT 9999 FEW035 18/11 Q1012","updated":"2026-03-03T13:59:21Z"}
