{"icao":"LPPD","metar":"LPPD 281900Z 03011KT 010V070 9999 FEW018 BKN030 14/10 Q1033","updated":"2026-03-28T19:28:39Z"}
