{"icao":"LPBJ","metar":"LPBJ 021800Z 32015KT CAVOK 25/11 Q1019","updated":"2026-06-02T18:37:49Z"}
