{"icao":"LPBJ","metar":"LPBJ 300800Z VRB02KT 0700 FG VV002 14/14 Q1015","updated":"2025-10-30T08:24:13Z"}
