{"icao":"LPBJ","metar":"LPBJ 080800Z 29010KT 0200 FG VV002 13/13 Q1023","updated":"2025-10-08T08:24:19Z"}
