{"icao":"LPMR","metar":"LPMR 180200Z VRB02KT CAVOK 13/12 Q1015","updated":"2025-10-18T02:53:38Z"}
