{"icao":"LPOV","metar":"LPOV 140900Z 36008KT 9999 FEW010 11/05 Q1024","updated":"2026-02-14T09:28:47Z"}
