{"icao":"LPFL","metar":"LPFL 231330Z VRB05G15KT 9999 SCT028 14/06 Q1027","updated":"2026-01-23T13:41:34Z"}
