{"icao":"LPMT","metar":"LPMT 292300Z 34006KT CAVOK 20/16 Q1021","updated":"2026-06-30T00:02:42Z"}
