{"icao":"LPFR","metar":"LPFR 290730Z 07004KT 040V110 CAVOK 22/18 Q1020","updated":"2026-05-29T07:53:40Z"}
