{"icao":"LPPR","metar":"LPPR 170600Z 35003KT 8000 BKN007 BKN040 12/12 Q1012","updated":"2025-11-17T06:29:16Z"}
