{"icao":"KJFK","metar":"KJFK 161451Z 21008KT 10SM FEW120 FEW250 19/10 A3011 RMK AO2 SLP197 T01890100 58007","updated":"2026-05-16T14:55:23Z"}
