{"icao":"KJFK","metar":"KJFK 262151Z 32015KT 10SM BKN036 BKN055 M04/M11 A2979 RMK AO2 PK WND 34027/2133 SLP088 T10441111 $","updated":"2026-01-26T22:20:58Z"}
