{"icao":"KORD","metar":"KORD 121651Z 21017G33KT 10SM FEW070 FEW140 BKN250 25/13 A2992 RMK AO2 PK WND 20033/1553 SLP127 T02500133 $","updated":"2026-04-12T17:33:19Z"}
