{"icao":"LPFR","metar":"LPFR 041930Z 24020KT 4600 -RADZ FEW003 BKN005 16/15 Q1003","updated":"2026-02-04T19:37:17Z"}
