{"icao":"KORD","metar":"KORD 132151Z 29009KT 10SM FEW020 OVC070 M12/M21 A3024 RMK AO2 SLP255 T11221206","updated":"2025-12-13T22:17:41Z"}
