{"icao":"KORD","metar":"KORD 060912Z 35003KT 6SM TSRA BR SCT016 BKN024CB OVC120 21/19 A2982 RMK AO2 FRQ LTGIC OHD TS OHD MOV SE P0003 T02110194 $","updated":"2026-06-06T09:24:51Z"}
