{"icao":"LPPD","metar":"LPPD 111030Z 00000KT 9999 FEW020 BKN025 14/09 Q1034","updated":"2026-03-11T10:37:49Z"}
