{"icao":"LPST","metar":"LPST 221100Z 36014KT 330V030 CAVOK 19/06 Q1020","updated":"2025-09-22T11:15:18Z"}
