{"icao":"LPFR","metar":"LPFR 151000Z 10009KT CAVOK 24/18 Q1017","updated":"2025-10-15T10:19:43Z"}
