{"icao":"LPPD","metar":"LPPD 120930Z 22003KT 160V280 9999 FEW025 13/05 Q1032","updated":"2026-04-12T09:43:19Z"}
