{"icao":"LPPD","metar":"LPPD 190300Z 26009KT 7000 -DZ SCT002 BKN004 22/22 Q1017","updated":"2025-10-19T03:14:33Z"}
