{"icao":"LPMR","metar":"LPMR 061600Z 28009KT 250V310 CAVOK 23/10 Q1019","updated":"2025-10-06T16:21:24Z"}
