{"icao":"KLAX","metar":"KLAX 030853Z VRB06KT 10SM FEW005 OVC008 20/18 A2999 RMK AO2 SLP152 T02000178 58001 $","updated":"2025-10-03T09:17:51Z"}
