{"icao":"KJFK","metar":"KJFK 050751Z 25009KT 10SM SCT250 07/02 A3016 RMK AO2 SLP213 T00720017 $","updated":"2025-11-05T08:25:32Z"}
