{"icao":"LPAZ","metar":"LPAZ 012230Z 07007KT 030V090 9999 FEW007 BKN020 14/11 Q1030","updated":"2026-04-01T22:35:50Z"}
