{"icao":"KLAX","metar":"KLAX 180853Z 09004KT 10SM FEW012 SCT022 BKN040 12/11 A2991 RMK AO2 SLP125 T01170106 50002 $","updated":"2025-11-18T09:20:50Z"}
