{"icao":"LPCS","metar":"LPCS 201830Z 36013KT CAVOK 12/08 Q1028","updated":"2026-02-20T18:45:00Z"}
