{"icao":"LPPD","metar":"LPPD 260500Z 04020G38KT 020V080 9999 FEW018 SCT030 18/11 Q1019","updated":"2025-10-26T05:17:04Z"}
