{"icao":"LPMR","metar":"LPMR 060500Z 03005KT CAVOK 05/01 Q1021","updated":"2026-01-06T06:33:10Z"}
