{"icao":"LPFL","metar":"LPFL 230900Z 36012KT 330V030 9999 FEW014 SCT017 BKN033 19/12 Q1026","updated":"2025-09-23T09:18:58Z"}
