{"icao":"LPPR","metar":"LPPR 141230Z 30007KT 270V340 8000 VCSH FEW007 SCT010 BKN021 13/11 Q1020","updated":"2026-01-14T12:43:13Z"}
