{"icao":"LPMA","metar":"LPMA 132000Z 34005KT 300V360 9999 FEW016 21/15 Q1017","updated":"2025-10-13T20:19:22Z"}
