{"icao":"LPHR","metar":"LPHR 141600Z 22011KT 9999 FEW020 BKN040 17/12 Q1029","updated":"2026-02-14T16:28:14Z"}
