{"icao":"LPPT","metar":"LPPT 160830Z 25006KT 9999 FEW008 BKN036 12/12 Q1032","updated":"2026-02-16T08:45:25Z"}
