{"icao":"LPHR","metar":"LPHR 211800Z 17005KT 9999 FEW006 BKN008 18/17 Q1021","updated":"2026-02-21T18:33:33Z"}
