{"icao":"LPFR","metar":"LPFR 140730Z 30004KT 220V010 CAVOK 15/10 Q1023","updated":"2026-04-14T07:43:17Z"}
