{"icao":"LPPD","metar":"LPPD 272030Z 04011KT 010V080 9999 FEW022 SCT030 14/09 Q1030","updated":"2026-03-27T20:37:10Z"}
