{"icao":"KORD","metar":"KORD 271151Z 10006KT 7SM OVC009 03/02 A3000 RMK AO2 SLP163 70002 T00330017 10039 20033 53004 $","updated":"2025-12-27T12:37:52Z"}
