{"icao":"KORD","metar":"KORD 051851Z 00000KT 3SM BR BKN006 OVC016 08/07 A2997 RMK AO2 SLP151 T00830067","updated":"2026-03-05T19:50:44Z"}
