{"icao":"KORD","metar":"KORD 301557Z 30013KT 9SM OVC018 M01/M04 A3008 RMK AO2 SNE54 P0000 T10111039 $","updated":"2025-11-30T16:21:59Z"}
