{"icao":"LPFL","metar":"LPFL 141100Z 36007KT 9999 FEW010 FEW015TCU 22/20 Q1026","updated":"2025-09-14T11:11:42Z"}
