{"icao":"KORD","metar":"KORD 191751Z 17009G16KT 10SM SCT140 BKN250 32/13 A3002 RMK AO2 SLP159 T03170133 10317 20200 56006","updated":"2025-09-19T18:24:10Z"}
