{"icao":"KORD","metar":"KORD 041351Z 33006KT 10SM OVC024 M06/M11 A3038 RMK AO2 SLP297 T10611106","updated":"2026-02-04T14:04:11Z"}
