{"icao":"LPLA","metar":"LPLA 310100Z 25006KT 210V290 9999 FEW022 SCT035 16/13 Q1007","updated":"2025-10-31T01:22:32Z"}
