{"icao":"KORD","metar":"KORD 181951Z 26003KT 10SM FEW028 SCT060 BKN110 BKN250 22/17 A2964 RMK AO2 SLP034 T02220167 $","updated":"2025-10-18T20:17:54Z"}
