{"icao":"KORD","metar":"KORD 112051Z 22011G22KT 10SM SCT120 BKN170 BKN250 05/M06 A2972 RMK AO2 PK WND 23032/2035 SLP069 T00501061 56017","updated":"2025-11-11T21:16:38Z"}
