{"icao":"LPCS","metar":"LPCS 210830Z 36014KT CAVOK 25/14 Q1017","updated":"2026-06-21T08:56:05Z"}
