{"icao":"LPBJ","metar":"LPBJ 020000Z 23003KT CAVOK 10/08 Q1017","updated":"2026-03-02T02:01:04Z"}
