{"icao":"LPAZ","metar":"LPAZ 221600Z 13008KT 090V150 9999 FEW022 19/13 Q1030","updated":"2025-11-22T16:20:52Z"}
