{"icao":"LPPT","metar":"LPPT 031230Z VRB04KT CAVOK 16/10 Q1023","updated":"2025-11-03T12:38:50Z"}
