{"icao":"KJFK","metar":"KJFK 070151Z 25013KT 10SM BKN037 OVC048 M02/M07 A2962 RMK AO2 SLP031 T10171072 $","updated":"2026-02-07T01:54:54Z"}
