{"icao":"KJFK","metar":"KJFK 281751Z 27008KT 10SM BKN250 M06/M16 A3010 RMK AO2 SLP193 4/007 933014 T10561161 11056 21094 58024 $","updated":"2026-01-28T18:35:51Z"}
