{"icao":"LPMR","metar":"LPMR 061900Z 34012KT CAVOK 18/12 Q1020","updated":"2026-06-06T19:20:11Z"}
