{"icao":"LPBJ","metar":"LPBJ 022300Z 28006KT CAVOK 20/12 Q1021","updated":"2025-10-02T23:15:38Z"}
