{"icao":"KLAX","metar":"KLAX 120553Z 31005KT 10SM CLR 14/08 A3015 RMK AO2 SLP209 T01390078 10167 20139 52008","updated":"2026-02-12T06:04:58Z"}
