{"icao":"KLAX","metar":"KLAX 080453Z 20005KT 10SM FEW005 BKN009 17/14 A3000 RMK AO2 SLP157 T01670144","updated":"2026-05-08T05:29:10Z"}
