{"icao":"KORD","metar":"KORD 252251Z 07008KT 10SM FEW014 OVC032 04/00 A3006 RMK AO2 SLP186 T00440000 $","updated":"2025-12-25T23:19:02Z"}
