{"icao":"KJFK","metar":"KJFK 231851Z 34012G21KT 10SM FEW070 BKN250 23/03 A2987 RMK WSHFT 1758 SLP113 T02280028 ","updated":"2026-04-23T19:06:17Z"}
