{"icao":"LPBJ","metar":"LPBJ 231100Z 06011KT CAVOK 24/02 Q1018","updated":"2025-09-23T11:14:08Z"}
