{"icao":"LPAZ","metar":"LPAZ 041700Z 13009KT 100V160 9999 FEW019 24/19 Q1027","updated":"2025-10-04T17:13:13Z"}
