{"icao":"KLAX","metar":"KLAX 291653Z 10007KT 7SM FEW230 BKN280 14/09 A3004 RMK AO2 SLP173 T01440094 $","updated":"2025-11-29T17:15:55Z"}
