{"icao":"LPBJ","metar":"LPBJ 261700Z 23012KT 4000 -DZRA BR SCT008 BKN016 14/13 Q1013","updated":"2026-01-26T17:28:23Z"}
