{"icao":"LPPD","metar":"LPPD 160600Z 33007KT 9999 FEW020 BKN040 14/08 Q1031","updated":"2026-01-16T06:32:46Z"}
