{"icao":"LPOV","metar":"LPOV 191600Z 20014G24KT 2000 -RA BR FEW006 SCT018 18/18 Q1011","updated":"2025-10-19T16:19:32Z"}
