{"icao":"KORD","metar":"KORD 250851Z 03011KT 10SM OVC009 08/06 A2991 RMK AO2 SLP129 T00830061 53014","updated":"2026-04-25T09:51:15Z"}
