{"icao":"LPFR","metar":"LPFR 190830Z 08007KT 030V100 CAVOK 21/09 Q1016","updated":"2026-04-19T08:53:05Z"}
