{"icao":"LPMT","metar":"LPMT 221200Z 03006KT 360V060 CAVOK 16/10 Q1028","updated":"2026-02-22T12:47:22Z"}
