{"icao":"LPLA","metar":"LPLA 120300Z 14005KT 7000 -RA FEW015 SCT018 BKN035 18/17 Q1023","updated":"2026-06-12T03:50:27Z"}
