{"icao":"KJFK","metar":"KJFK 061551Z 24006KT 10SM SCT025 BKN050 04/00 A2993 RMK AO2 SLP136 T00390000 $","updated":"2025-12-06T16:21:30Z"}
