{"icao":"KJFK","metar":"KJFK 251951Z 18010KT 10SM -RA FEW025 OVC065 11/09 A3016 RMK AO2 RAB23 SLP211 P0000 T01110089","updated":"2025-11-25T20:21:43Z"}
