{"icao":"LPPT","metar":"LPPT 062000Z 33016KT CAVOK 11/07 Q1018 WS R02","updated":"2026-03-06T20:30:20Z"}
