{"icao":"LPCS","metar":"LPCS 261900Z 02006KT CAVOK 12/08 Q1024","updated":"2025-11-26T19:14:27Z"}
