{"icao":"KLAX","metar":"KLAX 201053Z 08005KT 10SM FEW016 BKN044 BKN250 11/09 A3003 RMK AO2 SLP166 T01110089 $","updated":"2025-11-20T11:17:13Z"}
