{"icao":"LPPD","metar":"LPPD 121200Z 25007KT 210V280 9999 FEW025 22/16 Q1018","updated":"2025-10-12T12:32:23Z"}
