{"icao":"KLAX","metar":"KLAX 241053Z 06005KT 10SM BKN250 13/10 A3005 RMK AO2 SLP175 T01280100","updated":"2026-02-24T11:39:22Z"}
