{"icao":"KJFK","metar":"KJFK 282251Z 20008KT 10SM FEW085 FEW250 22/19 A3006 RMK AO2 SLP180 T02170189","updated":"2025-09-28T23:15:08Z"}
