{"icao":"LPAZ","metar":"LPAZ 301500Z 19013KT 9999 FEW009 BKN017 23/20 Q1022","updated":"2025-09-30T15:16:42Z"}
