{"icao":"KORD","metar":"KORD 302051Z 21014G24KT 10SM FEW035 BKN300 34/24 A2989 RMK AO2 SLP115 T03440239 56012 $","updated":"2026-06-30T21:27:10Z"}
