{"icao":"LPMR","metar":"LPMR 292200Z 17003KT 5000 BR FEW016 SCT028 12/11 Q1016","updated":"2025-11-29T22:17:07Z"}
