{"icao":"LPMR","metar":"LPMR 162000Z 34006KT 9999 FEW016 14/11 Q1021","updated":"2026-04-16T20:46:35Z"}
