{"icao":"LPAZ","metar":"LPAZ 221730Z 36009KT 320V030 9999 FEW013 BKN023 22/17 Q1025","updated":"2026-06-22T17:39:20Z"}
