{"icao":"LPPT","metar":"LPPT 021500Z 33009KT 9999 FEW040 19/10 Q1025","updated":"2025-11-02T15:15:42Z"}
