{"icao":"LPPS","metar":"LPPS 311600Z 28006KT 4000 BR SCT002 BKN010 18/17 Q1023","updated":"2026-01-31T16:26:47Z"}
