{"icao":"LPHR","metar":"LPHR 131700Z 20008KT 9999 FEW025 18/12 Q1031","updated":"2026-03-13T17:33:08Z"}
