{"icao":"KORD","metar":"KORD 231951Z 31010G19KT 10SM FEW026 FEW250 M21/M32 A3068 RMK AO2 SLP408 T12061322","updated":"2026-01-23T20:25:11Z"}
