{"icao":"LPAZ","metar":"LPAZ 112100Z 02004KT 9999 FEW015 BKN030 13/10 Q1032","updated":"2026-03-11T21:32:09Z"}
