{"icao":"LPPT","metar":"LPPT 021100Z 02006KT 300V070 9999 FEW028 SCT035 18/12 Q1026","updated":"2025-11-02T11:12:54Z"}
