{"icao":"LPBJ","metar":"LPBJ 201800Z 32007KT CAVOK 11/05 Q1020","updated":"2025-11-20T18:27:58Z"}
