{"icao":"LPMT","metar":"LPMT 100600Z 23005KT 190V250 9999 FEW020CB SCT030 14/11 Q1009","updated":"2026-05-10T06:10:47Z"}
