{"icao":"LPAZ","metar":"LPAZ 152200Z 19012KT 9999 FEW016 BKN025 15/11 Q1031","updated":"2026-02-15T22:22:21Z"}
