{"icao":"KORD","metar":"KORD 290851Z 00000KT 10SM CLR 17/15 A3019 RMK AO2 SLP219 T01720150 58001 $","updated":"2025-09-29T09:20:55Z"}
