{"icao":"LPPD","metar":"LPPD 110830Z 35005KT 9999 FEW022 BKN045 13/05 Q1032","updated":"2026-04-11T08:41:37Z"}
