{"icao":"LPFR","metar":"LPFR 272000Z 34009KT 310V020 CAVOK 16/11 Q1022","updated":"2026-02-27T20:26:18Z"}
