{"icao":"LPLA","metar":"LPLA 261300Z 05006KT 340V100 9999 BKN026 16/10 Q1031","updated":"2026-03-26T13:12:53Z"}
