{"icao":"LPFL","metar":"LPFL 061800Z VRB02KT 9999 FEW020 22/17 Q1016","updated":"2025-10-06T18:26:05Z"}
