{"icao":"LPPR","metar":"LPPR 031230Z 10005KT 070V140 9999 FEW048 17/10 Q1001","updated":"2026-01-03T12:37:21Z"}
