{"icao":"LPCS","metar":"LPCS 101130Z VRB04KT 9999 FEW006 BKN010 17/15 Q1014","updated":"2026-04-10T11:47:12Z"}
