{"icao":"LPFR","metar":"LPFR 212100Z 02006KT CAVOK 12/02 Q1027","updated":"2025-11-21T21:16:19Z"}
