{"icao":"KLAX","metar":"KLAX 011053Z 26007KT 10SM FEW007 BKN018 BKN055 16/14 A2992 RMK AO2 SLP129 T01610144 $","updated":"2026-04-01T11:52:29Z"}
