{"icao":"KJFK","metar":"KJFK 260851Z 01005KT 10SM SCT085 SCT250 09/03 A3036 RMK AO2 SLP280 T00890033 53000","updated":"2025-10-26T09:16:35Z"}
