{"icao":"KORD","metar":"KORD 251451Z 02012KT 10SM SCT012 10/06 A2998 RMK AO2 SLP152 60000 T01000056 56001","updated":"2026-04-25T15:38:18Z"}
