{"icao":"LPPD","metar":"LPPD 070900Z 30008KT 9999 FEW016 14/12 Q1014","updated":"2026-02-07T09:29:46Z"}
