{"icao":"LPFL","metar":"LPFL 271700Z 24019G34KT 180V320 1200 +DZRA FEW008 BKN011 FEW013TCU 18/15 Q1000","updated":"2026-01-27T17:26:32Z"}
