{"icao":"KORD","metar":"KORD 160711Z 18010G17KT 9SM FEW019 BKN043 OVC050 M06/M08 A2962 RMK AO2 SNE08 P0000 T10561083 $","updated":"2026-01-16T07:23:48Z"}
