{"icao":"LPLA","metar":"LPLA 141900Z 20013KT 160V240 9999 FEW023 16/09 Q1028","updated":"2026-02-14T19:22:45Z"}
