{"icao":"LPPR","metar":"LPPR 210600Z 23004KT 200V280 9999 SCT001 BKN003 18/18 Q1011","updated":"2025-10-21T06:27:19Z"}
