{"icao":"LPMA","metar":"LPMA 140800Z 28003KT 240V330 9999 FEW015 19/16 Q1016","updated":"2025-10-14T08:22:05Z"}
