{"icao":"LPFR","metar":"LPFR 051230Z 20004KT 130V260 CAVOK 28/06 Q1015","updated":"2026-06-05T12:35:26Z"}
