{"icao":"LPPR","metar":"LPPR 010230Z 00000KT 9999 FEW048 14/13 Q1018","updated":"2026-05-01T02:55:02Z"}
