{"icao":"KJFK","metar":"KJFK 071608Z 20007KT 1SM R04R/P6000FT BR OVC005 04/04 A3022 RMK AO2 SFC VIS 3 T00440039","updated":"2026-03-07T16:26:40Z"}
