{"icao":"LPPS","metar":"LPPS 120330Z 22004KT 190V250 9999 SCT014 SCT030 14/13 Q1023","updated":"2026-01-12T03:48:36Z"}
