{"icao":"LPST","metar":"LPST 270900Z 09006KT 050V110 CAVOK 15/00 Q1018","updated":"2026-03-27T09:53:19Z"}
