{"icao":"LPLA","metar":"LPLA 072000Z 18008KT 150V230 9999 FEW025 SCT045 16/12 Q1031","updated":"2026-01-07T20:24:08Z"}
