{"icao":"LPMA","metar":"LPMA 241500Z VRB05KT 9999 SCT015 18/09 Q1026","updated":"2026-01-24T15:19:09Z"}
