{"icao":"LPLA","metar":"LPLA 220800Z 28029G41KT 8000 -RA SCT007 BKN015 BKN022 17/15 Q1012","updated":"2026-01-22T08:30:43Z"}
