{"icao":"LPBJ","metar":"LPBJ 030500Z 33003KT CAVOK 09/08 Q1023","updated":"2025-11-03T05:18:56Z"}
