{"icao":"LPPD","metar":"LPPD 280800Z 35016G26KT 310V020 9999 SCT016 FEW020TCU 17/15 Q1016","updated":"2025-10-28T08:25:07Z"}
