{"icao":"KJFK","metar":"KJFK 201551Z 27008KT 10SM FEW110 BKN240 02/M09 A3022 RMK AO2 SLP234 T00171089 $","updated":"2025-12-20T16:22:34Z"}
