{"icao":"KJFK","metar":"KJFK 230151Z 02020G28KT 1/2SM R04R/4000V5000FT SN FZFG VV006 M01/M01 A2979 RMK AO2 PK WND 03031/0139 SLP088 SNINCR 1/4 P0008 T10061011 $","updated":"2026-02-23T02:04:18Z"}
