{"icao":"KLAX","metar":"KLAX 130453Z 15003KT 10SM CLR 21/11 A3001 RMK AO2 SLP161 T02060111 $","updated":"2026-03-13T05:48:19Z"}
