{"icao":"LPPS","metar":"LPPS 202030Z 28016KT 9999 FEW010 17/15 Q1003","updated":"2026-04-20T20:43:50Z"}
