{"icao":"LPPS","metar":"LPPS 110700Z 05007KT 010V090 9999 FEW015 BKN030 21/12 Q1020","updated":"2025-10-11T07:15:17Z"}
