{"icao":"KORD","metar":"KORD 291251Z 19010KT 10SM BKN110 BKN250 06/M03 A3022 RMK AO2 SLP236 T00611028 $","updated":"2026-03-29T12:54:30Z"}
