{"icao":"LPFR","metar":"LPFR 231530Z 26015KT CAVOK 19/11 Q1013","updated":"2026-04-23T15:51:17Z"}
