{"icao":"KLAX","metar":"KLAX 071953Z 23009KT 10SM FEW230 FEW280 20/13 A3017 RMK AO2 SLP216 T02000133","updated":"2026-02-07T20:25:09Z"}
