{"icao":"LPMR","metar":"LPMR 050900Z 24005KT 7000 FEW018 SCT022CB 16/15 Q1004 RESHRA","updated":"2025-11-05T09:20:37Z"}
