{"icao":"LPHR","metar":"LPHR 271700Z 17006KT 9999 SCT018 16/12 Q1034","updated":"2026-02-27T17:34:00Z"}
