{"icao":"LPAZ","metar":"LPAZ 041300Z 29025G38KT 9000 -SHRA FEW016 SCT022 20/15 Q1008","updated":"2025-11-04T13:32:34Z"}
