{"icao":"LPPT","metar":"LPPT 210900Z 21014KT 9999 FEW012 SCT015 18/15 Q1004","updated":"2026-04-21T09:24:20Z"}
