{"icao":"LPMR","metar":"LPMR 160700Z VRB01KT 0200 FG VV002 14/14 Q1021","updated":"2025-09-16T07:17:19Z"}
