{"icao":"LPPR","metar":"LPPR 070430Z 36008KT CAVOK 07/03 Q1019","updated":"2026-03-07T05:04:11Z"}
