{"icao":"KLAX","metar":"KLAX 311053Z 00000KT 10SM SCT018 BKN022 OVC250 18/14 A2993 RMK AO2 SLP135 T01830139","updated":"2026-03-31T11:48:45Z"}
