{"icao":"KLAX","metar":"KLAX 130253Z 34003KT 10SM CLR 18/01 A3015 RMK AO2 SLP209 T01780006 51005 $","updated":"2026-01-13T03:26:51Z"}
