{"icao":"LPPT","metar":"LPPT 051500Z VRB05KT CAVOK 25/14 Q1019","updated":"2025-10-05T15:14:54Z"}
