{"icao":"LPPT","metar":"LPPT 210800Z 24007KT 6000 SCT005 SCT012 20/20 Q1014","updated":"2025-10-21T08:25:33Z"}
