{"icao":"KJFK","metar":"KJFK 251951Z 20005KT 10SM BKN065 BKN120 BKN250 03/M01 A2966 RMK AO2 SLP043 T00281011 $","updated":"2026-02-25T20:34:12Z"}
