{"icao":"LPMR","metar":"LPMR 220000Z 31004KT 280V360 3000 BR FEW003 BKN005 18/18 Q1018","updated":"2026-06-22T00:10:33Z"}
