{"icao":"LPFR","metar":"LPFR 201230Z 28005KT 240V330 9999 FEW025 15/09 Q1020","updated":"2025-12-20T12:36:06Z"}
