{"icao":"KJFK","metar":"KJFK 230451Z 26013KT 10SM FEW120 FEW250 13/03 A2985 RMK AO2 SLP106 T01280033 401830128","updated":"2025-10-23T05:17:37Z"}
