{"icao":"KLAX","metar":"KLAX 230653Z 09004KT 10SM FEW250 13/09 A3019 RMK AO2 SLP221 T01330094 $","updated":"2026-02-23T07:53:37Z"}
