{"icao":"KLAX","metar":"KLAX 041110Z 00000KT 6SM BR OVC010 16/14 A3008 RMK AO2 T01610139 $","updated":"2025-11-04T11:17:02Z"}
