{"icao":"LPHR","metar":"LPHR 211500Z 03013KT 360V060 9999 FEW015 BKN025 15/09 Q1018","updated":"2026-03-21T15:24:30Z"}
