{"icao":"KORD","metar":"KORD 131951Z 07008KT 10SM BKN065 BKN080 12/03 A3003 RMK AO2 SLP169 T01170028 $","updated":"2026-05-13T20:44:09Z"}
