{"icao":"LPST","metar":"LPST 221700Z 29008KT 4000 -RADZ BR SCT014 OVC020 11/10 Q1014","updated":"2025-12-23T04:36:24Z"}
