{"icao":"LPPT","metar":"LPPT 312200Z 21018KT 7000 RADZ FEW005 BKN008 FEW015TCU 19/18 Q1014","updated":"2025-10-31T22:16:32Z"}
