{"icao":"LPMR","metar":"LPMR 081502Z 22008KT 190V250 1400 -DZ BR BKN008 BKN018 13/12 Q1029","updated":"2026-01-08T15:24:36Z"}
