{"icao":"LPMA","metar":"LPMA 120600Z 36011G23KT 270V070 9999 SCT015 17/08 Q1020","updated":"2025-12-12T06:31:28Z"}
