{"icao":"LPMA","metar":"LPMA 242230Z VRB04KT 9999 SCT015 17/11 Q1020","updated":"2026-04-24T22:37:25Z"}
