{"icao":"KLAX","metar":"KLAX 231453Z VRB03KT 10SM FEW080 FEW120 13/08 A3003 RMK AO2 SLP167 T01330078 53016","updated":"2025-11-23T15:16:51Z"}
