{"icao":"LPMA","metar":"LPMA 142000Z 01010KT 330V030 9999 FEW016 16/08 Q1032","updated":"2026-02-14T20:25:29Z"}
