{"icao":"LPFL","metar":"LPFL 311500Z 33007G17KT 270V060 9999 FEW020 17/11 Q1003","updated":"2025-12-31T15:20:04Z"}
