{"icao":"LPAR","metar":"LPAR 081000Z 35011KT 310V020 CAVOK 23/11 Q1023","updated":"2026-06-08T10:51:03Z"}
