{"icao":"LPPT","metar":"LPPT 071330Z 26021G32KT 230V300 5000 SHRA BKN022 FEW027CB 13/10 Q1002 WS R20","updated":"2026-02-07T13:42:31Z"}
