{"icao":"LPOV","metar":"LPOV 030600Z VRB01KT 9999 SCT003 BKN008 15/14 Q1023","updated":"2025-10-03T06:25:48Z"}
