{"icao":"LPFR","metar":"LPFR 260830Z 02009KT CAVOK 20/10 Q1013","updated":"2026-03-26T08:54:17Z"}
