{"icao":"LPAZ","metar":"LPAZ 260700Z 27021G35KT 2000 +RA BR BKN005 17/16 Q1007","updated":"2026-01-26T07:27:04Z"}
