{"icao":"LPPS","metar":"LPPS 211900Z 07011KT 030V090 9999 SCT015 22/16 Q1022","updated":"2025-09-21T19:12:30Z"}
