{"icao":"KJFK","metar":"KJFK 171951Z 25008KT 7SM FEW005 BKN021 OVC070 01/00 A3005 RMK AO2 SNE51 SLP176 P0003 T00060000 $","updated":"2026-01-17T20:21:07Z"}
