{"icao":"LPMR","metar":"LPMR 101400Z 19012G22KT 160V220 9999 -SHRA SCT022 FEW023TCU SCT038 19/09 Q1009","updated":"2026-05-10T14:51:15Z"}
