{"icao":"LPLA","metar":"LPLA 061100Z 02004KT 360V080 9999 FEW015 SCT022 BKN035 19/15 Q1024","updated":"2026-06-06T11:24:30Z"}
