{"icao":"LPPD","metar":"LPPD 242130Z 17003KT 140V210 0600 R30/1000 FG VV001 18/17 Q1024","updated":"2026-05-24T21:55:50Z"}
