{"icao":"LPBJ","metar":"LPBJ 241300Z 25014KT 9999 2500N -SHRA SCT014 BKN028 16/14 Q1019","updated":"2025-11-24T13:32:24Z"}
