{"icao":"LPFR","metar":"LPFR 251800Z 10009KT CAVOK 27/13 Q1020","updated":"2026-05-25T18:24:08Z"}
