{"icao":"KLAX","metar":"KLAX 071053Z 26006KT 10SM BKN010 18/15 A2985 RMK AO2 SLP105 T01780150 $","updated":"2025-10-07T11:15:16Z"}
