{"icao":"KORD","metar":"KORD 280851Z 34007KT 10SM CLR M02/M11 A3061 RMK AO2 SLP372 T10221106 53010","updated":"2026-03-28T09:36:24Z"}
