{"icao":"LPBJ","metar":"LPBJ 252100Z 35010KT CAVOK 10/05 Q1023","updated":"2025-11-25T21:17:18Z"}
