{"icao":"LPFL","metar":"LPFL 251800Z 17009KT 140V210 9999 FEW027 BKN032 15/07 Q1030","updated":"2026-03-26T07:06:48Z"}
