{"icao":"LPPT","metar":"LPPT 201500Z 25009KT 220V280 9999 FEW020 14/10 Q1018","updated":"2026-01-20T15:29:17Z"}
