{"icao":"LPFL","metar":"LPFL 141500Z VRB06KT 9999 FEW026 20/12 Q1002","updated":"2025-10-14T15:20:25Z"}
