{"icao":"KORD","metar":"KORD 220439Z 29016G23KT 10SM SCT022 OVC045 M02/M06 A2994 RMK AO2 PK WND 27033/0401 SNE08 PRESRR P0000 T10221061 $","updated":"2026-01-22T04:46:57Z"}
