{"icao":"KJFK","metar":"KJFK 210451Z 05004KT 10SM BKN049 04/01 A3018 RMK AO2 SLP218 T00390011 400830017 $","updated":"2025-11-21T05:18:53Z"}
