{"icao":"LPLA","metar":"LPLA 281625Z 25025G35KT 4500 -RA BR FEW012 SCT018 18/16 Q1003","updated":"2026-01-28T16:35:38Z"}
