{"icao":"LPPR","metar":"LPPR 081330Z 20011KT 160V230 9999 FEW025 FEW030CB 17/10 Q1009","updated":"2026-05-08T13:43:43Z"}
