{"icao":"KJFK","metar":"KJFK 270551Z 28020G29KT 10SM SCT090 08/M02 A2981 RMK AO2 PK WND 27035/0506 SLP094 60003 T00781022 10139 20078 51033","updated":"2025-11-27T06:30:32Z"}
