{"icao":"LPMA","metar":"LPMA 250830Z 02008KT 340V060 9999 FEW016 18/11 Q1018","updated":"2026-04-25T08:51:57Z"}
