{"icao":"LPMT","metar":"LPMT 190300Z 30003KT CAVOK 09/09 Q1017","updated":"2025-11-19T03:10:31Z"}
