{"icao":"LPPD","metar":"LPPD 152300Z 18003KT 9999 FEW016 22/19 Q1026","updated":"2025-09-15T23:14:36Z"}
