{"icao":"LPPR","metar":"LPPR 231400Z 35012KT 310V020 9999 FEW020 SCT025 13/09 Q1010","updated":"2025-12-23T14:19:58Z"}
