{"icao":"LPAR","metar":"LPAR 231000Z 33004KT 290V360 9999 SCT025 BKN040 23/19 Q1020","updated":"2025-10-23T10:19:29Z"}
