{"icao":"LPMR","metar":"LPMR 121800Z 31006KT CAVOK 26/15 Q1018","updated":"2026-06-12T19:03:26Z"}
