{"icao":"LPMR","metar":"LPMR 221100Z 01011KT 330V040 9999 FEW025 18/06 Q1021","updated":"2025-09-22T11:15:19Z"}
