{"icao":"LPMT","metar":"LPMT 061100Z 34005KT 300V030 CAVOK 23/15 Q1020","updated":"2025-10-06T11:14:45Z"}
