{"icao":"LPBJ","metar":"LPBJ 232100Z 25007KT CAVOK 25/15 Q1020","updated":"2026-05-23T21:54:42Z"}
