{"icao":"LPPD","metar":"LPPD 252200Z 36002KT 9999 FEW008 SCT014 17/16 Q1027","updated":"2025-11-25T22:18:25Z"}
