{"icao":"LPMA","metar":"LPMA 172300Z 36011KT 9999 FEW015 18/13 Q1023","updated":"2025-11-17T23:17:07Z"}
