{"icao":"LPLA","metar":"LPLA 231600Z 31021KT 9999 SCT025 15/07 Q1024","updated":"2026-01-23T16:28:42Z"}
