{"icao":"LPBJ","metar":"LPBJ 110700Z 08004KT CAVOK 16/12 Q1020","updated":"2025-10-11T07:15:02Z"}
