{"icao":"LPLA","metar":"LPLA 280900Z 25019G35KT 220V290 9000 -RA FEW015 SCT025 BKN030 19/16 Q1004","updated":"2026-01-28T09:32:46Z"}
