{"icao":"KJFK","metar":"KJFK 150051Z 23006KT 10SM -RA FEW055 OVC070 06/03 A2952 RMK AO2 SLP995 P0000 T00610033 $","updated":"2026-01-15T01:39:59Z"}
