{"icao":"KJFK","metar":"KJFK 281651Z 29011KT 10SM SCT250 M06/M17 A3013 RMK AO2 SLP203 T10611167 $","updated":"2026-01-28T17:30:57Z"}
