{"icao":"LPLA","metar":"LPLA 032200Z 20004KT 170V230 9999 FEW016 SCT027 16/13 Q1026","updated":"2026-03-03T22:27:46Z"}
