{"icao":"LPMR","metar":"LPMR 182000Z VRB02KT CAVOK 08/05 Q1017","updated":"2026-01-18T20:21:38Z"}
