{"icao":"LPCS","metar":"LPCS 220900Z 01020KT 9999 FEW010 16/08 Q1020 WS R35","updated":"2025-09-22T09:21:21Z"}
