{"icao":"LPLA","metar":"LPLA 152000Z 21009KT 190V250 9999 SCT025 16/09 Q1021","updated":"2026-04-15T20:45:52Z"}
