{"icao":"KJFK","metar":"KJFK 280751Z 04008KT 10SM FEW250 07/03 A3033 RMK AO2 SLP270 T00670033","updated":"2025-10-28T08:25:13Z"}
