{"icao":"KJFK","metar":"KJFK 220651Z 19013G22KT 10SM BKN090 OVC120 08/02 A3021 RMK SLP230 T00780022 ","updated":"2026-04-22T07:44:51Z"}
