{"icao":"LPPD","metar":"LPPD 132100Z 32005KT 9999 FEW027 12/09 Q1032","updated":"2026-02-13T21:33:47Z"}
