{"icao":"KORD","metar":"KORD 121751Z 12008KT 10SM FEW030 BKN250 19/08 A2999 RMK AO2 SLP156 T01940083 10194 20094 58016 $","updated":"2025-10-12T18:22:17Z"}
