{"icao":"LPAZ","metar":"LPAZ 191530Z 02019G30KT 9999 SCT018 SCT038 18/11 Q0997","updated":"2026-03-19T15:53:30Z"}
