{"icao":"LPLA","metar":"LPLA 130100Z 31003KT 250V010 9999 SCT032 13/09 Q1031 WIND RWY15 28006KT RH74 BKN220 BLU","updated":"2025-12-13T01:24:09Z"}
