{"icao":"LPCS","metar":"LPCS 062000Z 04005KT CAVOK 20/15 Q1020","updated":"2025-10-06T20:19:02Z"}
