{"icao":"KJFK","metar":"KJFK 141951Z 29017G31KT 10SM FEW075 SCT250 12/M08 A3005 RMK AO2 PK WND 30032/1921 SLP174 T01171083","updated":"2026-03-14T20:27:24Z"}
