{"icao":"LPOV","metar":"LPOV 182000Z 35008KT CAVOK 18/17 Q1016","updated":"2026-06-18T22:06:16Z"}
