{"icao":"LPOV","metar":"LPOV 162300Z VRB01KT 3000 BR SCT001 BKN003 13/13 Q1015","updated":"2025-10-16T23:14:55Z"}
