{"icao":"LPLA","metar":"LPLA 300800Z 25005KT 220V300 9999 SCT025 15/08 Q1017","updated":"2026-01-30T08:37:31Z"}
