{"icao":"LPPR","metar":"LPPR 080900Z 34003KT 310V010 5000 BR FEW005 BKN030 16/15 Q1022","updated":"2025-10-08T09:19:08Z"}
