{"icao":"KORD","metar":"KORD 061439Z 32015G20KT 10SM BKN023 07/02 A3022 RMK AO2 T00720017","updated":"2026-04-06T14:45:04Z"}
