{"icao":"LPAR","metar":"LPAR 230800Z 10005KT 060V170 CAVOK 23/18 Q1014","updated":"2026-06-23T08:33:19Z"}
