{"icao":"LPFR","metar":"LPFR 190400Z 07006KT CAVOK 20/17 Q1016","updated":"2025-10-19T04:21:16Z"}
