{"icao":"LPAZ","metar":"LPAZ 270900Z 03018KT 9000 VCSH SCT014 BKN020 FEW028TCU 18/16 Q1013","updated":"2025-10-27T09:22:00Z"}
