{"icao":"KLAX","metar":"KLAX 272053Z 26010KT 8SM FEW009 FEW025 21/14 A2995 RMK AO2 SLP139 T02110144 56023 $","updated":"2025-10-27T21:15:57Z"}
