{"icao":"KJFK","metar":"KJFK 221651Z 18004KT 10SM FEW030 BKN047 OVC250 21/12 A3016 RMK AO2 SLP212 T02060122 $","updated":"2025-09-22T17:14:52Z"}
