{"icao":"LPPT","metar":"LPPT 181030Z 07007G20KT 320V120 CAVOK 20/13 Q1017","updated":"2026-04-18T10:38:53Z"}
