{"icao":"LPMT","metar":"LPMT 260100Z VRB02KT CAVOK 10/08 Q1024","updated":"2025-11-26T01:24:28Z"}
