{"icao":"LPMA","metar":"LPMA 231300Z 03020KT 330V050 9999 FEW015 22/16 Q1022","updated":"2026-05-23T13:22:02Z"}
