{"icao":"LPOV","metar":"LPOV 042200Z 16011KT 9999 -RADZ BKN008 BKN012 13/12 Q0994","updated":"2026-02-04T22:26:32Z"}
