{"icao":"KLAX","metar":"KLAX 071553Z 02004KT 6SM BR FEW009 SCT280 14/12 A3019 RMK AO2 SLP224 T01390117 $","updated":"2026-02-07T16:29:29Z"}
