{"icao":"LPAZ","metar":"LPAZ 030500Z 18005KT 9999 FEW007 21/21 Q1022","updated":"2025-10-03T05:16:52Z"}
