{"icao":"LPAR","metar":"LPAR 171000Z 07003KT 020V140 CAVOK 21/13 Q1015","updated":"2025-10-17T10:19:03Z"}
