{"icao":"KORD","metar":"KORD 031451Z 30003KT 10SM SCT080 BKN110 OVC150 M06/M14 A3007 RMK AO2 SLP193 VIRGA T10611144 51014 $","updated":"2026-01-03T15:18:40Z"}
