{"icao":"LPLA","metar":"LPLA 240400Z 23009KT 200V260 9999 FEW040 13/07 Q1024","updated":"2026-01-24T04:34:06Z"}
