{"icao":"KJFK","metar":"KJFK 040051Z 26011KT 10SM SCT250 03/M06 A3008 RMK AO2 SLP184 T00331061","updated":"2025-12-04T01:27:00Z"}
