{"icao":"KJFK","metar":"KJFK 201351Z 31024G31KT 10SM FEW060 FEW100 FEW250 24/09 A2976 RMK AO2 PK WND 30032/1338 SLP078 T02390089 $","updated":"2026-06-20T13:59:51Z"}
