{"icao":"KJFK","metar":"KJFK 120251Z 27018G26KT 10SM BKN055 05/M04 A2990 RMK AO2 PK WND 27029/0241 SLP125 T00501039 51019 $","updated":"2025-11-12T03:10:54Z"}
