{"icao":"LPHR","metar":"LPHR 202100Z 02012G24KT 330V090 9999 SCT012 BKN025 15/10 Q1014 WS R28","updated":"2026-03-20T21:28:47Z"}
