{"icao":"LPPS","metar":"LPPS 140800Z 11006KT 9999 FEW015 21/17 Q1016","updated":"2025-10-14T08:22:05Z"}
