{"icao":"KORD","metar":"KORD 031651Z 28005KT 10SM SCT017 BKN250 11/06 A3007 RMK AO2 SLP183 T01060056","updated":"2026-04-03T17:33:43Z"}
