{"icao":"LPCS","metar":"LPCS 261300Z 02008KT 350V060 CAVOK 17/04 Q1025","updated":"2025-11-26T13:33:34Z"}
