{"icao":"LPPT","metar":"LPPT 161600Z 30006G17KT 240V360 6000 SHRA FEW012 BKN020 FEW025TCU 10/09 Q1013","updated":"2026-01-16T16:27:23Z"}
