{"icao":"KJFK","metar":"KJFK 190415Z 33014G22KT 10SM FEW013 BKN040 OVC060 00/M02 A2983 RMK AO2 SNE15 P0000 T00001017 $","updated":"2026-01-19T04:50:44Z"}
