{"icao":"LPMR","metar":"LPMR 082300Z 34010KT 3000 -DZ SCT003 OVC006 17/17 Q1023","updated":"2026-06-09T00:03:56Z"}
