{"icao":"LPPT","metar":"LPPT 282000Z 33013KT CAVOK 11/07 Q1023","updated":"2026-02-28T20:24:09Z"}
