{"icao":"LPFR","metar":"LPFR 111030Z 10009KT CAVOK 15/07 Q1025","updated":"2026-03-11T10:37:32Z"}
