{"icao":"KLAX","metar":"KLAX 251353Z 00000KT 10SM FEW250 09/07 A3010 RMK AO2 SLP192 T00890067 $","updated":"2026-01-25T14:18:04Z"}
