{"icao":"KJFK","metar":"KJFK 201351Z 05013KT 10SM FEW050 FEW250 20/09 A3025 RMK AO2 SLP244 T02000089 $","updated":"2025-09-20T14:14:22Z"}
