{"icao":"LPBJ","metar":"LPBJ 141900Z 32009KT CAVOK 11/05 Q1027","updated":"2026-02-14T19:22:41Z"}
