{"icao":"KJFK","metar":"KJFK 261351Z 03007KT 10SM FEW030 SCT065 BKN090 BKN250 11/03 A3042 RMK AO2 SLP300 T01110028","updated":"2025-10-26T14:15:13Z"}
