{"icao":"LPMR","metar":"LPMR 231400Z 32005KT 290V350 9999 FEW020 22/12 Q1013","updated":"2026-03-23T14:53:10Z"}
