{"icao":"LPFR","metar":"LPFR 292100Z 29007KT CAVOK 23/13 Q1019","updated":"2026-05-29T21:05:34Z"}
