{"icao":"LPMT","metar":"LPMT 281400Z 36011KT 330V030 9999 FEW025 28/16 Q1021","updated":"2026-06-28T14:46:55Z"}
