{"icao":"LPPR","metar":"LPPR 040100Z 23014G26KT 200V270 3000 RADZ BR OVC003 14/14 Q1017","updated":"2025-12-04T01:26:27Z"}
