{"icao":"LPPR","metar":"LPPR 181900Z 02006KT 340V050 CAVOK 20/15 Q1019","updated":"2025-09-18T19:14:17Z"}
