{"icao":"LPFR","metar":"LPFR 041730Z 30014KT CAVOK 28/13 Q1013","updated":"2026-06-04T17:45:55Z"}
