{"icao":"LPFR","metar":"LPFR 081330Z 20004KT 150V250 9999 FEW016 13/08 Q1032","updated":"2026-01-08T13:39:18Z"}
