{"icao":"LPPR","metar":"LPPR 191230Z 22003KT 170V290 CAVOK 19/11 Q1008","updated":"2026-03-19T13:02:27Z"}
