{"icao":"LPBJ","metar":"LPBJ 082200Z 32012KT CAVOK 20/14 Q1020","updated":"2026-06-08T22:24:54Z"}
