{"icao":"LPMA","metar":"LPMA 211600Z 01012KT 340V050 9999 SCT015 17/13 Q1024","updated":"2025-11-21T16:23:56Z"}
