{"icao":"LPMT","metar":"LPMT 152000Z 34005KT 300V010 CAVOK 13/10 Q1019","updated":"2026-03-15T20:28:20Z"}
