{"icao":"LPAR","metar":"LPAR 301300Z 27014KT 240V310 9999 BKN020 17/12 Q1012","updated":"2026-01-30T13:55:02Z"}
