{"icao":"LPST","metar":"LPST 101200Z 35014KT 9999 FEW010 BKN015 12/09 Q1022","updated":"2026-03-10T12:58:02Z"}
