{"icao":"LPPR","metar":"LPPR 011330Z 19013KT 1100 0800N R17/0900D -DZ PRFG BKN002 OVC005 14/14 Q1009","updated":"2026-02-01T13:41:41Z"}
