{"icao":"LPBJ","metar":"LPBJ 020900Z 13006KT CAVOK 23/13 Q1022","updated":"2025-10-02T09:17:54Z"}
