{"icao":"KJFK","metar":"KJFK 081551Z 32009KT 10SM FEW035 09/01 A3021 RMK AO2 SLP230 T00940006 $","updated":"2026-01-08T16:28:57Z"}
