{"icao":"LPAR","metar":"LPAR 080800Z 27004KT 9999 FEW009 BKN040 18/15 Q1022","updated":"2025-10-08T08:24:19Z"}
