{"icao":"LPPT","metar":"LPPT 071730Z 20012KT 8000 -SHRA FEW012 FEW016CB SCT020 11/09 Q1014 RESHRA","updated":"2026-04-07T17:59:03Z"}
