{"icao":"LPFR","metar":"LPFR 200900Z 29004KT CAVOK 08/06 Q1021","updated":"2026-01-20T09:31:32Z"}
