{"icao":"LPFL","metar":"LPFL 111730Z 16009KT 110V190 9999 FEW012 SCT016 17/13 Q1029","updated":"2026-03-11T17:48:02Z"}
