{"icao":"KORD","metar":"KORD 020851Z 13005KT 10SM BKN250 16/07 A3023 RMK AO2 SLP235 T01610067 51005","updated":"2025-10-02T09:17:57Z"}
