{"icao":"LPPT","metar":"LPPT 050930Z 04008G22KT 360V090 CAVOK 18/10 Q1021","updated":"2026-04-05T09:37:21Z"}
