{"icao":"LPHR","metar":"LPHR 011130Z 07010KT 040V100 9999 FEW024 BKN032 17/09 Q1032","updated":"2026-04-01T11:52:25Z"}
