{"icao":"LPPT","metar":"LPPT 210830Z 33006KT 290V010 CAVOK 26/15 Q1017","updated":"2026-06-21T08:56:03Z"}
