{"icao":"LPAZ","metar":"LPAZ 181000Z 33013KT 9999 SCT009 BKN027 15/13 Q1028","updated":"2026-01-18T10:19:57Z"}
