{"icao":"LPMA","metar":"LPMA 262300Z VRB10G24KT 9999 -RA SCT015 SCT060 18/13 Q1016","updated":"2026-01-26T23:20:58Z"}
