{"icao":"KLAX","metar":"KLAX 020753Z 08004KT 10SM FEW220 15/12 A3006 RMK AO2 SLP176 T01500122 402610144","updated":"2026-02-02T08:41:01Z"}
