{"icao":"LPHR","metar":"LPHR 060900Z 31003KT 270V360 1500 -DZ BR SCT003 BKN005 18/18 Q1024","updated":"2026-06-06T09:24:35Z"}
