{"icao":"LPFR","metar":"LPFR 190000Z VRB02KT CAVOK 23/19 Q1013","updated":"2026-06-19T00:24:56Z"}
