{"icao":"LPBJ","metar":"LPBJ 052300Z 12004KT CAVOK 15/03 Q1020","updated":"2026-04-05T23:32:21Z"}
