{"icao":"LPPT","metar":"LPPT 191330Z 33011KT 290V360 9999 FEW025 14/08 Q1020","updated":"2026-01-19T13:43:45Z"}
