{"icao":"LPPR","metar":"LPPR 132200Z 17007KT 8000 SHRA FEW015CB BKN030 11/10 Q1012","updated":"2026-01-13T22:20:50Z"}
