{"icao":"LPPS","metar":"LPPS 201900Z 06010KT 030V090 9999 SCT014 23/19 Q1020","updated":"2025-09-20T19:11:24Z"}
