{"icao":"KJFK","metar":"KJFK 191351Z 16025G38KT 2SM R04R/4000VP6000FT RA BR BKN007 BKN015 OVC029 13/12 A2942 RMK AO2 PK WND 16038/1346 SFC VIS 2 1/2 PRESFR SLP962 BKN007 V SCT P0024 T01280122","updated":"2025-12-19T14:20:13Z"}
