{"icao":"KORD","metar":"KORD 240316Z 03009KT 10SM SCT014 BKN024 OVC250 19/16 A3000 RMK AO2 T01940161","updated":"2025-09-24T03:33:38Z"}
