{"icao":"KLAX","metar":"KLAX 181353Z 27024G32KT 10SM FEW015 FEW050 SCT090 SCT180 11/04 A2992 RMK AO2 PK WND 28032/1350 SLP130 ACSL NE T01110039","updated":"2026-02-18T14:41:53Z"}
