{"icao":"LPPT","metar":"LPPT 181830Z 28008KT 250V320 9999 FEW020 13/10 Q1020","updated":"2026-02-18T18:53:12Z"}
