{"icao":"LPBJ","metar":"LPBJ 090800Z 16013KT 5000 VCFG SCT004 12/11 Q1019","updated":"2025-12-09T08:27:59Z"}
