{"icao":"LPPR","metar":"LPPR 162200Z VRB02KT 5000 2300NW BR BCFG FEW003 13/13 Q1015","updated":"2025-10-16T22:13:21Z"}
