{"icao":"LPFR","metar":"LPFR 162300Z 02006KT CAVOK 20/17 Q1014","updated":"2025-10-16T23:14:54Z"}
