{"icao":"LPFR","metar":"LPFR 112000Z 30005KT CAVOK 13/09 Q1026","updated":"2026-03-11T20:32:14Z"}
