{"icao":"LPCS","metar":"LPCS 021300Z 35007KT 310V040 9999 FEW018 20/11 Q1025","updated":"2025-11-02T13:21:28Z"}
