{"icao":"LPPT","metar":"LPPT 050630Z 23019G30KT 9999 FEW008 SCT030 14/13 Q0992 WS R20","updated":"2026-02-05T06:57:38Z"}
