{"icao":"KLAX","metar":"KLAX 142053Z 25007KT 10SM FEW140 SCT180 BKN250 26/06 A3006 RMK AO2 SLP178 T02610061 58029 $","updated":"2026-01-14T21:20:52Z"}
