{"icao":"LPPT","metar":"LPPT 220900Z 25009KT 9999 FEW008 SCT012 21/20 Q1018","updated":"2025-10-22T09:20:31Z"}
