{"icao":"LPMR","metar":"LPMR 092100Z 17003KT 0300 FG OVC002 13/13 Q1018","updated":"2025-12-09T21:16:29Z"}
