{"icao":"LPPT","metar":"LPPT 290130Z 24016KT 6000 -DZ SCT004 BKN006 16/16 Q1007","updated":"2026-01-29T01:56:09Z"}
