{"icao":"LPPD","metar":"LPPD 041900Z 11007KT 9999 FEW009 BKN014 FEW018TCU 22/20 Q1027","updated":"2025-10-04T19:11:51Z"}
