{"icao":"KORD","metar":"KORD 211340Z 25008KT 10SM FEW021 OVC070 M03/M06 A2988 RMK AO2 SNE39 P0001 T10281061 $","updated":"2026-01-21T13:44:00Z"}
