{"icao":"LPOV","metar":"LPOV 110400Z VRB01KT CAVOK 13/11 Q1020","updated":"2025-10-11T04:19:39Z"}
