{"icao":"LPPD","metar":"LPPD 111300Z 25008KT 220V290 9999 FEW020 22/18 Q1021","updated":"2025-10-11T13:20:27Z"}
