{"icao":"KORD","metar":"KORD 282251Z 31004KT 10SM FEW030 FEW120 SCT250 18/07 A2989 RMK AO2 SLP121 T01780072 $","updated":"2026-04-28T22:57:20Z"}
