{"icao":"LPOV","metar":"LPOV 072100Z 36003KT 340V040 9999 SCT018 14/11 Q1011","updated":"2026-05-07T21:56:17Z"}
