{"icao":"KORD","metar":"KORD 030600Z 23011G19KT 10SM BKN024 OVC035 17/14 A2976 RMK AO2 T01670139 $","updated":"2026-04-03T07:06:28Z"}
