{"icao":"LPPR","metar":"LPPR 012100Z 36008KT CAVOK 28/17 Q1017","updated":"2026-07-01T21:26:32Z"}
