{"icao":"LPMA","metar":"LPMA 301000Z VRB02KT 9999 FEW015 23/13 Q1018","updated":"2025-10-30T10:19:59Z"}
