{"icao":"LPBJ","metar":"LPBJ 021100Z 33005KT 290V080 9999 FEW040 20/07 Q1021","updated":"2026-04-02T11:43:06Z"}
