{"icao":"LPLA","metar":"LPLA 160611Z 30006KT 3000 RADZ BR FEW002 BKN005 BKN014 19/19 Q1004","updated":"2025-10-16T06:27:14Z"}
