{"icao":"LPBJ","metar":"LPBJ 230700Z 30002KT CAVOK 04/01 Q1027","updated":"2025-11-23T07:16:50Z"}
