{"icao":"LPPT","metar":"LPPT 280230Z VRB04KT CAVOK 17/13 Q1009","updated":"2026-04-28T02:47:20Z"}
