{"icao":"LPMT","metar":"LPMT 191400Z 33006KT 280V360 9999 SCT030 16/08 Q1020","updated":"2026-01-19T15:25:16Z"}
