{"icao":"LPPT","metar":"LPPT 291600Z 27006KT 240V320 9999 FEW024 BKN034 16/09 Q1016","updated":"2025-11-29T16:21:36Z"}
