{"icao":"LPMR","metar":"LPMR 031500Z 27003KT 230V310 9999 FEW020 13/09 Q1023","updated":"2025-12-03T15:21:17Z"}
