{"icao":"LPMA","metar":"LPMA 110430Z 33004KT 9999 FEW015 13/10 Q1027","updated":"2026-01-11T04:46:41Z"}
