{"icao":"LPMR","metar":"LPMR 201800Z 21005KT 8000 -RA FEW014 SCT018 12/11 Q1016","updated":"2026-01-20T18:35:35Z"}
