{"icao":"LPCS","metar":"LPCS 041500Z 34010KT 9999 FEW012 16/12 Q1002","updated":"2026-01-04T15:18:02Z"}
