{"icao":"KLAX","metar":"KLAX 011253Z 05003KT 7SM FEW018 12/10 A3001 RMK AO2 SLP160 T01220100 $","updated":"2025-12-01T13:34:29Z"}
