{"icao":"LPPD","metar":"LPPD 100430Z 24018KT 2000 -RADZ BR SCT001 BKN002 16/16 Q1012","updated":"2026-02-10T05:02:29Z"}
