{"icao":"LPPD","metar":"LPPD 132200Z 33005KT 9999 FEW018 12/09 Q1032","updated":"2026-02-13T22:31:48Z"}
