{"icao":"KORD","metar":"KORD 200751Z 25005KT 10SM CLR M16/M21 A3031 RMK AO2 SLP280 T11611206 $","updated":"2026-01-20T08:30:25Z"}
