{"icao":"KORD","metar":"KORD 040151Z 06016G26KT 10SM OVC020 05/00 A3009 RMK AO2 PK WND 05027/0133 SLP192 T00500000","updated":"2026-04-04T02:04:08Z"}
