{"icao":"LPCS","metar":"LPCS 270930Z 06012KT CAVOK 16/00 Q1017","updated":"2026-03-27T09:53:19Z"}
