{"icao":"LPMT","metar":"LPMT 291300Z 30003KT 270V330 9999 FEW012 FEW025CB SCT045 20/17 Q1008","updated":"2025-10-29T13:31:34Z"}
