{"icao":"LPPT","metar":"LPPT 232300Z 24005KT 9999 FEW008 20/19 Q1019","updated":"2025-10-24T19:14:21Z"}
