{"icao":"LPSJ","metar":"LPSJ 010800Z 07003KT 050V110 9999 FEW014 BKN020 20/16 Q1032","updated":"2026-07-01T08:11:18Z"}
