{"icao":"LPBJ","metar":"LPBJ 211600Z 34013KT 310V010 CAVOK 25/03 Q1018","updated":"2025-09-21T16:18:56Z"}
