{"icao":"LPPS","metar":"LPPS 150300Z 23006KT 200V260 9999 FEW012 20/15 Q1012","updated":"2025-11-15T03:06:05Z"}
