{"icao":"LPFL","metar":"LPFL 010700Z 20003KT 130V260 9999 FEW010 SCT015 23/20 Q1017","updated":"2025-10-01T07:17:59Z"}
