{"icao":"KORD","metar":"KORD 060351Z 28004KT 10SM FEW250 07/M03 A3020 RMK AO2 SLP229 T00721033","updated":"2025-11-06T04:25:31Z"}
