{"icao":"KJFK","metar":"KJFK 071351Z 24007KT 10SM SCT050 BKN250 22/17 A3019 RMK AO2 SLP224 T02170167","updated":"2025-10-07T14:18:18Z"}
