{"icao":"KORD","metar":"KORD 092051Z 20012G21KT 10SM CLR 22/09 A2967 RMK AO2 SLP045 T02220094 56016 $","updated":"2026-03-09T21:31:49Z"}
