{"icao":"LPFR","metar":"LPFR 251230Z 11008KT 070V140 9999 FEW025 25/16 Q1017","updated":"2025-09-25T12:37:00Z"}
