{"icao":"KJFK","metar":"KJFK 171251Z 29017G23KT 10SM FEW065 FEW090 04/M07 A2971 RMK AO2 PK WND 27029/1239 SLP059 T00391072 $","updated":"2025-11-17T13:30:49Z"}
