{"icao":"KJFK","metar":"KJFK 111451Z 28021G28KT 10SM BKN048 BKN095 03/M07 A2974 RMK AO2 PK WND 27033/1424 SLP070 VCSH SW-W 60000 T00281067 51010 $","updated":"2025-11-11T15:19:38Z"}
