{"icao":"KORD","metar":"KORD 201751Z 19012G22KT 10SM CLR 17/01 A2990 RMK AO2 SLP124 T01720006 10178 20050 58028","updated":"2025-10-20T18:27:22Z"}
