{"icao":"LPCS","metar":"LPCS 211400Z 14006KT 100V170 9999 FEW022 SCT044 18/12 Q1008","updated":"2026-03-21T14:25:30Z"}
