{"icao":"KORD","metar":"KORD 182051Z 23018G39KT 10SM CLR 17/M09 A2951 RMK AO2 PK WND 24039/2041 SLP992 T01721089 53000","updated":"2026-02-18T21:34:11Z"}
