{"icao":"KJFK","metar":"KJFK 162151Z 24013KT 10SM FEW085 FEW130 BKN250 M01/M11 A3002 RMK AO2 SLP164 T10061111 $","updated":"2026-01-16T22:19:58Z"}
