{"icao":"LPPR","metar":"LPPR 222230Z 00000KT CAVOK 12/10 Q1014","updated":"2026-04-22T22:45:33Z"}
