{"icao":"KORD","metar":"KORD 291814Z 14008KT 1/4SM R10L/2400V2600FT +SN FZFG VV007 M03/M04 A3020 RMK AO2 P0002 T10281039 $","updated":"2025-11-29T18:25:29Z"}
