{"icao":"LPPR","metar":"LPPR 050930Z VRB01KT CAVOK 17/10 Q1022","updated":"2026-04-05T09:37:22Z"}
