{"icao":"LPST","metar":"LPST 291000Z 25016G29KT 5000 -RA BR BKN005 BKN014 15/15 Q1009","updated":"2026-01-29T10:35:21Z"}
