{"icao":"LPPT","metar":"LPPT 100930Z 23014KT 1500 DZRA BR SCT002 BKN004 15/15 Q1016","updated":"2026-02-10T09:59:34Z"}
