{"icao":"LPAZ","metar":"LPAZ 090700Z 30020KT 9999 -SHRA FEW023 BKN044 14/10 Q1016","updated":"2025-12-09T07:20:48Z"}
