{"icao":"KLAX","metar":"KLAX 171253Z 00000KT 8SM FEW024 SCT250 15/12 A2979 RMK AO2 SLP085 T01500122","updated":"2026-05-17T13:18:04Z"}
