{"icao":"KJFK","metar":"KJFK 081651Z 17011KT 10SM FEW055 FEW250 22/09 A3030 RMK AO2 SLP258 T02220089 $","updated":"2026-06-08T17:50:55Z"}
