{"icao":"KJFK","metar":"KJFK 071751Z 31032G43KT 10SM SCT045 BKN060 BKN095 M11/M21 A2972 RMK AO2 PK WND 31043/1747 SLP062 4/005 933010 T11111206 11056 21117 51008 $","updated":"2026-02-07T18:34:12Z"}
