{"icao":"LPMA","metar":"LPMA 020230Z 32003KT 290V350 9999 SCT015 16/10 Q1019","updated":"2026-05-02T02:36:14Z"}
