{"icao":"LPPR","metar":"LPPR 211730Z 27012KT 220V330 9000 -SHRA SCT022 SCT025CB BKN038 12/09 Q0999","updated":"2026-01-21T17:53:02Z"}
