{"icao":"KLAX","metar":"KLAX 140853Z 16006G16KT 10SM FEW020 FEW036 BKN045 OVC200 17/12 A2982 RMK AO2 SLP094 T01720117 58002 $","updated":"2025-10-14T09:20:22Z"}
