{"icao":"KJFK","metar":"KJFK 201651Z 17012KT 10SM FEW160 BKN250 08/02 A3004 RMK AO2 SLP172 T00830022","updated":"2026-03-20T17:34:44Z"}
