{"icao":"KORD","metar":"KORD 270751Z 00000KT 10SM FEW250 17/11 A2996 RMK AO2 SLP142 T01670111 $","updated":"2026-05-27T08:02:10Z"}
