{"icao":"LPOV","metar":"LPOV 220400Z 36006KT CAVOK 10/08 Q1022","updated":"2025-09-22T04:20:48Z"}
