{"icao":"LPPR","metar":"LPPR 271730Z 34009KT CAVOK 18/09 Q1018","updated":"2026-03-27T17:48:58Z"}
