{"icao":"LPAR","metar":"LPAR 091200Z 26009KT 230V290 4000 -DZRA BR BKN005 BKN012 17/16 Q1013","updated":"2026-02-09T13:06:30Z"}
