{"icao":"LPLA","metar":"LPLA 230700Z 26004KT 220V300 9999 FEW040 15/13 Q1023","updated":"2025-12-23T07:22:45Z"}
