{"icao":"LPMA","metar":"LPMA 250430Z 10003KT 060V160 9999 BKN015 22/19 Q1019","updated":"2026-06-25T05:03:35Z"}
