{"icao":"LPHR","metar":"LPHR 071700Z 04009KT 350V090 9999 FEW007 SCT011 BKN080 16/12 Q1020","updated":"2026-03-07T17:20:20Z"}
