{"icao":"LPFR","metar":"LPFR 182000Z 05005KT 360V090 CAVOK 22/17 Q1016","updated":"2025-10-18T20:17:36Z"}
