{"icao":"LPPT","metar":"LPPT 152000Z 33012KT CAVOK 13/09 Q1019","updated":"2026-03-15T20:28:18Z"}
