{"icao":"LPAZ","metar":"LPAZ 040300Z 23010KT 9999 FEW022 SCT028 17/12 Q1027","updated":"2025-12-04T03:18:14Z"}
