{"icao":"KORD","metar":"KORD 302151Z 21014G24KT 10SM FEW060 SCT300 27/12 A2974 RMK AO2 PK WND 21028/2130 SLP069 T02670117","updated":"2026-03-30T22:34:44Z"}
