{"icao":"LPCS","metar":"LPCS 231500Z 33013KT CAVOK 24/05 Q1017","updated":"2025-09-23T15:18:05Z"}
