{"icao":"LPLA","metar":"LPLA 262100Z 15006KT 9000 -RADZ FEW008 SCT015 15/14 Q1014","updated":"2026-05-26T21:43:47Z"}
