{"icao":"KORD","metar":"KORD 120851Z 10003KT 10SM FEW029 11/08 A3003 RMK AO2 SLP170 T01060078 56004 $","updated":"2025-10-12T09:15:54Z"}
