{"icao":"LPPS","metar":"LPPS 060400Z 32003KT 280V350 9000 -DZ SCT010 BKN030 20/19 Q1021","updated":"2025-10-06T04:20:52Z"}
