{"icao":"LPCS","metar":"LPCS 080730Z 30004KT 9999 FEW020 10/09 Q1015","updated":"2026-02-08T07:37:37Z"}
