{"icao":"LPHR","metar":"LPHR 171230Z 20017KT 3000 -RADZ BR SCT003 BKN005 21/20 Q1012","updated":"2025-10-17T12:37:08Z"}
