{"icao":"LPPR","metar":"LPPR 201500Z 32011KT 290V360 9999 FEW030 20/13 Q1021","updated":"2025-09-20T15:14:54Z"}
