{"icao":"LPMT","metar":"LPMT 091100Z 24010KT 2500 -DZRA BR SCT003 BKN006 15/15 Q1014","updated":"2026-02-09T11:42:42Z"}
