{"icao":"KJFK","metar":"KJFK 132251Z 24018KT 10SM FEW048 FEW150 SCT250 22/12 A2993 RMK AO2 PK WND 22026/2202 SLP135 T02170122","updated":"2026-04-13T23:41:07Z"}
