{"icao":"LPMR","metar":"LPMR 220900Z 21003KT 180V250 9999 SCT022 15/09 Q1014","updated":"2026-04-22T09:18:55Z"}
