{"icao":"LPFL","metar":"LPFL 131330Z 20009KT 160V230 9999 FEW022 18/11 Q1029","updated":"2026-02-13T14:03:06Z"}
