{"icao":"LPMA","metar":"LPMA 242130Z 35008KT 270V020 9999 SCT016 17/11 Q1020","updated":"2026-04-24T21:45:42Z"}
