{"icao":"LPMA","metar":"LPMA 170700Z 36009KT 290V070 9999 SCT015 17/11 Q1025","updated":"2025-12-17T07:21:45Z"}
