{"icao":"KJFK","metar":"KJFK 091351Z 24009KT 10SM FEW250 12/04 A3009 RMK AO2 SLP188 T01220039 $","updated":"2026-03-09T14:48:57Z"}
