{"icao":"LPAZ","metar":"LPAZ 301830Z 18009KT 4000 BR SCT003 BKN010 OVC026 15/15 Q1020","updated":"2026-01-30T18:40:09Z"}
