{"icao":"KORD","metar":"KORD 181951Z 22016G27KT 10SM FEW030 FEW130 BKN250 26/17 A2983 RMK AO2 PK WND 23027/1947 SLP096 T02610172","updated":"2026-05-18T20:23:39Z"}
