{"icao":"LPCS","metar":"LPCS 241930Z 30007KT 260V340 9999 FEW024 SCT030 12/08 Q1017","updated":"2026-01-24T21:17:20Z"}
