{"icao":"KORD","metar":"KORD 160801Z 19010KT 10SM OVC013 M05/M08 A2962 RMK AO2 T10501078 $","updated":"2026-01-16T08:28:45Z"}
