{"icao":"LPLA","metar":"LPLA 211500Z 20015KT 160V230 9999 FEW008 BKN012 18/16 Q1021 RERADZ","updated":"2026-02-21T15:23:32Z"}
