{"icao":"KJFK","metar":"KJFK 180651Z 21004KT 1/4SM R04R/3500VP6000FT BR BKN003 BKN007 OVC010 12/11 A3005 RMK AO2 SFC VIS 3/4 SLP175 T01170111","updated":"2026-04-18T07:05:29Z"}
