{"icao":"LPAZ","metar":"LPAZ 270300Z 02011KT 9999 FEW015 SCT044 20/17 Q1021","updated":"2025-09-27T03:26:01Z"}
