{"icao":"KJFK","metar":"KJFK 292051Z 19010KT 10SM FEW060 FEW100 SCT250 28/18 A3009 RMK SLP190 T02830183 58001 ","updated":"2026-06-29T21:25:14Z"}
