{"icao":"KORD","metar":"KORD 101951Z 28008G21KT 10SM SCT025 BKN032 03/M03 A2991 RMK AO2 SLP133 T00281028","updated":"2026-01-10T20:21:06Z"}
