{"icao":"KORD","metar":"KORD 271419Z 35014KT 10SM BKN025 01/M05 A3039 RMK AO2 T00111050 PNO $","updated":"2026-03-27T14:48:54Z"}
