{"icao":"KORD","metar":"KORD 240051Z 30004KT 10SM CLR 08/M01 A3014 RMK AO2 SLP211 T00781011","updated":"2025-10-24T01:18:02Z"}
