{"icao":"LPPS","metar":"LPPS 130300Z 32013KT 9999 FEW015 SCT030 15/11 Q1015","updated":"2026-01-13T03:26:51Z"}
