{"icao":"LPPT","metar":"LPPT 190700Z 05006KT 0600 R02/0275N FG BKN001 13/13 Q1016","updated":"2026-04-19T07:17:22Z"}
