{"icao":"LPPD","metar":"LPPD 031100Z 35016KT 9999 VCSH FEW006 BKN016 16/13 Q1010","updated":"2026-01-03T11:16:01Z"}
