{"icao":"KORD","metar":"KORD 052051Z 17004KT 10SM BKN250 07/00 A2981 RMK AO2 SLP099 T00670000 55001","updated":"2026-01-05T21:19:39Z"}
