{"icao":"LPPT","metar":"LPPT 211400Z 36016KT CAVOK 15/02 Q1026","updated":"2025-11-21T14:17:52Z"}
