{"icao":"KORD","metar":"KORD 142251Z 21020G30KT 10SM SCT039 SCT140 BKN250 27/19 A2968 RMK AO2 PK WND 21031/2247 SLP046 T02670189","updated":"2026-04-14T23:47:57Z"}
