{"icao":"LPBJ","metar":"LPBJ 262100Z 33006KT CAVOK 17/09 Q1024","updated":"2026-02-26T21:31:02Z"}
