{"icao":"LPMT","metar":"LPMT 290800Z 04004KT 7000 SCT009 BKN020 17/17 Q1006","updated":"2025-10-29T08:25:24Z"}
