{"icao":"KORD","metar":"KORD 061451Z 21007KT 10SM SCT055 SCT250 24/16 A3009 RMK AO2 SLP185 T02390156 53006 $","updated":"2025-10-06T15:18:03Z"}
