{"icao":"LPFL","metar":"LPFL 022030Z 20005KT 9999 FEW035 14/08 Q1029","updated":"2026-03-02T20:36:40Z"}
