{"icao":"LPMT","metar":"LPMT 131000Z 16015KT 7000 -RA FEW009 SCT025 17/15 Q1000 RETS","updated":"2025-11-13T10:20:45Z"}
