{"icao":"LPHR","metar":"LPHR 291100Z 27008KT 2000 -RA BR SCT002 BKN005 18/17 Q1018","updated":"2026-05-29T11:27:48Z"}
