{"icao":"KLAX","metar":"KLAX 130653Z 10004KT 10SM FEW014 17/12 A2972 RMK AO2 SLP061 T01720122 $","updated":"2025-10-13T07:18:40Z"}
