{"icao":"LPPS","metar":"LPPS 031000Z 08006KT 040V120 9999 FEW015 SCT030 19/08 Q1028","updated":"2025-12-03T10:22:04Z"}
