{"icao":"KORD","metar":"KORD 281951Z 29014G21KT 10SM FEW032 SCT250 16/07 A2992 RMK AO2 SLP130 T01610072 $","updated":"2026-04-28T20:14:31Z"}
