{"icao":"LPST","metar":"LPST 220900Z 27003KT 240V300 9999 FEW025 BKN045 12/08 Q1009","updated":"2026-01-22T09:31:13Z"}
