{"icao":"LPMT","metar":"LPMT 072000Z 28015KT 9999 SCT015 13/07 Q1008","updated":"2026-02-07T20:25:06Z"}
