{"icao":"LPAZ","metar":"LPAZ 222200Z 20009KT 0150 R18/M0050 FG VV001 18/18 Q1022","updated":"2026-05-22T22:06:14Z"}
