{"icao":"LPPS","metar":"LPPS 082300Z 02004KT 350V050 9999 FEW014 14/10 Q1034","updated":"2026-01-08T23:17:43Z"}
