{"icao":"KJFK","metar":"KJFK 291751Z 31013G19KT 10SM FEW060 FEW250 06/M09 A3043 RMK AO2 SLP304 T00611089 10061 20006 58002 $","updated":"2025-11-29T18:25:29Z"}
