{"icao":"LPBJ","metar":"LPBJ 182200Z 34006KT CAVOK 06/03 Q1016","updated":"2026-01-18T22:18:26Z"}
