{"icao":"LPPR","metar":"LPPR 120430Z VRB01KT 9000 FEW022 SCT030 13/10 Q1017","updated":"2026-02-12T04:56:34Z"}
