{"icao":"LPPD","metar":"LPPD 181630Z 35027G43KT 9999 SHRAGS FEW020 SCT025CB 10/03 Q1008 WS R30","updated":"2026-03-18T16:57:55Z"}
