{"icao":"LPLA","metar":"LPLA 151500Z 24020G33KT 220V290 9999 FEW020 19/11 Q1026","updated":"2026-02-15T15:24:54Z"}
