{"icao":"KLAX","metar":"KLAX 161611Z 11013KT 2 1/2SM -RA BR SCT020 BKN026 OVC036 12/11 A2980 RMK AO2 VIS 2V4 P0002 T01220106 $","updated":"2026-02-16T16:41:45Z"}
