{"icao":"KJFK","metar":"KJFK 040351Z 03005KT 10SM BKN095 BKN190 BKN250 M03/M11 A3001 RMK AO2 SLP160 T10281106 $","updated":"2026-01-04T04:48:08Z"}
