{"icao":"LPMA","metar":"LPMA 080830Z 26006KT 190V340 9999 SCT014 14/07 Q1023","updated":"2026-04-08T08:59:46Z"}
