{"icao":"LPST","metar":"LPST 231300Z 29010KT 9999 FEW008 SCT025 FEW030CB BKN045 09/07 Q1003","updated":"2026-01-23T13:41:18Z"}
