{"icao":"KORD","metar":"KORD 192051Z 06009KT 10SM OVC020 11/01 A2955 RMK AO2 SLP007 T01110006 56021 $","updated":"2026-02-19T21:30:46Z"}
