{"icao":"LPPT","metar":"LPPT 280800Z 29014G26KT 6000 -DZ FEW009 BKN014 18/16 Q1013","updated":"2025-09-28T08:19:40Z"}
