{"icao":"LPOV","metar":"LPOV 302000Z 16012KT 9999 SCT030 18/13 Q1011","updated":"2025-10-30T21:16:23Z"}
