{"icao":"LPAZ","metar":"LPAZ 101530Z 03013KT 360V060 7000 SHRA FEW011 BKN016 13/12 Q1017","updated":"2026-05-10T15:52:17Z"}
