{"icao":"LPFR","metar":"LPFR 160300Z 02004KT CAVOK 21/17 Q1018","updated":"2025-09-16T03:27:49Z"}
