{"icao":"LPPS","metar":"LPPS 040300Z 03005KT 360V070 9999 SCT015 21/16 Q1025","updated":"2025-10-04T03:22:50Z"}
