{"icao":"LPBJ","metar":"LPBJ 202300Z 27002KT CAVOK 19/12 Q1022","updated":"2026-05-20T23:11:59Z"}
