{"icao":"KLAX","metar":"KLAX 251153Z 12007KT 9SM FEW008 FEW016 SCT035 BKN200 14/14 A3006 RMK AO2 SLP179 70183 T01440139 10156 20144 53009 $","updated":"2025-12-25T12:39:22Z"}
