{"icao":"LPAZ","metar":"LPAZ 261500Z 27029G40KT 7000 FEW020 SCT038 15/11 Q1006","updated":"2026-01-26T15:28:04Z"}
