{"icao":"KLAX","metar":"KLAX 120753Z 26006KT 10SM BKN007 18/17 A2988 RMK AO2 SLP115 T01830167 402440178","updated":"2026-06-12T08:23:57Z"}
