{"icao":"KLAX","metar":"KLAX 230353Z 24008KT 10SM OVC006 19/18 A2982 RMK AO2 SLP096 T01940178 $","updated":"2025-09-23T04:20:56Z"}
