{"icao":"LPLA","metar":"LPLA 291900Z 02006KT 340V070 9999 FEW030 21/15 Q1030","updated":"2026-06-29T19:54:58Z"}
