{"icao":"KLAX","metar":"KLAX 040053Z 27008KT 10SM FEW250 16/12 A3003 RMK AO2 SLP166 T01610117","updated":"2025-12-04T01:27:01Z"}
