{"icao":"LPAZ","metar":"LPAZ 120200Z 20012KT 4600 BR SCT002 BKN007 16/16 Q1020","updated":"2026-02-12T02:05:39Z"}
