{"icao":"LPBJ","metar":"LPBJ 080900Z 33005KT 7000 2100S VCFG FEW002 13/13 Q1022","updated":"2025-11-08T09:16:39Z"}
