{"icao":"KORD","metar":"KORD 211751Z 04010KT 10SM SCT150 OVC250 13/06 A3029 RMK AO2 SLP260 T01280061 10133 20094 53002","updated":"2026-05-21T17:56:41Z"}
