{"icao":"LPMA","metar":"LPMA 090700Z 22020KT 9000 RA SCT008 BKN015 20/18 Q1017","updated":"2025-12-09T07:21:01Z"}
