{"icao":"LPPD","metar":"LPPD 251500Z 19011KT 9999 FEW022 22/15 Q1015","updated":"2025-09-25T15:18:43Z"}
