{"icao":"KLAX","metar":"KLAX 282053Z 26008KT 10SM FEW200 FEW230 SCT280 19/04 A3012 RMK AO2 SLP200 T01890044 58027 $","updated":"2025-12-28T21:17:46Z"}
