{"icao":"KORD","metar":"KORD 061151Z 21006KT 10SM FEW055 19/14 A3007 RMK AO2 SLP179 T01940144 10217 20194 52008 $","updated":"2025-10-06T12:38:05Z"}
