{"icao":"LPBJ","metar":"LPBJ 172300Z 28005KT CAVOK 18/13 Q1016","updated":"2025-10-17T23:15:20Z"}
