{"icao":"LPPT","metar":"LPPT 290700Z 01003KT 9999 FEW009 07/06 Q1018","updated":"2025-12-29T07:24:50Z"}
