{"icao":"LPAZ","metar":"LPAZ 311730Z 08010KT 050V110 9999 FEW020 17/11 Q1028","updated":"2026-03-31T17:55:40Z"}
