{"icao":"KLAX","metar":"KLAX 210953Z 00000KT 8SM CLR 18/16 A2992 RMK AO2 SLP130 T01780156","updated":"2026-03-21T10:24:57Z"}
