{"icao":"LPMT","metar":"LPMT 051100Z 34005KT 280V050 9999 FEW040 18/06 Q1018","updated":"2026-05-05T12:00:06Z"}
