{"icao":"LPAR","metar":"LPAR 220900Z 06007KT CAVOK 09/02 Q1031","updated":"2025-11-22T09:17:23Z"}
