{"icao":"LPLA","metar":"LPLA 121500Z 22007KT 9999 FEW020 16/08 Q1031 WIND RWY15 22009KT PK 22016/49 RH58 BKN250 BLU","updated":"2025-12-12T15:21:17Z"}
