{"icao":"LPLA","metar":"LPLA 191300Z 33008KT 9999 FEW006 SCT018 25/22 Q1016","updated":"2025-10-19T13:21:29Z"}
