{"icao":"KORD","metar":"KORD 050451Z 19007G16KT 10SM FEW070 SCT200 BKN250 25/12 A2997 RMK AO2 SLP143 T02500122","updated":"2026-06-05T05:15:38Z"}
