{"icao":"LPPS","metar":"LPPS 150900Z 06009KT 020V120 9999 SCT015 15/10 Q1032","updated":"2026-02-15T09:29:56Z"}
