{"icao":"LPPR","metar":"LPPR 090600Z 20009KT 4600 -RADZ BR BKN003 FEW018CB 14/13 Q1008","updated":"2026-02-09T06:10:09Z"}
