{"icao":"LPPR","metar":"LPPR 110300Z 11008KT CAVOK 21/09 Q1021","updated":"2025-10-11T03:25:07Z"}
