{"icao":"LPCS","metar":"LPCS 212000Z 01009KT 350V050 CAVOK 11/05 Q1028","updated":"2025-11-21T20:21:08Z"}
