{"icao":"LPFR","metar":"LPFR 102000Z 35005KT CAVOK 14/11 Q1020","updated":"2025-12-10T20:23:08Z"}
