{"icao":"LPPR","metar":"LPPR 040600Z 09005KT CAVOK 12/09 Q1002","updated":"2026-01-04T06:30:03Z"}
