{"icao":"KORD","metar":"KORD 082151Z 08009KT 10SM -RA OVC028 07/02 A2985 RMK AO2 RAB31 SLP111 P0000 T00670022 $","updated":"2025-11-08T22:15:12Z"}
