{"icao":"LPMA","metar":"LPMA 201500Z 03011KT 010V070 9999 SCT016 22/14 Q1020","updated":"2025-11-20T15:20:02Z"}
