{"icao":"LPMA","metar":"LPMA 251330Z 03012KT 360V060 9999 SCT015 22/16 Q1020","updated":"2026-05-25T13:58:02Z"}
