{"icao":"LPFL","metar":"LPFL 220900Z 18020G30KT 150V210 9999 BKN006 SCT018 16/15 Q1015","updated":"2026-02-22T09:29:04Z"}
