{"icao":"KLAX","metar":"KLAX 202253Z 27012G18KT 10SM FEW055 FEW100 SCT180 SCT250 14/01 A3002 RMK AO2 SLP166 T01440011 $","updated":"2026-02-20T23:27:32Z"}
