{"icao":"LPPR","metar":"LPPR 270300Z 11008KT CAVOK 12/07 Q1021","updated":"2025-10-27T03:18:25Z"}
