{"icao":"KORD","metar":"KORD 231451Z 36019G26KT 10SM SCT038 02/M09 A3038 RMK AO2 PK WND 35026/1442 SLP295 T00171089 52026","updated":"2026-03-23T14:53:27Z"}
