{"icao":"LPBJ","metar":"LPBJ 291347Z 26020KT 2000 -RADZ BR BKN006 BKN012 16/15 Q1010","updated":"2026-01-29T13:59:38Z"}
