{"icao":"LPMT","metar":"LPMT 182100Z 30006KT CAVOK 15/10 Q1022","updated":"2026-05-18T22:03:51Z"}
