{"icao":"LPAZ","metar":"LPAZ 030730Z 25021KT 5000 SCT002 BKN004 17/16 Q1009","updated":"2026-02-03T07:41:09Z"}
