{"icao":"LPPD","metar":"LPPD 010900Z 31009KT 8000 -SHRA BKN012 FEW014TCU 14/13 Q1002","updated":"2026-01-01T09:23:53Z"}
