{"icao":"LPFR","metar":"LPFR 070900Z 08007KT CAVOK 25/15 Q1022","updated":"2025-10-07T09:18:57Z"}
