{"icao":"LPAZ","metar":"LPAZ 211000Z 10007KT 060V130 9999 FEW030 22/12 Q1027","updated":"2025-09-21T10:16:19Z"}
