{"icao":"LPFL","metar":"LPFL 281700Z 34008KT 250V020 9999 FEW024 18/10 Q1023","updated":"2025-10-28T17:17:33Z"}
