{"icao":"LPCS","metar":"LPCS 222030Z 36015KT CAVOK 23/09 Q1019 WS R35","updated":"2026-05-22T22:05:57Z"}
