{"icao":"LPPS","metar":"LPPS 111400Z 13004KT 070V200 9999 SCT015 18/13 Q1026","updated":"2026-01-11T14:18:16Z"}
