{"icao":"LPAZ","metar":"LPAZ 061900Z 30015KT 8000 FEW007 SCT011 20/18 Q1016","updated":"2025-11-06T19:15:00Z"}
