{"icao":"KLAX","metar":"KLAX 221330Z 31005KT 6SM BR SCT008 SCT015 BKN100 OVC200 14/13 A2998 RMK AO2 T01440128 $","updated":"2026-01-22T13:45:23Z"}
