{"icao":"LPFR","metar":"LPFR 281900Z 28010KT CAVOK 16/13 Q1020","updated":"2026-03-28T19:28:21Z"}
