{"icao":"KJFK","metar":"KJFK 011051Z 29013G20KT 10SM FEW060 09/M01 A2984 RMK AO2 PK WND 30031/1007 SLP103 T00941011 $","updated":"2025-11-01T11:13:13Z"}
