{"icao":"KJFK","metar":"KJFK 242151Z 07007KT 6SM -DZ BR FEW008 OVC017 14/13 A3024 RMK AO2 CIG 008 W SLP238 P0003 T01440133 $","updated":"2026-05-24T21:56:19Z"}
