{"icao":"LPPR","metar":"LPPR 191630Z 32009KT 290V350 9999 FEW025 13/06 Q1028","updated":"2026-02-19T16:51:00Z"}
