{"icao":"LPMR","metar":"LPMR 051700Z 34011KT CAVOK 19/12 Q1019","updated":"2025-10-05T17:13:14Z"}
