{"icao":"KLAX","metar":"KLAX 281353Z 14006KT 9SM BCFG FEW000 FEW002 11/11 A3002 RMK AO2 SLP164 VIS SE-S 2 FG FEW000 FG BANK SE-SW T01110111 $","updated":"2025-11-28T14:19:15Z"}
