{"icao":"KORD","metar":"KORD 210551Z 00000KT 10SM SCT180 OVC210 06/02 A2995 RMK AO2 SLP144 T00610017 10089 20056 402220044 50003","updated":"2026-03-21T06:41:12Z"}
