{"icao":"KJFK","metar":"KJFK 181951Z 18003KT 10SM FEW150 SCT210 BKN250 17/03 A3001 RMK AO2 SLP163 T01720028 $","updated":"2025-10-18T20:17:53Z"}
