{"icao":"KORD","metar":"KORD 251951Z 08010KT 10SM FEW040 BKN095 BKN150 BKN250 12/03 A3033 RMK AO2 SLP276 VIRGA T01220033 $","updated":"2025-10-25T20:18:54Z"}
