{"icao":"LPAZ","metar":"LPAZ 291900Z 23020KT 9999 FEW022 BKN044 20/13 Q1014","updated":"2025-10-29T19:14:10Z"}
