{"icao":"LPCS","metar":"LPCS 051000Z 35017KT 9999 FEW009 19/13 Q1021","updated":"2025-10-05T10:16:09Z"}
