{"icao":"KORD","metar":"KORD 281951Z 28011G20KT 10SM FEW028 M09/M20 A3012 RMK AO2 SLP215 T10891200","updated":"2026-01-28T20:29:49Z"}
