{"icao":"KJFK","metar":"KJFK 141051Z 23008KT 10SM SCT200 BKN250 15/12 A3001 RMK AO2 SLP161 T01500117","updated":"2026-04-14T11:01:29Z"}
