{"icao":"LPFL","metar":"LPFL 171900Z 35008KT 9999 FEW013 18/13 Q1025","updated":"2025-11-17T19:14:43Z"}
