{"icao":"LPOV","metar":"LPOV 191500Z 21006KT CAVOK 28/13 Q1019","updated":"2025-09-19T16:20:27Z"}
