{"icao":"LPMA","metar":"LPMA 220100Z 03018KT 9999 SCT015 18/10 Q1026","updated":"2025-11-22T01:20:49Z"}
