{"icao":"LPOV","metar":"LPOV 250700Z VRB01KT 4000 BR FEW006 11/11 Q1018","updated":"2026-04-25T07:13:39Z"}
