{"icao":"LPPS","metar":"LPPS 191700Z 01008KT 9999 FEW015 16/11 Q1026","updated":"2026-01-19T17:22:37Z"}
