{"icao":"LPMA","metar":"LPMA 050830Z 33006KT 300V360 9999 FEW015 18/13 Q1007","updated":"2026-02-05T08:41:09Z"}
