{"icao":"LPFR","metar":"LPFR 032200Z 02004KT 340V050 CAVOK 15/12 Q1021","updated":"2025-11-03T22:17:44Z"}
