{"icao":"LPST","metar":"LPST 041400Z 31011KT 9999 FEW030 15/10 Q1022","updated":"2025-12-04T14:20:07Z"}
