{"icao":"KORD","metar":"KORD 290051Z 10013G19KT 10SM BKN050 OVC250 14/00 A3003 RMK AO2 SLP171 T01390000","updated":"2025-10-29T01:25:44Z"}
