{"icao":"LPMR","metar":"LPMR 311000Z 02010KT 350V050 CAVOK 19/07 Q1027","updated":"2026-03-31T10:10:03Z"}
