{"icao":"LPPR","metar":"LPPR 262130Z 33003KT CAVOK 15/14 Q1017","updated":"2026-04-26T21:36:36Z"}
