{"icao":"LPLA","metar":"LPLA 120445Z 28028G49KT 5000 SHRA SCT023 FEW025TCU BKN030 16/09 Q1009","updated":"2026-01-12T04:49:21Z"}
