{"icao":"LPPS","metar":"LPPS 060500Z 32006KT 280V340 9999 SCT014 SCT030 20/12 Q1020","updated":"2025-11-06T05:18:51Z"}
