{"icao":"LPPT","metar":"LPPT 231130Z 09004G14KT 010V170 CAVOK 19/12 Q1014","updated":"2026-03-23T11:41:50Z"}
