{"icao":"LPOV","metar":"LPOV 261300Z 01008KT 350V050 CAVOK 16/08 Q1026","updated":"2025-11-26T13:33:35Z"}
