{"icao":"LPOV","metar":"LPOV 011300Z 28007KT 250V310 CAVOK 24/13 Q1021","updated":"2025-10-01T13:27:54Z"}
