{"icao":"LPMT","metar":"LPMT 081500Z 01003KT 9999 FEW025 19/12 Q1021","updated":"2025-11-08T15:15:50Z"}
