{"icao":"LPAR","metar":"LPAR 231600Z 21006KT CAVOK 22/08 Q1021","updated":"2026-02-23T16:56:12Z"}
