{"icao":"LPBJ","metar":"LPBJ 100100Z 29002KT 250V310 7000 -RA BKN006 OVC030 13/13 Q1018","updated":"2025-12-10T01:28:04Z"}
