{"icao":"LPAZ","metar":"LPAZ 260700Z 04019G30KT 010V070 9999 BKN020 BKN030 19/13 Q1017","updated":"2025-10-26T07:15:29Z"}
