{"icao":"KLAX","metar":"KLAX 031353Z VRB03KT 10SM FEW015 SCT200 15/12 A2997 RMK AO2 SLP147 T01500117 $","updated":"2026-04-03T14:40:42Z"}
