{"icao":"LPMT","metar":"LPMT 252300Z 21004KT 0500 FG SCT005 SCT015 13/13 Q1014","updated":"2026-01-25T23:18:56Z"}
