{"icao":"LPBJ","metar":"LPBJ 210600Z 18012KT 9999 -RA FEW018 BKN040 10/10 Q1012","updated":"2026-01-21T06:34:47Z"}
