{"icao":"LPCS","metar":"LPCS 041500Z 23009KT CAVOK 22/07 Q1021","updated":"2026-04-04T15:30:31Z"}
