{"icao":"LPHR","metar":"LPHR 301300Z 30017G27KT 4000 SHRA BR SCT012 BKN030 18/15 Q1008","updated":"2025-10-30T13:29:34Z"}
