{"icao":"LPAR","metar":"LPAR 251700Z 05006KT 9999 FEW020 SCT030 18/12 Q1017","updated":"2026-02-25T20:34:10Z"}
