{"icao":"LPMR","metar":"LPMR 260100Z VRB01KT CAVOK 06/06 Q1025","updated":"2025-11-26T01:24:28Z"}
