{"icao":"LPPS","metar":"LPPS 292100Z 01011KT 9999 FEW015 18/13 Q1026","updated":"2026-05-29T21:05:56Z"}
