{"icao":"LPFR","metar":"LPFR 100600Z 21010KT 9999 FEW020 17/13 Q1012","updated":"2026-05-10T06:10:43Z"}
