{"icao":"LPCS","metar":"LPCS 220730Z VRB01KT 9999 FEW025 14/09 Q1014","updated":"2026-04-22T07:44:34Z"}
