{"icao":"LPPR","metar":"LPPR 230900Z 02003KT 350V060 9000 -RA SCT022 BKN026 16/14 Q1020","updated":"2025-10-23T09:19:43Z"}
