{"icao":"LPPD","metar":"LPPD 082230Z 02010KT 340V050 9999 BKN016 15/12 Q1035","updated":"2026-04-08T22:37:19Z"}
