{"icao":"LPST","metar":"LPST 301600Z 32011KT 9999 FEW012 24/19 Q1021","updated":"2026-06-30T19:54:02Z"}
