{"icao":"LPFL","metar":"LPFL 132000Z 36004KT 330V040 9999 FEW018 20/11 Q1020","updated":"2026-06-13T20:13:46Z"}
