{"icao":"LPCS","metar":"LPCS 161300Z 12006KT 050V160 CAVOK 21/08 Q1019","updated":"2026-03-16T13:09:15Z"}
