{"icao":"LPAZ","metar":"LPAZ 251100Z 23016KT 8000 SCT010 BKN020 17/16 Q1020","updated":"2026-01-25T11:16:56Z"}
