{"icao":"LPFR","metar":"LPFR 281200Z 28013KT 9999 FEW018 SCT025 22/17 Q1016","updated":"2025-09-28T12:32:21Z"}
