{"icao":"LPPT","metar":"LPPT 031530Z 29007KT 250V320 9999 FEW022 BKN032 18/12 Q1014","updated":"2026-05-03T15:45:11Z"}
