{"icao":"LPFR","metar":"LPFR 281000Z 25004KT CAVOK 14/08 Q1023","updated":"2026-02-28T10:21:44Z"}
