{"icao":"LPFR","metar":"LPFR 092000Z 27005KT CAVOK 19/16 Q1018","updated":"2025-10-09T20:19:38Z"}
