{"icao":"KORD","metar":"KORD 122251Z 09009KT 10SM BKN220 BKN250 18/10 A2994 RMK AO2 SLP140 T01780100 $","updated":"2025-10-12T23:15:13Z"}
