{"icao":"LPLA","metar":"LPLA 041730Z 28023G42KT 7000 -SHRA FEW020 FEW025CB 15/10 Q0991","updated":"2026-02-04T17:43:41Z"}
