{"icao":"KORD","metar":"KORD 051651Z 30013KT 10SM FEW032 07/M02 A3015 RMK AO2 SLP212 T00721022 $","updated":"2026-04-05T17:29:28Z"}
