{"icao":"KJFK","metar":"KJFK 140451Z 30020G29KT 10SM SCT085 BKN110 08/M02 A3001 RMK AO2 PK WND 29029/0445 SLP161 T00781017 401110067","updated":"2025-11-14T05:18:57Z"}
