{"icao":"KORD","metar":"KORD 260751Z 30010KT 10SM FEW032 BKN049 M17/M25 A3020 RMK AO2 SLP244 T11671250 $","updated":"2026-01-26T08:31:18Z"}
