{"icao":"LPMA","metar":"LPMA 040730Z 01011KT 310V040 9999 BKN015 FEW018CB 16/12 Q1019","updated":"2026-03-04T07:36:35Z"}
