{"icao":"LPHR","metar":"LPHR 091930Z 24018KT 9000 SCT006 SCT011 18/17 Q1006","updated":"2026-02-09T20:03:27Z"}
