{"icao":"LPST","metar":"LPST 161400Z 09008KT 060V120 CAVOK 22/09 Q1019","updated":"2026-03-16T14:58:12Z"}
