{"icao":"LPFL","metar":"LPFL 262030Z 30004KT 240V040 9999 FEW016 15/10 Q1033","updated":"2026-02-26T20:36:05Z"}
