{"icao":"LPCS","metar":"LPCS 281400Z 13004KT 020V180 1400 R17/P2000N +TSRA SCT004 BKN012 SCT018CB 16/16 Q1011","updated":"2025-10-28T14:18:44Z"}
