{"icao":"LPMA","metar":"LPMA 252330Z 01012KT 320V050 9999 FEW016 17/11 Q1019","updated":"2026-04-25T23:36:42Z"}
