{"icao":"LPFL","metar":"LPFL 141000Z 34006KT 300V020 9999 FEW030 14/08 Q1009","updated":"2025-11-14T10:20:59Z"}
