{"icao":"LPFR","metar":"LPFR 210700Z VRB02KT CAVOK 09/03 Q1024","updated":"2025-11-21T07:18:27Z"}
