{"icao":"LPST","metar":"LPST 241600Z 30005KT 280V340 CAVOK 20/16 Q1020","updated":"2026-05-24T18:04:30Z"}
