{"icao":"LPLA","metar":"LPLA 060900Z 21022G34KT 190V250 9999 FEW008 BKN014 19/17 Q1011","updated":"2025-12-06T09:18:04Z"}
