{"icao":"KJFK","metar":"KJFK 291851Z 15014KT 10SM FEW011 FEW045 SCT120 BKN250 13/08 A2998 RMK SLP150 T01280078 ","updated":"2026-04-29T19:23:08Z"}
