{"icao":"LPPT","metar":"LPPT 222200Z 31003KT CAVOK 11/05 Q1029","updated":"2025-11-22T22:16:44Z"}
