{"icao":"LPFR","metar":"LPFR 292300Z 27010KT 8000 BKN003 15/15 Q1016","updated":"2026-01-29T23:25:10Z"}
