{"icao":"LPCS","metar":"LPCS 111700Z 36027G43KT 9999 FEW023 14/06 Q1014 WS R35","updated":"2026-04-11T17:29:49Z"}
