{"icao":"KORD","metar":"KORD 021951Z 33008KT 10SM BKN070 BKN090 12/M03 A3005 RMK AO2 SLP178 VIRGA T01221033","updated":"2026-05-02T20:40:01Z"}
