{"icao":"LPBJ","metar":"LPBJ 041900Z 33015KT CAVOK 23/10 Q1015","updated":"2026-06-04T20:03:29Z"}
