{"icao":"KLAX","metar":"KLAX 161853Z 26009KT 10SM FEW009 FEW032 BKN140 BKN180 20/12 A2995 RMK AO2 SLP142 T02000122","updated":"2026-04-16T19:11:00Z"}
