{"icao":"LPPR","metar":"LPPR 030900Z VRB01KT 1300 0900NW R17/1300U PRFG OVC002 14/14 Q1024","updated":"2025-10-03T09:17:18Z"}
