{"icao":"LPFR","metar":"LPFR 152230Z 35005KT CAVOK 18/12 Q1021","updated":"2026-04-15T22:39:31Z"}
