{"icao":"LPFR","metar":"LPFR 022100Z 15016KT 6000 -TSRA FEW012 FEW014CB BKN020 14/13 Q1002","updated":"2026-01-02T21:14:52Z"}
