{"icao":"LPPD","metar":"LPPD 251500Z 04014KT 020V080 9999 FEW020 20/13 Q1018","updated":"2025-10-25T15:15:35Z"}
