{"icao":"LPFR","metar":"LPFR 090700Z VRB02KT CAVOK 13/08 Q1020","updated":"2025-11-09T07:16:05Z"}
