{"icao":"KORD","metar":"KORD 251851Z 25006KT 10SM OVC012 11/08 A2974 RMK AO2 SLP072 T01060078","updated":"2025-11-25T19:16:54Z"}
