{"icao":"LPPD","metar":"LPPD 160600Z 18006KT 9999 FEW016 SCT030 22/18 Q1024","updated":"2025-09-16T06:26:35Z"}
