{"icao":"LPCS","metar":"LPCS 061500Z 33014KT 300V360 9999 FEW018 23/13 Q1019","updated":"2026-06-06T15:13:30Z"}
