{"icao":"KJFK","metar":"KJFK 201610Z 09016G31KT 9SM -RA OVC009 04/03 A2974 RMK AO2 PK WND 09031/1604 P0001 T00440033 $","updated":"2026-02-20T16:37:13Z"}
