{"icao":"KLAX","metar":"KLAX 240453Z 23005KT 10SM FEW008 FEW120 20/18 A2991 RMK AO2 SLP124 T02000183 $","updated":"2025-09-24T05:17:31Z"}
