{"icao":"LPOV","metar":"LPOV 211900Z 34006KT CAVOK 23/10 Q1020","updated":"2026-05-21T19:55:58Z"}
