{"icao":"LPPR","metar":"LPPR 231600Z 27007KT 220V330 9999 SCT004 BKN010 15/13 Q1021","updated":"2025-11-23T16:21:06Z"}
