{"icao":"LPFL","metar":"LPFL 251200Z 02007G17KT 340V070 9999 VCSH SCT020 FEW023TCU 19/14 Q1025","updated":"2025-10-25T12:32:59Z"}
