{"icao":"LPMR","metar":"LPMR 161100Z 25011KT 220V280 9999 SCT020 FEW022CB 17/11 Q1011","updated":"2025-11-16T11:13:22Z"}
