{"icao":"KLAX","metar":"KLAX 161053Z 06004KT 10SM BKN022 BKN027 BKN075 16/12 A2992 RMK AO2 RAB08E20 SLP130 P0000 T01560122 $","updated":"2025-11-16T11:13:25Z"}
