{"icao":"LPCS","metar":"LPCS 092100Z VRB02KT 9999 FEW015 13/13 Q1020","updated":"2025-11-09T21:14:53Z"}
