{"icao":"LPCS","metar":"LPCS 130600Z 02002KT CAVOK 16/11 Q1015","updated":"2025-10-13T06:28:27Z"}
