{"icao":"LPAZ","metar":"LPAZ 121630Z 31010KT 9999 FEW018 16/11 Q1030","updated":"2026-03-12T17:02:39Z"}
