{"icao":"LPPR","metar":"LPPR 132330Z 10003KT 9999 FEW018 13/12 Q1018","updated":"2026-05-13T23:56:35Z"}
