{"icao":"KLAX","metar":"KLAX 141253Z 07003KT 10SM CLR 12/06 A3012 RMK AO2 SLP198 T01220061 $","updated":"2026-01-14T13:39:35Z"}
