{"icao":"KLAX","metar":"KLAX 202053Z 32005KT 10SM FEW100 FEW140 SCT180 BKN220 13/M01 A3003 RMK AO2 SLP170 T01331006 56006 $","updated":"2026-02-20T21:23:21Z"}
