{"icao":"LPFR","metar":"LPFR 010330Z 06009KT 9999 FEW013 BKN018 13/09 Q1015","updated":"2026-01-01T03:49:05Z"}
