{"icao":"LPPS","metar":"LPPS 252100Z 36003KT 9999 FEW015 20/15 Q1021","updated":"2025-09-25T21:15:06Z"}
