{"icao":"LPFL","metar":"LPFL 161030Z 17019G30KT 140V220 9999 FEW010 SCT012 BKN049 17/14 Q1019","updated":"2026-02-16T10:49:29Z"}
