{"icao":"KLAX","metar":"KLAX 162353Z 27014KT 10SM BKN011 BKN090 19/15 A2993 RMK AO2 SLP133 TCU DSNT E T01940150 10211 20194 57014 $","updated":"2026-06-17T00:14:48Z"}
