{"icao":"LPFL","metar":"LPFL 011700Z 34023KT 9999 FEW023 15/08 Q1013","updated":"2026-01-01T17:18:30Z"}
