{"icao":"KJFK","metar":"KJFK 271851Z 24019KT 10SM FEW055 SCT120 BKN250 M06/M16 A3000 RMK AO2 SLP158 T10611156 $","updated":"2026-01-27T19:25:10Z"}
