{"icao":"LPAR","metar":"LPAR 071400Z 05005KT 310V100 9999 FEW022 SCT035 13/10 Q1026","updated":"2026-01-07T14:22:37Z"}
