{"icao":"LPPR","metar":"LPPR 091300Z 23011KT 210V270 2000 0600S -DZ PRFG BKN002 BKN004 14/14 Q1009","updated":"2026-02-09T13:06:28Z"}
