{"icao":"LPPT","metar":"LPPT 111500Z 34022G32KT R02/P2000 SCT028 15/08 Q1015","updated":"2026-04-11T15:32:10Z"}
