{"icao":"KJFK","metar":"KJFK 230351Z 22011KT 10SM FEW250 19/17 A3005 RMK AO2 SLP176 T01940167 $","updated":"2025-09-23T04:20:55Z"}
