{"icao":"LPLA","metar":"LPLA 200100Z 32021KT 9999 FEW025 BKN035 13/07 Q1030","updated":"2025-12-20T01:24:36Z"}
