{"icao":"LPMA","metar":"LPMA 131700Z 02019G31KT 340V040 9999 FEW015 25/17 Q1022","updated":"2025-09-13T17:12:22Z"}
