{"icao":"KJFK","metar":"KJFK 211751Z 19010KT 10SM FEW095 FEW250 08/M09 A3033 RMK SLP271 T00831089 10089 20039 58021 $ ","updated":"2026-04-21T18:06:45Z"}
