{"icao":"LPHR","metar":"LPHR 020000Z 30023G36KT 9999 VCSH SCT025 FEW030TCU SCT095 13/06 Q1013","updated":"2026-02-02T02:04:12Z"}
