{"icao":"LPMR","metar":"LPMR 160700Z 21004KT 170V260 3000 BR FEW018 FEW020CB 13/13 Q1010 RESHRA","updated":"2025-11-16T07:16:52Z"}
