{"icao":"KORD","metar":"KORD 230451Z 35006KT 10SM FEW060 14/08 A3013 RMK AO2 SLP200 T01440083","updated":"2026-06-23T04:59:12Z"}
