{"icao":"LPFL","metar":"LPFL 301400Z VRB03KT 9999 BKN034 19/12 Q1025","updated":"2025-11-30T14:16:21Z"}
