{"icao":"KJFK","metar":"KJFK 260451Z 25004KT 10SM FEW055 SCT190 BKN250 16/15 A3008 RMK AO2 SLP185 T01560150 402060133 $","updated":"2026-05-26T05:02:35Z"}
