{"icao":"LPFR","metar":"LPFR 200800Z 28004KT CAVOK 06/05 Q1021","updated":"2026-01-20T08:30:21Z"}
