{"icao":"LPFL","metar":"LPFL 021400Z 17008KT 090V240 9999 FEW010 SCT019 26/20 Q1017","updated":"2025-10-02T14:17:16Z"}
