{"icao":"KORD","metar":"KORD 011051Z 00000KT 10SM BKN190 OVC250 M07/M09 A3041 RMK AO2 SLP308 I1000 T10721094 $","updated":"2025-12-01T11:17:34Z"}
