{"icao":"LPPD","metar":"LPPD 191500Z 21016KT 1200 R30/P2000 -RADZ BR SCT001 BKN003 20/20 Q1010","updated":"2026-06-19T15:12:15Z"}
