{"icao":"LPCS","metar":"LPCS 141600Z 04008KT CAVOK 16/10 Q1016","updated":"2025-12-14T16:21:58Z"}
