{"icao":"LPLA","metar":"LPLA 271200Z 07006KT 330V130 9999 FEW030 BKN045 20/11 Q1027","updated":"2025-09-27T12:31:48Z"}
