{"icao":"KLAX","metar":"KLAX 312153Z 32005KT 10SM CLR 29/01 A3004 RMK AO2 SLP172 T02890006 $","updated":"2026-01-31T22:21:33Z"}
