{"icao":"LPOV","metar":"LPOV 281400Z 12005KT 080V160 9999 FEW020 BKN035 22/16 Q1011","updated":"2025-10-28T14:18:45Z"}
