{"icao":"LPPS","metar":"LPPS 281500Z 04015KT 360V070 9999 SCT015 BKN030 15/09 Q1026","updated":"2026-02-28T15:20:33Z"}
