{"icao":"LPBJ","metar":"LPBJ 271300Z 30006KT 220V340 9999 FEW015 28/12 Q1020","updated":"2026-06-27T13:39:35Z"}
