{"icao":"LPCS","metar":"LPCS 261730Z 26009KT 240V300 9999 FEW012 23/17 Q1018","updated":"2026-06-26T17:45:42Z"}
