{"icao":"LPMT","metar":"LPMT 151100Z 21004KT 9999 FEW015 BKN025 13/12 Q1032","updated":"2026-02-15T11:21:20Z"}
