{"icao":"KJFK","metar":"KJFK 151851Z 04009KT 10SM SCT070 BKN085 BKN190 OVC250 03/M03 A3008 RMK AO2 SLP186 T00331033 $","updated":"2026-02-15T19:24:04Z"}
