{"icao":"LPMR","metar":"LPMR 090700Z 15004KT CAVOK 07/07 Q1022","updated":"2025-11-09T07:16:09Z"}
