{"icao":"LPAZ","metar":"LPAZ 131200Z 21009KT 9999 FEW016 23/19 Q1023","updated":"2026-06-13T12:23:18Z"}
