{"icao":"LPFR","metar":"LPFR 181230Z 23008KT 190V260 9999 FEW020 SCT030 15/10 Q1023","updated":"2026-02-18T13:01:39Z"}
