{"icao":"LPMR","metar":"LPMR 140600Z 16009KT 9999 SCT020 14/12 Q1001","updated":"2025-11-14T06:28:39Z"}
