{"icao":"LPPD","metar":"LPPD 200800Z 26011KT 9999 SCT015 BKN022 15/13 Q1026","updated":"2026-01-20T08:30:22Z"}
