{"icao":"LPMA","metar":"LPMA 200800Z 01008KT 340V040 9999 SCT015 18/13 Q1019","updated":"2025-11-20T08:26:28Z"}
