{"icao":"LPOV","metar":"LPOV 151700Z 25008G18KT 7000 -SHRA BKN008 12/11 Q1004 RERADZ","updated":"2025-12-15T17:23:27Z"}
