{"icao":"KJFK","metar":"KJFK 111851Z 10013G20KT 10SM BKN020 BKN028 BKN080 19/15 A3018 RMK AO2 RAB26E44 SLP218 P0000 T01890150","updated":"2025-10-11T19:12:31Z"}
