{"icao":"LPMT","metar":"LPMT 271900Z 25010KT 9999 FEW020 SCT030 10/08 Q1006","updated":"2026-01-27T19:25:08Z"}
