{"icao":"KJFK","metar":"KJFK 192151Z 17007KT 10SM SCT060 SCT250 03/M04 A3020 RMK AO2 SLP226 T00331039","updated":"2026-03-19T22:27:43Z"}
