{"icao":"LPAZ","metar":"LPAZ 081000Z 04019G29KT 3600 -RA BR SCT005 BKN011 12/11 Q1025","updated":"2026-03-08T10:24:23Z"}
