{"icao":"LPPS","metar":"LPPS 201600Z 01009KT 330V050 9999 FEW015 20/14 Q1020","updated":"2026-05-20T16:24:14Z"}
