{"icao":"LPMA","metar":"LPMA 092200Z 02012KT 340V050 9999 SCT016 22/15 Q1025","updated":"2025-10-09T22:15:39Z"}
