{"icao":"LPFL","metar":"LPFL 271800Z 15018KT 8000 -DZ FEW006 BKN008 15/14 Q1013 RERA","updated":"2025-12-28T08:25:36Z"}
