{"icao":"LPBJ","metar":"LPBJ 031700Z 23009KT 9999 FEW025 11/09 Q1003","updated":"2026-02-03T17:51:44Z"}
