{"icao":"LPAZ","metar":"LPAZ 180100Z 28022KT 6000 SHRA BKN004 16/14 Q1021","updated":"2025-12-18T01:25:25Z"}
