{"icao":"KJFK","metar":"KJFK 251551Z 21003KT 10SM FEW023 SCT065 BKN120 BKN220 00/M01 A2973 RMK AO2 SLP066 T00001006 $","updated":"2026-02-25T16:01:12Z"}
