{"icao":"KLAX","metar":"KLAX 171353Z 11004KT 8SM FEW018 BKN030 BKN220 OVC280 17/13 A2980 RMK AO2 SLP089 T01670128","updated":"2026-05-17T14:55:04Z"}
