{"icao":"LPMT","metar":"LPMT 142200Z 31004KT CAVOK 10/10 Q1022","updated":"2026-01-14T22:20:46Z"}
