{"icao":"LPFR","metar":"LPFR 281400Z 17006KT 140V200 CAVOK 19/08 Q1021","updated":"2026-02-28T14:20:26Z"}
