{"icao":"LPPR","metar":"LPPR 202000Z 04004KT 360V060 CAVOK 08/04 Q1025","updated":"2025-11-20T20:21:07Z"}
