{"icao":"LPMT","metar":"LPMT 262200Z 35008KT CAVOK 20/13 Q1014","updated":"2026-04-26T22:36:22Z"}
