{"icao":"LPPD","metar":"LPPD 092230Z 36016G26KT 9999 FEW018 FEW020TCU SCT030 14/09 Q1018","updated":"2026-05-09T22:41:36Z"}
