{"icao":"LPBJ","metar":"LPBJ 311800Z 27006KT CAVOK 13/09 Q1021","updated":"2026-01-31T18:30:35Z"}
