{"icao":"LPMA","metar":"LPMA 100100Z 36009G19KT 300V040 9999 SCT016 18/12 Q1023","updated":"2025-12-10T01:28:20Z"}
