{"icao":"LPMT","metar":"LPMT 230000Z 33005KT CAVOK 22/17 Q1014","updated":"2026-06-23T04:58:39Z"}
