{"icao":"LPAZ","metar":"LPAZ 021000Z 16003KT 090V200 9999 FEW007 22/21 Q1022","updated":"2025-10-02T10:17:19Z"}
