{"icao":"LPMA","metar":"LPMA 071100Z 03011KT 9999 FEW014 23/18 Q1025","updated":"2025-10-07T11:15:14Z"}
