{"icao":"LPBJ","metar":"LPBJ 191800Z 28011KT CAVOK 23/14 Q1015","updated":"2025-10-19T18:22:42Z"}
