{"icao":"LPMT","metar":"LPMT 261600Z 34009KT 9999 SCT048 28/17 Q1013","updated":"2026-04-26T16:40:37Z"}
