{"icao":"LPFL","metar":"LPFL 010830Z 03005KT 320V090 9999 FEW011 SCT028 16/13 Q1016","updated":"2026-05-01T08:59:16Z"}
