{"icao":"LPPS","metar":"LPPS 050930Z 28016KT 9999 FEW014 18/15 Q1009","updated":"2026-02-05T09:42:43Z"}
