{"icao":"LPMA","metar":"LPMA 161900Z 33006KT 300V010 9999 VCSH FEW008 BKN013 16/11 Q1013","updated":"2026-03-16T19:15:35Z"}
