{"icao":"LPFR","metar":"LPFR 221100Z 07010KT 030V090 CAVOK 15/M04 Q1029","updated":"2025-11-22T11:13:18Z"}
