{"icao":"LPPT","metar":"LPPT 071400Z 24008KT 4500 RADZ BR FEW003 BKN005 18/18 Q1015","updated":"2025-11-07T14:18:20Z"}
