{"icao":"LPBJ","metar":"LPBJ 300300Z 29005KT 250V330 7000 VCFG FEW005 SCT020 11/10 Q1016","updated":"2025-11-30T03:25:36Z"}
