{"icao":"KLAX","metar":"KLAX 280953Z 07005KT 10SM BKN220 18/13 A2988 RMK AO2 SLP116 T01780128","updated":"2026-02-28T10:21:48Z"}
