{"icao":"LPMT","metar":"LPMT 091500Z 22004KT 170V260 4500 2000S -RA FEW002 SCT004 BKN018 16/16 Q1015","updated":"2025-12-09T15:22:33Z"}
