{"icao":"LPAZ","metar":"LPAZ 110200Z 22018KT 1100 R18/1200D BR VV002 17/17 Q1014 RERA","updated":"2026-02-11T02:11:55Z"}
