{"icao":"LPMT","metar":"LPMT 192300Z VRB02KT CAVOK 13/11 Q1015","updated":"2026-04-19T23:34:36Z"}
