{"icao":"LPAZ","metar":"LPAZ 012200Z 10002KT 9999 FEW012 20/19 Q1023","updated":"2025-10-01T22:16:09Z"}
