{"icao":"LPPD","metar":"LPPD 151800Z 18013KT 9999 FEW017 SCT040 22/18 Q1009","updated":"2025-10-15T18:26:53Z"}
