{"icao":"LPPR","metar":"LPPR 140700Z 32004KT 270V350 2500 -RADZ BR SCT006 BKN011 BKN020 11/10 Q1017","updated":"2026-03-14T07:33:28Z"}
