{"icao":"LPPR","metar":"LPPR 011100Z 16007KT CAVOK 15/06 Q1022","updated":"2026-03-01T11:19:37Z"}
