{"icao":"LPFR","metar":"LPFR 240900Z 31003KT 260V010 9999 FEW020CB 07/06 Q1009","updated":"2026-01-24T09:19:36Z"}
