{"icao":"LPFR","metar":"LPFR 011600Z 23005KT 200V260 9999 FEW018 24/17 Q1019","updated":"2025-10-01T16:22:04Z"}
