{"icao":"KJFK","metar":"KJFK 061051Z 00000KT 10SM FEW055 BKN250 01/M02 A3000 RMK AO2 SLP157 T00061017 $","updated":"2026-01-06T11:18:11Z"}
