{"icao":"KORD","metar":"KORD 141551Z 28008KT 10SM SCT040 BKN075 BKN120 18/14 A2985 RMK AO2 SLP106 T01830144 $","updated":"2026-06-14T16:20:11Z"}
