{"icao":"KJFK","metar":"KJFK 281751Z 27009KT 10SM FEW025 BKN190 BKN250 M02/M05 A3015 RMK AO2 SLP210 4/003 933005 T10171050 11011 21056 56026 $","updated":"2025-12-28T18:28:20Z"}
