{"icao":"LPAR","metar":"LPAR 271600Z 26006KT CAVOK 36/12 Q1016","updated":"2026-05-27T21:53:09Z"}
