{"icao":"LPPT","metar":"LPPT 242200Z 03008KT 360V070 CAVOK 20/03 Q1017","updated":"2025-09-24T22:16:00Z"}
