{"icao":"KORD","metar":"KORD 211051Z 29004KT 7SM FEW024 OVC300 07/05 A3003 RMK AO2 SLP171 T00670050","updated":"2025-11-21T11:16:03Z"}
