{"icao":"KORD","metar":"KORD 191051Z 00000KT 10SM FEW150 SCT250 19/16 A3003 RMK AO2 SLP164 T01940161","updated":"2025-09-19T11:14:15Z"}
