{"icao":"LPPS","metar":"LPPS 062100Z 04006KT 9000 -DZ SCT012 SCT030 21/18 Q1023","updated":"2025-10-06T21:14:57Z"}
