{"icao":"LPHR","metar":"LPHR 080700Z 23027KT 9000 VCSH FEW006 BKN011 BKN018 20/18 Q0992","updated":"2025-12-08T07:22:52Z"}
