{"icao":"KORD","metar":"KORD 301151Z 00000KT 10SM FEW080 05/03 A3002 RMK AO2 SLP171 T00500028 10050 20028 53005","updated":"2026-04-30T12:14:32Z"}
