{"icao":"KJFK","metar":"KJFK 060651Z 30020G31KT 10SM SCT055 BKN250 09/M02 A2993 RMK AO2 PK WND 29031/0642 SLP134 T00941017","updated":"2026-04-06T07:28:29Z"}
