{"icao":"LPPR","metar":"LPPR 250130Z 28010KT 230V330 7000 -SHRA FEW015 FEW018CB BKN021 13/11 Q1009","updated":"2026-01-25T01:50:43Z"}
