{"icao":"LPMT","metar":"LPMT 181600Z 29009KT 260V320 9999 FEW012 BKN020 16/13 Q1019","updated":"2026-02-18T17:01:48Z"}
