{"icao":"KJFK","metar":"KJFK 271651Z 26017G26KT 10SM SCT050 BKN210 BKN250 08/M05 A2992 RMK AO2 PK WND 26028/1624 SLP130 T00831050","updated":"2025-11-27T17:15:44Z"}
