{"icao":"LPAR","metar":"LPAR 281100Z 14005KT 090V180 CAVOK 28/17 Q1019","updated":"2026-05-28T11:37:36Z"}
