{"icao":"LPPR","metar":"LPPR 200330Z 11007KT 9000 NSC 06/05 Q1020","updated":"2026-01-20T03:42:20Z"}
