{"icao":"KLAX","metar":"KLAX 161953Z 10004KT 10SM FEW100 FEW140 25/04 A2999 RMK AO2 SLP153 T02500044","updated":"2026-01-16T20:21:06Z"}
