{"icao":"KORD","metar":"KORD 240051Z 25005KT 10SM CLR 06/M03 A3015 RMK AO2 SLP213 T00561033","updated":"2025-11-24T01:39:06Z"}
