{"icao":"KORD","metar":"KORD 311851Z 25009G18KT 10SM FEW034 BKN090 11/01 A2986 RMK AO2 SLP113 T01060011 $","updated":"2025-10-31T19:13:19Z"}
