{"icao":"LPFL","metar":"LPFL 151000Z 19015G28KT 150V220 9999 FEW012 SCT015 17/14 Q1023","updated":"2026-02-15T10:25:42Z"}
