{"icao":"KJFK","metar":"KJFK 142051Z 18007KT 10SM FEW030 SCT070 BKN250 24/17 A3004 RMK AO2 SLP172 T02390172 55001 $","updated":"2025-09-14T21:14:21Z"}
