{"icao":"LPAZ","metar":"LPAZ 141300Z 25009KT 6000 -SHRA FEW010 BKN017 17/14 Q1008","updated":"2025-11-14T13:28:54Z"}
