{"icao":"KLAX","metar":"KLAX 010653Z 11003KT 10SM CLR 18/13 A2993 RMK AO2 SLP132 T01780133","updated":"2026-03-01T07:31:40Z"}
