{"icao":"LPPT","metar":"LPPT 212100Z 04008KT 9999 FEW040 14/12 Q1010","updated":"2026-03-21T21:23:43Z"}
