{"icao":"LPMR","metar":"LPMR 150100Z VRB01KT 5000 BR FEW003 14/13 Q1016","updated":"2025-10-15T01:20:19Z"}
