{"icao":"LPPT","metar":"LPPT 162000Z 01005KT 330V040 CAVOK 21/08 Q1014","updated":"2025-10-16T20:19:24Z"}
