{"icao":"LPMT","metar":"LPMT 020500Z 14016KT 9999 -RA FEW015 BKN025 14/13 Q1002 RERA","updated":"2026-01-02T05:24:22Z"}
