{"icao":"KORD","metar":"KORD 081651Z 13004KT 10SM FEW035 FEW090 SCT200 BKN250 17/01 A2981 RMK AO2 SLP096 T01720011","updated":"2026-05-08T17:15:38Z"}
