{"icao":"LPPD","metar":"LPPD 082200Z 28003KT 240V300 9999 FEW014 SCT030 17/15 Q1033","updated":"2026-01-08T22:20:28Z"}
