{"icao":"LPHR","metar":"LPHR 132000Z 19006KT 130V210 9999 FEW020 16/12 Q1031","updated":"2026-03-13T20:33:05Z"}
