{"icao":"KORD","metar":"KORD 251851Z 04011G18KT 10SM FEW008 FEW030 FEW250 11/06 A3000 RMK AO2 SLP160 T01110056","updated":"2026-04-25T19:42:36Z"}
