{"icao":"LPPS","metar":"LPPS 041630Z 03011KT 350V060 9999 FEW014 18/14 Q1019","updated":"2026-04-04T16:34:42Z"}
