{"icao":"KLAX","metar":"KLAX 270053Z 28007KT 10SM FEW150 18/04 A3020 RMK AO2 SLP227 T01780039 $","updated":"2026-01-27T01:48:01Z"}
