{"icao":"KORD","metar":"KORD 141151Z 31009KT 8SM -RA SCT050 BKN065 OVC100 16/14 A2982 RMK AO2 SLP093 P0004 60004 70049 T01610139 10211 20161 53011 $","updated":"2026-06-14T11:56:20Z"}
