{"icao":"LPMR","metar":"LPMR 101200Z 14008KT 100V160 CAVOK 26/12 Q1021","updated":"2025-10-10T12:36:38Z"}
