{"icao":"LPPR","metar":"LPPR 281230Z 35011KT 330V050 CAVOK 14/05 Q1027","updated":"2026-02-28T12:42:28Z"}
