{"icao":"KLAX","metar":"KLAX 231853Z 22008KT 10SM OVC027 19/13 A2999 RMK AO2 SLP154 T01940133","updated":"2026-05-23T19:23:32Z"}
