{"icao":"LPFR","metar":"LPFR 090430Z 26016KT 9000 BKN003 OVC010 15/15 Q1013","updated":"2026-02-09T04:58:30Z"}
