{"icao":"LPCS","metar":"LPCS 271900Z 22012KT 9000 SCT005 BKN014 18/18 Q1014","updated":"2025-09-27T19:12:28Z"}
