{"icao":"LPMR","metar":"LPMR 020900Z 14014KT 6000 -RA FEW020 SCT035 13/11 Q1003","updated":"2026-01-02T09:23:30Z"}
