{"icao":"LPST","metar":"LPST 151000Z 31006KT 4000 BR SCT006 BKN012 14/13 Q1025","updated":"2026-04-15T10:57:37Z"}
