{"icao":"LPPT","metar":"LPPT 260930Z 06011G21KT 020V090 CAVOK 17/07 Q1017","updated":"2026-03-26T10:00:05Z"}
