{"icao":"LPPS","metar":"LPPS 141800Z 04013KT 350V070 9999 SCT015 BKN030 24/19 Q1022","updated":"2025-09-14T18:21:19Z"}
