{"icao":"LPBJ","metar":"LPBJ 230800Z VRB01KT CAVOK 04/02 Q1027","updated":"2025-11-23T08:22:33Z"}
