{"icao":"KLAX","metar":"KLAX 020053Z 27010KT 5SM BR OVC006 16/14 A3000 RMK AO2 SLP157 T01610144 $","updated":"2025-11-02T01:27:41Z"}
