{"icao":"LPFR","metar":"LPFR 300600Z 04005KT CAVOK 19/15 Q1016","updated":"2025-09-30T06:27:18Z"}
