{"icao":"LPMA","metar":"LPMA 242200Z 33006KT 9999 SCT016 14/09 Q1028","updated":"2026-01-24T22:18:56Z"}
