{"icao":"KLAX","metar":"KLAX 221053Z 25004KT 3SM BR FEW002 OVC004 18/18 A2986 RMK AO2 SLP108 VIS W-N 2 T01830178 $","updated":"2025-09-22T11:15:35Z"}
