{"icao":"LPMT","metar":"LPMT 171400Z 27007KT 240V300 9999 FEW020 BKN030 15/10 Q1026","updated":"2026-02-17T14:42:45Z"}
