{"icao":"KLAX","metar":"KLAX 100753Z 10006KT 10SM CLR 11/02 A3039 RMK AO2 SLP290 T01060022 401720050 $","updated":"2026-01-10T08:25:46Z"}
