{"icao":"LPMT","metar":"LPMT 260800Z 05003KT CAVOK 08/06 Q1025","updated":"2025-11-26T08:26:21Z"}
