{"icao":"LPFL","metar":"LPFL 091230Z 18011G21KT 150V220 9999 VCSH SCT019 FEW021TCU 23/18 Q1017","updated":"2025-10-09T12:37:38Z"}
