{"icao":"LPMT","metar":"LPMT 262100Z VRB02KT CAVOK 16/15 Q1018","updated":"2025-10-26T21:15:08Z"}
