{"icao":"LPLA","metar":"LPLA 250900Z 20006KT 140V250 9999 FEW015 20/16 Q1022","updated":"2026-05-25T10:02:06Z"}
