{"icao":"LPPR","metar":"LPPR 232300Z 28008KT 230V330 9999 FEW020CB BKN040 08/03 Q0999","updated":"2026-01-23T23:20:20Z"}
