{"icao":"KORD","metar":"KORD 190751Z 06004KT 10SM SCT150 BKN250 21/17 A3003 RMK AO2 SLP165 T02110167","updated":"2025-09-19T08:23:04Z"}
