{"icao":"LPHR","metar":"LPHR 052100Z 29020G32KT 9000 VCSH SCT017 FEW020TCU SCT035 11/06 Q1011","updated":"2026-02-05T21:27:39Z"}
