{"icao":"KJFK","metar":"KJFK 031551Z 31020G26KT 10SM FEW060 BKN080 BKN250 12/M06 A2988 RMK PK WND 32032/1536 SLP116 T01171056 ","updated":"2026-05-03T16:49:32Z"}
