{"icao":"LPAZ","metar":"LPAZ 301830Z 08012KT 9999 FEW020 16/10 Q1031","updated":"2026-03-30T18:58:47Z"}
