{"icao":"LPMA","metar":"LPMA 181600Z 01010KT 330V060 9999 SCT014 20/15 Q1023","updated":"2026-05-18T16:20:53Z"}
