{"icao":"LPBJ","metar":"LPBJ 280300Z 12008KT 0200 FG VV002 17/17 Q1017","updated":"2025-10-28T03:05:55Z"}
