{"icao":"LPFL","metar":"LPFL 211600Z 24012G27KT 160V320 9999 FEW011 SCT015 23/18 Q1008","updated":"2025-10-21T16:24:05Z"}
