{"icao":"LPFR","metar":"LPFR 222030Z 08004KT CAVOK 24/13 Q1019","updated":"2026-05-22T20:42:06Z"}
