{"icao":"LPOV","metar":"LPOV 172300Z VRB01KT CAVOK 14/15 Q1016","updated":"2025-10-17T23:15:18Z"}
