{"icao":"LPOV","metar":"LPOV 190900Z 34011KT 9999 SCT022 12/05 Q1026","updated":"2026-02-19T09:43:11Z"}
