{"icao":"KJFK","metar":"KJFK 290251Z 26018G25KT 10SM FEW065 02/M07 A3014 RMK PK WND 27028/0220 SLP207 T00221072 53023 $ ","updated":"2025-11-29T03:10:29Z"}
