{"icao":"LPFR","metar":"LPFR 032130Z 32014KT CAVOK 24/15 Q1017","updated":"2026-06-03T21:46:59Z"}
