{"icao":"LPOV","metar":"LPOV 120900Z 06003KT CAVOK 22/12 Q1018","updated":"2025-10-12T09:15:38Z"}
