{"icao":"LPPT","metar":"LPPT 081400Z 32009KT 280V350 9999 FEW026 BKN044 15/09 Q1021","updated":"2026-03-08T14:23:45Z"}
