{"icao":"LPFL","metar":"LPFL 041930Z 07005KT 020V120 9999 FEW029 16/09 Q1027","updated":"2026-05-04T21:58:42Z"}
