{"icao":"KORD","metar":"KORD 041351Z 22007KT 10SM CLR 22/16 A3014 RMK AO2 SLP201 T02220161 $","updated":"2025-10-04T14:14:04Z"}
