{"icao":"LPMR","metar":"LPMR 291700Z 34017KT CAVOK 17/04 Q1028","updated":"2026-03-29T17:28:23Z"}
