{"icao":"LPBJ","metar":"LPBJ 241700Z 30007KT 270V330 9999 BKN024 22/18 Q1017","updated":"2025-10-24T17:16:16Z"}
