{"icao":"LPBJ","metar":"LPBJ 201300Z 28009KT 250V310 9999 SCT032 23/13 Q1015","updated":"2025-10-20T13:28:11Z"}
