{"icao":"LPCS","metar":"LPCS 042000Z 36024G35KT 9999 FEW007 19/17 Q1022 WS R35","updated":"2025-10-04T20:16:46Z"}
