{"icao":"LPPD","metar":"LPPD 070900Z 34013KT 310V010 9999 FEW016 SCT030 15/12 Q1010","updated":"2026-05-07T09:30:07Z"}
