{"icao":"LPOV","metar":"LPOV 181800Z VRB02KT 9999 FEW045 10/07 Q1016","updated":"2026-01-18T22:18:23Z"}
