{"icao":"KJFK","metar":"KJFK 062251Z 24017G23KT 10SM FEW060 FEW075 SCT110 BKN180 BKN250 28/17 A2974 RMK AO2 SLP072 T02830167 $","updated":"2026-06-06T23:06:08Z"}
