{"icao":"LPCS","metar":"LPCS 061830Z 14011KT 9999 -RA FEW006 SCT040 16/14 Q1015","updated":"2026-04-06T18:57:20Z"}
