{"icao":"LPAZ","metar":"LPAZ 131230Z 24004KT 190V280 9999 FEW022 21/18 Q1017","updated":"2025-10-13T12:37:20Z"}
