{"icao":"LPMA","metar":"LPMA 120830Z 02019KT 9999 SCT015 SCT030 14/06 Q1027","updated":"2026-04-12T08:46:38Z"}
