{"icao":"LPPS","metar":"LPPS 092130Z 34013KT 9000 -SHRA SCT012 BKN030 15/13 Q1020","updated":"2026-04-09T21:43:43Z"}
