{"icao":"KJFK","metar":"KJFK 121251Z 27014KT 10SM FEW050 SCT170 SCT250 01/M08 A3022 RMK AO2 PK WND 28031/1221 PRESRR SLP232 T00061083 $","updated":"2026-01-12T13:41:29Z"}
