{"icao":"LPPT","metar":"LPPT 191700Z 31007KT 280V350 9999 FEW015 12/09 Q1020","updated":"2026-01-19T17:22:15Z"}
