{"icao":"KORD","metar":"KORD 182151Z 26009KT 10SM SCT040 BKN075 OVC100 03/01 A2940 RMK AO2 RAE27 SLP957 P0004 T00330011","updated":"2025-12-18T22:19:05Z"}
