{"icao":"LPPD","metar":"LPPD 042200Z 15003KT 130V190 9999 FEW020 21/19 Q1028","updated":"2025-10-04T22:14:27Z"}
