{"icao":"KORD","metar":"KORD 020451Z 07008KT 10SM SCT130 BKN250 M02/M09 A3047 RMK AO2 SLP328 T10171089 $","updated":"2026-03-02T05:51:36Z"}
