{"icao":"LPMT","metar":"LPMT 291300Z 25015KT 3500 -RADZ BR SCT004 BKN007 16/16 Q1009","updated":"2026-01-29T13:59:26Z"}
