{"icao":"LPFR","metar":"LPFR 271300Z 05009KT CAVOK 18/M02 Q1022","updated":"2025-11-27T13:30:37Z"}
