{"icao":"KLAX","metar":"KLAX 031253Z 27009KT 10SM FEW011 SCT016 OVC024 16/12 A2991 RMK AO2 SLP127 T01560122","updated":"2026-05-03T13:07:20Z"}
