{"icao":"LPFR","metar":"LPFR 231600Z 24008KT CAVOK 17/08 Q1025","updated":"2025-11-23T16:21:06Z"}
