{"icao":"LPPS","metar":"LPPS 250830Z 03008KT 360V070 9999 FEW014 17/12 Q1019","updated":"2026-04-25T08:51:58Z"}
