{"icao":"KORD","metar":"KORD 072151Z 00000KT 10SM FEW030 FEW100 SCT130 BKN250 M04/M20 A3037 RMK AO2 SLP296 T10441200 $","updated":"2026-02-07T22:24:42Z"}
