{"icao":"LPPD","metar":"LPPD 020830Z 31016G27KT 270V330 9999 VCSH SCT022 11/07 Q1014","updated":"2026-02-02T08:41:00Z"}
