{"icao":"LPMT","metar":"LPMT 161600Z 34006KT 300V020 CAVOK 23/13 Q1018","updated":"2026-04-16T17:12:39Z"}
