{"icao":"LPBJ","metar":"LPBJ 151100Z 18005KT CAVOK 12/10 Q1013","updated":"2025-12-15T11:17:52Z"}
