{"icao":"KJFK","metar":"KJFK 231251Z 05012KT 10SM -RA SCT008 BKN013 OVC023 06/04 A2976 RMK AO2 PK WND 03026/1225 SLP078 P0010 T00560039","updated":"2026-03-23T13:05:03Z"}
