{"icao":"KJFK","metar":"KJFK 020451Z 33014KT 10SM BKN250 M09/M16 A2991 RMK AO2 SLP126 T10891156 410441117 PNO $","updated":"2026-02-02T04:56:29Z"}
