{"icao":"LPFR","metar":"LPFR 151900Z 27006KT CAVOK 23/16 Q1018","updated":"2025-09-15T19:13:37Z"}
