{"icao":"LPPD","metar":"LPPD 221600Z 18012KT 9999 FEW018 16/13 Q1023","updated":"2026-02-22T16:28:22Z"}
