{"icao":"LPFR","metar":"LPFR 190500Z 03007KT CAVOK 16/11 Q1015","updated":"2026-04-19T05:27:44Z"}
