{"icao":"KJFK","metar":"KJFK 300751Z 12004KT 6SM -DZ BR BKN007 OVC028 09/08 A2978 RMK RAE50DZB50 SLP085 P003 T00890078 ","updated":"2026-04-30T08:28:13Z"}
