{"icao":"LPLA","metar":"LPLA 221700Z 14006KT 5000 -RADZ SCT005 BKN015 16/15 Q1030","updated":"2025-11-22T17:14:54Z"}
