{"icao":"KORD","metar":"KORD 171451Z 19009KT 10SM FEW070 BKN160 BKN250 17/08 A2997 RMK AO2 SLP148 T01670083 58009","updated":"2025-10-17T15:18:18Z"}
