{"icao":"KORD","metar":"KORD 231751Z 00000KT 10SM FEW200 FEW250 11/M02 A3013 RMK AO2 SLP207 T01111022 10111 20033 58006","updated":"2025-11-23T18:25:16Z"}
