{"icao":"LPMA","metar":"LPMA 051630Z 02007KT 320V070 9999 SCT016 21/11 Q1010","updated":"2026-02-05T16:45:38Z"}
