{"icao":"LPCS","metar":"LPCS 090900Z 32011KT 260V350 9999 FEW006 BKN014 17/15 Q1021","updated":"2025-10-09T09:18:30Z"}
