{"icao":"LPPT","metar":"LPPT 221500Z 06004KT 300V110 CAVOK 21/08 Q1026","updated":"2026-02-22T15:23:30Z"}
