{"icao":"LPPR","metar":"LPPR 180230Z 11003KT 070V150 CAVOK 13/12 Q1020","updated":"2025-09-18T02:56:03Z"}
