{"icao":"LPPS","metar":"LPPS 280600Z 07006KT 9999 SCT015 18/13 Q1022","updated":"2025-11-28T06:29:48Z"}
