{"icao":"LPHR","metar":"LPHR 300700Z 29007KT 9000 VCSH SCT006 SCT009 BKN030 17/15 Q1028","updated":"2025-11-30T07:16:40Z"}
