{"icao":"LPPR","metar":"LPPR 021830Z 34008KT 310V010 CAVOK 17/10 Q1021","updated":"2026-04-02T18:55:01Z"}
