{"icao":"LPLA","metar":"LPLA 042200Z 36006KT 320V070 9999 FEW025 BKN040 15/10 Q1027","updated":"2026-05-04T23:01:38Z"}
