{"icao":"LPMT","metar":"LPMT 091400Z 22013G29KT 200V260 9999 TS SCT025 FEW030CB BKN035 18/12 Q1005","updated":"2026-05-09T14:49:13Z"}
