{"icao":"LPFL","metar":"LPFL 160700Z 18011KT 130V220 9999 SCT013 23/19 Q1019","updated":"2025-09-16T07:17:21Z"}
