{"icao":"KLAX","metar":"KLAX 182053Z 25009KT 10SM FEW250 27/13 A3001 RMK AO2 SLP161 T02670128 58007 $","updated":"2026-03-18T21:33:21Z"}
