{"icao":"LPMA","metar":"LPMA 141900Z 02020KT 340V040 9999 FEW015 23/18 Q1021","updated":"2025-09-14T19:11:46Z"}
