{"icao":"LPPD","metar":"LPPD 311600Z 36016KT 330V030 9999 FEW022 18/13 Q1011","updated":"2025-10-31T16:22:38Z"}
