{"icao":"LPBJ","metar":"LPBJ 081300Z 20010KT 170V230 CAVOK 21/07 Q1009","updated":"2026-05-08T13:43:59Z"}
