{"icao":"LPMR","metar":"LPMR 291000Z 15002KT CAVOK 08/06 Q1020","updated":"2025-12-29T10:21:55Z"}
