{"icao":"LPHR","metar":"LPHR 080730Z 25021KT 9000 SCT006 BKN010 18/17 Q1009","updated":"2026-02-08T07:37:40Z"}
