{"icao":"KJFK","metar":"KJFK 271651Z 01016G27KT 10SM FEW041 BKN110 BKN180 BKN250 11/00 A3002 RMK AO2 PK WND 02027/1644 SLP164 T01110000 $","updated":"2026-03-27T17:49:15Z"}
