{"icao":"KLAX","metar":"KLAX 011053Z 00000KT 10SM CLR 18/02 A3004 RMK AO2 SLP170 T01780022 $","updated":"2026-02-01T11:20:17Z"}
