{"icao":"LPFR","metar":"LPFR 091400Z 23004KT 200V260 CAVOK 19/10 Q1020","updated":"2025-11-09T14:14:10Z"}
