{"icao":"LPOV","metar":"LPOV 141400Z 32005KT 280V010 9999 FEW020 22/15 Q1017","updated":"2025-10-14T14:18:30Z"}
