{"icao":"LPPD","metar":"LPPD 192000Z 27006KT 240V300 1200 R30/P2000 BR OVC002 22/22 Q1017","updated":"2025-10-19T20:18:23Z"}
