{"icao":"KLAX","metar":"KLAX 252253Z 27008KT 10SM FEW150 FEW200 SCT250 18/01 A3015 RMK AO2 SLP209 T01830011 $","updated":"2026-01-25T23:18:59Z"}
