{"icao":"LPFL","metar":"LPFL 111400Z 33019G34KT 290V010 9999 -SHRA SCT017 FEW018TCU 16/08 Q1008","updated":"2025-11-11T14:19:41Z"}
