{"icao":"LPOV","metar":"LPOV 220800Z 02005KT CAVOK 12/08 Q1023","updated":"2025-09-22T08:24:37Z"}
