{"icao":"LPPR","metar":"LPPR 052300Z VRB02KT CAVOK 14/08 Q1019","updated":"2026-04-05T23:32:18Z"}
