{"icao":"LPMT","metar":"LPMT 060800Z 08007KT 050V120 9999 FEW040 15/07 Q1017","updated":"2026-04-06T09:07:06Z"}
