{"icao":"KLAX","metar":"KLAX 270853Z 03006KT 10SM SCT250 18/03 A3005 RMK AO2 SLP173 T01780028 58007 $","updated":"2025-11-27T09:21:37Z"}
