{"icao":"LPAZ","metar":"LPAZ 301900Z 17010KT 9000 FEW003 SCT010 BKN018 15/15 Q1020","updated":"2026-01-30T19:30:41Z"}
