{"icao":"LPPS","metar":"LPPS 190100Z 03004KT 340V060 9999 SCT014 SCT030 18/13 Q1020","updated":"2025-11-19T01:23:49Z"}
