{"icao":"LPMA","metar":"LPMA 260300Z 02007KT 350V060 9999 VCSH BKN015 FEW016TCU 18/16 Q1023","updated":"2025-11-26T03:13:41Z"}
