{"icao":"LPPR","metar":"LPPR 091100Z 29004KT 270V330 CAVOK 22/16 Q1021","updated":"2025-10-09T11:14:54Z"}
