{"icao":"LPPS","metar":"LPPS 221000Z 06017KT 030V090 9999 FEW015 SCT030 18/11 Q1027","updated":"2025-11-22T10:18:04Z"}
