{"icao":"LPFR","metar":"LPFR 042300Z 36007KT CAVOK 23/15 Q1020","updated":"2025-10-04T23:15:02Z"}
