{"icao":"LPMA","metar":"LPMA 150300Z 23013KT 210V280 9999 BKN015 20/16 Q1013","updated":"2025-11-15T03:06:04Z"}
