{"icao":"LPMA","metar":"LPMA 011700Z 23014G26KT 170V310 9999 FEW015 20/11 Q1014","updated":"2026-02-01T17:24:03Z"}
