{"icao":"KLAX","metar":"KLAX 251613Z 09009KT 10SM SCT013 BKN018 OVC090 15/14 A3010 RMK AO2 T01500139 $","updated":"2025-12-25T16:24:18Z"}
