{"icao":"LPMR","metar":"LPMR 261600Z 21016G26KT 9999 BKN010 OVC022 16/13 Q1008","updated":"2026-01-26T16:32:50Z"}
