{"icao":"KORD","metar":"KORD 072151Z 06008KT 10SM FEW070 BKN100 BKN230 OVC300 24/13 A2996 RMK AO2 LTG DSNT SW SLP141 T02390133 $","updated":"2026-06-07T22:02:33Z"}
