{"icao":"KLAX","metar":"KLAX 252253Z 26011KT 8SM SCT015 BKN250 18/14 A2999 RMK AO2 SLP155 T01830144 $","updated":"2025-10-25T23:15:34Z"}
