{"icao":"LPLA","metar":"LPLA 161215Z 17015KT 4500 -DZ BR FEW005 BKN008 BKN013 16/14 Q1026","updated":"2026-02-16T13:00:44Z"}
