{"icao":"LPPS","metar":"LPPS 141600Z 13007KT 090V170 9999 FEW015 23/17 Q1015","updated":"2025-10-14T16:22:33Z"}
