{"icao":"LPOV","metar":"LPOV 280600Z 00000KT 8000 MIFG NSC 03/03 Q1024","updated":"2025-11-28T06:29:29Z"}
