{"icao":"KLAX","metar":"KLAX 011224Z 00000KT 1 1/2SM BR OVC003 16/15 A3002 RMK AO2 VIS W 1/2 T01560150 $","updated":"2025-11-01T12:33:08Z"}
