{"icao":"KJFK","metar":"KJFK 112051Z 29019G26KT 10SM FEW043 BKN060 BKN250 04/M06 A2975 RMK AO2 PK WND 30026/2041 SLP073 T00441061 53004 $","updated":"2026-02-11T21:33:11Z"}
