{"icao":"LPPT","metar":"LPPT 070430Z 31012KT 280V340 CAVOK 10/07 Q1017","updated":"2026-03-07T05:04:10Z"}
