{"icao":"LPBJ","metar":"LPBJ 081300Z 25009KT 210V280 9999 SCT025 14/07 Q1016 RMK WIND PK 24019/44 RH63 BKN100 BLU","updated":"2026-02-08T13:43:02Z"}
