{"icao":"LPPR","metar":"LPPR 051000Z 04007KT CAVOK 06/M01 Q1017","updated":"2026-01-05T10:23:37Z"}
