{"icao":"LPLA","metar":"LPLA 012300Z 07006KT 020V110 9999 FEW007 SCT014 BKN020 14/11 Q1033","updated":"2026-04-01T23:34:41Z"}
