{"icao":"LPMA","metar":"LPMA 102300Z 27004KT 9999 SCT015 19/15 Q1018","updated":"2025-11-10T23:17:16Z"}
