{"icao":"LPMR","metar":"LPMR 222100Z 17003KT CAVOK 08/05 Q1029","updated":"2025-11-22T21:15:30Z"}
