{"icao":"LPMR","metar":"LPMR 290900Z 15003KT 7000 FEW025 BKN042 11/11 Q1019","updated":"2025-11-29T09:18:15Z"}
