{"icao":"LPMT","metar":"LPMT 172200Z 34008KT 310V020 CAVOK 14/10 Q1020","updated":"2026-05-17T22:51:53Z"}
