{"icao":"LPPR","metar":"LPPR 151230Z 15013KT 8000 -RA OVC044 12/10 Q1008","updated":"2025-12-15T12:43:39Z"}
