{"icao":"LPPD","metar":"LPPD 170800Z 17009KT 120V180 9999 FEW018 BKN025 18/14 Q1024","updated":"2025-11-17T08:27:15Z"}
