{"icao":"LPPR","metar":"LPPR 211500Z 34008KT CAVOK 14/03 Q1028","updated":"2025-11-21T15:17:10Z"}
