{"icao":"LPBJ","metar":"LPBJ 231300Z 07009KT 050V140 CAVOK 25/00 Q1017","updated":"2025-09-23T13:27:02Z"}
