{"icao":"LPMA","metar":"LPMA 290530Z 02015G28KT 340V060 9999 SCT015 21/17 Q1023","updated":"2026-06-29T05:49:16Z"}
