{"icao":"LPPD","metar":"LPPD 280130Z 25026KT 5000 BR SCT006 BKN010 17/15 Q1006","updated":"2026-01-28T01:44:00Z"}
