{"icao":"LPAZ","metar":"LPAZ 112300Z 32023G34KT 9999 -RA SCT019 FEW023TCU SCT045 15/09 Q1005","updated":"2025-11-11T23:16:36Z"}
