{"icao":"LPAR","metar":"LPAR 290800Z 27004KT 240V310 9999 BKN018 BKN040 16/12 Q1008","updated":"2026-04-29T09:07:51Z"}
