{"icao":"LPOV","metar":"LPOV 220400Z 20008KT 170V240 4000 BR BKN004 BKN016 19/19 Q1014","updated":"2025-10-22T04:21:07Z"}
