{"icao":"LPFR","metar":"LPFR 140330Z 29006KT CAVOK 14/11 Q1015","updated":"2026-05-14T03:38:54Z"}
