{"icao":"KLAX","metar":"KLAX 180553Z 09009KT 5SM BR CLR 15/13 A2997 RMK AO2 PK WND 31026/0459 SLP147 T01500128 10233 20150 53006 $","updated":"2025-12-18T06:31:23Z"}
