{"icao":"KORD","metar":"KORD 291751Z 01007KT 10SM FEW030 FEW250 M10/M21 A3030 RMK AO2 SLP276 4/002 933002 T11001211 11094 21172 58004","updated":"2026-01-29T18:43:07Z"}
