{"icao":"LPPD","metar":"LPPD 162100Z 32005KT 270V010 9999 FEW020 SCT030 14/10 Q1033","updated":"2026-01-16T21:19:55Z"}
