{"icao":"LPST","metar":"LPST 011600Z 32011KT CAVOK 21/07 Q1022","updated":"2026-04-01T16:53:19Z"}
