{"icao":"LPBJ","metar":"LPBJ 162000Z 30007KT CAVOK 20/14 Q1015","updated":"2025-10-16T20:19:25Z"}
