{"icao":"LPFL","metar":"LPFL 101230Z 18014KT 9999 -RA FEW006 SCT013 16/14 Q1032","updated":"2026-03-10T12:58:21Z"}
