{"icao":"LPAZ","metar":"LPAZ 240830Z 29022KT 7000 FEW016 15/11 Q1013","updated":"2026-02-24T08:46:07Z"}
