{"icao":"LPAZ","metar":"LPAZ 310500Z 27013KT 9999 FEW030 19/13 Q1008","updated":"2025-10-31T05:19:08Z"}
