{"icao":"KORD","metar":"KORD 201751Z 28017G37KT 10SM OVC021 01/M04 A2957 RMK AO2 PK WND 26037/1703 SLP017 60000 T00111039 10011 21011 51057","updated":"2026-02-20T18:45:19Z"}
