{"icao":"KJFK","metar":"KJFK 100911Z 33007KT 10SM FEW018 SCT023 OVC055 14/12 A2967 RMK AO2 T01390117 $","updated":"2025-11-10T09:22:59Z"}
