{"icao":"KJFK","metar":"KJFK 092151Z 14010KT 10SM FEW020 BKN250 07/02 A3052 RMK AO2 SLP333 T00670017","updated":"2026-04-09T22:39:29Z"}
