{"icao":"LPPR","metar":"LPPR 240300Z 24009KT 200V280 9999 SCT013 BKN018 16/13 Q1017","updated":"2025-11-24T03:22:34Z"}
