{"icao":"LPBJ","metar":"LPBJ 230700Z 05004KT 300V090 CAVOK 19/12 Q1021","updated":"2026-05-23T07:30:05Z"}
