{"icao":"LPPD","metar":"LPPD 120700Z 29014G24KT 260V320 9999 -SHRA FEW020 FEW022TCU 15/10 Q1001","updated":"2025-11-12T07:18:18Z"}
