{"icao":"LPBJ","metar":"LPBJ 241600Z 09004KT 050V200 CAVOK 28/M01 Q1015","updated":"2025-09-24T16:22:43Z"}
