{"icao":"LPPS","metar":"LPPS 111800Z 01013KT 350V050 9999 BKN015 20/15 Q1020","updated":"2026-06-11T18:10:19Z"}
