{"icao":"LPMT","metar":"LPMT 081300Z 18010KT 150V240 9999 SCT030 21/09 Q1008","updated":"2026-05-08T13:43:47Z"}
