{"icao":"LPPD","metar":"LPPD 262200Z 28030KT 9999 FEW016 FEW025CB SCT045 13/07 Q1008","updated":"2026-01-26T22:20:43Z"}
