{"icao":"LPAZ","metar":"LPAZ 062000Z 20014KT 9999 FEW002 SCT005 23/22 Q1020","updated":"2025-10-06T20:19:18Z"}
