{"icao":"LPPD","metar":"LPPD 132200Z 30015G26KT 9999 SCT020 FEW022TCU 15/09 Q1007","updated":"2025-11-13T22:18:02Z"}
