{"icao":"KLAX","metar":"KLAX 121503Z 04005KT 2 1/2SM BCFG SCT000 BKN004 16/15 A2978 RMK AO2 W-NW 1/2 FG SCT000 T01610150 $","updated":"2025-10-12T15:15:38Z"}
