{"icao":"LPFL","metar":"LPFL 252100Z VRB06G22KT 9999 SCT012 18/15 Q1026","updated":"2026-02-25T23:27:04Z"}
