{"icao":"LPFR","metar":"LPFR 230600Z 33004KT 9999 FEW020 BKN045 11/08 Q1006","updated":"2026-01-23T06:33:53Z"}
