{"icao":"LPBJ","metar":"LPBJ 150500Z 30005KT 8000 VCFG NSC 08/08 Q1023","updated":"2026-04-15T05:22:33Z"}
