{"icao":"KLAX","metar":"KLAX 091409Z VRB03KT 1/8SM R25L/1000V2600FT FG VV001 15/15 A3004 RMK AO2 T01500150","updated":"2025-11-09T14:14:47Z"}
