{"icao":"KJFK","metar":"KJFK 041651Z 33011G20KT 10SM FEW043 FEW065 M01/M13 A3023 RMK AO2 SLP235 T10111128 PNO $","updated":"2026-02-04T17:43:45Z"}
