{"icao":"KORD","metar":"KORD 171151Z 20005KT 10SM FEW050 BKN090 BKN250 14/07 A3000 RMK AO2 SLP157 T01440067 10150 20139 55000 $","updated":"2025-10-17T12:37:10Z"}
