{"icao":"LPLA","metar":"LPLA 310900Z 31015KT 9999 SCT020 SCT035 15/12 Q1009","updated":"2025-10-31T09:19:42Z"}
