{"icao":"LPCS","metar":"LPCS 161500Z 23008KT 180V300 CAVOK 27/10 Q1014","updated":"2025-10-16T15:19:21Z"}
