{"icao":"KLAX","metar":"KLAX 050753Z 26008KT 10SM OVC015 17/13 A3015 RMK AO2 SLP207 T01670128 402060150 $","updated":"2025-11-05T08:25:33Z"}
