{"icao":"LPMA","metar":"LPMA 141100Z 36013KT 330V030 9999 SCT016 SCT030 16/07 Q1032","updated":"2026-02-14T11:21:03Z"}
