{"icao":"LPPR","metar":"LPPR 171300Z 32014KT 280V350 9999 FEW020 16/11 Q1018","updated":"2026-05-17T13:17:28Z"}
