{"icao":"KLAX","metar":"KLAX 261053Z 00000KT 4SM BR OVC008 16/14 A2999 RMK AO2 SLP154 T01560139 $","updated":"2025-10-26T11:13:30Z"}
