{"icao":"LPOV","metar":"LPOV 112100Z 36011KT 9999 OVC006 13/13 Q1028","updated":"2026-03-11T21:31:53Z"}
