{"icao":"LPAR","metar":"LPAR 051700Z 36016G26KT 330V030 CAVOK 10/M01 Q1014","updated":"2026-01-06T03:27:50Z"}
