{"icao":"LPLA","metar":"LPLA 061800Z 31017KT 2000 +RADZ BR SCT005 BKN012 FEW018CB BKN020 16/16 Q1008","updated":"2025-12-06T18:24:56Z"}
