{"icao":"LPMR","metar":"LPMR 150800Z 17005KT 9999 FEW014 BKN038 10/08 Q1018","updated":"2026-01-15T08:29:29Z"}
