{"icao":"KJFK","metar":"KJFK 182051Z 12008KT 10SM FEW022 FEW100 BKN250 08/06 A3022 RMK AO2 SLP232 T00830056 56021","updated":"2025-12-18T21:16:55Z"}
