{"icao":"LPFR","metar":"LPFR 220900Z 22004KT 180V260 9999 FEW015 19/10 Q1014","updated":"2026-04-22T09:18:54Z"}
