{"icao":"LPLA","metar":"LPLA 272200Z 10007KT 9999 BKN040 19/11 Q1029","updated":"2025-09-27T22:14:35Z"}
