{"icao":"LPBJ","metar":"LPBJ 010800Z 09004KT CAVOK 20/13 Q1020","updated":"2025-10-01T08:23:53Z"}
