{"icao":"KJFK","metar":"KJFK 192051Z 31012G17KT 10SM FEW065 FEW250 29/13 A2995 RMK AO2 SLP142 T02940128 55003 $","updated":"2025-09-19T21:14:39Z"}
