{"icao":"KLAX","metar":"KLAX 240553Z 13005KT 7SM FEW010 16/15 A3014 RMK AO2 SLP204 T01610150 10189 20161 51009","updated":"2025-11-24T06:29:54Z"}
