{"icao":"LPPD","metar":"LPPD 251900Z 23018G29KT 7000 FEW008 SCT022 17/15 Q1013","updated":"2026-01-25T19:16:00Z"}
