{"icao":"LPCS","metar":"LPCS 302100Z 30019G30KT 9999 FEW018 SCT030 14/10 Q1015","updated":"2026-01-30T21:26:42Z"}
