{"icao":"KJFK","metar":"KJFK 092051Z 19017G23KT 10SM SCT250 22/11 A3011 RMK AO2 SLP197 T02170106 56023 $","updated":"2026-06-09T20:57:59Z"}
