{"icao":"LPMT","metar":"LPMT 211800Z 28011KT 7000 SCT020 SCT030 14/10 Q1006","updated":"2026-01-21T18:40:45Z"}
