{"icao":"LPMT","metar":"LPMT 251800Z 02003KT 9999 FEW015 17/14 Q1017","updated":"2026-02-25T19:05:57Z"}
