{"icao":"LPOV","metar":"LPOV 162200Z 14002KT 090V170 CAVOK 11/09 Q1017","updated":"2026-03-16T23:30:41Z"}
