{"icao":"LPAR","metar":"LPAR 300900Z 05010KT CAVOK 21/12 Q1018","updated":"2025-09-30T10:18:26Z"}
