{"icao":"KJFK","metar":"KJFK 021551Z 06017G22KT 10SM OVC013 07/04 A3045 RMK AO2 SLP311 T00670039","updated":"2026-04-02T16:00:04Z"}
