{"icao":"LPPD","metar":"LPPD 201600Z 03012KT 350V070 9999 FEW025 SCT045 21/10 Q1028","updated":"2025-09-20T16:18:41Z"}
