{"icao":"LPFR","metar":"LPFR 312330Z 36007KT CAVOK 27/13 Q1015","updated":"2026-06-01T00:04:28Z"}
