{"icao":"LPMT","metar":"LPMT 021700Z 26014KT 9999 FEW030 FEW035CB 13/08 Q1001","updated":"2026-02-02T17:36:48Z"}
