{"icao":"KORD","metar":"KORD 220951Z VRB06KT 10SM BKN150 BKN200 17/10 A2957 RMK AO2 SLP010 T01720100","updated":"2026-03-22T10:26:26Z"}
