{"icao":"LPPS","metar":"LPPS 251000Z 01012KT 340V040 9999 FEW015 17/08 Q1018","updated":"2025-12-25T10:20:48Z"}
