{"icao":"LPCS","metar":"LPCS 182300Z 32008KT 290V350 9999 FEW020 12/08 Q1023","updated":"2026-02-18T23:28:10Z"}
