{"icao":"LPPD","metar":"LPPD 161400Z 33015KT 300V360 9999 FEW025 SCT035 16/09 Q1033","updated":"2026-01-16T14:22:10Z"}
