{"icao":"LPAZ","metar":"LPAZ 030700Z 32019KT 9999 SCT011 BKN040 15/13 Q1007","updated":"2026-01-03T07:18:12Z"}
