{"icao":"LPFR","metar":"LPFR 241930Z 08010KT CAVOK 25/12 Q1019","updated":"2026-05-24T20:03:29Z"}
