{"icao":"KJFK","metar":"KJFK 171906Z 05015G20KT 10SM BKN014 OVC025 19/17 A3004 RMK AO2 T01940167 $","updated":"2025-09-17T19:14:03Z"}
