{"icao":"LPHR","metar":"LPHR 101400Z 26009KT 9999 FEW013 FEW015TCU 23/19 Q1021","updated":"2025-10-10T14:17:20Z"}
