{"icao":"LPPT","metar":"LPPT 031400Z 26011KT 9999 FEW030 13/07 Q1003","updated":"2026-02-03T14:06:21Z"}
