{"icao":"KLAX","metar":"KLAX 110453Z 13014G24KT 10SM FEW018 SCT049 BKN055 OVC150 17/13 A2997 RMK AO2 CIG 035 RWY24 SLP147 T01670128 $","updated":"2026-02-11T05:01:37Z"}
