{"icao":"KLAX","metar":"KLAX 220453Z 24007KT 10SM FEW250 13/09 A3019 RMK AO2 SLP222 T01330089 $","updated":"2026-02-22T05:50:54Z"}
