{"icao":"LPAR","metar":"LPAR 301100Z 26014KT 230V300 8000 SCT020 17/13 Q1012","updated":"2026-01-30T11:26:54Z"}
