{"icao":"LPLA","metar":"LPLA 121400Z 36009KT 330V030 9999 FEW025 16/10 Q1028","updated":"2026-05-12T14:21:58Z"}
