{"icao":"LPBJ","metar":"LPBJ 051400Z VRB05KT CAVOK 26/15 Q1019","updated":"2025-10-05T14:13:56Z"}
