{"icao":"LPMT","metar":"LPMT 222300Z VRB01KT CAVOK 10/09 Q1026","updated":"2026-02-22T23:24:50Z"}
