{"icao":"KORD","metar":"KORD 232151Z 33007KT 10SM FEW035 SCT250 M02/M13 A3038 RMK AO2 SLP296 T10171133","updated":"2026-02-23T22:39:06Z"}
