{"icao":"LPPD","metar":"LPPD 281100Z 11009KT 9999 FEW025 SCT040 21/13 Q1029","updated":"2025-09-28T11:12:59Z"}
