{"icao":"LPPD","metar":"LPPD 052200Z 03004KT 360V070 9999 FEW025 BKN045 14/07 Q1032","updated":"2026-01-05T22:19:39Z"}
