{"icao":"KLAX","metar":"KLAX 021653Z 10006KT 10SM FEW160 FEW250 17/07 A3010 RMK AO2 SLP191 T01720067 $","updated":"2026-02-02T17:37:20Z"}
