{"icao":"LPBJ","metar":"LPBJ 281900Z 04007KT CAVOK 18/05 Q1021","updated":"2026-03-28T19:28:26Z"}
