{"icao":"KJFK","metar":"KJFK 281651Z 20009KT 10SM FEW025 FEW085 FEW200 SCT250 23/18 A3008 RMK AO2 SLP184 T02330178","updated":"2025-09-28T17:13:05Z"}
