{"icao":"KJFK","metar":"KJFK 260951Z 05008KT 10SM FEW012 SCT036 OVC046 06/04 A3005 RMK RAE09 SLP176 P0000 T00560039 $ ","updated":"2026-04-26T10:01:23Z"}
