{"icao":"LPMT","metar":"LPMT 131600Z 26015KT CAVOK 24/17 Q1015","updated":"2026-06-13T16:21:49Z"}
