{"icao":"LPFR","metar":"LPFR 251500Z 16008KT 9999 FEW040 25/18 Q1016","updated":"2025-09-25T15:18:41Z"}
