{"icao":"KLAX","metar":"KLAX 191453Z 12005KT 10SM FEW012 FEW025 SCT110 SCT250 10/07 A3005 RMK AO2 SLP175 T01000072 53010 $","updated":"2025-11-19T15:20:15Z"}
