{"icao":"LPBJ","metar":"LPBJ 051800Z 28005KT CAVOK 26/14 Q1017","updated":"2025-10-05T18:21:57Z"}
