{"icao":"LPPR","metar":"LPPR 101830Z 16012KT 1500 R17/1000D +RA BR FEW008 BKN010 FEW018CB 14/13 Q1008","updated":"2026-05-10T19:01:30Z"}
