{"icao":"LPMR","metar":"LPMR 080900Z VRB02KT 9999 SCT026 12/11 Q1022","updated":"2025-11-08T09:16:38Z"}
