{"icao":"LPBJ","metar":"LPBJ 310900Z 25005KT CAVOK 10/07 Q1020","updated":"2026-01-31T09:26:29Z"}
