{"icao":"LPPR","metar":"LPPR 092100Z 18006KT 4500 BR SCT004 BKN012 14/14 Q1017","updated":"2025-12-09T21:16:26Z"}
