{"icao":"LPHR","metar":"LPHR 101500Z 25022KT 9999 SCT012 SCT027 20/17 Q1012","updated":"2025-11-10T15:20:52Z"}
