{"icao":"KORD","metar":"KORD 191951Z 27015G24KT 10SM FEW024 M16/M23 A3022 RMK AO2 PK WND 26028/1902 SLP248 T11561228 $","updated":"2026-01-19T20:22:42Z"}
