{"icao":"LPFR","metar":"LPFR 301800Z 26006KT 9999 FEW030 21/17 Q1018","updated":"2025-09-30T18:23:01Z"}
