{"icao":"LPAR","metar":"LPAR 120900Z 07003KT 030V150 9999 FEW009 12/11 Q1027","updated":"2026-03-12T09:41:12Z"}
