{"icao":"LPPD","metar":"LPPD 110430Z 36007KT 9999 FEW018 12/07 Q1031","updated":"2026-04-11T04:53:37Z"}
