{"icao":"KJFK","metar":"KJFK 080551Z 33009KT 10SM FEW250 04/01 A3000 RMK AO2 SLP159 T00440006 10072 20039 51007 $","updated":"2026-01-08T06:33:28Z"}
