{"icao":"LPST","metar":"LPST 030900Z 29004KT 240V360 9999 FEW008 17/14 Q1024","updated":"2025-10-03T09:17:19Z"}
