{"icao":"LPFR","metar":"LPFR 131800Z 05009KT CAVOK 18/09 Q1016","updated":"2025-12-13T18:24:43Z"}
