{"icao":"LPFL","metar":"LPFL 031230Z 23013G27KT 160V280 9999 FEW009 BKN014 18/14 Q1001","updated":"2026-02-03T12:57:30Z"}
