{"icao":"LPPS","metar":"LPPS 281300Z 01011KT 340V060 9999 FEW015 BKN030 24/14 Q1025","updated":"2025-09-28T13:20:43Z"}
