{"icao":"LPHR","metar":"LPHR 191100Z 28012KT 9999 FEW014 16/13 Q1015","updated":"2026-04-19T11:34:03Z"}
