{"icao":"LPPR","metar":"LPPR 261930Z 01004KT 330V030 CAVOK 15/09 Q1017","updated":"2026-03-26T19:53:47Z"}
