{"icao":"LPAZ","metar":"LPAZ 072300Z 22008KT 9999 FEW026 19/15 Q1023","updated":"2025-11-07T23:16:07Z"}
