{"icao":"LPPT","metar":"LPPT 072230Z 34003KT 290V020 9999 FEW028 14/08 Q1011","updated":"2026-05-07T23:00:59Z"}
