{"icao":"KJFK","metar":"KJFK 091451Z 14010KT 10SM SCT021 BKN250 07/01 A3063 RMK AO2 SLP373 SCT V BKN T00720006 58002","updated":"2026-04-09T15:21:26Z"}
