{"icao":"LPMA","metar":"LPMA 171600Z 21008KT 170V240 9999 SCT015 18/10 Q1019","updated":"2026-01-17T16:21:52Z"}
