{"icao":"KORD","metar":"KORD 040551Z 23007KT 10SM CLR 14/06 A2968 RMK AO2 SLP050 T01440061 10200 20144 402000072 56008 $","updated":"2026-05-04T06:11:49Z"}
