{"icao":"KJFK","metar":"KJFK 291951Z 12007KT 10SM BKN250 24/12 A3019 RMK AO2 SLP223 T02390117 $","updated":"2025-09-29T20:18:00Z"}
