{"icao":"KLAX","metar":"KLAX 290453Z 24005KT 10SM CLR 20/16 A2999 RMK AO2 SLP154 T02000161 $","updated":"2025-09-29T05:17:51Z"}
