{"icao":"LPPS","metar":"LPPS 011600Z 17012KT 9999 FEW014 23/19 Q1017","updated":"2025-11-01T16:19:22Z"}
