{"icao":"KORD","metar":"KORD 082351Z 18010G17KT 10SM FEW017 SCT025 BKN150 BKN250 25/19 A2992 RMK AO2 SLP128 60004 T02500194 10289 20239 58002","updated":"2026-06-09T00:04:11Z"}
