{"icao":"LPPD","metar":"LPPD 171130Z 32014KT 280V350 9999 FEW020 FEW025CB 11/05 Q1015","updated":"2026-03-17T11:42:23Z"}
