{"icao":"LPMT","metar":"LPMT 210800Z 36004KT 330V030 CAVOK 23/15 Q1016","updated":"2026-06-21T08:56:07Z"}
