{"icao":"LPPS","metar":"LPPS 091400Z 35009KT 310V010 9999 FEW015 23/11 Q1021","updated":"2025-11-09T14:14:46Z"}
