{"icao":"KJFK","metar":"KJFK 291651Z 13005KT 10SM FEW060 FEW190 BKN230 26/12 A3023 RMK AO2 SLP236 T02560117 $","updated":"2025-09-29T17:16:33Z"}
