{"icao":"LPMA","metar":"LPMA 171430Z 12005KT 090V170 9999 SCT014 19/13 Q1025","updated":"2026-02-17T14:43:15Z"}
