{"icao":"LPMA","metar":"LPMA 061030Z 10004KT 050V140 9999 SCT014 SCT030 18/13 Q1015","updated":"2026-04-06T10:55:12Z"}
