{"icao":"LPPD","metar":"LPPD 312200Z 23011KT 2000 BR BKN002 BKN006 16/16 Q1016","updated":"2026-01-31T22:21:15Z"}
