{"icao":"KORD","metar":"KORD 270551Z 12009KT 10SM CLR 10/04 A3027 RMK AO2 SLP250 T01000044 10122 20100 401500067 56005 $","updated":"2025-10-27T06:30:22Z"}
