{"icao":"LPMR","metar":"LPMR 021600Z 25013KT 9999 FEW030 20/13 Q1015","updated":"2026-05-02T16:43:57Z"}
