{"icao":"LPPD","metar":"LPPD 280500Z 01018G31KT 8000 -SHRA SCT011 15/13 Q1023","updated":"2025-11-28T05:19:19Z"}
