{"icao":"LPMR","metar":"LPMR 050700Z 02007KT CAVOK 05/M04 Q1012","updated":"2026-01-05T07:27:18Z"}
