{"icao":"LPOV","metar":"LPOV 230700Z 33005KT CAVOK 17/14 Q1019","updated":"2025-10-23T07:18:11Z"}
