{"icao":"LPMA","metar":"LPMA 301600Z 01007KT 340V040 9999 SCT016 SCT033 23/14 Q1015","updated":"2025-10-30T16:23:30Z"}
