{"icao":"LPPT","metar":"LPPT 101930Z 30010KT 9000 FEW008 16/14 Q1012","updated":"2026-04-10T19:42:12Z"}
