{"icao":"LPPR","metar":"LPPR 112200Z 01003KT CAVOK 17/12 Q1019","updated":"2025-10-11T22:14:35Z"}
