{"icao":"LPMA","metar":"LPMA 100800Z 04008KT 9999 BKN014 14/10 Q1031","updated":"2026-01-10T08:25:45Z"}
