{"icao":"LPMR","metar":"LPMR 251800Z 35006KT 9999 FEW012 12/07 Q1024","updated":"2025-11-25T18:29:02Z"}
