{"icao":"LPBJ","metar":"LPBJ 091700Z 24019KT 9999 FEW023 FEW025CB SCT035 19/10 Q1008","updated":"2026-05-09T17:50:13Z"}
