{"icao":"LPBJ","metar":"LPBJ 030700Z 04003KT CAVOK 09/07 Q1022","updated":"2026-04-03T07:06:13Z"}
