{"icao":"LPST","metar":"LPST 110800Z 35003KT 300V050 9999 FEW012 10/08 Q1026","updated":"2026-03-11T08:39:12Z"}
