{"icao":"LPPS","metar":"LPPS 310500Z 21011KT 9999 FEW015 SCT030 21/16 Q1014","updated":"2025-10-31T05:19:24Z"}
