{"icao":"KJFK","metar":"KJFK 232251Z 31014KT 10SM SCT035 BKN085 BKN110 OVC250 02/M04 A2965 RMK AO2 PK WND 34028/2157 SLP040 T00171039 $","updated":"2026-02-23T23:33:18Z"}
