{"icao":"LPPT","metar":"LPPT 270200Z 04012KT CAVOK 15/M01 Q1016","updated":"2026-03-27T02:12:24Z"}
