{"icao":"KJFK","metar":"KJFK 222051Z 14006KT 10SM FEW005 FEW020 SCT150 BKN250 11/08 A2970 RMK AO2 SLP055 T01110078 56024 $","updated":"2026-03-22T21:24:54Z"}
