{"icao":"LPBJ","metar":"LPBJ 041600Z 25017G28KT 3500 -DZRA BR FEW007 OVC014 15/14 Q0999","updated":"2026-02-04T16:45:24Z"}
