{"icao":"KORD","metar":"KORD 191451Z 28015G24KT 10SM SCT024 M12/M18 A2985 RMK AO2 PK WND 29029/1406 SLP117 T11171178 53047","updated":"2025-12-19T15:21:08Z"}
