{"icao":"LPFR","metar":"LPFR 042000Z 24021KT 4500 -RADZ FEW004 BKN006 16/15 Q1002","updated":"2026-02-04T20:33:11Z"}
