{"icao":"LPOV","metar":"LPOV 281800Z 20009KT 4500 BR SCT014 BKN020 13/11 Q1003","updated":"2026-01-28T19:26:58Z"}
