{"icao":"KJFK","metar":"KJFK 161851Z 27017KT 10SM FEW085 BKN110 BKN230 00/M13 A2995 RMK AO2 SLP140 T00001133 $","updated":"2026-01-16T19:19:54Z"}
