{"icao":"LPAZ","metar":"LPAZ 210430Z 32016KT 9999 FEW018 SCT023 BKN034 15/11 Q1027","updated":"2025-12-21T04:36:09Z"}
