{"icao":"LPFL","metar":"LPFL 151630Z 17006KT 140V200 9999 FEW025 SCT045 18/10 Q1033","updated":"2026-05-15T16:50:11Z"}
