{"icao":"LPPS","metar":"LPPS 071100Z 03009KT 350V070 9999 SCT014 23/20 Q1025","updated":"2025-10-07T11:15:15Z"}
