{"icao":"KJFK","metar":"KJFK 161351Z 29015G35KT 10SM -RA FEW035 FEW075 SCT200 SCT250 13/03 A2927 RMK AO2 PK WND 31035/1345 RAB46 SLP910 P0000 T01330033 $","updated":"2025-11-16T14:15:18Z"}
