{"icao":"LPMA","metar":"LPMA 102200Z 01016G27KT 330V040 9999 FEW015 19/14 Q1021","updated":"2026-06-10T22:05:37Z"}
