{"icao":"LPPS","metar":"LPPS 102300Z 35019KT 9999 SCT012 SCT030 15/11 Q1022","updated":"2026-04-10T23:33:41Z"}
