{"icao":"KLAX","metar":"KLAX 252053Z 25012KT 10SM FEW009 FEW040 22/14 A2993 RMK AO2 SLP133 T02170139 58011","updated":"2026-06-25T21:01:59Z"}
