{"icao":"LPFL","metar":"LPFL 161630Z 19011G23KT 080V210 9999 FEW023 20/12 Q1027","updated":"2026-05-16T17:02:03Z"}
