{"icao":"LPMR","metar":"LPMR 132200Z 16003KT 2000 -DZ BR BKN004 BKN006 12/12 Q1022","updated":"2026-04-13T22:41:01Z"}
