{"icao":"LPPT","metar":"LPPT 110230Z 05008KT CAVOK 20/11 Q1020","updated":"2025-10-11T02:52:17Z"}
