{"icao":"LPFR","metar":"LPFR 070900Z 21021G31KT 3500 RA BR SCT012 FEW020CB BKN032 15/12 Q1011","updated":"2026-02-07T09:29:29Z"}
