{"icao":"LPPD","metar":"LPPD 061430Z 16009KT 9999 FEW025 BKN045 14/07 Q1030","updated":"2026-03-06T14:36:37Z"}
