{"icao":"LPBJ","metar":"LPBJ 131600Z 05010KT CAVOK 17/10 Q1018","updated":"2025-12-13T16:22:13Z"}
