{"icao":"LPMT","metar":"LPMT 230800Z 08003KT 030V110 CAVOK 12/12 Q1013","updated":"2026-03-23T08:54:28Z"}
