{"icao":"LPFR","metar":"LPFR 121930Z 32016G26KT CAVOK 16/04 Q1018","updated":"2026-04-12T19:38:05Z"}
