{"icao":"LPAZ","metar":"LPAZ 310900Z 23015KT 4500 BR FEW004 BKN040 17/16 Q1019","updated":"2026-01-31T09:26:29Z"}
