{"icao":"LPMT","metar":"LPMT 251600Z 36010KT 330V030 CAVOK 15/06 Q1022","updated":"2025-11-25T16:26:16Z"}
