{"icao":"LPCS","metar":"LPCS 241800Z 28004KT 250V310 9999 FEW006 BKN025 20/19 Q1017","updated":"2025-10-24T18:24:58Z"}
