{"icao":"LPFR","metar":"LPFR 110600Z 05009KT 6000 SHRA SCT012 FEW018CB BKN030 14/13 Q1020","updated":"2025-12-11T06:31:58Z"}
