{"icao":"KJFK","metar":"KJFK 120351Z 27021G26KT 10SM FEW045 BKN060 04/M04 A2991 RMK AO2 PK WND 28028/0300 SLP129 T00441039 $","updated":"2025-11-12T04:22:16Z"}
