{"icao":"LPHR","metar":"LPHR 242000Z 34006G16KT 300V030 9999 FEW020 14/07 Q1022","updated":"2026-02-24T20:33:52Z"}
