{"icao":"KJFK","metar":"KJFK 251104Z 20011KT 2SM +RA BR BKN006 BKN014CB OVC050 22/22 A2995 RMK AO2 SFC VIS 2 1/2 CB OHD-SE MOV NE P0022 T02220217 $","updated":"2025-09-25T11:15:20Z"}
