{"icao":"LPAZ","metar":"LPAZ 010100Z 17007KT 9999 FEW004 BKN028 22/21 Q1022","updated":"2025-10-01T01:26:48Z"}
