{"icao":"LPMR","metar":"LPMR 222300Z 30010KT 7000 SCT020 SCT030 13/07 Q1003","updated":"2026-01-22T23:19:47Z"}
