{"icao":"LPHR","metar":"LPHR 220800Z 12004KT 080V150 6000 -TSRA SCT003 BKN010 BKN013CB 20/20 Q1012 RETSRA","updated":"2025-10-22T08:26:35Z"}
