{"icao":"LPLA","metar":"LPLA 051900Z 16006KT 130V220 9999 FEW014 SCT023 BKN035 23/19 Q1020","updated":"2025-10-05T19:12:35Z"}
