{"icao":"KJFK","metar":"KJFK 120551Z 29017G26KT 10SM SCT065 M02/M12 A2990 RMK AO2 PK WND 30033/0534 SNE09 SLP123 P0000 60000 T10171117 11011 21022 53018 $","updated":"2025-12-12T06:31:32Z"}
