{"icao":"LPLA","metar":"LPLA 102000Z 36003KT 330V030 9999 FEW016 BKN028 22/18 Q1022","updated":"2025-10-10T20:18:40Z"}
