{"icao":"KORD","metar":"KORD 300051Z 01018G26KT 10SM FEW019 SCT026 BKN037 12/07 A3001 RMK AO2 PK WND 01029/0021 SLP164 T01220067","updated":"2025-10-30T01:25:07Z"}
