{"icao":"LPFR","metar":"LPFR 210900Z 28007KT 9999 FEW006 BKN008 21/19 Q1017","updated":"2025-10-21T09:19:36Z"}
