{"icao":"LPPS","metar":"LPPS 271430Z 01014KT 340V040 9999 SCT015 BKN030 17/12 Q1018","updated":"2026-03-27T14:48:53Z"}
