{"icao":"KJFK","metar":"KJFK 010951Z 01009KT 10SM SCT250 02/00 A3004 RMK AO2 SLP172 T00220000 $","updated":"2026-03-01T10:23:40Z"}
