{"icao":"LPPR","metar":"LPPR 251130Z 32007KT 280V350 CAVOK 17/10 Q1021","updated":"2026-03-25T11:40:15Z"}
