{"icao":"LPFR","metar":"LPFR 141000Z 12006KT CAVOK 23/16 Q1017","updated":"2025-10-14T10:18:56Z"}
