{"icao":"LPCS","metar":"LPCS 241500Z 26014G25KT 9000 VCSH SCT005 BKN009 17/17 Q1017","updated":"2025-11-24T15:21:18Z"}
