{"icao":"LPPD","metar":"LPPD 100700Z 21009KT 9999 FEW007 BKN016 17/15 Q1025","updated":"2026-01-10T07:18:10Z"}
