{"icao":"LPCS","metar":"LPCS 050830Z 24016KT 220V280 9999 FEW014 14/14 Q0994","updated":"2026-02-05T08:41:05Z"}
