{"icao":"LPPD","metar":"LPPD 271700Z 14010KT 090V150 9999 FEW008 BKN035 18/16 Q1020","updated":"2026-04-27T17:20:29Z"}
