{"icao":"KORD","metar":"KORD 010451Z 28004KT 10SM BKN075 06/02 A2992 RMK AO2 SLP134 T00610022 $","updated":"2025-11-01T05:16:35Z"}
