{"icao":"LPMA","metar":"LPMA 070830Z 35013G23KT 310V020 9999 FEW014 14/07 Q1021","updated":"2026-04-07T09:00:53Z"}
