{"icao":"KJFK","metar":"KJFK 181951Z 20010KT 10SM FEW045 26/17 A2991 RMK AO2 SLP128 T02610167 $","updated":"2025-09-18T20:19:32Z"}
