{"icao":"LPPS","metar":"LPPS 090530Z 29015KT 9999 SCT014 15/11 Q1009","updated":"2026-05-09T05:47:17Z"}
