{"icao":"LPMR","metar":"LPMR 171400Z 30007KT 270V330 9999 FEW020 SCT032 10/06 Q1010","updated":"2026-01-17T14:17:51Z"}
