{"icao":"LPMA","metar":"LPMA 161400Z 36010G21KT 300V050 9999 SCT015 18/10 Q1025","updated":"2026-01-16T14:22:11Z"}
