{"icao":"LPOV","metar":"LPOV 202000Z 35010KT 9999 FEW007 19/18 Q1016","updated":"2026-06-20T23:06:49Z"}
