{"icao":"KORD","metar":"KORD 121151Z 26009KT 10SM SCT250 04/00 A2982 RMK AO2 SLP102 T00390000 10044 20033 51018","updated":"2025-11-12T12:39:47Z"}
