{"icao":"LPMR","metar":"LPMR 072000Z 31004KT 6000 FEW030 16/15 Q1023","updated":"2025-10-07T20:19:03Z"}
