{"icao":"KORD","metar":"KORD 260351Z 25016G29KT 10SM BKN010 OVC021 08/06 A2970 RMK AO2 PK WND 23030/0331 RAE42 SLP059 P0002 T00830061","updated":"2025-11-26T04:25:36Z"}
