{"icao":"KORD","metar":"KORD 272051Z 17007KT 140V210 10SM FEW015 OVC250 18/15 A2958 RMK AO2 SLP016 60023 T01830150 53008 $","updated":"2026-04-27T21:00:21Z"}
