{"icao":"LPMR","metar":"LPMR 170200Z VRB02KT 6000 SCT002 12/11 Q1022","updated":"2025-09-17T02:54:27Z"}
