{"icao":"KORD","metar":"KORD 251651Z 24005KT 7SM OVC007 09/08 A2976 RMK AO2 SLP081 T00940083","updated":"2025-11-25T17:19:09Z"}
