{"icao":"LPOV","metar":"LPOV 070800Z 16005KT 5000 -RADZ BR BKN002 BKN008 15/14 Q1013 RERA","updated":"2025-11-07T08:24:51Z"}
