{"icao":"LPPR","metar":"LPPR 072000Z 02004KT 330V120 CAVOK 08/07 Q1029","updated":"2026-01-07T20:23:51Z"}
