{"icao":"KLAX","metar":"KLAX 141553Z 00000KT 10SM FEW065 14/04 A3015 RMK AO2 SLP206 T01390039 $","updated":"2026-01-14T16:29:08Z"}
