{"icao":"LPCS","metar":"LPCS 081900Z 25009KT 5000 -DZ BR FEW004 SCT008 BKN012 13/13 Q1031","updated":"2026-01-08T19:18:57Z"}
