{"icao":"KORD","metar":"KORD 201227Z 19004KT 3SM -DZ BR BKN006 OVC023 06/05 A3010 RMK AO2 P0000 T00610050","updated":"2025-11-20T12:38:43Z"}
