{"icao":"LPMT","metar":"LPMT 051400Z 34008KT 300V010 CAVOK 21/08 Q1016","updated":"2026-05-05T14:18:37Z"}
