{"icao":"LPST","metar":"LPST 211300Z 36011KT 330V030 9999 FEW020 14/04 Q1027","updated":"2025-11-21T13:27:12Z"}
