{"icao":"LPHR","metar":"LPHR 210600Z 25012KT 7000 SCT005 SCT008 22/21 Q1012","updated":"2025-10-21T06:27:38Z"}
