{"icao":"LPMT","metar":"LPMT 150500Z 08001KT CAVOK 13/12 Q1015","updated":"2025-10-15T05:17:18Z"}
