{"icao":"LPPT","metar":"LPPT 192100Z 33009KT CAVOK 10/06 Q1030","updated":"2026-02-19T21:30:29Z"}
