{"icao":"LPMR","metar":"LPMR 101200Z VRB02KT 6000 FEW042 11/09 Q1030","updated":"2026-01-10T12:37:38Z"}
