{"icao":"LPLA","metar":"LPLA 090900Z 33025KT 9999 SCT028 14/03 Q1017 RMK WIND RWY15 33024KT PK 34035/29 RH48 BLU","updated":"2026-05-09T09:18:00Z"}
