{"icao":"KORD","metar":"KORD 151751Z 19015G23KT 10SM FEW035 FEW050 19/09 A2989 RMK AO2 PK WND 19028/1702 SLP122 T01940094 10194 20139 58013","updated":"2026-05-15T18:21:39Z"}
