{"icao":"LPPD","metar":"LPPD 280600Z 12019KT 9000 RA SCT015 BKN025 13/11 Q1016","updated":"2025-12-28T06:29:53Z"}
