{"icao":"LPMR","metar":"LPMR 180100Z 24002KT 4000 BR SCT006 11/11 Q1021","updated":"2025-09-18T11:13:44Z"}
