{"icao":"LPAR","metar":"LPAR 071000Z 26011KT 220V290 9999 BKN015 BKN025 15/11 Q1013","updated":"2026-04-07T10:53:36Z"}
