{"icao":"LPFR","metar":"LPFR 121630Z 24009KT 9999 FEW008 BKN012 16/15 Q1019","updated":"2026-02-12T16:56:49Z"}
