{"icao":"LPOV","metar":"LPOV 280900Z 01008KT 320V060 CAVOK 21/15 Q1010","updated":"2025-09-28T09:15:34Z"}
