{"icao":"KLAX","metar":"KLAX 072053Z 04011G17KT 10SM FEW120 25/M05 A3001 RMK AO2 PK WND 03026/2008 SLP161 T02501050 58014 $","updated":"2026-03-07T21:20:39Z"}
