{"icao":"LPST","metar":"LPST 040900Z 12015KT 9999 FEW020 16/12 Q1016","updated":"2025-11-04T09:20:29Z"}
