{"icao":"KORD","metar":"KORD 161851Z 11006KT 10SM FEW050 FEW085 20/08 A3013 RMK AO2 SLP203 T02000078","updated":"2025-10-16T19:12:56Z"}
