{"icao":"LPPS","metar":"LPPS 301630Z 29012KT 2000 -DZ BR SCT004 BKN010 18/17 Q1023","updated":"2026-01-30T16:37:48Z"}
