{"icao":"LPHR","metar":"LPHR 252100Z 32003KT 290V360 9999 FEW012 16/15 Q1026","updated":"2025-11-25T21:17:33Z"}
