{"icao":"LPPT","metar":"LPPT 261500Z 22008KT 190V250 CAVOK 28/02 Q1018","updated":"2025-09-26T15:18:05Z"}
