{"icao":"LPPR","metar":"LPPR 212100Z 22007KT 7000 -RADZ BKN003 BKN009 19/18 Q1013","updated":"2025-10-21T21:16:21Z"}
