{"icao":"KLAX","metar":"KLAX 172153Z 24012G20KT 10SM FEW025 SCT049 BKN065 16/07 A3005 RMK AO2 SLP174 T01560067","updated":"2026-02-17T22:29:52Z"}
