{"icao":"KLAX","metar":"KLAX 182053Z 26009KT 9SM FEW029 SCT070 BKN120 BKN160 BKN250 23/18 A2982 RMK AO2 SLP096 CB DSNT E T02330183 58007","updated":"2025-09-18T21:15:28Z"}
