{"icao":"KJFK","metar":"KJFK 272251Z 26014KT 10SM FEW040 FEW070 BKN085 BKN250 M07/M15 A3000 RMK AO2 SLP158 T10671150 $","updated":"2026-01-27T23:20:43Z"}
