{"icao":"KORD","metar":"KORD 250751Z 16006KT 10SM OVC130 06/M04 A3014 RMK AO2 SLP211 T00611039","updated":"2026-03-25T08:50:46Z"}
