{"icao":"LPMR","metar":"LPMR 261200Z 02007KT 350V060 CAVOK 19/13 Q1019","updated":"2025-10-26T12:33:27Z"}
