{"icao":"LPBJ","metar":"LPBJ 152000Z 31006KT CAVOK 17/12 Q1022","updated":"2026-04-15T20:45:50Z"}
