{"icao":"LPAZ","metar":"LPAZ 301500Z 29020KT 9999 FEW022 20/16 Q1009","updated":"2025-10-30T15:20:02Z"}
