{"icao":"KORD","metar":"KORD 102151Z 27009KT 10SM FEW031 SCT085 BKN130 02/M04 A2994 RMK AO2 SLP143 T00171044","updated":"2026-01-10T22:18:52Z"}
