{"icao":"LPMR","metar":"LPMR 110500Z 15010KT 9999 FEW020 15/14 Q1013","updated":"2025-11-11T05:18:51Z"}
