{"icao":"LPMA","metar":"LPMA 230900Z 03005KT 010V070 9999 FEW015 20/10 Q1014","updated":"2026-04-23T09:26:20Z"}
