{"icao":"KLAX","metar":"KLAX 041353Z VRB06KT 10SM FEW200 SCT250 14/M04 A3012 RMK AO2 SLP199 T01441044","updated":"2025-12-04T14:20:40Z"}
