{"icao":"KORD","metar":"KORD 160251Z 30009G18KT 10SM BKN210 13/02 A2969 RMK AO2 SLP052 T01280022 51030 $","updated":"2025-11-16T03:17:11Z"}
