{"icao":"KJFK","metar":"KJFK 282151Z 28022G32KT 10SM FEW060 04/M08 A3001 RMK AO2 PK WND 27034/2104 SLP162 T00441083 $","updated":"2025-11-28T22:17:32Z"}
