{"icao":"LPAZ","metar":"LPAZ 280500Z 26028G38KT 8000 FEW006 BKN010 BKN017 17/16 Q1009","updated":"2026-01-28T05:27:18Z"}
