{"icao":"KJFK","metar":"KJFK 180451Z 30013G24KT 10SM FEW060 04/M07 A3001 RMK AO2 PK WND 29033/0410 SLP161 T00441072 401830028 $","updated":"2025-11-18T05:18:53Z"}
