{"icao":"LPFL","metar":"LPFL 061000Z 35005KT 310V020 9999 FEW016 22/19 Q1016","updated":"2025-10-06T10:20:05Z"}
