{"icao":"LPOV","metar":"LPOV 250900Z 30006KT CAVOK 16/13 Q1018","updated":"2026-04-25T09:51:11Z"}
