{"icao":"KLAX","metar":"KLAX 250053Z 25009KT 10SM BKN009 18/16 A2995 RMK AO2 SLP140 T01830156","updated":"2025-10-25T01:19:07Z"}
