{"icao":"KORD","metar":"KORD 100551Z 15007KT 10SM FEW250 11/05 A3030 RMK AO2 SLP260 T01110050 10144 20111 401780072 58009","updated":"2025-10-10T06:27:36Z"}
