{"icao":"LPMR","metar":"LPMR 091500Z 30006KT 260V330 9999 FEW015 18/10 Q1019","updated":"2025-11-09T15:15:30Z"}
