{"icao":"LPBJ","metar":"LPBJ 260600Z 32004KT 6000 VCFG NSC 09/09 Q1022","updated":"2026-02-26T07:02:34Z"}
