{"icao":"KORD","metar":"KORD 232051Z 05014G20KT 10SM SCT025 BKN038 BKN250 23/18 A2994 RMK AO2 SLP134 T02280178 53004","updated":"2025-09-23T21:15:16Z"}
