{"icao":"LPPD","metar":"LPPD 232130Z 02012KT 9999 FEW020 13/08 Q1025","updated":"2026-03-23T21:35:22Z"}
