{"icao":"LPLA","metar":"LPLA 241100Z 01005KT 340V040 9999 FEW025 BKN040 20/14 Q1023","updated":"2026-05-24T11:15:06Z"}
