{"icao":"LPMT","metar":"LPMT 110100Z 03007KT CAVOK 18/14 Q1019","updated":"2025-10-11T01:15:38Z"}
