{"icao":"LPCS","metar":"LPCS 111100Z 36025G38KT 9999 FEW008 SCT013 BKN018 14/11 Q1015 WS R35","updated":"2026-04-11T11:28:50Z"}
