{"icao":"KLAX","metar":"KLAX 221003Z 00000KT 2SM BR FEW002 OVC003 18/18 A2985 RMK AO2 VIS NW-N 1 T01830178 $","updated":"2025-09-22T10:20:17Z"}
