{"icao":"LPPD","metar":"LPPD 130530Z 31009KT 9999 FEW020 13/08 Q1026","updated":"2026-02-13T05:58:38Z"}
