{"icao":"LPMA","metar":"LPMA 051500Z VRB07G19KT 9999 SCT016 25/15 Q1022","updated":"2025-10-05T15:15:15Z"}
