{"icao":"LPLA","metar":"LPLA 121500Z 23015G25KT 190V260 9999 FEW022 17/12 Q1028","updated":"2026-04-12T15:34:55Z"}
