{"icao":"LPFL","metar":"LPFL 270730Z 24004KT 9999 FEW017 13/09 Q1035","updated":"2026-02-27T07:44:55Z"}
