{"icao":"LPPD","metar":"LPPD 232300Z 21006KT 9999 FEW005 SCT014 22/21 Q1017","updated":"2025-10-23T23:15:50Z"}
