{"icao":"LPFR","metar":"LPFR 151130Z 18008KT CAVOK 20/13 Q1023","updated":"2026-04-15T11:57:53Z"}
