{"icao":"LPFL","metar":"LPFL 141100Z 18005KT 140V220 9999 -RA FEW018 SCT025CB BKN035 16/12 Q1004 RETSRA","updated":"2025-10-14T11:14:59Z"}
