{"icao":"KLAX","metar":"KLAX 290253Z VRB04KT 10SM FEW250 15/09 A3011 RMK AO2 SLP196 T01500094 53005 $","updated":"2025-12-29T03:47:55Z"}
