{"icao":"LPPD","metar":"LPPD 180300Z 30017G31KT 280V340 8000 -SHRA FEW003 SCT012 FEW016TCU BKN040 15/13 Q1020 RESHRA","updated":"2025-12-18T03:19:37Z"}
