{"icao":"LPPR","metar":"LPPR 111530Z 23017G27KT 210V270 8000 BKN004 BKN012 15/15 Q1009","updated":"2026-02-11T15:59:51Z"}
