{"icao":"KORD","metar":"KORD 232151Z 02006KT 10SM FEW050 BKN250 23/11 A3016 RMK AO2 SLP211 T02330106","updated":"2026-06-23T22:11:36Z"}
