{"icao":"LPMR","metar":"LPMR 271500Z 13007KT 100V160 9999 FEW045 24/11 Q1019","updated":"2025-10-27T15:19:27Z"}
