{"icao":"LPMA","metar":"LPMA 152300Z 32004KT 300V360 9999 FEW015 15/10 Q1025","updated":"2026-01-15T23:19:35Z"}
