{"icao":"LPMA","metar":"LPMA 050530Z 01009G21KT 310V070 9000 -SHRA BKN015 FEW018CB 15/11 Q1015","updated":"2026-01-05T05:35:01Z"}
