{"icao":"LPPT","metar":"LPPT 032000Z 26003KT CAVOK 15/10 Q1021","updated":"2025-11-03T20:20:32Z"}
