{"icao":"LPPR","metar":"LPPR 060230Z 10009KT CAVOK 19/07 Q1019","updated":"2025-10-06T03:00:29Z"}
