{"icao":"KORD","metar":"KORD 132051Z 22006KT 10SM BKN130 BKN250 12/M03 A3014 RMK AO2 SLP211 T01171028 56013","updated":"2025-11-13T21:17:17Z"}
