{"icao":"LPMA","metar":"LPMA 041400Z 01015KT 9999 FEW015 22/11 Q1018","updated":"2026-04-04T14:32:42Z"}
