{"icao":"LPMA","metar":"LPMA 030500Z 24003KT 150V290 9999 FEW015 19/15 Q1021","updated":"2025-11-03T05:18:58Z"}
