{"icao":"LPBJ","metar":"LPBJ 052200Z 30007KT CAVOK 20/12 Q1019","updated":"2025-10-05T22:15:05Z"}
