{"icao":"LPFR","metar":"LPFR 032000Z 34010KT CAVOK 25/12 Q1020","updated":"2025-10-03T20:18:28Z"}
