{"icao":"LPMT","metar":"LPMT 141600Z 27009KT 6000 FEW005 SCT009 BKN015 14/14 Q1016","updated":"2026-03-14T16:30:20Z"}
