{"icao":"LPHR","metar":"LPHR 221400Z 08013KT 9999 FEW017 SCT033 17/10 Q1022","updated":"2026-03-22T14:27:11Z"}
