{"icao":"LPAZ","metar":"LPAZ 051100Z 05010KT 020V080 9999 FEW022 BKN038 13/05 Q1035","updated":"2026-03-05T11:32:30Z"}
