{"icao":"LPPR","metar":"LPPR 181900Z 33003KT 280V060 CAVOK 09/07 Q1017","updated":"2026-01-18T19:15:05Z"}
