{"icao":"LPPD","metar":"LPPD 211000Z 02020G30KT 350V050 9999 FEW012 SCT017 14/11 Q1012 WS R30","updated":"2026-03-21T10:24:55Z"}
