{"icao":"LPHR","metar":"LPHR 120800Z 30023G43KT 8000 -SHRA SCT016 FEW020TCU BKN030 13/09 Q1014","updated":"2026-01-12T08:31:02Z"}
