{"icao":"LPMT","metar":"LPMT 142300Z 34006KT CAVOK 18/15 Q1016","updated":"2026-06-15T00:07:48Z"}
