{"icao":"LPPS","metar":"LPPS 210800Z 05009KT 020V080 9999 SCT015 15/10 Q1026","updated":"2026-02-21T08:29:37Z"}
