{"icao":"LPPS","metar":"LPPS 151900Z 34020KT 9999 FEW015 18/12 Q1021","updated":"2025-12-15T19:18:40Z"}
