{"icao":"LPCS","metar":"LPCS 281000Z 28013G24KT 250V310 9999 FEW018 SCT028 15/12 Q1003","updated":"2026-01-28T10:27:02Z"}
