{"icao":"LPFR","metar":"LPFR 121230Z 11009KT 8000 FEW002 SCT025 12/11 Q1022","updated":"2026-01-12T12:44:35Z"}
