{"icao":"LPAR","metar":"LPAR 290900Z 02003KT 340V060 9999 OVC009 18/17 Q1007","updated":"2025-10-29T09:19:18Z"}
