{"icao":"LPPR","metar":"LPPR 020000Z 31004KT 270V340 2000 -DZ BR BKN004 17/16 Q1021","updated":"2026-06-02T00:12:02Z"}
