{"icao":"KLAX","metar":"KLAX 150811Z VRB03KT 10SM FEW016 SCT022 BKN030 BKN250 14/10 A3006 RMK AO2 T01440100 $","updated":"2026-02-15T08:31:55Z"}
