{"icao":"LPMR","metar":"LPMR 041300Z 31012KT 280V340 9999 SCT022 17/09 Q1017","updated":"2026-05-04T13:56:56Z"}
