{"icao":"KJFK","metar":"KJFK 121951Z 02017G30KT 6SM RA BR SCT016 OVC022 13/12 A3002 RMK AO2 PK WND 01030/1944 SLP164 P0005 T01330122","updated":"2025-10-12T20:18:08Z"}
