{"icao":"KORD","metar":"KORD 062251Z 25009KT 5SM BR OVC007 04/03 A2966 RMK AO2 SLP049 T00440033","updated":"2026-01-06T23:19:27Z"}
