{"icao":"LPBJ","metar":"LPBJ 270100Z 20015KT 9999 BKN025 BKN040 13/11 Q1007","updated":"2026-01-27T01:47:43Z"}
