{"icao":"LPBJ","metar":"LPBJ 091800Z 29007KT CAVOK 24/14 Q1018","updated":"2025-10-09T18:25:34Z"}
