{"icao":"LPPT","metar":"LPPT 271230Z 06006KT 330V100 CAVOK 15/07 Q1025","updated":"2025-11-27T12:39:35Z"}
