{"icao":"LPPT","metar":"LPPT 061930Z 14005KT 090V180 9999 FEW005 SCT045 16/16 Q1015","updated":"2026-04-06T19:54:00Z"}
