{"icao":"KORD","metar":"KORD 251451Z 29010KT 10SM FEW065 SCT250 23/15 A2993 RMK AO2 SLP130 T02330150 52003","updated":"2026-06-25T15:38:33Z"}
