{"icao":"LPFR","metar":"LPFR 300700Z 04004KT CAVOK 19/15 Q1016","updated":"2025-09-30T07:17:39Z"}
