{"icao":"LPPD","metar":"LPPD 051400Z 02011KT 340V070 9999 FEW020 BKN045 18/10 Q1026","updated":"2026-05-05T14:18:37Z"}
