{"icao":"LPHR","metar":"LPHR 291430Z 25011KT 9000 FEW006 BKN011 16/15 Q1012","updated":"2026-01-29T14:49:59Z"}
