{"icao":"LPFL","metar":"LPFL 061630Z 32018G29KT 290V350 9999 -RA SCT011 SCT014 FEW018TCU 14/12 Q1004 RERA","updated":"2026-02-06T16:42:14Z"}
