{"icao":"KORD","metar":"KORD 260051Z 32010G19KT 10SM FEW026 OVC034 M12/M18 A3012 RMK AO2 SLP214 T11221178 $","updated":"2026-01-26T01:50:26Z"}
