{"icao":"LPFL","metar":"LPFL 110800Z 33014G24KT 260V010 9999 VCSH BKN015 FEW016TCU 14/10 Q1007","updated":"2025-11-11T08:24:36Z"}
