{"icao":"LPHR","metar":"LPHR 061000Z 27013KT 8000 SCT006 SCT010 20/19 Q1011","updated":"2025-11-06T10:21:11Z"}
