{"icao":"LPAR","metar":"LPAR 201000Z 02009KT CAVOK 13/05 Q1031","updated":"2026-02-20T10:36:11Z"}
