{"icao":"LPPT","metar":"LPPT 070230Z 32008KT 9999 FEW015 12/09 Q1011","updated":"2026-05-07T02:44:48Z"}
