{"icao":"LPLA","metar":"LPLA 250400Z 10007KT 070V140 9999 OVC027 14/08 Q1031","updated":"2026-03-25T04:52:25Z"}
