{"icao":"LPOV","metar":"LPOV 011600Z 34008KT 280V340 9999 FEW015 19/11 Q1018","updated":"2026-05-01T16:58:06Z"}
