{"icao":"LPAZ","metar":"LPAZ 201200Z 04010KT 320V070 9999 FEW030 SCT046 22/13 Q1028","updated":"2025-09-20T12:32:32Z"}
