{"icao":"LPPS","metar":"LPPS 302100Z 03014G24KT 350V060 9999 BKN015 21/16 Q1023","updated":"2026-06-30T21:27:10Z"}
