{"icao":"LPPR","metar":"LPPR 061400Z 01009KT 330V050 9999 FEW040 10/01 Q1024","updated":"2026-01-06T14:21:18Z"}
