{"icao":"LPBJ","metar":"LPBJ 051606Z 26018KT 6000 2500N -SHRA SCT030 17/12 Q1011","updated":"2025-11-05T16:24:23Z"}
