{"icao":"KORD","metar":"KORD 070751Z 19011KT 10SM RA SCT031 BKN070 OVC110 09/04 A2962 RMK AO2 RAE23B40 SLP029 P0003 T00940044 $","updated":"2025-11-07T08:25:26Z"}
