{"icao":"LPFR","metar":"LPFR 082300Z 23013KT 8000 -DZRA SCT003 BKN005 15/15 Q1013","updated":"2026-02-08T23:29:17Z"}
