{"icao":"LPBJ","metar":"LPBJ 031200Z VRB03KT CAVOK 22/03 Q1023","updated":"2026-04-03T13:01:03Z"}
