{"icao":"LPPS","metar":"LPPS 221300Z 21014G24KT 160V250 9999 FEW015 18/10 Q1013","updated":"2026-04-22T13:24:45Z"}
