{"icao":"LPMA","metar":"LPMA 081600Z 03009KT 350V050 9999 VCSH BKN015 17/13 Q1033","updated":"2026-01-08T16:28:56Z"}
