{"icao":"LPMA","metar":"LPMA 141400Z 36011KT 320V030 9999 SCT015TCU 18/13 Q1020 RERA","updated":"2026-05-14T14:08:05Z"}
