{"icao":"KJFK","metar":"KJFK 281451Z 35010G21KT 10SM FEW060 FEW120 02/M12 A3045 RMK AO2 SLP310 T00221117 51031","updated":"2026-03-28T15:29:26Z"}
