{"icao":"LPLA","metar":"LPLA 282300Z 08006KT 040V120 9999 FEW020 BKN030 15/10 Q1036","updated":"2026-03-28T23:29:43Z"}
