{"icao":"LPAZ","metar":"LPAZ 280630Z 25027KT 7000 SCT006 BKN010 17/16 Q1009","updated":"2026-01-28T06:34:56Z"}
