{"icao":"LPPS","metar":"LPPS 120600Z 30013KT 7000 -RA SCT007 BKN010 16/15 Q1004","updated":"2025-11-12T06:28:32Z"}
