{"icao":"KJFK","metar":"KJFK 151151Z 35003KT 10SM FEW060 BKN210 BKN250 03/M02 A2991 RMK AO2 SLP128 T00331017 10078 20017 51001","updated":"2025-11-15T12:34:32Z"}
