{"icao":"LPMA","metar":"LPMA 080800Z 27003KT 220V350 9999 FEW015 SCT060 16/11 Q1023","updated":"2026-02-08T08:31:54Z"}
