{"icao":"KJFK","metar":"KJFK 061651Z 20010KT 10SM FEW030 23/16 A3029 RMK AO2 SLP256 T02280161","updated":"2025-10-06T17:16:09Z"}
