{"icao":"LPHR","metar":"LPHR 011600Z 29030G42KT 9999 SCT020 FEW025TCU SCT040 14/05 Q1009 WS R28","updated":"2026-02-01T16:28:24Z"}
