{"icao":"LPOV","metar":"LPOV 121000Z 13003KT 070V160 7000 -RA FEW015 12/11 Q1014","updated":"2025-12-12T17:18:09Z"}
