{"icao":"KJFK","metar":"KJFK 101151Z 36010KT 10SM BKN200 BKN250 07/02 A3020 RMK AO2 SLP226 T00720017 10111 20072 53010 $","updated":"2026-01-10T12:37:56Z"}
