{"icao":"LPMA","metar":"LPMA 040600Z 32006KT 280V360 9999 SCT015 FEW018TCU 16/12 Q1026","updated":"2025-12-04T06:30:33Z"}
