{"icao":"KORD","metar":"KORD 132151Z 17004KT 10SM SCT047 BKN065 BKN100 BKN250 20/10 A3009 RMK AO2 SLP186 T02000100 $","updated":"2025-10-13T22:16:50Z"}
