{"icao":"LPPS","metar":"LPPS 061630Z 02010KT 350V060 9999 SCT015 BKN030 15/07 Q1027","updated":"2026-03-06T16:40:01Z"}
