{"icao":"KJFK","metar":"KJFK 141651Z 29012KT 10SM BKN049 BKN085 BKN250 10/M01 A3004 RMK AO2 SLP172 T01001011","updated":"2025-11-14T17:17:00Z"}
