{"icao":"KJFK","metar":"KJFK 141751Z 30013G20KT 10SM FEW048 BKN060 BKN250 10/M02 A3001 RMK AO2 PK WND 32028/1723 SLP163 T01001022 10111 20050 58030","updated":"2025-11-14T18:26:37Z"}
