{"icao":"LPST","metar":"LPST 131600Z 29007KT 9999 FEW024 26/13 Q1015","updated":"2025-10-14T01:18:18Z"}
