{"icao":"LPCS","metar":"LPCS 051830Z 28005KT 250V310 CAVOK 22/06 Q1019","updated":"2026-04-05T18:41:29Z"}
