{"icao":"KLAX","metar":"KLAX 220653Z 25007KT 3/4SM R25L/P6000FT BR OVC002 16/15 A2993 RMK AO2 SLP131 VIS W 1/2 T01560150","updated":"2026-03-22T07:37:34Z"}
