{"icao":"LPPD","metar":"LPPD 301700Z 26007KT 9999 VCSH SCT014 BKN025 17/15 Q1026","updated":"2025-11-30T17:15:28Z"}
