{"icao":"LPOV","metar":"LPOV 261000Z 05003KT CAVOK 17/12 Q1020","updated":"2025-10-26T10:16:55Z"}
