{"icao":"LPBJ","metar":"LPBJ 081100Z 30006KT 230V350 9999 FEW030 13/08 Q1021","updated":"2026-03-08T11:19:58Z"}
