{"icao":"LPLA","metar":"LPLA 141900Z 32019KT 9999 SCT030 15/08 Q1008","updated":"2025-11-14T19:14:35Z"}
