{"icao":"LPMA","metar":"LPMA 061100Z 15006KT 080V210 9999 FEW015 19/07 Q1019","updated":"2026-02-06T11:32:43Z"}
