{"icao":"KORD","metar":"KORD 242251Z 18005KT 10SM CLR 11/M09 A3022 RMK AO2 SLP240 T01061094","updated":"2026-03-24T23:31:11Z"}
