{"icao":"KORD","metar":"KORD 022151Z 31005KT 10SM FEW150 BKN250 M05/M15 A2996 RMK AO2 SLP154 T10501150 $","updated":"2026-01-02T22:19:12Z"}
