{"icao":"LPAR","metar":"LPAR 141000Z 35009KT 320V020 9999 SCT025 14/06 Q1026","updated":"2026-02-14T10:25:32Z"}
