{"icao":"LPPS","metar":"LPPS 151700Z 07016KT 9999 SCT015 SCT030 24/17 Q1022","updated":"2025-09-15T17:14:57Z"}
