{"icao":"KLAX","metar":"KLAX 100053Z 24013G20KT 10SM FEW015 FEW060 18/14 A2990 RMK AO2 SLP122 T01780139 $","updated":"2026-03-10T01:55:20Z"}
