{"icao":"KORD","metar":"KORD 271051Z 01005KT 10SM BKN055 17/15 A3000 RMK AO2 SLP156 T01720150 $","updated":"2026-06-27T11:25:39Z"}
