{"icao":"LPMA","metar":"LPMA 022000Z 01014KT 340V040 9999 FEW016 20/03 Q1022","updated":"2026-04-02T20:33:59Z"}
