{"icao":"LPBJ","metar":"LPBJ 161700Z 31010KT 9999 OVC023 14/10 Q1030","updated":"2026-02-16T17:36:37Z"}
