{"icao":"LPLA","metar":"LPLA 112300Z 25005KT 180V310 9999 FEW025 15/09 Q1013","updated":"2026-01-11T23:18:36Z"}
