{"icao":"LPPR","metar":"LPPR 042100Z 25003KT 220V300 9999 FEW035 SCT045 13/09 Q1019","updated":"2025-12-04T21:18:09Z"}
