{"icao":"LPFR","metar":"LPFR 120930Z 33022KT CAVOK 16/04 Q1016","updated":"2026-04-12T09:43:17Z"}
