{"icao":"LPLA","metar":"LPLA 251500Z VRB06G17KT 9999 SCT022 SCT035 19/14 Q1021","updated":"2025-10-25T15:15:36Z"}
