{"icao":"KORD","metar":"KORD 200751Z 24008KT 10SM -TSRA BKN070CB BKN110 OVC250 22/16 A3003 RMK AO2 RAB43 TSB23 SLP164 OCNL LTGICCG S TS S MOV N P0000 T02170161","updated":"2025-09-20T08:20:15Z"}
