{"icao":"LPCS","metar":"LPCS 211900Z 28008KT 240V300 9999 SCT003 BKN008 20/20 Q1016","updated":"2025-10-21T19:15:03Z"}
