{"icao":"LPBJ","metar":"LPBJ 230900Z 05011KT CAVOK 20/02 Q1018","updated":"2025-09-23T09:18:57Z"}
