{"icao":"LPPR","metar":"LPPR 140900Z 17003KT 150V240 4500 BR FEW002 SCT016 11/10 Q1018","updated":"2026-01-14T09:27:36Z"}
