{"icao":"LPOV","metar":"LPOV 112300Z 29004KT 260V330 9999 BKN020 BKN030 14/12 Q1016","updated":"2026-02-11T23:30:43Z"}
