{"icao":"LPAR","metar":"LPAR 081100Z 18003KT 150V220 9999 BKN030 10/09 Q1033","updated":"2026-01-08T11:19:46Z"}
