{"icao":"KORD","metar":"KORD 300251Z 03010KT 10SM BKN250 19/11 A2996 RMK AO2 SLP141 T01940111 53006 $","updated":"2026-05-30T02:55:18Z"}
