{"icao":"LPBJ","metar":"LPBJ 270500Z 07001KT CAVOK 14/13 Q1014","updated":"2026-04-27T05:52:31Z"}
