{"icao":"LPPR","metar":"LPPR 310430Z 08004KT 050V110 8000 NSC 06/05 Q1019","updated":"2025-12-31T04:36:59Z"}
