{"icao":"KJFK","metar":"KJFK 080251Z 32015G26KT 10SM SCT030 07/01 A2998 RMK AO2 PK WND 30028/0219 SLP153 T00670006 51025 $","updated":"2026-01-08T03:29:14Z"}
