{"icao":"LPMA","metar":"LPMA 252000Z 32004KT 300V010 9999 FEW016 16/10 Q1025","updated":"2026-01-25T20:22:37Z"}
