{"icao":"LPPD","metar":"LPPD 041600Z 01010KT 340V060 9999 FEW020 15/10 Q1021","updated":"2026-01-04T16:23:24Z"}
