{"icao":"LPMA","metar":"LPMA 101830Z 04007KT 360V090 9999 FEW016 18/10 Q1015","updated":"2026-05-10T19:01:33Z"}
