{"icao":"KJFK","metar":"KJFK 061151Z 32012KT 10SM BKN050 09/01 A2996 RMK AO2 PK WND 30030/1128 SLP144 T00890006 10133 20089 51039 $","updated":"2025-11-06T12:38:22Z"}
