{"icao":"LPPD","metar":"LPPD 290500Z 33003KT 290V360 9999 FEW022 13/08 Q1028","updated":"2025-11-29T05:18:05Z"}
