{"icao":"LPPT","metar":"LPPT 280300Z 31005KT CAVOK 19/13 Q1018","updated":"2026-05-28T03:28:23Z"}
