{"icao":"LPPR","metar":"LPPR 260930Z 04010G21KT 360V080 CAVOK 14/04 Q1021","updated":"2026-03-26T10:00:06Z"}
