{"icao":"LPFL","metar":"LPFL 120630Z 02006KT 350V060 9999 FEW023 SCT049 15/07 Q1028","updated":"2026-05-12T06:35:17Z"}
