{"icao":"LPMR","metar":"LPMR 120900Z 15007KT CAVOK 22/12 Q1018","updated":"2025-10-12T09:15:39Z"}
