{"icao":"LPAR","metar":"LPAR 311000Z 07007KT 030V100 CAVOK 20/09 Q1027","updated":"2026-03-31T10:10:05Z"}
