{"icao":"LPPS","metar":"LPPS 072000Z 04007KT 350V070 9999 FEW012 21/18 Q1025","updated":"2025-10-07T20:19:34Z"}
