{"icao":"KLAX","metar":"KLAX 171853Z VRB05KT 10SM FEW220 FEW260 BKN300 24/02 A3008 RMK AO2 SLP185 T02440017 $","updated":"2026-01-17T19:14:14Z"}
