{"icao":"LPPS","metar":"LPPS 051400Z 04009KT 010V080 9999 SCT014 19/14 Q1016","updated":"2026-04-05T14:34:23Z"}
