{"icao":"LPMR","metar":"LPMR 150800Z 17007KT 7000 -RA FEW015 FEW018CB BKN024 14/13 Q1004","updated":"2025-11-15T08:21:11Z"}
