{"icao":"KORD","metar":"KORD 020551Z 14004KT 10SM BKN250 18/09 A3022 RMK AO2 SLP229 T01830089 10211 20183 402440172 53008","updated":"2025-10-02T06:26:09Z"}
