{"icao":"LPFR","metar":"LPFR 020200Z 34008KT CAVOK 15/07 Q1019","updated":"2026-04-02T02:09:10Z"}
