{"icao":"LPOV","metar":"LPOV 201200Z 29007KT CAVOK 20/13 Q1023","updated":"2026-05-20T12:22:34Z"}
