{"icao":"LPPD","metar":"LPPD 010100Z 16006KT 8000 BKN003 BKN025 22/21 Q1021","updated":"2025-10-01T01:26:48Z"}
