{"icao":"KLAX","metar":"KLAX 052053Z 24010KT 10SM CLR 23/16 A2978 RMK AO2 SLP082 T02280161 58020 $","updated":"2025-10-05T21:14:24Z"}
