{"icao":"LPPD","metar":"LPPD 292000Z 26017KT 8000 SCT006 SCT011 16/15 Q1014","updated":"2026-01-29T20:28:30Z"}
