{"icao":"LPMA","metar":"LPMA 180430Z 30004KT 240V330 9999 BKN013 FEW018CB 14/12 Q1000","updated":"2026-03-18T04:55:03Z"}
