{"icao":"LPST","metar":"LPST 170700Z VRB01KT 0300 FG BKN001 10/09 Q1021","updated":"2025-09-17T07:16:27Z"}
