{"icao":"LPLA","metar":"LPLA 190800Z 10006KT 080V160 9999 3000W -RA FEW012 SCT018 BKN030 16/13 Q1015","updated":"2026-05-19T08:33:55Z"}
