{"icao":"LPFL","metar":"LPFL 221600Z 18017G27KT 150V210 9999 VCSH FEW007 BKN009 17/16 Q1012","updated":"2026-02-22T16:28:37Z"}
