{"icao":"KLAX","metar":"KLAX 261853Z 23014KT 10SM SCT024 SCT055 17/09 A2996 RMK AO2 SLP144 T01720094 $","updated":"2026-04-26T19:44:52Z"}
