{"icao":"LPPD","metar":"LPPD 211000Z 19011G22KT 160V220 9999 FEW007 BKN045 16/15 Q1024","updated":"2026-02-21T10:24:28Z"}
