{"icao":"KLAX","metar":"KLAX 210853Z 26004KT 10SM FEW016 SCT020 BKN250 15/12 A3002 RMK AO2 SLP165 T01500117 50001 $","updated":"2026-04-21T09:24:23Z"}
