{"icao":"KLAX","metar":"KLAX 261653Z 11003KT 7SM FEW025 SCT180 BKN250 18/13 A3009 RMK AO2 SLP189 T01780133","updated":"2026-02-26T16:57:49Z"}
