{"icao":"LPMR","metar":"LPMR 261300Z 22017G27KT 7000 BKN009 BKN025 16/13 Q1011","updated":"2026-01-26T13:42:59Z"}
