{"icao":"LPPD","metar":"LPPD 101000Z 17008KT 9999 FEW012 SCT040 21/19 Q1023","updated":"2025-10-10T10:19:18Z"}
