{"icao":"KORD","metar":"KORD 190711Z 30006KT 3/4SM R10L/P6000FT -SN BR VV012 M08/M11 A2982 RMK AO2 P0000 T10831111 $","updated":"2026-01-19T07:28:25Z"}
