{"icao":"KJFK","metar":"KJFK 150451Z 11003KT 10SM FEW030 SCT110 BKN250 19/17 A3013 RMK AO2 SLP201 T01890172 402610172 $","updated":"2025-09-15T05:17:53Z"}
