{"icao":"LPPT","metar":"LPPT 140700Z 32006KT 280V360 9999 BKN015 12/10 Q1019","updated":"2026-03-14T07:33:27Z"}
