{"icao":"LPAR","metar":"LPAR 021600Z 30006KT 250V330 9999 FEW020 15/08 Q1017","updated":"2025-12-02T16:27:07Z"}
