{"icao":"LPPS","metar":"LPPS 270700Z 05008KT 9999 FEW015 17/11 Q1022","updated":"2025-11-27T07:19:45Z"}
