{"icao":"KORD","metar":"KORD 062251Z 16012KT 10SM BKN170 BKN250 OVC300 13/M05 A2995 RMK AO2 PRESFR SLP146 FU FEW002 T01331050","updated":"2025-11-06T23:17:14Z"}
