{"icao":"LPLA","metar":"LPLA 291800Z 31011KT 9999 SCT007 BKN015 BKN025 17/16 Q1028","updated":"2025-11-29T18:25:28Z"}
