{"icao":"LPMA","metar":"LPMA 162030Z 34005KT 310V010 9999 SCT008 BKN013 16/11 Q1014","updated":"2026-03-16T20:37:01Z"}
