{"icao":"LPHR","metar":"LPHR 270800Z 15013KT 8000 -DZ SCT003 BKN005 16/16 Q1017","updated":"2026-04-27T08:22:54Z"}
