{"icao":"LPMT","metar":"LPMT 110000Z 34006KT CAVOK 19/11 Q1017","updated":"2026-06-11T00:13:20Z"}
