{"icao":"LPPD","metar":"LPPD 041230Z 23021G31KT 8000 FEW009 BKN013 16/15 Q0996","updated":"2026-02-04T12:56:48Z"}
