{"icao":"LPPD","metar":"LPPD 252030Z 02009KT 350V060 9999 FEW016 BKN030 14/11 Q1029","updated":"2026-03-25T20:37:32Z"}
