{"icao":"LPMA","metar":"LPMA 011700Z 20015KT 9999 FEW015 23/17 Q1017","updated":"2025-11-01T17:13:53Z"}
