{"icao":"LPST","metar":"LPST 201000Z VRB01KT 9999 FEW016 09/08 Q1020","updated":"2026-01-20T10:26:11Z"}
