{"icao":"LPFL","metar":"LPFL 280730Z 19017G27KT 150V210 3000 -RADZ FEW008 BKN012 FEW015CB 17/15 Q1009 RERA","updated":"2026-05-28T07:55:47Z"}
