{"icao":"LPPD","metar":"LPPD 041230Z 20005KT 170V230 9999 FEW025 BKN045 15/08 Q1024","updated":"2026-04-04T12:53:31Z"}
