{"icao":"LPMA","metar":"LPMA 051930Z 21006KT 180V270 9999 SCT015 FEW016TCU 17/10 Q1011","updated":"2026-02-05T19:35:52Z"}
