{"icao":"LPSJ","metar":"LPSJ 201500Z 29014KT 250V320 9999 SCT012 SCT020 20/16 Q1010","updated":"2026-06-21T08:56:21Z"}
