{"icao":"LPMR","metar":"LPMR 280900Z 02007KT 9999 13/05 Q1023","updated":"2026-03-28T09:35:54Z"}
