{"icao":"KLAX","metar":"KLAX 131053Z 00000KT 10SM CLR 12/02 A3017 RMK AO2 SLP213 T01170022 $","updated":"2026-01-13T11:19:33Z"}
