{"icao":"KLAX","metar":"KLAX 031212Z 19004KT 6SM BR FEW002 SCT008 BKN012 19/18 A2997 RMK AO2 T01940178 $","updated":"2025-10-03T12:35:14Z"}
