{"icao":"LPPT","metar":"LPPT 241930Z 34004KT 310V010 CAVOK 23/15 Q1019","updated":"2026-05-24T20:03:29Z"}
