{"icao":"LPPS","metar":"LPPS 220500Z 03005KT 360V060 9999 SCT012 SCT030 22/20 Q1020","updated":"2025-10-22T05:18:00Z"}
