{"icao":"LPFR","metar":"LPFR 131600Z 18022KT 8000 FEW008 SCT020 BKN035 19/17 Q1001","updated":"2025-11-13T16:22:25Z"}
