{"icao":"LPPR","metar":"LPPR 281700Z 34012KT CAVOK 13/07 Q1025","updated":"2026-02-28T17:19:13Z"}
