{"icao":"LPCS","metar":"LPCS 111000Z 36029G40KT 9999 VCSH FEW008 SCT013 15/12 Q1014 WS R35","updated":"2026-04-11T10:32:38Z"}
