{"icao":"LPAR","metar":"LPAR 230900Z 32007KT 290V350 9999 FEW045 18/11 Q1014","updated":"2026-04-23T09:26:19Z"}
