{"icao":"LPBJ","metar":"LPBJ 261700Z 25004KT CAVOK 10/01 Q1013","updated":"2025-12-26T17:16:17Z"}
