{"icao":"LPPS","metar":"LPPS 082300Z 06010KT 030V090 9999 SCT015 21/16 Q1026","updated":"2025-10-08T23:15:33Z"}
