{"icao":"LPPS","metar":"LPPS 011130Z 08009KT 050V120 9999 FEW014 18/13 Q1024","updated":"2026-04-01T11:52:27Z"}
