{"icao":"KJFK","metar":"KJFK 271851Z 24013KT 10SM FEW055 SCT190 BKN250 24/19 A2982 RMK AO2 SLP099 T02390194","updated":"2026-05-27T19:23:23Z"}
