{"icao":"LPPR","metar":"LPPR 191230Z 03006KT 340V070 9999 FEW030 14/07 Q1018","updated":"2025-11-19T12:39:19Z"}
