{"icao":"LPHR","metar":"LPHR 220900Z 29023G34KT 9999 SCT025 13/07 Q1001","updated":"2026-04-22T09:18:56Z"}
