{"icao":"LPFL","metar":"LPFL 280800Z 28011G23KT 230V340 3000 -DZRA SCT006 BKN009 18/15 Q1028","updated":"2026-02-28T08:27:45Z"}
