{"icao":"LPFR","metar":"LPFR 271500Z 06014KT 9999 -RA FEW014 FEW018CB BKN020 12/11 Q1004","updated":"2025-12-27T15:18:04Z"}
