{"icao":"LPMT","metar":"LPMT 241800Z 26010KT 9999 FEW030 22/18 Q1013","updated":"2026-06-24T18:50:01Z"}
