{"icao":"KLAX","metar":"KLAX 011153Z 27005KT 10SM BKN015 OVC035 18/14 A2990 RMK AO2 SLP124 T01780144 10183 20178 53000 $","updated":"2026-07-01T12:05:57Z"}
