{"icao":"KJFK","metar":"KJFK 060851Z 31022G32KT 10SM FEW055 SCT075 SCT250 06/M03 A2997 RMK AO2 PK WND 33034/0829 SLP147 T00611033 53015","updated":"2026-04-06T09:07:22Z"}
