{"icao":"LPFR","metar":"LPFR 031100Z 16012KT 8000 SCT014 FEW018CB SCT022 16/14 Q0999","updated":"2026-01-03T11:15:58Z"}
