{"icao":"LPBJ","metar":"LPBJ 170400Z 19004KT CAVOK 16/15 Q1014","updated":"2025-10-17T04:21:08Z"}
