{"icao":"LPMA","metar":"LPMA 111700Z 04005KT 340V110 9999 BKN015 17/13 Q1025","updated":"2026-01-11T17:16:52Z"}
