{"icao":"KORD","metar":"KORD 231433Z 01019KT 10SM OVC030 M07/M14 A3045 RMK AO2 PK WND 36027/1422 SNE32 P0000 T10671139 $","updated":"2026-02-23T14:43:51Z"}
