{"icao":"LPAR","metar":"LPAR 301400Z 01011KT CAVOK 32/17 Q1019","updated":"2026-06-30T15:25:17Z"}
