{"icao":"LPMT","metar":"LPMT 241000Z 02004KT 310V060 9999 FEW026 19/13 Q1018","updated":"2026-04-24T10:19:40Z"}
