{"icao":"LPMA","metar":"LPMA 271500Z 11004KT 060V140 9999 FEW016 26/19 Q1021","updated":"2025-09-27T15:14:34Z"}
