{"icao":"LPMT","metar":"LPMT 201400Z 35010KT 310V020 9999 FEW040 15/06 Q1020","updated":"2025-11-20T14:18:38Z"}
