{"icao":"LPLA","metar":"LPLA 101716Z 22024G34KT 3500 RA BR FEW008 BKN012 BKN018 20/18 Q1010","updated":"2025-12-10T17:21:02Z"}
