{"icao":"LPPT","metar":"LPPT 030900Z 06006KT 360V100 CAVOK 13/11 Q1024","updated":"2025-11-03T09:22:12Z"}
