{"icao":"LPBJ","metar":"LPBJ 202300Z 18007KT CAVOK 09/08 Q1017","updated":"2026-01-20T23:20:41Z"}
