{"icao":"KORD","metar":"KORD 100551Z VRB05KT 10SM FEW250 09/03 A2991 RMK AO2 SLP127 T00940028 10206 20094 402390094 53025","updated":"2026-05-10T06:11:07Z"}
