{"icao":"LPMA","metar":"LPMA 101800Z 35008KT 310V030 9999 SCT015 22/15 Q1021","updated":"2025-10-10T18:25:25Z"}
