{"icao":"LPPR","metar":"LPPR 150400Z 01002KT 9000 4000N VCFG NSC 13/12 Q1016","updated":"2025-10-15T04:20:56Z"}
