{"icao":"LPMR","metar":"LPMR 142300Z 13003KT CAVOK 10/09 Q1016","updated":"2025-12-14T23:17:12Z"}
