{"icao":"KLAX","metar":"KLAX 242253Z 05007KT 10SM -RA FEW030 BKN050 BKN070 15/14 A2987 RMK AO2 SLP115 VIS 2V3 P0006 T01500139 $","updated":"2025-12-24T23:18:32Z"}
