{"icao":"LPPR","metar":"LPPR 071000Z 30005KT 260V330 9000 VCSH SCT005 BKN023 18/17 Q1013","updated":"2025-11-07T10:19:59Z"}
