{"icao":"LPFL","metar":"LPFL 121330Z 24009KT 190V350 9999 SCT016 19/13 Q1029","updated":"2026-03-12T14:04:40Z"}
