{"icao":"LPOV","metar":"LPOV 221000Z 30007KT CAVOK 23/16 Q1021","updated":"2026-05-22T10:48:50Z"}
