{"icao":"LPAZ","metar":"LPAZ 090130Z 20009KT 9999 FEW017 SCT035 16/14 Q1033","updated":"2026-01-09T01:41:28Z"}
