{"icao":"LPPT","metar":"LPPT 130300Z 17018KT 9999 -RA FEW004 BKN008 13/12 Q1008","updated":"2026-01-13T03:26:45Z"}
