{"icao":"LPPR","metar":"LPPR 151900Z VRB02KT 0600 R17/0750N FG VV001 15/15 Q1016","updated":"2025-10-15T19:13:55Z"}
