{"icao":"LPOV","metar":"LPOV 101400Z 23011KT 0900 FG BKN002 BKN006 15/15 Q1012","updated":"2026-02-10T14:56:58Z"}
