{"icao":"LPMT","metar":"LPMT 160900Z 25005KT 9999 FEW015 BKN030 13/12 Q1032","updated":"2026-02-16T09:52:46Z"}
