{"icao":"LPPS","metar":"LPPS 230900Z 12006KT 090V150 9999 FEW015 18/12 Q1014","updated":"2026-04-23T09:26:20Z"}
