{"icao":"KJFK","metar":"KJFK 081751Z 31021G31KT 10SM CLR M11/M22 A3014 RMK AO2 PK WND 31031/1746 SLP206 4/005 933010 T11061217 11106 21161 58011 $","updated":"2026-02-08T18:35:49Z"}
