{"icao":"LPPD","metar":"LPPD 220900Z 20011KT 180V240 9999 FEW007 SCT012 BKN025 22/21 Q1015","updated":"2025-10-22T09:20:49Z"}
