{"icao":"LPFL","metar":"LPFL 230900Z 33008KT 230V020 9000 -SHRA FEW013 SCT019 FEW021TCU 14/09 Q1004","updated":"2026-04-23T09:26:20Z"}
