{"icao":"LPMA","metar":"LPMA 212100Z 33007KT 250V050 9999 SCT015 16/11 Q1020","updated":"2025-12-21T21:17:04Z"}
