{"icao":"KORD","metar":"KORD 041151Z 01006KT 10SM BKN032 M04/M12 A3014 RMK AO2 SLP215 T10441117 11039 21044 51007 $","updated":"2026-01-04T12:38:27Z"}
