{"icao":"LPLA","metar":"LPLA 060122Z 22023G34KT 180V240 9999 BKN016 SCT030 19/16 Q1014 RERA","updated":"2025-12-06T01:22:29Z"}
