{"icao":"LPPS","metar":"LPPS 271500Z 06009KT 030V090 9999 SCT015 20/11 Q1021","updated":"2025-11-27T15:19:21Z"}
