{"icao":"KORD","metar":"KORD 222051Z 28016G24KT 10SM OVC031 09/02 A2989 RMK AO2 PK WND 26028/2016 SLP123 T00890017 53010","updated":"2025-10-22T21:13:40Z"}
