{"icao":"LPPD","metar":"LPPD 261400Z 28032G46KT 9000 VCSH FEW020 FEW025CB BKN030 14/08 Q1004","updated":"2026-01-26T14:27:32Z"}
