{"icao":"LPAZ","metar":"LPAZ 251800Z 19006KT 160V240 9999 FEW015 SCT020 20/17 Q1023","updated":"2026-05-25T18:24:26Z"}
