{"icao":"LPMT","metar":"LPMT 171900Z 03003KT 350V100 9999 SCT016 SCT025 08/08 Q1010","updated":"2026-01-17T19:14:11Z"}
