{"icao":"KORD","metar":"KORD 080151Z 08008KT 10SM FEW110 OVC250 00/M06 A3039 RMK AO2 SLP298 T00001061 $","updated":"2026-04-08T02:22:54Z"}
