{"icao":"KORD","metar":"KORD 060751Z 09004KT 10SM BKN095 03/01 A2964 RMK AO2 SLP040 T00280006","updated":"2026-01-06T08:29:10Z"}
