{"icao":"LPPT","metar":"LPPT 011700Z 32011KT CAVOK 27/12 Q1019","updated":"2025-10-01T17:15:42Z"}
