{"icao":"LPLA","metar":"LPLA 210700Z 28019KT 9999 SCT007 BKN015 17/16 Q1020","updated":"2026-01-21T07:27:23Z"}
