{"icao":"LPHR","metar":"LPHR 031800Z 24006KT 9999 SCT005 SCT014 23/22 Q1022","updated":"2025-10-03T18:24:20Z"}
