{"icao":"LPFL","metar":"LPFL 161400Z VRB05KT 9999 FEW020 BKN034 15/08 Q1036","updated":"2026-01-16T14:22:10Z"}
