{"icao":"LPFL","metar":"LPFL 181930Z 18016KT 160V220 9999 FEW017 16/12 Q1021","updated":"2026-02-18T19:47:17Z"}
