{"icao":"LPLA","metar":"LPLA 161900Z 29006KT 9000 -RA FEW015 BKN018 16/14 Q1018","updated":"2026-04-16T19:10:58Z"}
