{"icao":"LPPT","metar":"LPPT 171300Z 23006KT 190V270 CAVOK 26/13 Q1014","updated":"2025-10-17T13:26:39Z"}
