{"icao":"LPMA","metar":"LPMA 171030Z 05004KT 010V160 9999 SCT014 17/11 Q1028","updated":"2026-02-17T10:43:23Z"}
