{"icao":"LPLA","metar":"LPLA 230840Z 19034G50KT 1500 +RA SCT009 BKN014 BKN018 17/15 Q1007","updated":"2026-02-23T08:50:06Z"}
