{"icao":"LPBJ","metar":"LPBJ 230200Z 31003KT 270V340 CAVOK 12/07 Q1016","updated":"2025-09-23T02:56:32Z"}
