{"icao":"LPMA","metar":"LPMA 211400Z 15004KT 110V230 9999 FEW016 20/12 Q1020","updated":"2026-01-21T14:30:03Z"}
