{"icao":"LPAZ","metar":"LPAZ 081300Z 17010KT 140V200 9999 SCT010 26/22 Q1026","updated":"2025-10-08T13:28:30Z"}
