{"icao":"LPBJ","metar":"LPBJ 160500Z 28006KT 0500 FG VV002 09/09 Q1016","updated":"2026-01-16T05:24:14Z"}
