{"icao":"LPST","metar":"LPST 051500Z 27009KT 240V300 6000 SCT007 BKN012 16/15 Q1021","updated":"2025-12-05T15:20:18Z"}
