{"icao":"LPOV","metar":"LPOV 110600Z 14001KT 6000 FEW020 07/07 Q1025","updated":"2026-03-11T06:52:13Z"}
