{"icao":"LPMA","metar":"LPMA 261400Z 21018G32KT 170V240 9999 SCT016 18/13 Q1020","updated":"2026-01-26T14:27:48Z"}
