{"icao":"LPBJ","metar":"LPBJ 262100Z 27007KT CAVOK 19/03 Q1019","updated":"2025-09-26T21:14:24Z"}
