{"icao":"LPBJ","metar":"LPBJ 250400Z 18006KT 9999 FEW015 SCT045 17/16 Q1016","updated":"2026-06-25T05:03:33Z"}
