{"icao":"LPFL","metar":"LPFL 070600Z 33017G31KT 300V360 9999 SCT016 15/10 Q1016","updated":"2026-05-07T06:09:10Z"}
