{"icao":"LPLA","metar":"LPLA 141400Z 19007KT 150V240 9000 -RA FEW018 BKN030 17/14 Q1006 RETSRA","updated":"2025-10-14T14:18:31Z"}
