{"icao":"KLAX","metar":"KLAX 100153Z 27009KT 7SM OVC007 16/14 A2988 RMK AO2 SLP117 T01610139","updated":"2026-05-10T02:49:59Z"}
