{"icao":"LPHR","metar":"LPHR 281830Z 14008KT 100V160 9999 FEW015 BKN025 15/12 Q1034","updated":"2026-03-28T18:39:02Z"}
