{"icao":"LPAR","metar":"LPAR 081600Z 35011KT 320V040 9999 FEW028 25/14 Q1021","updated":"2026-06-09T00:03:56Z"}
