{"icao":"LPPT","metar":"LPPT 230430Z 24007KT 9999 FEW011 FEW020TCU SCT048 12/11 Q1012","updated":"2025-12-23T04:36:23Z"}
