{"icao":"LPMT","metar":"LPMT 010400Z 24009KT 2500 -DZ BR BKN005 BKN012 15/15 Q1015","updated":"2026-02-01T04:59:44Z"}
