{"icao":"KLAX","metar":"KLAX 252053Z 25009KT 10SM FEW140 22/12 A3004 RMK AO2 SLP171 T02170117 58022","updated":"2025-11-25T21:17:37Z"}
