{"icao":"LPPR","metar":"LPPR 110600Z 13006KT 100V190 9999 FEW020 09/07 Q1020","updated":"2025-12-11T06:31:59Z"}
