{"icao":"KORD","metar":"KORD 040251Z 16006KT 10SM CLR 24/16 A3011 RMK AO2 SLP193 T02440161 51004 $","updated":"2025-10-04T03:22:51Z"}
