{"icao":"LPLA","metar":"LPLA 021100Z 08010KT 050V110 9999 SCT018 17/13 Q1021","updated":"2026-05-02T11:43:20Z"}
