{"icao":"LPFL","metar":"LPFL 241800Z 15006KT 130V190 9999 -SHRA FEW008 BKN012 FEW017CB 18/17 Q1018 RESHRA","updated":"2025-12-24T18:28:44Z"}
