{"icao":"KLAX","metar":"KLAX 150853Z 07004KT 10SM FEW014 BKN038 BKN050 14/12 A2999 RMK AO2 SLP154 60012 T01390117 50002 $","updated":"2025-10-15T09:19:44Z"}
