{"icao":"KORD","metar":"KORD 130151Z 11004KT 10SM FEW090 M01/M04 A3023 RMK AO2 SLP244 T10061039 $","updated":"2026-02-13T02:08:23Z"}
