{"icao":"KJFK","metar":"KJFK 171451Z 27007KT 230V310 10SM SCT250 26/15 A3006 RMK AO2 SLP178 T02610150 51008 $","updated":"2026-05-17T14:55:04Z"}
