{"icao":"LPAR","metar":"LPAR 291500Z 33005KT 270V030 9999 SCT018 FEW020TCU SCT040 22/18 Q1008","updated":"2025-10-29T15:20:21Z"}
