{"icao":"LPPR","metar":"LPPR 250930Z 35005KT 310V020 CAVOK 18/13 Q1018","updated":"2026-04-25T09:51:10Z"}
