{"icao":"LPHR","metar":"LPHR 202100Z 26011KT 6000 FEW004 SCT006 BKN011 22/21 Q1014","updated":"2025-10-20T23:15:58Z"}
