{"icao":"LPHR","metar":"LPHR 241230Z 17005KT 130V200 9999 FEW018TCU 22/18 Q1018","updated":"2025-10-24T12:38:47Z"}
