{"icao":"LPPS","metar":"LPPS 060600Z 03011KT 360V070 9999 SCT015 SCT030 15/09 Q1025","updated":"2026-01-06T06:33:13Z"}
