{"icao":"KLAX","metar":"KLAX 131253Z 00000KT 10SM CLR 09/02 A3017 RMK AO2 SLP213 T00890022 $","updated":"2026-01-13T13:40:27Z"}
