{"icao":"KORD","metar":"KORD 141251Z 00000KT 10SM BKN250 M02/M04 A3004 RMK AO2 SLP176 T10171044 $","updated":"2026-02-14T13:42:51Z"}
