{"icao":"LPHR","metar":"LPHR 161500Z 25009KT 220V280 9999 FEW020 22/17 Q1007","updated":"2025-10-16T15:19:25Z"}
