{"icao":"LPPD","metar":"LPPD 212200Z 02015KT 350V060 9999 SCT016 BKN040 14/11 Q1016 WS R30","updated":"2026-03-21T22:22:55Z"}
