{"icao":"KLAX","metar":"KLAX 090253Z 26011KT 10SM CLR 18/14 A2989 RMK AO2 SLP120 T01830144 53004 $","updated":"2025-10-09T03:35:49Z"}
