{"icao":"LPFL","metar":"LPFL 260900Z 30016G35KT 240V030 9999 -RA FEW013 BKN018 09/04 Q1004","updated":"2026-01-26T09:33:12Z"}
