{"icao":"LPPR","metar":"LPPR 242100Z VRB02KT 6000 RA FEW015 FEW020TCU BKN024 10/09 Q1012","updated":"2026-01-24T21:17:19Z"}
