{"icao":"LPMT","metar":"LPMT 172200Z VRB03KT CAVOK 18/16 Q1015","updated":"2025-10-17T22:15:55Z"}
