{"icao":"KJFK","metar":"KJFK 180451Z 11004KT 10SM FEW055 FEW250 12/11 A3002 RMK AO2 SLP166 T01170106 402610117","updated":"2026-04-18T05:05:11Z"}
