{"icao":"LPLA","metar":"LPLA 050600Z 27005KT 230V290 9999 FEW023 13/08 Q1016","updated":"2025-11-05T06:28:01Z"}
