{"icao":"LPPT","metar":"LPPT 191700Z 34011KT 9999 FEW025 14/08 Q1016","updated":"2025-11-19T17:17:26Z"}
