{"icao":"KLAX","metar":"KLAX 140053Z 26010KT 10SM BKN010 BKN250 15/13 A3000 RMK AO2 SLP158 T01500128 $","updated":"2025-12-14T01:43:22Z"}
