{"icao":"KORD","metar":"KORD 190951Z 23006KT 10SM CLR 03/M03 A3008 RMK AO2 SLP191 T00281033 $","updated":"2026-04-19T10:37:41Z"}
