{"icao":"KJFK","metar":"KJFK 290110Z 22010KT 10SM -DZ BKN025 BKN030 OVC100 02/00 A2997 RMK AO2 DZB09 P0000 T00220000 $","updated":"2025-12-29T01:46:34Z"}
