{"icao":"LPOV","metar":"LPOV 141200Z 34018KT 9999 FEW020 BKN045 13/07 Q1026","updated":"2026-02-14T12:44:36Z"}
