{"icao":"LPPD","metar":"LPPD 041130Z 05014KT 020V080 9999 FEW025 SCT040 16/09 Q1024","updated":"2026-05-04T11:46:57Z"}
