{"icao":"KJFK","metar":"KJFK 141351Z 18007KT 10SM FEW080 BKN110 OVC250 06/02 A2971 RMK AO2 SLP059 T00610017 $","updated":"2026-01-14T14:24:22Z"}
