{"icao":"LPLA","metar":"LPLA 161600Z 15011KT 9999 FEW020 18/14 Q1022","updated":"2025-11-16T16:20:17Z"}
