{"icao":"LPPR","metar":"LPPR 110900Z 11007KT 070V130 CAVOK 22/10 Q1022","updated":"2025-10-11T09:15:37Z"}
