{"icao":"LPST","metar":"LPST 210800Z 27010KT 4000 -RA BR BKN006 BKN012 20/19 Q1014","updated":"2025-10-21T08:25:34Z"}
