{"icao":"LPPI","metar":"LPPI 221230Z 30004KT 260V340 9999 FEW016 BKN050 22/16 Q1027","updated":"2026-06-22T12:48:52Z"}
