{"icao":"KJFK","metar":"KJFK 041151Z 35006KT 9SM -SN FEW070 OVC090 M03/M07 A3004 RMK AO2 SLP171 P0000 60000 T10331072 11017 21033 53010 $","updated":"2026-01-04T12:38:27Z"}
