{"icao":"LPPT","metar":"LPPT 171300Z 27008KT 230V300 9999 VCSH FEW015 FEW025TCU SCT046 11/06 Q1012","updated":"2026-01-17T13:27:46Z"}
