{"icao":"LPFR","metar":"LPFR 151330Z 24012KT 200V310 9999 FEW025 21/13 Q1012","updated":"2026-05-15T14:03:55Z"}
