{"icao":"LPPS","metar":"LPPS 251200Z 27011KT 250V320 9999 FEW015 23/17 Q1021","updated":"2026-06-25T12:19:39Z"}
