{"icao":"KJFK","metar":"KJFK 062251Z 17008KT 10SM BKN080 BKN100 08/03 A3005 RMK AO2 SLP174 T00830028","updated":"2026-04-06T23:34:28Z"}
