{"icao":"LPPR","metar":"LPPR 011400Z 22007KT 200V260 CAVOK 15/09 Q1019","updated":"2026-03-01T14:22:28Z"}
