{"icao":"KJFK","metar":"KJFK 250351Z 10007KT 7SM -RA BKN005 BKN025 OVC060 22/21 A3004 RMK AO2 RAB51 SLP173 P0000 T02170206 $","updated":"2025-09-25T04:20:43Z"}
