{"icao":"LPMA","metar":"LPMA 301500Z VRB04KT 9999 FEW015 21/15 Q1023","updated":"2026-01-30T15:33:02Z"}
