{"icao":"LPLA","metar":"LPLA 210900Z 20018KT 4500 -RADZ BR SCT008 BKN012 17/15 Q1021","updated":"2026-02-21T09:28:27Z"}
