{"icao":"LPHR","metar":"LPHR 140730Z 28024KT 9999 SCT017 BKN040 16/10 Q1015","updated":"2026-04-14T07:43:19Z"}
