{"icao":"LPPT","metar":"LPPT 151330Z 32005KT 260V030 9999 FEW025 BKN028 18/12 Q1024","updated":"2026-04-15T13:52:52Z"}
