{"icao":"LPLA","metar":"LPLA 140500Z 11003KT 9999 FEW030 16/13 Q1010","updated":"2025-10-14T05:16:50Z"}
