{"icao":"LPMR","metar":"LPMR 040500Z 35008KT 9999 OVC005 16/15 Q1024","updated":"2025-10-04T06:23:25Z"}
