{"icao":"KJFK","metar":"KJFK 211051Z 36007KT 10SM FEW042 02/M08 A3040 RMK SLP294 T00221078 ","updated":"2026-04-21T11:05:15Z"}
