{"icao":"LPPR","metar":"LPPR 160600Z VRB02KT 4000 BCFG BR FEW001 14/14 Q1015","updated":"2025-10-16T06:26:57Z"}
