{"icao":"KORD","metar":"KORD 010451Z 36017KT 10SM FEW028 M07/M13 A2997 RMK AO2 SLP157 T10721133","updated":"2026-01-01T05:26:10Z"}
