{"icao":"LPPT","metar":"LPPT 261530Z 34011KT 310V010 9999 FEW040 27/16 Q1014","updated":"2026-04-26T15:40:02Z"}
