{"icao":"KJFK","metar":"KJFK 162251Z 00000KT 10SM FEW035 SCT250 03/M06 A3018 RMK AO2 SLP220 T00281056 $","updated":"2026-02-16T23:27:49Z"}
