{"icao":"KORD","metar":"KORD 190451Z 28016G31KT 10SM -SN BKN028 M07/M13 A2950 RMK AO2 PK WND 28034/0353 SLP994 P0000 T10671128","updated":"2025-12-19T05:20:44Z"}
