{"icao":"LPAZ","metar":"LPAZ 161200Z 31006KT 280V350 9999 FEW030 18/11 Q1025","updated":"2025-11-16T12:34:03Z"}
