{"icao":"LPPR","metar":"LPPR 290130Z 14003KT CAVOK 07/05 Q1017","updated":"2025-12-29T01:46:17Z"}
