{"icao":"LPPR","metar":"LPPR 231830Z 34005KT CAVOK 17/10 Q1015","updated":"2026-03-23T18:52:49Z"}
