{"icao":"LPPR","metar":"LPPR 121230Z 18011KT 6000 RADZ BKN005 BKN012 FEW015TCU 15/14 Q1004","updated":"2025-11-12T12:39:13Z"}
