{"icao":"LPBJ","metar":"LPBJ 300500Z 29005KT 0200 FG VV002 15/14 Q1014","updated":"2025-10-30T05:18:08Z"}
