{"icao":"LPMT","metar":"LPMT 261000Z 03006KT CAVOK 12/08 Q1026","updated":"2025-11-26T10:21:28Z"}
