{"icao":"LPOV","metar":"LPOV 241300Z 29009KT 6000 SCT008 BKN013 17/16 Q1013","updated":"2025-11-24T13:32:23Z"}
