{"icao":"LPMA","metar":"LPMA 081300Z 02012KT 350V050 9999 SCT014 FEW015TCU 23/16 Q1022","updated":"2025-11-08T13:22:48Z"}
