{"icao":"LPMT","metar":"LPMT 190800Z 32003KT 9999 SCT048 11/07 Q1026","updated":"2026-02-19T08:41:31Z"}
