{"icao":"LPPT","metar":"LPPT 061800Z 25009KT 220V280 CAVOK 23/17 Q1019","updated":"2025-10-06T18:26:01Z"}
