{"icao":"LPMT","metar":"LPMT 041500Z 16005KT 140V200 9999 SCT030 22/17 Q1013","updated":"2025-11-04T15:20:35Z"}
