{"icao":"LPPS","metar":"LPPS 220900Z 06012KT 030V090 9999 SCT014 SCT030 22/14 Q1021","updated":"2025-09-22T09:21:38Z"}
