{"icao":"LPCS","metar":"LPCS 161600Z 34015KT 300V360 9999 -SHRA FEW008 SCT022 FEW025TCU 10/09 Q1014 RESHRA","updated":"2026-01-16T16:27:25Z"}
