{"icao":"LPPD","metar":"LPPD 261000Z 04019G30KT 010V080 9999 VCSH FEW020 FEW025TCU 19/12 Q1020","updated":"2025-10-26T10:16:57Z"}
