{"icao":"LPPR","metar":"LPPR 290330Z 08003KT CAVOK 07/05 Q1018","updated":"2025-12-29T03:47:38Z"}
