{"icao":"LPPT","metar":"LPPT 100530Z 31004KT 280V350 9999 SCT016 FEW020TCU BKN030 10/08 Q1020","updated":"2026-03-10T05:43:39Z"}
