{"icao":"LPMA","metar":"LPMA 011600Z 35012KT 320V020 9999 SCT018 SCT033 17/08 Q1021","updated":"2026-03-01T16:26:48Z"}
