{"icao":"KORD","metar":"KORD 121051Z 18011G21KT 10SM FEW120 BKN250 15/09 A2999 RMK AO2 SLP157 T01500094 $","updated":"2026-04-12T11:33:05Z"}
