{"icao":"LPFR","metar":"LPFR 161230Z 19005KT 9999 -SHRA FEW020 FEW025CB 14/11 Q1016","updated":"2026-01-16T12:42:08Z"}
