{"icao":"LPAR","metar":"LPAR 241600Z 28006KT 230V320 9999 FEW015 BKN025 24/18 Q1016","updated":"2025-10-24T16:22:21Z"}
