{"icao":"LPHR","metar":"LPHR 171230Z 24021KT 8000 SCT003 SCT007 BKN012 19/18 Q1019","updated":"2025-12-17T12:41:56Z"}
