{"icao":"LPCS","metar":"LPCS 101300Z 21016KT 9999 -SHRA FEW016 FEW030TCU 15/13 Q1011","updated":"2026-05-10T13:15:22Z"}
