{"icao":"KJFK","metar":"KJFK 071651Z 18015KT 10SM FEW045 FEW065 SCT170 BKN250 24/18 A3015 RMK AO2 SLP208 T02440178","updated":"2025-10-07T17:15:24Z"}
