{"icao":"LPMA","metar":"LPMA 291630Z 10004KT 070V180 9999 FEW014 20/16 Q1021","updated":"2026-01-29T16:42:03Z"}
