{"icao":"KJFK","metar":"KJFK 131311Z 04018G29KT 2 1/2SM R04R/4000VP6000FT +RA BR OVC010 14/13 A2990 RMK AO2 PK WND 04029/1307 P0000 T01390128","updated":"2025-10-13T13:29:03Z"}
