{"icao":"LPBJ","metar":"LPBJ 182100Z 35006KT 9999 FEW030 07/03 Q1016","updated":"2026-01-18T21:17:48Z"}
