{"icao":"LPAZ","metar":"LPAZ 271830Z 02005KT 350V060 9999 FEW029 15/08 Q1034","updated":"2026-02-27T18:41:08Z"}
