{"icao":"KJFK","metar":"KJFK 051951Z 19018G26KT 10SM FEW180 BKN250 16/09 A2975 RMK AO2 PK WND 19027/1912 SLP075 T01610094 $","updated":"2025-11-05T20:21:22Z"}
