{"icao":"LPMT","metar":"LPMT 042100Z 34007KT 9999 FEW035 14/11 Q1014","updated":"2026-03-04T21:32:56Z"}
