{"icao":"LPFL","metar":"LPFL 281300Z 12008KT 070V180 9999 SCT008 BKN012 16/14 Q1011","updated":"2025-12-28T13:28:43Z"}
