{"icao":"LPOV","metar":"LPOV 271700Z 34005KT CAVOK 19/12 Q1020","updated":"2025-10-27T17:15:42Z"}
