{"icao":"LPMR","metar":"LPMR 072300Z VRB01KT 0500 FG BKN001 14/14 Q1023","updated":"2025-10-07T23:15:41Z"}
