{"icao":"LPAZ","metar":"LPAZ 040100Z 11003KT 9999 FEW010 19/19 Q1026","updated":"2025-10-04T01:14:49Z"}
