{"icao":"LPOV","metar":"LPOV 241100Z 28005KT CAVOK 20/09 Q1021","updated":"2026-03-24T14:56:32Z"}
