{"icao":"LPPT","metar":"LPPT 142300Z 33015KT 310V010 9999 BKN010 13/12 Q1018","updated":"2026-03-14T23:26:40Z"}
