{"icao":"KJFK","metar":"KJFK 100851Z 25006KT 10SM SCT014 SCT250 05/03 A3041 RMK AO2 SLP296 T00500033 56015","updated":"2026-04-10T09:07:42Z"}
