{"icao":"LPPD","metar":"LPPD 250830Z 00000KT 4000 R30/1200N BR SCT002 BKN005 16/15 Q1016","updated":"2026-04-25T08:51:41Z"}
