{"icao":"KORD","metar":"KORD 170751Z 26013G25KT 10SM SCT050 BKN110 M07/M15 A2974 RMK AO2 PK WND 27030/0655 SLP080 T10671150 $","updated":"2026-01-17T08:25:42Z"}
