{"icao":"KJFK","metar":"KJFK 241651Z 32017G24KT 10SM SCT043 M02/M11 A2991 RMK AO2 PK WND 31026/1552 SLP129 T10171111 $","updated":"2026-02-24T17:08:36Z"}
