{"icao":"LPPT","metar":"LPPT 140600Z 36007KT 320V030 9999 BKN011 20/18 Q1022","updated":"2025-09-14T06:23:15Z"}
