{"icao":"LPBJ","metar":"LPBJ 282300Z 33002KT 310V010 CAVOK 06/05 Q1016","updated":"2025-12-28T23:18:04Z"}
