{"icao":"KORD","metar":"KORD 281051Z 29008KT 10SM CLR M06/M10 A3030 RMK AO2 SLP271 T10561100","updated":"2025-11-28T11:16:43Z"}
