{"icao":"LPBJ","metar":"LPBJ 092200Z 27006KT 9999 FEW030 06/04 Q1021","updated":"2026-03-09T22:27:25Z"}
