{"icao":"LPBJ","metar":"LPBJ 311400Z 08006KT 050V110 9999 FEW015 12/09 Q1017","updated":"2025-12-31T14:18:55Z"}
