{"icao":"LPMT","metar":"LPMT 031100Z 03005KT 340V090 CAVOK 19/13 Q1023","updated":"2026-04-03T11:36:36Z"}
