{"icao":"KJFK","metar":"KJFK 101251Z 02012KT 10SM BKN150 BKN250 07/01 A3020 RMK AO2 SLP227 T00670011 $","updated":"2026-01-10T13:28:23Z"}
