{"icao":"LPBJ","metar":"LPBJ 221800Z 28012KT CAVOK 32/10 Q1018","updated":"2026-05-22T18:52:33Z"}
