{"icao":"LPPT","metar":"LPPT 271400Z 06007KT 030V110 CAVOK 15/05 Q1023","updated":"2025-11-27T14:18:32Z"}
