{"icao":"LPPD","metar":"LPPD 131730Z 21016KT 9999 FEW015 SCT040 17/13 Q1022","updated":"2026-04-13T17:58:28Z"}
