{"icao":"LPPD","metar":"LPPD 120430Z 25022KT 9999 FEW018 16/12 Q1012","updated":"2026-01-12T04:49:20Z"}
