{"icao":"LPMT","metar":"LPMT 160100Z 13004KT CAVOK 17/14 Q1016","updated":"2025-10-16T06:27:00Z"}
