{"icao":"KLAX","metar":"KLAX 311853Z 27010KT 10SM CLR 21/14 A2994 RMK AO2 SLP137 T02110144 $","updated":"2026-05-31T19:37:45Z"}
