{"icao":"LPST","metar":"LPST 130700Z 13001KT CAVOK 11/09 Q1015","updated":"2025-10-13T07:18:21Z"}
