{"icao":"LPAR","metar":"LPAR 201500Z 29007KT 230V340 9999 SCT035 24/15 Q1014","updated":"2025-10-20T15:18:06Z"}
