{"icao":"KLAX","metar":"KLAX 271253Z 10004KT 10SM FEW010 SCT250 16/12 A2996 RMK AO2 SLP145 T01610122","updated":"2026-02-27T12:57:15Z"}
