{"icao":"KJFK","metar":"KJFK 011051Z 36012KT 10SM FEW250 02/M03 A3005 RMK AO2 SLP176 T00171028 $","updated":"2026-03-01T11:20:13Z"}
