{"icao":"LPCS","metar":"LPCS 041230Z 17005KT 130V220 CAVOK 24/06 Q1022","updated":"2026-04-04T12:53:15Z"}
