{"icao":"LPOV","metar":"LPOV 132100Z VRB02KT CAVOK 10/09 Q1022","updated":"2025-12-14T04:35:02Z"}
