{"icao":"LPAR","metar":"LPAR 291100Z 26017KT 3000 RADZ BKN007 BKN012 17/16 Q1009","updated":"2026-01-29T11:30:01Z"}
