{"icao":"LPPS","metar":"LPPS 022000Z 03012KT 360V060 9999 FEW012 15/13 Q1022","updated":"2026-04-02T20:33:59Z"}
