{"icao":"KJFK","metar":"KJFK 251251Z 22018G26KT 10SM FEW075 BKN110 BKN230 04/M01 A3000 RMK AO2 PK WND 22026/1244 SLP157 T00391011 $","updated":"2025-12-25T13:31:15Z"}
