{"icao":"LPBJ","metar":"LPBJ 210700Z 10005KT CAVOK 07/05 Q1028","updated":"2026-02-21T07:30:49Z"}
