{"icao":"LPMA","metar":"LPMA 290500Z 35005KT 310V010 9999 BKN016 SCT030 17/10 Q1022","updated":"2025-11-29T05:18:18Z"}
