{"icao":"KORD","metar":"KORD 241951Z 00000KT 10SM BKN070 BKN100 BKN170 OVC250 M15/M27 A3057 RMK AO2 SLP370 T11501272","updated":"2026-01-24T20:21:01Z"}
