{"icao":"KORD","metar":"KORD 291114Z 27020G36KT 3/4SM R10L/P6000FT -SN BLSN VV011 M10/M13 A2971 RMK AO2 PK WND 27040/1056 P0000 T11001133 $","updated":"2025-12-29T11:18:00Z"}
