{"icao":"LPPT","metar":"LPPT 182030Z 30008KT CAVOK 20/12 Q1016","updated":"2026-04-18T20:35:24Z"}
