{"icao":"LPPR","metar":"LPPR 251000Z 26006KT 220V320 8000 FEW020 SCT036 BKN048 13/09 Q1012","updated":"2026-01-25T10:20:37Z"}
