{"icao":"KJFK","metar":"KJFK 212151Z 00000KT 10SM BKN045 BKN250 08/M02 A3002 RMK AO2 SLP165 T00781017 $","updated":"2026-02-21T22:22:21Z"}
