{"icao":"KORD","metar":"KORD 231521Z 33014G23KT 10SM OVC030 M07/M14 A3046 RMK AO2 T10671139 $","updated":"2026-02-23T15:44:03Z"}
