{"icao":"LPMR","metar":"LPMR 050400Z 00000KT 0300 FG NSC 09/09 Q1020","updated":"2026-04-05T05:10:35Z"}
