{"icao":"LPPD","metar":"LPPD 031930Z 26010KT 9999 BKN012 15/13 Q1027","updated":"2026-03-03T19:37:57Z"}
