{"icao":"KORD","metar":"KORD 271451Z 36015G22KT 10SM BKN026 01/M06 A3040 RMK AO2 SLP302 T00111061 51022","updated":"2026-03-27T15:52:23Z"}
