{"icao":"KJFK","metar":"KJFK 260951Z 00000KT 10SM FEW170 BKN250 15/14 A3009 RMK AO2 SLP188 T01500144 $","updated":"2026-05-26T09:55:37Z"}
