{"icao":"LPPR","metar":"LPPR 291700Z 29003KT CAVOK 11/08 Q1019","updated":"2025-12-29T17:17:13Z"}
