{"icao":"LPST","metar":"LPST 241500Z 17010G20KT 140V230 9999 FEW010 SCT014 15/11 Q1015","updated":"2026-02-24T15:57:09Z"}
