{"icao":"LPBJ","metar":"LPBJ 140900Z 31010KT CAVOK 08/05 Q1025","updated":"2026-02-14T09:28:47Z"}
