{"icao":"LPMT","metar":"LPMT 181400Z 34007KT 310V010 CAVOK 17/11 Q1018","updated":"2025-11-18T14:18:37Z"}
