{"icao":"KJFK","metar":"KJFK 081651Z 31021G29KT 10SM FEW030 M12/M22 A3015 RMK AO2 PK WND 33030/1612 SLP210 T11171222 $","updated":"2026-02-08T17:25:33Z"}
