{"icao":"LPLA","metar":"LPLA 252300Z 00000KT 9999 FEW016 13/12 Q1020","updated":"2026-04-25T23:36:41Z"}
