{"icao":"LPBJ","metar":"LPBJ 291000Z VRB01KT 7000 VCFG FEW002 BKN030 10/09 Q1020","updated":"2025-11-29T10:18:17Z"}
