{"icao":"LPPR","metar":"LPPR 052200Z 24013KT 220V280 9999 -SHRA SCT018 FEW025CB SCT030 11/08 Q0996 RESHRA","updated":"2026-02-05T22:25:09Z"}
