{"icao":"LPBJ","metar":"LPBJ 281500Z VRB03KT CAVOK 34/08 Q1018","updated":"2026-05-28T15:50:16Z"}
