{"icao":"LPHR","metar":"LPHR 182100Z 34008KT 9999 FEW018 SCT045 13/09 Q1030","updated":"2025-12-19T04:33:30Z"}
