{"icao":"LPCS","metar":"LPCS 181930Z 01009KT CAVOK 20/10 Q1015","updated":"2026-04-18T19:39:51Z"}
