{"icao":"LPPI","metar":"LPPI 241830Z 36005KT 320V060 9999 FEW011 BKN030 20/15 Q1021","updated":"2026-06-24T18:50:03Z"}
