{"icao":"LPAZ","metar":"LPAZ 150500Z 08005KT 9999 FEW028 18/17 Q1026","updated":"2025-09-15T05:17:52Z"}
