{"icao":"LPMA","metar":"LPMA 031430Z 02029G43KT 340V050 9999 BKN015 FEW018CB 15/05 Q1015","updated":"2026-03-03T14:55:59Z"}
