{"icao":"LPAR","metar":"LPAR 081600Z 34005KT 300V020 9999 FEW025 20/09 Q1021","updated":"2025-11-10T05:18:57Z"}
