{"icao":"LPBJ","metar":"LPBJ 021000Z 30005KT 0100 FG VV002 09/09 Q1020","updated":"2025-12-02T10:21:40Z"}
