{"icao":"LPCS","metar":"LPCS 230800Z 28003KT 250V320 9999 FEW008 SCT015 BKN030 21/21 Q1020","updated":"2025-10-23T08:24:58Z"}
