{"icao":"LPFL","metar":"LPFL 131100Z VRB07KT 4000 1500N +SHRA FEW018 BKN030 17/14 Q1015","updated":"2025-10-13T11:15:29Z"}
