{"icao":"LPOV","metar":"LPOV 302200Z 16012KT 130V190 9999 BKN030 18/13 Q1011","updated":"2025-10-30T22:17:17Z"}
