{"icao":"LPPS","metar":"LPPS 261900Z 20015KT 9999 FEW006 23/21 Q1016","updated":"2025-10-26T19:13:47Z"}
