{"icao":"LPLA","metar":"LPLA 100300Z 21020G30KT 190V260 4500 RADZ SCT008 BKN012 BKN020 18/16 Q1023","updated":"2026-01-10T03:22:33Z"}
