{"icao":"LPAZ","metar":"LPAZ 290700Z 34009KT 310V010 9999 BKN030 15/09 Q1028","updated":"2025-11-29T07:16:54Z"}
