{"icao":"LPOV","metar":"LPOV 290700Z 16004KT 9999 FEW015 FEW020CB BKN025 BKN045 17/15 Q1006","updated":"2025-10-29T07:17:46Z"}
