{"icao":"LPST","metar":"LPST 021700Z 26016KT 9999 FEW020 12/05 Q1001","updated":"2026-02-03T04:44:52Z"}
