{"icao":"KJFK","metar":"KJFK 061751Z 24007KT 10SM FEW085 BKN130 BKN250 M01/M08 A2969 RMK AO2 SLP054 4/004 933010 T10111083 11006 21056 58021 $","updated":"2026-02-06T18:50:06Z"}
