{"icao":"LPHR","metar":"LPHR 020730Z 30024G36KT 9999 SCT016 12/07 Q1014","updated":"2026-02-02T07:48:42Z"}
