{"icao":"LPMA","metar":"LPMA 110730Z 01014KT 320V030 9999 BKN015 14/10 Q1026","updated":"2026-03-11T07:42:11Z"}
