{"icao":"LPPD","metar":"LPPD 030830Z 04004KT 010V080 9999 FEW023 BKN030 13/08 Q1027","updated":"2026-04-03T08:52:37Z"}
