{"icao":"LPPR","metar":"LPPR 181130Z 20016G27KT 2500 -SHRA BR BKN006 FEW020TCU 14/13 Q1015","updated":"2026-02-18T11:37:12Z"}
