{"icao":"LPMA","metar":"LPMA 011800Z 35010KT 310V020 9999 FEW018 SCT033 16/08 Q1020","updated":"2026-03-01T18:31:31Z"}
