{"icao":"KORD","metar":"KORD 091951Z 32019G27KT 10SM BKN040 BKN047 BKN085 01/M08 A3010 RMK AO2 PK WND 32027/1951 SLP199 T00111078 $","updated":"2025-11-09T20:17:54Z"}
