{"icao":"KLAX","metar":"KLAX 231453Z 02003KT 6SM BR FEW008 SCT025 BKN110 BKN160 20/18 A2985 RMK AO2 SLP106 T02000178 53012 $","updated":"2025-09-23T15:18:08Z"}
