{"icao":"LPLA","metar":"LPLA 232100Z 25011KT 220V280 9999 FEW025 SCT030 16/10 Q1006","updated":"2026-02-23T21:42:54Z"}
