{"icao":"LPMT","metar":"LPMT 141900Z 33009KT 300V360 9999 FEW040 12/07 Q1028","updated":"2026-02-14T19:22:30Z"}
