{"icao":"LPBJ","metar":"LPBJ 051800Z 17007KT CAVOK 25/01 Q1019","updated":"2026-04-05T18:41:32Z"}
