{"icao":"LPHR","metar":"LPHR 181830Z 27010KT 240V300 9999 FEW013 18/15 Q1020","updated":"2026-05-18T18:50:05Z"}
