{"icao":"KORD","metar":"KORD 091251Z 15005KT 10SM FEW039 09/04 A3049 RMK AO2 SLP326 T00890039","updated":"2025-10-09T13:29:09Z"}
