{"icao":"LPFR","metar":"LPFR 170400Z 36011KT CAVOK 12/07 Q1017","updated":"2025-12-17T04:31:52Z"}
