{"icao":"KJFK","metar":"KJFK 162051Z 02007KT 10SM SCT038 SCT060 SCT250 03/M05 A3015 RMK AO2 SLP209 T00281050 53007 $","updated":"2026-02-16T21:28:18Z"}
