{"icao":"KJFK","metar":"KJFK 262251Z 09006KT 9SM -SN FEW020 SCT055 OVC075 M03/M09 A3007 RMK AO2 SLP182 P0000 T10331089 $","updated":"2025-12-26T23:19:05Z"}
