{"icao":"LPPT","metar":"LPPT 010200Z 23011KT 2500 -RADZ BR FEW002 BKN004 14/14 Q1016","updated":"2026-02-01T02:12:19Z"}
