{"icao":"LPPT","metar":"LPPT 200800Z 35004KT 300V040 9999 FEW009 19/17 Q1020","updated":"2025-09-20T08:20:11Z"}
