{"icao":"LPCS","metar":"LPCS 121200Z 21005KT 120V250 CAVOK 30/15 Q1019","updated":"2026-06-12T12:17:17Z"}
