{"icao":"LPCS","metar":"LPCS 200900Z 01011KT 9999 FEW018 12/09 Q1021","updated":"2025-11-20T09:19:36Z"}
