{"icao":"LPOV","metar":"LPOV 240700Z 16008KT 9999 SCT008 SCT022 12/11 Q1018","updated":"2026-02-24T07:06:58Z"}
