{"icao":"LPMT","metar":"LPMT 180700Z 04002KT CAVOK 08/08 Q1019","updated":"2025-11-18T07:18:16Z"}
