{"icao":"LPFR","metar":"LPFR 161500Z 16007KT CAVOK 22/14 Q1018","updated":"2026-04-16T15:24:23Z"}
