{"icao":"LPLA","metar":"LPLA 311700Z 25011KT 230V290 9999 FEW010 23/19 Q1024","updated":"2026-05-31T17:59:57Z"}
