{"icao":"LPFR","metar":"LPFR 051600Z 18005KT 150V220 CAVOK 23/19 Q1017","updated":"2025-10-05T16:18:40Z"}
