{"icao":"LPPD","metar":"LPPD 232130Z 24017KT 9999 FEW016 SCT030 16/14 Q1010","updated":"2026-02-23T21:42:53Z"}
