{"icao":"LPPR","metar":"LPPR 071000Z 01005KT 330V050 CAVOK 11/04 Q1020","updated":"2026-03-07T10:22:12Z"}
