{"icao":"LPMA","metar":"LPMA 051800Z 03012KT 350V050 5000 RA SCT005 BKN012 16/14 Q1017","updated":"2026-05-05T18:09:35Z"}
