{"icao":"LPMA","metar":"LPMA 131030Z VRB07KT 9999 FEW016 19/07 Q1026","updated":"2026-02-13T10:38:34Z"}
