{"icao":"LPPD","metar":"LPPD 201230Z 04014KT 010V080 9999 FEW025 18/12 Q1029","updated":"2025-11-20T12:38:13Z"}
