{"icao":"LPPT","metar":"LPPT 251500Z 24012KT 220V280 9999 FEW012 BKN015 15/13 Q1015","updated":"2026-01-25T15:19:20Z"}
