{"icao":"LPAZ","metar":"LPAZ 210500Z 08008KT 030V110 9999 FEW022 BKN034 16/10 Q1029","updated":"2025-11-21T05:18:39Z"}
