{"icao":"KORD","metar":"KORD 290251Z 10015KT 10SM BKN048 OVC250 12/02 A3004 RMK AO2 PK WND 11029/0159 SLP175 T01220017 53004","updated":"2025-10-29T03:14:29Z"}
