{"icao":"KORD","metar":"KORD 301551Z 26006KT 10SM FEW015 BKN060 BKN080 M10/M16 A3019 RMK AO2 SLP238 T11001161","updated":"2025-12-30T16:26:02Z"}
