{"icao":"LPLA","metar":"LPLA 191000Z 35004KT 320V030 9999 FEW035 13/06 Q1032","updated":"2026-01-19T10:27:36Z"}
