{"icao":"KJFK","metar":"KJFK 181851Z 12013KT 10SM SCT015 BKN250 16/11 A3006 RMK SLP178 T01560106 ","updated":"2026-04-18T19:40:08Z"}
