{"icao":"KORD","metar":"KORD 061051Z 21007KT 10SM FEW050 20/14 A3006 RMK AO2 SLP176 T02000144 $","updated":"2025-10-06T11:14:48Z"}
