{"icao":"KLAX","metar":"KLAX 170853Z 00000KT 10SM FEW014 FEW250 16/13 A2992 RMK AO2 SLP129 T01560128 50005","updated":"2026-04-17T09:16:39Z"}
