{"icao":"LPMA","metar":"LPMA 210500Z 01013KT 330V050 9999 BKN015 FEW016TCU 18/11 Q1023","updated":"2025-11-21T05:18:53Z"}
