{"icao":"LPHR","metar":"LPHR 211000Z 24005KT 9000 FEW003 SCT006 BKN050 17/16 Q1021","updated":"2026-02-21T10:24:29Z"}
