{"icao":"LPPR","metar":"LPPR 211400Z 28006KT CAVOK 23/18 Q1018","updated":"2026-06-21T14:07:34Z"}
