{"icao":"LPBJ","metar":"LPBJ 092100Z 22008KT CAVOK 16/11 Q1014","updated":"2026-04-09T21:43:26Z"}
