{"icao":"LPFL","metar":"LPFL 311100Z 35015G27KT 9999 VCSH SCT026 SCT049 16/11 Q1012","updated":"2025-10-31T11:15:20Z"}
