{"icao":"LPOV","metar":"LPOV 110700Z VRB01KT CAVOK 13/10 Q1021","updated":"2025-10-11T07:15:01Z"}
