{"icao":"KLAX","metar":"KLAX 011453Z 26003KT 7SM FEW009 BKN015 BKN020 19/17 A3002 RMK AO2 SLP165 T01940167 51007 $","updated":"2025-10-01T15:18:04Z"}
