{"icao":"KJFK","metar":"KJFK 292251Z 36005KT 10SM FEW150 FEW250 03/M09 A3049 RMK AO2 SLP326 T00331089 $","updated":"2025-11-29T23:17:14Z"}
