{"icao":"LPMT","metar":"LPMT 230700Z 26006KT CAVOK 14/12 Q1014","updated":"2026-04-23T07:49:53Z"}
