{"icao":"KORD","metar":"KORD 181951Z 07008KT 10SM OVC012 06/03 A2995 RMK AO2 SLP146 T00560033","updated":"2025-11-18T20:22:28Z"}
