{"icao":"LPST","metar":"LPST 121000Z 17024G35KT 4000 -SHRA FEW008 SCT012 19/16 Q1004","updated":"2025-11-12T11:16:33Z"}
