{"icao":"KORD","metar":"KORD 020851Z 23010KT 7SM -FZDZ BKN008 OVC012 M06/M08 A3006 RMK AO2 SNE00 SLP187 P0000 60000 I1000 I3000 T10561078 58002","updated":"2026-02-02T09:47:48Z"}
