{"icao":"LPLA","metar":"LPLA 061100Z 22015KT 7000 -RA FEW016 SCT040 12/09 Q1010","updated":"2026-02-06T11:32:28Z"}
