{"icao":"LPMR","metar":"LPMR 090600Z 31003KT 280V340 3000 BR OVC003 15/15 Q1020","updated":"2025-10-09T06:27:33Z"}
