{"icao":"LPMR","metar":"LPMR 182100Z VRB01KT CAVOK 06/05 Q1018","updated":"2026-01-18T21:17:36Z"}
