{"icao":"LPPD","metar":"LPPD 250600Z 24019KT 8000 BKN006 BKN011 16/15 Q1018","updated":"2026-01-25T06:30:12Z"}
