{"icao":"LPOV","metar":"LPOV 181600Z 16009KT 120V180 9999 BKN030 21/09 Q1002","updated":"2026-03-18T16:57:54Z"}
