{"icao":"LPFR","metar":"LPFR 281630Z 08008KT 040V100 9999 BKN012 20/16 Q1007","updated":"2026-04-28T16:49:43Z"}
