{"icao":"LPBJ","metar":"LPBJ 061000Z 23005KT 9999 FEW005 BKN040 14/14 Q1026","updated":"2025-12-06T10:18:21Z"}
