{"icao":"LPAZ","metar":"LPAZ 271700Z 04011KT 350V070 9999 FEW024 SCT040 22/14 Q1025","updated":"2025-09-27T17:13:13Z"}
