{"icao":"KLAX","metar":"KLAX 100153Z 26010KT 10SM FEW009 FEW200 BKN250 18/16 A2993 RMK AO2 SLP133 T01830156 $","updated":"2026-04-10T02:27:58Z"}
