{"icao":"LPMT","metar":"LPMT 012100Z 18005KT 9999 FEW030 12/09 Q1018","updated":"2025-12-01T21:15:50Z"}
