{"icao":"LPPD","metar":"LPPD 021000Z 31007KT 270V010 9999 VCSH SCT020 FEW022TCU 14/08 Q1004 WS ALL RWY","updated":"2026-01-02T10:20:20Z"}
