{"icao":"LPPT","metar":"LPPT 120900Z 06012G25KT 020V100 9999 FEW032 21/12 Q1017","updated":"2025-10-12T09:15:37Z"}
