{"icao":"KJFK","metar":"KJFK 031351Z 30012G21KT 10SM FEW050 SCT095 SCT250 11/M02 A2989 RMK PK WND 31026/1333 SLP119 T01061022 ","updated":"2026-05-03T14:47:35Z"}
