{"icao":"LPLA","metar":"LPLA 201300Z 18016KT 9999 FEW020 BKN030 17/14 Q1021","updated":"2026-02-20T14:00:40Z"}
