{"icao":"KJFK","metar":"KJFK 052051Z 07009KT 2SM -RA BR OVC006 06/05 A3024 RMK AO2 SFC VIS 6 SLP238 P0000 60001 T00560050 55005","updated":"2026-03-05T21:33:12Z"}
