{"icao":"KJFK","metar":"KJFK 220351Z 21016KT 10SM -RA BKN085 BKN110 OVC250 17/14 A2981 RMK AO2 RAB16 SLP093 P0000 T01670139","updated":"2025-10-22T04:21:23Z"}
