{"icao":"LPFR","metar":"LPFR 170100Z VRB01KT CAVOK 20/17 Q1020","updated":"2025-09-17T01:16:41Z"}
