{"icao":"LPMR","metar":"LPMR 301400Z 33018KT 300V360 CAVOK 24/17 Q1021","updated":"2026-06-30T15:25:16Z"}
