{"icao":"KJFK","metar":"KJFK 181051Z 03004KT 4SM BR BKN011 BKN039 OVC060 00/M01 A3006 RMK AO2 SLP179 T00001006 $","updated":"2026-01-18T11:16:28Z"}
