{"icao":"LPPT","metar":"LPPT 101030Z 23012KT 1800 DZ BR SCT003 BKN004 16/16 Q1016 REDZ","updated":"2026-02-10T11:04:09Z"}
