{"icao":"KJFK","metar":"KJFK 051651Z VRB03KT 2SM -RA BR BKN013 BKN039 OVC049 13/11 A2983 RMK AO2 PK WND 33026/1616 SFC VIS 4 RAB34 SLP101 P0007 T01280106","updated":"2026-04-05T17:29:28Z"}
