{"icao":"LPMR","metar":"LPMR 051200Z 32011KT CAVOK 19/08 Q1018","updated":"2026-06-05T12:35:31Z"}
