{"icao":"LPMT","metar":"LPMT 200500Z 33004KT 9999 FEW022 19/16 Q1015","updated":"2026-06-20T05:11:59Z"}
