{"icao":"LPMA","metar":"LPMA 251600Z 36018G28KT 310V020 9999 FEW015 19/12 Q1018","updated":"2026-03-25T16:14:07Z"}
