{"icao":"LPPT","metar":"LPPT 150430Z 05002KT CAVOK 10/08 Q1014","updated":"2025-12-15T04:38:59Z"}
