{"icao":"LPAR","metar":"LPAR 101100Z 06008KT 030V100 CAVOK 24/11 Q1021","updated":"2025-10-10T11:15:20Z"}
