{"icao":"LPPS","metar":"LPPS 031330Z 35028KT 9999 SCT014 FEW016TCU 14/08 Q1015","updated":"2026-03-03T13:59:24Z"}
