{"icao":"LPMA","metar":"LPMA 160800Z 34015G25KT 310V010 9999 SCT014 16/08 Q1024","updated":"2026-01-16T08:28:45Z"}
