{"icao":"LPFR","metar":"LPFR 291700Z 24013KT 9999 FEW020 19/12 Q1011","updated":"2026-04-29T17:26:54Z"}
