{"icao":"LPMT","metar":"LPMT 081800Z 33009KT 9999 BKN030 19/13 Q1021","updated":"2025-10-08T18:26:35Z"}
