{"icao":"LPPD","metar":"LPPD 211000Z 28017KT 8000 SCT003 BKN005 16/16 Q1021","updated":"2026-01-21T10:27:44Z"}
