{"icao":"LPLA","metar":"LPLA 191900Z 26005KT 9999 FEW035 13/07 Q1030","updated":"2026-01-19T19:18:28Z"}
