{"icao":"LPMT","metar":"LPMT 140900Z 02005KT CAVOK 19/13 Q1017","updated":"2025-10-14T09:19:50Z"}
