{"icao":"KJFK","metar":"KJFK 241751Z 34010G17KT 10SM FEW050 SCT200 BKN250 M09/M23 A3064 RMK AO2 SLP374 T10941233 11089 21122 58010 $","updated":"2026-01-24T18:28:52Z"}
