{"icao":"KORD","metar":"KORD 261517Z 26004KT 1 1/2SM BR OVC003 07/06 A2965 RMK AO2 T00670061 $","updated":"2025-12-26T15:19:33Z"}
