{"icao":"LPOV","metar":"LPOV 171400Z 29005KT 230V350 CAVOK 19/09 Q1007","updated":"2026-03-17T16:04:26Z"}
