{"icao":"LPOV","metar":"LPOV 312100Z VRB02KT CAVOK 06/05 Q1017","updated":"2026-01-01T03:49:07Z"}
