{"icao":"KORD","metar":"KORD 050751Z 22014G21KT 10SM FEW250 13/08 A2982 RMK AO2 SLP096 T01280078 $","updated":"2025-11-05T08:25:33Z"}
