{"icao":"LPCS","metar":"LPCS 030700Z 01007KT CAVOK 15/14 Q1022","updated":"2025-10-03T07:16:47Z"}
