{"icao":"LPAZ","metar":"LPAZ 201300Z 06013KT 020V100 9999 FEW030 SCT049 24/13 Q1027","updated":"2025-09-20T13:21:06Z"}
