{"icao":"KJFK","metar":"KJFK 171851Z 24009KT 10SM FEW055 SCT210 BKN250 04/M01 A2988 RMK AO2 SLP116 T00441011 $","updated":"2025-12-17T19:18:59Z"}
