{"icao":"LPPD","metar":"LPPD 292100Z 23021G31KT 9999 FEW020 SCT030 20/15 Q1012","updated":"2025-10-29T21:16:50Z"}
