{"icao":"KJFK","metar":"KJFK 260451Z 19009KT 10SM FEW120 SCT170 BKN250 21/19 A3006 RMK SLP178 T02060189 402720172 ","updated":"2026-06-26T05:07:02Z"}
