{"icao":"LPCS","metar":"LPCS 311000Z 36018KT 9999 FEW014 22/15 Q1020","updated":"2026-05-31T10:14:07Z"}
