{"icao":"LPFL","metar":"LPFL 231400Z 18017KT 9999 FEW006 SCT009 18/16 Q1021","updated":"2025-12-23T14:20:17Z"}
