{"icao":"LPAZ","metar":"LPAZ 020800Z 09007KT 060V120 9999 FEW010 SCT018 BKN028 18/16 Q1020","updated":"2025-11-02T08:20:06Z"}
