{"icao":"LPPR","metar":"LPPR 090300Z 11009KT CAVOK 11/09 Q1022","updated":"2025-11-09T03:11:46Z"}
