{"icao":"LPMT","metar":"LPMT 051800Z 26009KT CAVOK 21/09 Q1018","updated":"2026-04-05T18:41:32Z"}
