{"icao":"KJFK","metar":"KJFK 201051Z 20007KT 10SM FEW055 FEW250 01/M01 A3014 RMK AO2 SLP206 T00111011 $","updated":"2026-03-20T11:30:53Z"}
