{"icao":"LPHR","metar":"LPHR 291600Z 24022KT 9999 FEW014 SCT035 20/15 Q1012","updated":"2025-10-29T16:24:39Z"}
