{"icao":"LPMA","metar":"LPMA 242200Z 27006KT 240V320 9999 SCT015 17/14 Q1018","updated":"2026-02-24T22:32:32Z"}
