{"icao":"LPLA","metar":"LPLA 151400Z 08007KT 050V110 9999 SCT012 BKN015 22/19 Q1027","updated":"2025-09-15T14:18:17Z"}
