{"icao":"LPLA","metar":"LPLA 231900Z 36005KT 310V040 9999 FEW030 14/08 Q1025","updated":"2026-03-23T19:47:42Z"}
