{"icao":"LPFR","metar":"LPFR 150500Z 01008KT CAVOK 15/10 Q1021","updated":"2026-04-15T05:22:31Z"}
