{"icao":"LPMT","metar":"LPMT 211900Z 36009KT CAVOK 12/05 Q1028","updated":"2025-11-21T19:15:38Z"}
