{"icao":"LPFL","metar":"LPFL 161630Z 21014G25KT 170V250 9999 -TSRA FEW008 SCT014 FEW015CB 22/19 Q1012","updated":"2026-06-16T19:33:25Z"}
