{"icao":"LPPS","metar":"LPPS 010700Z 02006KT 350V050 9999 FEW015 BKN030 17/09 Q1023","updated":"2025-12-01T07:22:28Z"}
