{"icao":"LPHR","metar":"LPHR 232200Z 27007KT 9999 FEW018 18/14 Q1027","updated":"2025-11-23T22:17:18Z"}
