{"icao":"LPMT","metar":"LPMT 261500Z 04009KT CAVOK 21/11 Q1023","updated":"2026-02-26T15:52:16Z"}
