{"icao":"LPCS","metar":"LPCS 301500Z 21008KT 170V240 9999 FEW020 19/08 Q1017","updated":"2026-04-30T15:08:35Z"}
