{"icao":"LPOV","metar":"LPOV 270800Z 35003KT CAVOK 11/07 Q1021","updated":"2025-10-27T08:25:29Z"}
