{"icao":"KJFK","metar":"KJFK 060151Z 19019KT 10SM SCT170 BKN250 14/11 A2986 RMK PK WND 20029/0135 SLP110 T01440106 ","updated":"2026-05-06T02:43:18Z"}
