{"icao":"LPPS","metar":"LPPS 202100Z 28004KT 250V330 CAVOK 21/18 Q1019","updated":"2026-06-20T21:17:07Z"}
