{"icao":"LPPD","metar":"LPPD 231830Z 02011KT 350V070 9999 FEW020 15/09 Q1024","updated":"2026-03-23T18:53:06Z"}
