{"icao":"LPCS","metar":"LPCS 300900Z 23007KT 170V260 9999 FEW014 SCT030 18/15 Q1014","updated":"2025-10-30T09:19:48Z"}
