{"icao":"LPLA","metar":"LPLA 261700Z 02005KT 340V060 9999 BKN023 14/08 Q1025","updated":"2025-12-26T17:16:19Z"}
