{"icao":"LPAR","metar":"LPAR 291400Z 35009KT 310V030 CAVOK 32/15 Q1020","updated":"2026-06-29T14:46:39Z"}
