{"icao":"KORD","metar":"KORD 171451Z 35003KT 10SM FEW060 FEW200 03/M08 A3011 RMK AO2 SLP202 T00331078 51014","updated":"2025-11-17T15:20:41Z"}
