{"icao":"LPFL","metar":"LPFL 161330Z 32005KT 230V020 9999 FEW020 BKN034 15/08 Q1036","updated":"2026-01-16T13:37:07Z"}
