{"icao":"LPMT","metar":"LPMT 061500Z 19015KT 160V220 9999 -RA FEW040 21/12 Q1016","updated":"2026-04-06T15:44:12Z"}
