{"icao":"LPLA","metar":"LPLA 102000Z 19018G32KT 160V230 9999 SCT007 BKN013 18/16 Q1017","updated":"2026-01-10T20:20:52Z"}
