{"icao":"KLAX","metar":"KLAX 161853Z VRB03KT 10SM CLR 22/06 A2994 RMK AO2 SLP136 T02170056 $","updated":"2025-10-16T19:12:55Z"}
