{"icao":"LPPR","metar":"LPPR 260600Z 01004KT CAVOK 06/05 Q1026","updated":"2025-11-26T06:29:14Z"}
