{"icao":"LPFR","metar":"LPFR 260500Z VRB02KT CAVOK 08/05 Q1013","updated":"2025-12-26T05:20:48Z"}
