{"icao":"KJFK","metar":"KJFK 191451Z 29012G21KT 10SM FEW032 FEW085 M04/M10 A2998 RMK AO2 SLP153 T10391100 51022 $","updated":"2026-01-19T15:25:46Z"}
