{"icao":"LPMA","metar":"LPMA 201230Z 21006KT 9999 SCT015 17/08 Q1027","updated":"2026-01-20T12:48:05Z"}
