{"icao":"LPPD","metar":"LPPD 241230Z 02008KT 350V050 9999 FEW014 BKN030 14/11 Q1024","updated":"2025-12-24T12:40:18Z"}
