{"icao":"LPPD","metar":"LPPD 011500Z 29034G44KT 9999 VCSH FEW020 FEW025CB BKN035 15/07 Q1008","updated":"2026-02-01T15:23:35Z"}
