{"icao":"KJFK","metar":"KJFK 080351Z 12005KT 3/4SM R04R/4500V5500FT -DZ BR OVC004 06/06 A2993 RMK AO2 SFC VIS 1 SLP133 P0000 T00610061","updated":"2026-03-08T04:41:38Z"}
