{"icao":"LPPD","metar":"LPPD 040600Z 02003KT 9999 FEW007 SCT045 21/19 Q1026","updated":"2025-10-04T06:23:26Z"}
