{"icao":"KLAX","metar":"KLAX 271853Z VRB03KT 10SM FEW110 SCT180 BKN250 26/00 A3004 RMK AO2 SLP170 T02560000 $","updated":"2025-11-27T19:15:02Z"}
