{"icao":"KORD","metar":"KORD 031551Z 31007KT 10SM BKN015 BKN250 09/06 A3007 RMK AO2 SLP184 T00940056","updated":"2026-04-03T16:40:01Z"}
