{"icao":"KORD","metar":"KORD 121851Z 24014G26KT 10SM FEW050 26/13 A2991 RMK AO2 PK WND 25026/1849 SLP125 T02610128","updated":"2026-06-12T19:04:02Z"}
