{"icao":"KJFK","metar":"KJFK 111251Z 30022G34KT 10SM FEW048 SCT220 01/M12 A2964 RMK AO2 PK WND 29034/1245 SLP036 T00061117 $","updated":"2025-12-11T13:38:12Z"}
