{"icao":"LPPD","metar":"LPPD 031500Z 35014KT 9999 VCSH FEW008 FEW018TCU 16/13 Q1010","updated":"2026-01-03T15:18:26Z"}
