{"icao":"KLAX","metar":"KLAX 112253Z 26008KT 10SM CLR 21/13 A2996 RMK AO2 SLP144 T02060133 $","updated":"2025-12-11T23:18:33Z"}
