{"icao":"KLAX","metar":"KLAX 171653Z 10010KT 10SM FEW008 SCT049 BKN150 BKN190 16/13 A2995 RMK AO2 SLP143 T01610128 $","updated":"2025-11-17T17:17:47Z"}
