{"icao":"LPST","metar":"LPST 230700Z VRB01KT CAVOK 07/06 Q1018","updated":"2025-09-23T07:17:27Z"}
