{"icao":"KLAX","metar":"KLAX 122153Z 26008KT 8SM FEW018 SCT030 BKN140 OVC180 18/16 A3002 RMK AO2 SLP166 T01830156 $","updated":"2025-11-12T22:17:50Z"}
