{"icao":"LPMT","metar":"LPMT 191900Z 34008KT CAVOK 24/13 Q1014","updated":"2026-06-19T19:48:48Z"}
