{"icao":"LPFL","metar":"LPFL 090900Z 19011KT 160V230 9999 FEW019 22/17 Q1016","updated":"2025-10-09T09:18:47Z"}
