{"icao":"LPLA","metar":"LPLA 242100Z 26004KT 190V360 9999 FEW006 SCT014 BKN040 19/17 Q1022","updated":"2026-05-24T21:56:03Z"}
