{"icao":"LPPT","metar":"LPPT 032200Z 05011KT 360V070 9999 BKN004 13/13 Q0999","updated":"2026-01-03T22:18:12Z"}
