{"icao":"LPPR","metar":"LPPR 131800Z 31004KT 270V340 CAVOK 19/13 Q1016","updated":"2025-10-13T18:24:52Z"}
