{"icao":"LPAZ","metar":"LPAZ 171800Z 17006KT 9999 FEW003 SCT009 BKN022 19/18 Q1025","updated":"2025-11-17T18:27:20Z"}
