{"icao":"LPPS","metar":"LPPS 141100Z 02021KT 9999 SCT014 18/13 Q1019","updated":"2025-12-14T11:16:03Z"}
