{"icao":"LPST","metar":"LPST 221000Z 22004KT 9999 FEW020 BKN045 13/09 Q1010","updated":"2026-01-22T10:26:17Z"}
