{"icao":"KJFK","metar":"KJFK 091451Z 36017KT 10SM FEW043 13/01 A3045 RMK AO2 PK WND 36027/1403 SLP309 T01330011 51014","updated":"2025-10-09T15:29:17Z"}
