{"icao":"LPPD","metar":"LPPD 281430Z 06007KT 350V110 9999 FEW022 BKN030 20/15 Q1028","updated":"2026-06-28T14:46:56Z"}
