{"icao":"LPPS","metar":"LPPS 191400Z 11004KT 070V150 9999 FEW015 SCT030 20/12 Q1018","updated":"2025-11-19T14:18:53Z"}
