{"icao":"LPAR","metar":"LPAR 301600Z VRB02KT 9999 FEW045 30/12 Q1017","updated":"2025-10-01T05:17:28Z"}
