{"icao":"LPMT","metar":"LPMT 242100Z 34006KT CAVOK 16/13 Q1019","updated":"2026-04-24T23:37:35Z"}
