{"icao":"KJFK","metar":"KJFK 261651Z 33008KT 10SM BKN160 BKN250 06/M06 A2989 RMK AO2 SLP121 T00561056 $","updated":"2026-02-26T16:57:37Z"}
