{"icao":"LPPD","metar":"LPPD 120430Z 28008KT 9999 FEW020 BKN030 14/10 Q1031","updated":"2026-03-12T04:45:41Z"}
