{"icao":"LPMT","metar":"LPMT 181300Z 36005KT 320V030 CAVOK 25/15 Q1016","updated":"2025-10-18T13:21:26Z"}
