{"icao":"KORD","metar":"KORD 220751Z 24003KT 10SM BKN240 20/18 A2987 RMK AO2 SLP109 T02000178 $","updated":"2025-09-22T08:24:39Z"}
