{"icao":"LPMT","metar":"LPMT 162200Z 10001KT CAVOK 15/11 Q1014","updated":"2025-10-16T22:13:23Z"}
