{"icao":"LPLA","metar":"LPLA 061400Z 20031G47KT 170V260 7000 -RA SCT007 BKN012 BKN020 20/17 Q1009","updated":"2025-12-06T14:15:56Z"}
