{"icao":"KJFK","metar":"KJFK 191051Z 30012KT 10SM BKN190 BKN250 22/09 A2969 RMK AO2 PK WND 30026/1034 SLP055 T02220094 $","updated":"2026-06-19T11:20:46Z"}
