{"icao":"LPPR","metar":"LPPR 241130Z 19012KT 9999 FEW018 SCT020 14/10 Q1017","updated":"2026-02-24T11:39:19Z"}
