{"icao":"LPPR","metar":"LPPR 261930Z 33004KT 2500 BCFG BR BKN001 11/11 Q1025","updated":"2026-02-26T19:42:45Z"}
