{"icao":"LPOV","metar":"LPOV 141400Z 26004KT 8000 BKN015 SCT040 13/12 Q1020","updated":"2026-01-14T14:24:05Z"}
