{"icao":"LPOV","metar":"LPOV 281100Z 04008KT CAVOK 13/05 Q1027","updated":"2026-02-28T11:17:44Z"}
