{"icao":"LPMR","metar":"LPMR 171800Z 33013KT 300V360 9999 FEW014 20/16 Q1018","updated":"2026-06-17T18:13:49Z"}
