{"icao":"LPMR","metar":"LPMR 132300Z 17002KT 1500 -DZ BR BKN004 BKN006 12/12 Q1022","updated":"2026-04-13T23:40:37Z"}
