{"icao":"LPHR","metar":"LPHR 121100Z 27010KT 210V310 9999 FEW014 SCT030 20/16 Q1018","updated":"2025-10-12T11:12:59Z"}
