{"icao":"LPPS","metar":"LPPS 241000Z 01008KT 340V050 9999 FEW015 20/13 Q1019","updated":"2026-04-24T10:19:58Z"}
