{"icao":"LPPD","metar":"LPPD 201630Z 18010KT 110V200 9000 FEW020 BKN045 17/14 Q1022","updated":"2026-02-20T16:37:11Z"}
