{"icao":"LPMR","metar":"LPMR 212200Z 26008KT 220V290 6000 BKN005 OVC012 20/19 Q1016","updated":"2025-10-21T22:15:31Z"}
