{"icao":"LPFR","metar":"LPFR 142000Z 01005KT 9999 FEW025 12/10 Q1021","updated":"2026-01-14T20:20:02Z"}
