{"icao":"LPMA","metar":"LPMA 311700Z 22018KT 190V250 9999 SCT016 23/15 Q1014","updated":"2025-10-31T17:16:54Z"}
