{"icao":"LPFL","metar":"LPFL 070700Z 28003KT 240V020 9999 SCT020 12/06 Q1031","updated":"2026-04-07T07:14:56Z"}
