{"icao":"LPCS","metar":"LPCS 152000Z 28004KT 230V320 9999 FEW006 SCT020 BKN032 13/12 Q1031","updated":"2026-02-15T20:25:03Z"}
