{"icao":"LPCS","metar":"LPCS 300600Z 02010KT 9999 FEW012 16/15 Q1017","updated":"2025-09-30T06:27:18Z"}
