{"icao":"LPPD","metar":"LPPD 061230Z 25018KT 2000 -RA BR FEW008 BKN014 13/11 Q1013","updated":"2026-02-06T12:56:50Z"}
