{"icao":"KLAX","metar":"KLAX 081453Z 00000KT 2SM BR OVC004 16/14 A2992 RMK AO2 SLP130 VIS SW-NW 1 1/4 T01560144 53016 $","updated":"2025-11-08T15:16:23Z"}
