{"icao":"LPMT","metar":"LPMT 031400Z 33006KT 290V360 CAVOK 23/11 Q1022","updated":"2026-04-03T14:40:26Z"}
