{"icao":"LPMR","metar":"LPMR 091400Z 09004KT 2000 -RA BR BKN006 BKN009 14/13 Q1015","updated":"2025-12-09T14:20:43Z"}
