{"icao":"LPFL","metar":"LPFL 311330Z 25017G32KT 180V290 9999 FEW013 18/13 Q1011","updated":"2026-01-31T13:40:02Z"}
