{"icao":"LPPD","metar":"LPPD 032100Z 01011KT 330V050 9999 FEW008 SCT012 FEW018TCU 15/13 Q1014","updated":"2026-01-03T21:17:03Z"}
