{"icao":"LPMR","metar":"LPMR 270100Z 13007KT CAVOK 06/00 Q1013","updated":"2025-12-27T01:26:55Z"}
