{"icao":"LPOV","metar":"LPOV 161900Z 35004KT CAVOK 15/10 Q1017","updated":"2026-03-16T22:31:25Z"}
