{"icao":"LPOV","metar":"LPOV 181900Z 30011KT 270V330 9999 SCT018 13/09 Q1018","updated":"2026-02-18T19:47:14Z"}
