{"icao":"KLAX","metar":"KLAX 020953Z 00000KT 10SM FEW003 12/10 A3005 RMK AO2 SLP174 T01220100 $","updated":"2025-12-02T10:22:04Z"}
