{"icao":"LPPT","metar":"LPPT 151800Z 24008KT 9999 FEW028 FEW030CB 16/13 Q1008","updated":"2025-11-15T18:23:19Z"}
