{"icao":"LPMR","metar":"LPMR 041900Z 14009KT CAVOK 21/14 Q1012","updated":"2025-11-04T19:14:53Z"}
