{"icao":"KLAX","metar":"KLAX 032253Z 26017KT 10SM FEW011 SCT025 SCT050 22/13 A2993 RMK AO2 SLP134 T02220133 $","updated":"2025-10-03T23:15:08Z"}
