{"icao":"KJFK","metar":"KJFK 130651Z 24007KT 10SM CLR 00/M05 A3011 RMK AO2 SLP196 T00001050 $","updated":"2026-01-13T07:24:10Z"}
