{"icao":"LPPD","metar":"LPPD 151330Z 04011KT 360V070 9999 SCT016 BKN035 16/12 Q1029","updated":"2026-03-15T13:46:23Z"}
