{"icao":"LPPR","metar":"LPPR 151230Z 32011KT 290V350 9999 FEW015 15/10 Q1021","updated":"2026-03-15T12:51:17Z"}
