{"icao":"KORD","metar":"KORD 260951Z 00000KT 10SM FEW250 11/07 A2972 RMK AO2 SLP063 T01110072","updated":"2026-03-26T10:01:01Z"}
