{"icao":"KJFK","metar":"KJFK 030151Z 14004KT 10SM SCT250 14/08 A3047 RMK AO2 SLP318 T01390078","updated":"2025-10-03T02:55:17Z"}
