{"icao":"LPFR","metar":"LPFR 062230Z 07011KT 9999 FEW030 17/14 Q1015","updated":"2026-04-06T22:34:56Z"}
