{"icao":"LPMA","metar":"LPMA 100330Z 36010KT 330V030 9999 BKN015 21/16 Q1023","updated":"2025-10-10T03:36:10Z"}
