{"icao":"LPBJ","metar":"LPBJ 312200Z 10007KT CAVOK 07/06 Q1017","updated":"2025-12-31T22:19:16Z"}
