{"icao":"LPMT","metar":"LPMT 280700Z VRB02KT CAVOK 06/06 Q1023","updated":"2025-11-28T07:18:36Z"}
