{"icao":"LPPR","metar":"LPPR 271500Z 10010KT 060V120 CAVOK 13/01 Q1011","updated":"2025-12-27T15:18:05Z"}
