{"icao":"LPMA","metar":"LPMA 282130Z 35006KT 300V040 9999 SCT015 BKN033 17/09 Q1015","updated":"2026-04-28T21:57:12Z"}
