{"icao":"KLAX","metar":"KLAX 071253Z 08005KT 8SM FEW250 13/11 A3015 RMK AO2 SLP207 T01280111 $","updated":"2026-02-07T13:42:35Z"}
