{"icao":"LPST","metar":"LPST 231300Z 28005KT 230V310 9999 BKN018 BKN035 22/18 Q1020","updated":"2025-10-23T13:30:35Z"}
