{"icao":"LPMA","metar":"LPMA 042000Z 01005KT 290V040 9999 FEW015 21/16 Q1026","updated":"2025-10-04T20:17:19Z"}
