{"icao":"LPHR","metar":"LPHR 201830Z 28018KT 9999 FEW007 SCT012 17/14 Q1023","updated":"2026-01-20T18:35:38Z"}
