{"icao":"LPLA","metar":"LPLA 191000Z 35011KT 9999 FEW025 SCT040 20/12 Q1022","updated":"2025-09-19T10:19:05Z"}
