{"icao":"LPMA","metar":"LPMA 271100Z 35020KT 9999 FEW015 20/08 Q1026","updated":"2026-02-27T11:31:24Z"}
