{"icao":"LPMT","metar":"LPMT 131000Z 02006KT 9999 BKN017 14/10 Q1024","updated":"2026-03-13T10:35:13Z"}
