{"icao":"KORD","metar":"KORD 090151Z 19015G23KT 10SM FEW150 BKN250 19/04 A3000 RMK AO2 SLP160 T01940039","updated":"2026-04-09T02:08:46Z"}
