{"icao":"LPMA","metar":"LPMA 010600Z 22011KT 9999 SCT015 21/17 Q1015","updated":"2025-11-01T06:24:45Z"}
