{"icao":"LPMR","metar":"LPMR 191400Z 23012KT 210V270 8000 -RA FEW016 BKN032 22/17 Q1013","updated":"2025-10-19T14:14:40Z"}
