{"icao":"KORD","metar":"KORD 190951Z 07004KT 10SM FEW150 BKN250 21/16 A3002 RMK AO2 SLP161 T02110161","updated":"2025-09-19T10:19:06Z"}
