{"icao":"KLAX","metar":"KLAX 141253Z 16009KT 6SM -RA BR SCT020 BKN030 OVC037 16/13 A2979 RMK AO2 SLP086 P0006 T01560133 $","updated":"2025-10-14T13:29:18Z"}
