{"icao":"LPBJ","metar":"LPBJ 301500Z 26005KT 170V230 CAVOK 21/08 Q1017","updated":"2026-04-30T15:08:36Z"}
