{"icao":"LPFR","metar":"LPFR 151400Z 12009KT CAVOK 24/18 Q1016","updated":"2025-10-15T14:18:49Z"}
