{"icao":"LPMA","metar":"LPMA 072000Z 36009KT 330V030 9999 SCT015 16/07 Q1033","updated":"2026-01-07T20:24:11Z"}
