{"icao":"LPOV","metar":"LPOV 121200Z 16017KT 9999 FEW020 BKN042 13/10 Q1018","updated":"2026-01-12T12:44:36Z"}
