{"icao":"LPOV","metar":"LPOV 152200Z 02003KT CAVOK 12/12 Q1021","updated":"2026-03-15T22:26:43Z"}
