{"icao":"KJFK","metar":"KJFK 021451Z 15011KT 8SM -RA BKN027 OVC070 07/04 A2997 RMK AO2 RAB20 SLP148 P0003 60003 T00720044 56042 $","updated":"2025-12-02T15:21:23Z"}
