{"icao":"LPCS","metar":"LPCS 240930Z 09006KT 050V130 CAVOK 16/07 Q1020","updated":"2026-03-24T09:54:32Z"}
