{"icao":"LPHR","metar":"LPHR 171300Z 28012KT 9999 SCT005 BKN008 BKN025 20/19 Q1023","updated":"2025-11-17T13:30:48Z"}
