{"icao":"KLAX","metar":"KLAX 091253Z 15004KT 5SM BR OVC009 16/14 A2992 RMK AO2 SLP131 T01610139","updated":"2026-05-09T13:14:57Z"}
