{"icao":"LPHR","metar":"LPHR 282300Z 25020KT 7000 -RA FEW004 SCT006 BKN012 16/16 Q1007","updated":"2026-01-28T23:24:56Z"}
