{"icao":"KJFK","metar":"KJFK 062151Z 03010KT 10SM OVC017 04/01 A3040 RMK AO2 SLP295 T00440006","updated":"2026-03-06T22:27:53Z"}
