{"icao":"LPAZ","metar":"LPAZ 120300Z 34016KT 9999 FEW025 SCT041 14/06 Q1031","updated":"2025-12-12T03:22:17Z"}
