{"icao":"LPPS","metar":"LPPS 020930Z 01014KT 9999 FEW012 18/14 Q1023","updated":"2026-04-02T10:01:14Z"}
