{"icao":"LPBJ","metar":"LPBJ 190000Z 28006KT CAVOK 21/12 Q1014","updated":"2026-06-19T00:25:02Z"}
