{"icao":"KORD","metar":"KORD 042051Z 03003KT 10SM BKN026 M03/M09 A3035 RMK AO2 SLP288 T10281094 56016","updated":"2026-02-04T21:31:44Z"}
