{"icao":"LPMT","metar":"LPMT 292200Z 33005KT CAVOK 19/13 Q1017","updated":"2025-09-29T22:14:50Z"}
