{"icao":"LPMA","metar":"LPMA 141230Z 02011KT 350V050 9999 SCT015 17/09 Q1026","updated":"2026-01-14T12:43:29Z"}
