{"icao":"KORD","metar":"KORD 290851Z 34009KT 10SM BKN060 BKN075 OVC090 12/05 A2987 RMK AO2 SLP114 T01220050 58007 $","updated":"2026-04-29T09:07:54Z"}
