{"icao":"KJFK","metar":"KJFK 182251Z 35009KT 1SM R04R/P6000FT -SN BR BKN007 OVC013 01/00 A2984 RMK AO2 SFC VIS 1 3/4 SLP103 P0003 T00060000 $","updated":"2026-01-18T23:19:09Z"}
