{"icao":"LPAZ","metar":"LPAZ 292100Z 04010KT 010V070 9999 FEW014 20/17 Q1029","updated":"2026-06-29T21:25:13Z"}
