{"icao":"LPFR","metar":"LPFR 261130Z 10011KT CAVOK 18/09 Q1023","updated":"2026-02-26T11:38:41Z"}
