{"icao":"LPPR","metar":"LPPR 242300Z 33003KT CAVOK 10/07 Q1019","updated":"2025-11-24T23:17:09Z"}
