{"icao":"LPCS","metar":"LPCS 201530Z 35021KT 9999 FEW010 27/15 Q1014","updated":"2026-06-20T15:49:08Z"}
