{"icao":"LPST","metar":"LPST 031300Z 32013KT 290V360 CAVOK 22/16 Q1022","updated":"2026-06-03T13:20:30Z"}
