{"icao":"LPCS","metar":"LPCS 221030Z VRB04KT CAVOK 29/11 Q1020","updated":"2026-05-22T10:48:49Z"}
