{"icao":"LPPR","metar":"LPPR 101230Z 12008KT 080V150 CAVOK 25/10 Q1022","updated":"2025-10-10T12:36:38Z"}
