{"icao":"LPFR","metar":"LPFR 080500Z 02003KT CAVOK 13/10 Q1010","updated":"2026-05-08T05:29:05Z"}
