{"icao":"LPOV","metar":"LPOV 132000Z 35004KT CAVOK 17/14 Q1017","updated":"2025-10-13T20:19:20Z"}
