{"icao":"LPPT","metar":"LPPT 132000Z 04010KT CAVOK 15/10 Q1020","updated":"2025-12-13T20:19:32Z"}
