{"icao":"LPFR","metar":"LPFR 111530Z 25011KT 3000 -DZ BR BKN003 BKN008 15/15 Q1020","updated":"2026-02-11T15:59:51Z"}
