{"icao":"LPBJ","metar":"LPBJ 312300Z 30008KT CAVOK 21/10 Q1018","updated":"2026-06-01T00:04:31Z"}
