{"icao":"LPPR","metar":"LPPR 182000Z VRB01KT CAVOK 19/13 Q1015","updated":"2025-10-18T20:17:36Z"}
