{"icao":"LPBJ","metar":"LPBJ 261900Z 20011KT CAVOK 31/09 Q1020","updated":"2026-05-26T19:20:26Z"}
