{"icao":"LPOV","metar":"LPOV 141500Z 32002KT CAVOK 16/10 Q1017","updated":"2025-12-14T15:17:20Z"}
