{"icao":"LPPT","metar":"LPPT 111030Z 07006KT 360V130 9999 FEW020 14/10 Q1027","updated":"2026-03-11T10:37:31Z"}
