{"icao":"LPMR","metar":"LPMR 311400Z 21019KT 7000 -RA SCT008 BKN018 OVC030 21/17 Q1010","updated":"2025-10-31T14:18:09Z"}
