{"icao":"KORD","metar":"KORD 031751Z 08003KT 10SM BKN250 26/02 A3030 RMK AO2 SLP259 T02560022 10261 20156 57013","updated":"2026-06-03T18:21:31Z"}
