{"icao":"KLAX","metar":"KLAX 171812Z VRB03KT 2SM BR SCT005 OVC010 15/13 A3010 RMK AO2 VIS 1V2 1/2 VIS S-W 1 1/2 SCT V BKN T01500128 $","updated":"2025-12-17T18:30:48Z"}
