{"icao":"LPAZ","metar":"LPAZ 301300Z 10010KT 080V140 9999 FEW020 18/12 Q1032","updated":"2026-03-30T13:16:49Z"}
