{"icao":"KLAX","metar":"KLAX 081853Z 01005KT 10SM CLR 26/03 A3022 RMK AO2 SLP232 T02560033 $","updated":"2026-02-08T19:23:48Z"}
