{"icao":"LPBJ","metar":"LPBJ 222100Z 23016KT 4000 -RADZ BR BKN008 BKN020 13/13 Q1005 RERADZ","updated":"2026-01-22T21:21:26Z"}
