{"icao":"KLAX","metar":"KLAX 181053Z 13004KT 10SM CLR 16/11 A2994 RMK AO2 SLP137 T01610106","updated":"2025-10-18T11:13:28Z"}
