{"icao":"LPMT","metar":"LPMT 011000Z 03011KT CAVOK 18/06 Q1024","updated":"2026-04-01T10:54:24Z"}
