{"icao":"KJFK","metar":"KJFK 181551Z 00000KT 10SM BKN080 BKN250 17/02 A3005 RMK AO2 SLP177 T01670017","updated":"2025-10-18T16:19:32Z"}
