{"icao":"LPFR","metar":"LPFR 211100Z 09015KT CAVOK 26/08 Q1021","updated":"2026-05-21T11:21:40Z"}
