{"icao":"KORD","metar":"KORD 191351Z 14003KT 10SM FEW120 SCT250 24/16 A3004 RMK AO2 SLP166 T02390161","updated":"2025-09-19T14:17:05Z"}
