{"icao":"LPHR","metar":"LPHR 161300Z 26009KT 9999 SCT011 16/14 Q1020","updated":"2026-03-16T13:09:19Z"}
