{"icao":"LPOV","metar":"LPOV 041000Z 22010KT 190V250 9999 FEW012 BKN025 14/12 Q0994","updated":"2026-02-04T10:36:48Z"}
