{"icao":"LPFL","metar":"LPFL 041800Z 04005KT 340V100 9999 SCT028 16/09 Q1027","updated":"2026-05-04T18:13:20Z"}
