{"icao":"LPMT","metar":"LPMT 270800Z 05003KT CAVOK 06/06 Q1024","updated":"2025-11-27T08:27:01Z"}
