{"icao":"KLAX","metar":"KLAX 101453Z 00000KT 6SM HZ OVC011 17/14 A2993 RMK AO2 SLP133 T01670139 53007","updated":"2026-05-10T15:52:31Z"}
