{"icao":"LPOV","metar":"LPOV 162100Z 24005KT 200V270 5000 -DZ OVC005 14/14 Q1029","updated":"2026-02-16T21:27:44Z"}
