{"icao":"LPMT","metar":"LPMT 081300Z 23009KT 200V260 9999 SCT030 15/09 Q1015 RMK BKN080 BLU","updated":"2026-02-08T13:43:01Z"}
