{"icao":"LPHR","metar":"LPHR 231900Z 24004KT 9999 FEW016 19/14 Q1023","updated":"2026-05-23T19:23:19Z"}
