{"icao":"LPMA","metar":"LPMA 021030Z 35027G43KT 9000 -RA FEW008 SCT015 15/10 Q1016","updated":"2026-03-02T10:41:43Z"}
