{"icao":"LPOV","metar":"LPOV 161500Z 23007KT 210V290 7000 BKN007 BKN012 14/14 Q1028","updated":"2026-02-16T15:39:07Z"}
