{"icao":"LPPT","metar":"LPPT 200600Z 22003KT 190V250 9999 FEW015 17/16 Q1014","updated":"2025-10-20T06:28:05Z"}
