{"icao":"LPMR","metar":"LPMR 251700Z 31007KT 270V350 CAVOK 21/15 Q1022","updated":"2026-05-25T18:24:11Z"}
