{"icao":"LPFR","metar":"LPFR 031400Z 19005KT 150V230 CAVOK 25/14 Q1021","updated":"2025-10-03T14:16:27Z"}
