{"icao":"KJFK","metar":"KJFK 191051Z 00000KT 10SM -RA SCT027 SCT035 OVC042 04/02 A3017 RMK AO2 SLP217 P0002 T00440017 $","updated":"2025-11-19T11:16:30Z"}
