{"icao":"LPHR","metar":"LPHR 270800Z 05012KT 9999 FEW030 BKN047 19/12 Q1024","updated":"2025-09-27T08:20:02Z"}
