{"icao":"LPBJ","metar":"LPBJ 030700Z 29004KT CAVOK 15/12 Q1022","updated":"2025-10-03T07:16:48Z"}
