{"icao":"LPMT","metar":"LPMT 241800Z 31011KT 280V340 9999 FEW015 SCT035 12/06 Q1015","updated":"2026-01-24T18:28:36Z"}
