{"icao":"LPPD","metar":"LPPD 250330Z 24014KT 8000 SCT006 BKN011 16/15 Q1019","updated":"2026-01-25T03:53:02Z"}
