{"icao":"LPMA","metar":"LPMA 221800Z 03004KT 360V070 9999 FEW013 23/20 Q1021","updated":"2025-10-22T18:28:01Z"}
