{"icao":"LPPS","metar":"LPPS 120930Z 20005KT 170V240 9999 FEW014 BKN030 16/11 Q1026","updated":"2026-02-12T09:48:44Z"}
