{"icao":"KORD","metar":"KORD 132251Z 29008G16KT 10SM FEW020 FEW075 OVC100 M13/M20 A3025 RMK AO2 SLP259 T11281200","updated":"2025-12-13T23:17:42Z"}
