{"icao":"KORD","metar":"KORD 241303Z 08004KT 10SM BKN012 OVC250 02/01 A3031 RMK AO2 T00170006","updated":"2025-12-24T13:31:20Z"}
