{"icao":"KORD","metar":"KORD 220651Z 27015G23KT 10SM BKN038 OVC060 08/02 A2972 RMK AO2 PK WND 26027/0610 SLP067 T00830017","updated":"2025-10-22T07:17:38Z"}
