{"icao":"KJFK","metar":"KJFK 011951Z 32021G30KT 10SM FEW060 FEW220 BKN250 M06/M17 A2977 RMK AO2 PK WND 34030/1928 SLP080 T10561172 PNO $","updated":"2026-02-01T20:25:56Z"}
