{"icao":"LPBJ","metar":"LPBJ 090400Z 33009KT 9999 BKN012 16/14 Q1018","updated":"2026-06-09T05:04:00Z"}
