{"icao":"LPMA","metar":"LPMA 032100Z 33003KT 300V030 9999 FEW015 17/12 Q1014","updated":"2026-02-03T21:33:02Z"}
