{"icao":"KORD","metar":"KORD 272051Z 30012G21KT 10SM FEW035 M10/M19 A3017 RMK AO2 SLP229 60000 T11001189 53019","updated":"2026-01-27T21:17:17Z"}
