{"icao":"LPPD","metar":"LPPD 131400Z 02006KT 340V060 9999 FEW015 FEW018TCU BKN040 19/17 Q1016","updated":"2025-10-13T14:18:51Z"}
