{"icao":"KLAX","metar":"KLAX 271453Z 17003KT 10SM FEW013 SCT024 BKN027 19/12 A2996 RMK AO2 SLP143 T01890122 52013","updated":"2026-06-27T15:13:46Z"}
