{"icao":"LPCS","metar":"LPCS 251100Z 26012KT 230V290 9999 FEW008 SCT014 BKN045 15/15 Q1017","updated":"2026-01-25T11:16:54Z"}
