{"icao":"LPAR","metar":"LPAR 211600Z 02008KT CAVOK 15/01 Q1026","updated":"2025-11-21T16:23:50Z"}
