{"icao":"LPCS","metar":"LPCS 060700Z VRB02KT CAVOK 14/12 Q1018","updated":"2025-10-06T07:17:53Z"}
