{"icao":"LPPT","metar":"LPPT 010630Z 08003KT CAVOK 08/06 Q1021","updated":"2026-03-01T06:43:24Z"}
