{"icao":"LPFR","metar":"LPFR 301000Z 30008KT 280V340 CAVOK 13/08 Q1016","updated":"2025-11-30T10:18:14Z"}
