{"icao":"KLAX","metar":"KLAX 061753Z VRB03KT 10SM SCT022 BKN030 BKN140 18/12 A3017 RMK AO2 SLP214 T01780122 10178 20144 51014","updated":"2026-02-06T18:50:07Z"}
