{"icao":"LPLA","metar":"LPLA 050700Z 23017KT 7000 -RADZ FEW008 BKN016 19/16 Q1017","updated":"2025-12-05T07:19:56Z"}
