{"icao":"KORD","metar":"KORD 141951Z 02012G17KT 10SM SCT027 BKN220 20/13 A3030 RMK AO2 SLP259 T02000128 $","updated":"2025-10-14T20:19:44Z"}
