{"icao":"LPFR","metar":"LPFR 170700Z 06011KT CAVOK 20/16 Q1013","updated":"2025-10-17T07:17:36Z"}
