{"icao":"KJFK","metar":"KJFK 301451Z 03012KT 10SM FEW160 BKN250 23/11 A3009 RMK AO2 SLP190 T02330106 58003","updated":"2025-09-30T15:16:44Z"}
