{"icao":"LPPT","metar":"LPPT 260400Z 31006KT CAVOK 12/11 Q1021","updated":"2026-02-26T04:22:27Z"}
