{"icao":"LPMR","metar":"LPMR 191300Z 21008KT 180V240 9999 FEW018 BKN035 23/16 Q1014","updated":"2025-10-19T13:21:27Z"}
