{"icao":"LPPS","metar":"LPPS 040600Z 02004KT 350V050 9999 FEW015 15/10 Q1026","updated":"2025-12-04T06:30:33Z"}
