{"icao":"LPFL","metar":"LPFL 201900Z 34012KT 290V010 9999 FEW032 14/08 Q1032","updated":"2025-12-20T19:14:18Z"}
