{"icao":"LPPR","metar":"LPPR 201330Z 31010KT 280V340 9999 FEW022 SCT035 13/06 Q1031","updated":"2026-02-20T14:00:37Z"}
