{"icao":"LPPI","metar":"LPPI 241030Z 30004KT 250V350 9999 SCT011 BKN035 22/19 Q1021","updated":"2026-06-24T10:47:47Z"}
