{"icao":"LPMA","metar":"LPMA 191600Z 15005KT 090V230 9999 FEW013 25/22 Q1019","updated":"2025-09-19T16:20:41Z"}
