{"icao":"KORD","metar":"KORD 240851Z 34007KT 10SM SCT140 BKN250 M22/M31 A3074 RMK AO2 SLP431 T12221306 50000","updated":"2026-01-24T09:19:41Z"}
