{"icao":"LPCS","metar":"LPCS 141500Z 06012KT 030V090 CAVOK 17/10 Q1016","updated":"2025-12-14T15:17:19Z"}
