{"icao":"KJFK","metar":"KJFK 141851Z 29013G22KT 10SM BKN060 BKN250 11/M02 A3000 RMK AO2 SLP160 T01061022","updated":"2025-11-14T19:14:37Z"}
