{"icao":"LPPS","metar":"LPPS 171430Z 35011KT 320V030 9999 FEW015 BKN030 19/11 Q1025","updated":"2026-05-17T14:54:52Z"}
