{"icao":"LPAZ","metar":"LPAZ 191330Z 03007KT 340V060 9999 FEW032 SCT038 16/09 Q1032","updated":"2026-01-19T13:44:06Z"}
