{"icao":"LPMA","metar":"LPMA 141230Z 19007KT 150V220 9999 FEW015 24/17 Q1017","updated":"2025-10-14T12:39:08Z"}
