{"icao":"LPFL","metar":"LPFL 251800Z 18018KT 150V220 9999 VCSH SCT010 BKN016 22/20 Q1006","updated":"2025-09-25T18:26:16Z"}
