{"icao":"LPPD","metar":"LPPD 212200Z 21007KT 9000 BKN007 BKN014 23/22 Q1016","updated":"2025-10-21T22:15:45Z"}
