{"icao":"LPFL","metar":"LPFL 130730Z 19014KT 140V250 9999 FEW011 SCT016 18/14 Q1017","updated":"2026-04-13T08:01:17Z"}
