{"icao":"LPMT","metar":"LPMT 121100Z 24007KT 8000 FEW015 BKN025 16/14 Q1021","updated":"2026-02-12T11:38:18Z"}
