{"icao":"KORD","metar":"KORD 030351Z 14005KT 10SM CLR 21/13 A3020 RMK AO2 SLP223 T02060133","updated":"2025-10-03T04:20:16Z"}
