{"icao":"LPOV","metar":"LPOV 211200Z 21015KT 180V240 9999 SCT030 FEW035TCU 20/15 Q1003","updated":"2026-04-21T13:23:51Z"}
