{"icao":"LPFL","metar":"LPFL 261630Z 34012G24KT 280V010 9999 FEW016 18/12 Q1030","updated":"2026-02-26T16:57:35Z"}
