{"icao":"LPBJ","metar":"LPBJ 310400Z 30013KT CAVOK 10/07 Q1017","updated":"2026-01-31T04:05:13Z"}
