{"icao":"KJFK","metar":"KJFK 301451Z 23017KT 10SM FEW090 SCT120 BKN250 16/07 A3020 RMK AO2 SLP225 T01560067 58015 $","updated":"2026-03-30T15:02:30Z"}
