{"icao":"LPPR","metar":"LPPR 191030Z 19006KT CAVOK 18/09 Q1008","updated":"2026-03-19T10:38:31Z"}
