{"icao":"LPAZ","metar":"LPAZ 281230Z 23007KT 9999 FEW022 BKN032 16/11 Q1033","updated":"2026-02-28T12:42:31Z"}
