{"icao":"LPBJ","metar":"LPBJ 081100Z 18003KT 100V210 9999 FEW007 BKN020 08/08 Q1034","updated":"2026-01-08T11:19:46Z"}
