{"icao":"LPPT","metar":"LPPT 172200Z 24005KT 200V270 9999 BKN020 12/09 Q1024","updated":"2026-02-17T22:29:32Z"}
