{"icao":"LPFL","metar":"LPFL 291600Z 20012G27KT 160V230 1000 +RA BKN012 FEW015CB 19/17 Q1007","updated":"2025-10-29T16:24:39Z"}
