{"icao":"KJFK","metar":"KJFK 041551Z 24004KT 10SM FEW250 24/13 A3022 RMK AO2 SLP232 T02390128","updated":"2025-10-04T16:18:49Z"}
