{"icao":"KORD","metar":"KORD 051651Z 32015G25KT 10SM SCT050 SCT240 16/06 A2995 RMK AO2 SLP141 T01560061","updated":"2025-11-05T17:17:45Z"}
