{"icao":"KORD","metar":"KORD 091951Z 07007KT 10SM CLR 17/03 A3040 RMK AO2 SLP294 T01670028","updated":"2025-10-09T20:19:42Z"}
