{"icao":"LPFR","metar":"LPFR 190330Z 35009KT CAVOK 08/03 Q1017","updated":"2026-01-19T03:48:54Z"}
