{"icao":"KORD","metar":"KORD 312051Z 28008KT 10SM FEW040 BKN085 BKN250 11/02 A2986 RMK AO2 SLP115 T01110017 55003 $","updated":"2025-10-31T21:15:24Z"}
