{"icao":"LPCS","metar":"LPCS 282000Z 01008KT 9999 FEW001 16/13 Q1008","updated":"2026-04-28T20:14:27Z"}
