{"icao":"LPBJ","metar":"LPBJ 112100Z 23007KT CAVOK 26/10 Q1018","updated":"2026-06-11T21:18:53Z"}
