{"icao":"LPMT","metar":"LPMT 231600Z 27008KT CAVOK 20/08 Q1021","updated":"2026-02-23T16:56:11Z"}
