{"icao":"KJFK","metar":"KJFK 092051Z 31011KT 10SM FEW120 SCT250 M01/M15 A3020 RMK AO2 SLP227 T10111150 56017 $","updated":"2026-02-09T21:37:50Z"}
