{"icao":"LPFR","metar":"LPFR 231230Z 11013KT CAVOK 25/03 Q1016","updated":"2025-09-23T12:35:53Z"}
