{"icao":"LPBJ","metar":"LPBJ 011600Z 03013KT CAVOK 22/05 Q1020","updated":"2026-04-01T16:53:20Z"}
