{"icao":"KJFK","metar":"KJFK 181651Z 31016G23KT 10SM FEW050 FEW080 BKN200 BKN250 07/M06 A3015 RMK AO2 SLP209 T00721056 $","updated":"2025-11-18T17:18:20Z"}
