{"icao":"LPPT","metar":"LPPT 160730Z 22005KT 200V260 9000 -DZ SCT006 BKN024 12/11 Q1031","updated":"2026-02-16T07:53:05Z"}
