{"icao":"LPMA","metar":"LPMA 031800Z 36011KT 320V030 9999 FEW015 24/14 Q1024","updated":"2026-06-03T18:21:31Z"}
