{"icao":"LPMA","metar":"LPMA 270900Z 21016KT 5000 -SHRA FEW008 BKN013 FEW016CB 22/21 Q1016 RESHRA","updated":"2025-10-27T09:22:13Z"}
