{"icao":"LPCS","metar":"LPCS 242000Z 23006KT 9999 SCT008 20/18 Q1014","updated":"2026-06-24T20:47:06Z"}
