{"icao":"LPLA","metar":"LPLA 211600Z 29021KT 9999 SCT013 BKN030 19/16 Q1018","updated":"2026-01-21T16:43:06Z"}
