{"icao":"LPPD","metar":"LPPD 091030Z 32015KT 290V350 9999 SCT020 14/05 Q1016","updated":"2026-05-09T10:55:57Z"}
