{"icao":"KLAX","metar":"KLAX 061253Z 08003KT 10SM CLR 11/03 A3003 RMK AO2 SLP168 T01060033 $","updated":"2025-12-06T13:25:44Z"}
