{"icao":"LPHR","metar":"LPHR 242130Z 14005KT 0200 FG VV001 18/18 Q1021","updated":"2026-05-24T21:56:05Z"}
