{"icao":"LPFR","metar":"LPFR 191100Z 34009KT 9999 FEW040 18/08 Q1017","updated":"2025-11-19T11:16:23Z"}
