{"icao":"LPFR","metar":"LPFR 152100Z 29023KT 9999 -SHRA FEW008 SCT012 FEW018CB BKN020 14/12 Q1007","updated":"2025-12-15T21:18:31Z"}
