{"icao":"LPAZ","metar":"LPAZ 162100Z 32015KT 9999 FEW017 21/17 Q1009","updated":"2025-10-16T21:15:46Z"}
