{"icao":"LPHR","metar":"LPHR 211500Z 27019KT 8000 VCSH SCT003 BKN005 BKN010 17/17 Q1020","updated":"2026-01-21T15:30:35Z"}
