{"icao":"LPPT","metar":"LPPT 072200Z 33012KT 9999 FEW015 17/14 Q1023","updated":"2025-10-07T22:16:00Z"}
