{"icao":"LPPD","metar":"LPPD 261500Z 14006KT 120V180 9999 FEW008 SCT015 BKN030 18/16 Q1023","updated":"2025-11-26T15:18:09Z"}
