{"icao":"KLAX","metar":"KLAX 071753Z 31005KT 10SM FEW230 FEW280 18/06 A3016 RMK AO2 SLP213 T01830061 10183 20106 53017 $","updated":"2025-12-07T18:25:06Z"}
