{"icao":"LPPR","metar":"LPPR 200700Z 20003KT 2000 BR BKN002 17/17 Q1020","updated":"2025-09-20T07:15:11Z"}
