{"icao":"LPAZ","metar":"LPAZ 301500Z 32008KT 9999 SCT013 BKN019 18/15 Q1027","updated":"2025-11-30T15:16:51Z"}
