{"icao":"LPBJ","metar":"LPBJ 171400Z VRB04KT 9999 FEW030 27/13 Q1014","updated":"2025-10-17T14:17:24Z"}
