{"icao":"KORD","metar":"KORD 041051Z 00000KT 10SM FEW200 BKN250 04/M03 A3026 RMK AO2 SLP250 T00441028 $","updated":"2025-11-04T11:17:02Z"}
