{"icao":"LPPS","metar":"LPPS 090430Z 04009KT 360V070 9999 SCT014 BKN030 14/05 Q1027","updated":"2026-03-09T04:50:06Z"}
