{"icao":"KJFK","metar":"KJFK 102251Z 15009KT 10SM BKN045 15/05 A3037 RMK AO2 SLP284 T01500050","updated":"2025-10-10T23:15:47Z"}
