{"icao":"LPMA","metar":"LPMA 251430Z 01009KT 330V060 9999 SCT016 20/10 Q1018","updated":"2026-04-25T14:40:05Z"}
