{"icao":"LPMA","metar":"LPMA 080800Z 22015KT 9999 FEW015 19/13 Q1018","updated":"2025-12-08T08:29:42Z"}
