{"icao":"LPAZ","metar":"LPAZ 151000Z 35009KT 9999 FEW020 BKN046 14/10 Q1025","updated":"2026-01-15T10:23:24Z"}
