{"icao":"LPBJ","metar":"LPBJ 221909Z 20014KT 4000 -RADZ BR BKN008 BKN020 11/11 Q1005 RERA","updated":"2026-01-22T19:23:50Z"}
