{"icao":"LPSJ","metar":"LPSJ 251200Z 32011KT 290V010 9999 FEW015 BKN020 18/13 Q1025","updated":"2026-06-25T12:19:22Z"}
