{"icao":"LPLA","metar":"LPLA 151600Z 20013G31KT 9999 SCT030 SCT040 22/15 Q1005","updated":"2025-10-15T16:19:25Z"}
