{"icao":"LPMR","metar":"LPMR 160700Z 15005KT 5000 BR FEW025 BKN030 08/08 Q1013","updated":"2026-01-16T07:23:44Z"}
