{"icao":"LPPR","metar":"LPPR 060600Z 11010KT CAVOK 19/06 Q1019","updated":"2025-10-06T06:27:16Z"}
