{"icao":"LPBJ","metar":"LPBJ 100600Z 31001KT 6000 VCFG FEW003 SCT028 08/08 Q1019","updated":"2025-11-10T06:30:40Z"}
