{"icao":"KJFK","metar":"KJFK 040751Z 23006KT 10SM FEW250 16/08 A3015 RMK AO2 SLP210 T01560083 $","updated":"2026-06-04T08:19:44Z"}
