{"icao":"LPMR","metar":"LPMR 032000Z 07004KT 9999 FEW020 SCT035 13/12 Q1000","updated":"2026-01-03T20:20:53Z"}
