{"icao":"LPPD","metar":"LPPD 011200Z 04009KT 010V080 9999 FEW025 BKN045 18/07 Q1021","updated":"2025-11-01T12:33:07Z"}
