{"icao":"LPSJ","metar":"LPSJ 271100Z 36011KT 320V030 9999 FEW014 BKN025 19/15 Q1024","updated":"2026-06-27T11:25:37Z"}
