{"icao":"LPPD","metar":"LPPD 140130Z 34002KT 9999 FEW025 11/09 Q1032","updated":"2026-02-14T01:56:53Z"}
