{"icao":"KORD","metar":"KORD 270551Z 21007KT 10SM CLR 02/M02 A2988 RMK AO2 SLP124 T00171017 10044 20017 400501072 53003","updated":"2026-02-27T06:52:37Z"}
