{"icao":"LPCS","metar":"LPCS 082000Z 01005KT CAVOK 14/12 Q1023","updated":"2025-11-09T06:25:12Z"}
