{"icao":"LPOV","metar":"LPOV 280600Z VRB02KT CAVOK 07/06 Q1021","updated":"2026-03-28T06:58:28Z"}
