{"icao":"LPMA","metar":"LPMA 031700Z 33012KT 290V020 9999 SCT015 20/11 Q1001","updated":"2026-01-03T17:16:37Z"}
