{"icao":"KJFK","metar":"KJFK 211051Z 25009KT 10SM SCT085 BKN100 BKN150 BKN250 02/M01 A2997 RMK AO2 SLP149 T00221006 $","updated":"2025-12-21T11:15:53Z"}
