{"icao":"KJFK","metar":"KJFK 140851Z 22005KT 10SM FEW250 03/02 A2980 RMK AO2 SLP090 T00280022 56009","updated":"2026-03-14T09:32:11Z"}
