{"icao":"LPMR","metar":"LPMR 042100Z 34005KT 0700 FG OVC002 18/17 Q1024","updated":"2025-10-04T23:15:06Z"}
