{"icao":"LPPR","metar":"LPPR 160500Z 02002KT 9999 2000NW BCFG FEW001 12/12 Q1021","updated":"2025-09-16T05:16:18Z"}
