{"icao":"LPFR","metar":"LPFR 042300Z 23017KT 8000 FEW008 BKN030 16/15 Q1002","updated":"2026-02-04T23:26:00Z"}
