{"icao":"LPMR","metar":"LPMR 101400Z VRB01KT 9999 FEW022 13/08 Q1029","updated":"2026-01-10T14:17:44Z"}
