{"icao":"LPPR","metar":"LPPR 161330Z 15005KT 120V180 9999 FEW020CB SCT040 10/08 Q1012","updated":"2026-01-16T13:36:50Z"}
