{"icao":"LPPI","metar":"LPPI 211400Z VRB06KT 9999 FEW018 SCT033 21/15 Q1020","updated":"2026-06-21T14:07:39Z"}
