{"icao":"LPPR","metar":"LPPR 242030Z 33006KT 9999 BKN009 15/13 Q1019","updated":"2026-04-24T20:45:41Z"}
