{"icao":"LPFL","metar":"LPFL 222100Z 17019G37KT 150V210 9999 SCT008 BKN010 18/16 Q1010","updated":"2026-02-22T21:22:56Z"}
