{"icao":"LPPT","metar":"LPPT 160300Z 32014G25KT 280V350 9999 SHRA FEW013 SCT020CB 09/07 Q1006","updated":"2025-12-16T03:22:59Z"}
