{"icao":"KLAX","metar":"KLAX 240853Z 08004KT 4SM BR BKN006 16/14 A3014 RMK AO2 SLP203 VIS N 2 1/2 T01560139 50000","updated":"2025-11-24T09:23:16Z"}
