{"icao":"KORD","metar":"KORD 021603Z 28005KT 5SM -SN BR OVC011 M04/M06 A3009 RMK AO2 P0000 T10391061","updated":"2026-02-02T16:38:03Z"}
