{"icao":"LPMR","metar":"LPMR 131300Z 03006KT CAVOK 15/11 Q1021","updated":"2025-12-13T13:25:55Z"}
