{"icao":"KJFK","metar":"KJFK 212251Z 23009KT 10SM OVC025 10/07 A2997 RMK AO2 SLP150 T01000067","updated":"2025-11-21T23:16:53Z"}
