{"icao":"LPPR","metar":"LPPR 251900Z 32004KT 8000 FEW040 12/11 Q1020","updated":"2026-02-25T19:05:53Z"}
