{"icao":"KJFK","metar":"KJFK 131751Z 17009KT 10SM SCT160 BKN250 15/11 A3000 RMK AO2 SLP159 T01500106 10161 20111 56030","updated":"2026-04-13T17:58:29Z"}
