{"icao":"KLAX","metar":"KLAX 210453Z 22005KT 10SM CLR 18/17 A3004 RMK AO2 SLP171 T01830167","updated":"2025-10-21T05:17:38Z"}
