{"icao":"LPMT","metar":"LPMT 290300Z 11006KT 9999 BKN020 17/17 Q1006 RERA","updated":"2025-10-29T03:14:13Z"}
