{"icao":"LPMT","metar":"LPMT 050100Z 33006KT CAVOK 14/09 Q1018","updated":"2026-05-05T02:37:45Z"}
