{"icao":"LPBJ","metar":"LPBJ 030500Z 23004KT 0200 FG VV002 13/12 Q1015","updated":"2026-05-03T05:57:57Z"}
