{"icao":"LPAR","metar":"LPAR 211500Z 04011KT 010V070 CAVOK 16/02 Q1026","updated":"2025-11-21T15:17:14Z"}
