{"icao":"LPLA","metar":"LPLA 191600Z 31014KT 9999 FEW024 18/12 Q1015","updated":"2026-04-19T16:38:37Z"}
