{"icao":"LPPT","metar":"LPPT 170800Z 04005KT 340V070 CAVOK 16/12 Q1015","updated":"2025-10-17T08:24:24Z"}
