{"icao":"LPPR","metar":"LPPR 271600Z 34006KT 310V010 CAVOK 14/09 Q1024","updated":"2025-11-27T16:23:19Z"}
