{"icao":"LPLA","metar":"LPLA 250100Z 12003KT 9999 FEW030 16/13 Q1019","updated":"2025-09-25T01:18:40Z"}
