{"icao":"LPOV","metar":"LPOV 230600Z VRB01KT CAVOK 08/05 Q1019","updated":"2025-09-23T06:26:54Z"}
