{"icao":"KORD","metar":"KORD 192251Z 07007KT 10SM BKN250 10/M01 A3006 RMK AO2 SLP181 T01001006 $","updated":"2026-03-19T23:28:35Z"}
