{"icao":"KLAX","metar":"KLAX 112253Z 26010KT 10SM FEW250 21/04 A3015 RMK AO2 SLP210 T02060039","updated":"2026-01-11T23:18:40Z"}
