{"icao":"KLAX","metar":"KLAX 092253Z 26016KT 10SM FEW050 FEW150 22/14 A2986 RMK AO2 SLP111 T02170139 $","updated":"2025-10-09T23:15:31Z"}
