{"icao":"LPCS","metar":"LPCS 201500Z 29006KT 250V330 9999 VCSH FEW005 SCT018 BKN040 14/12 Q1015","updated":"2025-12-20T15:17:29Z"}
