{"icao":"LPPT","metar":"LPPT 021100Z 13013G26KT 110V170 9999 VCSH FEW008 FEW020TCU BKN023 14/13 Q1003","updated":"2026-01-02T11:17:25Z"}
