{"icao":"LPOV","metar":"LPOV 051700Z 23012KT 6000 FEW010 SCT018CB BKN022 14/12 Q0994","updated":"2026-02-05T17:45:30Z"}
