{"icao":"LPOV","metar":"LPOV 031400Z 28002KT 210V310 9999 SCT014 FEW020CB 12/08 Q1000","updated":"2026-02-03T14:06:22Z"}
