{"icao":"LPPS","metar":"LPPS 190700Z 31008KT 9999 FEW014 21/19 Q1018","updated":"2025-10-19T07:15:38Z"}
