{"icao":"KORD","metar":"KORD 101151Z 27014G26KT 6SM -RA BR OVC010 03/01 A2930 RMK AO2 PK WND 27026/1144 RAB21UPB50E51 SLP927 4/003 P0000 60004 70016 T00280011 10044 20028 53015","updated":"2025-12-10T12:41:40Z"}
