{"icao":"LPPD","metar":"LPPD 181600Z 35011KT 320V020 9999 FEW025 SCT045 15/08 Q1026","updated":"2025-12-18T16:28:42Z"}
