{"icao":"LPCS","metar":"LPCS 151100Z 22005KT 190V250 CAVOK 25/13 Q1017","updated":"2025-10-15T11:15:05Z"}
