{"icao":"KORD","metar":"KORD 261751Z 19004KT 10SM SCT045 OVC080 02/M08 A2989 RMK AO2 SLP130 T00221083 10022 21072 58004","updated":"2026-02-26T17:56:32Z"}
