{"icao":"KORD","metar":"KORD 050651Z 21014G22KT 10SM FEW250 13/08 A2983 RMK AO2 PK WND 22026/0634 SLP102 T01330078 $","updated":"2025-11-05T07:18:41Z"}
