{"icao":"LPPD","metar":"LPPD 310800Z 23018KT 3000 BR BKN002 BKN006 16/16 Q1017","updated":"2026-01-31T08:29:06Z"}
