{"icao":"LPFR","metar":"LPFR 150600Z 04005KT CAVOK 19/16 Q1016","updated":"2025-10-15T06:26:57Z"}
