{"icao":"LPBJ","metar":"LPBJ 060500Z 31003KT CAVOK 01/M01 Q1018","updated":"2026-01-06T05:23:32Z"}
