{"icao":"LPMR","metar":"LPMR 242100Z 36011KT 9999 SCT022 BKN032 14/11 Q1018","updated":"2025-11-24T21:17:48Z"}
