{"icao":"LPMT","metar":"LPMT 180300Z 36005KT CAVOK 18/14 Q1016","updated":"2026-06-18T03:51:00Z"}
