{"icao":"KORD","metar":"KORD 222151Z 02021KT 10SM BKN017 BKN022 OVC090 02/M03 A2996 RMK AO2 PK WND 02034/2053 RAE42 SLP148 P0000 T00171028","updated":"2026-03-22T22:24:08Z"}
