{"icao":"LPFL","metar":"LPFL 282000Z 30010KT 220V350 9999 FEW014 FEW016TCU 16/10 Q1004","updated":"2026-01-28T20:29:34Z"}
