{"icao":"LPPR","metar":"LPPR 011430Z 30006KT 250V330 9999 FEW030 19/11 Q1018","updated":"2026-05-01T14:53:44Z"}
