{"icao":"LPPD","metar":"LPPD 191030Z 36034G51KT 7000 -SHRA FEW010 FEW018CB BKN025 13/12 Q0998 RESHRA","updated":"2026-03-19T10:38:49Z"}
