{"icao":"LPPT","metar":"LPPT 201400Z 29006KT 230V330 5000 -SHRA BR FEW002 SCT006 FEW015TCU BKN022 12/11 Q1015 RESHRA","updated":"2025-12-20T14:16:49Z"}
