{"icao":"LPFR","metar":"LPFR 131500Z 26013KT CAVOK 28/14 Q1017","updated":"2025-09-13T15:13:53Z"}
