{"icao":"LPAR","metar":"LPAR 241600Z 13004KT 070V200 9999 FEW037 20/13 Q1019","updated":"2026-03-24T16:08:17Z"}
