{"icao":"LPAZ","metar":"LPAZ 251030Z 05009KT 340V090 9999 FEW020 BKN026 15/09 Q1029","updated":"2026-03-25T10:47:43Z"}
