{"icao":"LPFR","metar":"LPFR 060900Z 25006KT 220V280 CAVOK 21/10 Q1018","updated":"2026-06-06T09:23:57Z"}
