{"icao":"LPAZ","metar":"LPAZ 170130Z 29013KT 3600 -RADZ BR SCT002 BKN008 14/13 Q1015","updated":"2026-03-17T02:01:36Z"}
