{"icao":"KORD","metar":"KORD 150451Z 21010G17KT 10SM BKN250 17/12 A2974 RMK AO2 SLP069 T01720122 $","updated":"2025-11-15T05:17:50Z"}
