{"icao":"LPAR","metar":"LPAR 091500Z 35011KT 310V030 9999 FEW025 23/12 Q1013","updated":"2026-04-09T15:21:12Z"}
