{"icao":"LPPT","metar":"LPPT 141400Z 32014G27KT 290V350 9999 FEW032 SCT042 14/06 Q1027 WS R02","updated":"2026-02-14T14:25:23Z"}
