{"icao":"LPSJ","metar":"LPSJ 111400Z 15009KT 130V210 9999 FEW014 22/18 Q1025","updated":"2026-06-11T14:33:59Z"}
