{"icao":"KORD","metar":"KORD 091551Z 32017G25KT 10SM OVC020 06/02 A2988 RMK AO2 PK WND 30028/1505 RAE17 PRESRR SLP119 P0000 T00560017","updated":"2026-01-09T16:26:53Z"}
