{"icao":"KORD","metar":"KORD 292251Z 36005KT 10SM FEW250 M11/M21 A3028 RMK AO2 SLP271 T11061211","updated":"2026-01-29T23:25:14Z"}
