{"icao":"LPBJ","metar":"LPBJ 132011Z 18015KT 5000 -RA SCT020 14/13 Q1001","updated":"2025-11-13T20:20:53Z"}
