{"icao":"KJFK","metar":"KJFK 280651Z 35016G22KT 10SM SCT070 04/M06 A3021 RMK AO2 SLP230 T00391056","updated":"2026-03-28T06:59:00Z"}
