{"icao":"LPBJ","metar":"LPBJ 081300Z 28003KT 240V320 9999 FEW015 OVC025 11/07 Q1032","updated":"2026-01-08T13:39:21Z"}
