{"icao":"LPFR","metar":"LPFR 221200Z 07011KT 050V120 CAVOK 16/M03 Q1028","updated":"2025-11-22T12:33:23Z"}
