{"icao":"LPBJ","metar":"LPBJ 240900Z 15011KT CAVOK 13/10 Q1020","updated":"2026-02-24T09:51:42Z"}
