{"icao":"LPPR","metar":"LPPR 112300Z 05007KT CAVOK 25/13 Q1019","updated":"2026-06-11T23:26:20Z"}
