{"icao":"LPLA","metar":"LPLA 250400Z 13004KT 060V170 9999 FEW025 18/13 Q1017","updated":"2025-09-25T04:20:42Z"}
