{"icao":"LPMA","metar":"LPMA 071300Z 20009KT 130V220 9999 FEW015 21/13 Q1022","updated":"2025-12-07T13:24:11Z"}
