{"icao":"LPBJ","metar":"LPBJ 051900Z 27006KT CAVOK 24/14 Q1018","updated":"2025-10-05T19:12:34Z"}
