{"icao":"KLAX","metar":"KLAX 280853Z 00000KT 10SM FEW200 BKN250 14/04 A3025 RMK AO2 SLP241 T01390039 55003","updated":"2026-01-28T09:32:47Z"}
