{"icao":"LPMR","metar":"LPMR 281800Z 25005KT 7000 SCT004 OVC007 16/15 Q1008","updated":"2026-04-28T18:15:48Z"}
