{"icao":"LPFR","metar":"LPFR 231200Z 20005KT 170V240 CAVOK 16/05 Q1027","updated":"2025-11-23T12:32:47Z"}
