{"icao":"LPFR","metar":"LPFR 301900Z 25013KT CAVOK 18/13 Q1017","updated":"2026-04-30T19:18:39Z"}
