{"icao":"LPHR","metar":"LPHR 161230Z 26011KT 9999 FEW018 23/18 Q1007","updated":"2025-10-16T12:38:42Z"}
