{"icao":"KORD","metar":"KORD 281751Z 23013G20KT 10SM BKN030 BKN250 14/07 A2995 RMK AO2 SLP140 T01440067 10150 20100 $","updated":"2026-04-28T18:15:51Z"}
