{"icao":"KLAX","metar":"KLAX 182253Z 26009KT 10SM FEW050 SCT080 BKN120 24/18 A2981 RMK AO2 SLP093 T02390178","updated":"2025-09-18T23:16:06Z"}
