{"icao":"LPMR","metar":"LPMR 202000Z 19006KT 9999 FEW018 SCT035 12/11 Q1015","updated":"2026-01-20T20:10:52Z"}
