{"icao":"KLAX","metar":"KLAX 102253Z 26005KT 10SM SCT280 20/02 A3028 RMK AO2 SLP254 T02000017 $","updated":"2026-01-10T23:18:33Z"}
