{"icao":"LPOV","metar":"LPOV 261500Z 19018G30KT 3000 -RA BR BKN009 BKN014 15/14 Q1006","updated":"2026-01-26T15:27:48Z"}
