{"icao":"KLAX","metar":"KLAX 031053Z 00000KT 3SM BR BKN006 OVC008 15/14 A3002 RMK AO2 SLP163 VIS SW-N 2 1/2 T01500144 $","updated":"2025-11-03T11:15:34Z"}
