{"icao":"KJFK","metar":"KJFK 211251Z 26006KT 10SM FEW250 M08/M16 A3057 RMK SLP351 T10781156 $ ","updated":"2026-01-21T13:44:00Z"}
