{"icao":"LPFR","metar":"LPFR 112300Z 10009KT CAVOK 24/17 Q1019","updated":"2026-06-11T23:25:15Z"}
