{"icao":"LPPD","metar":"LPPD 010300Z 02004KT 9999 FEW022 BKN045 16/08 Q1016","updated":"2025-11-01T03:10:27Z"}
