{"icao":"LPFR","metar":"LPFR 191330Z 11012KT CAVOK 22/12 Q1015","updated":"2026-04-19T14:02:26Z"}
