{"icao":"KJFK","metar":"KJFK 252151Z 18022G29KT 10SM FEW025 FEW060 SCT130 BKN250 07/M02 A3025 RMK AO2 PK WND 17029/2141 SLP244 T00721022 $","updated":"2026-03-25T22:34:44Z"}
