{"icao":"KLAX","metar":"KLAX 080653Z 10004KT 10SM CLR 15/12 A3016 RMK AO2 SLP210 T01500122 $","updated":"2025-12-08T07:23:07Z"}
