{"icao":"LPMR","metar":"LPMR 022300Z 34009KT CAVOK 16/13 Q1023","updated":"2026-06-02T23:43:46Z"}
