{"icao":"LPPD","metar":"LPPD 160900Z 33006KT 9999 FEW020 SCT035 13/08 Q1032","updated":"2026-01-16T09:26:05Z"}
