{"icao":"LPLA","metar":"LPLA 201900Z 29013KT 8000 -SHRA FEW020 BKN032 12/06 Q1017","updated":"2026-04-20T19:08:16Z"}
