{"icao":"LPLA","metar":"LPLA 072101Z 31016KT 9999 FEW022 BKN038 14/10 Q1033","updated":"2026-04-07T21:40:28Z"}
