{"icao":"LPLA","metar":"LPLA 120900Z 23012KT 200V280 9999 FEW022 14/09 Q1030","updated":"2026-04-12T09:43:19Z"}
