{"icao":"LPHR","metar":"LPHR 212030Z 23010KT 9999 SCT002 BKN005 16/16 Q1012","updated":"2026-05-22T03:32:47Z"}
