{"icao":"LPPD","metar":"LPPD 261630Z 28011KT 240V320 9999 -SHRA BKN010 BKN030 17/15 Q1030","updated":"2026-02-26T16:57:18Z"}
