{"icao":"LPCS","metar":"LPCS 230600Z 28005KT 250V310 9999 -DZ FEW005 BKN009 21/21 Q1020","updated":"2025-10-23T06:27:15Z"}
