{"icao":"LPMR","metar":"LPMR 081200Z VRB03KT 9999 SCT026 17/11 Q1023","updated":"2025-11-08T12:33:08Z"}
