{"icao":"LPPD","metar":"LPPD 191500Z 28016KT 2000 BR OVC002 22/21 Q1016","updated":"2025-10-19T15:15:32Z"}
