{"icao":"LPPT","metar":"LPPT 220430Z 24006KT 9999 -SHRA FEW016 SCT030 BKN045 08/06 Q1011","updated":"2025-12-22T04:38:50Z"}
