{"icao":"LPFL","metar":"LPFL 300600Z 26008G19KT 160V330 9999 FEW012 21/17 Q1016","updated":"2026-05-30T06:23:10Z"}
