{"icao":"LPPD","metar":"LPPD 021900Z 05003KT 010V100 9999 SCT015 BKN030 19/17 Q1019","updated":"2025-11-02T19:12:30Z"}
