{"icao":"LPPS","metar":"LPPS 232230Z 07004KT 9999 FEW015 BKN030 23/18 Q1021","updated":"2025-10-24T12:38:48Z"}
