{"icao":"LPPD","metar":"LPPD 210530Z 02015G30KT 350V050 9999 BKN016 14/11 Q1011","updated":"2026-03-21T05:39:35Z"}
