{"icao":"KORD","metar":"KORD 080251Z 33009KT 10SM BKN055 BKN075 BKN110 11/06 A2967 RMK AO2 RAB17E27 SLP049 P0000 60000 T01060061 53027 $","updated":"2025-11-08T03:00:55Z"}
