{"icao":"LPPD","metar":"LPPD 010200Z 05009KT 010V070 9999 FEW015 BKN025 14/10 Q1030","updated":"2026-04-01T02:30:18Z"}
