{"icao":"KORD","metar":"KORD 200651Z 25006KT 10SM CLR M16/M21 A3030 RMK AO2 SLP279 T11611211 $","updated":"2026-01-20T07:26:56Z"}
