{"icao":"LPFR","metar":"LPFR 281800Z 14014KT 6000 RA FEW008 FEW018TCU SCT025 BKN040 20/19 Q1011","updated":"2025-10-28T18:28:00Z"}
