{"icao":"LPFL","metar":"LPFL 271400Z 25017G35KT 170V320 7000 -RA SCT009 BKN014 17/14 Q1002 RERA","updated":"2026-01-27T14:28:23Z"}
