{"icao":"LPCS","metar":"LPCS 191630Z 10007KT 070V130 9999 -RA FEW011 13/11 Q1005","updated":"2026-03-19T16:56:25Z"}
