{"icao":"LPPT","metar":"LPPT 011130Z 04013KT CAVOK 19/05 Q1024","updated":"2026-04-01T11:52:05Z"}
