{"icao":"KLAX","metar":"KLAX 181453Z 09003KT 10SM FEW016 FEW027 SCT060 BKN220 11/09 A2992 RMK AO2 SLP130 T01060089 53005 $","updated":"2025-11-18T15:20:58Z"}
