{"icao":"LPFR","metar":"LPFR 290500Z VRB02KT CAVOK 09/08 Q1020","updated":"2025-11-29T05:18:01Z"}
