{"icao":"LPMR","metar":"LPMR 100100Z 16004KT 0300 FG OVC002 11/11 Q1019","updated":"2025-12-10T01:28:03Z"}
