{"icao":"LPPT","metar":"LPPT 081300Z 31010KT 290V350 9999 FEW026 BKN030 21/13 Q1021","updated":"2025-10-08T13:28:10Z"}
