{"icao":"LPAR","metar":"LPAR 281200Z 19009KT 9999 BKN022 22/18 Q1013","updated":"2025-10-28T12:37:40Z"}
