{"icao":"LPPT","metar":"LPPT 200800Z 28003KT 240V330 9999 FEW009 BKN032 18/16 Q1015","updated":"2025-10-20T08:24:45Z"}
