{"icao":"LPOV","metar":"LPOV 111000Z 06007KT 020V110 CAVOK 29/13 Q1020","updated":"2026-06-11T10:20:20Z"}
