{"icao":"LPFR","metar":"LPFR 100200Z 24010KT 1500 -DZ BR VV003 15/15 Q1019","updated":"2026-02-10T02:23:15Z"}
