{"icao":"KORD","metar":"KORD 171751Z 00000KT 10SM FEW230 BKN250 04/M02 A2999 RMK AO2 SLP160 T00391017 10044 20006 50007","updated":"2025-12-17T18:30:48Z"}
