{"icao":"LPAZ","metar":"LPAZ 040600Z 01012KT 9999 FEW009 SCT013 BKN034 15/13 Q1016","updated":"2026-01-04T06:30:06Z"}
