{"icao":"KLAX","metar":"KLAX 292253Z 27005KT 10SM CLR 22/01 A3007 RMK AO2 SLP184 T02220011 $","updated":"2025-12-29T23:18:37Z"}
