{"icao":"LPFR","metar":"LPFR 192330Z 04004KT CAVOK 17/11 Q1015","updated":"2026-04-19T23:34:34Z"}
