{"icao":"LPHR","metar":"LPHR 151400Z 29009KT 240V330 9999 FEW030 18/09 Q1017","updated":"2025-11-15T14:15:44Z"}
