{"icao":"LPCS","metar":"LPCS 302030Z 01013KT CAVOK 15/06 Q1027","updated":"2026-03-30T20:54:05Z"}
