{"icao":"KORD","metar":"KORD 100451Z 12007KT 10SM OVC025 05/01 A3015 RMK AO2 SLP213 T00500006","updated":"2026-01-10T05:19:58Z"}
