{"icao":"LPMR","metar":"LPMR 281500Z 13008KT 8000 -RA FEW015 FEW028CB BKN035 18/16 Q1010","updated":"2025-10-28T15:20:14Z"}
