{"icao":"LPPT","metar":"LPPT 151300Z 24010KT 210V270 9999 FEW010 BKN015 17/15 Q1006","updated":"2025-11-15T13:22:58Z"}
