{"icao":"LPMR","metar":"LPMR 131600Z 32009KT 9999 FEW035 24/11 Q1015","updated":"2025-10-13T16:21:49Z"}
