{"icao":"KJFK","metar":"KJFK 192251Z 32012KT 10SM FEW047 SCT060 SCT090 BKN150 09/00 A2997 RMK SLP150 T00890000 ","updated":"2026-04-19T23:34:52Z"}
