{"icao":"LPST","metar":"LPST 211600Z 28009KT 7000 BKN006 BKN015 20/19 Q1015","updated":"2025-10-21T18:25:37Z"}
