{"icao":"LPPT","metar":"LPPT 162100Z 28006KT 250V310 9999 BKN014 14/11 Q1031","updated":"2026-02-16T21:27:41Z"}
