{"icao":"KJFK","metar":"KJFK 140551Z 25004KT 1 1/4SM SN BR FEW004 BKN014 OVC024 00/00 A3001 RMK AO2 SLP161 P0003 60005 T00000000 10028 20000 58009","updated":"2025-12-14T06:28:40Z"}
