{"icao":"LPFL","metar":"LPFL 191430Z 21008KT 150V270 9999 FEW015 18/13 Q1016","updated":"2026-02-19T14:48:28Z"}
