{"icao":"LPPT","metar":"LPPT 162000Z 25007KT 220V280 9999 FEW012 14/12 Q1012","updated":"2025-11-16T20:19:08Z"}
