{"icao":"LPFR","metar":"LPFR 151100Z 20020KT 6000 RA FEW010 SCT014 FEW018CB BKN024 19/17 Q1010","updated":"2025-11-15T11:13:24Z"}
