{"icao":"KJFK","metar":"KJFK 161551Z 27017G26KT 10SM FEW060 FEW250 M02/M14 A2989 RMK AO2 PK WND 28028/1530 SLP121 T10171139 $","updated":"2026-01-16T16:27:45Z"}
