{"icao":"LPOV","metar":"LPOV 190600Z 16011KT 9999 FEW015 SCT040 20/17 Q1013","updated":"2025-10-19T06:25:07Z"}
