{"icao":"LPBJ","metar":"LPBJ 030400Z 12008KT 9999 FEW018 BKN045 13/12 Q0999","updated":"2026-01-03T04:31:14Z"}
