{"icao":"KORD","metar":"KORD 190251Z 08007KT 10SM FEW150 22/15 A3004 RMK AO2 SLP168 T02220150 53005","updated":"2025-09-19T02:58:55Z"}
