{"icao":"LPBJ","metar":"LPBJ 272100Z 33009KT 9999 SCT013 BKN022 14/12 Q1024","updated":"2026-02-27T21:27:57Z"}
