{"icao":"LPMA","metar":"LPMA 181630Z 04020KT 9999 FEW015 18/13 Q1014","updated":"2026-04-18T16:39:09Z"}
