{"icao":"LPCS","metar":"LPCS 171730Z 17012KT 8000 BKN008 BKN011 15/14 Q1007","updated":"2026-03-17T17:56:45Z"}
