{"icao":"LPFL","metar":"LPFL 031130Z 12007KT 070V160 9999 FEW019 SCT034 17/11 Q1024","updated":"2026-05-03T11:40:46Z"}
