{"icao":"KORD","metar":"KORD 272151Z 05009KT 10SM FEW060 FEW250 28/12 A2999 RMK AO2 SLP150 T02780122","updated":"2026-05-27T21:53:39Z"}
