{"icao":"KLAX","metar":"KLAX 111253Z 00000KT 1/16SM R25L/1200V1600FT FG VV001 14/14 A3008 RMK AO2 SLP185 T01440144 $","updated":"2025-11-11T13:29:56Z"}
