{"icao":"KORD","metar":"KORD 081651Z 23015G28KT 10SM FEW250 11/01 A2984 RMK AO2 PK WND 21029/1624 SLP109 T01110006 $","updated":"2026-03-08T17:21:57Z"}
