{"icao":"LPPT","metar":"LPPT 172000Z 32008KT CAVOK 21/13 Q1015","updated":"2025-10-17T20:19:28Z"}
