{"icao":"LPMR","metar":"LPMR 151700Z 35006KT 310V040 3000 -DZ BR SCT008 SCT015 BKN030 13/12 Q1014 RERADZ REDZ","updated":"2026-01-15T17:30:50Z"}
