{"icao":"LPPT","metar":"LPPT 242300Z 35008KT 330V030 9999 BKN012 14/13 Q1019","updated":"2025-11-24T23:17:08Z"}
