{"icao":"KJFK","metar":"KJFK 142051Z 14004KT 10SM BKN110 BKN130 OVC250 07/02 A2959 RMK AO2 SLP018 T00670022 56010 $","updated":"2026-01-14T21:20:52Z"}
