{"icao":"KJFK","metar":"KJFK 141251Z 33007KT 1/4SM R04R/4500VP6000FT -SN BR BKN005 OVC011 00/00 A2994 RMK AO2 SFC VIS 3/4 SLP139 P0006 T00000000 $","updated":"2025-12-14T13:26:17Z"}
