{"icao":"KORD","metar":"KORD 262051Z 31009KT 10SM OVC013 07/04 A2978 RMK AO2 SLP086 T00720039 53030 $","updated":"2025-12-26T21:17:19Z"}
