{"icao":"KLAX","metar":"KLAX 190353Z 28010KT 10SM FEW040 FEW060 12/03 A2999 RMK AO2 SLP156 T01220028","updated":"2026-02-19T04:50:55Z"}
