{"icao":"LPAR","metar":"LPAR 301400Z 05007KT 360V110 CAVOK 21/01 Q1028","updated":"2026-03-30T15:02:07Z"}
