{"icao":"LPMA","metar":"LPMA 211900Z 03012KT 9999 SCT015 BKN030 22/17 Q1022","updated":"2025-09-21T19:12:30Z"}
