{"icao":"LPPS","metar":"LPPS 071800Z 03011KT 360V060 9999 FEW015 BKN030 15/07 Q1024","updated":"2026-03-07T18:32:07Z"}
