{"icao":"LPOV","metar":"LPOV 171600Z 34015KT CAVOK 17/11 Q1019","updated":"2026-04-17T17:01:43Z"}
