{"icao":"LPMA","metar":"LPMA 111300Z 19009KT 120V230 9999 FEW016 20/13 Q1026","updated":"2026-02-11T13:07:18Z"}
