{"icao":"LPFR","metar":"LPFR 030900Z 16015KT 6000 -RA SCT012 FEW018CB BKN025 16/14 Q0998","updated":"2026-01-03T09:18:58Z"}
