{"icao":"LPCS","metar":"LPCS 091100Z 17016KT 1600 RA BR SCT001 BKN002 16/16 Q1016","updated":"2025-12-09T11:18:14Z"}
