{"icao":"LPMT","metar":"LPMT 102200Z 20010KT 180V240 9999 BKN025 FEW030CB 15/13 Q1011","updated":"2026-05-10T22:44:48Z"}
