{"icao":"LPCS","metar":"LPCS 152030Z 25008KT 220V310 8000 -SHRA FEW015 SCT028 17/15 Q1009","updated":"2025-11-15T21:14:40Z"}
