{"icao":"LPPT","metar":"LPPT 180900Z 02005KT 360V070 9999 FEW008 06/05 Q1012","updated":"2026-01-18T09:19:40Z"}
