{"icao":"KJFK","metar":"KJFK 250951Z 00000KT 1 3/4SM BR OVC003 13/13 A3009 RMK AO2 SLP189 T01330128 $","updated":"2026-05-25T10:02:20Z"}
