{"icao":"KJFK","metar":"KJFK 191251Z 18013G20KT 10SM FEW200 BKN250 18/14 A3000 RMK AO2 SLP159 T01830144 $","updated":"2025-10-19T13:21:43Z"}
