{"icao":"LPPS","metar":"LPPS 211600Z 01006KT 340V050 9999 SCT014 BKN030 24/19 Q1020","updated":"2025-10-21T16:24:06Z"}
