{"icao":"LPPD","metar":"LPPD 061300Z 22020KT 4500 -DZ BR SCT004 BKN006 20/20 Q1013","updated":"2025-11-06T13:31:17Z"}
