{"icao":"LPPR","metar":"LPPR 051000Z 36006KT 330V040 CAVOK 17/12 Q1023","updated":"2025-10-05T10:16:09Z"}
