{"icao":"LPPT","metar":"LPPT 020900Z 06004KT 350V110 CAVOK 22/13 Q1021","updated":"2025-10-02T09:17:52Z"}
