{"icao":"LPAZ","metar":"LPAZ 072300Z 23016KT 8000 FEW004 BKN040 17/16 Q1016","updated":"2026-02-07T23:28:29Z"}
