{"icao":"LPMT","metar":"LPMT 222100Z 35004KT CAVOK 10/06 Q1029","updated":"2025-11-22T21:15:30Z"}
