{"icao":"LPPD","metar":"LPPD 261330Z 28035G47KT 8000 VCSH SCT016 FEW020CB BKN030 14/10 Q1005 RESHRA","updated":"2026-01-26T13:43:13Z"}
