{"icao":"KORD","metar":"KORD 190051Z 05013KT 9SM OVC008 06/04 A3004 RMK AO2 SLP176 T00560039","updated":"2025-11-19T01:24:01Z"}
