{"icao":"LPHR","metar":"LPHR 031530Z 20004KT 140V250 9999 FEW020 BKN035 16/09 Q1024","updated":"2026-04-03T15:37:52Z"}
