{"icao":"LPPD","metar":"LPPD 211800Z 03008KT 9999 VCSH FEW006 SCT016 BKN040 15/13 Q1031","updated":"2025-11-21T18:25:30Z"}
