{"icao":"LPCS","metar":"LPCS 020900Z 01004KT CAVOK 22/14 Q1021","updated":"2025-10-02T09:17:53Z"}
