{"icao":"KORD","metar":"KORD 210351Z 22014G31KT 10SM -RA OVC055 15/07 A2968 RMK AO2 PK WND 22031/0342 RAB37 SLP049 P0000 T01500072 $","updated":"2025-10-21T04:21:45Z"}
