{"icao":"LPPR","metar":"LPPR 131330Z 22008KT 190V250 9999 FEW011 BKN020 FEW023TCU 14/11 Q1008","updated":"2026-01-13T13:39:53Z"}
