{"icao":"KJFK","metar":"KJFK 140551Z 19010KT 10SM -RA FEW060 BKN085 OVC200 06/03 A2972 RMK AO2 RAB33 SLP064 P0000 60000 T00560033 10056 20044 56027 $","updated":"2026-01-14T06:32:43Z"}
