{"icao":"KLAX","metar":"KLAX 220853Z 04004KT 10SM FEW011 SCT026 BKN150 17/15 A3000 RMK AO2 SLP156 T01670150 54000","updated":"2025-10-22T09:21:06Z"}
