{"icao":"LPFR","metar":"LPFR 081500Z 18004KT 140V220 9999 FEW020 14/08 Q1032","updated":"2026-01-08T15:24:33Z"}
