{"icao":"LPLA","metar":"LPLA 062200Z 20003KT 8000 -RA BKN045 13/11 Q1017","updated":"2026-05-06T22:52:11Z"}
