{"icao":"LPPT","metar":"LPPT 072300Z 32011KT 290V350 CAVOK 17/14 Q1023","updated":"2025-10-07T23:15:37Z"}
