{"icao":"LPMA","metar":"LPMA 081400Z 03011KT 9999 SCT015 19/12 Q1033","updated":"2026-01-08T14:24:05Z"}
