{"icao":"KJFK","metar":"KJFK 122251Z 31017G25KT 10SM FEW050 SCT220 BKN250 01/M09 A3000 RMK AO2 PK WND 30027/2235 SLP159 T00061094 $","updated":"2026-02-12T23:28:00Z"}
