{"icao":"LPPR","metar":"LPPR 290530Z 03004KT 350V080 CAVOK 15/14 Q1022","updated":"2026-06-29T05:48:42Z"}
