{"icao":"LPFL","metar":"LPFL 031800Z 18005KT 140V240 9999 FEW010 25/21 Q1021","updated":"2025-10-03T18:24:20Z"}
