{"icao":"LPPS","metar":"LPPS 280500Z 03014KT 360V070 9999 BKN014 14/08 Q1027","updated":"2026-02-28T05:32:11Z"}
