{"icao":"LPFL","metar":"LPFL 111700Z 18006KT 150V230 9999 FEW022 22/15 Q1018","updated":"2025-10-11T17:13:13Z"}
