{"icao":"LPPT","metar":"LPPT 011530Z 21008KT 150V260 9999 FEW042 20/08 Q1018","updated":"2026-05-01T15:56:11Z"}
