{"icao":"LPPR","metar":"LPPR 231700Z 26011KT 220V310 9999 FEW017 FEW020TCU BKN030 09/05 Q0995","updated":"2026-01-23T17:24:37Z"}
