{"icao":"LPMA","metar":"LPMA 141330Z 36014G24KT 330V040 9999 SCT016 24/14 Q1022","updated":"2026-06-14T14:04:15Z"}
