{"icao":"LPPT","metar":"LPPT 010400Z 20014KT 9999 FEW008 BKN010 FEW016TCU 19/18 Q1013","updated":"2025-11-01T04:19:00Z"}
