{"icao":"LPBJ","metar":"LPBJ 150700Z 20011KT 9999 SCT025 15/13 Q1010","updated":"2025-11-15T07:15:33Z"}
