{"icao":"LPFR","metar":"LPFR 211100Z 02014KT CAVOK 14/01 Q1025","updated":"2025-11-21T11:15:45Z"}
