{"icao":"LPPR","metar":"LPPR 070800Z 12006KT CAVOK 17/12 Q1021","updated":"2025-10-07T08:23:46Z"}
