{"icao":"LPPD","metar":"LPPD 270700Z 01010KT 9999 FEW018 SCT045 18/13 Q1023","updated":"2025-09-27T07:14:20Z"}
