{"icao":"LPHR","metar":"LPHR 091900Z 27009KT 9999 SCT023 19/14 Q1024","updated":"2025-11-09T19:12:37Z"}
