{"icao":"KJFK","metar":"KJFK 041551Z 34016KT 10SM SCT038 SCT065 M01/M10 A3023 RMK SLP236 T10111100 PNO $ ","updated":"2026-02-04T16:45:27Z"}
