{"icao":"LPLA","metar":"LPLA 132300Z 16004KT 110V250 9999 FEW015 13/11 Q1031","updated":"2026-02-13T23:29:34Z"}
