{"icao":"LPMT","metar":"LPMT 150500Z 21009KT 170V230 9999 FEW030 SCT042 18/13 Q1006","updated":"2025-11-15T05:17:28Z"}
