{"icao":"KORD","metar":"KORD 181951Z 22022G42KT 10SM CLR 17/M03 A2950 RMK AO2 PK WND 24042/1949 SLP990 T01671033","updated":"2026-02-18T20:38:02Z"}
