{"icao":"LPPT","metar":"LPPT 201100Z 28006KT 240V320 9999 SCT026 20/14 Q1016","updated":"2025-10-20T11:15:37Z"}
