{"icao":"LPLA","metar":"LPLA 072200Z 22018G28KT 8000 -RA SCT008 BKN015 17/15 Q1010","updated":"2026-02-07T22:24:40Z"}
