{"icao":"KJFK","metar":"KJFK 170751Z 29018G28KT 10SM BKN060 03/M08 A2959 RMK AO2 PK WND 31028/0718 SLP019 T00331083 $","updated":"2025-11-17T08:27:17Z"}
