{"icao":"KJFK","metar":"KJFK 020851Z 28012KT 9SM -SN FEW027 BKN070 OVC085 M06/M11 A2984 RMK AO2 SLP105 P0000 60000 T10611111 58012 $","updated":"2026-01-02T09:23:49Z"}
