{"icao":"KJFK","metar":"KJFK 271851Z 18006KT 10SM FEW045 SCT160 BKN220 BKN250 24/16 A2997 RMK AO2 SLP149 T02440161 $","updated":"2025-09-27T19:13:03Z"}
