{"icao":"LPMA","metar":"LPMA 051630Z 02005KT 290V090 9999 SCT015 SCT030 19/13 Q1016","updated":"2026-04-05T16:35:46Z"}
