{"icao":"LPHR","metar":"LPHR 091500Z 21004KT 190V250 9999 FEW008 SCT015 23/21 Q1019","updated":"2025-10-09T15:29:16Z"}
