{"icao":"LPPT","metar":"LPPT 011530Z 31010KT CAVOK 32/16 Q1017 NOSIG","updated":"2026-07-01T15:39:42Z"}
