{"icao":"KJFK","metar":"KJFK 231651Z 33012KT 5SM -RA BR SCT008 BKN014 OVC022 05/03 A2988 RMK AO2 DZE06B27E46RAB46 SLP118 P0000 T00500033","updated":"2026-03-23T17:02:43Z"}
