{"icao":"LPFR","metar":"LPFR 221800Z 24007KT CAVOK 21/16 Q1014","updated":"2025-09-22T18:24:11Z"}
