{"icao":"KORD","metar":"KORD 170551Z 32014G21KT 10SM BKN045 M08/M17 A2995 RMK AO2 SLP154 4/001 60000 T10781172 11039 21078 410111078 51019 $","updated":"2026-03-17T05:58:06Z"}
