{"icao":"LPMA","metar":"LPMA 171630Z 01010KT 330V040 9999 FEW016 19/11 Q1024","updated":"2026-05-17T17:03:09Z"}
