{"icao":"LPPS","metar":"LPPS 181700Z 33009KT 9999 BKN005 23/21 Q1016","updated":"2025-10-18T17:13:27Z"}
