{"icao":"LPPT","metar":"LPPT 071900Z 20005KT 160V230 9999 FEW010 14/13 Q1023","updated":"2025-12-07T19:14:02Z"}
