{"icao":"LPST","metar":"LPST 100700Z VRB02KT CAVOK 12/12 Q1020","updated":"2025-10-10T07:16:55Z"}
