{"icao":"LPCS","metar":"LPCS 100700Z 03004KT 350V080 CAVOK 19/10 Q1020","updated":"2025-10-10T07:16:54Z"}
