{"icao":"LPBJ","metar":"LPBJ 280700Z 09005KT CAVOK 09/05 Q1019","updated":"2026-03-28T07:49:16Z"}
