{"icao":"LPLA","metar":"LPLA 270700Z 28019G29KT 9000 -SHRA SCT025 BKN035 13/08 Q1008","updated":"2026-01-27T07:26:28Z"}
