{"icao":"KLAX","metar":"KLAX 172053Z 26010KT 10SM CLR 22/15 A2990 RMK AO2 SLP125 T02220150 58014","updated":"2025-10-17T21:15:07Z"}
