{"icao":"KJFK","metar":"KJFK 221451Z 25017KT 10SM FEW027 FEW140 16/09 A2976 RMK AO2 PK WND 25026/1416 SLP076 T01610094 51012","updated":"2025-10-22T15:18:39Z"}
