{"icao":"LPFL","metar":"LPFL 141230Z 22011KT 160V280 2500 +DZ BR FEW008 BKN012 18/15 Q1020","updated":"2026-01-14T12:43:17Z"}
