{"icao":"LPFR","metar":"LPFR 271900Z 30013KT CAVOK 28/15 Q1017","updated":"2026-06-27T19:18:04Z"}
