{"icao":"LPPT","metar":"LPPT 141500Z 30005KT 260V040 9999 FEW020 SCT030 19/13 Q1023","updated":"2026-04-14T15:11:36Z"}
