{"icao":"KORD","metar":"KORD 311351Z 32012KT 9SM -SN BKN014 OVC034 M09/M12 A3038 RMK AO2 SNB1255 SLP299 P0000 T10891122","updated":"2026-01-31T14:22:38Z"}
