{"icao":"KJFK","metar":"KJFK 021251Z VRB06KT 10SM FEW250 33/23 A2998 RMK SLP153 T03280228 $ ","updated":"2026-07-02T12:56:45Z"}
