{"icao":"LPLA","metar":"LPLA 132300Z VRB01KT 9999 FEW030 BKN040 18/13 Q1014","updated":"2025-10-13T23:15:28Z"}
