{"icao":"KORD","metar":"KORD 060627Z 05004KT 1 1/2SM -DZ BR BKN004 OVC012 07/06 A3003 RMK AO2 DZB27 P0000 T00670056","updated":"2026-03-06T06:45:59Z"}
