{"icao":"LPPD","metar":"LPPD 091030Z 04010KT 010V070 9999 FEW030 13/06 Q1035","updated":"2026-03-09T10:43:32Z"}
