{"icao":"LPLA","metar":"LPLA 131900Z 25005KT 9999 FEW035 14/10 Q1025","updated":"2026-01-13T19:19:02Z"}
