{"icao":"LPFL","metar":"LPFL 191500Z 03004KT 330V110 9999 FEW030 16/09 Q1031","updated":"2026-01-19T15:25:32Z"}
