{"icao":"KJFK","metar":"KJFK 101051Z 06007KT 1/4SM R04R/P6000FT BR OVC003 11/11 A2990 RMK AO2 SFC VIS 4 SLP124 T01110106 $","updated":"2026-05-10T11:50:22Z"}
