{"icao":"LPPT","metar":"LPPT 050730Z 34007KT 270V020 9999 BKN013 12/10 Q1016","updated":"2026-03-05T07:40:35Z"}
