{"icao":"LPMR","metar":"LPMR 310500Z 18012KT 9999 FEW025 19/15 Q1010","updated":"2025-10-31T05:18:52Z"}
