{"icao":"LPMR","metar":"LPMR 111900Z 17004KT 8000 FEW010 BKN018 BKN028 13/12 Q1024","updated":"2026-01-11T19:14:36Z"}
