{"icao":"KJFK","metar":"KJFK 161851Z 35017G26KT 10SM CLR 17/M07 A2987 RMK AO2 PK WND 34027/1840 SLP115 T01671067","updated":"2025-10-16T19:12:55Z"}
