{"icao":"LPOV","metar":"LPOV 180800Z 15004KT CAVOK 13/13 Q1020","updated":"2025-09-18T13:26:07Z"}
