{"icao":"LPOV","metar":"LPOV 141400Z 27006KT 240V300 9999 FEW014 17/15 Q1023","updated":"2026-04-14T15:11:38Z"}
