{"icao":"KLAX","metar":"KLAX 260453Z 27012KT 10SM SCT020 BKN070 OVC110 15/10 A2991 RMK AO2 SLP125 T01500100","updated":"2026-04-26T05:38:24Z"}
