{"icao":"LPHR","metar":"LPHR 191830Z 23016KT 9999 FEW011 SCT080 18/15 Q1009","updated":"2026-05-19T18:58:48Z"}
