{"icao":"LPBJ","metar":"LPBJ 312000Z 30011KT CAVOK 27/13 Q1018","updated":"2026-05-31T20:58:16Z"}
