{"icao":"KORD","metar":"KORD 212151Z 24013G21KT 10SM FEW030 OVC047 M03/M09 A2990 RMK AO2 SLP133 T10281094 $","updated":"2026-01-21T22:23:52Z"}
