{"icao":"LPFR","metar":"LPFR 092130Z 25013KT 8000 -DZ OVC003 15/15 Q1018","updated":"2026-02-09T21:37:46Z"}
