{"icao":"LPPT","metar":"LPPT 221800Z 33015KT CAVOK 18/08 Q1017","updated":"2025-09-22T18:24:11Z"}
