{"icao":"LPPD","metar":"LPPD 252300Z 16011KT 9999 FEW018 SCT030 21/17 Q1012","updated":"2025-09-25T23:15:42Z"}
