{"icao":"KORD","metar":"KORD 220751Z 29008KT 10SM -SN FEW026 OVC038 M04/M09 A3016 RMK AO2 SNE26B38 SLP222 P0000 T10441089 $","updated":"2026-02-22T08:30:49Z"}
