{"icao":"LPLA","metar":"LPLA 111500Z 36007KT 300V060 9999 FEW030 BKN045 14/06 Q1033","updated":"2026-04-11T15:32:29Z"}
