{"icao":"LPPS","metar":"LPPS 060500Z 22003KT 160V290 8000 -RADZ SCT005 BKN010 20/19 Q1021","updated":"2025-10-06T05:17:33Z"}
