{"icao":"KJFK","metar":"KJFK 021851Z VRB04KT 10SM FEW055 BKN250 18/03 A3045 RMK AO2 SLP311 T01830028","updated":"2025-10-02T19:13:48Z"}
