{"icao":"LPMT","metar":"LPMT 250400Z 33004KT 9999 SCT038 13/09 Q1020","updated":"2025-11-25T04:25:11Z"}
