{"icao":"LPST","metar":"LPST 241600Z 27014KT 7000 BKN006 BKN028 16/15 Q1017","updated":"2025-11-24T16:21:41Z"}
