{"icao":"LPAZ","metar":"LPAZ 191600Z 29017KT 9999 SCT007 BKN011 23/22 Q1017","updated":"2025-10-19T16:19:34Z"}
