{"icao":"LPBJ","metar":"LPBJ 190700Z 09004KT CAVOK 14/11 Q1016","updated":"2026-04-19T07:17:25Z"}
