{"icao":"LPCS","metar":"LPCS 081230Z 21006KT 180V250 9999 VCSH FEW005 SCT016 14/13 Q1032","updated":"2026-01-08T12:42:51Z"}
