{"icao":"KLAX","metar":"KLAX 172253Z 26008KT 4SM HZ SCT280 17/13 A2998 RMK AO2 SLP151 T01670133 $","updated":"2025-12-17T23:18:50Z"}
