{"icao":"LPMR","metar":"LPMR 131900Z 33004KT CAVOK 17/13 Q1017","updated":"2025-10-13T19:13:11Z"}
