{"icao":"LPPD","metar":"LPPD 311830Z 01006KT 330V050 9999 FEW018 BKN025 16/10 Q1029","updated":"2026-03-31T19:01:46Z"}
