{"icao":"LPBJ","metar":"LPBJ 250800Z 10004KT CAVOK 18/03 Q1018","updated":"2025-09-25T08:23:20Z"}
