{"icao":"LPAR","metar":"LPAR 231600Z 36009KT 330V030 9999 FEW020 15/10 Q1009","updated":"2025-12-23T16:26:05Z"}
