{"icao":"LPPD","metar":"LPPD 091300Z 22020KT 3000 1400NW BR SCT002 BKN003 17/17 Q1013","updated":"2026-02-09T13:06:31Z"}
