{"icao":"LPMA","metar":"LPMA 021330Z 34017KT 310V030 9999 SCT015 FEW018CB 15/06 Q1018","updated":"2026-03-02T14:00:37Z"}
