{"icao":"LPBJ","metar":"LPBJ 202000Z 32009KT CAVOK 10/05 Q1021","updated":"2025-11-20T20:21:10Z"}
