{"icao":"LPCS","metar":"LPCS 121100Z 20014KT 9999 FEW016 BKN032 14/11 Q1020","updated":"2026-01-12T11:19:29Z"}
