{"icao":"LPPD","metar":"LPPD 240300Z 33005KT 300V360 9999 FEW014 18/15 Q1021","updated":"2026-06-24T03:28:27Z"}
