{"icao":"LPCS","metar":"LPCS 201600Z 24008KT 210V270 9999 FEW016 SCT022 BKN048 14/12 Q1017","updated":"2026-01-20T16:34:29Z"}
