{"icao":"LPPS","metar":"LPPS 110730Z 04009KT 010V070 9999 FEW013 SCT030 14/11 Q1026","updated":"2026-03-11T07:42:11Z"}
