{"icao":"KORD","metar":"KORD 111851Z 27006KT 10SM BKN027 BKN160 BKN250 M03/M10 A2998 RMK AO2 SLP161 T10331100","updated":"2025-12-11T19:19:23Z"}
