{"icao":"LPPS","metar":"LPPS 031300Z 16010KT 140V200 9999 SCT014 21/16 Q1017","updated":"2026-05-03T13:07:20Z"}
