{"icao":"LPFL","metar":"LPFL 141400Z 34009KT 9999 SCT025 17/10 Q1010","updated":"2025-11-14T14:18:09Z"}
