{"icao":"KLAX","metar":"KLAX 152153Z 24011KT 10SM FEW050 FEW250 21/12 A3001 RMK AO2 SLP162 T02060122","updated":"2026-04-15T22:40:07Z"}
