{"icao":"LPLA","metar":"LPLA 101800Z 35013KT 330V030 9999 VCSH FEW014 SCT018 BKN040 14/12 Q1021","updated":"2026-05-10T19:01:32Z"}
