{"icao":"LPFL","metar":"LPFL 271330Z 02008KT 350V050 9999 VCSH FEW010 SCT018 BKN030 18/13 Q1027","updated":"2026-06-27T13:39:40Z"}
