{"icao":"LPBJ","metar":"LPBJ 152100Z 32011KT CAVOK 15/09 Q1015","updated":"2026-05-15T21:58:12Z"}
