{"icao":"LPMT","metar":"LPMT 201600Z 04009KT CAVOK 17/07 Q1028","updated":"2026-02-20T16:37:11Z"}
