{"icao":"LPLA","metar":"LPLA 132000Z 25006KT 220V280 9999 FEW015 17/15 Q1025 WIND RWY15 22010KT PK 23017/34 RH83 SCT070 BKN200 BLU","updated":"2025-12-13T20:19:37Z"}
