{"icao":"LPPT","metar":"LPPT 182330Z 27003KT 240V310 CAVOK 13/10 Q1022","updated":"2026-05-19T00:04:20Z"}
