{"icao":"LPMT","metar":"LPMT 250500Z 22004KT 190V250 9999 SCT004 BKN020 19/19 Q1013","updated":"2025-10-25T05:16:16Z"}
