{"icao":"KLAX","metar":"KLAX 300353Z 13003KT 10SM CLR 22/11 A2993 RMK AO2 SLP131 T02220106 $","updated":"2025-10-30T04:20:48Z"}
