{"icao":"LPPS","metar":"LPPS 060800Z 03013KT 360V070 9999 SCT015 15/09 Q1026","updated":"2026-01-06T08:29:10Z"}
