{"icao":"LPPD","metar":"LPPD 280400Z 35015KT 320V020 9999 SCT017 FEW020TCU BKN030 17/15 Q1014","updated":"2025-10-28T04:21:11Z"}
