{"icao":"KJFK","metar":"KJFK 072251Z 19018G26KT 10SM FEW065 BKN230 14/09 A2979 RMK AO2 PK WND 19032/2213 SLP086 T01440094","updated":"2025-11-07T23:16:24Z"}
