{"icao":"LPLA","metar":"LPLA 272100Z 27031G43KT 9000 -RA SCT012 BKN018 19/15 Q1002","updated":"2026-01-27T21:17:14Z"}
