{"icao":"LPMT","metar":"LPMT 211200Z 23006KT 170V270 9999 SCT035 23/13 Q1004","updated":"2026-04-21T13:23:52Z"}
