{"icao":"LPMR","metar":"LPMR 041800Z 23003KT 9000 SCT020 13/10 Q1021","updated":"2025-12-04T18:30:46Z"}
