{"icao":"LPAZ","metar":"LPAZ 240600Z 02010KT 9999 FEW013 BKN045 18/17 Q1021","updated":"2025-09-24T06:26:52Z"}
