{"icao":"LPHR","metar":"LPHR 061800Z 24011KT 9000 -RA FEW016 SCT030 BKN070 15/11 Q1020","updated":"2026-05-06T18:15:12Z"}
