{"icao":"KJFK","metar":"KJFK 291251Z 05014KT 10SM FEW039 BKN048 11/05 A3016 RMK AO2 SLP211 T01060050","updated":"2025-10-29T13:31:50Z"}
