{"icao":"KLAX","metar":"KLAX 221406Z 27005KT 6SM BR FEW008 BKN017 BKN100 OVC200 15/13 A3000 RMK AO2 T01500133 $","updated":"2026-01-22T14:29:29Z"}
