{"icao":"LPMA","metar":"LPMA 200500Z 34004KT 310V030 9999 BKN015 18/14 Q1018","updated":"2025-11-20T05:18:41Z"}
