{"icao":"LPPT","metar":"LPPT 150930Z 35019G30KT 9999 SCT032 16/09 Q1015","updated":"2026-05-15T09:46:43Z"}
