{"icao":"LPLA","metar":"LPLA 011400Z 20010KT 170V240 9999 FEW014 SCT035 26/21 Q1020","updated":"2025-10-01T14:17:57Z"}
