{"icao":"LPLA","metar":"LPLA 052100Z 36007KT 9999 FEW025 BKN040 15/09 Q1028","updated":"2026-05-05T21:59:47Z"}
