{"icao":"LPMR","metar":"LPMR 171300Z 27008KT 9999 SCT020 FEW022CB SCT032 11/06 Q1011","updated":"2026-01-17T13:27:48Z"}
