{"icao":"LPMT","metar":"LPMT 261100Z 04008KT CAVOK 13/07 Q1026","updated":"2025-11-26T11:16:42Z"}
