{"icao":"LPPR","metar":"LPPR 220400Z 22008KT 4000 BR BKN002 BKN004 19/18 Q1013","updated":"2025-10-22T04:21:06Z"}
