{"icao":"LPBJ","metar":"LPBJ 091100Z 26010KT 9999 BKN005 OVC018 15/15 Q1015","updated":"2026-02-09T11:42:43Z"}
