{"icao":"KLAX","metar":"KLAX 230453Z 26010KT 10SM FEW015 SCT090 SCT220 15/13 A2996 RMK AO2 SLP143 T01500128 $","updated":"2026-01-23T05:26:29Z"}
