{"icao":"KORD","metar":"KORD 311551Z 08008KT 10SM SCT200 BKN250 19/08 A3011 RMK AO2 SLP196 T01890083 $","updated":"2026-05-31T16:06:33Z"}
