{"icao":"LPMT","metar":"LPMT 040500Z 02009KT CAVOK 13/10 Q1012","updated":"2026-03-04T05:42:15Z"}
