{"icao":"KLAX","metar":"KLAX 090553Z 09003KT 4SM BR OVC009 17/15 A3002 RMK AO2 SLP163 T01720150 10183 20172 51015","updated":"2025-11-09T06:25:48Z"}
