{"icao":"LPFR","metar":"LPFR 090700Z 32007KT 9999 FEW008 SCT016 11/11 Q1030","updated":"2026-01-09T07:24:21Z"}
