{"icao":"KLAX","metar":"KLAX 210653Z 25007KT 10SM FEW018 SCT250 16/12 A3002 RMK AO2 SLP163 T01560122 $","updated":"2026-04-21T07:48:09Z"}
