{"icao":"LPPR","metar":"LPPR 291500Z 22009KT 180V260 7000 BKN011 BKN016 15/13 Q1006","updated":"2026-01-29T15:34:02Z"}
