{"icao":"LPLA","metar":"LPLA 272000Z 13018KT 9999 FEW025 SCT040 14/08 Q1018","updated":"2025-12-27T20:20:46Z"}
