{"icao":"LPPR","metar":"LPPR 181800Z 35003KT 310V020 CAVOK 09/07 Q1016","updated":"2026-01-18T18:26:36Z"}
