{"icao":"KLAX","metar":"KLAX 300853Z 06006KT 10SM BKN150 BKN250 16/M03 A3012 RMK AO2 SLP196 T01611028 58005 $","updated":"2025-12-30T09:24:34Z"}
