{"icao":"KLAX","metar":"KLAX 190653Z 24006KT 10SM FEW070 SCT100 BKN160 BKN250 21/19 A2986 RMK AO2 SLP110 T02110189","updated":"2025-09-19T07:16:49Z"}
