{"icao":"LPST","metar":"LPST 241300Z 31009KT 280V340 9999 FEW020 20/13 Q1018","updated":"2026-04-24T13:22:55Z"}
