{"icao":"KORD","metar":"KORD 011951Z 09010KT 10SM BKN300 23/13 A3018 RMK AO2 SLP217 T02330128","updated":"2025-10-01T20:19:50Z"}
