{"icao":"KJFK","metar":"KJFK 220251Z 25007KT 9SM FEW025 BKN180 OVC210 09/06 A2997 RMK AO2 SLP147 T00940061 58001","updated":"2025-11-22T03:03:05Z"}
