{"icao":"LPPT","metar":"LPPT 110900Z 13005KT 070V160 2000 0900N R20/0700 PRFG BR SCT000 BKN002 14/14 Q1014","updated":"2025-11-11T09:20:21Z"}
