{"icao":"LPMA","metar":"LPMA 250130Z 28003KT 220V300 9999 SCT016 14/09 Q1027","updated":"2026-01-25T01:50:48Z"}
