{"icao":"KLAX","metar":"KLAX 201653Z 04005KT 10SM FEW090 FEW120 SCT160 BKN220 10/02 A3005 RMK AO2 SLP174 T01000017","updated":"2026-02-20T17:36:15Z"}
