{"icao":"LPCS","metar":"LPCS 231330Z 28009KT 250V310 9999 FEW008 SCT048 10/09 Q1002","updated":"2026-01-23T13:41:18Z"}
