{"icao":"KORD","metar":"KORD 090351Z 21015G24KT 10SM FEW220 SCT250 12/03 A2977 RMK AO2 PK WND 21028/0326 SLP082 T01170028 $","updated":"2026-03-09T04:50:07Z"}
