{"icao":"LPMT","metar":"LPMT 272200Z 22011KT 6000 FEW009 BKN015 BKN030 19/18 Q1014","updated":"2025-09-27T22:14:33Z"}
