{"icao":"LPPS","metar":"LPPS 171030Z 06012KT 030V100 9999 FEW015 BKN030 17/11 Q1019","updated":"2026-04-17T10:54:28Z"}
