{"icao":"LPMA","metar":"LPMA 040300Z 23011KT 9999 FEW015 21/18 Q1016","updated":"2025-11-04T03:09:15Z"}
