{"icao":"LPOV","metar":"LPOV 081400Z 33010KT 290V350 9999 FEW025 20/15 Q1023","updated":"2026-06-08T14:46:47Z"}
