{"icao":"LPST","metar":"LPST 200700Z VRB02KT CAVOK 10/09 Q1012","updated":"2026-04-20T08:04:48Z"}
