{"icao":"LPMT","metar":"LPMT 051400Z 26018KT 9999 FEW015 FEW022CB SCT028 19/12 Q1008","updated":"2025-11-05T14:19:03Z"}
