{"icao":"LPCS","metar":"LPCS 121300Z 06007KT 9999 -RA FEW006 SCT010 BKN018 FEW020CB 12/12 Q1012 RESHRA","updated":"2025-12-12T13:33:29Z"}
