{"icao":"KLAX","metar":"KLAX 182153Z 26011KT 10SM SCT300 23/14 A2993 RMK AO2 SLP134 T02280139 $","updated":"2026-04-18T22:33:46Z"}
