{"icao":"LPCS","metar":"LPCS 181400Z 20005KT 170V240 CAVOK 25/13 Q1016","updated":"2025-10-18T14:14:22Z"}
