{"icao":"LPBJ","metar":"LPBJ 080600Z 29006KT CAVOK 13/12 Q1022","updated":"2025-10-08T06:27:21Z"}
