{"icao":"KORD","metar":"KORD 280901Z 09003KT 1/4SM R10L/2600V3000FT -DZ FG VV003 07/07 A2970 RMK AO2 P0000 T00670067 $","updated":"2025-12-28T09:19:26Z"}
