{"icao":"KLAX","metar":"KLAX 211453Z 06008KT 4SM BR SCT009 OVC120 13/12 A3008 RMK AO2 SLP184 SCT V BKN T01330117 58001 $","updated":"2026-01-21T15:30:36Z"}
