{"icao":"LPMA","metar":"LPMA 140700Z 35004KT 270V050 9999 SCT015 17/10 Q1010","updated":"2025-11-14T07:18:07Z"}
