{"icao":"KJFK","metar":"KJFK 270551Z 02006KT 10SM SCT250 21/17 A2992 RMK AO2 SLP132 T02110172 51009 $","updated":"2025-09-27T06:22:27Z"}
