{"icao":"LPMT","metar":"LPMT 160700Z 35013KT CAVOK 15/10 Q1017","updated":"2026-05-16T08:02:23Z"}
