{"icao":"LPAZ","metar":"LPAZ 111830Z 03007KT 340V050 9999 FEW015 BKN030 15/10 Q1031","updated":"2026-03-11T18:52:23Z"}
