{"icao":"KJFK","metar":"KJFK 121551Z 28015G22KT 10SM FEW065 FEW250 M01/M13 A3005 RMK AO2 SLP175 T10111133","updated":"2025-12-12T16:24:17Z"}
