{"icao":"LPMR","metar":"LPMR 280600Z 14008KT 9999 SCT032 18/10 Q1015","updated":"2025-10-28T06:28:27Z"}
