{"icao":"LPPS","metar":"LPPS 192200Z 06007KT 020V090 9999 FEW015 BKN030 16/09 Q1028","updated":"2026-02-19T22:30:09Z"}
