{"icao":"LPPR","metar":"LPPR 191500Z 31008KT 270V340 9999 FEW009 21/16 Q1016","updated":"2026-06-19T15:11:58Z"}
