{"icao":"LPFR","metar":"LPFR 142200Z 35014KT CAVOK 28/16 Q1018","updated":"2025-09-14T22:14:43Z"}
