{"icao":"LPPD","metar":"LPPD 080200Z 23020KT 9999 FEW006 BKN020 17/15 Q1013","updated":"2026-02-08T02:28:15Z"}
