{"icao":"LPFL","metar":"LPFL 131030Z 22012KT 180V270 9999 FEW023 16/10 Q1029","updated":"2026-02-13T10:38:21Z"}
