{"icao":"LPPT","metar":"LPPT 172200Z VRB01KT 9999 FEW020 06/05 Q1009","updated":"2026-01-17T22:18:18Z"}
