{"icao":"LPPT","metar":"LPPT 020600Z 32008KT CAVOK 19/12 Q1020","updated":"2025-10-02T06:26:04Z"}
