{"icao":"LPBJ","metar":"LPBJ 230400Z 15005KT CAVOK 21/17 Q1014","updated":"2026-06-23T04:58:51Z"}
