{"icao":"KLAX","metar":"KLAX 091453Z 04003KT 10SM FEW100 16/02 A3007 RMK AO2 SLP182 T01560017 53009 $","updated":"2025-12-09T15:22:49Z"}
