{"icao":"KORD","metar":"KORD 280651Z 35006KT 10SM CLR M02/M07 A3058 RMK AO2 SLP364 T10171067","updated":"2026-03-28T07:49:35Z"}
