{"icao":"KLAX","metar":"KLAX 301253Z 07004KT 1/4SM R25L/2400V4500FT FG VV002 13/13 A2999 RMK AO2 SLP154 T01280128 $","updated":"2025-11-30T13:25:12Z"}
