{"icao":"KORD","metar":"KORD 281851Z 28014G21KT 10SM FEW250 M10/M20 A3014 RMK AO2 SLP219 T11001200","updated":"2026-01-28T19:27:02Z"}
