{"icao":"LPOV","metar":"LPOV 081300Z 32009KT 270V350 9999 FEW016 SCT035 19/16 Q1021","updated":"2025-10-08T13:28:14Z"}
