{"icao":"KORD","metar":"KORD 291651Z 06020G29KT 10SM FEW039 FEW250 12/02 A3005 RMK AO2 PK WND 06032/1607 SLP176 T01220022","updated":"2025-10-29T17:17:42Z"}
