{"icao":"LPFR","metar":"LPFR 031000Z 16014KT 7000 -RA SCT012 FEW018CB SCT025 16/14 Q0999","updated":"2026-01-03T10:19:28Z"}
