{"icao":"KORD","metar":"KORD 122151Z 28013G23KT 10SM FEW120 12/M03 A2996 RMK AO2 PK WND 30029/2054 SLP147 T01171028","updated":"2025-11-12T22:17:50Z"}
