{"icao":"KLAX","metar":"KLAX 141453Z 06003KT 9SM FEW180 SCT280 16/14 A2992 RMK AO2 SLP131 ACSL DSNT N-NE T01610139 53010","updated":"2026-03-14T15:27:34Z"}
