{"icao":"LPCS","metar":"LPCS 161000Z 27006KT 230V320 9999 FEW016 FEW025TCU 17/14 Q1013","updated":"2025-11-16T10:17:32Z"}
