{"icao":"LPPT","metar":"LPPT 260500Z 25011KT 9999 FEW006 BKN010 14/14 Q1013","updated":"2026-01-26T05:32:01Z"}
