{"icao":"KJFK","metar":"KJFK 090851Z 00000KT 10SM FEW250 01/M01 A3060 RMK AO2 SLP363 T00111011 55005","updated":"2026-04-09T09:06:10Z"}
