{"icao":"LPOV","metar":"LPOV 290500Z 21010KT 3000 -RADZ BR BKN006 BKN014 15/15 Q1002","updated":"2026-01-29T05:41:57Z"}
