{"icao":"LPBJ","metar":"LPBJ 311200Z 29008KT 9999 BKN030 14/07 Q1021","updated":"2026-01-31T12:44:20Z"}
