{"icao":"KORD","metar":"KORD 250851Z 20003KT 10SM SCT250 03/01 A3032 RMK AO2 SLP271 T00280006 55002 $","updated":"2025-10-25T09:16:20Z"}
