{"icao":"KLAX","metar":"KLAX 192253Z 27022G31KT 10SM FEW070 SCT085 14/08 A2985 RMK AO2 PK WND 27033/2222 SLP108 T01390078","updated":"2026-02-19T23:29:01Z"}
