{"icao":"KLAX","metar":"KLAX 241653Z 09006G17KT 10SM FEW015 SCT027 BKN160 20/12 A2993 RMK AO2 SLP133 T02000117 $","updated":"2026-04-24T17:49:22Z"}
