{"icao":"LPPR","metar":"LPPR 121500Z 29005KT 250V320 9999 FEW030 25/13 Q1016","updated":"2025-10-12T15:15:17Z"}
