{"icao":"LPPT","metar":"LPPT 051230Z 07006KT 310V110 CAVOK 23/12 Q1021","updated":"2026-04-05T12:55:12Z"}
