{"icao":"LPLA","metar":"LPLA 291500Z 21009KT 180V240 9999 SCT025 17/08 Q1005","updated":"2026-04-29T15:54:36Z"}
