{"icao":"KJFK","metar":"KJFK 071751Z 30019G30KT 10SM SCT070 SCT250 12/M06 A3017 RMK AO2 PK WND 33030/1744 SLP217 T01221061 10133 20094 53007","updated":"2026-04-07T17:59:25Z"}
