{"icao":"LPPS","metar":"LPPS 140600Z 04015KT 360V060 9999 SCT014 18/13 Q1017","updated":"2025-12-14T06:28:39Z"}
