{"icao":"LPAR","metar":"LPAR 091700Z 24003KT 7000 FEW009 SCT018 16/15 Q1016","updated":"2025-12-10T07:21:28Z"}
