{"icao":"LPMT","metar":"LPMT 011000Z 04005KT CAVOK 09/06 Q1022","updated":"2025-12-01T10:22:40Z"}
