{"icao":"LPFL","metar":"LPFL 111400Z 18010KT 130V200 9999 FEW020 22/16 Q1020","updated":"2025-10-11T14:13:34Z"}
