{"icao":"LPMA","metar":"LPMA 090500Z 02008KT 9999 SCT015 16/11 Q1033","updated":"2026-01-09T05:24:19Z"}
