{"icao":"KORD","metar":"KORD 141951Z 21009KT 10SM FEW250 18/08 A2988 RMK AO2 SLP118 T01830083 $","updated":"2025-11-14T20:20:32Z"}
