{"icao":"LPLA","metar":"LPLA 251000Z 23019G29KT 9999 FEW015 SCT023 18/15 Q1014","updated":"2026-01-25T10:20:41Z"}
