{"icao":"LPPR","metar":"LPPR 201100Z 02011KT CAVOK 11/04 Q1023","updated":"2025-11-20T11:16:39Z"}
