{"icao":"LPMA","metar":"LPMA 310630Z 33004KT 290V010 9999 FEW015 16/13 Q1024","updated":"2026-01-31T06:37:35Z"}
