{"icao":"LPFR","metar":"LPFR 281900Z 26003KT CAVOK 15/08 Q1021","updated":"2026-02-28T19:19:25Z"}
