{"icao":"KORD","metar":"KORD 131351Z 21014G25KT 10SM OVC090 04/M02 A2960 RMK AO2 SLP030 T00441017 $","updated":"2026-01-13T14:24:35Z"}
