{"icao":"LPPT","metar":"LPPT 151300Z 25006KT 220V280 CAVOK 28/10 Q1016","updated":"2025-10-15T13:30:44Z"}
