{"icao":"LPMR","metar":"LPMR 081800Z 24008KT 210V290 6000 SCT007 BKN016 13/12 Q1029","updated":"2026-01-08T18:27:10Z"}
