{"icao":"LPPT","metar":"LPPT 141400Z 33013KT 9999 FEW032 27/17 Q1022","updated":"2025-09-14T14:13:34Z"}
