{"icao":"LPPD","metar":"LPPD 050830Z 20008G21KT 180V240 9999 FEW020 15/09 Q1020","updated":"2026-04-05T08:41:17Z"}
