{"icao":"KJFK","metar":"KJFK 181527Z 00000KT 1/2SM R04R/P6000FT -RA BR BKN005 OVC050 02/02 A2992 RMK AO2 SFC VIS 3 CIG 004V006 P0002 T00170017 $","updated":"2026-02-18T15:51:33Z"}
