{"icao":"LPPS","metar":"LPPS 281300Z 36012KT 330V030 9999 FEW014 18/09 Q1019","updated":"2025-12-28T13:28:44Z"}
