{"icao":"LPAZ","metar":"LPAZ 310400Z 27017KT 9999 FEW028 19/13 Q1009","updated":"2025-10-31T04:22:15Z"}
