{"icao":"LPPD","metar":"LPPD 181000Z 26009KT 8000 FEW002 BKN004 22/22 Q1015","updated":"2025-10-18T10:16:33Z"}
