{"icao":"LPLA","metar":"LPLA 242100Z 18003KT 140V240 9999 FEW030 18/13 Q1021","updated":"2025-09-24T21:15:05Z"}
