{"icao":"KJFK","metar":"KJFK 051951Z 19011KT 10SM FEW055 SCT120 BKN180 BKN250 01/M06 A3014 RMK AO2 SNE31 SLP207 P0000 T00111061 $","updated":"2026-01-05T20:24:29Z"}
