{"icao":"LPOV","taf":"TAF LPOV 301109Z 3012/3112 17012KT 9999 FEW018 BKN035 ","updated":"2025-10-30T15:20:01Z"}
