{"icao":"LPPR","taf":"TAF LPPR 201700Z 2018/2118 35008KT CAVOK ","updated":"2025-11-21T01:23:07Z"}
