{"icao":"LPPT","taf":"TAF LPPT 161700Z 1618/1724 33013KT CAVOK ","updated":"2026-06-16T19:33:20Z"}
