{"icao":"KJFK","taf":"TAF KJFK 240520Z 2406/2512 32019G27KT 5SM BLSN SCT035 OVC100 ","updated":"2026-02-24T05:58:05Z"}
