{"icao":"LPPS","taf":"TAF LPPS 060500Z 0606/0712 03013KT 9999 SCT015 SCT030 ","updated":"2026-01-06T08:29:10Z"}
