{"icao":"LPPS","taf":"TAF LPPS 061700Z 0618/0724 29013KT 9999 SCT015 SCT030 ","updated":"2026-04-06T22:35:18Z"}
