{"icao":"LPMR","taf":"TAF TAF LPMR 021119Z 0212/0312 VRB02KT CAVOK ","updated":"2026-04-02T13:10:59Z"}
