{"icao":"LPPS","taf":"TAF LPPS 220500Z 2206/2312 06015KT 9999 SCT015 ","updated":"2025-11-22T08:22:37Z"}
