{"icao":"LPMR","taf":"TAF TAF LPMR 211704Z 2118/2218 34008KT CAVOK ","updated":"2026-02-21T18:33:16Z"}
