{"icao":"KORD","taf":"TAF KORD 231726Z 2318/2424 19014G24KT P6SM SCT050 SCT250 ","updated":"2026-04-23T20:51:42Z"}
