{"icao":"KJFK","taf":"TAF KJFK 091720Z 0918/1024 17012KT P6SM SCT015 BKN150 ","updated":"2026-01-09T17:22:11Z"}
