{"icao":"KORD","taf":"TAF KORD 150520Z 1506/1612 33014G24KT P6SM BKN035 ","updated":"2026-01-15T07:24:20Z"}
