{"icao":"LPMR","taf":"TAF TAF LPMR 261107Z 2612/2712 04005KT CAVOK ","updated":"2025-10-26T15:15:54Z"}
