{"icao":"KLAX","taf":"TAF KLAX 120548Z 1206/1312 26008KT P6SM BKN020 ","updated":"2026-04-12T08:46:40Z"}
