{"icao":"KJFK","taf":"TAF KJFK 171725Z 1718/1824 24014KT P6SM BKN050 BKN250 WS020/25045KT ","updated":"2025-12-17T20:22:48Z"}
