{"icao":"LPLA","taf":"TAF LPLA 191101Z 1912/2012 19015KT 9999 SCT018 SCT030 ","updated":"2026-02-19T14:48:16Z"}
