{"icao":"KJFK","taf":"TAF KJFK 211739Z 2118/2224 19013KT P6SM FEW060 FEW120 FEW250 ","updated":"2026-04-21T18:06:45Z"}
