{"icao":"KLAX","taf":"TAF KLAX 011746Z 0118/0224 06006KT P6SM OVC025 ","updated":"2026-05-01T20:02:49Z"}
