{"icao":"LPBJ","taf":"TAF TAF LPBJ 171104Z 1712/1812 VRB02KT CAVOK PROB40 1718/1721 27012KT ","updated":"2025-09-17T16:22:01Z"}
