{"icao":"LPPR","taf":"TAF LPPR 271100Z 2712/2812 09008KT CAVOK ","updated":"2025-10-27T11:16:01Z"}
