{"icao":"LPMR","taf":"TAF TAF LPMR 030505Z 0306/0406 15005KT 9999 FEW015 SCT025 PROB30 0306/0308 1200 BR BKN003 ","updated":"2026-05-03T08:06:51Z"}
