{"icao":"LPMT","taf":"TAF LPMT 081103Z 0812/0912 23005KT 9999 FEW020 SCT025 ","updated":"2026-02-08T22:25:39Z"}
