{"icao":"LPFR","taf":"TAF LPFR 111700Z 1118/1218 VRB02KT 9999 FEW025 ","updated":"2026-01-11T21:17:32Z"}
