{"icao":"KLAX","taf":"TAF KLAX 130522Z 1306/1412 26006KT P6SM SCT012 "}
