{"icao":"LPPT","taf":"TAF LPPT 200500Z 2006/2112 VRB02KT CAVOK PROB30 2006/2008 1200 BR BKN003 ","updated":"2026-04-20T08:04:47Z"}
