{"icao":"LPPT","taf":"TAF TAF LPPT 010500Z 0106/0212 23013KT 6000 -RA SCT006 BKN012 ","updated":"2026-02-01T09:29:15Z"}
