{"icao":"LPPR","taf":"TAF LPPR 071100Z 0712/0812 30010KT 8000 -RA SCT008 BKN020 ","updated":"2025-11-07T15:18:33Z"}
