{"icao":"LPFR","taf":"TAF LPFR 141700Z 1418/1518 26005KT CAVOK ","updated":"2025-10-14T18:26:14Z"}
