{"icao":"KLAX","taf":"TAF KLAX 041727Z 0418/0524 18008KT 5SM BR SCT008 SCT015 OVC025 PROB30 0418/0421 3SM -RA BR SCT008 OVC015 ","updated":"2026-01-04T19:14:39Z"}
