{"icao":"LPMA","taf":"TAF LPMA 131100Z 1312/1412 19007KT 9999 FEW015 BKN030 ","updated":"2026-06-13T14:59:21Z"}
