{"icao":"KLAX","taf":"TAF KLAX 271720Z 2718/2824 06006KT P6SM SCT250 ","updated":"2025-11-27T19:15:02Z"}
