{"icao":"LPAZ","taf":"TAF LPAZ 211700Z 2118/2224 02018KT 9999 FEW015 BKN040 ","updated":"2026-03-22T04:50:41Z"}
