{"icao":"LPMR","taf":"TAF TAF LPMR 141704Z 1418/1518 33005KT CAVOK PROB30 ","updated":"2025-10-15T01:20:19Z"}
