{"icao":"LPLA","taf":"TAF LPLA 251705Z 2518/2618 04015KT 9999 FEW015 SCT025 ","updated":"2025-10-25T23:15:21Z"}
