{"icao":"LPLA","taf":"TAF LPLA 071108Z 0712/0812 VRB05KT 9999 SCT025 ","updated":"2025-10-07T16:21:49Z"}
