{"icao":"LPMT","taf":"TAF LPMT 151703Z 1518/1618 25010KT 9999 SCT030 ","updated":"2025-11-16T01:36:50Z"}
