{"icao":"LPMT","taf":"TAF LPMT 150506Z 1506/1606 03006KT CAVOK ","updated":"2025-12-15T09:30:35Z"}
