{"icao":"LPMR","taf":"TAF TAF LPMR 211700Z 2118/2218 35008KT CAVOK ","updated":"2025-11-21T23:16:38Z"}
