{"icao":"LPPR","taf":"TAF LPPR 080500Z 0806/0906 35005KT CAVOK ","updated":"2026-06-08T05:48:27Z"}
