{"icao":"KLAX","taf":"TAF KLAX 160529Z 1606/1712 VRB03KT P6SM SKC ","updated":"2026-01-16T08:28:45Z"}
