{"icao":"LPPT","taf":"TAF LPPT 081100Z 0812/0918 32012KT 9999 FEW012 BKN030 ","updated":"2025-10-08T12:37:26Z"}
