{"icao":"KJFK","taf":"TAF KJFK 031721Z 0318/0424 27011KT P6SM FEW030 BKN050 ","updated":"2026-02-03T17:51:46Z"}
