{"icao":"LPMT","taf":"TAF LPMT 180501Z 1806/1906 36008KT CAVOK PROB30 1903/1906 VRB02KT 4000 BR BKN004","updated":"2025-11-18T06:28:06Z"}
