{"icao":"LPPT","taf":"TAF LPPT 031100Z 0312/0418 VRB05KT CAVOK ","updated":"2025-10-03T12:35:09Z"}
