{"icao":"KORD","taf":"TAF KORD 101720Z 1018/1124 31012G22KT P6SM SCT025 SCT250","updated":"2026-02-10T19:20:35Z"}
