{"icao":"KLAX","taf":"TAF KLAX 271133Z 2712/2818 13006KT P6SM OVC015 ","updated":"2025-09-27T13:19:55Z"}
