{"icao":"LPLA","taf":"TAF LPLA 021701Z 0218/0318 10010KT 9999 SCT015 BKN028 ","updated":"2026-04-03T02:10:56Z"}
