{"icao":"KLAX","taf":"TAF KLAX 100544Z 1006/1112 27008KT 2SM BR OVC004 ","updated":"2026-05-10T06:11:06Z"}
