{"icao":"KJFK","taf":"TAF KJFK 011725Z 0118/0224 32022G33KT P6SM FEW050 ","updated":"2026-01-01T20:22:36Z"}
