{"icao":"LPOV","taf":"TAF LPOV 271110Z 2712/2812 26005KT CAVOK ","updated":"2026-04-27T15:46:45Z"}
