{"icao":"KORD","taf":"TAF KORD 130520Z 1306/1412 22006KT P6SM FEW120 ","updated":"2026-06-13T07:45:15Z"}
