{"icao":"LPFR","taf":"TAF LPFR 031100Z 0312/0412 19008KT CAVOK ","updated":"2025-10-03T14:16:27Z"}
