{"icao":"LPMR","taf":"TAF TAF LPMR 150510Z 1506/1606 33005KT 9999 BKN012 ","updated":"2026-06-15T06:21:42Z"}
