{"icao":"KJFK","taf":"TAF KJFK 221127Z 2212/2318 08014KT P6SM OVC010 ","updated":"2026-02-22T14:24:38Z"}
