{"icao":"LPMT","taf":"TAF LPMT 281707Z 2818/2918 33010KT CAVOK ","updated":"2026-05-29T03:28:52Z"}
