{"icao":"KJFK","taf":"TAF KJFK 301722Z 3018/3124 30017G25KT P6SM SCT040 ","updated":"2026-01-30T19:30:42Z"}
