{"icao":"KORD","taf":"TAF KORD 231740Z 2318/2424 03005KT P6SM SCT020 ","updated":"2026-05-23T17:59:41Z"}
