{"icao":"KORD","taf":"TAF KORD 020540Z 0206/0312 08014G23KT 4SM -SHRA BR SCT008 OVC015 ","updated":"2026-04-02T08:55:08Z"}
