{"icao":"KORD","taf":"TAF KORD 271125Z 2712/2818 13012G22KT P6SM VCSH BKN070 ","updated":"2026-04-27T13:50:39Z"}
