{"icao":"LPOV","taf":"TAF LPOV 220506Z 2206/2306 VRB02KT 6000 OVC003 ","updated":"2026-06-22T06:27:37Z"}
