{"icao":"LPOV","taf":"TAF LPOV 050501Z 0506/0606 22018KT 7000 -RA SCT008 BKN015 ","updated":"2026-02-05T05:54:16Z"}
