{"icao":"LPBJ","taf":"TAF TAF LPBJ 260505Z 2606/2706 36005KT CAVOK PROB30 2703/2706 2000 BCFG BR SCT002","updated":"2026-02-26T08:47:23Z"}
