{"icao":"KLAX","taf":"TAF KLAX 151721Z 1518/1624 24006KT P6SM SKC ","updated":"2026-04-15T19:15:57Z"}
