{"icao":"KLAX","taf":"TAF KLAX 171207Z 1712/1818 VRB03KT P6SM SCT110 SCT150 ","updated":"2025-09-17T13:26:11Z"}
