{"icao":"LPBJ","taf":"TAF TAF LPBJ 230501Z 2306/2406 09005KT CAVOK ","updated":"2026-02-23T06:06:02Z"}
