{"icao":"KLAX","taf":"TAF KLAX 131724Z 1318/1424 26008KT P6SM SCT100 ","updated":"2026-04-13T19:23:21Z"}
