{"icao":"LPFR","taf":"TAF LPFR 121700Z 1218/1318 18015KT 9999 SCT015 BKN030 ","updated":"2025-11-12T17:17:51Z"}
