{"icao":"KLAX","taf":"TAF KLAX 230537Z 2306/2412 27010KT P6SM SKC ","updated":"2025-10-23T07:18:42Z"}
