{"icao":"LPPS","taf":"TAF LPPS 241100Z 2412/2518 36010KT 9999 SCT015 SCT030","updated":"2025-09-24T12:36:44Z"}
