{"icao":"KLAX","taf":"TAF KLAX 250544Z 2506/2612 23004KT P6SM FEW007 ","updated":"2025-09-25T08:23:23Z"}
