{"icao":"KORD","taf":"TAF KORD 050522Z 0506/0612 27014G24KT P6SM SCT025 BKN035 ","updated":"2026-04-05T07:04:12Z"}
