{"icao":"LPFR","taf":"TAF LPFR 220500Z 2206/2306 08010KT CAVOK ","updated":"2026-05-22T10:48:49Z"}
