{"icao":"LPPS","taf":"TAF LPPS 301700Z 3018/3124 01013KT 9999 SCT015","updated":"2026-05-30T19:12:47Z"}
