{"icao":"LPPR","taf":"TAF LPPR 031700Z 0318/0418 33007KT CAVOK ","updated":"2026-03-03T19:37:55Z"}
