{"icao":"LPPS","taf":"TAF LPPS 241100Z 2412/2518 02010KT 9999 SCT015 ","updated":"2026-04-24T15:06:39Z"}
