{"icao":"LPMA","taf":"TAF LPMA 200500Z 2006/2106 VRB05KT 9999 SCT015 PROB30 ","updated":"2025-09-20T05:15:55Z"}
