{"icao":"KLAX","taf":"TAF KLAX 281720Z 2818/2924 26006KT P6SM SCT200 ","updated":"2026-03-28T20:29:24Z"}
