{"icao":"KLAX","taf":"TAF KLAX 311720Z 3118/0124 12006KT P6SM OVC025 ","updated":"2026-03-31T20:40:53Z"}
