{"icao":"LPPR","taf":"TAF LPPR 120500Z 1206/1306 VRB02KT 5000 BR BKN005 PROB30 1206/1209 03005KT 1200 PRFG BR BKN002 ","updated":"2026-03-12T06:53:48Z"}
