{"icao":"LPMR","taf":"TAF TAF LPMR 051706Z 0518/0618 35010KT CAVOK ","updated":"2026-06-05T17:52:38Z"}
