{"icao":"LPMT","taf":"TAF LPMT 151108Z 1512/1612 33005KT CAVOK ","updated":"2026-06-15T13:10:56Z"}
