{"icao":"LPPD","taf":"TAF LPPD 141700Z 1418/1518 33010KT 9999 FEW015 BKN030 ","updated":"2025-11-14T19:14:34Z"}
