{"icao":"LPMR","taf":"TAF LPMR 171108Z 1712/1812 34008KT 9999 FEW012 ","updated":"2026-06-17T15:24:36Z"}
