{"icao":"KORD","taf":"TAF KORD 301120Z 3012/0118 30004KT P6SM BKN070 ","updated":"2026-04-30T12:14:32Z"}
