{"icao":"LPPD","taf":"TAF LPPD 030500Z 0306/0406 21007KT 9999 SCT012 ","updated":"2025-10-03T09:17:34Z"}
