{"icao":"LPBJ","taf":"TAF TAF LPBJ 310506Z 3106/0106 29005KT CAVOK ","updated":"2026-01-31T06:37:18Z"}
