{"icao":"LPST","taf":"TAF LPST 221102Z 2212/2221 34010KT 9999 FEW015 ","updated":"2026-01-06T15:21:44Z"}
