{"icao":"KLAX","taf":"TAF KLAX 010534Z 0106/0212 VRB03KT P6SM SCT015 ","updated":"2026-05-01T06:15:38Z"}
