{"icao":"LPPR","taf":"TAF LPPR 161100Z 1612/1712 26010KT 8000 SCT006 BKN012 ","updated":"2026-02-16T16:41:11Z"}
