{"icao":"KJFK","taf":"TAF KJFK 021127Z 0212/0318 01011KT P6SM SKC ","updated":"2026-03-02T14:00:37Z"}
