{"icao":"LPMT","taf":"TAF LPMT 021704Z 0218/0318 15012KT 9999 FEW015 BKN035 ","updated":"2026-01-02T18:28:57Z"}
