{"icao":"LPBJ","taf":"TAF TAF LPBJ 101105Z 1012/1112 12007KT CAVOK ","updated":"2025-10-10T16:21:20Z"}
