{"icao":"KLAX","taf":"TAF KLAX 201743Z 2018/2124 27010KT P6SM SKC ","updated":"2026-03-20T19:36:27Z"}
