{"icao":"LPBJ","taf":"TAF TAF LPBJ 200509Z 2006/2106 VRB02KT CAVOK ","updated":"2026-02-20T09:39:00Z"}
