{"icao":"LPFR","taf":"TAF LPFR 051100Z 0512/0612 10013KT CAVOK ","updated":"2026-04-05T15:31:20Z"}
