{"icao":"LPPD","taf":"TAF LPPD 310500Z 3106/0106 09008KT 9999 SCT020 ","updated":"2026-03-31T08:58:26Z"}
