{"icao":"LPPS","taf":"TAF LPPS 141100Z 1412/1518 05013KT 9999 FEW015 BKN030 ","updated":"2025-09-14T15:14:29Z"}
