{"icao":"KJFK","taf":"TAF KJFK 301120Z 3012/0118 01009KT P6SM OVC250 ","updated":"2025-09-30T13:28:03Z"}
