{"icao":"LPPR","taf":"TAF LPPR 091700Z 0918/1018 16012KT 9999 SCT020 ","updated":"2026-05-09T17:49:58Z"}
