{"icao":"LPOV","taf":"TAF LPOV 141704Z 1418/1518 33008KT CAVOK PROB40 ","updated":"2025-10-14T20:19:13Z"}
