{"icao":"KORD","taf":"TAF KORD 181720Z 1818/1924 24013G20KT P6SM SCT020 BKN150 ","updated":"2026-01-18T20:21:57Z"}
