{"icao":"LPMR","taf":"TAF TAF LPMR 230515Z 2306/2406 34005KT 4000 BR BKN005 PROB30 2306/2308 1200 PRFG BKN003 ","updated":"2026-06-23T08:33:06Z"}
