{"icao":"LPBJ","taf":"TAF TAF COR LPBJ 311706Z 3118/0118 30010KT 9999 SCT030 ","updated":"2026-01-31T20:24:03Z"}
