{"icao":"LPAZ","taf":"TAF TAF LPAZ 081100Z 0812/0918 23015KT 6000 SCT004 SCT008 ","updated":"2026-02-08T15:24:59Z"}
