{"icao":"KLAX","taf":"TAF KLAX 031159Z 0312/0418 09004KT P6SM SCT022 BKN035 ","updated":"2025-12-03T12:41:19Z"}
