{"icao":"LPPT","taf":"TAF LPPT 040500Z 0406/0512 04012KT 9999 SCT015 BKN030 ","updated":"2026-01-04T09:18:30Z"}
