{"icao":"LPAZ","taf":"TAF TAF LPAZ 081700Z 0818/0924 23015KT 6000 SCT004 BKN008 ","updated":"2026-02-09T02:06:13Z"}
