{"icao":"LPOV","taf":"TAF LPOV 091103Z 0912/1012 33012KT 9999 BKN025 ","updated":"2026-03-09T14:48:53Z"}
