{"icao":"LPPS","taf":"TAF LPPS 191100Z 1912/2018 VRB05KT 9999 SCT015 ","updated":"2025-09-19T14:17:03Z"}
