{"icao":"KORD","taf":"TAF KORD 120520Z 1206/1312 27011KT P6SM SCT025 ","updated":"2026-06-12T08:23:57Z"}
