{"icao":"LPMR","taf":"TAF TAF LPMR 251704Z 2518/2618 02010KT 9999 SCT008 BKN025 ","updated":"2025-10-25T23:15:18Z"}
