{"icao":"LPMR","taf":"TAF LPMR 300514Z 3006/3106 09005KT CAVOK ","updated":"2026-03-30T11:00:31Z"}
