{"icao":"LPPD","taf":"TAF LPPD 311100Z 3112/0112 23015KT 8000 SCT004 SCT012 ","updated":"2026-01-31T14:22:36Z"}
