{"icao":"LPBJ","taf":"TAF TAF LPBJ 190502Z 1906/2006 17010KT 8000 -RA FEW016 SCT030 ","updated":"2026-03-19T05:57:10Z"}
