{"icao":"LPMR","taf":"TAF TAF LPMR 181710Z 1818/1918 01010KT CAVOK ","updated":"2026-01-18T20:21:38Z"}
