{"icao":"KORD","taf":"TAF KORD 071120Z 0712/0818 35009KT P6SM SKC ","updated":"2026-02-07T13:42:36Z"}
