{"icao":"KJFK","taf":"TAF KJFK 311726Z 3118/0124 20013KT P6SM SCT060 BKN250 ","updated":"2026-03-31T17:55:54Z"}
