{"icao":"KLAX","taf":"TAF KLAX 281720Z 2818/2924 12004KT P6SM SCT250 ","updated":"2025-11-28T20:21:18Z"}
