{"icao":"KJFK","taf":"TAF KJFK 041723Z 0418/0524 29018G29KT P6SM FEW060 ","updated":"2025-11-04T19:14:55Z"}
