{"icao":"LPBJ","taf":"TAF TAF LPBJ 061109Z 0612/0712 01005KT CAVOK ","updated":"2026-06-06T11:24:29Z"}
