{"icao":"LPOV","taf":"TAF LPOV 221704Z 2218/2318 30008KT 9999 FEW035 ","updated":"2026-04-22T20:03:58Z"}
