{"icao":"KLAX","taf":"TAF KLAX 031145Z 0312/0418 VRB03KT 3SM BR BKN006 ","updated":"2025-11-03T12:38:54Z"}
