{"icao":"LPMR","taf":"TAF TAF LPMR 241707Z 2418/2518 32012KT 9999 SCT020 ","updated":"2026-01-24T18:28:36Z"}
