{"icao":"KORD","taf":"TAF KORD 181126Z 1812/1918 18015G25KT P6SM FEW015 BKN025 OVC040 ","updated":"2026-02-18T14:41:53Z"}
