{"icao":"LPMT","taf":"TAF LPMT 211104Z 2112/2212 02008KT CAVOK","updated":"2026-02-21T11:20:41Z"}
