{"icao":"KJFK","taf":"TAF KJFK 190528Z 1906/2012 VRB04KT P6SM BKN050 OVC100 ","updated":"2025-11-19T07:18:51Z"}
