{"icao":"KORD","taf":"TAF KORD 211720Z 2118/2224 23017G26KT P6SM SCT050 SCT150 ","updated":"2026-04-21T18:06:56Z"}
