{"icao":"LPOV","taf":"TAF LPOV 181711Z 1818/1918 35007KT CAVOK ","updated":"2026-01-18T22:18:23Z"}
