{"icao":"LPFR","taf":"TAF LPFR 080500Z 0806/0906 33008KT 9999 SCT025 ","updated":"2026-02-08T06:48:25Z"}
