{"icao":"LPLA","taf":"TAF LPLA 101701Z 1018/1118 22020G30KT 8000 -RADZ SCT008 BKN025 ","updated":"2026-02-11T05:01:35Z"}
