{"icao":"LPPT","taf":"TAF LPPT 041700Z 0418/0524 32010KT CAVOK ","updated":"2026-04-05T02:25:03Z"}
