{"icao":"LPOV","taf":"TAF LPOV 101111Z 1012/1112 VRB02KT CAVOK ","updated":"2026-04-10T15:52:02Z"}
