{"icao":"LPPS","taf":"TAF LPPS 180500Z 1806/1912 VRB05KT 9999 SCT013 ","updated":"2025-09-18T08:22:08Z"}
