{"icao":"LPPT","taf":"TAF LPPT 140500Z 1406/1512 33010KT 9999 FEW020 ","updated":"2026-05-14T06:44:42Z"}
