{"icao":"LPPD","taf":"TAF LPPD 221700Z 2218/2318 17013KT 9999 SCT008 SCT015 ","updated":"2025-10-22T20:21:33Z"}
