{"icao":"KORD","taf":"TAF KORD 251721Z 2518/2624 08013KT P6SM SCT010 BKN015 OVC250 ","updated":"2025-12-25T18:28:14Z"}
