{"icao":"KLAX","taf":"TAF KLAX 070522Z 0706/0812 VRB03KT P6SM SCT008 ","updated":"2025-11-07T06:27:47Z"}
