{"icao":"KLAX","taf":"TAF KLAX 291721Z 2918/3024 10005KT P6SM BKN250 ","updated":"2025-11-29T21:16:06Z"}
