{"icao":"LPPS","taf":"TAF LPPS 121100Z 1212/1318 35008KT 9999 SCT015 SCT030 ","updated":"2026-06-12T12:17:49Z"}
