{"icao":"KJFK","taf":"TAF KJFK 061726Z 0618/0724 31020G30KT P6SM BKN050 ","updated":"2025-11-06T19:15:17Z"}
