{"icao":"KORD","taf":"TAF KORD 070530Z 0706/0812 07006KT P6SM BKN070 ","updated":"2026-06-07T07:53:54Z"}
