{"icao":"LPBJ","taf":"TAF TAF LPBJ 261702Z 2618/2718 30012KT CAVOK ","updated":"2026-06-26T21:17:06Z"}
