{"icao":"KJFK","taf":"TAF KJFK 060526Z 0606/0712 22006KT P6SM SKC ","updated":"2025-10-06T08:24:20Z"}
