{"icao":"LPFR","taf":"TAF LPFR 101100Z 1012/1112 23013KT 9999 SCT020 PROB40 ","updated":"2026-05-10T11:50:17Z"}
