{"icao":"LPPT","taf":"TAF LPPT 311100Z 3112/0118 34015KT CAVOK PROB40 ","updated":"2026-05-31T14:42:51Z"}
