{"icao":"KORD","taf":"TAF KORD 181720Z 1818/1924 24020G33KT P6SM SKC ","updated":"2026-02-18T20:38:02Z"}
