{"icao":"KJFK","taf":"TAF KJFK 221739Z 2218/2324 18015KT P6SM SCT006 BKN015 BKN040 ","updated":"2026-03-22T18:35:59Z"}
