{"icao":"LPLA","taf":"TAF LPLA 041104Z 0412/0512 23012KT 9999 FEW015 SCT020 ","updated":"2025-12-04T14:20:24Z"}
