{"icao":"LPMT","taf":"TAF LPMT 031700Z 0318/0418 34008KT CAVOK PROB30 0402/0408 4000 BR BKN008","updated":"2025-10-03T22:15:14Z"}
