{"icao":"KLAX","taf":"TAF KLAX 071720Z 0718/0824 25006KT P6SM SCT150 ","updated":"2026-04-07T19:17:15Z"}
