{"icao":"KORD","taf":"TAF KORD 120520Z 1206/1312 27008KT P6SM SCT070 ","updated":"2026-03-12T08:40:38Z"}
