{"icao":"KJFK","taf":"TAF KJFK 120526Z 1206/1312 02009KT P6SM SKC ","updated":"2026-04-12T07:12:26Z"}
