{"icao":"LPLA","taf":"TAF LPLA 281101Z 2812/2912 06005KT 9999 BKN035","updated":"2026-06-28T14:46:57Z"}
