{"icao":"KORD","taf":"TAF KORD 231124Z 2312/2418 20006KT 6SM BR SKC ","updated":"2026-04-23T13:26:40Z"}
