{"icao":"KJFK","taf":"TAF KJFK 231739Z 2318/2424 09010G20KT 6SM -RA BR OVC050 ","updated":"2026-05-23T19:23:32Z"}
