{"icao":"LPPS","taf":"TAF LPPS 291710Z 2918/3024 27013KT 9999 SCT012 PROB30 ","updated":"2026-01-29T19:29:23Z"}
