{"icao":"LPPR","taf":"TAF LPPR 210500Z 2106/2206 36007KT CAVOK ","updated":"2025-09-21T08:19:40Z"}
