{"icao":"LPPT","taf":"TAF LPPT 051700Z 0518/0624 33012KT CAVOK ","updated":"2025-10-06T01:19:03Z"}
