{"icao":"KJFK","taf":"TAF KJFK 141734Z 1418/1524 17008KT P6SM BKN100 ","updated":"2026-01-14T18:32:07Z"}
