{"icao":"KLAX","taf":"TAF KLAX 091740Z 0918/1024 23007KT P6SM SCT250 ","updated":"2026-04-09T20:50:12Z"}
