{"icao":"KJFK","taf":"TAF KJFK 011731Z 0118/0224 34017G25KT P6SM FEW050 SCT250 ","updated":"2025-12-01T20:19:56Z"}
