{"icao":"LPPR","taf":"TAF LPPR 181100Z 1812/1912 34007KT CAVOK ","updated":"2026-01-18T16:22:56Z"}
