{"icao":"KORD","taf":"TAF KORD 291121Z 2912/3018 03005KT P6SM SCT300 ","updated":"2026-05-29T11:28:04Z"}
