{"icao":"KORD","taf":"TAF KORD 131120Z 1312/1418 27030G48KT P6SM BKN028 ","updated":"2026-03-13T14:00:33Z"}
