{"icao":"KLAX","taf":"TAF KLAX 061722Z 0618/0724 24006KT P6SM FEW015 OVC025 ","updated":"2026-06-06T19:20:31Z"}
