{"icao":"LPPR","taf":"TAF LPPR 291700Z 2918/3018 33010KT CAVOK ","updated":"2025-09-30T01:19:31Z"}
