{"icao":"KLAX","taf":"TAF KLAX 210536Z 2106/2212 VRB03KT 4SM BR SKC ","updated":"2026-03-21T08:31:51Z"}
