{"icao":"LPOV","taf":"TAF TAF LPOV 210522Z 2106/2206 33008KT 9999 FEW015 SCT020 ","updated":"2025-12-21T08:24:39Z"}
