{"icao":"LPMT","taf":"TAF LPMT 110505Z 1106/1206 02005KT CAVOK ","updated":"2026-06-11T05:26:35Z"}
