{"icao":"LPPT","taf":"TAF LPPT 160500Z 1606/1712 34013KT CAVOK ","updated":"2026-05-16T05:53:10Z"}
