{"icao":"KORD","taf":"TAF KORD 131721Z 1318/1424 21015G25KT P6SM SCT050 SCT250 PROB30 1321/1324 -SHRA ","updated":"2026-06-13T18:06:03Z"}
