{"icao":"LPFR","taf":"TAF TAF LPFR 171100Z 1712/1812 10013KT CAVOK ","updated":"2026-04-17T14:53:55Z"}
