{"icao":"KLAX","taf":"TAF KLAX 181150Z 1812/1918 33004KT P6SM -SHRA SCT060 BKN100 ","updated":"2025-09-18T13:26:10Z"}
