{"icao":"KORD","taf":"TAF KORD 061120Z 0612/0718 33005KT P6SM FEW100 BKN250 ","updated":"2026-05-06T14:07:28Z"}
