{"icao":"KORD","taf":"TAF KORD 061726Z 0618/0724 23011G20KT P6SM BKN050 ","updated":"2025-10-06T18:26:06Z"}
