{"icao":"KJFK","taf":"TAF KJFK 050523Z 0506/0612 19010KT P6SM FEW100 SCT250 ","updated":"2026-05-05T05:41:50Z"}
