{"icao":"LPBJ","taf":"TAF TAF LPBJ 281706Z 2818/2918 18012KT 9999 SCT035 ","updated":"2026-04-28T21:56:55Z"}
