{"icao":"KORD","taf":"TAF KORD 281721Z 2818/2924 29010KT P6SM FEW025 BKN035 ","updated":"2025-11-28T20:21:18Z"}
