{"icao":"KORD","taf":"TAF KORD 151720Z 1518/1624 27010KT P6SM FEW120 ","updated":"2026-02-15T20:25:08Z"}
