{"icao":"LPMT","taf":"TAF LPMT 271101Z 2712/2812 08010KT 9999 FEW012 BKN025 ","updated":"2025-12-27T13:27:07Z"}
