{"icao":"LPPS","taf":"TAF LPPS 270500Z 2706/2812 27018KT 9999 SCT015 SCT030 PROB30 ","updated":"2026-01-27T07:26:30Z"}
