{"icao":"KORD","taf":"TAF KORD 260520Z 2606/2712 VRB03KT P6SM BKN100 ","updated":"2026-02-26T05:56:36Z"}
