{"icao":"KJFK","taf":"TAF KJFK 271740Z 2718/2824 23013KT P6SM FEW060 BKN200 ","updated":"2026-05-27T19:23:23Z"}
