{"icao":"KJFK","taf":"TAF KJFK 191725Z 1918/2024 25015G23KT P6SM FEW040 SCT090 ","updated":"2026-01-19T20:22:42Z"}
