{"icao":"LPBJ","taf":"TAF TAF LPBJ 101706Z 1018/1118 25005KT 9999 SCT030 ","updated":"2025-11-10T21:16:45Z"}
