{"icao":"LPPT","taf":"TAF LPPT 211100Z 2112/2218 06007KT CAVOK ","updated":"2026-02-21T14:24:52Z"}
