{"icao":"KLAX","taf":"TAF KLAX 081723Z 0818/0924 16004KT 5SM BR SCT006 ","updated":"2025-11-08T18:23:35Z"}
