{"icao":"LPLA","taf":"TAF LPLA 221111Z 2212/2312 20012KT 9999 FEW025 SCT035 ","updated":"2025-09-22T17:14:50Z"}
