{"icao":"LPBJ","taf":"TAF TAF LPBJ 241703Z 2418/2518 16010KT CAVOK ","updated":"2026-02-24T21:33:20Z"}
