{"icao":"KLAX","taf":"TAF KLAX 281126Z 2812/2918 VRB03KT P6SM SCT060 SCT150 ","updated":"2026-05-28T11:37:51Z"}
