{"icao":"LPFR","taf":"TAF LPFR 301100Z 3012/3112 23010KT 9999 SCT012 ","updated":"2026-01-30T15:32:58Z"}
