{"icao":"LPFR","taf":"TAF LPFR 061700Z 0618/0718 10007KT CAVOK ","updated":"2025-10-06T21:14:53Z"}
