{"icao":"LPPT","taf":"TAF LPPT 050500Z 0506/0612 33010KT CAVOK ","updated":"2026-01-05T06:37:03Z"}
