{"icao":"KJFK","taf":"TAF KJFK 250534Z 2506/2612 VRB05KT P6SM BKN150 ","updated":"2025-12-25T06:31:32Z"}
