{"icao":"KORD","taf":"TAF KORD 151720Z 1518/1624 26012G18KT P6SM SCT060 SCT250 ","updated":"2026-06-15T18:23:29Z"}
