{"icao":"LPBJ","taf":"TAF TAF LPBJ 181705Z 1818/1918 30010KT 9999 FEW040 PROB40 1905/1908 4000 BCFG SCT004 ","updated":"2026-05-18T20:23:08Z"}
