{"icao":"LPBJ","taf":"TAF TAF LPBJ 090507Z 0906/1006 VRB02KT CAVOK PROB30 0906/0908 0600 FG BKN001","updated":"2025-11-09T07:16:21Z"}
