{"icao":"LPBJ","taf":"TAF TAF LPBJ 041103Z 0412/0512 31010KT 9999 FEW015 PROB40 0500/0508 3000 BCFG BKN002 ","updated":"2025-10-04T15:14:24Z"}
