{"icao":"LPPR","taf":"TAF LPPR 161700Z 1618/1718 26008KT 8000 SCT004 BKN008 ","updated":"2026-02-16T21:27:42Z"}
