{"icao":"LPOV","taf":"TAF LPOV 200503Z 2006/2106 36005KT 0400 FG BKN001 ","updated":"2026-06-20T08:52:57Z"}
