{"icao":"LPBJ","taf":"TAF TAF LPBJ 301103Z 3012/3112 30005KT CAVOK ","updated":"2026-05-30T15:04:43Z"}
