{"icao":"KJFK","taf":"TAF KJFK 231120Z 2312/2418 34005KT P6SM SCT050 SCT100 ","updated":"2026-04-23T13:26:28Z"}
