{"icao":"KLAX","taf":"TAF KLAX 240542Z 2406/2512 VRB03KT P6SM SCT010 ","updated":"2025-11-24T06:29:54Z"}
