{"icao":"LPOV","taf":"TAF LPOV 121102Z 1212/1312 04008KT CAVOK ","updated":"2026-06-12T12:17:18Z"}
