{"icao":"KLAX","taf":"TAF KLAX 211133Z 2112/2218 05012KT P6SM -RA SCT010 BKN025 OVC150 ","updated":"2025-11-21T14:18:11Z"}
