{"icao":"LPMR","taf":"TAF TAF LPMR 091702Z 0918/1018 33008KT 9999 SCT030 ","updated":"2026-01-10T04:32:37Z"}
