{"icao":"KJFK","taf":"TAF KJFK 191123Z 1912/2018 16010KT P6SM BKN100 ","updated":"2026-03-19T11:34:21Z"}
