{"icao":"LPMR","taf":"TAF TAF LPMR 111702Z 1118/1218 16012KT 9999 SCT025 ","updated":"2025-11-12T04:22:13Z"}
