{"icao":"KORD","taf":"TAF KORD 281138Z 2812/2918 13004KT 1SM -RA BR OVC003 ","updated":"2025-12-28T12:38:22Z"}
