{"icao":"KORD","taf":"TAF KORD 081720Z 0818/0924 05010KT P6SM BKN040 ","updated":"2025-10-08T20:19:44Z"}
