{"icao":"LPPD","taf":"TAF LPPD 261100Z 2612/2712 03008KT 9999 FEW015 BKN025 ","updated":"2026-03-26T13:12:53Z"}
