{"icao":"KJFK","taf":"TAF KJFK 271125Z 2712/2818 VRB04KT P6SM FEW250 ","updated":"2026-02-27T11:31:25Z"}
