{"icao":"LPLA","taf":"TAF LPLA 211705Z 2118/2218 20010KT 9999 FEW008 SCT015 ","updated":"2026-02-21T19:22:55Z"}
