{"icao":"LPFR","taf":"TAF LPFR 231700Z 2318/2418 27012KT 9999 FEW020 ","updated":"2025-12-23T18:29:20Z"}
