{"icao":"LPMT","taf":"TAF LPMT 211701Z 2118/2218 25012KT 9999 FEW020 SCT030 ","updated":"2026-01-21T22:23:48Z"}
