{"icao":"LPMR","taf":"TAF TAF LPMR 231102Z 2312/2412 16005KT CAVOK ","updated":"2026-02-23T16:55:59Z"}
