{"icao":"LPPT","taf":"TAF LPPT 111100Z 1112/1218 24015KT 3000 BR SCT002 BKN004 ","updated":"2026-02-11T11:43:11Z"}
