{"icao":"LPFR","taf":"TAF LPFR 191700Z 1918/2018 33007KT CAVOK ","updated":"2025-11-19T22:17:33Z"}
