{"icao":"KJFK","taf":"TAF KJFK 090528Z 0906/1012 12007KT P6SM SCT100 BKN250 ","updated":"2025-11-09T07:16:41Z"}
