{"icao":"LPOV","taf":"TAF LPOV 200501Z 2006/2106 19005KT 4000 BR BKN004 ","updated":"2025-09-20T06:23:51Z"}
