{"icao":"LPFR","taf":"TAF LPFR 080500Z 0806/0906 VRB02KT 9999 SCT020 ","updated":"2026-04-08T10:14:29Z"}
