{"icao":"KORD","taf":"TAF KORD 250523Z 2506/2612 15007KT P6SM BKN120 BKN250 WS010/17035KT ","updated":"2026-03-25T07:15:20Z"}
