{"icao":"LPFR","taf":"TAF LPFR 280500Z 2806/2906 22023G38KT 9999 SCT012 BKN025 ","updated":"2026-01-28T08:30:39Z"}
