{"icao":"LPBJ","taf":"TAF TAF LPBJ 240507Z 2406/2506 15005KT CAVOK ","updated":"2026-02-24T07:07:12Z"}
