{"icao":"LPPS","taf":"TAF LPPS 070500Z 0706/0812 VRB05KT 9999 SCT015 ","updated":"2025-11-07T08:25:24Z"}
