{"icao":"LPPR","taf":"TAF LPPR 220500Z 2206/2306 VRB02KT 9999 FEW015 SCT030 ","updated":"2025-12-22T07:23:13Z"}
