{"icao":"LPMR","taf":"TAF TAF LPMR 241702Z 2418/2518 29008KT CAVOK ","updated":"2026-03-25T04:52:22Z"}
