{"icao":"LPMA","taf":"TAF LPMA 211100Z 2112/2212 02010KT 9999 SCT015 PROB40 2112/2118 21010KT ","updated":"2025-10-21T15:19:23Z"}
