{"icao":"LPPT","taf":"TAF LPPT 220500Z 2206/2312 VRB02KT CAVOK ","updated":"2026-05-22T10:48:48Z"}
