{"icao":"KORD","taf":"TAF KORD 100854Z 1009/1112 06008KT 5SM BR VCSH SCT005 BKN040 ","updated":"2026-04-10T09:07:43Z"}
