{"icao":"LPMA","taf":"TAF LPMA 241700Z 2418/2518 02010KT 9999 SCT015 ","updated":"2026-04-25T05:10:57Z"}
