{"icao":"KORD","taf":"TAF KORD 180538Z 1806/1912 17015G28KT P6SM -SHRA OVC008 ","updated":"2026-02-18T07:12:52Z"}
