{"icao":"LPPR","taf":"TAF LPPR 101100Z 1012/1112 18018KT 9999 SCT020 ","updated":"2026-05-10T15:52:13Z"}
