{"icao":"KJFK","taf":"TAF KJFK 120533Z 1206/1312 VRB04KT P6SM -RA SCT050 BKN090 BKN250 ","updated":"2026-06-12T08:23:57Z"}
