{"icao":"KORD","taf":"TAF KORD 090520Z 0906/1012 21014G24KT P6SM SCT250 WS020/25055KT ","updated":"2026-03-09T05:56:26Z"}
