{"icao":"LPMR","taf":"TAF TAF LPMR 121707Z 1218/1318 34018KT 9999 SCT020 ","updated":"2026-04-12T17:33:03Z"}
