{"icao":"LPAR","taf":"TAF LPAR 250809Z 2509/2518 VRB02KT CAVOK ","updated":"2026-05-28T07:55:45Z"}
