{"icao":"LPLA","taf":"TAF LPLA 171102Z 1712/1812 33005KT 9999 SCT016 BKN025 ","updated":"2026-04-17T13:16:56Z"}
