{"icao":"LPMT","taf":"TAF LPMT 081111Z 0812/0912 34010KT CAVOK PROB40 ","updated":"2026-06-09T05:04:00Z"}
