{"icao":"LPOV","taf":"TAF LPOV 041101Z 0412/0512 04008KT CAVOK ","updated":"2026-01-04T14:17:27Z"}
