{"icao":"KLAX","taf":"TAF KLAX 060538Z 0606/0712 VRB03KT P6SM SCT018 ","updated":"2026-01-06T07:24:47Z"}
