{"icao":"LPMA","taf":"TAF LPMA 281700Z 2818/2918 02013KT 9999 SCT015 BKN030 ","updated":"2026-06-28T18:03:35Z"}
