{"icao":"LPFR","taf":"TAF LPFR 110500Z 1106/1206 25012KT 8000 SCT004 BKN008 ","updated":"2026-02-11T06:59:06Z"}
