{"icao":"KJFK","taf":"TAF KJFK 291128Z 2912/3018 19010KT 1/2SM -DZ FG OVC003 ","updated":"2025-12-29T14:21:05Z"}
