{"icao":"LPPS","taf":"TAF LPPS 291110Z 2912/3018 01012KT 9999 SCT015 ","updated":"2026-05-29T15:25:09Z"}
