{"icao":"KORD","taf":"TAF KORD 071126Z 0712/0818 05011KT P6SM SCT035 SCT250 ","updated":"2026-04-07T13:16:56Z"}
