{"icao":"KORD","taf":"TAF KORD 241720Z 2418/2524 03010G17KT P6SM FEW015 SCT025 BKN035 ","updated":"2025-09-24T20:19:25Z"}
