{"icao":"LPMR","taf":"TAF TAF LPMR 220506Z 2206/2306 25010KT 9999 SCT006 BKN015 ","updated":"2025-10-22T08:26:32Z"}
