{"icao":"LPPS","taf":"TAF LPPS 250500Z 2506/2612 36008KT 9999 SCT015 ","updated":"2025-09-25T08:23:22Z"}
