{"icao":"LPPR","taf":"TAF LPPR 261700Z 2618/2718 31008KT 9999 FEW025 PROB30 ","updated":"2026-04-27T02:39:49Z"}
