{"icao":"LPMA","taf":"TAF LPMA 291100Z 2912/3012 21015KT 9999 SCT015 BKN030 ","updated":"2025-12-29T13:36:29Z"}
