{"icao":"KJFK","taf":"TAF KJFK 171122Z 1712/1818 28018G25KT P6SM FEW070 ","updated":"2025-11-17T13:30:49Z"}
