{"icao":"LPMR","taf":"TAF TAF LPMR 201700Z 2018/2118 30010KT 9999 FEW018 ","updated":"2026-04-20T17:56:18Z"}
