{"icao":"LPFR","taf":"TAF LPFR 120500Z 1206/1306 03005KT 9999 FEW012 SCT020 PROB30 ","updated":"2026-01-12T08:30:43Z"}
