{"icao":"KLAX","taf":"TAF KLAX 021747Z 0218/0324 07004KT P6SM FEW160 FEW250 ","updated":"2026-02-02T18:41:57Z"}
