{"icao":"KORD","taf":"TAF KORD 180248Z 1803/1906 19014G24KT P6SM SCT060 BKN200 ","updated":"2026-05-18T03:52:10Z"}
