{"icao":"LPMR","taf":"TAF TAF LPMR 011104Z 0112/0212 21010KT 7000 -RA SCT012 BKN018 ","updated":"2026-02-01T13:41:44Z"}
