{"icao":"KORD","taf":"TAF KORD 291120Z 2912/3018 20009KT P6SM BKN100 BKN200 ","updated":"2026-03-29T14:33:03Z"}
