{"icao":"LPPT","taf":"TAF LPPT 230500Z 2306/2412 29005KT CAVOK ","updated":"2026-04-23T05:28:46Z"}
