{"icao":"LPOV","taf":"TAF LPOV 161708Z 1618/1718 24010KT 9999 SCT020 BKN030 ","updated":"2025-11-17T04:25:08Z"}
