{"icao":"KJFK","taf":"TAF KJFK 301733Z 3018/3124 28024G35KT P6SM BKN060 ","updated":"2025-12-30T19:16:27Z"}
