{"icao":"LPOV","taf":"TAF LPOV 221102Z 2212/2312 VRB02KT CAVOK PROB30 2300/2311 4000 BR SCT002","updated":"2026-02-22T15:23:31Z"}
