{"icao":"LPPS","taf":"TAF LPPS 261100Z 2612/2718 27007KT 9999 SCT015 SCT030 ","updated":"2026-06-26T15:22:21Z"}
