{"icao":"KORD","taf":"TAF KORD 230520Z 2306/2412 29009KT P6SM SCT045 ","updated":"2025-10-23T06:27:48Z"}
