{"icao":"LPFR","taf":"TAF LPFR 201700Z 2018/2118 11013KT CAVOK ","updated":"2026-04-21T02:30:30Z"}
