{"icao":"KORD","taf":"TAF KORD 271126Z 2712/2818 VRB03KT P6SM BKN300 ","updated":"2026-05-27T12:19:19Z"}
