{"icao":"LPMT","taf":"TAF LPMT 091104Z 0912/1012 17015KT 7000 -RA SCT015 BKN025 ","updated":"2025-12-09T13:34:53Z"}
