{"icao":"KJFK","taf":"TAF KJFK 241738Z 2418/2524 33010G17KT P6SM FEW050 BKN200 ","updated":"2026-01-24T19:15:55Z"}
