{"icao":"LPPR","taf":"TAF LPPR 241700Z 2418/2518 32008KT CAVOK ","updated":"2026-03-25T04:52:21Z"}
