{"icao":"LPPR","taf":"TAF LPPR 121700Z 1218/1318 30007KT 9999 FEW020 ","updated":"2026-03-12T20:33:25Z"}
