{"icao":"LPPT","taf":"TAF TAF LPPT 221100Z 2212/2318 24010KT 9999 SCT025 BKN040 ","updated":"2026-01-22T11:21:49Z"}
