{"icao":"LPPD","taf":"TAF LPPD 261100Z 2612/2712 15008KT 9999 SCT020 ","updated":"2025-11-26T16:24:40Z"}
