{"icao":"LPPR","taf":"TAF LPPR 160500Z 1606/1706 08008KT CAVOK ","updated":"2026-03-16T07:15:00Z"}
