{"icao":"KJFK","taf":"TAF KJFK 280520Z 2806/2912 VRB04KT P6SM FEW250 ","updated":"2026-04-28T05:58:13Z"}
