{"icao":"LPPT","taf":"TAF LPPT 231700Z 2318/2424 23010KT CAVOK ","updated":"2026-06-23T22:11:01Z"}
