{"icao":"LPPT","taf":"TAF LPPT 190500Z 1906/2012 29005KT 9999 FEW020 ","updated":"2026-01-19T05:30:03Z"}
