{"icao":"LPMR","taf":"TAF TAF LPMR 280502Z 2806/2906 15010KT 9999 FEW020 SCT030 ","updated":"2025-10-28T05:18:25Z"}
