{"icao":"KLAX","taf":"TAF KLAX 301120Z 3012/3118 04010KT P6SM BKN120 ","updated":"2025-12-30T12:41:46Z"}
