{"icao":"KJFK","taf":"TAF KJFK 031739Z 0318/0424 19007KT P6SM BKN010 ","updated":"2026-04-03T18:45:00Z"}
