{"icao":"LPMA","taf":"TAF LPMA 220500Z 2206/2306 03015KT 9999 SCT015 ","updated":"2025-11-22T10:18:03Z"}
