{"icao":"LPMT","taf":"TAF LPMT 220510Z 2206/2306 28005KT 9999 FEW020 SCT035 PROB30 ","updated":"2025-12-22T10:21:27Z"}
