{"icao":"LPPR","taf":"TAF LPPR 221700Z 2218/2318 34007KT CAVOK ","updated":"2026-02-22T20:25:37Z"}
