{"icao":"KJFK","taf":"TAF KJFK 300526Z 3006/3112 28024G38KT P6SM FEW050 BKN070 ","updated":"2025-12-30T06:32:25Z"}
