{"icao":"LPPS","taf":"TAF LPPS 181700Z 1818/1924 01010KT 9999 SCT015 ","updated":"2026-06-18T22:07:14Z"}
