{"icao":"KLAX","taf":"TAF KLAX 111150Z 1112/1218 VRB03KT P6SM SCT008 ","updated":"2025-10-11T14:13:47Z"}
