{"icao":"LPMR","taf":"TAF TAF LPMR 281700Z 2818/2918 34008KT 9999 FEW025 ","updated":"2025-11-29T04:21:45Z"}
