{"icao":"KJFK","taf":"TAF KJFK 031125Z 0312/0418 27007KT P6SM BKN050 ","updated":"2026-02-03T14:06:25Z"}
