{"icao":"LPBJ","taf":"TAF TAF LPBJ 111103Z 1112/1212 06008KT CAVOK","updated":"2025-10-11T12:31:44Z"}
