{"icao":"KORD","taf":"TAF KORD 111747Z 1118/1224 33014G22KT 4SM -SHRASN BR OVC010 ","updated":"2026-03-11T19:40:27Z"}
