{"icao":"LPMT","taf":"TAF LPMT 121704Z 1218/1318 25007KT CAVOK ","updated":"2026-06-12T21:42:00Z"}
