{"icao":"KJFK","taf":"TAF KJFK 071739Z 0718/0824 19006KT 4SM BR OVC005 ","updated":"2026-03-07T19:20:48Z"}
