{"icao":"LPOV","taf":"TAF LPOV 101104Z 1012/1112 28008KT CAVOK ","updated":"2025-10-10T14:17:17Z"}
