{"icao":"LPPT","taf":"TAF LPPT 101700Z 1018/1124 34008KT 9999 FEW020 ","updated":"2025-12-10T20:23:07Z"}
