{"icao":"LPBJ","taf":"TAF TAF LPBJ 151108Z 1512/1612 35008KT CAVOK","updated":"2026-04-15T17:02:34Z"}
