{"icao":"KORD","taf":"TAF KORD 030520Z 0306/0412 30005KT P6SM SCT025 BKN090 ","updated":"2026-02-03T05:50:44Z"}
