{"icao":"KJFK","taf":"TAF KJFK 220521Z 2206/2312 21012KT P6SM OVC080 WS020/22045KT ","updated":"2026-01-22T07:26:24Z"}
