{"icao":"LPAR","taf":"TAF LPAR 101403Z 1015/1024 25012KT 7000 -RADZ SCT009 BKN015 ","updated":"2026-02-12T08:44:10Z"}
