{"icao":"KJFK","taf":"TAF KJFK 300533Z 3006/3112 07015KT P6SM -SHRA BKN025 OVC035 ","updated":"2025-10-30T06:27:33Z"}
