{"icao":"LPBJ","taf":"TAF TAF LPBJ 190510Z 1906/2006 VRB02KT CAVOK ","updated":"2026-04-19T09:45:28Z"}
