{"icao":"LPPS","taf":"TAF LPPS 101700Z 1018/1124 01010KT 9999 FEW015 BKN030 ","updated":"2025-10-11T03:25:10Z"}
