{"icao":"KORD","taf":"TAF KORD 301722Z 3018/0124 31016G22KT P6SM BKN025 ","updated":"2025-11-30T18:25:48Z"}
