{"icao":"KJFK","taf":"TAF KJFK 031720Z 0318/0424 03009KT P6SM FEW250 ","updated":"2026-06-03T18:21:31Z"}
