{"icao":"LPMT","taf":"TAF LPMT 231103Z 2312/2412 03005KT CAVOK ","updated":"2026-02-23T16:56:11Z"}
