{"icao":"KORD","taf":"TAF KORD 281726Z 2818/2924 27011KT P6SM BKN030 ","updated":"2026-04-28T18:15:51Z"}
