{"icao":"KJFK","taf":"TAF KJFK 200530Z 2006/2112 31007KT P6SM FEW080 ","updated":"2026-04-20T08:04:50Z"}
