{"icao":"LPPS","taf":"TAF LPPS 151700Z 1518/1624 04012KT 9999 FEW015 BKN030","updated":"2026-04-15T20:46:05Z"}
