{"icao":"LPMR","taf":"TAF TAF LPMR 101103Z 1012/1112 VRB02KT 5000 BR FEW040 ","updated":"2026-01-10T11:15:55Z"}
