{"icao":"LPMT","taf":"TAF LPMT 221701Z 2218/2318 32010KT CAVOK ","updated":"2026-05-23T04:39:10Z"}
