{"icao":"KLAX","taf":"TAF KLAX 030528Z 0306/0412 VRB03KT P6SM SKC ","updated":"2026-03-03T07:41:14Z"}
