{"icao":"LPPR","taf":"TAF LPPR 220500Z 2206/2306 32010KT 9999 BKN035 ","updated":"2026-01-22T08:30:41Z"}
