{"icao":"KORD","taf":"TAF KORD 111120Z 1112/1218 09003KT P6SM SKC ","updated":"2026-04-11T13:56:27Z"}
