{"icao":"LPPR","taf":"TAF LPPR 131700Z 1318/1418 16017KT 9999 SCT015 BKN025 ","updated":"2025-11-14T04:21:45Z"}
