{"icao":"LPPR","taf":"TAF LPPR 181100Z 1812/1912 19017G27KT 2000 RADZ BR SCT002 BKN004 ","updated":"2026-02-18T13:01:40Z"}
