{"icao":"LPPD","taf":"TAF LPPD 121700Z 1218/1318 26008KT 9999 SCT015 SCT035 PROB40 ","updated":"2025-10-12T19:12:45Z"}
