{"icao":"LPLA","taf":"TAF LPLA 281105Z 2812/2912 26020G35KT 9999 FEW015 SCT025 BKN032 ","updated":"2026-01-28T13:48:10Z"}
