{"icao":"LPBJ","taf":"TAF TAF LPBJ 181703Z 1818/1918 30008KT CAVOK ","updated":"2026-06-18T19:26:56Z"}
