{"icao":"LPPR","taf":"TAF LPPR 201700Z 2018/2118 19010KT 8000 -RA SCT008 BKN025 ","updated":"2026-01-20T17:28:12Z"}
