{"icao":"KLAX","taf":"TAF KLAX 241120Z 2412/2518 09005KT P6SM SCT010 ","updated":"2026-04-24T13:23:12Z"}
