{"icao":"LPBJ","taf":"TAF LPBJ 071108Z 0712/0812 VRB02KT 9999 FEW030 ","updated":"2025-10-07T17:15:21Z"}
