{"icao":"KJFK","taf":"TAF KJFK 081740Z 0818/0924 24012KT P6SM SCT045 BKN150 ","updated":"2026-03-08T18:32:52Z"}
