{"icao":"LPFR","taf":"TAF LPFR 060500Z 0606/0706 07007KT 9999 FEW004 PROB30 ","updated":"2025-10-06T08:23:44Z"}
