{"icao":"KJFK","taf":"TAF KJFK 241127Z 2412/2518 30015G21KT P6SM SCT040 BKN100 ","updated":"2026-02-24T13:03:22Z"}
