{"icao":"LPPR","taf":"TAF LPPR 261100Z 2612/2712 30007KT CAVOK ","updated":"2026-02-26T15:52:13Z"}
