{"icao":"KJFK","taf":"TAF KJFK 251123Z 2512/2618 11011KT P6SM SCT015 OVC050 ","updated":"2026-04-25T14:40:05Z"}
