{"icao":"KLAX","taf":"TAF KLAX 171759Z 1718/1824 25006KT P6SM FEW030 SCT140 ","updated":"2026-04-17T18:58:50Z"}
