{"icao":"LPLA","taf":"TAF COR TAF COR LPLA 131855Z 1318/1418 24015G28KT 9999 SCT015 BKN025 ","updated":"2026-04-13T22:41:16Z"}
