{"icao":"LPPR","taf":"TAF LPPR 121100Z 1212/1312 31008KT 9999 SCT020 ","updated":"2026-03-12T15:57:46Z"}
