{"icao":"KORD","taf":"TAF KORD 121720Z 1218/1324 24008KT P6SM BKN035 ","updated":"2025-12-12T19:17:03Z"}
