{"icao":"LPPR","taf":"TAF LPPR 261700Z 2618/2718 20018G30KT 6000 -RA SCT006 BKN012 ","updated":"2026-01-26T18:34:16Z"}
