{"icao":"KLAX","taf":"TAF KLAX 011747Z 0118/0224 25007KT P6SM SCT250 ","updated":"2026-03-01T19:21:20Z"}
