{"icao":"KLAX","taf":"TAF KLAX 011720Z 0118/0224 VRB03KT 2SM BR BKN006 ","updated":"2025-11-01T19:12:52Z"}
