{"icao":"LPMR","taf":"TAF TAF LPMR 191708Z 1918/2018 35010KT 9999 FEW025 ","updated":"2025-12-19T18:28:10Z"}
