{"icao":"LPPR","taf":"TAF LPPR 131700Z 1318/1418 31013KT 9999 SCT020 ","updated":"2026-02-14T04:11:46Z"}
