{"icao":"KJFK","taf":"TAF KJFK 020525Z 0206/0312 03008KT P6SM SKC ","updated":"2025-10-02T08:23:02Z"}
