{"icao":"LPPT","taf":"TAF LPPT 270500Z 2706/2812 07005KT CAVOK ","updated":"2026-05-27T08:01:53Z"}
