{"icao":"LPMR","taf":"TAF TAF LPMR 070506Z 0706/0806 VRB02KT 0800 FG BKN002 ","updated":"2025-10-07T08:23:47Z"}
