{"icao":"KLAX","taf":"TAF KLAX 031731Z 0318/0424 VRB03KT P6SM BKN200 ","updated":"2026-04-03T18:45:12Z"}
