{"icao":"KLAX","taf":"TAF KLAX 061720Z 0618/0724 07006KT P6SM BKN250 ","updated":"2026-01-06T18:30:33Z"}
