{"icao":"LPPS","taf":"TAF LPPS 291100Z 2912/3018 01008KT 9999 SCT015 ","updated":"2025-11-29T14:16:18Z"}
