{"icao":"LPMT","taf":"TAF LPMT 180510Z 1806/1906 36008KT CAVOK ","updated":"2026-04-18T09:46:54Z"}
