{"icao":"KORD","taf":"TAF KORD 121120Z 1212/1318 27008KT P6SM FEW070 ","updated":"2026-03-12T11:30:28Z"}
