{"icao":"LPMT","taf":"TAF TAF LPMT 190501Z 1906/2006 15012KT 8000 -RA FEW015 SCT030 ","updated":"2026-03-19T10:38:35Z"}
