{"icao":"LPOV","taf":"TAF LPOV 241109Z 2412/2512 16010KT 9999 SCT035 ","updated":"2026-01-24T17:17:04Z"}
