{"icao":"LPOV","taf":"TAF LPOV 021700Z 0218/0318 14012KT 9999 FEW018 BKN035 PROB40 ","updated":"2026-01-02T22:18:56Z"}
