{"icao":"LPLA","taf":"TAF LPLA 230506Z 2306/2406 VRB05KT 9999 SCT015 BKN025 ","updated":"2026-05-23T09:50:43Z"}
