{"icao":"LPPT","taf":"TAF TAF LPPT 050500Z 0506/0612 18020KT 9999 SCT012 BKN020 ","updated":"2025-11-05T05:18:48Z"}
