{"icao":"LPOV","taf":"TAF LPOV 131106Z 1312/1412 18010KT 9999 FEW015 SCT045 ","updated":"2026-01-13T11:19:12Z"}
