{"icao":"LPMR","taf":"TAF TAF LPMR 171702Z 1718/1818 34008KT 9999 FEW020 ","updated":"2026-04-17T21:03:45Z"}
