{"icao":"KORD","taf":"TAF KORD 011722Z 0118/0224 22012G20KT P6SM FEW300 ","updated":"2026-07-01T17:53:52Z"}
