{"icao":"LPOV","taf":"TAF LPOV 231700Z 2318/2418 VRB02KT 7000 -RA SCT012 BKN018 ","updated":"2025-10-23T19:14:15Z"}
