{"icao":"LPBJ","taf":"TAF TAF LPBJ 251704Z 2518/2618 32005KT CAVOK PROB30 2604/2608 1500 BCFG SCT003","updated":"2025-12-25T20:21:27Z"}
