{"icao":"KLAX","taf":"TAF KLAX 130550Z 1306/1412 28008KT P6SM FEW025 ","updated":"2026-05-13T07:48:06Z"}
