{"icao":"KLAX","taf":"TAF KLAX 251134Z 2512/2618 24005KT P6SM OVC012 ","updated":"2026-06-25T12:19:40Z"}
