{"icao":"LPLA","taf":"TAF TAF LPLA 100600Z 1006/1106 24015KT 9999 SCT018 SCT025 ","updated":"2026-02-10T08:54:17Z"}
