{"icao":"KLAX","taf":"TAF KLAX 301136Z 3012/3118 VRB03KT P6SM SKC ","updated":"2026-01-30T13:55:05Z"}
