{"icao":"LPFR","taf":"TAF LPFR 301100Z 3012/0112 22012KT 9999 FEW020 ","updated":"2026-04-30T15:08:34Z"}
