{"icao":"KLAX","taf":"TAF KLAX 190535Z 1906/2012 24006KT P6SM SKC ","updated":"2026-05-19T08:33:56Z"}
