{"icao":"LPMT","taf":"TAF LPMT 091107Z 0912/1012 33005KT 9999 BKN018 ","updated":"2025-10-09T13:28:52Z"}
