{"icao":"LPPT","taf":"TAF LPPT 142300Z 1500/1606 35007KT 9999 SCT012 PROB30 ","updated":"2025-09-15T01:23:13Z"}
