{"icao":"KJFK","taf":"TAF KJFK 131120Z 1312/1418 22007KT P6SM FEW080 BKN150 ","updated":"2025-12-13T12:36:53Z"}
