{"icao":"LPFR","taf":"TAF LPFR 221700Z 2218/2318 23010KT CAVOK ","updated":"2025-09-22T22:16:05Z"}
