{"icao":"LPPT","taf":"TAF LPPT 101100Z 1012/1118 23013KT 6000 SCT004 BKN008 ","updated":"2026-02-10T13:10:46Z"}
