{"icao":"LPBJ","taf":"TAF TAF LPBJ 151104Z 1512/1612 33012KT 9999 FEW035 ","updated":"2026-05-15T16:49:56Z"}
