{"icao":"LPFR","taf":"TAF LPFR 061100Z 0612/0712 11010KT 9999 FEW020 ","updated":"2025-10-06T14:17:27Z"}
