{"icao":"KJFK","taf":"TAF TAF KJFK 131739Z 1318/1424 28016G26KT P6SM SCT040 SCT080 ","updated":"2025-11-13T18:26:57Z"}
