{"icao":"LPLA","taf":"TAF LPLA 140507Z 1406/1506 20008KT 8000 -RA SCT015 BKN025 ","updated":"2025-12-14T05:18:32Z"}
