{"icao":"KLAX","taf":"TAF KLAX 210549Z 2106/2212 VRB03KT P6SM FEW100 ","updated":"2026-02-21T07:30:51Z"}
