{"icao":"LPMT","taf":"TAF LPMT 090507Z 0906/1006 VRB02KT CAVOK PROB30 0906/0909 4000 BR BKN004 ","updated":"2025-11-09T06:25:27Z"}
