{"icao":"LPPT","taf":"TAF LPPT 040500Z 0406/0512 04008KT CAVOK ","updated":"2026-03-04T05:42:10Z"}
