{"icao":"LPAZ","taf":"TAF TAF LPAZ 191700Z 1918/2024 36005KT 9999 SCT035 ","updated":"2026-01-19T20:22:41Z"}
