{"icao":"KLAX","taf":"TAF KLAX 231130Z 2312/2418 VRB03KT P6SM SKC ","updated":"2025-11-23T13:22:39Z"}
