{"icao":"KJFK","taf":"TAF KJFK 190537Z 1906/2012 03007KT 6SM BR SCT015 OVC025 ","updated":"2026-02-19T07:07:37Z"}
