{"icao":"LPOV","taf":"TAF LPOV 171105Z 1712/1812 34010KT 9999 FEW015 ","updated":"2026-06-17T11:45:49Z"}
