{"icao":"LPPR","taf":"TAF LPPR 260500Z 2606/2706 VRB02KT 5000 BR NSC ","updated":"2026-02-26T07:02:32Z"}
