{"icao":"KORD","taf":"TAF KORD 171120Z 1712/1818 32006KT P6SM FEW250 ","updated":"2025-11-17T14:19:10Z"}
