{"icao":"LPBJ","taf":"TAF TAF LPBJ 071709Z 0718/0818 33008KT CAVOK ","updated":"2026-03-07T19:20:17Z"}
