{"icao":"KORD","taf":"TAF KORD 081120Z 0812/0918 VRB03KT P6SM FEW080 BKN120 ","updated":"2026-05-08T13:44:40Z"}
