{"icao":"LPAZ","taf":"TAF TAF LPAZ 231700Z 2318/2424 19007KT 2000 BR SCT002 BKN004 ","updated":"2026-05-23T22:51:39Z"}
