{"icao":"LPMR","taf":"TAF TAF LPMR 071108Z 0712/0812 35010KT CAVOK ","updated":"2026-03-07T14:22:43Z"}
