{"icao":"KJFK","taf":"TAF KJFK 151723Z 1518/1624 23008KT P6SM BKN150 ","updated":"2025-11-15T20:18:19Z"}
