{"icao":"LPMR","taf":"TAF TAF LPMR 190506Z 1906/2006 VRB02KT 9999 FEW014 PROB30 1906/1909 2000 BR SCT006 ","updated":"2026-01-19T05:30:07Z"}
