{"icao":"LPPD","taf":"TAF LPPD 061100Z 0612/0712 30018KT 9999 SCT020 ","updated":"2026-04-06T13:07:12Z"}
