{"icao":"LPMR","taf":"TAF LPMR 100512Z 1006/1106 30005KT 9999 SCT035 PROB40 1006/1009 4000 BR SCT008 ","updated":"2026-04-10T05:23:51Z"}
