{"icao":"KORD","taf":"TAF KORD 141728Z 1418/1524 34020G30KT P6SM VCSH SCT025 BKN035 ","updated":"2026-01-14T19:19:02Z"}
