{"icao":"KORD","taf":"TAF KORD 251735Z 2518/2624 29011KT P6SM SCT050 SCT250 ","updated":"2026-06-25T18:07:59Z"}
