{"icao":"LPPR","taf":"TAF LPPR 040500Z 0406/0506 VRB02KT 9999 SCT008 BKN015 ","updated":"2025-10-04T07:14:32Z"}
