{"icao":"KORD","taf":"TAF KORD 260522Z 2606/2712 11006KT P6SM BKN070 ","updated":"2025-10-26T06:25:20Z"}
