{"icao":"KLAX","taf":"TAF KLAX 190533Z 1906/2012 25006KT P6SM OVC015 ","updated":"2026-06-19T06:17:10Z"}
