{"icao":"LPFR","taf":"TAF LPFR 261700Z 2618/2718 13008KT CAVOK ","updated":"2026-02-26T19:42:45Z"}
