{"icao":"LPLA","taf":"TAF LPLA 041110Z 0412/0512 VRB05KT 9999 FEW025 BKN035 ","updated":"2026-04-04T15:30:35Z"}
