{"icao":"KORD","taf":"TAF KORD 270520Z 2706/2812 21007KT P6SM FEW200 ","updated":"2026-02-27T07:44:59Z"}
