{"icao":"LPMA","taf":"TAF LPMA 080500Z 0806/0906 01017KT 9999 SCT015 ","updated":"2026-06-08T10:51:21Z"}
