{"icao":"LPMR","taf":"TAF LPMR 180510Z 1806/1906 VRB02KT 4000 BR BKN007 PROB40 1806/1809 0500 FG BKN002 ","updated":"2026-04-18T07:05:27Z"}
