{"icao":"KLAX","taf":"TAF KLAX 110530Z 1106/1212 VRB03KT P6SM SCT100 ","updated":"2025-10-11T07:15:17Z"}
