{"icao":"LPPD","taf":"TAF LPPD 301100Z 3012/0112 19010KT 9999 SCT008 BKN018 ","updated":"2025-09-30T13:27:58Z"}
