{"icao":"KLAX","taf":"TAF KLAX 050528Z 0506/0612 24005KT P6SM SKC ","updated":"2025-10-05T06:23:58Z"}
