{"icao":"LPFR","taf":"TAF LPFR 171100Z 1712/1812 22007KT 9999 BKN015 ","updated":"2026-02-17T15:51:24Z"}
