{"icao":"KORD","taf":"TAF KORD 290532Z 2906/3012 01005KT P6SM SCT350 ","updated":"2026-05-29T07:53:58Z"}
