{"icao":"LPOV","taf":"TAF LPOV 311715Z 3118/0118 34015KT CAVOK ","updated":"2026-05-31T19:37:29Z"}
