{"icao":"LPBJ","taf":"TAF TAF LPBJ 290508Z 2906/3006 26008KT 9999 SCT010 BKN018 ","updated":"2026-04-29T06:21:43Z"}
