{"icao":"LPMT","taf":"TAF LPMT 031101Z 0312/0412 03005KT CAVOK ","updated":"2025-10-03T14:16:30Z"}
