{"icao":"LPOV","taf":"TAF LPOV 241707Z 2418/2518 31008KT 9999 FEW018 SCT035 ","updated":"2026-06-24T18:50:00Z"}
