{"icao":"LPMT","taf":"TAF LPMT 261701Z 2618/2718 32005KT CAVOK PROB30 2703/2708 BKN006 ","updated":"2026-02-26T23:28:10Z"}
