{"icao":"KJFK","taf":"TAF KJFK 181120Z 1812/1918 32009KT P6SM SCT150 ","updated":"2026-03-18T11:44:04Z"}
