{"icao":"KORD","taf":"TAF KORD 100520Z 1006/1112 21010KT P6SM BKN010 ","updated":"2026-03-10T05:43:44Z"}
