{"icao":"KJFK","taf":"TAF KJFK 131720Z 1318/1424 18024G34KT P6SM FEW035 SCT060 BKN100 ","updated":"2026-05-13T18:56:16Z"}
