{"icao":"LPMR","taf":"TAF TAF LPMR 131701Z 1318/1418 34005KT 9999 FEW025 ","updated":"2025-10-13T22:16:19Z"}
