{"icao":"KJFK","taf":"TAF KJFK 271125Z 2712/2818 29011G17KT P6SM FEW040 ","updated":"2026-01-27T14:28:24Z"}
