{"icao":"LPBJ","taf":"TAF TAF LPBJ 041703Z 0418/0518 VRB02KT CAVOK ","updated":"2026-04-04T19:30:08Z"}
