{"icao":"KORD","taf":"TAF KORD 141120Z 1412/1518 30012KT P6SM FEW020 FEW250 ","updated":"2025-12-14T12:36:53Z"}
