{"icao":"KORD","taf":"TAF KORD 071726Z 0718/0824 20008KT 5SM BR BKN006 ","updated":"2026-01-07T18:31:47Z"}
