{"icao":"LPOV","taf":"TAF LPOV 301104Z 3012/3112 36010KT 6000 -DZ SCT003 BKN007 ","updated":"2026-05-30T13:26:01Z"}
