{"icao":"LPPR","taf":"TAF LPPR 041100Z 0412/0512 08008KT CAVOK ","updated":"2026-01-04T11:15:51Z"}
