{"icao":"LPPD","taf":"TAF LPPD 071100Z 0712/0812 VRB05KT 9999 SCT025 ","updated":"2025-11-07T16:19:21Z"}
