{"icao":"LPBJ","taf":"TAF TAF LPBJ 080508Z 0806/0906 VRB02KT 4000 BR BKN004 PROB40 0806/0810 0200 FG BKN001 ","updated":"2026-01-08T07:23:25Z"}
