{"icao":"LPFR","taf":"TAF LPFR 231100Z 2312/2412 27020KT 9999 SCT025 ","updated":"2026-01-23T14:23:48Z"}
