{"icao":"KORD","taf":"TAF KORD 040520Z 0406/0512 20006KT P6SM SKC ","updated":"2025-10-04T06:23:40Z"}
