{"icao":"LPBJ","taf":"TAF TAF LPBJ 021707Z 0218/0318 35008KT CAVOK ","updated":"2025-11-02T20:17:34Z"}
