{"icao":"LPMT","taf":"TAF LPMT 120506Z 1206/1306 36005KT CAVOK ","updated":"2026-06-12T08:23:41Z"}
