{"icao":"LPPS","taf":"TAF LPPS 051700Z 0518/0624 32015KT 9999 SCT015 ","updated":"2025-11-05T17:17:44Z"}
