{"icao":"LPPD","taf":"TAF LPPD 070500Z 0706/0806 28010KT 5000 BR SCT004 BKN008 ","updated":"2026-06-07T10:27:38Z"}
