{"icao":"LPPT","taf":"TAF LPPT 241700Z 2418/2524 25015KT 6000 -RADZ SCT006 BKN012 ","updated":"2025-11-24T17:17:46Z"}
