{"icao":"LPBJ","taf":"TAF TAF LPBJ 280502Z 2806/2906 23020KT 6000 -RA SCT015 BKN025 ","updated":"2026-01-28T10:27:04Z"}
