{"icao":"LPAZ","taf":"TAF TAF LPAZ 041700Z 0418/0524 25013KT 9999 FEW015 BKN030 ","updated":"2025-12-04T17:21:30Z"}
