{"icao":"LPPT","taf":"TAF LPPT 301700Z 3018/3124 21010KT 9999 SCT012 BKN025 ","updated":"2025-10-30T20:19:50Z"}
