{"icao":"KLAX","taf":"TAF KLAX 132357Z 1400/1506 15010KT P6SM BKN025 ","updated":"2025-10-14T01:18:50Z"}
