{"icao":"LPMT","taf":"TAF LPMT 181106Z 1812/1912 36008KT CAVOK ","updated":"2026-04-18T16:38:51Z"}
