{"icao":"KJFK","taf":"TAF COR KJFK 041128Z 0412/0518 34009KT P6SM BKN045 ","updated":"2026-01-04T14:17:51Z"}
