{"icao":"KJFK","taf":"TAF KJFK 151124Z 1512/1618 32010KT P6SM FEW030 BKN050 ","updated":"2026-05-15T11:55:13Z"}
