{"icao":"KJFK","taf":"TAF KJFK 072134Z 0722/0824 35017G25KT P6SM SCT060 SCT100 ","updated":"2026-06-08T00:05:17Z"}
