{"icao":"LPFR","taf":"TAF LPFR 011100Z 0112/0212 09012KT CAVOK ","updated":"2026-03-01T13:37:29Z"}
