{"icao":"KLAX","taf":"TAF KLAX 131121Z 1312/1418 VRB03KT 6SM BR BKN050 BKN100 ","updated":"2025-11-13T13:31:41Z"}
