{"icao":"LPBJ","taf":"TAF TAF LPBJ 221103Z 2212/2312 12008KT CAVOK ","updated":"2026-05-22T13:30:22Z"}
