{"icao":"LPMT","taf":"TAF LPMT 301702Z 3018/3118 34008KT CAVOK","updated":"2026-05-31T03:41:01Z"}
