{"icao":"LPPD","taf":"TAF LPPD 290500Z 2906/3006 33008KT 9999 SCT018 ","updated":"2025-11-29T10:18:29Z"}
