{"icao":"KJFK","taf":"TAF KJFK 220528Z 2206/2312 23012KT 6SM -SHRA SCT050 BKN070 ","updated":"2025-10-22T06:28:06Z"}
