{"icao":"LPAR","taf":"TAF LPAR 221110Z 2212/2221 34012KT CAVOK ","updated":"2025-09-24T10:18:27Z"}
