{"icao":"LPLA","taf":"TAF TAF LPLA 101704Z 1018/1118 21030G45KT 4000 RADZ BR SCT015 BKN028 ","updated":"2025-12-10T21:20:03Z"}
