{"icao":"LPMT","taf":"TAF LPMT 280506Z 2806/2906 03005KT CAVOK PROB30 2806/2808 1200 BCFG ","updated":"2025-11-28T08:25:59Z"}
