{"icao":"KORD","taf":"TAF KORD 211724Z 2118/2224 13011KT 6SM -SHRA BKN060 OVC090 ","updated":"2026-06-21T20:23:58Z"}
