{"icao":"KLAX","taf":"TAF KLAX 311142Z 3112/0118 07006KT P6SM SCT110 BKN150 ","updated":"2025-12-31T12:40:49Z"}
