{"icao":"KORD","taf":"TAF KORD 241745Z 2418/2524 34008KT P6SM SCT025 BKN150 ","updated":"2026-01-24T18:28:52Z"}
