{"icao":"LPMA","taf":"TAF LPMA 291100Z 2912/3012 01010KT 9999 SCT015 ","updated":"2025-11-29T14:16:18Z"}
