{"icao":"LPOV","taf":"TAF COR TAF COR LPOV 071931Z 0718/0818 34018KT CAVOK ","updated":"2026-06-07T20:10:06Z"}
