{"icao":"KORD","taf":"TAF KORD 261120Z 2612/2718 12006KT P6SM BKN070 ","updated":"2025-10-26T14:15:13Z"}
