{"icao":"LPLA","taf":"TAF LPLA 011705Z 0118/0218 05008KT 9999 FEW015 SCT020 ","updated":"2026-05-02T02:36:14Z"}
