{"icao":"LPLA","taf":"TAF LPLA 261704Z 2618/2718 24015KT 9000 -RA SCT012 BKN022 ","updated":"2026-05-27T03:39:38Z"}
