{"icao":"LPMT","taf":"TAF LPMT 041704Z 0418/0518 26010KT CAVOK ","updated":"2026-04-04T22:28:12Z"}
