{"icao":"KLAX","taf":"TAF KLAX 020538Z 0206/0312 VRB03KT P6SM BKN008 ","updated":"2026-06-02T05:47:10Z"}
