{"icao":"KJFK","taf":"TAF KJFK 231124Z 2312/2418 23006KT 2SM BR BKN012 ","updated":"2026-06-23T12:05:11Z"}
