{"icao":"KORD","taf":"TAF KORD 061125Z 0612/0718 12005KT 3/4SM BR OVC003 ","updated":"2026-03-06T12:53:34Z"}
