{"icao":"LPPD","taf":"TAF LPPD 011700Z 0118/0218 28025G37KT 9999 SCT030 ","updated":"2026-02-01T17:23:46Z"}
