{"icao":"LPAZ","taf":"TAF TAF LPAZ 061700Z 0618/0724 33020KT 9999 SCT030 ","updated":"2026-04-06T21:36:20Z"}
