{"icao":"LPMR","taf":"TAF TAF LPMR 300527Z 3006/0106 36015KT CAVOK ","updated":"2025-11-30T09:17:30Z"}
