{"icao":"KLAX","taf":"TAF KLAX 101159Z 1012/1118 26005KT P6SM OVC010 ","updated":"2026-03-10T12:58:36Z"}
