{"icao":"KJFK","taf":"TAF KJFK 061140Z 0612/0718 31018G26KT P6SM SCT050 ","updated":"2025-11-06T12:38:22Z"}
