{"icao":"LPOV","taf":"TAF LPOV 261704Z 2618/2718 21018KT 6000 SCT003 BKN015 ","updated":"2026-01-26T18:34:17Z"}
