{"icao":"LPMT","taf":"TAF LPMT 152312Z 1600/1624 30010KT 9999 SCT020 ","updated":"2025-12-16T06:31:43Z"}
