{"icao":"LPPD","taf":"TAF LPPD 191100Z 1912/2012 03017KT 9999 FEW018 BKN035 ","updated":"2025-11-19T16:25:29Z"}
