{"icao":"LPMR","taf":"TAF TAF LPMR 080506Z 0806/0906 33005KT 8000 FEW006 SCT012 ","updated":"2026-06-08T10:50:59Z"}
