{"icao":"LPPR","taf":"TAF LPPR 101700Z 1018/1118 22010KT 6000 SCT004 BKN008 ","updated":"2026-02-10T22:37:39Z"}
