{"icao":"LPPR","taf":"TAF LPPR 100500Z 1006/1106 17010KT 9999 SCT012 BKN020 ","updated":"2025-11-10T06:30:24Z"}
