{"icao":"KJFK","taf":"TAF KJFK 050520Z 0506/0612 09012KT 1SM -DZ BR BKN004 ","updated":"2026-04-05T07:04:12Z"}
