{"icao":"LPFR","taf":"TAF LPFR 091700Z 0918/1018 26012KT 9999 SCT012 BKN018 ","updated":"2026-01-09T19:18:46Z"}
