{"icao":"KJFK","taf":"TAF KJFK 301138Z 3012/0118 23006KT P6SM SCT100 BKN250 ","updated":"2026-06-30T12:06:50Z"}
