{"icao":"KLAX","taf":"TAF KLAX 121721Z 1218/1324 08004KT P6SM FEW250 ","updated":"2026-01-12T20:24:15Z"}
