{"icao":"KJFK","taf":"TAF KJFK 300531Z 3006/0112 35006KT P6SM OVC250 ","updated":"2025-09-30T08:25:24Z"}
