{"icao":"KJFK","taf":"TAF KJFK 251139Z 2512/2618 21007KT P6SM SCT070 OVC150 ","updated":"2025-11-25T14:19:07Z"}
