{"icao":"KJFK","taf":"TAF KJFK 050524Z 0506/0612 35011KT P6SM SCT250 ","updated":"2025-12-05T08:26:43Z"}
