{"icao":"LPMR","taf":"TAF TAF LPMR 221705Z 2218/2318 28008KT 9999 FEW035 ","updated":"2026-04-22T18:03:00Z"}
