{"icao":"LPPR","taf":"TAF LPPR 091700Z 0918/1018 33015KT CAVOK ","updated":"2026-06-09T18:02:55Z"}
