{"icao":"LPPT","taf":"TAF LPPT 081700Z 0818/0924 34007KT 9999 FEW040 ","updated":"2025-11-08T21:14:01Z"}
