{"icao":"KLAX","taf":"TAF KLAX 101158Z 1012/1118 09007KT P6SM BKN012 ","updated":"2026-02-10T13:11:21Z"}
