{"icao":"LPPT","taf":"TAF LPPT 290500Z 2906/3012 33007KT CAVOK ","updated":"2026-05-29T07:53:39Z"}
