{"icao":"LPMR","taf":"TAF TAF LPMR 071702Z 0718/0818 30007KT 9999 FEW015 SCT030 ","updated":"2025-10-07T17:15:21Z"}
