{"icao":"KJFK","taf":"TAF KJFK 281739Z 2818/2924 16010KT P6SM SCT035 SCT080 ","updated":"2026-06-28T18:03:36Z"}
