{"icao":"LPMT","taf":"TAF LPMT 111708Z 1118/1218 34010KT CAVOK ","updated":"2026-06-11T18:10:18Z"}
