{"icao":"LPOV","taf":"TAF LPOV 181105Z 1812/1912 30005KT CAVOK ","updated":"2026-04-18T12:59:58Z"}
