{"icao":"KORD","taf":"TAF KORD 180520Z 1806/1912 11009KT 6SM -SHRA OVC050 ","updated":"2025-11-18T07:18:46Z"}
