{"icao":"LPMA","taf":"TAF LPMA 071100Z 0712/0812 02012KT 9999 SCT015 PROB30 ","updated":"2025-10-07T12:37:14Z"}
