{"icao":"LPPR","taf":"TAF LPPR 281100Z 2812/2912 04013KT 9999 FEW040 ","updated":"2025-09-28T16:18:29Z"}
