{"icao":"KJFK","taf":"TAF KJFK 121720Z 1218/1324 24013G22KT P6SM SCT050 BKN150 ","updated":"2026-06-12T19:03:49Z"}
