{"icao":"LPMT","taf":"TAF LPMT 011105Z 0112/0212 VRB02KT CAVOK ","updated":"2026-03-01T12:45:27Z"}
