{"icao":"LPPD","taf":"TAF LPPD 191700Z 1918/2018 21015KT 8000 SCT006 BKN012 ","updated":"2026-05-20T00:03:48Z"}
