{"icao":"KJFK","taf":"TAF KJFK 250522Z 2506/2612 19009KT P6SM SCT050 SCT120 BKN250 ","updated":"2026-02-25T07:13:19Z"}
