{"icao":"LPMR","taf":"TAF TAF LPMR 311110Z 3112/0112 29010KT 9999 SCT025 ","updated":"2026-01-31T16:26:31Z"}
