{"icao":"LPLA","taf":"TAF LPLA 091700Z 0918/1018 23020G30KT 8000 -RA SCT010 BKN025 ","updated":"2026-02-09T23:35:03Z"}
