{"icao":"LPPD","taf":"TAF LPPD 301100Z 3012/3112 21007KT 2000 BR SCT002 BKN004 ","updated":"2026-05-30T15:04:56Z"}
