{"icao":"LPMT","taf":"TAF TAF LPMT 230505Z 2306/2406 VRB02KT 9999 FEW030 PROB30 2306/2309 2000 BR BKN003 ","updated":"2026-03-23T10:01:22Z"}
