{"icao":"LPMA","taf":"TAF LPMA 280500Z 2806/2906 02010KT 9999 SCT015 ","updated":"2026-06-28T10:25:50Z"}
