{"icao":"LPMA","taf":"TAF LPMA 100500Z 1006/1106 02008KT 9999 SCT016 ","updated":"2026-01-10T10:19:55Z"}
