{"icao":"LPPT","taf":"TAF LPPT 020500Z 0206/0312 34005KT CAVOK ","updated":"2025-10-02T07:16:13Z"}
