{"icao":"LPMT","taf":"TAF LPMT 160508Z 1606/1706 27005KT 9999 SCT020 ","updated":"2026-01-16T10:22:26Z"}
