{"icao":"LPFR","taf":"TAF LPFR 210500Z 2106/2206 03010KT CAVOK ","updated":"2026-02-21T08:29:12Z"}
