{"icao":"LPPT","taf":"TAF LPPT 210500Z 2106/2212 02005KT CAVOK","updated":"2026-02-21T09:28:23Z"}
