{"icao":"LPFR","taf":"TAF LPFR 101700Z 1018/1118 22008KT CAVOK ","updated":"2026-06-10T19:34:01Z"}
