{"icao":"LPAZ","taf":"TAF TAF LPAZ 260500Z 2606/2712 32012KT 9999 FEW018 BKN040 ","updated":"2026-06-26T09:22:49Z"}
