{"icao":"LPPD","taf":"TAF LPPD 231100Z 2312/2412 19007KT 0100 FG VV001 ","updated":"2026-05-23T13:22:01Z"}
