{"icao":"KORD","taf":"TAF KORD 111736Z 1118/1224 04014G22KT P6SM FEW300 ","updated":"2026-05-11T18:57:40Z"}
