{"icao":"LPFR","taf":"TAF LPFR 150500Z 1506/1606 VRB02KT CAVOK ","updated":"2026-02-15T07:36:58Z"}
