{"icao":"LPAZ","taf":"TAF LPAZ 200500Z 2006/2112 VRB05KT 9999 SCT030 ","updated":"2026-01-20T06:34:33Z"}
