{"icao":"LPAZ","taf":"TAF LPAZ 131700Z 1318/1424 31020KT 9999 SCT025 BKN040 ","updated":"2025-11-13T17:17:43Z"}
