{"icao":"LPMA","taf":"TAF LPMA 170500Z 1706/1806 03013KT 9999 SCT015","updated":"2025-09-17T10:18:26Z"}
