{"icao":"KJFK","taf":"TAF KJFK 181738Z 1818/1924 VRB05KT 4SM BR OVC004 ","updated":"2026-02-18T18:53:17Z"}
