{"icao":"KJFK","taf":"TAF KJFK 051134Z 0512/0618 35007KT P6SM SCT250 ","updated":"2026-02-05T13:00:02Z"}
