{"icao":"LPPS","taf":"TAF LPPS 011100Z 0112/0218 04012KT 9999 FEW015 BKN030 ","updated":"2025-10-01T11:15:47Z"}
