{"icao":"LPBJ","taf":"TAF TAF LPBJ 040503Z 0406/0506 14008KT CAVOK ","updated":"2026-04-04T10:31:53Z"}
