{"icao":"LPAR","taf":"TAF LPAR 051108Z 0512/0521 31010KT 9999 SCT025 ","updated":"2026-05-05T23:03:56Z"}
