{"icao":"LPBJ","taf":"TAF TAF LPBJ 231103Z 2312/2412 32008KT CAVOK ","updated":"2025-11-23T16:21:08Z"}
