{"icao":"LPPT","taf":"TAF LPPT 051700Z 0518/0624 32013KT CAVOK ","updated":"2026-06-06T02:58:23Z"}
