{"icao":"LPBJ","taf":"TAF TAF LPBJ 161706Z 1618/1718 32005KT CAVOK ","updated":"2026-04-16T20:46:36Z"}
