{"icao":"LPMA","taf":"TAF LPMA 220500Z 2206/2306 01013KT 9999 SCT015 BKN030 ","updated":"2025-09-22T05:17:45Z"}
