{"icao":"LPLA","taf":"TAF LPLA 220503Z 2206/2306 20012KT 9999 FEW015 ","updated":"2025-10-22T08:26:35Z"}
