{"icao":"KORD","taf":"TAF KORD 261725Z 2618/2724 07009KT P6SM VCSH SCT020 OVC120 ","updated":"2026-06-26T17:45:46Z"}
