{"icao":"LPPT","taf":"TAF LPPT 151700Z 1518/1624 33013KT CAVOK ","updated":"2026-06-15T21:40:52Z"}
