{"icao":"LPPT","taf":"TAF LPPT 290500Z 2906/3012 31007KT 9999 FEW012 ","updated":"2025-09-29T07:17:58Z"}
