{"icao":"LPPS","taf":"TAF LPPS 261700Z 2618/2724 VRB05KT 9999 SCT015 ","updated":"2025-09-27T03:26:02Z"}
