{"icao":"LPPR","taf":"TAF LPPR 291100Z 2912/3012 22007KT 9999 SCT006 BKN012 ","updated":"2025-10-29T12:39:12Z"}
