{"icao":"KJFK","taf":"TAF KJFK 140520Z 1406/1512 19013G22KT P6SM SCT080 WS020/24045KT ","updated":"2026-03-14T08:34:15Z"}
