{"icao":"LPPD","taf":"TAF LPPD 061700Z 0618/0718 28012KT 5000 BR SCT002 BKN005 ","updated":"2026-06-06T19:20:25Z"}
