{"icao":"LPLA","taf":"TAF LPLA 180507Z 1806/1906 27010KT 9999 FEW008 SCT020 PROB40 ","updated":"2025-10-18T06:24:16Z"}
