{"icao":"KORD","taf":"TAF KORD 051120Z 0512/0618 19007KT P6SM SKC ","updated":"2025-10-05T12:32:16Z"}
