{"icao":"KLAX","taf":"TAF KLAX 080533Z 0806/0912 VRB03KT P6SM SKC ","updated":"2026-02-08T06:48:59Z"}
