{"icao":"LPMT","taf":"TAF LPMT 090508Z 0906/1006 04008KT CAVOK ","updated":"2026-04-09T10:57:15Z"}
