{"icao":"KORD","taf":"TAF KORD 021720Z 0218/0324 22010G20KT P6SM SCT030 ","updated":"2025-11-02T19:12:33Z"}
