{"icao":"LPOV","taf":"TAF LPOV 151106Z 1512/1612 17007KT 9999 SCT014 BKN040 ","updated":"2026-02-15T13:43:31Z"}
