{"icao":"KJFK","taf":"TAF KJFK 171120Z 1712/1818 25008KT P6SM SCT070 BKN150 ","updated":"2026-05-17T13:18:03Z"}
