{"icao":"KLAX","taf":"TAF KLAX 270533Z 2706/2812 VRB03KT P6SM SCT250 ","updated":"2026-01-27T10:26:53Z"}
