{"icao":"LPOV","taf":"TAF LPOV 061101Z 0612/0712 17015KT CAVOK ","updated":"2026-04-06T15:44:11Z"}
