{"icao":"LPMT","taf":"TAF LPMT 161702Z 1618/1718 26008KT 9999 FEW020 SCT030 ","updated":"2026-02-16T19:31:51Z"}
