{"icao":"LPPR","taf":"TAF LPPR 221700Z 2218/2318 21010KT 9999 SCT008 BKN015 ","updated":"2025-10-23T03:02:17Z"}
