{"icao":"LPLA","taf":"TAF LPLA 271104Z 2712/2812 35012KT 7000 -DZ SCT010 BKN020 PROB40 ","updated":"2025-11-27T11:16:50Z"}
