{"icao":"KJFK","taf":"TAF KJFK 131141Z 1312/1418 18011KT P6SM BKN035 ","updated":"2026-04-13T12:01:49Z"}
