{"icao":"LPPD","taf":"TAF LPPD 171700Z 1718/1818 23012KT 9999 SCT006 SCT012 ","updated":"2025-10-18T02:53:40Z"}
