{"icao":"LPPS","taf":"TAF LPPS 051100Z 0512/0618 08018KT 9999 SCT008 BKN012 ","updated":"2026-05-05T12:00:21Z"}
