{"icao":"KLAX","taf":"TAF KLAX 071730Z 0718/0824 VRB03KT P6SM FEW250 ","updated":"2025-12-07T19:14:21Z"}
