{"icao":"LPPR","taf":"TAF LPPR 171100Z 1712/1812 12012KT CAVOK ","updated":"2026-03-17T16:04:25Z"}
