{"icao":"KORD","taf":"TAF KORD 191739Z 1918/2024 10010KT P6SM SCT020 BKN040 ","updated":"2026-02-19T17:49:28Z"}
