{"icao":"KJFK","taf":"TAF KJFK 101730Z 1018/1124 20016G25KT P6SM FEW020 BKN080 ","updated":"2025-12-10T19:17:03Z"}
