{"icao":"KJFK","taf":"TAF KJFK 171121Z 1712/1818 06012KT P6SM SCT025 BKN050 ","updated":"2025-09-17T12:36:34Z"}
