{"icao":"KORD","taf":"TAF KORD 141720Z 1418/1524 VRB05KT P6SM OVC250 ","updated":"2026-02-14T20:25:46Z"}
