{"icao":"LPLA","taf":"TAF LPLA 170502Z 1706/1806 23018KT 9999 FEW008 BKN015 ","updated":"2025-12-17T06:30:49Z"}
