{"icao":"LPBJ","taf":"TAF TAF LPBJ 081101Z 0812/0912 31010KT 9999 SCT025 PROB40 0900/0909 0200 FG BKN002","updated":"2025-10-08T17:15:25Z"}
