{"icao":"LPLA","taf":"TAF LPLA 021106Z 0212/0312 20008KT 9999 FEW015 SCT025 PROB40 ","updated":"2025-10-02T15:17:58Z"}
