{"icao":"LPMA","taf":"TAF LPMA 100500Z 1006/1106 01012KT 9999 SCT015 SCT030 ","updated":"2025-10-10T05:17:52Z"}
