{"icao":"KORD","taf":"TAF KORD 011120Z 0112/0218 24011G20KT P6SM FEW025 FEW300 ","updated":"2026-07-01T12:05:57Z"}
