{"icao":"LPMA","taf":"TAF LPMA 301100Z 3012/0112 01013KT 9999 SCT015 SCT030","updated":"2025-09-30T12:38:39Z"}
