{"icao":"LPLA","taf":"TAF LPLA 141104Z 1412/1512 31012KT 9999 SCT035","updated":"2025-11-14T14:18:09Z"}
