{"icao":"LPOV","taf":"TAF LPOV 041704Z 0418/0518 35008KT CAVOK ","updated":"2026-01-04T18:27:25Z"}
