{"icao":"LPLA","taf":"TAF LPLA 141109Z 1412/1512 32010KT 9999 FEW025 SCT040 PROB40 ","updated":"2025-09-14T15:14:29Z"}
