{"icao":"LPAZ","taf":"TAF TAF LPAZ 100500Z 1006/1112 22018KT 6000 SCT004 BKN008 ","updated":"2026-02-10T11:04:12Z"}
