{"icao":"KLAX","taf":"TAF KLAX 151126Z 1512/1618 10005KT 6SM BR BKN008 ","updated":"2026-03-15T14:28:47Z"}
