{"icao":"KORD","taf":"TAF KORD 150520Z 1506/1612 04012G19KT P6SM -SHRA FEW015 OVC045 ","updated":"2025-10-15T06:27:35Z"}
