{"icao":"KLAX","taf":"TAF KLAX 151731Z 1518/1624 VRB03KT 4SM HZ SCT015 ","updated":"2025-09-15T18:25:12Z"}
