{"icao":"LPMA","taf":"TAF LPMA 021100Z 0212/0312 23015KT 9999 SCT015 ","updated":"2026-01-02T14:19:30Z"}
