{"icao":"KJFK","taf":"TAF KJFK 080520Z 0806/0912 36014G20KT P6SM SKC ","updated":"2026-04-08T07:18:07Z"}
