{"icao":"KLAX","taf":"TAF KLAX 211730Z 2118/2224 VRB03KT 3SM BR OVC005 ","updated":"2025-12-21T18:26:37Z"}
