{"icao":"KLAX","taf":"TAF KLAX 201724Z 2018/2124 VRB03KT P6SM SKC ","updated":"2026-04-20T19:08:30Z"}
