{"icao":"LPMT","taf":"TAF LPMT 041103Z 0412/0512 34010KT CAVOK ","updated":"2025-10-04T16:18:46Z"}
