{"icao":"KLAX","taf":"TAF KLAX 171140Z 1712/1818 11004KT P6SM BKN028 OVC050 ","updated":"2026-02-17T13:01:00Z"}
