{"icao":"KJFK","taf":"TAF KJFK 161120Z 1612/1718 27008KT P6SM SCT250 ","updated":"2025-12-16T13:37:36Z"}
