{"icao":"KORD","taf":"TAF KORD 280520Z 2806/2912 29011KT P6SM SCT045 ","updated":"2025-11-28T06:30:01Z"}
