{"icao":"KJFK","taf":"TAF KJFK 190540Z 1906/2012 32009KT P6SM BKN040 ","updated":"2026-01-19T08:31:46Z"}
