{"icao":"KLAX","taf":"TAF KLAX 261129Z 2612/2718 33005KT P6SM OVC015 ","updated":"2026-06-26T12:09:36Z"}
