{"icao":"LPMR","taf":"TAF TAF LPMR 170501Z 1706/1806 36005KT 9999 BKN008 PROB30 1706/1708 3000 BR BKN004 ","updated":"2026-06-17T06:09:04Z"}
