{"icao":"LPPT","taf":"TAF LPPT 261100Z 2612/2718 23017KT 9999 SCT012 BKN025 ","updated":"2026-01-26T12:45:46Z"}
