{"icao":"KLAX","taf":"TAF KLAX 121759Z 1218/1324 26006KT 6SM BR SCT010 SCT150 BKN200 ","updated":"2025-11-12T18:26:28Z"}
