{"icao":"LPPD","taf":"TAF LPPD 280500Z 2806/2906 02010KT 9999 FEW018 BKN035 ","updated":"2026-06-28T07:49:29Z"}
