{"icao":"KORD","taf":"TAF KORD 061121Z 0612/0718 29009KT P6SM BKN020 ","updated":"2025-12-06T12:36:21Z"}
