{"icao":"LPMT","taf":"TAF LPMT 181105Z 1812/1912 35005KT CAVOK ","updated":"2026-06-18T16:29:21Z"}
