{"icao":"LPOV","taf":"TAF LPOV 071702Z 0718/0818 21012KT 999 FEW015 SCT030 ","updated":"2025-11-08T05:16:42Z"}
