{"icao":"KLAX","taf":"TAF KLAX 121735Z 1218/1324 25008KT P6SM FEW009 SCT015 ","updated":"2026-06-12T19:04:01Z"}
