{"icao":"LPFR","taf":"TAF LPFR 020500Z 0206/0306 09013KT 9999 SCT020 ","updated":"2026-03-02T07:49:30Z"}
