{"icao":"KLAX","taf":"TAF KLAX 091727Z 0918/1024 25006KT P6SM FEW015 ","updated":"2026-06-09T18:03:29Z"}
