{"icao":"LPPD","taf":"TAF LPPD 191700Z 1918/2018 25013KT 9999 SCT006 BKN012 ","updated":"2025-10-19T22:16:01Z"}
