{"icao":"LPMA","taf":"TAF LPMA 310500Z 3106/0106 22013KT 9999 SCT015 PROB30 ","updated":"2025-10-31T06:27:39Z"}
