{"icao":"KORD","taf":"TAF KORD 191120Z 1912/2018 28006KT P6SM FEW070 FEW110 ","updated":"2026-06-19T11:20:47Z"}
