{"icao":"LPFR","taf":"TAF LPFR 241100Z 2412/2512 01008KT 9999 SCT020 ","updated":"2026-01-24T14:18:34Z"}
