{"icao":"KLAX","taf":"TAF KLAX 091729Z 0918/1024 22005KT 4SM BR SCT004 ","updated":"2025-11-09T18:23:06Z"}
