{"icao":"LPPR","taf":"TAF LPPR 081700Z 0818/0918 17015KT 6000 SCT006 BKN012 ","updated":"2026-02-08T19:23:27Z"}
