{"icao":"KORD","taf":"TAF KORD 090520Z 0906/1012 08004KT P6SM SCT035 ","updated":"2025-10-09T07:17:45Z"}
