{"icao":"LPPD","taf":"TAF LPPD 140500Z 1406/1506 30012KT 9999 SCT020 ","updated":"2025-11-14T10:20:55Z"}
