{"icao":"LPPT","taf":"TAF LPPT 181700Z 1818/1924 30010KT 9999 SCT020 ","updated":"2026-02-19T02:03:41Z"}
