{"icao":"KJFK","taf":"TAF KJFK 231724Z 2318/2424 25013G22KT P6SM BKN050 ","updated":"2025-10-23T18:26:41Z"}
