{"icao":"KJFK","taf":"TAF KJFK 261724Z 2618/2724 33009KT P6SM BKN150 ","updated":"2026-02-26T17:56:32Z"}
