{"icao":"KJFK","taf":"TAF KJFK 080539Z 0806/0912 03013G22KT P6SM SCT025 SCT035 ","updated":"2026-06-08T05:48:45Z"}
