{"icao":"LPPR","taf":"TAF LPPR 231100Z 2312/2412 26015KT 9999 SCT020 FEW025TCU ","updated":"2026-01-23T11:19:35Z"}
