{"icao":"LPPT","taf":"TAF LPPT 270500Z 2706/2812 VRB02KT 9999 FEW012 PROB30 ","updated":"2025-09-27T06:22:23Z"}
