{"icao":"LPFR","taf":"TAF TAF LPFR 120903Z 1209/1306 23007KT 9999 SCT020 BKN045 ","updated":"2025-12-12T10:21:16Z"}
