{"icao":"LPMT","taf":"TAF LPMT 101717Z 1018/1118 01008KT 9999 FEW035 ","updated":"2025-12-10T20:23:10Z"}
