{"icao":"KLAX","taf":"TAF KLAX 081727Z 0818/0924 VRB03KT 6SM HZ FEW012 ","updated":"2026-04-08T20:40:45Z"}
