{"icao":"LPAZ","taf":"TAF LPAZ 221700Z 2218/2324 17015KT 9999 SCT012 BKN025 ","updated":"2025-10-22T19:13:45Z"}
