{"icao":"LPLA","taf":"TAF LPLA 011101Z 0112/0212 08008KT 9999 SCT012 BKN020 ","updated":"2026-04-01T11:52:24Z"}
