{"icao":"LPAZ","taf":"TAF TAF LPAZ 251700Z 2518/2624 22008KT 6000 BKN003 ","updated":"2026-04-26T02:37:54Z"}
