{"icao":"LPLA","taf":"TAF TAF LPLA 171125Z 1712/1812 31015KT 9999 FEW022 BKN030 ","updated":"2026-01-17T14:17:53Z"}
