{"icao":"LPPS","taf":"TAF LPPS 171100Z 1712/1818 34018KT 9999 SCT015 ","updated":"2026-01-17T16:21:52Z"}
