{"icao":"LPMR","taf":"TAF TAF LPMR 011102Z 0112/0212 05005KT CAVOK ","updated":"2026-04-01T15:02:32Z"}
