{"icao":"LPPR","taf":"TAF LPPR 031700Z 0318/0418 18007KT CAVOK ","updated":"2025-11-04T03:08:41Z"}
