{"icao":"LPAZ","taf":"TAF TAF LPAZ 240500Z 2406/2512 21007KT 8000 SCT006 SCT012 ","updated":"2026-05-24T09:23:11Z"}
