{"icao":"LPMA","taf":"TAF LPMA 240500Z 2406/2506 VRB05KT 9999 FEW015 ","updated":"2026-06-24T07:39:19Z"}
