{"icao":"LPFR","taf":"TAF LPFR 271700Z 2718/2818 11007KT 9999 FEW008 BKN020 ","updated":"2025-10-27T17:15:41Z"}
