{"icao":"KORD","taf":"TAF KORD 070535Z 0706/0812 26004KT P6SM FEW070 SCT200 ","updated":"2026-05-07T06:09:25Z"}
