{"icao":"KORD","taf":"TAF KORD 271127Z 2712/2818 29015G25KT P6SM SCT025 BKN035 ","updated":"2025-11-27T14:19:09Z"}
