{"icao":"KJFK","taf":"TAF KJFK 030520Z 0306/0412 VRB05KT P6SM SCT250 ","updated":"2025-10-03T07:16:49Z"}
