{"icao":"KLAX","taf":"TAF COR KLAX 201144Z 2012/2118 08006KT P6SM BKN045 BKN200 ","updated":"2025-11-20T14:18:54Z"}
