{"icao":"LPLA","taf":"TAF LPLA 021110Z 0212/0312 VRB05KT 9999 FEW030 ","updated":"2026-06-02T14:51:22Z"}
