{"icao":"LPMA","taf":"TAF LPMA 141700Z 1418/1518 03013KT 9999 SCT015 BKN030 PROB30 ","updated":"2026-04-14T22:49:36Z"}
