{"icao":"LPOV","taf":"TAF LPOV 171702Z 1718/1818 33010KT CAVOK ","updated":"2026-04-17T18:58:18Z"}
