{"icao":"KORD","taf":"TAF KORD 291126Z 2912/3018 27024G36KT 1 1/2SM -SN BLSN OVC011 ","updated":"2025-12-29T14:21:06Z"}
