{"icao":"LPPS","taf":"TAF LPPS 271100Z 2712/2818 20013KT 9999 SCT012 SCT030 ","updated":"2025-10-27T12:39:30Z"}
