{"icao":"LPMT","taf":"TAF TAF LPMT 091111Z 0912/1012 04008KT CAVOK ","updated":"2026-04-09T17:06:04Z"}
