{"icao":"LPPR","taf":"TAF LPPR 280500Z 2806/2906 04013KT 9999 SCT020 SCT040 ","updated":"2025-09-28T10:15:51Z"}
