{"icao":"KLAX","taf":"TAF KLAX 091721Z 0918/1024 25006KT P6SM FEW080 SCT150 ","updated":"2025-10-09T19:14:40Z"}
