{"icao":"KLAX","taf":"TAF KLAX 180533Z 1806/1912 VRB03KT P6SM OVC012 ","updated":"2026-06-18T08:45:22Z"}
