{"icao":"LPMR","taf":"TAF TAF LPMR 271705Z 2718/2818 27015KT 8000 -RA FEW015 BKN022 ","updated":"2026-01-27T19:25:08Z"}
