{"icao":"LPBJ","taf":"TAF TAF LPBJ 041704Z 0418/0518 33012KT CAVOK ","updated":"2026-06-04T17:45:57Z"}
