{"icao":"KLAX","taf":"TAF KLAX 181122Z 1812/1918 04005KT P6SM BKN250 ","updated":"2026-01-18T13:27:41Z"}
