{"icao":"LPOV","taf":"TAF LPOV 121701Z 1218/1318 36010KT CAVOK ","updated":"2025-10-13T03:08:22Z"}
