{"icao":"LPAZ","taf":"TAF TAF LPAZ 281700Z 2818/2924 25020KT 6000 SCT012 BKN020 ","updated":"2026-01-29T01:56:13Z"}
