{"icao":"LPPS","taf":"TAF LPPS 301100Z 3012/3118 01013KT 9999 SCT015","updated":"2026-05-30T11:18:51Z"}
