{"icao":"KLAX","taf":"TAF KLAX 131121Z 1312/1418 VRB03KT P6SM SKC ","updated":"2026-01-13T13:40:27Z"}
