{"icao":"LPBJ","taf":"TAF TAF LPBJ 151704Z 1518/1618 33008KT CAVOK","updated":"2026-04-15T22:39:36Z"}
