{"icao":"LPPD","taf":"TAF LPPD 140500Z 1406/1506 03010KT 9999 SCT018 PROB30 ","updated":"2026-05-14T06:44:48Z"}
