{"icao":"KLAX","taf":"TAF KLAX 271743Z 2718/2824 08005KT P6SM SKC ","updated":"2026-01-27T19:25:11Z"}
