{"icao":"KJFK","taf":"TAF KJFK 011729Z 0118/0224 06012G20KT P6SM SCT070 PROB30 0118/0121 6SM -SHRA BR OVC035 ","updated":"2026-06-01T18:36:52Z"}
