{"icao":"KJFK","taf":"TAF KJFK 231739Z 2318/2424 19012KT P6SM SCT050 SCT150 ","updated":"2025-09-23T20:18:58Z"}
