{"icao":"LPPT","taf":"TAF LPPT 220500Z 2206/2312 24010KT 9999 SCT008 SCT015 ","updated":"2025-10-22T10:20:03Z"}
