{"icao":"KORD","taf":"TAF KORD 181120Z 1812/1918 VRB03KT P6SM FEW250 ","updated":"2025-09-18T14:17:36Z"}
