{"icao":"LPOV","taf":"TAF LPOV 241702Z 2418/2518 VRB02KT 9999 BKN022 ","updated":"2025-10-24T20:20:10Z"}
