{"icao":"KLAX","taf":"TAF KLAX 271120Z 2712/2818 08005KT P6SM SKC ","updated":"2026-01-27T16:29:27Z"}
