{"icao":"KJFK","taf":"TAF KJFK 180525Z 1806/1912 23005KT 5SM BR FEW010 BKN150 ","updated":"2026-01-18T07:19:01Z"}
