{"icao":"LPFR","taf":"TAF LPFR 051100Z 0512/0612 34015KT CAVOK ","updated":"2026-01-05T12:43:41Z"}
