{"icao":"KORD","taf":"TAF KORD 151136Z 1512/1618 25010KT 6SM -SHRA VCTS BKN070CB OVC100 ","updated":"2026-04-15T13:53:16Z"}
