{"icao":"LPPT","taf":"TAF LPPT 081700Z 0818/0924 25008KT 9999 SCT012 BKN018 ","updated":"2026-01-09T04:38:55Z"}
