{"icao":"KJFK","taf":"TAF KJFK 070521Z 0706/0812 33010KT 5SM -SHRA BKN035 ","updated":"2026-05-07T06:09:24Z"}
