{"icao":"KJFK","taf":"TAF KJFK 180539Z 1806/1912 26005KT P6SM BKN250 ","updated":"2025-12-18T08:28:23Z"}
