{"icao":"LPPR","taf":"TAF LPPR 281700Z 2818/2918 31008KT CAVOK ","updated":"2026-05-29T03:28:51Z"}
