{"icao":"LPBJ","taf":"TAF TAF LPBJ 280507Z 2806/2906 15005KT CAVOK PROB30 2806/2808 1500 BCFG SCT002 ","updated":"2026-04-28T08:34:20Z"}
