{"icao":"KORD","taf":"TAF KORD 171134Z 1712/1818 15008KT 3SM BR SCT002 SCT250 ","updated":"2026-04-17T11:51:34Z"}
