{"icao":"LPBJ","taf":"TAF TAF LPBJ 161704Z 1618/1718 07010KT CAVOK ","updated":"2026-03-16T23:30:42Z"}
