{"icao":"LPLA","taf":"TAF TAF LPLA 051800Z 0518/0618 36010KT 9999 FEW020 BKN030 ","updated":"2026-05-05T21:59:47Z"}
