{"icao":"KJFK","taf":"TAF KJFK 041740Z 0418/0524 09018KT P6SM SCT035 SCT250 ","updated":"2026-04-04T18:40:15Z"}
