{"icao":"LPOV","taf":"TAF LPOV 181100Z 1812/1912 30005KT CAVOK PROB30 ","updated":"2025-09-19T11:14:13Z"}
