{"icao":"LPMA","taf":"TAF LPMA 281100Z 2812/2912 VRB05KT 9999 SCT015 ","updated":"2026-01-28T12:48:10Z"}
