{"icao":"KORD","taf":"TAF KORD 131726Z 1318/1424 26018G30KT P6SM SCT150 ","updated":"2026-01-13T20:24:03Z"}
