{"icao":"LPMR","taf":"TAF TAF LPMR 140508Z 1406/1506 VRB02KT 1200 BR OVC003 PROB40 1406/1409 0200 FG OVC002 ","updated":"2026-06-14T05:47:02Z"}
