{"icao":"KORD","taf":"TAF KORD 251727Z 2518/2624 22015G27KT P6SM SCT070 SCT200 ","updated":"2026-03-25T19:01:10Z"}
