{"icao":"KORD","taf":"TAF KORD 020520Z 0206/0312 28006KT P6SM OVC035 ","updated":"2026-01-02T05:24:38Z"}
