{"icao":"LPFR","taf":"TAF LPFR 231100Z 2312/2412 13012KT CAVOK ","updated":"2025-09-23T15:18:05Z"}
