{"icao":"LPMT","taf":"TAF LPMT 260504Z 2606/2706 VRB03KT 9999 FEW040 ","updated":"2025-12-26T09:21:22Z"}
