{"icao":"LPFR","taf":"TAF LPFR 281100Z 2812/2912 26013KT 9999 SCT025 ","updated":"2026-01-28T11:21:55Z"}
