{"icao":"KJFK","taf":"TAF KJFK 110529Z 1106/1212 23008KT P6SM OVC080 ","updated":"2026-04-11T06:00:00Z"}
