{"icao":"LPMR","taf":"TAF LPMR 141110Z 1412/1512 18012KT 9999 SCT018 BKN030 ","updated":"2025-11-14T14:18:08Z"}
