{"icao":"LPMR","taf":"TAF TAF LPMR 010503Z 0106/0206 07005KT CAVOK ","updated":"2026-04-01T09:02:17Z"}
