{"icao":"KJFK","taf":"TAF KJFK 131127Z 1312/1418 33010KT P6SM SKC ","updated":"2026-06-13T12:23:32Z"}
