{"icao":"KJFK","taf":"TAF KJFK 121123Z 1212/1318 29017G25KT P6SM SKC ","updated":"2025-12-12T12:41:10Z"}
