{"icao":"KJFK","taf":"TAF KJFK 051120Z 0512/0618 VRB03KT 2SM -RA BR SCT007 OVC015 ","updated":"2026-03-05T11:32:32Z"}
