{"icao":"LPPR","taf":"TAF LPPR 220500Z 2206/2306 21010KT 6000 SCT003 BKN010 ","updated":"2025-10-22T06:28:01Z"}
