{"icao":"LPBJ","taf":"TAF TAF LPBJ 190510Z 1906/2006 31008KT 9999 FEW040 PROB30 1906/1908 3000 BCFG SCT003","updated":"2026-02-19T07:07:21Z"}
