{"icao":"KLAX","taf":"TAF KLAX 281137Z 2812/2918 05005KT P6SM SKC ","updated":"2025-10-28T12:37:56Z"}
