{"icao":"LPLA","taf":"TAF LPLA 041103Z 0412/0512 14008KT 9999 BKN030 PROB40 ","updated":"2025-10-04T17:13:18Z"}
