{"icao":"LPMT","taf":"TAF LPMT 241101Z 2412/2512 16008KT 9999 FEW025 ","updated":"2026-02-24T15:57:11Z"}
