{"icao":"KORD","taf":"TAF KORD 221131Z 2212/2318 20008KT P6SM FEW050","updated":"2025-09-22T14:18:36Z"}
