{"icao":"LPBJ","taf":"TAF TAF LPBJ 231705Z 2318/2418 04005KT CAVOK ","updated":"2026-05-24T03:38:30Z"}
