{"icao":"LPLA","taf":"TAF LPLA 301704Z 3018/3118 14015KT 8000 -RA FEW006 SCT012 ","updated":"2025-12-31T01:39:24Z"}
