{"icao":"KLAX","taf":"TAF KLAX 211122Z 2112/2218 VRB03KT 6SM BR BKN008 BKN250 ","updated":"2026-01-21T11:22:59Z"}
