{"icao":"LPMR","taf":"TAF TAF LPMR 010509Z 0106/0206 35005KT 4000 BR FEW006 PROB30 0106/0108 0700 FG BKN002 ","updated":"2026-07-01T08:11:04Z"}
