{"icao":"KJFK","taf":"TAF KJFK 171730Z 1718/1824 24012KT 5SM -SN BR SCT015 OVC025 ","updated":"2026-01-17T20:21:07Z"}
