{"icao":"LPPD","taf":"TAF LPPD 090500Z 0906/1006 35007KT 9999 FEW015 BKN030 ","updated":"2026-06-09T09:40:23Z"}
