{"icao":"KLAX","taf":"TAF KLAX 270002Z 2700/2806 26012KT 6SM HZ FEW010 ","updated":"2025-10-27T01:28:31Z"}
