{"icao":"LPPT","taf":"TAF LPPT 030500Z 0306/0412 33007KT CAVOK ","updated":"2026-04-03T08:52:35Z"}
