{"icao":"LPPD","taf":"TAF LPPD 111700Z 1118/1218 03013KT 9999 SCT020 PROB40 ","updated":"2026-05-11T20:46:59Z"}
