{"icao":"LPPD","taf":"TAF LPPD 181700Z 1818/1918 02010KT 9999 SCT012 BKN020 PROB40 ","updated":"2026-01-19T01:46:29Z"}
