{"icao":"LPPR","taf":"TAF LPPR 101100Z 1012/1112 22010KT 6000 SCT004 BKN008 ","updated":"2026-02-10T14:56:57Z"}
