{"icao":"LPFR","taf":"TAF LPFR 051100Z 0512/0612 19007KT CAVOK ","updated":"2025-10-05T16:18:40Z"}
