{"icao":"LPPT","taf":"TAF LPPT 240500Z 2406/2512 04007KT CAVOK ","updated":"2025-09-24T10:18:25Z"}
