{"icao":"KJFK","taf":"TAF KJFK 280526Z 2806/2912 26014G21KT P6SM SCT050 ","updated":"2025-11-28T08:26:34Z"}
