{"icao":"LPFR","taf":"TAF LPFR 260500Z 2606/2706 01007KT CAVOK ","updated":"2025-11-26T10:21:26Z"}
