{"icao":"KJFK","taf":"TAF KJFK 290531Z 2906/3012 32010KT P6SM FEW070 FEW100 ","updated":"2026-05-29T07:53:57Z"}
