{"icao":"LPBJ","taf":"TAF TAF LPBJ 211701Z 2118/2218 03010KT CAVOK","updated":"2025-11-22T03:02:51Z"}
