{"icao":"KLAX","taf":"TAF KLAX 070532Z 0706/0812 27006KT P6SM FEW012 BKN250 ","updated":"2026-02-07T06:40:36Z"}
