{"icao":"KORD","taf":"TAF KORD 180520Z 1806/1912 17010KT P6SM SCT200 WS015/20050KT ","updated":"2025-12-18T05:21:13Z"}
