{"icao":"LPMR","taf":"TAF TAF LPMR 251102Z 2512/2612 35012KT CAVOK ","updated":"2025-11-25T14:18:52Z"}
