{"icao":"KLAX","taf":"TAF KLAX 211726Z 2118/2224 26010KT P6SM SCT200 ","updated":"2026-03-21T18:35:03Z"}
