{"icao":"KJFK","taf":"TAF KJFK 020525Z 0206/0312 01011KT P6SM SKC ","updated":"2026-03-02T07:49:35Z"}
