{"icao":"KJFK","taf":"TAF KJFK 051725Z 0518/0624 19013KT P6SM SCT250 ","updated":"2026-06-05T17:53:09Z"}
