{"icao":"LPOV","taf":"TAF LPOV 131704Z 1318/1418 22010KT 3000 -RADZ FEW004 BKN006 ","updated":"2026-03-13T23:26:57Z"}
