{"icao":"LPFR","taf":"TAF LPFR 050500Z 0506/0606 30008KT 9999 SCT030 ","updated":"2026-01-05T10:23:37Z"}
