{"icao":"KJFK","taf":"TAF KJFK 211127Z 2112/2218 06008KT P6SM FEW025 SCT250 ","updated":"2025-09-21T14:13:56Z"}
