{"icao":"LPPR","taf":"TAF LPPR 251100Z 2512/2612 18007KT 9999 SCT035 PROB30 ","updated":"2026-02-25T16:01:08Z"}
