{"icao":"LPLA","taf":"TAF LPLA 050513Z 0506/0606 25005KT 9999 SCT035 ","updated":"2025-11-05T06:28:01Z"}
