{"icao":"LPMR","taf":"TAF TAF LPMR 180503Z 1806/1906 VRB02KT 0600 FG SCT001 BKN004 ","updated":"2026-01-18T06:29:38Z"}
