{"icao":"LPOV","taf":"TAF LPOV 171713Z 1718/1818 23008KT 9999 FEW015 BKN035 PROB30 ","updated":"2026-02-18T02:04:48Z"}
