{"icao":"LPLA","taf":"TAF LPLA 201706Z 2018/2118 09008KT 9999 FEW025 SCT035","updated":"2025-11-21T01:23:09Z"}
