{"icao":"LPMT","taf":"TAF LPMT 111104Z 1112/1212 02010KT CAVOK ","updated":"2026-06-11T14:33:45Z"}
