{"icao":"LPMR","taf":"TAF TAF LPMR 160508Z 1606/1706 VRB02KT 8000 BKN008 PROB30 1606/1608 0600 FG BKN002 ","updated":"2026-04-16T07:44:05Z"}
