{"icao":"KJFK","taf":"TAF KJFK 241128Z 2412/2518 28011G18KT P6SM SCT080 ","updated":"2025-11-24T13:32:40Z"}
