{"icao":"KJFK","taf":"TAF KJFK 280521Z 2806/2912 33009KT P6SM SCT100 BKN200 ","updated":"2026-05-28T07:56:00Z"}
