{"icao":"LPPT","taf":"TAF LPPT 310500Z 3106/0112 03005KT CAVOK ","updated":"2026-03-31T10:09:59Z"}
