{"icao":"KJFK","taf":"TAF KJFK 170524Z 1706/1812 29019G26KT P6SM BKN070 ","updated":"2025-11-17T07:18:55Z"}
