{"icao":"KLAX","taf":"TAF KLAX 010530Z 0106/0212 VRB03KT P6SM SKC ","updated":"2025-11-01T09:16:53Z"}
