{"icao":"LPOV","taf":"TAF LPOV 220506Z 2206/2306 20010KT 9999 SCT008 BKN016 ","updated":"2025-10-22T10:20:05Z"}
