{"icao":"LPPR","taf":"TAF LPPR 151700Z 1518/1618 22010KT 9999 SCT012 BKN025 PROB40 ","updated":"2026-02-15T22:22:18Z"}
