{"icao":"LPAZ","taf":"TAF TAF LPAZ 011700Z 0118/0224 28025G37KT 9999 SCT030 ","updated":"2026-02-01T23:23:23Z"}
