{"icao":"KLAX","taf":"TAF KLAX 101147Z 1012/1118 06005KT P6SM SKC ","updated":"2026-01-10T13:28:24Z"}
