{"icao":"LPPR","taf":"TAF LPPR 260500Z 2606/2706 19015KT 9999 SCT012 BKN025 ","updated":"2026-01-26T09:32:56Z"}
