{"icao":"LPPS","taf":"TAF LPPS 270500Z 2706/2812 31008KT 9999 SCT015 ","updated":"2026-05-27T08:02:10Z"}
