{"icao":"KORD","taf":"TAF KORD 171720Z 1718/1824 15008KT P6SM OVC250 ","updated":"2026-02-17T19:47:32Z"}
