{"icao":"LPFR","taf":"TAF LPFR 290500Z 2906/3006 31007KT CAVOK ","updated":"2025-09-29T07:17:58Z"}
