{"icao":"LPLA","taf":"TAF LPLA 020509Z 0206/0306 VRB05KT 9999 SCT025 PROB30 0206/0211 2500 -DZ BR BKN006 ","updated":"2026-06-02T10:20:43Z"}
