{"icao":"LPMT","taf":"TAF TAF LPMT 090504Z 0906/1006 26010KT 7000 -RA SCT014 BKN025 ","updated":"2026-02-09T07:56:12Z"}
