{"icao":"LPMR","taf":"TAF TAF LPMR 031101Z 0312/0412 30010KT CAVOK ","updated":"2026-04-03T16:39:07Z"}
