{"icao":"LPMT","taf":"TAF LPMT 240514Z 2406/2506 34008KT 9999 FEW020 ","updated":"2025-12-24T08:28:16Z"}
