{"icao":"KORD","taf":"TAF KORD 071721Z 0718/0824 26014G24KT P6SM BKN090 PROB30 0720/0724 24018G28KT 5SM -SHRA BKN050 ","updated":"2026-05-07T18:22:49Z"}
