{"icao":"LPPD","taf":"TAF LPPD 290500Z 2906/3006 21015KT 9999 SCT018 ","updated":"2026-05-29T07:53:43Z"}
