{"icao":"KLAX","taf":"TAF KLAX 260543Z 2606/2712 VRB03KT 6SM BR OVC012 ","updated":"2025-10-26T07:15:43Z"}
