{"icao":"KJFK","taf":"TAF KJFK 040520Z 0406/0512 23005KT 6SM BR BKN003 ","updated":"2026-04-04T08:39:21Z"}
