{"icao":"LPPS","taf":"TAF LPPS 281700Z 2818/2924 36010KT 9999 SCT015 BKN030 ","updated":"2026-04-28T18:15:50Z"}
