{"icao":"KLAX","taf":"TAF KLAX 071732Z 0718/0824 25008KT P6SM FEW018 OVC025 ","updated":"2026-06-07T20:10:11Z"}
