{"icao":"KLAX","taf":"TAF KLAX 231735Z 2318/2424 11005KT P6SM FEW120 ","updated":"2025-11-23T18:25:16Z"}
