{"icao":"LPMA","taf":"TAF LPMA 301700Z 3018/0118 01010KT 9999 SCT015 SCT030","updated":"2025-10-01T03:09:49Z"}
