{"icao":"LPOV","taf":"TAF LPOV 121107Z 1212/1312 08003KT 7000 -RA SCT020 ","updated":"2025-12-13T09:18:06Z"}
