{"icao":"LPMR","taf":"TAF TAF LPMR 290508Z 2906/3006 24005KT 8000 SCT008 SCT015 ","updated":"2026-04-29T06:21:42Z"}
