{"icao":"LPPR","taf":"TAF LPPR 241700Z 2418/2518 32015KT 9999 BKN012 ","updated":"2025-11-24T17:17:46Z"}
