{"icao":"LPMT","taf":"TAF LPMT 140508Z 1406/1506 20005KT CAVOK ","updated":"2026-06-14T05:47:03Z"}
