{"icao":"LPMA","taf":"TAF LPMA 291100Z 2912/3012 VRB05KT 9999 SCT015 BKN030 ","updated":"2026-04-29T15:54:37Z"}
