{"icao":"LPMR","taf":"TAF TAF LPMR 191100Z 1912/2012 VRB02KT CAVOK PROB30 ","updated":"2025-09-19T15:17:25Z"}
