{"icao":"LPOV","taf":"TAF LPOV 111701Z 1118/1218 34010KT CAVOK ","updated":"2025-10-11T20:16:48Z"}
