{"icao":"LPPD","taf":"TAF LPPD 071700Z 0718/0818 33018KT 9999 SCT025 ","updated":"2026-05-07T23:01:04Z"}
