{"icao":"KORD","taf":"TAF KORD 151720Z 1518/1624 09008KT P6SM SKC ","updated":"2025-09-15T18:25:12Z"}
