{"icao":"LPLA","taf":"TAF LPLA 031709Z 0318/0418 30018KT 9999 FEW015 SCT022 ","updated":"2026-06-03T21:47:19Z"}
