{"icao":"LPPT","taf":"TAF LPPT 041700Z 0418/0524 25018KT 6000 -RA SCT006 BKN012 ","updated":"2026-02-05T01:59:09Z"}
