{"icao":"LPBJ","taf":"TAF TAF LPBJ 301110Z 3012/3112 24015KT 9999 SCT015 BKN035 ","updated":"2026-01-30T12:53:03Z"}
