{"icao":"KJFK","taf":"TAF KJFK 311727Z 3118/0124 26013G22KT P6SM BKN060 ","updated":"2025-12-31T18:28:16Z"}
