{"icao":"KORD","taf":"TAF KORD 280520Z 2806/2912 24012G22KT P6SM SCT008 BKN012 ","updated":"2026-04-28T05:58:13Z"}
