{"icao":"LPOV","taf":"TAF LPOV 240507Z 2406/2506 20008KT 6000 BKN004 ","updated":"2026-05-24T06:57:50Z"}
