{"icao":"LPPR","taf":"TAF LPPR 110500Z 1106/1206 10008KT CAVOK ","updated":"2025-10-11T07:15:00Z"}
