{"icao":"KJFK","taf":"TAF KJFK 131728Z 1318/1424 21012KT P6SM SKC ","updated":"2026-06-13T18:06:03Z"}
