{"icao":"LPPR","taf":"TAF LPPR 220500Z 2206/2306 VRB02KT CAVOK ","updated":"2026-05-22T10:48:49Z"}
