{"icao":"LPMR","taf":"TAF TAF LPMR 080509Z 0806/0906 VRB02KT 2000 BR SCT002 PROB40 0806/0809 0200 -DZ FG BKN002 ","updated":"2025-10-08T10:18:12Z"}
