{"icao":"LPMA","taf":"TAF LPMA 131100Z 1312/1412 34010KT 9999 SCT015 ","updated":"2026-01-13T16:30:42Z"}
