{"icao":"LPPR","taf":"TAF LPPR 040500Z 0406/0506 08007KT CAVOK ","updated":"2026-01-04T10:19:15Z"}
