{"icao":"LPAZ","taf":"TAF TAF LPAZ 031700Z 0318/0424 33017KT 9999 SCT015 ","updated":"2026-01-04T03:49:54Z"}
