{"icao":"LPBJ","taf":"TAF TAF LPBJ 020509Z 0206/0306 VRB02KT 9999 FEW025 PROB30 0206/0209 2000 BCFG BKN004 ","updated":"2026-03-02T05:51:34Z"}
