{"icao":"KJFK","taf":"TAF KJFK 241739Z 2418/2524 30016G22KT P6SM SCT045 ","updated":"2026-02-24T19:00:42Z"}
