{"icao":"KORD","taf":"TAF KORD 050544Z 0506/0612 19012G20KT P6SM SCT100 SCT250 ","updated":"2026-01-05T06:37:39Z"}
