{"icao":"KLAX","taf":"TAF KLAX 150521Z 1506/1612 VRB03KT P6SM OVC012 ","updated":"2025-09-15T06:28:13Z"}
