{"icao":"LPMA","taf":"TAF LPMA 081700Z 0818/0918 02013KT 9999 SCT015 SCT030 PROB30 ","updated":"2025-10-08T18:27:06Z"}
