{"icao":"KORD","taf":"TAF KORD 121723Z 1218/1324 28011KT P6SM FEW090 SCT130 ","updated":"2026-03-12T19:41:28Z"}
