{"icao":"KLAX","taf":"TAF KLAX 061127Z 0612/0718 VRB03KT P6SM SCT012 ","updated":"2025-10-06T12:38:04Z"}
