{"icao":"LPPT","taf":"TAF LPPT 021430Z 0218/0324 34007KT CAVOK PROB30 ","updated":"2025-11-02T18:21:48Z"}
