{"icao":"KJFK","taf":"TAF KJFK 200540Z 2006/2112 19010KT P6SM SCT045 OVC080 ","updated":"2026-03-20T05:51:24Z"}
