{"icao":"LPPR","taf":"TAF LPPR 130500Z 1306/1406 16010KT 9999 SCT008 BKN025 ","updated":"2025-11-13T06:28:45Z"}
