{"icao":"KORD","taf":"TAF KORD 111730Z 1118/1224 04011KT P6SM SCT027 BKN035 ","updated":"2025-10-11T19:12:43Z"}
