{"icao":"LPPD","taf":"TAF LPPD 111700Z 1118/1218 24012KT 9999 SCT012 ","updated":"2026-02-12T02:05:39Z"}
