{"icao":"LPMA","taf":"TAF LPMA 071700Z 0718/0818 02012KT 9999 SCT015 PROB30 ","updated":"2025-10-08T01:18:14Z"}
