{"icao":"KJFK","taf":"TAF KJFK 270528Z 2706/2812 VRB03KT P6SM SCT250 ","updated":"2025-09-27T08:20:02Z"}
