{"icao":"LPFR","taf":"TAF LPFR 081100Z 0812/0912 35010KT CAVOK PROB30 0812/0815 20007KT","updated":"2025-11-08T14:15:15Z"}
