{"icao":"KLAX","taf":"TAF KLAX 041122Z 0412/0518 09004KT P6SM SCT005 SCT012 SCT025 ","updated":"2026-01-04T12:38:27Z"}
