{"icao":"KORD","taf":"TAF KORD 110535Z 1106/1212 01003KT 6SM BR SCT004 BKN035 OVC110 ","updated":"2026-03-11T05:47:23Z"}
