{"icao":"LPPD","taf":"TAF LPPD 101700Z 1018/1118 22012KT 9999 SCT015 SCT030 PROB30 ","updated":"2026-01-10T21:16:57Z"}
