{"icao":"KLAX","taf":"TAF KLAX 051120Z 0512/0618 VRB03KT P6SM FEW015 BKN035 ","updated":"2026-01-05T12:44:04Z"}
