{"icao":"KLAX","taf":"TAF KLAX 030527Z 0306/0412 VRB03KT P6SM SCT200 ","updated":"2026-04-03T07:06:28Z"}
