{"icao":"LPMR","taf":"TAF COR TAF COR LPMR 131128Z 1312/1412 34005KT 9999 FEW025 ","updated":"2025-10-13T16:21:49Z"}
