{"icao":"LPMR","taf":"TAF TAF LPMR 261101Z 2612/2712 36008KT CAVOK ","updated":"2025-11-26T11:16:42Z"}
