{"icao":"LPPT","taf":"TAF LPPT 280500Z 2806/0112 35015KT CAVOK PROB30 ","updated":"2026-02-28T07:25:31Z"}
