{"icao":"LPPR","taf":"TAF LPPR 110500Z 1106/1206 19010KT 6000 SCT004 BKN008 ","updated":"2026-02-11T10:01:32Z"}
