{"icao":"KJFK","taf":"TAF KJFK 270529Z 2706/2812 01007KT P6SM SCT120 SCT250 ","updated":"2026-02-27T07:44:58Z"}
