{"icao":"KORD","taf":"TAF KORD 031120Z 0312/0418 22013G21KT P6SM SCT011 OVC080 ","updated":"2025-12-03T12:41:19Z"}
