{"icao":"LPPS","taf":"TAF LPPS 281700Z 2818/2924 26015KT 9999 SCT015 ","updated":"2025-10-29T04:25:09Z"}
