{"icao":"LPFR","taf":"TAF LPFR 130500Z 1306/1406 28018G30KT 9999 SCT020 ","updated":"2026-02-13T07:08:39Z"}
