{"icao":"KORD","taf":"TAF KORD 290520Z 2906/3012 16010KT P6SM SCT030 SCT120 ","updated":"2026-06-29T05:49:18Z"}
