{"icao":"LPFR","taf":"TAF LPFR 160500Z 1606/1706 VRB05KT 9999 BKN030 ","updated":"2026-02-16T10:49:08Z"}
