{"icao":"LPLA","taf":"TAF LPLA 190502Z 1906/2006 VRB05KT 8000 -RA SCT016 BKN025 ","updated":"2026-06-19T06:16:56Z"}
