{"icao":"LPAZ","taf":"TAF TAF LPAZ 101700Z 1018/1124 18008KT 9999 FEW012 SCT045 ","updated":"2025-10-10T19:13:46Z"}
