{"icao":"LPBJ","taf":"TAF TAF LPBJ 050504Z 0506/0606 25008KT 9999 FEW010 SCT020 ","updated":"2025-12-05T06:30:29Z"}
