{"icao":"KJFK","taf":"TAF KJFK 121737Z 1218/1324 03020G35KT 6SM -RA SCT020 OVC035 ","updated":"2025-10-12T19:12:59Z"}
