{"icao":"LPAZ","taf":"TAF TAF LPAZ 030500Z 0306/0412 20007KT 9999 SCT008 ","updated":"2025-10-03T06:26:03Z"}
