{"icao":"LPFR","taf":"TAF LPFR 170500Z 1706/1806 06007KT CAVOK ","updated":"2025-10-17T08:24:25Z"}
