{"icao":"KORD","taf":"TAF KORD 311120Z 3112/0118 22012G22KT P6SM SCT050 OVC150 ","updated":"2026-03-31T13:16:17Z"}
