{"icao":"KJFK","taf":"TAF KJFK 300539Z 3006/0112 14009KT 4SM -SHRA BR SCT009 BKN035 ","updated":"2026-04-30T05:58:07Z"}
