{"icao":"KJFK","taf":"TAF KJFK 251125Z 2512/2618 24008KT P6SM BKN250 ","updated":"2026-03-25T13:07:50Z"}
