{"icao":"KORD","taf":"TAF KORD 121120Z 1212/1318 VRB03KT P6SM BKN070 BKN120 ","updated":"2026-02-12T11:38:37Z"}
