{"icao":"LPBJ","taf":"TAF LPBJ 200501Z 2006/2106 29005KT CAVOK ","updated":"2026-06-20T08:53:00Z"}
