{"icao":"KJFK","taf":"TAF KJFK 120539Z 1206/1312 30018G30KT P6SM SCT040 ","updated":"2026-01-12T08:31:17Z"}
