{"icao":"LPMT","taf":"TAF LPMT 040503Z 0406/0506 VRB02KT CAVOK ","updated":"2026-04-04T07:00:49Z"}
