{"icao":"LPMA","taf":"TAF LPMA 291100Z 2912/3012 01013KT 9999 SCT015 SCT030 PROB40 ","updated":"2025-09-29T13:28:14Z"}
