{"icao":"LPPT","taf":"TAF LPPT 211700Z 2118/2224 31015KT CAVOK ","updated":"2026-06-22T00:10:14Z"}
