{"icao":"LPPR","taf":"TAF LPPR 290500Z 2906/3006 21008KT 4000 -RADZ BR SCT004 BKN008 ","updated":"2026-01-29T05:41:56Z"}
