{"icao":"LPPS","taf":"TAF LPPS 011707Z 0118/0224 27008KT 9999 SCT015 ","updated":"2026-05-01T21:52:08Z"}
