{"icao":"KLAX","taf":"TAF KLAX 252013Z 2520/2624 22015G23KT P6SM SCT025 BKN050 ","updated":"2026-04-25T22:36:03Z"}
