{"icao":"LPFR","taf":"TAF LPFR 031700Z 0318/0418 29010KT 9999 FEW030 ","updated":"2025-12-03T18:29:57Z"}
