{"icao":"LPFR","taf":"TAF LPFR 040500Z 0406/0506 04005KT CAVOK ","updated":"2025-11-04T08:26:17Z"}
