{"icao":"KORD","taf":"TAF KORD 201726Z 2018/2124 31012KT P6SM BKN250 ","updated":"2026-03-20T18:48:50Z"}
