{"icao":"LPBJ","taf":"TAF TAF LPBJ 100506Z 1006/1106 25010KT 6000 -RADZ SCT004 BKN008 ","updated":"2026-02-10T09:59:36Z"}
