{"icao":"KLAX","taf":"TAF KLAX 120531Z 1206/1312 VRB03KT P6SM SKC ","updated":"2026-03-12T06:53:52Z"}
