{"icao":"LPPR","taf":"TAF LPPR 010500Z 0106/0206 09008KT CAVOK ","updated":"2026-04-01T10:54:22Z"}
