{"icao":"LPMT","taf":"TAF LPMT 222302Z 2300/2324 VRB02KT CAVOK ","updated":"2026-02-23T02:04:16Z"}
