{"icao":"LPMR","taf":"TAF TAF LPMR 291104Z 2912/3012 04007KT CAVOK ","updated":"2026-03-29T12:53:55Z"}
