{"icao":"LPPR","taf":"TAF LPPR 221700Z 2218/2318 VRB02KT 8000 BKN008 ","updated":"2026-06-22T17:39:00Z"}
