{"icao":"LPMA","taf":"TAF LPMA 311100Z 3112/0112 21015KT 9999 SCT015 ","updated":"2025-10-31T13:28:30Z"}
