{"icao":"LPPS","taf":"TAF LPPS 250500Z 2506/2612 20007KT 9999 SCT015 BKN030 ","updated":"2025-10-25T07:16:20Z"}
