{"icao":"KLAX","taf":"TAF KLAX 211735Z 2118/2224 23008KT P6SM BKN020 ","updated":"2026-06-21T20:23:57Z"}
