{"icao":"LPMT","taf":"TAF LPMT 061703Z 0618/0718 34015KT 9999 FEW030 ","updated":"2026-03-06T21:28:06Z"}
