{"icao":"LPAZ","taf":"TAF LPAZ 181700Z 1818/1924 33013KT 9999 SCT008 BKN018 ","updated":"2026-01-18T19:15:23Z"}
