{"icao":"KJFK","taf":"TAF KJFK 110521Z 1106/1212 18008KT P6SM BKN050 ","updated":"2025-10-11T06:23:36Z"}
