{"icao":"LPMT","taf":"TAF LPMT 110504Z 1106/1206 20010KT 9999 FEW020 SCT030 ","updated":"2026-05-11T06:45:32Z"}
