{"icao":"KORD","taf":"TAF KORD 190526Z 1906/2012 22005KT P6SM BKN200 ","updated":"2026-02-19T08:41:35Z"}
