{"icao":"KLAX","taf":"TAF KLAX 280537Z 2806/2912 34005KT P6SM FEW015 ","updated":"2025-09-28T09:15:53Z"}
