{"icao":"KJFK","taf":"TAF KJFK 070528Z 0706/0812 26010KT P6SM FEW100 ","updated":"2026-06-07T07:53:42Z"}
