{"icao":"LPMA","taf":"TAF LPMA 051700Z 0518/0618 03012KT 8000 SCT008 BKN015 ","updated":"2026-05-06T02:43:06Z"}
