{"icao":"LPAZ","taf":"TAF LPAZ 230704Z 2307/2412 03012KT 9999 FEW015 BKN030 ","updated":"2026-03-23T17:02:28Z"}
