{"icao":"LPMT","taf":"TAF LPMT 201703Z 2018/2118 02008KT CAVOK","updated":"2026-02-21T04:06:17Z"}
