{"icao":"LPPT","taf":"TAF LPPT 161700Z 1618/1724 26010KT 9999 SCT020 ","updated":"2025-11-16T19:13:53Z"}
