{"icao":"KLAX","taf":"TAF KLAX 211741Z 2118/2224 07006KT P6SM SKC ","updated":"2026-02-21T20:23:58Z"}
