{"icao":"KLAX","taf":"TAF KLAX 090536Z 0906/1012 VRB03KT P6SM OVC008 ","updated":"2026-05-09T07:54:10Z"}
