{"icao":"KJFK","taf":"TAF KJFK 090520Z 0906/1012 16005KT P6SM SKC ","updated":"2026-04-09T07:20:40Z"}
