{"icao":"LPPR","taf":"TAF LPPR 230500Z 2306/2406 26015KT 9999 SCT020 FEW025TCU ","updated":"2026-01-23T09:28:39Z"}
