{"icao":"KORD","taf":"TAF KORD 091720Z 0918/1024 21014G24KT P6SM FEW250 ","updated":"2026-03-09T20:33:42Z"}
