{"icao":"LPLA","taf":"TAF LPLA 061101Z 0612/0712 27018G30KT 8000 -RA SCT015 BKN025 ","updated":"2026-02-06T14:03:16Z"}
