{"icao":"LPPD","taf":"TAF LPPD 281700Z 2818/2918 25022KT 6000 SCT006 SCT012 ","updated":"2026-01-28T22:25:47Z"}
