{"icao":"LPAZ","taf":"TAF LPAZ 151100Z 1512/1618 31013KT 9999 SCT025 ","updated":"2025-11-15T12:34:15Z"}
