{"icao":"KJFK","taf":"TAF KJFK 220537Z 2206/2312 25006KT 6SM -SHRA SCT020 BKN035 ","updated":"2025-11-22T07:16:36Z"}
