{"icao":"LPAZ","taf":"TAF LPAZ 101700Z 1018/1124 22018KT 6000 SCT004 BKN008 ","updated":"2026-02-10T20:42:59Z"}
