{"icao":"LPBJ","taf":"TAF TAF LPBJ 140511Z 1406/1506 28005KT 8000 BKN005 PROB40 ","updated":"2026-04-14T05:21:58Z"}
