{"icao":"LPPT","taf":"TAF LPPT 071100Z 0712/0818 29008KT 9999 SCT040 ","updated":"2026-05-07T14:04:41Z"}
