{"icao":"LPFR","taf":"TAF LPFR 221700Z 2218/2318 25012KT 9999 SCT025 ","updated":"2025-10-23T04:20:52Z"}
