{"icao":"LPPR","taf":"TAF LPPR 250500Z 2506/2606 27012KT 9999 SCT020 ","updated":"2026-01-25T05:27:21Z"}
