{"icao":"LPMA","taf":"TAF LPMA 301100Z 3012/0112 03018G30KT 9999 SCT015 ","updated":"2026-06-30T12:06:50Z"}
