{"icao":"LPPD","taf":"TAF LPPD 281100Z 2812/2912 25022KT 6000 SCT006 SCT012 ","updated":"2026-01-28T15:30:58Z"}
