{"icao":"LPPD","taf":"TAF LPPD 061100Z 0612/0712 25025KT 6000 -RA SCT012 BKN025 ","updated":"2026-02-06T16:42:00Z"}
