{"icao":"KJFK","taf":"TAF KJFK 190523Z 1906/2012 19006KT P6SM SCT250 ","updated":"2025-10-19T06:25:26Z"}
