{"icao":"LPMR","taf":"TAF TAF LPMR 061700Z 0618/0718 17012KT 9999 SCT030 ","updated":"2026-04-06T20:36:20Z"}
