{"icao":"KLAX","taf":"TAF KLAX 060521Z 0606/0712 22004KT P6SM SKC ","updated":"2026-05-06T11:05:15Z"}
