{"icao":"LPPD","taf":"TAF LPPD 050500Z 0506/0606 12008KT 9999 SCT018 ","updated":"2025-10-05T10:16:12Z"}
