{"icao":"LPPR","taf":"TAF LPPR 270500Z 2706/2806 09010KT CAVOK ","updated":"2025-12-27T09:18:57Z"}
