{"icao":"KORD","taf":"TAF KORD 160520Z 1606/1712 19005KT P6SM FEW250 ","updated":"2025-12-16T07:22:14Z"}
