{"icao":"LPPS","taf":"TAF LPPS 181700Z 1818/1924 27015KT 9999 SCT015 SCT030 ","updated":"2026-03-18T18:02:07Z"}
