{"icao":"LPBJ","taf":"TAF TAF LPBJ 170502Z 1706/1806 VRB02KT CAVOK ","updated":"2026-06-17T06:09:05Z"}
