{"icao":"LPPT","taf":"TAF LPPT 201100Z 2012/2118 03008KT CAVOK ","updated":"2026-02-20T15:36:01Z"}
