{"icao":"LPMT","taf":"TAF LPMT 171703Z 1718/1818 19010KT CAVOK ","updated":"2026-03-17T23:31:09Z"}
