{"icao":"LPPT","taf":"TAF LPPT 020500Z 0206/0312 04007KT CAVOK ","updated":"2026-07-02T07:29:51Z"}
