{"icao":"LPFR","taf":"TAF LPFR 141700Z 1418/1518 25018KT CAVOK ","updated":"2026-05-14T18:58:58Z"}
