{"icao":"LPFR","taf":"TAF LPFR 211100Z 2112/2212 36012KT CAVOK ","updated":"2025-09-21T16:18:55Z"}
