{"icao":"LPPS","taf":"TAF LPPS 141700Z 1418/1524 01012KT 9999 SCT015 PROB30 ","updated":"2025-12-14T20:20:24Z"}
