{"icao":"KJFK","taf":"TAF KJFK 260530Z 2606/2712 20015KT 5SM BR BKN008 OVC025 ","updated":"2025-11-26T06:29:31Z"}
