{"icao":"LPLA","taf":"TAF LPLA 160503Z 1606/1706 VRB05KT 9999 SCT030 ","updated":"2026-05-16T10:13:11Z"}
