{"icao":"LPPT","taf":"TAF LPPT 221700Z 2218/2324 21007KT CAVOK ","updated":"2026-04-22T23:43:35Z"}
