{"icao":"LPMT","taf":"TAF LPMT 111705Z 1118/1218 34015KT 9999 FEW030 ","updated":"2026-04-12T02:29:46Z"}
