{"icao":"KLAX","taf":"TAF KLAX 301124Z 3012/3118 VRB03KT P6SM SKC ","updated":"2025-10-30T12:38:03Z"}
