{"icao":"KLAX","taf":"TAF KLAX 241123Z 2412/2518 VRB03KT 6SM BR OVC007 ","updated":"2025-11-24T13:32:40Z"}
