{"icao":"LPAZ","taf":"TAF LPAZ 121700Z 1218/1324 29023KT 9999 SCT015 ","updated":"2026-02-12T22:31:28Z"}
