{"icao":"KORD","taf":"TAF KORD 300520Z 3006/0112 19011KT 3SM -SN BR OVC008 ","updated":"2025-11-30T06:28:17Z"}
