{"icao":"LPPR","taf":"TAF LPPR 010500Z 0106/0206 11013KT CAVOK ","updated":"2026-01-01T08:27:49Z"}
