{"icao":"LPPT","taf":"TAF LPPT 161700Z 1618/1724 34013KT CAVOK ","updated":"2026-05-17T02:56:06Z"}
