{"icao":"LPPS","taf":"TAF LPPS 150500Z 1506/1612 20007KT 9999 SCT015 ","updated":"2025-10-15T08:25:26Z"}
