{"icao":"KJFK","taf":"TAF KJFK 290523Z 2906/3012 VRB04KT P6SM SCT200 ","updated":"2026-03-29T07:02:08Z"}
