{"icao":"KLAX","taf":"TAF KLAX 071722Z 0718/0824 VRB03KT 6SM BR SCT010 ","updated":"2025-11-07T18:25:59Z"}
