{"icao":"LPMT","taf":"TAF LPMT 190510Z 1906/2006 TAF LPMT 190500Z 1906/2006 VRB02KT 9999 FEW035 PROB30 1906/1910 VRB02KT 4000 BR BKN004 ","updated":"2025-11-19T07:18:36Z"}
