{"icao":"LPMR","taf":"TAF TAF LPMR 081103Z 0812/0912 35008KT 9999 FEW030 ","updated":"2025-11-08T12:33:08Z"}
