{"icao":"KJFK","taf":"TAF KJFK 021124Z 0212/0318 03008KT P6SM SKC ","updated":"2025-10-02T12:35:36Z"}
