{"icao":"LPPT","taf":"TAF LPPT 140500Z 1406/1512 24008KT CAVOK ","updated":"2026-06-14T05:46:59Z"}
