{"icao":"LPMT","taf":"TAF LPMT 291707Z 2918/3018 24008KT 9999 SCT015 BKN025 ","updated":"2025-11-30T04:32:42Z"}
