{"icao":"LPPT","taf":"TAF LPPT 170500Z 1706/1812 04008KT 9999 SCT020 ","updated":"2025-11-17T06:29:15Z"}
