{"icao":"LPBJ","taf":"TAF TAF LPBJ 201703Z 2018/2118 03005KT CAVOK","updated":"2026-02-20T23:27:29Z"}
