{"icao":"KJFK","taf":"TAF KJFK 260522Z 2606/2712 26010KT P6SM BKN035 ","updated":"2025-09-26T06:26:07Z"}
