{"icao":"KORD","taf":"TAF KORD 180531Z 1806/1912 26014G20KT P6SM -SN BKN025 OVC040 ","updated":"2026-01-18T06:29:41Z"}
