{"icao":"LPPR","taf":"TAF LPPR 040500Z 0406/0506 VRB02KT CAVOK ","updated":"2026-04-04T09:35:57Z"}
