{"icao":"LPMT","taf":"TAF LPMT 211707Z 2118/2218 28008KT CAVOK ","updated":"2026-05-22T03:32:46Z"}
