{"icao":"LPMR","taf":"TAF TAF LPMR 240500Z 2406/2506 VRB02KT 9999 FEW030 PROB40 2406/2408 0200 FG BKN002 ","updated":"2026-04-24T05:33:37Z"}
