{"icao":"KJFK","taf":"TAF KJFK 021726Z 0218/0324 34011G20KT P6SM FEW080 SCT250 ","updated":"2026-06-02T18:38:04Z"}
