{"icao":"LPFR","taf":"TAF LPFR 060500Z 0606/0706 VRB02KT CAVOK ","updated":"2026-01-06T08:29:07Z"}
