{"icao":"LPLA","taf":"TAF LPLA 291705Z 2918/3018 12010KT 9999 SCT014 BKN025 PROB40 ","updated":"2026-03-29T17:28:25Z"}
