{"icao":"KORD","taf":"TAF KORD 260520Z 2606/2712 07007KT P6SM FEW300 ","updated":"2026-04-26T07:27:07Z"}
