{"icao":"LPMR","taf":"TAF TAF LPMR 141103Z 1412/1512 35008KT 9999 SCT018 ","updated":"2026-01-14T11:20:14Z"}
