{"icao":"LPLA","taf":"TAF LPLA 041703Z 0418/0518 14008KT 9999 BKN030 ","updated":"2025-10-04T23:15:23Z"}
