{"icao":"LPMT","taf":"TAF LPMT 191107Z 1912/2012 35010KT 9999 SCT035 ","updated":"2025-12-19T12:39:02Z"}
