{"icao":"KLAX","taf":"TAF KLAX 271125Z 2712/2818 24008KT P6SM BKN060 ","updated":"2026-04-27T13:50:38Z"}
