{"icao":"KLAX","taf":"TAF KLAX 310529Z 3106/0112 VRB03KT P6SM SKC ","updated":"2026-05-31T07:44:45Z"}
