{"icao":"LPLA","taf":"TAF LPLA 071105Z 0712/0812 VRB05KT 9999 SCT040 ","updated":"2025-11-07T16:19:22Z"}
