{"icao":"LPPR","taf":"TAF LPPR 161700Z 1618/1718 33007KT 9999 FEW015 ","updated":"2026-04-16T19:10:55Z"}
