{"icao":"KLAX","taf":"TAF KLAX 241131Z 2412/2518 VRB03KT P6SM BKN006 ","updated":"2025-09-24T12:36:45Z"}
