{"icao":"KJFK","taf":"TAF KJFK 140541Z 1406/1512 22008KT P6SM BKN060 ","updated":"2025-09-14T08:20:13Z"}
