{"icao":"KJFK","taf":"TAF KJFK 121721Z 1218/1324 24016G25KT P6SM SCT050 ","updated":"2026-01-12T18:31:47Z"}
