{"icao":"KORD","taf":"TAF KORD 121723Z 1218/1324 28016G28KT P6SM FEW250 ","updated":"2025-11-12T20:21:12Z"}
