{"icao":"LPMR","taf":"TAF TAF LPMR 261701Z 2618/2718 34008KT CAVOK ","updated":"2026-02-26T21:31:00Z"}
