{"icao":"KLAX","taf":"TAF KLAX 021742Z 0218/0324 VRB03KT P6SM OVC012 ","updated":"2026-05-02T20:40:00Z"}
