{"icao":"LPFR","taf":"TAF LPFR 021700Z 0218/0318 27018KT 9999 FEW018 SCT030 ","updated":"2026-02-02T23:27:05Z"}
