{"icao":"KLAX","taf":"TAF KLAX 211738Z 2118/2224 26006KT P6SM SKC ","updated":"2026-05-21T19:56:31Z"}
