{"icao":"LPOV","taf":"TAF LPOV 011104Z 0112/0212 25005KT CAVOK ","updated":"2026-03-01T14:22:29Z"}
