{"icao":"LPPD","taf":"TAF LPPD 281100Z 2812/2912 13010KT 9999 SCT025 ","updated":"2025-09-28T12:32:26Z"}
