{"icao":"KLAX","taf":"TAF KLAX 041741Z 0418/0524 11005KT 2SM HZ BKN008 ","updated":"2025-11-04T18:27:25Z"}
