{"icao":"LPBJ","taf":"TAF TAF LPBJ 090504Z 0906/1006 27012KT 7000 -RA SCT014 BKN025 ","updated":"2026-02-09T07:56:13Z"}
