{"icao":"LPPT","taf":"TAF LPPT 281700Z 2818/2924 35015KT CAVOK PROB40 ","updated":"2026-06-28T20:11:38Z"}
