{"icao":"LPMA","taf":"TAF LPMA 191700Z 1918/2018 21020G32KT 9999 SCT015 ","updated":"2026-03-19T21:34:08Z"}
