{"icao":"LPOV","taf":"TAF LPOV 251706Z 2518/2618 34015KT CAVOK ","updated":"2026-03-25T19:01:08Z"}
