{"icao":"KJFK","taf":"TAF KJFK 210522Z 2106/2212 22014KT P6SM FEW120 BKN250 ","updated":"2025-12-21T06:28:49Z"}
