{"icao":"KORD","taf":"TAF KORD 080520Z 0806/0912 31004KT P6SM SCT070 ","updated":"2025-10-08T06:27:42Z"}
