{"icao":"LPMR","taf":"TAF TAF LPMR 161710Z 1618/1718 29007KT 9999 SCT022 BKN040 ","updated":"2026-01-16T17:23:19Z"}
