{"icao":"KJFK","taf":"TAF KJFK 280520Z 2806/2912 36009KT P6SM BKN060 ","updated":"2026-03-28T06:59:00Z"}
