{"icao":"LPMR","taf":"TAF TAF LPMR 161101Z 1612/1712 25010KT 9999 FEW015 BKN025 PROB40 ","updated":"2026-02-16T11:39:01Z"}
