{"icao":"KLAX","taf":"TAF KLAX 251729Z 2518/2624 24007KT P6SM OVC015 ","updated":"2026-06-25T18:07:58Z"}
