{"icao":"KLAX","taf":"TAF KLAX 221722Z 2218/2324 24006KT 4SM HZ SCT010 ","updated":"2026-03-22T18:35:59Z"}
