{"icao":"LPOV","taf":"TAF LPOV 101702Z 1018/1118 34018KT CAVOK ","updated":"2026-06-11T00:13:13Z"}
