{"icao":"KJFK","taf":"TAF KJFK 061121Z 0612/0718 03011KT 6SM BR OVC008 ","updated":"2026-03-06T12:53:34Z"}
