{"icao":"LPMR","taf":"TAF TAF LPMR 290510Z 2906/3006 VRB02KT CAVOK PROB30 2906/2908 2000 BCFG SCT002 ","updated":"2025-12-29T05:27:21Z"}
