{"icao":"LPMT","taf":"TAF LPMT 020518Z 0206/0306 04005KT CAVOK ","updated":"2025-10-02T12:35:05Z"}
