{"icao":"LPOV","taf":"TAF LPOV 291104Z 2912/3012 34010KT CAVOK ","updated":"2026-06-29T14:46:36Z"}
