{"icao":"KJFK","taf":"TAF KJFK 061733Z 0618/0724 25009KT P6SM SCT050 BKN150 ","updated":"2025-12-06T18:24:57Z"}
