{"icao":"KORD","taf":"TAF KORD 270520Z 2706/2812 29015G25KT P6SM SCT025 OVC035 PROB30 2723/2804 -SHSN","updated":"2025-11-27T08:27:31Z"}
