{"icao":"LPFR","taf":"TAF LPFR 020500Z 0206/0306 03007KT CAVOK ","updated":"2025-10-02T09:17:52Z"}
