{"icao":"LPAZ","taf":"TAF LPAZ 281700Z 2818/0124 23007KT 9999 SCT008 SCT012 ","updated":"2026-02-28T19:19:30Z"}
