{"icao":"LPMR","taf":"TAF TAF LPMR 301705Z 3018/3118 34015KT CAVOK ","updated":"2026-03-31T05:07:51Z"}
