{"icao":"LPOV","taf":"TAF LPOV 101703Z 1018/1118 VRB02KT 9999 FEW025 SCT040 ","updated":"2026-01-11T08:25:28Z"}
