{"icao":"KLAX","taf":"TAF KLAX 290540Z 2906/3012 26010KT P6SM SCT040 OVC080 ","updated":"2026-05-29T07:53:58Z"}
