{"icao":"LPPT","taf":"TAF LPPT 161700Z 1618/1724 06010KT CAVOK PROB30 1618/1622 35010KT ","updated":"2026-03-16T23:30:39Z"}
