{"icao":"LPMT","taf":"TAF LPMT 171103Z 1712/1812 16015KT CAVOK PROB30 ","updated":"2026-03-17T13:09:33Z"}
