{"icao":"LPPD","taf":"TAF LPPD 301100Z 3012/3112 11010KT 9999 SCT006 SCT012 ","updated":"2025-12-30T12:41:31Z"}
