{"icao":"KJFK","taf":"TAF KJFK 220522Z 2206/2312 10006KT P6SM BKN130 ","updated":"2026-03-22T07:37:33Z"}
