{"icao":"LPBJ","taf":"TAF TAF LPBJ 271105Z 2712/2812 33005KT CAVOK ","updated":"2026-06-27T13:39:35Z"}
