{"icao":"LPFR","taf":"TAF LPFR 050500Z 0506/0606 23017KT 8000 SCT012 BKN025 ","updated":"2026-02-05T07:51:24Z"}
