{"icao":"LPBJ","taf":"TAF TAF LPBJ 221105Z 2212/2312 17010KT CAVOK ","updated":"2026-06-22T12:48:37Z"}
