{"icao":"LPMT","taf":"TAF LPMT 151705Z 1518/1618 34010KT CAVOK ","updated":"2026-06-15T21:40:54Z"}
