{"icao":"LPPS","taf":"TAF LPPS 040500Z 0406/0512 05007KT 9999 SCT015 SCT030","updated":"2025-10-04T11:12:40Z"}
