{"icao":"LPST","taf":"TAF LPST 230803Z 2309/2318 28010KT 9999 SCT030 ","updated":"2026-02-01T15:23:34Z"}
