{"icao":"LPFR","taf":"TAF LPFR 240800Z 2408/2506 VRB02KT 9999 FEW030 ","updated":"2025-10-24T08:23:58Z"}
