{"icao":"LPLA","taf":"TAF LPLA 090507Z 0906/1006 27007KT 9999 FEW025 SCT035 PROB30 ","updated":"2025-11-09T10:17:04Z"}
