{"icao":"LPOV","taf":"TAF LPOV 140507Z 1406/1506 34010KT 9999 FEW018 ","updated":"2026-03-14T06:43:52Z"}
