{"icao":"LPFR","taf":"TAF LPFR 220500Z 2206/2306 VRB02KT 9999 SCT012 ","updated":"2025-10-22T08:26:30Z"}
