{"icao":"LPPS","taf":"TAF LPPS 280500Z 2806/2912 33013KT 9999 SCT015 PROB30 ","updated":"2025-12-28T09:19:25Z"}
