{"icao":"LPOV","taf":"TAF LPOV 291707Z 2918/3018 34012KT CAVOK ","updated":"2026-06-29T19:54:56Z"}
