{"icao":"LPMT","taf":"TAF TAF LPMT 301104Z 3012/3112 35008KT CAVOK","updated":"2026-05-30T11:18:33Z"}
