{"icao":"LPAZ","taf":"TAF LPAZ 221700Z 2218/2324 16013KT 9999 FEW015 BKN045 ","updated":"2026-02-22T18:33:46Z"}
