{"icao":"LPPD","taf":"TAF LPPD 041100Z 0412/0512 02010KT 9999 SCT025 ","updated":"2026-01-04T13:28:35Z"}
