{"icao":"LPPT","taf":"TAF LPPT 101700Z 1018/1124 23013KT 6000 SCT004 BKN008 ","updated":"2026-02-11T02:11:52Z"}
