{"icao":"LPPT","taf":"TAF LPPT 220500Z 2206/2312 35008KT CAVOK ","updated":"2026-06-22T06:27:34Z"}
