{"icao":"LPBJ","taf":"TAF TAF LPBJ 291702Z 2918/3018 30010KT CAVOK ","updated":"2026-05-30T02:55:15Z"}
