{"icao":"LPAZ","taf":"TAF LPAZ 120033Z 1200/1306 33012KT 9999 SCT025 ","updated":"2025-12-12T01:28:30Z"}
