{"icao":"KJFK","taf":"TAF KJFK 161725Z 1618/1724 23010KT P6SM SCT250 ","updated":"2025-12-16T19:18:18Z"}
