{"icao":"LPMT","taf":"TAF LPMT 261703Z 2618/2718 33010KT CAVOK ","updated":"2026-04-26T19:44:49Z"}
