{"icao":"LPPR","taf":"TAF LPPR 140500Z 1406/1506 VRB02KT CAVOK PROB30 ","updated":"2025-10-14T07:18:12Z"}
