{"icao":"LPFR","taf":"TAF LPFR 290500Z 2906/3006 25018KT 8000 SCT008 BKN015 ","updated":"2026-01-29T07:38:29Z"}
