{"icao":"KJFK","taf":"TAF KJFK 240526Z 2406/2512 33009KT P6SM FEW050 SCT250 ","updated":"2026-06-24T07:39:20Z"}
