{"icao":"KLAX","taf":"TAF KLAX 171725Z 1718/1824 VRB03KT P6SM SKC ","updated":"2025-10-17T18:23:28Z"}
