{"icao":"LPPT","taf":"TAF TAF LPPT 120500Z 1206/1312 18010KT 6000 SCT004 BKN008 ","updated":"2026-01-12T06:34:53Z"}
