{"icao":"KORD","taf":"TAF KORD 230520Z 2306/2412 30017G27KT P6SM FEW025 ","updated":"2026-01-23T06:34:28Z"}
