{"icao":"LPLA","taf":"TAF LPLA 231704Z 2318/2418 VRB05KT 9999 FEW020","updated":"2025-11-23T18:24:59Z"}
