{"icao":"KORD","taf":"TAF KORD 070526Z 0706/0812 03012KT P6SM SCT020 BKN060 ","updated":"2026-04-07T07:15:11Z"}
