{"icao":"KORD","taf":"TAF KORD 221120Z 2212/2318 26012G22KT P6SM SCT025 BKN035 ","updated":"2026-01-22T14:29:29Z"}
