{"icao":"KJFK","taf":"TAF KJFK 211130Z 2112/2218 23005KT P6SM OVC035 ","updated":"2025-11-21T14:18:11Z"}
