{"icao":"LPFR","taf":"TAF LPFR 271100Z 2712/2812 06010KT CAVOK ","updated":"2025-11-27T14:18:32Z"}
