{"icao":"LPPR","taf":"TAF LPPR 151700Z 1518/1618 22012KT 9999 SCT012 ","updated":"2025-11-15T18:23:20Z"}
