{"icao":"LPMR","taf":"TAF TAF LPMR 170503Z 1706/1806 VRB02KT 5000 BR FEW004 PROB40 1706/1708 0200 FG BKN001 ","updated":"2025-10-17T08:24:28Z"}
