{"icao":"LPMR","taf":"TAF TAF LPMR 110506Z 1106/1206 12008KT CAVOK ","updated":"2025-10-11T08:20:08Z"}
