{"icao":"LPFR","taf":"TAF LPFR 060500Z 0606/0706 07010KT CAVOK ","updated":"2026-04-06T05:22:23Z"}
