{"icao":"KORD","taf":"TAF KORD 280520Z 2806/2912 36003KT P6SM FEW060 ","updated":"2025-09-28T08:19:59Z"}
