{"icao":"KLAX","taf":"TAF KLAX 041725Z 0418/0524 24007KT 6SM HZ OVC012 ","updated":"2026-06-04T17:45:59Z"}
