{"icao":"KLAX","taf":"TAF KLAX 220554Z 2206/2312 24006KT 6SM BR SCT008 ","updated":"2025-12-22T08:29:07Z"}
