{"icao":"LPMR","taf":"TAF TAF LPMR 251102Z 2512/2612 34005KT CAVOK ","updated":"2026-04-25T11:36:53Z"}
