{"icao":"LPOV","taf":"TAF LPOV 181105Z 1812/1912 28008KT 9999 SCT014 BKN025 ","updated":"2026-06-18T12:24:04Z"}
