{"icao":"LPPD","taf":"TAF LPPD 241100Z 2412/2512 31008KT 9999 SCT015 ","updated":"2026-06-24T16:20:18Z"}
