{"icao":"LPOV","taf":"TAF LPOV 231701Z 2318/2418 20005KT CAVOK ","updated":"2026-02-24T04:50:24Z"}
