{"icao":"KORD","taf":"TAF KORD 210528Z 2106/2212 20012KT P6SM FEW045 BKN200 ","updated":"2026-04-21T07:48:09Z"}
