{"icao":"LPMR","taf":"TAF TAF LPMR 271706Z 2718/2818 31010KT CAVOK ","updated":"2026-04-27T22:50:46Z"}
