{"icao":"LPPT","taf":"TAF LPPT 231700Z 2318/2424 29007KT 9999 SCT020 ","updated":"2026-04-23T21:43:29Z"}
