{"icao":"KJFK","taf":"TAF KJFK 051133Z 0512/0618 VRB04KT P6SM SCT050 BKN120 ","updated":"2026-01-05T12:44:03Z"}
