{"icao":"LPPR","taf":"TAF LPPR 041700Z 0418/0518 21015KT 6000 -RA SCT008 BKN015 ","updated":"2026-02-04T17:43:24Z"}
