{"icao":"LPMR","taf":"TAF TAF LPMR 031709Z 0318/0418 16010KT 6000 -RA SCT014 BKN022 ","updated":"2026-02-03T18:55:03Z"}
