{"icao":"LPOV","taf":"TAF LPOV 031101Z 0312/0412 VRB02KT 9999 BKN009 ","updated":"2025-10-03T13:24:24Z"}
