{"icao":"LPBJ","taf":"TAF TAF LPBJ 041704Z 0418/0518 25016KT 6000 -RA SCT008 BKN015 ","updated":"2026-02-05T01:59:11Z"}
