{"icao":"LPPT","taf":"TAF LPPT 100500Z 1006/1112 05008KT CAVOK ","updated":"2025-10-10T10:19:14Z"}
