{"icao":"KJFK","taf":"TAF KJFK 131720Z 1318/1424 20013G22KT P6SM BKN150 ","updated":"2026-03-13T19:30:17Z"}
