{"icao":"KJFK","taf":"TAF KJFK 261133Z 2612/2718 16005KT P6SM SCT025 BKN080 OVC100 ","updated":"2026-06-26T12:09:36Z"}
