{"icao":"LPAZ","taf":"TAF TAF LPAZ 011700Z 0118/0224 08010KT 9999 FEW015 SCT025 ","updated":"2026-07-01T19:51:55Z"}
