{"icao":"LPLA","taf":"TAF LPLA 020505Z 0206/0306 30018G28KT 9999 FEW020 SCT035 ","updated":"2026-02-02T08:41:00Z"}
