{"icao":"KJFK","taf":"TAF KJFK 231134Z 2312/2418 29012KT P6SM SCT250 ","updated":"2026-01-23T14:24:27Z"}
