{"icao":"KORD","taf":"TAF KORD 260520Z 2606/2712 32013G19KT P6SM BKN040 BKN080 ","updated":"2026-01-26T05:32:21Z"}
