{"icao":"KJFK","taf":"TAF KJFK 130538Z 1306/1412 27007KT P6SM SKC ","updated":"2025-12-13T07:20:31Z"}
