{"icao":"LPMA","taf":"TAF LPMA 141100Z 1412/1512 35013KT 9999 FEW015 ","updated":"2026-06-14T11:56:18Z"}
