{"icao":"LPPR","taf":"TAF LPPR 091100Z 0912/1012 15010KT 9999 SCT020 ","updated":"2026-05-09T13:14:36Z"}
