{"icao":"LPMT","taf":"TAF LPMT 241703Z 2418/2518 26007KT CAVOK ","updated":"2026-05-24T21:55:47Z"}
