{"icao":"LPPD","taf":"TAF LPPD 211700Z 2118/2218 02010KT 9999 SCT015 BKN030 ","updated":"2025-09-21T20:17:44Z"}
