{"icao":"KLAX","taf":"TAF KLAX 031122Z 0312/0418 14005KT P6SM SCT008 OVC015 ","updated":"2025-10-03T12:35:14Z"}
