{"icao":"LPMR","taf":"TAF TAF LPMR 171103Z 1712/1812 VRB02KT 9999 SCT020 ","updated":"2026-05-17T14:54:33Z"}
