{"icao":"KJFK","taf":"TAF KJFK 151125Z 1512/1618 01005KT P6SM FEW060 FEW250 ","updated":"2025-11-15T13:23:38Z"}
