{"icao":"KORD","taf":"TAF KORD 121120Z 1212/1318 16012G21KT P6SM SCT100 BKN250 ","updated":"2026-05-12T11:55:04Z"}
