{"icao":"KJFK","taf":"TAF KJFK 031739Z 0318/0424 09005KT 2SM -RA BR OVC008 ","updated":"2026-03-03T18:44:31Z"}
