{"icao":"LPPT","taf":"TAF LPPT 311100Z 3112/0118 20015KT 9999 SCT008 BKN015 ","updated":"2025-10-31T12:37:46Z"}
