{"icao":"LPLA","taf":"TAF TAF LPLA 081708Z 0818/0918 23020G30KT 9999 SCT008 BKN018 ","updated":"2026-02-08T21:25:32Z"}
