{"icao":"LPAZ","taf":"TAF TAF LPAZ 040500Z 0406/0512 VRB05KT 9999 SCT012 PROB30 ","updated":"2025-10-04T09:15:45Z"}
