{"icao":"LPBJ","taf":"TAF TAF LPBJ 281707Z 2818/2918 24010KT CAVOK ","updated":"2026-05-29T03:28:52Z"}
