{"icao":"LPPD","taf":"TAF LPPD 171700Z 1718/1818 29015KT 9999 SCT015 ","updated":"2026-02-18T04:52:10Z"}
