{"icao":"LPAZ","taf":"TAF TAF LPAZ 201700Z 2018/2124 01018KT 9999 SCT025 ","updated":"2026-04-20T22:41:16Z"}
