{"icao":"LPLA","taf":"TAF LPLA 191108Z 1912/2012 30008KT 9999 SCT020 PROB30 ","updated":"2025-10-19T12:33:14Z"}
