{"icao":"KORD","taf":"TAF KORD 010529Z 0106/0212 29005KT P6SM FEW035 BKN250 ","updated":"2025-12-01T07:22:30Z"}
