{"icao":"KLAX","taf":"TAF KLAX 081223Z 0812/0918 VRB03KT P6SM OVC011 ","updated":"2026-05-08T13:44:39Z"}
