{"icao":"LPFR","taf":"TAF LPFR 251100Z 2512/2612 12012KT CAVOK ","updated":"2026-03-25T16:14:05Z"}
