{"icao":"LPOV","taf":"TAF LPOV 130504Z 1306/1406 VRB02KT 9999 FEW045 ","updated":"2026-06-13T07:44:42Z"}
