{"icao":"LPMT","taf":"TAF TAF LPMT 300512Z 3006/3106 22005KT 9999 FEW020 SCT035 ","updated":"2026-01-30T10:32:30Z"}
