{"icao":"LPOV","taf":"TAF LPOV 271706Z 2718/2818 35010KT CAVOK ","updated":"2026-04-27T19:18:58Z"}
