{"icao":"LPPS","taf":"TAF LPPS 121700Z 1218/1324 02015KT 9999 SCT015 BKN030 ","updated":"2026-04-12T17:33:18Z"}
