{"icao":"LPMT","taf":"TAF LPMT 151102Z 1512/1612 02005KT CAVOK ","updated":"2025-10-15T15:17:37Z"}
