{"icao":"LPOV","taf":"TAF COR TAF COR LPOV 230722Z 2306/2406 VRB02KT CAVOK PROB30 2307/2311 4000 BR SCT002 ","updated":"2026-02-23T10:49:44Z"}
