{"icao":"LPPD","taf":"TAF LPPD 101100Z 1012/1112 28013KT 9999 SCT015 BKN030 ","updated":"2026-04-10T15:52:04Z"}
