{"icao":"LPPT","taf":"TAF LPPT 031700Z 0318/0424 31012KT CAVOK ","updated":"2026-04-04T04:48:28Z"}
