{"icao":"KLAX","taf":"TAF KLAX 120533Z 1206/1312 24007KT P6SM BKN007 ","updated":"2025-11-12T06:28:33Z"}
