{"icao":"LPPR","taf":"TAF LPPR 040500Z 0406/0506 VRB02KT CAVOK ","updated":"2026-03-04T09:38:58Z"}
