{"icao":"KJFK","taf":"TAF KJFK 010525Z 0106/0212 VRB05KT P6SM FEW080 SCT250 ","updated":"2026-03-01T06:43:45Z"}
