{"icao":"KORD","taf":"TAF KORD 120520Z 1206/1312 23013G23KT P6SM SCT150 BKN250 ","updated":"2026-01-12T08:31:17Z"}
