{"icao":"KJFK","taf":"TAF KJFK 280530Z 2806/0112 12002KT P6SM SKC ","updated":"2026-02-28T08:27:46Z"}
