{"icao":"KORD","taf":"TAF KORD 220532Z 2206/2312 07010KT P6SM BKN080 OVC250 ","updated":"2026-05-22T07:43:10Z"}
