{"icao":"KLAX","taf":"TAF KLAX 191748Z 1918/2024 26008KT P6SM FEW008 BKN250 ","updated":"2026-04-19T18:49:58Z"}
