{"icao":"LPFR","taf":"TAF LPFR 221700Z 2218/2318 09005KT CAVOK ","updated":"2025-11-23T01:43:00Z"}
