{"icao":"KLAX","taf":"TAF KLAX 161141Z 1612/1718 06004KT P6SM SKC ","updated":"2025-10-16T13:29:56Z"}
