{"icao":"LPMR","taf":"TAF TAF LPMR 221706Z 2218/2318 31010KT 9999 BKN013 ","updated":"2026-06-22T17:39:04Z"}
