{"icao":"LPPT","taf":"TAF LPPT 261700Z 2618/2724 06007KT CAVOK ","updated":"2026-02-27T01:57:56Z"}
