{"icao":"KJFK","taf":"TAF KJFK 291122Z 2912/3018 30012KT P6SM FEW040 FEW250 ","updated":"2026-01-29T13:59:58Z"}
