{"icao":"LPMT","taf":"TAF LPMT 011703Z 0118/0218 34010KT CAVOK ","updated":"2025-10-02T04:19:56Z"}
