{"icao":"LPMA","taf":"TAF LPMA 150500Z 1506/1606 02015KT 9999 SCT015 ","updated":"2025-09-15T08:23:40Z"}
