{"icao":"LPPD","taf":"TAF LPPD 111106Z 1112/1212 27012KT 9999 SCT015 BKN035 ","updated":"2026-01-11T14:18:02Z"}
