{"icao":"KORD","taf":"TAF KORD 031120Z 0312/0418 32007KT P6SM SCT080 BKN150 ","updated":"2026-01-03T14:17:41Z"}
