{"icao":"LPPR","taf":"TAF LPPR 251100Z 2512/2612 32010KT CAVOK ","updated":"2026-04-25T11:36:52Z"}
