{"icao":"KORD","taf":"TAF KORD 191130Z 1912/2018 02004KT P6SM VCSH BKN120 ","updated":"2026-02-19T11:37:41Z"}
