{"icao":"LPPS","taf":"TAF LPPS 101700Z 1018/1124 09007KT 9999 SCT015 SCT030 PROB30 1100/1118 6000 -RA BKN012 ","updated":"2026-01-10T20:21:05Z"}
