{"icao":"KLAX","taf":"TAF KLAX 161752Z 1618/1724 26008KT 2SM BR BCFG SCT005 ","updated":"2026-03-16T17:58:39Z"}
