{"icao":"LPOV","taf":"TAF LPOV 271100Z 2712/2812 28005KT CAVOK ","updated":"2025-10-27T14:19:04Z"}
