{"icao":"LPFR","taf":"TAF LPFR 261700Z 2618/2718 10012KT CAVOK ","updated":"2026-05-26T21:43:29Z"}
