{"icao":"LPFR","taf":"TAF LPFR 311100Z 3112/0112 24010KT CAVOK ","updated":"2026-05-31T12:10:33Z"}
