{"icao":"LPBJ","taf":"TAF COR TAF COR LPBJ 270547Z 2706/2806 06010KT CAVOK","updated":"2026-03-27T07:05:12Z"}
