{"icao":"LPMR","taf":"TAF TAF LPMR 261704Z 2618/2718 30008KT CAVOK ","updated":"2025-09-27T03:26:00Z"}
