{"icao":"LPAZ","taf":"TAF TAF LPAZ 261700Z 2618/2724 22008KT 9999 SCT020 ","updated":"2025-11-26T18:23:41Z"}
