{"icao":"KORD","taf":"TAF KORD 170526Z 1706/1812 10004KT 3/4SM BR OVC003 ","updated":"2026-04-17T05:27:04Z"}
