{"icao":"LPBJ","taf":"TAF TAF LPBJ 090505Z 0906/1006 16012KT CAVOK PROB40 0906/0910 1200 BCFG SCT004 ","updated":"2025-12-09T10:23:26Z"}
