{"icao":"LPPD","taf":"TAF LPPD 301100Z 3012/0112 26010KT 9999 FEW015 SCT030 ","updated":"2026-04-30T12:14:14Z"}
