{"icao":"LPLA","taf":"TAF LPLA 181700Z 1818/1918 16010KT 9999 SCT025 PROB30 ","updated":"2026-02-18T22:31:33Z"}
