{"icao":"LPPR","taf":"TAF LPPR 240500Z 2406/2506 10012KT CAVOK ","updated":"2025-09-24T08:23:25Z"}
