{"icao":"LPPD","taf":"TAF LPPD 240500Z 2406/2506 25015KT 9999 SCT015 BKN025 PROB30 ","updated":"2026-01-24T08:25:36Z"}
