{"icao":"LPMA","taf":"TAF LPMA 090500Z 0906/1006 01008KT 9999 SCT015","updated":"2025-11-09T11:13:35Z"}
