{"icao":"LPMA","taf":"TAF LPMA 300500Z 3006/3106 VRB05KT 9999 SCT015 ","updated":"2025-10-30T10:19:59Z"}
