{"icao":"KJFK","taf":"TAF KJFK 301120Z 3012/3118 30015G23KT P6SM FEW040 FEW250 ","updated":"2026-01-30T12:53:19Z"}
