{"icao":"LPLA","taf":"TAF LPLA 041102Z 0412/0512 07010KT 9999 SCT030 SCT040 PROB30 ","updated":"2026-05-04T11:47:10Z"}
