{"icao":"LPFR","taf":"TAF LPFR 081700Z 0818/0918 16012KT 9999 SCT020 ","updated":"2026-05-09T02:43:14Z"}
