{"icao":"KJFK","taf":"TAF KJFK 181139Z 1812/1918 VRB05KT P6SM SCT250 ","updated":"2025-12-18T13:35:36Z"}
