{"icao":"LPPS","taf":"TAF LPPS 160500Z 1606/1712 04008KT 9999 FEW015 BKN030 ","updated":"2026-04-16T11:01:19Z"}
