{"icao":"LPPT","taf":"TAF LPPT 230500Z 2306/2412 29015KT 9999 SCT020 FEW025TCU ","updated":"2026-01-23T09:28:39Z"}
