{"icao":"LPOV","taf":"TAF LPOV 061108Z 0612/0712 35010KT 9999 SCT018 BKN025 ","updated":"2026-06-06T17:11:59Z"}
