{"icao":"LPMT","taf":"TAF LPMT 041104Z 0412/0512 VRB02KT CAVOK ","updated":"2026-04-04T14:32:09Z"}
