{"icao":"KJFK","taf":"TAF KJFK 041123Z 0412/0518 29007KT P6SM SKC ","updated":"2025-10-04T14:14:03Z"}
