{"icao":"KORD","taf":"TAF KORD 171120Z 1712/1818 19014G21KT P6SM SCT150 BKN250 ","updated":"2025-10-17T12:37:10Z"}
