{"icao":"LPPR","taf":"TAF LPPR 120500Z 1206/1306 09013KT CAVOK ","updated":"2026-06-12T08:23:39Z"}
