{"icao":"KJFK","taf":"TAF KJFK 241120Z 2412/2518 08018G27KT 3SM RA BR OVC007 ","updated":"2026-05-24T13:23:26Z"}
