{"icao":"LPOV","taf":"TAF LPOV 141109Z 1412/1512 17014KT 9999 SCT014 BKN028 ","updated":"2025-11-14T14:18:07Z"}
