{"icao":"LPPR","taf":"TAF LPPR 170500Z 1706/1806 12007KT 9999 FEW008 BKN035 ","updated":"2026-01-17T09:19:11Z"}
