{"icao":"KORD","taf":"TAF KORD 150526Z 1506/1612 16008KT P6SM SCT070 OVC100 PROB30 1508/1512 -SHRA BKN070 ","updated":"2026-05-15T06:54:07Z"}
