{"icao":"LPPS","taf":"TAF LPPS 270500Z 2706/2812 20013KT 9999 SCT012 SCT030 ","updated":"2025-10-27T08:25:49Z"}
