{"icao":"LPPR","taf":"TAF LPPR 280500Z 2806/2906 33007KT 8000 SCT004 PROB40 2806/2808 2000 BCFG BR BKN002 ","updated":"2026-05-28T07:55:42Z"}
