{"icao":"LPMA","taf":"TAF LPMA 041700Z 0418/0518 22018KT 9999 SCT015 ","updated":"2026-02-04T18:49:12Z"}
