{"icao":"KLAX","taf":"TAF KLAX 140520Z 1406/1512 22005KT P6SM OVC015 ","updated":"2025-09-14T06:23:18Z"}
