{"icao":"KLAX","taf":"TAF KLAX 220531Z 2206/2312 27008KT P6SM SKC ","updated":"2026-04-22T09:18:57Z"}
