{"icao":"LPPS","taf":"TAF LPPS 151700Z 1518/1624 06012KT 9999 SCT015 ","updated":"2026-02-15T22:22:23Z"}
