{"icao":"LPLA","taf":"TAF LPLA 181704Z 1818/1918 34015KT 8000 -DZ FEW007 SCT030 PROB40 1818/1906 2500 DZ BR BKN004 ","updated":"2025-11-19T01:23:45Z"}
