{"icao":"LPFR","taf":"TAF LPFR 011100Z 0112/0212 11010KT CAVOK ","updated":"2026-04-01T15:02:28Z"}
