{"icao":"KLAX","taf":"TAF KLAX 151153Z 1512/1618 26004KT 6SM BR BKN010 ","updated":"2026-06-15T13:11:27Z"}
