{"icao":"LPBJ","taf":"TAF TAF LPBJ 071708Z 0718/0818 28012KT CAVOK ","updated":"2026-05-07T18:22:29Z"}
