{"icao":"KORD","taf":"TAF KORD 181720Z 1818/1924 20012G20KT P6SM FEW035 BKN050 ","updated":"2026-03-18T19:48:22Z"}
