{"icao":"KORD","taf":"TAF KORD 240520Z 2406/2512 19012G20KT P6SM SCT080 OVC200 WS020/20045KT ","updated":"2026-04-24T05:34:08Z"}
