{"icao":"LPPR","taf":"TAF LPPR 241700Z 2418/2518 VRB02KT 9999 SCT012 BKN025 ","updated":"2025-10-25T03:00:50Z"}
