{"icao":"KLAX","taf":"TAF KLAX 051724Z 0518/0624 VRB03KT P6SM BKN015 BKN150 ","updated":"2026-01-05T21:19:39Z"}
