{"icao":"LPPD","taf":"TAF LPPD 251100Z 2512/2612 03018KT 9999 SCT015 ","updated":"2025-10-25T16:19:46Z"}
