{"icao":"KLAX","taf":"TAF KLAX 061120Z 0612/0718 08005KT P6SM SCT020 OVC100 ","updated":"2026-01-06T12:42:30Z"}
