{"icao":"KORD","taf":"TAF KORD 201720Z 2018/2124 27012G25KT P6SM BKN100 ","updated":"2025-12-20T18:24:47Z"}
