{"icao":"KORD","taf":"TAF KORD 081131Z 0812/0918 03008KT P6SM SCT015 BKN020 OVC030 PROB30 0812/0818 4SM -RADZ FEW009 BKN015 ","updated":"2025-11-08T12:33:22Z"}
