{"icao":"KJFK","taf":"TAF KJFK 061120Z 0612/0718 23008KT P6SM SCT250 ","updated":"2026-06-06T11:24:43Z"}
