{"icao":"LPBJ","taf":"TAF TAF LPBJ 221704Z 2218/2318 05005KT CAVOK PROB40 2303/2309 5000 BCFG BKN003 ","updated":"2025-11-23T04:31:28Z"}
