{"icao":"LPFR","taf":"TAF LPFR 261100Z 2612/2712 09008KT CAVOK ","updated":"2025-11-26T14:19:24Z"}
