{"icao":"LPLA","taf":"TAF LPLA 141703Z 1418/1518 22015KT 9999 SCT020 BKN035 ","updated":"2026-02-14T23:23:02Z"}
