{"icao":"LPFR","taf":"TAF LPFR 141700Z 1418/1518 27007KT 9999 SCT020 ","updated":"2026-01-15T01:39:41Z"}
