{"icao":"KJFK","taf":"TAF KJFK 131130Z 1312/1418 29010KT P6SM FEW040 BKN250 ","updated":"2026-03-13T14:00:33Z"}
