{"icao":"LPOV","taf":"TAF LPOV 241704Z 2418/2518 20010KT 9999 SCT014 SCT022 ","updated":"2026-02-24T19:51:46Z"}
