{"icao":"LPLA","taf":"TAF LPLA 181104Z 1812/1912 28010KT 9999 SCT022 PROB30 ","updated":"2025-10-18T12:32:56Z"}
