{"icao":"LPPS","taf":"TAF LPPS 281100Z 2812/2918 22015KT 9999 SCT012 ","updated":"2025-10-28T15:20:29Z"}
