{"icao":"KLAX","taf":"TAF KLAX 060520Z 0606/0712 26008KT P6SM FEW250 ","updated":"2025-11-06T06:28:00Z"}
