{"icao":"KLAX","taf":"TAF KLAX 221726Z 2218/2324 VRB03KT P6SM SCT020 ","updated":"2025-10-22T18:28:01Z"}
