{"icao":"LPPR","taf":"TAF LPPR 220500Z 2206/2306 08005KT CAVOK ","updated":"2026-02-22T06:45:29Z"}
