{"icao":"KORD","taf":"TAF KORD 220520Z 2206/2312 35004KT P6SM SCT250 ","updated":"2025-11-22T08:22:38Z"}
