{"icao":"KORD","taf":"TAF KORD 081120Z 0812/0918 11007KT P6SM SCT020 OVC080 ","updated":"2026-02-08T13:43:05Z"}
