{"icao":"KORD","taf":"TAF KORD 040521Z 0406/0512 14004KT P6SM SCT250 ","updated":"2026-06-04T08:19:44Z"}
