{"icao":"LPPR","taf":"TAF LPPR 181100Z 1812/1912 23005KT 9999 SCT012 PROB30 ","updated":"2026-06-18T12:24:03Z"}
