{"icao":"KJFK","taf":"TAF KJFK 230532Z 2306/2412 35006KT P6SM SCT250 ","updated":"2025-11-23T07:17:06Z"}
