{"icao":"KLAX","taf":"TAF KLAX 291132Z 2912/3018 VRB03KT P6SM SKC ","updated":"2025-12-29T13:36:31Z"}
