{"icao":"LPMR","taf":"TAF TAF LPMR 260507Z 2606/2706 14005KT 3500 BR SCT005 PROB40 2606/2609 0400 FG BKN002 ","updated":"2026-05-26T09:55:04Z"}
