{"icao":"LPPR","taf":"TAF LPPR 050500Z 0506/0606 22017KT 4000 RADZ BR BKN008 ","updated":"2026-02-05T07:51:24Z"}
