{"icao":"KLAX","taf":"TAF KLAX 250540Z 2506/2612 26006KT P6SM BKN008 ","updated":"2026-03-25T07:15:20Z"}
