{"icao":"LPPD","taf":"TAF LPPD 080500Z 0806/0906 22025KT 8000 -RA SCT008 BKN015 ","updated":"2025-12-08T09:27:10Z"}
