{"icao":"LPMT","taf":"TAF LPMT 141703Z 1418/1518 03006KT CAVOK PROB40 1504/1506 0600 FG BKN002 ","updated":"2025-12-15T05:24:00Z"}
