{"icao":"KLAX","taf":"TAF KLAX 281132Z 2812/2918 10004KT P6SM SKC ","updated":"2025-12-28T12:38:22Z"}
