{"icao":"KLAX","taf":"TAF KLAX 240523Z 2406/2512 VRB03KT P6SM SCT250 ","updated":"2026-02-24T07:07:33Z"}
