{"icao":"LPOV","taf":"TAF LPOV 241101Z 2412/2512 03008KT CAVOK ","updated":"2025-12-24T15:20:10Z"}
