{"icao":"KLAX","taf":"TAF KLAX 080526Z 0806/0912 VRB03KT P6SM SKC ","updated":"2025-12-08T06:33:16Z"}
