{"icao":"LPFR","taf":"TAF LPFR 231700Z 2318/2418 28020KT 9999 SCT020 FEW025CB ","updated":"2026-01-23T19:23:28Z"}
