{"icao":"LPMT","taf":"TAF LPMT 151705Z 1518/1618 34010KT CAVOK ","updated":"2026-06-15T18:23:27Z"}
