{"icao":"LPBJ","taf":"TAF TAF LPBJ 121704Z 1218/1318 08008KT 8000 -RA BKN028 ","updated":"2025-12-12T19:16:33Z"}
