{"icao":"KLAX","taf":"TAF KLAX 011136Z 0112/0218 VRB03KT P6SM SCT018 ","updated":"2025-12-01T14:21:00Z"}
