{"icao":"LPOV","taf":"TAF LPOV 151702Z 1518/1618 20010KT 9999 SCT020 BKN028 ","updated":"2025-11-15T17:13:45Z"}
