{"icao":"LPMR","taf":"TAF TAF LPMR 081109Z 0812/0912 33012KT CAVOK ","updated":"2026-06-08T20:12:11Z"}
