{"icao":"KLAX","taf":"TAF KLAX 020523Z 0206/0312 VRB04KT 6SM BR SCT015 BKN050 ","updated":"2026-01-02T05:24:38Z"}
