{"icao":"LPPS","taf":"TAF LPPS 270500Z 2706/2812 30017KT 9999 SCT015 ","updated":"2025-12-27T07:17:52Z"}
