{"icao":"KJFK","taf":"TAF KJFK 121120Z 1212/1318 05018G29KT P6SM FEW030 OVC060 ","updated":"2025-10-12T12:32:37Z"}
