{"icao":"LPPT","taf":"TAF LPPT 161100Z 1612/1718 06010KT CAVOK PROB30 1617/1620 35010KT ","updated":"2026-03-16T16:11:01Z"}
