{"icao":"LPOV","taf":"TAF LPOV 191100Z 1912/2012 33010KT 9999 SCT012 PROB40 1912/1915 BKN012 ","updated":"2026-06-19T15:12:00Z"}
