{"icao":"LPAZ","taf":"TAF TAF LPAZ 301700Z 3018/3124 24007KT 6000 SCT003 BKN006 ","updated":"2026-05-31T03:41:18Z"}
