{"icao":"LPMT","taf":"TAF LPMT 181710Z 1818/1918 03007KT 9999 FEW020 ","updated":"2026-01-18T18:26:38Z"}
