{"icao":"KJFK","taf":"TAF KJFK 161122Z 1612/1718 21009KT P6SM SCT250 ","updated":"2026-05-16T13:19:34Z"}
