{"icao":"LPMT","taf":"TAF LPMT 101706Z 1018/1118 34010KT CAVOK ","updated":"2026-06-11T00:13:20Z"}
