{"icao":"LPOV","taf":"TAF LPOV 091707Z 0918/1018 34018KT CAVOK ","updated":"2026-06-09T18:02:57Z"}
