{"icao":"LPLA","taf":"TAF COR TAF COR LPLA 091150Z 0912/1012 35022KT 9999 SCT025 BKN040 ","updated":"2026-05-09T14:49:15Z"}
