{"icao":"KLAX","taf":"TAF KLAX 301130Z 3012/0118 27005KT P6SM SCT025 OVC035 ","updated":"2026-06-30T15:25:19Z"}
