{"icao":"KLAX","taf":"TAF KLAX 051120Z 0512/0618 VRB03KT P6SM SCT008 OVC010 ","updated":"2026-06-05T12:36:03Z"}
