{"icao":"LPOV","taf":"TAF LPOV 131717Z 1318/1418 35008KT 9999 SCT020 PROB40 1400/1408 0200 FG BKN002 ","updated":"2026-05-13T18:55:42Z"}
