{"icao":"KLAX","taf":"TAF KLAX 301120Z 3012/0118 VRB03KT P6SM OVC012 ","updated":"2026-04-30T15:08:39Z"}
