{"icao":"LPMA","taf":"TAF LPMA 291100Z 2912/3012 VRB05KT 9999 SCT015","updated":"2026-01-29T14:50:01Z"}
