{"icao":"KLAX","taf":"TAF KLAX 241723Z 2418/2524 11005KT P6SM SCT010 ","updated":"2025-11-24T20:21:58Z"}
