{"icao":"KJFK","taf":"TAF KJFK 271726Z 2718/2824 19007KT 6SM -SHRA BKN050 OVC100 ","updated":"2026-06-27T19:18:27Z"}
