{"icao":"KORD","taf":"TAF KORD 051720Z 0518/0624 29012G22KT P6SM FEW035 ","updated":"2026-04-05T18:42:02Z"}
