{"icao":"LPPD","taf":"TAF LPPD 281700Z 2818/2918 34013KT 9999 SCT015 SCT030 ","updated":"2025-10-28T23:16:37Z"}
