{"icao":"KLAX","taf":"TAF KLAX 060521Z 0606/0712 VRB03KT P6SM SKC ","updated":"2025-12-06T08:23:27Z"}
