{"icao":"KORD","taf":"TAF KORD 211725Z 2118/2224 21010KT P6SM SCT035 BKN250 ","updated":"2025-09-21T18:22:24Z"}
