{"icao":"KLAX","taf":"TAF KLAX 260520Z 2606/2712 25008KT P6SM BKN250 ","updated":"2026-01-26T05:32:21Z"}
