{"icao":"KJFK","taf":"TAF KJFK 240525Z 2406/2512 33014G24KT P6SM SCT040 ","updated":"2026-03-24T05:59:01Z"}
