{"icao":"KORD","taf":"TAF KORD 101720Z 1018/1124 21011G21KT P6SM SCT040 BKN060 ","updated":"2025-10-10T19:14:00Z"}
