{"icao":"LPBJ","taf":"TAF TAF LPBJ 181704Z 1818/1918 16005KT CAVOK ","updated":"2025-10-19T04:21:18Z"}
