{"icao":"LPPD","taf":"TAF LPPD 071100Z 0712/0812 26010KT 9999 SCT015 ","updated":"2025-10-07T12:37:12Z"}
