{"icao":"KJFK","taf":"TAF KJFK 240527Z 2406/2512 29011KT P6SM FEW080 ","updated":"2025-11-24T06:29:54Z"}
