{"icao":"LPLA","taf":"TAF LPLA 191706Z 1918/2018 32018KT 9999 FEW015 BKN025 ","updated":"2026-04-19T22:33:56Z"}
