{"icao":"LPPR","taf":"TAF LPPR 300500Z 3006/3106 08005KT CAVOK ","updated":"2026-03-30T09:10:19Z"}
