{"icao":"LPPD","taf":"TAF LPPD 051700Z 0518/0618 24013KT 9999 FEW015 BKN035 ","updated":"2025-11-05T17:17:30Z"}
