{"icao":"KJFK","taf":"TAF KJFK 040533Z 0406/0512 32006KT P6SM FEW040 OVC100 PROB30 0409/0412 5SM -SN BKN035 OVC070 ","updated":"2026-01-04T06:30:20Z"}
