{"icao":"LPBJ","taf":"TAF TAF LPBJ 101102Z 1012/1112 35008KT CAVOK ","updated":"2026-06-10T16:56:25Z"}
