{"icao":"LPMR","taf":"TAF TAF LPMR 011702Z 0118/0218 34015KT CAVOK ","updated":"2026-04-02T10:00:59Z"}
