{"icao":"KORD","taf":"TAF KORD 151728Z 1518/1624 08007KT P6SM BKN007 OVC040 ","updated":"2025-10-15T20:20:29Z"}
