{"icao":"KLAX","taf":"TAF KLAX 271723Z 2718/2824 26013KT P6SM SCT060 ","updated":"2026-04-27T19:19:15Z"}
