{"icao":"LPPT","taf":"TAF LPPT 141100Z 1412/1518 25008KT CAVOK ","updated":"2026-06-14T14:03:57Z"}
