{"icao":"LPPR","taf":"TAF LPPR 191100Z 1912/2012 VRB05KT 9999 SCT030 PROB30 1915/1920 33008KT ","updated":"2026-03-19T11:34:18Z"}
