{"icao":"KLAX","taf":"TAF KLAX 180526Z 1806/1912 26006KT P6SM SKC ","updated":"2025-10-18T07:15:58Z"}
