{"icao":"LPMA","taf":"TAF LPMA 181100Z 1812/1912 02010KT 9999 SCT015 PROB30 ","updated":"2025-11-18T16:25:50Z"}
