{"icao":"KJFK","taf":"TAF KJFK 291739Z 2918/3024 31012KT P6SM FEW050 FEW150 ","updated":"2025-11-29T18:25:29Z"}
