{"icao":"KJFK","taf":"TAF KJFK 091720Z 0918/1024 19014G25KT P6SM -SHRA FEW025 OVC050 ","updated":"2026-05-09T17:50:32Z"}
