{"icao":"LPMR","taf":"TAF TAF LPMR 240507Z 2406/2506 VRB02KT 8000 BKN008 PROB40 2406/2409 3000 BR BKN004 ","updated":"2026-05-24T09:23:08Z"}
