{"icao":"LPMT","taf":"TAF LPMT 121108Z 1212/1312 04007KT 7000 -RA SCT025 ","updated":"2025-12-12T13:33:31Z"}
