{"icao":"KJFK","taf":"TAF KJFK 201120Z 2012/2118 05012G19KT P6SM SKC ","updated":"2025-09-20T14:14:22Z"}
