{"icao":"LPMR","taf":"TAF TAF LPMR 240519Z 2406/2506 VRB02KT 9999 FEW025 PROB30 2406/2408 4000 BR SCT004 ","updated":"2026-03-24T08:52:07Z"}
