{"icao":"KORD","taf":"TAF KORD 040520Z 0406/0512 33012G20KT P6SM SCT250 ","updated":"2025-12-04T06:30:46Z"}
