{"icao":"LPOV","taf":"TAF LPOV 221706Z 2218/2318 30005KT 9999 SCT007 ","updated":"2026-06-22T17:39:02Z"}
