{"icao":"LPPR","taf":"TAF LPPR 111700Z 1118/1218 33012KT CAVOK ","updated":"2026-06-11T21:17:53Z"}
