{"icao":"LPMR","taf":"TAF TAF LPMR 141703Z 1418/1518 27005KT 9999 SCT018 ","updated":"2026-06-14T18:10:36Z"}
