{"icao":"KORD","taf":"TAF KORD 181720Z 1818/1924 18004KT P6SM FEW250 ","updated":"2025-09-18T18:25:47Z"}
