{"icao":"LPOV","taf":"TAF LPOV 201702Z 2018/2118 34012KT CAVOK ","updated":"2026-02-20T20:29:57Z"}
