{"icao":"LPPS","taf":"TAF LPPS 051700Z 0518/0624 35013KT 9999 SCT015 ","updated":"2026-06-05T19:52:35Z"}
