{"icao":"LPBJ","taf":"TAF TAF LPBJ 011102Z 0112/0212 29005KT CAVOK ","updated":"2026-07-01T12:05:39Z"}
