{"icao":"LPAZ","taf":"TAF TAF LPAZ 261700Z 2618/2724 05013KT 9999 FEW015 SCT030 ","updated":"2025-10-26T19:13:42Z"}
