{"icao":"KLAX","taf":"TAF KLAX 250521Z 2506/2612 VRB03KT P6SM SKC ","updated":"2025-11-25T07:18:59Z"}
