{"icao":"KORD","taf":"TAF KORD 190531Z 1906/2012 28016G26KT 4SM -SN BR BKN025 OVC035 ","updated":"2026-01-19T06:36:51Z"}
