{"icao":"KLAX","taf":"TAF KLAX 070522Z 0706/0812 VRB03KT P6SM SKC ","updated":"2025-12-07T07:17:35Z"}
