{"icao":"LPPT","taf":"TAF LPPT 241100Z 2412/2518 VRB05KT CAVOK ","updated":"2026-03-24T13:09:21Z"}
