{"icao":"KJFK","taf":"TAF KJFK 300538Z 3006/3112 27015G23KT P6SM BKN070 BKN100 ","updated":"2026-05-30T06:23:12Z"}
