{"icao":"KJFK","taf":"TAF KJFK 091737Z 0918/1024 13012G18KT 6SM -SHRA SCT007 BKN010 ","updated":"2025-11-09T20:17:53Z"}
