{"icao":"KJFK","taf":"TAF KJFK 171127Z 1712/1818 34013G22KT P6SM FEW250 ","updated":"2025-10-17T14:17:39Z"}
