{"icao":"LPMR","taf":"TAF TAF LPMR 291705Z 2918/3018 35012KT CAVOK ","updated":"2026-03-29T17:28:23Z"}
