{"icao":"KORD","taf":"TAF KORD 251120Z 2512/2618 03010KT P6SM OVC007 ","updated":"2026-04-25T13:01:32Z"}
