{"icao":"LPOV","taf":"TAF LPOV 202304Z 2100/2124 34008KT CAVOK PROB30 2105/2110 2000 BR BKN004 ","updated":"2025-09-21T03:05:46Z"}
