{"icao":"LPBJ","taf":"TAF TAF LPBJ 131703Z 1318/1418 30008KT CAVOK ","updated":"2026-03-13T21:31:42Z"}
