{"icao":"KORD","taf":"TAF KORD 230531Z 2306/2412 30015G25KT P6SM SCT040 BKN100 ","updated":"2025-09-23T06:27:13Z"}
