{"icao":"LPBJ","taf":"TAF TAF LPBJ 100506Z 1006/1106 33010KT 9999 BKN025 ","updated":"2026-03-10T08:40:15Z"}
