{"icao":"KORD","taf":"TAF KORD 270520Z 2706/2812 09011KT P6SM SKC ","updated":"2025-10-27T07:18:20Z"}
