{"icao":"LPPS","taf":"TAF LPPS 131700Z 1318/1424 04010KT 9999 FEW015 BKN030 ","updated":"2025-09-13T22:14:24Z"}
