{"icao":"KORD","taf":"TAF KORD 141722Z 1418/1524 20008KT P6SM FEW300 ","updated":"2025-11-14T18:26:37Z"}
