{"icao":"KORD","taf":"TAF KORD 120520Z 1206/1312 27010KT P6SM SCT040 ","updated":"2025-11-12T06:28:33Z"}
