{"icao":"KLAX","taf":"TAF KLAX 281721Z 2818/2924 VRB03KT P6SM SKC ","updated":"2025-12-28T18:28:20Z"}
