{"icao":"KORD","taf":"TAF KORD 181120Z 1812/1918 11009KT 6SM -SHRA SCT025 OVC040 ","updated":"2025-11-18T13:31:34Z"}
