{"icao":"KORD","taf":"TAF KORD 241720Z 2418/2524 33006KT P6SM SCT030 ","updated":"2026-05-24T18:04:47Z"}
