{"icao":"KLAX","taf":"TAF KLAX 160524Z 1606/1712 VRB03KT P6SM SKC ","updated":"2025-12-16T06:32:13Z"}
