{"icao":"KLAX","taf":"TAF KLAX 271126Z 2712/2818 VRB03KT P6SM SCT250 ","updated":"2026-02-27T11:31:26Z"}
