{"icao":"LPPD","taf":"TAF LPPD 251100Z 2512/2612 23017KT 9999 SCT012 BKN025 ","updated":"2026-01-25T14:18:02Z"}
