{"icao":"KORD","taf":"TAF KORD 150520Z 1506/1612 29004KT P6SM SKC ","updated":"2026-06-15T06:21:59Z"}
