{"icao":"KLAX","taf":"TAF KLAX 061741Z 0618/0724 VRB03KT P6SM OVC015 ","updated":"2025-10-06T18:26:06Z"}
