{"icao":"LPLA","taf":"TAF LPLA 051101Z 0512/0612 02010KT 9999 FEW025 BKN040 ","updated":"2026-05-05T12:00:08Z"}
