{"icao":"KJFK","taf":"TAF KJFK 231730Z 2318/2424 34030G38KT 3/4SM -SN BLSN OVC008 ","updated":"2026-02-23T18:00:23Z"}
