{"icao":"KORD","taf":"TAF KORD 111731Z 1118/1224 27004KT P6SM OVC025 ","updated":"2025-12-11T18:29:05Z"}
