{"icao":"KLAX","taf":"TAF KLAX 141727Z 1418/1524 07007KT 4SM -RA BR BKN025 OVC040 ","updated":"2025-11-14T19:14:37Z"}
