{"icao":"LPPS","taf":"TAF LPPS 040500Z 0406/0512 19015KT 9999 SCT014 PROB30 ","updated":"2025-11-04T10:22:02Z"}
