{"icao":"LPOV","taf":"TAF LPOV 291104Z 2912/3012 30008KT 9999 SCT015 PROB30 2912/2915 8000 BKN015 ","updated":"2026-05-29T11:27:30Z"}
