{"icao":"LPMA","taf":"TAF LPMA 121700Z 1218/1318 01010KT 9999 SCT015 ","updated":"2025-10-12T21:14:34Z"}
