{"icao":"LPFR","taf":"TAF LPFR 051700Z 0518/0618 25005KT CAVOK ","updated":"2025-10-05T18:21:55Z"}
