{"icao":"KJFK","taf":"TAF KJFK 010520Z 0106/0212 04010G17KT P6SM FEW060 SCT250 ","updated":"2025-10-01T06:27:03Z"}
