{"icao":"LPFR","taf":"TAF LPFR 061700Z 0618/0718 25007KT 9999 SCT035 ","updated":"2025-12-07T04:31:27Z"}
