{"icao":"LPMT","taf":"TAF LPMT 180504Z 1806/1906 03007KT 9999 FEW020 PROB40 1806/1811 0600 FG BKN002 ","updated":"2026-01-18T05:22:35Z"}
