{"icao":"KORD","taf":"TAF KORD 200520Z 2006/2112 15011KT 6SM BR VCSH SCT007 BKN012 ","updated":"2026-02-20T05:52:31Z"}
