{"icao":"LPOV","taf":"TAF LPOV 071112Z 0712/0812 23012KT 9999 FEW020 SCT035 ","updated":"2026-04-07T15:06:23Z"}
