{"icao":"KJFK","taf":"TAF KJFK 191723Z 1918/2024 17017G28KT P6SM SCT025 SCT150 PROB30 2004/2006 5SM -SHRA BKN015 ","updated":"2025-10-19T19:13:17Z"}
