{"icao":"LPBJ","taf":"TAF TAF LPBJ 041702Z 0418/0518 23005KT 9999 FEW040 PROB30 ","updated":"2026-03-05T01:59:54Z"}
