{"icao":"LPPT","taf":"TAF LPPT 110500Z 1106/1212 VRB02KT 9999 SCT012 BKN025 ","updated":"2026-01-11T05:23:47Z"}
