{"icao":"LPFR","taf":"TAF LPFR 150500Z 1506/1606 33008KT CAVOK ","updated":"2026-05-15T06:54:02Z"}
