{"icao":"LPMA","taf":"TAF LPMA 110500Z 1106/1206 36015KT 9999 SCT015 ","updated":"2026-04-11T10:32:44Z"}
