{"icao":"LPOV","taf":"TAF LPOV 172304Z 1800/1824 VRB02KT 0800 FG BKN002 PROB40 1800/1808 0500 BKN001 ","updated":"2025-09-18T11:13:44Z"}
