{"icao":"KORD","taf":"TAF KORD 130524Z 1306/1412 15007KT P6SM SCT080 BKN250 "}
