{"icao":"LPBJ","taf":"TAF TAF LPBJ 140505Z 1406/1506 34010KT CAVOK PROB30 1406/1408 3000 BCFG BKN004 ","updated":"2025-09-14T10:15:06Z"}
