{"icao":"LPBJ","taf":"TAF TAF LPBJ 081708Z 0818/0918 19008KT 8000 -RA SCT014 BKN025 ","updated":"2026-02-08T22:25:39Z"}
