{"icao":"KJFK","taf":"TAF KJFK 181121Z 1812/1918 18013G22KT P6SM BKN006 ","updated":"2026-06-18T12:24:20Z"}
