{"icao":"LPPS","taf":"TAF LPPS 151700Z 1518/1624 VRB05KT 9999 SCT015 PROB40 ","updated":"2025-10-15T20:20:17Z"}
