{"icao":"LPAZ","taf":"TAF LPAZ 221700Z 2218/2324 09007KT 9999 SCT020 ","updated":"2025-11-23T04:31:42Z"}
