{"icao":"LPMA","taf":"TAF LPMA 190500Z 1906/2006 03010KT 9999 SCT014 PROB40 ","updated":"2026-02-19T09:43:14Z"}
