{"icao":"LPLA","taf":"TAF LPLA 311703Z 3118/0118 12008KT 9999 SCT020 ","updated":"2026-04-01T02:30:18Z"}
