{"icao":"KLAX","taf":"TAF KLAX 050524Z 0506/0612 05005KT P6SM FEW250 ","updated":"2026-02-05T08:41:09Z"}
