{"icao":"LPMR","taf":"TAF TAF LPMR 041702Z 0418/0518 35010KT 9999 BKN008 PROB30 0418/0508 2000 BR BKN002 ","updated":"2025-10-04T18:21:41Z"}
