{"icao":"KLAX","taf":"TAF KLAX 231122Z 2312/2418 06005KT 2SM BR OVC007 ","updated":"2025-12-23T13:35:08Z"}
