{"icao":"LPPD","taf":"TAF LPPD 140500Z 1406/1506 24008KT 9999 SCT025 ","updated":"2025-09-14T10:15:06Z"}
