{"icao":"LPBJ","taf":"TAF TAF LPBJ 121706Z 1218/1318 32018KT 9999 FEW030 ","updated":"2026-04-13T02:34:44Z"}
