{"icao":"LPBJ","taf":"TAF TAF LPBJ 250502Z 2506/2606 04005KT CAVOK PROB30 2506/2509 0600 FG BKN002","updated":"2026-03-25T06:00:24Z"}
