{"icao":"KORD","taf":"TAF KORD 111141Z 1112/1218 30015G23KT P6SM BKN025 ","updated":"2026-01-11T12:39:18Z"}
