{"icao":"LPPD","taf":"TAF LPPD 300500Z 3006/3106 25005KT 8000 SCT006 SCT012 ","updated":"2025-12-30T06:32:08Z"}
