{"icao":"LPPD","taf":"TAF LPPD 091700Z 0918/1018 30010KT 9999 FEW022 ","updated":"2025-11-09T22:15:45Z"}
