{"icao":"LPBJ","taf":"TAF TAF LPBJ 161101Z 1612/1712 31008KT CAVOK PROB30 ","updated":"2026-06-16T15:08:43Z"}
