{"icao":"LPLA","taf":"TAF TAF LPLA 251104Z 2512/2612 04015KT 9999 FEW015 SCT025 ","updated":"2025-10-25T12:32:59Z"}
