{"icao":"LPFR","taf":"TAF LPFR 230500Z 2306/2406 30007KT CAVOK ","updated":"2026-04-23T05:28:47Z"}
