{"icao":"LPBJ","taf":"TAF TAF LPBJ 051703Z 0518/0618 35012KT CAVOK ","updated":"2026-01-05T21:19:38Z"}
