{"icao":"KLAX","taf":"TAF KLAX 111736Z 1118/1224 25008KT 6SM BR VCSH BKN030 ","updated":"2026-02-11T19:01:41Z"}
