{"icao":"LPPD","taf":"TAF COR LPPD 180940Z 1806/1906 23015KT 9999 SCT006 SCT012 ","updated":"2025-10-18T11:13:13Z"}
