{"icao":"KJFK","taf":"TAF KJFK 231121Z 2312/2418 VRB04KT P6SM FEW045 SCT100 ","updated":"2025-11-23T13:22:39Z"}
