{"icao":"LPMR","taf":"TAF TAF LPMR 040507Z 0406/0506 03005KT 9999 FEW040 ","updated":"2026-01-04T05:24:26Z"}
