{"icao":"LPOV","taf":"TAF TAF LPOV 060513Z 0606/0706 16005KT 9999 SCT014 BKN018 ","updated":"2026-06-06T06:34:06Z"}
