{"icao":"KJFK","taf":"TAF KJFK 031722Z 0318/0424 19011KT P6SM SCT045 BKN070 ","updated":"2025-11-03T18:27:05Z"}
