{"icao":"LPBJ","taf":"TAF TAF LPBJ 241702Z 2418/2518 28005KT 9999 BKN025 ","updated":"2025-10-25T01:18:52Z"}
