{"icao":"LPPD","taf":"TAF LPPD 061100Z 0612/0712 23007KT 6000 SCT004 SCT008 ","updated":"2026-06-06T11:24:29Z"}
