{"icao":"LPMT","taf":"TAF COR LPMT 271707Z 2718/2818 35010KT 9999 SCT025 ","updated":"2026-02-27T18:40:53Z"}
