{"icao":"LPPT","taf":"TAF LPPT 171100Z 1712/1818 07005KT CAVOK ","updated":"2026-04-17T14:53:55Z"}
