{"icao":"LPPR","taf":"TAF LPPR 051100Z 0512/0612 22017KT 9999 SCT025 ","updated":"2026-02-05T14:08:19Z"}
