{"icao":"LPPD","taf":"TAF LPPD 171100Z 1712/1812 18012KT 9999 SCT012 BKN025 ","updated":"2025-11-17T14:18:48Z"}
