{"icao":"LPBJ","taf":"TAF TAF LPBJ 151107Z 1512/1612 31010KT 9999 SCT015 BKN025 PROB30 ","updated":"2026-02-15T15:24:50Z"}
