{"icao":"LPMT","taf":"TAF LPMT 051702Z 0518/0618 35012KT 9999 FEW020 ","updated":"2026-01-05T23:18:56Z"}
