{"icao":"LPFR","taf":"TAF LPFR 131700Z 1318/1418 33012KT CAVOK ","updated":"2025-09-13T22:14:07Z"}
