{"icao":"LPBJ","taf":"TAF TAF LPBJ 251703Z 2518/2618 16012KT CAVOK ","updated":"2026-05-25T20:21:33Z"}
