{"icao":"KORD","taf":"TAF KORD 271720Z 2718/2824 21015G25KT P6SM FEW150 ","updated":"2026-02-27T19:32:07Z"}
