{"icao":"LPLA","taf":"TAF LPLA 291112Z 2912/3012 31010KT 9999 FEW015 SCT025 PROB30 ","updated":"2025-11-29T13:25:15Z"}
