{"icao":"KORD","taf":"TAF KORD 300520Z 3006/3112 33006KT P6SM SCT100 ","updated":"2026-01-30T07:39:13Z"}
