{"icao":"LPLA","taf":"TAF LPLA 261100Z 2612/2712 28022G35KT 9999 SCT020 BKN030 ","updated":"2026-01-26T14:27:45Z"}
