{"icao":"LPPR","taf":"TAF LPPR 170500Z 1706/1806 VRB02KT 6000 SCT005 ","updated":"2025-10-17T06:26:24Z"}
