{"icao":"KLAX","taf":"TAF KLAX 060520Z 0606/0712 25007KT P6SM BKN150 ","updated":"2026-04-06T05:22:26Z"}
