{"icao":"KLAX","taf":"TAF KLAX 261137Z 2612/2718 VRB03KT P6SM SKC ","updated":"2025-11-26T13:34:06Z"}
