{"icao":"LPMT","taf":"TAF LPMT 131704Z 1318/1418 30012KT 9999 SCT020 ","updated":"2026-02-13T20:36:40Z"}
