{"icao":"KJFK","taf":"TAF KJFK 031137Z 0312/0418 08005KT 2SM -DZ BR OVC005 ","updated":"2026-04-03T14:40:42Z"}
