{"icao":"LPFR","taf":"TAF LPFR 151700Z 1518/1618 22010KT CAVOK ","updated":"2026-03-16T02:22:19Z"}
