{"icao":"LPAZ","taf":"TAF LPAZ 180500Z 1806/1912 23013KT 9999 SCT006 SCT012 ","updated":"2025-10-18T06:24:15Z"}
