{"icao":"LPFR","taf":"TAF LPFR 241100Z 2412/2512 20005KT 9999 FEW030 ","updated":"2025-10-24T11:15:40Z"}
