{"icao":"LPMR","taf":"TAF TAF LPMR 031700Z 0318/0418 27005KT CAVOK PROB40 ","updated":"2025-11-04T04:20:47Z"}
