{"icao":"LPPS","taf":"TAF LPPS 141700Z 1418/1524 04012KT 9999 FEW015 BKN030 ","updated":"2025-09-15T01:23:16Z"}
