{"icao":"KORD","taf":"TAF KORD 271724Z 2718/2824 34013KT P6SM FEW040 BKN060 ","updated":"2026-03-27T17:49:15Z"}
