{"icao":"KJFK","taf":"TAF KJFK 151724Z 1518/1624 06007KT P6SM SCT070 BKN200 ","updated":"2026-02-15T18:35:31Z"}
