{"icao":"LPMR","taf":"TAF TAF LPMR 100502Z 1006/1106 18010KT 9999 FEW015 SCT030 ","updated":"2025-11-10T08:27:08Z"}
