{"icao":"KORD","taf":"TAF KORD 150520Z 1506/1612 21011KT P6SM SCT150 BKN250 ","updated":"2025-11-15T06:25:31Z"}
