{"icao":"LPBJ","taf":"TAF TAF LPBJ 070511Z 0706/0806 29005KT CAVOK ","updated":"2026-06-07T07:53:23Z"}
