{"icao":"KORD","taf":"TAF KORD 191726Z 1918/2024 28016G27KT P6SM FEW025 ","updated":"2026-01-19T18:31:03Z"}
