{"icao":"LPBJ","taf":"TAF TAF LPBJ 271706Z 2718/2818 02008KT CAVOK ","updated":"2026-04-27T17:20:28Z"}
