{"icao":"LPMT","taf":"TAF LPMT 051707Z 0518/0618 33010KT CAVOK ","updated":"2026-05-06T02:42:47Z"}
