{"icao":"KLAX","taf":"TAF COR KLAX 101458Z 1015/1118 VRB03KT P6SM FEW080 FEW100 SCT250 ","updated":"2025-10-10T16:21:39Z"}
