{"icao":"LPMR","taf":"TAF TAF LPMR 281703Z 2818/2918 34015KT CAVOK ","updated":"2026-03-28T17:27:29Z"}
