{"icao":"KORD","taf":"TAF KORD 011120Z 0112/0218 25004KT P6SM SKC ","updated":"2026-02-01T14:24:56Z"}
