{"icao":"KORD","taf":"TAF KORD 300520Z 3006/3112 29011KT P6SM FEW018 ","updated":"2025-12-30T08:28:09Z"}
