{"icao":"KLAX","taf":"TAF KLAX 281137Z 2812/2918 VRB03KT P6SM OVC040 ","updated":"2025-09-28T13:20:44Z"}
