{"icao":"LPLA","taf":"TAF LPLA 171112Z 1712/1812 23018KT 6000 -RADZ FEW008 BKN015 PROB40 ","updated":"2025-12-17T12:41:56Z"}
