{"icao":"KJFK","taf":"TAF KJFK 281124Z 2812/2918 33009KT P6SM SCT100 BKN200 ","updated":"2026-05-28T11:37:51Z"}
