{"icao":"LPMT","taf":"TAF LPMT 151705Z 1518/1618 36005KT CAVOK","updated":"2026-04-15T21:51:08Z"}
