{"icao":"LPPT","taf":"TAF LPPT 231100Z 2312/2418 VRB05KT CAVOK ","updated":"2026-02-23T15:43:57Z"}
