{"icao":"LPFR","taf":"TAF LPFR 101700Z 1018/1118 01008KT 9999 FEW012 PROB30 ","updated":"2025-12-10T19:17:00Z"}
