{"icao":"LPLA","taf":"TAF LPLA 280504Z 2806/2906 35015KT 9999 FEW025 BKN030 ","updated":"2025-10-28T06:28:28Z"}
