{"icao":"LPFR","taf":"TAF LPFR 200500Z 2006/2106 VRB02KT CAVOK ","updated":"2026-04-20T10:46:42Z"}
