{"icao":"LPPT","taf":"TAF LPPT 141700Z 1418/1524 23013KT 9999 SCT018 ","updated":"2025-11-14T21:16:37Z"}
