{"icao":"KLAX","taf":"TAF KLAX 240529Z 2406/2512 23006KT P6SM BKN015 ","updated":"2026-01-24T06:30:15Z"}
