{"icao":"KLAX","taf":"TAF KLAX 251122Z 2512/2618 VRB03KT 6SM BR VCFG SCT004 ","updated":"2025-11-25T14:19:07Z"}
