{"icao":"LPPD","taf":"TAF LPPD 301100Z 3012/0112 34008KT 9999 FEW015 BKN030 ","updated":"2025-11-30T17:15:28Z"}
