{"icao":"KLAX","taf":"TAF KLAX 091120Z 0912/1018 VRB03KT P6SM SKC ","updated":"2025-12-09T14:20:59Z"}
