{"icao":"KJFK","taf":"TAF KJFK 111122Z 1112/1218 30021G30KT P6SM FEW030 FEW250 ","updated":"2025-12-11T13:38:12Z"}
