{"icao":"LPPR","taf":"TAF LPPR 170500Z 1706/1806 21008KT 8000 SCT003 BKN006 ","updated":"2026-02-17T05:56:29Z"}
