{"icao":"KLAX","taf":"TAF KLAX 081146Z 0812/0918 08004KT P6SM SKC ","updated":"2026-02-08T14:26:33Z"}
