{"icao":"LPBJ","taf":"TAF TAF LPBJ 301706Z 3018/3118 04010KT CAVOK ","updated":"2026-03-31T02:12:57Z"}
