{"icao":"LPPR","taf":"TAF LPPR 281700Z 2818/2918 VRB02KT CAVOK ","updated":"2025-12-29T03:47:38Z"}
