{"icao":"LPPT","taf":"TAF LPPT 180500Z 1806/1912 32008KT 9999 FEW015 ","updated":"2026-06-18T08:45:04Z"}
