{"icao":"LPMT","taf":"TAF LPMT 070506Z 0706/0806 35005KT CAVOK ","updated":"2026-05-07T06:08:53Z"}
