{"icao":"LPLA","taf":"TAF LPLA 251704Z 2518/2618 VRB05KT 9999 SCT020 ","updated":"2026-04-25T18:51:02Z"}
