{"icao":"LPMA","taf":"TAF LPMA 291700Z 2918/3018 01010KT 9999 SCT015 ","updated":"2025-11-30T03:25:38Z"}
