{"icao":"LPPD","taf":"TAF LPPD 080500Z 0806/0906 34015KT 9999 FEW020 SCT030 ","updated":"2026-05-08T07:28:17Z"}
