{"icao":"LPMT","taf":"TAF LPMT 021700Z 0218/0318 34010KT CAVOK ","updated":"2025-10-02T17:12:59Z"}
