{"icao":"LPOV","taf":"TAF LPOV 171706Z 1718/1818 35010KT 9999 FEW040 ","updated":"2025-11-17T17:17:43Z"}
