{"icao":"LPMA","taf":"TAF LPMA 241700Z 2418/2518 VRB05KT 9999 SCT015 BKN030 ","updated":"2026-02-24T23:30:34Z"}
