{"icao":"LPLA","taf":"TAF LPLA 041102Z 0412/0512 36010KT 9999 FEW022 SCT030 PROB30 ","updated":"2026-01-04T13:28:36Z"}
