{"icao":"KLAX","taf":"TAF KLAX 301742Z 3018/0124 27012KT P6SM FEW020 SCT035 ","updated":"2026-06-30T19:54:37Z"}
