{"icao":"LPPT","taf":"TAF LPPT 191100Z 1912/2018 22013KT 9999 SCT018 ","updated":"2025-10-19T14:14:36Z"}
