{"icao":"LPAZ","taf":"TAF TAF LPAZ 231100Z 2312/2418 19008KT 2000 BR SCT002 BKN004 ","updated":"2026-05-23T14:59:36Z"}
