{"icao":"LPMT","taf":"TAF LPMT 070510Z 0706/0806 36008KT CAVOK ","updated":"2026-06-07T10:27:37Z"}
