{"icao":"KORD","taf":"TAF KORD 050520Z 0506/0612 20013G23KT P6SM SCT200 WS015/24045KT ","updated":"2025-11-05T08:25:33Z"}
