{"icao":"KLAX","taf":"TAF KLAX 260542Z 2606/2712 25006KT P6SM SCT250 ","updated":"2026-02-26T07:02:37Z"}
