{"icao":"KJFK","taf":"TAF KJFK 091720Z 0918/1024 32012KT P6SM SCT250 ","updated":"2026-02-09T17:53:21Z"}
