{"icao":"KJFK","taf":"TAF KJFK 211727Z 2118/2224 32011KT P6SM BKN040 ","updated":"2026-02-21T20:23:57Z"}
