{"icao":"KORD","taf":"TAF KORD 241722Z 2418/2524 15009KT P6SM SCT030 BKN250 ","updated":"2025-12-24T19:15:11Z"}
