{"icao":"LPPT","taf":"TAF LPPT 070500Z 0706/0812 33012KT CAVOK ","updated":"2026-03-07T07:27:24Z"}
