{"icao":"KORD","taf":"TAF KORD 191133Z 1912/2018 29020G30KT 6SM -SHSN SCT015 BKN025 ","updated":"2026-01-19T13:44:23Z"}
