{"icao":"KLAX","taf":"TAF KLAX 151120Z 1512/1618 VRB03KT P6SM SCT025 BKN250 ","updated":"2026-02-15T14:26:43Z"}
