{"icao":"LPLA","taf":"TAF LPLA 171705Z 1718/1818 21012KT 9999 FEW008 SCT014 BKN020 ","updated":"2025-10-18T03:27:06Z"}
