{"icao":"LPBJ","taf":"TAF TAF LPBJ 111704Z 1118/1218 04008KT CAVOK PROB30 1204/1209 VRB02KT 2000 BCFG SCT004 ","updated":"2026-03-12T02:01:05Z"}
