{"icao":"KORD","taf":"TAF KORD 201720Z 2018/2124 27018G30KT P6SM OVC020 ","updated":"2026-02-20T18:45:19Z"}
