{"icao":"LPMA","taf":"TAF LPMA 141700Z 1418/1518 VRB05KT 9999 SCT015 PROB30 ","updated":"2025-11-15T03:06:04Z"}
