{"icao":"LPPT","taf":"TAF LPPT 110500Z 1106/1212 13005KT 0100 DZ FG VV001 ","updated":"2025-11-11T08:24:32Z"}
