{"icao":"LPMT","taf":"TAF LPMT 161707Z 1618/1718 36008KT CAVOK ","updated":"2026-04-16T21:41:35Z"}
