{"icao":"LPMA","taf":"TAF LPMA 171100Z 1712/1812 04012KT 9999 SCT015","updated":"2025-09-17T15:18:12Z"}
