{"icao":"LPBJ","taf":"TAF TAF LPBJ 070507Z 0706/0806 19010KT 9999 SCT025 ","updated":"2026-02-07T08:30:04Z"}
