{"icao":"LPBJ","taf":"TAF TAF LPBJ 161709Z 1618/1718 25010KT 9999 SCT030 ","updated":"2025-11-16T23:16:07Z"}
