{"icao":"KLAX","taf":"TAF KLAX 150533Z 1506/1612 25010KT P6SM SKC ","updated":"2026-04-15T07:43:40Z"}
