{"icao":"LPFR","taf":"TAF TAF LPFR 032002Z 0320/0418 31015KT CAVOK ","updated":"2026-06-03T23:41:39Z"}
