{"icao":"LPMA","taf":"TAF LPMA 290500Z 2906/3006 01010KT 9999 SCT015 SCT030 PROB40 ","updated":"2025-11-29T11:14:44Z"}
