{"icao":"LPPD","taf":"TAF LPPD 080500Z 0806/0906 21013KT 9999 SCT015 BKN035 ","updated":"2025-11-08T06:25:15Z"}
