{"icao":"KLAX","taf":"TAF KLAX 121727Z 1218/1324 31005KT P6SM SCT250 ","updated":"2026-02-12T17:57:13Z"}
