{"icao":"LPPT","taf":"TAF TAF LPPT 151100Z 1512/1618 23012KT 8000 -RA SCT012 BKN025 ","updated":"2025-12-15T12:43:38Z"}
