{"icao":"KLAX","taf":"TAF KLAX 110523Z 1106/1212 VRB03KT P6SM SKC ","updated":"2025-12-11T08:28:38Z"}
