{"icao":"LPPT","taf":"TAF LPPT 301700Z 3018/0124 34008KT CAVOK ","updated":"2025-11-30T23:17:02Z"}
