{"icao":"LPMT","taf":"TAF LPMT 071703Z 0718/0818 34010KT CAVOK PROB30 0802/0808 BKN020 PROB40 ","updated":"2026-06-07T22:02:17Z"}
