{"icao":"LPPT","taf":"TAF LPPT 300500Z 3006/0112 23005KT 9999 SCT012 ","updated":"2026-04-30T10:53:59Z"}
