{"icao":"KJFK","taf":"TAF KJFK 091123Z 0912/1018 VRB05KT P6SM SCT015 ","updated":"2026-04-09T13:47:43Z"}
