{"icao":"LPOV","taf":"TAF LPOV 081700Z 0818/0918 33008KT 9999 FEW015 ","updated":"2025-10-09T03:35:13Z"}
