{"icao":"LPMR","taf":"TAF TAF LPMR 211707Z 2118/2218 33005KT CAVOK ","updated":"2026-05-21T19:55:59Z"}
