{"icao":"KORD","taf":"TAF KORD 260520Z 2606/2712 24003KT P6SM SKC ","updated":"2025-09-26T07:17:17Z"}
