{"icao":"LPMT","taf":"TAF LPMT 191100Z 1912/2012 04005KT CAVOK ","updated":"2026-06-19T15:12:02Z"}
