{"icao":"LPPR","taf":"TAF LPPR 191100Z 1912/2012 19017KT 5000 -RADZ BR SCT008 BKN015 ","updated":"2025-10-19T12:32:57Z"}
