{"icao":"KJFK","taf":"TAF KJFK 151728Z 1518/1624 35015G24KT P6SM SCT120 ","updated":"2025-10-15T18:26:54Z"}
