{"icao":"LPPD","taf":"TAF LPPD 291700Z 2918/3018 04008KT 9999 SCT020 ","updated":"2026-06-30T05:01:33Z"}
