{"icao":"KORD","taf":"TAF KORD 280539Z 2806/2912 05006KT P6SM FEW025 SCT035 BKN050 ","updated":"2026-06-28T07:49:44Z"}
