{"icao":"LPLA","taf":"TAF LPLA 051104Z 0512/0612 14008KT 9999 FEW020 SCT035 PROB40 ","updated":"2026-01-05T14:23:21Z"}
