{"icao":"LPLA","taf":"TAF LPLA 020509Z 0206/0306 08010KT 9999 FEW010 SCT020 ","updated":"2026-05-02T05:35:47Z"}
