{"icao":"KJFK","taf":"TAF KJFK 111723Z 1118/1224 29017G27KT P6SM OVC050 ","updated":"2026-02-11T19:01:41Z"}
