{"icao":"LPMA","taf":"TAF LPMA 021100Z 0212/0312 VRB05KT 9999 SCT015 PROB40 0212/0218 18010KT BKN015 ","updated":"2026-05-02T16:44:15Z"}
