{"icao":"LPMR","taf":"TAF LPMR 220506Z 2206/2306 VRB02KT CAVOK ","updated":"2026-05-22T07:42:50Z"}
