{"icao":"LPFR","taf":"TAF LPFR 260500Z 2606/2706 29007KT 9999 BKN015 PROB30 ","updated":"2026-06-26T09:22:30Z"}
