{"icao":"KORD","taf":"TAF KORD 270520Z 2706/2812 VRB04KT P6SM SKC ","updated":"2025-09-27T08:20:14Z"}
