{"icao":"LPOV","taf":"TAF LPOV 171105Z 1712/1812 18007KT 9999 FEW020 SCT045 ","updated":"2026-01-17T15:18:20Z"}
