{"icao":"LPPR","taf":"TAF LPPR 071700Z 0718/0818 30010KT 9999 SCT020 ","updated":"2025-11-07T20:18:15Z"}
