{"icao":"LPLA","taf":"TAF LPLA 211701Z 2118/2218 24015KT 9999 FEW015 SCT020 ","updated":"2025-10-21T17:16:50Z"}
