{"icao":"LPPS","taf":"TAF LPPS 061700Z 0618/0724 03013KT 9999 SCT015 ","updated":"2026-01-06T17:22:17Z"}
