{"icao":"LPMR","taf":"TAF TAF LPMR 301107Z 3012/0112 36012KT 9999 FEW025 PROB40 ","updated":"2025-11-30T16:21:44Z"}
