{"icao":"LPLA","taf":"TAF LPLA 070506Z 0706/0806 32012KT 9999 SCT025 ","updated":"2026-04-07T09:00:40Z"}
