{"icao":"KLAX","taf":"TAF KLAX 010540Z 0106/0212 26012KT P6SM SKC ","updated":"2025-10-01T08:24:13Z"}
