{"icao":"KJFK","taf":"TAF KJFK 090528Z 0906/1012 14005KT P6SM BKN080 ","updated":"2026-05-09T05:47:17Z"}
