{"icao":"LPOV","taf":"TAF LPOV 170504Z 1706/1806 VRB02KT 0200 FG BKN001 PROB30 ","updated":"2025-10-17T08:24:27Z"}
