{"icao":"KJFK","taf":"TAF KJFK 071120Z 0712/0818 27010KT P6SM FEW100 ","updated":"2026-06-07T12:19:54Z"}
