{"icao":"LPMA","taf":"TAF LPMA 171100Z 1712/1812 02012KT 9999 SCT015 PROB40 1712/1718 20010KT ","updated":"2026-06-17T11:45:52Z"}
