{"icao":"KLAX","taf":"TAF KLAX 110537Z 1106/1212 25005KT P6SM BKN010 ","updated":"2026-05-11T06:46:03Z"}
