{"icao":"LPAZ","taf":"TAF TAF LPAZ 010500Z 0106/0212 06007KT 9999 FEW012 BKN025 ","updated":"2026-04-01T10:54:25Z"}
