{"icao":"LPST","taf":"TAF LPST 090803Z 0909/0918 26008KT 6000 -RA SCT008 BKN014 ","updated":"2026-02-09T11:42:40Z"}
