{"icao":"LPBJ","taf":"TAF TAF LPBJ 210504Z 2106/2206 06005KT CAVOK","updated":"2026-02-21T10:24:28Z"}
