{"icao":"KLAX","taf":"TAF KLAX 101126Z 1012/1118 25005KT P6SM BKN008 OVC012 ","updated":"2026-04-10T11:47:45Z"}
