{"icao":"KJFK","taf":"TAF KJFK 060520Z 0606/0712 21003KT P6SM FEW250 ","updated":"2026-06-06T06:34:22Z"}
