{"icao":"LPOV","taf":"TAF LPOV 271704Z 2718/2818 06008KT 9999 FEW020 ","updated":"2025-12-27T17:16:02Z"}
