{"icao":"LPPT","taf":"TAF LPPT 161700Z 1618/1724 30008KT CAVOK ","updated":"2025-10-16T18:25:44Z"}
