{"icao":"KLAX","taf":"TAF KLAX 131739Z 1318/1424 26008KT P6SM SCT025 BKN035 ","updated":"2026-05-13T20:44:09Z"}
