{"icao":"KORD","taf":"TAF KORD 101738Z 1018/1124 36010KT P6SM BKN015 OVC025 ","updated":"2026-04-10T18:51:19Z"}
