{"icao":"KORD","taf":"TAF KORD 310526Z 3106/0112 19013G23KT P6SM FEW050 BKN080 OVC120 WS020/24045KT PROB30 3108/3111 2SM TSRA BKN045CB ","updated":"2026-03-31T07:12:02Z"}
