{"icao":"LPPR","taf":"TAF LPPR 281100Z 2812/2912 14010KT 9999 BKN030 ","updated":"2025-10-28T16:24:23Z"}
