{"icao":"KORD","taf":"TAF KORD 151120Z 1512/1618 25004KT P6SM BKN120 ","updated":"2026-02-15T13:43:35Z"}
