{"icao":"LPOV","taf":"TAF LPOV 021703Z 0218/0318 22012KT 9999 FEW022 SCT030 ","updated":"2026-05-02T17:41:37Z"}
