{"icao":"LPPR","taf":"TAF LPPR 140500Z 1406/1506 VRB02KT 6000 SCT004 BKN008 ","updated":"2025-09-14T11:11:41Z"}
