{"icao":"LPMA","taf":"TAF LPMA 291700Z 2918/3018 01013KT 9999 SCT015 SCT030 PROB30 ","updated":"2025-09-29T22:14:52Z"}
