{"icao":"KJFK","taf":"TAF KJFK 061144Z 0612/0718 01006KT P6SM BKN200 ","updated":"2026-02-06T14:03:17Z"}
