{"icao":"LPAZ","taf":"TAF LPAZ 111700Z 1118/1224 24010KT 6000 SCT006 SCT012 ","updated":"2026-02-11T19:01:28Z"}
