{"icao":"KJFK","taf":"TAF KJFK 161730Z 1618/1724 19012G20KT P6SM FEW050 FEW250 ","updated":"2026-05-16T19:01:51Z"}
