{"icao":"LPPD","taf":"TAF LPPD 150500Z 1506/1606 23013KT 9999 SCT015 ","updated":"2025-10-15T09:19:38Z"}
