{"icao":"KLAX","taf":"TAF KLAX 120547Z 1206/1312 26006KT P6SM OVC008 ","updated":"2026-06-12T08:23:57Z"}
