{"icao":"KORD","taf":"TAF KORD 190544Z 1906/2012 19011G18KT P6SM SCT090 BKN200 ","updated":"2026-05-19T08:33:57Z"}
