{"icao":"LPBJ","taf":"TAF TAF LPBJ 110504Z 1106/1206 VRB02KT 0500 FG FEW003 PROB40 1106/1110 0200 BKN002 ","updated":"2026-01-11T10:19:52Z"}
