{"icao":"KLAX","taf":"TAF KLAX 311721Z 3118/0124 04007KT P6SM SKC ","updated":"2026-01-31T18:30:38Z"}
