{"icao":"LPBJ","taf":"TAF TAF LPBJ 191100Z 1912/2012 30006KT 9999 SCT015","updated":"2025-11-19T15:20:00Z"}
