{"icao":"LPPT","taf":"TAF LPPT 111106Z 1112/1218 VRB02KT 2000 -RADZ BR SCT001 BKN003 ","updated":"2026-01-11T11:16:40Z"}
