{"icao":"LPAZ","taf":"TAF LPAZ 211100Z 2112/2218 18012KT 9999 SCT025 SCT040 PROB30 ","updated":"2026-02-21T16:27:43Z"}
