{"icao":"KLAX","taf":"TAF KLAX 181721Z 1818/1924 VRB03KT P6SM BKN250 ","updated":"2026-01-18T18:26:52Z"}
