{"icao":"LPPD","taf":"TAF TAF LPPD 231700Z 2318/2418 03013KT 9999 SCT025 ","updated":"2026-03-23T21:35:22Z"}
