{"icao":"LPLA","taf":"TAF LPLA 160506Z 1606/1706 VRB05KT 9999 FEW025 SCT035 ","updated":"2025-11-16T06:26:30Z"}
