{"icao":"LPBJ","taf":"TAF TAF LPBJ 280506Z 2806/2906 36005KT CAVOK PROB40 2806/2808 1200 BCFG ","updated":"2025-11-28T05:19:18Z"}
