{"icao":"KJFK","taf":"TAF KJFK 091138Z 0912/1018 14007KT P6SM SCT080 BKN250 ","updated":"2025-11-09T14:14:46Z"}
