{"icao":"KORD","taf":"TAF KORD 271720Z 2718/2824 30018G27KT P6SM SCT025 BKN035 ","updated":"2026-01-27T20:22:06Z"}
