{"icao":"KLAX","taf":"TAF KLAX 260552Z 2606/2712 22008KT 6SM BR OVC006 ","updated":"2026-03-26T07:06:51Z"}
