{"icao":"LPFR","taf":"TAF LPFR 021700Z 0218/0318 15018KT 9999 FEW020 SCT040 ","updated":"2026-01-02T17:16:43Z"}
