{"icao":"LPMR","taf":"TAF TAF LPMR 271101Z 2712/2812 01010KT CAVOK ","updated":"2026-03-27T14:48:37Z"}
