{"icao":"KORD","taf":"TAF KORD 311145Z 3112/0118 28010KT P6SM OVC015 ","updated":"2025-12-31T13:31:51Z"}
