{"icao":"LPMR","taf":"TAF TAF LPMR 251702Z 2518/2618 34005KT CAVOK ","updated":"2026-04-25T17:35:45Z"}
