{"icao":"LPBJ","taf":"TAF TAF LPBJ 021707Z 0218/0318 24012KT 9999 FEW015 SCT022 ","updated":"2026-02-03T02:02:49Z"}
