{"icao":"LPOV","taf":"TAF LPOV 121704Z 1218/1318 35007KT CAVOK ","updated":"2026-06-12T19:03:11Z"}
