{"icao":"LPFR","taf":"TAF LPFR 251700Z 2518/2618 34008KT CAVOK ","updated":"2025-11-26T01:24:26Z"}
