{"icao":"LPPS","taf":"TAF LPPS 110500Z 1106/1212 03008KT 9999 SCT015 BKN030= TAF LPPT 110500Z 1106/1212 06008KT CAVOK ","updated":"2025-10-11T05:16:02Z"}
