{"icao":"LPMT","taf":"TAF TAF LPMT 091105Z 0912/1012 24010KT 6000 -RA SCT004 BKN008 ","updated":"2026-02-09T11:42:42Z"}
