{"icao":"LPMT","taf":"TAF LPMT 041105Z 0412/0512 24013KT 6000 -RA SCT008 BKN025 ","updated":"2026-02-04T11:31:54Z"}
