{"icao":"KJFK","taf":"TAF KJFK 090536Z 0906/1012 33013KT P6SM SKC ","updated":"2026-02-09T07:56:44Z"}
