{"icao":"KORD","taf":"TAF KORD 090520Z 0906/1012 22018G30KT P6SM FEW020 BKN080 ","updated":"2026-01-09T08:30:06Z"}
