{"icao":"LPPT","taf":"TAF LPPT 010500Z 0106/0212 33012KT CAVOK ","updated":"2026-07-01T08:11:00Z"}
