{"icao":"LPBJ","taf":"TAF TAF LPBJ 031707Z 0318/0418 36010KT CAVOK ","updated":"2026-04-04T02:03:38Z"}
