{"icao":"LPMT","taf":"TAF LPMT 310501Z 3106/0106 34008KT CAVOK ","updated":"2026-05-31T10:14:10Z"}
