{"icao":"LPOV","taf":"TAF LPOV 010503Z 0106/0206 15008KT 7000 -RA SCT020 ","updated":"2025-11-01T10:17:06Z"}
