{"icao":"LPBJ","taf":"TAF TAF LPBJ 131103Z 1312/1412 VRB02KT CAVOK ","updated":"2025-10-13T13:28:45Z"}
