{"icao":"LPFR","taf":"TAF LPFR 171100Z 1712/1812 29005KT 9999 SCT030 ","updated":"2026-01-17T13:27:46Z"}
