{"icao":"LPAZ","taf":"TAF TAF LPAZ 111100Z 1112/1218 24012KT 6000 SCT006 SCT012 ","updated":"2026-02-11T15:59:54Z"}
