{"icao":"KLAX","taf":"TAF KLAX 080546Z 0806/0912 26006KT P6SM FEW015 FEW250 ","updated":"2026-06-08T05:48:46Z"}
