{"icao":"LPPD","taf":"TAF LPPD 290500Z 2906/3006 06010KT 9999 FEW015 BKN030 ","updated":"2026-03-29T08:38:10Z"}
