{"icao":"LPMA","taf":"TAF LPMA 141100Z 1412/1512 24013KT 9999 SCT015 PROB30 ","updated":"2025-11-14T16:23:40Z"}
