{"icao":"LPPR","taf":"TAF LPPR 071700Z 0718/0818 29008KT 9999 SCT015 ","updated":"2026-05-07T23:01:00Z"}
