{"icao":"KLAX","taf":"TAF KLAX 231720Z 2318/2424 26005KT P6SM SCT250 ","updated":"2026-04-23T19:06:17Z"}
