{"icao":"LPFR","taf":"TAF LPFR 111100Z 1112/1212 25012KT 3000 BR SCT002 BKN004 ","updated":"2026-02-11T11:43:12Z"}
