{"icao":"LPMT","taf":"TAF LPMT 151102Z 1512/1612 35012KT CAVOK PROB30 ","updated":"2026-03-15T11:24:27Z"}
