{"icao":"KJFK","taf":"TAF KJFK 311734Z 3118/0124 27029G43KT P6SM BKN050 ","updated":"2025-10-31T19:13:18Z"}
