{"icao":"KJFK","taf":"TAF KJFK 260541Z 2606/2712 18011KT P6SM FEW025 BKN080 OVC100 WS020/23045KT ","updated":"2026-03-26T07:06:51Z"}
