{"icao":"LPFR","taf":"TAF LPFR 091100Z 0912/1012 12008KT 9999 FEW012 ","updated":"2025-12-09T16:26:33Z"}
