{"icao":"LPPT","taf":"TAF LPPT 270500Z 2706/2812 04012KT CAVOK ","updated":"2026-03-27T09:53:18Z"}
