{"icao":"LPBJ","taf":"TAF TAF LPBJ 030505Z 0306/0406 23005KT 0200 FG BKN002 ","updated":"2026-05-03T05:57:57Z"}
