{"icao":"LPOV","taf":"TAF LPOV 181700Z 1818/1918 16015KT 6000 -RA SCT015 BKN020 ","updated":"2025-12-19T03:22:44Z"}
