{"icao":"KJFK","taf":"TAF KJFK 120535Z 1206/1312 VRB05KT 4SM BR VCSH SCT005 BKN050 OVC070 WS020/21050KT ","updated":"2026-03-12T08:40:37Z"}
