{"icao":"LPAZ","taf":"TAF LPAZ 090500Z 0906/1012 05010KT 9999 FEW025 ","updated":"2026-03-09T07:05:01Z"}
