{"icao":"KJFK","taf":"TAF KJFK 131121Z 1312/1418 04020G30KT 4SM -RA BR SCT009 OVC012 ","updated":"2025-10-13T14:19:07Z"}
