{"icao":"LPFR","taf":"TAF LPFR 051700Z 0518/0618 26015KT 9999 SCT015 PROB30 ","updated":"2025-11-05T18:26:44Z"}
