{"icao":"LPMT","taf":"TAF LPMT 211105Z 2112/2212 35005KT CAVOK ","updated":"2026-06-21T16:44:12Z"}
