{"icao":"LPFR","taf":"TAF LPFR 241700Z 2418/2518 11012KT CAVOK ","updated":"2026-05-25T00:03:09Z"}
