{"icao":"KJFK","taf":"TAF KJFK 141131Z 1412/1518 29011KT P6SM FEW050 ","updated":"2025-11-14T12:38:13Z"}
