{"icao":"KJFK","taf":"TAF KJFK 170537Z 1706/1812 30007KT P6SM SCT060 SCT250 PROB30 1709/1712 -SHRA BKN060 ","updated":"2026-04-17T07:44:29Z"}
