{"icao":"LPPR","taf":"TAF LPPR 261100Z 2612/2712 05007KT CAVOK PROB30 2614/2618 33007KT ","updated":"2025-10-26T15:15:51Z"}
