{"icao":"LPOV","taf":"TAF TAF LPOV 230508Z 2306/2406 TAF LPOV 220500Z 2306/2406 35010KT 9999 FEW025 ","updated":"2025-10-23T07:18:11Z"}
