{"icao":"KJFK","taf":"TAF KJFK 111720Z 1118/1224 33015G24KT P6SM FEW050 ","updated":"2026-04-11T18:42:14Z"}
