{"icao":"KLAX","taf":"TAF KLAX 221120Z 2212/2318 VRB03KT 5SM BR OVC008 ","updated":"2026-03-22T11:22:26Z"}
