{"icao":"LPMA","taf":"TAF LPMA 201700Z 2018/2118 03015KT 9999 SCT015 ","updated":"2025-11-20T18:28:12Z"}
