{"icao":"KORD","taf":"TAF KORD 211720Z 2118/2224 26019G33KT P6SM VCSH SCT025 BKN040 ","updated":"2025-10-21T20:21:10Z"}
