{"icao":"LPLA","taf":"TAF LPLA 271100Z 2712/2812 05007KT 9999 SCT015 BKN025 PROB30 ","updated":"2026-03-27T14:48:40Z"}
