{"icao":"LPPS","taf":"TAF LPPS 240500Z 2406/2512 32015KT 9999 FEW015 SCT030 PROB40 ","updated":"2026-01-24T08:25:38Z"}
