{"icao":"KLAX","taf":"TAF KLAX 111720Z 1118/1224 VRB03KT P6SM SKC ","updated":"2025-12-11T20:22:47Z"}
