{"icao":"LPFR","taf":"TAF LPFR 301700Z 3018/3118 12007KT CAVOK ","updated":"2026-03-30T22:34:09Z"}
