{"icao":"KLAX","taf":"TAF KLAX 041754Z 0418/0524 VRB03KT P6SM SKC ","updated":"2026-02-04T20:33:16Z"}
