{"icao":"KJFK","taf":"TAF KJFK 051146Z 0512/0618 VRB05KT P6SM SCT250 ","updated":"2026-06-05T12:36:02Z"}
