{"icao":"KLAX","taf":"TAF KLAX 211724Z 2118/2224 13007KT P6SM VCSH SCT025 BKN040 ","updated":"2026-04-21T18:06:45Z"}
