{"icao":"LPOV","taf":"TAF LPOV 131104Z 1312/1412 32002KT 9999 SCT040 ","updated":"2026-06-13T12:23:16Z"}
