{"icao":"KLAX","taf":"TAF KLAX 191725Z 1918/2024 11005KT P6SM SCT250 ","updated":"2025-11-19T18:28:05Z"}
