{"icao":"KLAX","taf":"TAF KLAX 111130Z 1112/1218 23008KT P6SM BKN015 OVC030 ","updated":"2026-02-11T11:43:46Z"}
