{"icao":"LPMR","taf":"TAF TAF LPMR 010506Z 0106/0206 14012KT 9999 SCT048 ","updated":"2026-01-01T06:31:59Z"}
