{"icao":"LPLA","taf":"TAF LPLA 260505Z 2606/2706 04015KT 9999 FEW015 BKN025 ","updated":"2025-10-26T08:20:52Z"}
