{"icao":"LPPS","taf":"TAF LPPS 260500Z 2606/2712 22013KT 9999 SCT015 ","updated":"2025-10-26T05:17:08Z"}
