{"icao":"KJFK","taf":"TAF KJFK 110534Z 1106/1212 29005KT 1SM -SHRA DZ BR OVC003 ","updated":"2026-01-11T07:19:43Z"}
