{"icao":"KLAX","taf":"TAF KLAX 291721Z 2918/3024 36005KT P6SM SKC ","updated":"2025-10-29T18:28:03Z"}
