{"icao":"KORD","taf":"TAF KORD 041124Z 0412/0518 22008KT P6SM FEW080 ","updated":"2025-10-04T13:20:14Z"}
