{"icao":"LPOV","taf":"TAF LPOV 301109Z 3012/3112 20018KT 7000 -RA SCT012 BKN020 ","updated":"2026-01-30T16:37:45Z"}
