{"icao":"KORD","taf":"TAF KORD 191720Z 1918/2024 10007KT P6SM FEW050 FEW150 ","updated":"2026-03-19T17:53:14Z"}
