{"icao":"LPLA","taf":"TAF LPLA 041103Z 0412/0512 13010KT 9999 FEW012 SCT018 ","updated":"2026-06-04T11:51:45Z"}
