{"icao":"KJFK","taf":"TAF KJFK 011725Z 0118/0224 18015KT P6SM SCT070 SCT250 ","updated":"2026-07-01T17:53:51Z"}
