{"icao":"KJFK","taf":"TAF KJFK 141739Z 1418/1524 23010KT P6SM BKN050 ","updated":"2026-02-14T18:33:14Z"}
