{"icao":"LPLA","taf":"TAF LPLA 171703Z 1718/1818 01012KT 9999 SCT016 BKN025 ","updated":"2026-04-18T05:05:09Z"}
