{"icao":"KORD","taf":"TAF KORD 201120Z 2012/2118 25011KT P6SM BKN250 ","updated":"2026-03-20T11:31:05Z"}
