{"icao":"KJFK","taf":"TAF KJFK 031137Z 0312/0418 30013G21KT P6SM FEW060 ","updated":"2026-01-03T12:37:38Z"}
