{"icao":"KLAX","taf":"TAF KLAX 150533Z 1506/1612 VRB03KT 6SM BR OVC007 ","updated":"2025-12-15T07:23:38Z"}
