{"icao":"LPPT","taf":"TAF TAF LPPT 101700Z 1018/1124 24008KT 9999 SCT020 ","updated":"2025-11-11T03:12:28Z"}
