{"icao":"LPOV","taf":"TAF LPOV 071103Z 0712/0812 19010KT 9999 FEW015 SCT020 PROB40 ","updated":"2025-12-07T11:14:09Z"}
