{"icao":"LPPT","taf":"TAF LPPT 011700Z 0118/0224 33007KT 9999 FEW012 BKN020 ","updated":"2025-11-01T20:17:11Z"}
