{"icao":"LPOV","taf":"TAF LPOV 101704Z 1018/1118 20010KT 2000 -DZ BKN004 BKN010 ","updated":"2026-02-10T21:40:28Z"}
