{"icao":"LPFR","taf":"TAF LPFR 250500Z 2506/2606 06005KT CAVOK ","updated":"2025-09-25T07:17:26Z"}
