{"icao":"LPAR","taf":"TAF LPAR 231104Z 2312/2321 VRB02KT CAVOK ","updated":"2026-02-25T11:39:19Z"}
