{"icao":"LPST","taf":"TAF LPST 191402Z 1915/1924 34008KT 9999 SCT025 ","updated":"2026-02-21T05:40:10Z"}
