{"icao":"KLAX","taf":"TAF KLAX 181156Z 1812/1918 27020G30KT P6SM -SHRA SCT025 OVC050 ","updated":"2026-02-18T14:41:53Z"}
