{"icao":"LPAZ","taf":"TAF TAF LPAZ 060500Z 0606/0712 31022KT 9999 SCT030 ","updated":"2026-04-06T09:07:08Z"}
