{"icao":"KLAX","taf":"TAF KLAX 160539Z 1606/1712 VRB03KT P6SM SKC ","updated":"2025-10-16T06:27:19Z"}
