{"icao":"LPMR","taf":"TAF TAF LPMR 041105Z 0412/0512 24012KT 7000 -RA SCT010 BKN025 PROB30 ","updated":"2026-02-04T11:31:54Z"}
