{"icao":"LPFR","taf":"TAF LPFR 261700Z 2618/2718 27010KT 9999 FEW030 ","updated":"2026-04-26T23:37:10Z"}
