{"icao":"KLAX","taf":"TAF KLAX 071745Z 0718/0824 26008KT P6SM OVC015 ","updated":"2025-10-07T18:26:38Z"}
