{"icao":"KJFK","taf":"TAF KJFK 081129Z 0812/0918 32020G31KT P6SM FEW030 SCT090 ","updated":"2026-02-08T14:26:33Z"}
