{"icao":"LPPS","taf":"TAF LPPS 091700Z 0918/1024 05012KT 9999 SCT015 ","updated":"2025-10-09T22:15:40Z"}
