{"icao":"LPBJ","taf":"TAF TAF LPBJ 221706Z 2218/2318 VRB02KT CAVOK ","updated":"2026-04-22T22:45:35Z"}
