{"icao":"LPPS","taf":"TAF LPPS 021100Z 0212/0318 03013KT 9999 SCT013","updated":"2026-04-02T16:00:04Z"}
