{"icao":"KLAX","taf":"TAF KLAX 031157Z 0312/0418 07006KT 4SM BR VCFG SCT010 BKN050 ","updated":"2026-01-03T12:37:38Z"}
