{"icao":"LPBJ","taf":"TAF TAF LPBJ 040502Z 0406/0506 31008KT CAVOK PROB30 0406/0408 2000 BCFG BKN004 PROB40 0504/0506 BKN002","updated":"2025-10-04T08:20:13Z"}
