{"icao":"KORD","taf":"TAF KORD 241120Z 2412/2518 17006KT P6SM BKN250 ","updated":"2025-11-24T13:32:40Z"}
