{"icao":"LPLA","taf":"TAF LPLA 111708Z 1118/1218 02010KT 9999 SCT020 BKN035 PROB40 ","updated":"2026-05-11T22:06:33Z"}
