{"icao":"LPFR","taf":"TAF LPFR 030500Z 0306/0406 18015KT 9999 SCT015 SCT030 ","updated":"2026-01-03T10:19:28Z"}
