{"icao":"LPPD","taf":"TAF LPPD 220500Z 2206/2306 21010KT 2000 DZRA BR SCT003 BKN006 ","updated":"2026-05-22T07:42:52Z"}
