{"icao":"KJFK","taf":"TAF KJFK 091120Z 0912/1018 36006KT P6SM SCT200 ","updated":"2025-12-09T13:35:08Z"}
