{"icao":"LPBJ","taf":"TAF TAF LPBJ 030507Z 0306/0406 31005KT CAVOK ","updated":"2026-04-03T07:06:13Z"}
