{"icao":"LPOV","taf":"TAF LPOV 071109Z 0712/0812 32010KT 9999 FEW015 SCT030 ","updated":"2025-11-07T15:18:34Z"}
