{"icao":"KJFK","taf":"TAF KJFK 080538Z 0806/0912 20015G21KT P6SM BKN050 OVC100 ","updated":"2025-10-08T07:17:08Z"}
