{"icao":"LPFR","taf":"TAF LPFR 311700Z 3118/0118 25010KT 9999 SCT030 ","updated":"2026-01-31T20:24:02Z"}
