{"icao":"KJFK","taf":"TAF KJFK 051728Z 0518/0624 20019G27KT P6SM FEW070 FEW150 BKN250 ","updated":"2025-11-05T20:21:22Z"}
