{"icao":"KLAX","taf":"TAF KLAX 241720Z 2418/2524 24006KT P6SM SCT150 ","updated":"2026-04-24T17:49:22Z"}
