{"icao":"LPAZ","taf":"TAF TAF LPAZ 270500Z 2706/2812 03013KT 9999 SCT020 PROB30 ","updated":"2025-09-27T08:20:01Z"}
