{"icao":"LPMT","taf":"TAF LPMT 161103Z 1612/1712 01008KT CAVOK ","updated":"2026-03-16T13:09:16Z"}
