{"icao":"LPLA","taf":"TAF LPLA 071102Z 0712/0812 32018KT 9999 SCT025 BKN035 ","updated":"2026-04-07T16:57:17Z"}
