{"icao":"LPFR","taf":"TAF LPFR 251100Z 2512/2612 11015KT CAVOK PROB30 ","updated":"2026-05-25T13:57:57Z"}
