{"icao":"LPMT","taf":"TAF LPMT 011705Z 0118/0218 29005KT CAVOK ","updated":"2026-04-02T08:54:52Z"}
