{"icao":"KJFK","taf":"TAF KJFK 100540Z 1006/1112 20005KT P6SM FEW250 ","updated":"2026-03-10T05:43:44Z"}
