{"icao":"LPOV","taf":"TAF LPOV 201700Z 2018/2118 34013KT CAVOK ","updated":"2026-06-20T19:23:46Z"}
