{"icao":"LPPS","taf":"TAF TAF LPPS 061700Z 0618/0724 29015KT 9999 SCT015 ","updated":"2026-02-06T19:36:55Z"}
