{"icao":"LPOV","taf":"TAF LPOV 050501Z 0506/0606 VRB02KT 9999 SCT009 BKN014 ","updated":"2026-03-05T06:51:01Z"}
