{"icao":"LPAR","taf":"TAF LPAR 091112Z 0912/0921 03010KT CAVOK ","updated":"2026-04-09T22:39:14Z"}
