{"icao":"LPBJ","taf":"TAF TAF LPBJ 261105Z 2612/2712 06010KT CAVOK PROB40 ","updated":"2026-03-26T13:12:53Z"}
