{"icao":"LPFR","taf":"TAF LPFR 221100Z 2212/2312 24010KT CAVOK ","updated":"2026-04-22T16:57:37Z"}
