{"icao":"KLAX","taf":"TAF KLAX 091159Z 0912/1018 VRB03KT P6SM FEW200 ","updated":"2025-10-09T12:37:54Z"}
