{"icao":"KLAX","taf":"TAF KLAX 190520Z 1906/2012 VRB03KT P6SM FEW005 ","updated":"2025-10-19T08:21:00Z"}
