{"icao":"KLAX","taf":"TAF KLAX 301742Z 3018/0124 11004KT 3SM BR BKN012 ","updated":"2025-11-30T20:20:28Z"}
