{"icao":"LPBJ","taf":"TAF TAF LPBJ 191107Z 1912/2012 30005KT 6000 -RA SCT012 BKN030 ","updated":"2025-12-19T16:25:21Z"}
