{"icao":"LPOV","taf":"TAF LPOV 300507Z 3006/0106 15002KT 0100 FG BKN001 ","updated":"2026-06-30T09:31:53Z"}
