{"icao":"LPPR","taf":"TAF LPPR 201700Z 2018/2118 30007KT CAVOK ","updated":"2026-04-20T22:41:12Z"}
