{"icao":"KLAX","taf":"TAF KLAX 111740Z 1118/1224 24005KT P6SM SCT035 SCT060 ","updated":"2026-04-11T20:32:07Z"}
