{"icao":"KORD","taf":"TAF KORD 160526Z 1606/1712 21012G20KT 3SM -SN BR OVC015 ","updated":"2026-01-16T07:23:48Z"}
