{"icao":"LPOV","taf":"TAF LPOV 211706Z 2118/2218 34005KT CAVOK ","updated":"2026-05-21T17:56:38Z"}
