{"icao":"KLAX","taf":"TAF KLAX 211120Z 2112/2218 VRB03KT P6SM SKC ","updated":"2026-02-21T12:44:21Z"}
