{"icao":"LPBJ","taf":"TAF TAF LPBJ 131105Z 1312/1412 VRB02KT 9999 SCT040 PROB40 ","updated":"2026-05-13T13:09:58Z"}
