{"icao":"LPPR","taf":"TAF LPPR 181100Z 1812/1912 29007KT CAVOK ","updated":"2026-04-18T16:38:48Z"}
