{"icao":"LPLA","taf":"TAF LPLA 141704Z 1418/1518 24012KT 9999 FEW015 SCT022 ","updated":"2026-01-14T23:17:07Z"}
