{"icao":"LPMA","taf":"TAF LPMA 221700Z 2218/2318 02010KT 9999 FEW015 ","updated":"2026-02-22T22:22:56Z"}
