{"icao":"LPAZ","taf":"TAF LPAZ 161100Z 1612/1718 33015KT 9999 SCT025 ","updated":"2026-01-16T14:22:10Z"}
