{"icao":"LPBJ","taf":"TAF TAF LPBJ 071708Z 0718/0818 26005KT 9999 SCT030 ","updated":"2026-04-07T21:40:14Z"}
