{"icao":"KORD","taf":"TAF KORD 211720Z 2118/2224 04007KT P6SM SCT025 OVC150 ","updated":"2025-11-21T20:21:41Z"}
