{"icao":"LPFR","taf":"TAF LPFR 061100Z 0612/0712 26017KT 9999 SCT025 ","updated":"2026-02-06T16:41:57Z"}
