{"icao":"KJFK","taf":"TAF KJFK 230523Z 2306/2412 36035G45KT 1/4SM +SN BLSN FZFG VV003 WS020/02055KT ","updated":"2026-02-23T07:53:37Z"}
