{"icao":"LPOV","taf":"TAF LPOV 271709Z 2718/2818 33005KT CAVOK ","updated":"2026-05-27T23:15:39Z"}
