{"icao":"LPFR","taf":"TAF LPFR 131700Z 1318/1418 28008KT 9999 SCT020 ","updated":"2026-01-13T22:20:50Z"}
