{"icao":"KJFK","taf":"TAF KJFK 191120Z 1912/2018 16021G34KT 6SM SHRA BR SCT008 OVC015 WS015/19060KT ","updated":"2025-12-19T12:39:17Z"}
