{"icao":"LPFR","taf":"TAF LPFR 021700Z 0218/0318 30015KT CAVOK PROB30 ","updated":"2026-06-02T23:43:43Z"}
