{"icao":"LPBJ","taf":"TAF TAF LPBJ 210511Z 2106/2206 22008KT 9999 SCT015 ","updated":"2025-10-21T06:27:23Z"}
