{"icao":"LPOV","taf":"TAF LPOV 061704Z 0618/0718 33012KT 9999 FEW025 ","updated":"2026-05-06T18:14:53Z"}
