{"icao":"KJFK","taf":"TAF KJFK 090536Z 0906/1012 35012KT P6SM SKC ","updated":"2025-10-09T06:27:36Z"}
