{"icao":"LPPT","taf":"TAF LPPT 170500Z 1706/1812 07008KT CAVOK ","updated":"2026-03-17T08:52:38Z"}
