{"icao":"KJFK","taf":"TAF KJFK 270526Z 2706/2812 24012KT P6SM -RA OVC045 ","updated":"2026-03-27T07:05:15Z"}
