{"icao":"LPBJ","taf":"TAF LPBJ 080504Z 0806/0906 33008KT 0100 FG BKN002 ","updated":"2025-11-08T08:21:37Z"}
