{"icao":"KLAX","taf":"TAF KLAX 231120Z 2312/2418 25005KT P6SM BKN090 ","updated":"2026-01-23T12:44:20Z"}
