{"icao":"LPBJ","taf":"TAF TAF LPBJ 250508Z 2506/2606 32010KT CAVOK ","updated":"2025-11-25T07:18:44Z"}
