{"icao":"KORD","taf":"TAF KORD 021130Z 0212/0318 22006KT P6SM SCT050 SCT300 ","updated":"2026-07-02T12:56:46Z"}
