{"icao":"LPMT","taf":"TAF LPMT 260504Z 2606/2706 02005KT 9999 SCT025","updated":"2025-10-26T08:20:50Z"}
