{"icao":"LPBJ","taf":"TAF TAF LPBJ 261101Z 2612/2712 05005KT CAVOK PROB40 2703/2708 2000 BCFG BR SCT002","updated":"2026-02-26T15:52:16Z"}
