{"icao":"LPMT","taf":"TAF LPMT 251707Z 2518/2618 34010KT CAVOK ","updated":"2026-03-25T20:37:30Z"}
