{"icao":"LPMR","taf":"TAF LPMR 150511Z 1506/1606 VRB02KT 0200 FG BKN004 PROB40 1506/1508 BKN002 ","updated":"2026-04-15T09:17:43Z"}
