{"icao":"KLAX","taf":"TAF KLAX 281120Z 2812/2918 11005KT 2SM BR SCT002 ","updated":"2025-11-28T12:38:50Z"}
