{"icao":"KORD","taf":"TAF KORD 271720Z 2718/2824 10014KT P6SM FEW030 FEW250 ","updated":"2025-10-27T20:18:18Z"}
