{"icao":"LPFR","taf":"TAF LPFR 301700Z 3018/3118 27017KT 9999 SCT012 ","updated":"2026-01-30T22:24:10Z"}
