{"icao":"LPMT","taf":"TAF LPMT 181104Z 1812/1912 VRB05KT CAVOK ","updated":"2025-10-18T13:21:26Z"}
