{"icao":"LPMR","taf":"TAF COR TAF COR LPMR 271706Z 2718/2818 34010KT 9999 SCT020 ","updated":"2026-02-27T17:33:58Z"}
