{"icao":"LPMR","taf":"TAF TAF LPMR 010503Z 0106/0206 19005KT 8000 -RA SCT015 BKN020 ","updated":"2025-11-01T06:24:27Z"}
