{"icao":"LPMT","taf":"TAF LPMT 161710Z 1618/1718 31007KT 9999 FEW018 SCT025 ","updated":"2026-01-16T21:19:41Z"}
