{"icao":"LPBJ","taf":"TAF TAF LPBJ 281700Z 2818/2918 28005KT CAVOK ","updated":"2025-11-29T01:22:23Z"}
