{"icao":"LPPR","taf":"TAF LPPR 291700Z 2918/3018 32008KT 9999 SCT015 ","updated":"2025-10-29T17:17:25Z"}
