{"icao":"LPAZ","taf":"TAF TAF LPAZ 011100Z 0112/0218 14008KT 9999 SCT008 SCT015 ","updated":"2025-10-01T15:17:46Z"}
