{"icao":"LPMR","taf":"TAF TAF LPMR 310504Z 3106/0106 VRB02KT CAVOK ","updated":"2026-03-31T07:11:46Z"}
