{"icao":"KLAX","taf":"TAF KLAX 241740Z 2418/2524 12006KT P6SM FEW009 ","updated":"2025-10-24T18:25:17Z"}
