{"icao":"KLAX","taf":"TAF KLAX 171205Z 1712/1818 VRB03KT 3/4SM BR VV002 ","updated":"2025-12-17T13:32:47Z"}
