{"icao":"LPPR","taf":"TAF LPPR 131700Z 1318/1418 22012KT 1500 DZRA BR BKN002 ","updated":"2026-03-14T01:56:30Z"}
