{"icao":"KJFK","taf":"TAF KJFK 150523Z 1506/1612 VRB04KT P6SM FEW150 SCT250 ","updated":"2026-02-15T05:55:09Z"}
