{"icao":"LPPR","taf":"TAF LPPR 060500Z 0606/0706 11007KT CAVOK ","updated":"2026-04-06T09:07:04Z"}
