{"icao":"LPBJ","taf":"TAF TAF LPBJ 171102Z 1712/1812 VRB02KT CAVOK ","updated":"2026-04-17T14:53:57Z"}
