{"icao":"LPMT","taf":"TAF LPMT 091703Z 0918/1018 34008KT 9999 SCT040 ","updated":"2026-01-09T20:23:11Z"}
