{"icao":"LPPS","taf":"TAF LPPS 091100Z 0912/1018 02015KT 9999 SCT014 BKN030 ","updated":"2026-06-09T15:53:32Z"}
