{"icao":"LPMT","taf":"TAF LPMT 310505Z 3106/0106 22010KT 9999 FEW020 SCT040 PROB40 ","updated":"2025-10-31T09:19:39Z"}
