{"icao":"KJFK","taf":"TAF KJFK 031125Z 0312/0418 VRB04KT P6SM BKN250 ","updated":"2025-11-03T12:38:54Z"}
