{"icao":"LPFR","taf":"TAF LPFR 200500Z 2006/2106 30007KT CAVOK ","updated":"2026-01-20T05:27:21Z"}
