{"icao":"LPLA","taf":"TAF LPLA 160506Z 1606/1706 22010KT 9999 SCT015 ","updated":"2026-06-16T09:30:47Z"}
