{"icao":"LPPS","taf":"TAF LPPS 261700Z 2618/2724 06010KT 9999 SCT015 ","updated":"2025-11-27T01:23:28Z"}
