{"icao":"LPLA","taf":"TAF LPLA 070507Z 0706/0806 30018KT 9999 FEW020 BKN025 ","updated":"2026-02-07T08:30:05Z"}
