{"icao":"KORD","taf":"TAF KORD 201120Z 2012/2118 VRB04KT P6SM FEW250 ","updated":"2026-04-20T12:03:17Z"}
