{"icao":"KJFK","taf":"TAF KJFK 150521Z 1506/1612 36014KT P6SM OVC020 ","updated":"2025-10-15T08:25:27Z"}
