{"icao":"LPBJ","taf":"TAF TAF LPBJ 171105Z 1712/1812 30005KT 9999 FEW009 BKN015 ","updated":"2026-02-17T13:00:57Z"}
