{"icao":"KJFK","taf":"TAF KJFK 231728Z 2318/2424 16008KT 6SM -RA BR OVC007 ","updated":"2025-12-23T18:29:22Z"}
