{"icao":"KORD","taf":"TAF KORD 141726Z 1418/1524 03011KT P6SM FEW025 BKN100 ","updated":"2025-10-14T19:14:06Z"}
