{"icao":"LPAZ","taf":"TAF TAF LPAZ 140500Z 1406/1512 31020KT 9999 SCT020 ","updated":"2025-11-14T10:20:56Z"}
