{"icao":"KJFK","taf":"TAF KJFK 241120Z 2412/2518 34013KT P6SM FEW250 ","updated":"2026-03-24T13:09:55Z"}
