{"icao":"LPMT","taf":"TAF LPMT 191705Z 1918/2018 26008KT CAVOK ","updated":"2026-04-19T21:34:32Z"}
