{"icao":"LPST","taf":"TAF LPST 090807Z 0909/0918 31005KT 4000 BR SCT004 SCT012 ","updated":"2026-01-19T14:26:16Z"}
