{"icao":"LPMT","taf":"TAF LPMT 200514Z 2006/2106 VRB02KT 9999 BKN025 ","updated":"2025-10-20T05:18:36Z"}
