{"icao":"KORD","taf":"TAF KORD 231726Z 2318/2424 31013G19KT P6SM FEW025 FEW200 ","updated":"2026-01-23T19:23:33Z"}
