{"icao":"LPMR","taf":"TAF TAF LPMR 230501Z 2306/2406 15005KT 9999 SCT028 PROB40 2306/2308 2000 BR BKN002 PROB40 ","updated":"2025-11-23T06:26:38Z"}
