{"icao":"KJFK","taf":"TAF KJFK 250520Z 2506/2612 11007KT 5SM -SHRA BR OVC007 ","updated":"2025-09-25T08:23:22Z"}
