{"icao":"KLAX","taf":"TAF KLAX 141129Z 1412/1518 11006KT 6SM -RA BR SCT015 BKN022 OVC040 ","updated":"2025-10-14T12:39:20Z"}
