{"icao":"LPMT","taf":"TAF LPMT 230509Z 2306/2406 36005KT CAVOK PROB30 ","updated":"2026-06-23T08:33:07Z"}
