{"icao":"LPPT","taf":"TAF LPPT 011100Z 0112/0218 04012KT CAVOK ","updated":"2026-04-01T11:52:05Z"}
