{"icao":"LPMR","taf":"TAF TAF LPMR 090507Z 0906/1006 33006KT 7000 BKN006 PROB40 0906/0909 3000 BR BKN002 ","updated":"2025-10-09T05:17:19Z"}
