{"icao":"LPFR","taf":"TAF LPFR 251100Z 2512/2612 26008KT 9999 FEW020 SCT030 ","updated":"2025-10-25T12:32:54Z"}
