{"icao":"LPPS","taf":"TAF LPPS 031700Z 0318/0424 07010KT 9999 SCT015 SCT030 ","updated":"2025-10-04T04:19:54Z"}
