{"icao":"LPPT","taf":"TAF LPPT 221700Z 2218/2324 02007KT CAVOK ","updated":"2025-11-22T23:16:41Z"}
