{"icao":"LPPT","taf":"TAF LPPT 010500Z 0106/0212 04010KT CAVOK ","updated":"2026-04-01T07:18:43Z"}
