{"icao":"LPPT","taf":"TAF LPPT 271100Z 2712/2818 05010KT 9999 SCT035 ","updated":"2025-10-27T12:39:13Z"}
