{"icao":"KJFK","taf":"TAF KJFK 031120Z 0312/0418 09005KT P6SM SCT015 OVC025 PROB30 0312/0314 4SM -SN OVC015 ","updated":"2026-03-03T13:59:24Z"}
