{"icao":"LPMA","taf":"TAF LPMA 290500Z 2906/3006 02015KT 9999 SCT015 ","updated":"2026-06-29T10:55:33Z"}
