{"icao":"LPBJ","taf":"TAF TAF LPBJ 051103Z 0512/0612 35012KT CAVOK ","updated":"2026-01-05T15:22:37Z"}
