{"icao":"LPMT","taf":"TAF TAF LPMT 260506Z 2606/2706 36006KT CAVOK PROB30 2703/2706 2000 BR BKN004","updated":"2026-02-26T07:02:34Z"}
