{"icao":"LPPT","taf":"TAF LPPT 160500Z 1606/1712 33008KT 9999 FEW012 PROB30 ","updated":"2026-04-16T05:29:26Z"}
