{"icao":"LPPT","taf":"TAF LPPT 310500Z 3106/0112 06005KT 5000 BR SCT002 ","updated":"2025-12-31T05:23:28Z"}
