{"icao":"LPBJ","taf":"TAF TAF LPBJ 171104Z 1712/1812 17015KT CAVOK ","updated":"2026-03-17T16:04:28Z"}
