{"icao":"KJFK","taf":"TAF KJFK 061739Z 0618/0724 03010KT P6SM OVC012 ","updated":"2026-03-06T18:42:51Z"}
