{"icao":"LPPS","taf":"TAF LPPS 171700Z 1718/1824 31008KT 9999 SCT015 ","updated":"2025-10-17T22:16:10Z"}
