{"icao":"LPAZ","taf":"TAF TAF LPAZ 291100Z 2912/3018 05010KT 9999 SCT025 ","updated":"2026-06-29T14:46:52Z"}
