{"icao":"LPMA","taf":"TAF LPMA 281100Z 2812/2912 01012KT 9999 SCT015","updated":"2025-09-28T15:14:27Z"}
