{"icao":"LPLA","taf":"TAF LPLA 150504Z 1506/1606 20010KT 9999 FEW020 SCT030 ","updated":"2025-10-15T07:18:31Z"}
