{"icao":"LPBJ","taf":"TAF TAF LPBJ 110504Z 1106/1206 24012KT 6000 -DZRA BKN004 BKN012 ","updated":"2026-02-11T06:59:23Z"}
