{"icao":"LPBJ","taf":"TAF TAF LPBJ 020508Z 0206/0306 VRB02KT CAVOK ","updated":"2026-05-02T07:41:53Z"}
