{"icao":"LPMT","taf":"TAF LPMT 311715Z 3118/0118 34008KT CAVOK ","updated":"2026-05-31T22:05:11Z"}
