{"icao":"LPPR","taf":"TAF LPPR 141700Z 1418/1518 32010KT 9999 SCT015 ","updated":"2025-09-14T20:16:31Z"}
