{"icao":"LPOV","taf":"TAF LPOV 131103Z 1312/1412 33010KT CAVOK ","updated":"2025-09-13T15:13:56Z"}
