{"icao":"LPPT","taf":"TAF LPPT 111700Z 1118/1224 30012KT CAVOK ","updated":"2026-06-11T21:17:50Z"}
