{"icao":"LPOV","taf":"TAF LPOV 211103Z 2112/2212 VRB02KT CAVOK ","updated":"2026-05-21T15:21:02Z"}
