{"icao":"LPPT","taf":"TAF LPPT 210500Z 2106/2212 21013KT 9999 SCT008 BKN015 ","updated":"2026-01-21T10:27:27Z"}
