{"icao":"LPPD","taf":"TAF LPPD 081700Z 0818/0918 14012KT 9999 SCT015 ","updated":"2025-10-09T04:21:26Z"}
