{"icao":"LPPT","taf":"TAF LPPT 011700Z 0118/0224 33013KT CAVOK ","updated":"2026-04-01T17:50:19Z"}
