{"icao":"LPFR","taf":"TAF LPFR 021745Z 0218/0318 24008KT CAVOK ","updated":"2025-10-03T04:20:12Z"}
