{"icao":"LPLA","taf":"TAF LPLA 241707Z 2418/2518 23015KT 6000 -RA SCT018 BKN020 ","updated":"2026-01-24T18:28:38Z"}
