{"icao":"KORD","taf":"TAF KORD 070537Z 0706/0812 01007KT 6SM -SHRA BR BKN006 ","updated":"2025-10-07T06:27:01Z"}
