{"icao":"LPMA","taf":"TAF LPMA 081100Z 0812/0912 22017KT 9999 SCT015 ","updated":"2025-12-08T11:17:56Z"}
