{"icao":"KLAX","taf":"TAF KLAX 170542Z 1706/1812 VRB03KT P6SM SKC ","updated":"2025-10-17T07:18:11Z"}
