{"icao":"LPMR","taf":"TAF TAF LPMR 211105Z 2112/2212 33012KT 9999 FEW007 PROB30 ","updated":"2026-06-21T16:44:11Z"}
