{"icao":"LPBJ","taf":"TAF TAF LPBJ 231106Z 2312/2412 29015KT 9999 SCT025 ","updated":"2026-01-23T12:44:03Z"}
