{"icao":"KJFK","taf":"TAF KJFK 270521Z 2706/2812 VRB05KT P6SM SKC ","updated":"2026-04-27T05:52:34Z"}
