{"icao":"KORD","taf":"TAF KORD 201738Z 2018/2124 18016G26KT P6SM FEW250 ","updated":"2025-10-20T18:27:22Z"}
