{"icao":"LPFR","taf":"TAF LPFR 191100Z 1912/2012 23010KT CAVOK ","updated":"2026-01-19T12:47:11Z"}
