{"icao":"KORD","taf":"TAF KORD 061720Z 0618/0724 18011KT P6SM FEW150 BKN250 ","updated":"2025-11-06T18:27:59Z"}
