{"icao":"LPPR","taf":"TAF LPPR 060500Z 0606/0706 35013KT 9999 SCT025 ","updated":"2026-03-06T05:43:27Z"}
