{"icao":"KORD","taf":"TAF KORD 080520Z 0806/0912 19011KT P6SM SCT250 WS010/20045KT ","updated":"2026-01-08T06:33:40Z"}
