{"icao":"KJFK","taf":"TAF KJFK 161741Z 1618/1724 02011KT P6SM FEW025 BKN060 ","updated":"2026-02-16T20:29:32Z"}
