{"icao":"KORD","taf":"TAF KORD 091720Z 0918/1024 33015G25KT P6SM -SN SCT025 BKN035 ","updated":"2025-11-09T18:23:06Z"}
