{"icao":"KLAX","taf":"TAF KLAX 021722Z 0218/0324 12005KT 3SM HZ BKN008 ","updated":"2025-11-02T18:21:51Z"}
