{"icao":"LPPT","taf":"TAF LPPT 101100Z 1012/1118 34015KT CAVOK ","updated":"2026-06-10T16:56:20Z"}
