{"icao":"KLAX","taf":"TAF KLAX 170551Z 1706/1812 18005KT P6SM BKN035 ","updated":"2025-11-17T09:23:41Z"}
