{"icao":"KLAX","taf":"TAF KLAX 290540Z 2906/3012 VRB03KT P6SM SKC ","updated":"2025-09-29T08:25:55Z"}
