{"icao":"LPPT","taf":"TAF LPPT 221700Z 2218/2324 06007KT CAVOK PROB30 ","updated":"2026-02-22T20:25:36Z"}
