{"icao":"LPMT","taf":"TAF LPMT 231705Z 2318/2418 23010KT CAVOK ","updated":"2026-06-23T17:52:06Z"}
