{"icao":"LPLA","taf":"TAF LPLA 040503Z 0406/0506 VRB05KT 9999 BKN040 PROB40 ","updated":"2025-10-04T11:12:39Z"}
