{"icao":"KORD","taf":"TAF KORD 221720Z 2218/2324 32016G26KT P6SM -SN BKN025 OVC035 PROB30 2220/2224 3SM -SN OVC020 ","updated":"2026-02-22T18:33:59Z"}
