{"icao":"KJFK","taf":"TAF KJFK 241720Z 2418/2524 34011KT P6SM SCT150 ","updated":"2026-04-24T17:49:22Z"}
