{"icao":"LPPS","taf":"TAF LPPS 100500Z 1006/1112 04005KT 9999 FEW015 BKN030 ","updated":"2025-11-10T10:21:46Z"}
