{"icao":"KLAX","taf":"TAF KLAX 021120Z 0212/0318 08003KT P6SM FEW008 OVC012 ","updated":"2026-06-02T14:51:38Z"}
