{"icao":"KORD","taf":"TAF KORD 200532Z 2006/2112 VRB03KT P6SM FEW070 BKN110 ","updated":"2025-09-20T06:23:53Z"}
