{"icao":"KJFK","taf":"TAF KJFK 021721Z 0218/0324 27014G23KT P6SM BKN070 ","updated":"2026-01-02T18:29:15Z"}
