{"icao":"LPPD","taf":"TAF LPPD 071100Z 0712/0812 28008KT 8000 SCT006 SCT012 ","updated":"2026-02-07T14:24:32Z"}
