{"icao":"KJFK","taf":"TAF KJFK 221720Z 2218/2324 14009KT P6SM BKN025 OVC060 ","updated":"2026-04-22T18:03:16Z"}
