{"icao":"LPPT","taf":"TAF LPPT 220500Z 2206/2312 03007KT CAVOK ","updated":"2025-11-22T07:16:18Z"}
