{"icao":"KORD","taf":"TAF KORD 241720Z 2418/2524 27012G19KT P6SM SCT025 BKN050 BKN100 PROB30 2418/2422 6SM -SHRA BR BKN030 ","updated":"2026-04-24T19:52:02Z"}
