{"icao":"LPMR","taf":"TAF TAF LPMR 141703Z 1418/1518 18012KT 9999 SCT018 BKN030 ","updated":"2025-11-14T23:16:55Z"}
