{"icao":"KLAX","taf":"TAF KLAX 110524Z 1106/1212 VRB03KT P6SM SKC ","updated":"2025-11-11T07:18:24Z"}
