{"icao":"LPPS","taf":"TAF LPPS 301100Z 3012/0118 06012KT 9999 SCT015 ","updated":"2025-09-30T15:16:44Z"}
