{"icao":"LPOV","taf":"TAF LPOV 151110Z 1512/1612 33012KT CAVOK ","updated":"2025-09-15T15:18:42Z"}
