{"icao":"LPMR","taf":"TAF TAF LPMR 281704Z 2818/2918 15010KT 9999 FEW020 SCT030 ","updated":"2025-10-29T03:14:13Z"}
