{"icao":"KJFK","taf":"TAF KJFK 150521Z 1506/1612 19011KT P6SM BKN050 OVC100 ","updated":"2026-01-15T07:24:20Z"}
