{"icao":"KLAX","taf":"TAF KLAX 051127Z 0512/0618 VRB03KT P6SM SKC ","updated":"2025-10-05T14:13:59Z"}
