{"icao":"LPPD","taf":"TAF LPPD 211100Z 2112/2212 27020KT 9999 SCT015 BKN030 ","updated":"2026-04-21T13:23:54Z"}
