{"icao":"LPBJ","taf":"TAF TAF LPBJ 031700Z 0318/0418 31008KT CAVOK PROB30 0404/0408 2000 BCFG BKN004","updated":"2025-10-04T05:15:26Z"}
