{"icao":"LPBJ","taf":"TAF TAF LPBJ 261104Z 2612/2712 08008KT 9999 FEW030 PROB30 ","updated":"2026-04-26T16:40:49Z"}
