{"icao":"LPPT","taf":"TAF LPPT 250500Z 2506/2612 VRB02KT CAVOK PROB30 ","updated":"2026-05-25T05:18:13Z"}
