{"icao":"LPBJ","taf":"TAF TAF LPBJ 150504Z 1506/1606 19008KT 9999 SCT020 SCT030 ","updated":"2025-11-15T11:13:40Z"}
