{"icao":"KORD","taf":"TAF KORD 181720Z 1818/1924 08010KT P6SM BKN008 OVC010 ","updated":"2025-11-18T18:28:13Z"}
