{"icao":"KLAX","taf":"TAF KLAX 051725Z 0518/0624 34020G30KT P6SM SKC ","updated":"2026-03-05T19:50:43Z"}
