{"icao":"LPBJ","taf":"TAF TAF LPBJ 100504Z 1006/1106 04006KT CAVOK","updated":"2025-10-10T08:23:03Z"}
