{"icao":"KLAX","taf":"TAF KLAX 290541Z 2906/3012 VRB03KT P6SM SKC ","updated":"2026-06-29T05:49:18Z"}
