{"icao":"KLAX","taf":"TAF KLAX 030540Z 0306/0412 VRB03KT P6SM BKN010 ","updated":"2025-11-03T08:26:21Z"}
