{"icao":"LPPT","taf":"TAF LPPT 051700Z 0518/0624 24007KT CAVOK ","updated":"2026-04-05T22:29:16Z"}
