{"icao":"LPPT","taf":"TAF LPPT 201700Z 2018/2124 25007KT CAVOK ","updated":"2026-04-20T17:56:14Z"}
