{"icao":"KORD","taf":"TAF KORD 261720Z 2618/2724 22010KT P6SM BKN060 ","updated":"2026-02-26T19:43:04Z"}
