{"icao":"LPLA","taf":"TAF LPLA 131701Z 1318/1418 31010KT 9999 FEW030 ","updated":"2026-02-14T04:11:49Z"}
