{"icao":"LPLA","taf":"TAF LPLA 220501Z 2206/2306 VRB02KT 9999 FEW025 BKN035","updated":"2025-11-22T10:18:01Z"}
