{"icao":"LPFR","taf":"TAF LPFR 280500Z 2806/2906 08005KT 9999 SCT012 ","updated":"2025-10-28T08:24:50Z"}
