{"icao":"LPBJ","taf":"TAF TAF LPBJ 030506Z 0306/0406 25010KT 9999 FEW015 SCT022 ","updated":"2026-02-03T09:39:24Z"}
