{"icao":"LPBJ","taf":"TAF TAF LPBJ 091705Z 0918/1018 34010KT CAVOK ","updated":"2026-06-09T20:57:18Z"}
