{"icao":"LPOV","taf":"TAF LPOV 081101Z 0812/0912 34015KT CAVOK ","updated":"2026-06-08T14:46:47Z"}
