{"icao":"LPMR","taf":"TAF TAF LPMR 151101Z 1512/1612 34005KT CAVOK PROB30 ","updated":"2025-10-15T14:18:51Z"}
