{"icao":"KORD","taf":"TAF KORD 251720Z 2518/2624 11008KT P6SM SCT050 BKN080 ","updated":"2025-10-25T19:13:19Z"}
