{"icao":"LPOV","taf":"TAF LPOV 161106Z 1612/1712 33008KT 9999 FEW015 ","updated":"2026-04-16T13:27:38Z"}
