{"icao":"LPPR","taf":"TAF LPPR 050500Z 0506/0606 36005KT 9999 SCT012 PROB30 ","updated":"2025-10-05T10:16:09Z"}
