{"icao":"KJFK","taf":"TAF KJFK 141133Z 1412/1518 23006KT 6SM -SHRA BR SCT025 OVC035 ","updated":"2026-05-14T11:51:07Z"}
