{"icao":"KJFK","taf":"TAF KJFK 030534Z 0306/0412 VRB03KT P6SM BKN070 ","updated":"2026-03-03T07:41:13Z"}
