{"icao":"KJFK","taf":"TAF KJFK 291120Z 2912/3018 02014KT P6SM OVC040 ","updated":"2025-10-29T13:31:50Z"}
