{"icao":"LPPD","taf":"TAF LPPD 070500Z 0706/0806 30010KT 9999 SCT018 BKN035 ","updated":"2025-12-07T05:17:20Z"}
