{"icao":"LPFR","taf":"TAF LPFR 181700Z 1818/1918 12008KT CAVOK ","updated":"2025-09-18T22:13:53Z"}
