{"icao":"LPPR","taf":"TAF LPPR 171700Z 1718/1818 VRB02KT 9999 FEW015 ","updated":"2025-10-17T20:19:29Z"}
