{"icao":"KJFK","taf":"TAF KJFK 091141Z 0912/1018 01016G23KT P6SM SKC ","updated":"2025-10-09T12:37:53Z"}
