{"icao":"KLAX","taf":"TAF KLAX 180547Z 1806/1912 VRB03KT P6SM SCT070 BKN120 PROB30 1806/1808 -SHRA ","updated":"2025-09-18T07:16:44Z"}
