{"icao":"KORD","taf":"TAF KORD 051123Z 0512/0618 33009KT P6SM VCSH SCT070 OVC100 ","updated":"2026-05-05T12:00:21Z"}
