{"icao":"LPFR","taf":"TAF LPFR 151100Z 1512/1612 33010KT CAVOK ","updated":"2026-05-15T11:54:53Z"}
