{"icao":"LPMA","taf":"TAF TAF LPMA 091100Z 0912/1012 22022G32KT 9999 FEW008 BKN015 ","updated":"2025-12-09T14:20:58Z"}
