{"icao":"KJFK","taf":"TAF KJFK 271733Z 2718/2824 26019G31KT P6SM SCT050 BKN150 ","updated":"2025-11-27T20:18:37Z"}
