{"icao":"LPLA","taf":"TAF LPLA 030507Z 0306/0406 12005KT 9999 SCT015 BKN028 ","updated":"2026-04-03T07:06:15Z"}
