{"icao":"KLAX","taf":"TAF KLAX 150535Z 1506/1612 08023KT 2SM RA BR BKN045 OVC070 ","updated":"2025-11-15T06:25:31Z"}
