{"icao":"LPPS","taf":"TAF LPPS 231100Z 2312/2418 13008KT 9999 FEW015 PROB30 ","updated":"2026-02-23T11:39:16Z"}
