{"icao":"LPBJ","taf":"TAF TAF LPBJ 160508Z 1606/1706 32008KT CAVOK ","updated":"2026-04-16T11:01:04Z"}
