{"icao":"KLAX","taf":"TAF KLAX 191150Z 1912/2018 05004KT P6SM FEW080 ","updated":"2025-11-19T14:18:53Z"}
