{"icao":"LPLA","taf":"TAF TAF LPLA 011135Z 0112/0212 30020G30KT 9999 SCT012 SCT022 ","updated":"2026-02-01T14:24:41Z"}
