{"icao":"KLAX","taf":"TAF KLAX 120524Z 1206/1312 29005KT P6SM SKC ","updated":"2026-02-12T06:04:58Z"}
