{"icao":"KJFK","taf":"TAF KJFK 041126Z 0412/0518 VRB05KT P6SM SCT250 ","updated":"2026-04-04T13:52:48Z"}
