{"icao":"KORD","taf":"TAF KORD 141120Z 1412/1518 29007KT P6SM FEW300 ","updated":"2026-05-14T14:08:06Z"}
