{"icao":"LPBJ","taf":"TAF TAF LPBJ 191705Z 1918/2018 16008KT CAVOK ","updated":"2026-04-19T23:34:37Z"}
