{"icao":"KORD","taf":"TAF KORD 091137Z 0912/1018 22014G23KT P6SM BKN020 ","updated":"2025-12-09T12:41:33Z"}
