{"icao":"LPPR","taf":"TAF LPPR 171100Z 1712/1812 25005KT CAVOK ","updated":"2025-09-17T16:22:00Z"}
