{"icao":"KJFK","taf":"TAF KJFK 260539Z 2606/2712 01004KT P6SM BKN080 BKN250 ","updated":"2025-10-26T08:21:05Z"}
