{"icao":"LPLA","taf":"TAF LPLA 071108Z 0712/0812 22015KT 6000 -RA SCT015 BKN020 ","updated":"2026-03-07T12:43:52Z"}
