{"icao":"LPBJ","taf":"TAF COR TAF COR LPBJ 090103Z 0900/0924 13010KT 9999 SCT025 ","updated":"2026-05-09T02:43:19Z"}
