{"icao":"LPMA","taf":"TAF LPMA 031700Z 0318/0418 04010KT 9999 SCT015 SCT030","updated":"2025-10-04T01:15:05Z"}
