{"icao":"LPPT","taf":"TAF LPPT 221100Z 2212/2318 VRB05KT CAVOK ","updated":"2026-04-22T16:57:37Z"}
