{"icao":"KORD","taf":"TAF KORD 021720Z 0218/0324 32007KT P6SM SCT100 BKN200 ","updated":"2026-01-02T20:21:25Z"}
