{"icao":"LPMR","taf":"TAF LPMR 200514Z 2006/2106 26005KT 9999 SCT005 PROB30 ","updated":"2025-10-20T05:18:36Z"}
