{"icao":"LPMR","taf":"TAF TAF LPMR 140508Z 1406/1506 34008KT 9999 SCT025 PROB30 ","updated":"2026-05-14T09:33:05Z"}
