{"icao":"LPPR","taf":"TAF LPPR 100500Z 1006/1106 VRB02KT 9999 FEW015 SCT030 PROB30 ","updated":"2025-12-10T08:27:19Z"}
