{"icao":"LPPD","taf":"TAF LPPD 250500Z 2506/2606 VRB05KT 3000 BR SCT002 BKN004 ","updated":"2026-05-25T10:02:06Z"}
