{"icao":"LPMT","taf":"TAF LPMT 271111Z 2712/2812 33005KT CAVOK ","updated":"2026-04-27T13:50:07Z"}
