{"icao":"KLAX","taf":"TAF KLAX 280529Z 2806/2912 VRB03KT P6SM SKC ","updated":"2025-10-28T07:17:45Z"}
