{"icao":"KLAX","taf":"TAF KLAX 061720Z 0618/0724 25008KT P6SM SCT150 ","updated":"2026-05-06T18:15:27Z"}
