{"icao":"LPBJ","taf":"TAF TAF LPBJ 140506Z 1406/1506 31015KT 9999 FEW025 ","updated":"2026-02-14T05:43:01Z"}
