{"icao":"LPFR","taf":"TAF LPFR 010500Z 0106/0206 07005KT CAVOK ","updated":"2025-10-01T05:17:26Z"}
