{"icao":"KLAX","taf":"TAF KLAX 110532Z 1106/1212 26006KT P6SM SKC ","updated":"2026-03-11T06:52:48Z"}
