{"icao":"LPLA","taf":"TAF LPLA 241110Z 2412/2512 23015KT 9999 FEW025 SCT040 ","updated":"2026-01-24T11:16:59Z"}
