{"icao":"LPMT","taf":"TAF LPMT 111107Z 1112/1212 24010KT 6000 -DZ BKN008 ","updated":"2026-02-11T15:59:53Z"}
