{"icao":"LPMT","taf":"TAF LPMT 071702Z 0718/0818 32007KT CAVOK PROB30 ","updated":"2025-10-07T20:19:03Z"}
