{"icao":"KORD","taf":"TAF KORD 031120Z 0312/0418 35007KT P6SM FEW030 SCT100 ","updated":"2026-02-03T14:06:25Z"}
