{"icao":"KLAX","taf":"TAF KLAX 261146Z 2612/2718 VRB03KT 4SM BR OVC008 ","updated":"2025-10-26T13:22:31Z"}
