{"icao":"KORD","taf":"TAF KORD 291722Z 2918/3024 01012G19KT P6SM VCSH SCT020 BKN035 ","updated":"2026-04-29T17:26:58Z"}
