{"icao":"LPPR","taf":"TAF LPPR 011100Z 0112/0212 VRB05KT CAVOK ","updated":"2026-04-01T16:53:18Z"}
