{"icao":"LPFR","taf":"TAF LPFR 071700Z 0718/0818 24008KT CAVOK ","updated":"2025-10-07T23:15:38Z"}
