{"icao":"LPFR","taf":"TAF LPFR 291100Z 2912/3012 26013KT 9999 SCT030 ","updated":"2026-04-29T13:53:04Z"}
