{"icao":"LPPD","taf":"TAF LPPD 271100Z 2712/2812 25025KT 9999 SCT015 BKN025 ","updated":"2026-01-27T12:48:09Z"}
