{"icao":"KJFK","taf":"TAF KJFK 240524Z 2406/2512 35005KT P6SM BKN100 ","updated":"2026-04-24T08:01:49Z"}
