{"icao":"LPPR","taf":"TAF LPPR 190500Z 1906/2006 11005KT CAVOK ","updated":"2026-01-19T08:31:27Z"}
