{"icao":"LPOV","taf":"TAF LPOV 151703Z 1518/1618 VRB02KT 9999 FEW004 ","updated":"2025-10-15T17:16:11Z"}
