{"icao":"LPPT","taf":"TAF TAF LPPT 011100Z 0112/0218 22010KT 5000 -RADZ BR SCT004 BKN008 ","updated":"2026-02-01T16:28:20Z"}
