{"icao":"KJFK","taf":"TAF KJFK 061120Z 0612/0718 19015KT P6SM BKN050 ","updated":"2026-05-06T14:07:28Z"}
