{"icao":"KLAX","taf":"TAF KLAX 101140Z 1012/1118 VRB03KT P6SM FEW080 SCT120 SCT200 ","updated":"2025-10-10T14:17:21Z"}
