{"icao":"LPMT","taf":"TAF LPMT 021701Z 0218/0318 34012KT CAVOK ","updated":"2026-04-03T05:03:30Z"}
