{"icao":"LPLA","taf":"TAF LPLA 111102Z 1112/1212 VRB05KT 9999 FEW025 PROB30 ","updated":"2025-10-11T13:20:29Z"}
