{"icao":"KORD","taf":"TAF KORD 120520Z 1206/1312 VRB04KT P6SM SCT025 OVC100 ","updated":"2025-12-12T06:31:32Z"}
