{"icao":"KORD","taf":"TAF KORD 151120Z 1512/1618 05010KT P6SM VCSH SCT020 OVC035 PROB30 1512/1515 6SM -SHRA BKN020 ","updated":"2025-10-15T12:38:57Z"}
