{"icao":"LPPR","taf":"TAF LPPR 260500Z 2606/2706 03008KT CAVOK ","updated":"2026-03-26T10:00:06Z"}
