{"icao":"LPBJ","taf":"TAF TAF LPBJ 091702Z 0918/1018 17012KT 7000 -RA SCT020 BKN035 ","updated":"2025-12-10T03:21:14Z"}
