{"icao":"LPPD","taf":"TAF LPPD 140500Z 1406/1506 16005KT 9999 SCT018 SCT035 ","updated":"2025-10-14T09:20:03Z"}
