{"icao":"KORD","taf":"TAF KORD 161738Z 1618/1724 20013KT P6SM SCT250 ","updated":"2025-12-16T18:30:49Z"}
