{"icao":"KLAX","taf":"TAF KLAX 300525Z 3006/0112 25006KT P6SM SCT250 ","updated":"2025-11-30T08:22:40Z"}
