{"icao":"LPBJ","taf":"TAF TAF LPBJ 202307Z 2100/2124 16008KT CAVOK ","updated":"2026-04-21T02:30:35Z"}
