{"icao":"LPPR","taf":"TAF LPPR 311100Z 3112/0112 18015KT 8000 -RA SCT008 BKN015 ","updated":"2025-10-31T16:22:36Z"}
