{"icao":"LPPR","taf":"TAF LPPR 030500Z 0306/0406 06008KT 9999 SCT020 ","updated":"2026-03-03T09:40:07Z"}
