{"icao":"LPBJ","taf":"TAF TAF LPBJ 110507Z 1106/1206 16008KT 9000 OVC003 PROB30 1106/1109 0500 FG BKN002 ","updated":"2025-11-11T08:24:34Z"}
