{"icao":"LPPS","taf":"TAF LPPS 181700Z 1818/1924 33005KT 9999 SCT015 ","updated":"2026-02-18T19:47:17Z"}
