{"icao":"LPPT","taf":"TAF LPPT 231100Z 2312/2418 05012KT CAVOK ","updated":"2025-09-23T13:27:00Z"}
