{"icao":"KLAX","taf":"TAF KLAX 161120Z 1612/1718 24005KT P6SM OVC028 ","updated":"2026-05-16T14:55:23Z"}
