{"icao":"LPOV","taf":"TAF LPOV 111701Z 1118/1218 19012KT 9999 SCT025 ","updated":"2026-05-12T09:36:45Z"}
