{"icao":"LPBJ","taf":"TAF TAF LPBJ 070506Z 0706/0806 VRB02KT 9999 SCT015 BKN045 PROB30 0706/0710 0200 FG BKN001 ","updated":"2025-12-07T10:17:21Z"}
