{"icao":"LPMT","taf":"TAF LPMT 301705Z 3018/3118 34008KT CAVOK ","updated":"2026-03-30T18:58:46Z"}
