{"icao":"KJFK","taf":"TAF KJFK 141727Z 1418/1524 29013G20KT P6SM BKN050 ","updated":"2025-11-14T18:26:37Z"}
