{"icao":"LPAZ","taf":"TAF LPAZ 100500Z 1006/1112 25008KT 9999 SCT020 ","updated":"2025-11-10T06:30:43Z"}
