{"icao":"LPOV","taf":"TAF LPOV 170507Z 1706/1806 VRB02KT 9999 SCT022 PROB30 ","updated":"2026-05-17T06:23:44Z"}
