{"icao":"LPMT","taf":"TAF LPMT 241707Z 2418/2518 32010KT 9999 SCT025 ","updated":"2026-01-25T03:53:01Z"}
