{"icao":"KJFK","taf":"TAF KJFK 011139Z 0112/0218 22010KT P6SM SCT060 SCT100 BKN250 ","updated":"2026-07-01T12:05:57Z"}
