{"icao":"KJFK","taf":"TAF KJFK 151120Z 1512/1618 06009KT P6SM BKN100 ","updated":"2026-03-15T12:51:22Z"}
