{"icao":"KLAX","taf":"TAF KLAX 011120Z 0112/0218 VRB03KT P6SM SCT250 ","updated":"2026-02-01T14:24:55Z"}
