{"icao":"KLAX","taf":"TAF KLAX 130539Z 1306/1412 VRB03KT 6SM BR SCT025 BKN150 ","updated":"2025-11-13T06:29:18Z"}
