{"icao":"LPFR","taf":"TAF LPFR 171700Z 1718/1818 22007KT 9999 BKN015 ","updated":"2026-02-17T21:34:23Z"}
