{"icao":"KJFK","taf":"TAF KJFK 050531Z 0506/0612 33007KT P6SM SCT250 ","updated":"2026-02-05T07:51:43Z"}
