{"icao":"LPAZ","taf":"TAF LPAZ 091100Z 0912/1018 07008KT 9999 FEW025 ","updated":"2026-03-09T14:48:55Z"}
