{"icao":"KJFK","taf":"TAF KJFK 251739Z 2518/2624 18015KT P6SM OVC150 ","updated":"2026-03-25T19:01:10Z"}
