{"icao":"KORD","taf":"TAF KORD 281720Z 2818/2924 10013KT P6SM FEW025 BKN250 ","updated":"2025-10-28T19:15:24Z"}
