{"icao":"LPMR","taf":"TAF COR TAF COR LPMR 310550Z 3106/0106 18010KT 6000 -RA SCT010 BKN020 ","updated":"2025-10-31T09:19:39Z"}
