{"icao":"LPBJ","taf":"TAF LPBJ 131106Z 1312/1412 17018KT 9999 SCT018 BKN035 ","updated":"2025-11-13T13:31:39Z"}
