{"icao":"LPFR","taf":"TAF LPFR 191100Z 1912/2012 12010KT CAVOK ","updated":"2025-10-19T17:13:55Z"}
