{"icao":"LPMR","taf":"TAF TAF LPMR 160507Z 1606/1706 16005KT 2000 BR SCT010 BKN030 ","updated":"2026-01-16T06:32:46Z"}
