{"icao":"LPPR","taf":"TAF TAF LPPR 240500Z 2406/2506 10007KT 9999 SCT015 BKN035 PROB30 ","updated":"2025-10-24T10:20:05Z"}
