{"icao":"KLAX","taf":"TAF KLAX 151752Z 1518/1624 26010KT P6SM FEW250 ","updated":"2026-03-15T18:37:32Z"}
