{"icao":"KLAX","taf":"TAF KLAX 241734Z 2418/2524 27006KT P6SM SCT080 BKN120 ","updated":"2025-09-24T20:19:25Z"}
