{"icao":"LPPD","taf":"TAF LPPD 091100Z 0912/1012 22018KT 6000 SCT004 BKN008 ","updated":"2026-02-09T15:54:40Z"}
