{"icao":"LPBJ","taf":"TAF TAF LPBJ 251104Z 2512/2612 05005KT CAVOK ","updated":"2026-03-25T13:07:33Z"}
