{"icao":"LPPR","taf":"TAF LPPR 311700Z 3118/0118 VRB02KT CAVOK ","updated":"2026-01-01T03:49:06Z"}
