{"icao":"KJFK","taf":"TAF KJFK 081140Z 0812/0918 30010KT P6SM FEW060 FEW100 ","updated":"2026-05-08T13:44:39Z"}
