{"icao":"KLAX","taf":"TAF KLAX 171200Z 1712/1818 08006KT P6SM BKN007 OVC015 ","updated":"2025-11-17T12:38:56Z"}
