{"icao":"KLAX","taf":"TAF KLAX 141137Z 1412/1518 08005KT P6SM SKC ","updated":"2026-01-14T12:43:30Z"}
