{"icao":"LPOV","taf":"TAF LPOV 271104Z 2712/2812 27005KT CAVOK ","updated":"2025-11-27T14:18:34Z"}
