{"icao":"LPOV","taf":"TAF LPOV 131102Z 1312/1412 31015KT 9999 SCT020 ","updated":"2026-02-13T15:40:24Z"}
