{"icao":"KJFK","taf":"TAF KJFK 170540Z 1706/1812 27022G38KT P6SM BKN035 ","updated":"2026-03-17T07:12:56Z"}
