{"icao":"LPMT","taf":"TAF LPMT 151103Z 1512/1612 21012KT 6000 -RA SCT015 BKN030 ","updated":"2025-11-15T15:16:40Z"}
