{"icao":"LPAZ","taf":"TAF TAF LPAZ 210500Z 2106/2212 28018KT 9999 SCT015 BKN030 ","updated":"2026-01-21T07:27:22Z"}
