{"icao":"LPFR","taf":"TAF LPFR 281100Z 2812/2912 19008KT CAVOK ","updated":"2026-06-28T16:08:32Z"}
