{"icao":"LPMR","taf":"TAF TAF LPMR 011106Z 0112/0212 14012KT 9999 SCT048 ","updated":"2026-01-01T15:20:07Z"}
