{"icao":"LPFR","taf":"TAF LPFR 271100Z 2712/2812 26020KT 9999 SCT035 ","updated":"2026-01-27T13:45:42Z"}
