{"icao":"LPPR","taf":"TAF LPPR 190500Z 1906/2006 VRB02KT 0800 BCFG SCT001 BKN002 ","updated":"2026-04-19T05:27:44Z"}
