{"icao":"LPPS","taf":"TAF LPPS 071100Z 0712/0818 03008KT 9999 SCT012 SCT030 PROB30 ","updated":"2025-10-07T15:19:10Z"}
