{"icao":"KLAX","taf":"TAF KLAX 101754Z 1018/1124 10007KT P6SM SCT015 BKN030 ","updated":"2026-02-10T18:00:34Z"}
