{"icao":"LPBJ","taf":"TAF LPBJ 131705Z 1318/1418 34010KT CAVOK PROB30 1405/1408 3000 BCFG BKN004 ","updated":"2025-09-13T21:13:39Z"}
