{"icao":"KLAX","taf":"TAF KLAX 080527Z 0806/0912 VRB03KT P6SM SKC ","updated":"2026-04-08T08:59:46Z"}
