{"icao":"LPBJ","taf":"TAF TAF LPBJ 210502Z 2106/2206 33010KT CAVOK ","updated":"2025-09-21T11:12:37Z"}
