{"icao":"LPFR","taf":"TAF LPFR 190500Z 1906/2006 08008KT CAVOK ","updated":"2025-09-19T08:22:45Z"}
