{"icao":"KJFK","taf":"TAF KJFK 021739Z 0218/0324 07013KT P6SM SCT008 OVC012 ","updated":"2026-04-02T18:55:23Z"}
