{"icao":"LPMA","taf":"TAF LPMA 210500Z 2106/2206 03017KT 9999 SCT015 ","updated":"2025-11-21T07:18:32Z"}
