{"icao":"LPBJ","taf":"TAF TAF LPBJ 071113Z 0712/0812 19015KT 9999 SCT030 ","updated":"2026-04-07T16:57:03Z"}
