{"icao":"LPBJ","taf":"TAF TAF LPBJ 281703Z 2818/2918 05005KT 9999 FEW025 PROB40 2902/2909 0500 FG BKN001 ","updated":"2025-12-28T20:21:17Z"}
