{"icao":"LPOV","taf":"TAF LPOV 161700Z 1618/1718 33012KT CAVOK ","updated":"2026-06-16T19:33:21Z"}
