{"icao":"LPMR","taf":"TAF TAF LPMR 301707Z 3018/0118 33015KT CAVOK ","updated":"2026-06-30T19:54:04Z"}
