{"icao":"LPAZ","taf":"TAF TAF LPAZ 071100Z 0712/0818 33018KT 9999 SCT030 ","updated":"2026-04-07T15:06:26Z"}
