{"icao":"KLAX","taf":"TAF KLAX 240537Z 2406/2512 26005KT P6SM SCT008 BKN100 ","updated":"2025-09-24T08:23:46Z"}
