{"icao":"LPMT","taf":"TAF LPMT 240509Z 2406/2506 22005KT 5000 BR SCT008 BKN012 ","updated":"2026-06-24T10:47:28Z"}
