{"icao":"LPPT","taf":"TAF LPPT 021100Z 0212/0318 VRB05KT CAVOK ","updated":"2025-10-02T16:21:10Z"}
