{"icao":"LPFR","taf":"TAF LPFR 111100Z 1112/1212 12012KT CAVOK ","updated":"2025-10-11T17:12:53Z"}
