{"icao":"KORD","taf":"TAF KORD 011120Z 0112/0218 30008KT P6SM BKN100 ","updated":"2026-01-01T12:40:34Z"}
