{"icao":"LPOV","taf":"TAF LPOV 311700Z 3118/0118 20012KT 7000 -RA SCT008 BKN015 ","updated":"2025-10-31T21:15:03Z"}
