{"icao":"LPPT","taf":"TAF LPPT 171700Z 1718/1824 33008KT CAVOK ","updated":"2026-04-17T22:37:28Z"}
