{"icao":"KLAX","taf":"TAF KLAX 221720Z 2218/2324 26008KT P6SM FEW150 ","updated":"2025-09-22T19:14:06Z"}
