{"icao":"LPBJ","taf":"TAF TAF LPBJ 181105Z 1812/1912 04010KT 9999 FEW020 PROB30 ","updated":"2026-01-18T15:18:01Z"}
