{"icao":"KLAX","taf":"TAF KLAX 230540Z 2306/2412 VRB03KT P6SM SCT015 ","updated":"2026-06-23T08:33:39Z"}
