{"icao":"LPPD","taf":"TAF LPPD 160500Z 1606/1706 33012KT 9999 FEW025 BKN040 ","updated":"2026-01-16T06:32:46Z"}
