{"icao":"LPPD","taf":"TAF LPPD 180500Z 1806/1906 35007KT 9999 SCT008 BKN015 ","updated":"2025-11-18T10:21:39Z"}
