{"icao":"LPMA","taf":"TAF LPMA 081700Z 0818/0918 02010KT 9999 SCT015 ","updated":"2026-01-08T20:24:06Z"}
