{"icao":"LPPT","taf":"TAF LPPT 181700Z 1818/1924 34015KT CAVOK ","updated":"2026-06-18T19:26:04Z"}
