{"icao":"KJFK","taf":"TAF KJFK 271720Z 2718/2824 01013G24KT P6SM FEW040 BKN080 ","updated":"2026-03-27T19:40:23Z"}
