{"icao":"LPMR","taf":"TAF LPMR 240513Z 2406/2506 VRB02KT 9999 FEW030 PROB40 2406/2407 2000 BCFG SCT002 ","updated":"2025-12-24T05:22:44Z"}
