{"icao":"LPPS","taf":"TAF LPPS 291030Z 2912/3018 06015KT 9999 SCT015 SCT030 ","updated":"2026-03-29T13:52:52Z"}
