{"icao":"KORD","taf":"TAF KORD 031720Z 0318/0424 29014G25KT P6SM SKC ","updated":"2025-11-03T20:20:37Z"}
