{"icao":"KORD","taf":"TAF KORD 230531Z 2306/2412 01014G23KT P6SM SCT025 SCT035 ","updated":"2026-03-23T08:54:44Z"}
