{"icao":"LPPR","taf":"TAF LPPR 090500Z 0906/1006 23010KT 8000 -RA SCT004 SCT008 ","updated":"2026-02-09T06:10:09Z"}
