{"icao":"LPLA","taf":"TAF LPLA 261108Z 2612/2712 32025KT 9999 BKN025 ","updated":"2025-09-26T12:36:28Z"}
