{"icao":"LPBJ","taf":"TAF TAF LPBJ 160506Z 1606/1706 31008KT CAVOK PROB40 1606/1608 2000 BCFG SCT004 PROB40 ","updated":"2026-06-16T09:30:33Z"}
