{"icao":"LPFR","taf":"TAF LPFR 221700Z 2218/2318 10012KT CAVOK ","updated":"2026-05-22T18:52:28Z"}
