{"icao":"LPPS","taf":"TAF LPPS 290500Z 2906/3012 32015KT 9999 SCT015 PROB40 ","updated":"2025-10-29T10:20:39Z"}
