{"icao":"LPPR","taf":"TAF LPPR 290500Z 2906/3006 VRB02KT CAVOK ","updated":"2026-03-29T10:31:34Z"}
