{"icao":"KORD","taf":"TAF KORD 081720Z 0818/0924 05009KT P6SM BKN020 OVC035 ","updated":"2025-11-08T19:13:24Z"}
