{"icao":"LPBJ","taf":"TAF TAF LPBJ 021704Z 0218/0318 33012KT CAVOK ","updated":"2026-06-03T03:57:41Z"}
