{"icao":"LPFR","taf":"TAF LPFR 151100Z 1512/1612 14010KT CAVOK ","updated":"2025-10-15T13:30:44Z"}
