{"icao":"LPPS","taf":"TAF LPPS 101700Z 1018/1124 27008KT 9999 SCT012 ","updated":"2026-02-10T20:43:03Z"}
