{"icao":"LPOV","taf":"TAF LPOV 211711Z 2118/2218 21012KT 9999 SCT015 ","updated":"2026-04-21T18:06:41Z"}
