{"icao":"LPOV","taf":"TAF LPOV 180509Z 1806/1906 16010KT 9999 SCT015 BKN035 ","updated":"2026-02-18T08:42:19Z"}
