{"icao":"LPMR","taf":"TAF TAF LPMR 280505Z 2806/2906 15005KT 9999 SCT030 ","updated":"2025-11-28T06:29:30Z"}
