{"icao":"LPMA","taf":"TAF LPMA 070500Z 0706/0806 VRB05KT 9999 FEW015 ","updated":"2025-11-07T05:18:01Z"}
