{"icao":"LPPD","taf":"TAF LPPD 051700Z 0518/0618 21010KT 9999 FEW018 ","updated":"2025-10-05T19:12:35Z"}
