{"icao":"KJFK","taf":"TAF KJFK 301733Z 3018/0124 21014KT 5SM -RA BR SCT016 BKN025 OVC035 ","updated":"2025-11-30T18:25:48Z"}
