{"icao":"LPAZ","taf":"TAF TAF LPAZ 091100Z 0912/1018 22017KT 6000 SCT004 BKN008 ","updated":"2026-02-09T11:42:56Z"}
