{"icao":"LPBJ","taf":"TAF TAF LPBJ 070503Z 0706/0806 16015KT 9999 FEW040 ","updated":"2026-04-07T09:00:39Z"}
