{"icao":"LPFR","taf":"TAF LPFR 140500Z 1406/1506 22015KT 9999 SCT020 ","updated":"2025-11-14T05:18:20Z"}
