{"icao":"LPMR","taf":"TAF TAF LPMR 041700Z 0418/0518 31012KT 9999 SCT020 ","updated":"2026-05-05T08:07:06Z"}
