{"icao":"LPPR","taf":"TAF TAF LPPR 031937Z 0319/0418 26007KT 6000 SCT004 BKN008 ","updated":"2026-06-03T21:46:59Z"}
