{"icao":"KJFK","taf":"TAF KJFK 150523Z 1506/1612 32009KT P6SM FEW030 BKN060 ","updated":"2026-05-15T06:54:07Z"}
