{"icao":"LPMT","taf":"TAF LPMT 271707Z 2718/2818 26012KT CAVOK ","updated":"2026-05-27T23:15:40Z"}
