{"icao":"KJFK","taf":"TAF KJFK 171120Z 1712/1818 27022G36KT P6SM SCT035 SCT080 ","updated":"2026-03-17T11:42:29Z"}
