{"icao":"KORD","taf":"TAF KORD 091120Z 0912/1018 11008KT P6SM SKC ","updated":"2025-10-09T13:29:09Z"}
