{"icao":"KORD","taf":"TAF KORD 221120Z 2212/2318 27008KT P6SM FEW020 FEW100 ","updated":"2026-04-22T13:24:45Z"}
