{"icao":"LPPD","taf":"TAF LPPD 101700Z 1018/1118 20025KT 9999 SCT015 BKN030 ","updated":"2025-12-10T17:21:01Z"}
