{"icao":"LPAZ","taf":"TAF TAF LPAZ 270500Z 2706/2812 28010KT 9999 FEW020 ","updated":"2026-06-27T06:30:02Z"}
