{"icao":"KJFK","taf":"TAF KJFK 221731Z 2218/2324 26016G27KT P6SM FEW040 BKN250 ","updated":"2026-01-22T20:26:42Z"}
