{"icao":"LPMR","taf":"TAF TAF LPMR 160509Z 1606/1706 34015KT 9999 SCT020 ","updated":"2025-12-16T09:24:57Z"}
