{"icao":"LPMT","taf":"TAF LPMT 211103Z 2112/2212 36005KT CAVOK ","updated":"2026-05-21T11:21:42Z"}
