{"icao":"KLAX","taf":"TAF KLAX 291720Z 2918/3024 26010KT P6SM FEW025 SCT150 ","updated":"2026-05-29T18:30:44Z"}
