{"icao":"LPPT","taf":"TAF LPPT 131700Z 1318/1424 32012KT CAVOK ","updated":"2025-09-13T23:14:14Z"}
