{"icao":"LPPD","taf":"TAF LPPD 291100Z 2912/3012 23010KT 6000 SCT006 SCT012 ","updated":"2025-12-29T16:24:47Z"}
