{"icao":"KORD","taf":"TAF KORD 251127Z 2512/2618 26006KT 6SM BR FEW004 SCT150 BKN250 ","updated":"2026-06-25T12:19:41Z"}
