{"icao":"KLAX","taf":"TAF KLAX 271751Z 2718/2824 26010KT P6SM SCT025 ","updated":"2026-06-27T19:18:28Z"}
