{"icao":"LPPT","taf":"TAF LPPT 191100Z 1912/2018 34010KT 9999 SCT035 ","updated":"2026-02-19T15:46:46Z"}
