{"icao":"LPPT","taf":"TAF LPPT 301700Z 3018/0124 30008KT CAVOK ","updated":"2025-09-30T19:13:42Z"}
