{"icao":"KORD","taf":"TAF KORD 171126Z 1712/1818 16006KT P6SM FEW100 BKN250 ","updated":"2026-02-17T11:38:06Z"}
