{"icao":"LPMR","taf":"TAF TAF LPMR 101705Z 1018/1118 22010KT 2000 -DZ BR BKN005 ","updated":"2026-02-10T20:42:44Z"}
