{"icao":"LPMT","taf":"TAF LPMT 311110Z 3112/0112 29008KT 9999 FEW035 ","updated":"2026-01-31T16:26:31Z"}
