{"icao":"LPFR","taf":"TAF LPFR 271700Z 2718/2818 26007KT CAVOK ","updated":"2026-03-28T02:03:38Z"}
