{"icao":"LPFR","taf":"TAF LPFR 011100Z 0112/0212 22010KT 9999 FEW025 SCT040 ","updated":"2025-11-01T12:33:05Z"}
