{"icao":"KJFK","taf":"TAF KJFK 121140Z 1212/1318 29012KT P6SM SCT020 BKN100 BKN200 ","updated":"2026-06-12T12:17:50Z"}
