{"icao":"LPPS","taf":"TAF LPPS 241700Z 2418/2524 27012KT 9999 SCT014 SCT030 ","updated":"2026-02-24T23:30:35Z"}
