{"icao":"LPPS","taf":"TAF LPPS 211100Z 2112/2218 05015KT 9999 SCT015 ","updated":"2025-11-21T14:18:11Z"}
