{"icao":"KJFK","taf":"TAF KJFK 131742Z 1318/1424 23013KT P6SM BKN050 ","updated":"2025-12-13T20:19:50Z"}
