{"icao":"LPLA","taf":"TAF LPLA 181106Z 1812/1912 15010KT 9999 SCT016 BKN025 ","updated":"2026-04-18T15:36:07Z"}
