{"icao":"LPMT","taf":"TAF LPMT 061707Z 0618/0718 34012KT CAVOK ","updated":"2026-06-07T03:45:49Z"}
