{"icao":"KORD","taf":"TAF KORD 261120Z 2612/2718 31011KT P6SM FEW050 BKN080 ","updated":"2026-01-26T12:45:51Z"}
