{"icao":"KLAX","taf":"TAF KLAX 010532Z 0106/0212 06010KT 2SM -RA BR OVC015 ","updated":"2026-01-01T06:32:30Z"}
