{"icao":"KORD","taf":"TAF KORD 290526Z 2906/3012 27023G36KT P6SM -SHSN SCT009 OVC015 ","updated":"2025-12-29T08:30:16Z"}
