{"icao":"KLAX","taf":"TAF KLAX 091304Z 0913/1018 VRB03KT 1SM BR BKN003 ","updated":"2025-11-09T13:23:05Z"}
