{"icao":"LPLA","taf":"TAF LPLA 200505Z 2006/2106 08010KT 9999 FEW025 SCT035 ","updated":"2025-11-20T05:18:40Z"}
