{"icao":"KLAX","taf":"TAF KLAX 201728Z 2018/2124 10007KT P6SM SCT025 OVC080 PROB30 2019/2020 6SM -SHRA BR BKN025 ","updated":"2025-11-20T18:28:13Z"}
