{"icao":"LPMR","taf":"TAF TAF LPMR 081113Z 0812/0912 17005KT 2000 BR BKN008 ","updated":"2026-01-08T12:42:52Z"}
