{"icao":"LPPT","taf":"TAF LPPT 041100Z 0412/0518 VRB05KT CAVOK ","updated":"2026-04-04T15:30:30Z"}
