{"icao":"LPBJ","taf":"TAF TAF LPBJ 261111Z 2612/2712 24015KT 9999 SCT010 BKN016 ","updated":"2026-01-26T12:45:48Z"}
