{"icao":"KORD","taf":"TAF KORD 091720Z 0918/1024 11008KT P6SM SKC ","updated":"2025-10-09T20:19:42Z"}
