{"icao":"LPAZ","taf":"TAF TAF LPAZ 151100Z 1512/1618 26012KT 9999 SCT025 ","updated":"2026-04-15T15:04:05Z"}
