{"icao":"LPOV","taf":"TAF LPOV 091112Z 0912/1012 34012KT CAVOK ","updated":"2026-04-09T15:21:10Z"}
