{"icao":"LPOV","taf":"TAF LPOV 131105Z 1312/1412 16012KT 9999 SCT018 BKN030 ","updated":"2025-11-13T15:21:14Z"}
