{"icao":"LPPR","taf":"TAF LPPR 171100Z 1712/1812 29005KT 9999 FEW015 PROB30 ","updated":"2025-10-17T16:21:30Z"}
