{"icao":"LPMT","taf":"TAF LPMT 290508Z 2906/3006 24010KT 9999 SCT012 ","updated":"2026-04-29T06:21:43Z"}
