{"icao":"LPFR","taf":"TAF LPFR 051700Z 0518/0618 25005KT CAVOK ","updated":"2025-10-06T04:20:48Z"}
