{"icao":"LPPS","taf":"TAF LPPS 301100Z 3012/0118 36015KT 9999 SCT015 PROB30 ","updated":"2025-11-30T14:16:34Z"}
