{"icao":"LPPT","taf":"TAF LPPT 171100Z 1712/1818 13007KT CAVOK ","updated":"2025-09-17T17:15:12Z"}
