{"icao":"LPMT","taf":"TAF LPMT 071106Z 0712/0812 26020KT 9999 FEW018 SCT025 ","updated":"2026-02-07T16:28:58Z"}
