{"icao":"LPPS","taf":"TAF LPPS 141700Z 1418/1524 27013KT 9999 SCT014 PROB40 ","updated":"2025-11-14T23:16:58Z"}
