{"icao":"KLAX","taf":"TAF KLAX 170527Z 1706/1812 15006KT P6SM SCT250 ","updated":"2026-01-17T08:25:42Z"}
