{"icao":"KORD","taf":"TAF KORD 261120Z 2612/2718 05006KT P6SM SCT150 BKN250 ","updated":"2026-06-26T12:09:36Z"}
