{"icao":"LPFR","taf":"TAF LPFR 041700Z 0418/0518 10010KT CAVOK ","updated":"2026-04-04T23:30:04Z"}
