{"icao":"KLAX","taf":"TAF KLAX 061129Z 0612/0718 10007KT P6SM SCT010 OVC250 ","updated":"2026-02-06T11:32:45Z"}
