{"icao":"LPPS","taf":"TAF LPPS 280500Z 2806/0112 02015KT 9999 SCT012 BKN030 ","updated":"2026-02-28T05:32:11Z"}
