{"icao":"LPLA","taf":"TAF LPLA 131702Z 1318/1418 31010KT 9999 FEW025 SCT035 ","updated":"2026-01-13T23:18:45Z"}
