{"icao":"KJFK","taf":"TAF KJFK 091128Z 0912/1018 18010KT P6SM OVC090 ","updated":"2026-05-09T11:50:46Z"}
