{"icao":"LPLA","taf":"TAF TAF LPLA 291800Z 2918/3018 09015KT 8000 -RA FEW014 BKN025 ","updated":"2025-12-29T21:18:06Z"}
