{"icao":"LPPD","taf":"TAF LPPD 230500Z 2306/2406 30020KT 9999 FEW020 SCT035 ","updated":"2026-01-23T07:24:27Z"}
