{"icao":"LPPR","taf":"TAF LPPR 231100Z 2312/2412 29008KT CAVOK ","updated":"2026-04-23T13:26:07Z"}
