{"icao":"LPPD","taf":"TAF LPPD 090500Z 0906/1006 03012KT 9999 SCT008 BKN018 ","updated":"2026-04-09T07:20:25Z"}
