{"icao":"KLAX","taf":"TAF KLAX 291739Z 2918/3024 06004KT P6SM SKC ","updated":"2026-01-29T18:43:07Z"}
