{"icao":"LPMT","taf":"TAF TAF LPMT 042305Z 0500/0524 34010KT CAVOK ","updated":"2026-06-05T00:05:18Z"}
