{"icao":"LPPR","taf":"TAF LPPR 030500Z 0306/0406 VRB02KT CAVOK ","updated":"2026-04-03T08:52:36Z"}
