{"icao":"KORD","taf":"TAF KORD 020526Z 0206/0312 21009KT P6SM FEW300 ","updated":"2026-07-02T07:30:27Z"}
