{"icao":"KORD","taf":"TAF KORD 270521Z 2706/2812 04008KT P6SM FEW008 SCT045 OVC060 ","updated":"2026-06-27T06:30:04Z"}
