{"icao":"LPMT","taf":"TAF LPMT 170507Z 1706/1806 36008KT 9999 FEW025 PROB30 1706/1708 4000 BCFG SCT004 PROB30 ","updated":"2025-11-17T10:21:22Z"}
