{"icao":"LPAZ","taf":"TAF LPAZ 191100Z 1912/2018 01018KT 9999 SCT015 SCT030 ","updated":"2025-11-19T15:20:01Z"}
