{"icao":"KORD","taf":"TAF KORD 171123Z 1712/1818 30010KT P6SM FEW030 ","updated":"2026-03-17T13:09:49Z"}
