{"icao":"LPAZ","taf":"TAF LPAZ 260500Z 2606/2712 28010KT 9999 SCT025 ","updated":"2026-02-26T05:56:21Z"}
