{"icao":"LPOV","taf":"TAF LPOV 080506Z 0806/0906 04005KT CAVOK ","updated":"2026-06-08T05:48:28Z"}
