{"icao":"LPPT","taf":"TAF LPPT 211700Z 2118/2224 02007KT CAVOK ","updated":"2026-02-21T19:22:51Z"}
