{"icao":"LPMA","taf":"TAF LPMA 030500Z 0306/0406 VRB05KT 9999 SCT015 ","updated":"2026-02-03T10:38:26Z"}
