{"icao":"LPPT","taf":"TAF LPPT 100500Z 1006/1112 VRB05KT 6000 SCT004 BKN008 ","updated":"2025-11-10T05:18:55Z"}
