{"icao":"KJFK","taf":"TAF KJFK 221739Z 2218/2324 26010KT P6SM SCT250 ","updated":"2025-12-22T20:21:09Z"}
