{"icao":"LPMR","taf":"TAF TAF LPMR 151706Z 1518/1618 33015KT 9999 SCT020 ","updated":"2026-05-15T20:15:46Z"}
