{"icao":"LPFR","taf":"TAF LPFR 311100Z 3112/0112 28005KT 9999 SCT035 ","updated":"2026-01-31T11:19:42Z"}
