{"icao":"LPLA","taf":"TAF LPLA 181710Z 1818/1918 30010KT 9999 FEW007 BKN025 PROB30 ","updated":"2026-01-18T18:26:39Z"}
