{"icao":"KLAX","taf":"TAF KLAX 051155Z 0512/0618 VRB03KT 6SM BR BKN017 OVC035 ","updated":"2025-11-05T12:38:33Z"}
