{"icao":"LPMR","taf":"TAF TAF LPMR 200501Z 2006/2106 VRB02KT 3000 BR BKN006 PROB40 2006/2007 0200 -DZ FG BKN002 ","updated":"2025-09-20T10:16:14Z"}
