{"icao":"KLAX","taf":"TAF KLAX 071512Z 0715/0818 25005KT P6SM SCT010 ","updated":"2026-05-07T16:48:36Z"}
