{"icao":"LPPT","taf":"TAF LPPT 200500Z 2006/2112 32005KT CAVOK ","updated":"2026-02-20T10:35:53Z"}
