{"icao":"LPOV","taf":"TAF LPOV 041700Z 0418/0518 34010KT 9999 BKN007 PROB30 ","updated":"2026-03-04T22:29:45Z"}
