{"icao":"LPAZ","taf":"TAF TAF LPAZ 141100Z 1412/1518 20015KT 9999 SCT020 ","updated":"2025-10-14T14:18:31Z"}
