{"icao":"KORD","taf":"TAF KORD 231130Z 2312/2418 23006KT P6SM FEW040 BKN250 ","updated":"2025-09-23T12:36:14Z"}
