{"icao":"LPOV","taf":"TAF LPOV 041104Z 0412/0512 34010KT 9999 BKN020 ","updated":"2025-10-04T13:19:40Z"}
