{"icao":"LPMA","taf":"TAF LPMA 131700Z 1318/1418 02017KT 9999 SCT015 ","updated":"2025-09-13T23:14:31Z"}
