{"icao":"KJFK","taf":"TAF KJFK 181724Z 1818/1924 19018G29KT P6SM BKN060 PROB30 1818/1821 2SM TSRA BKN045CB ","updated":"2026-06-18T19:27:15Z"}
