{"icao":"LPOV","taf":"TAF TAF LPOV 230500Z 2306/2406 VRB02KT CAVOK PROB30 2306/2311 4000 BR SCT002 ","updated":"2026-02-23T06:06:01Z"}
