{"icao":"KLAX","taf":"TAF KLAX 101125Z 1012/1118 VRB03KT 5SM BR OVC008 ","updated":"2026-05-10T11:50:22Z"}
