{"icao":"LPOV","taf":"TAF LPOV 240508Z 2406/2506 18005KT 0400 FG BKN002 ","updated":"2026-06-24T07:38:48Z"}
