{"icao":"KORD","taf":"TAF KORD 010855Z 0109/0212 03005KT P6SM SCT025 OVC040 ","updated":"2026-05-01T08:59:18Z"}
