{"icao":"LPMT","taf":"TAF LPMT 301707Z 3018/0118 34010KT CAVOK ","updated":"2026-07-01T03:41:02Z"}
