{"icao":"KJFK","taf":"TAF KJFK 111722Z 1118/1224 18012G20KT P6SM BKN060 ","updated":"2026-03-11T18:52:25Z"}
