{"icao":"KORD","taf":"TAF KORD 051726Z 0518/0624 23011G20KT P6SM -SHRA BKN030 OVC050 PROB30 0518/0520 2SM TSRA BKN020 OVC040CB ","updated":"2026-06-05T17:53:11Z"}
