{"icao":"LPMA","taf":"TAF LPMA 081100Z 0812/0912 01012KT 9999 SCT015 SCT030 PROB40 ","updated":"2026-03-08T14:24:07Z"}
