{"icao":"LPFR","taf":"TAF LPFR 161100Z 1612/1712 09013KT CAVOK ","updated":"2026-03-16T14:58:11Z"}
