{"icao":"KLAX","taf":"TAF KLAX 251740Z 2518/2624 22005KT P6SM SCT012 ","updated":"2026-03-25T17:58:01Z"}
