{"icao":"LPMR","taf":"TAF TAF LPMR 040503Z 0406/0506 14005KT CAVOK ","updated":"2026-04-04T08:39:17Z"}
