{"icao":"KJFK","taf":"TAF KJFK 201723Z 2018/2124 27018G26KT P6SM FEW040 ","updated":"2026-01-20T18:35:39Z"}
