{"icao":"LPPD","taf":"TAF LPPD 151100Z 1512/1612 03012KT 9999 SCT015 BKN030 ","updated":"2026-03-15T15:28:03Z"}
