{"icao":"KJFK","taf":"TAF KJFK 040521Z 0406/0512 28009KT P6SM BKN050 BKN250 ","updated":"2026-02-04T07:43:06Z"}
