{"icao":"LPPR","taf":"TAF LPPR 021745Z 0218/0318 33010KT 5000 BR SCT004 BKN008 ","updated":"2025-10-02T21:14:33Z"}
