{"icao":"KORD","taf":"TAF KORD 161720Z 1618/1724 24020G30KT P6SM BKN050 PROB30 1618/1619 4SM -TSRA SCT030 BKN050CB ","updated":"2026-06-16T19:33:26Z"}
