{"icao":"LPPR","taf":"TAF LPPR 100500Z 1006/1106 VRB02KT 9999 SCT035 ","updated":"2026-01-10T06:29:13Z"}
