{"icao":"KORD","taf":"TAF KORD 170520Z 1706/1812 21007KT P6SM SCT090 BKN110 ","updated":"2026-02-17T05:56:33Z"}
