{"icao":"LPPT","taf":"TAF LPPT 191700Z 1918/2024 31012KT CAVOK ","updated":"2026-06-20T05:11:55Z"}
