{"icao":"LPBJ","taf":"TAF TAF LPBJ 200502Z 2006/2106 34005KT CAVOK PROB30 2006/2008 0200 FG BKN002 ","updated":"2025-09-20T06:23:51Z"}
