{"icao":"LPFR","taf":"TAF LPFR 041100Z 0412/0512 22008KT CAVOK ","updated":"2025-10-04T17:12:56Z"}
