{"icao":"KORD","taf":"TAF KORD 231120Z 2312/2418 23006KT P6SM FEW035 BKN250 ","updated":"2025-12-23T13:35:09Z"}
