{"icao":"KLAX","taf":"TAF KLAX 130521Z 1306/1412 27010KT P6SM SCT250 ","updated":"2026-02-13T05:58:55Z"}
