{"icao":"KORD","taf":"TAF KORD 271128Z 2712/2818 29018G26KT P6SM SCT025 BKN035 ","updated":"2026-01-27T14:28:36Z"}
