{"icao":"KJFK","taf":"TAF KJFK 051122Z 0512/0618 25009KT P6SM SCT250 ","updated":"2025-11-05T13:31:27Z"}
