{"icao":"LPPR","taf":"TAF LPPR 300500Z 3006/3106 12007KT 9999 SCT015 SCT030 ","updated":"2025-10-30T05:18:07Z"}
