{"icao":"LPOV","taf":"TAF LPOV 201702Z 2018/2118 22010KT 9999 SCT010 SCT030 ","updated":"2025-10-21T04:21:13Z"}
