{"icao":"LPLA","taf":"TAF LPLA 081711Z 0818/0918 32015KT 9999 FEW018 SCT035 ","updated":"2026-04-08T19:14:11Z"}
