{"icao":"LPAZ","taf":"TAF TAF LPAZ 051100Z 0512/0618 27010KT 9999 SCT030 ","updated":"2025-11-05T16:24:24Z"}
