{"icao":"LPPS","taf":"TAF LPPS 221100Z 2212/2318 30015KT 9999 SCT015 SCT030 PROB30 ","updated":"2026-01-22T16:34:40Z"}
