{"icao":"LPMT","taf":"TAF LPMT 131105Z 1312/1412 10008KT CAVOK ","updated":"2026-06-13T14:58:52Z"}
