{"icao":"KLAX","taf":"TAF KLAX 051720Z 0518/0624 26015KT P6SM SCT100 BKN150 ","updated":"2026-05-05T18:09:35Z"}
