{"icao":"KORD","taf":"TAF KORD 151728Z 1518/1624 22014G24KT P6SM BKN200 ","updated":"2025-12-15T18:30:31Z"}
