{"icao":"LPPT","taf":"TAF LPPT 221100Z 2212/2318 05007KT CAVOK ","updated":"2025-11-22T12:33:23Z"}
