{"icao":"LPPD","taf":"TAF LPPD 311700Z 3118/0118 27007KT 0200 FG VV001 ","updated":"2026-05-31T22:05:12Z"}
