{"icao":"LPMT","taf":"TAF LPMT 071709Z 0718/0818 34010KT CAVOK ","updated":"2026-03-08T04:41:35Z"}
