{"icao":"KORD","taf":"TAF KORD 040533Z 0406/0512 22008KT P6SM FEW300 ","updated":"2026-05-04T06:11:49Z"}
