{"icao":"KJFK","taf":"TAF KJFK 291727Z 2918/3024 16011KT P6SM FEW015 BKN040 BKN250 ","updated":"2026-04-29T19:23:08Z"}
