{"icao":"KORD","taf":"TAF KORD 140520Z 1406/1512 28012G18KT P6SM SCT025 OVC035 ","updated":"2026-01-14T06:32:44Z"}
