{"icao":"LPPS","taf":"TAF LPPS 211100Z 2112/2218 33013KT 9999 FEW015 SCT030 PROB40 ","updated":"2025-12-21T12:37:11Z"}
