{"icao":"LPMA","taf":"TAF LPMA 251100Z 2512/2612 VRB05KT 9999 SCT015 ","updated":"2026-01-25T15:19:25Z"}
