{"icao":"LPOV","taf":"TAF LPOV 241100Z 2412/2512 20010KT 9999 FEW020 ","updated":"2026-02-24T11:39:19Z"}
