{"icao":"LPLA","taf":"TAF LPLA 290508Z 2906/3006 12008KT 9999 FEW015 BKN030 PROB40 ","updated":"2026-03-29T07:02:04Z"}
