{"icao":"KJFK","taf":"TAF KJFK 281731Z 2818/0124 20009KT P6SM FEW030 BKN250 ","updated":"2026-02-28T18:31:46Z"}
