{"icao":"LPBJ","taf":"TAF TAF LPBJ 241703Z 2418/2518 34005KT 9999 FEW040 PROB40 2502/2508 VRB02KT 2000 BCFG BKN004 ","updated":"2026-03-25T04:52:23Z"}
