{"icao":"KORD","taf":"TAF KORD 150533Z 1506/1612 13015G24KT P6SM SCT040 OVC070 WS020/19055KT ","updated":"2026-03-15T08:35:10Z"}
