{"icao":"LPPR","taf":"TAF LPPR 180500Z 1806/1906 VRB02KT CAVOK PROB30 ","updated":"2025-09-18T06:26:14Z"}
