{"icao":"LPOV","taf":"TAF COR TAF COR LPOV 230754Z 2306/2406 35010KT 9999 FEW025 ","updated":"2025-10-23T10:19:27Z"}
