{"icao":"LPPR","taf":"TAF LPPR 171100Z 1712/1812 30008KT 9999 SCT025 ","updated":"2026-05-17T14:54:30Z"}
