{"icao":"LPMT","taf":"TAF LPMT 241706Z 2418/2518 25015KT 9999 SCT012 BKN025 ","updated":"2025-11-25T01:24:11Z"}
