{"icao":"KJFK","taf":"TAF KJFK 251720Z 2518/2624 18011KT P6SM BKN080 OVC120 ","updated":"2025-11-25T19:16:53Z"}
