{"icao":"LPPS","taf":"TAF LPPS 281100Z 2812/2918 02012KT 9999 SCT015 ","updated":"2025-09-28T13:20:43Z"}
