{"icao":"LPPR","taf":"TAF LPPR 111100Z 1112/1212 17018KT 9999 SCT030 ","updated":"2025-11-11T16:23:33Z"}
