{"icao":"KJFK","taf":"TAF KJFK 011723Z 0118/0224 29017G28KT P6SM SCT060 SCT250 ","updated":"2025-11-01T19:12:52Z"}
