{"icao":"LPPT","taf":"TAF LPPT 201700Z 2018/2124 VRB05KT CAVOK ","updated":"2026-05-20T19:22:55Z"}
