{"icao":"LPMR","taf":"TAF TAF LPMR 071705Z 0718/0818 34008KT CAVOK ","updated":"2026-01-08T04:38:16Z"}
