{"icao":"LPMA","taf":"TAF LPMA 120500Z 1206/1306 01012KT 9999 SCT015 BKN030 ","updated":"2025-11-12T07:18:20Z"}
