{"icao":"LPMT","taf":"TAF LPMT 280507Z 2806/2906 36005KT 9999 FEW015 ","updated":"2026-06-28T07:49:27Z"}
