{"icao":"LPPT","taf":"TAF LPPT 260500Z 2606/2712 31005KT CAVOK ","updated":"2026-02-26T05:56:16Z"}
