{"icao":"LPAZ","taf":"TAF LPAZ 280500Z 2806/2912 26025KT 9999 SCT012 BKN025 ","updated":"2026-01-28T09:32:46Z"}
