{"icao":"LPMA","taf":"TAF LPMA 141700Z 1418/1518 16008KT 9999 SCT015 ","updated":"2025-10-15T01:20:34Z"}
