{"icao":"LPPT","taf":"TAF LPPT 051100Z 0512/0618 32013KT CAVOK PROB30 ","updated":"2026-06-05T15:51:48Z"}
