{"icao":"KORD","taf":"TAF KORD 131120Z 1312/1418 17008KT 6SM -SHRA SCT030 BKN080 ","updated":"2025-09-13T12:31:37Z"}
