{"icao":"KORD","taf":"TAF KORD 191126Z 1912/2018 19006KT P6SM FEW060 BKN100 ","updated":"2026-03-19T11:34:22Z"}
