{"icao":"LPMA","taf":"TAF LPMA 211700Z 2118/2218 03013KT 9999 SCT015 ","updated":"2025-09-21T20:17:59Z"}
