{"icao":"LPPR","taf":"TAF LPPR 151100Z 1512/1612 36013KT CAVOK PROB30 ","updated":"2026-03-15T11:24:25Z"}
