{"icao":"LPPR","taf":"TAF LPPR 020500Z 0206/0306 08012KT CAVOK ","updated":"2026-07-02T10:37:02Z"}
