{"icao":"LPPD","taf":"TAF LPPD 301700Z 3018/0118 19008KT 9999 SCT004 SCT008 ","updated":"2025-10-01T04:20:52Z"}
