{"icao":"LPPT","taf":"TAF LPPT 310500Z 3106/0112 21013KT 9999 SCT020 ","updated":"2025-10-31T09:19:36Z"}
