{"icao":"LPMT","taf":"TAF LPMT 241106Z 2412/2512 25010KT 9999 SCT015 BKN030 ","updated":"2025-11-24T13:32:24Z"}
