{"icao":"LPLA","taf":"TAF LPLA 281101Z 2812/2912 35015KT 9999 FEW025 BKN030 ","updated":"2025-10-28T12:37:42Z"}
