{"icao":"LPLA","taf":"TAF LPLA 020509Z 0206/0306 34018KT 9999 BKN040 ","updated":"2026-03-02T08:42:39Z"}
