{"icao":"KJFK","taf":"TAF KJFK 140524Z 1406/1512 04019G27KT 6SM -SHRA BR OVC012 ","updated":"2025-10-14T08:22:05Z"}
