{"icao":"LPAZ","taf":"TAF LPAZ 071700Z 0718/0824 VRB05KT 9999 SCT012 ","updated":"2025-10-07T19:13:44Z"}
