{"icao":"KORD","taf":"TAF KORD 311720Z 3118/0124 26011G18KT P6SM OVC020 ","updated":"2025-12-31T18:28:17Z"}
