{"icao":"LPAZ","taf":"TAF LPAZ 241700Z 2418/2524 29023KT 9999 SCT030 ","updated":"2026-02-24T20:33:52Z"}
