{"icao":"LPFR","taf":"TAF LPFR 310500Z 3106/0106 28005KT 9999 SCT035 ","updated":"2026-01-31T07:27:02Z"}
