{"icao":"LPBJ","taf":"TAF TAF LPBJ 151103Z 1512/1612 36012KT CAVOK ","updated":"2026-03-15T12:51:19Z"}
