{"icao":"KLAX","taf":"TAF KLAX 250536Z 2506/2612 23007KT P6SM SCT015 SCT250 ","updated":"2026-04-25T10:42:06Z"}
