{"icao":"LPOV","taf":"TAF LPOV 160503Z 1606/1706 VRB02KT 0400 FG BKN001 ","updated":"2025-10-16T08:25:21Z"}
