{"icao":"KLAX","taf":"TAF KLAX 201745Z 2018/2124 09004KT P6SM SCT250 ","updated":"2026-01-20T18:35:39Z"}
