{"icao":"LPBJ","taf":"TAF TAF LPBJ 031711Z 0318/0418 24010KT 9999 FEW025 ","updated":"2026-02-04T01:57:50Z"}
