{"icao":"KORD","taf":"TAF KORD 211728Z 2118/2224 27011G18KT P6SM SCT020 BKN030 ","updated":"2026-01-21T17:53:07Z"}
