{"icao":"KJFK","taf":"TAF KJFK 071730Z 0718/0824 21018G26KT P6SM SCT050 SCT250 ","updated":"2025-11-07T20:18:35Z"}
