{"icao":"KJFK","taf":"TAF KJFK 231136Z 2312/2418 21009KT 4SM -SN SCT009 OVC020 ","updated":"2025-12-23T12:41:14Z"}
