{"icao":"LPPD","taf":"TAF LPPD 221700Z 2218/2318 17010KT 9999 SCT012 BKN025 ","updated":"2025-09-22T19:14:05Z"}
