{"icao":"LPPR","taf":"TAF LPPR 301700Z 3018/3118 32008KT CAVOK ","updated":"2026-03-31T05:07:48Z"}
