{"icao":"LPPS","taf":"TAF LPPS 031700Z 0318/0424 14010KT 9999 SCT015 ","updated":"2025-11-03T21:16:55Z"}
