{"icao":"LPPS","taf":"TAF LPPS 301700Z 3018/3124 27007KT 9999 SCT012 ","updated":"2025-12-31T03:26:17Z"}
