{"icao":"LPBJ","taf":"TAF LPBJ 111108Z 1112/1212 20008KT 9999 BKN007 ","updated":"2025-12-11T11:17:52Z"}
