{"icao":"LPMR","taf":"TAF TAF LPMR 231110Z 2312/2412 33005KT CAVOK ","updated":"2026-03-23T15:58:35Z"}
