{"icao":"LPPR","taf":"TAF LPPR 070500Z 0706/0806 17012KT 9999 SCT015 BKN045 ","updated":"2025-12-07T11:14:08Z"}
