{"icao":"LPAZ","taf":"TAF TAF LPAZ 281100Z 2812/2918 26025KT 6000 SCT012 BKN025 ","updated":"2026-01-28T16:35:38Z"}
