{"icao":"KJFK","taf":"TAF KJFK 310536Z 3106/0112 36005KT P6SM SKC ","updated":"2026-05-31T07:44:45Z"}
