{"icao":"KLAX","taf":"TAF KLAX 110528Z 1106/1212 13015G25KT P6SM -RA SCT030 BKN060 OVC150 ","updated":"2026-02-11T06:59:43Z"}
