{"icao":"LPFR","taf":"TAF LPFR 210500Z 2106/2206 13012KT 9999 SCT015 BKN030 ","updated":"2026-03-21T05:39:32Z"}
