{"icao":"KLAX","taf":"TAF KLAX 290535Z 2906/3012 VRB03KT P6SM BKN250 ","updated":"2026-01-29T08:38:02Z"}
