{"icao":"LPPS","taf":"TAF LPPS 300500Z 3006/3112 29010KT 9999 SCT015 PROB40 ","updated":"2025-12-30T10:22:21Z"}
