{"icao":"LPMR","taf":"TAF TAF LPMR 241100Z 2412/2512 17012KT CAVOK ","updated":"2026-02-24T11:39:19Z"}
