{"icao":"LPPD","taf":"TAF LPPD 131700Z 1318/1418 24007KT 9999 FEW015 BKN040 ","updated":"2025-09-14T03:01:04Z"}
