{"icao":"LPPT","taf":"TAF LPPT 290500Z 2906/3012 VRB02KT 9999 SCT015 BKN030 ","updated":"2025-11-29T07:16:52Z"}
