{"icao":"LPMR","taf":"TAF TAF LPMR 271106Z 2712/2812 28008KT CAVOK ","updated":"2026-06-27T11:25:35Z"}
