{"icao":"LPBJ","taf":"TAF TAF LPBJ 071703Z 0718/0818 30008KT CAVOK PROB40 0802/0809 2000 BCFG SCT003 BKN006","updated":"2025-10-08T02:56:15Z"}
