{"icao":"LPLA","taf":"TAF LPLA 191706Z 1918/2018 VRB05KT 9999 FEW010 SCT015 PROB30 ","updated":"2025-10-19T19:13:13Z"}
