{"icao":"KLAX","taf":"TAF KLAX 170530Z 1706/1812 VRB03KT P6SM SCT250 ","updated":"2026-05-17T06:24:18Z"}
