{"icao":"LPAZ","taf":"TAF TAF LPAZ 241100Z 2412/2518 04010KT 9999 SCT015 ","updated":"2025-12-24T15:20:13Z"}
