{"icao":"KJFK","taf":"TAF KJFK 270520Z 2706/2812 29015G25KT P6SM SCT050 ","updated":"2025-11-27T06:30:32Z"}
