{"icao":"LPOV","taf":"TAF LPOV 301707Z 3018/0118 34018KT CAVOK ","updated":"2026-06-30T17:51:31Z"}
