{"icao":"LPOV","taf":"TAF LPOV 222302Z 2300/2324 VRB02KT CAVOK PROB30 2300/2316??ECK TEXT NEW ENDING ADDED LPAZYFYX","updated":"2026-02-23T02:04:15Z"}
