{"icao":"KORD","taf":"TAF KORD 201720Z 2018/2124 22008KT 6SM BR BKN010 OVC020 ","updated":"2025-11-20T18:28:13Z"}
