{"icao":"LPMT","taf":"TAF LPMT 110507Z 1106/1206 34010KT CAVOK ","updated":"2026-04-11T08:41:24Z"}
