{"icao":"LPPR","taf":"TAF LPPR 211100Z 2112/2212 21010KT 8000 SCT004 BKN008 ","updated":"2025-10-21T14:17:00Z"}
