{"icao":"LPPS","taf":"TAF LPPS 291700Z 2918/3024 01012KT 9999 SCT015","updated":"2026-05-29T18:30:44Z"}
