{"icao":"LPLA","taf":"TAF LPLA 240509Z 2406/2506 30005KT 9999 FEW015 SCT020 ","updated":"2026-06-24T07:39:04Z"}
