{"icao":"KLAX","taf":"TAF KLAX 041723Z 0418/0524 VRB03KT P6SM FEW025 ","updated":"2025-10-04T18:21:44Z"}
