{"icao":"KORD","taf":"TAF KORD 180520Z 1806/1912 26012G22KT P6SM SCT050 ","updated":"2026-06-18T08:45:22Z"}
