{"icao":"LPPD","taf":"TAF LPPD 210500Z 2106/2206 03007KT 9999 SCT025 ","updated":"2025-09-21T11:12:37Z"}
