{"icao":"LPMR","taf":"TAF TAF LPMR 240502Z 2406/2506 24010KT 9999 SCT015 BKN025 ","updated":"2025-11-24T08:27:16Z"}
