{"icao":"LPFR","taf":"TAF LPFR 291100Z 2912/3012 24012KT 9999 FEW030 ","updated":"2025-09-29T12:37:42Z"}
