{"icao":"LPPT","taf":"TAF LPPT 271700Z 2718/2824 31012KT CAVOK ","updated":"2026-06-27T23:00:07Z"}
