{"icao":"KLAX","taf":"TAF KLAX 121131Z 1212/1318 VRB03KT 6SM BR SCT008 BKN250 ","updated":"2025-11-12T12:39:46Z"}
