{"icao":"KORD","taf":"TAF KORD 011738Z 0118/0224 27007KT P6SM SCT025 OVC050 ","updated":"2026-01-01T19:16:44Z"}
