{"icao":"LPMT","taf":"TAF LPMT 231706Z 2318/2418 34010KT CAVOK ","updated":"2026-05-23T21:54:26Z"}
