{"icao":"LPBJ","taf":"TAF TAF LPBJ 131110Z 1312/1412 30008KT CAVOK ","updated":"2026-03-13T12:55:56Z"}
