{"icao":"LPMA","taf":"TAF LPMA 171700Z 1718/1818 03013KT 9999 SCT016 PROB30 ","updated":"2026-04-18T05:05:11Z"}
