{"icao":"KORD","taf":"TAF KORD 041720Z 0418/0524 19011G17KT P6SM SCT080 SCT110 ","updated":"2025-11-04T18:27:26Z"}
