{"icao":"LPBJ","taf":"TAF TAF LPBJ 011705Z 0118/0218 32010KT CAVOK ","updated":"2026-07-01T23:13:23Z"}
