{"icao":"KLAX","taf":"TAF KLAX 020530Z 0206/0312 26006KT P6SM FEW015 ","updated":"2025-10-02T06:26:09Z"}
