{"icao":"LPLA","taf":"TAF LPLA 221707Z 2218/2318 29020G32KT 9999 SCT015 BKN025 ","updated":"2026-04-23T02:32:02Z"}
