{"icao":"LPPR","taf":"TAF LPPR 041100Z 0412/0512 28005KT 9999 BKN015 ","updated":"2025-10-04T12:31:33Z"}
