{"icao":"LPOV","taf":"TAF LPOV 240508Z 2406/2506 17010KT 9999 SCT006 BKN025 PROB40 2406/2410 4000 BR BKN004 ","updated":"2026-02-24T09:51:41Z"}
