{"icao":"LPMR","taf":"TAF TAF LPMR 300503Z 3006/0106 15005KT 9999 SCT015 PROB30 ","updated":"2026-04-30T10:54:02Z"}
