{"icao":"LPPR","taf":"TAF LPPR 011100Z 0112/0212 11015KT CAVOK ","updated":"2026-01-01T11:17:19Z"}
