{"icao":"LPPS","taf":"TAF LPPS 060500Z 0606/0712 28015KT 9999 SCT015 SCT030 ","updated":"2026-02-06T06:53:49Z"}
