{"icao":"LPBJ","taf":"TAF TAF LPBJ 120511Z 1206/1306 07005KT CAVOK PROB30 1206/1209 4000 BCFG SCT004 ","updated":"2026-03-12T07:44:44Z"}
