{"icao":"LPBJ","taf":"TAF TAF LPBJ 211707Z 2118/2218 20010KT CAVOK ","updated":"2026-05-21T21:27:05Z"}
