{"icao":"KJFK","taf":"TAF KJFK 031724Z 0318/0424 30019G28KT P6SM SCT070 SCT250 ","updated":"2026-05-03T18:57:49Z"}
