{"icao":"LPPD","taf":"TAF LPPD 261700Z 2618/2718 03015G25KT 9999 SCT015 SCT030 ","updated":"2025-10-26T23:16:09Z"}
