{"icao":"KLAX","taf":"TAF KLAX 170526Z 1706/1812 25010KT P6SM SCT150 ","updated":"2025-09-17T06:26:50Z"}
