{"icao":"KJFK","taf":"TAF KJFK 201736Z 2018/2124 24009KT P6SM FEW050 BKN250 ","updated":"2025-12-20T19:14:30Z"}
