{"icao":"KJFK","taf":"TAF KJFK 231124Z 2312/2418 36035G45KT 1/4SM +SN BLSN FZFG VV003 WS020/02055KT ","updated":"2026-02-23T11:39:28Z"}
