{"icao":"LPPT","taf":"TAF LPPT 041700Z 0418/0524 33015KT 9999 SCT035 ","updated":"2026-06-05T00:05:13Z"}
