{"icao":"KJFK","taf":"TAF KJFK 241134Z 2412/2518 33015G25KT P6SM FEW250 ","updated":"2026-01-24T12:38:40Z"}
