{"icao":"KLAX","taf":"TAF KLAX 221136Z 2212/2318 05004KT P6SM FEW250 ","updated":"2026-02-22T15:23:35Z"}
