{"icao":"LPMR","taf":"TAF LPMR 081707Z 0818/0918 18010KT 6000 -RA SCT014 BKN025 ","updated":"2026-02-08T17:25:30Z"}
