{"icao":"KORD","taf":"TAF KORD 240536Z 2406/2512 16005KT P6SM FEW060 SCT250 ","updated":"2026-06-24T07:39:21Z"}
