{"icao":"LPAZ","taf":"TAF TAF LPAZ 230500Z 2306/2412 19010KT 2000 BR BKN002 ","updated":"2026-05-23T07:30:07Z"}
