{"icao":"LPFR","taf":"TAF LPFR 221700Z 2218/2318 10008KT CAVOK ","updated":"2026-02-23T04:56:37Z"}
