{"icao":"KORD","taf":"TAF KORD 010521Z 0106/0212 07005KT P6SM SCT025 BKN070 ","updated":"2026-05-01T06:15:49Z"}
