{"icao":"KLAX","taf":"TAF KLAX 151738Z 1518/1624 VRB03KT P6SM FEW015 OVC200 ","updated":"2026-02-15T18:35:42Z"}
