{"icao":"LPFR","taf":"TAF LPFR 241100Z 2412/2512 09013KT CAVOK ","updated":"2026-03-24T14:56:31Z"}
