{"icao":"LPLA","taf":"TAF LPLA 281700Z 2818/2918 25025G35KT 8000 -RA SCT015 BKN025 ","updated":"2026-01-28T18:35:50Z"}
