{"icao":"LPPR","taf":"TAF LPPR 141100Z 1412/1512 21005KT 9999 FEW035 ","updated":"2026-06-14T11:55:58Z"}
