{"icao":"LPFR","taf":"TAF LPFR 161100Z 1612/1712 28010KT 9999 SCT035 ","updated":"2026-01-16T16:27:24Z"}
