{"icao":"LPMT","taf":"TAF LPMT 070503Z 0706/0806 VRB02KT 9999 SCT025 PROB40 0706/0708 BKN010 ","updated":"2025-10-07T08:23:48Z"}
