{"icao":"LPBJ","taf":"TAF TAF LPBJ 190508Z 1906/2006 VRB05KT 0500 FG BKN002 PROB30 1906/1908 0100 FG BKN001 ","updated":"2025-11-19T05:18:50Z"}
