{"icao":"KJFK","taf":"TAF KJFK 101139Z 1012/1118 21005KT P6SM SCT012 BKN250 ","updated":"2026-04-10T13:07:17Z"}
