{"icao":"LPLA","taf":"TAF LPLA 291707Z 2918/3018 31015KT 9999 FEW015 SCT025 PROB30 ","updated":"2025-11-29T20:20:06Z"}
