{"icao":"LPBJ","taf":"TAF TAF LPBJ 181710Z 1818/1918 24012KT 8000 -RA BKN015 ","updated":"2026-02-19T02:03:58Z"}
