{"icao":"LPPS","taf":"TAF LPPS 070500Z 0706/0812 02010KT 9999 SCT012 BKN030 ","updated":"2026-06-07T07:53:41Z"}
