{"icao":"LPFR","taf":"TAF LPFR 190500Z 1906/2006 07005KT CAVOK ","updated":"2025-10-19T09:15:58Z"}
