{"icao":"LPLA","taf":"TAF LPLA 011702Z 0118/0218 33028KT 9999 SCT025 SCT035 ","updated":"2026-01-01T21:18:27Z"}
