{"icao":"LPPS","taf":"TAF LPPS 200500Z 2006/2112 VRB05KT 9999 SCT008 ","updated":"2025-10-20T06:28:28Z"}
