{"icao":"LPPT","taf":"TAF LPPT 031700Z 0318/0424 31012KT CAVOK ","updated":"2026-04-03T18:44:38Z"}
