{"icao":"LPPD","taf":"TAF LPPD 061700Z 0618/0718 33015KT 9999 SCT020 ","updated":"2026-04-06T21:36:20Z"}
