{"icao":"KJFK","taf":"TAF KJFK 011722Z 0118/0224 03016G25KT P6SM FEW250 ","updated":"2025-10-01T18:25:27Z"}
