{"icao":"KLAX","taf":"TAF KLAX 141724Z 1418/1524 26015KT P6SM BKN009 ","updated":"2026-06-14T18:10:53Z"}
