{"icao":"KJFK","taf":"TAF KJFK 141724Z 1418/1524 18015KT P6SM SCT150 BKN200 ","updated":"2026-06-14T18:10:52Z"}
