{"icao":"LPMR","taf":"TAF LPMR 311715Z 3118/0118 33015KT CAVOK ","updated":"2026-05-31T22:05:10Z"}
