{"icao":"LPPT","taf":"TAF TAF LPPT 171100Z 1712/1818 12012KT CAVOK ","updated":"2026-03-17T16:04:24Z"}
