{"icao":"LPPT","taf":"TAF LPPT 020500Z 0206/0312 33012KT CAVOK PROB40 ","updated":"2026-04-02T10:00:56Z"}
