{"icao":"LPBJ","taf":"TAF TAF LPBJ 121103Z 1212/1312 16008KT CAVOK PROB40 ","updated":"2026-06-12T12:17:20Z"}
