{"icao":"LPPR","taf":"TAF LPPR 301700Z 3018/0118 33015KT CAVOK ","updated":"2026-07-01T03:41:01Z"}
