{"icao":"LPPS","taf":"TAF LPPS 080500Z 0806/0912 04010KT 9999 SCT015 ","updated":"2025-10-08T08:24:21Z"}
