{"icao":"KORD","taf":"TAF KORD 030520Z 0306/0412 18005KT P6SM FEW070 ","updated":"2025-10-03T08:22:04Z"}
