{"icao":"LPMR","taf":"TAF TAF LPMR 101706Z 1018/1118 34012KT CAVOK ","updated":"2026-06-10T19:34:51Z"}
