{"icao":"LPAZ","taf":"TAF TAF LPAZ 021700Z 0218/0324 29008KT 9999 FEW015 ","updated":"2026-06-03T03:57:42Z"}
