{"icao":"LPMR","taf":"TAF TAF LPMR 291707Z 2918/3018 14005KT 6000 -RA BKN010 OVC025 ","updated":"2025-11-29T21:15:36Z"}
