{"icao":"LPLA","taf":"TAF LPLA 111101Z 1112/1212 25010KT 9999 FEW025 ","updated":"2026-02-11T11:43:31Z"}
