{"icao":"LPPR","taf":"TAF LPPR 210500Z 2106/2206 09005KT CAVOK ","updated":"2026-02-21T09:28:23Z"}
