{"icao":"KJFK","taf":"TAF KJFK 111120Z 1112/1218 08007KT P6SM SCT030 OVC035 ","updated":"2025-10-11T13:20:44Z"}
