{"icao":"LPFR","taf":"TAF LPFR 171700Z 1718/1818 29008KT 9999 SCT020 FEW025TCU ","updated":"2025-11-17T23:17:03Z"}
