{"icao":"LPMR","taf":"TAF TAF LPMR 171703Z 1718/1818 34005KT 9999 SCT020 PROB30 1803/1808 2000 BR BKN006","updated":"2026-05-17T21:54:21Z"}
