{"icao":"LPPR","taf":"TAF LPPR 071700Z 0718/0818 32015KT CAVOK ","updated":"2026-06-07T18:02:19Z"}
