{"icao":"LPLA","taf":"TAF LPLA 261702Z 2618/2718 32015KT 9999 SCT035 ","updated":"2026-06-26T23:05:20Z"}
