{"icao":"KLAX","taf":"TAF KLAX 180520Z 1806/1912 VRB03KT P6SM BKN025 ","updated":"2026-05-18T08:01:50Z"}
