{"icao":"LPPR","taf":"TAF LPPR 151100Z 1512/1612 22010KT 9999 SCT012 BKN025 ","updated":"2026-02-15T15:24:35Z"}
