{"icao":"LPLA","taf":"TAF LPLA 041705Z 0418/0518 29025KT 9999 SCT016 ","updated":"2025-11-04T19:14:54Z"}
