{"icao":"LPFR","taf":"TAF LPFR 271100Z 2712/2812 26010KT CAVOK ","updated":"2025-09-27T14:14:16Z"}
