{"icao":"KORD","taf":"TAF KORD 170520Z 1706/1812 23006KT P6SM FEW070 BKN200 ","updated":"2026-06-17T06:09:35Z"}
