{"icao":"KORD","taf":"TAF KORD 311720Z 3118/0124 05008KT P6SM BKN150","updated":"2026-05-31T18:00:12Z"}
