{"icao":"LPPR","taf":"TAF LPPR 311700Z 3118/0118 33012KT CAVOK ","updated":"2026-03-31T17:55:36Z"}
