{"icao":"LPPT","taf":"TAF LPPT 151700Z 1518/1624 35015KT CAVOK PROB40 ","updated":"2026-03-15T19:26:38Z"}
