{"icao":"LPPS","taf":"TAF LPPS 140500Z 1406/1512 04010KT 9999 FEW015 BKN030 ","updated":"2025-09-14T07:15:02Z"}
