{"icao":"LPLA","taf":"TAF LPLA 040503Z 0406/0506 VRB05KT 9999 FEW025 BKN035 PROB30 ","updated":"2026-04-04T09:36:01Z"}
