{"icao":"LPPS","taf":"TAF LPPS 111100Z 1112/1218 02010KT 9999 SCT015 SCT030 ","updated":"2025-10-11T13:20:32Z"}
