{"icao":"KJFK","taf":"TAF KJFK 211737Z 2118/2224 28018G27KT P6SM FEW080 SCT150 BKN250 ","updated":"2025-12-21T19:14:39Z"}
