{"icao":"LPPD","taf":"TAF LPPD 241700Z 2418/2518 27010KT 9999 FEW018 ","updated":"2025-11-25T03:13:38Z"}
