{"icao":"LPPT","taf":"TAF LPPT 210500Z 2106/2212 VRB02KT CAVOK ","updated":"2026-05-21T07:50:08Z"}
