{"icao":"LPPS","taf":"TAF LPPS 201100Z 2012/2118 34010KT 9999 SCT015 SCT030 PROB30 ","updated":"2026-01-20T11:22:26Z"}
