{"icao":"LPFR","taf":"TAF LPFR 051700Z 0518/0618 10013KT CAVOK ","updated":"2026-04-05T20:32:01Z"}
