{"icao":"KJFK","taf":"TAF KJFK 251126Z 2512/2618 22012KT P6SM BKN100 ","updated":"2025-12-25T14:18:58Z"}
