{"icao":"KJFK","taf":"TAF KJFK 201731Z 2018/2124 VRB05KT P6SM BKN200 BKN250 ","updated":"2025-11-20T20:21:25Z"}
