{"icao":"KJFK","taf":"TAF KJFK 160523Z 1606/1712 VRB05KT P6SM SCT050 ","updated":"2026-05-16T05:53:14Z"}
