{"icao":"LPOV","taf":"TAF LPOV 141708Z 1418/1518 33010KT 5000 BR SCT008 ","updated":"2026-06-14T18:10:36Z"}
