{"icao":"KJFK","taf":"TAF KJFK 261722Z 2618/2724 21011KT P6SM SCT020 SCT100 BKN250 ","updated":"2026-06-26T17:45:46Z"}
