{"icao":"LPMR","taf":"TAF TAF LPMR 281106Z 2812/2912 35012KT CAVOK ","updated":"2026-03-28T15:29:25Z"}
