{"icao":"KJFK","taf":"TAF KJFK 280522Z 2806/2912 29015KT P6SM SKC ","updated":"2026-01-28T06:34:57Z"}
