{"icao":"KJFK","taf":"TAF KJFK 141139Z 1412/1518 VRB04KT P6SM FEW120 FEW250 ","updated":"2025-09-14T12:30:49Z"}
