{"icao":"KORD","taf":"TAF KORD 161120Z 1612/1718 31020G30KT 1 1/2SM -SN BKN019 ","updated":"2026-03-16T11:45:19Z"}
