{"icao":"LPFR","taf":"TAF LPFR 091100Z 0912/1012 22008KT CAVOK ","updated":"2025-10-09T14:17:34Z"}
