{"icao":"LPOV","taf":"TAF LPOV 260507Z 2606/2706 36005KT CAVOK PROB40 2606/2609 0500 FG BKN002 ","updated":"2026-02-26T10:43:30Z"}
