{"icao":"LPOV","taf":"TAF LPOV 241707Z 2418/2518 34015KT 9999 BKN015 ","updated":"2025-11-24T22:17:43Z"}
