{"icao":"LPPS","taf":"TAF LPPS 151700Z 1518/1624 05010KT 9999 SCT012 BKN030 ","updated":"2026-03-15T20:28:24Z"}
