{"icao":"LPPT","taf":"TAF LPPT 281700Z 2818/2924 31012KT CAVOK ","updated":"2026-05-28T23:14:13Z"}
