{"icao":"KLAX","taf":"TAF KLAX 211739Z 2118/2224 07012G20KT P6SM BKN015 ","updated":"2025-11-21T18:25:47Z"}
