{"icao":"KLAX","taf":"TAF KLAX 201735Z 2018/2124 24010KT P6SM SCT020 ","updated":"2026-06-20T19:24:03Z"}
