{"icao":"LPPD","taf":"TAF LPPD 141700Z 1418/1518 19013KT 9999 SCT015 ","updated":"2025-10-15T01:20:21Z"}
