{"icao":"KJFK","taf":"TAF KJFK 281734Z 2818/2924 32017G26KT P6SM BKN070 ","updated":"2026-03-28T19:28:55Z"}
