{"icao":"KJFK","taf":"TAF KJFK 290520Z 2906/3012 36005KT P6SM FEW250 ","updated":"2025-09-29T08:25:55Z"}
