{"icao":"LPBJ","taf":"TAF TAF LPBJ 231705Z 2318/2418 15015KT CAVOK ","updated":"2026-06-23T17:52:06Z"}
