{"icao":"KORD","taf":"TAF KORD 080520Z 0806/0912 33007KT P6SM FEW025 OVC035 ","updated":"2025-12-08T06:33:16Z"}
