{"icao":"LPBJ","taf":"TAF TAF LPBJ 120505Z 1206/1306 VRB03KT 5000 VCFG SCT003 BKN007 PROB40 1206/1210 0200 FG BKN001 ","updated":"2026-01-12T06:34:55Z"}
