{"icao":"KORD","taf":"TAF KORD 040520Z 0406/0512 34007KT P6SM BKN025 ","updated":"2026-02-04T07:43:07Z"}
