{"icao":"LPLA","taf":"TAF LPLA 140509Z 1406/1506 18010KT 9999 SCT014 BKN025 ","updated":"2025-10-14T09:20:04Z"}
