{"icao":"KLAX","taf":"TAF KLAX 270540Z 2706/2812 VRB03KT P6SM BKN015 ","updated":"2025-09-27T06:22:27Z"}
