{"icao":"LPAZ","taf":"TAF TAF LPAZ 310500Z 3106/0112 22015KT 8000 SCT006 SCT012 ","updated":"2026-01-31T05:37:34Z"}
