{"icao":"LPMR","taf":"TAF TAF LPMR 301109Z 3012/3112 22012KT 7000 -RA SCT012 BKN020 ","updated":"2026-01-30T13:55:02Z"}
