{"icao":"LPFR","taf":"TAF LPFR 161700Z 1618/1718 09007KT CAVOK ","updated":"2025-10-16T20:19:24Z"}
