{"icao":"LPPR","taf":"TAF LPPR 071700Z 0718/0818 VRB02KT 9999 FEW020 ","updated":"2026-01-07T18:31:12Z"}
