{"icao":"LPMR","taf":"TAF TAF LPMR 091111Z 0912/1012 23010KT 6000 -RA SCT004 BKN008 ","updated":"2026-02-09T11:42:42Z"}
