{"icao":"KORD","taf":"TAF KORD 211120Z 2112/2218 23010KT P6SM SCT100 ","updated":"2025-10-21T12:39:16Z"}
