{"icao":"KJFK","taf":"TAF KJFK 131740Z 1318/1424 17012KT P6SM SCT150 BKN250 ","updated":"2026-04-13T17:58:29Z"}
