{"icao":"LPPS","taf":"TAF LPPS 290500Z 2906/3012 01008KT 9999 SCT014 ","updated":"2026-05-29T07:53:57Z"}
