{"icao":"LPFR","taf":"TAF LPFR 081700Z 0818/0918 13010KT 9999 SCT030 ","updated":"2026-04-08T20:40:26Z"}
