{"icao":"LPPD","taf":"TAF LPPD 090500Z 0906/1006 30008KT 9999 SCT020 ","updated":"2025-11-09T11:13:19Z"}
