{"icao":"LPPR","taf":"TAF LPPR 021700Z 0218/0318 11012KT 9999 FEW020 BKN035 ","updated":"2026-01-03T03:20:55Z"}
