{"icao":"LPFR","taf":"TAF LPFR 091100Z 0912/1012 27008KT 9999 SCT030 PROB40 ","updated":"2026-03-09T14:48:53Z"}
