{"icao":"LPPT","taf":"TAF LPPT 201700Z 2018/2124 33012KT CAVOK ","updated":"2026-06-20T23:06:47Z"}
