{"icao":"KJFK","taf":"TAF KJFK 280524Z 2806/2912 18004KT P6SM -RA FEW070 BKN110 ","updated":"2025-09-28T07:14:24Z"}
