{"icao":"KJFK","taf":"TAF KJFK 101723Z 1018/1124 19011KT P6SM SCT250 ","updated":"2026-04-10T17:46:13Z"}
