{"icao":"LPOV","taf":"TAF LPOV 171104Z 1712/1812 21008KT 9999 FEW025 BKN040 PROB30 ","updated":"2026-02-17T15:51:26Z"}
