{"icao":"KORD","taf":"TAF KORD 071720Z 0718/0824 36014G22KT P6SM BKN015 ","updated":"2025-12-07T19:14:21Z"}
