{"icao":"KLAX","taf":"TAF KLAX 201140Z 2012/2118 VRB03KT P6SM SKC ","updated":"2026-03-20T14:02:35Z"}
