{"icao":"KJFK","taf":"TAF KJFK 010535Z 0106/0212 21018G23KT P6SM SCT020 OVC035 ","updated":"2026-01-01T06:32:18Z"}
