{"icao":"LPLA","taf":"TAF LPLA 161703Z 1618/1718 22012KT 9999 FEW020 SCT030 PROB30 ","updated":"2025-09-17T04:20:46Z"}
