{"icao":"KLAX","taf":"TAF KLAX 071732Z 0718/0824 04017G26KT P6SM SKC ","updated":"2026-03-07T18:32:08Z"}
