{"icao":"KORD","taf":"TAF KORD 261156Z 2612/2718 VRB03KT P6SM SCT100 ","updated":"2026-02-26T13:03:22Z"}
