{"icao":"KJFK","taf":"TAF KJFK 011738Z 0118/0224 21012KT P6SM VCSH FEW020 SCT045 BKN100 ","updated":"2026-04-01T17:51:08Z"}
