{"icao":"KJFK","taf":"TAF KJFK 021721Z 0218/0324 32013G21KT P6SM FEW250 ","updated":"2026-02-02T17:37:20Z"}
