{"icao":"LPPR","taf":"TAF LPPR 281700Z 2818/2918 31007KT CAVOK ","updated":"2026-03-28T17:27:28Z"}
