{"icao":"LPAZ","taf":"TAF LPAZ 131700Z 1318/1424 30008KT 9999 SCT025 ","updated":"2026-02-13T19:40:45Z"}
