{"icao":"KJFK","taf":"TAF KJFK 020539Z 0206/0312 21010KT P6SM BKN060 OVC080 ","updated":"2026-05-02T07:41:56Z"}
