{"icao":"LPPT","taf":"TAF LPPT 191700Z 1918/2024 22013KT 6000 SCT004 BKN008 ","updated":"2025-10-19T23:15:29Z"}
