{"icao":"LPMA","taf":"TAF LPMA 291100Z 2912/3012 01015KT 9999 SCT015 ","updated":"2026-06-29T14:46:56Z"}
