{"icao":"LPPS","taf":"TAF LPPS 011100Z 0112/0218 06012KT 9999 SCT015 ","updated":"2026-04-01T15:02:51Z"}
