{"icao":"LPMA","taf":"TAF LPMA 011700Z 0118/0218 22015KT 9999 SCT015 SCT030 ","updated":"2026-01-01T17:18:31Z"}
