{"icao":"KLAX","taf":"TAF KLAX 060531Z 0606/0712 34012G18KT P6SM SKC ","updated":"2026-03-06T05:43:31Z"}
