{"icao":"LPPD","taf":"TAF LPPD 090500Z 0906/1006 23017KT 6000 SCT004 BKN008 ","updated":"2026-02-09T08:55:43Z"}
