{"icao":"KORD","taf":"TAF KORD 131720Z 1318/1424 22011G18KT P6SM FEW250 ","updated":"2026-02-13T20:36:43Z"}
