{"icao":"LPFR","taf":"TAF LPFR 232009Z 2320/2418 33007KT CAVOK ","updated":"2026-03-24T04:25:01Z"}
