{"icao":"LPAZ","taf":"TAF TAF LPAZ 011100Z 0112/0218 03012KT 9999 FEW020 BKN045 ","updated":"2025-11-01T13:22:28Z"}
