{"icao":"LPAZ","taf":"TAF TAF LPAZ 080500Z 0806/0912 22015KT 9999 SCT025 BKN035 ","updated":"2025-11-08T06:25:17Z"}
