{"icao":"LPOV","taf":"TAF LPOV 261111Z 2612/2712 21018KT 5000 BR SCT003 BKN015 ","updated":"2026-01-26T12:45:47Z"}
