{"icao":"LPMT","taf":"TAF LPMT 041704Z 0418/0518 25018KT 6000 -RA SCT008 BKN020 ","updated":"2026-02-05T04:20:34Z"}
