{"icao":"KORD","taf":"TAF KORD 160520Z 1606/1712 21005KT P6SM FEW010 BKN200 ","updated":"2026-02-16T06:08:32Z"}
