{"icao":"LPAZ","taf":"TAF TAF LPAZ 021100Z 0212/0318 09010KT 9999 SCT012 BKN020 ","updated":"2025-11-02T16:19:41Z"}
