{"icao":"LPBJ","taf":"TAF TAF LPBJ 150504Z 1506/1606 05005KT CAVOK ","updated":"2025-10-15T09:19:25Z"}
