{"icao":"LPBJ","taf":"TAF TAF LPBJ 010503Z 0106/0206 20010KT 9999 SCT008 BKN015 ","updated":"2026-02-01T09:29:17Z"}
