{"icao":"LPPR","taf":"TAF LPPR 301700Z 3018/0118 33015KT CAVOK ","updated":"2026-06-30T19:54:01Z"}
