{"icao":"KORD","taf":"TAF KORD 210542Z 2106/2212 03008KT P6SM FEW150 SCT250 ","updated":"2026-05-21T07:50:44Z"}
