{"icao":"KLAX","taf":"TAF KLAX 171120Z 1712/1818 VRB03KT P6SM SKC ","updated":"2025-10-17T13:26:58Z"}
