{"icao":"LPBJ","taf":"TAF TAF LPBJ 041103Z 0412/0512 33010KT 9999 SCT030 ","updated":"2026-05-04T13:56:57Z"}
