{"icao":"KLAX","taf":"TAF KLAX 071725Z 0718/0824 VRB03KT P6SM BKN250 ","updated":"2026-01-07T19:19:22Z"}
