{"icao":"LPFR","taf":"TAF LPFR 280500Z 2806/0106 35007KT CAVOK ","updated":"2026-02-28T10:21:44Z"}
