{"icao":"KJFK","taf":"TAF KJFK 021140Z 0212/0318 04006KT P6SM BKN040 ","updated":"2025-12-02T12:41:41Z"}
