{"icao":"KJFK","taf":"TAF KJFK 181736Z 1818/1924 03007KT 1SM -SN BR BKN004 ","updated":"2026-01-18T18:26:41Z"}
