{"icao":"LPLA","taf":"TAF LPLA 211710Z 2118/2218 36010KT 9999 FEW015 BKN025 ","updated":"2026-03-21T18:34:50Z"}
