{"icao":"LPPS","taf":"TAF LPPS 231100Z 2312/2418 VRB05KT 9999 SCT015 PROB40 ","updated":"2026-04-23T15:51:36Z"}
