{"icao":"KJFK","taf":"TAF KJFK 210521Z 2106/2212 27011KT P6SM SKC ","updated":"2026-01-21T07:27:37Z"}
