{"icao":"LPBJ","taf":"TAF TAF LPBJ 260503Z 2606/2706 32005KT CAVOK PROB30 2606/2608 1500 BCFG SCT003 ","updated":"2025-12-26T09:21:22Z"}
