{"icao":"LPPR","taf":"TAF LPPR 281700Z 2818/0118 33013KT CAVOK ","updated":"2026-02-28T20:24:10Z"}
