{"icao":"LPPT","taf":"TAF LPPT 041100Z 0412/0518 33012KT 9999 SCT030 ","updated":"2026-05-04T16:02:04Z"}
