{"icao":"LPPR","taf":"TAF LPPR 020500Z 0206/0306 VRB02KT CAVOK ","updated":"2026-04-02T08:54:50Z"}
