{"icao":"LPLA","taf":"TAF LPLA 151703Z 1518/1618 31012KT 9999 FEW025 SCT035 ","updated":"2025-11-16T03:17:06Z"}
