{"icao":"KORD","taf":"TAF KORD 190522Z 1906/2012 27021G32KT 6SM -SHSN OVC025 ","updated":"2025-12-19T06:30:37Z"}
