{"icao":"LPBJ","taf":"TAF TAF LPBJ 131707Z 1318/1418 19012KT CAVOK ","updated":"2026-06-13T18:05:48Z"}
