{"icao":"KLAX","taf":"TAF KLAX 280526Z 2806/2912 25008KT P6SM BKN009 ","updated":"2026-03-28T08:37:29Z"}
