{"icao":"LPAZ","taf":"TAF TAF LPAZ 200500Z 2006/2112 06013KT 9999 SCT020 ","updated":"2025-11-20T05:18:40Z"}
