{"icao":"KORD","taf":"TAF KORD 121135Z 1212/1318 19014G22KT P6SM BKN100 WS018/22055KT ","updated":"2026-04-12T12:59:29Z"}
