{"icao":"KORD","taf":"TAF KORD 041720Z 0418/0524 35007KT P6SM -SHSN BKN024 ","updated":"2026-02-04T17:43:46Z"}
