{"icao":"KORD","taf":"TAF KORD 241726Z 2418/2524 20020G30KT P6SM FEW050 OVC100 ","updated":"2026-02-24T20:33:54Z"}
