{"icao":"LPLA","taf":"TAF LPLA 090504Z 0906/1006 20010KT 9999 FEW015 SCT030 ","updated":"2026-01-09T09:26:56Z"}
