{"icao":"LPOV","taf":"TAF LPOV 231706Z 2318/2418 35010KT CAVOK ","updated":"2026-03-23T21:35:19Z"}
