{"icao":"KLAX","taf":"TAF KLAX 220537Z 2206/2312 VRB03KT P6SM SCT035 BKN150 ","updated":"2025-11-22T06:25:42Z"}
