{"icao":"LPAZ","taf":"TAF TAF LPAZ 020500Z 0206/0312 VRB05KT 9999 SCT006 SCT012 ","updated":"2025-10-02T08:22:48Z"}
