{"icao":"LPBJ","taf":"TAF TAF LPBJ 241702Z 2418/2518 07008KT 9999 SCT035 ","updated":"2025-12-24T19:14:55Z"}
