{"icao":"KJFK","taf":"TAF KJFK 020542Z 0206/0312 21005KT P6SM SCT250 ","updated":"2026-07-02T07:30:26Z"}
