{"icao":"LPMA","taf":"TAF LPMA 150500Z 1506/1606 21013KT 9999 SCT015 BKN030 ","updated":"2025-11-15T07:15:35Z"}
