{"icao":"LPMR","taf":"TAF TAF LPMR 231103Z 2312/2412 15005KT 9999 BKN030 ","updated":"2025-11-23T15:16:35Z"}
