{"icao":"LPMT","taf":"TAF LPMT 301104Z 3012/0112 34010KT CAVOK ","updated":"2026-06-30T12:06:48Z"}
