{"icao":"KJFK","taf":"TAF KJFK 021725Z 0218/0324 22007KT P6SM FEW250 ","updated":"2025-11-02T20:17:35Z"}
