{"icao":"LPPS","taf":"TAF LPPS 141100Z 1412/1518 01013KT 9999 SCT015 ","updated":"2026-01-14T12:43:30Z"}
