{"icao":"LPPR","taf":"TAF LPPR 141100Z 1412/1512 25008KT 6000 -RA SCT006 BKN012 ","updated":"2026-03-14T12:49:27Z"}
