{"icao":"LPLA","taf":"TAF LPLA 201706Z 2018/2118 32018KT 9999 BKN030 ","updated":"2025-12-21T04:36:09Z"}
