{"icao":"KLAX","taf":"TAF KLAX 271148Z 2712/2818 VRB03KT 4SM BR BKN011 ","updated":"2025-10-27T13:30:46Z"}
