{"icao":"LPPT","taf":"TAF LPPT 280500Z 2806/2912 35008KT CAVOK ","updated":"2026-03-28T10:30:22Z"}
