{"icao":"KLAX","taf":"TAF KLAX 181748Z 1818/1924 10006KT P6SM SCT025 BKN045 PROB30 1818/1819 -SHRA ","updated":"2025-11-18T18:28:13Z"}
