{"icao":"LPMT","taf":"TAF LPMT 261102Z 2612/2712 02008KT CAVOK","updated":"2025-11-26T14:19:26Z"}
