{"icao":"LPPD","taf":"TAF LPPD 121700Z 1218/1318 32013KT 9999 SCT020 ","updated":"2025-11-12T22:17:48Z"}
