{"icao":"LPAR","taf":"TAF LPAR 261403Z 2615/2624 05012KT CAVOK ","updated":"2026-03-30T13:16:35Z"}
