{"icao":"KLAX","taf":"TAF KLAX 151130Z 1512/1618 VRB03KT P6SM SCT007 ","updated":"2026-04-15T13:53:16Z"}
