{"icao":"LPPD","taf":"TAF LPPD 310500Z 3106/0106 27015KT 9999 SCT020 ","updated":"2025-10-31T06:27:37Z"}
