{"icao":"LPBJ","taf":"TAF TAF LPBJ 081103Z 0812/0912 26008KT 9999 SCT014 SCT025 ","updated":"2026-02-08T12:47:23Z"}
