{"icao":"LPPD","taf":"TAF LPPD 081100Z 0812/0912 21025G38KT 8000 SCT008 BKN015 ","updated":"2025-12-08T11:17:55Z"}
