{"icao":"KORD","taf":"TAF KORD 041120Z 0412/0518 30006KT P6SM FEW025 SCT030 ","updated":"2026-01-04T14:17:52Z"}
