{"icao":"KORD","taf":"TAF KORD 060537Z 0606/0712 24011KT P6SM SCT025 OVC035 ","updated":"2025-12-06T08:23:27Z"}
