{"icao":"LPFR","taf":"TAF LPFR 010500Z 0106/0206 04007KT CAVOK PROB30 ","updated":"2026-03-01T10:23:36Z"}
