{"icao":"LPPS","taf":"TAF LPPS 251100Z 2512/2618 20010KT 9999 SCT015 BKN030 ","updated":"2025-10-25T16:20:00Z"}
