{"icao":"LPBJ","taf":"TAF TAF LPBJ 050502Z 0506/0606 22016KT 6000 -RA SCT008 BKN015 ","updated":"2026-02-05T06:57:40Z"}
