{"icao":"LPBJ","taf":"TAF TAF LPBJ 260505Z 2606/2706 VRB02KT 9999 SCT018 ","updated":"2025-10-26T06:25:04Z"}
