{"icao":"LPAZ","taf":"TAF TAF LPAZ 021700Z 0218/0324 20008KT 9999 SCT006 SCT012 ","updated":"2025-10-02T18:24:43Z"}
