{"icao":"LPMR","taf":"TAF TAF LPMR 172304Z 1800/1824 VRB02KT CAVOK PROB40 1804/1808 3000 BR BKN003 ","updated":"2025-09-18T11:13:44Z"}
