{"icao":"KORD","taf":"TAF KORD 311720Z 3118/0124 29011G20KT P6SM SCT030 BKN070 ","updated":"2025-10-31T18:27:11Z"}
