{"icao":"KORD","taf":"TAF KORD 021720Z 0218/0324 30008KT P6SM SCT060 ","updated":"2026-05-02T18:57:42Z"}
