{"icao":"KJFK","taf":"TAF KJFK 141720Z 1418/1524 36014KT P6SM FEW010 OVC018 ","updated":"2025-10-14T19:14:06Z"}
