{"icao":"LPOV","taf":"TAF LPOV 271104Z 2712/2812 26020KT 9999 FEW022 ","updated":"2026-01-27T16:28:54Z"}
