{"icao":"LPMT","taf":"TAF LPMT 210501Z 2106/2206 01010KT CAVOK PROB40 ","updated":"2025-11-21T09:19:17Z"}
