{"icao":"LPPT","taf":"TAF LPPT 150500Z 1506/1612 VRB02KT CAVOK ","updated":"2025-10-15T05:17:16Z"}
