{"icao":"LPPT","taf":"TAF LPPT 231100Z 2312/2418 VRB05KT CAVOK ","updated":"2026-02-23T16:55:54Z"}
