{"icao":"KJFK","taf":"TAF KJFK 310526Z 3106/0112 21010KT P6SM OVC060 PROB30 3107/3110 6SM -SHRA SCT035 OVC060 ","updated":"2026-03-31T07:12:02Z"}
