{"icao":"LPFR","taf":"TAF LPFR 131700Z 1318/1418 28020KT 9999 SCT020 ","updated":"2026-02-13T22:31:46Z"}
