{"icao":"LPMA","taf":"TAF LPMA 040500Z 0406/0506 03010KT 9999 SCT015 SCT030","updated":"2025-10-04T05:15:43Z"}
