{"icao":"LPFR","taf":"TAF LPFR 181700Z 1818/1918 26013KT CAVOK ","updated":"2026-05-18T22:02:25Z"}
