{"icao":"KORD","taf":"TAF KORD 041120Z 0412/0518 34006KT P6SM VCSH OVC022 ","updated":"2026-02-04T11:31:57Z"}
