{"icao":"KORD","taf":"TAF KORD 311120Z 3112/0118 29008KT P6SM FEW040 ","updated":"2025-10-31T13:28:30Z"}
