{"icao":"LPLA","taf":"TAF LPLA 181100Z 1812/1912 32012KT 9999 FEW022 SCT030 PROB40 ","updated":"2026-06-18T12:24:07Z"}
