{"icao":"LPAZ","taf":"TAF TAF LPAZ 131100Z 1312/1418 32020KT 9999 SCT025 ","updated":"2025-11-13T14:18:55Z"}
