{"icao":"LPAZ","taf":"TAF TAF LPAZ 120500Z 1206/1312 32007KT 9999 SCT025 ","updated":"2025-10-12T07:15:39Z"}
