{"icao":"KJFK","taf":"TAF KJFK 101740Z 1018/1124 17013KT P6SM SCT070 BKN100 PROB30 1019/1022 6SM -SHRA BKN025 ","updated":"2026-06-10T19:38:42Z"}
