{"icao":"LPPT","taf":"TAF LPPT 241700Z 2418/2524 31008KT CAVOK ","updated":"2026-03-24T17:54:28Z"}
