{"icao":"LPOV","taf":"TAF LPOV 011705Z 0118/0218 30005KT CAVOK ","updated":"2026-03-02T02:01:02Z"}
