{"icao":"LPMA","taf":"TAF LPMA 181700Z 1818/1918 VRB05KT 9999 SCT014 ","updated":"2026-02-19T02:04:16Z"}
