{"icao":"KORD","taf":"TAF KORD 101136Z 1012/1118 34015G25KT 3SM -SHSN BLSN BKN015 OVC030 ","updated":"2025-11-10T13:30:50Z"}
