{"icao":"LPOV","taf":"TAF LPOV 261101Z 2612/2712 32008KT CAVOK PROB30 2623/2707 VRB02KT 0600 FG BKN003 ","updated":"2026-02-26T16:57:00Z"}
