{"icao":"LPMR","taf":"TAF TAF LPMR 281702Z 2818/0118 34012KT CAVOK ","updated":"2026-02-28T18:31:31Z"}
