{"icao":"KJFK","taf":"TAF KJFK 311136Z 3112/0118 31008KT P6SM FEW250 ","updated":"2026-05-31T12:10:50Z"}
