{"icao":"KJFK","taf":"TAF KJFK 261741Z 2618/2724 19010KT P6SM FEW120 FEW250 ","updated":"2026-03-26T19:53:50Z"}
