{"icao":"LPBJ","taf":"TAF TAF LPBJ 221705Z 2218/2318 25010KT CAVOK ","updated":"2026-06-22T20:45:39Z"}
