{"icao":"KLAX","taf":"TAF KLAX 130543Z 1306/1412 17004KT P6SM SKC ","updated":"2025-10-13T08:26:24Z"}
