{"icao":"KJFK","taf":"TAF KJFK 291124Z 2912/3018 32010KT P6SM SCT250 ","updated":"2026-05-29T11:28:03Z"}
