{"icao":"KJFK","taf":"TAF KJFK 111725Z 1118/1224 29013G22KT P6SM FEW050 ","updated":"2026-01-11T18:27:48Z"}
