{"icao":"LPPD","taf":"TAF LPPD 020500Z 0206/0306 32022G35KT 9999 SCT015 SCT030 ","updated":"2026-01-02T09:23:44Z"}
