{"icao":"LPOV","taf":"TAF TAF LPOV 160502Z 1606/1706 35008KT CAVOK BECM/ CHECK TEXT NEW ENDING ADDED LPAZYFYX","updated":"2026-05-16T08:02:22Z"}
