{"icao":"KLAX","taf":"TAF KLAX 141723Z 1418/1524 10004KT P6SM SKC ","updated":"2026-01-14T17:25:59Z"}
