{"icao":"LPFR","taf":"TAF LPFR 171700Z 1718/1818 12005KT CAVOK ","updated":"2025-10-17T19:13:55Z"}
