{"icao":"LPPD","taf":"TAF LPPD 270500Z 2706/2806 03013KT 9999 SCT020 SCT045 PROB40 ","updated":"2025-09-27T06:22:25Z"}
