{"icao":"KJFK","taf":"TAF KJFK 090526Z 0906/1012 11004KT P6SM BKN200 ","updated":"2026-01-09T06:33:04Z"}
