{"icao":"KORD","taf":"TAF KORD 221720Z 2218/2324 28014G23KT P6SM OVC030 ","updated":"2025-10-22T20:21:48Z"}
