{"icao":"LPMT","taf":"TAF LPMT 240502Z 2406/2506 24010KT 9999 SCT020 BKN030 ","updated":"2025-11-24T06:29:36Z"}
