{"icao":"LPBJ","taf":"TAF TAF LPBJ 150510Z 1506/1606 28005KT CAVOK ","updated":"2025-09-15T08:23:40Z"}
