{"icao":"LPMT","taf":"TAF LPMT 230510Z 2306/2406 26008KT 9999 FEW015 BKN030 ","updated":"2025-10-23T06:27:17Z"}
