{"icao":"LPPR","taf":"TAF LPPR 111700Z 1118/1218 33012KT CAVOK ","updated":"2026-06-12T03:50:23Z"}
