{"icao":"LPFR","taf":"TAF LPFR 071700Z 0718/0818 25010KT 9999 SCT015 BKN035 ","updated":"2025-11-07T18:25:54Z"}
