{"icao":"KORD","taf":"TAF KORD 221120Z 2212/2318 31017G25KT P6SM -SN SCT025 OVC035 ","updated":"2026-02-22T11:20:23Z"}
