{"icao":"LPAZ","taf":"TAF TAF LPAZ 290500Z 2906/3012 09007KT 9999 FEW012 BKN025 ","updated":"2026-03-29T07:02:04Z"}
