{"icao":"LPBJ","taf":"TAF TAF LPBJ 190514Z 1906/2006 14005KT CAVOK ","updated":"2025-10-19T07:15:08Z"}
