{"icao":"LPLA","taf":"TAF LPLA 230512Z 2306/2406 20012KT 6000 -RA FEW008 BKN014 ","updated":"2025-09-23T07:17:41Z"}
