{"icao":"KJFK","taf":"TAF KJFK 220526Z 2206/2312 18010KT P6SM OVC050 ","updated":"2026-04-22T07:44:51Z"}
