{"icao":"KORD","taf":"TAF KORD 081720Z 0818/0924 12012KT P6SM BKN060 ","updated":"2026-02-08T18:35:50Z"}
