{"icao":"LPMR","taf":"TAF TAF LPMR 160503Z 1606/1706 35008KT CAVOK ","updated":"2026-05-16T05:53:11Z"}
