{"icao":"LPMA","taf":"TAF LPMA 220500Z 2206/2306 35010KT 9999 SCT015 ","updated":"2025-12-22T07:23:33Z"}
