{"icao":"LPBJ","taf":"TAF TAF LPBJ 150508Z 1506/1606 VRB02KT 0700 FG BKN002 ","updated":"2026-01-15T07:24:01Z"}
