{"icao":"KJFK","taf":"TAF KJFK 100533Z 1006/1112 VRB03KT 1/2SM FG BKN002 OVC006 ","updated":"2026-05-10T06:11:06Z"}
