{"icao":"KORD","taf":"TAF KORD 230520Z 2306/2412 29010KT P6SM FEW200 ","updated":"2025-11-23T06:26:40Z"}
