{"icao":"LPAZ","taf":"TAF TAF LPAZ 241700Z 2418/2524 32010KT 9999 FEW018 BKN030 ","updated":"2025-11-24T19:13:21Z"}
