{"icao":"LPMR","taf":"TAF TAF LPMR 101115Z 1012/1112 13008KT CAVOK ","updated":"2026-04-10T13:07:14Z"}
