{"icao":"KLAX","taf":"TAF KLAX 031737Z 0318/0424 24008KT P6SM BKN025 ","updated":"2025-10-03T19:13:58Z"}
