{"icao":"LPPT","taf":"TAF LPPT 181700Z 1818/1924 VRB05KT 9999 FEW045CB ","updated":"2025-09-19T03:35:45Z"}
