{"icao":"KLAX","taf":"TAF KLAX 091139Z 0912/1018 07003KT 2SM BR BKN003 ","updated":"2025-11-09T12:33:54Z"}
