{"icao":"LPMR","taf":"TAF TAF LPMR 280507Z 2806/2906 28015KT 9999 BKN025 ","updated":"2025-09-28T07:14:21Z"}
