{"icao":"LPPD","taf":"TAF LPPD 120500Z 1206/1306 20008KT 6000 SCT006 SCT012 ","updated":"2026-02-12T08:44:11Z"}
