{"icao":"LPFR","taf":"TAF COR LPFR 221742Z 2218/2318 24018KT 9999 SCT015 BKN025 ","updated":"2026-01-23T04:41:19Z"}
