{"icao":"LPBJ","taf":"TAF TAF LPBJ 150510Z 1506/1606 28005KT CAVOK ","updated":"2025-09-15T09:20:10Z"}
