{"icao":"LPMR","taf":"TAF LPMR 251103Z 2512/2612 02010KT 9999 SCT008 BKN025 ","updated":"2025-10-25T12:32:56Z"}
