{"icao":"KLAX","taf":"TAF KLAX 100540Z 1006/1112 22005KT P6SM BKN120 ","updated":"2025-10-10T07:16:58Z"}
