{"icao":"LPPD","taf":"TAF LPPD 221100Z 2212/2312 21012KT 2000 -DZRA BR SCT003 BKN006 ","updated":"2026-05-22T13:30:22Z"}
