{"icao":"LPPD","taf":"TAF LPPD 041100Z 0412/0512 23015KT 9999 FEW015 BKN040 ","updated":"2025-12-04T15:22:20Z"}
