{"icao":"LPPS","taf":"TAF LPPS 271700Z 2718/2824 02017KT 9999 SCT008 BKN015 PROB30 ","updated":"2026-02-27T23:23:16Z"}
