{"icao":"LPBJ","taf":"TAF TAF LPBJ 221702Z 2218/2318 VRB02KT CAVOK PROB30 2303/2308 2000 BCFG SCT002","updated":"2026-02-22T21:22:54Z"}
