{"icao":"LPFR","taf":"TAF LPFR 060500Z 0606/0706 VRB05KT 9999 SCT035 PROB40 0613/0617 25010KT","updated":"2025-11-06T08:25:33Z"}
