{"icao":"KORD","taf":"TAF KORD 271134Z 2712/2818 13005KT 6SM BR OVC008 ","updated":"2025-12-27T12:37:52Z"}
