{"icao":"LPFR","taf":"TAF LPFR 280500Z 2806/2906 04005KT CAVOK ","updated":"2026-05-28T07:55:42Z"}
