{"icao":"LPLA","taf":"TAF LPLA 230510Z 2306/2406 27015KT 9999 FEW018 SCT030 ","updated":"2026-04-23T05:28:51Z"}
