{"icao":"KORD","taf":"TAF KORD 141727Z 1418/1524 10010KT P6SM BKN070 ","updated":"2026-03-14T18:37:04Z"}
