{"icao":"KJFK","taf":"TAF KJFK 271127Z 2712/2818 03005KT P6SM BKN200 ","updated":"2025-09-27T12:31:50Z"}
