{"icao":"LPMR","taf":"TAF TAF LPMR 181104Z 1812/1912 01010KT CAVOK ","updated":"2026-01-18T12:37:45Z"}
