{"icao":"KJFK","taf":"TAF KJFK 021126Z 0212/0318 07011G22KT 6SM BR SCT008 OVC012 ","updated":"2026-04-02T11:43:09Z"}
