{"icao":"LPMA","taf":"TAF LPMA 281700Z 2818/0118 01015KT 9999 SCT015 ","updated":"2026-02-28T22:20:54Z"}
