{"icao":"KLAX","taf":"TAF KLAX 061724Z 0618/0724 VRB03KT P6SM SKC ","updated":"2025-12-06T19:14:16Z"}
