{"icao":"LPPD","taf":"TAF LPPD 171100Z 1712/1812 21013KT 9999 SCT006 SCT012 ","updated":"2026-02-17T11:38:04Z"}
