{"icao":"LPBJ","taf":"TAF TAF LPBJ 060513Z 0606/0706 33005KT CAVOK ","updated":"2026-06-06T06:34:07Z"}
