{"icao":"KORD","taf":"TAF KORD 231120Z 2312/2418 01006KT P6SM SCT250 ","updated":"2026-06-23T12:05:11Z"}
