{"icao":"KLAX","taf":"TAF KLAX 141128Z 1412/1518 15005KT P6SM -RA OVC040 ","updated":"2025-11-14T12:38:13Z"}
