{"icao":"LPPR","taf":"TAF LPPR 151100Z 1512/1612 34015KT 9999 SCT030 ","updated":"2026-05-15T16:49:53Z"}
