{"icao":"KORD","taf":"TAF KORD 161720Z 1618/1724 21012G18KT P6SM BKN020 ","updated":"2026-01-16T20:21:06Z"}
