{"icao":"KORD","taf":"TAF KORD 231734Z 2318/2424 36012G19KT P6SM FEW040 FEW250 ","updated":"2026-03-23T19:47:56Z"}
