{"icao":"KORD","taf":"TAF KORD 281120Z 2812/2918 29012KT P6SM SCT045 ","updated":"2025-11-28T14:19:15Z"}
