{"icao":"KLAX","taf":"TAF KLAX 021201Z 0212/0318 25006KT 6SM BR FEW008 BKN250 ","updated":"2026-03-02T12:56:26Z"}
