{"icao":"LPLA","taf":"TAF LPLA 101707Z 1018/1118 35018KT 9999 FEW020 SCT025 ","updated":"2026-05-10T22:45:03Z"}
