{"icao":"LPPR","taf":"TAF LPPR 030500Z 0306/0406 08010KT 9999 FEW035 ","updated":"2026-01-03T09:18:58Z"}
