{"icao":"LPMR","taf":"TAF TAF LPMR 020509Z 0206/0306 33005KT 3000 -DZ BR SCT004 BKN006 ","updated":"2026-06-02T10:20:40Z"}
