{"icao":"LPLA","taf":"TAF TAF COR LPLA 170501Z 1706/1806 31020KT 9999 SCT012 BKN025 ","updated":"2026-03-17T08:52:40Z"}
