{"icao":"LPOV","taf":"TAF LPOV 261701Z 2618/2718 26005KT 9999 SCT018 BKN040 ","updated":"2026-06-26T19:44:28Z"}
