{"icao":"KLAX","taf":"TAF KLAX 281745Z 2818/2924 27006KT P6SM SKC ","updated":"2026-04-28T20:14:31Z"}
