{"icao":"KORD","taf":"TAF KORD 110540Z 1106/1212 30010KT P6SM FEW250 ","updated":"2026-02-11T07:59:03Z"}
