{"icao":"LPFR","taf":"TAF LPFR 091700Z 0918/1018 25013KT 8000 SCT004 BKN008 ","updated":"2026-02-09T20:03:24Z"}
