{"icao":"KJFK","taf":"TAF KJFK 050527Z 0506/0612 26009KT P6SM SCT250 ","updated":"2025-11-05T07:18:29Z"}
