{"icao":"LPAZ","taf":"TAF TAF LPAZ 290500Z 2906/3012 32012KT 9999 FEW020 BKN035 ","updated":"2025-10-29T08:25:26Z"}
