{"icao":"KJFK","taf":"TAF KJFK 261727Z 2618/2724 06008KT P6SM BKN080 ","updated":"2025-12-26T19:15:08Z"}
