{"icao":"LPMT","taf":"TAF LPMT 011704Z 0118/0218 35008KT CAVOK ","updated":"2026-07-01T21:26:37Z"}
