{"icao":"LPMR","taf":"TAF LPMR 101112Z 1012/1112 22010KT 0900 FG BKN004 ","updated":"2026-02-10T16:08:44Z"}
