{"icao":"LPPS","taf":"TAF LPPS 230500Z 2306/2412 06007KT 9999 SCT015 BKN030 ","updated":"2025-10-23T09:20:00Z"}
