{"icao":"KLAX","taf":"TAF KLAX 291120Z 2912/3018 06004KT P6SM SKC ","updated":"2026-01-29T11:30:21Z"}
