{"icao":"KORD","taf":"TAF KORD 220535Z 2206/2312 27016G27KT P6SM SCT025 OVC040 ","updated":"2025-10-22T06:28:18Z"}
