{"icao":"LPLA","taf":"TAF TAF LPLA 302307Z 3100/3124 23015KT 8000 -RA SCT015 BKN025 ","updated":"2026-01-31T04:05:17Z"}
