{"icao":"LPMR","taf":"TAF TAF LPMR 241702Z 2418/2518 24010KT 9999 SCT015 BKN022 ","updated":"2025-10-24T17:16:04Z"}
