{"icao":"LPMA","taf":"TAF LPMA 170500Z 1706/1806 VRB05KT 9999 SCT015 ","updated":"2026-06-17T06:09:33Z"}
