{"icao":"LPPR","taf":"TAF LPPR 140500Z 1406/1506 31007KT 9999 BKN020 ","updated":"2026-03-14T06:43:52Z"}
