{"icao":"LPFR","taf":"TAF LPFR 161700Z 1618/1718 29012KT 9999 SCT015 ","updated":"2025-11-16T18:24:08Z"}
