{"icao":"LPMT","taf":"TAF LPMT 080521Z 0806/0906 23005KT 9999 FEW025 SCT025 ","updated":"2026-02-08T10:25:19Z"}
