{"icao":"KLAX","taf":"TAF KLAX 090533Z 0906/1012 VRB03KT P6SM SKC ","updated":"2026-04-09T07:20:40Z"}
