{"icao":"LPPD","taf":"TAF LPPD 120500Z 1206/1306 VRB05KT 9999 FEW015 BKN035 PROB30 ","updated":"2026-06-12T08:23:42Z"}
