{"icao":"KLAX","taf":"TAF KLAX 290541Z 2906/3012 VRB03KT P6SM SCT008 ","updated":"2025-11-29T08:23:36Z"}
