{"icao":"KJFK","taf":"TAF KJFK 101720Z 1018/1124 18008KT P6SM FEW040 BKN080 ","updated":"2026-02-10T18:00:34Z"}
