{"icao":"KJFK","taf":"TAF KJFK 260529Z 2606/2712 35015G21KT P6SM SCT250 ","updated":"2025-12-26T06:31:04Z"}
