{"icao":"LPPT","taf":"TAF LPPT 220500Z 2206/2312 04005KT 9999 FEW035 ","updated":"2026-03-22T10:26:07Z"}
