{"icao":"LPMR","taf":"TAF TAF LPMR 210500Z 2106/2206 05005KT CAVOK ","updated":"2025-11-21T06:29:09Z"}
