{"icao":"LPPR","taf":"TAF LPPR 091700Z 0918/1018 35008KT CAVOK ","updated":"2026-04-09T23:36:16Z"}
