{"icao":"LPFR","taf":"TAF LPFR 030500Z 0306/0406 03005KT CAVOK ","updated":"2025-11-03T10:21:35Z"}
