{"icao":"LPOV","taf":"TAF LPOV 111703Z 1118/1218 28012KT 7000 BKN012 ","updated":"2026-02-11T19:01:26Z"}
