{"icao":"LPPT","taf":"TAF LPPT 140500Z 1406/1512 VRB05KT 9999 SCT013 BKN025 ","updated":"2026-04-14T11:01:11Z"}
