{"icao":"LPLA","taf":"TAF COR TAF LPLA 290509Z 2906/3006 24008KT 9999 SCT020 BKN035 ","updated":"2026-04-29T09:07:52Z"}
