{"icao":"LPMT","taf":"TAF TAF LPMT 141110Z 1412/1512 20012KT 9999 SCT015 SCT030 ","updated":"2025-11-14T16:23:38Z"}
