{"icao":"KJFK","taf":"TAF KJFK 311126Z 3112/0118 26021G27KT P6SM BKN040 ","updated":"2025-10-31T13:28:30Z"}
