{"icao":"LPOV","taf":"TAF LPOV 101104Z 1012/1112 18008KT 9999 FEW008 SCT020 ","updated":"2025-11-10T16:24:52Z"}
