{"icao":"LPPT","taf":"TAF LPPT 021100Z 0212/0318 16008KT 9999 BKN025 ","updated":"2026-03-02T11:30:52Z"}
