{"icao":"LPPD","taf":"TAF LPPD 220500Z 2206/2306 VRB05KT 9999 SCT020 ","updated":"2025-09-22T10:20:00Z"}
