{"icao":"LPMR","taf":"TAF TAF LPMR 071703Z 0718/0818 33018KT CAVOK ","updated":"2026-06-07T22:02:16Z"}
