{"icao":"LPPT","taf":"TAF LPPT 111100Z 1112/1218 07008KT CAVOK ","updated":"2025-10-11T13:20:09Z"}
