{"icao":"LPAZ","taf":"TAF TAF LPAZ 110500Z 1106/1212 03013KT 9999 SCT012 BKN025 ","updated":"2026-04-11T05:59:46Z"}
