{"icao":"LPLA","taf":"TAF LPLA 261100Z 2612/2712 32012KT 9999 FEW020 BKN035 ","updated":"2026-06-26T12:09:34Z"}
