{"icao":"LPPS","taf":"TAF LPPS 090500Z 0906/1012 36022KT 9999 SCT014 SCT030 ","updated":"2026-04-09T07:20:39Z"}
