{"icao":"LPMA","taf":"TAF LPMA 271100Z 2712/2812 01013KT 9999 SCT015","updated":"2026-06-27T11:25:38Z"}
