{"icao":"LPBJ","taf":"TAF TAF LPBJ 011706Z 0118/0218 02010KT CAVOK ","updated":"2026-04-01T21:42:43Z"}
