{"icao":"LPOV","taf":"TAF LPOV 221702Z 2218/2318 20008KT 8000 -RA SCT015 BKN025 ","updated":"2025-12-23T01:38:15Z"}
