{"icao":"LPMT","taf":"TAF LPMT 151108Z 1512/1612 36008KT 9999 BKN025 ","updated":"2026-04-15T11:57:55Z"}
