{"icao":"KORD","taf":"TAF KORD 100538Z 1006/1112 12007KT P6SM OVC020 ","updated":"2026-01-10T06:29:50Z"}
