{"icao":"KLAX","taf":"TAF KLAX 260531Z 2606/2712 VRB03KT P6SM SKC ","updated":"2025-11-26T07:18:29Z"}
