{"icao":"KJFK","taf":"TAF KJFK 081120Z 0812/0918 02012G18KT P6SM SKC ","updated":"2026-04-08T13:18:12Z"}
