{"icao":"LPPT","taf":"TAF LPPT 211100Z 2112/2218 25013KT 2000 RA BR SCT002 BKN004 ","updated":"2026-01-21T13:43:55Z"}
