{"icao":"KORD","taf":"TAF KORD 251120Z 2512/2618 03009KT P6SM FEW008 SCT012 BKN025 ","updated":"2025-12-25T12:39:22Z"}
