{"icao":"LPPR","taf":"TAF LPPR 010500Z 0106/0206 VRB02KT CAVOK ","updated":"2026-03-01T09:28:35Z"}
