{"icao":"LPAZ","taf":"TAF TAF LPAZ 180500Z 1806/1912 32008KT 9999 SCT008 BKN015 ","updated":"2025-11-18T05:18:37Z"}
