{"icao":"KJFK","taf":"TAF KJFK 101120Z 1012/1118 03008KT P6SM VCSH SCT015 OVC050 ","updated":"2025-11-10T12:38:39Z"}
