{"icao":"LPMT","taf":"TAF LPMT 211100Z 2112/2212 01012KT CAVOK PROB30 ","updated":"2025-11-21T11:15:47Z"}
