{"icao":"KJFK","taf":"TAF KJFK 051736Z 0518/0624 23008KT 5SM -RA BR BKN015 OVC040 ","updated":"2026-04-05T18:41:50Z"}
