{"icao":"LPPT","taf":"TAF LPPT 061100Z 0612/0718 34015KT CAVOK PROB30 ","updated":"2026-01-06T15:21:42Z"}
