{"icao":"LPPR","taf":"TAF LPPR 081100Z 0812/0912 18015KT 9999 SCT004 BKN018 ","updated":"2026-01-08T13:39:19Z"}
