{"icao":"KJFK","taf":"TAF KJFK 141120Z 1412/1518 01015G25KT 6SM BR OVC015 ","updated":"2025-10-14T12:39:08Z"}
