{"icao":"LPMT","taf":"TAF LPMT 291708Z 2918/3018 35008KT CAVOK ","updated":"2026-06-29T17:35:07Z"}
