{"icao":"LPPR","taf":"TAF LPPR 031100Z 0312/0412 30008KT 6000 SCT006 PROB40 ","updated":"2025-10-03T13:24:24Z"}
