{"icao":"LPFR","taf":"TAF LPFR 191100Z 1912/2012 19005KT CAVOK ","updated":"2026-06-19T15:11:58Z"}
