{"icao":"KORD","taf":"TAF KORD 231120Z 2312/2418 30009KT P6SM SCT025 ","updated":"2025-10-23T12:38:56Z"}
