{"icao":"KORD","taf":"TAF KORD 240534Z 2406/2512 03009KT P6SM FEW015 SCT025 BKN030 ","updated":"2025-09-24T06:26:56Z"}
