{"icao":"KORD","taf":"TAF KORD 131120Z 1312/1418 17006KT P6SM BKN070 ","updated":"2025-10-13T13:29:15Z"}
