{"icao":"LPOV","taf":"TAF LPOV 131704Z 1318/1418 33010KT CAVOK ","updated":"2025-09-13T18:20:40Z"}
