{"icao":"LPAZ","taf":"TAF TAF LPAZ 120500Z 1206/1312 21012KT 5000 BR SCT002 SCT004 ","updated":"2026-02-12T09:48:43Z"}
