{"icao":"KLAX","taf":"TAF KLAX 101737Z 1018/1124 25006KT P6SM SCT080 SCT120 ","updated":"2025-10-10T20:18:54Z"}
