{"icao":"LPFR","taf":"TAF LPFR 071100Z 0712/0812 13005KT 9999 BKN035 ","updated":"2025-11-07T16:19:19Z"}
