{"icao":"LPMT","taf":"TAF LPMT 240503Z 2406/2506 24006KT 9999 BKN012 PROB40 2406/2409 2000 BR BKN004 ","updated":"2025-10-24T10:20:07Z"}
