{"icao":"LPMA","taf":"TAF LPMA 231100Z 2312/2412 32013KT 9999 SCT015 PROB40 ","updated":"2026-01-23T16:28:43Z"}
