{"icao":"LPLA","taf":"TAF LPLA 221102Z 2212/2312 20012KT 8000 -RA FEW012 BKN020 ","updated":"2025-10-22T16:24:14Z"}
