{"icao":"LPOV","taf":"TAF LPOV 151107Z 1512/1612 30008KT 8000 BKN004 ","updated":"2026-06-15T13:10:54Z"}
