{"icao":"KJFK","taf":"TAF KJFK 040520Z 0406/0512 VRB05KT 2SM -RA BR OVC004 ","updated":"2026-03-04T06:44:49Z"}
