{"icao":"LPLA","taf":"TAF LPLA 241103Z 2412/2512 34005KT 9999 FEW014 BKN020 ","updated":"2026-06-24T13:21:14Z"}
