{"icao":"KORD","taf":"TAF KORD 101120Z 1012/1118 19009KT P6SM SCT100 BKN250 ","updated":"2025-10-10T12:36:41Z"}
