{"icao":"LPAZ","taf":"TAF TAF LPAZ 121100Z 1212/1318 03013KT 9999 SCT025 ","updated":"2026-05-12T11:54:28Z"}
