{"icao":"KJFK","taf":"TAF KJFK 101120Z 1012/1118 22013KT P6SM FEW015 BKN080 ","updated":"2025-12-10T13:36:36Z"}
