{"icao":"KLAX","taf":"TAF KLAX 311721Z 3118/0124 13005KT 6SM BR SCT012 ","updated":"2025-10-31T18:27:10Z"}
