{"icao":"LPPS","taf":"TAF LPPS 171700Z 1718/1824 02010KT 9999 SCT014 ","updated":"2025-09-17T23:15:51Z"}
