{"icao":"LPMT","taf":"TAF LPMT 101101Z 1012/1112 34010KT CAVOK ","updated":"2026-06-10T16:56:25Z"}
