{"icao":"LPMT","taf":"TAF LPMT 281107Z 2812/2912 03010KT CAVOK","updated":"2026-03-28T14:30:36Z"}
