{"icao":"LPAZ","taf":"TAF TAF LPAZ 241700Z 2418/2524 02010KT 9999 FEW020 BKN040 ","updated":"2025-09-24T20:19:24Z"}
