{"icao":"KORD","taf":"TAF KORD 020520Z 0206/0312 20011KT 5SM -SN SCT010 OVC020 ","updated":"2026-02-02T06:02:50Z"}
