{"icao":"LPMR","taf":"TAF TAF LPMR 260504Z 2606/2706 01005KT 9999 BKN030 PROB40 ","updated":"2025-10-26T07:15:27Z"}
