{"icao":"LPMT","taf":"TAF LPMT 231109Z 2312/2412 30005KT CAVOK ","updated":"2026-06-23T12:05:08Z"}
