{"icao":"LPPS","taf":"TAF LPPS 270500Z 2706/2812 05010KT 9999 FEW015 BKN030 ","updated":"2025-11-27T10:21:38Z"}
