{"icao":"LPMR","taf":"TAF TAF LPMR 181100Z 1812/1912 VRB02KT CAVOK PROB30 1903/1908 4000 BR SCT003","updated":"2025-09-19T08:22:48Z"}
