{"icao":"KLAX","taf":"TAF COR KLAX 211159Z 2112/2212 VRB03KT 4SM BR OVC010 ","updated":"2025-12-21T12:37:12Z"}
