{"icao":"KJFK","taf":"TAF KJFK 200520Z 2006/2112 16019G32KT 3SM SHRA BKN020 PROB30 2006/2010 2SM TSRA BKN010CB ","updated":"2025-10-20T06:28:28Z"}
