{"icao":"LPAZ","taf":"TAF TAF LPAZ 061700Z 0618/0724 21012KT 9999 SCT008 ","updated":"2025-10-06T21:14:56Z"}
