{"icao":"KLAX","taf":"TAF KLAX 210631Z 2107/2212 27008KT P6SM FEW015 SCT250 ","updated":"2026-04-21T07:48:09Z"}
