{"icao":"KORD","taf":"TAF KORD 021726Z 0218/0324 05012KT P6SM SKC ","updated":"2026-06-02T18:38:05Z"}
