{"icao":"LPBJ","taf":"TAF TAF LPBJ 151103Z 1512/1612 19008KT 6000 -RA SCT015 BKN030 ","updated":"2025-11-15T17:13:46Z"}
