{"icao":"LPPT","taf":"TAF LPPT 150500Z 1506/1612 VRB02KT 9999 SCT008 PROB40 ","updated":"2025-12-15T05:23:57Z"}
