{"icao":"LPAZ","taf":"TAF LPAZ 190500Z 1906/2012 03010KT 9999 SCT020 ","updated":"2026-01-19T09:32:56Z"}
