{"icao":"LPPT","taf":"TAF LPPT 211100Z 2112/2218 29005KT CAVOK ","updated":"2026-06-21T14:07:33Z"}
