{"icao":"KLAX","taf":"TAF KLAX 251121Z 2512/2618 07005KT P6SM SCT250 ","updated":"2026-01-25T12:40:12Z"}
