{"icao":"LPPT","taf":"TAF LPPT 301700Z 3018/3124 33013KT CAVOK ","updated":"2026-05-30T22:01:04Z"}
