{"icao":"LPMR","taf":"TAF TAF LPMR 191110Z 1912/2012 21012KT 9999 SCT015 BKN025 ","updated":"2025-10-19T14:14:40Z"}
