{"icao":"LPFR","taf":"TAF LPFR 240500Z 2406/2506 29013KT 9999 SCT020 ","updated":"2026-01-24T08:25:34Z"}
