{"icao":"KJFK","taf":"TAF KJFK 141120Z 1412/1518 25009KT P6SM BKN050 BKN080 ","updated":"2026-02-14T14:26:04Z"}
