{"icao":"LPMT","taf":"TAF LPMT 150508Z 1506/1606 35008KT 9999 SCT020 ","updated":"2026-03-15T09:32:37Z"}
