{"icao":"LPFR","taf":"TAF LPFR 101100Z 1012/1112 31008KT 9999 FEW020 ","updated":"2025-12-10T16:26:35Z"}
