{"icao":"LPBJ","taf":"TAF TAF LPBJ 300510Z 3006/3106 28005KT 0200 FG BKN002 ","updated":"2025-10-30T11:15:30Z"}
