{"icao":"KLAX","taf":"TAF KLAX 151723Z 1518/1624 23010G18KT 3SM -RA BR SCT008 OVC025 ","updated":"2025-11-15T18:23:41Z"}
