{"icao":"LPPS","taf":"TAF LPPS 131700Z 1318/1424 04010KT 9999 SCT015 ","updated":"2026-04-13T17:58:29Z"}
