{"icao":"LPBJ","taf":"TAF TAF LPBJ 210510Z 2106/2206 19012KT 8000 -RA SCT012 BKN018 ","updated":"2026-01-21T06:34:47Z"}
