{"icao":"LPLA","taf":"TAF LPLA 260507Z 2606/2706 28010KT 9999 FEW014 BKN035 ","updated":"2026-01-26T05:32:18Z"}
