{"icao":"LPPT","taf":"TAF LPPT 231700Z 2318/2424 22007KT CAVOK ","updated":"2026-02-23T19:18:09Z"}
