{"icao":"LPMR","taf":"TAF TAF LPMR 011702Z 0118/0218 35008KT 9999 FEW025 BKN040 ","updated":"2025-11-02T03:14:03Z"}
