{"icao":"LPPS","taf":"TAF LPPS 161700Z 1618/1724 33012KT 9999 FEW015 BKN030 ","updated":"2025-11-17T01:24:58Z"}
