{"icao":"KJFK","taf":"TAF KJFK 091123Z 0912/1018 33013KT P6SM SKC ","updated":"2026-02-09T11:43:00Z"}
