{"icao":"LPAZ","taf":"TAF TAF LPAZ 311100Z 3112/0118 22015KT 8000 SCT006 SCT012 ","updated":"2026-01-31T14:22:36Z"}
