{"icao":"LPLA","taf":"TAF LPLA 170507Z 1706/1806 VRB05KT 9999 SCT018 BKN025 ","updated":"2026-04-17T05:26:48Z"}
