{"icao":"LPPT","taf":"TAF LPPT 220500Z 2206/2312 04005KT CAVOK ","updated":"2026-02-22T05:50:32Z"}
