{"icao":"LPAZ","taf":"TAF TAF LPAZ 230500Z 2306/2412 21012KT 9999 SCT015 BKN030 ","updated":"2025-09-23T08:22:50Z"}
