{"icao":"KLAX","taf":"TAF KLAX 141721Z 1418/1524 24006KT P6SM SKC ","updated":"2026-04-14T19:13:30Z"}
