{"icao":"LPMT","taf":"TAF LPMT 080508Z 0806/0906 15005KT 9999 BKN025 PROB30 0806/0810 1200 BR BKN002 ","updated":"2026-01-08T05:23:52Z"}
