{"icao":"KLAX","taf":"TAF KLAX 151737Z 1518/1624 24009KT P6SM BKN010 ","updated":"2026-06-15T18:23:29Z"}
