{"icao":"LPPD","taf":"TAF LPPD 300500Z 3006/0106 04008KT 9999 SCT025 ","updated":"2026-06-30T09:32:09Z"}
