{"icao":"LPPT","taf":"TAF LPPT 231700Z 2318/2424 32008KT 9999 FEW035 ","updated":"2026-03-23T21:35:18Z"}
