{"icao":"LPMR","taf":"TAF TAF LPMR 280504Z 2806/2906 VRB02KT 0500 FG BKN002 ","updated":"2026-04-28T05:58:10Z"}
