{"icao":"LPPR","taf":"TAF LPPR 170500Z 1706/1806 VRB02KT 5000 BR SCT006 ","updated":"2026-04-17T07:44:23Z"}
