{"icao":"KJFK","taf":"TAF KJFK 101739Z 1018/1124 17007KT P6SM FEW007 SCT250 ","updated":"2026-05-10T17:51:09Z"}
