{"icao":"KJFK","taf":"TAF KJFK 161740Z 1618/1724 17017G26KT 3/4SM SHRA BR OVC004 WS020/20055KT ","updated":"2026-03-16T17:58:39Z"}
