{"icao":"LPOV","taf":"TAF LPOV 151100Z 1512/1612 17014KT 9999 SCT020 BKN028 ","updated":"2025-11-15T12:33:58Z"}
