{"icao":"KLAX","taf":"TAF KLAX 070534Z 0706/0812 25005KT P6SM BKN012 ","updated":"2025-10-07T07:17:16Z"}
