{"icao":"KJFK","taf":"TAF KJFK 011120Z 0112/0218 23012G19KT P6SM VCSH SCT020 BKN045 ","updated":"2026-04-01T13:19:37Z"}
