{"icao":"LPMR","taf":"TAF TAF LPMR 170507Z 1706/1806 32007KT 9999 FEW020 SCT040 ","updated":"2026-01-17T08:25:10Z"}
