{"icao":"KORD","taf":"TAF KORD 051144Z 0512/0618 02004KT 1/4SM -DZ FG VV003 ","updated":"2026-03-05T14:02:45Z"}
