{"icao":"KORD","taf":"TAF KORD 060538Z 0606/0712 12005KT P6SM OVC200 ","updated":"2026-01-06T07:24:48Z"}
