{"icao":"LPLA","taf":"TAF COR TAF LPLA 092305Z 1000/1024 35015KT 9999 SCT020 ","updated":"2026-05-10T02:49:56Z"}
