{"icao":"LPPR","taf":"TAF LPPR 251100Z 2512/2612 28010KT 9999 SCT020 ","updated":"2026-01-25T14:18:00Z"}
