{"icao":"LPOV","taf":"TAF LPOV 091104Z 0912/1012 19008KT 9999 SCT040 ","updated":"2025-11-09T12:33:20Z"}
