{"icao":"KJFK","taf":"TAF KJFK 270537Z 2706/2812 VRB04KT P6SM VCSH BKN080 ","updated":"2026-06-27T06:30:04Z"}
