{"icao":"LPMT","taf":"TAF LPMT 130508Z 1306/1406 18012KT 9999 SCT015 BKN030 ","updated":"2026-01-13T08:29:22Z"}
