{"icao":"LPLA","taf":"TAF LPLA 210506Z 2106/2206 18012KT 9999 FEW015 SCT025 ","updated":"2026-02-21T10:24:29Z"}
