{"icao":"KLAX","taf":"TAF KLAX 221730Z 2218/2324 VRB03KT P6SM BKN100 ","updated":"2025-11-22T19:13:59Z"}
