{"icao":"KJFK","taf":"TAF KJFK 201139Z 2012/2118 VRB05KT P6SM BKN070 ","updated":"2026-04-20T12:03:17Z"}
