{"icao":"KJFK","taf":"TAF KJFK 031137Z 0312/0418 35013G20KT P6SM BKN090 BKN250 ","updated":"2026-05-03T11:40:47Z"}
