{"icao":"KLAX","taf":"TAF KLAX 190528Z 1906/2012 VRB03KT P6SM SKC ","updated":"2026-03-19T07:03:40Z"}
