{"icao":"LPBJ","taf":"TAF LPBJ 191105Z 1912/2012 33010KT 9999 FEW030 ","updated":"2026-02-19T15:47:03Z"}
