{"icao":"LPMR","taf":"TAF TAF LPMR 151108Z 1512/1612 17012KT 8000 -RA SCT012 BKN028 ","updated":"2025-12-15T12:43:42Z"}
