{"icao":"KJFK","taf":"TAF KJFK 130539Z 1306/1412 30015G24KT P6SM FEW060 ","updated":"2026-03-13T06:52:19Z"}
