{"icao":"LPPT","taf":"TAF LPPT 061700Z 0618/0724 25010KT CAVOK ","updated":"2025-10-06T23:15:39Z"}
