{"icao":"KLAX","taf":"TAF KLAX 281132Z 2812/2918 VRB03KT P6SM OVC025 ","updated":"2026-06-28T14:47:10Z"}
