{"icao":"KLAX","taf":"TAF KLAX 241739Z 2418/2524 25007KT P6SM OVC020 ","updated":"2026-05-24T18:04:47Z"}
