{"icao":"KORD","taf":"TAF KORD 310520Z 3106/0112 29006KT P6SM SCT040 BKN200 ","updated":"2025-10-31T07:17:21Z"}
