{"icao":"KJFK","taf":"TAF KJFK 081127Z 0812/0918 26010KT P6SM SCT015 BKN080 ","updated":"2025-11-08T13:22:49Z"}
