{"icao":"LPPT","taf":"TAF LPPT 011100Z 0112/0218 33015KT CAVOK ","updated":"2026-06-01T12:35:03Z"}
