{"icao":"KLAX","taf":"TAF KLAX 281724Z 2818/2924 VRB03KT 6SM HZ SKC ","updated":"2025-10-28T18:28:19Z"}
