{"icao":"LPPS","taf":"TAF LPPS 180500Z 1806/1912 30007KT 9999 FEW015 SCT030 ","updated":"2025-12-18T06:31:22Z"}
