{"icao":"KJFK","taf":"TAF KJFK 121132Z 1212/1318 30017G28KT P6SM FEW040 ","updated":"2026-01-12T13:41:29Z"}
