{"icao":"LPBJ","taf":"TAF TAF LPBJ 170510Z 1706/1806 29007KT 0600 FG NSC ","updated":"2026-01-17T10:19:31Z"}
