{"icao":"KJFK","taf":"TAF KJFK 131123Z 1312/1418 19015G23KT P6SM BKN100 BKN200 ","updated":"2026-05-13T13:10:00Z"}
