{"icao":"KLAX","taf":"TAF KLAX 141122Z 1412/1518 25007KT P6SM OVC015 ","updated":"2025-09-14T12:30:49Z"}
