{"icao":"LPAZ","taf":"TAF TAF LPAZ 151700Z 1518/1624 26012KT 9999 SCT025 ","updated":"2026-04-15T22:39:49Z"}
