{"icao":"LPMT","taf":"TAF LPMT 070500Z 0706/0806 21005KT 9999 SCT018 BKN030 ","updated":"2025-11-07T06:27:44Z"}
