{"icao":"KORD","taf":"TAF KORD 301121Z 3012/0118 23012G20KT P6SM FEW025 SCT300 ","updated":"2026-06-30T12:06:51Z"}
