{"icao":"LPAZ","taf":"TAF LPAZ 220303Z 2203/2306 09008KT 9999 SCT020 ","updated":"2025-11-22T04:20:47Z"}
