{"icao":"KLAX","taf":"TAF KLAX 011120Z 0112/0218 VRB03KT 2SM BR OVC004 ","updated":"2025-11-01T13:22:49Z"}
