{"icao":"KLAX","taf":"TAF KLAX 181131Z 1812/1918 11006KT P6SM BKN025 BKN045 ","updated":"2025-11-18T12:39:07Z"}
