{"icao":"KJFK","taf":"TAF KJFK 290520Z 2906/3012 03015G23KT P6SM BKN035 OVC050 ","updated":"2025-10-29T07:18:02Z"}
