{"icao":"LPPD","taf":"TAF LPPD 221100Z 2212/2312 26023KT 6000 -RA SCT006 BKN012 ","updated":"2026-01-22T11:21:54Z"}
