{"icao":"KLAX","taf":"TAF KLAX 031742Z 0318/0424 VRB03KT P6SM SCT020 ","updated":"2026-03-03T20:31:19Z"}
