{"icao":"LPPT","taf":"TAF TAF LPPT 141700Z 1418/1524 31008KT 9999 FEW015 SCT030 ","updated":"2026-01-14T17:25:40Z"}
