{"icao":"LPPT","taf":"TAF LPPT 241100Z 2412/2518 10005KT CAVOK ","updated":"2026-05-24T16:58:47Z"}
