{"icao":"LPMR","taf":"TAF TAF LPMR 220506Z 2206/2306 32005KT 7000 BKN008 ","updated":"2026-06-22T06:27:38Z"}
