{"icao":"KORD","taf":"TAF KORD 111720Z 1118/1224 22012KT 6SM -SHRA SCT025 BKN060 ","updated":"2026-06-11T18:10:20Z"}
