{"icao":"KJFK","taf":"TAF KJFK 081733Z 0818/0924 17012KT P6SM SKC ","updated":"2026-06-08T17:50:55Z"}
