{"icao":"KJFK","taf":"TAF KJFK 020532Z 0206/0312 07014G22KT 5SM -SHRA BR SCT008 OVC012 ","updated":"2026-04-02T07:10:53Z"}
