{"icao":"LPMT","taf":"TAF LPMT 211104Z 2112/2212 25012KT 8000 -RA SCT010 BKN015 ","updated":"2026-01-21T13:43:57Z"}
