{"icao":"KORD","taf":"TAF KORD 211120Z 2112/2218 VRB04KT P6SM FEW070 BKN250 ","updated":"2026-06-21T14:07:52Z"}
