{"icao":"LPFR","taf":"TAF LPFR 191700Z 1918/2018 16005KT 9999 SCT012 ","updated":"2025-10-20T03:14:10Z"}
