{"icao":"LPMT","taf":"TAF LPMT 121103Z 1212/1312 36005KT CAVOK ","updated":"2026-06-12T12:17:20Z"}
