{"icao":"LPAZ","taf":"TAF TAF LPAZ 291100Z 2912/3018 26013KT 9999 FEW020 BKN040 ","updated":"2025-10-29T16:24:38Z"}
