{"icao":"LPPS","taf":"TAF LPPS 281100Z 2812/2918 03013KT 9999 SCT015 BKN030","updated":"2026-06-28T16:08:35Z"}
