{"icao":"LPOV","taf":"TAF LPOV 181704Z 1818/1918 25008KT 9999 FEW025 ","updated":"2026-05-18T18:49:46Z"}
