{"icao":"KORD","taf":"TAF KORD 061731Z 0618/0724 29007KT P6SM BKN035 BKN100 ","updated":"2026-06-06T19:20:43Z"}
