{"icao":"KORD","taf":"TAF KORD 020529Z 0206/0312 23004KT 2SM -SN BR SCT009 OVC025 ","updated":"2025-12-02T06:31:29Z"}
