{"icao":"LPOV","taf":"TAF LPOV 291107Z 2912/3012 17007KT 8000 -RA FEW014 SCT035 ","updated":"2026-01-29T13:59:24Z"}
