{"icao":"KJFK","taf":"TAF KJFK 011121Z 0112/0218 02005KT P6SM BKN090 ","updated":"2026-06-01T12:35:37Z"}
