{"icao":"LPPT","taf":"TAF LPPT 010500Z 0106/0212 32008KT CAVOK ","updated":"2026-03-01T06:43:24Z"}
