{"icao":"LPBJ","taf":"TAF TAF LPBJ 100502Z 1006/1106 VRB02KT 9999 FEW025 PROB30 ","updated":"2025-11-10T07:18:18Z"}
