{"icao":"LPPT","taf":"TAF LPPT 061100Z 0612/0718 36007KT 9999 SCT030 ","updated":"2026-06-06T17:11:57Z"}
