{"icao":"LPFR","taf":"TAF LPFR 280500Z 2806/2906 03007KT CAVOK ","updated":"2025-11-28T10:20:45Z"}
