{"icao":"LPPR","taf":"TAF LPPR 280500Z 2806/0106 02005KT CAVOK ","updated":"2026-02-28T06:36:46Z"}
