{"icao":"LPFR","taf":"TAF LPFR 261100Z 2612/2712 11010KT CAVOK ","updated":"2026-02-26T16:56:58Z"}
