{"icao":"KORD","taf":"TAF KORD 110523Z 1106/1212 09003KT P6SM SKC ","updated":"2026-04-11T08:41:55Z"}
