{"icao":"LPBJ","taf":"TAF TAF LPBJ 101705Z 1018/1118 25012KT 6000 -DZRA BKN004 ","updated":"2026-02-10T18:00:18Z"}
