{"icao":"KORD","taf":"TAF KORD 180520Z 1806/1912 19010G17KT P6SM SCT080 ","updated":"2025-10-18T06:24:32Z"}
