{"icao":"LPLA","taf":"TAF LPLA 240505Z 2406/2506 24010KT 9999 FEW025 SCT040 ","updated":"2026-01-24T07:18:51Z"}
