{"icao":"KLAX","taf":"TAF KLAX 181724Z 1818/1924 VRB03KT 4SM HZ SCT250 ","updated":"2025-12-18T18:30:26Z"}
