{"icao":"KJFK","taf":"TAF KJFK 271720Z 2718/2824 01011KT P6SM FEW050 ","updated":"2025-10-27T18:27:29Z"}
