{"icao":"LPLA","taf":"TAF COR TAF LPLA 080508Z 0806/0906 30010KT 9999 FEW020 SCT030 PROB40 ","updated":"2026-06-08T10:51:16Z"}
