{"icao":"LPOV","taf":"TAF LPOV 311105Z 3112/0112 32008KT CAVOK ","updated":"2026-05-31T16:06:16Z"}
