{"icao":"LPBJ","taf":"TAF TAF LPBJ 150511Z 1506/1606 28008KT 4000 BR BKN005 ","updated":"2026-06-15T06:21:42Z"}
