{"icao":"LPPS","taf":"TAF LPPS 221100Z 2212/2318 06015KT 9999 FEW015 SCT030 ","updated":"2025-11-22T15:16:35Z"}
