{"icao":"LPAZ","taf":"TAF TAF LPAZ 281700Z 2818/2924 36018KT 9999 SCT015 SCT030 ","updated":"2025-10-28T20:21:04Z"}
