{"icao":"LPMT","taf":"TAF LPMT 101115Z 1012/1112 11005KT CAVOK ","updated":"2026-04-10T11:47:14Z"}
