{"icao":"LPPS","taf":"TAF LPPS 301700Z 3018/0124 01010KT 9999 SCT015 ","updated":"2025-09-30T18:23:21Z"}
