{"icao":"LPPT","taf":"TAF LPPT 021100Z 0212/0318 34007KT CAVOK ","updated":"2026-04-02T15:59:29Z"}
