{"icao":"KLAX","taf":"TAF KLAX 131142Z 1312/1418 VRB03KT P6SM BKN015 OVC025 ","updated":"2026-05-13T13:10:00Z"}
