{"icao":"LPBJ","taf":"TAF TAF LPBJ 110507Z 1106/1206 28005KT 4000 -DZ BCFG BKN004 ","updated":"2026-04-11T07:13:04Z"}
