{"icao":"KLAX","taf":"TAF KLAX 011120Z 0112/0218 VRB03KT P6SM FEW008 BKN015 ","updated":"2025-10-01T12:38:46Z"}
