{"icao":"LPPR","taf":"TAF LPPR 071700Z 0718/0818 25015KT 8000 -RA SCT012 BKN025 ","updated":"2026-02-07T19:22:45Z"}
