{"icao":"LPBJ","taf":"TAF TAF LPBJ 170502Z 1706/1806 30005KT 9999 BKN015 PROB40 1706/1710 0600 FG BKN002 ","updated":"2026-02-17T10:43:01Z"}
