{"icao":"LPBJ","taf":"TAF TAF LPBJ 180511Z 1806/1906 31008KT CAVOK PROB40 ","updated":"2026-06-18T08:45:07Z"}
