{"icao":"LPMR","taf":"TAF TAF LPMR 071703Z 0718/0818 33010KT 9999 SCT020 ","updated":"2025-11-08T03:00:53Z"}
