{"icao":"LPPD","taf":"TAF LPPD 101100Z 1012/1112 21010KT 9999 SCT012 SCT035 ","updated":"2025-10-10T14:17:19Z"}
