{"icao":"LPPT","taf":"TAF LPPT 271100Z 2712/2818 11005KT CAVOK ","updated":"2026-05-27T12:18:59Z"}
