{"icao":"LPPD","taf":"TAF LPPD 250500Z 2506/2606 24020KT 8000 SCT008 SCT012 ","updated":"2026-01-25T07:20:24Z"}
