{"icao":"LPMR","taf":"TAF TAF LPMR 231702Z 2318/2418 27005KT CAVOK ","updated":"2026-02-23T19:18:13Z"}
