{"icao":"LPMR","taf":"TAF TAF LPMR 221102Z 2212/2312 VRB02KT CAVOK ","updated":"2026-02-22T13:42:05Z"}
