{"icao":"LPMT","taf":"TAF LPMT 220506Z 2206/2306 04005KT CAVOK ","updated":"2026-05-22T07:42:50Z"}
