{"icao":"LPPT","taf":"TAF LPPT 291100Z 2912/3018 25008KT 9999 SCT015 BKN030 ","updated":"2025-11-29T15:16:55Z"}
