{"icao":"LPPD","taf":"TAF LPPD 190500Z 1906/2006 21015KT 6000 SCT002 SCT004 ","updated":"2026-05-19T08:33:55Z"}
