{"icao":"LPPT","taf":"TAF LPPT 091100Z 0912/1018 24010KT 8000 SCT006 BKN012 ","updated":"2026-02-09T15:54:37Z"}
