{"icao":"LPBJ","taf":"TAF TAF LPBJ 211103Z 2112/2212 15012KT CAVOK ","updated":"2026-05-21T15:21:04Z"}
