{"icao":"LPPD","taf":"TAF LPPD 101700Z 1018/1118 21010KT 9999 SCT012 SCT035 ","updated":"2025-10-10T23:15:25Z"}
