{"icao":"LPBJ","taf":"TAF TAF LPBJ 050513Z 0506/0606 16020KT 9999 SCT030 ","updated":"2025-11-05T05:18:52Z"}
