{"icao":"KJFK","taf":"TAF KJFK 060524Z 0606/0712 19016KT P6SM BKN050 ","updated":"2026-05-06T05:56:54Z"}
