{"icao":"LPLA","taf":"TAF COR LPLA 190510Z 1906/2006 18015KT 9999 FEW015 SCT025 ","updated":"2026-02-19T09:43:13Z"}
