{"icao":"LPAZ","taf":"TAF TAF LPAZ 090500Z 0906/1012 24017KT 6000 SCT004 BKN012 ","updated":"2026-02-09T07:56:27Z"}
