{"icao":"KORD","taf":"TAF KORD 290520Z 2906/3012 31008KT P6SM FEW250 ","updated":"2026-01-29T08:38:02Z"}
