{"icao":"KLAX","taf":"TAF KLAX 041126Z 0412/0518 VRB03KT 6SM BR OVC010 ","updated":"2025-11-04T12:41:24Z"}
