{"icao":"LPPR","taf":"TAF LPPR 191100Z 1912/2012 VRB05KT 9999 SCT018 BKN030 ","updated":"2026-01-19T15:25:13Z"}
