{"icao":"KLAX","taf":"TAF KLAX 231749Z 2318/2424 25006KT P6SM SCT010 SCT120 SCT160 ","updated":"2025-09-23T18:26:36Z"}
