{"icao":"KJFK","taf":"TAF KJFK 041139Z 0412/0518 24012KT P6SM FEW070 ","updated":"2026-05-04T11:47:13Z"}
