{"icao":"LPOV","taf":"TAF LPOV 231704Z 2318/2418 33005KT 9999 FEW040 ","updated":"2026-06-23T20:01:49Z"}
