{"icao":"LPBJ","taf":"TAF TAF LPBJ 140509Z 1406/1506 VRB02KT 0600 FG BKN002 ","updated":"2026-01-14T07:23:55Z"}
