{"icao":"LPPR","taf":"TAF LPPR 040500Z 0406/0506 26010KT 8000 SCT012 BKN025 ","updated":"2026-02-04T08:39:31Z"}
