{"icao":"LPPR","taf":"TAF LPPR 101100Z 1012/1112 19010KT 9999 FEW020 BKN035 ","updated":"2026-01-10T12:37:35Z"}
