{"icao":"LPFR","taf":"TAF LPFR 161700Z 1618/1718 09013KT CAVOK ","updated":"2026-03-17T02:01:32Z"}
