{"icao":"KJFK","taf":"TAF KJFK 010526Z 0106/0212 27022G32KT P6SM FEW060 ","updated":"2025-11-01T07:15:56Z"}
