{"icao":"LPPT","taf":"TAF LPPT 041100Z 0412/0518 02010KT 9999 FEW025 ","updated":"2026-01-04T13:28:31Z"}
