{"icao":"KORD","taf":"TAF KORD 210525Z 2106/2212 30015G25KT P6SM SKC ","updated":"2025-12-21T08:25:15Z"}
