{"icao":"LPBJ","taf":"TAF TAF LPBJ 151704Z 1518/1618 31010KT CAVOK ","updated":"2025-09-15T19:13:38Z"}
