{"icao":"LPBJ","taf":"TAF TAF LPBJ 280506Z 2806/2906 30005KT CAVOK PROB30 2806/2808 3000 BCFG SCT004 ","updated":"2026-06-28T10:25:48Z"}
