{"icao":"KLAX","taf":"TAF KLAX 271136Z 2712/2818 VRB03KT P6SM OVC025 ","updated":"2026-06-27T13:39:55Z"}
