{"icao":"LPAZ","taf":"TAF TAF LPAZ 191700Z 1918/2024 21018KT 9999 SCT006 SCT012 ","updated":"2026-05-19T20:47:42Z"}
