{"icao":"LPOV","taf":"TAF LPOV 091110Z 0912/1012 20012KT 6000 -RA SCT004 BKN008 ","updated":"2026-02-09T11:42:41Z"}
