{"icao":"LPPR","taf":"TAF LPPR 251100Z 2512/2612 11008KT CAVOK ","updated":"2025-09-25T12:37:00Z"}
