{"icao":"LPBJ","taf":"TAF TAF LPBJ 231109Z 2312/2412 15012KT CAVOK ","updated":"2026-06-23T12:05:09Z"}
