{"icao":"LPPT","taf":"TAF LPPT 100500Z 1006/1112 23010KT 6000 SCT004 BKN008 ","updated":"2026-02-10T11:04:09Z"}
