{"icao":"LPPT","taf":"TAF LPPT 211100Z 2112/2218 35017KT 9999 FEW040 ","updated":"2025-09-21T13:20:30Z"}
