{"icao":"LPOV","taf":"TAF LPOV 211106Z 2112/2212 28008KT 9999 SCT040 ","updated":"2026-03-21T14:25:31Z"}
