{"icao":"LPPS","taf":"TAF LPPS 311700Z 3118/0124 29008KT 9999 SCT012 ","updated":"2026-01-31T20:24:06Z"}
