{"icao":"LPAZ","taf":"TAF LPAZ 101700Z 1018/1124 21017KT 9999 FEW008 SCT015 ","updated":"2026-01-10T22:18:38Z"}
