{"icao":"LPMR","taf":"TAF TAF LPMR 261103Z 2612/2712 12005KT CAVOK ","updated":"2026-05-26T16:40:59Z"}
