{"icao":"KLAX","taf":"TAF KLAX 011129Z 0112/0218 28006KT P6SM BKN015 OVC035 ","updated":"2026-07-01T12:05:57Z"}
