{"icao":"LPAR","taf":"TAF LPAR 201106Z 2012/2021 03008KT CAVOK= TAF LPST 201105Z 2012/2021 36010KT CAVOK","updated":"2026-02-20T16:37:11Z"}
