{"icao":"KORD","taf":"TAF KORD 241133Z 2412/2518 19010KT P6SM BKN150 ","updated":"2026-02-24T13:03:34Z"}
