{"icao":"LPBJ","taf":"TAF LPBJ 031103Z 0312/0412 11005KT CAVOK ","updated":"2025-11-03T12:38:52Z"}
