{"icao":"KJFK","taf":"TAF KJFK 141129Z 1412/1518 32012KT 3/4SM -SN OVC004 ","updated":"2025-12-14T12:36:53Z"}
