{"icao":"KORD","taf":"TAF KORD 261720Z 2618/2724 27025G42KT P6SM -SHSN BKN030 ","updated":"2025-11-26T19:14:44Z"}
