{"icao":"KJFK","taf":"TAF KJFK 140541Z 1406/1512 24005KT P6SM FEW100 SCT250 ","updated":"2026-04-14T07:43:20Z"}
