{"icao":"KJFK","taf":"TAF KJFK 191720Z 1918/2024 18009KT P6SM OVC070 ","updated":"2026-03-19T19:48:04Z"}
