{"icao":"LPMR","taf":"TAF TAF LPMR 261704Z 2618/2718 22015KT 9999 SCT008 BKN025 ","updated":"2026-01-26T18:34:17Z"}
