{"icao":"LPBJ","taf":"TAF TAF LPBJ 011705Z 0118/0218 33012KT CAVOK ","updated":"2026-06-02T00:12:04Z"}
