{"icao":"LPPD","taf":"TAF LPPD 031700Z 0318/0418 25020KT 8000 SCT006 SCT012 ","updated":"2026-02-03T18:55:17Z"}
