{"icao":"LPMR","taf":"TAF TAF LPMR 241700Z 2418/2518 22012KT CAVOK ","updated":"2026-02-24T19:51:46Z"}
