{"icao":"LPMR","taf":"TAF LPMR 041103Z 0412/0512 14005KT CAVOK ","updated":"2026-04-04T15:30:32Z"}
