{"icao":"KJFK","taf":"TAF KJFK 191139Z 1912/2018 31006KT P6SM SKC ","updated":"2025-09-19T12:36:28Z"}
