{"icao":"LPMR","taf":"TAF TAF LPMR 220504Z 2206/2306 02005KT 9999 FEW025 ","updated":"2025-09-22T10:19:59Z"}
