{"icao":"LPLA","taf":"TAF LPLA 061104Z 0612/0712 VRB05KT 9999 FEW020 BKN030 PROB40 ","updated":"2026-05-06T14:07:14Z"}
