{"icao":"KORD","taf":"TAF KORD 131720Z 1318/1424 30011KT P6SM OVC070 ","updated":"2025-12-13T20:19:51Z"}
