{"icao":"LPFR","taf":"TAF LPFR 031100Z 0312/0412 09013KT 9999 SCT020 ","updated":"2026-03-03T12:55:26Z"}
