{"icao":"LPBJ","taf":"TAF TAF LPBJ 281701Z 2818/2918 32012KT CAVOK ","updated":"2026-06-28T20:11:44Z"}
