{"icao":"KJFK","taf":"TAF KJFK 221738Z 2218/2324 12012KT P6SM VCSH FEW020 OVC070 PROB30 2218/2219 5SM -SHRA ","updated":"2026-06-22T17:39:36Z"}
