{"icao":"LPMT","taf":"TAF LPMT 260507Z 2606/2706 04005KT CAVOK","updated":"2026-05-26T09:55:05Z"}
