{"icao":"LPPT","taf":"TAF LPPT 261100Z 2612/2718 04007KT CAVOK ","updated":"2025-11-26T14:19:24Z"}
