{"icao":"LPPR","taf":"TAF LPPR 071100Z 0712/0812 22008KT 9999 SCT018 SCT035 ","updated":"2026-04-07T11:52:42Z"}
