{"icao":"KLAX","taf":"TAF KLAX 090535Z 0906/1012 13012G18KT P6SM SKC ","updated":"2026-03-09T05:56:26Z"}
