{"icao":"LPLA","taf":"TAF LPLA 141103Z 1412/1512 VRB05KT 9999 SCT025 ","updated":"2026-06-14T16:19:56Z"}
