{"icao":"LPBJ","taf":"TAF LPBJ 100503Z 1006/1106 32008KT CAVOK ","updated":"2026-06-10T05:16:07Z"}
