{"icao":"KJFK","taf":"TAF KJFK 271720Z 2718/2824 16007KT P6SM BKN250 ","updated":"2026-02-27T19:32:07Z"}
