{"icao":"KORD","taf":"TAF KORD 111120Z 1112/1218 01009KT P6SM SCT035 ","updated":"2025-10-11T13:20:45Z"}
