{"icao":"LPFR","taf":"TAF LPFR 150500Z 1506/1606 23013KT 9999 FEW015 SCT030 ","updated":"2025-11-15T10:17:16Z"}
