{"icao":"LPAZ","taf":"TAF TAF LPAZ 200500Z 2006/2112 27013KT 9999 SCT006 BKN012 ","updated":"2025-10-20T08:24:50Z"}
