{"icao":"LPFR","taf":"TAF LPFR 131100Z 1312/1412 16008KT CAVOK ","updated":"2025-10-13T13:28:41Z"}
