{"icao":"LPPS","taf":"TAF LPPS 021700Z 0218/0324 09012KT 9999 SCT015 SCT030 ","updated":"2025-10-03T04:20:16Z"}
