{"icao":"LPBJ","taf":"TAF TAF LPBJ 090504Z 0906/1006 24008KT 9999 SCT002 BKN018 PROB40 0906/0910 0400 FG BKN002 PROB30 ","updated":"2026-01-09T07:24:24Z"}
