{"icao":"LPPS","taf":"TAF LPPS 031700Z 0318/0424 06012KT 9999 SCT013 ","updated":"2026-04-04T02:03:56Z"}
