{"icao":"LPOV","taf":"TAF LPOV 291705Z 2918/3018 34018KT CAVOK ","updated":"2026-03-29T19:33:46Z"}
