{"icao":"LPMR","taf":"TAF TAF LPMR 051109Z 0512/0612 34008KT CAVOK ","updated":"2026-04-05T12:55:15Z"}
