{"icao":"LPPS","taf":"TAF LPPS 141700Z 1418/1524 02012KT 9999 SCT015 BKN030 PROB40 ","updated":"2026-03-14T22:25:06Z"}
