{"icao":"KORD","taf":"TAF KORD 291720Z 2918/3024 06017G27KT P6SM SCT030 ","updated":"2025-10-29T20:20:49Z"}
