{"icao":"KORD","taf":"TAF KORD 211120Z 2112/2218 16007KT P6SM SCT120 SCT300 ","updated":"2026-03-21T13:41:07Z"}
