{"icao":"LPMT","taf":"TAF LPMT 071707Z 0718/0818 28010KT CAVOK ","updated":"2026-05-07T23:01:03Z"}
