{"icao":"KJFK","taf":"TAF KJFK 191741Z 1918/2024 10011KT P6SM BKN035 BKN200 ","updated":"2026-02-19T18:49:33Z"}
