{"icao":"LPMA","taf":"TAF LPMA 121700Z 1218/1318 VRB05KT 9999 SCT015 SCT030 ","updated":"2026-02-13T04:51:37Z"}
