{"icao":"KJFK","taf":"TAF KJFK 211722Z 2118/2224 21011KT P6SM SCT150 ","updated":"2026-01-21T18:41:17Z"}
