{"icao":"LPOV","taf":"TAF LPOV 012304Z 0200/0224 VRB02KT CAVOK PROB30 0200/0208 5000 BR BKN002 ","updated":"2025-10-02T11:13:37Z"}
