{"icao":"KJFK","taf":"TAF KJFK 151120Z 1512/1618 03004KT P6SM FEW080 SCT250 ","updated":"2025-09-15T12:36:21Z"}
