{"icao":"KLAX","taf":"TAF KLAX 171725Z 1718/1824 VRB03KT P6SM BKN250 ","updated":"2026-01-17T20:21:08Z"}
