{"icao":"LPMT","taf":"TAF TAF LPMT 080511Z 0806/0906 12010KT 9999 FEW020 SCT030 PROB40 ","updated":"2026-04-08T07:17:37Z"}
