{"icao":"KJFK","taf":"TAF KJFK 141735Z 1418/1524 29022G34KT P6SM FEW060 ","updated":"2026-03-14T18:37:04Z"}
