{"icao":"LPAZ","taf":"TAF TAF LPAZ 151700Z 1518/1624 20012KT 9999 SCT015 ","updated":"2025-10-15T19:13:59Z"}
