{"icao":"KORD","taf":"TAF KORD 031720Z 0318/0424 18008KT P6SM SCT250 ","updated":"2026-06-03T18:21:31Z"}
