{"icao":"LPMA","taf":"TAF LPMA 300500Z 3006/0106 01013KT 9999 SCT015 SCT030","updated":"2025-09-30T08:25:23Z"}
