{"icao":"KLAX","taf":"TAF KLAX 281147Z 2812/2918 07004KT P6SM BKN250 ","updated":"2026-01-28T12:48:11Z"}
