{"icao":"LPBJ","taf":"TAF COR TAF COR LPBJ 201725Z 2018/2118 14010KT 6000 -RA SCT014 BKN025 ","updated":"2026-03-20T17:34:26Z"}
