{"icao":"LPMR","taf":"TAF TAF LPMR 011101Z 0112/0212 15005KT CAVOK ","updated":"2025-10-01T16:22:06Z"}
