{"icao":"LPMR","taf":"TAF TAF LPMR 100506Z 1006/1106 VRB02KT 6000 FEW003 PROB40 1006/1009 1200 BR SCT002 ","updated":"2026-01-10T08:25:30Z"}
