{"icao":"KLAX","taf":"TAF KLAX 201122Z 2012/2118 VRB03KT 6SM BR SCT005 ","updated":"2025-10-20T12:38:26Z"}
