{"icao":"LPAZ","taf":"TAF TAF LPAZ 161700Z 1618/1724 30008KT 9999 FEW018 SCT030 ","updated":"2026-05-16T20:43:20Z"}
