{"icao":"LPFR","taf":"TAF LPFR 181100Z 1812/1912 10007KT 9999 SCT020 ","updated":"2025-12-18T14:21:03Z"}
