{"icao":"LPPR","taf":"TAF LPPR 311700Z 3118/0118 32013KT CAVOK ","updated":"2026-06-01T00:04:28Z"}
