{"icao":"KJFK","taf":"TAF KJFK 300539Z 3006/3112 29015KT P6SM FEW250 ","updated":"2026-01-30T07:39:12Z"}
