{"icao":"LPPT","taf":"TAF LPPT 291700Z 2918/3024 27008KT 9999 SCT015 BKN025 ","updated":"2025-11-30T01:42:21Z"}
