{"icao":"LPPT","taf":"TAF LPPT 270500Z 2706/2812 32007KT 9999 FEW012 PROB30 ","updated":"2026-02-27T10:36:01Z"}
