{"icao":"KLAX","taf":"TAF KLAX 150533Z 1506/1612 VRB03KT P6SM SKC ","updated":"2026-01-15T07:24:20Z"}
