{"icao":"LPOV","taf":"TAF LPOV 291705Z 2918/3018 34008KT 9999 BKN007 ","updated":"2026-05-29T18:30:42Z"}
