{"icao":"LPPD","taf":"TAF LPPD 011700Z 0118/0218 33018G30KT 9999 SCT018 ","updated":"2026-01-02T03:38:49Z"}
