{"icao":"LPBJ","taf":"TAF TAF LPBJ 160503Z 1606/1706 30005KT CAVOK PROB40 1606/1608 4000 BCFG SCT002 ","updated":"2026-05-16T10:13:10Z"}
