{"icao":"KLAX","taf":"TAF KLAX 230539Z 2306/2412 26008KT P6SM BKN060 ","updated":"2026-01-23T06:34:28Z"}
