{"icao":"LPAZ","taf":"TAF TAF LPAZ 201700Z 2018/2124 04013KT 9999 SCT025 ","updated":"2025-09-21T03:06:01Z"}
