{"icao":"LPMA","taf":"TAF LPMA 120500Z 1206/1306 35007KT 9999 SCT015 ","updated":"2025-10-12T07:15:42Z"}
