{"icao":"LPBJ","taf":"TAF TAF LPBJ 090503Z 0906/1006 30006KT 9999 BKN010 PROB40 0906/0908 BKN004 ","updated":"2025-10-09T06:27:33Z"}
