{"icao":"LPMT","taf":"TAF TAF LPMT 210510Z 2106/2206 02005KT CAVOK","updated":"2026-02-21T09:28:25Z"}
