{"icao":"LPFR","taf":"TAF LPFR 061700Z 0618/0718 25010KT 9999 FEW030 ","updated":"2025-11-06T17:17:55Z"}
