{"icao":"KJFK","taf":"TAF KJFK 211725Z 2118/2224 01008KT 6SM -RA SCT015 BKN060 ","updated":"2026-05-21T17:56:40Z"}
