{"icao":"LPAZ","taf":"TAF TAF LPAZ 271100Z 2712/2818 28010KT 9999 SCT006 SCT012 ","updated":"2026-06-27T17:08:00Z"}
