{"icao":"LPAZ","taf":"TAF TAF LPAZ 101100Z 1012/1118 17013KT 9999 SCT012 ","updated":"2025-10-10T13:26:38Z"}
