{"icao":"KJFK","taf":"TAF KJFK 240520Z 2406/2512 27010KT P6SM FEW070 ","updated":"2025-10-24T07:17:56Z"}
