{"icao":"KORD","taf":"TAF KORD 021120Z 0212/0318 15007KT P6SM SCT250 ","updated":"2025-10-02T14:17:17Z"}
