{"icao":"LPPD","taf":"TAF LPPD 110500Z 1106/1206 23017KT 6000 SCT004 BKN008 ","updated":"2026-02-11T08:59:35Z"}
