{"icao":"LPMA","taf":"TAF LPMA 220500Z 2206/2306 04010KT 9999 SCT016 SCT030 ","updated":"2026-03-22T10:26:13Z"}
