{"icao":"KORD","taf":"TAF KORD 011121Z 0112/0218 27007KT P6SM SCT040 OVC070 ","updated":"2025-11-01T14:14:33Z"}
