{"icao":"LPLA","taf":"TAF LPLA 280506Z 2806/2906 36010KT 9999 FEW020 BKN035 ","updated":"2025-11-28T08:26:01Z"}
