{"icao":"LPMR","taf":"TAF TAF LPMR 221102Z 2212/2312 32005KT CAVOK ","updated":"2026-05-22T13:30:22Z"}
