{"icao":"LPMT","taf":"TAF LPMT 261101Z 2612/2712 02006KT CAVOK PROB30 2703/2706 2000 BR BKN004 ","updated":"2026-02-26T11:38:42Z"}
