{"icao":"LPMR","taf":"TAF TAF LPMR 140508Z 1406/1506 22005KT 6000 FEW012 SCT016 ","updated":"2026-01-14T07:23:54Z"}
