{"icao":"LPPS","taf":"TAF LPPS 141700Z 1418/1524 06015KT 9999 SCT015 ","updated":"2026-02-14T19:23:01Z"}
