{"icao":"LPMT","taf":"TAF LPMT 280519Z 2806/2906 02010KT CAVOK","updated":"2026-03-28T08:37:13Z"}
