{"icao":"KORD","taf":"TAF KORD 071125Z 0712/0818 23012G21KT P6SM BKN018 ","updated":"2025-11-07T12:37:05Z"}
