{"icao":"LPLA","taf":"TAF LPLA 011105Z 0112/0212 35018KT 9999 SCT015 SCT025 ","updated":"2026-01-01T11:17:36Z"}
