{"icao":"LPMT","taf":"TAF LPMT 101703Z 1018/1118 36007KT 9999 FEW030 ","updated":"2025-10-10T20:18:38Z"}
