{"icao":"LPPD","taf":"TAF LPPD 010500Z 0106/0206 03010KT 9999 FEW020 BKN040 ","updated":"2025-11-01T10:17:07Z"}
