{"icao":"LPMA","taf":"TAF LPMA 160500Z 1606/1706 34008KT 9999 SCT015 ","updated":"2025-11-16T11:13:25Z"}
