{"icao":"LPMA","taf":"TAF TAF LPMA 090500Z 0906/1006 22018KT 9999 SCT008 BKN015 ","updated":"2025-12-09T05:19:07Z"}
