{"icao":"LPFR","taf":"TAF LPFR 030500Z 0306/0406 35010KT CAVOK ","updated":"2026-04-03T10:41:41Z"}
