{"icao":"KJFK","taf":"TAF KJFK 120530Z 1206/1312 06014KT P6SM SCT030 OVC070 ","updated":"2025-10-12T06:23:45Z"}
