{"icao":"KJFK","taf":"TAF KJFK 150530Z 1506/1612 28007KT P6SM SCT070 SCT150 SCT250 ","updated":"2025-11-15T07:15:36Z"}
