{"icao":"KORD","taf":"TAF KORD 070520Z 0706/0812 35012G19KT P6SM SKC ","updated":"2026-02-07T07:31:02Z"}
