{"icao":"LPPR","taf":"TAF LPPR 261100Z 2612/2712 19015KT 9999 SCT012 BKN025 ","updated":"2026-01-26T14:27:28Z"}
