{"icao":"KJFK","taf":"TAF KJFK 080539Z 0806/0912 31008KT P6SM SCT025 SCT250 ","updated":"2026-01-08T08:29:28Z"}
