{"icao":"LPFR","taf":"TAF LPFR 051700Z 0518/0618 23017KT 9999 SCT025 ","updated":"2026-02-05T18:45:11Z"}
