{"icao":"LPPT","taf":"TAF LPPT 061700Z 0618/0724 34015KT CAVOK ","updated":"2026-01-07T01:40:20Z"}
