{"icao":"KLAX","taf":"TAF KLAX 010533Z 0106/0212 25008KT P6SM FEW008 ","updated":"2026-06-01T06:01:33Z"}
