{"icao":"LPOV","taf":"TAF LPOV 141702Z 1418/1518 36012KT 9999 FEW008 PROB40 1419/1424 BKN008 ","updated":"2025-09-15T07:17:45Z"}
