{"icao":"LPPD","taf":"TAF LPPD 140500Z 1406/1506 21010KT 9999 SCT025","updated":"2026-02-14T07:32:54Z"}
