{"icao":"LPPR","taf":"TAF LPPR 101100Z 1012/1112 08007KT CAVOK ","updated":"2026-04-10T13:07:12Z"}
