{"icao":"LPPT","taf":"TAF LPPT 161700Z 1618/1724 32010KT CAVOK ","updated":"2026-04-16T21:41:32Z"}
