{"icao":"KLAX","taf":"TAF KLAX 190551Z 1906/2012 27010KT P6SM SCT050 ","updated":"2026-02-19T07:07:37Z"}
