{"icao":"KLAX","taf":"TAF KLAX 191721Z 1918/2024 VRB03KT P6SM SKC ","updated":"2026-03-19T18:57:32Z"}
