{"icao":"KJFK","taf":"TAF KJFK 270527Z 2706/2812 30019G29KT P6SM SCT040 SCT080 ","updated":"2026-01-27T07:26:30Z"}
