{"icao":"KLAX","taf":"TAF KLAX 300524Z 3006/3112 VRB03KT P6SM SKC ","updated":"2025-10-30T09:20:23Z"}
