{"icao":"LPBJ","taf":"TAF TAF LPBJ 051702Z 0518/0618 24015KT 9999 SCT030 ","updated":"2025-11-05T20:21:04Z"}
