{"icao":"LPBJ","taf":"TAF LPBJ 231104Z 2312/2412 05010KT CAVOK","updated":"2025-09-23T14:17:37Z"}
