{"icao":"KLAX","taf":"TAF KLAX 241743Z 2418/2524 VRB06KT P6SM FEW008 BKN015 ","updated":"2026-06-24T20:47:10Z"}
