{"icao":"KORD","taf":"TAF KORD 311120Z 3112/0118 33011KT P6SM -SHSN BKN020 BKN035 ","updated":"2026-01-31T13:40:18Z"}
