{"icao":"KJFK","taf":"TAF KJFK 010537Z 0106/0212 31012KT P6SM BKN080 BKN250 ","updated":"2026-05-01T06:15:37Z"}
