{"icao":"LPMT","taf":"TAF LPMT 041101Z 0412/0512 02010KT 9999 SCT040 ","updated":"2026-01-04T11:15:53Z"}
