{"icao":"KORD","taf":"TAF KORD 251120Z 2512/2618 VRB03KT 1 1/2SM -SHRADZ BR SCT003 OVC004 ","updated":"2025-11-25T14:19:08Z"}
