{"icao":"LPPR","taf":"TAF LPPR 170500Z 1706/1806 VRB02KT 2000 BR BKN002 ","updated":"2026-06-17T06:09:01Z"}
