{"icao":"LPMT","taf":"TAF LPMT 170506Z 1706/1806 33005KT 9999 FEW018 SCT025 PROB30 1713/1716 8000 -RA SCT012 BKN016 ","updated":"2026-05-17T11:04:29Z"}
