{"icao":"LPBJ","taf":"TAF TAF LPBJ 250513Z 2506/2606 26012KT 6000 -RA SCT012 BKN018 ","updated":"2026-01-25T06:30:11Z"}
