{"icao":"LPFR","taf":"TAF LPFR 220500Z 2206/2306 06012KT CAVOK ","updated":"2025-11-22T05:16:57Z"}
