{"icao":"LPAR","taf":"TAF LPAR 011102Z 0112/0121 05005KT CAVOK ","updated":"2025-10-11T04:19:40Z"}
