{"icao":"LPPT","taf":"TAF LPPT 261100Z 2612/2718 14005KT CAVOK ","updated":"2026-05-26T16:40:57Z"}
