{"icao":"LPMT","taf":"TAF LPMT 220500Z 2206/2306 02006KT CAVOK","updated":"2025-11-22T06:25:26Z"}
