{"icao":"KLAX","taf":"TAF KLAX 091739Z 0918/1024 VRB03KT P6SM FEW250 ","updated":"2025-12-09T21:17:03Z"}
