{"icao":"KORD","taf":"TAF KORD 041121Z 0412/0518 22010KT P6SM FEW300 ","updated":"2026-05-04T13:57:27Z"}
