{"icao":"KLAX","taf":"TAF KLAX 040538Z 0406/0512 26010KT P6SM BKN050 ","updated":"2026-05-04T06:11:48Z"}
