{"icao":"LPBJ","taf":"TAF TAF LPBJ 061701Z 0618/0718 29006KT 9999 FEW040 ","updated":"2025-11-07T03:09:18Z"}
