{"icao":"LPMA","taf":"TAF LPMA 221700Z 2218/2318 VRB05KT 9999 SCT015 ","updated":"2026-01-23T03:40:59Z"}
