{"icao":"KLAX","taf":"TAF KLAX 131133Z 1312/1418 VRB03KT P6SM SCT250 ","updated":"2026-02-13T12:57:33Z"}
