{"icao":"KORD","taf":"TAF KORD 190520Z 1906/2012 28012KT 6SM -RA BR SCT025 BKN040 ","updated":"2025-10-19T07:15:39Z"}
