{"icao":"LPOV","taf":"TAF LPOV 021707Z 0218/0318 24012KT 9999 FEW015 SCT020 ","updated":"2026-02-03T05:50:09Z"}
