{"icao":"LPLA","taf":"TAF LPLA 010509Z 0106/0206 20008KT 9999 FEW015 ","updated":"2025-10-01T07:17:59Z"}
