{"icao":"KJFK","taf":"TAF KJFK 310522Z 3106/0112 28016G26KT P6SM SCT060 ","updated":"2025-12-31T05:23:50Z"}
