{"icao":"LPLA","taf":"TAF LPLA 051706Z 0518/0618 09005KT 9999 FEW025 SCT035 ","updated":"2026-01-05T22:19:40Z"}
