{"icao":"LPPT","taf":"TAF LPPT 160500Z 1606/1712 25010KT 9999 SCT015 ","updated":"2025-11-16T05:17:37Z"}
