{"icao":"LPLA","taf":"TAF TAF LPLA 190000Z 1900/1924 35005KT 9999 BKN027 ","updated":"2026-01-19T03:49:14Z"}
