{"icao":"LPOV","taf":"TAF LPOV 241102Z 2412/2512 07005KT CAVOK ","updated":"2025-09-25T02:59:53Z"}
