{"icao":"KLAX","taf":"TAF KLAX 231127Z 2312/2418 09005KT P6SM SCT250 ","updated":"2026-04-23T13:26:40Z"}
