{"icao":"LPMT","taf":"TAF LPMT 191106Z 1912/2012 VRB05KT CAVOK ","updated":"2026-04-19T12:59:28Z"}
