{"icao":"LPPS","taf":"TAF LPPS 231100Z 2312/2418 03012KT 9999 SCT015 SCT030 PROB40 ","updated":"2025-09-23T12:36:13Z"}
