{"icao":"LPLA","taf":"TAF LPLA 250512Z 2506/2606 32015KT 9999 FEW020 BKN035 ","updated":"2026-06-25T09:18:50Z"}
