{"icao":"KLAX","taf":"TAF KLAX 121122Z 1212/1318 VRB03KT P6SM SKC ","updated":"2026-03-12T12:57:18Z"}
