{"icao":"LPLA","taf":"TAF TAF LPLA 081705Z 0818/0918 VRB05KT 9999 FEW015 SCT030 PROB30 ","updated":"2026-01-09T01:41:28Z"}
