{"icao":"KLAX","taf":"TAF KLAX 260533Z 2606/2712 24008KT P6SM SKC ","updated":"2026-05-26T09:55:37Z"}
