{"icao":"LPAZ","taf":"TAF TAF LPAZ 170500Z 1706/1812 36007KT 9999 SCT020 ","updated":"2025-10-17T11:14:47Z"}
