{"icao":"LPMA","taf":"TAF LPMA 311700Z 3118/0118 03015KT 9999 SCT015","updated":"2026-03-31T22:33:22Z"}
