{"icao":"LPMA","taf":"TAF LPMA 181100Z 1812/1912 VRB05KT 9999 FEW015 BKN030 PROB40 1812/1818 20010KT ","updated":"2025-12-18T15:21:17Z"}
