{"icao":"LPFR","taf":"TAF LPFR 301100Z 3012/3112 24008KT 9999 FEW020 SCT040 ","updated":"2025-10-30T16:23:11Z"}
