{"icao":"KLAX","taf":"TAF KLAX 021744Z 0218/0324 24006KT P6SM SCT010 SCT250 ","updated":"2026-03-02T20:36:41Z"}
