{"icao":"LPST","taf":"TAF LPST 130802Z 1309/1318 29018KT 9999 SCT016 ","updated":"2026-02-17T14:42:42Z"}
