{"icao":"LPAZ","taf":"TAF TAF LPAZ 301700Z 3018/0124 27017KT 9999 SCT015 SCT030 ","updated":"2026-04-30T19:18:42Z"}
