{"icao":"KLAX","taf":"TAF KLAX 141122Z 1412/1518 VRB03KT P6SM SKC ","updated":"2026-04-14T13:23:21Z"}
