{"icao":"LPPS","taf":"TAF LPPS 261700Z 2618/2724 01018KT 9999 SCT015 ","updated":"2026-02-26T19:43:03Z"}
