{"icao":"LPMT","taf":"TAF TAF LPMT 010504Z 0106/0206 22012KT 6000 -RA FEW006 SCT014 BKN025 ","updated":"2026-02-01T07:36:02Z"}
