{"icao":"LPST","taf":"TAF LPST 291416Z 2915/2924 24010KT 9999 SCT020 ","updated":"2026-05-01T11:58:11Z"}
