{"icao":"KLAX","taf":"TAF KLAX 311134Z 3112/0118 VRB03KT P6SM SCT010 ","updated":"2026-05-31T12:10:50Z"}
