{"icao":"KLAX","taf":"TAF KLAX 081728Z 0818/0924 29010G18KT P6SM SKC ","updated":"2026-01-08T19:19:30Z"}
