{"icao":"KLAX","taf":"TAF KLAX 080533Z 0806/0912 02007KT P6SM SKC ","updated":"2026-03-08T07:30:09Z"}
