{"icao":"LPMT","taf":"TAF LPMT 011102Z 0112/0212 04008KT CAVOK ","updated":"2026-04-01T15:02:33Z"}
