{"icao":"LPMT","taf":"TAF LPMT 261101Z 2612/2712 VRB03KT 9999 FEW040 ","updated":"2025-12-26T15:19:31Z"}
