{"icao":"LPPS","taf":"TAF LPPS 091700Z 0918/1024 02010KT 9999 FEW015 BKN030 ","updated":"2025-11-10T01:27:37Z"}
