{"icao":"KORD","taf":"TAF KORD 211139Z 2112/2218 35005KT P6SM SCT025 OVC300 ","updated":"2025-11-21T13:27:45Z"}
