{"icao":"KORD","taf":"TAF KORD 011720Z 0118/0224 27007KT P6SM SCT030 ","updated":"2025-11-01T18:22:30Z"}
