{"icao":"LPBJ","taf":"TAF TAF LPBJ 230502Z 2306/2406 VRB02KT CAVOK PROB40 2306/2309 5000 BCFG BKN003 ","updated":"2025-11-23T08:22:33Z"}
