{"icao":"LPMT","taf":"TAF TAF LPMT 010508Z 0106/0206 35008KT CAVOK ","updated":"2026-07-01T08:11:04Z"}
