{"icao":"KORD","taf":"TAF KORD 161720Z 1618/1724 32015G25KT P6SM SKC ","updated":"2025-11-16T20:19:13Z"}
