{"icao":"KLAX","taf":"TAF KLAX 160545Z 1606/1712 VRB03KT P6SM SKC ","updated":"2026-05-16T05:53:14Z"}
