{"icao":"LPFR","taf":"TAF LPFR 221700Z 2218/2318 25010KT CAVOK ","updated":"2026-04-23T02:31:58Z"}
