{"icao":"LPMR","taf":"TAF TAF LPMR 280502Z 2806/2906 19025KT 4000 -RA BR SCT015 BKN020 ","updated":"2026-01-28T08:30:41Z"}
