{"icao":"LPOV","taf":"TAF LPOV 291706Z 2918/3018 34014KT CAVOK ","updated":"2025-09-29T18:26:18Z"}
