{"icao":"LPPD","taf":"TAF LPPD 101700Z 1018/1118 28017KT 9999 SCT015 BKN030 ","updated":"2026-04-10T17:46:11Z"}
