{"icao":"LPPR","taf":"TAF LPPR 081100Z 0812/0912 32015KT CAVOK ","updated":"2026-06-08T14:46:46Z"}
