{"icao":"LPMA","taf":"TAF LPMA 300500Z 3006/3106 01020G30KT 9999 SCT015 ","updated":"2026-03-30T05:23:05Z"}
