{"icao":"LPMT","taf":"TAF LPMT 220507Z 2206/2306 26008KT 9999 SCT012 BKN015 ","updated":"2025-10-22T05:17:59Z"}
