{"icao":"KORD","taf":"TAF KORD 281120Z 2812/2918 01005KT P6SM FEW070 ","updated":"2025-09-28T14:14:17Z"}
