{"icao":"LPMT","taf":"TAF TAF LPMT 170502Z 1706/1806 06007KT CAVOK ","updated":"2026-03-17T09:54:30Z"}
