{"icao":"LPMT","taf":"TAF LPMT 171708Z 1718/1818 33010KT CAVOK ","updated":"2026-06-18T03:51:00Z"}
