{"icao":"KJFK","taf":"TAF KJFK 020520Z 0206/0312 VRB05KT P6SM SKC ","updated":"2026-06-02T05:47:10Z"}
