{"icao":"LPOV","taf":"TAF LPOV 261700Z 2618/2718 34008KT 7000 SCT002 PROB30 2618/2707 VRB02KT 0600 FG BKN002 ","updated":"2026-02-26T22:32:03Z"}
