{"icao":"LPFR","taf":"TAF LPFR 310500Z 3106/0106 22010KT 9999 FEW020 SCT040","updated":"2025-10-31T10:19:19Z"}
