{"icao":"LPMT","taf":"TAF LPMT 271706Z 2718/2818 32008KT CAVOK ","updated":"2026-04-28T02:47:22Z"}
