{"icao":"LPFR","taf":"TAF LPFR 151700Z 1518/1618 32013KT CAVOK ","updated":"2026-05-15T23:00:30Z"}
