{"icao":"KJFK","taf":"TAF KJFK 030520Z 0306/0412 30010KT P6SM FEW060 ","updated":"2026-01-03T07:18:16Z"}
