{"icao":"KLAX","taf":"TAF KLAX 271147Z 2712/2818 VRB03KT 1SM BR OVC002 ","updated":"2026-03-27T13:04:19Z"}
