{"icao":"KORD","taf":"TAF KORD 141121Z 1412/1518 03009KT P6SM BKN015 ","updated":"2025-10-14T12:39:21Z"}
