{"icao":"LPMT","taf":"TAF LPMT 181703Z 1818/1918 34008KT CAVOK PROB30 1900/1906 2000 BR BKN006 ","updated":"2026-06-19T00:25:01Z"}
