{"icao":"KJFK","taf":"TAF KJFK 050520Z 0506/0612 29007KT P6SM SCT050 SCT250 ","updated":"2026-01-05T07:27:34Z"}
