{"icao":"LPOV","taf":"TAF LPOV 031702Z 0318/0418 34008KT 2000 BR BKN006 PROB40 ","updated":"2025-10-03T19:13:40Z"}
