{"icao":"LPMA","taf":"TAF LPMA 291100Z 2912/3012 34012KT 9999 SCT015 PROB40 ","updated":"2025-10-29T11:16:23Z"}
