{"icao":"KORD","taf":"TAF KORD 211120Z 2112/2218 21011G17KT P6SM -SN SCT025 BKN050 ","updated":"2026-01-21T11:22:59Z"}
