{"icao":"LPMA","taf":"TAF LPMA 030500Z 0306/0406 01010KT 9999 SCT015 PROB30 ","updated":"2025-10-03T10:17:51Z"}
