{"icao":"LPBJ","taf":"TAF TAF LPBJ 031103Z 0312/0412 14012KT 9999 SCT018 BKN045 ","updated":"2026-01-03T14:17:25Z"}
