{"icao":"LPPT","taf":"TAF LPPT 240500Z 2406/2512 32008KT 9999 FEW012 ","updated":"2026-05-24T06:57:46Z"}
