{"icao":"LPLA","taf":"TAF LPLA 261107Z 2612/2712 17020KT 9999 FEW018 SCT040 ","updated":"2026-05-26T16:41:02Z"}
