{"icao":"KJFK","taf":"TAF KJFK 050530Z 0506/0612 VRB04KT P6SM FEW250 ","updated":"2025-10-05T06:23:58Z"}
