{"icao":"LPBJ","taf":"TAF TAF LPBJ 021102Z 0212/0312 35008KT CAVOK ","updated":"2025-11-02T13:21:29Z"}
