{"icao":"LPMR","taf":"TAF TAF LPMR 061104Z 0612/0712 24010KT 9999 SCT015 SCT025 ","updated":"2026-02-06T11:32:12Z"}
