{"icao":"LPLA","taf":"TAF LPLA 281703Z 2818/0118 27010KT 9999 FEW020 SCT030 ","updated":"2026-02-28T20:24:15Z"}
