{"icao":"LPMA","taf":"TAF LPMA 220500Z 2206/2306 VRB05KT 9999 SCT015 ","updated":"2025-10-22T06:28:06Z"}
