{"icao":"LPMT","taf":"TAF LPMT 211709Z 2118/2218 32010KT CAVOK ","updated":"2026-06-21T22:13:27Z"}
