{"icao":"KLAX","taf":"TAF KLAX 170009Z 1700/1806 25012KT P6SM BKN012 ","updated":"2026-06-17T00:14:48Z"}
