{"icao":"KJFK","taf":"TAF KJFK 301135Z 3012/0118 14005KT 4SM BR OVC005 ","updated":"2026-04-30T12:14:20Z"}
