{"icao":"LPPR","taf":"TAF LPPR 251700Z 2518/2618 VRB02KT CAVOK PROB30 ","updated":"2026-05-25T18:24:08Z"}
