{"icao":"KORD","taf":"TAF KORD 091138Z 0912/1018 26025G37KT P6SM OVC012 ","updated":"2026-01-09T13:36:42Z"}
