{"icao":"LPMT","taf":"TAF LPMT 291105Z 2912/3012 02005KT CAVOK ","updated":"2026-05-29T15:24:54Z"}
