{"icao":"LPPT","taf":"TAF LPPT 270500Z 2706/2812 05013KT 9999 FEW030 ","updated":"2025-12-27T11:15:35Z"}
