{"icao":"LPPR","taf":"TAF LPPR 200500Z 2006/2106 VRB02KT 6000 SCT006 ","updated":"2026-06-20T08:52:56Z"}
