{"icao":"LPMT","taf":"TAF LPMT 030508Z 0306/0406 12005KT CAVOK","updated":"2026-04-03T10:41:44Z"}
