{"icao":"LPPD","taf":"TAF LPPD 230500Z 2306/2406 VRB05KT 9999 FEW018 BKN035 ","updated":"2025-11-23T05:17:29Z"}
