{"icao":"LPBJ","taf":"TAF TAF LPBJ 041106Z 0412/0512 26015KT 6000 -RA SCT008 BKN015 ","updated":"2026-02-04T14:03:48Z"}
