{"icao":"KJFK","taf":"TAF KJFK 191139Z 1912/2018 08006KT 6SM -DZ BR OVC004 ","updated":"2026-04-19T12:59:47Z"}
