{"icao":"LPFR","taf":"TAF LPFR 251100Z 2512/2612 07005KT 9999 FEW035 PROB30 ","updated":"2026-02-25T11:39:17Z"}
