{"icao":"LPAZ","taf":"TAF TAF LPAZ 271700Z 2718/2824 10008KT 9999 SCT023 ","updated":"2025-12-28T04:43:20Z"}
