{"icao":"LPAZ","taf":"TAF TAF LPAZ 031700Z 0318/0424 18007KT 9999 SCT012 ","updated":"2025-10-03T21:14:24Z"}
