{"icao":"KJFK","taf":"TAF KJFK 171733Z 1718/1824 07014G20KT 6SM -SHRA BR SCT010 BKN020 ","updated":"2025-09-17T19:14:03Z"}
