{"icao":"LPPD","taf":"TAF LPPD 241100Z 2412/2512 01012KT 9999 SCT020 ","updated":"2025-09-24T16:22:56Z"}
