{"icao":"LPMT","taf":"TAF LPMT 110507Z 1106/1206 13005KT 3000 BR BKN003 ","updated":"2025-11-11T05:18:52Z"}
