{"icao":"LPMA","taf":"TAF COR TAF COR LPMA 242204Z 2422/2518 VRB05KT 9999 SCT015 ","updated":"2025-12-25T01:38:50Z"}
