{"icao":"LPLA","taf":"TAF COR TAF COR LPLA 100752Z 1006/1106 35015KT 9999 FEW020 SCT025 ","updated":"2026-05-10T08:52:21Z"}
