{"icao":"LPMR","taf":"TAF TAF LPMR 181704Z 1818/1918 33005KT CAVOK ","updated":"2026-04-18T21:33:36Z"}
