{"icao":"LPPD","taf":"TAF LPPD 300500Z 3006/3106 21008KT 8000 SCT004 SCT008 ","updated":"2026-05-30T06:22:57Z"}
