{"icao":"LPPS","taf":"TAF LPPS 030500Z 0306/0412 27023G35KT 9999 SCT015 SCT030 ","updated":"2026-01-03T05:21:01Z"}
