{"icao":"KJFK","taf":"TAF KJFK 200526Z 2006/2112 07010KT P6SM SCT025 OVC035 ","updated":"2026-02-20T05:52:30Z"}
