{"icao":"KORD","taf":"TAF KORD 111720Z 1118/1224 31011KT P6SM FEW250 ","updated":"2026-02-11T20:37:49Z"}
