{"icao":"LPOV","taf":"TAF LPOV 161703Z 1618/1718 33010KT CAVOK ","updated":"2026-03-17T05:57:46Z"}
