{"icao":"LPPR","taf":"TAF LPPR 241100Z 2412/2512 22008KT 8000 BKN006 ","updated":"2026-05-24T15:02:07Z"}
