{"icao":"LPPD","taf":"TAF LPPD 060500Z 0606/0706 VRB05KT 9999 FEW025 BKN045 ","updated":"2026-01-06T08:29:09Z"}
