{"icao":"KLAX","taf":"TAF KLAX 261738Z 2618/2724 22008KT 6SM -SHRA BR FEW008 SCT015 OVC025 ","updated":"2025-12-26T19:15:09Z"}
