{"icao":"KJFK","taf":"TAF KJFK 021135Z 0212/0318 28012KT 6SM -SN FEW035 ","updated":"2026-01-02T12:39:50Z"}
