{"icao":"KJFK","taf":"TAF KJFK 180538Z 1806/1912 23005KT P6SM FEW250 ","updated":"2026-05-18T08:01:38Z"}
