{"icao":"KJFK","taf":"TAF COR KJFK 241758Z 2418/2524 29012G18KT P6SM FEW070 ","updated":"2026-06-24T18:50:03Z"}
