{"icao":"LPMA","taf":"TAF LPMA 220500Z 2206/2306 02010KT 9999 SCT015 ","updated":"2026-02-22T09:29:05Z"}
