{"icao":"KORD","taf":"TAF KORD 250537Z 2506/2612 34007KT P6SM SCT020 BKN040 ","updated":"2025-09-25T08:23:23Z"}
