{"icao":"LPMA","taf":"TAF LPMA 230500Z 2306/2406 01010KT 9999 SCT015 SCT030 ","updated":"2025-09-23T07:17:42Z"}
