{"icao":"LPPR","taf":"TAF LPPR 220500Z 2206/2306 VRB02KT 5000 BR SCT004 ","updated":"2026-03-22T06:50:17Z"}
