{"icao":"LPPS","taf":"TAF LPPS 250500Z 2506/2612 VRB05KT 9999 SCT015 ","updated":"2026-04-25T10:42:05Z"}
