{"icao":"LPMT","taf":"TAF LPMT 301108Z 3012/3112 VRB02KT 0300 FG BKN002 ","updated":"2025-12-30T14:20:04Z"}
