{"icao":"LPFR","taf":"TAF LPFR 210500Z 2106/2206 07012KT CAVOK ","updated":"2026-04-21T05:26:01Z"}
