{"icao":"KORD","taf":"TAF KORD 051127Z 0512/0618 21010KT P6SM SCT150 ","updated":"2026-01-05T14:23:35Z"}
