{"icao":"LPBJ","taf":"TAF TAF LPBJ 220506Z 2206/2306 12008KT CAVOK ","updated":"2026-05-22T07:42:51Z"}
