{"icao":"LPBJ","taf":"TAF TAF LPBJ 180502Z 1806/1906 VRB02KT CAVOK PROB30 1806/1808 4000 BCFG BKN006 ","updated":"2025-11-18T08:25:22Z"}
