{"icao":"LPBJ","taf":"TAF TAF LPBJ 261102Z 2612/2712 04008KT CAVOK","updated":"2025-11-26T13:33:37Z"}
