{"icao":"LPBJ","taf":"TAF TAF LPBJ 120510Z 1206/1306 22010KT 9999 SCT025 ","updated":"2026-05-12T09:36:47Z"}
