{"icao":"LPLA","taf":"TAF LPLA 101702Z 1018/1118 21022KT 9999 SCT012 SCT022 ","updated":"2026-01-10T22:18:38Z"}
