{"icao":"KLAX","taf":"TAF KLAX 240541Z 2406/2512 22008KT P6SM SCT250 ","updated":"2026-04-24T08:01:49Z"}
