{"icao":"KORD","taf":"TAF KORD 301120Z 3012/0118 27018G28KT 3SM -SN BR SCT008 OVC015 ","updated":"2025-11-30T13:25:13Z"}
