{"icao":"LPPR","taf":"TAF LPPR 071100Z 0712/0812 32015KT CAVOK ","updated":"2026-06-07T12:19:20Z"}
