{"icao":"KORD","taf":"TAF KORD 061120Z 0612/0718 29006KT 4SM BR OVC012 ","updated":"2026-02-06T12:56:52Z"}
