{"icao":"LPAZ","taf":"TAF TAF LPAZ 281100Z 2812/2918 07012KT 9999 FEW015 BKN025 PROB30 ","updated":"2026-03-28T13:50:34Z"}
