{"icao":"KJFK","taf":"TAF KJFK 261131Z 2612/2718 23009KT P6SM FEW006 SCT012 OVC025 ","updated":"2025-11-26T12:41:01Z"}
