{"icao":"KORD","taf":"TAF KORD 071727Z 0718/0824 01010G18KT P6SM FEW015 BKN025 ","updated":"2025-10-07T18:26:38Z"}
