{"icao":"LPOV","taf":"TAF LPOV 171702Z 1718/1818 27008KT CAVOK ","updated":"2026-03-18T02:05:38Z"}
