{"icao":"LPFR","taf":"TAF LPFR 101100Z 1012/1112 34005KT 9999 FEW025 ","updated":"2026-01-10T12:37:35Z"}
