{"icao":"LPFR","taf":"TAF LPFR 201700Z 2018/2118 28008KT 9999 SCT040 ","updated":"2026-01-20T18:35:34Z"}
