{"icao":"LPPT","taf":"TAF LPPT 051100Z 0512/0618 24017KT 9999 SCT018 ","updated":"2025-11-05T11:16:14Z"}
