{"icao":"LPPR","taf":"TAF LPPR 121700Z 1218/1318 33010KT CAVOK ","updated":"2025-10-12T21:14:17Z"}
