{"icao":"LPFR","taf":"TAF LPFR 141100Z 1412/1512 19005KT 9999 FEW030 ","updated":"2026-01-14T13:39:17Z"}
