{"icao":"KORD","taf":"TAF KORD 241123Z 2412/2518 31006KT P6SM SKC ","updated":"2025-10-24T13:29:24Z"}
