{"icao":"LPFR","taf":"TAF LPFR 161700Z 1618/1718 31018KT 9999 SCT030 ","updated":"2025-12-16T18:30:11Z"}
