{"icao":"LPMR","taf":"TAF TAF LPMR 011103Z 0112/0212 33012KT 9999 FEW008 SCT012 ","updated":"2026-06-01T12:35:07Z"}
