{"icao":"KJFK","taf":"TAF KJFK 211120Z 2112/2218 01012KT P6SM SCT020 BKN040 ","updated":"2026-05-21T11:21:45Z"}
