{"icao":"LPOV","taf":"TAF LPOV 210510Z 2106/2206 22010KT 8000 -RA SCT006 BKN009 ","updated":"2025-10-21T05:17:35Z"}
