{"icao":"LPPR","taf":"TAF LPPR 020500Z 0206/0306 34010KT 8000 BKN008 ","updated":"2026-06-02T10:20:39Z"}
