{"icao":"LPMT","taf":"TAF LPMT 151103Z 1512/1612 34012KT 9999 SCT025 ","updated":"2026-05-15T18:21:36Z"}
