{"icao":"KJFK","taf":"TAF KJFK 311120Z 3112/0118 32008KT P6SM FEW250 ","updated":"2026-01-31T13:40:17Z"}
