{"icao":"LPFR","taf":"TAF LPFR 231100Z 2312/2412 12010KT CAVOK PROB30 2312/2318 23010KT ","updated":"2026-02-23T13:01:30Z"}
