{"icao":"LPBJ","taf":"TAF TAF LPBJ 171705Z 1718/1818 10005KT CAVOK ","updated":"2025-10-18T03:27:04Z"}
