{"icao":"LPFR","taf":"TAF LPFR 301100Z 3012/3112 23008KT CAVOK ","updated":"2026-05-30T13:25:59Z"}
