{"icao":"KJFK","taf":"TAF KJFK 091738Z 0918/1024 20009KT P6SM FEW060 SCT200 ","updated":"2025-12-09T18:25:55Z"}
