{"icao":"LPMR","taf":"TAF TAF LPMR 131702Z 1318/1418 28008KT 9999 SCT012 BKN020 ","updated":"2026-04-13T17:58:27Z"}
