{"icao":"LPPD","taf":"TAF LPPD 041100Z 0412/0512 23012KT 3000 -RADZ BR BKN003 ","updated":"2026-03-04T12:54:27Z"}
