{"icao":"KJFK","taf":"TAF KJFK 151726Z 1518/1624 11012KT P6SM FEW050 SCT250 ","updated":"2025-09-15T19:13:40Z"}
