{"icao":"LPPT","taf":"TAF LPPT 021700Z 0218/0324 33015KT 9999 SCT030 ","updated":"2026-06-02T18:37:46Z"}
