{"icao":"LPAZ","taf":"TAF TAF LPAZ 270500Z 2706/2812 VRB05KT 9999 SCT015 PROB30 ","updated":"2025-11-27T09:21:21Z"}
