{"icao":"KORD","taf":"TAF KORD 071720Z 0718/0824 28015G26KT P6SM SCT007 OVC015 ","updated":"2026-03-07T19:20:49Z"}
