{"icao":"KJFK","taf":"TAF KJFK 211720Z 2118/2224 13012KT P6SM FEW050 BKN250 ","updated":"2025-09-21T19:12:30Z"}
