{"icao":"LPMR","taf":"TAF TAF LPMR 131103Z 1312/1412 35010KT CAVOK ","updated":"2025-09-13T12:31:18Z"}
