{"icao":"KJFK","taf":"TAF KJFK 140532Z 1406/1512 17010KT 4SM -SHRA BR SCT025 BKN035 OVC050 ","updated":"2026-05-14T06:45:03Z"}
