{"icao":"LPOV","taf":"TAF LPOV 221702Z 2218/2318 35011KT CAVOK ","updated":"2026-02-22T23:24:49Z"}
