{"icao":"KORD","taf":"TAF KORD 300525Z 3006/3112 03009KT P6SM SCT030 ","updated":"2025-10-30T06:27:34Z"}
