{"icao":"LPBJ","taf":"TAF TAF LPBJ 140503Z 1406/1506 21010KT 9999 SCT020 SCT030 ","updated":"2025-11-14T11:15:34Z"}
