{"icao":"LPOV","taf":"TAF LPOV 301704Z 3018/3118 34015KT CAVOK ","updated":"2026-03-30T19:58:01Z"}
