{"icao":"LPPD","taf":"TAF LPPD 140500Z 1406/1506 27008KT 9999 SCT015 BKN030 ","updated":"2025-12-14T10:18:53Z"}
