{"icao":"KJFK","taf":"TAF KJFK 261133Z 2612/2718 01008KT P6SM BKN070 BKN250 ","updated":"2025-10-26T13:22:30Z"}
