{"icao":"LPMT","taf":"TAF LPMT 101707Z 1018/1118 27010KT CAVOK ","updated":"2026-04-11T02:07:30Z"}
