{"icao":"LPLA","taf":"TAF LPLA 161709Z 1618/1718 16010KT 9999 FEW025 SCT035 ","updated":"2025-11-16T22:16:40Z"}
