{"icao":"LPPT","taf":"TAF LPPT 281100Z 2812/2918 05012KT CAVOK ","updated":"2026-03-28T12:53:03Z"}
