{"icao":"KJFK","taf":"TAF KJFK 290538Z 2906/3012 14006KT P6SM BKN080 ","updated":"2026-04-29T06:21:59Z"}
