{"icao":"LPBJ","taf":"TAF TAF LPBJ 211710Z 2118/2218 11005KT 9999 FEW035 PROB40 ","updated":"2026-03-22T02:06:57Z"}
