{"icao":"LPOV","taf":"TAF LPOV 151704Z 1518/1618 34015KT CAVOK ","updated":"2025-09-16T03:27:50Z"}
