{"icao":"LPAR","taf":"TAF LPAR 270809Z 2709/2718 05005KT CAVOK ","updated":"2026-04-27T13:50:19Z"}
