{"icao":"LPOV","taf":"TAF LPOV 161707Z 1618/1718 VRB02KT 6000 FEW001 SCT004 ","updated":"2025-10-16T21:15:30Z"}
