{"icao":"LPBJ","taf":"TAF TAF LPBJ 120506Z 1206/1306 14005KT 8000 -RA BKN040 ","updated":"2025-12-12T06:31:14Z"}
