{"icao":"LPPT","taf":"TAF LPPT 250500Z 2506/2612 VRB05KT 9999 SCT008 BKN015 ","updated":"2026-02-25T10:50:19Z"}
