{"icao":"LPMR","taf":"TAF TAF LPMR 091707Z 0918/1018 31008KT CAVOK ","updated":"2025-10-09T18:25:33Z"}
