{"icao":"KJFK","taf":"TAF KJFK 051730Z 0518/0624 35008KT P6SM SKC ","updated":"2026-02-05T17:46:04Z"}
