{"icao":"KLAX","taf":"TAF KLAX 291132Z 2912/3018 VRB03KT 5SM BR OVC006 ","updated":"2025-11-29T13:25:16Z"}
