{"icao":"KJFK","taf":"TAF KJFK 011739Z 0118/0224 36014G20KT P6SM OVC050 ","updated":"2026-03-01T19:21:09Z"}
