{"icao":"LPAZ","taf":"TAF TAF LPAZ 061700Z 0618/0724 27012KT 8000 SCT003 BKN006 ","updated":"2026-06-06T19:20:27Z"}
