{"icao":"LPPR","taf":"TAF LPPR 091700Z 0918/1018 34010KT CAVOK ","updated":"2025-10-09T22:15:36Z"}
