{"icao":"LPOV","taf":"TAF LPOV 301701Z 3018/0118 22008KT 9999 SCT020 ","updated":"2026-05-01T02:55:04Z"}
