{"icao":"KLAX","taf":"TAF KLAX 281723Z 2818/2924 10005KT P6SM OVC040 ","updated":"2025-09-28T20:17:20Z"}
