{"icao":"LPFR","taf":"TAF LPFR 211100Z 2112/2212 24012KT 9999 SCT008 ","updated":"2025-10-21T15:19:06Z"}
