{"icao":"KJFK","taf":"TAF KJFK 081123Z 0812/0918 22006KT 1/2SM FG OVC003 ","updated":"2026-03-08T12:46:17Z"}
