{"icao":"KORD","taf":"TAF KORD 100520Z 1006/1112 21012G18KT P6SM BKN150 WS020/24050KT ","updated":"2026-02-10T07:02:54Z"}
