{"icao":"LPFR","taf":"TAF LPFR 251700Z 2518/2618 24012KT 9999 SCT008 BKN015 ","updated":"2026-01-25T22:19:10Z"}
