{"icao":"KLAX","taf":"TAF KLAX 300524Z 3006/0112 VRB03KT P6SM SKC ","updated":"2026-04-30T05:58:07Z"}
