{"icao":"LPLA","taf":"TAF LPLA 031104Z 0312/0412 25008KT 9999 SCT016 ","updated":"2025-11-03T14:18:42Z"}
