{"icao":"KLAX","taf":"TAF KLAX 220528Z 2206/2312 VRB03KT P6SM SKC ","updated":"2026-06-22T06:28:10Z"}
