{"icao":"LPMA","taf":"TAF LPMA 080500Z 0806/0906 VRB05KT 9999 SCT015 ","updated":"2026-02-08T09:28:28Z"}
