{"icao":"LPMT","taf":"TAF LPMT 051706Z 0518/0618 34010KT CAVOK ","updated":"2026-06-06T02:58:28Z"}
