{"icao":"LPPS","taf":"TAF LPPS 071100Z 0712/0818 03013KT 9999 FEW015 BKN030","updated":"2026-03-07T12:44:05Z"}
