{"icao":"LPPS","taf":"TAF LPPS 170500Z 1706/1812 36008KT 9999 SCT015 ","updated":"2026-06-17T06:09:33Z"}
