{"icao":"LPPT","taf":"TAF LPPT 221100Z 2212/2318 26010KT 9999 BKN020 ","updated":"2025-10-22T15:18:21Z"}
