{"icao":"KLAX","taf":"TAF KLAX 241120Z 2412/2518 23006KT P6SM BKN018 BKN025 ","updated":"2026-01-24T12:38:40Z"}
