{"icao":"KJFK","taf":"TAF KJFK 211720Z 2118/2224 20013G19KT P6SM SCT250 ","updated":"2025-10-21T18:25:55Z"}
