{"icao":"LPMR","taf":"TAF TAF LPMR 201703Z 2018/2118 24008KT 9999 FEW015 SCT030 ","updated":"2025-10-20T23:15:57Z"}
