{"icao":"LPMT","taf":"TAF LPMT 230505Z 2306/2406 34005KT CAVOK ","updated":"2026-05-23T07:30:05Z"}
