{"icao":"LPMR","taf":"TAF TAF LPMR 091706Z 0918/1018 34018KT CAVOK ","updated":"2026-06-09T20:56:53Z"}
