{"icao":"LPOV","taf":"TAF LPOV 111109Z 1112/1212 20008KT 9999 FEW035 ","updated":"2025-12-11T15:22:52Z"}
