{"icao":"LPPR","taf":"TAF LPPR 111100Z 1112/1212 07007KT CAVOK ","updated":"2026-06-11T14:33:41Z"}
