{"icao":"KLAX","taf":"TAF KLAX 010539Z 0106/0212 VRB03KT P6SM SCT250 ","updated":"2026-02-01T06:03:26Z"}
