{"icao":"LPMR","taf":"TAF TAF LPMR 071101Z 0712/0812 32010KT 9999 SCT025 ","updated":"2026-05-07T11:45:36Z"}
