{"icao":"KJFK","taf":"TAF KJFK 161131Z 1612/1718 35013KT P6SM SCT120 ","updated":"2025-10-16T13:29:55Z"}
