{"icao":"LPLA","taf":"TAF LPLA 281104Z 2812/2912 21022G35KT 9999 FEW015 SCT022 PROB40 ","updated":"2026-05-28T15:50:18Z"}
