{"icao":"LPOV","taf":"TAF LPOV 221704Z 2218/2318 VRB02KT 9999 SCT020 BKN030 ","updated":"2025-11-22T23:16:44Z"}
