{"icao":"LPOV","taf":"TAF LPOV 151104Z 1512/1612 17015KT 8000 -RA SCT015 BKN020 ","updated":"2026-01-15T14:23:32Z"}
