{"icao":"LPOV","taf":"TAF TAF LPOV 200505Z 2006/2106 04003KT CAVOK ","updated":"2026-02-20T07:47:25Z"}
