{"icao":"LPOV","taf":"TAF LPOV 220506Z 2206/2306 14005KT CAVOK ","updated":"2026-05-22T10:48:50Z"}
