{"icao":"LPPR","taf":"TAF LPPR 211100Z 2112/2212 26007KT CAVOK ","updated":"2026-05-21T15:21:00Z"}
