{"icao":"LPFR","taf":"TAF LPFR 051700Z 0518/0618 30018KT CAVOK ","updated":"2026-06-05T17:52:34Z"}
