{"icao":"LPMR","taf":"TAF TAF LPMR 061700Z 0618/0718 VRB02KT 9999 SCT025 ","updated":"2025-11-06T20:20:37Z"}
