{"icao":"LPMT","taf":"TAF LPMT 261702Z 2618/2718 02008KT 9999 FEW040 ","updated":"2025-10-27T10:21:07Z"}
