{"icao":"LPMA","taf":"TAF LPMA 121100Z 1212/1312 VRB05KT 9999 SCT015 ","updated":"2026-05-12T17:09:11Z"}
