{"icao":"LPFR","taf":"TAF LPFR 161700Z 1618/1718 28007KT CAVOK ","updated":"2026-04-16T23:38:57Z"}
