{"icao":"LPLA","taf":"TAF LPLA 081700Z 0818/0918 15012KT 8000 -RA SCT010 BKN018 ","updated":"2025-10-08T23:15:32Z"}
