{"icao":"KLAX","taf":"TAF KLAX 301753Z 3018/0124 24006KT P6SM SCT024 ","updated":"2026-04-30T20:58:49Z"}
