{"icao":"LPMR","taf":"TAF TAF LPMR 191704Z 1918/2018 35005KT 9999 FEW018 SCT025 ","updated":"2026-01-19T20:22:39Z"}
