{"icao":"LPPR","taf":"TAF LPPR 130500Z 1306/1406 15018G30KT 9999 SCT018 BKN035 ","updated":"2026-01-13T05:24:23Z"}
