{"icao":"LPOV","taf":"TAF LPOV 041702Z 0418/0518 21012KT 7000 -RA SCT012 BKN020 ","updated":"2026-02-04T17:43:26Z"}
