{"icao":"LPOV","taf":"TAF LPOV 310501Z 3106/0106 VRB02KT 9999 SCT006 ","updated":"2026-05-31T07:44:13Z"}
