{"icao":"LPLA","taf":"TAF LPLA 170500Z 1706/1806 VRB05KT 9999 FEW020 SCT040 ","updated":"2025-10-17T05:17:06Z"}
