{"icao":"LPFR","taf":"TAF LPFR 201700Z 2018/2118 19007KT CAVOK ","updated":"2026-05-21T03:34:08Z"}
