{"icao":"KORD","taf":"TAF KORD 171720Z 1718/1824 16023G33KT 5SM -SHRA BR BKN040 OVC090 ","updated":"2026-06-17T18:14:23Z"}
