{"icao":"LPBJ","taf":"TAF TAF LPBJ 301103Z 3012/3112 05010KT CAVOK ","updated":"2026-03-30T13:16:35Z"}
