{"icao":"LPBJ","taf":"TAF TAF LPBJ 110503Z 1106/1206 04005KT CAVOK PROB30 1106/1108 0600 FG BKN002 PROB30 1204/1206 2000 BCFG BKN004","updated":"2026-03-11T10:37:36Z"}
