{"icao":"LPMT","taf":"TAF LPMT 101705Z 1018/1118 24010KT 6000 -RADZ BKN008 ","updated":"2026-02-10T19:19:58Z"}
