{"icao":"LPPD","taf":"TAF LPPD 041700Z 0418/0518 14008KT 9999 SCT015 ","updated":"2025-10-04T20:17:03Z"}
