{"icao":"LPBJ","taf":"TAF TAF LPBJ 241106Z 2412/2512 18005KT CAVOK ","updated":"2026-05-24T13:23:08Z"}
