{"icao":"LPOV","taf":"TAF LPOV 271700Z 2718/2818 35005KT CAVOK ","updated":"2025-10-27T23:15:57Z"}
