{"icao":"KJFK","taf":"TAF KJFK 291725Z 2918/3024 14009KT P6SM BKN250 ","updated":"2025-09-29T18:26:37Z"}
