{"icao":"LPAZ","taf":"TAF TAF LPAZ 170511Z 1706/1812 27008KT CAVOK ","updated":"2026-05-17T11:04:31Z"}
