{"icao":"LPBJ","taf":"TAF TAF LPBJ 260510Z 2606/2706 05005KT CAVOK PROB30 2606/2608 4000 BCFG FEW002 ","updated":"2026-03-26T07:06:32Z"}
