{"icao":"LPOV","taf":"TAF LPOV 231102Z 2312/2412 08005KT CAVOK ","updated":"2026-02-23T16:55:57Z"}
