{"icao":"LPFR","taf":"TAF LPFR 101700Z 1018/1118 29008KT CAVOK ","updated":"2025-10-10T19:13:42Z"}
