{"icao":"LPAZ","taf":"TAF LPAZ 221100Z 2212/2318 02013KT 9999 FEW012 BKN030 ","updated":"2026-03-22T16:29:13Z"}
