{"icao":"LPPR","taf":"TAF LPPR 290500Z 2906/3006 13007KT 9999 SCT012 BKN025 ","updated":"2025-11-29T08:23:18Z"}
