{"icao":"LPFR","taf":"TAF LPFR 181700Z 1818/1918 26012KT 9999 SCT020 BKN035 PROB30 ","updated":"2026-02-19T02:03:41Z"}
