{"icao":"LPMA","taf":"TAF LPMA 051700Z 0518/0618 02010KT 9999 SCT015 SCT030 ","updated":"2025-10-05T19:12:36Z"}
