{"icao":"KORD","taf":"TAF KORD 080520Z 0806/0912 03008KT P6SM SCT015 BKN025 PROB30 0808/0814 6SM -SHRA BKN020 ","updated":"2025-11-08T08:21:58Z"}
