{"icao":"KORD","taf":"TAF KORD 021730Z 0218/0324 15008KT P6SM SCT250 ","updated":"2025-10-02T19:13:48Z"}
