{"icao":"KJFK","taf":"TAF KJFK 091138Z 0912/1018 24011KT P6SM FEW250 ","updated":"2026-06-09T12:35:45Z"}
