{"icao":"LPLA","taf":"TAF LPLA 230509Z 2306/2406 20010KT 9999 SCT020 ","updated":"2025-10-23T10:19:30Z"}
