{"icao":"KLAX","taf":"TAF KLAX 161729Z 1618/1724 26014KT P6SM SCT030 ","updated":"2026-05-16T20:43:22Z"}
