{"icao":"KORD","taf":"TAF KORD 131720Z 1318/1424 24007KT P6SM BKN100 ","updated":"2025-11-13T18:26:57Z"}
