{"icao":"LPBJ","taf":"TAF TAF LPBJ 220506Z 2206/2306 09005KT CAVOK PROB30 2206/2208 4000 BCFG SCT002 PROB30 2304/2306 2000 BCFG SCT002","updated":"2026-02-22T05:50:36Z"}
