{"icao":"KORD","taf":"TAF KORD 310520Z 3106/0112 34011KT P6SM SCT025 BKN035 ","updated":"2026-01-31T05:37:50Z"}
