{"icao":"LPAZ","taf":"TAF TAF LPAZ 080500Z 0806/0912 31025KT 9999 FEW020 SCT030 ","updated":"2026-05-08T09:18:40Z"}
