{"icao":"LPMR","taf":"TAF TAF LPMR 251111Z 2512/2612 24012KT 9999 SCT015 BKN025 ","updated":"2026-01-25T16:24:19Z"}
