{"icao":"LPBJ","taf":"TAF TAF LPBJ 061701Z 0618/0718 36008KT CAVOK ","updated":"2026-01-07T03:28:08Z"}
