{"icao":"KLAX","taf":"TAF KLAX 061720Z 0618/0724 23006KT P6SM SKC ","updated":"2026-03-06T21:28:39Z"}
