{"icao":"LPAZ","taf":"TAF TAF LPAZ 271100Z 2712/2818 03012KT 9999 SCT020 BKN040 ","updated":"2025-09-27T17:13:13Z"}
