{"icao":"LPAZ","taf":"TAF TAF LPAZ 041700Z 0418/0524 14007KT 9999 SCT015 ","updated":"2025-10-05T01:24:52Z"}
