{"icao":"LPFR","taf":"TAF LPFR 211700Z 2118/2218 31010KT 9999 FEW015 SCT030 PROB30 ","updated":"2025-12-21T20:20:13Z"}
