{"icao":"LPFR","taf":"TAF LPFR 140500Z 1406/1506 33008KT CAVOK ","updated":"2026-04-14T11:01:11Z"}
