{"icao":"KJFK","taf":"TAF KJFK 281740Z 2818/2924 27023G33KT P6SM FEW050 ","updated":"2025-11-28T20:21:18Z"}
