{"icao":"LPMA","taf":"TAF LPMA 080500Z 0806/0906 03013KT 9999 SCT015 ","updated":"2025-11-08T07:16:28Z"}
