{"icao":"KLAX","taf":"TAF KLAX 231730Z 2318/2424 VRB03KT 5SM HZ SCT015 SCT250 ","updated":"2026-01-23T20:25:11Z"}
