{"icao":"LPMT","taf":"TAF LPMT 011704Z 0118/0218 22010KT 8000 -RA FEW012 BKN018 ","updated":"2026-02-01T20:25:25Z"}
