{"icao":"KJFK","taf":"TAF KJFK 121126Z 1212/1318 25012G19KT P6SM FEW050 OVC100 ","updated":"2025-11-12T13:32:39Z"}
