{"icao":"LPPR","taf":"TAF LPPR 160500Z 1606/1706 22010KT 9999 SCT015 ","updated":"2025-11-16T09:17:20Z"}
