{"icao":"LPAZ","taf":"TAF TAF LPAZ 211100Z 2112/2218 09010KT 9999 FEW030 ","updated":"2025-09-21T17:13:49Z"}
