{"icao":"KJFK","taf":"TAF KJFK 101127Z 1012/1118 VRB04KT 4SM BR BKN003 ","updated":"2026-05-10T11:50:22Z"}
