{"icao":"LPPS","taf":"TAF LPPS 161100Z 1612/1718 33012KT 9999 SCT015 ","updated":"2025-11-16T16:20:20Z"}
