{"icao":"LPMT","taf":"TAF LPMT 261104Z 2612/2712 02012KT CAVOK ","updated":"2026-03-26T16:59:23Z"}
