{"icao":"LPAZ","taf":"TAF TAF LPAZ 191700Z 1918/2024 21015KT 5000 -RA BR SCT003 BKN006 ","updated":"2026-06-19T17:59:20Z"}
