{"icao":"KJFK","taf":"TAF KJFK 161139Z 1612/1718 16007KT P6SM BKN250 ","updated":"2026-04-16T13:27:55Z"}
