{"icao":"KORD","taf":"TAF KORD 301120Z 3012/0118 03003KT P6SM SKC ","updated":"2025-09-30T12:38:41Z"}
