{"icao":"LPPR","taf":"TAF LPPR 241100Z 2412/2512 24012KT 8000 SCT008 BKN015 ","updated":"2025-11-24T14:19:02Z"}
