{"icao":"LPPR","taf":"TAF LPPR 151700Z 1518/1618 30005KT 9999 SCT012 SCT025 ","updated":"2025-12-15T21:18:31Z"}
