{"icao":"LPPT","taf":"TAF LPPT 171100Z 1712/1818 VRB05KT CAVOK ","updated":"2026-06-17T11:45:48Z"}
