{"icao":"KJFK","taf":"TAF KJFK 180533Z 1806/1912 22008KT 1/4SM FG OVC004 ","updated":"2026-02-18T07:12:51Z"}
