{"icao":"LPBJ","taf":"TAF TAF LPBJ 130504Z 1306/1406 15012KT 8000 -RA SCT012 BKN035 ","updated":"2026-01-13T09:26:47Z"}
