{"icao":"KJFK","taf":"TAF KJFK 131121Z 1312/1418 27012G19KT P6SM BKN080 ","updated":"2025-11-13T12:40:21Z"}
