{"icao":"LPMT","taf":"TAF LPMT 091104Z 0912/1012 34010KT CAVOK ","updated":"2026-06-09T15:53:17Z"}
