{"icao":"LPPT","taf":"TAF TAF LPPT 050500Z 0506/0612 25017KT 3000 RADZ BR BKN004 ","updated":"2026-02-05T09:42:25Z"}
