{"icao":"LPAZ","taf":"TAF LPAZ 091100Z 0912/1018 19012KT 9999 FEW020 BKN035 ","updated":"2026-01-09T12:42:08Z"}
