{"icao":"LPMR","taf":"TAF TAF LPMR 230508Z 2306/2406 VRB02KT CAVOK PROB40 2306/2309 2000 BR SCT004 ","updated":"2026-04-23T07:49:53Z"}
