{"icao":"LPMT","taf":"TAF LPMT 040510Z 0406/0506 24015KT 6000 -RA SCT008 BKN025 ","updated":"2026-02-04T10:36:49Z"}
