{"icao":"LPBJ","taf":"TAF TAF LPBJ 181106Z 1812/1912 17008KT CAVOK ","updated":"2026-04-18T14:03:27Z"}
