{"icao":"LPPT","taf":"TAF LPPT 011100Z 0112/0218 04012KT CAVOK ","updated":"2026-04-01T16:53:18Z"}
