{"icao":"LPMA","taf":"TAF LPMA 110500Z 1106/1206 25008KT 9999 SCT015 ","updated":"2025-11-11T09:20:25Z"}
