{"icao":"LPBJ","taf":"TAF TAF LPBJ 071108Z 0712/0812 35008KT CAVOK ","updated":"2026-03-07T14:22:56Z"}
