{"icao":"LPFR","taf":"TAF LPFR 170500Z 1706/1806 30007KT 9999 SCT030 ","updated":"2026-01-17T10:19:26Z"}
