{"icao":"LPBJ","taf":"TAF TAF LPBJ 181706Z 1818/1918 33008KT 9999 SCT035 ","updated":"2025-11-18T19:15:38Z"}
