{"icao":"LPFR","taf":"TAF LPFR 171100Z 1712/1812 29012KT 9999 SCT020 PROB30 ","updated":"2025-11-17T12:38:51Z"}
