{"icao":"KLAX","taf":"TAF KLAX 050523Z 0506/0612 VRB03KT P6SM SCT250 ","updated":"2026-04-05T07:04:12Z"}
