{"icao":"LPPT","taf":"TAF LPPT 250500Z 2506/2612 34007KT 9999 SCT035 ","updated":"2025-11-25T06:29:50Z"}
