{"icao":"LPMT","taf":"TAF LPMT 190502Z 1906/2006 36005KT CAVOK ","updated":"2026-06-19T06:16:53Z"}
