{"icao":"LPMR","taf":"TAF TAF LPMR 310509Z 3106/0106 12005KT 3000 BR NSC PROB40 3106/3110 0100 FG BKN001 ","updated":"2025-12-31T10:20:54Z"}
