{"icao":"LPMR","taf":"TAF TAF LPMR 240507Z 2406/2506 24008KT 9999 BKN008 PROB40 ","updated":"2025-10-24T05:17:10Z"}
