{"icao":"LPAZ","taf":"TAF LPAZ 221100Z 2212/2318 19015KT 9999 SCT006 SCT012 ","updated":"2025-10-22T15:18:26Z"}
