{"icao":"LPFR","taf":"TAF LPFR 240500Z 2406/2506 VRB02KT 9999 SCT015 BKN030 ","updated":"2025-11-24T08:27:14Z"}
