{"icao":"LPPD","taf":"TAF LPPD 040500Z 0406/0506 26018KT 9999 SCT018 SCT030 ","updated":"2025-11-04T07:18:25Z"}
