{"icao":"KJFK","taf":"TAF KJFK 070539Z 0706/0812 VRB04KT P6SM BKN040 BKN080 ","updated":"2026-04-07T07:15:10Z"}
