{"icao":"KORD","taf":"TAF KORD 021120Z 0212/0318 10012G22KT 4SM -RA BR SCT004 OVC007 ","updated":"2026-04-02T13:11:30Z"}
