{"icao":"LPPR","taf":"TAF LPPR 231700Z 2318/2418 30008KT CAVOK ","updated":"2026-04-23T17:18:09Z"}
