{"icao":"LPAZ","taf":"TAF TAF LPAZ 160500Z 1606/1712 VRB05KT 9999 SCT020 ","updated":"2025-09-16T11:14:18Z"}
