{"icao":"LPMT","taf":"TAF LPMT 310510Z 3106/0106 VRB02KT 0100 FG BKN002 PROB30 ","updated":"2025-12-31T06:31:53Z"}
