{"icao":"LPMA","taf":"TAF LPMA 011100Z 0112/0212 02012KT 9999 SCT015 SCT030 PROB30 ","updated":"2025-10-01T14:17:58Z"}
