{"icao":"KORD","taf":"TAF KORD 201120Z 2012/2118 03014KT P6SM SCT035 SCT250 ","updated":"2026-05-20T12:22:51Z"}
