{"icao":"KLAX","taf":"TAF KLAX 251133Z 2512/2618 22004KT P6SM BKN015 ","updated":"2026-05-25T13:58:14Z"}
