{"icao":"LPMA","taf":"TAF LPMA 140500Z 1406/1506 VRB05KT 9999 SCT015 PROB30 ","updated":"2025-11-14T09:19:46Z"}
