{"icao":"LPBJ","taf":"TAF TAF LPBJ 151709Z 1518/1618 19010KT 8000 -RA SCT012 BKN020 ","updated":"2026-01-16T04:38:57Z"}
