{"icao":"KORD","taf":"TAF KORD 190520Z 1906/2012 28006KT P6SM FEW070 SCT110 ","updated":"2026-06-19T06:17:10Z"}
