{"icao":"LPFR","taf":"TAF LPFR 221100Z 2212/2312 10010KT CAVOK ","updated":"2026-02-22T11:19:45Z"}
