{"icao":"LPLA","taf":"TAF LPLA 061104Z 0612/0712 22020G35KT 6000 -RA SCT008 BKN015 ","updated":"2025-12-06T15:17:11Z"}
