{"icao":"LPOV","taf":"TAF LPOV 030507Z 0306/0406 36005KT CAVOK ","updated":"2026-06-03T08:58:15Z"}
