{"icao":"LPFR","taf":"TAF LPFR 291700Z 2918/3018 31010KT 9999 FEW035 ","updated":"2025-10-30T01:25:03Z"}
