{"icao":"LPPR","taf":"TAF LPPR 021100Z 0212/0312 29007KT 9999 FEW035 ","updated":"2025-11-02T17:14:07Z"}
