{"icao":"KLAX","taf":"TAF KLAX 111121Z 1112/1218 05005KT P6SM SCT200 ","updated":"2026-01-11T14:18:16Z"}
