{"icao":"LPMT","taf":"TAF LPMT 311107Z 3112/0112 04007KT 0100 FG VV002 ","updated":"2025-12-31T13:31:36Z"}
