{"icao":"LPMA","taf":"TAF LPMA 011700Z 0118/0218 21013KT 9999 SCT015 PROB30 ","updated":"2025-11-02T04:21:53Z"}
