{"icao":"LPPT","taf":"TAF LPPT 301700Z 3018/0124 33015KT CAVOK PROB30 ","updated":"2026-06-30T17:51:27Z"}
