{"icao":"KJFK","taf":"TAF KJFK 170531Z 1706/1812 21006KT P6SM BKN035 ","updated":"2026-02-17T07:02:51Z"}
