{"icao":"LPOV","taf":"TAF LPOV 021700Z 0218/0318 34012KT CAVOK ","updated":"2026-04-02T19:50:20Z"}
