{"icao":"LPBJ","taf":"TAF TAF LPBJ 261105Z 2612/2712 12012KT CAVOK ","updated":"2026-05-26T16:41:00Z"}
