{"icao":"LPAZ","taf":"TAF TAF LPAZ 211100Z 2112/2218 27023KT 9999 SCT015 BKN030 ","updated":"2026-04-21T16:59:34Z"}
