{"icao":"KJFK","taf":"TAF KJFK 110539Z 1106/1212 18004KT P6SM FEW010 FEW060 BKN250 ","updated":"2026-03-11T08:39:32Z"}
