{"icao":"KJFK","taf":"TAF KJFK 281741Z 2818/2924 04016G24KT P6SM BKN040 ","updated":"2025-10-28T19:15:12Z"}
