{"icao":"LPPS","taf":"TAF LPPS 191700Z 1918/2024 VRB05KT 9999 SCT015 ","updated":"2025-09-20T01:15:43Z"}
