{"icao":"KJFK","taf":"TAF KJFK 161725Z 1618/1724 17012KT P6SM BKN250 ","updated":"2026-04-16T19:10:59Z"}
