{"icao":"LPAZ","taf":"TAF TAF LPAZ 141700Z 1418/1524 33015KT 9999 SCT005 BKN022 ","updated":"2025-11-14T23:16:57Z"}
