{"icao":"KORD","taf":"TAF KORD 161723Z 1618/1724 07007KT P6SM FEW300 ","updated":"2025-09-16T20:19:18Z"}
