{"icao":"KJFK","taf":"TAF KJFK 041721Z 0418/0524 19013KT P6SM FEW250 ","updated":"2026-06-04T17:45:59Z"}
