{"icao":"LPMA","taf":"TAF LPMA 241700Z 2418/2518 VRB05KT 9999 SCT015","updated":"2026-01-25T04:51:15Z"}
