{"icao":"LPFR","taf":"TAF LPFR 041700Z 0418/0518 26012KT 9999 SCT020 ","updated":"2025-12-04T19:17:34Z"}
