{"icao":"KORD","taf":"TAF KORD 271120Z 2712/2818 09009KT P6SM SKC ","updated":"2025-10-27T14:19:19Z"}
