{"icao":"LPOV","taf":"TAF LPOV 290501Z 2906/3006 21012KT 7000 -RA SCT012 BKN022 ","updated":"2026-01-29T05:41:57Z"}
