{"icao":"LPPD","taf":"TAF LPPD 061700Z 0618/0718 25025KT 6000 -RA SCT012 BKN025 ","updated":"2026-02-06T22:22:08Z"}
