{"icao":"LPLA","taf":"TAF LPLA 090504Z 0906/1006 16015KT 8000 -RA SCT010 BKN018 ","updated":"2025-10-09T05:17:34Z"}
