{"icao":"LPOV","taf":"TAF LPOV 231100Z 2312/2412 VRB02KT 9999 SCT045 PROB30 ","updated":"2025-10-23T14:18:42Z"}
