{"icao":"LPMR","taf":"TAF TAF LPMR 280519Z 2806/2906 07005KT CAVOK ","updated":"2026-03-28T08:37:13Z"}
