{"icao":"LPMT","taf":"TAF LPMT 051704Z 0518/0618 VRB05KT CAVOK ","updated":"2026-04-05T21:30:13Z"}
