{"icao":"KJFK","taf":"TAF KJFK 101739Z 1018/1124 16010KT P6SM BKN050 ","updated":"2025-10-10T18:25:26Z"}
