{"icao":"LPMR","taf":"TAF LPMR 021700Z 0218/0318 35012KT CAVOK ","updated":"2026-04-02T17:04:50Z"}
