{"icao":"LPMR","taf":"TAF TAF LPMR 261704Z 2618/2718 30008KT CAVOK ","updated":"2025-09-26T18:22:52Z"}
