{"icao":"LPMR","taf":"TAF TAF LPMR 241707Z 2418/2518 29010KT 9999 FEW025 ","updated":"2026-06-24T20:47:07Z"}
