{"icao":"KJFK","taf":"TAF KJFK 130521Z 1306/1412 04025G38KT 4SM RA BR SCT008 BKN012 WS020/04050KT ","updated":"2025-10-13T06:28:43Z"}
