{"icao":"LPST","taf":"TAF LPST 030801Z 0309/0318 VRB02KT CAVOK PROB30 0309/0311 4000 BR BKN006","updated":"2025-12-13T11:14:40Z"}
