{"icao":"LPLA","taf":"TAF LPLA 141103Z 1412/1512 20008KT 8000 -RA SCT015 BKN025 ","updated":"2025-12-14T17:15:49Z"}
