{"icao":"KJFK","taf":"TAF KJFK 130531Z 1306/1412 26012KT P6SM SCT100 SCT250 ","updated":"2026-01-13T08:29:37Z"}
