{"icao":"LPPD","taf":"TAF LPPD 220500Z 2206/2306 27015KT 9999 SCT006 SCT012 ","updated":"2026-01-22T09:31:14Z"}
