{"icao":"KLAX","taf":"TAF KLAX 201740Z 2018/2124 VRB03KT 5SM BR BKN012 ","updated":"2025-12-20T18:24:47Z"}
