{"icao":"KLAX","taf":"TAF KLAX 170535Z 1706/1812 28008KT P6SM -SHRA SCT030 BKN060 ","updated":"2026-02-17T08:42:39Z"}
