{"icao":"KORD","taf":"TAF KORD 190530Z 1906/2012 08006KT P6SM SCT120 ","updated":"2025-09-19T08:23:04Z"}
