{"icao":"KJFK","taf":"TAF KJFK 191722Z 1918/2024 26015G22KT P6SM SCT070 BKN250 ","updated":"2026-06-19T18:00:00Z"}
