{"icao":"KJFK","taf":"TAF KJFK 041133Z 0412/0518 23006KT P6SM FEW250 ","updated":"2026-06-04T11:52:00Z"}
