{"icao":"KJFK","taf":"TAF KJFK 020528Z 0206/0312 32014G21KT P6SM BKN250 ","updated":"2026-02-02T06:02:49Z"}
