{"icao":"LPMT","taf":"TAF LPMT 081705Z 0818/0918 20010KT 9999 SCT025 ","updated":"2026-05-09T02:43:18Z"}
