{"icao":"LPMA","taf":"TAF LPMA 220500Z 2206/2306 36010KT 9999 SCT015 ","updated":"2026-05-22T10:48:54Z"}
