{"icao":"LPLA","taf":"TAF LPLA 191706Z 1918/2018 19018KT 8000 -RA SCT018 BKN025 ","updated":"2026-02-19T21:30:33Z"}
