{"icao":"LPLA","taf":"TAF LPLA 170506Z 1706/1806 VRB05KT 9999 FEW023 ","updated":"2026-05-17T11:04:31Z"}
