{"icao":"LPPS","taf":"TAF LPPS 181700Z 1818/1924 36012KT 9999 SCT015 ","updated":"2026-05-18T22:08:54Z"}
