{"icao":"KLAX","taf":"TAF KLAX 200527Z 2006/2112 25005KT P6SM SKC ","updated":"2026-03-20T05:51:25Z"}
