{"icao":"KORD","taf":"TAF KORD 161720Z 1618/1724 24011G19KT P6SM SCT035 SCT250 ","updated":"2026-05-16T20:43:22Z"}
