{"icao":"LPLA","taf":"TAF LPLA 251117Z 2512/2612 18015KT 9999 SCT025 ","updated":"2025-09-25T12:37:05Z"}
