{"icao":"KJFK","taf":"TAF KJFK 160540Z 1606/1712 24010KT P6SM -SHRA BKN050 WS020/24045KT ","updated":"2025-11-16T07:17:25Z"}
