{"icao":"LPOV","taf":"TAF LPOV 011102Z 0112/0212 27005KT 9999 SCT015 ","updated":"2026-05-01T15:56:13Z"}
