{"icao":"KLAX","taf":"TAF KLAX 190008Z 1900/2006 27020G30KT P6SM FEW080 ","updated":"2026-02-19T02:04:18Z"}
