{"icao":"KORD","taf":"TAF KORD 281727Z 2818/2924 22011G18KT P6SM FEW250 ","updated":"2026-03-28T18:39:18Z"}
