{"icao":"LPOV","taf":"TAF LPOV 031110Z 0312/0412 27008KT CAVOK ","updated":"2026-04-03T14:40:25Z"}
