{"icao":"KLAX","taf":"TAF KLAX 180544Z 1806/1912 23015G30KT 4SM -RA BR BKN025 OVC040 ","updated":"2026-02-18T08:42:22Z"}
