{"icao":"LPOV","taf":"TAF LPOV 281106Z 2812/2912 35010KT CAVOK PROB30 ","updated":"2026-03-28T14:30:34Z"}
