{"icao":"KLAX","taf":"TAF KLAX 301728Z 3018/3124 03009KT P6SM BKN120 ","updated":"2025-12-30T19:16:39Z"}
