{"icao":"LPFR","taf":"TAF LPFR 090500Z 0906/1006 24013KT 8000 SCT006 BKN012 ","updated":"2026-02-09T06:10:09Z"}
