{"icao":"LPFR","taf":"TAF LPFR 061700Z 0618/0718 25010KT CAVOK ","updated":"2026-06-06T21:02:36Z"}
