{"icao":"LPPR","taf":"TAF LPPR 071100Z 0712/0812 01005KT 9999 SCT015 ","updated":"2026-01-07T11:19:11Z"}
