{"icao":"LPPR","taf":"TAF LPPR 080500Z 0806/0906 30005KT 9999 SCT025 ","updated":"2026-02-08T10:25:18Z"}
