{"icao":"KORD","taf":"TAF KORD 151730Z 1518/1624 19015G27KT P6SM VCSH FEW030 SCT040 OVC060 ","updated":"2026-03-15T18:37:32Z"}
