{"icao":"KORD","taf":"TAF KORD 161120Z 1612/1718 24008KT 6SM -SHRA VCTS SCT045CB BKN080 ","updated":"2026-05-16T13:19:35Z"}
