{"icao":"KORD","taf":"TAF KORD 111120Z 1112/1218 23009KT P6SM BKN090 ","updated":"2025-11-11T12:38:42Z"}
