{"icao":"LPPT","taf":"TAF LPPT 151100Z 1512/1618 35015KT 9999 SCT035 ","updated":"2026-05-15T11:54:52Z"}
