{"icao":"LPAR","taf":"TAF LPAR 100802Z 1009/1018 33008KT CAVOK ","updated":"2026-06-13T22:02:25Z"}
