{"icao":"LPMR","taf":"TAF TAF LPMR 091703Z 0918/1018 35012KT 9999 SCT030 ","updated":"2026-04-09T19:04:36Z"}
