{"icao":"KJFK","taf":"TAF KJFK 250524Z 2506/2612 20013KT P6SM BKN250 ","updated":"2026-03-25T06:00:40Z"}
