{"icao":"LPPS","taf":"TAF LPPS 090500Z 0906/1012 05010KT 9999 SCT015 ","updated":"2025-10-09T06:27:36Z"}
