{"icao":"LPPR","taf":"TAF LPPR 060500Z 0606/0706 10012KT CAVOK ","updated":"2025-10-06T05:16:58Z"}
