{"icao":"LPBJ","taf":"TAF LPBJ 250509Z 2506/2606 08005KT CAVOK ","updated":"2025-09-25T05:17:14Z"}
