{"icao":"KORD","taf":"TAF KORD 120540Z 1206/1312 16011KT P6SM BKN100 ","updated":"2026-04-12T08:46:40Z"}
