{"icao":"LPOV","taf":"TAF LPOV 250506Z 2506/2606 VRB02KT 3500 BR SCT004 PROB40 2506/2509 0200 FG BKN002 ","updated":"2026-05-25T05:18:15Z"}
