{"icao":"LPLA","taf":"TAF TAF LPLA 110000Z 1100/1124 21022KT 9999 SCT012 SCT022 ","updated":"2026-01-11T03:49:21Z"}
