{"icao":"KORD","taf":"TAF KORD 101120Z 1012/1118 35005KT P6SM FEW250 ","updated":"2026-05-10T11:50:22Z"}
