{"icao":"LPMT","taf":"TAF LPMT 301103Z 3012/0112 02008KT CAVOK ","updated":"2025-09-30T13:27:45Z"}
