{"icao":"LPST","taf":"TAF LPST 251403Z 2515/2524 35005KT 9999 SCT030 PROB40 ","updated":"2026-02-25T22:32:11Z"}
