{"icao":"LPPD","taf":"TAF LPPD 181100Z 1812/1912 13010KT 9999 SCT006 SCT012 ","updated":"2026-04-18T15:36:06Z"}
