{"icao":"LPBJ","taf":"TAF TAF LPBJ 020504Z 0206/0306 32008KT 5000 -DZRA SCT006 OVC014 ","updated":"2025-12-02T07:20:38Z"}
