{"icao":"KJFK","taf":"TAF KJFK 311139Z 3112/0118 26014KT P6SM SCT060 BKN200 ","updated":"2025-12-31T12:40:49Z"}
