{"icao":"LPPT","taf":"TAF LPPT 030500Z 0306/0412 13012KT 9999 SCT015 SCT025 ","updated":"2026-01-03T05:20:26Z"}
