{"icao":"LPPR","taf":"TAF LPPR 061700Z 0618/0718 33013KT CAVOK ","updated":"2026-06-07T03:45:48Z"}
