{"icao":"LPMT","taf":"TAF LPMT 290507Z 2906/3006 VRB02KT CAVOK ","updated":"2026-05-29T07:53:42Z"}
