{"icao":"KORD","taf":"TAF KORD 071137Z 0712/0818 36010KT P6SM -SHRA BKN006 ","updated":"2025-10-07T14:18:19Z"}
