{"icao":"KJFK","taf":"TAF KJFK 191738Z 1918/2024 21012G20KT P6SM SCT250 ","updated":"2026-05-19T18:58:49Z"}
