{"icao":"LPLA","taf":"TAF LPLA 291101Z 2912/3012 17012KT 9999 FEW014 SCT020 ","updated":"2025-09-29T15:18:16Z"}
