{"icao":"LPFR","taf":"TAF LPFR 311700Z 3118/0118 21010KT 9999 SCT025","updated":"2025-10-31T23:16:25Z"}
