{"icao":"LPPR","taf":"TAF LPPR 070500Z 0706/0806 18015KT 8000 -RA SCT006 BKN012 ","updated":"2025-11-07T05:17:57Z"}
