{"icao":"KLAX","taf":"TAF KLAX 271726Z 2718/2824 23012G20KT P6SM BKN050 ","updated":"2026-05-27T19:23:24Z"}
