{"icao":"LPMT","taf":"TAF LPMT 210510Z 2106/2206 22010KT 8000 -RA SCT010 BKN025 ","updated":"2026-01-21T05:27:16Z"}
