{"icao":"LPPT","taf":"TAF LPPT 131700Z 1318/1424 29010KT 9999 FEW008 BKN015 PROB40 ","updated":"2026-03-13T17:33:03Z"}
