{"icao":"KJFK","taf":"TAF KJFK 051740Z 0518/0624 19010KT P6SM OVC060 PROB30 0518/0521 4SM -SN BKN030 ","updated":"2026-01-05T19:19:46Z"}
