{"icao":"KLAX","taf":"TAF KLAX 270529Z 2706/2812 VRB03KT P6SM SCT250 ","updated":"2026-02-27T06:52:37Z"}
