{"icao":"KJFK","taf":"TAF KJFK 080529Z 0806/0912 33022G34KT P6SM FEW030 FEW060 ","updated":"2026-02-08T06:48:59Z"}
