{"icao":"LPPR","taf":"TAF LPPR 251100Z 2512/2612 36005KT CAVOK ","updated":"2025-11-25T11:16:41Z"}
