{"icao":"KLAX","taf":"TAF KLAX 030533Z 0306/0412 19006KT P6SM VCSH SCT026 OVC070 ","updated":"2026-01-03T06:29:39Z"}
