{"icao":"LPBJ","taf":"TAF TAF LPBJ 151706Z 1518/1618 33012KT 9999 FEW035 ","updated":"2026-05-15T20:15:47Z"}
