{"icao":"KLAX","taf":"TAF KLAX 070542Z 0706/0812 VRB03KT P6SM SKC ","updated":"2026-03-07T06:39:08Z"}
