{"icao":"LPMT","taf":"TAF LPMT 301103Z 3012/3112 36010KT CAVOK ","updated":"2026-03-30T15:01:55Z"}
