{"icao":"KLAX","taf":"TAF KLAX 011154Z 0112/0218 08003KT 6SM BR SCT004 ","updated":"2026-03-01T12:45:59Z"}
