{"icao":"LPOV","taf":"TAF LPOV 131702Z 1318/1418 18007KT 9999 SCT020 ","updated":"2026-01-13T20:23:47Z"}
