{"icao":"KORD","taf":"TAF KORD 041731Z 0418/0524 19008KT P6SM FEW035 OVC250 ","updated":"2026-01-04T19:14:39Z"}
