{"icao":"LPLA","taf":"TAF LPLA 060501Z 0606/0706 17005KT 9999 FEW020 SCT035 ","updated":"2026-01-06T05:23:33Z"}
