{"icao":"KORD","taf":"TAF KORD 240520Z 2406/2512 19006KT P6SM BKN250 ","updated":"2025-11-24T05:20:18Z"}
