{"icao":"LPOV","taf":"TAF LPOV 141103Z 1412/1512 17005KT 6000 SCT002 BKN005 ","updated":"2026-01-14T11:20:13Z"}
