{"icao":"LPBJ","taf":"TAF TAF LPBJ 170502Z 1706/1806 10010KT CAVOK ","updated":"2026-03-17T09:54:30Z"}
