{"icao":"LPPR","taf":"TAF LPPR 251100Z 2512/2612 25005KT 9999 SCT008 ","updated":"2026-05-25T16:26:02Z"}
