{"icao":"LPLA","taf":"TAF LPLA 231701Z 2318/2418 25025G35KT 9999 FEW018 SCT035 ","updated":"2026-02-23T18:00:22Z"}
