{"icao":"LPBJ","taf":"TAF TAF LPBJ 281703Z 2818/2918 04010KT CAVOK","updated":"2026-03-28T22:27:54Z"}
