{"icao":"KLAX","taf":"TAF KLAX 140526Z 1406/1512 25008KT P6SM BKN010 ","updated":"2025-12-14T06:28:40Z"}
