{"icao":"LPMR","taf":"TAF TAF LPMR 260503Z 2606/2706 VRB02KT 9999 BKN008 PROB40 2606/2609 0200 FG BKN002 ","updated":"2026-04-26T10:00:51Z"}
