{"icao":"LPLA","taf":"TAF LPLA 181114Z 1812/1912 33015KT 8000 -DZ FEW007 SCT030 PROB40 1812/1906 2500 DZ BR BKN006 ","updated":"2025-11-18T12:39:05Z"}
