{"icao":"LPBJ","taf":"TAF TAF LPBJ 161103Z 1612/1712 32008KT CAVOK ","updated":"2026-04-16T15:24:25Z"}
