{"icao":"KORD","taf":"TAF KORD 111133Z 1112/1218 31007KT P6SM BKN030 ","updated":"2025-12-11T13:38:13Z"}
