{"icao":"LPMT","taf":"TAF LPMT 161700Z 1618/1718 33012KT CAVOK ","updated":"2026-06-17T00:14:33Z"}
