{"icao":"KORD","taf":"TAF KORD 111120Z 1112/1218 35011G17KT 5SM -SHRA BR OVC005 ","updated":"2026-03-11T11:32:41Z"}
