{"icao":"KORD","taf":"TAF KORD 141120Z 1412/1518 VRB04KT P6SM SCT250 ","updated":"2026-02-14T14:26:17Z"}
