{"icao":"LPST","taf":"TAF LPST 121404Z 1215/1224 19010KT 6000 BKN008 ","updated":"2026-02-12T22:31:11Z"}
