{"icao":"LPPT","taf":"TAF LPPT 131100Z 1312/1418 13008KT CAVOK ","updated":"2026-06-13T14:58:47Z"}
