{"icao":"KORD","taf":"TAF KORD 160526Z 1606/1712 13008KT P6SM VCSH SCT030 BKN070 ","updated":"2026-04-16T05:29:44Z"}
