{"icao":"KJFK","taf":"TAF KJFK 230529Z 2306/2412 36005KT P6SM SCT025 BKN050 ","updated":"2026-04-23T07:49:55Z"}
