{"icao":"KJFK","taf":"TAF KJFK 151121Z 1512/1618 24012KT P6SM BKN040 ","updated":"2026-01-15T12:44:02Z"}
