{"icao":"LPLA","taf":"TAF COR TAF LPLA 272303Z 2800/2824 17012KT 9999 FEW005 SCT015 PROB40 2800/2816 5000 -DZRA BR SCT005 BKN014 ","updated":"2026-04-28T02:47:23Z"}
