{"icao":"KJFK","taf":"TAF KJFK 010529Z 0106/0212 01017G25KT P6SM BKN150 ","updated":"2026-02-01T06:03:25Z"}
