{"icao":"LPMT","taf":"TAF LPMT 051104Z 0512/0612 34010KT CAVOK ","updated":"2026-06-05T15:51:50Z"}
