{"icao":"LPLA","taf":"TAF LPLA 081105Z 0812/0912 15012KT 9999 SCT012 BKN025 ","updated":"2025-10-08T12:37:29Z"}
