{"icao":"LPMT","taf":"TAF LPMT 221105Z 2212/2312 02005KT CAVOK ","updated":"2026-06-22T12:48:37Z"}
