{"icao":"LPPT","taf":"TAF LPPT 281700Z 2818/2924 33015KT CAVOK ","updated":"2025-09-29T03:03:05Z"}
