{"icao":"KORD","taf":"TAF KORD 260537Z 2606/2712 19005KT P6SM SCT150 BKN300 ","updated":"2026-03-26T08:54:20Z"}
