{"icao":"LPLA","taf":"TAF LPLA 281702Z 2818/2918 16010KT 9999 BKN030 ","updated":"2025-09-28T20:17:19Z"}
