{"icao":"LPMR","taf":"TAF TAF LPMR 211103Z 2112/2212 32010KT CAVOK ","updated":"2026-05-21T15:21:03Z"}
