{"icao":"LPLA","taf":"TAF LPLA 281707Z 2818/2918 17015KT 7000 -RA SCT005 BKN015 ","updated":"2026-04-28T18:15:49Z"}
