{"icao":"LPMR","taf":"TAF LPMR 230508Z 2306/2406 27010KT 9999 BKN004 BKN015 ","updated":"2025-10-23T06:27:17Z"}
