{"icao":"LPPT","taf":"TAF LPPT 271100Z 2712/2818 10005KT CAVOK ","updated":"2026-04-27T15:46:42Z"}
