{"icao":"KLAX","taf":"TAF KLAX 151720Z 1518/1624 26008KT P6SM SCT250 ","updated":"2025-10-15T18:26:54Z"}
