{"icao":"KJFK","taf":"TAF KJFK 291735Z 2918/3024 29015KT P6SM SCT040 ","updated":"2026-01-29T19:29:24Z"}
