{"icao":"LPMT","taf":"TAF LPMT 301707Z 3018/0118 34010KT CAVOK ","updated":"2026-06-30T17:51:32Z"}
