{"icao":"KJFK","taf":"TAF KJFK 021505Z 0215/0318 24006KT P6SM SCT025 OVC050 ","updated":"2026-05-02T16:44:27Z"}
