{"icao":"KJFK","taf":"TAF KJFK 041734Z 0418/0524 19014G20KT P6SM FEW080 ","updated":"2026-05-04T18:13:22Z"}
