{"icao":"LPMR","taf":"TAF TAF LPMR 051704Z 0518/0618 34008KT CAVOK ","updated":"2026-04-05T20:32:02Z"}
