{"icao":"KORD","taf":"TAF KORD 080532Z 0806/0912 11006KT P6SM SCT035 OVC080 ","updated":"2026-02-08T06:49:00Z"}
