{"icao":"LPPR","taf":"TAF LPPR 191700Z 1918/2018 23008KT 5000 -RADZ BR SCT002 BKN004 ","updated":"2025-10-19T19:12:55Z"}
