{"icao":"LPMT","taf":"TAF LPMT 031709Z 0318/0418 24012KT 6000 -RA SCT012 BKN025 ","updated":"2026-02-03T23:26:43Z"}
