{"icao":"LPPR","taf":"TAF LPPR 180500Z 1806/1906 05005KT CAVOK ","updated":"2026-01-18T07:18:58Z"}
