{"icao":"KLAX","taf":"TAF KLAX 211120Z 2112/2218 VRB03KT 6SM BR BKN006 ","updated":"2025-09-21T12:32:11Z"}
