{"icao":"LPPT","taf":"TAF LPPT 010500Z 0106/0212 21015KT 8000 -RA BKN008 ","updated":"2025-11-01T07:15:34Z"}
