{"icao":"LPMA","taf":"TAF LPMA 180500Z 1806/1906 VRB05KT 9999 SCT015 PROB30 ","updated":"2025-10-18T05:16:10Z"}
