{"icao":"KORD","taf":"TAF KORD 251126Z 2512/2618 21007KT P6SM FEW150 ","updated":"2026-05-25T13:58:14Z"}
