{"icao":"KORD","taf":"TAF KORD 201120Z 2012/2118 19014G24KT P6SM BKN200 WS020/21050KT ","updated":"2025-12-20T12:36:40Z"}
