{"icao":"KJFK","taf":"TAF KJFK 310524Z 3106/0112 31012KT P6SM FEW250 ","updated":"2026-01-31T06:37:36Z"}
