{"icao":"LPAZ","taf":"TAF TAF LPAZ 251100Z 2512/2618 33015KT 9999 SCT025 ","updated":"2026-02-25T16:01:11Z"}
