{"icao":"KJFK","taf":"TAF KJFK 290534Z 2906/3012 19012KT 1 1/2SM -DZ BR OVC005 ","updated":"2025-12-29T06:33:54Z"}
