{"icao":"KJFK","taf":"TAF KJFK 151137Z 1512/1618 31018G26KT P6SM SKC ","updated":"2025-12-15T14:24:14Z"}
