{"icao":"LPAZ","taf":"TAF TAF LPAZ 231700Z 2318/2424 20010KT 9999 SCT015 ","updated":"2025-10-23T20:19:06Z"}
