{"icao":"LPAZ","taf":"TAF LPAZ 111106Z 1112/1218 31012KT 9999 SCT006 BKN012 ","updated":"2026-01-11T13:29:06Z"}
