{"icao":"LPFR","taf":"TAF LPFR 261700Z 2618/2718 25007KT CAVOK ","updated":"2025-09-27T01:15:13Z"}
