{"icao":"LPOV","taf":"TAF LPOV 071703Z 0718/0818 34018KT CAVOK ","updated":"2026-06-07T18:02:21Z"}
