{"icao":"KORD","taf":"TAF KORD 160540Z 1606/1712 17013G22KT P6SM SCT150 OVC250 ","updated":"2026-05-16T08:02:40Z"}
