{"icao":"LPOV","taf":"TAF LPOV 081707Z 0818/0918 18012KT 6000 -RA SCT012 BKN025 ","updated":"2026-02-08T22:25:38Z"}
