{"icao":"LPPS","taf":"TAF LPPS 151700Z 1518/1624 32012KT 9999 FEW015 ","updated":"2025-11-15T22:14:21Z"}
