{"icao":"LPPD","taf":"TAF LPPD 041700Z 0418/0518 04010KT 9999 FEW018 BKN035 ","updated":"2026-05-04T23:01:37Z"}
