{"icao":"LPPD","taf":"TAF LPPD 181700Z 1818/1918 21012KT 9999 SCT015 BKN040 ","updated":"2025-09-18T20:19:31Z"}
