{"icao":"LPBJ","taf":"TAF TAF LPBJ 281100Z 2812/2912 31005KT CAVOK ","updated":"2026-06-28T12:14:53Z"}
