{"icao":"LPPS","taf":"TAF LPPS 180500Z 1806/1912 01018KT 9999 SCT015 SCT030 ","updated":"2026-01-18T10:19:58Z"}
