{"icao":"KJFK","taf":"TAF KJFK 011130Z 0112/0218 30022G35KT 1SM -SN SCT010 OVC025 ","updated":"2026-01-01T13:32:26Z"}
