{"icao":"LPPT","taf":"TAF LPPT 160500Z 1606/1712 26010KT 9999 SCT020 ","updated":"2026-02-16T07:53:05Z"}
