{"icao":"KJFK","taf":"TAF KJFK 210520Z 2106/2212 34010KT P6SM BKN040 OVC100 ","updated":"2026-05-21T07:50:32Z"}
