{"icao":"KORD","taf":"TAF KORD 220520Z 2206/2312 30018G29KT P6SM -SHSN BKN030 ","updated":"2026-01-22T08:30:45Z"}
