{"icao":"KLAX","taf":"TAF KLAX 161142Z 1612/1718 11004KT 1SM BR OVC002 ","updated":"2025-12-16T13:37:47Z"}
