{"icao":"KLAX","taf":"TAF KLAX 311131Z 3112/0118 15005KT P6SM BKN015 BKN150 ","updated":"2026-03-31T15:00:24Z"}
