{"icao":"KORD","taf":"TAF KORD 251720Z 2518/2624 20008KT P6SM FEW120 ","updated":"2026-05-25T20:21:49Z"}
