{"icao":"KLAX","taf":"TAF KLAX 100551Z 1006/1112 VRB03KT 4SM BR SCT004 ","updated":"2025-11-10T06:31:00Z"}
