{"icao":"LPMA","taf":"TAF LPMA 071100Z 0712/0812 34013KT 9999 SCT014 SCT030 ","updated":"2026-04-07T11:52:59Z"}
