{"icao":"KORD","taf":"TAF KORD 101140Z 1012/1118 29017G27KT 6SM -SHRASN BR OVC015 ","updated":"2025-12-10T12:41:40Z"}
