{"icao":"LPPR","taf":"TAF LPPR 210500Z 2106/2206 11013KT CAVOK ","updated":"2026-04-21T11:04:57Z"}
