{"icao":"LPLA","taf":"TAF LPLA 071110Z 0712/0812 22015KT 9999 FEW020 SCT035 ","updated":"2026-01-07T14:22:39Z"}
