{"icao":"LPBJ","taf":"TAF TAF LPBJ 091111Z 0912/1012 06008KT CAVOK ","updated":"2026-04-09T15:21:11Z"}
