{"icao":"LPLA","taf":"TAF LPLA 271104Z 2712/2812 06008KT 9999 BKN025","updated":"2025-09-27T12:31:48Z"}
