{"icao":"KJFK","taf":"TAF KJFK 131735Z 1318/1424 31010KT P6SM FEW250 ","updated":"2026-02-13T19:40:46Z"}
