{"icao":"LPAZ","taf":"TAF TAF LPAZ 051100Z 0512/0618 06010KT 9999 FEW020 BKN035 ","updated":"2026-01-05T11:18:21Z"}
