{"icao":"KJFK","taf":"TAF KJFK 221132Z 2212/2318 36008KT 5SM -SHRA BR SCT006 SCT012 OVC025 ","updated":"2025-11-22T12:33:29Z"}
