{"icao":"KLAX","taf":"TAF KLAX 131728Z 1318/1424 VRB03KT 1SM BR OVC005 ","updated":"2025-12-13T18:25:04Z"}
