{"icao":"LPPT","taf":"TAF LPPT 150500Z 1506/1612 34013KT 9999 SCT030 ","updated":"2026-05-15T09:46:43Z"}
