{"icao":"LPMR","taf":"TAF TAF LPMR 050512Z 0506/0606 14018KT 6000 -RA BKN035 ","updated":"2025-11-05T09:20:37Z"}
