{"icao":"LPPS","taf":"TAF LPPS 161700Z 1618/1724 20012KT 9999 SCT015 SCT030 ","updated":"2025-10-16T18:26:02Z"}
