{"icao":"LPLA","taf":"TAF LPLA 111101Z 1112/1212 23008KT 9999 FEW015 SCT035","updated":"2026-03-11T11:32:25Z"}
