{"icao":"LPOV","taf":"TAF LPOV 221701Z 2218/2318 34012KT CAVOK PROB30 ","updated":"2026-05-23T04:39:09Z"}
