{"icao":"KORD","taf":"TAF KORD 080539Z 0806/0912 15011KT P6SM SCT050 BKN080 OVC100 PROB30 0807/0809 -RASN BKN060 ","updated":"2026-04-08T08:59:47Z"}
