{"icao":"KJFK","taf":"TAF KJFK 081733Z 0818/0924 34016G24KT P6SM SCT035 SCT080 ","updated":"2025-10-08T18:27:07Z"}
