{"icao":"LPFR","taf":"TAF LPFR 090500Z 0906/1006 31005KT 9999 SCT012 BKN020 PROB30 ","updated":"2026-01-09T06:32:27Z"}
