{"icao":"LPMR","taf":"TAF TAF LPMR 200504Z 2006/2106 VRB02KT 3000 BR SCT001 BKN003 PROB40 2006/2008 0200 FG BKN001 ","updated":"2026-04-20T08:04:48Z"}
