{"icao":"KORD","taf":"TAF KORD 261120Z 2612/2718 26028G42KT 6SM -SHSN BKN015 OVC020 ","updated":"2025-11-26T14:19:30Z"}
