{"icao":"LPMR","taf":"TAF LPMR 111106Z 1112/1212 23015KT 4000 -DZ BR BKN008 ","updated":"2026-02-11T15:59:53Z"}
