{"icao":"KLAX","taf":"TAF KLAX 021720Z 0218/0324 23008KT P6SM SCT015 ","updated":"2025-10-02T19:13:48Z"}
