{"icao":"LPPD","taf":"TAF LPPD 041100Z 0412/0512 24020KT 9999 SCT012 BKN020 ","updated":"2026-02-04T12:56:48Z"}
