{"icao":"KLAX","taf":"TAF KLAX 070521Z 0706/0812 25006KT P6SM SKC ","updated":"2026-04-07T07:15:10Z"}
