{"icao":"LPPS","taf":"TAF LPPS 310702Z 3106/0112 01013KT 9999 SCT015","updated":"2026-05-31T07:44:33Z"}
