{"icao":"LPLA","taf":"TAF LPLA 131701Z 1318/1418 VRB05KT 9999 SCT040 ","updated":"2025-10-14T04:21:11Z"}
