{"icao":"LPPS","taf":"TAF LPPS 041700Z 0418/0524 26017KT 9999 SCT013 ","updated":"2026-02-04T22:26:34Z"}
