{"icao":"LPPS","taf":"TAF LPPS 011100Z 0112/0218 28007KT 9999 SCT015 ","updated":"2026-05-01T16:58:59Z"}
