{"icao":"KJFK","taf":"TAF KJFK 041123Z 0412/0518 VRB05KT P6SM BKN040 BKN080 ","updated":"2026-03-04T14:40:49Z"}
