{"icao":"LPMR","taf":"TAF TAF LPMR 111708Z 1118/1218 34015KT CAVOK ","updated":"2026-06-11T18:10:17Z"}
