{"icao":"LPPD","taf":"TAF LPPD 271700Z 2718/2818 10010KT 9999 SCT025 ","updated":"2025-12-27T22:17:48Z"}
