{"icao":"LPPS","taf":"TAF LPPS 180500Z 1806/1912 35012KT 9999 SCT015 PROB40 ","updated":"2026-05-18T08:01:38Z"}
