{"icao":"LPPD","taf":"TAF LPPD 101700Z 1018/1118 23018KT 9999 SCT015 BKN030 ","updated":"2025-11-10T18:27:08Z"}
