{"icao":"LPOV","taf":"TAF LPOV 101707Z 1018/1118 34010KT CAVOK ","updated":"2026-04-10T17:46:09Z"}
