{"icao":"LPPD","taf":"TAF LPPD 050500Z 0506/0606 28022KT 9999 SCT025 ","updated":"2026-02-05T07:51:28Z"}
