{"icao":"LPFR","taf":"TAF LPFR 120500Z 1206/1306 03007KT CAVOK ","updated":"2025-10-12T11:12:40Z"}
