{"icao":"LPPR","taf":"TAF LPPR 060500Z 0606/0706 26007KT 9999 FEW015 SCT035 ","updated":"2025-11-06T05:18:46Z"}
