{"icao":"KLAX","taf":"TAF KLAX 011124Z 0112/0218 VRB03KT P6SM OVC015 ","updated":"2026-05-01T14:53:49Z"}
