{"icao":"LPPT","taf":"TAF LPPT 251100Z 2512/2618 34012KT CAVOK ","updated":"2025-11-25T15:21:15Z"}
