{"icao":"LPAZ","taf":"TAF LPAZ 101100Z 1012/1118 21017KT 9999 SCT020 SCT030 PROB30 ","updated":"2026-01-10T16:23:11Z"}
