{"icao":"LPPD","taf":"TAF LPPD 080500Z 0806/0906 23018KT 8000 SCT004 SCT008 ","updated":"2026-02-08T07:37:39Z"}
