{"icao":"LPPR","taf":"TAF LPPR 160500Z 1606/1706 VRB02KT 6000 SCT006 PROB40 ","updated":"2025-10-16T05:17:06Z"}
