{"icao":"KORD","taf":"TAF KORD 150520Z 1506/1612 23010KT P6SM BKN120 ","updated":"2025-12-15T06:34:00Z"}
