{"icao":"LPFR","taf":"TAF LPFR 140500Z 1406/1506 30008KT 9999 SCT015 ","updated":"2026-03-14T07:33:28Z"}
