{"icao":"LPPR","taf":"TAF LPPR 261100Z 2612/2712 03005KT CAVOK ","updated":"2025-11-26T13:33:33Z"}
