{"icao":"KLAX","taf":"TAF KLAX 051124Z 0512/0618 05005KT P6SM FEW250 ","updated":"2026-02-05T11:34:25Z"}
