{"icao":"LPMA","taf":"TAF LPMA 191100Z 1912/2012 21020G32KT 9999 SCT015 ","updated":"2026-03-19T14:45:10Z"}
