{"icao":"LPAZ","taf":"TAF TAF LPAZ 140500Z 1406/1512 26010KT 9999 SCT015 BKN030 ","updated":"2026-01-14T08:29:22Z"}
