{"icao":"KORD","taf":"TAF KORD 251120Z 2512/2618 17009KT P6SM SCT070 BKN150 BKN250 ","updated":"2026-03-25T11:40:50Z"}
