{"icao":"KJFK","taf":"TAF KJFK 090540Z 0906/1012 VRB05KT P6SM FEW250 ","updated":"2026-03-09T05:56:26Z"}
