{"icao":"LPOV","taf":"TAF LPOV 301103Z 3012/3112 02010KT CAVOK ","updated":"2026-03-30T13:16:32Z"}
