{"icao":"KORD","taf":"TAF KORD 041720Z 0418/0524 21012G18KT P6SM SCT070 ","updated":"2025-10-04T20:17:22Z"}
