{"icao":"KLAX","taf":"TAF KLAX 170543Z 1706/1812 25005KT P6SM FEW200 ","updated":"2026-03-17T08:52:41Z"}
