{"icao":"KORD","taf":"TAF KORD 250520Z 2506/2612 01006KT P6SM SCT008 OVC011 ","updated":"2025-12-25T05:22:58Z"}
