{"icao":"LPBJ","taf":"TAF TAF LPBJ 021701Z 0218/0318 34010KT CAVOK ","updated":"2026-04-03T02:10:54Z"}
