{"icao":"LPMR","taf":"TAF TAF LPMR 301109Z 3012/3112 18010KT 9999 FEW020 SCT035 ","updated":"2025-10-30T15:20:01Z"}
