{"icao":"LPPS","taf":"TAF LPPS 260500Z 2606/2712 02010KT 9999 SCT015 ","updated":"2026-04-26T05:38:23Z"}
