{"icao":"LPPR","taf":"TAF LPPR 281700Z 2818/2918 31007KT CAVOK ","updated":"2026-03-29T02:22:59Z"}
