{"icao":"KJFK","taf":"TAF KJFK 110520Z 1106/1212 29016G29KT P6SM SCT035 ","updated":"2025-11-11T07:18:24Z"}
