{"icao":"LPPD","taf":"TAF LPPD 291700Z 2918/3018 25010KT 8000 SCT006 SCT012 ","updated":"2025-12-29T17:17:16Z"}
