{"icao":"LPPR","taf":"TAF LPPR 280500Z 2806/2906 VRB02KT 9999 SCT006 PROB30 ","updated":"2026-06-28T07:49:25Z"}
