{"icao":"LPMT","taf":"TAF LPMT 120506Z 1206/1306 12008KT 8000 -RA SCT040 ","updated":"2025-12-12T08:28:10Z"}
