{"icao":"KLAX","taf":"TAF KLAX 011740Z 0118/0224 23007KT P6SM SCT025 ","updated":"2025-10-01T19:14:17Z"}
