{"icao":"KORD","taf":"TAF KORD 230520Z 2306/2412 11004KT P6SM SKC ","updated":"2026-04-23T05:29:05Z"}
