{"icao":"LPFR","taf":"TAF LPFR 110500Z 1106/1206 VRB02KT CAVOK ","updated":"2026-01-11T05:23:47Z"}
