{"icao":"LPBJ","taf":"TAF TAF LPBJ 271102Z 2712/2812 29005KT 9999 FEW030 ","updated":"2026-02-27T14:01:05Z"}
