{"icao":"KLAX","taf":"TAF KLAX 171126Z 1712/1818 06005KT P6SM OVC025 ","updated":"2026-05-17T13:18:04Z"}
