{"icao":"LPPS","taf":"TAF LPPS 121100Z 1212/1318 02010KT 9999 FEW015 ","updated":"2025-10-12T17:13:33Z"}
