{"icao":"LPMA","taf":"TAF LPMA 290500Z 2906/3006 VRB05KT 9999 SCT015 ","updated":"2025-10-29T05:18:40Z"}
