{"icao":"LPPS","taf":"TAF LPPS 181100Z 1812/1918 33005KT 9999 SCT015 ","updated":"2026-02-18T14:41:53Z"}
