{"icao":"KLAX","taf":"TAF KLAX 201737Z 2018/2124 VRB03KT P6SM SKC ","updated":"2025-10-20T19:15:15Z"}
