{"icao":"KORD","taf":"TAF KORD 280520Z 2806/2912 01007KT P6SM FEW070 ","updated":"2026-03-28T07:49:35Z"}
