{"icao":"LPPD","taf":"TAF LPPD 251700Z 2518/2618 20012KT 9999 SCT020 SCT030 PROB30 ","updated":"2025-09-25T18:26:15Z"}
