{"icao":"LPPT","taf":"TAF LPPT 191100Z 1912/2018 12007KT CAVOK ","updated":"2025-09-19T16:20:24Z"}
