{"icao":"LPMA","taf":"TAF LPMA 110500Z 1106/1206 36008KT 9999 SCT015 BKN030","updated":"2025-10-11T08:20:26Z"}
