{"icao":"LPMR","taf":"TAF TAF LPMR 170507Z 1706/1806 VRB02KT 0700 FG BKN003 PROB40 1706/1709 0100 BKN001 ","updated":"2025-09-17T12:36:19Z"}
