{"icao":"LPMT","taf":"TAF LPMT 271104Z 2712/2812 02008KT CAVOK PROB30 2803/2808 1200 BCFG","updated":"2025-11-27T12:39:39Z"}
