{"icao":"KORD","taf":"TAF KORD 060535Z 0606/0712 24011KT P6SM VCTS SCT035 BKN060CB ","updated":"2026-06-06T06:34:23Z"}
