{"icao":"LPOV","taf":"TAF LPOV 201709Z 2018/2118 17005KT 9999 FEW018 SCT030 ","updated":"2026-03-20T18:48:33Z"}
