{"icao":"LPBJ","taf":"TAF TAF LPBJ 251103Z 2512/2612 08005KT CAVOK ","updated":"2025-09-25T16:21:52Z"}
