{"icao":"LPPD","taf":"TAF LPPD 100500Z 1006/1106 35013KT 9999 FEW020 SCT035 ","updated":"2026-05-10T06:11:00Z"}
