{"icao":"LPPS","taf":"TAF LPPS 290500Z 2906/3012 34007KT 9999 SCT015 BKN030 ","updated":"2026-04-29T06:21:58Z"}
