{"icao":"KLAX","taf":"TAF KLAX 250539Z 2506/2612 25006KT P6SM BKN250 ","updated":"2026-02-25T07:13:19Z"}
