{"icao":"KJFK","taf":"TAF KJFK 011140Z 0112/0218 30014G22KT P6SM FEW250 ","updated":"2025-12-01T13:34:29Z"}
