{"icao":"LPPT","taf":"TAF LPPT 170500Z 1706/1812 33010KT CAVOK ","updated":"2025-09-17T08:22:37Z"}
