{"icao":"LPFR","taf":"TAF LPFR 191700Z 1918/2018 36010KT CAVOK ","updated":"2026-02-19T17:48:50Z"}
