{"icao":"LPAZ","taf":"TAF TAF LPAZ 041700Z 0418/0524 27010KT 9999 SCT012 ","updated":"2026-06-04T17:45:57Z"}
