{"icao":"KJFK","taf":"TAF KJFK 120530Z 1206/1312 31020G25KT P6SM BKN050 ","updated":"2026-02-12T07:51:10Z"}
