{"icao":"KORD","taf":"TAF KORD 051722Z 0518/0624 27010KT P6SM BKN250 ","updated":"2026-01-05T20:24:41Z"}
