{"icao":"LPFR","taf":"TAF LPFR 141700Z 1418/1518 26005KT CAVOK ","updated":"2025-10-15T04:20:55Z"}
