{"icao":"LPOV","taf":"TAF LPOV 281702Z 2818/0118 34012KT 9999 FEW025 ","updated":"2026-02-28T21:19:18Z"}
