{"icao":"LPBJ","taf":"TAF TAF LPBJ 300506Z 3006/3106 30005KT CAVOK PROB30 ","updated":"2026-05-30T06:22:56Z"}
