{"icao":"KORD","taf":"TAF KORD 141120Z 1412/1518 02005KT P6SM OVC120 ","updated":"2026-03-14T12:49:45Z"}
