{"icao":"LPPT","taf":"TAF LPPT 011100Z 0112/0218 33012KT CAVOK ","updated":"2026-07-01T12:05:35Z"}
