{"icao":"LPOV","taf":"TAF LPOV 041706Z 0418/0518 34012KT CAVOK ","updated":"2026-06-04T20:03:27Z"}
