{"icao":"LPMT","taf":"TAF LPMT 231701Z 2318/2418 25008KT 9999 FEW030 BKN040 ","updated":"2025-10-23T21:15:27Z"}
