{"icao":"LPMR","taf":"TAF TAF LPMR 161103Z 1612/1712 33007KT CAVOK ","updated":"2025-10-16T15:19:22Z"}
