{"icao":"KJFK","taf":"TAF KJFK 071740Z 0718/0824 32026G40KT P6SM FEW030 BKN060 ","updated":"2026-02-07T20:25:09Z"}
