{"icao":"KORD","taf":"TAF KORD 181120Z 1812/1918 24013G20KT P6SM SCT020 BKN150 ","updated":"2026-01-18T12:37:48Z"}
