{"icao":"KORD","taf":"TAF KORD 301731Z 3018/3124 26011KT P6SM OVC050 ","updated":"2025-12-30T18:29:50Z"}
