{"icao":"LPAZ","taf":"TAF TAF LPAZ 301700Z 3018/3124 09010KT 9999 SCT020","updated":"2026-03-30T19:58:05Z"}
