{"icao":"KLAX","taf":"TAF KLAX 161736Z 1618/1724 09006KT 3SM BR SCT035 ","updated":"2025-11-16T20:19:13Z"}
