{"icao":"LPMR","taf":"TAF TAF LPMR 141103Z 1412/1512 27010KT 8000 -RA SCT008 BKN015 ","updated":"2026-03-14T11:22:30Z"}
