{"icao":"KLAX","taf":"TAF KLAX 290526Z 2906/3012 VRB03KT P6SM SKC ","updated":"2025-10-29T08:25:40Z"}
