{"icao":"KJFK","taf":"TAF KJFK 181125Z 1812/1918 29015KT P6SM SCT080 SCT250 ","updated":"2025-11-18T13:31:33Z"}
