{"icao":"LPPD","taf":"TAF LPPD 011100Z 0112/0212 05012KT 9999 FEW012 BKN025 ","updated":"2026-04-01T11:52:12Z"}
