{"icao":"KJFK","taf":"TAF KJFK 280539Z 2806/2912 VRB04KT P6SM FEW020 BKN080 ","updated":"2026-06-28T07:49:43Z"}
