{"icao":"LPPS","taf":"TAF LPPS 300500Z 3006/3112 01012KT 9999 SCT015","updated":"2026-05-30T09:13:25Z"}
