{"icao":"LPOV","taf":"TAF LPOV 281703Z 2818/2918 35012KT CAVOK ","updated":"2026-03-28T19:28:24Z"}
