{"icao":"LPPR","taf":"TAF LPPR 250500Z 2506/2606 VRB02KT CAVOK ","updated":"2026-03-25T09:52:24Z"}
