{"icao":"KORD","taf":"TAF KORD 161723Z 1618/1724 31020G32KT 6SM -SN BKN025 ","updated":"2026-03-16T19:15:47Z"}
