{"icao":"KORD","taf":"TAF KORD 311720Z 3118/0124 34011KT P6SM BKN025 OVC035 ","updated":"2026-01-31T18:30:38Z"}
