{"icao":"LPMR","taf":"TAF TAF LPMR 150508Z 1506/1606 18012KT 9999 SCT018 BKN025 ","updated":"2025-11-15T05:17:16Z"}
