{"icao":"LPPR","taf":"TAF LPPR 211700Z 2118/2218 21008KT 8000 SCT004 BKN008 ","updated":"2025-10-21T23:16:59Z"}
