{"icao":"LPFR","taf":"TAF LPFR 231700Z 2318/2418 26007KT CAVOK ","updated":"2025-11-24T03:22:34Z"}
