{"icao":"LPMR","taf":"TAF TAF LPMR 211103Z 2112/2212 VRB02KT CAVOK ","updated":"2026-02-21T14:24:54Z"}
