{"icao":"KJFK","taf":"TAF KJFK 061740Z 0618/0724 29015G23KT P6SM SCT070 ","updated":"2026-04-06T18:57:37Z"}
