{"icao":"KJFK","taf":"TAF KJFK 201138Z 2012/2118 07010KT 6SM -RA OVC015 ","updated":"2026-02-20T14:00:41Z"}
