{"icao":"LPFR","taf":"TAF LPFR 161100Z 1612/1712 24010KT 9999 BKN030 ","updated":"2026-02-16T11:38:58Z"}
