{"icao":"LPPS","taf":"TAF LPPS 061100Z 0612/0718 03013KT 9999 FEW015 SCT030 ","updated":"2026-01-06T16:27:41Z"}
