{"icao":"KJFK","taf":"TAF KJFK 111739Z 1118/1224 02006KT P6SM SCT050 BKN100 BKN250 ","updated":"2026-05-11T18:57:39Z"}
