{"icao":"LPMR","taf":"TAF TAF LPMR 301703Z 3018/3118 34008KT 9999 SCT012 BKN018 ","updated":"2026-05-31T03:41:00Z"}
