{"icao":"LPBJ","taf":"TAF TAF LPBJ 151703Z 1518/1618 36012KT CAVOK ","updated":"2026-03-16T05:13:17Z"}
