{"icao":"KORD","taf":"TAF KORD 051720Z 0518/0624 33018G26KT P6SM FEW050 ","updated":"2025-11-05T18:26:49Z"}
