{"icao":"LPAZ","taf":"TAF TAF LPAZ 141100Z 1412/1518 21010KT 9999 SCT018 SCT030","updated":"2026-02-14T12:44:38Z"}
