{"icao":"LPMT","taf":"TAF LPMT 071707Z 0718/0818 28010KT CAVOK ","updated":"2026-05-08T02:48:58Z"}
