{"icao":"KORD","taf":"TAF KORD 281121Z 2812/2918 09009KT P6SM SCT250 ","updated":"2025-10-28T13:29:50Z"}
