{"icao":"LPAZ","taf":"TAF LPAZ 010500Z 0106/0212 22018KT 8000 SCT006 SCT012 ","updated":"2026-02-01T08:30:58Z"}
