{"icao":"KJFK","taf":"TAF KJFK 251130Z 2512/2618 18009KT 5SM -SHRA BR OVC009 ","updated":"2025-09-25T12:37:18Z"}
