{"icao":"LPPT","taf":"TAF LPPT 191100Z 1912/2018 35007KT CAVOK ","updated":"2026-06-19T11:20:43Z"}
