{"icao":"KJFK","taf":"TAF KJFK 051121Z 0512/0618 VRB04KT P6SM FEW250 ","updated":"2025-10-05T14:13:59Z"}
