{"icao":"LPOV","taf":"TAF LPOV 091106Z 0912/1012 33010KT CAVOK ","updated":"2025-10-09T14:17:35Z"}
