{"icao":"LPPR","taf":"TAF LPPR 230500Z 2306/2406 09005KT CAVOK ","updated":"2026-02-23T06:06:01Z"}
