{"icao":"LPMR","taf":"TAF TAF LPMR 121701Z 1218/1318 34010KT CAVOK ","updated":"2025-10-12T19:12:44Z"}
