{"icao":"LPPR","taf":"TAF LPPR 011100Z 0112/0212 32012KT CAVOK PROB30 ","updated":"2026-07-01T12:05:36Z"}
