{"icao":"LPPR","taf":"TAF LPPR 201100Z 2012/2112 32013KT 9999 SCT015 BKN030 PROB30 ","updated":"2025-09-20T16:18:40Z"}
