{"icao":"LPPR","taf":"TAF LPPR 291700Z 2918/3018 18007KT 9999 SCT015 ","updated":"2026-04-29T22:55:11Z"}
