{"icao":"LPOV","taf":"TAF LPOV 131103Z 1312/1412 34010KT FEW025 ","updated":"2025-10-13T11:15:11Z"}
