{"icao":"LPLA","taf":"TAF LPLA 290508Z 2906/3006 11015KT 8000 -RA FEW014 BKN025 ","updated":"2025-12-29T07:24:55Z"}
