{"icao":"KORD","taf":"TAF KORD 121720Z 1218/1324 13010KT P6SM FEW035 SCT200 ","updated":"2025-10-12T20:18:09Z"}
