{"icao":"LPPT","taf":"TAF LPPT 281100Z 2812/2918 35015KT CAVOK ","updated":"2026-06-28T14:46:53Z"}
