{"icao":"LPPR","taf":"TAF LPPR 230500Z 2306/2406 VRB02KT CAVOK ","updated":"2026-03-23T08:54:26Z"}
