{"icao":"KJFK","taf":"TAF KJFK 191736Z 1918/2024 26020G30KT P6SM SCT035 BKN090 ","updated":"2025-12-19T18:28:29Z"}
