{"icao":"LPPT","taf":"TAF LPPT 061700Z 0618/0724 29007KT 9999 SCT030 ","updated":"2025-11-06T19:14:40Z"}
