{"icao":"KJFK","taf":"TAF KJFK 091720Z 0918/1024 01013G22KT P6SM SKC ","updated":"2025-10-09T18:25:37Z"}
