{"icao":"LPPD","taf":"TAF LPPD 061700Z 0618/0718 21008KT 9999 SCT012 ","updated":"2025-10-06T21:14:55Z"}
