{"icao":"LPFR","taf":"TAF LPFR 241100Z 2412/2512 26007KT 9999 FEW018 ","updated":"2025-12-24T13:30:43Z"}
