{"icao":"KJFK","taf":"TAF KJFK 131124Z 1312/1418 33010KT P6SM BKN200 ","updated":"2026-02-13T12:57:33Z"}
