{"icao":"LPPD","taf":"TAF LPPD 081700Z 0818/0918 24017KT 6000 SCT004 SCT008 ","updated":"2026-02-08T23:29:22Z"}
