{"icao":"KJFK","taf":"TAF KJFK 071739Z 0718/0824 18014G21KT P6SM SCT050 BKN200 ","updated":"2025-10-07T19:13:45Z"}
