{"icao":"KLAX","taf":"TAF KLAX 291123Z 2912/3018 26006KT P6SM BKN025 OVC050 ","updated":"2026-05-29T11:28:03Z"}
