{"icao":"LPFR","taf":"TAF TAF LPFR 171700Z 1718/1818 12007KT CAVOK ","updated":"2026-04-17T23:38:10Z"}
