{"icao":"LPPR","taf":"TAF LPPR 180500Z 1806/1906 16015KT CAVOK ","updated":"2025-12-18T09:25:44Z"}
