{"icao":"LPFR","taf":"TAF LPFR 031700Z 0318/0418 05007KT 9999 SCT020 ","updated":"2026-03-04T04:10:16Z"}
