{"icao":"LPOV","taf":"TAF LPOV 241703Z 2418/2518 29005KT 9999 SCT015 ","updated":"2026-05-24T18:04:30Z"}
