{"icao":"KJFK","taf":"TAF KJFK 141730Z 1418/1524 18013KT P6SM FEW045 SCT250 ","updated":"2026-04-14T19:13:30Z"}
