{"icao":"LPLA","taf":"TAF LPLA 061708Z 0618/0718 20020G35KT 5000 -RA SCT006 BKN015 ","updated":"2025-12-06T18:24:56Z"}
