{"icao":"LPPD","taf":"TAF LPPD 130500Z 1306/1406 30008KT 9999 SCT015 BKN030 PROB40 ","updated":"2026-03-13T08:38:06Z"}
