{"icao":"KORD","taf":"TAF KORD 301720Z 3018/3124 35012KT 1SM -SN BR BKN012 OVC020 ","updated":"2026-01-30T18:40:22Z"}
