{"icao":"KJFK","taf":"TAF KJFK 250526Z 2506/2612 10008KT P6SM BKN060 ","updated":"2026-04-25T07:13:43Z"}
