{"icao":"LPAZ","taf":"TAF LPAZ 261700Z 2618/2724 02010KT 9999 SCT015 BKN030 PROB30 ","updated":"2025-12-27T03:21:51Z"}
