{"icao":"KLAX","taf":"TAF KLAX 070550Z 0706/0812 27008KT P6SM FEW012 BKN025 ","updated":"2026-06-07T07:53:53Z"}
