{"icao":"KLAX","taf":"TAF KLAX 050531Z 0506/0612 26006KT 6SM BR BKN010 ","updated":"2026-03-05T08:39:49Z"}
