{"icao":"LPBJ","taf":"TAF TAF LPBJ 240503Z 2406/2506 25008KT 9999 SCT015 BKN030 ","updated":"2025-11-24T07:18:47Z"}
