{"icao":"LPBJ","taf":"TAF TAF LPBJ 080520Z 0806/0906 26008KT 9999 SCT014 SCT025 ","updated":"2026-02-08T07:37:39Z"}
