{"icao":"KLAX","taf":"TAF KLAX 011740Z 0118/0224 24009KT P6SM FEW005 BKN025 OVC050 ","updated":"2026-01-01T18:29:05Z"}
