{"icao":"KLAX","taf":"TAF KLAX 071740Z 0718/0824 VRB03KT 6SM HZ FEW010 ","updated":"2026-02-07T18:34:12Z"}
