{"icao":"LPFR","taf":"TAF LPFR 021100Z 0212/0312 31010KT 9999 SCT015 ","updated":"2025-12-02T14:20:40Z"}
