{"icao":"LPFR","taf":"TAF LPFR 171100Z 1712/1812 11008KT CAVOK ","updated":"2025-09-17T13:26:07Z"}
