{"icao":"LPAZ","taf":"TAF TAF LPAZ 250500Z 2506/2612 03013KT 9999 SCT018 ","updated":"2025-10-25T08:20:17Z"}
