{"icao":"LPMA","taf":"TAF LPMA 050500Z 0506/0606 02010KT 9999 SCT015 SCT030","updated":"2025-10-05T08:20:07Z"}
