{"icao":"KLAX","taf":"TAF KLAX 210554Z 2106/2212 VRB03KT P6SM SKC ","updated":"2026-05-21T07:50:44Z"}
