{"icao":"LPMA","taf":"TAF LPMA 160500Z 1606/1706 02010KT 9999 SCT016 ","updated":"2026-02-16T06:08:30Z"}
