{"icao":"LPLA","taf":"TAF LPLA 241703Z 2418/2518 36005KT 9999 FEW030 SCT040 ","updated":"2025-09-25T02:59:55Z"}
