{"icao":"LPFR","taf":"TAF LPFR 041100Z 0412/0512 25023KT 6000 -RA SCT008 BKN018 ","updated":"2026-02-04T11:31:52Z"}
