{"icao":"LPPS","taf":"TAF LPPS 091700Z 0918/1024 03015KT 9999 SCT015 BKN030 ","updated":"2026-03-09T23:26:48Z"}
