{"icao":"LPPD","taf":"TAF LPPD 030500Z 0306/0406 35015KT 9999 SCT018 ","updated":"2026-01-03T09:19:15Z"}
