{"icao":"LPLA","taf":"TAF LPLA 220507Z 2206/2306 20010KT 9999 SCT015 BKN030 ","updated":"2026-05-22T07:42:54Z"}
