{"icao":"LPMT","taf":"TAF LPMT 281703Z 2818/2918 36010KT CAVOK","updated":"2026-03-28T18:38:46Z"}
