{"icao":"LPMT","taf":"TAF LPMT 261104Z 2612/2712 02005KT CAVOK PROB30 ","updated":"2026-04-26T16:40:37Z"}
