{"icao":"LPMA","taf":"TAF LPMA 060500Z 0606/0706 36007KT 9999 SCT015 SCT030 ","updated":"2025-10-06T09:21:04Z"}
