{"icao":"LPPD","taf":"TAF LPPD 051100Z 0512/0612 22015KT 9999 FEW020 BKN035 ","updated":"2025-12-05T11:17:48Z"}
