{"icao":"KORD","taf":"TAF KORD 261720Z 2618/2724 27013KT P6SM FEW040 ","updated":"2026-01-26T19:22:35Z"}
