{"icao":"LPFR","taf":"TAF LPFR 021430Z 0218/0318 19008KT CAVOK ","updated":"2025-11-02T18:21:48Z"}
