{"icao":"KORD","taf":"TAF KORD 061730Z 0618/0724 17012KT 6SM -SHRA BR SCT020 BKN035 ","updated":"2026-03-06T17:33:52Z"}
