{"icao":"LPMT","taf":"TAF LPMT 201703Z 2018/2118 25008KT 9999 SCT020 ","updated":"2025-10-20T19:14:51Z"}
