{"icao":"LPPR","taf":"TAF LPPR 090500Z 0906/1006 VRB02KT 0200 FG VV001 ","updated":"2025-10-09T07:17:09Z"}
