{"icao":"KORD","taf":"TAF KORD 011120Z 0112/0218 04014G24KT P6SM OVC015 PROB30 0120/0202 6SM -SHRA ","updated":"2026-04-01T11:52:29Z"}
