{"icao":"KORD","taf":"TAF KORD 181734Z 1818/1924 19020G32KT P6SM OVC009 ","updated":"2025-12-18T19:16:44Z"}
