{"icao":"LPMR","taf":"TAF TAF LPMR 120506Z 1206/1306 12005KT CAVOK ","updated":"2026-06-12T08:23:41Z"}
