{"icao":"KJFK","taf":"TAF KJFK 230522Z 2306/2412 29017G25KT P6SM SCT250 ","updated":"2026-01-23T07:24:42Z"}
