{"icao":"LPLA","taf":"TAF LPLA 241708Z 2418/2518 31015KT 3000 -DZ BR FEW002 BKN003 ","updated":"2026-06-24T20:47:08Z"}
