{"icao":"LPFR","taf":"TAF LPFR 240500Z 2406/2506 10007KT 3000 BR BKN003 ","updated":"2026-02-24T07:06:56Z"}
