{"icao":"LPPT","taf":"TAF LPPT 261100Z 2612/2718 06007KT CAVOK ","updated":"2026-02-26T13:03:17Z"}
