{"icao":"LPOV","taf":"TAF LPOV 031105Z 0312/0412 04008KT 9999 FEW040 ","updated":"2026-03-03T13:59:20Z"}
