{"icao":"LPLA","taf":"TAF LPLA 301702Z 3018/3118 19012KT 9999 FEW012 SCT025 ","updated":"2026-01-30T20:28:20Z"}
