{"icao":"LPPR","taf":"TAF LPPR 191700Z 1918/2018 32008KT CAVOK ","updated":"2026-06-19T17:56:15Z"}
