{"icao":"KJFK","taf":"TAF KJFK 091721Z 0918/1024 18017G24KT P6SM SCT250 ","updated":"2026-06-09T18:03:18Z"}
