{"icao":"LPPR","taf":"TAF LPPR 151100Z 1512/1612 17015KT 9999 SCT012 SCT025 ","updated":"2025-11-15T17:13:44Z"}
