{"icao":"LPPR","taf":"TAF LPPR 241700Z 2418/2518 26005KT 9999 FEW015 ","updated":"2026-05-24T21:55:12Z"}
