{"icao":"LPOV","taf":"TAF LPOV 261702Z 2618/2718 34008KT CAVOK ","updated":"2026-04-26T18:52:39Z"}
