{"icao":"LPBJ","taf":"TAF TAF LPBJ 091103Z 0912/1012 34008KT CAVOK ","updated":"2026-06-09T12:35:27Z"}
