{"icao":"LPAZ","taf":"TAF TAF LPAZ 280500Z 2806/2912 03010KT 9999 SCT018 BKN035 ","updated":"2026-06-28T07:49:29Z"}
