{"icao":"LPLA","taf":"TAF LPLA 211709Z 2118/2218 14010KT 9999 FEW025 SCT035 ","updated":"2025-09-21T23:15:09Z"}
