{"icao":"KLAX","taf":"TAF KLAX 271725Z 2718/2824 VRB03KT P6SM BKN200 ","updated":"2026-02-27T19:32:07Z"}
