{"icao":"KORD","taf":"TAF KORD 121120Z 1212/1318 11005KT P6SM FEW030 ","updated":"2025-10-12T13:20:56Z"}
