{"icao":"LPBJ","taf":"TAF TAF LPBJ 311714Z 3118/0118 33010KT CAVOK ","updated":"2026-05-31T17:59:55Z"}
