{"icao":"LPPS","taf":"TAF LPPS 051100Z 0512/0618 04010KT 9999 FEW015 BKN030 ","updated":"2025-10-05T16:18:45Z"}
