{"icao":"KLAX","taf":"TAF KLAX 251127Z 2512/2618 VRB03KT P6SM OVC010 ","updated":"2026-03-25T14:58:07Z"}
