{"icao":"KJFK","taf":"TAF KJFK 201732Z 2018/2124 33015G25KT P6SM BKN060 ","updated":"2026-04-20T19:08:29Z"}
