{"icao":"LPPD","taf":"TAF LPPD 100500Z 1006/1106 21010KT 9999 SCT012 SCT030 ","updated":"2025-10-10T07:16:56Z"}
