{"icao":"LPBJ","taf":"TAF TAF LPBJ 081700Z 0818/0918 30010KT 9999 BKN035 PROB40 0900/0909 0200 FG BKN002","updated":"2025-10-09T03:35:26Z"}
