{"icao":"LPBJ","taf":"TAF TAF LPBJ 110504Z 1106/1206 20008KT 9999 FEW016 SCT022 PROB30 1106/1109 3000 BCFG SCT008 ","updated":"2026-05-11T10:37:12Z"}
