{"icao":"LPMR","taf":"TAF TAF LPMR 111703Z 1118/1218 23015KT 7000 BKN008 ","updated":"2026-02-11T17:13:26Z"}
