{"icao":"LPPR","taf":"TAF LPPR 151700Z 1518/1618 33012KT 9999 FEW015 SCT030 ","updated":"2026-01-15T17:30:47Z"}
