{"icao":"LPLA","taf":"TAF LPLA 100507Z 1006/1106 21025KT 8000 -RA SCT015 BKN028 ","updated":"2025-12-10T08:27:23Z"}
