{"icao":"LPPT","taf":"TAF LPPT 281700Z 2818/2924 33008KT 9999 SCT030 ","updated":"2025-11-29T03:10:07Z"}
