{"icao":"LPPD","taf":"TAF LPPD 140500Z 1406/1506 25008KT 9999 SCT015 BKN030 ","updated":"2026-01-14T06:32:27Z"}
