{"icao":"LPMR","taf":"TAF TAF LPMR 221702Z 2218/2318 20015KT 7000 -RA SCT012 BKN018 ","updated":"2026-01-22T23:19:47Z"}
