{"icao":"KLAX","taf":"TAF KLAX 061741Z 0618/0724 14006KT P6SM BKN025 ","updated":"2026-02-06T18:50:07Z"}
