{"icao":"KLAX","taf":"TAF KLAX 181745Z 1818/1924 27018G28KT P6SM FEW080 ","updated":"2026-02-18T20:38:01Z"}
