{"icao":"LPMT","taf":"TAF LPMT 281105Z 2812/2912 35005KT 9999 FEW020 ","updated":"2026-04-28T22:57:17Z"}
