{"icao":"LPPD","taf":"TAF LPPD 281100Z 2812/2912 11020G32KT 8000 -RA SCT012 BKN020 ","updated":"2025-12-28T15:18:52Z"}
