{"icao":"LPBJ","taf":"TAF TAF LPBJ 230506Z 2306/2406 26005KT CAVOK ","updated":"2026-05-23T09:50:42Z"}
