{"icao":"LPAZ","taf":"TAF TAF LPAZ 251100Z 2512/2618 07012KT 9999 SCT018 ","updated":"2025-10-25T17:14:02Z"}
