{"icao":"LPPR","taf":"TAF LPPR 201700Z 2018/2118 32010KT CAVOK ","updated":"2026-06-20T23:06:48Z"}
