{"icao":"KORD","taf":"TAF KORD 010520Z 0106/0212 27007KT P6SM BKN070 ","updated":"2025-11-01T06:24:46Z"}
