{"icao":"KORD","taf":"TAF KORD 161120Z 1612/1718 12008KT P6SM BKN050 ","updated":"2025-10-16T12:38:55Z"}
