{"icao":"LPPT","taf":"TAF LPPT 041700Z 0418/0524 32010KT CAVOK ","updated":"2026-04-04T17:28:08Z"}
