{"icao":"KJFK","taf":"TAF KJFK 271139Z 2712/2818 02006KT P6SM FEW030 BKN050 ","updated":"2026-06-27T13:39:54Z"}
