{"icao":"LPBJ","taf":"TAF TAF LPBJ 051104Z 0512/0612 32010KT CAVOK ","updated":"2026-06-05T12:35:43Z"}
