{"icao":"LPFR","taf":"TAF LPFR 141100Z 1412/1512 32015KT CAVOK ","updated":"2026-02-14T15:23:57Z"}
