{"icao":"LPAZ","taf":"TAF LPAZ 121100Z 1212/1318 30008KT 9999 SCT025 ","updated":"2025-10-12T17:13:20Z"}
