{"icao":"LPOV","taf":"TAF LPOV 211707Z 2118/2218 35008KT 9999 FEW030 ","updated":"2026-03-21T18:34:47Z"}
