{"icao":"LPBJ","taf":"TAF TAF LPBJ 241706Z 2418/2518 26010KT 6000 -RADZ SCT008 BKN018 ","updated":"2025-11-25T04:25:12Z"}
