{"icao":"KJFK","taf":"TAF KJFK 261139Z 2612/2718 26008KT P6SM SCT250 ","updated":"2026-02-26T13:03:22Z"}
