{"icao":"LPOV","taf":"TAF LPOV 161102Z 1612/1712 34015KT CAVOK ","updated":"2026-05-16T17:01:45Z"}
