{"icao":"KJFK","taf":"TAF KJFK 201730Z 2018/2124 18014KT P6SM SCT045 OVC080 ","updated":"2026-03-20T18:48:49Z"}
