{"icao":"KORD","taf":"TAF KORD 020531Z 0206/0312 VRB03KT P6SM FEW060 ","updated":"2026-05-02T07:42:07Z"}
