{"icao":"KORD","taf":"TAF KORD 030532Z 0306/0412 25012G22KT P6SM SCT006 OVC015 ","updated":"2026-04-03T08:52:38Z"}
