{"icao":"LPBJ","taf":"TAF LPBJ 061100Z 0612/0712 16010KT CAVOK ","updated":"2025-10-06T14:17:30Z"}
