{"icao":"LPBJ","taf":"TAF TAF LPBJ 300507Z 3006/3106 04005KT CAVOK","updated":"2026-03-30T05:22:51Z"}
