{"icao":"LPOV","taf":"TAF LPOV 230514Z 2306/2406 33005KT CAVOK ","updated":"2025-09-23T09:18:57Z"}
