{"icao":"LPLA","taf":"TAF LPLA 130503Z 1306/1406 21012KT 8000 -RA SCT012 BKN028 ","updated":"2026-06-13T07:44:59Z"}
