{"icao":"LPMT","taf":"TAF LPMT 121108Z 1212/1312 25008KT 9999 BKN020 ","updated":"2026-02-12T16:56:54Z"}
