{"icao":"KORD","taf":"TAF KORD 111120Z 1112/1218 31010KT P6SM SKC ","updated":"2026-02-11T14:51:59Z"}
