{"icao":"LPFR","taf":"TAF LPFR 281100Z 2812/0112 36008KT CAVOK PROB30 2812/2818 20010KT ","updated":"2026-02-28T16:24:58Z"}
