{"icao":"LPLA","taf":"TAF TAF LPLA 260000Z 2600/2624 30010KT 9999 SCT020 ","updated":"2026-01-26T03:56:09Z"}
