{"icao":"LPAZ","taf":"TAF LPAZ 120500Z 1206/1312 27020KT 9999 FEW025 BKN040 ","updated":"2026-01-12T06:34:57Z"}
