{"icao":"KJFK","taf":"TAF KJFK 151126Z 1512/1618 36008KT P6SM SCT070 ","updated":"2025-10-15T12:38:56Z"}
