{"icao":"KJFK","taf":"TAF KJFK 180532Z 1806/1912 30020G28KT P6SM FEW060 ","updated":"2025-11-18T07:18:34Z"}
