{"icao":"LPAZ","taf":"TAF TAF LPAZ 221100Z 2212/2318 21012KT 8000 SCT006 BKN015 ","updated":"2026-05-22T16:24:08Z"}
