{"icao":"LPBJ","taf":"TAF TAF LPBJ 250502Z 2506/2606 15008KT CAVOK ","updated":"2026-02-25T05:59:26Z"}
