{"icao":"LPMT","taf":"TAF LPMT 051108Z 0512/0612 VRB05KT CAVOK ","updated":"2026-04-05T16:35:12Z"}
