{"icao":"KLAX","taf":"TAF KLAX 021120Z 0212/0318 08004KT 6SM BR SCT015 BKN050 ","updated":"2026-01-02T12:39:51Z"}
