{"icao":"LPPD","taf":"TAF LPPD 101700Z 1018/1118 23018KT 0150 DZ FG VV001 ","updated":"2026-02-10T19:20:13Z"}
