{"icao":"LPBJ","taf":"TAF TAF LPBJ 130502Z 1306/1406 07008KT CAVOK PROB30 1306/1309 2000 BCFG SCT004","updated":"2025-12-13T05:19:26Z"}
