{"icao":"KLAX","taf":"TAF KLAX 191720Z 1918/2024 VRB03KT P6SM BKN150 ","updated":"2026-01-19T17:22:38Z"}
