{"icao":"LPOV","taf":"TAF LPOV 081707Z 0818/0918 33005KT CAVOK ","updated":"2025-11-08T18:23:31Z"}
