{"icao":"LPPD","taf":"TAF LPPD 021100Z 0212/0312 20007KT 9999 SCT004 SCT008 ","updated":"2025-10-02T17:13:00Z"}
