{"icao":"LPAZ","taf":"TAF TAF LPAZ 291710Z 2918/3024 24013KT 6000 SCT004 SCT008 ","updated":"2026-01-29T20:28:30Z"}
