{"icao":"LPFR","taf":"TAF LPFR 030500Z 0306/0406 VRB02KT CAVOK ","updated":"2025-10-03T06:25:46Z"}
