{"icao":"LPPT","taf":"TAF LPPT 281100Z 2812/0118 34015KT CAVOK ","updated":"2026-02-28T14:20:25Z"}
