{"icao":"LPMT","taf":"TAF LPMT 081102Z 0812/0912 36007KT 9999 FEW025 ","updated":"2025-11-08T16:20:09Z"}
