{"icao":"KORD","taf":"TAF KORD 090520Z 0906/1012 22010KT P6SM FEW100 SCT250 ","updated":"2026-05-09T07:54:10Z"}
