{"icao":"LPLA","taf":"TAF LPLA 131106Z 1312/1412 32022KT 9999 SCT025 ","updated":"2025-11-13T14:18:56Z"}
