{"icao":"LPPT","taf":"TAF LPPT 181100Z 1812/1918 07007KT CAVOK ","updated":"2026-04-18T15:36:02Z"}
