{"icao":"LPMR","taf":"TAF TAF LPMR 230505Z 2306/2406 30005KT 9999 FEW020 PROB40 ","updated":"2026-05-23T09:50:41Z"}
