{"icao":"LPMR","taf":"TAF TAF LPMR 061101Z 0612/0712 35010KT 9999 FEW020 ","updated":"2026-01-06T13:36:30Z"}
