{"icao":"LPPR","taf":"TAF LPPR 031100Z 0312/0412 08010KT CAVOK ","updated":"2026-03-03T11:31:09Z"}
