{"icao":"KJFK","taf":"TAF KJFK 281124Z 2812/2918 03011KT P6SM SCT050 ","updated":"2025-10-28T14:18:47Z"}
