{"icao":"KJFK","taf":"TAF KJFK 271132Z 2712/2818 23007KT P6SM SCT040 BKN100 ","updated":"2026-05-27T12:19:18Z"}
