{"icao":"LPAZ","taf":"TAF LPAZ 221100Z 2212/2318 27023KT 6000 -RA SCT006 BKN012 ","updated":"2026-01-22T16:34:39Z"}
