{"icao":"KLAX","taf":"TAF KLAX 020520Z 0206/0312 25012KT P6SM SCT250 ","updated":"2026-03-02T06:56:15Z"}
