{"icao":"LPBJ","taf":"TAF TAF LPBJ 171712Z 1718/1818 29007KT 9999 SCT025 ","updated":"2026-01-18T01:47:49Z"}
