{"icao":"LPBJ","taf":"TAF TAF LPBJ 090509Z 0906/1006 06008KT CAVOK ","updated":"2026-04-09T10:57:16Z"}
