{"icao":"LPOV","taf":"TAF TAF LPOV 101119Z 1012/1112 23012KT 6000 -RADZ SCT004 BKN008 ","updated":"2026-02-10T14:56:58Z"}
