{"icao":"LPLA","taf":"TAF LPLA 100506Z 1006/1106 24015KT 9999 SCT018 SCT025 ","updated":"2026-02-10T07:02:37Z"}
