{"icao":"KORD","taf":"TAF KORD 051120Z 0512/0618 26013G23KT P6SM FEW035 SCT200 ","updated":"2025-11-05T12:38:33Z"}
