{"icao":"LPLA","taf":"TAF LPLA 080508Z 0806/0906 30010KT 9999 FEW020 BKN030 PROB40 ","updated":"2026-06-08T05:48:32Z"}
