{"icao":"KLAX","taf":"TAF KLAX 171723Z 1718/1824 27012KT P6SM BKN150 ","updated":"2025-09-17T19:14:03Z"}
