{"icao":"LPPT","taf":"TAF LPPT 191700Z 1918/2024 29007KT 9999 FEW012 SCT025 ","updated":"2026-01-19T19:18:08Z"}
