{"icao":"LPMT","taf":"TAF LPMT 291702Z 2918/3018 VRB02KT 9999 FEW025 ","updated":"2025-12-29T19:15:20Z"}
