{"icao":"KORD","taf":"TAF KORD 201120Z 2012/2118 27009KT P6SM FEW080 ","updated":"2026-06-20T14:00:03Z"}
