{"icao":"LPOV","taf":"TAF LPOV 090504Z 0906/1006 18010KT 6000 -RA SCT012 BKN025 ","updated":"2026-02-09T07:56:10Z"}
