{"icao":"LPOV","taf":"TAF LPOV 011104Z 0112/0212 20008KT 6000 -RA SCT012 BKN020 ","updated":"2026-02-01T12:47:14Z"}
