{"icao":"KJFK","taf":"TAF KJFK 151132Z 1512/1618 VRB04KT P6SM SCT150 BKN250 ","updated":"2026-02-15T13:43:35Z"}
