{"icao":"LPMT","taf":"TAF LPMT 071108Z 0712/0812 27005KT 9999 SCT035 ","updated":"2025-10-07T14:18:15Z"}
