{"icao":"LPPD","taf":"TAF LPPD 231100Z 2312/2412 36017KT 9999 SCT008 BKN025 ","updated":"2025-09-23T12:35:58Z"}
