{"icao":"KORD","taf":"TAF KORD 200529Z 2006/2112 26006KT P6SM SKC ","updated":"2025-10-20T07:19:08Z"}
