{"icao":"LPBJ","taf":"TAF TAF LPBJ 181105Z 1812/1912 30008KT CAVOK PROB30 ","updated":"2026-06-18T16:29:21Z"}
