{"icao":"KJFK","taf":"TAF KJFK 070540Z 0706/0812 07004KT P6SM OVC012 ","updated":"2026-03-07T07:27:29Z"}
