{"icao":"LPBJ","taf":"TAF TAF LPBJ 081706Z 0818/0918 34008KT 9999 FEW030 ","updated":"2025-11-09T04:20:42Z"}
