{"icao":"LPFR","taf":"TAF LPFR 100500Z 1006/1106 32005KT 9999 FEW035 ","updated":"2026-01-10T08:25:28Z"}
