{"icao":"KORD","taf":"TAF KORD 230530Z 2306/2412 01005KT P6SM FEW060 ","updated":"2026-06-23T08:33:40Z"}
