{"icao":"KORD","taf":"TAF KORD 231127Z 2312/2418 35011G19KT P6SM SCT030 ","updated":"2026-03-23T13:05:03Z"}
