{"icao":"LPPT","taf":"TAF LPPT 180500Z 1806/1912 04005KT 9999 FEW030 PROB30 ","updated":"2026-01-18T05:22:33Z"}
