{"icao":"KJFK","taf":"TAF KJFK 291732Z 2918/3024 04013KT P6SM OVC025 ","updated":"2025-10-29T18:28:02Z"}
