{"icao":"KORD","taf":"TAF KORD 241720Z 2418/2524 19012G20KT P6SM BKN150 ","updated":"2025-11-24T19:13:38Z"}
