{"icao":"LPAZ","taf":"TAF TAF LPAZ 031100Z 0312/0418 09005KT 9999 FEW015 BKN030 ","updated":"2026-04-03T13:01:05Z"}
