{"icao":"KJFK","taf":"TAF KJFK 171133Z 1712/1818 20010KT P6SM SCT025 BKN050 ","updated":"2026-01-17T14:17:54Z"}
