{"icao":"LPMT","taf":"TAF LPMT 201703Z 2018/2118 02008KT CAVOK","updated":"2026-02-20T21:23:02Z"}
