{"icao":"KORD","taf":"TAF KORD 120523Z 1206/1312 11006KT P6SM SCT250 ","updated":"2026-05-12T06:35:18Z"}
