{"icao":"LPMA","taf":"TAF LPMA 311700Z 3118/0118 VRB05KT 9999 SCT015 ","updated":"2026-01-31T22:21:31Z"}
