{"icao":"LPLA","taf":"TAF LPLA 031727Z 0318/0418 VRB05KT 9999 FEW020 SCT040 PROB30 ","updated":"2025-12-03T22:19:17Z"}
