{"icao":"LPPT","taf":"TAF LPPT 200500Z 2006/2112 29005KT 9999 SCT015 SCT030 ","updated":"2025-10-20T10:20:04Z"}
