{"icao":"LPAZ","taf":"TAF LPAZ 272300Z 2800/2906 26025KT 9999 SCT012 BKN025 ","updated":"2026-01-28T03:44:04Z"}
