{"icao":"LPAZ","taf":"TAF TAF LPAZ 291100Z 2912/3018 23010KT 9999 SCT018 BKN030 ","updated":"2026-01-29T12:55:10Z"}
