{"icao":"KORD","taf":"TAF KORD 231726Z 2318/2424 31012G18KT P6SM SCT030 ","updated":"2025-10-23T18:26:41Z"}
