{"icao":"LPLA","taf":"TAF LPLA 010506Z 0106/0206 35018KT 9999 SCT018 SCT025 ","updated":"2026-01-01T09:23:53Z"}
