{"icao":"KORD","taf":"TAF KORD 170529Z 1706/1812 16007KT P6SM SCT250 ","updated":"2025-10-17T08:24:59Z"}
