{"icao":"LPMA","taf":"TAF LPMA 300500Z 3006/3106 01010KT 9999 SCT015 ","updated":"2026-05-30T06:23:11Z"}
