{"icao":"LPFR","taf":"TAF LPFR 091700Z 0918/1018 19012KT 9999 SCT012 BKN025 ","updated":"2025-12-10T04:31:52Z"}
