{"icao":"LPMT","taf":"TAF LPMT 080504Z 0806/0906 34008KT 9999 FEW020 SCT035 PROB40 ","updated":"2025-11-08T09:16:39Z"}
