{"icao":"KLAX","taf":"TAF KLAX 221818Z 2218/2324 26007KT 1SM BR VCFG VV002 ","updated":"2025-12-22T18:29:42Z"}
