{"icao":"KORD","taf":"TAF KORD 081720Z 0818/0924 15012G18KT P6SM -SHRA SCT015 BKN025 ","updated":"2026-06-08T17:51:07Z"}
