{"icao":"LPBJ","taf":"TAF TAF LPBJ 201102Z 2012/2112 31007KT CAVOK PROB30 2106/2109 2000 BCFG SCT002 ","updated":"2025-11-20T12:38:13Z"}
