{"icao":"KJFK","taf":"TAF KJFK 020537Z 0206/0312 08005KT P6SM OVC150 ","updated":"2025-12-02T07:20:55Z"}
