{"icao":"LPPR","taf":"TAF LPPR 291700Z 2918/3018 28005KT 9999 SCT008 BKN018 ","updated":"2025-11-30T03:25:34Z"}
