{"icao":"LPMT","taf":"TAF LPMT 201705Z 2018/2118 28010KT CAVOK ","updated":"2026-05-20T21:51:21Z"}
