{"icao":"KJFK","taf":"TAF KJFK 021131Z 0212/0318 32012KT P6SM SCT250 ","updated":"2026-02-02T11:34:19Z"}
