{"icao":"KORD","taf":"TAF KORD 111720Z 1118/1224 31011G19KT P6SM OVC027 ","updated":"2026-01-11T18:27:49Z"}
