{"icao":"LPOV","taf":"TAF LPOV 261100Z 2612/2712 22010KT 9999 SCT018 BKN025 ","updated":"2026-06-26T15:22:01Z"}
