{"icao":"KORD","taf":"TAF KORD 030852Z 0309/0412 30005KT P6SM FEW070 BKN100 ","updated":"2026-02-03T10:38:27Z"}
