{"icao":"LPOV","taf":"TAF LPOV 050506Z 0506/0606 34010KT 9000 BKN005 PROB40 0506/0509 0800 FG BKN002 ","updated":"2025-10-05T10:16:10Z"}
