{"icao":"LPBJ","taf":"TAF TAF LPBJ 141703Z 1418/1518 32015KT 9999 FEW025 ","updated":"2026-02-15T02:07:46Z"}
