{"icao":"LPPR","taf":"TAF LPPR 041100Z 0412/0512 30008KT CAVOK ","updated":"2026-04-04T14:32:05Z"}
