{"icao":"KORD","taf":"TAF KORD 191126Z 1912/2018 08007KT P6SM SCT120 ","updated":"2025-09-19T13:26:21Z"}
