{"icao":"KLAX","taf":"TAF KLAX 181125Z 1812/1918 08005KT P6SM SKC ","updated":"2026-04-18T14:03:42Z"}
