{"icao":"LPMR","taf":"TAF TAF LPMR 021104Z 0212/0312 03008KT CAVOK ","updated":"2026-07-02T12:56:12Z"}
