{"icao":"LPPR","taf":"TAF LPPR 101700Z 1018/1118 32013KT CAVOK ","updated":"2026-06-10T22:01:59Z"}
