{"icao":"LPFR","taf":"TAF LPFR 061700Z 0618/0718 26017KT 9999 SCT025 ","updated":"2026-02-06T20:32:45Z"}
