{"icao":"KJFK","taf":"TAF KJFK 220524Z 2206/2312 31014G22KT P6SM SKC ","updated":"2025-12-22T06:33:35Z"}
