{"icao":"LPMA","taf":"TAF LPMA 291700Z 2918/3018 02012KT 9999 SCT015 PROB30 ","updated":"2026-05-29T18:30:44Z"}
