{"icao":"LPMR","taf":"TAF TAF LPMR 261111Z 2612/2712 22012KT 5000 BR SCT008 BKN018 ","updated":"2026-01-26T11:19:44Z"}
