{"icao":"LPBJ","taf":"TAF TAF LPBJ 260502Z 2606/2706 36010KT CAVOK ","updated":"2025-11-26T08:26:21Z"}
