{"icao":"LPPR","taf":"TAF LPPR 181700Z 1818/1918 32007KT CAVOK ","updated":"2026-04-18T21:33:36Z"}
