{"icao":"LPAZ","taf":"TAF TAF LPAZ 141700Z 1418/1524 27010KT 9999 FEW015 BKN035 ","updated":"2026-04-15T02:27:05Z"}
