{"icao":"KLAX","taf":"TAF KLAX 280534Z 2806/2912 28005KT P6SM SKC ","updated":"2026-04-28T08:34:22Z"}
