{"icao":"LPLA","taf":"TAF LPLA 100504Z 1006/1106 23006KT 9999 FEW012 SCT020 ","updated":"2025-10-10T08:23:16Z"}
