{"icao":"LPAZ","taf":"TAF LPAZ 191700Z 1918/2024 27015KT 9999 SCT006 BKN012 ","updated":"2025-10-19T20:18:24Z"}
