{"icao":"KLAX","taf":"TAF KLAX 210538Z 2106/2212 06012KT 2SM -RA BR BKN006 OVC012 ","updated":"2025-11-21T06:29:24Z"}
