{"icao":"LPMA","taf":"TAF LPMA 251100Z 2512/2612 01015KT 9999 SCT015 ","updated":"2026-02-25T16:01:11Z"}
