{"icao":"LPPS","taf":"TAF LPPS 280500Z 2806/2912 02010KT 9999 SCT015 ","updated":"2025-09-28T06:24:26Z"}
