{"icao":"LPMR","taf":"TAF TAF LPMR 201702Z 2018/2118 34008KT CAVOK ","updated":"2026-02-20T17:36:12Z"}
