{"icao":"KLAX","taf":"TAF KLAX 281737Z 2818/2924 24010KT P6SM BKN040 ","updated":"2026-05-28T18:34:52Z"}
