{"icao":"KLAX","taf":"TAF KLAX 200539Z 2006/2112 VRB03KT P6SM SCT250 ","updated":"2026-01-20T07:26:56Z"}
