{"icao":"KJFK","taf":"TAF KJFK 131721Z 1318/1424 04023G34KT 4SM -RA BR OVC008 ","updated":"2025-10-13T19:13:15Z"}
