{"icao":"LPPD","taf":"TAF LPPD 251700Z 2518/2618 23017KT 8000 SCT008 BKN015 ","updated":"2026-01-25T23:18:56Z"}
