{"icao":"LPMT","taf":"TAF LPMT 241707Z 2418/2518 25012KT 9999 FEW030 ","updated":"2026-06-24T22:15:19Z"}
