{"icao":"LPBJ","taf":"TAF TAF LPBJ 200508Z 2006/2106 27005KT 9999 BKN010 ","updated":"2025-10-20T06:28:10Z"}
