{"icao":"LPMR","taf":"TAF TAF LPMR 071107Z 0712/0812 27007KT 9999 BKN012 ","updated":"2025-10-07T12:37:11Z"}
