{"icao":"LPPR","taf":"TAF LPPR 310500Z 3106/0106 18015KT 6000 -RADZ SCT008 BKN015 ","updated":"2025-10-31T05:18:49Z"}
