{"icao":"LPOV","taf":"TAF LPOV 051705Z 0518/0618 33010KT CAVOK ","updated":"2026-04-05T17:29:10Z"}
