{"icao":"LPPT","taf":"TAF LPPT 091100Z 0912/1018 34015KT CAVOK ","updated":"2026-06-09T12:35:22Z"}
