{"icao":"LPMA","taf":"TAF LPMA 090500Z 0906/1006 01015G25KT 9999 SCT015 ","updated":"2026-06-09T09:40:28Z"}
