{"icao":"LPFR","taf":"TAF LPFR 091700Z 0918/1018 23015KT 9999 SCT020 ","updated":"2026-05-09T23:45:51Z"}
