{"icao":"LPPD","taf":"TAF LPPD 041700Z 0418/0518 02010KT 9999 SCT020 BKN035 ","updated":"2026-01-05T01:49:11Z"}
