{"icao":"KORD","taf":"TAF KORD 271733Z 2718/2824 15011KT 6SM BR OVC009 ","updated":"2025-12-27T20:21:02Z"}
