{"icao":"LPPD","taf":"TAF LPPD 081110Z 0812/0912 24017KT 6000 SCT004 SCT008 ","updated":"2026-02-08T16:29:28Z"}
