{"icao":"LPBJ","taf":"TAF TAF LPBJ 151107Z 1512/1612 31010KT CAVOK PROB30 ","updated":"2026-06-16T03:58:05Z"}
