{"icao":"KORD","taf":"TAF KORD 191120Z 1912/2018 33022G32KT 5SM -RA BKN015 ","updated":"2025-10-19T12:33:30Z"}
