{"icao":"LPMR","taf":"TAF LPMR 091111Z 0912/1012 35010KT 9999 SCT030 ","updated":"2026-04-09T17:06:03Z"}
