{"icao":"LPMR","taf":"TAF TAF LPMR 211710Z 2118/2218 34015KT 9999 FEW025 ","updated":"2025-09-22T03:05:57Z"}
