{"icao":"KLAX","taf":"TAF KLAX 130529Z 1306/1412 VRB03KT P6SM SKC ","updated":"2026-01-13T08:29:37Z"}
