{"icao":"LPOV","taf":"TAF LPOV 151705Z 1518/1618 28008KT 9999 FEW035 ","updated":"2026-04-15T21:51:06Z"}
