{"icao":"LPMA","taf":"TAF LPMA 181700Z 1818/1918 03008KT 9999 SCT015 ","updated":"2025-09-19T02:58:55Z"}
