{"icao":"LPBJ","taf":"TAF TAF LPBJ 060501Z 0606/0706 24005KT 9999 SCT006 PROB30 0606/0610 0500 -DZ FG BKN002 ","updated":"2025-12-06T11:14:18Z"}
