{"icao":"KJFK","taf":"TAF KJFK 191125Z 1912/2018 VRB04KT 6SM -RA OVC025 ","updated":"2025-11-19T13:31:09Z"}
