{"icao":"KLAX","taf":"TAF KLAX 011127Z 0112/0218 VRB03KT P6SM OVC010 ","updated":"2026-06-01T12:35:38Z"}
