{"icao":"KORD","taf":"TAF KORD 011720Z 0118/0224 08013KT P6SM BKN150 ","updated":"2026-03-01T17:20:48Z"}
