{"icao":"LPBJ","taf":"TAF TAF LPBJ 091703Z 0918/1018 31005KT 9999 FEW030 PROB40 1002/1010 1200 BCFG SCT004","updated":"2026-01-09T17:22:09Z"}
