{"icao":"KLAX","taf":"TAF KLAX 131759Z 1318/1424 08005KT P6SM FEW250 ","updated":"2026-03-13T19:30:28Z"}
