{"icao":"LPAZ","taf":"TAF LPAZ 012300Z 0200/0306 28025G37KT 9999 SCT025 ","updated":"2026-02-02T02:04:12Z"}
