{"icao":"KJFK","taf":"TAF KJFK 111730Z 1118/1224 28025G36KT P6SM FEW040 BKN050 ","updated":"2025-11-11T18:26:37Z"}
