{"icao":"LPOV","taf":"TAF LPOV 280501Z 2806/2906 VRB02KT 9999 SCT035 ","updated":"2025-10-28T09:19:46Z"}
