{"icao":"LPBJ","taf":"TAF TAF LPBJ 291102Z 2912/3012 VRB02KT 9999 FEW030 ","updated":"2025-12-29T13:36:12Z"}
