{"icao":"LPFR","taf":"TAF LPFR 200500Z 2006/2106 28005KT 9999 SCT030 PROB30 ","updated":"2025-10-20T09:20:52Z"}
