{"icao":"LPMR","taf":"TAF TAF LPMR 040501Z 0406/0506 25010KT 9999 SCT012 BKN018 ","updated":"2025-12-04T05:18:46Z"}
