{"icao":"KLAX","taf":"TAF KLAX 191730Z 1918/2024 26008KT P6SM SCT015 OVC020 ","updated":"2026-06-19T18:00:02Z"}
