{"icao":"LPFR","taf":"TAF LPFR 241700Z 2418/2518 25015KT 9999 SCT012 BKN030 PROB30 ","updated":"2025-11-24T21:17:47Z"}
