{"icao":"LPBJ","taf":"TAF TAF LPBJ 271705Z 2718/2818 30010KT CAVOK ","updated":"2026-06-27T21:01:28Z"}
