{"icao":"KLAX","taf":"TAF KLAX 120538Z 1206/1312 VRB03KT P6SM SKC ","updated":"2025-10-12T07:15:44Z"}
