{"icao":"KLAX","taf":"TAF KLAX 161133Z 1612/1718 06005KT P6SM BKN025 BKN080 ","updated":"2025-11-16T14:15:18Z"}
