{"icao":"LPPT","taf":"TAF LPPT 011700Z 0118/0224 33013KT CAVOK ","updated":"2026-04-02T02:09:09Z"}
