{"icao":"LPPD","taf":"TAF LPPD 221700Z 2218/2318 21010KT 2000 -DZRA BR SCT003 BKN006 ","updated":"2026-05-22T18:52:46Z"}
