{"icao":"LPPT","taf":"TAF LPPT 151100Z 1512/1618 34013KT CAVOK ","updated":"2026-06-15T13:10:51Z"}
