{"icao":"LPAZ","taf":"TAF TAF LPAZ 180500Z 1806/1912 27010KT 9999 SCT012 BKN025 ","updated":"2026-05-18T08:01:36Z"}
