{"icao":"KLAX","taf":"TAF KLAX 251741Z 2518/2624 16015KT P6SM -SHRA BKN025 OVC045 ","updated":"2025-12-25T18:28:13Z"}
