{"icao":"LPMR","taf":"TAF TAF LPMR 160504Z 1606/1706 VRB02KT 1500 BR BKN003 PROB40 1606/1608 0400 FG BKN001 ","updated":"2025-10-16T08:25:22Z"}
