{"icao":"LPBJ","taf":"TAF TAF LPBJ 061103Z 0612/0712 31010KT 9999 SCT018 BKN030 ","updated":"2026-03-06T12:53:31Z"}
