{"icao":"LPAZ","taf":"TAF TAF LPAZ 141100Z 1412/1518 03012KT 9999 SCT025 ","updated":"2026-05-14T16:59:27Z"}
