{"icao":"LPPD","taf":"TAF LPPD 111100Z 1112/1212 24012KT 4000 BR SCT006 ","updated":"2026-02-11T15:59:54Z"}
