{"icao":"LPMR","taf":"TAF TAF LPMR 201705Z 2018/2118 31010KT 9999 FEW015 BKN030 ","updated":"2025-09-20T17:12:34Z"}
