{"icao":"LPPD","taf":"TAF LPPD 170500Z 1706/1806 24015KT 9999 SCT012 BKN025 ","updated":"2025-12-17T07:21:41Z"}
