{"icao":"LPPT","taf":"TAF LPPT 260500Z 2606/2712 04010KT CAVOK ","updated":"2026-03-26T08:54:17Z"}
