{"icao":"KLAX","taf":"TAF KLAX 280523Z 2806/2912 VRB03KT P6SM SCT150 BKN250 ","updated":"2026-01-28T08:30:44Z"}
