{"icao":"KJFK","taf":"TAF KJFK 031736Z 0318/0424 30012KT P6SM FEW060 BKN150 BKN250 ","updated":"2026-01-03T18:27:25Z"}
