{"icao":"LPMA","taf":"TAF LPMA 020500Z 0206/0306 VRB05KT 9999 SCT015 ","updated":"2025-11-02T05:17:25Z"}
