{"icao":"LPPD","taf":"TAF LPPD 290500Z 2906/3006 25015KT 9999 SCT015 PROB30 ","updated":"2026-01-29T10:35:37Z"}
