{"icao":"KORD","taf":"TAF KORD 221725Z 2218/2324 02020G32KT P6SM BKN012 OVC150 ","updated":"2026-03-22T20:26:34Z"}
