{"icao":"LPPT","taf":"TAF LPPT 071700Z 0718/0824 31010KT 9999 SCT030 ","updated":"2025-10-07T17:15:19Z"}
