{"icao":"KLAX","taf":"TAF KLAX 031126Z 0312/0418 28004KT P6SM OVC012 ","updated":"2026-06-03T13:21:03Z"}
