{"icao":"LPMR","taf":"TAF LPMR 111107Z 1112/1212 17008KT 9999 SCT010 BKN018 ","updated":"2026-01-11T16:23:10Z"}
