{"icao":"LPMR","taf":"TAF TAF LPMR 151102Z 1512/1612 35012KT CAVOK ","updated":"2026-03-15T14:28:31Z"}
