{"icao":"LPPT","taf":"TAF LPPT 141100Z 1412/1518 33012KT 9999 FEW030 ","updated":"2025-09-14T16:17:40Z"}
