{"icao":"LPFR","taf":"TAF LPFR 141700Z 1418/1518 22017KT 9999 SCT020 ","updated":"2025-11-15T03:05:45Z"}
