{"icao":"LPLA","taf":"TAF LPLA 290502Z 2906/3006 VRB02KT 9999 FEW020 SCT030 ","updated":"2025-11-29T08:23:22Z"}
