{"icao":"LPPT","taf":"TAF LPPT 151700Z 1518/1624 34013KT CAVOK PROB30 ","updated":"2025-09-15T21:15:02Z"}
