{"icao":"LPPT","taf":"TAF LPPT 041710Z 0418/0524 34010KT 9999 FEW012 PROB30 ","updated":"2026-03-04T23:28:17Z"}
