{"icao":"LPMT","taf":"TAF LPMT 090506Z 0906/1006 34010KT 9999 SCT008 BKN018 PROB30 0906/0908 BKN012 ","updated":"2026-06-09T09:40:10Z"}
