{"icao":"LPFR","taf":"TAF LPFR 300500Z 3006/0106 02005KT 9999 FEW020 ","updated":"2026-04-30T08:27:39Z"}
