{"icao":"LPOV","taf":"TAF LPOV 202300Z 2100/2124 08008KT 9999 FEW015 ","updated":"2026-04-21T07:47:51Z"}
