{"icao":"KLAX","taf":"TAF KLAX 161131Z 1612/1718 11005KT P6SM SKC ","updated":"2026-01-16T12:42:13Z"}
