{"icao":"LPAZ","taf":"TAF TAF LPAZ 141700Z 1418/1524 21010KT 9999 SCT020 BKN030","updated":"2026-02-14T23:23:02Z"}
