{"icao":"LPPD","taf":"TAF LPPD 140500Z 1406/1506 VRB05KT 9999 SCT015 ","updated":"2026-06-14T09:31:12Z"}
