{"icao":"LPPD","taf":"TAF LPPD 151100Z 1512/1612 02010KT 9999 FEW020 BKN040 ","updated":"2026-05-15T14:03:57Z"}
