{"icao":"KORD","taf":"TAF KORD 131134Z 1312/1418 23012G19KT P6SM SCT015 BKN025 ","updated":"2026-04-13T12:01:49Z"}
