{"icao":"KJFK","taf":"TAF KJFK 161728Z 1618/1724 29026G36KT P6SM SCT060 BKN080 ","updated":"2025-11-16T18:24:29Z"}
