{"icao":"LPPD","taf":"TAF LPPD 281700Z 2818/2918 11020G32KT 8000 -RA SCT008 BKN015 ","updated":"2025-12-28T22:18:38Z"}
