{"icao":"LPPD","taf":"TAF LPPD 280500Z 2806/2906 12018KT 9999 SCT012 BKN025 ","updated":"2025-12-28T07:19:19Z"}
