{"icao":"KLAX","taf":"TAF KLAX 111120Z 1112/1218 VRB03KT P6SM SKC ","updated":"2025-12-11T14:20:58Z"}
