{"icao":"KJFK","taf":"TAF KJFK 211133Z 2112/2218 26010KT P6SM FEW060 ","updated":"2026-06-21T14:07:51Z"}
