{"icao":"LPPR","taf":"TAF LPPR 021700Z 0218/0318 34012KT CAVOK ","updated":"2026-04-02T23:33:59Z"}
