{"icao":"LPMR","taf":"TAF TAF LPMR 061700Z 0618/0718 28008KT CAVOK ","updated":"2025-10-06T19:13:42Z"}
