{"icao":"LPBJ","taf":"TAF TAF LPBJ 231110Z 2312/2412 09005KT CAVOK ","updated":"2026-03-23T13:04:48Z"}
