{"icao":"KJFK","taf":"TAF KJFK 121728Z 1218/1324 25015G25KT P6SM BKN050 ","updated":"2025-11-12T20:21:11Z"}
