{"icao":"LPPR","taf":"TAF LPPR 091100Z 0912/1012 17022KT 8000 -RADZ SCT008 BKN016 ","updated":"2025-12-09T16:26:34Z"}
