{"icao":"LPAZ","taf":"TAF TAF LPAZ 280500Z 2806/2912 06005KT 9999 SCT025 ","updated":"2025-09-28T06:24:24Z"}
