{"icao":"LPOV","taf":"TAF LPOV 211103Z 2112/2212 28005KT CAVOK ","updated":"2026-02-21T13:40:43Z"}
