{"icao":"KLAX","taf":"TAF KLAX 081142Z 0812/0918 VRB03KT P6SM OVC025 ","updated":"2026-06-08T14:47:03Z"}
