{"icao":"LPPT","taf":"TAF LPPT 120500Z 1206/1312 22005KT CAVOK ","updated":"2026-06-12T08:23:38Z"}
