{"icao":"LPBJ","taf":"TAF TAF LPBJ 200509Z 2006/2106 VRB02KT CAVOK PROB30 2006/2008 4000 BCFG SCT004 ","updated":"2026-05-20T09:30:00Z"}
