{"icao":"LPPS","taf":"TAF LPPS 081700Z 0818/0924 27015KT 9999 SCT012 PROB30 ","updated":"2026-02-08T22:25:41Z"}
