{"icao":"LPPS","taf":"TAF LPPS 181700Z 1818/1924 01012KT 9999 SCT015 ","updated":"2025-11-19T03:10:46Z"}
