{"icao":"LPLA","taf":"TAF LPLA 170508Z 1706/1806 18015KT 8000 -RA SCT015 BKN022 ","updated":"2025-11-17T08:27:16Z"}
