{"icao":"LPOV","taf":"TAF LPOV 251705Z 2518/2618 VRB03KT CAVOK PROB30 2602/2607 3000 BR SCT002 ","updated":"2025-12-25T19:15:10Z"}
