{"icao":"KLAX","taf":"TAF KLAX 041726Z 0418/0524 VRB03KT P6SM SKC ","updated":"2026-04-04T19:30:12Z"}
