{"icao":"KJFK","taf":"TAF KJFK 081720Z 0818/0924 32020G28KT P6SM FEW030 FEW200 ","updated":"2026-02-08T17:25:33Z"}
