{"icao":"KLAX","taf":"TAF KLAX 190540Z 1906/2012 18004KT P6SM SCT220 ","updated":"2026-04-19T08:53:11Z"}
