{"icao":"LPMR","taf":"TAF TAF LPMR 191702Z 1918/2018 VRB02KT CAVOK ","updated":"2025-09-19T18:24:08Z"}
