{"icao":"LPOV","taf":"TAF LPOV 301103Z 3012/0112 34012KT CAVOK ","updated":"2026-06-30T12:06:47Z"}
