{"icao":"LPLA","taf":"TAF LPLA 200507Z 2006/2106 VRB05KT 9999 FEW015 SCT020 PROB30 ","updated":"2025-10-20T05:18:51Z"}
