{"icao":"LPPR","taf":"TAF LPPR 101700Z 1018/1118 20008KT 9999 SCT015 BKN030 ","updated":"2025-11-11T04:23:09Z"}
