{"icao":"KLAX","taf":"TAF KLAX 181722Z 1818/1924 06005KT P6SM SKC ","updated":"2025-10-18T20:17:54Z"}
