{"icao":"KORD","taf":"TAF KORD 281726Z 2818/2924 04012KT P6SM FEW350 ","updated":"2026-05-28T18:34:52Z"}
