{"icao":"KJFK","taf":"TAF KJFK 271737Z 2718/2824 25017G25KT P6SM FEW045 BKN120 PROB30 2719/2723 6SM -SHSN SCT030 BKN060 ","updated":"2026-01-27T18:37:29Z"}
