{"icao":"LPAZ","taf":"TAF TAF LPAZ 270500Z 2706/2812 27013KT 9999 SCT020 ","updated":"2026-05-27T08:01:57Z"}
