{"icao":"LPAZ","taf":"TAF TAF LPAZ 051100Z 0512/0618 05012KT 9999 SCT025 ","updated":"2026-05-05T12:00:08Z"}
