{"icao":"KORD","taf":"TAF KORD 021120Z 0212/0318 03006KT P6SM SCT300 ","updated":"2026-06-02T14:51:39Z"}
