{"icao":"KLAX","taf":"TAF KLAX 101120Z 1012/1118 VRB03KT 1/2SM FG VV002 ","updated":"2025-11-10T12:38:39Z"}
