{"icao":"LPPD","taf":"TAF LPPD 121100Z 1212/1312 26008KT 9999 SCT025 ","updated":"2025-10-12T13:20:38Z"}
