{"icao":"LPMT","taf":"TAF LPMT 271705Z 2718/2818 29008KT CAVOK ","updated":"2026-06-28T03:39:23Z"}
