{"icao":"LPAZ","taf":"TAF TAF LPAZ 071700Z 0718/0824 23013KT 8000 SCT006 SCT012 ","updated":"2026-02-07T22:24:40Z"}
