{"icao":"KJFK","taf":"TAF KJFK 301122Z 3012/3118 35029G38KT P6SM FEW070 BKN100 ","updated":"2026-05-30T13:26:32Z"}
