{"icao":"LPAZ","taf":"TAF TAF LPAZ 021700Z 0218/0324 33032G45KT 9999 FEW020 BKN040 ","updated":"2026-01-02T23:18:03Z"}
