{"icao":"LPMR","taf":"TAF TAF LPMR 270505Z 2706/2806 VRB02KT CAVOK PROB40 2706/2709 3000 BR SCT003 ","updated":"2025-11-27T10:21:23Z"}
