{"icao":"LPAZ","taf":"TAF TAF LPAZ 041100Z 0412/0518 24020KT 9999 SCT008 BKN018 ","updated":"2026-02-04T15:41:15Z"}
