{"icao":"KJFK","taf":"TAF KJFK 251720Z 2518/2624 05016G25KT 1/4SM +SN OVC004 ","updated":"2026-01-25T18:29:07Z"}
