{"icao":"LPMR","taf":"TAF TAF LPMR 141103Z 1412/1512 33015KT 9999 FEW020 SCT030 ","updated":"2026-02-14T14:25:27Z"}
