{"icao":"LPPR","taf":"TAF LPPR 260500Z 2606/2706 VRB02KT CAVOK ","updated":"2026-04-26T07:27:03Z"}
