{"icao":"LPMR","taf":"TAF TAF LPMR 011105Z 0112/0212 25004KT CAVOK ","updated":"2026-03-01T14:22:30Z"}
