{"icao":"LPMT","taf":"TAF LPMT 251702Z 2518/2618 33010KT CAVOK ","updated":"2026-04-25T17:35:45Z"}
