{"icao":"LPMA","taf":"TAF LPMA 190500Z 1906/2006 22013KT 9999 SCT015 ","updated":"2026-03-19T09:41:48Z"}
