{"icao":"KLAX","taf":"TAF KLAX 021730Z 0218/0324 05006KT P6SM OVC050 ","updated":"2026-01-02T18:29:27Z"}
