{"icao":"KLAX","taf":"TAF KLAX 201740Z 2018/2124 25007KT P6SM SCT008 ","updated":"2025-09-20T20:16:31Z"}
