{"icao":"KORD","taf":"TAF KORD 151723Z 1518/1624 30014G24KT P6SM SCT250 ","updated":"2025-11-15T20:18:20Z"}
