{"icao":"LPMT","taf":"TAF LPMT 281700Z 2818/2918 33005KT 9999 FEW030 ","updated":"2025-11-28T20:21:01Z"}
