{"icao":"LPMT","taf":"TAF LPMT 260504Z 2606/2706 04005KT CAVOK ","updated":"2026-04-26T08:59:10Z"}
