{"icao":"KLAX","taf":"TAF KLAX 010533Z 0106/0212 VRB03KT P6SM BKN020 ","updated":"2025-12-01T06:31:35Z"}
