{"icao":"LPMT","taf":"TAF TAF LPMT 230501Z 2306/2406 VRB02KT CAVOK PROB40 2306/2312 4000 BR SCT004 PROB30 2306/2310 0600 FG BKN002 PROB30 2404/2406 2000 BR SCT003","updated":"2026-02-23T10:49:45Z"}
