{"icao":"LPBJ","taf":"TAF TAF LPBJ 081112Z 0812/0912 19010KT 9999 SCT025 ","updated":"2026-05-08T15:20:32Z"}
