{"icao":"LPOV","taf":"TAF LPOV 010512Z 0106/0206 33010KT CAVOK ","updated":"2026-06-01T06:01:01Z"}
