{"icao":"LPFR","taf":"TAF LPFR 151700Z 1518/1618 27010KT 9999 SCT025 ","updated":"2026-02-15T23:25:03Z"}
