{"icao":"LPPT","taf":"TAF LPPT 210500Z 2106/2212 35015KT CAVOK ","updated":"2025-09-21T10:16:01Z"}
