{"icao":"KLAX","taf":"TAF KLAX 241120Z 2412/2518 26004KT P6SM OVC015 ","updated":"2026-05-24T13:23:27Z"}
