{"icao":"LPAZ","taf":"TAF TAF LPAZ 020500Z 0206/0312 08008KT 9999 FEW012 BKN020 ","updated":"2026-04-02T10:01:01Z"}
