{"icao":"LPMA","taf":"TAF LPMA 140500Z 1406/1506 02012KT 9999 SCT015 ","updated":"2026-02-14T10:25:34Z"}
