{"icao":"LPMR","taf":"TAF TAF LPMR 060501Z 0606/0706 VRB02KT 9999 SCT020 ","updated":"2025-11-06T06:27:58Z"}
