{"icao":"KLAX","taf":"TAF KLAX 251143Z 2512/2618 VRB03KT 2SM BR VCFG OVC003 ","updated":"2025-09-25T13:28:33Z"}
