{"icao":"LPAZ","taf":"TAF TAF LPAZ 170500Z 1706/1812 22012KT 9999 SCT006 SCT012 ","updated":"2026-06-17T06:09:18Z"}
