{"icao":"LPFR","taf":"TAF LPFR 011700Z 0118/0218 22012KT 9999 SCT012 BKN020 PROB40 ","updated":"2026-02-01T21:21:42Z"}
