{"icao":"LPLA","taf":"TAF LPLA 280504Z 2806/2906 12015KT 6000 -RA BKN018 ","updated":"2025-12-28T09:19:10Z"}
