{"icao":"LPMA","taf":"TAF LPMA 141100Z 1412/1512 02015KT 9999 SCT015 ","updated":"2025-09-14T13:18:20Z"}
