{"icao":"LPOV","taf":"TAF LPOV 091702Z 0918/1018 34010KT CAVOK ","updated":"2026-04-10T02:27:26Z"}
