{"icao":"KLAX","taf":"TAF KLAX 141738Z 1418/1524 VRB03KT 4SM BR BKN008 ","updated":"2025-12-14T19:14:46Z"}
