{"icao":"KJFK","taf":"TAF KJFK 150538Z 1506/1612 32020G28KT P6SM SCT050 ","updated":"2025-12-15T06:33:59Z"}
