{"icao":"KJFK","taf":"TAF KJFK 211726Z 2118/2224 21011KT P6SM BKN060 PROB30 2118/2120 5SM -SHRA ","updated":"2026-06-21T18:18:49Z"}
