{"icao":"KLAX","taf":"TAF KLAX 280547Z 2806/2912 33005KT P6SM SKC ","updated":"2025-12-28T09:19:26Z"}
