{"icao":"KORD","taf":"TAF KORD 191730Z 1918/2024 31012G24KT P6SM FEW020 SCT060 BKN110 ","updated":"2025-10-19T19:13:17Z"}
