{"icao":"LPOV","taf":"TAF LPOV 110504Z 1106/1206 VRB02KT CAVOK ","updated":"2026-06-11T10:20:20Z"}
