{"icao":"LPPT","taf":"TAF LPPT 211700Z 2118/2224 33007KT CAVOK ","updated":"2026-05-22T03:32:45Z"}
