{"icao":"LPBJ","taf":"TAF TAF LPBJ 130504Z 1306/1406 16013KT 9999 SCT018 BKN035 ","updated":"2025-11-13T06:28:48Z"}
