{"icao":"KORD","taf":"TAF COR KORD 110858Z 1109/1212 21008KT P6SM SCT010 BKN150 ","updated":"2026-06-11T10:20:52Z"}
