{"icao":"LPBJ","taf":"TAF TAF LPBJ 131106Z 1312/1412 16008KT CAVOK ","updated":"2026-06-13T12:23:17Z"}
