{"icao":"KJFK","taf":"TAF KJFK 161135Z 1612/1718 03013KT P6SM SCT015 OVC025 ","updated":"2026-02-16T11:39:19Z"}
