{"icao":"KORD","taf":"TAF KORD 281720Z 2818/0124 04011KT P6SM FEW025 BKN050 PROB30 2819/2822 6SM -SHSN BKN025 ","updated":"2026-02-28T19:19:44Z"}
