{"icao":"LPPR","taf":"TAF LPPR 301100Z 3012/0112 35012KT CAVOK PROB30 ","updated":"2025-11-30T14:16:17Z"}
