{"icao":"LPMT","taf":"TAF LPMT 221103Z 2212/2312 01008KT CAVOK ","updated":"2026-02-22T13:42:05Z"}
