{"icao":"LPOV","taf":"TAF LPOV 100504Z 1006/1106 08008KT CAVOK PROB40 1008/1012 28005KT ","updated":"2025-10-10T07:16:55Z"}
