{"icao":"LPPD","taf":"TAF LPPD 151700Z 1518/1618 33008KT 9999 SCT025 ","updated":"2025-11-15T20:18:04Z"}
