{"icao":"KJFK","taf":"TAF KJFK 261720Z 2618/2724 07014KT P6SM FEW025 BKN040 ","updated":"2026-04-26T17:37:16Z"}
