{"icao":"KLAX","taf":"TAF KLAX 161729Z 1618/1724 11012G22KT 2SM RA BR BKN015 OVC025 ","updated":"2026-02-16T18:40:54Z"}
