{"icao":"LPMA","taf":"TAF LPMA 210500Z 2106/2206 VRB05KT 9999 SCT015 ","updated":"2026-01-21T05:27:18Z"}
