{"icao":"KJFK","taf":"TAF KJFK 291136Z 2912/3018 15010KT P6SM BKN050 ","updated":"2026-04-29T13:53:09Z"}
