{"icao":"LPPT","taf":"TAF LPPT 191700Z 1918/2024 34012KT 9999 FEW035 ","updated":"2025-12-19T17:17:41Z"}
