{"icao":"LPMA","taf":"TAF LPMA 131100Z 1312/1412 01022G35KT 9999 SCT015 ","updated":"2025-12-13T15:17:34Z"}
