{"icao":"LPBJ","taf":"TAF TAF LPBJ 210510Z 2106/2206 12010KT CAVOK ","updated":"2026-04-21T05:26:03Z"}
