{"icao":"LPPT","taf":"TAF LPPT 281100Z 2812/2918 11010KT 9999 FEW020 ","updated":"2026-04-28T16:49:43Z"}
