{"icao":"KORD","taf":"TAF KORD 150520Z 1506/1612 21003KT P6SM BKN250 ","updated":"2026-02-15T06:50:51Z"}
