{"icao":"LPPD","taf":"TAF LPPD 101100Z 1012/1112 22012KT 9999 SCT015 SCT030 PROB30 ","updated":"2026-01-10T11:16:09Z"}
