{"icao":"KORD","taf":"TAF KORD 051720Z 0518/0624 20015G25KT P6SM SCT300 ","updated":"2025-10-05T18:21:59Z"}
