{"icao":"LPOV","taf":"TAF LPOV 041111Z 0412/0512 15012KT 9999 FEW045 ","updated":"2025-11-04T17:13:36Z"}
