{"icao":"LPPT","taf":"TAF LPPT 280500Z 2806/2912 31010KT 9999 FEW012 PROB30 ","updated":"2026-04-28T11:04:05Z"}
