{"icao":"LPAZ","taf":"TAF LPAZ 041100Z 0412/0518 27010KT 9999 SCT006 SCT012 ","updated":"2026-03-04T11:28:47Z"}
