{"icao":"KORD","taf":"TAF KORD 301124Z 3012/3118 20010KT P6SM BKN070 ","updated":"2026-03-30T13:17:05Z"}
