{"icao":"LPLA","taf":"TAF LPLA 150504Z 1506/1606 31012KT 9999 SCT030 ","updated":"2025-11-15T09:17:03Z"}
