{"icao":"KJFK","taf":"TAF KJFK 281130Z 2812/2918 04005KT P6SM SCT020 BKN050 ","updated":"2026-06-28T12:14:55Z"}
