{"icao":"LPMR","taf":"TAF TAF LPMR 191104Z 1912/2012 33010KT 9999 FEW040 ","updated":"2026-02-19T15:46:50Z"}
