{"icao":"KJFK","taf":"TAF KJFK 181732Z 1818/1924 23010KT P6SM FEW050 ","updated":"2025-09-18T19:14:20Z"}
