{"icao":"KLAX","taf":"TAF KLAX 220551Z 2206/2312 23005KT P6SM SCT010 BKN100 ","updated":"2025-10-22T07:17:38Z"}
