{"icao":"LPBJ","taf":"TAF TAF LPBJ 131104Z 1312/1412 34010KT CAVOK PROB30 1405/1408 3000 BCFG BKN004 ","updated":"2025-09-13T16:17:57Z"}
