{"icao":"KLAX","taf":"TAF KLAX 171742Z 1718/1824 25008KT P6SM SCT025 BKN035 ","updated":"2026-05-17T20:50:18Z"}
