{"icao":"LPFR","taf":"TAF LPFR 291100Z 2912/3012 04005KT 9999 FEW025 ","updated":"2025-10-29T15:20:18Z"}
