{"icao":"LPBJ","taf":"TAF TAF LPBJ 011702Z 0118/0218 13010KT 9999 OVC006 ","updated":"2026-01-01T19:16:26Z"}
