{"icao":"LPLA","taf":"TAF LPLA 231700Z 2318/2418 33015KT 9999 SCT025 SCT040 ","updated":"2025-09-23T23:14:50Z"}
