{"icao":"LPLA","taf":"TAF LPLA 051704Z 0518/0618 22020G30KT 9999 FEW020 BKN030 ","updated":"2026-04-05T22:29:20Z"}
