{"icao":"KLAX","taf":"TAF KLAX 211122Z 2112/2218 VRB03KT 6SM BR SCT005 ","updated":"2025-10-21T12:39:16Z"}
