{"icao":"LPPD","taf":"TAF LPPD 101100Z 1012/1112 23018KT 6000 SCT006 BKN012 ","updated":"2026-02-10T13:11:04Z"}
