{"icao":"KORD","taf":"TAF KORD 100520Z 1006/1112 04009KT P6SM SCT250 ","updated":"2026-05-10T08:52:23Z"}
