{"icao":"LPPD","taf":"TAF LPPD 250500Z 2506/2606 33010KT 9999 SCT025 ","updated":"2026-02-25T08:47:31Z"}
