{"icao":"LPAZ","taf":"TAF LPAZ 171700Z 1718/1824 24008KT 9999 SCT020 ","updated":"2025-10-18T03:27:06Z"}
