{"icao":"LPPS","taf":"TAF LPPS 090500Z 0906/1012 22018KT 8000 -RA SCT008 BKN015 ","updated":"2025-12-09T07:21:01Z"}
