{"icao":"KORD","taf":"TAF KORD 061120Z 0612/0718 20004KT P6SM SCT250 ","updated":"2025-11-06T12:38:22Z"}
