{"icao":"LPMT","taf":"TAF LPMT 141703Z 1418/1518 35008KT 9999 FEW030 ","updated":"2026-01-14T18:31:51Z"}
