{"icao":"KLAX","taf":"TAF KLAX 281729Z 2818/2924 22006G20KT P6SM BKN025 OVC035 ","updated":"2026-06-28T18:03:36Z"}
