{"icao":"LPPT","taf":"TAF TAF LPPT 040500Z 0406/0512 26018G30KT 9999 SCT012 SCT020 ","updated":"2026-02-04T07:42:31Z"}
