{"icao":"KLAX","taf":"TAF KLAX 310525Z 3106/0112 VRB03KT P6SM SKC ","updated":"2025-10-31T06:27:39Z"}
