{"icao":"KJFK","taf":"TAF KJFK 281724Z 2818/2924 23008KT P6SM SCT035 BKN150 ","updated":"2025-12-28T18:28:20Z"}
