{"icao":"KORD","taf":"TAF KORD 091133Z 0912/1018 34016G28KT 4SM -SHSN BKN012 OVC020 ","updated":"2025-11-09T12:33:55Z"}
