{"icao":"KORD","taf":"TAF KORD 190536Z 1906/2012 05008KT P6SM BKN009 OVC012 ","updated":"2025-11-19T07:18:51Z"}
