{"icao":"LPMR","taf":"TAF TAF LPMR 261101Z 2612/2712 33008KT CAVOK ","updated":"2026-02-26T14:44:49Z"}
