{"icao":"LPPR","taf":"TAF LPPR 010500Z 0106/0206 30010KT 5000 RA FEW008 BKN030 ","updated":"2025-11-01T06:24:25Z"}
