{"icao":"LPBJ","taf":"TAF TAF LPBJ 121103Z 1212/1312 14005KT 9999 SCT018 ","updated":"2026-01-12T14:24:16Z"}
