{"icao":"LPBJ","taf":"TAF TAF LPBJ 290507Z 2906/3006 25015KT 7000 -RA SCT008 BKN015 ","updated":"2026-01-29T09:40:48Z"}
