{"icao":"LPPS","taf":"TAF LPPS 020500Z 0206/0312 07010KT 9999 SCT015 SCT030 ","updated":"2025-10-02T05:16:26Z"}
