{"icao":"LPPR","taf":"TAF LPPR 271100Z 2712/2812 28007KT 9999 SCT012 ","updated":"2026-06-27T13:39:12Z"}
