{"icao":"KJFK","taf":"TAF KJFK 021137Z 0212/0318 28008KT P6SM SCT025 OVC040 ","updated":"2026-05-02T13:08:08Z"}
