{"icao":"LPPS","taf":"TAF LPPS 310500Z 3106/0112 32008KT 9999 SCT012 ","updated":"2026-01-31T06:37:35Z"}
