{"icao":"LPPT","taf":"TAF LPPT 281700Z 2818/2924 34012KT CAVOK ","updated":"2026-03-28T19:28:20Z"}
