{"icao":"LPMR","taf":"TAF TAF LPMR 231703Z 2318/2418 27015KT 9999 SCT020 ","updated":"2026-01-23T19:23:30Z"}
