{"icao":"LPMR","taf":"TAF TAF LPMR 301103Z 3012/0112 33008KT CAVOK ","updated":"2026-06-30T12:06:48Z"}
