{"icao":"KJFK","taf":"TAF KJFK 081133Z 0812/0918 30014G22KT 4SM -SHRA BR SCT008 OVC015 ","updated":"2025-10-08T12:37:30Z"}
