{"icao":"LPMR","taf":"TAF TAF LPMR 011702Z 0118/0218 34015KT CAVOK ","updated":"2026-04-01T20:56:10Z"}
