{"icao":"LPLA","taf":"TAF LPLA 091707Z 0918/1018 VRB05KT 9999 FEW012 SCT020 PROB30 ","updated":"2026-04-10T02:27:43Z"}
