{"icao":"KLAX","taf":"TAF KLAX 181152Z 1812/1918 08004KT 2SM BR VCFG SCT004 BKN250 ","updated":"2025-12-18T13:35:36Z"}
