{"icao":"LPFR","taf":"TAF LPFR 280500Z 2806/2906 26015KT 9999 SCT020 BKN040 PROB40 ","updated":"2025-09-28T08:19:40Z"}
