{"icao":"LPOV","taf":"TAF LPOV 220503Z 2206/2306 12005KT CAVOK PROB40 2206/2209 2000 BR SCT002 ","updated":"2026-02-22T05:50:34Z"}
