{"icao":"LPBJ","taf":"TAF TAF LPBJ 121108Z 1212/1312 14005KT 7000 -RA BKN030 ","updated":"2025-12-12T15:21:15Z"}
