{"icao":"LPPD","taf":"TAF LPPD 241100Z 2412/2512 19015KT 9999 SCT012 BKN020 ","updated":"2026-04-24T16:54:25Z"}
