{"icao":"LPMT","taf":"TAF TAF LPMT 110504Z 1106/1206 24010KT 6000 -RADZ BKN008 ","updated":"2026-02-11T07:58:32Z"}
