{"icao":"KORD","taf":"TAF KORD 110520Z 1106/1212 28010KT P6SM FEW100 ","updated":"2025-11-11T08:24:37Z"}
