{"icao":"LPLA","taf":"TAF COR TAF COR LPLA 200738Z 2006/2106 24012KT 9999 SCT020 ","updated":"2026-05-20T09:30:02Z"}
