{"icao":"LPOV","taf":"TAF LPOV 201106Z 2012/2112 18012KT 7000 -RA SCT015 BKN025 ","updated":"2025-12-20T15:17:30Z"}
