{"icao":"KORD","taf":"TAF KORD 060539Z 0606/0712 10003KT 3SM BR BKN005 OVC010 ","updated":"2026-03-06T06:45:59Z"}
