{"icao":"LPPD","taf":"TAF LPPD 210500Z 2106/2206 19010KT 9999 SCT040 PROB30 ","updated":"2026-02-21T09:28:26Z"}
