{"icao":"KORD","taf":"TAF KORD 081120Z 0812/0918 18009KT P6SM SCT250 WS020/20045KT ","updated":"2026-01-08T14:24:18Z"}
