{"icao":"KORD","taf":"TAF KORD 110520Z 1106/1212 30018G30KT P6SM -SN SCT020 BKN035 PROB30 1106/1110 2SM -SHSN BLSN BKN020 ","updated":"2026-01-11T05:24:21Z"}
