{"icao":"KJFK","taf":"TAF KJFK 210529Z 2106/2212 21013KT P6SM SCT015 BKN040 ","updated":"2026-03-21T06:41:12Z"}
