{"icao":"KJFK","taf":"TAF KJFK 070535Z 0706/0812 25008KT 5SM -SN BR SCT007 OVC035 ","updated":"2026-02-07T08:30:07Z"}
