{"icao":"LPFR","taf":"TAF LPFR 161700Z 1618/1718 32007KT 9999 SCT030 ","updated":"2026-01-16T18:30:39Z"}
