{"icao":"LPAZ","taf":"TAF LPAZ 130500Z 1306/1412 VRB05KT 9999 FEW018 ","updated":"2025-09-13T10:48:41Z"}
