{"icao":"LPPR","taf":"TAF LPPR 300500Z 3006/3106 VRB02KT 9999 BKN008 ","updated":"2026-05-30T06:22:53Z"}
