{"icao":"KJFK","taf":"TAF KJFK 281132Z 2812/2918 17006KT P6SM BKN100 ","updated":"2025-09-28T12:32:42Z"}
