{"icao":"LPBJ","taf":"TAF TAF LPBJ 121704Z 1218/1318 14008KT CAVOK PROB40 ","updated":"2026-06-12T23:14:54Z"}
