{"icao":"LPPD","taf":"TAF LPPD 280500Z 2806/0106 22007KT 9999 SCT006 SCT012 ","updated":"2026-02-28T05:32:06Z"}
