{"icao":"LPMA","taf":"TAF LPMA 241700Z 2418/2518 02017KT 9999 SCT015 ","updated":"2026-05-24T21:56:07Z"}
