{"icao":"KLAX","taf":"TAF KLAX 071140Z 0712/0818 24004KT P6SM SCT011 ","updated":"2026-04-07T11:53:00Z"}
