{"icao":"LPOV","taf":"TAF LPOV 120505Z 1206/1306 05008KT CAVOK ","updated":"2026-06-12T08:23:40Z"}
