{"icao":"LPPT","taf":"TAF LPPT 181100Z 1812/1918 34013KT CAVOK ","updated":"2026-06-18T16:29:16Z"}
