{"icao":"LPPD","taf":"TAF LPPD 171100Z 1712/1812 21013KT 9999 FEW020 ","updated":"2025-09-17T13:26:09Z"}
