{"icao":"LPPR","taf":"TAF LPPR 201700Z 2018/2118 31008KT CAVOK ","updated":"2026-05-21T03:34:08Z"}
