{"icao":"KLAX","taf":"TAF KLAX 111120Z 1112/1218 VRB03KT 1/2SM FG VV002 ","updated":"2025-11-11T12:38:31Z"}
