{"icao":"KORD","taf":"TAF KORD 240520Z 2406/2512 33010KT P6SM BKN200 ","updated":"2026-01-24T07:18:53Z"}
