{"icao":"LPMR","taf":"TAF TAF LPMR 171711Z 1718/1818 34005KT 9999 FEW020 SCT040 ","updated":"2026-01-18T03:44:39Z"}
