{"icao":"LPAZ","taf":"TAF TAF LPAZ 031100Z 0312/0418 33010KT 9999 SCT004 BKN008 ","updated":"2025-11-03T12:38:53Z"}
