{"icao":"KLAX","taf":"TAF COR KLAX 080558Z 0806/0912 10007KT 6SM BR BKN006 ","updated":"2025-11-08T08:21:58Z"}
