{"icao":"KJFK","taf":"TAF KJFK 010536Z 0106/0212 22010KT P6SM SCT060 SCT100 BKN250 ","updated":"2026-07-01T08:11:23Z"}
