{"icao":"LPPS","taf":"TAF LPPS 211700Z 2118/2224 05015KT 9999 SCT015 BKN030 ","updated":"2025-11-21T20:21:40Z"}
