{"icao":"LPAR","taf":"TAF LPAR 261403Z 2615/2624 05012KT CAVOK ","updated":"2026-04-04T20:30:03Z"}
