{"icao":"LPPS","taf":"TAF LPPS 151700Z 1518/1624 01015KT 9999 SCT015 ","updated":"2026-05-15T21:58:31Z"}
