{"icao":"LPMT","taf":"TAF LPMT 071104Z 0712/0812 18005KT 9999 SCT025 ","updated":"2025-12-07T11:14:10Z"}
