{"icao":"KLAX","taf":"TAF KLAX 091720Z 0918/1024 24006KT 6SM BR BKN012 ","updated":"2026-05-09T17:50:33Z"}
