{"icao":"LPOV","taf":"TAF LPOV 301105Z 3012/0112 24010KT 9999 SCT020 ","updated":"2026-04-30T12:13:58Z"}
