{"icao":"LPAZ","taf":"TAF TAF LPAZ 040005Z 0400/0506 30012KT 9999 SCT008 ","updated":"2026-06-04T03:53:17Z"}
