{"icao":"LPMA","taf":"TAF LPMA 161700Z 1618/1718 02010KT 9999 SCT015 BKN030 PROB40 ","updated":"2026-03-17T04:50:19Z"}
