{"icao":"LPBJ","taf":"TAF TAF LPBJ 191100Z 1912/2012 29005KT CAVOK ","updated":"2026-06-19T15:12:02Z"}
