{"icao":"LPLA","taf":"TAF LPLA 260503Z 2606/2706 VRB02KT 2000 BR BKN002 BKN005 ","updated":"2025-12-26T08:26:36Z"}
