{"icao":"LPPT","taf":"TAF LPPT 191700Z 1918/2024 11007KT 9999 SCT012 ","updated":"2026-03-19T21:33:51Z"}
