{"icao":"LPPT","taf":"TAF LPPT 161700Z 1618/1724 30007KT 9999 FEW018 SCT030 ","updated":"2026-01-16T23:18:48Z"}
