{"icao":"KLAX","taf":"TAF KLAX 251128Z 2512/2618 11006KT P6SM SCT025 SCT035 ","updated":"2025-12-25T13:31:15Z"}
