{"icao":"KORD","taf":"TAF KORD 091120Z 0912/1018 21014G24KT P6SM SCT250 ","updated":"2026-03-09T14:48:57Z"}
