{"icao":"LPOV","taf":"TAF LPOV 281703Z 2818/2918 20015KT 7000 -RA SCT012 BKN022 ","updated":"2026-01-29T01:56:11Z"}
