{"icao":"LPMT","taf":"TAF LPMT 050503Z 0506/0606 35012KT 9999 FEW020 ","updated":"2026-01-05T06:37:08Z"}
