{"icao":"LPPT","taf":"TAF LPPT 051100Z 0512/0618 07007KT CAVOK ","updated":"2026-04-05T13:54:13Z"}
