{"icao":"LPMT","taf":"TAF LPMT 020508Z 0206/0306 19008KT 9999 SCT020 ","updated":"2026-05-02T10:50:16Z"}
