{"icao":"LPFR","taf":"TAF LPFR 050500Z 0506/0606 02007KT CAVOK ","updated":"2025-10-05T08:19:45Z"}
