{"icao":"LPMA","taf":"TAF LPMA 091700Z 0918/1018 02010KT 9999 SCT015 SCT030 ","updated":"2025-11-10T04:26:12Z"}
