{"icao":"LPLA","taf":"TAF LPLA 131101Z 1312/1412 VRB05KT 9999 FEW025 SCT035 ","updated":"2026-01-13T14:24:21Z"}
