{"icao":"LPPT","taf":"TAF LPPT 301100Z 3012/3118 21012KT 9999 SCT018 SCT035 ","updated":"2025-10-30T12:37:59Z"}
