{"icao":"KLAX","taf":"TAF KLAX 191722Z 1918/2024 12010KT 5SM -RA BR BKN025 OVC050 ","updated":"2026-02-19T17:49:27Z"}
