{"icao":"KORD","taf":"TAF KORD 260520Z 2606/2712 26018G30KT P6SM SCT015 OVC035 ","updated":"2025-11-26T06:29:32Z"}
