{"icao":"LPPT","taf":"TAF LPPT 050500Z 0506/0612 VRB02KT CAVOK ","updated":"2026-04-05T09:37:21Z"}
