{"icao":"LPFR","taf":"TAF LPFR 011707Z 0118/0218 26010KT CAVOK ","updated":"2026-05-02T02:36:11Z"}
