{"icao":"LPFR","taf":"TAF LPFR 161700Z 1618/1718 24010KT 9999 SCT015 ","updated":"2026-02-17T04:50:21Z"}
