{"icao":"LPPR","taf":"TAF LPPR 041700Z 0418/0518 31007KT CAVOK ","updated":"2026-04-04T21:29:58Z"}
