{"icao":"LPPS","taf":"TAF LPPS 201700Z 2018/2124 VRB05KT 9999 SCT013 BKN030 ","updated":"2025-10-20T20:21:15Z"}
