{"icao":"LPOV","taf":"TAF LPOV 291110Z 2912/3012 18005KT 9999 FEW018 SCT030 ","updated":"2025-10-29T12:39:13Z"}
