{"icao":"LPMR","taf":"TAF COR TAF COR LPMR 070741Z 0706/0806 21005KT 1200 BR SCT008 PROB40 0706/0709 0400 FG BKN002 ","updated":"2026-06-07T07:53:22Z"}
