{"icao":"LPPT","taf":"TAF TAF LPPT 281100Z 2812/2918 17012KT 9999 SCT006 BKN015 ","updated":"2025-10-28T15:20:11Z"}
