{"icao":"LPLA","taf":"TAF LPLA 301701Z 3018/0118 VRB05KT 9999 SCT020 BKN030 ","updated":"2025-11-30T20:20:11Z"}
