{"icao":"LPAZ","taf":"TAF LPAZ 231100Z 2312/2418 19018KT 9999 SCT012 BKN025 ","updated":"2026-02-23T16:56:15Z"}
