{"icao":"LPBJ","taf":"TAF TAF LPBJ 140512Z 1406/1506 30005KT 0100 FG SCT002 PROB40 1406/1408 BKN002 ","updated":"2026-05-14T09:33:05Z"}
