{"icao":"LPAZ","taf":"TAF LPAZ 181700Z 1818/1924 31012KT 9999 SCT015 ","updated":"2025-11-19T04:22:29Z"}
