{"icao":"LPAZ","taf":"TAF TAF LPAZ 231700Z 2318/2424 02010KT 9999 SCT006 SCT012 ","updated":"2026-06-23T22:11:19Z"}
