{"icao":"LPPR","taf":"TAF COR LPPR 270000Z 2700/2724 20030G48KT 2000 RADZ BR SCT002 BKN004 ","updated":"2026-01-27T01:47:40Z"}
