{"icao":"KORD","taf":"TAF KORD 090530Z 0906/1012 20015G25KT 6SM -SHRA SCT080 BKN100 WS020/21055KT ","updated":"2026-04-09T07:20:40Z"}
