{"icao":"LPMT","taf":"TAF LPMT 080510Z 0806/0906 36007KT CAVOK PROB30 ","updated":"2025-10-08T06:27:10Z"}
