{"icao":"KORD","taf":"TAF KORD 290529Z 2906/3012 18004KT P6SM SCT035 BKN150 ","updated":"2025-11-29T07:16:57Z"}
