{"icao":"LPMR","taf":"TAF TAF LPMR 080508Z 0806/0906 17005KT 9999 FEW020 BKN030 ","updated":"2026-01-08T07:23:25Z"}
