{"icao":"LPBJ","taf":"TAF TAF LPBJ 181100Z 1812/1912 14005KT CAVOK PROB40 1817/1820 28012KT ","updated":"2025-09-18T16:21:10Z"}
