{"icao":"LPPS","taf":"TAF LPPS 130500Z 1306/1412 VRB05KT 9999 FEW015 ","updated":"2025-10-13T08:26:12Z"}
