{"icao":"LPPT","taf":"TAF LPPT 210500Z 2106/2212 23008KT 8000 SCT004 BKN008 ","updated":"2025-10-21T08:25:33Z"}
