{"icao":"LPOV","taf":"TAF LPOV 011101Z 0112/0212 02008KT CAVOK ","updated":"2026-04-01T15:02:31Z"}
