{"icao":"LPMT","taf":"TAF LPMT 060504Z 0606/0706 20005KT 9999 SCT045 PROB30 0700/0706 2500 -DZ BR BKN004","updated":"2025-12-06T08:22:57Z"}
