{"icao":"KORD","taf":"TAF KORD 031120Z 0312/0418 22008KT P6SM FEW070 ","updated":"2025-10-03T14:16:47Z"}
