{"icao":"LPBJ","taf":"TAF TAF LPBJ 141702Z 1418/1518 28005KT CAVOK PROB40 1504/1508 3000 BCFG BKN004 ","updated":"2026-06-14T22:07:31Z"}
