{"icao":"LPAZ","taf":"TAF LPAZ 211100Z 2112/2218 28018KT 9999 SCT006 SCT012 ","updated":"2026-01-21T16:43:05Z"}
