{"icao":"KLAX","taf":"TAF KLAX 220529Z 2206/2312 VRB03KT P6SM SCT250 ","updated":"2026-02-22T07:34:43Z"}
