{"icao":"LPPT","taf":"TAF LPPT 011700Z 0118/0224 31012KT CAVOK ","updated":"2025-10-02T04:19:54Z"}
