{"icao":"LPMR","taf":"TAF TAF LPMR 141104Z 1412/1512 34005KT CAVOK PROB30 ","updated":"2025-10-14T15:20:07Z"}
