{"icao":"LPFR","taf":"TAF LPFR 251100Z 2512/2612 34010KT CAVOK PROB30 ","updated":"2025-11-25T13:33:01Z"}
