{"icao":"KORD","taf":"TAF KORD 291120Z 2912/3018 07012G21KT P6SM SCT250 ","updated":"2025-10-29T12:39:45Z"}
