{"icao":"KJFK","taf":"TAF KJFK 210520Z 2106/2212 35009KT P6SM SKC ","updated":"2026-04-21T05:26:18Z"}
