{"icao":"KJFK","taf":"TAF KJFK 171127Z 1712/1818 32007KT P6SM SCT070 BKN100 ","updated":"2026-04-17T13:17:10Z"}
