{"icao":"LPMT","taf":"TAF TAF LPMT 130512Z 1306/1406 29015KT 9999 SCT020 ","updated":"2026-02-13T05:58:24Z"}
