{"icao":"KORD","taf":"TAF KORD 131120Z 1312/1418 17007KT P6SM FEW250 ","updated":"2026-02-13T14:03:08Z"}
