{"icao":"KORD","taf":"TAF KORD 151122Z 1512/1618 23016G26KT P6SM BKN150 BKN250 ","updated":"2025-11-15T14:15:59Z"}
