{"icao":"LPMT","taf":"TAF TAF LPMT 220505Z 2206/2306 02005KT CAVOK PROB40 2302/2306 0600 FG BKN002","updated":"2026-02-22T08:30:16Z"}
