{"icao":"LPMT","taf":"TAF LPMT 030501Z 0306/0406 14012KT 9999 FEW015 BKN035 ","updated":"2026-01-03T06:29:23Z"}
