{"icao":"LPMT","taf":"TAF LPMT 250507Z 2506/2606 33005KT CAVOK ","updated":"2026-04-25T07:13:40Z"}
