{"icao":"LPPD","taf":"TAF LPPD 080500Z 0806/0906 11008KT 9999 SCT015 ","updated":"2025-10-08T05:17:21Z"}
