{"icao":"LPPD","taf":"TAF LPPD 041100Z 0412/0512 29023KT 9999 SCT018 SCT030 ","updated":"2025-11-04T13:32:34Z"}
