{"icao":"LPBJ","taf":"TAF LPBJ 300528Z 3006/0106 34012KT 7000 BCFG SCT003 SCT020 PROB30 3006/3008 0800 FG ","updated":"2025-11-30T07:16:26Z"}
