{"icao":"LPAZ","taf":"TAF TAF LPAZ 080500Z 0806/0912 13008KT 9999 SCT012 ","updated":"2025-10-08T10:18:14Z"}
