{"icao":"LPMA","taf":"TAF LPMA 141700Z 1418/1518 34012KT 9999 FEW015 ","updated":"2026-06-14T22:08:30Z"}
