{"icao":"LPBJ","taf":"TAF TAF LPBJ 111709Z 1118/1218 29015KT CAVOK ","updated":"2026-06-11T21:18:53Z"}
