{"icao":"LPBJ","taf":"TAF TAF LPBJ 251702Z 2518/2618 26007KT CAVOK PROB30 ","updated":"2025-09-25T23:15:42Z"}
