{"icao":"LPFR","taf":"TAF LPFR 210500Z 2106/2206 24015KT 9999 SCT012 BKN025 ","updated":"2026-01-21T07:27:18Z"}
