{"icao":"KORD","taf":"TAF KORD 300520Z 3006/0112 29003KT P6SM SCT070 ","updated":"2026-04-30T08:28:14Z"}
