{"icao":"KORD","taf":"TAF KORD 181720Z 1818/1924 29017G28KT P6SM SCT025 BKN035 ","updated":"2026-04-18T18:50:10Z"}
