{"icao":"KJFK","taf":"TAF KJFK 071720Z 0718/0824 30023G34KT P6SM SCT070 ","updated":"2026-04-07T19:17:15Z"}
