{"icao":"KJFK","taf":"TAF KJFK 021730Z 0218/0324 16007KT P6SM BKN250 ","updated":"2026-03-02T17:43:48Z"}
