{"icao":"LPPR","taf":"TAF LPPR 041100Z 0412/0512 30012KT 9999 SCT025 ","updated":"2026-05-04T11:46:54Z"}
