{"icao":"LPOV","taf":"TAF LPOV 221702Z 2218/2318 20012KT 9999 SCT008 BKN015 ","updated":"2025-10-22T19:13:43Z"}
