{"icao":"LPPD","taf":"TAF LPPD 100500Z 1006/1106 22015KT 9999 SCT015 SCT030 PROB30 ","updated":"2026-01-10T08:25:32Z"}
