{"icao":"LPMT","taf":"TAF LPMT 050502Z 0506/0606 34010KT CAVOK ","updated":"2026-06-05T05:15:03Z"}
