{"icao":"LPFR","taf":"TAF LPFR 091700Z 0918/1018 31015KT 9999 SCT030 ","updated":"2026-03-09T23:26:43Z"}
