{"icao":"KJFK","taf":"TAF KJFK 201737Z 2018/2124 12010KT P6SM FEW050 ","updated":"2025-09-20T19:11:24Z"}
