{"icao":"LPAR","taf":"TAF LPAR 101406Z 1015/1024 VRB02KT 9999 FEW030 ","updated":"2026-04-22T22:45:35Z"}
