{"icao":"LPPD","taf":"TAF LPPD 171100Z 1712/1812 21005KT 9999 SCT018 ","updated":"2025-10-17T12:36:55Z"}
