{"icao":"LPPR","taf":"TAF LPPR 011700Z 0118/0218 33010KT CAVOK ","updated":"2026-04-01T20:56:10Z"}
