{"icao":"LPOV","taf":"TAF LPOV 211100Z 2112/2212 22010KT 9999 SCT008 BKN030 ","updated":"2025-10-21T16:23:49Z"}
