{"icao":"LPBJ","taf":"TAF TAF LPBJ 271707Z 2718/2818 14005KT CAVOK ","updated":"2026-05-27T19:23:06Z"}
