{"icao":"LPFR","taf":"TAF LPFR 011700Z 0118/0218 22008KT 9999 SCT025 ","updated":"2025-11-01T20:17:11Z"}
