{"icao":"KJFK","taf":"TAF KJFK 161720Z 1618/1724 33019G29KT P6SM SKC ","updated":"2025-10-16T19:12:55Z"}
