{"icao":"KJFK","taf":"TAF KJFK 051730Z 0518/0624 18008KT P6SM SKC ","updated":"2025-10-05T19:12:37Z"}
