{"icao":"LPPS","taf":"TAF LPPS 071700Z 0718/0824 27018KT 9999 SCT015 PROB30 ","updated":"2026-02-07T22:24:41Z"}
