{"icao":"KJFK","taf":"TAF KJFK 270526Z 2706/2812 22006KT P6SM SCT200 BKN250 ","updated":"2026-05-27T08:02:10Z"}
