{"icao":"LPPR","taf":"TAF LPPR 221100Z 2212/2312 19015KT 6000 -RA SCT008 BKN015 ","updated":"2026-01-22T12:47:05Z"}
