{"icao":"KLAX","taf":"TAF KLAX 211124Z 2112/2218 VRB03KT P6SM SKC ","updated":"2026-03-21T13:41:07Z"}
