{"icao":"KJFK","taf":"TAF KJFK 160520Z 1606/1712 26011KT P6SM FEW080 BKN100 BKN250 ","updated":"2025-12-16T08:28:36Z"}
