{"icao":"LPOV","taf":"TAF LPOV 160504Z 1606/1706 VRB02KT 8000 BKN005 PROB40 1606/1609 0200 FG BKN002 ","updated":"2026-06-16T09:30:30Z"}
