{"icao":"LPPR","taf":"TAF LPPR 220500Z 2206/2306 VRB02KT 5000 BR SCT003 ","updated":"2026-06-22T06:27:35Z"}
