{"icao":"LPAZ","taf":"TAF LPAZ 081100Z 0812/0918 22025KT 8000 SCT008 BKN015 ","updated":"2025-12-08T14:20:53Z"}
