{"icao":"LPAZ","taf":"TAF TAF LPAZ 191100Z 1912/2018 19012KT 9999 SCT015 SCT030 PROB30 ","updated":"2026-02-19T14:48:16Z"}
