{"icao":"KLAX","taf":"TAF KLAX 251720Z 2518/2624 25008KT P6SM FEW025 ","updated":"2026-05-25T18:24:42Z"}
