{"icao":"LPMA","taf":"TAF LPMA 021700Z 0218/0318 01018KT 9999 SCT015 ","updated":"2026-06-02T18:38:03Z"}
