{"icao":"KLAX","taf":"TAF KLAX 191153Z 1912/2018 08004KT P6SM SKC ","updated":"2026-03-19T14:45:23Z"}
