{"icao":"KORD","taf":"TAF KORD 271120Z 2712/2818 02014G22KT P6SM BKN020 ","updated":"2026-03-27T13:04:19Z"}
