{"icao":"LPMA","taf":"TAF LPMA 231100Z 2312/2412 02010KT 9999 SCT015 SCT030 ","updated":"2025-10-23T12:38:55Z"}
