{"icao":"KJFK","taf":"TAF KJFK 071739Z 0718/0824 31016G24KT P6SM SCT060 BKN100 ","updated":"2026-06-07T18:02:53Z"}
