{"icao":"LPBJ","taf":"TAF TAF LPBJ 171709Z 1718/1818 VRB02KT CAVOK PROB40 1718/1721 27012KT ","updated":"2025-09-17T22:14:52Z"}
