{"icao":"LPPT","taf":"TAF LPPT 250500Z 2506/2612 03005KT CAVOK ","updated":"2025-09-25T07:17:26Z"}
