{"icao":"LPMR","taf":"TAF TAF LPMR 131103Z 1312/1412 34005KT FEW025 ","updated":"2025-10-13T11:15:12Z"}
