{"icao":"LPPD","taf":"TAF LPPD 201700Z 2018/2118 27015KT 9999 SCT012 BKN020 ","updated":"2026-01-20T20:11:06Z"}
