{"icao":"KLAX","taf":"TAF KLAX 081726Z 0818/0924 26007KT P6SM BKN018 ","updated":"2025-10-08T18:27:08Z"}
