{"icao":"KJFK","taf":"TAF KJFK 140520Z 1406/1512 26008KT P6SM BKN090 PROB30 1408/1412 3SM -SHSN BR BKN030 OVC060 ","updated":"2026-02-14T07:32:57Z"}
