{"icao":"LPPR","taf":"TAF LPPR 300500Z 3006/3106 21010KT 9999 SCT025 ","updated":"2026-01-30T10:32:28Z"}
