{"icao":"LPMA","taf":"TAF LPMA 230500Z 2306/2406 02015KT 9999 SCT015 ","updated":"2026-03-23T07:08:32Z"}
