{"icao":"LPBJ","taf":"TAF TAF LPBJ 160505Z 1606/1706 07010KT CAVOK","updated":"2026-03-16T08:55:08Z"}
