{"icao":"LPOV","taf":"TAF LPOV 121707Z 1218/1318 19015KT 5000 -RA SCT010 BKN018 ","updated":"2026-02-12T17:57:10Z"}
