{"icao":"LPPR","taf":"TAF LPPR 311700Z 3118/0118 20012KT 8000 -RA SCT008 BKN015 ","updated":"2025-10-31T18:26:34Z"}
