{"icao":"KLAX","taf":"TAF KLAX 131125Z 1312/1418 VRB03KT 1SM BR OVC004 ","updated":"2025-12-13T12:36:53Z"}
