{"icao":"KORD","taf":"TAF KORD 290523Z 2906/3012 08012G20KT P6SM SCT050 BKN250 ","updated":"2025-10-29T07:18:02Z"}
