{"icao":"KORD","taf":"TAF KORD 231128Z 2312/2418 31014G24KT P6SM SCT020 ","updated":"2026-01-23T14:24:39Z"}
