{"icao":"LPPS","taf":"TAF LPPS 101100Z 1012/1118 02008KT 9999 SCT015 SCT030 PROB30 1100/1118 6000 -RA BKN012","updated":"2026-01-10T12:37:56Z"}
