{"icao":"LPOV","taf":"TAF LPOV 031709Z 0318/0418 26008KT 9999 SCT018 SCT030 ","updated":"2026-02-03T17:51:43Z"}
