{"icao":"KLAX","taf":"TAF KLAX 080524Z 0806/0912 25005KT P6SM BKN008 ","updated":"2026-05-08T07:28:35Z"}
