{"icao":"LPOV","taf":"TAF LPOV 171711Z 1718/1818 06005KT 9999 FEW020 ","updated":"2026-01-18T04:40:14Z"}
