{"icao":"KLAX","taf":"TAF KLAX 121138Z 1212/1318 15006KT P6SM SCT015 BKN030 BKN070 ","updated":"2026-04-12T12:59:28Z"}
