{"icao":"LPMR","taf":"TAF TAF LPMR 191700Z 1918/2018 33012KT CAVOK ","updated":"2026-06-20T00:08:34Z"}
