{"icao":"LPMR","taf":"TAF TAF LPMR 131104Z 1312/1412 31008KT 9999 SCT025 PROB40 ","updated":"2026-05-13T13:09:57Z"}
