{"icao":"LPPS","taf":"TAF LPPS 231700Z 2318/2424 04007KT 9999 SCT015 BKN030 ","updated":"2025-10-24T17:16:34Z"}
