{"icao":"LPMR","taf":"TAF TAF LPMR 191700Z 1918/2018 33012KT CAVOK ","updated":"2026-06-19T22:58:22Z"}
