{"icao":"LPFR","taf":"TAF LPFR 061100Z 0612/0712 36013KT CAVOK ","updated":"2026-01-06T11:18:08Z"}
