{"icao":"LPAZ","taf":"TAF TAF LPAZ 251100Z 2512/2618 VRB05KT 9999 SCT025 ","updated":"2025-11-25T12:39:46Z"}
