{"icao":"LPBJ","taf":"TAF TAF LPBJ 070503Z 0706/0806 VRB02KT CAVOK ","updated":"2025-10-07T10:18:42Z"}
