{"icao":"LPOV","taf":"TAF LPOV 261104Z 2612/2712 06010KT CAVOK ","updated":"2026-03-26T15:02:26Z"}
