{"icao":"LPMA","taf":"TAF LPMA 070500Z 0706/0806 02010KT 9999 SCT015 ","updated":"2026-06-07T10:27:41Z"}
