{"icao":"KORD","taf":"TAF KORD 090302Z 0903/1006 06012KT 5SM -RA BR SCT009 OVC015 ","updated":"2025-11-09T05:16:53Z"}
