{"icao":"KORD","taf":"TAF KORD 051724Z 0518/0624 03007KT 1SM -DZ BR OVC004 ","updated":"2026-03-05T18:02:27Z"}
