{"icao":"KLAX","taf":"TAF KLAX 261120Z 2612/2718 VRB03KT P6SM BKN250 ","updated":"2026-02-26T13:03:22Z"}
