{"icao":"KJFK","taf":"TAF KJFK 211122Z 2112/2218 32008KT P6SM FEW025 BKN050 ","updated":"2026-03-21T14:25:48Z"}
