{"icao":"KORD","taf":"TAF KORD 230520Z 2306/2412 33014G24KT P6SM -SN SCT025 BKN035 ","updated":"2026-02-23T08:50:23Z"}
