{"icao":"KORD","taf":"TAF KORD 200520Z 2006/2112 VRB03KT P6SM SKC ","updated":"2026-04-20T08:04:50Z"}
