{"icao":"LPMT","taf":"TAF LPMT 091706Z 0918/1018 34010KT CAVOK ","updated":"2026-06-09T22:23:04Z"}
