{"icao":"KLAX","taf":"TAF KLAX 211720Z 2118/2224 08006KT 3SM BR SCT008 OVC120 ","updated":"2026-01-21T19:25:28Z"}
