{"icao":"LPPS","taf":"TAF LPPS 170500Z 1706/1812 33013KT 9999 FEW015 BKN030 ","updated":"2025-11-17T06:29:51Z"}
