{"icao":"LPFR","taf":"TAF LPFR 201700Z 2018/2118 25007KT CAVOK ","updated":"2026-02-20T17:36:10Z"}
