{"icao":"KLAX","taf":"TAF KLAX 191133Z 1912/2018 05004KT P6SM SCT100 BKN150 ","updated":"2026-02-19T11:37:40Z"}
