{"icao":"LPOV","taf":"TAF LPOV 141706Z 1418/1518 32012KT 9999 SCT005 SCT015 PROB40 ","updated":"2026-03-14T21:25:24Z"}
