{"icao":"LPLA","taf":"TAF LPLA 050502Z 0506/0606 04006KT 9999 FEW025 BKN040 PROB30 ","updated":"2026-05-05T08:07:09Z"}
