{"icao":"KLAX","taf":"TAF KLAX 120523Z 1206/1312 VRB03KT P6SM SKC ","updated":"2026-01-12T08:31:17Z"}
