{"icao":"KLAX","taf":"TAF KLAX 141730Z 1418/1524 VRB05KT P6SM SCT015 SCT250 ","updated":"2026-02-14T18:33:14Z"}
