{"icao":"LPPT","taf":"TAF LPPT 221100Z 2212/2318 07007KT CAVOK ","updated":"2026-05-22T13:30:21Z"}
