{"icao":"LPMR","taf":"TAF TAF LPMR 301702Z 3018/0118 30005KT 9999 FEW025 ","updated":"2026-04-30T20:58:47Z"}
