{"icao":"LPBJ","taf":"TAF TAF LPBJ 080505Z 0806/0906 33008KT CAVOK PROB30 0806/0808 3000 BCFG SCT002 ","updated":"2026-03-08T05:41:41Z"}
