{"icao":"KJFK","taf":"TAF KJFK 260534Z 2606/2712 36010KT 5SM -SNPL SCT006 OVC015 ","updated":"2026-01-26T06:36:01Z"}
