{"icao":"KJFK","taf":"TAF KJFK 251121Z 2512/2618 VRB03KT P6SM FEW080 FEW250 ","updated":"2026-06-25T12:19:39Z"}
