{"icao":"LPPD","taf":"TAF LPPD 161100Z 1612/1712 VRB05KT 9999 FEW020 BKN035 ","updated":"2025-11-16T15:16:42Z"}
