{"icao":"KORD","taf":"TAF KORD 031126Z 0312/0418 26010KT P6SM SCT006 BKN015 ","updated":"2026-04-03T13:01:19Z"}
