{"icao":"KLAX","taf":"TAF KLAX 031723Z 0318/0424 25006KT P6SM SCT015 SCT250 ","updated":"2026-06-03T18:21:31Z"}
