{"icao":"LPBJ","taf":"TAF TAF LPBJ 041117Z 0412/0512 16012KT 9999 SCT030 ","updated":"2025-11-04T14:19:03Z"}
