{"icao":"LPLA","taf":"TAF COR LPLA 101103Z 1012/1112 21025G35KT 8000 -RA SCT015 BKN028 ","updated":"2025-12-10T14:21:04Z"}
