{"icao":"KORD","taf":"TAF KORD 221725Z 2218/2324 02012G18KT P6SM FEW040 SCT250 ","updated":"2026-06-22T20:45:42Z"}
