{"icao":"KJFK","taf":"TAF KJFK 180527Z 1806/1912 36006KT P6SM SCT250 ","updated":"2025-10-18T07:15:46Z"}
