{"icao":"LPFR","taf":"TAF TAF LPFR 171700Z 1718/1818 12007KT CAVOK ","updated":"2026-04-18T05:05:05Z"}
