{"icao":"LPMR","taf":"TAF LPMR 311715Z 3118/0118 33015KT CAVOK ","updated":"2026-06-01T00:04:30Z"}
