{"icao":"LPPT","taf":"TAF LPPT 031100Z 0312/0418 10010KT 9999 SCT012 SCT018 ","updated":"2026-01-03T12:37:20Z"}
