{"icao":"LPAR","taf":"TAF LPAR 121405Z 1215/1224 25010KT 7000 BKN020 ","updated":"2026-02-12T22:31:26Z"}
