{"icao":"KORD","taf":"TAF KORD 180540Z 1806/1912 19014G24KT P6SM SCT060 BKN100 ","updated":"2026-05-18T08:01:50Z"}
