{"icao":"KORD","taf":"TAF KORD 121120Z 1212/1318 24010KT P6SM SKC ","updated":"2026-06-12T12:17:51Z"}
