{"icao":"KLAX","taf":"TAF KLAX 180522Z 1806/1912 VRB03KT P6SM BKN250 ","updated":"2026-01-18T06:29:41Z"}
