{"icao":"LPPS","taf":"TAF LPPS 131700Z 1318/1424 10010KT 9999 FEW015 ","updated":"2025-10-13T21:15:18Z"}
