{"icao":"LPLA","taf":"TAF LPLA 211104Z 2112/2212 20008KT 8000 -RA SCT012 BKN020 ","updated":"2026-02-21T11:20:54Z"}
