{"icao":"LPOV","taf":"TAF LPOV 281101Z 2812/2912 01010KT 9999 FEW030 PROB30 ","updated":"2025-09-28T14:13:43Z"}
