{"icao":"LPOV","taf":"TAF LPOV 070506Z 0706/0806 16010KT 9999 FEW020 SCT030 ","updated":"2026-02-07T05:40:34Z"}
