{"icao":"LPFR","taf":"TAF LPFR 071700Z 0718/0818 26012KT 9999 SCT035 ","updated":"2026-04-08T02:22:31Z"}
