{"icao":"LPFR","taf":"TAF LPFR 190500Z 1906/2006 33005KT CAVOK ","updated":"2026-01-19T09:32:52Z"}
