{"icao":"LPLA","taf":"TAF LPLA 240507Z 2406/2506 31020KT 9999 FEW018 SCT035 ","updated":"2026-02-24T05:57:49Z"}
