{"icao":"KLAX","taf":"TAF KLAX 261720Z 2618/2724 35004KT 4SM HZ SCT012 BKN120 ","updated":"2026-03-26T18:04:30Z"}
