{"icao":"LPAZ","taf":"TAF TAF LPAZ 230500Z 2306/2412 21010KT 9999 SCT015 ","updated":"2025-10-23T09:19:47Z"}
