{"icao":"KJFK","taf":"TAF KJFK 080536Z 0806/0912 17009KT 2SM BR OVC004 WS020/24045KT ","updated":"2026-03-08T05:41:58Z"}
