{"icao":"LPMT","taf":"TAF LPMT 271101Z 2712/2812 02010KT CAVOK","updated":"2026-03-27T14:48:38Z"}
