{"icao":"KLAX","taf":"TAF KLAX 131125Z 1312/1418 VRB03KT P6SM SKC ","updated":"2026-03-13T11:30:26Z"}
