{"icao":"KORD","taf":"TAF KORD 081120Z 0812/0918 35008KT P6SM FEW035 ","updated":"2025-10-08T12:37:30Z"}
