{"icao":"LPBJ","taf":"TAF LPBJ 010504Z 0106/0206 17010KT 9999 SCT045 ","updated":"2025-11-01T05:16:34Z"}
