{"icao":"LPBJ","taf":"TAF TAF LPBJ 040505Z 0406/0506 16010KT CAVOK PROB30 0406/0409 4000 BCFG BKN004 ","updated":"2025-11-04T07:18:24Z"}
