{"icao":"LPMR","taf":"TAF TAF LPMR 250502Z 2506/2606 21008KT 9000 SCT008 BKN025 ","updated":"2025-10-25T06:23:53Z"}
