{"icao":"LPLA","taf":"TAF LPLA 201704Z 2018/2118 20018G32KT 9999 FEW015 SCT025 PROB30 ","updated":"2026-02-20T20:30:12Z"}
