{"icao":"KORD","taf":"TAF KORD 220528Z 2206/2312 21012KT P6SM BKN300 WS015/24050KT ","updated":"2026-03-22T05:52:58Z"}
