{"icao":"KJFK","taf":"TAF KJFK 060523Z 0606/0712 07010KT 4SM RA BR OVC008 ","updated":"2026-03-06T06:45:59Z"}
