{"icao":"LPMT","taf":"TAF LPMT 031707Z 0318/0418 35008KT CAVOK ","updated":"2026-04-03T21:32:28Z"}
