{"icao":"LPPT","taf":"TAF LPPT 101100Z 1012/1118 06010KT CAVOK ","updated":"2025-10-10T12:36:37Z"}
