{"icao":"LPPT","taf":"TAF LPPT 200500Z 2006/2112 33005KT 9999 FEW015 PROB30 ","updated":"2025-09-20T10:16:10Z"}
