{"icao":"LPPT","taf":"TAF LPPT 040500Z 0406/0512 VRB05KT CAVOK ","updated":"2026-04-04T10:31:48Z"}
