{"icao":"LPPR","taf":"TAF LPPR 240500Z 2406/2506 25012KT 8000 SCT008 BKN015 ","updated":"2025-11-24T06:29:33Z"}
