{"icao":"KJFK","taf":"TAF KJFK 301723Z 3018/0124 18014KT P6SM SCT070 SCT250 ","updated":"2026-06-30T17:52:04Z"}
