{"icao":"LPLA","taf":"TAF LPLA 140508Z 1406/1506 VRB05KT 9999 FEW025 ","updated":"2026-02-14T05:43:02Z"}
