{"icao":"KORD","taf":"TAF KORD 010521Z 0106/0212 09009KT P6SM OVC300","updated":"2025-10-01T07:18:00Z"}
