{"icao":"KJFK","taf":"TAF KJFK 180531Z 1806/1912 30013G25KT P6SM SCT070 ","updated":"2026-03-18T07:51:43Z"}
