{"icao":"LPBJ","taf":"TAF TAF LPBJ 251104Z 2512/2612 28005KT 9999 SCT015 BKN025 ","updated":"2025-10-25T11:12:58Z"}
