{"icao":"LPAZ","taf":"TAF LPAZ 311700Z 3118/0124 22015KT 8000 SCT006 SCT012 ","updated":"2026-02-01T02:12:39Z"}
