{"icao":"LPPR","taf":"TAF LPPR 231700Z 2318/2418 VRB02KT CAVOK ","updated":"2026-02-23T23:33:14Z"}
