{"icao":"LPBJ","taf":"TAF TAF LPBJ 111108Z 1112/1212 04005KT 9999 FEW040 PROB30 1204/1209 2000 BCFG SCT004","updated":"2026-03-11T15:47:12Z"}
