{"icao":"KJFK","taf":"TAF KJFK 201126Z 2012/2118 28013G20KT P6SM SKC ","updated":"2026-01-20T13:45:58Z"}
