{"icao":"LPPT","taf":"TAF LPPT 301700Z 3018/0124 31010KT 9999 SCT035 ","updated":"2026-04-30T17:19:08Z"}
