{"icao":"LPAZ","taf":"TAF TAF LPAZ 010500Z 0106/0212 27007KT 2000 BR SCT001 BKN003 ","updated":"2026-06-01T06:01:17Z"}
