{"icao":"KJFK","taf":"TAF KJFK 151139Z 1512/1618 24007KT P6SM FEW120 BKN250 ","updated":"2026-04-15T13:53:15Z"}
