{"icao":"LPPS","taf":"TAF LPPS 120500Z 1206/1312 VRB05KT 9999 FEW015 BKN030 ","updated":"2025-10-12T08:20:25Z"}
