{"icao":"KORD","taf":"TAF KORD 021734Z 0218/0324 17015G25KT P6SM VCSH SCT008 BKN015 ","updated":"2026-04-02T20:34:12Z"}
