{"icao":"LPPD","taf":"TAF LPPD 191700Z 1918/2018 VRB05KT 9999 SCT035 ","updated":"2026-01-19T21:18:59Z"}
