{"icao":"LPPD","taf":"TAF LPPD 110500Z 1106/1206 30020KT 9999 SCT020 ","updated":"2025-11-11T07:18:22Z"}
