{"icao":"KORD","taf":"TAF KORD 261120Z 2612/2718 VRB03KT P6SM SCT100 ","updated":"2026-02-26T11:38:45Z"}
