{"icao":"LPMR","taf":"TAF TAF LPMR 301105Z 3012/0112 15005KT 9999 FEW020 BKN040 ","updated":"2026-04-30T12:13:59Z"}
