{"icao":"LPPD","taf":"TAF LPPD 031700Z 0318/0418 03013KT 9999 SCT025 ","updated":"2026-05-03T23:42:46Z"}
