{"icao":"LPMA","taf":"TAF LPMA 301700Z 3018/3118 VRB05KT 9999 SCT015 ","updated":"2025-10-30T22:17:49Z"}
