{"icao":"LPPT","taf":"TAF LPPT 270500Z 2706/2812 26012KT 9999 SCT020 ","updated":"2026-01-27T08:31:55Z"}
