{"icao":"LPFR","taf":"TAF LPFR 231700Z 2318/2418 26015KT CAVOK ","updated":"2026-04-24T02:32:50Z"}
