{"icao":"LPBJ","taf":"TAF TAF LPBJ 261703Z 2618/2718 08008KT CAVOK ","updated":"2026-04-26T21:36:38Z"}
