{"icao":"LPPR","taf":"TAF LPPR 100500Z 1006/1106 15010KT 9999 SCT020 ","updated":"2026-05-10T08:52:18Z"}
