{"icao":"LPMR","taf":"TAF TAF LPMR 271101Z 2712/2812 VRB02KT 9999 SCT012 BKN025 ","updated":"2026-02-27T15:36:24Z"}
