{"icao":"KORD","taf":"TAF KORD 131122Z 1312/1418 24014G22KT P6SM BKN100 OVC200 ","updated":"2026-01-13T14:24:35Z"}
