{"icao":"LPAZ","taf":"TAF TAF LPAZ 131700Z 1318/1424 VRB05KT 9999 SCT018 SCT045 ","updated":"2025-10-13T21:15:17Z"}
