{"icao":"KLAX","taf":"TAF KLAX 041741Z 0418/0524 25014KT P6SM FEW025 BKN150 ","updated":"2026-05-04T20:13:27Z"}
