{"icao":"KLAX","taf":"TAF KLAX 290551Z 2906/3012 VRB03KT P6SM SKC ","updated":"2025-12-29T09:29:05Z"}
