{"icao":"LPLA","taf":"TAF LPLA 071700Z 0718/0818 21012KT 9999 SCT040 ","updated":"2025-11-08T01:19:44Z"}
