{"icao":"LPMR","taf":"TAF TAF LPMR 021700Z 0218/0318 35012KT CAVOK ","updated":"2026-04-03T02:10:54Z"}
