{"icao":"LPPD","taf":"TAF LPPD 220500Z 2206/2306 20010KT 9999 FEW015 BKN035 ","updated":"2026-02-22T07:34:41Z"}
