{"icao":"LPPS","taf":"TAF LPPS 301100Z 3012/3118 27013KT 9999 SCT013 BKN030 ","updated":"2026-01-30T13:55:04Z"}
