{"icao":"KJFK","taf":"TAF KJFK 231132Z 2312/2418 03010KT 5SM -RA BR BKN009 OVC012 ","updated":"2026-03-23T13:05:03Z"}
