{"icao":"LPMT","taf":"TAF LPMT 011104Z 0112/0212 22010KT 8000 -RA FEW012 BKN025 ","updated":"2026-02-01T13:41:45Z"}
