{"icao":"LPFR","taf":"TAF LPFR 030500Z 0306/0406 28013KT 9999 FEW015 SCT030 ","updated":"2026-02-03T06:50:06Z"}
