{"icao":"KORD","taf":"TAF KORD 141733Z 1418/1524 21012G22KT P6SM FEW025 BKN040 ","updated":"2026-04-14T19:13:30Z"}
