{"icao":"KJFK","taf":"TAF KJFK 281124Z 2812/2918 36014KT P6SM FEW070 ","updated":"2026-03-28T11:27:39Z"}
