{"icao":"LPST","taf":"TAF LPST 060805Z 0609/0618 34010KT 9999 FEW018 SCT025 PROB30 0609/0613 8000 -RA SCT016 ","updated":"2026-05-06T11:05:11Z"}
