{"icao":"KLAX","taf":"TAF KLAX 240539Z 2406/2512 25008KT P6SM OVC015 ","updated":"2026-05-24T09:23:40Z"}
