{"icao":"LPFR","taf":"TAF LPFR 200500Z 2006/2106 36005KT CAVOK ","updated":"2025-11-20T05:18:36Z"}
