{"icao":"LPMT","taf":"TAF LPMT 151706Z 1518/1618 34012KT 9999 SCT025","updated":"2026-05-15T23:00:31Z"}
