{"icao":"KJFK","taf":"TAF KJFK 010520Z 0106/0212 VRB06KT P6SM BKN090 ","updated":"2026-06-01T06:01:21Z"}
