{"icao":"LPPS","taf":"TAF LPPS 221700Z 2218/2324 30015KT 9999 SCT015 SCT030 ","updated":"2026-01-22T23:19:50Z"}
