{"icao":"KJFK","taf":"TAF KJFK 241721Z 2418/2524 VRB05KT P6SM FEW250 ","updated":"2026-03-24T17:54:51Z"}
