{"icao":"LPPD","taf":"TAF LPPD 140500Z 1406/1506 21018KT 9999 SCT008 BKN015 ","updated":"2026-04-14T05:22:10Z"}
