{"icao":"KORD","taf":"TAF KORD 051132Z 0512/0618 20010KT P6SM VCSH BKN070 OVC200 ","updated":"2026-06-05T12:36:03Z"}
