{"icao":"LPPT","taf":"TAF LPPT 251100Z 2512/2618 36007KT CAVOK ","updated":"2026-04-25T13:01:27Z"}
