{"icao":"LPPR","taf":"TAF LPPR 131700Z 1318/1418 18010KT 9999 SCT015 SCT030 ","updated":"2026-01-14T04:45:32Z"}
