{"icao":"KORD","taf":"TAF KORD 211120Z 2112/2218 28008KT P6SM BKN018 ","updated":"2026-02-21T14:24:57Z"}
