{"icao":"KJFK","taf":"TAF KJFK 220520Z 2206/2312 05005KT P6SM FEW035 SCT250 ","updated":"2025-09-22T07:18:27Z"}
