{"icao":"LPPR","taf":"TAF LPPR 131700Z 1318/1418 23007KT 9999 BKN040 ","updated":"2025-09-13T20:16:13Z"}
