{"icao":"LPBJ","taf":"TAF TAF LPBJ 141104Z 1412/1512 VRB05KT CAVOK ","updated":"2025-10-14T17:15:18Z"}
