{"icao":"KORD","taf":"TAF KORD 211740Z 2118/2224 29012KT P6SM OVC025 PROB30 2121/2202 3SM -SN OVC020 ","updated":"2026-02-21T20:23:59Z"}
