{"icao":"LPMR","taf":"TAF TAF LPMR 031707Z 0318/0418 33010KT CAVOK ","updated":"2026-04-03T21:32:28Z"}
