{"icao":"KORD","taf":"TAF KORD 291740Z 2918/3024 13012G20KT 3/4SM -SN BR OVC007 ","updated":"2025-11-29T18:25:29Z"}
