{"icao":"LPMT","taf":"TAF LPMT 271107Z 2712/2812 12005KT CAVOK ","updated":"2026-05-27T16:35:28Z"}
