{"icao":"KLAX","taf":"TAF KLAX 071721Z 0718/0824 25005KT P6SM SCT010 ","updated":"2026-05-07T18:22:49Z"}
