{"icao":"LPPT","taf":"TAF LPPT 150500Z 1506/1612 22013KT 9999 FEW015 SCT030 ","updated":"2025-11-15T05:17:11Z"}
