{"icao":"KLAX","taf":"TAF KLAX 150145Z 1502/1606 28006KT P6SM VCFG BKN003 ","updated":"2026-03-15T02:13:20Z"}
