{"icao":"LPAZ","taf":"TAF LPAZ 220900Z 2212/2318 27013KT 9999 FEW020 BKN030 ","updated":"2025-12-22T11:17:24Z"}
