{"icao":"KJFK","taf":"TAF KJFK 011731Z 0118/0224 35024G35KT P6SM FEW060 SCT150 BKN250 ","updated":"2026-02-01T20:25:56Z"}
