{"icao":"KJFK","taf":"TAF KJFK 060539Z 0606/0712 36006KT P6SM OVC025 PROB30 0606/0608 6SM -SN BR OVC015 ","updated":"2025-12-06T06:26:48Z"}
