{"icao":"LPPR","taf":"TAF LPPR 271700Z 2718/2818 32008KT CAVOK ","updated":"2026-05-27T21:53:04Z"}
