{"icao":"LPAZ","taf":"TAF TAF LPAZ 191100Z 1912/2018 03015KT 9999 SCT018 ","updated":"2025-09-19T13:26:20Z"}
