{"icao":"LPOV","taf":"TAF LPOV 020518Z 0206/0306 VRB02KT CAVOK PROB30 0206/0208 5000 BR BKN002 ","updated":"2025-10-02T13:25:12Z"}
