{"icao":"LPBJ","taf":"TAF TAF LPBJ 071706Z 0718/0818 24010KT 9999 SCT015 BKN022 ","updated":"2025-11-07T22:16:58Z"}
