{"icao":"LPOV","taf":"TAF LPOV 041103Z 0412/0512 VRB02KT CAVOK ","updated":"2026-04-04T15:30:31Z"}
