{"icao":"KORD","taf":"TAF KORD 010520Z 0106/0212 03013G22KT P6SM SCT015 OVC025 ","updated":"2026-03-01T06:43:45Z"}
