{"icao":"LPLA","taf":"TAF LPLA 151107Z 1512/1612 22015KT 9999 SCT020 ","updated":"2026-02-15T15:24:54Z"}
