{"icao":"LPBJ","taf":"TAF TAF LPBJ 251102Z 2512/2612 30005KT CAVOK ","updated":"2026-04-25T11:36:53Z"}
