{"icao":"LPPR","taf":"TAF LPPR 210500Z 2106/2206 09005KT 9999 FEW040 PROB30 ","updated":"2026-03-21T06:40:55Z"}
