{"icao":"LPFR","taf":"TAF LPFR 131700Z 1318/1418 19022KT 9999 SCT015 BKN030 ","updated":"2025-11-13T22:18:00Z"}
