{"icao":"LPLA","taf":"TAF LPLA 060506Z 0606/0706 30018KT 9999 SCT022 BKN035 ","updated":"2026-04-06T10:54:59Z"}
