{"icao":"LPOV","taf":"TAF LPOV 311708Z 3118/0118 35005KT CAVOK ","updated":"2026-01-01T04:46:49Z"}
