{"icao":"LPPR","taf":"TAF LPPR 121700Z 1218/1318 32008KT CAVOK ","updated":"2026-06-12T23:14:50Z"}
