{"icao":"LPMT","taf":"TAF LPMT 251703Z 2518/2618 27008KT CAVOK","updated":"2026-05-26T00:03:52Z"}
