{"icao":"LPPT","taf":"TAF LPPT 071700Z 0718/0824 31015KT CAVOK ","updated":"2026-06-08T00:05:13Z"}
