{"icao":"KJFK","taf":"TAF KJFK 281724Z 2818/2924 20008KT P6SM FEW035 FEW090 SCT250 ","updated":"2025-09-28T18:21:39Z"}
