{"icao":"LPPR","taf":"TAF LPPR 181700Z 1818/1918 18018KT 5000 -RA BR SCT012 BKN020 ","updated":"2025-12-18T20:19:21Z"}
