{"icao":"LPPS","taf":"TAF LPPS 261700Z 2618/2724 22013KT 9999 SCT015 ","updated":"2025-10-26T20:19:21Z"}
