{"icao":"LPPS","taf":"TAF LPPS 310500Z 3106/0112 22010KT 9999 FEW015 SCT030 ","updated":"2025-10-31T06:27:39Z"}
