{"icao":"KLAX","taf":"TAF KLAX 020527Z 0206/0312 VRB03KT 5SM BR SKC ","updated":"2025-12-02T06:31:28Z"}
