{"icao":"LPAZ","taf":"TAF LPAZ 081100Z 0812/0918 05018KT 6000 SCT007 BKN011 ","updated":"2026-03-08T14:24:03Z"}
