{"icao":"LPMA","taf":"TAF LPMA 080500Z 0806/0906 33013KT 9999 SCT015 ","updated":"2026-04-08T07:17:55Z"}
