{"icao":"KLAX","taf":"TAF KLAX 210534Z 2106/2212 08004KT 6SM BR FEW005 BKN250 ","updated":"2026-01-21T07:27:37Z"}
