{"icao":"LPMR","taf":"TAF TAF LPMR 200502Z 2006/2106 33005KT 9999 BKN009 PROB30 2006/2008 3000 BR BKN006 ","updated":"2026-06-20T08:52:58Z"}
