{"icao":"LPPR","taf":"TAF LPPR 301100Z 3012/0112 32005KT CAVOK ","updated":"2026-06-30T15:25:15Z"}
