{"icao":"LPPT","taf":"TAF LPPT 251100Z 2512/2618 23008KT CAVOK ","updated":"2026-05-25T16:26:01Z"}
