{"icao":"KORD","taf":"TAF KORD 280526Z 2806/2912 04007KT P6SM FEW250 ","updated":"2026-05-28T07:56:00Z"}
