{"icao":"LPAZ","taf":"TAF TAF LPAZ 251100Z 2512/2618 19008KT 9999 SCT006 SCT012 ","updated":"2026-04-25T11:36:54Z"}
