{"icao":"LPPR","taf":"TAF LPPR 281100Z 2812/2912 35013KT 9999 FEW025 ","updated":"2026-06-28T16:08:32Z"}
