{"icao":"LPPR","taf":"TAF LPPR 281100Z 2812/0112 33013KT CAVOK ","updated":"2026-02-28T11:17:43Z"}
