{"icao":"LPBJ","taf":"TAF TAF LPBJ 240507Z 2406/2506 31005KT 9999 SCT006 PROB40 2406/2409 0500 FG BKN001 ","updated":"2025-12-24T08:28:16Z"}
