{"icao":"KLAX","taf":"TAF KLAX 230525Z 2306/2412 VRB03KT P6SM OVC008 ","updated":"2025-12-23T09:24:54Z"}
