{"icao":"LPPR","taf":"TAF LPPR 110500Z 1106/1206 18012KT 8000 -RA SCT006 BKN015 ","updated":"2026-01-11T10:19:48Z"}
