{"icao":"LPBJ","taf":"TAF TAF LPBJ 301104Z 3012/0112 31008KT CAVOK ","updated":"2026-06-30T15:25:17Z"}
