{"icao":"KORD","taf":"TAF KORD 231720Z 2318/2424 06009KT P6SM FEW050 SCT250 ","updated":"2026-06-23T17:52:08Z"}
