{"icao":"KJFK","taf":"TAF KJFK 211121Z 2112/2218 25007KT P6SM SKC ","updated":"2026-01-21T11:22:58Z"}
