{"icao":"LPPS","taf":"TAF LPPS 151100Z 1512/1618 30012KT 9999 SCT012 BKN025 ","updated":"2025-11-15T16:19:56Z"}
