{"icao":"KORD","taf":"TAF KORD 281720Z 2818/2924 28013G19KT P6SM FEW025 FEW200 ","updated":"2026-01-28T17:30:58Z"}
