{"icao":"LPMT","taf":"TAF LPMT 260502Z 2606/2706 02008KT CAVOK","updated":"2025-11-26T09:21:48Z"}
