{"icao":"LPPR","taf":"TAF LPPR 011100Z 0112/0212 VRB05KT CAVOK ","updated":"2026-04-01T15:02:29Z"}
