{"icao":"KORD","taf":"TAF KORD 250525Z 2506/2612 17004KT P6SM FEW250 ","updated":"2025-10-25T08:20:31Z"}
