{"icao":"KLAX","taf":"TAF KLAX 250532Z 2506/2612 VRB03KT 5SM BR OVC004 ","updated":"2025-10-25T07:16:32Z"}
