{"icao":"LPPS","taf":"TAF LPPS 020500Z 0206/0312 28008KT 9999 SCT015 ","updated":"2026-05-02T10:50:19Z"}
