{"icao":"LPPD","taf":"TAF LPPD 301700Z 3018/3118 22005KT 0300 FG VV001 ","updated":"2026-05-30T19:12:33Z"}
