{"icao":"KORD","taf":"TAF KORD 200520Z 2006/2112 26012KT P6SM FEW030 SCT200 ","updated":"2026-01-20T08:30:25Z"}
