{"icao":"LPMT","taf":"TAF TAF LPMT 121713Z 1218/1318 25008KT 9999 SCT020 ","updated":"2026-02-12T17:57:10Z"}
