{"icao":"LPPT","taf":"TAF LPPT 161100Z 1612/1718 26010KT 9999 SCT015 ","updated":"2025-11-16T14:15:13Z"}
