{"icao":"LPPT","taf":"TAF LPPT 071700Z 0718/0824 32008KT 9999 SCT020 ","updated":"2025-11-07T23:15:47Z"}
