{"icao":"KLAX","taf":"TAF KLAX 230535Z 2306/2412 27006KT 3SM BR OVC005 ","updated":"2026-03-23T07:08:33Z"}
