{"icao":"LPPD","taf":"TAF LPPD 230500Z 2306/2406 21013KT 9999 SCT008 BKN020 ","updated":"2025-09-23T07:17:29Z"}
