{"icao":"LPPS","taf":"TAF LPPS 290500Z 2906/3012 03012KT 9999 SCT015","updated":"2026-06-29T10:55:33Z"}
