{"icao":"LPMA","taf":"TAF LPMA 011700Z 0118/0218 03013KT 9999 SCT015 PROB30 ","updated":"2026-04-01T23:34:53Z"}
