{"icao":"LPPD","taf":"TAF LPPD 020500Z 0206/0306 05008KT 9999 FEW020 SCT040 ","updated":"2025-11-02T10:17:06Z"}
