{"icao":"LPLA","taf":"TAF LPLA 130503Z 1306/1406 02008KT 9999 SCT015 BKN025 ","updated":"2026-05-13T10:25:47Z"}
