{"icao":"LPMA","taf":"TAF LPMA 310704Z 3107/0106 01015KT 9999 SCT015 ","updated":"2026-05-31T07:44:32Z"}
