{"icao":"LPFR","taf":"TAF LPFR 301100Z 3012/0112 33013KT CAVOK ","updated":"2025-11-30T16:21:42Z"}
