{"icao":"KJFK","taf":"TAF KJFK 041134Z 0412/0518 29020G28KT P6SM SCT050 ","updated":"2025-11-04T13:32:35Z"}
