{"icao":"KORD","taf":"TAF KORD 050520Z 0506/0612 23005KT P6SM BKN150 OVC250 ","updated":"2026-02-05T07:51:43Z"}
