{"icao":"KJFK","taf":"TAF KJFK 021130Z 0212/0318 33007KT P6SM SCT250 ","updated":"2025-11-02T14:14:43Z"}
