{"icao":"KORD","taf":"TAF KORD 211720Z 2118/2224 05015KT P6SM SCT030 BKN120 ","updated":"2026-05-21T19:56:32Z"}
