{"icao":"KORD","taf":"TAF KORD 021120Z 0212/0318 24009KT P6SM OVC008 ","updated":"2026-02-02T11:34:19Z"}
