{"icao":"KORD","taf":"TAF KORD 291126Z 2912/3018 32007KT P6SM SCT250 ","updated":"2026-01-29T14:50:02Z"}
