{"icao":"LPPT","taf":"TAF TAF LPPT 070500Z 0706/0812 20008KT 5000 RADZ BR SCT008 BKN015 ","updated":"2026-02-07T05:40:32Z"}
