{"icao":"LPMT","taf":"TAF LPMT 170507Z 1706/1806 04007KT CAVOK ","updated":"2026-04-17T10:54:13Z"}
