{"icao":"LPMT","taf":"TAF LPMT 240506Z 2406/2506 34010KT CAVOK ","updated":"2026-05-24T06:57:51Z"}
