{"icao":"KORD","taf":"TAF KORD 151720Z 1518/1624 19015G25KT P6SM SKC ","updated":"2026-05-15T18:21:39Z"}
