{"icao":"KORD","taf":"TAF KORD 140520Z 1406/1512 01006KT P6SM SCT010 BKN050 ","updated":"2025-10-14T08:22:05Z"}
