{"icao":"LPMT","taf":"TAF LPMT 181706Z 1818/1918 34005KT 9999 FEW035 PROB40 1903/1909 VRB02KT 4000 BR BKN004 PROB30 1905/1909 0500 FG BKN002 ","updated":"2025-11-18T19:15:38Z"}
