{"icao":"LPMR","taf":"TAF TAF LPMR 211104Z 2112/2212 27015KT 5000 -RADZ BR SCT008 BKN022 ","updated":"2026-01-21T14:29:32Z"}
