{"icao":"LPPT","taf":"TAF LPPT 150500Z 1506/1612 29005KT 9999 SCT030 ","updated":"2026-02-15T07:36:58Z"}
