{"icao":"LPBJ","taf":"TAF TAF LPBJ 020505Z 0206/0306 26015KT 9999 FEW015 SCT022 ","updated":"2026-02-02T10:42:42Z"}
