{"icao":"KORD","taf":"TAF KORD 011720Z 0118/0224 05018G27KT P6SM OVC014 ","updated":"2026-04-01T20:56:12Z"}
