{"icao":"LPLA","taf":"TAF LPLA 061701Z 0618/0718 32022G32KT 9999 SCT025 ","updated":"2026-04-06T19:54:04Z"}
