{"icao":"KORD","taf":"TAF KORD 041120Z 0412/0518 21005KT P6SM SCT250 ","updated":"2026-06-04T11:52:01Z"}
