{"icao":"KORD","taf":"TAF KORD 151120Z 1512/1618 17008KT P6SM SCT070 OVC100 ","updated":"2026-05-15T14:03:58Z"}
