{"icao":"LPMR","taf":"TAF TAF LPMR 171700Z 1718/1818 28005KT CAVOK ","updated":"2025-10-17T17:15:10Z"}
