{"icao":"LPPR","taf":"TAF LPPR 300500Z 3006/0106 09008KT CAVOK ","updated":"2025-09-30T07:17:40Z"}
