{"icao":"KLAX","taf":"TAF KLAX 151129Z 1512/1618 12005KT 2SM -RA BR FEW003 BKN011 OVC030 ","updated":"2025-11-15T12:34:32Z"}
