{"icao":"KJFK","taf":"TAF KJFK 110528Z 1106/1212 25016G23KT P6SM FEW050 BKN100 ","updated":"2025-12-11T07:23:12Z"}
