{"icao":"KJFK","taf":"TAF KJFK 021724Z 0218/0324 14008KT P6SM FEW250 ","updated":"2025-10-02T18:24:45Z"}
