{"icao":"LPBJ","taf":"TAF TAF LPBJ 191704Z 1918/2018 16012KT 8000 -RA FEW016 SCT030 ","updated":"2026-03-19T19:47:49Z"}
