{"icao":"LPLA","taf":"TAF LPLA 200505Z 2006/2106 35018KT 9999 FEW025 BKN035 ","updated":"2026-04-20T10:46:47Z"}
