{"icao":"LPPS","taf":"TAF LPPS 220500Z 2206/2312 07012KT 9999 SCT015 SCT030 PROB30 ","updated":"2025-09-22T07:18:27Z"}
