{"icao":"LPLA","taf":"TAF LPLA 290503Z 2906/3006 17012KT 9999 FEW015 SCT030 ","updated":"2025-09-29T05:17:50Z"}
