{"icao":"LPLA","taf":"TAF LPLA 130503Z 1306/1406 31008KT 9999 FEW018 SCT025 PROB30 ","updated":"2025-10-13T09:21:08Z"}
