{"icao":"KLAX","taf":"TAF KLAX 031744Z 0318/0424 VRB05KT 5SM HZ FEW025 BKN150 ","updated":"2025-12-03T20:22:59Z"}
