{"icao":"LPPR","taf":"TAF LPPR 221700Z 2218/2318 17018KT 2000 RADZ BR SCT002 BKN004 ","updated":"2026-01-22T23:19:46Z"}
