{"icao":"LPPS","taf":"TAF LPPS 180500Z 1806/1912 27015KT 9999 SCT015 SCT030 ","updated":"2026-03-18T08:48:35Z"}
