{"icao":"LPFR","taf":"TAF LPFR 271100Z 2712/2812 12012KT CAVOK ","updated":"2026-03-27T14:48:35Z"}
