{"icao":"LPMT","taf":"TAF LPMT 100506Z 1006/1106 VRB02KT 9999 FEW040 PROB30 1006/1010 4000 BR SCT002 PROB40 1100/1106 2000 BR BKN002","updated":"2026-01-10T08:25:31Z"}
