{"icao":"LPMA","taf":"TAF LPMA 220500Z 2206/2306 VRB05KT 9999 SCT015 PROB30 ","updated":"2026-01-22T05:27:23Z"}
