{"icao":"KLAX","taf":"TAF KLAX 031120Z 0312/0418 23005KT P6SM OVC012 ","updated":"2026-05-03T13:07:20Z"}
