{"icao":"KJFK","taf":"TAF KJFK 171722Z 1718/1824 28021G31KT P6SM SCT045 ","updated":"2026-03-17T17:56:51Z"}
