{"icao":"KJFK","taf":"TAF KJFK 271728Z 2718/2824 02013KT P6SM BKN020 PROB30 2718/2720 3SM -SN BKN015 ","updated":"2025-12-27T20:20:50Z"}
