{"icao":"LPPS","taf":"TAF LPPS 201700Z 2018/2124 05008KT 9999 SCT015 PROB30 ","updated":"2025-09-20T22:14:47Z"}
