{"icao":"LPMR","taf":"TAF TAF LPMR 121702Z 1218/1318 16012KT 9999 SCT018 BKN030 ","updated":"2025-11-13T07:18:10Z"}
