{"icao":"LPPT","taf":"TAF LPPT 031700Z 0318/0424 04013KT CAVOK ","updated":"2026-03-03T22:27:43Z"}
