{"icao":"LPMT","taf":"TAF LPMT 091702Z 0918/1018 VRB02KT 9999 SCT030 ","updated":"2025-11-10T04:26:10Z"}
