{"icao":"KORD","taf":"TAF KORD 181132Z 1812/1918 18012G19KT 5SM -SN FEW015 BKN030 OVC050 ","updated":"2026-03-18T11:44:16Z"}
