{"icao":"KLAX","taf":"TAF KLAX 101729Z 1018/1124 28006KT P6SM FEW002 ","updated":"2025-11-10T19:15:36Z"}
