{"icao":"KORD","taf":"TAF KORD 070520Z 0706/0812 21015G26KT P6SM -SHRA SCT025 PROB30 0707/0710 5SM -TSRA BR OVC025CB ","updated":"2025-11-07T07:17:58Z"}
