{"icao":"LPOV","taf":"TAF LPOV 201706Z 2018/2118 34010KT CAVOK PROB30 2105/2110 2000 BR BKN004 ","updated":"2025-09-20T17:12:34Z"}
