{"icao":"LPAZ","taf":"TAF TAF LPAZ 231700Z 2318/2424 21020KT 9999 SCT006 BKN012 ","updated":"2026-02-24T04:50:26Z"}
