{"icao":"LPPS","taf":"TAF LPPS 151700Z 1518/1624 33015KT 9999 SCT015 ","updated":"2025-12-15T19:18:40Z"}
