{"icao":"LPLA","taf":"TAF LPLA 220505Z 2206/2306 17008KT 9999 FEW025 SCT035 ","updated":"2025-09-22T11:15:21Z"}
