{"icao":"KORD","taf":"TAF KORD 021720Z 0218/0324 12009KT P6SM SCT250 ","updated":"2026-03-02T18:45:06Z"}
