{"icao":"LPAZ","taf":"TAF LPAZ 171700Z 1718/1824 21008KT 9999 SCT008 BKN025 ","updated":"2025-11-17T21:17:05Z"}
