{"icao":"LPMR","taf":"TAF TAF LPMR 231705Z 2318/2418 32008KT 9999 FEW018 ","updated":"2026-06-23T20:02:05Z"}
