{"icao":"LPMA","taf":"TAF LPMA 281100Z 2812/0112 01015KT 9999 SCT015 ","updated":"2026-02-28T12:42:32Z"}
