{"icao":"KLAX","taf":"TAF KLAX 060521Z 0606/0712 11005KT P6SM SCT012 OVC120 ","updated":"2026-02-06T05:52:16Z"}
