{"icao":"LPPT","taf":"TAF TAF LPPT 220500Z 2206/2312 25008KT 9999 SCT020 ","updated":"2026-01-22T10:26:15Z"}
