{"icao":"KJFK","taf":"TAF KJFK 081730Z 0818/0924 26015G25KT P6SM BKN080 ","updated":"2026-05-08T19:15:06Z"}
