{"icao":"KLAX","taf":"TAF KLAX 150541Z 1506/1612 09008KT P6SM -RA OVC045 ","updated":"2025-10-15T07:18:44Z"}
