{"icao":"LPPR","taf":"TAF LPPR 071100Z 0712/0812 17015KT 9999 FEW015 SCT045 PROB30 ","updated":"2025-12-07T15:16:10Z"}
