{"icao":"LPPR","taf":"TAF LPPR 261100Z 2612/2712 29005KT CAVOK ","updated":"2026-05-26T16:40:58Z"}
