{"icao":"KJFK","taf":"TAF KJFK 071720Z 0718/0824 22007KT P6SM FEW035 BKN150 ","updated":"2025-12-07T19:14:20Z"}
