{"icao":"LPOV","taf":"TAF LPOV 171700Z 1718/1818 34007KT CAVOK PROB40 ","updated":"2025-10-18T02:53:38Z"}
