{"icao":"LPFR","taf":"TAF LPFR 021700Z 0218/0318 25013KT 9999 FEW025 ","updated":"2026-05-02T19:54:52Z"}
