{"icao":"LPPS","taf":"TAF LPPS 180500Z 1806/1912 01012KT 9999 SCT015 ","updated":"2025-11-18T09:20:49Z"}
