{"icao":"LPBJ","taf":"TAF TAF LPBJ 120505Z 1206/1306 31010KT CAVOK ","updated":"2026-04-12T08:46:22Z"}
