{"icao":"LPMR","taf":"TAF TAF LPMR 290502Z 2906/3006 24016KT 7000 -RA SCT012 BKN015 ","updated":"2026-01-29T09:40:47Z"}
