{"icao":"KLAX","taf":"TAF KLAX 251142Z 2512/2618 21006KT P6SM BKN025 ","updated":"2026-04-25T13:01:32Z"}
