{"icao":"KORD","taf":"TAF KORD 061120Z 0612/0718 VRB05KT P6SM OVC080 ","updated":"2026-01-06T14:21:39Z"}
