{"icao":"KLAX","taf":"TAF KLAX 201721Z 2018/2124 01005KT P6SM BKN250 ","updated":"2026-02-20T18:45:19Z"}
