{"icao":"KJFK","taf":"TAF KJFK 220522Z 2206/2312 03005KT P6SM FEW070 BKN150 ","updated":"2026-05-22T07:43:09Z"}
