{"icao":"LPMT","taf":"TAF LPMT 150509Z 1506/1606 21012KT 9999 FEW030 ","updated":"2025-11-15T10:17:18Z"}
