{"icao":"LPLA","taf":"TAF LPLA 151704Z 1518/1618 14007KT 9999 SCT010 BKN015 ","updated":"2025-09-15T21:15:05Z"}
