{"icao":"KLAX","taf":"TAF KLAX 131740Z 1318/1424 10015G20KT P6SM SCT030 BKN040 ","updated":"2025-10-13T18:25:09Z"}
