{"icao":"LPBJ","taf":"TAF TAF LPBJ 081107Z 0812/0912 14010KT 9999 SCT030 ","updated":"2026-04-08T11:53:54Z"}
