{"icao":"LPPR","taf":"TAF LPPR 261100Z 2612/2712 05010KT CAVOK ","updated":"2026-03-26T15:02:25Z"}
