{"icao":"LPOV","taf":"TAF LPOV 041102Z 0412/0512 33012KT 9999 FEW020 SCT035 PROB40 ","updated":"2026-05-04T13:56:54Z"}
