{"icao":"LPFR","taf":"TAF LPFR 300500Z 3006/0106 18008KT CAVOK ","updated":"2026-06-30T09:31:50Z"}
