{"icao":"LPAZ","taf":"TAF LPAZ 180500Z 1806/1912 21012KT 9999 SCT015 SCT040 ","updated":"2025-09-18T05:16:06Z"}
