{"icao":"LPBJ","taf":"TAF TAF LPBJ 231107Z 2312/2412 24005KT CAVOK ","updated":"2026-05-23T13:22:01Z"}
