{"icao":"LPPR","taf":"TAF LPPR 131700Z 1318/1418 32008KT 9999 FEW015 ","updated":"2026-05-13T23:56:35Z"}
