{"icao":"LPMR","taf":"TAF TAF LPMR 120505Z 1206/1306 VRB02KT 8000 -RA BKN040 ","updated":"2025-12-12T08:28:09Z"}
