{"icao":"KORD","taf":"TAF KORD 271120Z 2712/2818 04007KT P6SM SCT045 BKN060 ","updated":"2026-06-27T11:25:39Z"}
