{"icao":"LPPS","taf":"TAF LPPS 270500Z 2706/2812 02015KT 9999 SCT015 PROB40 ","updated":"2026-02-27T10:36:05Z"}
