{"icao":"LPFR","taf":"TAF LPFR 201700Z 2018/2118 24010KT CAVOK ","updated":"2026-06-21T04:04:23Z"}
