{"icao":"LPBJ","taf":"TAF TAF LPBJ 271703Z 2718/2818 03010KT CAVOK ","updated":"2026-03-27T23:30:58Z"}
