{"icao":"LPMT","taf":"TAF LPMT 251104Z 2512/2612 02005KT CAVOK ","updated":"2026-03-25T13:07:32Z"}
