{"icao":"LPPR","taf":"TAF LPPR 201700Z 2018/2118 31010KT CAVOK ","updated":"2026-02-20T19:35:39Z"}
