{"icao":"LPMR","taf":"TAF TAF LPMR 100504Z 1006/1106 16008KT 9999 FEW020 SCT030 ","updated":"2026-05-10T08:52:20Z"}
