{"icao":"LPPT","taf":"TAF LPPT 151700Z 1518/1624 31007KT CAVOK ","updated":"2025-10-15T17:16:09Z"}
