{"icao":"KJFK","taf":"TAF KJFK 061728Z 0618/0724 07007KT P6SM SCT050 OVC150 ","updated":"2026-01-06T18:30:33Z"}
