{"icao":"LPPD","taf":"TAF LPPD 010500Z 0106/0206 20005KT 9999 SCT006 SCT012 ","updated":"2025-10-01T07:17:58Z"}
