{"icao":"KORD","taf":"TAF KORD 010520Z 0106/0212 35013G20KT P6SM SCT030 BKN070 ","updated":"2026-01-01T05:26:10Z"}
