{"icao":"KORD","taf":"TAF KORD 221720Z 2218/2324 06008KT P6SM SCT025 ","updated":"2026-04-22T20:04:14Z"}
