{"icao":"KJFK","taf":"TAF KJFK 060534Z 0606/0712 30024G40KT P6SM BKN050 ","updated":"2025-11-06T07:18:26Z"}
