{"icao":"KORD","taf":"TAF KORD 060539Z 0606/0712 30010G18KT P6SM SCT025 BKN040 ","updated":"2026-04-06T07:28:30Z"}
