{"icao":"KJFK","taf":"TAF KJFK 310532Z 3106/0112 27011KT P6SM SCT040 BKN060 ","updated":"2025-10-31T06:27:39Z"}
