{"icao":"LPPT","taf":"TAF LPPT 301100Z 3012/3118 33013KT CAVOK ","updated":"2026-05-30T11:18:28Z"}
