{"icao":"KLAX","taf":"TAF KLAX 271720Z 2718/2824 13005KT P6SM OVC030 ","updated":"2025-09-27T20:17:22Z"}
