{"icao":"LPLA","taf":"TAF LPLA 150000Z 1500/1524 22015KT 9999 SCT020 BKN035 ","updated":"2026-02-15T02:07:46Z"}
