{"icao":"LPBJ","taf":"TAF LPBJ 030504Z 0306/0406 30008KT CAVOK PROB40 0404/0406 5000 BCFG BKN007","updated":"2025-10-03T10:17:49Z"}
