{"icao":"LPOV","taf":"TAF LPOV 140503Z 1406/1506 34015KT 9999 SCT022 ","updated":"2026-02-14T08:30:43Z"}
