{"icao":"LPMA","taf":"TAF LPMA 151700Z 1518/1618 36008KT 9999 SCT015","updated":"2025-11-16T04:24:27Z"}
