{"icao":"LPPR","taf":"TAF LPPR 150500Z 1506/1606 VRB02KT CAVOK PROB30 ","updated":"2025-10-15T08:25:09Z"}
