{"icao":"LPPS","taf":"TAF LPPS 041700Z 0418/0524 03012KT 9999 SCT012 ","updated":"2026-04-04T23:30:26Z"}
