{"icao":"LPBJ","taf":"TAF LPBJ 051705Z 0518/0618 32012KT CAVOK ","updated":"2026-06-05T19:52:20Z"}
