{"icao":"LPFR","taf":"TAF LPFR 161100Z 1612/1712 20010KT CAVOK ","updated":"2026-06-16T15:08:20Z"}
