{"icao":"KJFK","taf":"TAF KJFK 200524Z 2006/2112 01005KT P6SM SCT250 ","updated":"2025-11-20T08:26:29Z"}
