{"icao":"KORD","taf":"TAF KORD 200520Z 2006/2112 22004KT P6SM BKN250 ","updated":"2026-03-20T07:44:36Z"}
