{"icao":"KORD","taf":"TAF KORD 231129Z 2312/2418 03007KT P6SM SCT008 BKN018 ","updated":"2026-05-23T13:22:03Z"}
