{"icao":"KLAX","taf":"TAF KLAX 041120Z 0412/0518 03005KT P6SM SKC ","updated":"2026-02-04T11:31:57Z"}
