{"icao":"LPLA","taf":"TAF TAF LPLA 220508Z 2206/2306 32012KT 8000 -RA SCT008 BKN025 PROB40 ","updated":"2026-04-22T07:44:38Z"}
