{"icao":"LPMA","taf":"TAF LPMA 161100Z 1612/1712 34015KT 9999 SCT015 ","updated":"2026-01-16T14:22:11Z"}
