{"icao":"LPMR","taf":"TAF TAF LPMR 210507Z 2106/2206 VRB02KT 0900 FG BKN003 ","updated":"2026-06-21T08:56:07Z"}
