{"icao":"KLAX","taf":"TAF KLAX 190539Z 1906/2012 VRB03KT P6SM FEW100 BKN150 ","updated":"2025-09-19T06:26:22Z"}
