{"icao":"KJFK","taf":"TAF KJFK 231129Z 2312/2418 23009KT P6SM BKN035 ","updated":"2025-09-23T12:36:13Z"}
