{"icao":"KORD","taf":"TAF KORD 060538Z 0606/0712 20009KT P6SM SKC ","updated":"2025-10-06T06:27:21Z"}
