{"icao":"KORD","taf":"TAF KORD 041120Z 0412/0518 22007KT P6SM FEW100 BKN250 ","updated":"2025-11-04T13:32:35Z"}
