{"icao":"LPFR","taf":"TAF LPFR 140500Z 1406/1506 25005KT 9999 BKN020 ","updated":"2026-06-14T05:46:59Z"}
