{"icao":"LPPT","taf":"TAF LPPT 140500Z 1406/1512 VRB05KT CAVOK ","updated":"2025-10-14T05:16:46Z"}
