{"icao":"KORD","taf":"TAF KORD 201726Z 2018/2124 29011G20KT P6SM SCT050 ","updated":"2026-06-20T19:24:03Z"}
