{"icao":"KLAX","taf":"TAF KLAX 271738Z 2718/2824 10006KT 5SM HZ BKN015 ","updated":"2025-10-27T20:18:18Z"}
