{"icao":"KORD","taf":"TAF KORD 181739Z 1818/1924 22012KT P6SM BKN025 BKN050 ","updated":"2025-10-18T18:22:33Z"}
