{"icao":"LPOV","taf":"TAF LPOV 081706Z 0818/0918 22010KT 6000 BKN008 ","updated":"2026-01-09T03:38:14Z"}
