{"icao":"LPPD","taf":"TAF LPPD 071100Z 0712/0812 18010KT 9999 FEW025 BKN040 ","updated":"2026-01-07T15:24:14Z"}
