{"icao":"LPPR","taf":"TAF LPPR 281700Z 2818/2918 34010KT CAVOK ","updated":"2025-09-28T21:14:04Z"}
