{"icao":"LPAZ","taf":"TAF TAF LPAZ 281700Z 2818/2924 16013KT 9999 SCT006 SCT012 ","updated":"2026-04-28T22:57:18Z"}
