{"icao":"KORD","taf":"TAF KORD 041137Z 0412/0518 13007KT 6SM -SHRA FEW003 SCT012 BKN035 ","updated":"2026-04-04T14:32:44Z"}
