{"icao":"LPAZ","taf":"TAF LPAZ 161700Z 1618/1724 VRB05KT 9999 SCT025 ","updated":"2025-11-16T20:19:11Z"}
