{"icao":"LPPS","taf":"TAF LPPS 221100Z 2212/2318 07012KT 9999 SCT015 BKN030 PROB40 ","updated":"2025-09-22T13:27:28Z"}
