{"icao":"KLAX","taf":"TAF KLAX 311120Z 3112/0118 VRB03KT 3SM BR OVC005 ","updated":"2025-10-31T12:38:06Z"}
