{"icao":"KLAX","taf":"TAF KLAX 160540Z 1606/1712 15005KT 5SM -RA BR BKN015 OVC080 ","updated":"2025-11-16T06:26:32Z"}
