{"icao":"LPLA","taf":"TAF LPLA 031703Z 0318/0418 24015KT 9999 SCT016 PROB30 ","updated":"2025-11-04T04:20:49Z"}
