{"icao":"KLAX","taf":"TAF KLAX 280528Z 2806/2912 VRB03KT P6SM SCT250 ","updated":"2025-11-28T08:26:35Z"}
