{"icao":"KORD","taf":"TAF KORD 101731Z 1018/1124 04012KT P6SM OVC007 PROB30 1021/1024 2SM -TSRA BR BKN006 OVC012CB ","updated":"2026-03-10T18:44:40Z"}
