{"icao":"LPPT","taf":"TAF LPPT 211700Z 2118/2224 29007KT 9999 SCT035 PROB40 ","updated":"2025-12-22T01:42:27Z"}
