{"icao":"KJFK","taf":"TAF KJFK 160531Z 1606/1712 28014G25KT P6SM FEW050 ","updated":"2026-01-16T07:23:47Z"}
