{"icao":"KJFK","taf":"TAF KJFK 161725Z 1618/1724 27015G23KT P6SM SCT200 ","updated":"2026-01-16T18:31:15Z"}
