{"icao":"KLAX","taf":"TAF KLAX 111720Z 1118/1224 25006KT P6SM SCT018 ","updated":"2026-06-11T18:10:20Z"}
