{"icao":"LPPS","taf":"TAF LPPS 130500Z 1306/1412 03010KT 9999 SCT015 BKN030 ","updated":"2026-04-13T08:01:19Z"}
