{"icao":"LPBJ","taf":"TAF TAF LPBJ 281702Z 2818/2918 24012KT 9999 SCT018 ","updated":"2025-09-29T01:20:13Z"}
