{"icao":"LPPR","taf":"TAF LPPR 141700Z 1418/1518 31012KT 2000 -DZRA BR SCT002 BKN004 ","updated":"2026-03-15T05:04:20Z"}
