{"icao":"LPMA","taf":"TAF LPMA 140500Z 1406/1506 VRB05KT 9999 SCT015 PROB40 1409/1424 19008KT","updated":"2025-10-14T06:27:36Z"}
