{"icao":"LPFR","taf":"TAF LPFR 180500Z 1806/1906 04007KT 9999 SCT035 ","updated":"2026-01-18T10:19:54Z"}
