{"icao":"LPMR","taf":"TAF TAF LPMR 311100Z 3112/0112 18015KT 6000 -RA SCT010 BKN018 ","updated":"2025-10-31T11:15:01Z"}
