{"icao":"LPMA","taf":"TAF LPMA 310500Z 3106/0106 VRB05KT 9999 SCT015 ","updated":"2026-01-31T09:26:30Z"}
