{"icao":"LPLA","taf":"TAF LPLA 070511Z 0706/0806 VRB02KT 9999 SCT040 ","updated":"2025-11-07T08:25:09Z"}
