{"icao":"LPPD","taf":"TAF LPPD 171700Z 1718/1818 24015KT 9999 SCT012 BKN025 ","updated":"2025-12-17T17:22:22Z"}
