{"icao":"LPAZ","taf":"TAF LPAZ 131700Z 1318/1424 32010KT 9999 SCT030 ","updated":"2026-01-13T19:19:02Z"}
