{"icao":"LPMT","taf":"TAF LPMT 200502Z 2006/2106 33005KT CAVOK ","updated":"2026-06-20T05:11:59Z"}
