{"icao":"LPBJ","taf":"TAF TAF LPBJ 281102Z 2812/2912 24012KT 9999 SCT018 ","updated":"2025-09-28T13:20:26Z"}
