{"icao":"LPFR","taf":"TAF LPFR 231100Z 2312/2412 20005KT CAVOK ","updated":"2025-11-23T13:22:21Z"}
