{"icao":"LPLA","taf":"TAF TAF LPLA 250000Z 2500/2524 23008KT //// 9999 SCT014 BKN025 PROB30 2500/2509 2000 DZ BR BKN008 ","updated":"2026-04-25T05:10:42Z"}
