{"icao":"LPBJ","taf":"TAF TAF LPBJ 211704Z 2118/2218 09005KT CAVOK PROB30 2204/2208 2000 BCFG SCT002","updated":"2026-02-21T22:22:18Z"}
