{"icao":"KLAX","taf":"TAF KLAX 131150Z 1312/1418 26006KT P6SM OVC005 ","updated":"2026-06-13T14:59:22Z"}
