{"icao":"LPPD","taf":"TAF LPPD 170500Z 1706/1806 18010KT 9999 FEW008 ","updated":"2026-02-17T05:56:31Z"}
