{"icao":"KJFK","taf":"TAF KJFK 040539Z 0406/0512 23007KT P6SM SKC ","updated":"2026-06-04T08:19:44Z"}
