{"icao":"LPPR","taf":"TAF LPPR 051100Z 0512/0612 01008KT CAVOK","updated":"2026-01-05T12:43:42Z"}
