{"icao":"LPMR","taf":"TAF TAF LPMR 121108Z 1212/1312 VRB02KT 7000 -RA BKN040 ","updated":"2025-12-12T13:33:30Z"}
