{"icao":"LPOV","taf":"TAF LPOV 161102Z 1612/1712 VRB02KT CAVOK ","updated":"2026-03-16T13:09:15Z"}
