{"icao":"KORD","taf":"TAF KORD 080523Z 0806/0912 26012KT P6SM OVC015 ","updated":"2026-03-08T05:41:59Z"}
