{"icao":"KJFK","taf":"TAF KJFK 211123Z 2112/2218 01006KT P6SM SKC ","updated":"2026-04-21T13:24:14Z"}
