{"icao":"KORD","taf":"TAF KORD 021722Z 0218/0324 26009KT 5SM BR OVC008 ","updated":"2025-12-02T19:18:22Z"}
