{"icao":"KLAX","taf":"TAF KLAX 240539Z 2406/2512 27006KT P6SM OVC008 ","updated":"2026-06-24T07:39:20Z"}
