{"icao":"KORD","taf":"TAF KORD 210522Z 2106/2212 28011KT P6SM SCT019 BKN025 ","updated":"2026-02-21T05:40:46Z"}
