{"icao":"KORD","taf":"TAF KORD 191726Z 1918/2024 30011G19KT P6SM FEW060 ","updated":"2026-06-19T18:00:03Z"}
