{"icao":"LPBJ","taf":"TAF TAF LPBJ 081703Z 0818/0918 33015KT CAVOK ","updated":"2026-06-08T22:24:54Z"}
