{"icao":"KORD","taf":"TAF KORD 130525Z 1306/1412 04012KT P6SM SCT060 ","updated":"2026-05-13T07:48:06Z"}
