{"icao":"LPFR","taf":"TAF LPFR 211700Z 2118/2218 17008KT CAVOK ","updated":"2026-06-22T00:10:16Z"}
