{"icao":"KLAX","taf":"TAF KLAX 041120Z 0412/0518 VRB03KT P6SM FEW008 OVC012 ","updated":"2026-06-04T11:52:01Z"}
