{"icao":"LPAZ","taf":"TAF TAF LPAZ 180500Z 1806/1912 15007KT 9999 SCT006 SCT012 ","updated":"2026-04-18T09:46:56Z"}
