{"icao":"LPLA","taf":"TAF LPLA 271105Z 2712/2812 08012KT 9999 FEW022 SCT035 ","updated":"2025-10-27T12:39:17Z"}
