{"icao":"LPLA","taf":"TAF LPLA 171704Z 1718/1818 VRB05KT 9999 SCT020 ","updated":"2026-05-17T22:52:09Z"}
