{"icao":"KORD","taf":"TAF KORD 310520Z 3106/0112 11008KT P6SM BKN200 ","updated":"2026-05-31T07:44:45Z"}
