{"icao":"KJFK","taf":"TAF KJFK 111734Z 1118/1224 28023G40KT P6SM SCT050 SCT100 BKN200 ","updated":"2025-12-11T19:19:11Z"}
