{"icao":"LPAZ","taf":"TAF TAF LPAZ 160500Z 1606/1712 25010KT 9999 SCT015 BKN030 PROB30 ","updated":"2026-04-16T11:01:06Z"}
