{"icao":"LPBJ","taf":"TAF TAF LPBJ 231103Z 2312/2412 17005KT CAVOK ","updated":"2026-02-23T16:56:11Z"}
