{"icao":"LPPT","taf":"TAF LPPT 021700Z 0218/0324 34013KT CAVOK PROB40 ","updated":"2026-04-03T05:03:27Z"}
