{"icao":"KJFK","taf":"TAF KJFK 121133Z 1212/1318 32020G28KT P6SM BKN060 ","updated":"2026-02-12T13:04:52Z"}
