{"icao":"KORD","taf":"TAF KORD 091720Z 0918/1024 27012G20KT P6SM FEW100 ","updated":"2026-04-09T20:50:13Z"}
