{"icao":"LPMR","taf":"TAF TAF LPMR 151109Z 1512/1612 32008KT 9999 SCT015 BKN025 ","updated":"2026-04-15T13:52:56Z"}
