{"icao":"LPPR","taf":"TAF LPPR 161100Z 1612/1712 32012KT 9999 FEW035 ","updated":"2026-05-16T15:57:04Z"}
