{"icao":"LPOV","taf":"TAF LPOV 010510Z 0106/0206 36002KT 3000 BR FEW003 ","updated":"2026-07-01T08:11:02Z"}
