{"icao":"LPOV","taf":"TAF LPOV 031100Z 0312/0412 21005KT CAVOK ","updated":"2025-11-03T13:29:31Z"}
