{"icao":"KJFK","taf":"TAF KJFK 151739Z 1518/1624 32018G25KT P6SM SCT050 SCT250 ","updated":"2026-06-15T18:23:29Z"}
