{"icao":"LPLA","taf":"TAF LPLA 151703Z 1518/1618 03005KT 9999 FEW010 BKN035 ","updated":"2026-03-15T17:26:38Z"}
