{"icao":"LPPR","taf":"TAF LPPR 031700Z 0318/0418 31008KT CAVOK ","updated":"2026-04-03T18:44:39Z"}
