{"icao":"KORD","taf":"TAF KORD 130520Z 1306/1412 14006KT P6SM BKN200 ","updated":"2025-10-13T06:28:44Z"}
