{"icao":"KORD","taf":"TAF KORD 161711Z 1618/1724 26013G21KT P6SM VCTS BKN020CB OVC030 ","updated":"2026-04-16T19:11:00Z"}
