{"icao":"LPMR","taf":"TAF TAF LPMR 071707Z 0718/0818 32010KT 9999 SCT025 ","updated":"2026-05-07T23:01:02Z"}
