{"icao":"LPPD","taf":"TAF LPPD 140500Z 1406/1506 02010KT 9999 SCT018 PROB30 ","updated":"2026-03-14T06:43:53Z"}
