{"icao":"KJFK","taf":"TAF KJFK 150521Z 1506/1612 23010KT 6SM -SHRA BR SCT007 BKN015 OVC035 ","updated":"2026-06-15T06:21:58Z"}
