{"icao":"KJFK","taf":"TAF KJFK 181135Z 1812/1918 VRB03KT 4SM -SN BR OVC040 ","updated":"2026-01-18T13:27:41Z"}
