{"icao":"LPBJ","taf":"TAF TAF LPBJ 051106Z 0512/0612 12008KT CAVOK ","updated":"2026-04-05T16:35:13Z"}
