{"icao":"LPLA","taf":"TAF LPLA 120508Z 1206/1306 02010KT 9999 SCT020 BKN035 ","updated":"2026-05-12T09:37:02Z"}
