{"icao":"KLAX","taf":"TAF KLAX 261734Z 2618/2724 03006KT P6SM BKN250 ","updated":"2026-01-26T20:27:10Z"}
