{"icao":"LPAZ","taf":"TAF LPAZ 061100Z 0612/0718 22018KT 9999 FEW012 BKN020 ","updated":"2025-11-06T12:38:21Z"}
