{"icao":"LPPS","taf":"TAF LPPS 040500Z 0406/0512 05007KT 9999 SCT015 SCT030= TAF LPPT 040500Z 0406/0512 33008KT 9999 SCT012 ","updated":"2025-10-04T05:15:43Z"}
