{"icao":"LPPR","taf":"TAF LPPR 201700Z 2018/2118 20010KT 9999 SCT008 BKN020 ","updated":"2025-10-20T19:14:49Z"}
