{"icao":"KLAX","taf":"TAF KLAX 101720Z 1018/1124 09004KT P6SM SKC ","updated":"2025-12-10T17:21:15Z"}
