{"icao":"LPMR","taf":"TAF TAF LPMR 261101Z 2612/2712 28008KT 9999 FEW022 SCT030 ","updated":"2026-06-26T15:22:02Z"}
