{"icao":"KORD","taf":"TAF KORD 201720Z 2018/2124 20008KT P6SM SCT045 SCT250 ","updated":"2026-04-20T17:56:49Z"}
