{"icao":"LPBJ","taf":"TAF TAF LPBJ 191107Z 1912/2012 15010KT CAVOK ","updated":"2026-04-19T16:38:36Z"}
