{"icao":"LPOV","taf":"TAF LPOV 260507Z 2606/2706 VRB02KT 0100 FG BKN002 ","updated":"2026-05-26T09:54:59Z"}
