{"icao":"LPBJ","taf":"TAF TAF LPBJ 021704Z 0218/0318 33012KT CAVOK ","updated":"2026-06-02T18:37:49Z"}
