{"icao":"LPMT","taf":"TAF LPMT 231703Z 2318/2418 27008KT CAVOK ","updated":"2026-02-23T23:33:15Z"}
