{"icao":"LPPR","taf":"TAF LPPR 221100Z 2212/2312 33013KT CAVOK PROB40 ","updated":"2025-09-22T17:14:33Z"}
