{"icao":"LPMT","taf":"TAF TAF LPMT 070506Z 0706/0806 19010KT 9999 SCT020 ","updated":"2026-02-07T06:40:17Z"}
