{"icao":"LPBJ","taf":"TAF TAF LPBJ 100507Z 1006/1106 30005KT 3000 VCFG SCT005 PROB40 1006/1009 0400 FG BKN004 ","updated":"2026-01-10T09:19:12Z"}
