{"icao":"KORD","taf":"TAF KORD 171127Z 1712/1818 15008KT P6SM FEW060 SCT120 BKN200 PROB30 1715/1717 -SHRA BKN060 ","updated":"2026-05-17T14:55:05Z"}
