{"icao":"LPPT","taf":"TAF LPPT 261700Z 2618/2724 06008KT 9999 FEW020 PROB30 2618/2622 34008KT ","updated":"2025-10-27T04:27:58Z"}
