{"icao":"KJFK","taf":"TAF KJFK 071732Z 0718/0824 29017G28KT P6SM BKN035 ","updated":"2026-01-07T19:19:21Z"}
