{"icao":"LPMT","taf":"TAF LPMT 041112Z 0412/0512 15005KT 9999 SCT030 ","updated":"2025-11-04T12:40:52Z"}
