{"icao":"KORD","taf":"TAF KORD 031733Z 0318/0424 25011G17KT 6SM -SN SCT010 OVC015 ","updated":"2025-12-03T20:23:11Z"}
