{"icao":"LPPT","taf":"TAF LPPT 221100Z 2212/2318 05007KT CAVOK ","updated":"2025-11-22T14:15:19Z"}
