{"icao":"LPBJ","taf":"TAF TAF LPBJ 041703Z 0418/0518 31010KT 9999 FEW015 PROB40 0500/0508 3000 BCFG BKN002 ","updated":"2025-10-05T04:19:13Z"}
