{"icao":"LPOV","taf":"TAF LPOV 221105Z 2212/2312 27010KT 9999 FEW035 ","updated":"2026-04-22T13:24:29Z"}
