{"icao":"LPOV","taf":"TAF LPOV 091104Z 0912/1012 34017KT CAVOK ","updated":"2026-06-09T15:53:16Z"}
