{"icao":"LPFR","taf":"TAF LPFR 291710Z 2918/3018 25017KT 8000 BKN008 ","updated":"2026-01-29T22:26:25Z"}
