{"icao":"LPLA","taf":"TAF LPLA 030503Z 0306/0406 32018KT 9999 SCT025 BKN035 ","updated":"2026-01-03T07:18:13Z"}
