{"icao":"KJFK","taf":"TAF KJFK 261732Z 2618/2724 35008KT P6SM FEW030 FEW090 SCT250 ","updated":"2025-10-26T19:13:58Z"}
