{"icao":"KJFK","taf":"TAF KJFK 201129Z 2012/2118 29019G28KT P6SM SCT070 ","updated":"2026-06-20T13:59:51Z"}
