{"icao":"KLAX","taf":"TAF KLAX 140544Z 1406/1512 26010KT P6SM SKC ","updated":"2026-04-14T07:43:20Z"}
