{"icao":"LPAZ","taf":"TAF TAF LPAZ 081700Z 0818/0924 16010KT 9999 SCT012 ","updated":"2025-10-08T21:16:03Z"}
