{"icao":"KJFK","taf":"TAF KJFK 220522Z 2206/2312 VRB05KT P6SM SCT060 BKN100 BKN250 ","updated":"2026-06-22T06:28:10Z"}
