{
  "icao": "LPPT",
  "taf": "TAF LPPT 130200Z 1303/1403 33008KT CAVOK BECMG 1312/1314 28010KT"
}
