{"icao":"LPOV","taf":"TAF LPOV 021700Z 0218/0318 32008KT CAVOK PROB40 ","updated":"2025-10-02T17:12:58Z"}
