{"icao":"KJFK","taf":"TAF KJFK 300527Z 3006/3112 20014KT P6SM BKN150 ","updated":"2026-03-30T07:25:45Z"}
