{"icao":"LPBJ","taf":"TAF TAF LPBJ 030507Z 0306/0406 06010KT 9999 SCT015 BKN030 ","updated":"2026-03-03T05:48:02Z"}
