{"icao":"LPMT","taf":"TAF LPMT 010501Z 0106/0206 04008KT CAVOK ","updated":"2026-04-01T05:22:35Z"}
