{"icao":"LPOV","taf":"TAF LPOV 040507Z 0406/0506 35005KT 9999 SCT014 BKN030 ","updated":"2026-06-04T08:19:27Z"}
