{"icao":"LPLA","taf":"TAF LPLA 231104Z 2312/2412 33015KT 9999 SCT022 BKN030 ","updated":"2025-09-23T13:27:03Z"}
