{"icao":"KORD","taf":"TAF KORD 301121Z 3012/3118 32006KT P6SM BKN100 ","updated":"2026-01-30T11:26:56Z"}
