{"icao":"KJFK","taf":"TAF KJFK 151720Z 1518/1624 31018G25KT P6SM BKN120 ","updated":"2025-12-15T17:23:29Z"}
