{"icao":"LPLA","taf":"TAF LPLA 210510Z 2106/2206 28018KT 8000 -RA SCT009 BKN015 ","updated":"2026-01-21T07:27:23Z"}
