{"icao":"LPMA","taf":"TAF LPMA 191100Z 1912/2012 01010KT 9999 SCT015 ","updated":"2026-01-19T16:27:55Z"}
