{"icao":"LPBJ","taf":"TAF TAF LPBJ 241101Z 2412/2512 16010KT CAVOK ","updated":"2026-02-24T13:03:03Z"}
