{"icao":"LPMR","taf":"TAF TAF LPMR 131702Z 1318/1418 16015KT 9999 SCT018 BKN030 ","updated":"2025-11-13T23:17:42Z"}
