{"icao":"LPBJ","taf":"TAF TAF LPBJ 051701Z 0518/0618 28010KT 9999 SCT008 BKN020 ","updated":"2025-12-06T01:22:27Z"}
