{"icao":"KJFK","taf":"TAF KJFK 141741Z 1418/1524 34015G23KT P6SM BKN050 ","updated":"2025-12-14T18:26:39Z"}
