{"icao":"LPOV","taf":"TAF LPOV 071100Z 0712/0812 29008KT CAVOK ","updated":"2026-05-07T14:04:43Z"}
