{"icao":"KJFK","taf":"TAF KJFK 241127Z 2412/2518 01010KT P6SM BKN100 ","updated":"2026-04-24T11:55:44Z"}
