{"icao":"KORD","taf":"TAF KORD 151123Z 1512/1618 10012G17KT P6SM BKN060 OVC150 WS020/19055KT ","updated":"2026-03-15T14:28:47Z"}
