{"icao":"LPPS","taf":"TAF LPPS 280500Z 2806/2912 35012KT 9999 SCT015 BKN030 ","updated":"2026-04-28T08:34:22Z"}
