{"icao":"KLAX","taf":"TAF KLAX 091723Z 0918/1024 06004KT P6SM BKN250 ","updated":"2026-02-09T17:53:22Z"}
