{"icao":"LPBJ","taf":"TAF TAF LPBJ 161101Z 1612/1712 28010KT 9999 SCT020 BKN025 PROB40 ","updated":"2026-02-16T16:41:14Z"}
