{"icao":"LPPR","taf":"TAF LPPR 271100Z 2712/2812 VRB02KT CAVOK ","updated":"2025-11-27T17:15:27Z"}
