{"icao":"KLAX","taf":"TAF KLAX 090540Z 0906/1012 25010KT P6SM SKC ","updated":"2025-10-09T06:27:36Z"}
