{"icao":"LPPS","taf":"TAF LPPS 250009Z 2500/2606 19005KT 9999 SCT015 BKN030 ","updated":"2025-10-25T01:19:07Z"}
