{"icao":"KJFK","taf":"TAF KJFK 261123Z 2612/2718 04010KT P6SM SCT015 OVC050 ","updated":"2026-04-26T11:37:55Z"}
