{"icao":"LPFR","taf":"TAF LPFR 041100Z 0412/0512 02012KT 9999 SCT025 PROB30 ","updated":"2026-01-04T16:23:07Z"}
