{"icao":"LPMR","taf":"TAF TAF LPMR 071110Z 0712/0812 20012KT 9999 SCT010 BKN018 ","updated":"2025-11-07T16:19:21Z"}
