{"icao":"LPAZ","taf":"TAF TAF LPAZ 150500Z 1506/1612 20013KT 9999 BKN030","updated":"2026-02-15T09:29:55Z"}
