{"icao":"LPPR","taf":"TAF LPPR 210500Z 2106/2206 VRB02KT CAVOK ","updated":"2025-11-21T05:18:36Z"}
