{"icao":"KJFK","taf":"TAF KJFK 311122Z 3112/0118 21010KT P6SM OVC060 ","updated":"2026-03-31T13:16:14Z"}
