{"icao":"LPAZ","taf":"TAF TAF LPAZ 100500Z 1006/1112 17013KT 9999 SCT006 SCT012 ","updated":"2025-10-10T07:16:57Z"}
