{"icao":"LPPR","taf":"TAF LPPR 010500Z 0106/0206 09007KT CAVOK ","updated":"2025-10-01T10:18:29Z"}
