{"icao":"LPMT","taf":"TAF LPMT 300508Z 3006/3106 01010KT CAVOK ","updated":"2026-03-30T05:22:51Z"}
