{"icao":"KJFK","taf":"TAF KJFK 011121Z 0112/0218 28017G26KT P6SM FEW060 ","updated":"2025-11-01T14:14:32Z"}
