{"icao":"LPBJ","taf":"TAF TAF LPBJ 240522Z 2406/2506 14010KT CAVOK PROB30 2406/2408 2000 BCFG BKN002 ","updated":"2026-03-24T08:52:08Z"}
