{"icao":"LPMR","taf":"TAF TAF LPMR 300505Z 3006/3106 34008KT 9999 BKN008 PROB40 3006/3008 4000 BR BKN004 ","updated":"2026-05-30T11:18:32Z"}
