{"icao":"LPPD","taf":"TAF LPPD 111100Z 1112/1212 03015KT 9999 SCT020 ","updated":"2026-05-11T16:31:56Z"}
