{"icao":"KJFK","taf":"TAF KJFK 181737Z 1818/1924 20009KT P6SM BKN200 ","updated":"2025-10-18T19:13:04Z"}
