{"icao":"KORD","taf":"TAF KORD 091503Z 0915/1018 30018G28KT P6SM -DZ OVC018 ","updated":"2026-01-09T15:22:51Z"}
