{"icao":"LPLA","taf":"TAF LPLA 241700Z 2418/2518 VRB05KT 9999 FEW0122 PROB30 ","updated":"2025-11-24T21:17:51Z"}
