{"icao":"LPFR","taf":"TAF LPFR 261100Z 2612/2712 21008KT 9999 SCT025 ","updated":"2025-10-26T14:14:54Z"}
