{"icao":"KJFK","taf":"TAF KJFK 040540Z 0406/0512 24012KT P6SM FEW070 ","updated":"2026-05-04T06:11:48Z"}
