{"icao":"LPBJ","taf":"TAF TAF LPBJ 211104Z 2112/2212 09008KT CAVOK PROB30 2204/2208 2000 BCFG SCT002","updated":"2026-02-21T14:24:54Z"}
