{"icao":"KJFK","taf":"TAF KJFK 151121Z 1512/1618 32014G21KT P6SM SCT045 SCT250 ","updated":"2026-06-15T13:11:27Z"}
