{"icao":"LPOV","taf":"TAF LPOV 191100Z 1912/2012 01010KT 9999 FEW025 ","updated":"2025-11-19T15:19:59Z"}
