{"icao":"KLAX","taf":"TAF KLAX 080530Z 0806/0912 24005KT P6SM BKN012 ","updated":"2025-10-08T07:17:08Z"}
