{"icao":"KORD","taf":"TAF KORD 170520Z 1706/1812 26014G23KT P6SM SCT025 BKN050 ","updated":"2026-01-17T06:29:39Z"}
