{"icao":"LPPT","taf":"TAF LPPT 160500Z 1606/1712 06007KT CAVOK ","updated":"2026-03-16T07:14:59Z"}
