{"icao":"LPFR","taf":"TAF LPFR 281700Z 2818/2918 26015KT 8000 SCT012 BKN030 ","updated":"2026-01-28T17:30:40Z"}
