{"icao":"LPBJ","taf":"TAF TAF LPBJ 060502Z 0606/0706 33005KT CAVOK PROB30 0606/0610 4000 BCFG SCT004 ","updated":"2026-01-06T10:22:19Z"}
