{"icao":"LPLA","taf":"TAF LPLA 060504Z 0606/0706 20010KT 9999 FEW020 SCT030 PROB30 ","updated":"2025-10-06T09:21:03Z"}
