{"icao":"LPLA","taf":"TAF LPLA 261103Z 2612/2712 19012KT 9999 FEW014 SCT018 ","updated":"2025-11-26T15:18:10Z"}
