{"icao":"KLAX","taf":"TAF KLAX 261739Z 2618/2724 VRB03KT 3SM HZ OVC010 ","updated":"2025-10-26T18:23:53Z"}
