{"icao":"KJFK","taf":"TAF KJFK 120535Z 1206/1312 28014G22KT P6SM SCT050 ","updated":"2025-12-12T08:28:26Z"}
