{"icao":"KORD","taf":"TAF KORD 191120Z 1912/2018 19013G24KT P6SM -SHRA SCT030 BKN090 ","updated":"2026-05-19T12:08:58Z"}
