{"icao":"KORD","taf":"TAF KORD 201741Z 2018/2124 23012KT P6SM SCT250 ","updated":"2026-01-20T18:35:39Z"}
