{"icao":"LPMR","taf":"TAF TAF LPMR 171707Z 1718/1818 33012KT 9999 FEW012 ","updated":"2026-06-17T23:23:56Z"}
