{"icao":"LPPT","taf":"TAF LPPT 181700Z 1818/1924 34015KT CAVOK ","updated":"2026-06-19T00:24:56Z"}
