{"icao":"LPBJ","taf":"TAF TAF LPBJ 181109Z 1812/1912 24008KT 9999 FEW015 BKN030 ","updated":"2026-02-18T17:01:48Z"}
