{"icao":"KLAX","taf":"TAF KLAX 271144Z 2712/2818 VRB03KT P6SM SKC ","updated":"2025-12-27T12:37:52Z"}
