{"icao":"LPBJ","taf":"TAF TAF LPBJ 251707Z 2518/2618 03007KT CAVOK ","updated":"2026-03-26T05:04:32Z"}
