{"icao":"KJFK","taf":"TAF KJFK 101738Z 1018/1124 19006KT P6SM FEW250 ","updated":"2026-03-10T18:44:39Z"}
