{"icao":"KJFK","taf":"TAF KJFK 020524Z 0206/0312 33007KT P6SM BKN250 ","updated":"2025-11-02T08:20:23Z"}
