{"icao":"LPPR","taf":"TAF LPPR 281100Z 2812/2912 36007KT CAVOK ","updated":"2026-03-28T14:30:32Z"}
