{"icao":"LPAZ","taf":"TAF LPAZ 031100Z 0312/0418 30010KT 9999 FEW015 SCT025 ","updated":"2026-03-03T13:59:22Z"}
