{"icao":"KLAX","taf":"TAF KLAX 191137Z 1912/2018 VRB03KT P6SM SCT220 ","updated":"2026-04-19T12:59:47Z"}
