{"icao":"KORD","taf":"TAF KORD 161120Z 1612/1718 32015G25KT P6SM SKC ","updated":"2025-11-16T13:23:13Z"}
