{"icao":"LPBJ","taf":"TAF TAF LPBJ 161105Z 1612/1712 25010KT 9999 SCT020 ","updated":"2025-11-16T12:34:00Z"}
