{"icao":"LPMT","taf":"TAF LPMT 011106Z 0112/0212 10007KT 9999 FEW030 ","updated":"2026-01-01T11:17:22Z"}
