{"icao":"LPBJ","taf":"TAF TAF LPBJ 091702Z 0918/1018 VRB02KT CAVOK PROB30 ","updated":"2025-11-09T20:17:51Z"}
