{"icao":"KORD","taf":"TAF KORD 101726Z 1018/1124 31011G19KT P6SM SCT080 ","updated":"2026-05-10T19:01:34Z"}
