{"icao":"KORD","taf":"TAF KORD 020539Z 0206/0312 34006KT P6SM SCT025 BKN035 ","updated":"2025-11-02T06:25:58Z"}
