{"icao":"KORD","taf":"TAF KORD 131120Z 1312/1418 34014G23KT P6SM BKN035 ","updated":"2026-05-13T13:10:00Z"}
