{"icao":"KLAX","taf":"TAF KLAX 291130Z 2912/3018 09005KT P6SM SKC ","updated":"2025-10-29T12:39:45Z"}
