{"icao":"LPMR","taf":"TAF TAF LPMR 011703Z 0118/0218 14012KT 9999 SCT015 ","updated":"2026-01-01T20:22:21Z"}
