{"icao":"LPLA","taf":"TAF LPLA 051700Z 0518/0618 23008KT 9999 FEW025 SCT045 PROB40 ","updated":"2025-11-05T21:17:23Z"}
