{"icao":"KJFK","taf":"TAF KJFK 280521Z 2806/2912 02009KT P6SM SCT050 ","updated":"2025-10-28T07:17:45Z"}
