{"icao":"KJFK","taf":"TAF KJFK 290529Z 2906/3012 28016G25KT P6SM FEW250 ","updated":"2025-11-29T08:23:36Z"}
