{"icao":"LPPT","taf":"TAF LPPT 190500Z 1906/2012 VRB02KT CAVOK ","updated":"2026-04-19T05:27:43Z"}
