{"icao":"LPOV","taf":"TAF LPOV 211704Z 2118/2218 34008KT CAVOK ","updated":"2026-02-21T20:23:24Z"}
