{"icao":"LPAZ","taf":"TAF TAF LPAZ 261100Z 2612/2718 04015KT 9999 FEW015 SCT030 ","updated":"2025-10-26T17:14:04Z"}
