{"icao":"LPPT","taf":"TAF LPPT 290500Z 2906/3012 23015KT 6000 -RA SCT004 BKN008 ","updated":"2026-01-29T06:44:26Z"}
