{"icao":"LPLA","taf":"TAF LPLA 111103Z 1112/1212 32015KT 9999 FEW020 SCT030 PROB30 ","updated":"2025-12-11T14:20:57Z"}
