{"icao":"LPPT","taf":"TAF LPPT 271100Z 2712/2818 20015KT 9999 SCT008 BKN018 ","updated":"2025-09-27T12:31:45Z"}
