{"icao":"KJFK","taf":"TAF KJFK 041739Z 0418/0524 29015G25KT P6SM BKN045 ","updated":"2025-12-04T18:31:02Z"}
