{"icao":"LPAZ","taf":"TAF LPAZ 061700Z 0618/0724 14012KT 9999 FEW025 BKN040 ","updated":"2026-03-07T03:59:50Z"}
