{"icao":"LPPR","taf":"TAF LPPR 041700Z 0418/0518 VRB02KT 5000 BR SCT003 BKN006 ","updated":"2025-10-04T19:11:49Z"}
