{"icao":"KLAX","taf":"TAF KLAX 111745Z 1118/1224 24006KT P6SM SKC ","updated":"2025-10-11T19:12:42Z"}
