{"icao":"KLAX","taf":"TAF KLAX 291125Z 2912/3018 VRB03KT P6SM SKC ","updated":"2026-04-29T13:53:09Z"}
