{"icao":"LPPT","taf":"TAF LPPT 071700Z 0718/0824 31015KT CAVOK ","updated":"2026-06-07T18:02:18Z"}
