{"icao":"LPLA","taf":"TAF LPLA 241101Z 2412/2512 VRB05KT 9999 FEW022 PROB30 ","updated":"2025-11-24T15:21:22Z"}
