{"icao":"LPAZ","taf":"TAF TAF LPAZ 211100Z 2112/2218 24015KT 9999 SCT020 ","updated":"2026-05-21T15:21:18Z"}
