{"icao":"LPBJ","taf":"TAF TAF LPBJ 070511Z 0706/0806 21005KT 9999 SCT040 ","updated":"2025-11-07T08:25:05Z"}
