{"icao":"KORD","taf":"TAF KORD 241125Z 2412/2518 21008KT P6SM SCT050 BKN250 ","updated":"2026-04-24T15:06:39Z"}
