{"icao":"LPPR","taf":"TAF LPPR 251100Z 2512/2612 35008KT 9999 SCT015 BKN035 ","updated":"2025-10-25T12:32:55Z"}
