{"icao":"LPFR","taf":"TAF LPFR 291700Z 2918/3018 24010KT 9999 FEW030 ","updated":"2025-09-30T04:20:57Z"}
