{"icao":"LPPS","taf":"TAF LPPS 230500Z 2306/2412 VRB05KT 9999 FEW015 PROB30 ","updated":"2026-02-23T08:50:10Z"}
