{"icao":"LPMA","taf":"TAF LPMA 200500Z 2006/2106 VRB05KT 9999 SCT013 ","updated":"2025-10-20T10:20:22Z"}
