{"icao":"LPBJ","taf":"TAF TAF LPBJ 270509Z 2706/2806 12008KT CAVOK ","updated":"2026-05-27T08:01:55Z"}
