{"icao":"KORD","taf":"TAF KORD 071720Z 0718/0824 02006KT P6SM FEW030 FEW100 SCT250 ","updated":"2026-02-07T19:23:19Z"}
