{"icao":"KLAX","taf":"TAF KLAX 190529Z 1906/2012 VRB03KT P6SM BKN250 ","updated":"2026-01-19T07:28:25Z"}
