{"icao":"LPAZ","taf":"TAF LPAZ 150500Z 1506/1612 33015KT 9999 SCT020 ","updated":"2025-11-15T05:17:32Z"}
