{"icao":"LPMA","taf":"TAF LPMA 101700Z 1018/1118 01018KT 9999 SCT015 ","updated":"2026-06-10T22:05:37Z"}
