{"icao":"LPMT","taf":"TAF LPMT 301703Z 3018/3118 VRB02KT 9999 FEW015 ","updated":"2025-12-30T23:18:06Z"}
