{"icao":"LPPS","taf":"TAF LPPS 131700Z 1318/1424 34010KT 9999 SCT015 PROB30 ","updated":"2026-05-13T20:44:09Z"}
