{"icao":"KLAX","taf":"TAF KLAX 151741Z 1518/1624 26006KT 2SM BR SCT002 BKN008 ","updated":"2025-12-15T19:18:40Z"}
