{"icao":"LPAZ","taf":"TAF TAF LPAZ 261100Z 2612/2718 32012KT 9999 FEW018 BKN035 ","updated":"2026-06-26T15:22:17Z"}
