{"icao":"LPPD","taf":"TAF LPPD 311700Z 3118/0118 36012KT 9999 SCT025 ","updated":"2025-11-01T01:26:38Z"}
