{"icao":"KLAX","taf":"TAF KLAX 020540Z 0206/0312 25015KT P6SM SCT030 SCT150 ","updated":"2026-04-02T08:55:07Z"}
