{"icao":"KORD","taf":"TAF KORD 031727Z 0318/0424 02009KT P6SM BKN025 ","updated":"2026-02-03T19:43:40Z"}
