{"icao":"LPMT","taf":"TAF LPMT 191704Z 1918/2018 34008KT 9999 FEW045 ","updated":"2026-02-19T17:48:54Z"}
