{"icao":"LPLA","taf":"TAF LPLA 151707Z 1518/1618 35008KT 9999 SCT030 ","updated":"2026-05-15T20:16:01Z"}
