{"icao":"LPMT","taf":"TAF LPMT 221705Z 2218/2318 27008KT CAVOK ","updated":"2026-04-22T18:03:00Z"}
