{"icao":"LPPD","taf":"TAF LPPD 161700Z 1618/1718 32012KT 9999 FEW018 BKN040 ","updated":"2026-01-16T21:19:55Z"}
