{"icao":"KORD","taf":"TAF KORD 101120Z 1012/1118 22012KT P6SM BKN150 WS020/24050KT ","updated":"2026-02-10T13:11:22Z"}
