{"icao":"LPPR","taf":"TAF LPPR 271700Z 2718/2818 33010KT CAVOK ","updated":"2026-03-28T04:51:16Z"}
