{"icao":"KJFK","taf":"TAF KJFK 301140Z 3012/3118 07016G24KT 5SM -SHRA BR BKN007 OVC012 ","updated":"2025-10-30T13:29:35Z"}
