{"icao":"LPPS","taf":"TAF LPPS 021100Z 0212/0318 01013KT 9999 SCT012 BKN025 PROB40 ","updated":"2026-06-02T14:51:37Z"}
