{"icao":"KLAX","taf":"TAF KLAX 240609Z 2406/2512 VRB03KT P6SM SCT010 ","updated":"2025-10-24T06:26:38Z"}
