{"icao":"KORD","taf":"TAF KORD 170520Z 1706/1812 VRB03KT P6SM SKC ","updated":"2025-09-17T06:26:51Z"}
