{"icao":"LPMT","taf":"TAF LPMT 271703Z 2718/2818 02010KT CAVOK","updated":"2026-03-27T21:32:34Z"}
