{"icao":"LPPT","taf":"TAF LPPT 041700Z 0418/0524 33012KT 9999 FEW025 PROB30 ","updated":"2025-10-04T23:15:02Z"}
