{"icao":"KJFK","taf":"TAF KJFK 191720Z 1918/2024 32018G27KT P6SM -SHRA SCT020 OVC050 ","updated":"2026-04-19T17:34:19Z"}
