{"icao":"LPOV","taf":"TAF LPOV 101700Z 1018/1118 34012KT 9999 SCT030 ","updated":"2026-03-10T18:44:36Z"}
