{"icao":"KORD","taf":"TAF KORD 131725Z 1318/1424 19005KT P6SM BKN070 ","updated":"2025-10-13T20:19:23Z"}
