{"icao":"KORD","taf":"TAF KORD 231720Z 2318/2424 29008KT P6SM SCT250 ","updated":"2025-12-23T20:21:04Z"}
