{"icao":"LPMR","taf":"TAF TAF LPMR 211110Z 2112/2212 21012KT 9999 FEW018 ","updated":"2026-04-21T16:59:32Z"}
