{"icao":"KJFK","taf":"TAF KJFK 301727Z 3018/0124 VRB05KT P6SM BKN012 OVC040 ","updated":"2026-04-30T19:19:03Z"}
