{"icao":"LPOV","taf":"TAF LPOV 141103Z 1412/1512 26010KT 8000 -RA SCT006 BKN015 ","updated":"2026-03-14T15:27:14Z"}
