{"icao":"LPMT","taf":"TAF TAF LPMT 100505Z 1006/1106 34010KT 9999 SCT030 ","updated":"2026-03-10T08:40:14Z"}
