{"icao":"LPAZ","taf":"TAF TAF LPAZ 041100Z 0412/0518 30007KT 9999 FEW020 BKN040 ","updated":"2026-04-04T13:52:43Z"}
