{"icao":"KORD","taf":"TAF KORD 081720Z 0818/0924 18018G27KT P6SM OVC200 ","updated":"2026-04-08T20:40:45Z"}
