{"icao":"KLAX","taf":"TAF KLAX 041124Z 0412/0518 26012KT P6SM BKN060 BKN150 ","updated":"2026-05-04T11:47:13Z"}
