{"icao":"LPLA","taf":"TAF LPLA 110507Z 1106/1206 29018G28KT 9999 FEW018 SCT022 ","updated":"2025-11-11T09:20:24Z"}
