{"icao":"LPPD","taf":"TAF LPPD 241100Z 2412/2512 29015KT 9999 SCT020 ","updated":"2026-02-24T11:39:20Z"}
