{"icao":"LPLA","taf":"TAF TAF LPLA 290000Z 2900/2924 11020KT 8000 -RA FEW014 BKN025 ","updated":"2025-12-29T01:46:21Z"}
