{"icao":"LPMR","taf":"TAF TAF LPMR 030508Z 0306/0406 32005KT 0800 FG SCT001 BKN003 PROB40 0306/0309 14005KT 0200 FG BKN002 ","updated":"2026-04-03T10:41:43Z"}
