{"icao":"LPFR","taf":"TAF LPFR 281100Z 2812/2912 10012KT 9999 SCT012 SCT035 ","updated":"2025-10-28T14:18:44Z"}
