{"icao":"LPLA","taf":"TAF LPLA 141709Z 1418/1518 32008KT 9999 SCT025 PROB40 ","updated":"2026-03-14T17:25:32Z"}
