{"icao":"LPPR","taf":"TAF LPPR 090500Z 0906/1006 19005KT 6000 -RA SCT012 BKN020 ","updated":"2026-03-09T05:56:22Z"}
