{"icao":"KLAX","taf":"TAF KLAX 110529Z 1106/1212 VRB03KT P6SM SKC ","updated":"2026-01-11T08:25:45Z"}
