{"icao":"LPPT","taf":"TAF LPPT 300500Z 3006/3112 VRB02KT 0100 FG VV001 ","updated":"2025-12-30T09:24:15Z"}
