{"icao":"LPAZ","taf":"TAF TAF LPAZ 311700Z 3118/0124 33012KT 9999 SCT015 PROB30 ","updated":"2025-12-31T19:15:36Z"}
