{"icao":"LPBJ","taf":"TAF TAF LPBJ 201705Z 2018/2118 33010KT CAVOK PROB40 ","updated":"2025-09-20T20:16:29Z"}
