{"icao":"LPBJ","taf":"TAF TAF LPBJ 031101Z 0312/0412 30008KT CAVOK PROB30 0404/0408 2000 BCFG BKN004","updated":"2025-10-03T13:24:25Z"}
