{"icao":"LPOV","taf":"TAF LPOV 171102Z 1712/1812 32007KT 7000 FEW004 PROB40 ","updated":"2025-10-17T14:17:22Z"}
