{"icao":"KORD","taf":"TAF KORD 301720Z 3018/0124 07009KT P6SM VCSH SCT025 BKN050 ","updated":"2026-04-30T20:58:49Z"}
