{"icao":"LPFR","taf":"TAF TAF LPFR 170500Z 1706/1806 03007KT CAVOK ","updated":"2026-04-17T10:54:11Z"}
