{"icao":"LPBJ","taf":"TAF TAF LPBJ 091706Z 0918/1018 25010KT 6000 -RADZ SCT004 BKN010 ","updated":"2026-02-09T22:34:10Z"}
