{"icao":"KORD","taf":"TAF KORD 101133Z 1012/1118 35009KT 6SM -SHRADZ BR BKN005 ","updated":"2026-04-10T13:07:18Z"}
