{"icao":"LPBJ","taf":"TAF TAF LPBJ 051707Z 0518/0618 31010KT CAVOK ","updated":"2026-05-05T21:59:46Z"}
