{"icao":"KLAX","taf":"TAF KLAX 231720Z 2318/2424 08004KT P6SM SCT015 ","updated":"2025-10-23T19:14:31Z"}
