{"icao":"LPBJ","taf":"TAF TAF LPBJ 161706Z 1618/1718 17007KT 9999 SCT030 ","updated":"2025-10-16T22:13:24Z"}
