{"icao":"KLAX","taf":"TAF KLAX 291136Z 2912/3018 26005KT P6SM FEW010 ","updated":"2025-09-29T12:37:45Z"}
