{"icao":"LPOV","taf":"TAF LPOV 190501Z 1906/2006 VRB02KT 6000 BKN008 ","updated":"2026-06-19T06:16:52Z"}
