{"icao":"LPFR","taf":"TAF LPFR 281700Z 2818/2918 30008KT CAVOK ","updated":"2025-09-28T23:14:50Z"}
