{"icao":"LPMR","taf":"TAF TAF LPMR 291707Z 2918/3018 35012KT CAVOK ","updated":"2025-09-29T21:14:55Z"}
