{"icao":"KORD","taf":"TAF KORD 160520Z 1606/1712 10006KT P6SM FEW025 BKN040 ","updated":"2025-10-16T06:27:19Z"}
