{"icao":"LPAZ","taf":"TAF TAF LPAZ 220500Z 2206/2312 28018KT 9999 SCT006 SCT012 ","updated":"2026-01-22T07:26:10Z"}
