{"icao":"LPPS","taf":"TAF LPPS 261100Z 2612/2718 06010KT 9999 SCT015 ","updated":"2025-11-26T15:18:14Z"}
