{"icao":"LPPR","taf":"TAF LPPR 121100Z 1212/1312 10010KT CAVOK ","updated":"2025-10-12T12:32:20Z"}
