{"icao":"LPPT","taf":"TAF LPPT 201700Z 2018/2124 08008KT CAVOK ","updated":"2026-02-20T22:24:20Z"}
