{"icao":"LPFR","taf":"TAF LPFR 131700Z 1318/1418 32015KT 9999 SCT030 ","updated":"2026-04-13T19:23:03Z"}
