{"icao":"LPBJ","taf":"TAF TAF LPBJ 020501Z 0206/0306 34006KT CAVOK ","updated":"2026-04-02T10:00:59Z"}
