{"icao":"KJFK","taf":"TAF KJFK 120544Z 1206/1312 36012KT P6SM SCT100 SCT250 ","updated":"2026-05-12T06:35:18Z"}
