{"icao":"LPLA","taf":"TAF LPLA 311709Z 3118/0118 32010KT 9999 FEW022 PROB30 ","updated":"2026-01-01T03:49:10Z"}
