{"icao":"LPMT","taf":"TAF LPMT 101105Z 1012/1112 36007KT CAVOK ","updated":"2025-10-10T12:36:39Z"}
