{"icao":"LPPR","taf":"TAF LPPR 011100Z 0112/0212 26007KT 9999 FEW020 SCT035 ","updated":"2026-05-01T14:53:44Z"}
