{"icao":"KLAX","taf":"TAF KLAX 300534Z 3006/3112 08005KT P6SM BKN200 ","updated":"2025-12-30T06:32:25Z"}
