{"icao":"LPPD","taf":"TAF LPPD 221700Z 2218/2318 25013KT 9999 FEW020 SCT030 ","updated":"2025-12-22T18:29:27Z"}
