{"icao":"LPPR","taf":"TAF LPPR 241100Z 2412/2512 10012KT CAVOK ","updated":"2025-09-24T12:36:12Z"}
