{"icao":"KJFK","taf":"TAF KJFK 040523Z 0406/0512 25008KT P6SM SKC ","updated":"2025-10-04T06:23:28Z"}
