{"icao":"KORD","taf":"TAF KORD 280528Z 2806/2912 09010KT P6SM SCT250 ","updated":"2025-10-28T07:17:46Z"}
