{"icao":"KLAX","taf":"TAF KLAX 281736Z 2818/0124 VRB03KT P6SM BKN250 ","updated":"2026-02-28T19:19:44Z"}
