{"icao":"LPOV","taf":"TAF LPOV 101702Z 1018/1118 34018KT CAVOK ","updated":"2026-06-10T19:34:36Z"}
