{"icao":"KJFK","taf":"TAF KJFK 121731Z 1218/1324 28017G25KT P6SM SKC ","updated":"2025-12-12T20:21:37Z"}
