{"icao":"LPMR","taf":"TAF TAF LPMR 131703Z 1318/1418 30015KT 9999 SCT020 ","updated":"2026-02-13T19:40:43Z"}
