{"icao":"KLAX","taf":"TAF KLAX 050551Z 0506/0612 25006KT 6SM BR BKN012 ","updated":"2025-11-05T06:28:05Z"}
