{"icao":"KJFK","taf":"TAF KJFK 101132Z 1012/1118 19011KT P6SM VCSH SCT050 BKN100 ","updated":"2026-06-10T13:34:12Z"}
