{"icao":"LPLA","taf":"TAF LPLA 011103Z 0112/0212 01008KT 9999 BKN045 PROB30 ","updated":"2025-11-01T14:14:30Z"}
