{"icao":"KLAX","taf":"TAF KLAX 051738Z 0518/0624 VRB03KT P6SM BKN012 ","updated":"2025-10-05T19:12:37Z"}
