{"icao":"LPPT","taf":"TAF LPPT 311700Z 3118/0124 21012KT 9999 SCT008 BKN015 ","updated":"2025-11-01T04:19:00Z"}
