{"icao":"LPPD","taf":"TAF LPPD 010500Z 0106/0206 23018KT 8000 SCT006 SCT012 ","updated":"2026-02-01T07:36:03Z"}
