{"icao":"KORD","taf":"TAF KORD 270520Z 2706/2812 10012KT P6SM FEW070 BKN200 ","updated":"2026-04-27T05:52:34Z"}
