{"icao":"LPAZ","taf":"TAF TAF LPAZ 071100Z 0712/0818 30010KT 9999 FEW012 BKN025 ","updated":"2026-06-07T16:13:34Z"}
