{"icao":"LPPR","taf":"TAF LPPR 291100Z 2912/3012 04005KT CAVOK ","updated":"2025-09-29T13:27:52Z"}
