{"icao":"LPFR","taf":"TAF LPFR 130500Z 1306/1406 16015KT 9999 SCT012 BKN025 ","updated":"2025-11-13T06:28:44Z"}
