{"icao":"LPPR","taf":"TAF LPPR 141700Z 1418/1518 28005KT 0400 FG VV001 ","updated":"2026-06-14T18:10:35Z"}
