{"icao":"LPMT","taf":"TAF LPMT 250509Z 2506/2606 02008KT CAVOK ","updated":"2025-09-25T10:18:31Z"}
