{"icao":"LPMA","taf":"TAF LPMA 161700Z 1618/1718 34010KT 9999 SCT015 ","updated":"2025-12-16T23:18:09Z"}
