{"icao":"LPFR","taf":"TAF LPFR 211100Z 2112/2212 24015KT 9999 SCT012 BKN025 ","updated":"2026-01-21T16:42:46Z"}
