{"icao":"LPMT","taf":"TAF LPMT 141704Z 1418/1518 20012KT 9999 SCT015 SCT030 ","updated":"2025-11-15T03:05:48Z"}
