{"icao":"LPLA","taf":"TAF LPLA 251704Z 2518/2618 VRB05KT 9999 FEW030 ","updated":"2026-02-25T20:34:10Z"}
