{"icao":"KORD","taf":"TAF KORD 041721Z 0418/0524 22012G20KT P6SM SCT250 ","updated":"2026-06-04T20:03:33Z"}
