{"icao":"LPBJ","taf":"TAF TAF LPBJ 231703Z 2318/2418 17005KT CAVOK ","updated":"2026-02-23T18:00:21Z"}
