{"icao":"LPMT","taf":"TAF LPMT 201701Z 2018/2118 27010KT CAVOK ","updated":"2026-04-21T02:30:35Z"}
