{"icao":"KORD","taf":"TAF KORD 131732Z 1318/1424 22012G19KT P6SM BKN015 BKN029 ","updated":"2026-04-13T19:23:21Z"}
