{"icao":"LPLA","taf":"TAF LPLA 051100Z 0512/0612 29018KT 9999 FEW020 SCT040 ","updated":"2026-02-05T14:08:22Z"}
