{"icao":"KJFK","taf":"TAF KJFK 211734Z 2118/2224 24009KT P6SM SCT025 BKN040 ","updated":"2025-11-21T19:15:41Z"}
