{"icao":"LPPT","taf":"TAF LPPT 221700Z 2218/2324 31013KT CAVOK ","updated":"2026-06-23T00:04:03Z"}
