{"icao":"LPMT","taf":"TAF LPMT 290503Z 2906/3006 34010KT 9999 FEW030","updated":"2025-09-29T08:25:52Z"}
