{"icao":"KORD","taf":"TAF KORD 020520Z 0206/0312 08008KT P6SM SCT250 ","updated":"2026-03-02T05:51:36Z"}
