{"icao":"LPPT","taf":"TAF LPPT 251100Z 2512/2618 06005KT CAVOK ","updated":"2026-03-25T11:40:14Z"}
