{"icao":"LPMR","taf":"TAF TAF LPMR 110507Z 1106/1206 34010KT 7000 SCT008 BKN020 ","updated":"2026-04-11T08:41:23Z"}
