{"icao":"KJFK","taf":"TAF KJFK 301720Z 3018/3124 22016G25KT P6SM FEW060 BKN120 ","updated":"2026-03-30T18:59:01Z"}
