{"icao":"KJFK","taf":"TAF KJFK 061132Z 0612/0718 22007KT P6SM SKC ","updated":"2025-10-06T12:37:52Z"}
