{"icao":"LPMT","taf":"TAF TAF LPMT 041705Z 0418/0518 34010KT CAVOK ","updated":"2026-06-04T20:03:28Z"}
