{"icao":"LPMT","taf":"TAF LPMT 311702Z 3118/0118 34008KT CAVOK ","updated":"2026-04-01T02:30:17Z"}
