{"icao":"KLAX","taf":"TAF KLAX 190539Z 1906/2012 VRB03KT P6SM SCT080 ","updated":"2025-11-19T08:25:26Z"}
