{"icao":"KORD","taf":"TAF KORD 011720Z 0118/0224 09011KT P6SM BKN250","updated":"2025-10-01T20:19:50Z"}
