{"icao":"LPPS","taf":"TAF LPPS 300500Z 3006/0112 02013KT 9999 FEW015 BKN030 ","updated":"2025-09-30T06:27:22Z"}
