{"icao":"LPBJ","taf":"TAF TAF LPBJ 020509Z 0206/0306 32012KT 9999 BKN012 ","updated":"2026-06-02T05:47:07Z"}
