{"icao":"LPMR","taf":"TAF TAF LPMR 011101Z 0112/0212 34008KT CAVOK ","updated":"2026-07-01T15:39:47Z"}
