{"icao":"LPPT","taf":"TAF LPPT 251700Z 2518/2624 24008KT CAVOK ","updated":"2026-05-25T18:24:07Z"}
