{"icao":"LPMR","taf":"TAF TAF LPMR 251103Z 2512/2612 33005KT CAVOK ","updated":"2026-03-25T11:40:18Z"}
