{"icao":"KJFK","taf":"TAF KJFK 301129Z 3012/3118 28024G38KT P6SM BKN060 ","updated":"2025-12-30T14:20:21Z"}
