{"icao":"LPLA","taf":"TAF LPLA 190501Z 1906/2006 34012KT 9999 FEW025 SCT035 ","updated":"2025-09-19T08:23:01Z"}
