{"icao":"LPAZ","taf":"TAF TAF LPAZ 171100Z 1712/1818 27005KT 9999 SCT020 ","updated":"2025-10-17T15:18:12Z"}
