{"icao":"LPPR","taf":"TAF LPPR 010500Z 0106/0206 17015KT 6000 -RA SCT008 BKN015 ","updated":"2026-02-01T08:30:56Z"}
