{"icao":"LPPD","taf":"TAF LPPD 220500Z 2206/2306 21010KT 9999 SCT006 SCT012 ","updated":"2025-10-22T09:20:49Z"}
