{"icao":"LPMT","taf":"TAF LPMT 111102Z 1112/1212 33008KT CAVOK ","updated":"2025-10-11T14:13:32Z"}
