{"icao":"KJFK","taf":"TAF KJFK 011120Z 0112/0218 31014KT P6SM FEW090 FEW250 ","updated":"2026-05-01T11:58:29Z"}
