{"icao":"LPBJ","taf":"TAF TAF LPBJ 271104Z 2712/2812 07008KT CAVOK","updated":"2025-11-27T12:39:40Z"}
