{"icao":"LPMR","taf":"TAF TAF LPMR 051106Z 0512/0612 31008KT 9999 SCT022 BKN030 PROB30 ","updated":"2026-05-05T12:00:05Z"}
