{"icao":"KJFK","taf":"TAF KJFK 201722Z 2018/2124 27020G30KT P6SM BKN050 ","updated":"2025-10-20T18:27:21Z"}
