{"icao":"KORD","taf":"TAF KORD 160520Z 1606/1712 32013G23KT P6SM SKC ","updated":"2025-11-16T08:22:05Z"}
