{"icao":"KJFK","taf":"TAF KJFK 041720Z 0418/0524 33014KT P6SM FEW040 ","updated":"2026-02-04T19:37:21Z"}
