{"icao":"KORD","taf":"TAF KORD 070520Z 0706/0812 19012KT P6SM BKN100 WS020/21050KT ","updated":"2026-03-07T06:39:08Z"}
