{"icao":"KORD","taf":"TAF KORD 101720Z 1018/1124 32017G26KT P6SM OVC020 ","updated":"2025-12-10T17:21:15Z"}
