{"icao":"LPAZ","taf":"TAF TAF LPAZ 071100Z 0712/0818 27007KT 9999 SCT012 ","updated":"2025-10-07T15:19:08Z"}
