{"icao":"LPMR","taf":"TAF TAF LPMR 021107Z 0212/0312 16008KT 9999 SCT030 ","updated":"2026-05-02T14:44:40Z"}
