{"icao":"LPAZ","taf":"TAF TAF LPAZ 080500Z 0806/0912 24018KT 8000 SCT006 SCT012 ","updated":"2026-02-08T10:25:21Z"}
