{"icao":"LPAZ","taf":"TAF TAF LPAZ 141700Z 1418/1524 29007KT 9999 SCT020 ","updated":"2025-09-14T18:21:17Z"}
