{"icao":"LPPR","taf":"TAF LPPR 101100Z 1012/1112 03005KT 9999 SCT020 ","updated":"2025-12-10T14:21:01Z"}
