{"icao":"LPPD","taf":"TAF LPPD 091700Z 0918/1018 01012KT 9999 SCT012 BKN035 PROB40 ","updated":"2026-04-10T02:27:41Z"}
