{"icao":"LPMR","taf":"TAF LPMR 222305Z 2300/2324 35005KT CAVOK ","updated":"2025-09-23T03:31:00Z"}
