{"icao":"KORD","taf":"TAF KORD 050520Z 0506/0612 23006KT P6SM SKC ","updated":"2025-12-05T07:20:10Z"}
