{"icao":"KLAX","taf":"TAF KLAX 011619Z 0116/0218 VRB03KT 2SM BR OVC005 ","updated":"2025-11-01T17:13:54Z"}
