{"icao":"LPPD","taf":"TAF LPPD 181700Z 1818/1918 26010KT 9999 SCT006 BKN012 ","updated":"2025-10-18T23:15:33Z"}
