{"icao":"LPBJ","taf":"TAF TAF LPBJ 051705Z 0518/0618 31010KT 9999 SCT020 ","updated":"2026-03-05T22:29:53Z"}
