{"icao":"KJFK","taf":"TAF KJFK 301726Z 3018/3124 10024G38KT 2SM RA BR OVC008 WS020/13055KT ","updated":"2025-10-30T19:14:51Z"}
