{"icao":"LPBJ","taf":"TAF TAF LPBJ 150506Z 1506/1606 29008KT 9999 FEW025 ","updated":"2026-02-15T07:37:00Z"}
