{"icao":"LPPT","taf":"TAF LPPT 191700Z 1918/2024 30007KT CAVOK ","updated":"2026-04-19T23:34:34Z"}
