{"icao":"LPBJ","taf":"TAF TAF LPBJ 091104Z 0912/1012 25010KT 6000 -RA SCT004 BKN008 ","updated":"2026-02-09T11:42:43Z"}
