{"icao":"KORD","taf":"TAF KORD 050540Z 0506/0612 32012G20KT P6SM SCT100 BKN120 ","updated":"2026-05-05T05:41:50Z"}
