{"icao":"LPLA","taf":"TAF LPLA 291707Z 2918/3018 22008KT 9999 FEW014 SCT020 ","updated":"2025-09-29T18:26:34Z"}
