{"icao":"LPOV","taf":"TAF LPOV 231105Z 2312/2412 34012KT 9999 FEW015 SCT030 PROB30 ","updated":"2025-12-23T14:20:00Z"}
