{"icao":"LPMA","taf":"TAF LPMA 071700Z 0718/0818 02012KT 9999 SCT015 ","updated":"2026-01-07T17:25:03Z"}
