{"icao":"LPMA","taf":"TAF LPMA 061700Z 0618/0718 01015KT 9999 SCT015 ","updated":"2026-05-06T18:15:25Z"}
