{"icao":"LPLA","taf":"TAF LPLA 291103Z 2912/3012 24008KT 9999 SCT040 ","updated":"2025-10-29T11:16:20Z"}
