{"icao":"LPLA","taf":"TAF LPLA 151105Z 1512/1612 09006KT 9999 FEW007 SCT014 BKN022 ","updated":"2025-09-15T14:18:17Z"}
