{"icao":"KLAX","taf":"TAF KLAX 121144Z 1212/1318 26005KT 3SM BR OVC002 ","updated":"2026-05-12T11:55:02Z"}
