{"icao":"LPOV","taf":"TAF LPOV 181705Z 1818/1918 VRB02KT 9999 FEW020 PROB40 1823/1909 3000 BCFG BKN004 PROB30 1905/1909 0500 FG BKN002 ","updated":"2025-11-18T17:18:04Z"}
