{"icao":"KORD","taf":"TAF KORD 290520Z 2906/3012 36007KT P6SM VCSH SCT040 BKN080 ","updated":"2026-04-29T06:21:59Z"}
