{"icao":"KJFK","taf":"TAF KJFK 051125Z 0512/0618 06008KT P6SM FEW040 BKN250 ","updated":"2025-12-05T14:20:08Z"}
