{"icao":"LPBJ","taf":"TAF TAF LPBJ 131105Z 1312/1412 29015KT 9999 SCT020 ","updated":"2026-02-13T14:03:05Z"}
