{"icao":"LPPS","taf":"TAF LPPS 100500Z 1006/1112 02015KT 9999 SCT014 SCT030 ","updated":"2026-06-10T09:56:58Z"}
