{"icao":"LPBJ","taf":"TAF TAF LPBJ 050506Z 0506/0606 29005KT 5000 BCFG FEW003 ","updated":"2026-01-05T05:34:55Z"}
