{"icao":"LPFR","taf":"TAF LPFR 291100Z 2912/3012 25018KT 8000 SCT006 BKN012 ","updated":"2026-01-29T14:49:40Z"}
