{"icao":"LPMA","taf":"TAF LPMA 261700Z 2618/2718 19008KT 9999 SCT015 ","updated":"2025-09-27T04:20:13Z"}
