{"icao":"KLAX","taf":"TAF KLAX 191120Z 1912/2018 VRB03KT 6SM BR FEW004 SCT250 ","updated":"2025-10-19T14:15:10Z"}
