{"icao":"KLAX","taf":"TAF KLAX 051128Z 0512/0618 32005KT P6SM BKN045 BKN060 ","updated":"2026-05-05T12:00:21Z"}
