{"icao":"KORD","taf":"TAF KORD 140520Z 1406/1512 09005KT P6SM FEW250 ","updated":"2025-09-14T08:20:14Z"}
