{"icao":"LPLA","taf":"TAF LPLA 231702Z 2318/2418 20008KT 9999 FEW025 PROB40 ","updated":"2025-10-24T01:17:46Z"}
