{"icao":"KORD","taf":"TAF KORD 081720Z 0818/0924 16007KT P6SM SCT080 BKN250 ","updated":"2026-05-08T19:15:06Z"}
