{"icao":"KORD","taf":"TAF KORD 191724Z 1918/2024 15006KT P6SM OVC014 ","updated":"2025-11-19T20:18:35Z"}
