{"icao":"KLAX","taf":"TAF KLAX 211144Z 2112/2218 VRB03KT P6SM FEW015 BKN250 ","updated":"2026-04-21T13:24:14Z"}
