{"icao":"KORD","taf":"TAF KORD 141724Z 1418/1524 10009KT P6SM SCT300 ","updated":"2026-05-14T20:40:23Z"}
