{"icao":"LPPS","taf":"TAF LPPS 010500Z 0106/0212 03013KT 9999 SCT014 BKN030 ","updated":"2026-03-01T08:29:16Z"}
