{"icao":"LPFR","taf":"TAF LPFR 091100Z 0912/1012 22010KT CAVOK ","updated":"2026-06-09T15:53:14Z"}
