{"icao":"LPPT","taf":"TAF TAF LPPT 032333Z 0400/0506 31008KT 9999 BKN015 ","updated":"2026-06-03T23:41:39Z"}
