{"icao":"KLAX","taf":"TAF KLAX 101120Z 1012/1118 04004KT P6SM SKC ","updated":"2025-12-10T12:41:27Z"}
