{"icao":"LPLA","taf":"TAF LPLA 211710Z 2118/2218 32020G30KT 9999 FEW025 SCT035 ","updated":"2026-06-21T22:14:00Z"}
