{"icao":"LPLA","taf":"TAF LPLA 221701Z 2218/2318 20012KT 8000 -RA FEW020 SCT030 ","updated":"2025-09-22T22:16:07Z"}
