{"icao":"LPMA","taf":"TAF LPMA 301700Z 3018/0118 02018G30KT 9999 SCT015 ","updated":"2026-06-30T19:54:35Z"}
