{"icao":"LPBJ","taf":"TAF TAF LPBJ 190508Z 1906/2006 33008KT 2500 BR SCT004 ","updated":"2026-05-19T08:33:54Z"}
