{"icao":"KJFK","taf":"TAF KJFK 081121Z 0812/0918 34017G26KT P6SM SCT200 ","updated":"2025-12-08T14:20:54Z"}
