{"icao":"KJFK","taf":"TAF KJFK 281720Z 2818/2924 19009KT P6SM FEW150 BKN250 ","updated":"2026-04-28T18:15:50Z"}
