{"icao":"LPAZ","taf":"TAF LPAZ 121100Z 1212/1318 30023G35KT 9999 FEW025 BKN040 ","updated":"2026-01-12T13:41:16Z"}
