{"icao":"LPMA","taf":"TAF LPMA 221100Z 2212/2312 VRB05KT 9999 SCT015 SCT030 ","updated":"2025-10-22T14:20:05Z"}
