{"icao":"LPBJ","taf":"TAF TAF LPBJ 130503Z 1306/1406 32005KT CAVOK ","updated":"2025-09-13T10:48:40Z"}
