{"icao":"KORD","taf":"TAF KORD 231120Z 2312/2418 29009KT P6SM FEW200 ","updated":"2025-11-23T14:15:54Z"}
