{"icao":"LPPS","taf":"TAF LPPS 160500Z 1606/1712 VRB05KT 9999 SCT015 ","updated":"2025-10-16T07:17:52Z"}
