{"icao":"KJFK","taf":"TAF KJFK 081732Z 0818/0924 VRB06KT P6SM SKC ","updated":"2026-04-08T19:14:25Z"}
