{"icao":"KJFK","taf":"TAF KJFK 111124Z 1112/1218 29007KT P6SM FEW015 OVC080 ","updated":"2026-01-11T13:29:10Z"}
