{"icao":"LPLA","taf":"TAF LPLA 070507Z 0706/0806 VRB05KT 9999 FEW025 SCT035 ","updated":"2025-12-07T07:17:18Z"}
