{"icao":"LPMR","taf":"TAF TAF LPMR 071705Z 0718/0818 16010KT 9999 FEW020 SCT040 PROB30 0802/0808 14005KT 2000 BR BKN004 ","updated":"2026-04-07T21:40:13Z"}
