{"icao":"LPPD","taf":"TAF LPPD 041700Z 0418/0518 29023KT 9999 SCT025 ","updated":"2025-11-05T03:10:07Z"}
