{"icao":"KLAX","taf":"TAF KLAX 271735Z 2718/2824 21005KT 5SM HZ BKN010 ","updated":"2026-03-27T17:49:15Z"}
