{"icao":"LPPR","taf":"TAF LPPR 220500Z 2206/2306 19007KT 9999 SCT017 BKN035 ","updated":"2026-04-22T05:24:22Z"}
