{"icao":"LPPT","taf":"TAF LPPT 061100Z 0612/0718 23007KT 9999 FEW020 BKN040 ","updated":"2025-12-06T15:17:06Z"}
