{"icao":"KJFK","taf":"TAF KJFK 091139Z 0912/1018 20004KT P6SM FEW250 ","updated":"2026-03-09T13:00:43Z"}
