{"icao":"LPPD","taf":"TAF LPPD 050500Z 0506/0606 27015KT 9999 SCT006 SCT012 ","updated":"2026-06-05T09:44:21Z"}
