{"icao":"LPPR","taf":"TAF LPPR 291700Z 2918/3018 33010KT CAVOK ","updated":"2025-09-29T17:15:59Z"}
