{"icao":"KORD","taf":"TAF KORD 231726Z 2318/2424 33012G20KT P6SM FEW028 BKN035 ","updated":"2026-02-23T18:00:23Z"}
