{"icao":"KJFK","taf":"TAF KJFK 111133Z 1112/1218 15004KT P6SM FEW060 BKN110 BKN250 ","updated":"2026-03-11T12:57:35Z"}
