{"icao":"LPMT","taf":"TAF LPMT 061700Z 0618/0718 27008KT CAVOK ","updated":"2025-10-07T01:17:41Z"}
