{"icao":"KLAX","taf":"TAF KLAX 011726Z 0118/0224 VRB03KT 6SM HZ FEW015 ","updated":"2025-12-01T19:20:36Z"}
