{"icao":"LPFR","taf":"TAF LPFR 301700Z 3018/0118 01013KT CAVOK ","updated":"2025-11-30T19:14:20Z"}
