{"icao":"KLAX","taf":"TAF KLAX 291721Z 2918/3024 26008KT P6SM SCT035 ","updated":"2025-09-29T18:26:38Z"}
