{"icao":"LPST","taf":"TAF LPST 101401Z 1015/1024 26012KT 6000 -RADZ SCT003 BKN010 PROB40 ","updated":"2026-02-11T13:07:15Z"}
