{"icao":"LPMT","taf":"TAF LPMT 210507Z 2106/2206 35005KT CAVOK ","updated":"2026-06-21T08:56:07Z"}
