{"icao":"KJFK","taf":"TAF KJFK 161732Z 1618/1724 20015KT P6SM FEW060 SCT250 ","updated":"2026-06-16T19:33:26Z"}
