{"icao":"KLAX","taf":"TAF KLAX 091157Z 0912/1018 09004KT P6SM SCT250 ","updated":"2026-02-09T14:51:28Z"}
