{"icao":"LPPT","taf":"TAF LPPT 301100Z 3012/0118 33015KT CAVOK PROB40 ","updated":"2026-06-30T15:25:15Z"}
