{"icao":"KLAX","taf":"TAF KLAX 031741Z 0318/0424 08005KT P6SM SCT005 ","updated":"2026-02-03T19:43:40Z"}
