{"icao":"LPMR","taf":"TAF TAF LPMR 091104Z 0912/1012 34015KT CAVOK ","updated":"2026-06-09T12:35:26Z"}
