{"icao":"LPAZ","taf":"TAF TAF LPAZ 141700Z 1418/1524 27015KT 6000 RADZ BKN006 ","updated":"2025-12-14T22:17:04Z"}
