{"icao":"LPLA","taf":"TAF LPLA 210508Z 2106/2206 32010KT 9999 FEW025 SCT035 ","updated":"2026-06-21T08:56:22Z"}
