{"icao":"LPFR","taf":"TAF LPFR 231100Z 2312/2412 24012KT 9999 FEW020 ","updated":"2025-10-23T16:22:42Z"}
