{"icao":"LPMR","taf":"TAF TAF LPMR 210511Z 2106/2206 29010KT 8000 SCT006 BKN012 ","updated":"2025-10-21T06:27:22Z"}
