{"icao":"KLAX","taf":"TAF KLAX 081748Z 0818/0924 25008KT P6SM BKN030 BKN140 ","updated":"2026-06-08T17:51:07Z"}
