{"icao":"LPOV","taf":"TAF LPOV 151102Z 1512/1612 35012KT CAVOK ","updated":"2026-03-15T13:46:21Z"}
