{"icao":"LPLA","taf":"TAF LPLA 130503Z 1306/1406 VRB05KT 9999 FEW025 SCT040","updated":"2025-09-13T09:08:45Z"}
