{"icao":"LPBJ","taf":"TAF TAF LPBJ 190501Z 1906/2006 14008KT CAVOK PROB30 2004/2006 0600 FG BKN002","updated":"2025-09-19T08:22:48Z"}
