{"icao":"LPPR","taf":"TAF LPPR 280500Z 2806/2906 11010KT 9999 SCT040 ","updated":"2025-10-28T06:28:26Z"}
