{"icao":"KLAX","taf":"TAF KLAX 271120Z 2712/2818 35004KT P6SM BKN022 BKN035 ","updated":"2026-05-27T12:19:19Z"}
