{"icao":"LPPT","taf":"TAF LPPT 261700Z 2618/2724 05013KT CAVOK ","updated":"2026-03-27T05:05:25Z"}
