{"icao":"KJFK","taf":"TAF KJFK 241121Z 2412/2518 34011KT P6SM SKC ","updated":"2026-06-24T13:21:29Z"}
