{"icao":"KJFK","taf":"TAF KJFK 271740Z 2718/2824 16007KT P6SM SCT100 BKN150 PROB30 2800/2804 -RA ","updated":"2025-09-27T19:13:03Z"}
