{"icao":"LPPS","taf":"TAF LPPS 081700Z 0818/0924 02012KT 9999 SCT015","updated":"2025-11-09T01:27:16Z"}
