{"icao":"LPLA","taf":"TAF LPLA 180502Z 1806/1906 32012KT 9999 FEW007 SCT025 PROB40 ","updated":"2025-11-18T06:28:07Z"}
