{"icao":"LPPT","taf":"TAF LPPT 291110Z 2912/3018 32008KT CAVOK ","updated":"2026-05-29T15:24:52Z"}
