{"icao":"LPBJ","taf":"TAF TAF LPBJ 030507Z 0306/0406 33008KT CAVOK ","updated":"2026-06-03T08:58:17Z"}
