{"icao":"LPPR","taf":"TAF LPPR 291700Z 2918/3018 31010KT 9999 FEW012 ","updated":"2026-05-29T18:30:41Z"}
