{"icao":"LPLA","taf":"TAF LPLA 030508Z 0306/0406 23005KT 9999 FEW025 SCT035 ","updated":"2025-11-03T07:18:25Z"}
