{"icao":"LPMT","taf":"TAF LPMT 250513Z 2506/2606 27012KT 6000 -RA SCT012 BKN020 ","updated":"2026-01-25T05:27:22Z"}
