{"icao":"LPMA","taf":"TAF LPMA 261100Z 2612/2712 02010KT 9999 SCT015 ","updated":"2025-11-26T13:33:54Z"}
