{"icao":"KORD","taf":"TAF KORD 210520Z 2106/2212 27006KT 6SM BR SCT006 OVC008 ","updated":"2025-11-21T06:29:24Z"}
