{"icao":"LPMR","taf":"TAF TAF LPMR 121704Z 1218/1318 31007KT CAVOK ","updated":"2026-06-12T23:14:53Z"}
