{"icao":"LPPS","taf":"TAF COR LPPS 270928Z 2709/2812 27010KT 9999 SCT015 ","updated":"2025-09-27T10:16:01Z"}
