{"icao":"KJFK","taf":"TAF KJFK 140533Z 1406/1512 24005KT P6SM BKN250 ","updated":"2026-06-14T05:47:21Z"}
