{"icao":"KLAX","taf":"TAF KLAX 181720Z 1818/1924 25008KT P6SM SCT025 BKN045 ","updated":"2026-05-18T20:23:38Z"}
