{"icao":"LPLA","taf":"TAF LPLA 251103Z 2512/2612 VRB05KT 9999 SCT020 PROB40 ","updated":"2026-04-25T11:36:54Z"}
