{"icao":"KLAX","taf":"TAF KLAX 091722Z 0918/1024 16008KT P6SM SKC ","updated":"2026-03-09T17:53:57Z"}
