{"icao":"LPOV","taf":"TAF LPOV 031706Z 0318/0418 26005KT 9999 SCT012 BKN020 ","updated":"2026-06-03T18:21:29Z"}
