{"icao":"LPMT","taf":"TAF LPMT 280523Z 2806/0106 35010KT 9999 FEW025 ","updated":"2026-02-28T05:31:53Z"}
