{"icao":"LPBJ","taf":"TAF TAF LPBJ 101112Z 1012/1112 25012KT 1500 -DZRA BKN004 ","updated":"2026-02-10T13:10:51Z"}
