{"icao":"LPMT","taf":"TAF LPMT 211704Z 2118/2218 02005KT CAVOK","updated":"2026-02-22T02:03:21Z"}
