{"icao":"KORD","taf":"TAF KORD 081125Z 0812/0918 23012G20KT P6SM OVC012 ","updated":"2026-03-08T12:46:18Z"}
