{"icao":"LPPD","taf":"TAF LPPD 191100Z 1912/2012 25012KT 9999 SCT006 BKN012 ","updated":"2025-10-19T13:21:29Z"}
