{"icao":"LPBJ","taf":"TAF TAF LPBJ 220506Z 2206/2306 11005KT CAVOK ","updated":"2026-06-22T06:27:39Z"}
