{"icao":"LPFR","taf":"TAF LPFR 270500Z 2706/2806 21020G30KT 5000 RA SCT006 BKN012 ","updated":"2026-01-27T08:31:56Z"}
