{"icao":"LPPR","taf":"TAF LPPR 061100Z 0612/0712 01008KT CAVOK ","updated":"2026-01-06T11:18:08Z"}
