{"icao":"KORD","taf":"TAF KORD 310537Z 3106/0112 28010KT P6SM SCT009 OVC015 ","updated":"2025-12-31T08:28:40Z"}
