{"icao":"LPMR","taf":"TAF TAF LPMR 151708Z 1518/1618 32008KT 9999 SCT020 SCT035 ","updated":"2026-01-15T17:30:50Z"}
