{"icao":"LPPR","taf":"TAF LPPR 021700Z 0218/0318 23010KT 9999 SCT012 PROB40 ","updated":"2026-05-02T22:39:25Z"}
