{"icao":"LPBJ","taf":"TAF TAF LPBJ 061104Z 0612/0712 23005KT 9999 SCT025 BKN040 ","updated":"2025-12-06T14:15:55Z"}
