{"icao":"KORD","taf":"TAF KORD 210539Z 2106/2212 25011G21KT P6SM FEW050 ","updated":"2025-10-21T06:27:53Z"}
