{"icao":"KLAX","taf":"TAF KLAX 301723Z 3018/3124 VRB03KT P6SM SKC ","updated":"2025-10-30T19:14:52Z"}
