{"icao":"LPPR","taf":"TAF LPPR 020500Z 0206/0306 09005KT 9999 SCT020 PROB30 ","updated":"2025-11-02T07:15:50Z"}
