{"icao":"LPBJ","taf":"TAF TAF LPBJ 250503Z 2506/2606 28005KT 9999 SCT015 SCT022 PROB40 2506/2509 2000 BCFG BKN004 PROB40 2521/2605 3000 BCFG BKN006","updated":"2025-10-25T08:20:16Z"}
