{"icao":"KORD","taf":"TAF KORD 011139Z 0112/0218 04009KT P6SM OVC070 ","updated":"2026-06-01T12:35:38Z"}
