{"icao":"LPPR","taf":"TAF LPPR 030500Z 0306/0406 10005KT CAVOK PROB30 ","updated":"2025-11-03T10:21:36Z"}
