{"icao":"KLAX","taf":"TAF KLAX 241728Z 2418/2524 12020G30KT 2SM RA BR OVC012 ","updated":"2025-12-24T19:15:11Z"}
