{"icao":"LPAZ","taf":"TAF LPAZ 051700Z 0518/0624 27012KT 9999 SCT030 ","updated":"2025-11-05T17:17:30Z"}
