{"icao":"LPMT","taf":"TAF LPMT 300527Z 3006/0106 36012KT CAVOK PROB40 ","updated":"2025-11-30T09:17:30Z"}
