{"icao":"KORD","taf":"TAF KORD 261720Z 2618/2724 03025G32KT P6SM VCSH SCT025 BKN100 ","updated":"2026-03-26T18:04:30Z"}
