{"icao":"LPMR","taf":"TAF TAF LPMR 161102Z 1612/1712 13008KT CAVOK ","updated":"2026-03-16T14:58:13Z"}
