{"icao":"KLAX","taf":"TAF KLAX 211727Z 2118/2224 25007KT P6SM FEW008 ","updated":"2025-10-21T22:16:02Z"}
