{"icao":"KJFK","taf":"TAF KJFK 221727Z 2218/2324 25016G26KT P6SM SCT060 ","updated":"2025-10-22T19:13:59Z"}
