{"icao":"KORD","taf":"TAF KORD 120520Z 1206/1312 00000KT P6SM FEW060 BKN200 ","updated":"2026-02-12T08:44:30Z"}
