{"icao":"LPOV","taf":"TAF LPOV 311100Z 3112/0112 17012KT 6000 -RA SCT006 BKN015 ","updated":"2025-10-31T13:28:27Z"}
