{"icao":"KLAX","taf":"TAF KLAX 061120Z 0612/0718 VRB03KT P6SM BKN013 OVC018 ","updated":"2026-06-06T13:39:50Z"}
