{"icao":"KJFK","taf":"TAF KJFK 161131Z 1612/1718 29018G28KT P6SM FEW050 ","updated":"2026-01-16T12:42:13Z"}
