{"icao":"KORD","taf":"TAF KORD 031725Z 0318/0424 06008KT P6SM SCT015 BKN025 ","updated":"2026-04-03T17:33:43Z"}
