{"icao":"LPAZ","taf":"TAF TAF LPAZ 241700Z 2418/2524 24018KT 9999 SCT015 BKN030 ","updated":"2026-01-25T01:50:46Z"}
