{"icao":"KJFK","taf":"TAF KJFK 211720Z 2118/2224 36011G18KT P6SM FEW025 BKN150 ","updated":"2026-03-21T17:24:15Z"}
