{"icao":"LPPD","taf":"TAF LPPD 311100Z 3112/0112 27007KT 0200 FG VV001 ","updated":"2026-05-31T12:10:36Z"}
