{"icao":"LPPS","taf":"TAF LPPS 181700Z 1818/1924 10010KT 9999 SCT015 ","updated":"2025-09-18T21:15:28Z"}
