{"icao":"LPAZ","taf":"TAF LPAZ 230500Z 2306/2412 31020KT 9999 FEW020 SCT030 ","updated":"2026-01-23T09:28:41Z"}
