{"icao":"LPMT","taf":"TAF LPMT 012304Z 0200/0224 02005KT CAVOK ","updated":"2026-07-02T03:26:56Z"}
