{"icao":"KJFK","taf":"TAF KJFK 110539Z 1106/1212 17004KT P6SM VCSH SCT050 OVC080 ","updated":"2026-02-11T06:59:43Z"}
