{"icao":"KORD","taf":"TAF KORD 291725Z 2918/3024 21005KT P6SM BKN300 ","updated":"2026-05-29T18:30:44Z"}
