{"icao":"KJFK","taf":"TAF KJFK 071720Z 0718/0824 33011G18KT P6SM FEW050 ","updated":"2026-05-07T20:13:00Z"}
