{"icao":"LPBJ","taf":"TAF TAF LPBJ 171703Z 1718/1818 VRB02KT CAVOK ","updated":"2026-04-18T05:05:07Z"}
