{"icao":"LPMR","taf":"TAF TAF LPMR 020504Z 0206/0306 VRB02KT 0500 FG FEW003 PROB30 0206/0209 2000 BR BKN003 ","updated":"2025-11-02T10:16:52Z"}
