{"icao":"LPFR","taf":"TAF LPFR 110500Z 1106/1206 23008KT 9999 SCT020 ","updated":"2026-05-11T06:45:28Z"}
