{"icao":"KLAX","taf":"TAF KLAX 270543Z 2706/2812 33004KT P6SM BKN090 ","updated":"2025-12-27T08:25:42Z"}
