{"icao":"LPAZ","taf":"TAF TAF LPAZ 011700Z 0118/0224 04012KT 9999 FEW020 SCT045 ","updated":"2025-11-02T04:21:38Z"}
