{"icao":"KORD","taf":"TAF KORD 061720Z 0618/0724 31014G24KT P6SM BKN045 ","updated":"2026-04-06T19:54:18Z"}
