{"icao":"LPBJ","taf":"TAF TAF LPBJ 220505Z 2206/2306 10005KT 9999 SCT007 SCT035 ","updated":"2026-03-22T07:37:15Z"}
