{"icao":"LPMR","taf":"TAF TAF LPMR 221702Z 2218/2318 25010KT 9999 SCT006 BKN015 ","updated":"2025-10-23T04:20:53Z"}
