{"icao":"LPPR","taf":"TAF LPPR 211100Z 2112/2212 VRB02KT CAVOK ","updated":"2026-02-21T16:27:26Z"}
