{"icao":"LPPT","taf":"TAF LPPT 101100Z 1012/1118 21018KT 9999 SCT020 ","updated":"2026-05-10T13:15:21Z"}
