{"icao":"LPFR","taf":"TAF LPFR 260500Z 2606/2706 25015KT 9999 SCT012 BKN025 ","updated":"2026-01-26T07:26:45Z"}
