{"icao":"KLAX","taf":"TAF KLAX 090524Z 0906/1012 VRB03KT 3SM BR OVC008 ","updated":"2025-11-09T07:16:42Z"}
