{"icao":"LPLA","taf":"TAF LPLA 301704Z 3018/0118 VRB05KT 9999 SCT025 ","updated":"2026-04-30T20:58:48Z"}
