{"icao":"LPOV","taf":"TAF LPOV 181103Z 1812/1912 23008KT CAVOK ","updated":"2025-10-18T12:32:55Z"}
