{"icao":"LPMT","taf":"TAF LPMT 081706Z 0818/0918 VRB02KT 9999 FEW025 PROB30 0906/0909 4000 BR BKN004 ","updated":"2025-11-08T18:23:32Z"}
