{"icao":"KORD","taf":"TAF KORD 261120Z 2612/2718 19006KT P6SM FEW150 SCT300 ","updated":"2026-03-26T13:12:55Z"}
