{"icao":"LPLA","taf":"TAF LPLA 181102Z 1812/1912 VRB05KT 9999 SCT025 ","updated":"2026-02-18T11:37:31Z"}
