{"icao":"LPMR","taf":"TAF TAF LPMR 181106Z 1812/1912 33005KT 9999 FEW008 ","updated":"2026-04-18T15:36:05Z"}
