{"icao":"LPPT","taf":"TAF LPPT 070500Z 0706/0812 33010KT 9999 FEW020 ","updated":"2026-05-07T09:30:01Z"}
