{"icao":"LPBJ","taf":"TAF TAF LPBJ 170506Z 1706/1806 30005KT CAVOK ","updated":"2026-05-17T09:03:40Z"}
