{"icao":"KJFK","taf":"TAF KJFK 041720Z 0418/0524 20009KT P6SM FEW250 ","updated":"2025-10-04T19:11:53Z"}
