{"icao":"KORD","taf":"TAF KORD 051732Z 0518/0624 29010KT P6SM SCT080 OVC150 ","updated":"2026-05-05T18:09:35Z"}
