{"icao":"KLAX","taf":"TAF KLAX 071122Z 0712/0818 VRB03KT P6SM OVC012 ","updated":"2025-10-07T13:28:16Z"}
