{"icao":"LPPR","taf":"TAF LPPR 131700Z 1318/1418 21008KT 9999 SCT008 BKN016 ","updated":"2026-04-13T21:47:46Z"}
