{"icao":"LPLA","taf":"TAF LPLA 161701Z 1618/1718 21018G28KT 9999 SCT015 BKN025 ","updated":"2026-02-16T23:27:48Z"}
