{"icao":"LPMA","taf":"TAF LPMA 270500Z 2706/2806 VRB05KT 9999 SCT015 PROB30 ","updated":"2025-09-27T05:16:33Z"}
