{"icao":"LPAZ","taf":"TAF TAF LPAZ 260500Z 2606/2712 04017KT 9999 FEW015 SCT030 ","updated":"2025-10-26T10:16:58Z"}
