{"icao":"LPPR","taf":"TAF LPPR 221700Z 2218/2318 29007KT CAVOK ","updated":"2026-04-22T22:45:33Z"}
