{"icao":"KLAX","taf":"TAF KLAX 151148Z 1512/1618 06005KT P6SM SCT035 SCT050 ","updated":"2025-10-15T12:38:56Z"}
