{"icao":"KJFK","taf":"TAF KJFK 121737Z 1218/1324 32020G27KT P6SM BKN040 ","updated":"2026-02-12T20:33:39Z"}
