{"icao":"LPAZ","taf":"TAF LPAZ 011100Z 0112/0218 27013KT 9999 SCT006 BKN015 ","updated":"2026-03-01T12:45:42Z"}
