{"icao":"LPMT","taf":"TAF LPMT 311101Z 3112/0112 19012KT 9999 SCT012 BKN015 ","updated":"2025-10-31T15:17:46Z"}
