{"icao":"KLAX","taf":"TAF KLAX 130523Z 1306/1412 VRB03KT 3SM BR OVC005 ","updated":"2025-12-13T06:28:44Z"}
