{"icao":"LPPD","taf":"TAF LPPD 181700Z 1818/1918 29013KT 9999 SCT015 ","updated":"2025-11-18T18:27:59Z"}
