{"icao":"KORD","taf":"TAF KORD 111720Z 1118/1224 21018G30KT P6SM SCT120 BKN200 ","updated":"2025-11-11T20:20:04Z"}
