{"icao":"KJFK","taf":"TAF KJFK 100520Z 1006/1112 05006KT P6SM SKC ","updated":"2025-10-10T06:27:35Z"}
