{"icao":"LPMA","taf":"TAF LPMA 090500Z 0906/1006 VRB05KT 9999 SCT015 PROB30 ","updated":"2026-05-09T10:56:12Z"}
