{"icao":"KLAX","taf":"TAF KLAX 181731Z 1818/1924 27010KT P6SM -SHRA SCT070 BKN120 ","updated":"2025-09-18T18:25:47Z"}
