{"icao":"LPBJ","taf":"TAF TAF LPBJ 101103Z 1012/1112 22015KT 9999 FEW018 SCT040 ","updated":"2026-05-10T13:15:23Z"}
