{"icao":"LPAZ","taf":"TAF TAF LPAZ 031100Z 0312/0418 25020KT 8000 SCT006 SCT012 ","updated":"2026-02-03T14:06:24Z"}
