{"icao":"LPMR","taf":"TAF TAF LPMR 291107Z 2912/3012 24016KT 7000 -RA SCT012 BKN015 ","updated":"2026-01-29T16:42:00Z"}
