{"icao":"KORD","taf":"TAF KORD 190526Z 1906/2012 VRB03KT P6SM BKN120 OVC200 ","updated":"2026-03-19T08:40:13Z"}
