{"icao":"KJFK","taf":"TAF KJFK 190531Z 1906/2012 11006KT 4SM BR OVC003 ","updated":"2026-04-19T07:17:41Z"}
