{"icao":"LPMA","taf":"TAF LPMA 010500Z 0106/0206 02010KT 9999 SCT015 PROB30 ","updated":"2025-10-01T07:18:00Z"}
