{"icao":"KJFK","taf":"TAF KJFK 211139Z 2112/2218 26011KT P6SM SKC ","updated":"2025-10-21T14:17:33Z"}
