{"icao":"KJFK","taf":"TAF KJFK 061133Z 0612/0718 27005KT P6SM SCT015 BKN050 ","updated":"2025-12-06T12:36:09Z"}
