{"icao":"LPPD","taf":"TAF LPPD 150500Z 1506/1606 03010KT 9999 SCT015 BKN030 ","updated":"2026-03-15T08:34:52Z"}
