{"icao":"LPOV","taf":"TAF LPOV 091702Z 0918/1018 34010KT CAVOK ","updated":"2026-04-09T21:43:24Z"}
