{"icao":"KLAX","taf":"TAF KLAX 260534Z 2606/2712 14010KT P6SM -SHRA SCT040 BKN050 ","updated":"2025-12-26T06:31:05Z"}
