{"icao":"LPPD","taf":"TAF LPPD 231100Z 2312/2412 03013KT 9999 SCT025 ","updated":"2026-03-23T15:58:36Z"}
