{"icao":"LPLA","taf":"TAF LPLA 180510Z 1806/1906 VRB05KT 9999 SCT035 ","updated":"2026-02-18T06:00:01Z"}
