{"icao":"LPMT","taf":"TAF LPMT 300508Z 3006/0106 35008KT CAVOK ","updated":"2026-06-30T09:31:55Z"}
