{"icao":"KLAX","taf":"TAF KLAX 171135Z 1712/1818 09006KT P6SM SCT015 ","updated":"2026-04-17T11:51:34Z"}
