{"icao":"KLAX","taf":"TAF KLAX 021132Z 0212/0318 27014KT P6SM SCT020 BKN050 ","updated":"2026-04-02T11:43:09Z"}
