{"icao":"LPLA","taf":"TAF COR LPLA 191108Z 1912/2012 35012KT 9999 FEW025 SCT035 ","updated":"2025-09-19T15:17:27Z"}
