{"icao":"KORD","taf":"TAF KORD 281120Z 2812/2918 27008KT P6SM FEW250 ","updated":"2026-01-28T14:28:49Z"}
