{"icao":"LPFR","taf":"TAF LPFR 281700Z 2818/2918 25013KT CAVOK ","updated":"2026-06-29T00:07:26Z"}
