{"icao":"KJFK","taf":"TAF KJFK 270536Z 2706/2812 03006KT P6SM SKC ","updated":"2025-10-27T06:30:22Z"}
