{"icao":"LPOV","taf":"TAF LPOV 111110Z 1112/1212 35022KT 9999 BKN022 ","updated":"2026-04-11T11:28:51Z"}
