{"icao":"LPPS","taf":"TAF LPPS 141700Z 1418/1524 12008KT 9999 FEW015 ","updated":"2025-10-15T03:03:44Z"}
