{"icao":"LPFR","taf":"TAF LPFR 101100Z 1012/1112 25012KT 8000 SCT004 BKN008 ","updated":"2026-02-10T13:10:47Z"}
