{"icao":"KJFK","taf":"TAF KJFK 290538Z 2906/3012 VRB04KT P6SM FEW006 FEW080 FEW250 ","updated":"2026-06-29T05:49:17Z"}
