{"icao":"LPPD","taf":"TAF LPPD 311100Z 3112/0112 34010KT 9999 SCT025 ","updated":"2025-10-31T13:28:28Z"}
