{"icao":"LPBJ","taf":"TAF TAF LPBJ 301706Z 3018/0118 32010KT CAVOK ","updated":"2026-06-30T23:10:36Z"}
