{"icao":"LPMT","taf":"TAF LPMT 311101Z 3112/0112 04005KT CAVOK ","updated":"2026-03-31T16:11:06Z"}
