{"icao":"KJFK","taf":"TAF KJFK 130540Z 1306/1412 18007KT P6SM SCT150 ","updated":"2026-04-13T05:40:40Z"}
