{"icao":"LPPT","taf":"TAF LPPT 151100Z 1512/1618 35015KT CAVOK PROB40 ","updated":"2026-03-15T14:28:29Z"}
