{"icao":"KORD","taf":"TAF KORD 141120Z 1412/1518 20005KT P6SM FEW250 ","updated":"2025-11-14T14:18:10Z"}
