{"icao":"KJFK","taf":"TAF KJFK 181139Z 1812/1918 22008KT 1/4SM FG VV002 ","updated":"2026-02-18T13:01:44Z"}
