{"icao":"KORD","taf":"TAF KORD 111720Z 1118/1224 10010KT P6SM SCT090 BKN250 PROB30 1201/1206 -SHRA BKN050 ","updated":"2026-04-11T20:32:07Z"}
