{"icao":"KLAX","taf":"TAF KLAX 021150Z 0212/0318 VRB03KT P6SM SKC ","updated":"2025-12-02T14:20:58Z"}
