{"icao":"LPBJ","taf":"TAF LPBJ 051705Z 0518/0618 32012KT CAVOK ","updated":"2026-06-06T02:58:29Z"}
