{"icao":"LPPD","taf":"TAF LPPD 150500Z 1506/1606 VRB05KT 9999 SCT020 ","updated":"2025-09-15T07:17:46Z"}
