{"icao":"LPMR","taf":"TAF TAF LPMR 101705Z 1018/1118 18005KT 9999 SCT020 PROB40 1102/1108 1200 BR BKN002 ","updated":"2025-11-10T22:18:17Z"}
