{"icao":"LPBJ","taf":"TAF TAF LPBJ 311103Z 3112/0112 32005KT CAVOK ","updated":"2026-05-31T16:06:17Z"}
