{"icao":"LPFR","taf":"TAF LPFR 010500Z 0106/0206 20010KT 9999 FEW025 BKN040 ","updated":"2025-11-01T10:17:05Z"}
