{"icao":"LPMR","taf":"TAF TAF LPMR 131111Z 1312/1412 35005KT 9999 BKN018 ","updated":"2026-03-13T12:55:55Z"}
