{"icao":"LPMR","taf":"TAF TAF LPMR 311701Z 3118/0118 34012KT CAVOK ","updated":"2026-03-31T23:33:14Z"}
