{"icao":"LPMA","taf":"TAF LPMA 061700Z 0618/0718 04010KT 9999 SCT015 ","updated":"2025-10-06T21:14:57Z"}
