{"icao":"LPFR","taf":"TAF LPFR 181700Z 1818/1918 10013KT CAVOK ","updated":"2025-10-18T19:12:46Z"}
