{"icao":"LPMT","taf":"TAF LPMT 261104Z 2612/2712 10008KT CAVOK ","updated":"2026-05-26T16:41:00Z"}
