{"icao":"LPBJ","taf":"TAF TAF LPBJ 181103Z 1812/1912 18010KT 9999 FEW035 ","updated":"2025-12-18T13:35:18Z"}
