{"icao":"LPAR","taf":"TAF LPAR 250809Z 2509/2518 VRB02KT CAVOK ","updated":"2026-05-26T09:55:17Z"}
