{"icao":"KJFK","taf":"TAF KJFK 031720Z 0318/0424 21009KT P6SM FEW050 SCT250 ","updated":"2025-10-03T19:13:57Z"}
