{"icao":"LPPS","taf":"TAF LPPS 110500Z 1106/1212 VRB05KT 9999 SCT015 PROB30 ","updated":"2026-01-11T05:24:08Z"}
