{"icao":"LPBJ","taf":"TAF TAF LPBJ 141703Z 1418/1518 34008KT 9999 SCT020 ","updated":"2026-01-14T21:20:36Z"}
