{"icao":"LPLA","taf":"TAF LPLA 281704Z 2818/2918 35015KT 9999 SCT025 BKN030 ","updated":"2025-10-28T18:28:05Z"}
