{"icao":"KLAX","taf":"TAF KLAX 040528Z 0406/0512 03004KT 5SM BR BKN006 OVC010 ","updated":"2026-01-04T09:18:47Z"}
