{"icao":"LPMR","taf":"TAF TAF LPMR 041703Z 0418/0518 22012KT 7000 -RA SCT010 BKN015 ","updated":"2026-02-04T23:26:01Z"}
