{"icao":"KORD","taf":"TAF KORD 081120Z 0812/0918 12008KT P6SM VCSH BKN070 ","updated":"2026-06-08T14:47:04Z"}
