{"icao":"LPFR","taf":"TAF LPFR 301100Z 3012/3112 12012KT CAVOK ","updated":"2026-03-30T13:16:30Z"}
