{"icao":"LPFR","taf":"TAF LPFR 011100Z 0112/0212 13008KT CAVOK ","updated":"2025-10-01T11:15:43Z"}
