{"icao":"LPPR","taf":"TAF LPPR 151700Z 1518/1618 32010KT 9999 SCT035 ","updated":"2025-09-15T20:18:39Z"}
