{"icao":"KORD","taf":"TAF KORD 261720Z 2618/2724 10011G18KT P6SM SKC ","updated":"2025-10-26T19:13:59Z"}
