{"icao":"LPMA","taf":"TAF LPMA 271100Z 2712/2812 01023G35KT 9999 SCT015 ","updated":"2026-02-27T16:39:25Z"}
