{"icao":"LPAR","taf":"TAF LPAR 221110Z 2212/2221 34012KT CAVOK ","updated":"2025-09-30T11:15:12Z"}
