{"icao":"LPAZ","taf":"TAF TAF LPAZ 110500Z 1106/1212 29025KT 9999 SCT020 ","updated":"2025-11-11T05:19:06Z"}
