{"icao":"LPMT","taf":"TAF LPMT 251110Z 2512/2612 25012KT 9999 SCT012 BKN025 ","updated":"2026-01-25T13:31:12Z"}
