{"icao":"LPMT","taf":"TAF LPMT 171102Z 1712/1812 04008KT CAVOK ","updated":"2026-04-17T17:01:45Z"}
