{"icao":"LPBJ","taf":"TAF TAF LPBJ 061701Z 0618/0718 36008KT CAVOK ","updated":"2026-01-06T19:16:04Z"}
