{"icao":"LPPS","taf":"TAF LPPS 071100Z 0712/0818 02012KT 9999 SCT015 ","updated":"2026-01-07T12:42:48Z"}
