{"icao":"LPPS","taf":"TAF LPPS 251100Z 2512/2618 35008KT 9999 SCT015 ","updated":"2025-09-25T15:18:45Z"}
