{"icao":"LPMA","taf":"TAF LPMA 201700Z 2018/2118 03013KT 9999 SCT015 ","updated":"2026-02-20T22:24:23Z"}
