{"icao":"KJFK","taf":"TAF KJFK 261121Z 2612/2718 26006KT P6SM FEW025 BKN100 ","updated":"2025-09-26T13:25:59Z"}
