{"icao":"KJFK","taf":"TAF KJFK 101120Z 1012/1118 35008KT P6SM BKN250 ","updated":"2026-01-10T14:17:59Z"}
