{"icao":"KJFK","taf":"TAF KJFK 070520Z 0706/0812 VRB04KT P6SM SCT250 ","updated":"2025-11-07T06:27:47Z"}
