{"icao":"KLAX","taf":"TAF KLAX 121720Z 1218/1324 VRB03KT P6SM FEW002 ","updated":"2025-12-12T18:30:30Z"}
