{"icao":"LPMR","taf":"TAF TAF LPMR 041705Z 0418/0518 35008KT CAVOK ","updated":"2026-01-04T21:17:42Z"}
