{"icao":"KLAX","taf":"TAF KLAX 021726Z 0218/0324 27010KT P6SM BKN035 BKN200 ","updated":"2026-04-02T20:34:00Z"}
