{"icao":"LPPD","taf":"TAF LPPD 291700Z 2918/3018 21012KT 9999 SCT006 SCT012 ","updated":"2026-05-29T21:05:40Z"}
