{"icao":"KLAX","taf":"TAF KLAX 111138Z 1112/1218 VRB03KT P6SM SCT050 ","updated":"2026-04-11T14:36:14Z"}
