{"icao":"LPMR","taf":"TAF TAF LPMR 161707Z 1618/1718 VRB02KT 7000 FEW008 PROB30 ","updated":"2025-10-16T17:15:47Z"}
