{"icao":"LPMT","taf":"TAF LPMT 281102Z 2812/2912 31015KT 9999 SCT018 ","updated":"2025-09-28T12:32:24Z"}
