{"icao":"KJFK","taf":"TAF KJFK 250539Z 2506/2612 03008KT P6SM SCT040 BKN100 BKN150 ","updated":"2026-01-25T08:26:36Z"}
