{"icao":"KJFK","taf":"TAF KJFK 251138Z 2512/2618 05010KT 1/2SM SN OVC007 ","updated":"2026-01-25T12:40:12Z"}
