{"icao":"LPPT","taf":"TAF LPPT 080500Z 0806/0912 24007KT 9999 SCT025 ","updated":"2026-02-08T07:37:37Z"}
