{"icao":"LPFR","taf":"TAF LPFR 100500Z 1006/1106 03010KT CAVOK ","updated":"2026-06-10T05:16:02Z"}
