{"icao":"LPOV","taf":"TAF LPOV 181703Z 1818/1918 34008KT 9999 FEW006 ","updated":"2026-06-18T19:26:39Z"}
