{"icao":"LPPT","taf":"TAF LPPT 071700Z 0718/0824 31015KT CAVOK ","updated":"2026-06-07T22:02:14Z"}
