{"icao":"KJFK","taf":"TAF KJFK 171739Z 1718/1824 15013KT P6SM BKN060 PROB30 1718/1722 6SM -SHRA ","updated":"2026-06-17T18:14:21Z"}
