{"icao":"KORD","taf":"TAF KORD 281730Z 2818/2924 08006KT 3/4SM -RA BR BKN003 OVC007 PROB30 2820/2822 23014G24KT 2SM TSRA BR BKN006 OVC012CB ","updated":"2025-12-28T19:15:18Z"}
