{"icao":"KLAX","taf":"TAF KLAX 020544Z 0206/0312 12004KT P6SM SCT250 ","updated":"2026-02-02T06:02:50Z"}
