{"icao":"KLAX","taf":"TAF KLAX 150527Z 1506/1612 20004KT P6SM OVC120 ","updated":"2026-02-15T06:50:51Z"}
