{"icao":"KORD","taf":"TAF KORD 210531Z 2106/2212 VRB03KT P6SM VCSH SCT060 BKN100 PROB30 2109/2113 3SM SHRA BR BKN030 ","updated":"2025-09-21T06:24:30Z"}
