{"icao":"LPPR","taf":"TAF LPPR 111106Z 1112/1212 18013KT 9999 SCT006 BKN015 ","updated":"2026-01-11T13:28:50Z"}
