{"icao":"KLAX","taf":"TAF KLAX 140526Z 1406/1512 09005KT P6SM -RA SCT025 OVC100 ","updated":"2025-11-14T08:24:52Z"}
