{"icao":"LPPT","taf":"TAF LPPT 240500Z 2406/2512 03007KT CAVOK ","updated":"2026-03-24T08:52:05Z"}
