{"icao":"KORD","taf":"TAF KORD 221720Z 2218/2324 28018G28KT P6SM FEW020 BKN040 PROB30 2223/2303 3SM -SHSN BKN030 ","updated":"2026-01-22T20:26:55Z"}
