{"icao":"KORD","taf":"TAF KORD 271720Z 2718/2824 03010KT P6SM FEW150 SCT300 ","updated":"2026-05-27T19:23:35Z"}
