{"icao":"LPPS","taf":"TAF LPPS 130500Z 1306/1412 06012KT 9999 SCT015 ","updated":"2026-03-13T05:48:18Z"}
