{"icao":"LPBJ","taf":"TAF TAF LPBJ 201705Z 2018/2118 26010KT CAVOK ","updated":"2026-05-20T23:11:59Z"}
