{"icao":"KLAX","taf":"TAF KLAX 311120Z 3112/0118 VRB03KT P6SM SKC ","updated":"2026-01-31T13:40:18Z"}
