{"icao":"LPPT","taf":"TAF LPPT 201700Z 2018/2124 25010KT 9999 SCT035 ","updated":"2026-01-21T04:42:21Z"}
