{"icao":"KORD","taf":"TAF KORD 021126Z 0212/0318 VRB04KT 6SM -SHRA SCT020 BKN035 ","updated":"2025-11-02T13:21:31Z"}
