{"icao":"LPPD","taf":"TAF LPPD 260500Z 2606/2706 VRB05KT 9999 SCT006 SCT012 PROB30 ","updated":"2026-05-26T09:55:20Z"}
