{"icao":"LPMR","taf":"TAF TAF LPMR 021700Z 0218/0318 33008KT 9999 FEW018 ","updated":"2025-10-02T17:12:59Z"}
