{"icao":"KORD","taf":"TAF KORD 221720Z 2218/2324 21011KT P6SM BKN080 ","updated":"2025-11-22T18:24:48Z"}
