{"icao":"LPPR","taf":"TAF LPPR 011700Z 0118/0218 24005KT CAVOK ","updated":"2026-03-01T22:22:23Z"}
