{"icao":"KJFK","taf":"TAF KJFK 261139Z 2612/2718 36011KT P6SM OVC015 ","updated":"2026-01-26T12:45:51Z"}
