{"icao":"LPMT","taf":"TAF LPMT 311103Z 3112/0112 34008KT CAVOK ","updated":"2026-05-31T12:10:35Z"}
