{"icao":"LPFR","taf":"TAF LPFR 260500Z 2606/2706 25005KT 9999 SCT012 BKN020 ","updated":"2025-10-26T09:16:01Z"}
