{"icao":"LPMT","taf":"TAF LPMT 181103Z 1812/1912 36008KT CAVOK PROB40 1903/1909 VRB02KT 4000 BR BKN004 PROB30 1905/1909 0500 FG BKN002 ","updated":"2025-11-18T13:31:01Z"}
