{"icao":"LPMR","taf":"TAF TAF LPMR 030503Z 0306/0406 VRB02KT 9999 BKN007 PROB40 0306/0309 2000 BR BKN004 ","updated":"2025-10-03T10:17:48Z"}
