{"icao":"LPMT","taf":"TAF LPMT 171105Z 1712/1812 28007KT 9999 FEW030 ","updated":"2026-01-17T16:21:49Z"}
