{"icao":"LPMT","taf":"TAF COR LPMT 151704Z 1518/1618 35012KT CAVOK ","updated":"2026-03-15T18:37:15Z"}
