{"icao":"LPFR","taf":"TAF LPFR 241100Z 2412/2512 23013KT CAVOK ","updated":"2026-04-24T11:55:26Z"}
