{"icao":"KORD","taf":"TAF KORD 181120Z 1812/1918 30014G24KT P6SM SCT015 BKN020 PROB30 1812/1814 6SM -RA BKN015 ","updated":"2026-06-18T12:24:21Z"}
