{"icao":"LPAZ","taf":"TAF TAF LPAZ 270500Z 2706/2812 28025G38KT 9999 SCT015 SCT030 PROB30 ","updated":"2026-01-27T06:34:02Z"}
