{"icao":"LPMR","taf":"TAF TAF LPMR 300510Z 3006/3106 14005KT 5000 BR FEW003 PROB30 3006/3008 0500 FG BKN001 ","updated":"2025-12-30T06:31:54Z"}
