{"icao":"KLAX","taf":"TAF KLAX 081139Z 0812/0918 27005KT P6SM SCT015 ","updated":"2025-10-08T13:28:48Z"}
