{"icao":"LPBJ","taf":"TAF TAF LPBJ 010502Z 0106/0206 04010KT CAVOK ","updated":"2026-04-01T10:54:24Z"}
