{"icao":"LPMR","taf":"TAF TAF LPMR 031101Z 0312/0412 13010KT CAVOK PROB40 ","updated":"2025-11-03T12:38:51Z"}
