{"icao":"LPFR","taf":"TAF LPFR 121100Z 1212/1312 18015KT 9999 SCT015 BKN030 ","updated":"2025-11-12T11:16:32Z"}
