{"icao":"KLAX","taf":"TAF KLAX 051722Z 0518/0624 26006KT P6SM OVC008 ","updated":"2026-06-05T17:53:10Z"}
