{"icao":"LPMR","taf":"TAF TAF LPMR 231108Z 2312/2412 33008KT 9999 FEW018 ","updated":"2026-06-23T15:46:10Z"}
