{"icao":"LPAZ","taf":"TAF TAF LPAZ 200500Z 2006/2112 03013KT 9999 SCT025 ","updated":"2025-09-20T11:12:39Z"}
