{"icao":"KJFK","taf":"TAF KJFK 231736Z 2318/2424 27022G32KT P6SM BKN200 ","updated":"2026-01-23T20:25:10Z"}
