{"icao":"LPPR","taf":"TAF LPPR 030500Z 0306/0406 VRB02KT 5000 BR SCT004 ","updated":"2025-10-03T06:25:47Z"}
