{"icao":"LPLA","taf":"TAF LPLA 071708Z 0718/0818 24012KT 7000 -RA SCT008 BKN015 ","updated":"2026-02-07T19:23:03Z"}
