{"icao":"LPPR","taf":"TAF LPPR 181700Z 1818/1918 33007KT CAVOK ","updated":"2026-01-18T21:17:32Z"}
