{"icao":"KJFK","taf":"TAF KJFK 241139Z 2412/2518 32019G33KT P6SM SCT040 ","updated":"2025-12-24T14:19:10Z"}
