{"icao":"LPMT","taf":"TAF LPMT 160506Z 1606/1706 25010KT 9999 SCT030 ","updated":"2025-11-16T06:26:29Z"}
