{"icao":"LPAZ","taf":"TAF TAF LPAZ 301100Z 3012/0118 18013KT 9999 SCT015 SCT035 PROB30 ","updated":"2025-09-30T14:18:37Z"}
