{"icao":"LPPD","taf":"TAF LPPD 310704Z 3107/0106 23005KT 2000 DZ BR SCT002 BKN004 ","updated":"2026-05-31T10:14:23Z"}
