{"icao":"LPPR","taf":"TAF LPPR 060500Z 0606/0706 01008KT CAVOK ","updated":"2026-01-06T07:24:30Z"}
