{"icao":"LPPD","taf":"TAF LPPD 121700Z 1218/1318 21008KT 9999 FEW018 BKN035 ","updated":"2026-06-12T21:42:13Z"}
