{"icao":"LPMR","taf":"TAF TAF LPMR 311715Z 3118/0118 20008KT 9999 SCT025 ","updated":"2026-01-31T18:30:34Z"}
