{"icao":"LPPR","taf":"TAF LPPR 240500Z 2406/2506 19008KT 6000 SCT004 ","updated":"2026-06-24T07:38:46Z"}
