{"icao":"LPBJ","taf":"TAF TAF LPBJ 191704Z 1918/2018 33010KT CAVOK ","updated":"2026-02-19T20:30:51Z"}
