{"icao":"LPPT","taf":"TAF LPPT 071700Z 0718/0824 17008KT 9999 SCT025 ","updated":"2026-04-08T02:22:31Z"}
