{"icao":"KORD","taf":"TAF KORD 180520Z 1806/1912 23012G22KT 6SM -SHRA SCT015 BKN035 ","updated":"2026-04-18T07:05:29Z"}
