{"icao":"LPPR","taf":"TAF LPPR 091700Z 0918/1018 19008KT 9999 BKN035 ","updated":"2025-11-10T01:27:02Z"}
