{"icao":"KORD","taf":"TAF KORD 031120Z 0312/0418 29014G25KT P6SM FEW100 ","updated":"2025-11-03T13:30:00Z"}
