{"icao":"KORD","taf":"TAF KORD 061722Z 0618/0724 30009KT 6SM BR SCT008 OVC012 ","updated":"2026-01-06T18:30:33Z"}
