{"icao":"LPOV","taf":"TAF LPOV 241106Z 2412/2512 22010KT 6000 -RA SCT008 BKN015 ","updated":"2025-11-24T14:19:03Z"}
