{"icao":"LPPD","taf":"TAF LPPD 240500Z 2406/2506 03008KT 9999 FEW018 BKN030 ","updated":"2026-03-24T08:52:08Z"}
