{"icao":"LPBJ","taf":"TAF TAF LPBJ 111707Z 1118/1218 24015KT 9999 BKN010 ","updated":"2026-02-11T19:01:27Z"}
