{"icao":"LPAZ","taf":"TAF TAF LPAZ 081100Z 0812/0918 21013KT 9999 FEW012 BKN035 ","updated":"2026-01-08T12:42:55Z"}
