{"icao":"LPMR","taf":"TAF TAF LPMR 071709Z 0718/0818 25020KT 9999 BKN025 ","updated":"2026-02-07T18:33:55Z"}
