{"icao":"LPMT","taf":"TAF LPMT 300509Z 3006/3106 08005KT 0500 FG SCT003 PROB40 3006/3009 0200 FG BKN001 ","updated":"2025-12-30T10:22:06Z"}
