{"icao":"LPLA","taf":"TAF LPLA 211102Z 2112/2212 10008KT 9999 FEW020 SCT035 ","updated":"2025-11-21T14:17:57Z"}
