{"icao":"LPFR","taf":"TAF LPFR 190500Z 1906/2006 VRB02KT CAVOK ","updated":"2026-05-19T08:33:52Z"}
