{"icao":"KJFK","taf":"TAF KJFK 271120Z 2712/2818 27015G25KT P6SM SCT100 ","updated":"2025-11-27T14:19:08Z"}
