{"icao":"KORD","taf":"TAF KORD 071720Z 0718/0824 27014G24KT P6SM FEW250 ","updated":"2025-11-07T19:15:43Z"}
