{"icao":"LPPR","taf":"TAF LPPR 100500Z 1006/1106 08007KT CAVOK ","updated":"2025-10-10T06:26:59Z"}
