{"icao":"LPBJ","taf":"TAF TAF LPBJ 151703Z 1518/1618 24012KT 9999 SCT030 ","updated":"2025-11-15T18:23:23Z"}
