{"icao":"LPMR","taf":"TAF TAF LPMR 110506Z 1106/1206 19008KT 9999 SCT035 ","updated":"2025-12-11T09:24:55Z"}
