{"icao":"LPMT","taf":"TAF LPMT 160508Z 1606/1706 36005KT CAVOK PROB30 1606/1609 BKN012","updated":"2026-04-16T05:29:29Z"}
