{"icao":"LPMR","taf":"TAF LPMR 291111Z 2912/3012 14005KT 9999 FEW025 SCT045 ","updated":"2025-11-29T13:25:14Z"}
