{"icao":"LPPT","taf":"TAF LPPT 080500Z 0806/0912 25005KT 9999 SCT025 ","updated":"2026-05-08T07:27:59Z"}
