{"icao":"LPFR","taf":"TAF LPFR 141700Z 1418/1518 21010KT 9999 SCT020 ","updated":"2026-06-15T00:06:48Z"}
