{"icao":"LPBJ","taf":"TAF TAF LPBJ 060503Z 0606/0706 23008KT 9999 SCT030 PROB30 0606/0609 4000 BCFG BKN004 ","updated":"2025-11-06T08:25:34Z"}
