{"icao":"LPPT","taf":"TAF LPPT 230500Z 2306/2412 36007KT CAVOK ","updated":"2025-09-23T07:17:25Z"}
