{"icao":"KJFK","taf":"TAF KJFK 261739Z 2618/2724 18010KT P6SM FEW050 BKN250 ","updated":"2026-05-26T19:20:41Z"}
