{"icao":"LPPT","taf":"TAF LPPT 161700Z 1618/1724 33013KT CAVOK ","updated":"2026-06-17T00:14:30Z"}
