{"icao":"KLAX","taf":"TAF KLAX 100533Z 1006/1112 VRB03KT P6SM BKN250 ","updated":"2026-02-10T08:54:18Z"}
