{"icao":"LPPR","taf":"TAF LPPR 031100Z 0312/0412 31010KT CAVOK ","updated":"2026-04-03T16:39:04Z"}
