{"icao":"LPOV","taf":"TAF LPOV 071104Z 0712/0812 34015KT CAVOK ","updated":"2026-06-07T16:13:32Z"}
