{"icao":"LPPR","taf":"TAF LPPR 230500Z 2306/2406 16008KT 6000 -RA SCT008 BKN015 ","updated":"2025-11-23T10:17:38Z"}
