{"icao":"LPMA","taf":"TAF LPMA 220500Z 2206/2306 VRB05KT 9999 SCT015 BKN030 PROB40 ","updated":"2026-06-22T06:27:57Z"}
