{"icao":"KORD","taf":"TAF KORD 171734Z 1718/1824 18018G29KT P6SM SCT030 BKN250 ","updated":"2026-04-17T20:09:31Z"}
