{"icao":"LPBJ","taf":"TAF TAF LPBJ 010512Z 0106/0206 32010KT CAVOK ","updated":"2026-06-01T06:01:03Z"}
