{"icao":"KJFK","taf":"TAF KJFK 080527Z 0806/0912 21012KT P6SM -RA OVC060 ","updated":"2025-11-08T07:16:29Z"}
