{"icao":"LPBJ","taf":"TAF TAF LPBJ 221103Z 2212/2312 VRB02KT CAVOK PROB30 2303/2308 2000 BCFG SCT002","updated":"2026-02-22T12:47:22Z"}
