{"icao":"KJFK","taf":"TAF KJFK 271723Z 2718/2824 18012KT P6SM SKC ","updated":"2026-04-27T19:19:15Z"}
