{"icao":"LPFR","taf":"TAF LPFR 070500Z 0706/0806 VRB05KT 9999 FEW015 SCT035 ","updated":"2026-01-07T07:23:46Z"}
