{"icao":"LPMR","taf":"TAF TAF LPMR 270503Z 2706/2806 15005KT 5000 BR SCT003 PROB40 2706/2708 0600 FG BKN002 ","updated":"2025-09-27T05:16:02Z"}
