{"icao":"LPFR","taf":"TAF LPFR 261700Z 2618/2718 21008KT 9999 SCT025 ","updated":"2025-10-27T01:27:54Z"}
