{"icao":"LPMT","taf":"TAF LPMT 161101Z 1612/1712 01006KT CAVOK ","updated":"2026-06-16T15:08:23Z"}
