{"icao":"KORD","taf":"TAF KORD 161728Z 1618/1724 23015G26KT P6SM FEW250 ","updated":"2026-02-16T20:29:33Z"}
