{"icao":"LPMR","taf":"TAF TAF LPMR 250506Z 2506/2606 VRB02KT 2000 BR BKN004 PROB40 2506/2509 0500 FG BKN002 ","updated":"2026-05-25T10:02:04Z"}
