{"icao":"LPMR","taf":"TAF TAF LPMR 040508Z 0406/0506 32008KT 9999 SCT020 BKN030 ","updated":"2026-06-04T08:19:28Z"}
