{"icao":"LPOV","taf":"TAF LPOV 051707Z 0518/0618 31005KT CAVOK ","updated":"2026-06-05T17:52:37Z"}
