{"icao":"LPBJ","taf":"TAF TAF LPBJ 241704Z 2418/2518 18010KT CAVOK ","updated":"2026-05-24T20:03:30Z"}
