{"icao":"LPPS","taf":"TAF LPPS 041100Z 0412/0518 26017KT 9999 SCT013 PROB30 ","updated":"2026-02-04T11:31:57Z"}
