{"icao":"LPOV","taf":"TAF LPOV 020508Z 0206/0306 32005KT 1500 -DZ RA SCT003 BKN006 PROB40 ","updated":"2026-06-02T10:20:40Z"}
