{"icao":"KORD","taf":"TAF KORD 030520Z 0306/0412 32005KT P6SM SCT080 BKN150 ","updated":"2026-01-03T05:21:02Z"}
