{"icao":"KORD","taf":"TAF KORD 291720Z 2918/3024 21014G24KT P6SM BKN040 ","updated":"2026-06-29T19:54:59Z"}
