{"icao":"KLAX","taf":"TAF KLAX 061141Z 0612/0718 06004KT P6SM SKC ","updated":"2026-05-06T14:07:28Z"}
