{"icao":"LPBJ","taf":"TAF TAF LPBJ 111103Z 1112/1212 24015KT 9999 BKN010 ","updated":"2026-02-11T13:07:16Z"}
