{"icao":"KJFK","taf":"TAF KJFK 061141Z 0612/0718 23004KT P6SM FEW050 BKN250 ","updated":"2026-01-06T14:21:35Z"}
