{"icao":"LPPD","taf":"TAF LPPD 130500Z 1306/1406 VRB05KT 9999 SCT018 SCT035 ","updated":"2025-10-13T10:21:00Z"}
