{"icao":"LPPT","taf":"TAF LPPT 161100Z 1612/1718 VRB05KT CAVOK ","updated":"2026-04-16T17:12:37Z"}
