{"icao":"LPBJ","taf":"TAF TAF LPBJ 200509Z 2006/2106 26005KT 4000 BCFG SCT002 PROB40 2006/2009 0200 FG BKN002 ","updated":"2026-01-20T06:34:32Z"}
