{"icao":"LPLA","taf":"TAF LPLA 020509Z 0206/0306 33027KT 9999 SCT025 BKN035 ","updated":"2026-01-02T06:31:29Z"}
