{"icao":"LPPR","taf":"TAF LPPR 071100Z 0712/0812 22005KT 9999 FEW008 SCT012 ","updated":"2025-10-07T12:37:10Z"}
