{"icao":"LPMT","taf":"TAF LPMT 251102Z 2512/2612 27005KT CAVOK","updated":"2026-05-25T13:57:59Z"}
