{"icao":"LPOV","taf":"TAF LPOV 131702Z 1318/1418 19012KT 9999 SCT018 BKN030 ","updated":"2025-11-13T17:17:41Z"}
