{"icao":"LPPD","taf":"TAF LPPD 021745Z 0218/0318 20007KT 9999 SCT004 SCT008 ","updated":"2025-10-02T18:24:43Z"}
