{"icao":"KJFK","taf":"TAF KJFK 011124Z 0112/0218 35012KT 4SM -SN OVC035 ","updated":"2026-03-01T12:45:58Z"}
