{"icao":"LPFR","taf":"TAF LPFR 080500Z 0806/0906 31007KT CAVOK PROB30 0812/0818 20007KT ","updated":"2025-11-08T09:16:37Z"}
