{"icao":"LPAZ","taf":"TAF TAF LPAZ 071100Z 0712/0818 27015KT 8000 SCT012 SCT035 ","updated":"2026-02-07T12:45:39Z"}
