{"icao":"LPMR","taf":"TAF TAF LPMR 281701Z 2818/2918 21012KT 7000 -RA SCT015 BKN035 ","updated":"2026-01-28T20:29:16Z"}
