{"icao":"LPAZ","taf":"TAF TAF LPAZ 180200Z 1802/1906 VRB05KT 9999 SCT006 SCT012 ","updated":"2026-04-18T05:05:09Z"}
