{"icao":"KJFK","taf":"TAF KJFK 300532Z 3006/0112 07005KT P6SM FEW200 BKN250 ","updated":"2025-11-30T07:16:55Z"}
