{"icao":"KORD","taf":"TAF KORD 240520Z 2406/2512 09006KT P6SM SCT050 BKN100 ","updated":"2026-05-24T06:58:22Z"}
