{"icao":"LPBJ","taf":"TAF LPBJ 301702Z 3018/3118 22008KT 9999 SCT040 PROB40 3103/3108 4000 BCFG SCT006 PROB30 ","updated":"2025-10-30T21:16:24Z"}
