{"icao":"LPPD","taf":"TAF LPPD 251100Z 2512/2612 29012KT 9999 FEW015 BKN030 ","updated":"2026-06-25T15:38:32Z"}
