{"icao":"KORD","taf":"TAF KORD 130520Z 1306/1412 22010KT P6SM SCT200 BKN300 ","updated":"2026-01-13T06:32:30Z"}
