{"icao":"LPLA","taf":"TAF LPLA 131703Z 1318/1418 24015G28KT //// SCT015 BKN025 ","updated":"2026-04-13T17:58:28Z"}
