{"icao":"KLAX","taf":"TAF KLAX 280534Z 2806/2912 26010KT P6SM SCT030 ","updated":"2026-05-28T07:56:00Z"}
