{"icao":"LPMT","taf":"TAF LPMT 171103Z 1712/1812 33005KT 9999 SCT025 PROB30 1713/1716 8000 -RA SCT012 BKN016 ","updated":"2026-05-17T15:57:34Z"}
