{"icao":"KORD","taf":"TAF KORD 301720Z 3018/3124 21013G26KT P6SM SKC ","updated":"2026-03-30T17:53:38Z"}
