{"icao":"LPMR","taf":"TAF TAF LPMR 200509Z 2006/2106 17005KT 1500 BR SCT002 PROB40 2006/2009 0200 FG BKN002 ","updated":"2026-01-20T09:31:33Z"}
