{"icao":"LPBJ","taf":"TAF TAF LPBJ 211109Z 2112/2212 20015KT CAVOK ","updated":"2026-04-21T15:11:19Z"}
