{"icao":"KLAX","taf":"TAF KLAX 200542Z 2006/2112 VRB03KT P6SM SCT200 ","updated":"2025-11-20T07:18:21Z"}
