{"icao":"LPPS","taf":"TAF LPPS 300500Z 3006/3112 28007KT 9999 FEW015 BKN030 ","updated":"2025-10-30T11:15:32Z"}
