{"icao":"KJFK","taf":"TAF COR KJFK 041138Z 0412/0518 29009KT P6SM BKN050 BKN250 ","updated":"2026-02-04T14:04:10Z"}
