{"icao":"LPMR","taf":"TAF TAF LPMR 091104Z 0912/1012 16015KT 7000 -RA SCT015 BKN025 ","updated":"2025-12-09T13:34:53Z"}
