{"icao":"KORD","taf":"TAF KORD 161120Z 1612/1718 21012G22KT 3SM -SN BR BKN025 ","updated":"2026-01-16T12:42:13Z"}
