{"icao":"LPPT","taf":"TAF LPPT 130500Z 1306/1412 VRB02KT CAVOK ","updated":"2026-06-13T10:26:41Z"}
