{"icao":"KJFK","taf":"TAF KJFK 271127Z 2712/2818 03015G21KT 6SM BR BKN015 OVC030 PROB30 2712/2715 2SM -SN BKN010 ","updated":"2025-12-27T14:17:39Z"}
