{"icao":"LPMT","taf":"TAF LPMT 241104Z 2412/2512 24008KT 9999 SCT015 BKN025 ","updated":"2025-10-24T15:19:07Z"}
