{"icao":"LPPS","taf":"TAF LPPS 020500Z 0206/0312 VRB05KT 9999 SCT015 ","updated":"2025-11-02T06:25:58Z"}
