{"icao":"LPOV","taf":"TAF LPOV 211710Z 2118/2218 34015KT CAVOK ","updated":"2025-09-22T03:05:57Z"}
