{"icao":"LPBJ","taf":"TAF LPBJ 080506Z 0806/0906 24005KT CAVOK ","updated":"2026-05-08T05:29:07Z"}
