{"icao":"LPAZ","taf":"TAF TAF LPAZ 061700Z 0618/0724 25025KT 6000 -RA SCT012 BKN025 ","updated":"2026-02-06T19:36:51Z"}
