{"icao":"LPBJ","taf":"TAF TAF LPBJ 081110Z 0812/0912 30010KT CAVOK PROB40 ","updated":"2026-06-08T14:46:48Z"}
