{"icao":"LPLA","taf":"TAF TAF LPLA 271723Z 2718/2818 25020G35KT 8000 -RA SCT015 BKN030 ","updated":"2026-01-27T23:20:41Z"}
