{"icao":"LPPR","taf":"TAF LPPR 250500Z 2506/2606 36007KT 9999 SCT040 ","updated":"2025-12-25T09:21:52Z"}
