{"icao":"LPFR","taf":"TAF LPFR 181700Z 1818/1918 14008KT CAVOK ","updated":"2026-04-19T02:34:17Z"}
