{"icao":"KLAX","taf":"TAF KLAX 271120Z 2712/2818 03005KT P6SM SCT250 ","updated":"2025-11-27T13:30:59Z"}
