{"icao":"KJFK","taf":"TAF KJFK 010530Z 0106/0212 29014G23KT P6SM FEW030 SCT250 ","updated":"2025-12-01T08:29:47Z"}
