{"icao":"LPPR","taf":"TAF LPPR 011700Z 0118/0218 19017KT 5000 -RADZ BR SCT004 BKN008 ","updated":"2026-02-01T22:22:49Z"}
