{"icao":"LPMR","taf":"TAF COR TAF COR LPMR 300515Z 3006/3106 17005KT 9999 FEW016 SCT035 PROB40 3006/3008 5000 BR SCT005 ","updated":"2025-10-30T06:27:31Z"}
