{"icao":"LPOV","taf":"TAF LPOV 181101Z 1812/1912 16015KT 9999 FEW030 ","updated":"2025-12-18T15:21:13Z"}
