{"icao":"LPMR","taf":"TAF TAF LPMR 211100Z 2112/2212 24010KT 9999 SCT006 BKN018 ","updated":"2025-10-21T19:15:04Z"}
