{"icao":"KLAX","taf":"TAF KLAX 020557Z 0206/0312 26005KT P6SM OVC010 ","updated":"2026-05-02T07:41:56Z"}
