{"icao":"LPPR","taf":"TAF LPPR 231700Z 2318/2418 31005KT 9999 FEW035 ","updated":"2026-06-23T22:11:02Z"}
