{"icao":"LPMT","taf":"TAF LPMT 181703Z 1818/1918 27008KT CAVOK ","updated":"2026-04-18T20:35:27Z"}
