{"icao":"LPMT","taf":"TAF LPMT 161105Z 1612/1712 36005KT CAVOK","updated":"2026-04-16T15:24:25Z"}
