{"icao":"LPMT","taf":"TAF LPMT 171703Z 1718/1818 34008KT CAVOK ","updated":"2026-04-17T22:45:05Z"}
