{"icao":"LPLA","taf":"TAF LPLA 040508Z 0406/0506 27012KT 9999 FEW007 SCT012 ","updated":"2025-11-04T08:26:37Z"}
