{"icao":"LPLA","taf":"TAF LPLA 290509Z 2906/3006 28008KT 9999 SCT020 BKN035 ","updated":"2026-04-29T06:21:45Z"}
