{"icao":"KLAX","taf":"TAF KLAX 101726Z 1018/1124 24006KT P6SM FEW015 ","updated":"2026-05-10T19:01:34Z"}
