{"icao":"LPFR","taf":"TAF LPFR 271100Z 2712/2812 12013KT CAVOK ","updated":"2026-04-27T13:50:02Z"}
