{"icao":"KJFK","taf":"TAF KJFK 031121Z 0312/0418 VRB05KT P6SM SCT250 ","updated":"2025-10-03T12:35:14Z"}
