{"icao":"KJFK","taf":"TAF KJFK 181120Z 1812/1918 36006KT P6SM SCT250 ","updated":"2025-10-18T13:21:42Z"}
