{"icao":"LPFR","taf":"TAF LPFR 291700Z 2918/3018 28007KT 9999 FEW015 BKN040 ","updated":"2025-11-29T23:16:53Z"}
