{"icao":"LPPT","taf":"TAF LPPT 191100Z 1912/2018 22005KT CAVOK ","updated":"2026-04-19T12:59:23Z"}
