{"icao":"LPPT","taf":"TAF LPPT 271700Z 2718/2824 33012KT CAVOK ","updated":"2026-03-27T21:32:31Z"}
