{"icao":"KORD","taf":"TAF KORD 241120Z 2412/2518 18009KT P6SM BKN120 ","updated":"2026-03-24T11:44:04Z"}
