{"icao":"LPAZ","taf":"TAF TAF LPAZ 131700Z 1318/1424 22010KT 9999 SCT015 BKN035 ","updated":"2026-06-13T22:02:37Z"}
