{"icao":"LPLA","taf":"TAF LPLA 310506Z 3106/0106 25008KT 9999 FEW008 SCT015 BKN025 PROB30 3106/3112 VRB02KT 0500 -DZ FG BKN002 ","updated":"2026-01-31T07:27:22Z"}
