{"icao":"KLAX","taf":"TAF KLAX 010546Z 0106/0212 10008KT P6SM -SHRA OVC050 ","updated":"2026-04-01T07:18:59Z"}
