{"icao":"LPFR","taf":"TAF LPFR 221700Z 2218/2318 10008KT CAVOK ","updated":"2026-02-22T21:22:52Z"}
