{"icao":"LPMT","taf":"TAF LPMT 251704Z 2518/2618 24008KT 9999 SCT015 BKN025 ","updated":"2025-10-25T21:14:35Z"}
