{"icao":"LPPS","taf":"TAF LPPS 211100Z 2112/2218 01010KT 9999 SCT012 BKN030 ","updated":"2025-10-21T16:24:06Z"}
