{"icao":"KORD","taf":"TAF KORD 280523Z 2806/0112 31011G17KT P6SM SCT150 ","updated":"2026-02-28T08:27:46Z"}
