{"icao":"LPPD","taf":"TAF LPPD 190500Z 1906/2006 02010KT 9999 SCT020 ","updated":"2026-01-19T09:32:55Z"}
