{"icao":"KLAX","taf":"TAF KLAX 060528Z 0606/0712 VRB03KT P6SM SCT012 ","updated":"2025-10-06T08:24:21Z"}
