{"icao":"LPPT","taf":"TAF LPPT 151700Z 1518/1624 25010KT 9999 SCT025 ","updated":"2025-11-15T21:14:39Z"}
