{"icao":"KLAX","taf":"TAF KLAX 021946Z 0220/0324 09006KT P6SM -SHRA BKN035 OVC050 ","updated":"2026-01-02T20:21:25Z"}
