{"icao":"KORD","taf":"TAF KORD 150520Z 1506/1612 12005KT 6SM -SHRA VCTS SCT025 BKN040CB ","updated":"2026-04-15T05:22:48Z"}
