{"icao":"LPOV","taf":"TAF LPOV 260504Z 2606/2706 01008KT 9999 SCT025 ","updated":"2025-10-26T10:16:55Z"}
