{"icao":"KLAX","taf":"TAF KLAX 180524Z 1806/1912 09005KT P6SM SCT025 BKN080 ","updated":"2025-11-18T08:25:38Z"}
