{"icao":"KLAX","taf":"TAF KLAX 060527Z 0606/0712 VRB03KT P6SM OVC015 ","updated":"2026-06-06T06:34:22Z"}
