{"icao":"KJFK","taf":"TAF KJFK 200527Z 2006/2112 03010KT P6SM SKC ","updated":"2025-09-20T06:23:53Z"}
