{"icao":"LPPD","taf":"TAF LPPD 281100Z 2812/2912 04010KT 9999 FEW018 BKN035 ","updated":"2026-06-28T14:46:56Z"}
