{"icao":"LPAZ","taf":"TAF LPAZ 161700Z 1618/1724 33015KT 9999 SCT025 ","updated":"2026-01-17T03:21:22Z"}
