{"icao":"LPLA","taf":"TAF LPLA 230600Z 2306/2406 20020KT 9999 -RA SCT12 BKN016 ","updated":"2026-02-23T06:06:03Z"}
