{"icao":"LPAZ","taf":"TAF LPAZ 230500Z 2306/2412 09005KT 9999 SCT020 ","updated":"2025-11-23T08:22:47Z"}
