{"icao":"KLAX","taf":"TAF KLAX 291740Z 2918/3024 25007KT P6SM SKC ","updated":"2026-04-29T19:23:08Z"}
