{"icao":"LPBJ","taf":"TAF TAF LPBJ 080510Z 0806/0906 30007KT CAVOK PROB40 0806/0809 1200 BCFG BKN003 PROB40 0900/0906 0800 FG BKN002","updated":"2025-10-08T07:17:05Z"}
