{"icao":"KLAX","taf":"TAF KLAX 021740Z 0218/0324 25008KT P6SM OVC015 ","updated":"2026-06-02T18:38:04Z"}
