{"icao":"KJFK","taf":"TAF KJFK 290521Z 2906/3012 30012KT P6SM SCT040 SCT150 ","updated":"2026-01-29T07:38:34Z"}
