{"icao":"LPPT","taf":"TAF LPPT 101700Z 1018/1124 23010KT 9999 FEW030 ","updated":"2026-04-10T22:35:40Z"}
