{"icao":"KLAX","taf":"TAF KLAX 091146Z 0912/1018 09010KT P6SM FEW015 ","updated":"2026-03-09T13:00:43Z"}
