{"icao":"LPPD","taf":"TAF LPPD 260500Z 2606/2706 24025KT 8000 SCT008 BKN015 ","updated":"2026-01-26T10:25:22Z"}
