{"icao":"LPBJ","taf":"TAF TAF LPBJ 260508Z 2606/2706 10008KT CAVOK","updated":"2026-05-26T09:55:16Z"}
