{"icao":"LPMT","taf":"TAF LPMT 161706Z 1618/1718 25005KT CAVOK ","updated":"2025-10-17T05:17:04Z"}
