{"icao":"LPFR","taf":"TAF LPFR 261700Z 2618/2718 25015KT 9999 SCT012 BKN030 ","updated":"2026-01-26T22:20:38Z"}
