{"icao":"LPFR","taf":"TAF LPFR 220500Z 2206/2306 31005KT 9999 FEW015 BKN040 ","updated":"2026-04-22T07:44:33Z"}
