{"icao":"LPPR","taf":"TAF LPPR 280500Z 2806/2906 VRB02KT CAVOK ","updated":"2026-03-28T10:30:24Z"}
