{"icao":"LPLA","taf":"TAF LPLA 061701Z 0618/0718 26018G30KT 8000 -RA SCT015 BKN025 ","updated":"2026-02-07T04:07:28Z"}
