{"icao":"LPLA","taf":"TAF LPLA 241107Z 2412/2512 21018G32KT 8000 -RA SCT014 BKN020 ","updated":"2026-04-24T11:55:31Z"}
