{"icao":"KORD","taf":"TAF KORD 220520Z 2206/2312 23005KT P6SM FEW250 ","updated":"2026-04-22T07:44:52Z"}
