{"icao":"LPPT","taf":"TAF LPPT 221100Z 2212/2318 35015KT CAVOK PROB40 ","updated":"2025-09-22T13:27:26Z"}
