{"icao":"KLAX","taf":"TAF KLAX 061125Z 0612/0718 05005KT P6SM SKC ","updated":"2026-03-06T14:36:53Z"}
