{"icao":"KORD","taf":"TAF KORD 291120Z 2912/3018 VRB05KT P6SM SKC ","updated":"2025-09-29T13:28:27Z"}
