{"icao":"KJFK","taf":"TAF KJFK 111122Z 1112/1218 25007KT P6SM FEW250 ","updated":"2026-02-11T13:07:19Z"}
