{"icao":"LPBJ","taf":"TAF COR TAF COR LPBJ 300954Z 3006/3106 22005KT 5000 BR SCT003 PROB40 3006/3010 0200 FG BKN002 ","updated":"2026-01-30T10:32:30Z"}
