{"icao":"KLAX","taf":"TAF KLAX 011131Z 0112/0218 26007KT P6SM BKN015 BKN060 ","updated":"2026-04-01T11:52:29Z"}
