{"icao":"LPOV","taf":"TAF LPOV 061701Z 0618/0718 36006KT 9999 FEW020 SCT040 ","updated":"2026-01-06T20:22:31Z"}
