{"icao":"LPBJ","taf":"TAF TAF LPBJ 221700Z 2218/2318 21015KT 7000 -RA SCT015 BKN020 ","updated":"2026-01-23T03:40:57Z"}
