{"icao":"KLAX","taf":"TAF KLAX 171722Z 1718/1824 08008KT P6SM -SHRA BKN050 ","updated":"2026-02-17T17:55:07Z"}
