{"icao":"LPMR","taf":"TAF TAF LPMR 030508Z 0306/0406 VRB02KT 9999 SCT035 PROB40 0306/0310 3500 BR ","updated":"2025-12-03T10:22:02Z"}
