{"icao":"LPBJ","taf":"TAF TAF LPBJ 180510Z 1806/1906 10005KT CAVOK ","updated":"2026-04-18T08:49:42Z"}
