{"icao":"KLAX","taf":"TAF KLAX 131731Z 1318/1424 12004KT P6SM FEW200 ","updated":"2026-02-13T20:36:43Z"}
