{"icao":"LPBJ","taf":"TAF TAF LPBJ 131104Z 1312/1412 06010KT CAVOK","updated":"2025-12-13T15:17:17Z"}
