{"icao":"KLAX","taf":"TAF KLAX 261123Z 2612/2718 26010KT P6SM SCT025 BKN050 ","updated":"2026-04-26T13:04:35Z"}
