{"icao":"LPMT","taf":"TAF LPMT 071705Z 0718/0818 33008KT 9999 SCT030 ","updated":"2025-11-08T01:19:29Z"}
