{"icao":"KLAX","taf":"TAF KLAX 200522Z 2006/2112 26006KT P6SM FEW250 ","updated":"2025-10-20T08:25:04Z"}
