{"icao":"LPPT","taf":"TAF LPPT 200500Z 2006/2112 29007KT 9999 SCT025 ","updated":"2026-01-20T05:27:21Z"}
