{"icao":"LPMA","taf":"TAF LPMA 180500Z 1806/1906 35010KT 9999 SCT015 PROB30 ","updated":"2025-11-18T10:21:40Z"}
