{"icao":"LPPS","taf":"TAF LPPS 241700Z 2418/2524 36010KT 9999 SCT015","updated":"2025-09-24T21:15:06Z"}
