{"icao":"LPBJ","taf":"TAF TAF LPBJ 301701Z 3018/0118 08008KT CAVOK ","updated":"2025-10-01T01:26:47Z"}
