{"icao":"KLAX","taf":"TAF KLAX 221739Z 2218/2324 08005KT 5SM -SHRA BR SCT018 BKN120 ","updated":"2026-01-22T19:23:53Z"}
