{"icao":"KORD","taf":"TAF KORD 260520Z 2606/2712 13012KT 6SM -DZ BR SCT009 OVC012 ","updated":"2025-12-26T06:31:16Z"}
