{"icao":"KORD","taf":"TAF KORD 171730Z 1718/1824 19014G21KT P6SM SCT100 BKN250 ","updated":"2025-10-17T19:14:13Z"}
