{"icao":"KLAX","taf":"TAF KLAX 031738Z 0318/0424 VRB03KT 3SM HZ SCT005 OVC012 ","updated":"2025-11-03T19:15:13Z"}
