{"icao":"KORD","taf":"TAF KORD 030520Z 0306/0412 23013G22KT P6SM BKN120 WS020/26045KT ","updated":"2025-11-03T08:26:21Z"}
