{"icao":"LPMT","taf":"TAF LPMT 280503Z 2806/2906 11005KT 9999 SCT015 BKN030 ","updated":"2025-10-28T09:19:47Z"}
