{"icao":"KLAX","taf":"TAF KLAX 261720Z 2618/2724 04004KT P6SM SKC ","updated":"2025-11-26T18:23:55Z"}
