{"icao":"LPBJ","taf":"TAF TAF LPBJ 211120Z 2112/2212 33010KT CAVOK ","updated":"2025-09-21T12:32:09Z"}
