{"icao":"LPPD","taf":"TAF LPPD 151700Z 1518/1618 19013KT 9999 SCT015 BKN030 ","updated":"2025-10-15T19:13:58Z"}
