{"icao":"KORD","taf":"TAF KORD 210520Z 2106/2212 19010KT 3SM -SN BR OVC025 ","updated":"2026-01-21T05:27:19Z"}
