{"icao":"LPPR","taf":"TAF LPPR 200500Z 2006/2106 VRB02KT 8000 BKN006 ","updated":"2026-04-20T10:46:43Z"}
