{"icao":"KLAX","taf":"TAF KLAX 121123Z 1212/1318 05004KT P6SM FEW250 ","updated":"2026-01-12T12:44:57Z"}
