{"icao":"KLAX","taf":"TAF KLAX 091132Z 0912/1018 VRB03KT P6SM FEW015 ","updated":"2026-06-09T12:35:45Z"}
