{"icao":"KORD","taf":"TAF KORD 280530Z 2806/2912 15006KT 1SM -SHRADZ BR OVC002 ","updated":"2025-12-28T08:25:51Z"}
