{"icao":"KORD","taf":"TAF KORD 051720Z 0518/0624 21013G20KT P6SM BKN025 OVC080 ","updated":"2026-02-05T20:32:39Z"}
