{"icao":"LPBJ","taf":"TAF TAF LPBJ 261702Z 2618/2718 30012KT CAVOK ","updated":"2026-06-27T02:56:18Z"}
