{"icao":"LPPR","taf":"TAF LPPR 281700Z 2818/2918 22010KT 9999 SCT025 ","updated":"2026-01-29T04:08:21Z"}
