{"icao":"KJFK","taf":"TAF KJFK 231729Z 2318/2424 31014G24KT P6SM SCT250 ","updated":"2026-04-23T19:06:17Z"}
