{"icao":"KORD","taf":"TAF KORD 231720Z 2318/2424 04011KT P6SM FEW025 BKN100 ","updated":"2025-09-23T20:18:58Z"}
