{"icao":"KORD","taf":"TAF KORD 061142Z 0612/0718 25007KT P6SM SCT020 BKN100 ","updated":"2026-06-06T13:39:51Z"}
