{"icao":"LPOV","taf":"TAF LPOV 031107Z 0312/0412 31010KT 9999 SCT030 ","updated":"2026-06-03T13:20:30Z"}
