{"icao":"LPBJ","taf":"TAF TAF LPBJ 280503Z 2806/2906 15006KT 9999 BKN009 PROB40 2806/2809 0200 FG BKN001 ","updated":"2025-10-28T07:17:31Z"}
