{"icao":"LPMA","taf":"TAF LPMA 140500Z 1406/1506 35008KT 9999 SCT015 ","updated":"2026-05-14T06:45:02Z"}
