{"icao":"LPMA","taf":"TAF LPMA 230500Z 2306/2406 02010KT 9999 SCT015 ","updated":"2025-10-23T11:15:43Z"}
