{"icao":"KORD","taf":"TAF KORD 131130Z 1312/1418 27006KT P6SM SCT100 ","updated":"2025-11-13T13:31:42Z"}
