{"icao":"LPLA","taf":"TAF LPLA 051104Z 0512/0612 25015KT 7000 -RA FEW012 BKN016 ","updated":"2025-12-05T12:39:42Z"}
