{"icao":"LPLA","taf":"TAF LPLA 020504Z 0206/0306 15008KT 9999 SCT030 ","updated":"2025-11-02T11:12:58Z"}
