{"icao":"KJFK","taf":"TAF KJFK 050522Z 0506/0612 VRB04KT P6SM FEW007 BKN030 OVC100 ","updated":"2026-03-05T05:46:43Z"}
