{"icao":"KORD","taf":"TAF KORD 080520Z 0806/0912 VRB03KT P6SM FEW080 SCT250 ","updated":"2026-05-08T05:29:10Z"}
