{"icao":"LPPS","taf":"TAF LPPS 221700Z 2218/2324 07010KT 9999 SCT015 BKN030 PROB40 ","updated":"2025-09-22T19:14:06Z"}
