{"icao":"LPBJ","taf":"TAF TAF LPBJ 101702Z 1018/1118 04006KT CAVOK","updated":"2025-10-11T03:25:08Z"}
