{"icao":"LPAR","taf":"TAF LPAR 181107Z 1812/1821 36008KT CAVOK= TAF LPST 181106Z 1812/1821 30008KT CAVOK","updated":"2026-06-18T19:26:57Z"}
