{"icao":"LPBJ","taf":"TAF TAF LPBJ 211100Z 2112/2212 02012KT CAVOK","updated":"2025-11-21T13:27:14Z"}
