{"icao":"KORD","taf":"TAF KORD 171720Z 1718/1824 08005KT P6SM BKN060 BKN090 ","updated":"2025-11-17T19:14:58Z"}
