{"icao":"KJFK","taf":"TAF KJFK 150541Z 1506/1612 21006KT P6SM SCT070 SCT100 BKN250 ","updated":"2026-04-15T07:43:39Z"}
