{"icao":"LPLA","taf":"TAF LPLA 121700Z 1218/1318 28022G35KT 9999 FEW018 SCT035 ","updated":"2026-02-12T22:31:29Z"}
