{"icao":"KORD","taf":"TAF KORD 300520Z 3006/3112 20010KT P6SM SCT050 SCT250 ","updated":"2026-03-30T07:25:45Z"}
