{"icao":"LPFR","taf":"TAF LPFR 241100Z 2412/2512 09010KT 8000 BKN005 ","updated":"2026-02-24T14:48:18Z"}
