{"icao":"KORD","taf":"TAF KORD 191740Z 1918/2024 29014G23KT P6SM SCT040 BKN060 ","updated":"2026-04-19T18:49:58Z"}
