{"icao":"LPMA","taf":"TAF LPMA 041100Z 0412/0512 02010KT 9999 SCT015 ","updated":"2026-04-04T13:52:47Z"}
