{"icao":"LPPD","taf":"TAF LPPD 101100Z 1012/1112 03007KT 9999 SCT012 BKN020 PROB40 1012/1020 14010KT PROB30 ","updated":"2026-06-10T16:56:38Z"}
