{"icao":"LPFR","taf":"TAF LPFR 021700Z 0218/0318 30012KT 9999 SCT025 ","updated":"2025-12-02T20:23:13Z"}
