{"icao":"KJFK","taf":"TAF KJFK 281720Z 2818/2924 28011KT P6SM FEW035 SCT250 ","updated":"2026-01-28T20:29:48Z"}
