{"icao":"LPMR","taf":"TAF LPMR 250513Z 2506/2606 24012KT 8000 -RA SCT015 BKN025 ","updated":"2026-01-25T06:30:11Z"}
