{"icao":"LPMA","taf":"TAF LPMA 021745Z 0218/0318 01010KT 9999 SCT015 SCT030","updated":"2025-10-02T19:13:48Z"}
