{"icao":"KJFK","taf":"TAF KJFK 211124Z 2112/2218 29006KT P6SM SCT025 BKN050 ","updated":"2026-02-21T13:40:47Z"}
