{"icao":"LPPT","taf":"TAF TAF LPPT 091100Z 0912/1018 19018KT 6000 -RADZ SCT004 BKN008 ","updated":"2025-12-09T14:20:41Z"}
