{"icao":"KLAX","taf":"TAF KLAX 091740Z 0918/1024 06005KT P6SM SKC ","updated":"2026-01-09T19:19:04Z"}
