{"icao":"KJFK","taf":"TAF KJFK 240531Z 2406/2512 32020G30KT P6SM SKC ","updated":"2026-01-24T06:30:15Z"}
