{"icao":"KJFK","taf":"TAF KJFK 100527Z 1006/1112 VRB05KT 3SM -SHRA BR BKN008 ","updated":"2025-11-10T06:31:00Z"}
