{"icao":"LPPR","taf":"TAF LPPR 171700Z 1718/1818 12007KT CAVOK ","updated":"2025-12-17T20:22:31Z"}
