{"icao":"LPPT","taf":"TAF LPPT 250500Z 2506/2612 VRB02KT CAVOK ","updated":"2026-03-25T10:47:39Z"}
