{"icao":"LPBJ","taf":"TAF TAF LPBJ 201708Z 2018/2118 31008KT CAVOK PROB30 2106/2109 2000 BCFG SCT002 ","updated":"2025-11-20T23:17:14Z"}
