{"icao":"LPMR","taf":"TAF TAF LPMR 231103Z 2312/2412 03005KT CAVOK ","updated":"2025-09-23T11:14:07Z"}
