{"icao":"LPMA","taf":"TAF LPMA 150500Z 1506/1606 01013KT 9999 SCT015 ","updated":"2026-05-15T06:54:07Z"}
