{"icao":"LPMT","taf":"TAF TAF LPMT 120506Z 1206/1306 28007KT 9999 BKN018 ","updated":"2026-02-12T07:50:52Z"}
