{"icao":"LPPD","taf":"TAF LPPD 231100Z 2312/2412 30015KT 9999 FEW020 SCT035 ","updated":"2026-01-23T12:44:04Z"}
