{"icao":"LPAZ","taf":"TAF TAF LPAZ 291700Z 2918/3024 34010KT 9999 FEW012 BKN018 PROB30 ","updated":"2025-11-30T03:25:37Z"}
