{"icao":"LPMT","taf":"TAF LPMT 280504Z 2806/2906 24028KT 5000 -RA FEW008 SCT012 BKN022 ","updated":"2026-01-28T07:24:51Z"}
