{"icao":"LPMT","taf":"TAF LPMT 041702Z 0418/0518 34010KT CAVOK ","updated":"2025-10-04T20:16:49Z"}
