{"icao":"LPPR","taf":"TAF LPPR 011707Z 0118/0218 29005KT CAVOK ","updated":"2026-05-01T21:51:47Z"}
