{"icao":"KLAX","taf":"TAF KLAX 161724Z 1618/1724 VRB03KT P6SM SKC ","updated":"2025-10-16T18:26:02Z"}
