{"icao":"KLAX","taf":"TAF KLAX 081127Z 0812/0918 VRB03KT P6SM SKC ","updated":"2026-04-08T13:18:12Z"}
