{"icao":"LPOV","taf":"TAF LPOV 132302Z 1400/1424 VRB02KT 9999 FEW025 PROB30 1404/1408 4000 BR BKN004 ","updated":"2025-10-14T04:21:08Z"}
