{"icao":"LPBJ","taf":"TAF TAF LPBJ 301702Z 3018/3118 31010KT CAVOK ","updated":"2026-05-31T07:44:15Z"}
