{"icao":"LPPT","taf":"TAF LPPT 171700Z 1718/1824 30008KT CAVOK ","updated":"2025-10-17T18:23:05Z"}
