{"icao":"LPPT","taf":"TAF LPPT 291100Z 2912/3018 25015KT 6000 -RA SCT004 BKN008 ","updated":"2026-01-29T12:55:07Z"}
