{"icao":"LPPS","taf":"TAF LPPS 051100Z 0512/0618 01013KT 9999 SCT015 ","updated":"2026-06-05T15:51:53Z"}
