{"icao":"LPFR","taf":"TAF LPFR 121700Z 1218/1318 12008KT 9999 BKN025 ","updated":"2026-01-13T03:26:45Z"}
