{"icao":"LPBJ","taf":"TAF TAF LPBJ 211710Z 2118/2218 28012KT CAVOK ","updated":"2026-06-21T18:18:45Z"}
