{"icao":"KORD","taf":"TAF KORD 081126Z 0812/0918 15011KT P6SM SCT050 BKN080 OVC100 ","updated":"2026-04-08T13:18:13Z"}
