{"icao":"KORD","taf":"TAF KORD 131720Z 1318/1424 18012KT P6SM SCT070 ","updated":"2025-09-13T19:11:39Z"}
