{"icao":"LPLA","taf":"TAF LPLA 091700Z 0918/1018 21022KT 9999 SCT014 SCT022 ","updated":"2026-01-10T04:32:56Z"}
