{"icao":"KORD","taf":"TAF KORD 231723Z 2318/2424 26007KT P6SM FEW200 ","updated":"2025-11-23T20:20:24Z"}
