{"icao":"LPMR","taf":"TAF TAF LPMR 241106Z 2412/2512 25010KT 6000 -RA SCT010 BKN015 ","updated":"2025-11-24T16:21:42Z"}
