{"icao":"LPLA","taf":"TAF LPLA 081101Z 0812/0912 23012KT 9999 FEW015 SCT030 PROB30 ","updated":"2026-01-08T15:24:51Z"}
