{"icao":"LPBJ","taf":"TAF TAF LPBJ 031708Z 0318/0418 33010KT CAVOK ","updated":"2026-06-04T03:53:04Z"}
