{"icao":"LPMR","taf":"TAF TAF LPMR 221109Z 2212/2312 33012KT CAVOK ","updated":"2025-09-22T14:18:34Z"}
