{"icao":"LPPD","taf":"TAF LPPD 101100Z 1012/1112 23017KT 9999 SCT015 BKN030 ","updated":"2025-11-10T14:18:47Z"}
