{"icao":"KLAX","taf":"TAF KLAX 100527Z 1006/1112 VRB03KT P6SM SKC ","updated":"2026-01-10T06:29:49Z"}
