{"icao":"KJFK","taf":"TAF KJFK 291724Z 2918/3024 20009KT P6SM FEW060 ","updated":"2026-06-29T17:35:09Z"}
