{"icao":"LPPT","taf":"TAF LPPT 161100Z 1612/1718 34013KT CAVOK ","updated":"2026-05-16T14:54:42Z"}
