{"icao":"LPFR","taf":"TAF LPFR 171100Z 1712/1812 18007KT CAVOK ","updated":"2026-06-17T11:45:48Z"}
