{"icao":"KORD","taf":"TAF KORD 061126Z 0612/0718 31010G20KT P6SM SCT025 BKN040 ","updated":"2026-04-06T13:07:14Z"}
