{"icao":"LPPS","taf":"TAF LPPS 011700Z 0118/0224 01015KT 9999 SCT015 SCT030 ","updated":"2026-07-01T23:13:57Z"}
