{"icao":"LPBJ","taf":"TAF TAF LPBJ 291105Z 2912/3012 31005KT CAVOK ","updated":"2026-06-29T14:46:38Z"}
