{"icao":"LPPT","taf":"TAF LPPT 291700Z 2918/3024 33012KT CAVOK ","updated":"2025-09-29T18:26:15Z"}
