{"icao":"LPPS","taf":"TAF LPPS 270500Z 2706/2812 27010KT 9999 SCT015 ","updated":"2025-09-27T05:16:34Z"}
