{"icao":"LPPT","taf":"TAF LPPT 180500Z 1806/1912 33007KT CAVOK ","updated":"2026-04-18T08:49:39Z"}
