{"icao":"LPPD","taf":"TAF LPPD 230500Z 2306/2406 21007KT 0200 FG VV001 ","updated":"2026-05-23T09:50:42Z"}
