{"icao":"LPPS","taf":"TAF LPPS 231700Z 2318/2424 VRB05KT 9999 SCT015 PROB30 ","updated":"2026-04-23T22:42:09Z"}
