{"icao":"LPLA","taf":"TAF LPLA 061102Z 0612/0712 29015KT 9999 FEW015 SCT025 ","updated":"2025-11-06T14:19:00Z"}
