{"icao":"LPPT","taf":"TAF LPPT 191700Z 1918/2024 34010KT CAVOK ","updated":"2026-02-20T01:59:31Z"}
