{"icao":"LPMR","taf":"TAF TAF LPMR 311708Z 3118/0118 14005KT CAVOK ","updated":"2026-01-01T01:48:51Z"}
