{"icao":"LPMT","taf":"TAF LPMT 301701Z 3018/0118 24008KT CAVOK ","updated":"2025-09-30T18:23:04Z"}
