{"icao":"LPMT","taf":"TAF LPMT 012305Z 0200/0224 04005KT CAVOK ","updated":"2025-10-02T11:13:37Z"}
