{"icao":"KLAX","taf":"TAF KLAX 031140Z 0312/0418 VRB03KT 5SM BR VCFG FEW002 SCT005 ","updated":"2026-02-03T14:06:25Z"}
