{"icao":"KLAX","taf":"TAF COR KLAX 210558Z 2106/2212 24007KT 6SM BR BKN008 ","updated":"2025-09-21T08:19:57Z"}
