{"icao":"LPBJ","taf":"TAF TAF LPBJ 211105Z 2112/2212 19015KT 8000 -RA SCT012 BKN015 ","updated":"2026-01-21T15:30:34Z"}
