{"icao":"KJFK","taf":"TAF KJFK 171720Z 1718/1824 35015G21KT P6SM FEW250 ","updated":"2025-10-17T18:23:27Z"}
