{"icao":"LPPD","taf":"TAF LPPD 170500Z 1706/1806 21008KT 9999 SCT006 SCT012 ","updated":"2026-06-17T06:09:17Z"}
