{"icao":"LPPR","taf":"TAF LPPR 141100Z 1412/1512 31005KT CAVOK ","updated":"2025-10-14T14:18:29Z"}
