{"icao":"LPPS","taf":"TAF LPPS 151100Z 1512/1618 01015KT 9999 SCT014 BKN030 ","updated":"2026-05-15T11:55:13Z"}
