{"icao":"KLAX","taf":"TAF KLAX 140531Z 1406/1512 VRB03KT P6SM SKC ","updated":"2026-02-14T07:32:57Z"}
