{"icao":"LPPR","taf":"TAF LPPR 021100Z 0212/0312 07012KT CAVOK PROB40 0214/0220 35010KT","updated":"2026-07-02T12:56:08Z"}
