{"icao":"LPPT","taf":"TAF LPPT 311100Z 3112/0118 06005KT 0200 FG VV001 ","updated":"2025-12-31T15:19:44Z"}
