{"icao":"KORD","taf":"TAF KORD 211720Z 2118/2224 19012G18KT P6SM SCT120 ","updated":"2026-03-21T17:24:15Z"}
