{"icao":"LPPS","taf":"TAF LPPS 041100Z 0412/0518 13008KT 9999 SCT012 ","updated":"2026-05-04T11:47:12Z"}
