{"icao":"LPPT","taf":"TAF LPPT 051100Z 0512/0618 35017KT CAVOK ","updated":"2026-01-05T13:39:35Z"}
