{"icao":"LPMR","taf":"TAF TAF LPMR 130502Z 1306/1406 36005KT CAVOK PROB30 1306/1308 4000 BR SCT004 ","updated":"2025-09-13T09:34:12Z"}
