{"icao":"LPAZ","taf":"TAF TAF LPAZ 190500Z 1906/2012 35025G38KT 9999 SCT018 BKN030 ","updated":"2026-03-19T07:03:26Z"}
