{"icao":"LPPT","taf":"TAF LPPT 170500Z 1706/1812 35007KT CAVOK ","updated":"2026-04-17T10:54:10Z"}
