{"icao":"LPBJ","taf":"TAF TAF LPBJ 300503Z 3006/0106 VRB02KT 9999 SCT045 PROB30 3006/3008 0200 FG BKN004 ","updated":"2026-04-30T05:57:35Z"}
