{"icao":"KORD","taf":"TAF KORD 290520Z 2906/3012 VRB05KT P6SM SKC ","updated":"2025-09-29T07:18:35Z"}
