{"icao":"LPMA","taf":"TAF LPMA 181700Z 1818/1918 01010KT 9999 SCT015 PROB30 ","updated":"2025-11-18T18:28:12Z"}
