{"icao":"LPLA","taf":"TAF LPLA 140512Z 1406/1506 04008KT 9999 SCT020 BKN035 PROB40 ","updated":"2026-05-14T09:33:07Z"}
