{"icao":"KLAX","taf":"TAF KLAX 230537Z 2306/2412 27012KT P6SM SCT250 ","updated":"2026-04-23T07:49:55Z"}
