{"icao":"KORD","taf":"TAF KORD 130520Z 1306/1412 19022G32KT P6SM VCSH OVC070 ","updated":"2026-03-13T06:52:19Z"}
