{"icao":"LPMT","taf":"TAF LPMT 300508Z 3006/3106 01010KT CAVOK ","updated":"2026-03-30T11:00:31Z"}
