{"icao":"LPPR","taf":"TAF LPPR 151700Z 1518/1618 36012KT CAVOK ","updated":"2026-03-15T19:26:38Z"}
