{"icao":"KLAX","taf":"TAF KLAX 270555Z 2706/2812 VRB03KT 6SM BR OVC012 ","updated":"2025-10-27T07:18:19Z"}
