{"icao":"LPFR","taf":"TAF LPFR 250500Z 2506/2606 26015KT 9999 SCT015 BKN030 ","updated":"2026-01-25T07:20:22Z"}
