{"icao":"LPPR","taf":"TAF LPPR 080500Z 0806/0906 VRB02KT CAVOK ","updated":"2026-03-08T06:40:35Z"}
