{"icao":"KLAX","taf":"TAF KLAX 300529Z 3006/3112 VRB03KT P6SM SKC ","updated":"2026-01-30T06:46:27Z"}
