{"icao":"KORD","taf":"TAF KORD 141125Z 1412/1518 31013G22KT P6SM -SN SCT025 OVC040 ","updated":"2026-01-14T12:43:30Z"}
