{"icao":"LPMT","taf":"TAF LPMT 181109Z 1812/1912 22010KT 9999 FEW015 BKN022 ","updated":"2026-02-18T20:37:29Z"}
