{"icao":"LPFR","taf":"TAF LPFR 131100Z 1312/1412 35010KT CAVOK PROB30 1314/1317 26010KT ","updated":"2025-09-13T14:12:53Z"}
