{"icao":"KORD","taf":"TAF KORD 031726Z 0318/0424 30005KT P6SM OVC070 ","updated":"2026-01-03T19:14:38Z"}
