{"icao":"LPFR","taf":"TAF LPFR 180500Z 1806/1906 31008KT CAVOK ","updated":"2026-05-18T08:01:33Z"}
