{"icao":"LPOV","taf":"TAF LPOV 110504Z 1106/1206 21010KT 2000 -DZ BKN004 BKN012 ","updated":"2026-02-11T10:01:33Z"}
