{"icao":"KJFK","taf":"TAF KJFK 200533Z 2006/2112 28013KT P6SM SKC ","updated":"2026-01-20T06:34:47Z"}
