{"icao":"KORD","taf":"TAF KORD 120520Z 1206/1312 11005KT P6SM FEW030 ","updated":"2025-10-12T07:15:55Z"}
