{"icao":"LPPT","taf":"TAF LPPT 021700Z 0218/0324 33010KT CAVOK ","updated":"2025-10-03T01:16:28Z"}
