{"icao":"LPMA","taf":"TAF LPMA 301700Z 3018/3118 01020G32KT 9999 SCT015 ","updated":"2026-03-30T20:54:21Z"}
