{"icao":"KLAX","taf":"TAF KLAX 291123Z 2912/3018 VRB03KT P6SM SCT015 OVC025 ","updated":"2026-06-29T14:46:58Z"}
