{"icao":"KJFK","taf":"TAF KJFK 160528Z 1606/1712 12018G25KT P6SM SCT012 OVC030 WS020/16050KT ","updated":"2026-03-16T07:15:23Z"}
