{"icao":"KLAX","taf":"TAF KLAX 011742Z 0118/0224 06006KT P6SM SKC ","updated":"2026-02-01T19:23:29Z"}
