{"icao":"KJFK","taf":"TAF KJFK 051735Z 0518/0624 06009KT 3SM -RA BR FEW002 BKN005 OVC010 ","updated":"2026-03-05T18:02:27Z"}
