{"icao":"LPFR","taf":"TAF LPFR 061700Z 0618/0718 32015KT 9999 SCT030 ","updated":"2026-03-07T01:52:19Z"}
