{"icao":"KLAX","taf":"TAF KLAX 030540Z 0306/0412 26008KT P6SM SCT008 ","updated":"2025-10-03T07:16:50Z"}
