{"icao":"LPPT","taf":"TAF LPPT 231100Z 2312/2418 VRB02KT CAVOK ","updated":"2026-03-23T13:04:46Z"}
