{"icao":"LPFR","taf":"TAF LPFR 311700Z 3118/0118 08012KT 9999 FEW010 SCT025 ","updated":"2026-01-01T03:49:05Z"}
