{"icao":"KORD","taf":"TAF KORD 231120Z 2312/2418 33013G22KT P6SM -SN OVC029 ","updated":"2026-02-23T14:43:51Z"}
