{"icao":"LPPD","taf":"TAF LPPD 300500Z 3006/0106 33008KT 9999 FEW012 BKN025 PROB30 ","updated":"2025-11-30T07:16:38Z"}
