{"icao":"LPFR","taf":"TAF LPFR 070500Z 0706/0806 19012KT 9999 SCT015 BKN030 ","updated":"2026-04-07T09:00:36Z"}
