{"icao":"KORD","taf":"TAF KORD 171720Z 1718/1824 19013G22KT P6SM SCT035 BKN200 ","updated":"2026-05-17T19:06:47Z"}
