{"icao":"KORD","taf":"TAF KORD 121720Z 1218/1324 22023G34KT P6SM SCT050 BKN100 ","updated":"2026-04-12T20:34:58Z"}
