{"icao":"LPST","taf":"TAF LPST 051108Z 0512/0521 33010KT 9999 FEW025 ","updated":"2026-05-05T20:06:11Z"}
