{"icao":"LPPS","taf":"TAF LPPS 081700Z 0818/0924 05012KT 9999 SCT015 ","updated":"2025-10-09T02:58:25Z"}
