{"icao":"KORD","taf":"TAF KORD 121720Z 1218/1324 23012KT P6SM BKN250 ","updated":"2026-01-12T17:22:52Z"}
