{"icao":"KJFK","taf":"TAF KJFK 141120Z 1412/1518 19007KT P6SM OVC100 ","updated":"2026-01-14T13:39:34Z"}
