{"icao":"LPLA","taf":"TAF LPLA 131102Z 1312/1412 02010KT 9999 SCT020 BKN030 ","updated":"2026-05-13T16:17:51Z"}
