{"icao":"LPMT","taf":"TAF LPMT 221701Z 2218/2318 21015KT 7000 -RA SCT010 BKN020 ","updated":"2026-01-23T05:26:26Z"}
