{"icao":"KJFK","taf":"TAF KJFK 130524Z 1306/1412 32014KT P6SM FEW050 BKN200 ","updated":"2026-02-13T07:08:44Z"}
