{"icao":"LPPD","taf":"TAF LPPD 010500Z 0106/0206 26007KT 0200 FG VV001 ","updated":"2026-06-01T06:01:16Z"}
