{"icao":"LPFR","taf":"TAF LPFR 151700Z 1518/1618 24008KT CAVOK ","updated":"2026-04-15T23:40:09Z"}
