{"icao":"KORD","taf":"TAF KORD 051720Z 0518/0624 21012G22KT P6SM BKN050 BKN200 ","updated":"2025-12-05T20:21:39Z"}
