{"icao":"LPMR","taf":"TAF TAF LPMR 050502Z 0506/0606 02005KT 9999 FEW028 ","updated":"2026-01-05T08:31:46Z"}
