{"icao":"KLAX","taf":"TAF KLAX 310527Z 3106/0112 VRB03KT P6SM SKC ","updated":"2026-01-31T07:27:39Z"}
