{"icao":"LPOV","taf":"TAF LPOV 061700Z 0618/0718 17012KT 9999 SCT040 ","updated":"2026-04-06T23:34:12Z"}
