{"icao":"LPMR","taf":"TAF TAF LPMR 281702Z 2818/2918 33015KT 9999 SCT025 ","updated":"2025-09-28T22:15:04Z"}
