{"icao":"KJFK","taf":"TAF KJFK 170523Z 1706/1812 34010KT P6SM SKC ","updated":"2025-10-17T08:24:58Z"}
