{"icao":"KLAX","taf":"TAF KLAX 161141Z 1612/1718 09008KT P6SM FEW018 BKN050 OVC250 ","updated":"2026-02-16T13:00:46Z"}
