{"icao":"LPPR","taf":"TAF LPPR 091100Z 0912/1012 32010KT CAVOK ","updated":"2026-04-09T13:47:26Z"}
