{"icao":"LPMA","taf":"TAF LPMA 280500Z 2806/2906 24008KT 9999 SCT015 ","updated":"2025-10-28T08:25:12Z"}
