{"icao":"LPPD","taf":"TAF LPPD 290500Z 2906/3006 02007KT 9999 FEW020 SCT035 PROB40 2911/2919 14010KT","updated":"2026-06-29T05:49:00Z"}
