{"icao":"LPPD","taf":"TAF LPPD 291100Z 2912/3012 25012KT 9999 SCT006 SCT012 ","updated":"2026-04-29T15:54:36Z"}
