{"icao":"LPPR","taf":"TAF LPPR 180500Z 1806/1906 19015KT 8000 SCT006 BKN012 ","updated":"2026-02-18T10:42:28Z"}
