{"icao":"LPMR","taf":"TAF LPMR 081705Z 0818/0918 24010KT 6000 BKN008 ","updated":"2026-01-08T17:25:27Z"}
