{"icao":"LPMT","taf":"TAF LPMT 061101Z 0612/0712 01010KT 9999 FEW020 ","updated":"2026-01-06T12:42:12Z"}
