{"icao":"LPBJ","taf":"TAF TAF LPBJ 311102Z 3112/0112 04008KT CAVOK","updated":"2026-03-31T15:00:09Z"}
