{"icao":"KJFK","taf":"TAF KJFK 181120Z 1812/1918 36005KT P6SM SCT020 BKN050 ","updated":"2025-09-18T12:35:38Z"}
