{"icao":"LPBJ","taf":"TAF TAF LPBJ 051704Z 0518/0618 18005KT CAVOK ","updated":"2026-04-05T23:32:21Z"}
