{"icao":"LPPR","taf":"TAF LPPR 151100Z 1512/1612 21008KT 9999 SCT020 ","updated":"2026-04-15T17:02:30Z"}
