{"icao":"KORD","taf":"TAF KORD 281120Z 2812/2918 07007KT P6SM FEW025 SCT250 ","updated":"2026-06-28T12:14:55Z"}
