{"icao":"LPPT","taf":"TAF LPPT 300500Z 3006/3112 05013KT CAVOK ","updated":"2026-03-30T05:22:48Z"}
