{"icao":"LPMA","taf":"TAF LPMA 050500Z 0506/0606 24012KT 9999 SCT015 ","updated":"2026-02-05T05:54:20Z"}
