{"icao":"KJFK","taf":"TAF KJFK 220529Z 2206/2312 03008KT P6SM BKN040 PROB30 2210/2214 3SM -RASN OVC015 ","updated":"2026-02-22T08:30:48Z"}
