{"icao":"LPMT","taf":"TAF LPMT 232300Z 2400/2424 01006KT CAVOK","updated":"2025-09-24T15:18:21Z"}
