{"icao":"LPOV","taf":"TAF LPOV 160504Z 1606/1706 VRB02KT CAVOK ","updated":"2026-03-16T05:13:15Z"}
