{"icao":"LPMT","taf":"TAF COR TAF COR LPMT 060512Z 0606/0706 34015KT 9999 FEW030 ","updated":"2026-03-06T10:33:17Z"}
