{"icao":"LPLA","taf":"TAF LPLA 041111Z 0412/0512 24015G28KT 8000 -RA SCT012 BKN025 ","updated":"2026-02-04T11:31:55Z"}
