{"icao":"KJFK","taf":"TAF KJFK 121730Z 1218/1324 32020G30KT 4SM -RASN SCT010 OVC025 ","updated":"2026-03-12T18:52:40Z"}
