{"icao":"LPAZ","taf":"TAF TAF LPAZ 090500Z 0906/1012 34012KT 9999 SCT020 ","updated":"2025-11-09T11:13:20Z"}
