{"icao":"LPMT","taf":"TAF TAF LPMT 101112Z 1012/1112 23012KT 8000 -RADZ SCT008 BKN012 ","updated":"2026-02-10T18:00:18Z"}
