{"icao":"KJFK","taf":"TAF KJFK 231732Z 2318/2424 35010KT P6SM -SHRA BKN035 ","updated":"2026-06-23T17:52:08Z"}
