{"icao":"LPMT","taf":"TAF LPMT 141708Z 1418/1518 29010KT 6000 SCT008 BKN014 ","updated":"2026-03-14T22:24:47Z"}
