{"icao":"KORD","taf":"TAF KORD 100554Z 1006/1112 34018G28KT 1SM -SHSN BKN012 OVC020 ","updated":"2025-11-10T06:31:01Z"}
