{"icao":"KJFK","taf":"TAF KJFK 190527Z 1906/2012 VRB03KT P6SM BKN070 ","updated":"2026-03-19T07:03:40Z"}
