{"icao":"KLAX","taf":"TAF KLAX 071125Z 0712/0818 33008KT P6SM SKC ","updated":"2026-03-07T12:44:06Z"}
