{"icao":"LPPR","taf":"TAF LPPR 201100Z 2012/2112 36012KT CAVOK ","updated":"2025-11-20T11:16:39Z"}
