{"icao":"LPFR","taf":"TAF LPFR 151100Z 1512/1612 VRB05KT CAVOK ","updated":"2026-03-15T14:28:29Z"}
