{"icao":"KORD","taf":"TAF KORD 010522Z 0106/0212 03006KT P6SM -SHRA OVC070 ","updated":"2026-06-01T06:01:33Z"}
