{"icao":"LPOV","taf":"TAF LPOV 221100Z 2212/2312 34012KT CAVOK PROB30 ","updated":"2026-05-22T13:30:21Z"}
