{"icao":"LPMT","taf":"TAF TAF LPMT 160508Z 1606/1706 36005KT CAVOK PROB/ 00.0/000.0","updated":"2026-04-16T07:44:05Z"}
