{"icao":"LPPS","taf":"TAF LPPS 130500Z 1306/1412 03012KT 9999 SCT015 SCT030","updated":"2025-09-13T08:57:01Z"}
