{"icao":"KORD","taf":"TAF KORD 030520Z 0306/0412 10005KT P6SM SCT030 BKN150 ","updated":"2026-03-03T08:39:45Z"}
