{"icao":"LPPT","taf":"TAF LPPT 140500Z 1406/1512 29007KT 9999 BKN020 ","updated":"2026-03-14T10:26:40Z"}
