{"icao":"LPMT","taf":"TAF LPMT 291704Z 2918/3018 33010KT CAVOK ","updated":"2026-05-30T02:55:14Z"}
