{"icao":"LPPR","taf":"TAF LPPR 060500Z 0606/0706 20010KT 6000 SCT003 BKN010 ","updated":"2025-12-06T05:17:57Z"}
