{"icao":"KJFK","taf":"TAF KJFK 210520Z 2106/2212 20004KT P6SM BKN040 ","updated":"2025-11-21T07:18:44Z"}
