{"icao":"KLAX","taf":"TAF KLAX 141147Z 1412/1518 10005KT P6SM BKN015 ","updated":"2026-05-14T11:51:07Z"}
