{"icao":"KORD","taf":"TAF KORD 021728Z 0218/0324 29008KT 6SM -SN OVC015 ","updated":"2026-02-02T17:37:21Z"}
