{"icao":"LPPT","taf":"TAF LPPT 161700Z 1618/1724 34013KT CAVOK ","updated":"2026-05-16T21:47:20Z"}
