{"icao":"LPPR","taf":"TAF LPPR 311700Z 3118/0118 32013KT CAVOK ","updated":"2026-05-31T22:05:08Z"}
