{"icao":"LPFR","taf":"TAF LPFR 081700Z 0818/0918 24012KT 9999 SCT012 BKN025 ","updated":"2026-02-08T18:35:24Z"}
