{"icao":"LPPT","taf":"TAF LPPT 281700Z 2818/0124 35012KT CAVOK ","updated":"2026-03-01T04:52:04Z"}
