{"icao":"KORD","taf":"TAF KORD 061720Z 0618/0724 34014G28KT P6SM OVC020 PROB30 0620/0701 4SM -SHSN ","updated":"2026-02-06T17:40:27Z"}
