{"icao":"LPOV","taf":"TAF LPOV 300509Z 3006/3106 18005KT 9999 FEW018 BKN035 PROB30 ","updated":"2025-10-30T05:18:07Z"}
