{"icao":"LPPR","taf":"TAF LPPR 210500Z 2106/2206 26007KT 9999 SCT008 BKN015 ","updated":"2025-10-21T06:27:19Z"}
