{"icao":"KORD","taf":"TAF KORD 011120Z 0112/0218 05011KT P6SM SCT030 BKN150 ","updated":"2026-03-01T13:37:34Z"}
