{"icao":"KJFK","taf":"TAF KJFK 061725Z 0618/0724 18021G28KT 5SM -SHRA SCT025 OVC050 ","updated":"2026-05-06T18:15:27Z"}
