{"icao":"LPST","taf":"TAF LPST 230801Z 2309/2318 13005KT CAVOK","updated":"2026-02-23T22:39:01Z"}
