{"icao":"LPPT","taf":"TAF LPPT 180500Z 1806/1912 33005KT 9999 FEW020 ","updated":"2026-05-18T08:01:33Z"}
