{"icao":"LPMT","taf":"TAF TAF LPMT 310505Z 3106/0106 29005KT 9999 FEW035 ","updated":"2026-01-31T09:26:28Z"}
