{"icao":"LPAZ","taf":"TAF LPAZ 040500Z 0406/0512 27008KT 9999 SCT008 BKN015 ","updated":"2026-03-04T07:36:34Z"}
