{"icao":"KORD","taf":"TAF KORD 181736Z 1818/1924 19009KT P6SM BKN250 ","updated":"2026-05-18T18:50:21Z"}
