{"icao":"KORD","taf":"TAF KORD 011120Z 0112/0218 35007KT P6SM SCT015 SCT025 BKN035 ","updated":"2026-05-01T14:53:49Z"}
