{"icao":"LPPS","taf":"TAF LPPS 191100Z 1912/2018 02007KT 9999 FEW015 BKN030 ","updated":"2025-11-19T12:39:40Z"}
