{"icao":"KJFK","taf":"TAF KJFK 030529Z 0306/0412 VRB04KT P6SM BKN250 ","updated":"2025-11-03T07:18:28Z"}
