{"icao":"LPOV","taf":"TAF LPOV 211122Z 2112/2212 34015KT CAVOK ","updated":"2025-09-21T16:18:56Z"}
