{"icao":"LPPS","taf":"TAF TAF LPPS 040500Z 0406/0512 01015KT 9999 SCT012 SCT030 ","updated":"2026-06-04T08:19:44Z"}
