{"icao":"LPFR","taf":"TAF LPFR 181700Z 1818/1918 26010KT CAVOK ","updated":"2026-06-19T00:24:56Z"}
