{"icao":"LPMR","taf":"TAF TAF LPMR 110506Z 1106/1206 15012KT 9999 SCT020 PROB30 1106/1108 1200 BR BKN002 ","updated":"2025-11-11T05:18:51Z"}
