{"icao":"LPPS","taf":"TAF LPPS 041100Z 0412/0518 03012KT 9999 SCT012 ","updated":"2026-04-04T16:34:42Z"}
