{"icao":"KLAX","taf":"TAF KLAX 090521Z 0906/1012 33012KT P6SM SKC ","updated":"2026-01-09T08:30:05Z"}
