{"icao":"KLAX","taf":"TAF KLAX 030540Z 0306/0412 24008KT P6SM OVC008 ","updated":"2026-05-03T05:58:18Z"}
