{"icao":"LPPT","taf":"TAF LPPT 151700Z 1518/1624 22015KT 2000 RADZ BR SCT002 BKN004 ","updated":"2026-01-15T20:24:20Z"}
