{"icao":"LPPD","taf":"TAF LPPD 211100Z 2112/2212 03007KT 9999 FEW022 ","updated":"2025-09-21T14:13:54Z"}
