{"icao":"KORD","taf":"TAF KORD 110520Z 1106/1212 19011KT P6SM -SHRA VCTS FEW045 SCT060CB OVC100 ","updated":"2026-06-11T05:26:52Z"}
