{"icao":"LPPR","taf":"TAF LPPR 271100Z 2712/2812 30008KT CAVOK PROB40 ","updated":"2026-04-27T13:50:03Z"}
