{"icao":"LPLA","taf":"TAF LPLA 131112Z 1312/1412 24015G28KT 9999 SCT015 BKN025 ","updated":"2026-04-13T14:47:06Z"}
