{"icao":"KLAX","taf":"TAF KLAX 161723Z 1618/1724 VRB03KT P6SM SKC ","updated":"2026-01-16T17:23:58Z"}
