{"icao":"LPPR","taf":"TAF LPPR 121100Z 1212/1312 22010KT 9999 SCT015 SCT025 ","updated":"2026-02-12T11:38:15Z"}
