{"icao":"KORD","taf":"TAF KORD 041730Z 0418/0524 23016G26KT P6SM SCT100 SCT250 ","updated":"2026-05-04T18:13:35Z"}
