{"icao":"KJFK","taf":"TAF KJFK 151733Z 1518/1624 31013G20KT P6SM BKN050 BKN100 ","updated":"2026-05-15T18:21:39Z"}
