{"icao":"KJFK","taf":"TAF KJFK 111120Z 1112/1218 31012G20KT P6SM FEW035 ","updated":"2026-04-11T12:55:33Z"}
