{"icao":"LPPR","taf":"TAF LPPR 061100Z 0612/0712 31005KT 9999 SCT012 BKN018 ","updated":"2026-06-06T11:24:27Z"}
