{"icao":"KJFK","taf":"TAF KJFK 030539Z 0306/0412 35012KT P6SM BKN090 BKN250 ","updated":"2026-05-03T08:06:53Z"}
