{"icao":"LPMR","taf":"TAF TAF LPMR 161704Z 1618/1718 30008KT CAVOK ","updated":"2026-03-16T17:58:37Z"}
