{"icao":"LPOV","taf":"TAF LPOV 210503Z 2106/2206 34005KT CAVOK PROB30 2106/2110 2000 BR BKN004 ","updated":"2025-09-21T08:19:42Z"}
