{"icao":"KORD","taf":"TAF KORD 221727Z 2218/2324 22010KT P6SM SCT045 SCT120 SCT250 ","updated":"2025-09-22T18:24:14Z"}
