{"icao":"LPPD","taf":"TAF LPPD 130500Z 1306/1406 27012KT 9999 FEW025 ","updated":"2025-12-13T07:20:15Z"}
