{"icao":"LPBJ","taf":"TAF TAF LPBJ 301104Z 3012/0112 08008KT CAVOK ","updated":"2025-09-30T12:38:25Z"}
