{"icao":"KORD","taf":"TAF KORD 010539Z 0106/0212 03013G22KT P6SM SCT020 BKN070 ","updated":"2026-04-01T07:19:00Z"}
