{"icao":"LPPS","taf":"TAF LPPS 050500Z 0506/0612 03010KT 9999 FEW015 BKN030 ","updated":"2025-10-05T10:16:26Z"}
