{"icao":"LPPT","taf":"TAF LPPT 130500Z 1306/1412 18015KT 9999 SCT008 BKN015 ","updated":"2026-01-13T06:32:12Z"}
