{"icao":"LPPD","taf":"TAF LPPD 061700Z 0618/0718 12007KT 9999 FEW018 BKN035 ","updated":"2026-01-06T17:22:12Z"}
