{"icao":"KORD","taf":"TAF KORD 031720Z 0318/0424 24008KT P6SM SCT070 ","updated":"2025-10-03T18:24:22Z"}
