{"icao":"LPLA","taf":"TAF LPLA 100503Z 1006/1106 22010KT 9999 FEW025 SCT035 PROB30 ","updated":"2025-11-10T08:27:10Z"}
