{"icao":"LPAZ","taf":"TAF LPAZ 110500Z 1106/1212 VRB05KT 9999 SCT030 ","updated":"2026-03-11T10:37:50Z"}
