{"icao":"LPMA","taf":"TAF TAF LPMA 181100Z 1812/1912 34010KT 9999 SCT015 ","updated":"2026-03-18T16:57:55Z"}
