{"icao":"LPFR","taf":"TAF LPFR 300500Z 3006/0106 VRB02KT 9999 FEW015 BKN030 ","updated":"2025-11-30T07:16:21Z"}
