{"icao":"LPPS","taf":"TAF LPPS 121100Z 1212/1318 20008KT 9999 SCT015 SCT030 ","updated":"2026-02-12T13:04:52Z"}
