{"icao":"LPPD","taf":"TAF LPPD 201700Z 2018/2118 23013KT 8000 SCT004 SCT008 ","updated":"2025-10-20T18:27:07Z"}
