{"icao":"KORD","taf":"TAF KORD 171720Z 1718/1824 06008KT P6SM FEW300 ","updated":"2025-09-17T20:18:52Z"}
