{"icao":"LPOV","taf":"TAF LPOV 011705Z 0118/0218 20008KT 6000 -RA SCT012 BKN018 ","updated":"2026-02-01T17:23:30Z"}
