{"icao":"KJFK","taf":"TAF KJFK 161124Z 1612/1718 16018G29KT 1/2SM SHRA FG OVC004 WS020/16055KT ","updated":"2026-03-16T11:45:19Z"}
