{"icao":"KJFK","taf":"TAF KJFK 130540Z 1306/1412 VRB03KT P6SM FEW015 SCT070 "}
