{"icao":"KJFK","taf":"TAF KJFK 291125Z 2912/3018 30012KT P6SM SKC ","updated":"2025-11-29T14:16:19Z"}
