{"icao":"KLAX","taf":"TAF KLAX 031733Z 0318/0424 10008KT 6SM BR SCT025 OVC040 ","updated":"2026-01-03T21:17:18Z"}
