{"icao":"LPOV","taf":"TAF LPOV 241101Z 2412/2512 30005KT CAVOK ","updated":"2026-03-24T16:08:16Z"}
