{"icao":"KJFK","taf":"TAF KJFK 251127Z 2512/2618 34010KT P6SM FEW060 ","updated":"2025-10-25T12:33:12Z"}
