{"icao":"LPPT","taf":"TAF LPPT 291700Z 2918/3024 35013KT CAVOK PROB30 ","updated":"2026-06-29T22:55:17Z"}
