{"icao":"KLAX","taf":"TAF KLAX 110533Z 1106/1212 25004KT P6SM FEW009 ","updated":"2026-06-11T10:20:52Z"}
