{"icao":"LPAZ","taf":"TAF LPAZ 201700Z 2018/2124 24013KT 8000 SCT004 SCT010 ","updated":"2025-10-20T18:27:07Z"}
