{"icao":"LPPD","taf":"TAF LPPD 101700Z 1018/1118 01010KT 9999 FEW012 SCT020 PROB30 ","updated":"2026-06-10T22:04:36Z"}
