{"icao":"LPMR","taf":"TAF TAF LPMR 261702Z 2618/2718 33008KT 9999 FEW008 ","updated":"2026-04-26T23:37:14Z"}
