{"icao":"KJFK","taf":"TAF KJFK 190527Z 1906/2012 26006KT P6SM SKC ","updated":"2025-09-19T07:16:49Z"}
