{"icao":"LPMA","taf":"TAF LPMA 031100Z 0312/0412 29007KT 9999 SCT015 ","updated":"2026-01-03T13:27:48Z"}
