{"icao":"KORD","taf":"TAF KORD 191120Z 1912/2018 25010KT P6SM SCT100 ","updated":"2026-04-19T12:59:59Z"}
