{"icao":"LPMR","taf":"TAF TAF LPMR 181105Z 1812/1912 32008KT 9999 SCT018 ","updated":"2026-06-18T12:24:04Z"}
