{"icao":"LPMT","taf":"TAF LPMT 011101Z 0112/0212 35008KT CAVOK ","updated":"2026-07-01T15:39:47Z"}
