{"icao":"LPFR","taf":"TAF LPFR 170500Z 1706/1806 02010KT CAVOK ","updated":"2025-12-17T10:22:26Z"}
