{"icao":"LPBJ","taf":"TAF TAF LPBJ 141103Z 1412/1512 VRB02KT 0300 FG NSC ","updated":"2026-01-14T14:24:07Z"}
