{"icao":"KJFK","taf":"TAF KJFK 231141Z 2312/2418 07010KT P6SM VCSH OVC090 ","updated":"2026-05-23T13:22:02Z"}
