{"icao":"LPOV","taf":"TAF LPOV 030503Z 0306/0406 VRB02KT 9999 BKN008 PROB40 0306/0309 3000 BR BKN006 ","updated":"2025-10-03T05:16:50Z"}
