{"icao":"LPAZ","taf":"TAF TAF LPAZ 061100Z 0612/0718 25025KT 6000 -RA SCT012 BKN025 ","updated":"2026-02-06T16:42:01Z"}
