{"icao":"KJFK","taf":"TAF KJFK 251739Z 2518/2624 11012G19KT 5SM -RA BR OVC020 ","updated":"2026-04-25T18:51:03Z"}
