{"icao":"KORD","taf":"TAF KORD 080540Z 0806/0912 12008KT P6SM VCSH BKN060 PROB30 0808/0811 4SM -SHRA BR SCT025 BKN050 ","updated":"2026-06-08T05:48:46Z"}
