{"icao":"LPPD","taf":"TAF LPPD 131700Z 1318/1418 27010KT 9999 SCT025 ","updated":"2026-01-13T18:29:54Z"}
