{"icao":"KJFK","taf":"TAF KJFK 181720Z 1818/1924 30013G22KT P6SM BKN200 ","updated":"2025-11-18T18:28:13Z"}
