{"icao":"KLAX","taf":"TAF KLAX 131120Z 1312/1418 01005KT P6SM SCT025 BKN070 BKN160 ","updated":"2026-04-13T12:01:49Z"}
