{"icao":"LPPR","taf":"TAF LPPR 090500Z 0906/1006 17022KT 5000 -RADZ BR SCT006 BKN015 ","updated":"2025-12-09T07:20:44Z"}
