{"icao":"KJFK","taf":"TAF KJFK 250539Z 2506/2612 33009KT P6SM FEW060 ","updated":"2025-10-25T06:23:55Z"}
