{"icao":"LPMR","taf":"TAF TAF LPMR 050508Z 0506/0606 VRB02KT 0500 FG NSC /IIO 0522/0606 4000 -DZ BR SCT004 BKN010","updated":"2026-04-05T11:28:11Z"}
