{"icao":"LPMR","taf":"TAF TAF LPMR 261701Z 2618/2718 02008KT CAVOK ","updated":"2025-11-26T17:17:16Z"}
