{"icao":"LPAZ","taf":"TAF LPAZ 221100Z 2212/2318 16008KT 9999 SCT015 BKN025 PROB40 ","updated":"2025-09-22T16:22:32Z"}
