{"icao":"LPPS","taf":"TAF LPPS 151700Z 1518/1624 27012KT 9999 SCT015 BKN030 ","updated":"2026-01-15T20:24:24Z"}
