{"icao":"KORD","taf":"TAF KORD 071126Z 0712/0818 09010KT P6SM BKN080 PROB30 0816/0818 VRB10G20KT 2SM TSRA BKN025CB","updated":"2026-06-07T12:19:55Z"}
