{"icao":"LPFR","taf":"TAF LPFR 020500Z 0206/0306 32010KT CAVOK ","updated":"2026-06-02T10:20:39Z"}
