{"icao":"KJFK","taf":"TAF KJFK 201739Z 2018/2124 25013G20KT P6SM SCT050 BKN120 PROB30 2019/2021 5SM TSRA BR BKN050CB ","updated":"2026-05-20T19:23:12Z"}
