{"icao":"KLAX","taf":"TAF KLAX 250531Z 2506/2612 12005KT P6SM SCT040 SCT250 ","updated":"2025-12-25T06:31:43Z"}
