{"icao":"LPMA","taf":"TAF LPMA 101700Z 1018/1118 VRB05KT 9999 SCT015 ","updated":"2025-11-11T03:12:33Z"}
