{"icao":"KORD","taf":"TAF KORD 111140Z 1112/1218 22012KT P6SM SCT010 BKN150 ","updated":"2026-06-11T14:34:17Z"}
