{"icao":"KLAX","taf":"TAF KLAX 210522Z 2106/2212 VRB03KT P6SM SKC ","updated":"2025-10-21T08:25:52Z"}
