{"icao":"LPPT","taf":"TAF TAF LPPT 011700Z 0118/0224 22013KT 5000 -RADZ BR SCT004 BKN008 ","updated":"2026-02-01T21:21:41Z"}
