{"icao":"LPFR","taf":"TAF LPFR 080500Z 0806/0906 32007KT CAVOK ","updated":"2026-06-08T10:50:41Z"}
