{"icao":"LPBJ","taf":"TAF TAF LPBJ 050507Z 0506/0606 31010KT 0700 FG BKN001 ","updated":"2025-10-05T10:16:11Z"}
