{"icao":"LPFR","taf":"TAF LPFR 210500Z 2106/2206 28005KT 9999 SCT006 BKN012 ","updated":"2025-10-21T05:17:35Z"}
