{"icao":"KLAX","taf":"TAF KLAX 231740Z 2318/2424 26006KT P6SM OVC025 ","updated":"2026-05-23T17:59:40Z"}
