{"icao":"KLAX","taf":"TAF KLAX 201722Z 2018/2124 26007KT P6SM SKC ","updated":"2026-05-20T19:23:12Z"}
