{"icao":"LPPR","taf":"TAF LPPR 051700Z 0518/0618 02010KT CAVOK","updated":"2026-01-05T22:19:22Z"}
