{"icao":"LPOV","taf":"TAF LPOV 151101Z 1512/1612 32005KT CAVOK PROB30 ","updated":"2025-10-15T14:18:50Z"}
