{"icao":"LPMA","taf":"TAF LPMA 261700Z 2618/2718 21013KT 9999 SCT015 ","updated":"2025-10-27T03:18:43Z"}
