{"icao":"LPLA","taf":"TAF LPLA 061702Z 0618/0718 19015KT 9999 FEW025 SCT040 ","updated":"2026-03-06T19:32:55Z"}
