{"icao":"LPPD","taf":"TAF LPPD 071700Z 0718/0818 24010KT 9999 SCT015 ","updated":"2025-10-08T03:30:26Z"}
