{"icao":"LPFR","taf":"TAF LPFR 190500Z 1906/2006 02005KT CAVOK ","updated":"2026-04-19T08:53:05Z"}
