{"icao":"LPMR","taf":"TAF TAF LPMR 170507Z 1706/1806 VRB02KT 5000 BR SCT007 PROB40 1706/1709 0400 FG BKN002 ","updated":"2026-04-17T09:16:03Z"}
