{"icao":"KJFK","taf":"TAF KJFK 181121Z 1812/1918 VRB05KT P6SM FEW250 ","updated":"2026-05-18T12:28:13Z"}
