{"icao":"KORD","taf":"TAF KORD 281720Z 2818/2924 07010KT P6SM FEW050 ","updated":"2025-09-28T18:21:40Z"}
