{"icao":"KORD","taf":"TAF KORD 301720Z 3018/3124 34010KT P6SM FEW035 ","updated":"2025-10-30T19:14:52Z"}
