{"icao":"KLAX","taf":"TAF KLAX 091120Z 0912/1018 VRB03KT 6SM BR OVC012 ","updated":"2026-05-09T11:50:46Z"}
