{"icao":"LPMT","taf":"TAF TAF LPMT 170501Z 1706/1806 28005KT 9999 SCT015 BKN025 PROB30 1706/1709 2000 BR BKN004","updated":"2026-02-17T05:56:31Z"}
