{"icao":"LPOV","taf":"TAF LPOV 080509Z 0806/0906 VRB02KT 9999 BKN030 PROB30 0806/0810 2000 -DZ BR SCT003 BKN006 ","updated":"2025-10-08T09:19:08Z"}
