{"icao":"LPLA","taf":"TAF TAF LPLA 211722Z 2118/2218 13008KT 9999 FEW025 SCT035 ","updated":"2025-11-22T04:20:48Z"}
