{"icao":"LPOV","taf":"TAF LPOV 011702Z 0118/0218 32010KT CAVOK ","updated":"2025-10-02T10:17:16Z"}
