{"icao":"LPMT","taf":"TAF LPMT 171703Z 1718/1818 33005KT 9999 SCT025","updated":"2026-05-18T08:01:35Z"}
