{"icao":"LPPT","taf":"TAF LPPT 040500Z 0406/0512 31008KT 9999 SCT020 ","updated":"2026-06-04T08:19:25Z"}
