{"icao":"KJFK","taf":"TAF KJFK 081125Z 0812/0918 31011KT P6SM FEW030 SCT250 ","updated":"2026-01-08T14:24:05Z"}
