{"icao":"KORD","taf":"TAF KORD 041146Z 0412/0518 05009KT 4SM BR BKN004 ","updated":"2026-03-04T12:54:30Z"}
