{"icao":"LPOV","taf":"TAF LPOV 050505Z 0506/0606 01005KT CAVOK ","updated":"2026-06-05T05:15:01Z"}
