{"icao":"LPMR","taf":"TAF TAF LPMR 010512Z 0106/0206 34007KT 9999 FEW008 BKN012 ","updated":"2026-06-01T06:01:02Z"}
