{"icao":"LPPT","taf":"TAF LPPT 301100Z 3012/3118 06005KT 0300 FG VV002 ","updated":"2025-12-30T12:41:27Z"}
