{"icao":"LPFR","taf":"TAF LPFR 061700Z 0618/0718 34008KT CAVOK ","updated":"2026-01-06T20:22:29Z"}
