{"icao":"KJFK","taf":"TAF KJFK 271131Z 2712/2818 34017G25KT P6SM BKN070 ","updated":"2026-03-27T13:04:18Z"}
