{"icao":"KORD","taf":"TAF KORD 061135Z 0612/0718 20009KT P6SM SKC ","updated":"2025-10-06T13:27:35Z"}
