{"icao":"LPPS","taf":"TAF LPPS 051700Z 0518/0624 07015KT 8000 SCT008 BKN015 ","updated":"2026-05-05T21:59:49Z"}
