{"icao":"LPPD","taf":"TAF LPPD 310500Z 3106/0106 23015KT 8000 SCT004 SCT012 ","updated":"2026-01-31T06:37:31Z"}
