{"icao":"KLAX","taf":"TAF KLAX 231735Z 2318/2424 11010KT 4SM BR SCT009 OVC015 ","updated":"2025-12-23T18:29:22Z"}
