{"icao":"LPPR","taf":"TAF LPPR 151700Z 1518/1618 26008KT 9999 SCT020 ","updated":"2026-04-15T20:45:48Z"}
