{"icao":"LPPR","taf":"TAF LPPR 291100Z 2912/3012 19010KT 6000 -RA SCT008 BKN015 ","updated":"2025-11-29T14:15:58Z"}
