{"icao":"KORD","taf":"TAF KORD 270520Z 2706/2812 22020G30KT P6SM SCT040 BKN100 ","updated":"2026-01-27T07:26:30Z"}
