{"icao":"KORD","taf":"TAF KORD 180520Z 1806/1912 VRB03KT P6SM FEW250 ","updated":"2025-09-18T06:26:35Z"}
