{"icao":"LPMA","taf":"TAF LPMA 221100Z 2212/2312 02010KT 9999 SCT015 ","updated":"2026-02-22T16:28:39Z"}
