{"icao":"LPPD","taf":"TAF LPPD 131700Z 1318/1418 VRB05KT 9999 SCT018 SCT035 ","updated":"2025-10-13T22:16:33Z"}
