{"icao":"KORD","taf":"TAF KORD 051120Z 0512/0618 21008KT P6SM SCT100 OVC150 ","updated":"2026-02-05T14:08:24Z"}
