{"icao":"LPFR","taf":"TAF LPFR 151700Z 1518/1618 23012KT CAVOK ","updated":"2026-06-16T03:58:03Z"}
