{"icao":"LPPS","taf":"TAF LPPS 141700Z 1418/1524 36012KT 9999 SCT015 ","updated":"2026-01-14T20:20:24Z"}
