{"icao":"LPMR","taf":"TAF TAF LPMR 011102Z 0112/0212 35008KT 9999 FEW025 BKN040 ","updated":"2025-11-01T13:22:13Z"}
