{"icao":"LPOV","taf":"TAF LPOV 271101Z 2712/2812 02008KT CAVOK ","updated":"2026-03-27T16:53:32Z"}
