{"icao":"LPBJ","taf":"TAF TAF LPBJ 241103Z 2412/2512 11007KT CAVOK ","updated":"2025-09-24T12:36:15Z"}
