{"icao":"LPPR","taf":"TAF LPPR 180500Z 1806/1906 05005KT CAVOK ","updated":"2026-01-18T05:22:33Z"}
