{"icao":"LPMR","taf":"TAF TAF LPMR 190514Z 1906/2006 VRB02KT 6000 FEW020 PROB40 1906/1908 0400 FG BKN002 ","updated":"2025-11-19T06:28:11Z"}
