{"icao":"KORD","taf":"TAF KORD 251120Z 2512/2618 11008KT P6SM FEW040 BKN080 ","updated":"2025-10-25T14:14:56Z"}
