{"icao":"LPLA","taf":"TAF COR LPLA 230611Z 2306/2406 20020KT 8000 -RA SCT12 BKN016 ","updated":"2026-02-23T07:53:36Z"}
