{"icao":"KLAX","taf":"TAF KLAX 090536Z 0906/1012 VRB03KT P6SM SCT250 ","updated":"2026-02-09T06:10:13Z"}
