{"icao":"KLAX","taf":"TAF KLAX 161722Z 1618/1724 25007KT P6SM BKN150 ","updated":"2026-04-16T19:11:00Z"}
