{"icao":"LPPT","taf":"TAF LPPT 300500Z 3006/0112 33015KT 9999 FEW015 PROB30 ","updated":"2026-06-30T09:31:50Z"}
