{"icao":"KJFK","taf":"TAF KJFK 301127Z 3012/0118 15008KT P6SM BKN040 ","updated":"2025-11-30T14:16:34Z"}
