{"icao":"KORD","taf":"TAF KORD 211120Z 2112/2218 30005KT P6SM SKC ","updated":"2025-12-21T14:17:27Z"}
