{"icao":"KJFK","taf":"TAF KJFK 030527Z 0306/0412 32017G25KT P6SM FEW012 OVC040 ","updated":"2025-12-03T08:27:43Z"}
