{"icao":"KLAX","taf":"TAF KLAX 020537Z 0206/0312 VRB03KT 6SM BR OVC006 ","updated":"2025-11-02T08:20:24Z"}
