{"icao":"LPFR","taf":"TAF LPFR 310500Z 3106/0106 VRB05KT CAVOK ","updated":"2026-03-31T08:58:03Z"}
