{"icao":"KJFK","taf":"TAF KJFK 170531Z 1706/1812 21012KT P6SM FEW050 BKN080 PROB30 1710/1712 6SM -SN BR SCT025 BKN035 ","updated":"2026-01-17T06:29:38Z"}
