{"icao":"LPFR","taf":"TAF LPFR 181100Z 1812/1912 10013KT CAVOK ","updated":"2025-10-18T13:21:24Z"}
