{"icao":"LPAZ","taf":"TAF TAF LPAZ 290500Z 2906/3012 27010KT 9999 SCT015 BKN030 PROB30 ","updated":"2026-01-29T05:41:58Z"}
