{"icao":"LPPD","taf":"TAF LPPD 171100Z 1712/1812 34015KT 9999 SCT018 ","updated":"2026-03-17T16:04:29Z"}
