{"icao":"LPMR","taf":"TAF TAF LPMR 211122Z 2112/2212 34015KT 9999 FEW025 ","updated":"2025-09-21T13:20:32Z"}
