{"icao":"LPPR","taf":"TAF LPPR 050500Z 0506/0606 01008KT 9999 BKN045 ","updated":"2026-01-05T08:31:44Z"}
