{"icao":"KLAX","taf":"TAF KLAX 141121Z 1412/1518 07006KT P6SM BKN012 ","updated":"2026-02-14T12:44:40Z"}
