{"icao":"KLAX","taf":"TAF KLAX 311749Z 3118/0124 25010KT P6SM FEW010 ","updated":"2026-05-31T19:37:45Z"}
