{"icao":"KJFK","taf":"TAF KJFK 101124Z 1012/1118 36005KT P6SM SCT140 BKN250 ","updated":"2026-02-10T13:11:21Z"}
