{"icao":"LPFR","taf":"TAF LPFR 070500Z 0706/0806 VRB02KT 9999 FEW015 BKN045 PROB30 ","updated":"2025-12-07T11:14:07Z"}
