{"icao":"LPPS","taf":"TAF LPPS 090500Z 0906/1012 02015KT 9999 SCT012 BKN030 ","updated":"2026-06-09T09:40:28Z"}
