{"icao":"LPLA","taf":"TAF LPLA 181104Z 1812/1912 31010KT 7000 -RA FEW010 BKN020 PROB30 ","updated":"2025-09-18T13:26:09Z"}
