{"icao":"LPMT","taf":"TAF LPMT 290502Z 2906/3006 VRB02KT 9999 BKN040 ","updated":"2025-11-29T05:18:04Z"}
