{"icao":"KORD","taf":"TAF KORD 091720Z 0918/1024 19009KT P6SM BKN150 ","updated":"2026-02-09T17:53:22Z"}
