{"icao":"KORD","taf":"TAF KORD 130520Z 1306/1412 28008KT P6SM SCT250 ","updated":"2025-11-13T07:18:13Z"}
