{"icao":"KORD","taf":"TAF KORD 190520Z 1906/2012 25008KT P6SM SKC ","updated":"2026-04-19T08:53:12Z"}
