{"icao":"LPBJ","taf":"TAF TAF LPBJ 190505Z 1906/2006 30005KT CAVOK ","updated":"2026-01-19T06:36:48Z"}
