{"icao":"LPBJ","taf":"TAF TAF LPBJ 281702Z 2818/2918 27015KT 9999 SCT025 SCT045 ","updated":"2026-01-28T21:27:47Z"}
