{"icao":"LPMR","taf":"TAF TAF LPMR 221702Z 2218/2318 VRB02KT CAVOK ","updated":"2026-02-22T17:23:43Z"}
