{"icao":"LPBJ","taf":"TAF TAF LPBJ 291105Z 2912/3012 27005KT CAVOK ","updated":"2026-05-29T11:27:32Z"}
