{"icao":"LPMT","taf":"TAF LPMT 091707Z 0918/1018 20012KT 9999 FEW020 SCT030 ","updated":"2026-05-09T21:41:25Z"}
