{"icao":"LPLA","taf":"TAF LPLA 250507Z 2506/2606 VRB05KT 9999 SCT008 SCT012 PROB40 2506/2512 4000 -DZRA BR SCT004 BKN008 ","updated":"2026-05-25T10:02:06Z"}
