{"icao":"KORD","taf":"TAF KORD 081130Z 0812/0918 VRB04KT P6SM BKN035 ","updated":"2025-12-08T12:40:42Z"}
