{"icao":"LPMR","taf":"TAF TAF LPMR 240509Z 2406/2506 21005KT 4000 BR BKN002 PROB40 ","updated":"2026-06-24T07:38:49Z"}
