{"icao":"LPMR","taf":"TAF TAF LPMR 311701Z 3118/0118 34012KT CAVOK ","updated":"2026-03-31T17:55:38Z"}
