{"icao":"LPPT","taf":"TAF LPPT 041700Z 0418/0524 33012KT CAVOK ","updated":"2026-01-04T22:18:51Z"}
