{"icao":"LPBJ","taf":"TAF TAF LPBJ 210501Z 2106/2206 36007KT CAVOK PROB30 2106/2109 2000 BCFG SCT002","updated":"2025-11-21T07:18:30Z"}
