{"icao":"LPPR","taf":"TAF LPPR 231700Z 2318/2418 VRB02KT CAVOK ","updated":"2026-02-23T22:39:01Z"}
