{"icao":"LPFR","taf":"TAF LPFR 041700Z 0418/0518 27010KT CAVOK ","updated":"2025-10-04T23:15:02Z"}
