{"icao":"LPAZ","taf":"TAF TAF LPAZ 171700Z 1718/1824 22012KT 9999 SCT008 SCT015 ","updated":"2026-06-17T23:31:24Z"}
