{"icao":"KORD","taf":"TAF KORD 081720Z 0818/0924 17014G24KT P6SM BKN100 ","updated":"2026-01-08T17:25:29Z"}
