{"icao":"KJFK","taf":"TAF KJFK 130533Z 1306/1412 27013G20KT P6SM FEW100 ","updated":"2025-11-13T06:29:18Z"}
