{"icao":"LPFR","taf":"TAF LPFR 130500Z 1306/1406 19017KT 8000 -RA SCT012 BKN025 ","updated":"2026-01-13T09:26:46Z"}
