{"icao":"KORD","taf":"TAF KORD 291120Z 2912/3018 14011KT 1 1/2SM -SN BR FEW008 BKN015 OVC025 ","updated":"2025-11-29T12:35:38Z"}
