{"icao":"LPAZ","taf":"TAF LPAZ 181100Z 1812/1918 34015KT 9999 SCT020 PROB30 ","updated":"2025-12-18T15:21:15Z"}
