{"icao":"KJFK","taf":"TAF KJFK 231736Z 2318/2424 24011KT P6SM BKN040 BKN120 ","updated":"2025-11-23T19:14:24Z"}
