{"icao":"LPPT","taf":"TAF LPPT 161100Z 1612/1718 33013KT CAVOK ","updated":"2026-06-16T15:08:19Z"}
