{"icao":"KJFK","taf":"TAF KJFK 261738Z 2618/2724 22009KT P6SM FEW003 OVC009 ","updated":"2025-11-26T20:20:43Z"}
