{"icao":"LPFR","taf":"TAF LPFR 251100Z 2512/2612 20010KT 9999 FEW012 SCT025 ","updated":"2026-06-25T12:19:03Z"}
