{"icao":"KLAX","taf":"TAF KLAX 131733Z 1318/1424 11005KT 5SM HZ OVC060 ","updated":"2025-11-13T18:26:57Z"}
