{"icao":"KLAX","taf":"TAF KLAX 151139Z 1512/1618 VRB03KT P6SM BKN015 ","updated":"2026-05-15T11:55:13Z"}
