{"icao":"KLAX","taf":"TAF KLAX 281740Z 2818/2924 VRB03KT P6SM BKN250 ","updated":"2026-01-28T19:27:01Z"}
