{"icao":"KJFK","taf":"TAF KJFK 030536Z 0306/0412 08010KT 3SM -DZ BR SCT005 OVC008 ","updated":"2026-04-03T07:06:28Z"}
