{"icao":"KJFK","taf":"TAF KJFK 130532Z 1306/1412 20010KT P6SM SCT100 BKN200 ","updated":"2026-05-13T07:48:06Z"}
