{"icao":"KORD","taf":"TAF KORD 240520Z 2406/2512 VRB03KT P6SM SCT150 BKN250 ","updated":"2026-02-24T07:07:34Z"}
