{"icao":"KORD","taf":"TAF KORD 280520Z 2806/2912 28007KT P6SM SKC ","updated":"2026-01-28T08:30:44Z"}
