{"icao":"KORD","taf":"TAF KORD 201738Z 2018/2124 VRB06KT P6SM VCSH SCT050 OVC100 ","updated":"2025-09-20T18:21:43Z"}
