{"icao":"KLAX","taf":"TAF KLAX 081120Z 0812/0918 07005KT 6SM BR SCT007 ","updated":"2025-11-08T12:33:11Z"}
