{"icao":"KLAX","taf":"TAF KLAX 231738Z 2318/2424 27007KT P6SM OVC020 ","updated":"2026-06-23T17:52:08Z"}
