{"icao":"LPMT","taf":"TAF LPMT 020509Z 0206/0306 36007KT 9999 BKN012 ","updated":"2026-06-02T05:47:07Z"}
