{"icao":"LPPS","taf":"TAF LPPS 151700Z 1518/1624 05013KT 9999 SCT015 BKN030 ","updated":"2025-09-15T19:13:40Z"}
