{"icao":"LPFR","taf":"TAF LPFR 230500Z 2306/2406 06010KT CAVOK ","updated":"2026-05-23T09:50:39Z"}
