{"icao":"LPMT","taf":"TAF LPMT 251102Z 2512/2612 35010KT 9999 FEW040 ","updated":"2025-11-25T15:21:17Z"}
