{"icao":"LPFR","taf":"TAF LPFR 031700Z 0318/0418 25015KT 9999 FEW015 SCT030 ","updated":"2026-02-03T21:32:58Z"}
