{"icao":"LPBJ","taf":"TAF LPBJ 171106Z 1712/1812 VRB02KT CAVOK PROB40 1805/1811 0400 FG BKN002","updated":"2025-12-17T11:19:17Z"}
