{"icao":"LPFR","taf":"TAF LPFR 151100Z 1512/1612 22018KT 8000 -RA SCT008 SCT016 ","updated":"2025-11-15T15:16:35Z"}
