{"icao":"LPPT","taf":"TAF LPPT 221700Z 2218/2324 35015KT CAVOK PROB40 ","updated":"2025-09-22T21:14:45Z"}
