{"icao":"LPBJ","taf":"TAF TAF LPBJ 191101Z 1912/2012 14010KT CAVOK PROB30 2004/2008 0600 FG BKN002","updated":"2025-09-19T17:14:53Z"}
