{"icao":"LPMR","taf":"TAF TAF LPMR 101102Z 1012/1112 21015KT 9999 FEW020 SCT030 ","updated":"2026-05-10T11:50:19Z"}
