{"icao":"LPPT","taf":"TAF LPPT 151100Z 1512/1618 34013KT CAVOK PROB30 ","updated":"2025-09-15T14:18:14Z"}
