{"icao":"LPMT","taf":"TAF LPMT 211110Z 2112/2212 23012KT CAVOK ","updated":"2026-04-21T15:11:19Z"}
