{"icao":"LPOV","taf":"TAF LPOV 090506Z 0906/1006 VRB02KT 7000 BKN006 PROB40 0906/0908 2000 BR BKN004 ","updated":"2025-10-09T05:17:18Z"}
