{"icao":"KLAX","taf":"TAF KLAX 281148Z 2812/0118 VRB03KT P6SM BKN250 ","updated":"2026-02-28T12:42:32Z"}
