{"icao":"LPOV","taf":"TAF LPOV 150504Z 1506/1606 36010KT CAVOK ","updated":"2026-03-15T09:32:35Z"}
