{"icao":"LPAZ","taf":"TAF TAF LPAZ 120500Z 1206/1312 03013KT 9999 SCT020 ","updated":"2026-05-12T06:35:17Z"}
