{"icao":"LPOV","taf":"TAF LPOV 150503Z 1506/1606 VRB02KT 4000 BR BKN008 ","updated":"2025-10-15T09:19:24Z"}
