{"icao":"LPPR","taf":"TAF LPPR 200500Z 2006/2106 17005KT 0200 FG VV001 ","updated":"2025-09-20T10:16:12Z"}
