{"icao":"LPFR","taf":"TAF LPFR 141100Z 1412/1512 32010KT 9999 SCT030 ","updated":"2026-03-14T12:49:27Z"}
