{"icao":"KJFK","taf":"TAF KJFK 241757Z 2418/2524 15013KT P6SM SCT150 ","updated":"2026-04-24T18:50:28Z"}
