{"icao":"LPMR","taf":"TAF TAF LPMR 021708Z 0218/0318 36008KT CAVOK ","updated":"2025-11-02T23:15:33Z"}
