{"icao":"KLAX","taf":"TAF KLAX 121731Z 1218/1324 26012KT P6SM OVC015 ","updated":"2026-05-12T19:49:09Z"}
