{"icao":"LPMT","taf":"TAF LPMT 121702Z 1218/1318 04012KT 8000 -RA SCT025 ","updated":"2025-12-13T14:16:49Z"}
