{"icao":"LPMT","taf":"TAF LPMT 271106Z 2712/2812 28010KT CAVOK ","updated":"2026-06-27T13:39:15Z"}
