{"icao":"KJFK","taf":"TAF KJFK 241740Z 2418/2524 32010KT P6SM FEW060 FEW250 ","updated":"2025-11-24T20:21:58Z"}
