{"icao":"KJFK","taf":"TAF KJFK 281739Z 2818/2924 34015G23KT P6SM BKN070 PROB30 2818/2822 5SM -SHRA BR ","updated":"2026-05-28T18:34:52Z"}
