{"icao":"KJFK","taf":"TAF KJFK 111120Z 1112/1218 28017G28KT P6SM SCT050 ","updated":"2025-11-11T14:19:44Z"}
