{"icao":"LPPT","taf":"TAF LPPT 180500Z 1806/1912 22005KT 9999 BKN020 ","updated":"2026-02-18T08:42:17Z"}
