{"icao":"LPBJ","taf":"TAF TAF LPBJ 091708Z 0918/1018 30007KT CAVOK ","updated":"2025-10-10T04:21:10Z"}
