{"icao":"LPPT","taf":"TAF LPPT 070500Z 0706/0812 23012KT 9999 SCT010 BKN018 ","updated":"2025-11-07T10:19:58Z"}
