{"icao":"LPLA","taf":"TAF LPLA 211109Z 2112/2212 30020KT 9999 FEW022 SCT035 ","updated":"2026-04-21T15:11:21Z"}
