{"icao":"LPPR","taf":"TAF LPPR 131100Z 1312/1412 26005KT CAVOK ","updated":"2025-10-13T16:21:46Z"}
