{"icao":"LPMT","taf":"TAF LPMT 181705Z 1818/1918 30008KT 9999 FEW030 ","updated":"2026-05-19T00:04:25Z"}
