{"icao":"LPMR","taf":"TAF TAF LPMR 301703Z 3018/3118 VRB02KT 9999 FEW025 ","updated":"2025-12-31T04:37:01Z"}
