{"icao":"KLAX","taf":"TAF KLAX 231121Z 2312/2418 VRB03KT P6SM OVC022 ","updated":"2026-05-23T13:22:02Z"}
