{"icao":"KJFK","taf":"TAF KJFK 131738Z 1318/1424 22011KT P6SM FEW100 SCT250 ","updated":"2026-01-13T20:24:03Z"}
