{"icao":"LPFR","taf":"TAF LPFR 271100Z 2712/2812 VRB02KT CAVOK ","updated":"2026-02-27T14:00:48Z"}
