{"icao":"KJFK","taf":"TAF KJFK 051120Z 0512/0618 08011KT 1SM -DZ BR BKN003 ","updated":"2026-04-05T11:28:42Z"}
