{"icao":"KORD","taf":"TAF KORD 240520Z 2406/2512 31005KT P6SM FEW040 ","updated":"2025-10-24T06:26:38Z"}
