{"icao":"LPPT","taf":"TAF LPPT 130500Z 1306/1412 32010KT 9999 SCT020 ","updated":"2026-04-13T08:00:57Z"}
