{"icao":"KORD","taf":"TAF KORD 241720Z 2418/2524 33006KT P6SM SKC ","updated":"2025-10-24T20:20:44Z"}
