{"icao":"LPMT","taf":"TAF COR LPMT 270548Z 2706/2806 02010KT CAVOK","updated":"2026-03-27T08:51:28Z"}
