{"icao":"LPFR","taf":"TAF LPFR 131700Z 1318/1418 14010KT CAVOK ","updated":"2026-06-13T22:02:04Z"}
