{"icao":"KLAX","taf":"TAF KLAX 241120Z 2412/2518 29006KT P6SM BKN008 BKN012 ","updated":"2026-06-24T13:21:30Z"}
