{"icao":"LPBJ","taf":"TAF TAF LPBJ 271104Z 2712/2812 12008KT CAVOK ","updated":"2026-05-27T12:19:02Z"}
