{"icao":"KORD","taf":"TAF KORD 171120Z 1712/1818 26014G24KT P6SM SCT025 ","updated":"2026-01-17T14:17:54Z"}
