{"icao":"KJFK","taf":"TAF KJFK 190520Z 1906/2012 26015G24KT P6SM FEW070 SCT250 ","updated":"2026-06-19T06:17:10Z"}
