{"icao":"LPMR","taf":"TAF TAF LPMR 011705Z 0118/0218 21012KT 7000 -RA SCT012 BKN018 ","updated":"2026-02-01T17:23:32Z"}
