{"icao":"LPLA","taf":"TAF LPLA 281107Z 2812/2912 09008KT 9999 FEW022 BKN030 PROB30 ","updated":"2026-03-28T14:30:51Z"}
