{"icao":"LPMT","taf":"TAF LPMT 121704Z 1218/1318 30008KT 9999 FEW015 ","updated":"2026-03-12T19:41:12Z"}
