{"icao":"LPPR","taf":"TAF LPPR 081100Z 0812/0912 26005KT 9999 SCT018 ","updated":"2026-03-08T12:46:00Z"}
