{"icao":"LPMA","taf":"TAF LPMA 170500Z 1706/1806 21010KT 9999 SCT015 ","updated":"2025-10-17T07:18:10Z"}
