{"icao":"LPPR","taf":"TAF LPPR 060500Z 0606/0706 VRB02KT 3000 -RADZ BR SCT002 BKN004 ","updated":"2026-06-06T09:23:57Z"}
