{"icao":"KORD","taf":"TAF KORD 250520Z 2506/2612 36007KT 3SM -SN BKN020 OVC035 ","updated":"2026-01-25T08:26:37Z"}
