{"icao":"LPMR","taf":"TAF TAF LPMR 060507Z 0606/0706 11008KT CAVOK ","updated":"2026-04-06T07:27:58Z"}
