{"icao":"KORD","taf":"TAF KORD 091128Z 0912/1018 15007KT P6SM FEW060 SCT200 ","updated":"2026-02-09T13:06:33Z"}
