{"icao":"LPFR","taf":"TAF LPFR 120500Z 1206/1306 18015KT 9999 SCT015 BKN030 ","updated":"2025-11-12T07:18:16Z"}
