{"icao":"KORD","taf":"TAF KORD 131726Z 1318/1424 27026G44KT P6SM BKN040 ","updated":"2026-03-13T18:41:10Z"}
