{"icao":"LPBJ","taf":"TAF TAF LPBJ 181703Z 1818/1918 18005KT CAVOK PROB40 1818/1820 28012KT ","updated":"2025-09-19T03:35:47Z"}
