{"icao":"LPBJ","taf":"TAF TAF LPBJ 111104Z 1112/1212 VRB02KT CAVOK ","updated":"2026-06-11T14:33:57Z"}
