{"icao":"LPPS","taf":"TAF LPPS 010500Z 0106/0212 24008KT 9999 SCT015 ","updated":"2026-05-01T06:15:37Z"}
