{"icao":"LPPT","taf":"TAF LPPT 231700Z 2318/2424 33013KT CAVOK ","updated":"2025-09-24T01:17:52Z"}
