{"icao":"LPMR","taf":"TAF TAF LPMR 130503Z 1306/1406 17012KT 9999 SCT010 BKN025 ","updated":"2026-01-13T05:24:26Z"}
