{"icao":"LPLA","taf":"TAF TAF COR LPLA 060510Z 0606/0706 29015G28KT 8000 -RA SCT015 BKN025 ","updated":"2026-02-06T08:39:55Z"}
