{"icao":"LPPS","taf":"TAF LPPS 010500Z 0106/0212 27007KT 9999 SCT012 SCT030 ","updated":"2026-02-01T10:24:25Z"}
