{"icao":"LPMT","taf":"TAF LPMT 021107Z 0212/0312 30012KT 9999 FEW030 PROB30 ","updated":"2025-12-02T15:21:20Z"}
