{"icao":"KLAX","taf":"TAF KLAX 040537Z 0406/0512 VRB03KT P6SM SCT010 ","updated":"2025-11-04T06:28:46Z"}
