{"icao":"KJFK","taf":"TAF KJFK 111120Z 1112/1218 02010KT P6SM SCT050 BKN100 ","updated":"2026-05-11T13:47:23Z"}
