{"icao":"KJFK","taf":"TAF KJFK 241721Z 2418/2524 29012KT P6SM SCT040 SCT060 ","updated":"2025-10-24T18:25:16Z"}
