{"icao":"LPMA","taf":"TAF LPMA 181700Z 1818/1918 01012KT 9999 SCT015 ","updated":"2026-05-19T00:04:56Z"}
