{"icao":"LPMT","taf":"TAF LPMT 160504Z 1606/1706 11005KT CAVOK ","updated":"2025-10-16T09:19:46Z"}
