{"icao":"LPPR","taf":"TAF LPPR 231700Z 2318/2418 VRB02KT CAVOK ","updated":"2026-02-24T02:00:30Z"}
