{"icao":"KJFK","taf":"TAF KJFK 140539Z 1406/1512 26006KT 2SM -SN OVC025 ","updated":"2025-12-14T08:24:26Z"}
