{"icao":"KORD","taf":"TAF KORD 151120Z 1512/1618 24009KT P6SM FEW200 ","updated":"2026-06-15T13:11:28Z"}
