{"icao":"LPAZ","taf":"TAF TAF LPAZ 270500Z 2706/2812 14008KT 9999 SCT006 SCT012 ","updated":"2026-04-27T08:22:38Z"}
