{"icao":"KJFK","taf":"TAF KJFK 060532Z 0606/0712 31017G25KT P6SM SCT050 ","updated":"2026-04-06T07:28:29Z"}
