{"icao":"KLAX","taf":"TAF KLAX 131126Z 1312/1418 10008KT P6SM BKN015 ","updated":"2025-10-13T12:37:24Z"}
