{"icao":"LPBJ","taf":"TAF TAF LPBJ 271111Z 2712/2812 09005KT CAVOK ","updated":"2026-04-27T15:46:47Z"}
