{"icao":"LPMA","taf":"TAF LPMA 271100Z 2712/2812 02013KT 9999 SCT015 ","updated":"2025-11-27T11:17:03Z"}
