{"icao":"LPPT","taf":"TAF LPPT 101100Z 1012/1118 24008KT 9999 SCT012 BKN020 ","updated":"2025-11-10T15:20:48Z"}
