{"icao":"KLAX","taf":"TAF KLAX 101733Z 1018/1124 25010KT P6SM SCT015 ","updated":"2026-06-10T19:38:57Z"}
